{"WRESTLING": [{"ein": "010853273", "name": "EDGEMONT WRESTLING CLUB INC", "city": "SCARSDALE", "state": "NY", "zip": "10583-3134", "ntee": "N11", "ruling": "200711", "deductibility": "1", "assets": 0, "income": 0, "revenue": 0}, {"ein": "010911427", "name": "BALDWINSVILLE WRESTLING BOOSTER CLUB INC", "city": "BALDWINSVILLE", "state": "NY", "zip": "13027-0000", "ntee": "N60", "ruling": "201004", "deductibility": "1", "assets": 0, "income": 0, "revenue": 0}, {"ein": "113604535", "name": "FRIENDS OF GARDEN CITY WRESTLING CORP", "city": "GARDEN CITY", "state": "NY", "zip": "11530-6514", "ntee": "N60", "ruling": "200106", "deductibility": "1", "assets": 0, "income": 0, "revenue": 0}, {"ein": "113636098", "name": "FARMINGDALE WRESTLING ALUMNI INC", "city": "FARMINGDALE", "state": "NY", "zip": "11735-6827", "ntee": "B82", "ruling": "201808", "deductibility": "1", "assets": 97642, "income": 45134, "revenue": 45134}, {"ein": "161373567", "name": "NEW YORK USA WRESTLING INC", "city": "FAIRPORT", "state": "NY", "zip": "14450-1720", "ntee": "N60", "ruling": "202209", "deductibility": "1", "assets": 442176, "income": 411421, "revenue": 0}, {"ein": "202599861", "name": "SALAMANCA YOUTH WRESTLING INC", "city": "SALAMANCA", "state": "NY", "zip": "14779-0392", "ntee": "N11", "ruling": "201605", "deductibility": "1", "assets": 0, "income": 0, "revenue": 0}, {"ein": "202757227", "name": "HAUPPAUGE WRESTLING CLUB INC", "city": "SMITHTOWN", "state": "NY", "zip": "11787-4411", "ntee": "N60", "ruling": "202401", "deductibility": "1", "assets": 0, "income": 0, "revenue": 0}, {"ein": "203725136", "name": "FINGER LAKES WRESTLING CLUB INC", "city": "ITHACA", "state": "NY", "zip": "14853-0000", "ntee": "N60", "ruling": "200707", "deductibility": "1", "assets": 1059735, "income": 766858, "revenue": 359137}, {"ein": "208046936", "name": "FINGER LAKES YOUTH WRESTLING LEAGUEINC", "city": "SHORTSVILLE", "state": "NY", "zip": "14548-0147", "ntee": "N70", "ruling": "202302", "deductibility": "1", "assets": 6908, "income": 1, "revenue": 0}, {"ein": "223462682", "name": "NIAGARA FALLS WRESTLING CLUB INC", "city": "NIAGARA FALLS", "state": "NY", "zip": "14303-1926", "ntee": "N70", "ruling": "201406", "deductibility": "1", "assets": 0, "income": 0, "revenue": 0}, {"ein": "262381036", "name": "FRIENDS OF SECTION III WRESTLING INC", "city": "CANASTOTA", "state": "NY", "zip": "13032-1447", "ntee": "B11", "ruling": "201210", "deductibility": "1", "assets": 0, "income": 0, "revenue": 0}, {"ein": "263058513", "name": "KINGS PARK WRESTLING CLUB INC", "city": "AMITYVILLE", "state": "NY", "zip": "11701-3913", "ntee": "N60", "ruling": "200909", "deductibility": "1", "assets": 31909, "income": 26272, "revenue": 26272}, {"ein": "263292006", "name": "CNS WRESTLING BOOSTER CLUB", "city": "CLAY", "state": "NY", "zip": "13041-0317", "ntee": "N60", "ruling": "201411", "deductibility": "1", "assets": 0, "income": 0, "revenue": 0}, {"ein": "264704582", "name": "SUFFOLK COUNTY WRESTLING COACHES ASSOCIATION INC", "city": "ROCKY POINT", "state": "NY", "zip": "11778-8929", "ntee": "N70", "ruling": "201410", "deductibility": "1", "assets": 271805, "income": 88504, "revenue": 88504}, {"ein": "270751983", "name": "CANASTOTA YOUTH WRESTLING CLUB INC", "city": "CANASTOTA", "state": "NY", "zip": "13032-4016", "ntee": "N68", "ruling": "201302", "deductibility": "1", "assets": 0, "income": 0, "revenue": 0}, {"ein": "272467192", "name": "GOLDEN KNIGHTS WRESTLING CLUB INC", "city": "BARNEVELD", "state": "NY", "zip": "13304-2526", "ntee": "N60", "ruling": "201411", "deductibility": "1", "assets": 0, "income": 0, "revenue": 0}, {"ein": "272671003", "name": "WARRIOR WRESTLING ASSOCIATION INC", "city": "KATONAH", "state": "NY", "zip": "10536-3430", "ntee": "N70", "ruling": "201011", "deductibility": "1", "assets": 0, "income": 0, "revenue": 0}, {"ein": "273705991", "name": "PATRIOT WRESTLING BOOSTER CLUB INC", "city": "SETAUKET", "state": "NY", "zip": "11733-0149", "ntee": "B90", "ruling": "201107", "deductibility": "1", "assets": 0, "income": 0, "revenue": 0}, {"ein": "311770763", "name": "LONG BEACH USA WRESTLING CLUB", "city": "MERRICK", "state": "NY", "zip": "11566-2924", "ntee": "N60", "ruling": "200109", "deductibility": "1", "assets": 0, "income": 0, "revenue": 0}, {"ein": "331027998", "name": "LONG ISLAND WRESTLING ASSOCIATION INC", "city": "OYSTER BAY", "state": "NY", "zip": "11771-1821", "ntee": "N60", "ruling": "200303", "deductibility": "1", "assets": 10064, "income": 2500, "revenue": 2500}, {"ein": "331298366", "name": "NORTH TONAWANDA YOUTH WRESTLING CLUB INC", "city": "N TONAWANDA", "state": "NY", "zip": "14120-2830", "ntee": "N60", "ruling": "202505", "deductibility": "1", "assets": 0, "income": 0, "revenue": 0}, {"ein": "331323177", "name": "SEA RAY WRESTLING CLUB INC", "city": "BABYLON", "state": "NY", "zip": "11702-3423", "ntee": "N99", "ruling": "202410", "deductibility": "1", "assets": 0, "income": 0, "revenue": 0}, {"ein": "331349356", "name": "QUAKER WRESTLING INC", "city": "ORCHARD PARK", "state": "NY", "zip": "14127-2070", "ntee": "N60", "ruling": "202412", "deductibility": "1", "assets": 0, "income": 0, "revenue": 0}, {"ein": "331588587", "name": "ALEXANDER PEMBROKE BOYS WRESTLING CLUB", "city": "CORFU", "state": "NY", "zip": "14036-9306", "ntee": "N60", "ruling": "202501", "deductibility": "1", "assets": 0, "income": 0, "revenue": 0}, {"ein": "331790035", "name": "ITHACA WRESTLING CLUB INC", "city": "ITHACA", "state": "NY", "zip": "14850-6216", "ntee": "N60", "ruling": "202411", "deductibility": "1", "assets": 0, "income": 0, "revenue": 0}, {"ein": "331865955", "name": "KID WRESTLING INC", "city": "BAY SHORE", "state": "NY", "zip": "11706-6332", "ntee": "N60", "ruling": "202411", "deductibility": "1", "assets": 6985, "income": 12498, "revenue": 12498}, {"ein": "331910471", "name": "CANASTOTA RAIDER WRESTLING CLUB", "city": "CANASTOTA", "state": "NY", "zip": "13032-1037", "ntee": "N60", "ruling": "202411", "deductibility": "1", "assets": 0, "income": 0, "revenue": 0}, {"ein": "332458956", "name": "SLEEPY HOLLOW WRESTLING", "city": "OSSINING", "state": "NY", "zip": "10562-2435", "ntee": "O12", "ruling": "202504", "deductibility": "1", "assets": 0, "income": 0, "revenue": 0}, {"ein": "332654494", "name": "LIVERPOOL LEGENDS WRESTLING INC", "city": "BALDWINSVILLE", "state": "NY", "zip": "13027-9843", "ntee": "N12", "ruling": "202501", "deductibility": "1", "assets": 0, "income": 0, "revenue": 0}, {"ein": "333141932", "name": "GPS WRESTLING BOOSTER CLUB INC", "city": "NEW ROCHELLE", "state": "NY", "zip": "10804-3030", "ntee": "N60", "ruling": "202502", "deductibility": "1", "assets": 0, "income": 0, "revenue": 0}, {"ein": "334308522", "name": "TITANS WRESTLING CLUB OF BUFFALO INC", "city": "BUFFALO", "state": "NY", "zip": "14207-0282", "ntee": "N99", "ruling": "202506", "deductibility": "1", "assets": 0, "income": 0, "revenue": 0}, {"ein": "376441657", "name": "BRAVES WRESTLING FOUNDATION", "city": "MORICHES", "state": "NY", "zip": "11955-1020", "ntee": "N60", "ruling": "201309", "deductibility": "1", "assets": 0, "income": 0, "revenue": 0}, {"ein": "431975716", "name": "WAYNE BOOSTER CLUB WRESTLING DIVISION", "city": "ONTARIO", "state": "NY", "zip": "14519-0283", "ntee": "N68", "ruling": "202306", "deductibility": "1", "assets": 0, "income": 0, "revenue": 0}, {"ein": "450824988", "name": "WEST POINT WRESTLING CLUB", "city": "WEST POINT", "state": "NY", "zip": "10996-0197", "ntee": "N60", "ruling": "201206", "deductibility": "1", "assets": 206541, "income": 183780, "revenue": 158288}, {"ein": "453551440", "name": "MONROE WOODBURY WRESTLING BOOSTER CLUB INC", "city": "MONROE", "state": "NY", "zip": "10950-3960", "ntee": "B11", "ruling": "201802", "deductibility": "1", "assets": 0, "income": 0, "revenue": 0}, {"ein": "453637808", "name": "NEW YORK WRESTLING ASSOCIATION FOR YOUTH INC", "city": "ITHACA", "state": "NY", "zip": "14850-3458", "ntee": "O20", "ruling": "201311", "deductibility": "1", "assets": 414442, "income": 554814, "revenue": 554814}, {"ein": "461219513", "name": "BEARCAT WRESTLING CLUB INC", "city": "BINGHAMTON", "state": "NY", "zip": "13905-2418", "ntee": "N70", "ruling": "201407", "deductibility": "1", "assets": 40098, "income": 45887, "revenue": 45887}, {"ein": "463968610", "name": "NEW HARTFORD WRESTLING CLUB", "city": "SAUQUOIT", "state": "NY", "zip": "13456-3223", "ntee": "N60", "ruling": "201504", "deductibility": "1", "assets": 0, "income": 0, "revenue": 0}, {"ein": "464390395", "name": "LARCHMONT MAMARONECK YOUTH WRESTLING ASSOCIATION INC", "city": "LARCHMONT", "state": "NY", "zip": "10538-1735", "ntee": "N60", "ruling": "201506", "deductibility": "1", "assets": 0, "income": 0, "revenue": 0}, {"ein": "465713789", "name": "BROOKLYN TECH ALUMNI AND PARENTS WRESTLING ASSOCIATION INC", "city": "NEW YORK", "state": "NY", "zip": "10013-2499", "ntee": "N60", "ruling": "202203", "deductibility": "1", "assets": 0, "income": 0, "revenue": 0}, {"ein": "471633000", "name": "FRIENDS OF LIONS WRESTLING INC", "city": "STATEN ISLAND", "state": "NY", "zip": "10306-4618", "ntee": "T21", "ruling": "201412", "deductibility": "1", "assets": 0, "income": 0, "revenue": 0}, {"ein": "472754380", "name": "AVERILL PARK WRESTLING ASSOCIATION INC", "city": "POESTENKILL", "state": "NY", "zip": "12140-2208", "ntee": "N60", "ruling": "201502", "deductibility": "1", "assets": 0, "income": 0, "revenue": 0}, {"ein": "472814464", "name": "CAPTAINS CLUB WRESTLING FOUNDATION INC", "city": "COPIAGUE", "state": "NY", "zip": "11726-5037", "ntee": "", "ruling": "202401", "deductibility": "1", "assets": 0, "income": 0, "revenue": 0}, {"ein": "475456580", "name": "VICTOR YOUTH WRESTLING CLUB", "city": "VICTOR", "state": "NY", "zip": "14564-1253", "ntee": "N99", "ruling": "202103", "deductibility": "1", "assets": 0, "income": 0, "revenue": 0}, {"ein": "611476126", "name": "WANTAGH WRESTLING ALUMNI & FRIENDS", "city": "WANTAGH", "state": "NY", "zip": "11793-0695", "ntee": "O50", "ruling": "200609", "deductibility": "1", "assets": 46321, "income": 61746, "revenue": 57978}, {"ein": "611556753", "name": "FULTON WRESTLING CLUB INC", "city": "FULTON", "state": "NY", "zip": "13069-2007", "ntee": "O50", "ruling": "200804", "deductibility": "1", "assets": 136261, "income": 112367, "revenue": 79396}, {"ein": "611671247", "name": "KENDALL YOUTH WRESTLING INC", "city": "ALBION", "state": "NY", "zip": "14411-9619", "ntee": "N99", "ruling": "201511", "deductibility": "1", "assets": 0, "income": 0, "revenue": 0}, {"ein": "611775895", "name": "HANNIBAL WRESTLING CLUB INC", "city": "FULTON", "state": "NY", "zip": "13069-1704", "ntee": "N62", "ruling": "201512", "deductibility": "1", "assets": 0, "income": 0, "revenue": 0}, {"ein": "651217025", "name": "JOURNEYMEN WRESTLING CLUB LTD", "city": "CLIFTON PARK", "state": "NY", "zip": "12065-1516", "ntee": "N60", "ruling": "200409", "deductibility": "1", "assets": 72467, "income": 550470, "revenue": 533223}, {"ein": "680587499", "name": "OGDENSBURG YOUTH WRESTLING ASSOCIATION", "city": "OGDENSBURG", "state": "NY", "zip": "13669-5333", "ntee": "N99", "ruling": "200409", "deductibility": "1", "assets": 0, "income": 0, "revenue": 0}, {"ein": "743218233", "name": "FRIENDS OF MASSAPEQUA WRESTLING INC", "city": "MASSAPEQUA", "state": "NY", "zip": "11758-0000", "ntee": "N60", "ruling": "200911", "deductibility": "1", "assets": 32249, "income": 79897, "revenue": 69076}, {"ein": "811357042", "name": "WHITEHALL WRESTLING", "city": "WHITEHALL", "state": "NY", "zip": "12887-0035", "ntee": "N99", "ruling": "201611", "deductibility": "1", "assets": 0, "income": 0, "revenue": 0}, {"ein": "813780707", "name": "CHINESE WRESTLING ASSOCIATION USA INC", "city": "JERICHO", "state": "NY", "zip": "11753-1501", "ntee": "N60", "ruling": "201807", "deductibility": "1", "assets": 0, "income": 0, "revenue": 0}, {"ein": "814029014", "name": "BULLS WRESTLING CLUB INC", "city": "BUFFALO", "state": "NY", "zip": "14260-5001", "ntee": "N99", "ruling": "201701", "deductibility": "1", "assets": 0, "income": 0, "revenue": 0}, {"ein": "821736821", "name": "PIN TO WIN WRESTLING PARENTS CLUB", "city": "LEVITTOWN", "state": "NY", "zip": "11756-3609", "ntee": "N12", "ruling": "201908", "deductibility": "1", "assets": 0, "income": 0, "revenue": 0}, {"ein": "822200878", "name": "VALLEY STREAM YOUTH WRESTLING CLUB", "city": "VALLEY STREAM", "state": "NY", "zip": "11582-0373", "ntee": "N99", "ruling": "201708", "deductibility": "1", "assets": 0, "income": 0, "revenue": 0}, {"ein": "831644347", "name": "CAMPBELL-SAVONA-BRADFORD YOUTH WRESTLING CLUB", "city": "CAMPBELL", "state": "NY", "zip": "14821-9715", "ntee": "N70", "ruling": "201901", "deductibility": "1", "assets": 0, "income": 0, "revenue": 0}, {"ein": "832187309", "name": "WILDCAT YOUTH WRESTLING CLUB", "city": "MELVILLE", "state": "NY", "zip": "11747-1014", "ntee": "N99", "ruling": "201811", "deductibility": "1", "assets": 0, "income": 0, "revenue": 0}, {"ein": "832267330", "name": "SACHEM NORTH WRESTLING", "city": "CENTEREACH", "state": "NY", "zip": "11720-3834", "ntee": "N99", "ruling": "201903", "deductibility": "1", "assets": 0, "income": 0, "revenue": 0}, {"ein": "832765383", "name": "PJ NATION WRESTLING INC", "city": "PRT JEFFERSON", "state": "NY", "zip": "11777-1219", "ntee": "F12", "ruling": "201902", "deductibility": "1", "assets": 0, "income": 0, "revenue": 0}, {"ein": "834355461", "name": "TOTTENVILLE WRESTLING CLUB INC", "city": "STATEN ISLAND", "state": "NY", "zip": "10312-4252", "ntee": "N60", "ruling": "201909", "deductibility": "1", "assets": 0, "income": 40144, "revenue": 40144}, {"ein": "842647739", "name": "PURPLE EAGLE WRESTLING ACADEMY", "city": "ALBION", "state": "NY", "zip": "14411-1508", "ntee": "N60", "ruling": "202305", "deductibility": "1", "assets": 0, "income": 0, "revenue": 0}, {"ein": "842720037", "name": "STATEN ISLAND WRESTLING CLUB INC", "city": "STATEN ISLAND", "state": "NY", "zip": "10301-4542", "ntee": "N60", "ruling": "202001", "deductibility": "1", "assets": 0, "income": 0, "revenue": 0}, {"ein": "844126474", "name": "INTERNATIONAL PROFESSIONAL WRESTLING HALL OF FAME", "city": "STONE RIDGE", "state": "NY", "zip": "12484-5720", "ntee": "A50", "ruling": "202001", "deductibility": "1", "assets": 0, "income": 0, "revenue": 0}, {"ein": "863691285", "name": "WILLPOWER WRESTLING INC", "city": "BROOKLYN", "state": "NY", "zip": "11215-2499", "ntee": "N60", "ruling": "202108", "deductibility": "1", "assets": 0, "income": 0, "revenue": 0}, {"ein": "874634649", "name": "FDR WRESTLING BOOSTER CLUB", "city": "HYDE PARK", "state": "NY", "zip": "12538-0431", "ntee": "B94", "ruling": "202203", "deductibility": "1", "assets": 0, "income": 0, "revenue": 0}, {"ein": "880739674", "name": "CROWN CITY WRESTLING CLUB", "city": "CORTLAND", "state": "NY", "zip": "13045-9404", "ntee": "N50", "ruling": "202304", "deductibility": "1", "assets": 0, "income": 0, "revenue": 0}, {"ein": "881438305", "name": "MARLBORO YOUTH WRESTLING CLUB INC", "city": "MILTON", "state": "NY", "zip": "12547-5265", "ntee": "N70", "ruling": "202401", "deductibility": "1", "assets": 0, "income": 0, "revenue": 0}, {"ein": "882123225", "name": "FRIENDS OF HOMER WRESTLING CLUB", "city": "HOMER", "state": "NY", "zip": "13077-1513", "ntee": "N70", "ruling": "202301", "deductibility": "1", "assets": 0, "income": 0, "revenue": 0}, {"ein": "882157217", "name": "EAST MEADOW WRESTLING ALUMNI INC", "city": "WEST BABYLON", "state": "NY", "zip": "11704-6109", "ntee": "N50", "ruling": "202204", "deductibility": "1", "assets": 0, "income": 0, "revenue": 0}, {"ein": "882488094", "name": "GOUVERNEUR WRESTLING CLUB INC", "city": "GOUVERNEUR", "state": "NY", "zip": "13642-1212", "ntee": "O50", "ruling": "202206", "deductibility": "1", "assets": 143656, "income": 111199, "revenue": 111199}, {"ein": "882953667", "name": "VISION QUEST WRESTLING INC", "city": "BROOKLYN", "state": "NY", "zip": "11201-7341", "ntee": "N60", "ruling": "202312", "deductibility": "1", "assets": 0, "income": 0, "revenue": 0}, {"ein": "920583945", "name": "DISTRICT 3 WRESTLING", "city": "FRANKFORT", "state": "NY", "zip": "13340-0008", "ntee": "O50", "ruling": "202212", "deductibility": "1", "assets": 0, "income": 0, "revenue": 0}, {"ein": "921362809", "name": "GREEN MACHINE WRESTLING CLUB INC", "city": "LINDENHURST", "state": "NY", "zip": "11757-4940", "ntee": "N60", "ruling": "202402", "deductibility": "1", "assets": 0, "income": 0, "revenue": 0}, {"ein": "921924607", "name": "CV YOUTH WRESTLING CLUB INC", "city": "BINGHAMTON", "state": "NY", "zip": "13901-1347", "ntee": "N60", "ruling": "202404", "deductibility": "1", "assets": 0, "income": 0, "revenue": 0}, {"ein": "922462566", "name": "5 POINTS WRESTLING CORP", "city": "S HEMPSTEAD", "state": "NY", "zip": "11550-7927", "ntee": "N60", "ruling": "202303", "deductibility": "1", "assets": 0, "income": 0, "revenue": 0}, {"ein": "922740373", "name": "WARLORD WRESTLING CLUB INC", "city": "BEACON", "state": "NY", "zip": "12508-1259", "ntee": "N99", "ruling": "202503", "deductibility": "1", "assets": 0, "income": 0, "revenue": 0}, {"ein": "922782698", "name": "LIL HAWKS WRESTLING CLUB INC", "city": "PAINTED POST", "state": "NY", "zip": "14870-1101", "ntee": "N60", "ruling": "202303", "deductibility": "1", "assets": 0, "income": 0, "revenue": 0}, {"ein": "922853742", "name": "SPARTAN WRESTLING BOOSTER CLUB", "city": "EAST AMHERST", "state": "NY", "zip": "14051-1365", "ntee": "N60", "ruling": "202303", "deductibility": "1", "assets": 0, "income": 0, "revenue": 0}, {"ein": "923108179", "name": "BASEMENT BRAWLERS WRESTLING CLUB", "city": "MASONVILLE", "state": "NY", "zip": "13804-0000", "ntee": "N68", "ruling": "202304", "deductibility": "1", "assets": 0, "income": 0, "revenue": 0}, {"ein": "923242533", "name": "CLARKSTOWN SOUTH WRESTLING PARENTS FOUNDATION INC", "city": "NEW CITY", "state": "NY", "zip": "10956-2713", "ntee": "B90", "ruling": "202401", "deductibility": "1", "assets": 0, "income": 0, "revenue": 0}, {"ein": "923619030", "name": "NISKAYUNA-SCHENECTADY GIRLS WRESTLING BOOSTER CLUB INC", "city": "SCHENECTADY", "state": "NY", "zip": "12309-4838", "ntee": "N60", "ruling": "202305", "deductibility": "1", "assets": 7229, "income": 8036, "revenue": 8036}, {"ein": "933207140", "name": "REVOLUTION ELITE WRESTLING CLUB INC", "city": "NEWFANE", "state": "NY", "zip": "14108-9761", "ntee": "N99", "ruling": "202408", "deductibility": "1", "assets": 0, "income": 0, "revenue": 0}, {"ein": "933974694", "name": "SARATOGA BLUE STREAKS WRESTLING BOOSTER INC", "city": "GREENFLD CTR", "state": "NY", "zip": "12833-1904", "ntee": "O50", "ruling": "202311", "deductibility": "1", "assets": 0, "income": 0, "revenue": 0}, {"ein": "934460281", "name": "FRIENDS OF SECTION II WRESTLING", "city": "MECHANICVILLE", "state": "NY", "zip": "12118-2411", "ntee": "N68", "ruling": "202312", "deductibility": "1", "assets": 0, "income": 0, "revenue": 0}, {"ein": "990715477", "name": "518 ANNIHILATE WRESTLING CLUB INC", "city": "HOOSICK FALLS", "state": "NY", "zip": "12090-1833", "ntee": "N60", "ruling": "202404", "deductibility": "1", "assets": 0, "income": 0, "revenue": 0}, {"ein": "990950204", "name": "ELLENBURG BOBCATS YOUTH WRESTLING", "city": "ELLENBURG DEP", "state": "NY", "zip": "12935-1707", "ntee": "O20", "ruling": "202404", "deductibility": "1", "assets": 0, "income": 0, "revenue": 0}, {"ein": "993583098", "name": "ASSOCIATION OF AMERICAN WRESTLING INC", "city": "N BABYLON", "state": "NY", "zip": "11703-4326", "ntee": "N60", "ruling": "202407", "deductibility": "1", "assets": 0, "income": 0, "revenue": 0}, {"ein": "993704398", "name": "KD WRESTLING FOUNDATION", "city": "TARRYTOWN", "state": "NY", "zip": "10591-4327", "ntee": "N60", "ruling": "202409", "deductibility": "1", "assets": 0, "income": 0, "revenue": 0}], "DHARMA": [{"ein": "030422472", "name": "DHARMA ROAD PRODUCTIONS INC", "city": "NEW YORK", "state": "NY", "zip": "10003-4602", "ntee": "A60", "ruling": "200401", "deductibility": "1", "assets": 0, "income": 0, "revenue": 0}, {"ein": "112388947", "name": "SIKH DHARMA OF NEW YORK", "city": "BROOKLYN", "state": "NY", "zip": "11217-2211", "ntee": "", "ruling": "197707", "deductibility": "1", "assets": 0, "income": 0, "revenue": 0}, {"ein": "113199114", "name": "SATYA SANATAN DHARMA SABHA INC", "city": "HOLLIS", "state": "NY", "zip": "11427-2313", "ntee": "", "ruling": "199404", "deductibility": "1", "assets": 0, "income": 0, "revenue": 0}, {"ein": "113206048", "name": "DHARMA DRUM MOUNTAIN BUDDHIST ASSOCIATION", "city": "ELMHURST", "state": "NY", "zip": "11373-4047", "ntee": "", "ruling": "199406", "deductibility": "1", "assets": 0, "income": 0, "revenue": 0}, {"ein": "133346506", "name": "DHARMA SAMUDRA", "city": "SIDNEY CENTER", "state": "NY", "zip": "13839-3180", "ntee": "X83", "ruling": "201206", "deductibility": "1", "assets": 0, "income": 0, "revenue": 0}, {"ein": "141742118", "name": "DHARMA COMMUNICATIONS INC", "city": "MT TREMPER", "state": "NY", "zip": "12457-0156", "ntee": "A30", "ruling": "199410", "deductibility": "1", "assets": 0, "income": 0, "revenue": 0}, {"ein": "141781953", "name": "KARUNA TENDAI DHARMA CENTER", "city": "E CHATHAM", "state": "NY", "zip": "12060-0000", "ntee": "X50Z", "ruling": "199604", "deductibility": "1", "assets": 0, "income": 0, "revenue": 0}, {"ein": "201849707", "name": "DHARMA DRUM RETREAT CENTER INC", "city": "PINE BUSH", "state": "NY", "zip": "12566-5443", "ntee": "X50", "ruling": "200604", "deductibility": "1", "assets": 3781046, "income": 713979, "revenue": 713979}, {"ein": "260640812", "name": "DHARMA SEAL MONASTERY INC", "city": "WALDEN", "state": "NY", "zip": "12586-2705", "ntee": "X20", "ruling": "200803", "deductibility": "1", "assets": 1037902, "income": 120585, "revenue": 120585}, {"ein": "272829481", "name": "NAMGYAL CHOEDE THUPTEN DHARGYELING BUDDHIST DHARMA CENTER INC", "city": "BRONX", "state": "NY", "zip": "10467-8703", "ntee": "A20", "ruling": "202009", "deductibility": "1", "assets": 0, "income": 0, "revenue": 0}, {"ein": "274066198", "name": "DHARMA REFUGE INC", "city": "ROCHESTER", "state": "NY", "zip": "14609-5451", "ntee": "X50", "ruling": "201310", "deductibility": "1", "assets": 40622, "income": 26791, "revenue": 26791}, {"ein": "274644758", "name": "DHARMA WORLD INC", "city": "FLUSHING", "state": "NY", "zip": "11354-2327", "ntee": "X50", "ruling": "201108", "deductibility": "1", "assets": 0, "income": 0, "revenue": 0}, {"ein": "330240163", "name": "VISHWA NIRMALA DHARMA", "city": "FORT PLAIN", "state": "NY", "zip": "13339-4527", "ntee": "", "ruling": "199407", "deductibility": "1", "assets": 7089635, "income": 1886637, "revenue": 1860549}, {"ein": "331028456", "name": "ARYA DHARMA SAMAJ INC", "city": "FLORAL PARK", "state": "NY", "zip": "11001-2006", "ntee": "Q21", "ruling": "200310", "deductibility": "1", "assets": 146572, "income": 31593, "revenue": 31593}, {"ein": "461128503", "name": "SCHENECTADY SANAATAN VEDIC DHARMA INC", "city": "SCHENECTADY", "state": "NY", "zip": "12304-3215", "ntee": "X70", "ruling": "201503", "deductibility": "1", "assets": 227656, "income": 27128, "revenue": 27128}, {"ein": "461957635", "name": "PROFOUND TREASURY DHARMA FOUNDATION INC", "city": "SLEEPY HOLLOW", "state": "NY", "zip": "10591-1614", "ntee": "X99", "ruling": "201406", "deductibility": "1", "assets": 131809, "income": 198750, "revenue": 198750}, {"ein": "463217645", "name": "DHARMA TEACHER ORDER INC", "city": "CROTON HDSN", "state": "NY", "zip": "10520-1014", "ntee": "X50", "ruling": "201312", "deductibility": "1", "assets": 0, "income": 0, "revenue": 0}, {"ein": "651296971", "name": "SANAATAN DHARMA MANDIR OF NEW YORK", "city": "S RICHMOND HL", "state": "NY", "zip": "11419-2508", "ntee": "X70", "ruling": "200902", "deductibility": "1", "assets": 0, "income": 0, "revenue": 0}, {"ein": "770378622", "name": "MARPA FOUNDATION FOR THE STUDY PRACTICE & SUPPORT OF BUDDA DHARMA", "city": "OTEGO", "state": "NY", "zip": "13825-2152", "ntee": "X99", "ruling": "199409", "deductibility": "1", "assets": 4521269, "income": 437242, "revenue": 433980}, {"ein": "813800079", "name": "DUDJOM DHARMA HOUSE NYC INC", "city": "WOODSIDE", "state": "NY", "zip": "11377-1925", "ntee": "S80", "ruling": "201612", "deductibility": "1", "assets": 233805, "income": 190640, "revenue": 190640}, {"ein": "813904899", "name": "YUGA DHARMA ASHRAM", "city": "BROOKLYN", "state": "NY", "zip": "11217-1024", "ntee": "X50", "ruling": "201805", "deductibility": "1", "assets": 0, "income": 0, "revenue": 0}, {"ein": "824142248", "name": "BUDDHA DHARMA LISTENING CENTER OF NEW YORK", "city": "FLUSHING", "state": "NY", "zip": "11358-3158", "ntee": "X50", "ruling": "201903", "deductibility": "1", "assets": 25190, "income": 39387, "revenue": 39387}, {"ein": "825193288", "name": "STABLE GATE DHARMA COLLECTIVE", "city": "CASTLETON", "state": "NY", "zip": "12033-9727", "ntee": "X90", "ruling": "201902", "deductibility": "1", "assets": 0, "income": 0, "revenue": 0}, {"ein": "831086259", "name": "TESI DHARMA CENTER INC", "city": "JACKSON HEIGHTS", "state": "NY", "zip": "11372-1054", "ntee": "X50", "ruling": "201807", "deductibility": "1", "assets": 0, "income": 0, "revenue": 0}, {"ein": "844831330", "name": "DHARMA GATES INC", "city": "BROOKLYN", "state": "NY", "zip": "11217-1803", "ntee": "B99", "ruling": "202009", "deductibility": "1", "assets": 399349, "income": 662983, "revenue": 662983}, {"ein": "872058203", "name": "BODHI WISDOM DHARMA TEMPLE INC", "city": "FLUSHING", "state": "NY", "zip": "11358-1736", "ntee": "X99", "ruling": "202201", "deductibility": "1", "assets": 5252, "income": 28371, "revenue": 28371}, {"ein": "932112435", "name": "CENTER FOR DHARMA PRACTICE INC", "city": "FAR ROCKAWAY", "state": "NY", "zip": "11691-1605", "ntee": "X99", "ruling": "202310", "deductibility": "1", "assets": 0, "income": 0, "revenue": 0}, {"ein": "990347345", "name": "SANATANA DHARMA FOUNDATION", "city": "CASTLETON", "state": "NY", "zip": "12033-9570", "ntee": "X70", "ruling": "200008", "deductibility": "1", "assets": 1, "income": 0, "revenue": 0}], "90TH": [{"ein": "030511096", "name": "WEST 90TH STREET PARK BLOCK ASSOCIATION INC", "city": "NEW YORK", "state": "NY", "zip": "10024-1505", "ntee": "S22", "ruling": "201404", "deductibility": "2", "assets": 0, "income": 0, "revenue": 0}], "AVERY": [{"ein": "036051277", "name": "VOLNEY A S AVERY TRUST U W", "city": "BUFFALO", "state": "NY", "zip": "14240-1504", "ntee": "", "ruling": "000000", "deductibility": "0", "assets": 58572, "income": 67272, "revenue": 0}, {"ein": "133093638", "name": "MILTON AND SALLY AVERY ARTS FOUNDATION INC", "city": "NEW YORK", "state": "NY", "zip": "10024-1594", "ntee": "", "ruling": "198311", "deductibility": "1", "assets": 35261705, "income": 6398440, "revenue": 0}, {"ein": "133835943", "name": "AILEEN AVERY HDFC", "city": "NEW YORK", "state": "NY", "zip": "10031-6166", "ntee": "L21", "ruling": "200612", "deductibility": "1", "assets": 1111696, "income": 334191, "revenue": 334191}, {"ein": "141798357", "name": "AVERY SCHOLARSHIP FOUNDATION", "city": "ROSCOE", "state": "NY", "zip": "12776-6573", "ntee": "T22", "ruling": "200103", "deductibility": "1", "assets": 335657, "income": 474, "revenue": 0}, {"ein": "222521216", "name": "SUSAN LOOK AVERY CLUB", "city": "PAVILION", "state": "NY", "zip": "14525-9737", "ntee": "", "ruling": "198412", "deductibility": "2", "assets": 0, "income": 0, "revenue": 0}], "GENDER": [{"ein": "043697166", "name": "GIRLS FOR GENDER EQUITY INC-G G E", "city": "BROOKLYN", "state": "NY", "zip": "11201-1917", "ntee": "I21", "ruling": "200212", "deductibility": "1", "assets": 7768809, "income": 4948424, "revenue": 4948424}, {"ein": "134191739", "name": "NEW YORK ASSOCIATION FOR GENDER RIGHTS ADVOCACY INC", "city": "NEW YORK", "state": "NY", "zip": "10010-2704", "ntee": "R30", "ruling": "200204", "deductibility": "1", "assets": 0, "income": 0, "revenue": 0}, {"ein": "262512453", "name": "FASHION ON GENDER", "city": "NEW YORK", "state": "NY", "zip": "10116-0206", "ntee": "R26", "ruling": "200808", "deductibility": "1", "assets": 1, "income": 0, "revenue": 0}, {"ein": "300407728", "name": "GENDER FREE INC", "city": "HAGUE", "state": "NY", "zip": "12836-2406", "ntee": "D20", "ruling": "200709", "deductibility": "1", "assets": 0, "income": 0, "revenue": 0}, {"ein": "301200821", "name": "GENDER CENTRAL EDUCATIONAL PROGRAM FOR WOMEN AND GIRLS IN THE ANGLOP", "city": "SYRACUSE", "state": "NY", "zip": "13210-3125", "ntee": "I70", "ruling": "201909", "deductibility": "1", "assets": 0, "income": 0, "revenue": 0}, {"ein": "464141757", "name": "GENDER EQUALITY LAW CENTER INC", "city": "BROOKLYN", "state": "NY", "zip": "11215-4702", "ntee": "I83", "ruling": "201505", "deductibility": "1", "assets": 291697, "income": 241176, "revenue": 241176}, {"ein": "811154478", "name": "YOUNG MINDS FOR GENDER EQUALITY FOUNDATION", "city": "NEW YORK", "state": "NY", "zip": "10003-4283", "ntee": "O50", "ruling": "201605", "deductibility": "1", "assets": 0, "income": 0, "revenue": 0}, {"ein": "812108395", "name": "GENDER AMPLIFIED", "city": "NEW YORK", "state": "NY", "zip": "10019-7590", "ntee": "A68", "ruling": "201801", "deductibility": "1", "assets": 64829, "income": 100000, "revenue": 100000}, {"ein": "814246352", "name": "ADIRONDACK NORTH COUNTRY GENDER ALLIANCE", "city": "SARANAC LAKE", "state": "NY", "zip": "12983-7113", "ntee": "", "ruling": "201708", "deductibility": "1", "assets": 33584, "income": 46634, "revenue": 46634}, {"ein": "830823399", "name": "GENDER EQUALITY NEW YORK INC", "city": "HUNTINGTN STA", "state": "NY", "zip": "11746-4508", "ntee": "P80", "ruling": "201903", "deductibility": "1", "assets": 75762, "income": 49435, "revenue": 49435}, {"ein": "833593140", "name": "GLOBAL ALLIANCE OF INDIGENOUS PEOPLES GENDER JUSTICE AND PEACE I", "city": "BRONX", "state": "NY", "zip": "10471-2067", "ntee": "A23", "ruling": "202101", "deductibility": "1", "assets": 71561, "income": 3867, "revenue": 3867}, {"ein": "841705022", "name": "THE FOUNDATION FOR GENDER-SPECIFIC MEDICINE INC", "city": "NEW YORK", "state": "NY", "zip": "10075-0338", "ntee": "H990", "ruling": "200710", "deductibility": "1", "assets": 664774, "income": 701144, "revenue": 701144}, {"ein": "850660632", "name": "GENDER IDEAL INC", "city": "NEW YORK", "state": "NY", "zip": "10016-5101", "ntee": "R24", "ruling": "202010", "deductibility": "1", "assets": 256152, "income": 510500, "revenue": 510500}, {"ein": "882056515", "name": "GLOBALIZING GENDER INC", "city": "BROOKLYN", "state": "NY", "zip": "11221-1092", "ntee": "R99", "ruling": "202402", "deductibility": "1", "assets": 0, "income": 0, "revenue": 0}, {"ein": "920964075", "name": "GENDER EQUALITY NETWORK USA", "city": "ITHACA", "state": "NY", "zip": "14850-0000", "ntee": "R24", "ruling": "202307", "deductibility": "1", "assets": 0, "income": 0, "revenue": 0}], "FRONTIER": [{"ein": "043750761", "name": "NIAGARA FRONTIER GYMNASTICS ASSOCIATION INC", "city": "N TONAWANDA", "state": "NY", "zip": "14120-1211", "ntee": "N60", "ruling": "200305", "deductibility": "1", "assets": 25008, "income": 189226, "revenue": 130380}, {"ein": "112552886", "name": "CAROUSEL SOCIETY OF THE NIAGARA FRONTIER", "city": "N TONAWANDA", "state": "NY", "zip": "14120-0672", "ntee": "A82Z", "ruling": "198103", "deductibility": "1", "assets": 1751566, "income": 707254, "revenue": 644013}, {"ein": "112975596", "name": "NEW FRONTIER BAPTIST CHURCH INC", "city": "BROOKLYN", "state": "NY", "zip": "11233-4002", "ntee": "X20Z", "ruling": "199705", "deductibility": "1", "assets": 0, "income": 0, "revenue": 0}, {"ein": "136041817", "name": "M M GAGE TRUST FOR FRONTIER NURSING SERVICE INC", "city": "NEW YORK", "state": "NY", "zip": "10008-1297", "ntee": "", "ruling": "197201", "deductibility": "1", "assets": 878250, "income": 211092, "revenue": 0}, {"ein": "141810340", "name": "FRONTIER SNO RIDERS INC", "city": "DUANESBURG", "state": "NY", "zip": "12056-0133", "ntee": "N50", "ruling": "200308", "deductibility": "2", "assets": 113375, "income": 26273, "revenue": 26273}, {"ein": "160365254", "name": "NIAGARA FRONTIER AUTO DEALERS ASSN INC - N F A D A", "city": "WILLIAMSVILLE", "state": "NY", "zip": "14221-7748", "ntee": "S46", "ruling": "202002", "deductibility": "2", "assets": 5015708, "income": 1250730, "revenue": 1154881}, {"ein": "160570159", "name": "NIAGARA FRONTIER COOPERATIVE MILK PRODUCERS BARGAINING AGENCY INC", "city": "WEST SENECA", "state": "NY", "zip": "14224-3572", "ntee": "", "ruling": "195503", "deductibility": "2", "assets": 0, "income": 0, "revenue": 0}, {"ein": "160570165", "name": "NIAGARA FRONTIER COUNTRY CLUB INC", "city": "YOUNGSTOWN", "state": "NY", "zip": "14174-1127", "ntee": "", "ruling": "194508", "deductibility": "2", "assets": 1984323, "income": 2246510, "revenue": 1996923}, {"ein": "160743245", "name": "YOUNG WOMENS CHRISTIAN ASSOCIATION OF NIAGRA FRONTIER INC", "city": "LOCKPORT", "state": "NY", "zip": "14094-3638", "ntee": "", "ruling": "197012", "deductibility": "1", "assets": 4593900, "income": 3173450, "revenue": 3159767}, {"ein": "160765119", "name": "MILK FOR HEALTH ON THE NIAGARA FRONTIER INC", "city": "JAVA CENTER", "state": "NY", "zip": "14082-9618", "ntee": "", "ruling": "195106", "deductibility": "2", "assets": 168488, "income": 503750, "revenue": 503750}, {"ein": "160775278", "name": "ABC OF THE NIAGARA FRONTIER", "city": "BUFFALO", "state": "NY", "zip": "14209-2401", "ntee": "", "ruling": "195504", "deductibility": "1", "assets": 0, "income": 0, "revenue": 0}, {"ein": "160788242", "name": "COMMUNITY MISSIONS OF NIAGARA FRONTIER INC", "city": "NIAGARA FALLS", "state": "NY", "zip": "14303-1516", "ntee": "P200", "ruling": "197212", "deductibility": "1", "assets": 5796443, "income": 12078419, "revenue": 12002512}, {"ein": "160801784", "name": "ALCOHOLICS ANONYMOUS ON THE NIAGARA FRONTIER INC", "city": "BUFFALO", "state": "NY", "zip": "14212-2317", "ntee": "", "ruling": "195904", "deductibility": "1", "assets": 109258, "income": 115738, "revenue": 92838}, {"ein": "160806469", "name": "FRONTIER VOLUNTEER FIRE CO", "city": "NIAGARA FALLS", "state": "NY", "zip": "14304-3727", "ntee": "M24", "ruling": "200901", "deductibility": "1", "assets": 3476115, "income": 538317, "revenue": 404107}, {"ein": "160865451", "name": "PHOENIX FRONTIER INC", "city": "BUFFALO", "state": "NY", "zip": "14214-2404", "ntee": "J330", "ruling": "196503", "deductibility": "1", "assets": 0, "income": 0, "revenue": 0}, {"ein": "160918050", "name": "NIAGARA FRONTIER FLYING CLUB INC", "city": "SNYDER", "state": "NY", "zip": "14226-2562", "ntee": "", "ruling": "196808", "deductibility": "1", "assets": 0, "income": 0, "revenue": 0}, {"ein": "161056814", "name": "FRONTIER SCIENCE AND TECHNOLOGY RESEARCH FOUNDATION INC", "city": "AMHERST", "state": "NY", "zip": "14226-1056", "ntee": "G30Z", "ruling": "197602", "deductibility": "1", "assets": 17980932, "income": 30998875, "revenue": 30998875}, {"ein": "161072934", "name": "NIAGARA FRONTIER CHRISTIAN SERVICE CAMPING ASSOC INC", "city": "VARYSBURG", "state": "NY", "zip": "14167-9719", "ntee": "X99", "ruling": "195310", "deductibility": "1", "assets": 0, "income": 0, "revenue": 0}, {"ein": "161086304", "name": "FRONTIER HOUSING CORPORATION", "city": "DEXTER", "state": "NY", "zip": "13634-0056", "ntee": "L80Z", "ruling": "198107", "deductibility": "1", "assets": 3460795, "income": 974889, "revenue": 972771}, {"ein": "161101844", "name": "AFRO AMERICAN HISTORICAL ASSOC OF THE NIAGARA FRONTIER", "city": "BUFFALO", "state": "NY", "zip": "14207-0063", "ntee": "", "ruling": "202008", "deductibility": "1", "assets": 0, "income": 0, "revenue": 0}, {"ein": "161171057", "name": "NIAGARA FRONTIER BICYCLE CLUB INC", "city": "EAST AURORA", "state": "NY", "zip": "14052-2727", "ntee": "", "ruling": "198610", "deductibility": "2", "assets": 0, "income": 0, "revenue": 0}, {"ein": "161173305", "name": "JAFFARYA CENTER OF NIAGARA FRONTIER NEW YORK INC", "city": "EAST AMHERST", "state": "NY", "zip": "14051-1117", "ntee": "", "ruling": "198310", "deductibility": "1", "assets": 0, "income": 0, "revenue": 0}, {"ein": "161206521", "name": "NIAGARA FRONTIER BOTANICAL SOCIETY", "city": "WILLIAMSVILLE", "state": "NY", "zip": "14221-5317", "ntee": "", "ruling": "198507", "deductibility": "1", "assets": 0, "income": 0, "revenue": 0}, {"ein": "161272790", "name": "NIAGARA FRONTIER RADIO READING SERVICE INC", "city": "BUFFALO", "state": "NY", "zip": "14227-1700", "ntee": "", "ruling": "198608", "deductibility": "1", "assets": 632133, "income": 78603, "revenue": 78603}, {"ein": "161297699", "name": "NIAGARA FRONTIER BOAT RACING ASSOCIATION INC", "city": "GRAND ISLAND", "state": "NY", "zip": "14072-1445", "ntee": "", "ruling": "198708", "deductibility": "2", "assets": 15006, "income": 118618, "revenue": -1346}, {"ein": "161371070", "name": "NIAGARA FRONTIER VETERINARY", "city": "GRAND ISLAND", "state": "NY", "zip": "14072-2704", "ntee": "D03", "ruling": "202306", "deductibility": "1", "assets": 37036, "income": 65253, "revenue": 65253}, {"ein": "161373420", "name": "NIAGARA FRONTIER CORPORATE COUNSEL ASSOCIATION INCORPORATED", "city": "WILLIAMSVILLE", "state": "NY", "zip": "14221-5855", "ntee": "S41", "ruling": "200706", "deductibility": "2", "assets": 0, "income": 0, "revenue": 0}, {"ein": "161459043", "name": "FRONTIER CENTRAL TEACHERS ASSOCIATION BENEFIT FUND", "city": "HAMBURG", "state": "NY", "zip": "14075-5803", "ntee": "", "ruling": "199504", "deductibility": "2", "assets": 741922, "income": 520780, "revenue": 520780}, {"ein": "161512203", "name": "NIAGARA FRONTIER CITY MINISTRIES INC", "city": "AMHERST", "state": "NY", "zip": "14226-3958", "ntee": "P20", "ruling": "199703", "deductibility": "1", "assets": 0, "income": 0, "revenue": 0}, {"ein": "161540707", "name": "NIAGARA FRONTIER NAWBO INC", "city": "ORCHARD PARK", "state": "NY", "zip": "14127-8165", "ntee": "S81", "ruling": "200111", "deductibility": "2", "assets": 12114, "income": 59764, "revenue": 56776}, {"ein": "161552822", "name": "FRONTIER CENTRAL EMPLOYEES ASSOCIATION BENEFIT TR FUND", "city": "HAMBURG", "state": "NY", "zip": "14075-5657", "ntee": "Y43", "ruling": "200002", "deductibility": "2", "assets": 513727, "income": 191002, "revenue": 191002}, {"ein": "161557094", "name": "NIAGARA FRONTIER VETERINARY SOCIETY PET EMERGENCY FUND INC", "city": "BUFFALO", "state": "NY", "zip": "14240-2846", "ntee": "D20", "ruling": "201603", "deductibility": "1", "assets": 326431, "income": 161570, "revenue": 161570}, {"ein": "161564829", "name": "NIAGARA FRONTIER ANTIQUE & CLASSIC BOATS INC", "city": "ELMA", "state": "NY", "zip": "14059-9624", "ntee": "B99", "ruling": "199906", "deductibility": "1", "assets": 52791, "income": 61239, "revenue": 37077}, {"ein": "161589523", "name": "CHILDCARE NETWORK OF NIAGARA FRONTIER INC", "city": "WILLIAMSVILLE", "state": "NY", "zip": "14221-4826", "ntee": "P33", "ruling": "201610", "deductibility": "1", "assets": 2797960, "income": 5222439, "revenue": 5222439}, {"ein": "161610559", "name": "FRONTIER CENTRAL RETIRED EMPLOYEES ASSOCIATION", "city": "HAMBURG", "state": "NY", "zip": "14075-1150", "ntee": "N50", "ruling": "201210", "deductibility": "2", "assets": 0, "income": 0, "revenue": 0}, {"ein": "166053250", "name": "SAMARITAN PASTORAL COUNSELING CENTER OF THE NIAGARA FRONTIER INC", "city": "N TONAWANDA", "state": "NY", "zip": "14120-3133", "ntee": "", "ruling": "196006", "deductibility": "1", "assets": 71226, "income": 57585, "revenue": 57585}, {"ein": "166056682", "name": "NIAGARA FRONTIER CHAPTER NRHS INC", "city": "N TONAWANDA", "state": "NY", "zip": "14120-9043", "ntee": "", "ruling": "196601", "deductibility": "1", "assets": 0, "income": 0, "revenue": 0}, {"ein": "166062575", "name": "NIAGARA FRONTIER READING COUNCIL", "city": "NIAGARA FALLS", "state": "NY", "zip": "14304-4583", "ntee": "B03", "ruling": "202003", "deductibility": "1", "assets": 0, "income": 0, "revenue": 0}, {"ein": "202048622", "name": "UNITED METHODIST FRONTIER FOUNDATION INC", "city": "WHITE PLAINS", "state": "NY", "zip": "10606-3302", "ntee": "", "ruling": "197410", "deductibility": "0", "assets": 0, "income": 0, "revenue": 0}, {"ein": "205429483", "name": "NIAGARA FRONTIER WATERCOLOR SOCIETY INC", "city": "EAST AMHERST", "state": "NY", "zip": "14051-1284", "ntee": "A25", "ruling": "200703", "deductibility": "1", "assets": 29643, "income": 27220, "revenue": 27220}, {"ein": "221807096", "name": "NORTHERN FRONTIER BRIGADE CAMP ASSOCIATION INC", "city": "STEWART MANOR", "state": "NY", "zip": "11530-3826", "ntee": "O40Z", "ruling": "196107", "deductibility": "1", "assets": 1911662, "income": 973114, "revenue": 973114}, {"ein": "222449617", "name": "CROSS CONNECTION CONTROL FDN OF THE NIAGARA FRONTIER INC", "city": "WEBSTER", "state": "NY", "zip": "14580-9753", "ntee": "", "ruling": "198306", "deductibility": "2", "assets": 168203, "income": 180990, "revenue": 180990}, {"ein": "222916451", "name": "CHILD CARE COALITION OF THE NIAG FRONTIER INC", "city": "BUFFALO", "state": "NY", "zip": "14216-2615", "ntee": "P33L", "ruling": "198811", "deductibility": "1", "assets": 6794506, "income": 6325617, "revenue": 6325617}, {"ein": "223966192", "name": "NIAGARA FRONTIER SEARCH AND RESCUE TEAM INC", "city": "N TONAWANDA", "state": "NY", "zip": "14120-1502", "ntee": "M23", "ruling": "200907", "deductibility": "1", "assets": 0, "income": 0, "revenue": 0}, {"ein": "237154641", "name": "ISA-NIAGARA FRONTIER SECTION INC", "city": "WILLIAMSVILLE", "state": "NY", "zip": "14221-5733", "ntee": "B03", "ruling": "202312", "deductibility": "1", "assets": 33904, "income": 112, "revenue": 112}, {"ein": "237314986", "name": "ISLAMIC SOCIETY OF NIAGARA FRONTIER", "city": "GETZVILLE", "state": "NY", "zip": "14068-1323", "ntee": "", "ruling": "197310", "deductibility": "1", "assets": 0, "income": 0, "revenue": 0}, {"ein": "237442879", "name": "NIAGARA FRONTIER SIKH SOCIETY INC", "city": "WILLIAMSVILLE", "state": "NY", "zip": "14231-1522", "ntee": "", "ruling": "197504", "deductibility": "1", "assets": 0, "income": 0, "revenue": 0}, {"ein": "263303172", "name": "NIAGARA FRONTIER JUNIOR HOCKEY CLUB INC", "city": "BUFFALO", "state": "NY", "zip": "14203-3023", "ntee": "N99", "ruling": "201004", "deductibility": "1", "assets": 424585, "income": 1338235, "revenue": 1313600}, {"ein": "270277701", "name": "NEW FRONTIER CHODAE CHURCH", "city": "NEW YORK", "state": "NY", "zip": "10001-5683", "ntee": "X21", "ruling": "201105", "deductibility": "1", "assets": 0, "income": 0, "revenue": 0}, {"ein": "331292244", "name": "NIAGARA FRONTIER GIRLS SOFTBALL ASSOCIATION INC", "city": "EAST AMHERST", "state": "NY", "zip": "14051-1614", "ntee": "Y99", "ruling": "202506", "deductibility": "2", "assets": 0, "income": 0, "revenue": 0}, {"ein": "331448816", "name": "WESTERN NEW YORK DIVISION NIAGARA FRONTIER REGION NMRA", "city": "TONAWANDA", "state": "NY", "zip": "14150-7435", "ntee": "B90", "ruling": "202411", "deductibility": "1", "assets": 0, "income": 0, "revenue": 0}, {"ein": "332105360", "name": "NIAGARA FRONTIER COIN CLUB INC", "city": "BUFFALO", "state": "NY", "zip": "14223-0023", "ntee": "N01", "ruling": "202501", "deductibility": "1", "assets": 0, "income": 0, "revenue": 0}, {"ein": "371932221", "name": "NIAGARA FRONTIER ATHLETIC LEAGUE INC", "city": "NIAGARA FALLS", "state": "NY", "zip": "14304-4641", "ntee": "N70", "ruling": "202005", "deductibility": "1", "assets": 44344, "income": 85715, "revenue": 85715}, {"ein": "452671620", "name": "NIAGARA FRONTIER CONFERENCE OF THE UPSTATE NEW YORK SYNOD OF THE ELCA", "city": "SNYDER", "state": "NY", "zip": "14226-4552", "ntee": "", "ruling": "198804", "deductibility": "1", "assets": 0, "income": 0, "revenue": 0}, {"ein": "461398335", "name": "FRONTIER INNOVATIONS FOUNDATION", "city": "NEW YORK", "state": "NY", "zip": "10036-1733", "ntee": "Q33", "ruling": "202209", "deductibility": "1", "assets": 197750, "income": 1438610, "revenue": 1438610}, {"ein": "472169884", "name": "JAFFARYA CENTER OF NIAGARA FRONTIER CHARITABLE TRUST", "city": "WILLIAMSVILLE", "state": "NY", "zip": "14221-2427", "ntee": "", "ruling": "201606", "deductibility": "1", "assets": 1244101, "income": 286754, "revenue": 0}, {"ein": "510191865", "name": "NIAGARA FRONTIER INDUSTRY EDUCATION COUNCIL INC", "city": "BUFFALO", "state": "NY", "zip": "14223-0172", "ntee": "S40Z", "ruling": "197603", "deductibility": "1", "assets": 89159, "income": 102296, "revenue": 102296}, {"ein": "521679814", "name": "NIAGARA FRONTIER COUNCIL", "city": "BUFFALO", "state": "NY", "zip": "14203-1404", "ntee": "L40", "ruling": "202012", "deductibility": "1", "assets": 121261, "income": 223488, "revenue": 0}, {"ein": "811153540", "name": "FRONTIER BLACK & BLUE BOOSTERS", "city": "HAMBURG", "state": "NY", "zip": "14075-1335", "ntee": "B11", "ruling": "201607", "deductibility": "1", "assets": 103620, "income": 191549, "revenue": 174124}, {"ein": "820771755", "name": "NIAGARA FRONTIER JUNIOR VARSITY HOCKEY CORP", "city": "EAST AMHERST", "state": "NY", "zip": "14051-2141", "ntee": "N60", "ruling": "201902", "deductibility": "2", "assets": 18752, "income": 102100, "revenue": 102100}, {"ein": "831943779", "name": "NIAGARA FRONTIER CHAPTER ACSONYS", "city": "KENMORE", "state": "NY", "zip": "14217-1167", "ntee": "N70", "ruling": "202208", "deductibility": "1", "assets": 2168, "income": 1500, "revenue": 0}, {"ein": "900176303", "name": "NIAGARA FRONTIER SECTION OF THE AIR & WASTE MANAGEMENT ASSOCIATION INC", "city": "BUFFALO", "state": "NY", "zip": "14226-0357", "ntee": "C03", "ruling": "200909", "deductibility": "1", "assets": 0, "income": 0, "revenue": 0}, {"ein": "921760555", "name": "FRONTIER STAGE PRODUCTIONS INC", "city": "BRONX", "state": "NY", "zip": "10463-3430", "ntee": "B99", "ruling": "202505", "deductibility": "1", "assets": 0, "income": 0, "revenue": 0}, {"ein": "933727108", "name": "NOVA FRONTIER ARTS INC", "city": "BROOKLYN", "state": "NY", "zip": "11210-1042", "ntee": "A25", "ruling": "202401", "deductibility": "1", "assets": 0, "income": 0, "revenue": 0}, {"ein": "980661663", "name": "NIAGARA FRONTIER REGIONAL CAMERA CLUB", "city": "LANCASTER", "state": "NY", "zip": "14086-1237", "ntee": "N50", "ruling": "201402", "deductibility": "2", "assets": 0, "income": 0, "revenue": 0}], "CLINICAL": [{"ein": "043777290", "name": "CHINESE-AMERICAN ASSOCIATION FOR CLINICAL MICROBIOLOGY", "city": "NEW YORK", "state": "NY", "zip": "10032-3720", "ntee": "U035", "ruling": "200404", "deductibility": "1", "assets": 0, "income": 0, "revenue": 0}, {"ein": "113285712", "name": "STONY BROOK CLINICAL PRACTICE MGMT PLAN REALTY CORPORATION", "city": "STONY BROOK", "state": "NY", "zip": "11790-0988", "ntee": "", "ruling": "199704", "deductibility": "2", "assets": 767000, "income": 137598, "revenue": 137598}, {"ein": "133525379", "name": "NEW YORK STATE CLINICAL LABORATORY ASSOCIATION INC", "city": "WEST NYACK", "state": "NY", "zip": "10994-0086", "ntee": "", "ruling": "199006", "deductibility": "2", "assets": 307370, "income": 204058, "revenue": 204058}, {"ein": "141717344", "name": "CLINICAL DIRECTORS NETWORK INC", "city": "NEW YORK", "state": "NY", "zip": "10018-6222", "ntee": "H99Z", "ruling": "199404", "deductibility": "1", "assets": 3569925, "income": 4296725, "revenue": 4296725}, {"ein": "160879417", "name": "AMERICAN SOCIETY FOR CLINICAL LABORATORY SCIENCE-NEW YOR INC", "city": "LIMA", "state": "NY", "zip": "14485-9609", "ntee": "S41", "ruling": "202310", "deductibility": "2", "assets": 0, "income": 0, "revenue": 0}, {"ein": "161411516", "name": "AMERICAN COLLEGE OF CLINICAL PHARMACY", "city": "COOPERSTOWN", "state": "NY", "zip": "13326-1301", "ntee": "", "ruling": "199008", "deductibility": "2", "assets": 0, "income": 0, "revenue": 0}, {"ein": "161607668", "name": "ASSOCIATION OF CLINICAL RESEARCH PROFESSIONALS", "city": "ROCHESTER", "state": "NY", "zip": "14642-0001", "ntee": "", "ruling": "198412", "deductibility": "1", "assets": 0, "income": 0, "revenue": 0}, {"ein": "200263455", "name": "ASSOCIATION OF CLINICAL RESEARCH PROFESSIONALS", "city": "BROOKLYN", "state": "NY", "zip": "11222-6291", "ntee": "E03Z", "ruling": "198412", "deductibility": "1", "assets": 60468, "income": 25810, "revenue": 25810}, {"ein": "203683908", "name": "GREATER NEW YORK OPHTHALMOLOGY CLINICAL LECTURE SERIES FOUNDATION", "city": "NEW YORK", "state": "NY", "zip": "10005-0000", "ntee": "B90", "ruling": "200611", "deductibility": "1", "assets": 51269, "income": 0, "revenue": 0}, {"ein": "264637457", "name": "SAMARITAN LICENSED CLINICAL SOCIAL WORK PC", "city": "SCOTIA", "state": "NY", "zip": "12302-0000", "ntee": "E30", "ruling": "201011", "deductibility": "1", "assets": 353537, "income": 2090315, "revenue": 2090315}, {"ein": "264642350", "name": "ADIRONDACK SAMARITAN LICENSED CLINICAL SOCIAL WORK PC", "city": "HUDSON FALLS", "state": "NY", "zip": "12839-1001", "ntee": "F30", "ruling": "201404", "deductibility": "1", "assets": 204601, "income": 644056, "revenue": 644056}, {"ein": "311451739", "name": "INTERNATIONAL ASSOC FOR THERAPEUTIC DRUG MONITORING AND CLINICAL TOXI", "city": "ROCHESTER", "state": "NY", "zip": "14618-0000", "ntee": "", "ruling": "199604", "deductibility": "2", "assets": 1886137, "income": 334315, "revenue": 334315}, {"ein": "461787308", "name": "SB CLINICAL PRACTICE MANAGEMENT PLAN INC", "city": "STONY BROOK", "state": "NY", "zip": "11790-0988", "ntee": "E99", "ruling": "201410", "deductibility": "1", "assets": 304259792, "income": 290181322, "revenue": 290150525}, {"ein": "463285474", "name": "CLINICAL RESEARCH ASSOCIATES LLC", "city": "NEW YORK", "state": "NY", "zip": "10010-7037", "ntee": "H84", "ruling": "201501", "deductibility": "1", "assets": 1370045, "income": 4233015, "revenue": 0}, {"ein": "811555745", "name": "UPSTATE UNIVERSITY CLINICAL CAMPUS MEDICAL GROUP AT BINGHAMTON INC", "city": "JOHNSON CITY", "state": "NY", "zip": "13790-0000", "ntee": "B99", "ruling": "201606", "deductibility": "1", "assets": 0, "income": 0, "revenue": 0}, {"ein": "831070338", "name": "GREATER NY COUNCIL OF ACADEMIC CLINICAL EDUCATORS IN CSD", "city": "GREENVALE", "state": "NY", "zip": "11548-0334", "ntee": "Y40", "ruling": "201905", "deductibility": "2", "assets": 0, "income": 0, "revenue": 0}, {"ein": "842427314", "name": "CORNERSTONE ONCOLOGY MASSAGE CLINICAL TRAINING RESEARCH AND DEV", "city": "NEW YORK", "state": "NY", "zip": "10025-4143", "ntee": "", "ruling": "202103", "deductibility": "1", "assets": 147340, "income": 63430, "revenue": 63430}], "CTR": [{"ein": "046982469", "name": "ALBANY PINE BUSH PRESERVE COMMISSION DISCOVERY EDUCATION CTR", "city": "ALBANY", "state": "NY", "zip": "12205-5941", "ntee": "C113", "ruling": "200210", "deductibility": "1", "assets": 1123193, "income": 170019, "revenue": 0}, {"ein": "112245967", "name": "PAUL J COOPER CTR FOR HUMAN SERV", "city": "BROOKLYN", "state": "NY", "zip": "11206-5772", "ntee": "E320", "ruling": "197604", "deductibility": "1", "assets": 4307833, "income": 7851676, "revenue": 7851676}, {"ein": "113119650", "name": "SOUTHAMPTON DAYCARE CTR INC", "city": "SOUTHAMPTON", "state": "NY", "zip": "11968-3402", "ntee": "P33", "ruling": "199608", "deductibility": "1", "assets": 216079, "income": 459925, "revenue": 459925}, {"ein": "113271735", "name": "LAGUARDIA COMMUNITY COLLEGE-EARLY CHILDHOOD LEARNING CTR PROGRAM", "city": "LONG ISLAND CITY", "state": "NY", "zip": "11101-0000", "ntee": "P33Z", "ruling": "199611", "deductibility": "1", "assets": 4591064, "income": 2463468, "revenue": 1926619}, {"ein": "113328062", "name": "KIWANIS PEDIATRIC TRAUMA CTR FNDN", "city": "BOHEMIA", "state": "NY", "zip": "11716-1713", "ntee": "E11", "ruling": "199606", "deductibility": "1", "assets": 352215, "income": 107667, "revenue": 61298}, {"ein": "113527438", "name": "DR SUSAN SMITH MCKINNEY NURSING & REHABILITATION CTR AUXILIARY INC", "city": "BROOKLYN", "state": "NY", "zip": "11203-1706", "ntee": "", "ruling": "200408", "deductibility": "1", "assets": 11864, "income": 38011, "revenue": -1270}, {"ein": "116017810", "name": "ALUMNI FUND ALUMNI ASSO COLLEGE OF MEDICINE SUNY HEALTH SCIENCE CTR", "city": "BROOKLYN", "state": "NY", "zip": "11203-2012", "ntee": "B82", "ruling": "201311", "deductibility": "1", "assets": 19398869, "income": 4602820, "revenue": 1315285}, {"ein": "116102342", "name": "CONGREGATION OF THE SHORE PARKWAY JEWISH CTR", "city": "BROOKLYN", "state": "NY", "zip": "11214-6608", "ntee": "X30", "ruling": "202203", "deductibility": "1", "assets": 0, "income": 0, "revenue": 0}, {"ein": "133054001", "name": "VISUAL ARTS RESEARCH & RESOURCE CTR RELATING TO THE CARIBBEAN INC", "city": "NEW YORK", "state": "NY", "zip": "10035-1612", "ntee": "A230", "ruling": "198209", "deductibility": "1", "assets": 11826013, "income": 2543351, "revenue": 2543351}, {"ein": "133241979", "name": "COMM OPPORTUNITY CTR OF THE TARRY TOWNS", "city": "TARRYTOWN", "state": "NY", "zip": "10591-0000", "ntee": "P28Z", "ruling": "196712", "deductibility": "1", "assets": 0, "income": 0, "revenue": 0}, {"ein": "133338239", "name": "NORTH BRONX NATIONAL COUNCIL NEGRO WOMEN CHILD DEVELOPMENT CTR INC", "city": "BRONX", "state": "NY", "zip": "10466-3003", "ntee": "B21", "ruling": "201509", "deductibility": "1", "assets": 991469, "income": 1644093, "revenue": 1644093}, {"ein": "133415436", "name": "MOTHER ROSA A HORN NURSERY & DAY CARE CTR OF EVANGELISTIC OUTREACH", "city": "BRONX", "state": "NY", "zip": "10472-1502", "ntee": "", "ruling": "198704", "deductibility": "1", "assets": 0, "income": 0, "revenue": 0}, {"ein": "133622106", "name": "CHILD DEVELOPMENT CENTER OF THE MOSHOLU-MONTEFIORE COMMUNITY CTR", "city": "BRONX", "state": "NY", "zip": "10467-2302", "ntee": "B210", "ruling": "199209", "deductibility": "1", "assets": 17738635, "income": 33607882, "revenue": 33607882}, {"ein": "136165708", "name": "HARVEY SOCIETY INC MEM SLOAN KETGN CTR", "city": "NEW YORK", "state": "NY", "zip": "10065-4805", "ntee": "", "ruling": "195703", "deductibility": "1", "assets": 55255, "income": 33058, "revenue": 33058}, {"ein": "161189716", "name": "FRESH FIRE WORSHIP CTR", "city": "OLEAN", "state": "NY", "zip": "14760-1833", "ntee": "", "ruling": "196408", "deductibility": "1", "assets": 0, "income": 0, "revenue": 0}, {"ein": "161248856", "name": "ROCHESTER RIVERSIDE CONVENTION CTR", "city": "ROCHESTER", "state": "NY", "zip": "14604-1619", "ntee": "", "ruling": "198709", "deductibility": "1", "assets": 2584204, "income": 10007076, "revenue": 10007076}, {"ein": "161261528", "name": "ITALIAN AMERICAN COMMUNITY CTR", "city": "BINGHAMTON", "state": "NY", "zip": "13901-3525", "ntee": "N50", "ruling": "200009", "deductibility": "2", "assets": 266756, "income": 146407, "revenue": 68891}, {"ein": "161475278", "name": "DEPARTMENT OF MEDICINE MEDICAL SERV GRP AT SUNY HLTH SCI CTR AT SYR IN", "city": "SYRACUSE", "state": "NY", "zip": "13210-2306", "ntee": "E31", "ruling": "199603", "deductibility": "1", "assets": 0, "income": 0, "revenue": 0}, {"ein": "201338772", "name": "ARARAT YOUTH AND CONFERENCE CTR INC", "city": "GREENVILLE", "state": "NY", "zip": "12083-0000", "ntee": "", "ruling": "000000", "deductibility": "0", "assets": 0, "income": 0, "revenue": 0}, {"ein": "202236574", "name": "FRIENDS OF THE CONSTELLATION BRANDS MARVIN SANDS PERFORMING ARTS CTR", "city": "CANANDAIGUA", "state": "NY", "zip": "14424-8405", "ntee": "B114", "ruling": "200502", "deductibility": "1", "assets": 16803652, "income": 12764723, "revenue": 11725247}, {"ein": "222148814", "name": "PENTECOSTAL DELIVERANCE PRAYER CTR OF BUFFALO NY INC", "city": "BUFFALO", "state": "NY", "zip": "14215-4012", "ntee": "", "ruling": "197705", "deductibility": "1", "assets": 0, "income": 0, "revenue": 0}, {"ein": "223053628", "name": "BELIEVERS FELLOWSHIP CTR CHRISTIAN ACADEMY & BIBLE TRAINING CTR INC", "city": "GLOVERSVILLE", "state": "NY", "zip": "12078-4501", "ntee": "", "ruling": "199310", "deductibility": "1", "assets": 0, "income": 0, "revenue": 0}, {"ein": "223285709", "name": "SUNY HEALTH SCIENCE CTR SYRACUSE COLLEGE OF HEALTH RELATED PROFESS-", "city": "SYRACUSE", "state": "NY", "zip": "13210-2306", "ntee": "", "ruling": "199405", "deductibility": "1", "assets": 129, "income": 166871, "revenue": 166871}, {"ein": "237353330", "name": "CARRIE STERN TR UW FBO JEWISH HOSP & REHABILITATION CTR OF NEW JERSEY", "city": "NEW YORK", "state": "NY", "zip": "10008-1297", "ntee": "", "ruling": "197402", "deductibility": "1", "assets": 151690, "income": 21544, "revenue": 0}, {"ein": "276001997", "name": "NY-NE STATES CONF INTL ASSN OF HEAT AND FROST INSULATORS & ASBSTSS CTR", "city": "ROCHESTER", "state": "NY", "zip": "14617-1739", "ntee": "T30", "ruling": "200205", "deductibility": "1", "assets": 0, "income": 0, "revenue": 0}, {"ein": "412068330", "name": "BUSINESS LEADERS OF TOMORROW LEADERSHIP EMPOWERMENT CTR INC", "city": "JAMAICA", "state": "NY", "zip": "11435-5027", "ntee": "O99", "ruling": "200304", "deductibility": "1", "assets": 0, "income": 0, "revenue": 0}, {"ein": "943452873", "name": "FAITH RESTORATION CTR VISION KEEPERS INC", "city": "BROOKLYN", "state": "NY", "zip": "11233-4325", "ntee": "X20", "ruling": "201505", "deductibility": "1", "assets": 0, "income": 0, "revenue": 0}], "CONNECTICUT": [{"ein": "061344655", "name": "CONNECTICUT HUNTER JUMPER ASSOCIATION I C SCHOLARSHIP FUND", "city": "BALLSTON LAKE", "state": "NY", "zip": "12019-1439", "ntee": "B82", "ruling": "201805", "deductibility": "1", "assets": 0, "income": 0, "revenue": 0}, {"ein": "061619387", "name": "CONNECTICUT YANKEES HUSKIES HOCKEY INC", "city": "MT KISCO", "state": "NY", "zip": "10549-3420", "ntee": "N60", "ruling": "200404", "deductibility": "1", "assets": 137715, "income": 144163, "revenue": 144163}, {"ein": "066026050", "name": "SOCIETY OF COLONIAL WARS IN THE STATE OF CONNECTICUT", "city": "NEW YORK", "state": "NY", "zip": "10128-0190", "ntee": "", "ruling": "194412", "deductibility": "1", "assets": 0, "income": 0, "revenue": 0}, {"ein": "066075001", "name": "PROFESSIONAL INSURANCE AGENTS OF CONNECTICUT INC", "city": "GLENMONT", "state": "NY", "zip": "12077-0997", "ntee": "", "ruling": "196511", "deductibility": "2", "assets": 2336395, "income": 521078, "revenue": 455645}, {"ein": "132924958", "name": "NEW YORK CONNECTICUT FOUNDATION OF THE UNITED METHODIST CHURCH INC", "city": "WHITE PLAINS", "state": "NY", "zip": "10605-2103", "ntee": "", "ruling": "197801", "deductibility": "1", "assets": 0, "income": 0, "revenue": 0}, {"ein": "133238722", "name": "CONNECTICUT WESTCHESTER MYCOLOGICAL ASSOC INCORPORATED", "city": "EASTCHESTER", "state": "NY", "zip": "10709-4419", "ntee": "C60", "ruling": "202210", "deductibility": "1", "assets": 0, "income": 0, "revenue": 0}, {"ein": "133330953", "name": "COVENANT HOUSE CONNECTICUT INC", "city": "NEW YORK", "state": "NY", "zip": "10001-1738", "ntee": "", "ruling": "198609", "deductibility": "1", "assets": 0, "income": 0, "revenue": 0}, {"ein": "223209102", "name": "CONNECTICUT YOUNG INSURANCE PROFESSIONALS", "city": "GLENMONT", "state": "NY", "zip": "12077-0997", "ntee": "", "ruling": "199306", "deductibility": "2", "assets": 78527, "income": 85872, "revenue": 84657}, {"ein": "270789579", "name": "CHEFS ASSOCIATION OF WESTCHESTER AND LOWER CONNECTICUT", "city": "VALHALLA", "state": "NY", "zip": "10595-0400", "ntee": "B30", "ruling": "201506", "deductibility": "1", "assets": 0, "income": 0, "revenue": 0}, {"ein": "371555895", "name": "THE ORDER OF FIRST FAMILIES OF CONNECTICUT 1633-1662", "city": "SARATOGA SPGS", "state": "NY", "zip": "12866-7501", "ntee": "A80", "ruling": "200803", "deductibility": "1", "assets": 0, "income": 0, "revenue": 0}, {"ein": "810651422", "name": "COM IT ES DI NEW YORK E CONNECTICUT INC", "city": "BROOKLYN", "state": "NY", "zip": "11214-3735", "ntee": "A23", "ruling": "202404", "deductibility": "1", "assets": 0, "income": 0, "revenue": 0}, {"ein": "815056290", "name": "VASSAR HEALTH CONNECTICUT INC", "city": "LAGRANGEVILLE", "state": "NY", "zip": "12540-5108", "ntee": "E20", "ruling": "201902", "deductibility": "1", "assets": 42057121, "income": 49774644, "revenue": 49599644}, {"ein": "932180473", "name": "FASHION WEEK CONNECTICUT CORP", "city": "BROOKLYN", "state": "NY", "zip": "11233-4717", "ntee": "A60", "ruling": "202502", "deductibility": "1", "assets": 0, "income": 0, "revenue": 0}, {"ein": "933835601", "name": "CONNECTICUT STATE ASSOCIATION OF MATH LEAGUES INC", "city": "SOUTH SALEM", "state": "NY", "zip": "10590-2332", "ntee": "U34", "ruling": "202312", "deductibility": "1", "assets": 0, "income": 0, "revenue": 0}, {"ein": "991636879", "name": "RWANDAN COMMUNITY OF NEW YORK NEW JERSEY & CONNECTICUT INC", "city": "SYRACUSE", "state": "NY", "zip": "13208-2921", "ntee": "T40", "ruling": "202404", "deductibility": "1", "assets": 0, "income": 0, "revenue": 0}], "TUXEDO": [{"ein": "061359388", "name": "TUXEDO VOLUNTEER AMBULANCE CORPS INC", "city": "TUXEDO", "state": "NY", "zip": "10987-0726", "ntee": "E62", "ruling": "202303", "deductibility": "1", "assets": 231772, "income": 194806, "revenue": 194806}, {"ein": "061381907", "name": "TUXEDO SPORTSMENS ASSOCIATION INC", "city": "TUXEDO", "state": "NY", "zip": "10987-0284", "ntee": "", "ruling": "199511", "deductibility": "2", "assets": 0, "income": 0, "revenue": 0}, {"ein": "061394513", "name": "TUXEDO TEACHERS ASSOCIATION BENEFIT PLAN", "city": "TUXEDO PARK", "state": "NY", "zip": "10987-0000", "ntee": "", "ruling": "199504", "deductibility": "2", "assets": 140085, "income": 163089, "revenue": 163089}, {"ein": "133215198", "name": "TUXEDO HISTORICAL SOCIETY", "city": "TUXEDO", "state": "NY", "zip": "10987-0000", "ntee": "A82Z", "ruling": "198408", "deductibility": "1", "assets": 1349835, "income": 154931, "revenue": 154931}, {"ein": "133253630", "name": "TUXEDO PARK FIRE DEPARTMENT", "city": "TUXEDO PARK", "state": "NY", "zip": "10987-0854", "ntee": "", "ruling": "198609", "deductibility": "1", "assets": 1992093, "income": 111544, "revenue": 111544}, {"ein": "141129850", "name": "TUXEDO CLUB INC", "city": "TUXEDO PARK", "state": "NY", "zip": "10987-4084", "ntee": "", "ruling": "194910", "deductibility": "2", "assets": 21567002, "income": 12439706, "revenue": 11579535}, {"ein": "141364656", "name": "TUXEDO PARK SCHOOL", "city": "TUXEDO PARK", "state": "NY", "zip": "10987-0000", "ntee": "", "ruling": "194302", "deductibility": "1", "assets": 12073354, "income": 7869737, "revenue": 6381856}, {"ein": "141367703", "name": "TUXEDO PARK LIBRARY", "city": "TUXEDO PARK", "state": "NY", "zip": "10987-4405", "ntee": "B71Z", "ruling": "197702", "deductibility": "1", "assets": 1175871, "income": 679562, "revenue": 668890}, {"ein": "237348726", "name": "TUXEDO PARK GARDEN CLUB", "city": "TUXEDO PARK", "state": "NY", "zip": "10987-0784", "ntee": "C42", "ruling": "202110", "deductibility": "1", "assets": 0, "income": 0, "revenue": 0}, {"ein": "260491190", "name": "TUXEDO PTO", "city": "TUXEDO PARK", "state": "NY", "zip": "10987-4423", "ntee": "B94", "ruling": "200711", "deductibility": "1", "assets": 0, "income": 0, "revenue": 0}, {"ein": "473761195", "name": "FRIENDS OF TUXEDO PARK LIBRARY INC", "city": "TUXEDO PARK", "state": "NY", "zip": "10987-0776", "ntee": "B11", "ruling": "201602", "deductibility": "1", "assets": 13666, "income": 6500, "revenue": 6500}], "BRAESIDE": [{"ein": "061465746", "name": "BRAESIDE AQUA CORPORATION", "city": "MONROE", "state": "NY", "zip": "10950-6501", "ntee": "", "ruling": "199703", "deductibility": "2", "assets": 188196, "income": 98676, "revenue": 98676}], "FUERTE": [{"ein": "061708185", "name": "IGLESIA DEL DIOS FUERTE", "city": "FAR ROCKAWAY", "state": "NY", "zip": "11691-3156", "ntee": "X21", "ruling": "200501", "deductibility": "1", "assets": 0, "income": 0, "revenue": 0}, {"ein": "472162466", "name": "CENTRO CRISTIANO TORREON FUERTE CORP", "city": "STONY POINT", "state": "NY", "zip": "10980-3009", "ntee": "X20", "ruling": "202205", "deductibility": "1", "assets": 0, "income": 0, "revenue": 0}, {"ein": "800271889", "name": "IGLESIA CRISTIANA TORRE FUERTE", "city": "FREEPORT", "state": "NY", "zip": "11520-5414", "ntee": "X21", "ruling": "200911", "deductibility": "1", "assets": 0, "income": 0, "revenue": 0}], "COUNSEL": [{"ein": "112164392", "name": "NASSAU COUNTY BAR ASSN ASSIGNED COUNSEL DEFENDER PLAN INC", "city": "MINEOLA", "state": "NY", "zip": "11501-0000", "ntee": "I80", "ruling": "200703", "deductibility": "1", "assets": 357885, "income": 725067, "revenue": 725067}, {"ein": "113425947", "name": "FRIENDS OF MOTHER OF GOOD COUNSEL HOME INC", "city": "ROOSEVELT", "state": "NY", "zip": "11575-0329", "ntee": "", "ruling": "194603", "deductibility": "0", "assets": 0, "income": 0, "revenue": 0}, {"ein": "133216389", "name": "ASSOCIATION OF CORPORATE COUNSEL", "city": "NEW YORK", "state": "NY", "zip": "10163-2111", "ntee": "", "ruling": "198311", "deductibility": "2", "assets": 0, "income": 0, "revenue": 0}, {"ein": "161288030", "name": "OUR MOTHER OF GOOD COUNSEL HOUSING DEVELOPEMENT FUND CO INC", "city": "BUFFALO", "state": "NY", "zip": "14203-1711", "ntee": "", "ruling": "193603", "deductibility": "1", "assets": 1401354, "income": 426938, "revenue": 426938}, {"ein": "161373420", "name": "NIAGARA FRONTIER CORPORATE COUNSEL ASSOCIATION INCORPORATED", "city": "WILLIAMSVILLE", "state": "NY", "zip": "14221-5855", "ntee": "S41", "ruling": "200706", "deductibility": "2", "assets": 0, "income": 0, "revenue": 0}, {"ein": "161429858", "name": "CATHOLIC DAUGHTERS OF THE AMERICAS CT 1311 OUR MOTHER OF GOOD COUNSEL", "city": "ORCHARD PARK", "state": "NY", "zip": "14127-1039", "ntee": "", "ruling": "194603", "deductibility": "1", "assets": 0, "income": 0, "revenue": 0}, {"ein": "161471888", "name": "ONONDAGA COUNTY BAR ASSOCIATION ASSIGNED COUNSEL PROGRAM INC", "city": "SYRACUSE", "state": "NY", "zip": "13202-4740", "ntee": "I80Z", "ruling": "199709", "deductibility": "1", "assets": 2379907, "income": 15509691, "revenue": 15509691}, {"ein": "222831271", "name": "GOOD COUNSEL INC", "city": "SPRING VALLEY", "state": "NY", "zip": "10977-3946", "ntee": "P420", "ruling": "194603", "deductibility": "1", "assets": 5216427, "income": 5122044, "revenue": 4989536}, {"ein": "237085221", "name": "ACADEMY OF OUR LADY OF GOOD COUNSEL", "city": "VALHALLA", "state": "NY", "zip": "10595-2134", "ntee": "", "ruling": "194603", "deductibility": "1", "assets": 0, "income": 0, "revenue": 0}, {"ein": "311579087", "name": "ASSOCIATION OF CORPORATE PATENT COUNSEL INC", "city": "LATHAM", "state": "NY", "zip": "12110-0213", "ntee": "", "ruling": "199801", "deductibility": "2", "assets": 669844, "income": 368625, "revenue": 368625}, {"ein": "521647448", "name": "ASSOCIATION OF CORPORATE COUNSEL", "city": "VICTOR", "state": "NY", "zip": "14564-1061", "ntee": "", "ruling": "198311", "deductibility": "2", "assets": 0, "income": 0, "revenue": 0}, {"ein": "630795615", "name": "AMERICAN COLLEGE OF TAX COUNSEL", "city": "ROCHESTER", "state": "NY", "zip": "14618-2213", "ntee": "", "ruling": "198109", "deductibility": "2", "assets": 729310, "income": 162677, "revenue": 162677}, {"ein": "800292782", "name": "ASSOCIATION OF PRO BONO COUNSEL", "city": "NEW YORK", "state": "NY", "zip": "10018-3612", "ntee": "S40", "ruling": "201002", "deductibility": "2", "assets": 247058, "income": 234757, "revenue": 234757}, {"ein": "811205357", "name": "ASSIGNED COUNSEL DEFENDER PLAN OF SUFFOLK COUNTY INC", "city": "CENTRAL ISLIP", "state": "NY", "zip": "11722-0000", "ntee": "I80", "ruling": "201803", "deductibility": "1", "assets": 583023, "income": 2626306, "revenue": 2626306}, {"ein": "812474814", "name": "AMS WOMEN BROOKLYN COUNSEL INC", "city": "BROOKLYN", "state": "NY", "zip": "11230-2313", "ntee": "S20", "ruling": "201607", "deductibility": "1", "assets": 0, "income": 0, "revenue": 0}, {"ein": "813797977", "name": "ROMAN CATHOLIC CHURCH OF OUR LADY OF GOOD COUNSEL AND SAINT THOMAS M", "city": "NEW YORK", "state": "NY", "zip": "10128-3503", "ntee": "", "ruling": "194603", "deductibility": "1", "assets": 0, "income": 0, "revenue": 0}, {"ein": "814662958", "name": "GOOD COUNSEL SERVICES INC", "city": "NEW YORK", "state": "NY", "zip": "10006-1646", "ntee": "I80", "ruling": "201704", "deductibility": "1", "assets": 18837, "income": 85589, "revenue": 85589}, {"ein": "870959175", "name": "COUNSEL ON BALLROOM FASHION INC", "city": "NEW YORK", "state": "NY", "zip": "10027-3007", "ntee": "J19", "ruling": "202211", "deductibility": "1", "assets": 0, "income": 0, "revenue": 0}, {"ein": "933442871", "name": "CO-COUNSEL NYC INC", "city": "NEW YORK", "state": "NY", "zip": "10001-2538", "ntee": "I80", "ruling": "202310", "deductibility": "1", "assets": 478153, "income": 595334, "revenue": 595334}, {"ein": "991357200", "name": "ROMAN CATHOLIC CHURCH OF OUR LADY OF GOOD COUNSEL-SAINT PETER-SAINT", "city": "STATEN ISLAND", "state": "NY", "zip": "10304-2108", "ntee": "", "ruling": "194603", "deductibility": "1", "assets": 0, "income": 0, "revenue": 0}, {"ein": "993949998", "name": "CYBER COUNSEL GROUP INC", "city": "NEW YORK", "state": "NY", "zip": "10023-6217", "ntee": "I03", "ruling": "202504", "deductibility": "2", "assets": 0, "income": 0, "revenue": 0}], "PAROCHIAL": [{"ein": "112218980", "name": "HOLY SPIRIT PAROCHIAL SCHOOL", "city": "NEW HYDE PARK", "state": "NY", "zip": "11040-4511", "ntee": "", "ruling": "194603", "deductibility": "1", "assets": 0, "income": 0, "revenue": 0}, {"ein": "132686763", "name": "OUR LADY OF SORROWS PAROCHIAL ELEMENTARY SCHOOL", "city": "NEW YORK", "state": "NY", "zip": "10002-1831", "ntee": "", "ruling": "194603", "deductibility": "1", "assets": 0, "income": 0, "revenue": 0}, {"ein": "132686765", "name": "ST AUGUSTINE PAROCHIAL ELEMENTARY SCHOOL", "city": "BRONX", "state": "NY", "zip": "10456-4305", "ntee": "", "ruling": "194603", "deductibility": "0", "assets": 0, "income": 0, "revenue": 0}, {"ein": "132687292", "name": "ST JUDE PAROCHIAL ELEMENTARY SCHOOL", "city": "NEW YORK", "state": "NY", "zip": "10034-3707", "ntee": "", "ruling": "194603", "deductibility": "1", "assets": 0, "income": 0, "revenue": 0}, {"ein": "132687430", "name": "ST CATHARINES PAROCHIAL ELEMENTARY SCHOOL", "city": "BLAUVELT", "state": "NY", "zip": "10913-2014", "ntee": "", "ruling": "194603", "deductibility": "1", "assets": 0, "income": 0, "revenue": 0}, {"ein": "132688384", "name": "ST CHARLES BORROMEO PAROCHIAL ELEMENTARY SCHOOL", "city": "NEW YORK", "state": "NY", "zip": "10030-1707", "ntee": "", "ruling": "194603", "deductibility": "1", "assets": 0, "income": 0, "revenue": 0}, {"ein": "132691191", "name": "ST IGNATIUS LOYOLA PAROCHIAL SCHOOL", "city": "NEW YORK", "state": "NY", "zip": "10028-0806", "ntee": "", "ruling": "194603", "deductibility": "1", "assets": 0, "income": 0, "revenue": 0}, {"ein": "132692428", "name": "ST ELIZABETH PAROCHIAL ELEMENTARY SCHOOL", "city": "NEW YORK", "state": "NY", "zip": "10033-2503", "ntee": "", "ruling": "194603", "deductibility": "0", "assets": 0, "income": 0, "revenue": 0}, {"ein": "132693063", "name": "ST PETERS PAROCHIAL ELEMENTARY SCHOOL", "city": "HAVERSTRAW", "state": "NY", "zip": "10927-1114", "ntee": "", "ruling": "194603", "deductibility": "1", "assets": 0, "income": 0, "revenue": 0}, {"ein": "132693072", "name": "ST BENEDICTS PAROCHIAL ELEMENTARY SCHOOL", "city": "BRONX", "state": "NY", "zip": "10465-3435", "ntee": "", "ruling": "194603", "deductibility": "1", "assets": 0, "income": 0, "revenue": 0}, {"ein": "132693073", "name": "STS PETER & PAUL PAROCHIAL ELEMENTARY SCHOOL", "city": "BRONX", "state": "NY", "zip": "10451-4620", "ntee": "", "ruling": "194603", "deductibility": "0", "assets": 0, "income": 0, "revenue": 0}, {"ein": "132693079", "name": "ST ADALBERT PAROCHIAL ELEMENTARY SCHOOL", "city": "STATEN ISLAND", "state": "NY", "zip": "10303-2830", "ntee": "", "ruling": "194603", "deductibility": "0", "assets": 0, "income": 0, "revenue": 0}, {"ein": "132693089", "name": "ST JEAN BAPTISTE PAROCHIAL HIGH SCHOOL", "city": "NEW YORK", "state": "NY", "zip": "10021-3393", "ntee": "", "ruling": "194603", "deductibility": "1", "assets": 0, "income": 0, "revenue": 0}, {"ein": "132693090", "name": "ST MARGARET MARYS PAROCHIAL SCHOOL", "city": "STATEN ISLAND", "state": "NY", "zip": "10306-5849", "ntee": "", "ruling": "194603", "deductibility": "1", "assets": 0, "income": 0, "revenue": 0}, {"ein": "132695173", "name": "CHURCH OF ST STEPHEN OF HUNGARY PAROCHIAL ELEMENTARY SCHOOL", "city": "NEW YORK", "state": "NY", "zip": "10028-5902", "ntee": "", "ruling": "194603", "deductibility": "1", "assets": 0, "income": 0, "revenue": 0}, {"ein": "132721090", "name": "BETH JACOB PAROCHIAL SCHOOL OF EAST SIDE AND ESTHER SCHOENFELD HS INC", "city": "NEW YORK", "state": "NY", "zip": "10002-4002", "ntee": "", "ruling": "195005", "deductibility": "1", "assets": 0, "income": 0, "revenue": 0}, {"ein": "141538846", "name": "HOLY TRINITY PAROCHIAL ELEMENTARY SCHOOL", "city": "POUGHKEEPSIE", "state": "NY", "zip": "12603-1838", "ntee": "", "ruling": "194603", "deductibility": "1", "assets": 0, "income": 0, "revenue": 0}], "SHEARIM": [{"ein": "112288896", "name": "YESHIVA BETH SHEARIM", "city": "BROOKLYN", "state": "NY", "zip": "11219-3956", "ntee": "", "ruling": "197306", "deductibility": "1", "assets": 0, "income": 0, "revenue": 0}, {"ein": "112908992", "name": "AMERICAN FRIENDS OF YESHIVA MEAH SHEARIM INC", "city": "FLUSHING", "state": "NY", "zip": "11367-1943", "ntee": "", "ruling": "199205", "deductibility": "1", "assets": 21701, "income": 887713, "revenue": 887713}, {"ein": "452842146", "name": "FRIENDS OF SHEARIM HAMETSUYANIM INC", "city": "BROOKLYN", "state": "NY", "zip": "11235-5369", "ntee": "T30", "ruling": "201401", "deductibility": "1", "assets": 307720, "income": 658679, "revenue": 658679}], "YSHAYA": [{"ein": "112483017", "name": "CONGREGATION BAIS YSHAYA INC", "city": "BROOKLYN", "state": "NY", "zip": "11210-3610", "ntee": "", "ruling": "198001", "deductibility": "1", "assets": 0, "income": 0, "revenue": 0}, {"ein": "882272319", "name": "CONG USHER YSHAYA INC", "city": "BROOKLYN", "state": "NY", "zip": "11205-3923", "ntee": "X30", "ruling": "202305", "deductibility": "1", "assets": 0, "income": 0, "revenue": 0}], "OLEI": [{"ein": "112534069", "name": "INSTITUTE FOR OLEI RUSSYA INC", "city": "BROOKLYN", "state": "NY", "zip": "11223-2329", "ntee": "", "ruling": "198006", "deductibility": "1", "assets": 0, "income": 0, "revenue": 0}], "BELIEV": [{"ein": "112605884", "name": "CHRISTIAN BELIEV MEETING", "city": "FLUSHING", "state": "NY", "zip": "11355-4906", "ntee": "", "ruling": "199305", "deductibility": "1", "assets": 0, "income": 0, "revenue": 0}], "MAHARAM": [{"ein": "112606290", "name": "KOLLEL UMESIVTA MAHARAM SKIK INC", "city": "BROOKLYN", "state": "NY", "zip": "11204-0000", "ntee": "", "ruling": "198207", "deductibility": "1", "assets": 0, "income": 0, "revenue": 0}, {"ein": "990718005", "name": "CONGREGATION MAHARAM TAV", "city": "PALM TREE", "state": "NY", "zip": "10950-6885", "ntee": "X30", "ruling": "202406", "deductibility": "1", "assets": 0, "income": 0, "revenue": 0}], "WHALEBONE": [{"ein": "112770854", "name": "WHALEBONE HOUSING DEVELOPMENT FUND COMPANY INC", "city": "EAST HAMPTON", "state": "NY", "zip": "11937-2138", "ntee": "L21Z", "ruling": "198705", "deductibility": "1", "assets": 893840, "income": 981304, "revenue": 981304}], "ATHAS": [{"ein": "112801980", "name": "ATHAS ZAHARIS AGORIANI TR", "city": "BAYSIDE HILLS", "state": "NY", "zip": "11364-1827", "ntee": "", "ruling": "199008", "deductibility": "1", "assets": 40836, "income": 1, "revenue": 0}], "PARTNERSHIPS": [{"ein": "112871565", "name": "SCHOOL BUSINESS PARTNERSHIPS OF LONG ISLAND INC", "city": "HAUPPAUGE", "state": "NY", "zip": "11788-5159", "ntee": "", "ruling": "198802", "deductibility": "1", "assets": 191970, "income": 235316, "revenue": 235316}, {"ein": "133667009", "name": "CONSORTIUM FOR EDUCATIONAL EXCELLENCE THROUGH PARTNERSHIPS", "city": "ESSEX", "state": "NY", "zip": "12936-0247", "ntee": "S41Z", "ruling": "199206", "deductibility": "1", "assets": 129720, "income": 706908, "revenue": 706908}, {"ein": "454359619", "name": "GLOBAL PARTNERSHIPS FORUM INC", "city": "WHITE PLAINS", "state": "NY", "zip": "10606-1921", "ntee": "Z99", "ruling": "201409", "deductibility": "1", "assets": 0, "income": 0, "revenue": 0}, {"ein": "454656491", "name": "FRIENDS OF THE NEW YORK STATE LIBERTY PARTNERSHIPS INC", "city": "DUNKIRK", "state": "NY", "zip": "14048-9601", "ntee": "B99", "ruling": "201407", "deductibility": "1", "assets": 419259, "income": 311987, "revenue": 311987}, {"ein": "463808560", "name": "PARTNERSHIPS FOR HEALTHCARE SOLUTIONS INC", "city": "NEW YORK", "state": "NY", "zip": "10017-9130", "ntee": "E19", "ruling": "201602", "deductibility": "2", "assets": 0, "income": 0, "revenue": 0}, {"ein": "562398693", "name": "PROMOTING PARTNERSHIPS IN PUBLIC EDUCATION INC", "city": "WEST SENECA", "state": "NY", "zip": "14224-1825", "ntee": "B99", "ruling": "200312", "deductibility": "1", "assets": 0, "income": 0, "revenue": 0}, {"ein": "562603609", "name": "EMPOWERED HEALTH PARTNERSHIPS INC", "city": "LAURELTON", "state": "NY", "zip": "11413-2116", "ntee": "P40", "ruling": "200704", "deductibility": "1", "assets": 0, "income": 0, "revenue": 0}, {"ein": "821472248", "name": "GLOBAL PARTNERSHIPS INC", "city": "RANSOMVILLE", "state": "NY", "zip": "14131-9529", "ntee": "Q30", "ruling": "201705", "deductibility": "1", "assets": 913, "income": 66250, "revenue": 66250}, {"ein": "830434876", "name": "AGORA PARTNERSHIPS", "city": "NEW YORK", "state": "NY", "zip": "10016-2418", "ntee": "Q30", "ruling": "200605", "deductibility": "1", "assets": 2277559, "income": 1806343, "revenue": 1806343}, {"ein": "853873125", "name": "VOLCANI INTERNATIONAL PARTNERSHIPS - US INC", "city": "NEW YORK", "state": "NY", "zip": "10017-6939", "ntee": "K20", "ruling": "202203", "deductibility": "1", "assets": 10493, "income": 92832, "revenue": 92832}, {"ein": "990391760", "name": "OUTREACH PARTNERSHIPS INC", "city": "ISLIP TERRACE", "state": "NY", "zip": "11752-0183", "ntee": "F20", "ruling": "202408", "deductibility": "1", "assets": 0, "income": 0, "revenue": 0}], "SETER": [{"ein": "112967060", "name": "MATAN B SETER BAMBI INC", "city": "BROOKLYN", "state": "NY", "zip": "11204-1524", "ntee": "P60Z", "ruling": "199003", "deductibility": "1", "assets": 343255, "income": 879815, "revenue": 879815}], "LIVELY": [{"ein": "113003513", "name": "LIVELY STONE PENTECOSTAL CHURCH INC", "city": "BROOKLYN", "state": "NY", "zip": "11203-1907", "ntee": "X21", "ruling": "200010", "deductibility": "1", "assets": 0, "income": 0, "revenue": 0}, {"ein": "273007269", "name": "LIVELY PRODUCTIONS", "city": "NEW YORK", "state": "NY", "zip": "10025-3152", "ntee": "A65", "ruling": "201106", "deductibility": "1", "assets": 0, "income": 0, "revenue": 0}, {"ein": "810693451", "name": "GIVE LIVELY FOUNDATION INC", "city": "NEW YORK", "state": "NY", "zip": "10106-0000", "ntee": "T30", "ruling": "201605", "deductibility": "1", "assets": 32040054, "income": 46706947, "revenue": 46706947}, {"ein": "834523271", "name": "LIVELY INSPIRATIONAL GREATER HOUSE OF TALENT RESOURCE CENTER INC", "city": "SHIRLEY", "state": "NY", "zip": "11967-0221", "ntee": "A90", "ruling": "202011", "deductibility": "1", "assets": 0, "income": 0, "revenue": 0}], "DAMIANO": [{"ein": "113040860", "name": "S S MEDICI COSMA & DAMIANO SOCIETY OF SOUTH QUEENS INC", "city": "HOWARD BEACH", "state": "NY", "zip": "11414-0000", "ntee": "", "ruling": "199301", "deductibility": "1", "assets": 0, "income": 0, "revenue": 0}, {"ein": "474918901", "name": "SAN DAMIANO FRATERNITY OF SECULAR", "city": "RED HOOK", "state": "NY", "zip": "12571-1903", "ntee": "", "ruling": "194603", "deductibility": "1", "assets": 0, "income": 0, "revenue": 0}], "ACHARIS": [{"ein": "113211194", "name": "CONGREGATION ACHARIS HAYOMIM INC", "city": "BROOKLYN", "state": "NY", "zip": "11219-4502", "ntee": "", "ruling": "199406", "deductibility": "1", "assets": 0, "income": 0, "revenue": 0}], "HOLMIN": [{"ein": "113214398", "name": "CONGREGATION OF HOLMIN", "city": "BROOKLYN", "state": "NY", "zip": "11219-3517", "ntee": "X30Z", "ruling": "199507", "deductibility": "1", "assets": 0, "income": 0, "revenue": 0}], "BAPT": [{"ein": "113241345", "name": "EGLISE EVANG BAPT AMOUR FRATERNAL", "city": "JAMAICA", "state": "NY", "zip": "11412-1801", "ntee": "", "ruling": "195504", "deductibility": "1", "assets": 0, "income": 0, "revenue": 0}], "VIENER": [{"ein": "113275835", "name": "VIENER MESIVTA OF BORO PARK INC", "city": "BROOKLYN", "state": "NY", "zip": "11219-3501", "ntee": "X30", "ruling": "199908", "deductibility": "1", "assets": 0, "income": 0, "revenue": 0}], "DCHASEDI": [{"ein": "113289707", "name": "CONG & KOLEL OHEL YESOCHOR DCHASEDI BELZ", "city": "BROOKLYN", "state": "NY", "zip": "11219-2637", "ntee": "X30Z", "ruling": "199512", "deductibility": "1", "assets": 0, "income": 0, "revenue": 0}], "BUDDHAS": [{"ein": "113329436", "name": "BUDDHAS LIGHT INTERNATIONAL ASSOCIATION NEW YORK INC", "city": "FLUSHING", "state": "NY", "zip": "11355-0000", "ntee": "X50", "ruling": "199903", "deductibility": "1", "assets": 0, "income": 0, "revenue": 0}, {"ein": "134021152", "name": "EASTERN US BUDDHAS STUDY FALUN DAFA ASSOCIATION", "city": "FLUSHING", "state": "NY", "zip": "11354-5523", "ntee": "X50", "ruling": "199907", "deductibility": "1", "assets": 0, "income": 0, "revenue": 0}, {"ein": "464093017", "name": "TEMPLE OF BUDDHAS INC", "city": "CORONA", "state": "NY", "zip": "11368-3085", "ntee": "X50", "ruling": "201408", "deductibility": "1", "assets": 0, "income": 0, "revenue": 0}, {"ein": "473201335", "name": "BUDDHAS LIGHT CULTURAL CENTER", "city": "NEW YORK", "state": "NY", "zip": "10036-5402", "ntee": "X50", "ruling": "201506", "deductibility": "1", "assets": 0, "income": 0, "revenue": 0}], "HORIZONTES": [{"ein": "113349821", "name": "HORIZONTES LUMINOSOS CENTRO YHOSVA", "city": "WOODSIDE", "state": "NY", "zip": "11377-4635", "ntee": "X20Z", "ruling": "199809", "deductibility": "1", "assets": 0, "income": 0, "revenue": 0}, {"ein": "993837852", "name": "NUEVOS HORIZONTES INC", "city": "YONKERS", "state": "NY", "zip": "10705-2371", "ntee": "P84", "ruling": "202409", "deductibility": "1", "assets": 0, "income": 0, "revenue": 0}], "CORPORATI": [{"ein": "113402363", "name": "MSGR JOSEPH F STEDMAN RESIDENCE HOUSING DEVELOPMENT FUND CORPORATI", "city": "BROOKLYN", "state": "NY", "zip": "11201-4306", "ntee": "", "ruling": "194603", "deductibility": "1", "assets": 5477919, "income": 1298958, "revenue": 1298958}, {"ein": "133441465", "name": "ST JOHNS PLACE FAMILY CENTER HOUSING DEVELOPMENT FUND CORPORATI", "city": "NEW YORK", "state": "NY", "zip": "10018-5706", "ntee": "L41", "ruling": "198808", "deductibility": "1", "assets": 65914827, "income": 4032561, "revenue": 4032561}, {"ein": "133906301", "name": "NUMBER ONE SINGLE ROOM OCCUPANCY HOUSING DEVELOPMENT FUND CORPORATI", "city": "NEW YORK", "state": "NY", "zip": "10029-5611", "ntee": "L41", "ruling": "199702", "deductibility": "1", "assets": 156213, "income": 196950, "revenue": 196950}, {"ein": "134062700", "name": "OUR LADY OF MERCY SENIOR MANOR HOUSING DEVELOPMENT FUND CORPORATI", "city": "NEW YORK", "state": "NY", "zip": "10022-4112", "ntee": "P80", "ruling": "199907", "deductibility": "1", "assets": 4478507, "income": 948391, "revenue": 948391}, {"ein": "263999703", "name": "WHGA HARRIET TUBMAN APARTMENTS HOUSING DEVELOPMENT FUND CORPORATI", "city": "NEW YORK", "state": "NY", "zip": "10031-6166", "ntee": "L21", "ruling": "201010", "deductibility": "2", "assets": 0, "income": 0, "revenue": 0}, {"ein": "274688153", "name": "PRESERVING CITY NEIGHBORHOODS HOUSING DEVELOPMENT FUND CORPORATI", "city": "NEW YORK", "state": "NY", "zip": "10038-4484", "ntee": "L20", "ruling": "201104", "deductibility": "1", "assets": 27116782, "income": 828617, "revenue": 828617}, {"ein": "453321773", "name": "PRAXIS HOUSING WHITE PLAINS ROAD HOUSING DEVELOPMENT FUND CORPORATI", "city": "NEW YORK", "state": "NY", "zip": "10001-5312", "ntee": "L20", "ruling": "201408", "deductibility": "2", "assets": 0, "income": 0, "revenue": 0}, {"ein": "461741040", "name": "FOUNDATION FOR BEDFORD CENTRAL SCHOOLS A NOT-FOR-PROFIT-CORPORATI", "city": "BEDFORD HILLS", "state": "NY", "zip": "10507-0807", "ntee": "B122", "ruling": "201307", "deductibility": "1", "assets": 53011, "income": 79532, "revenue": 79532}, {"ein": "464044465", "name": "HABITAT FOR HUMANITY DEAN STREET HOUSING DEVELOPMENT FUND CORPORATI", "city": "NEW YORK", "state": "NY", "zip": "10038-3101", "ntee": "L21", "ruling": "201504", "deductibility": "2", "assets": 10726, "income": 0, "revenue": 0}, {"ein": "464555144", "name": "HOUSING WORKS LYMAN PROSPECT HOUSING DEVELOPMENT FUND CORPORATI", "city": "BROOKLYN", "state": "NY", "zip": "11201-5290", "ntee": "L99", "ruling": "201406", "deductibility": "1", "assets": 566366, "income": 304514, "revenue": 304514}, {"ein": "472884983", "name": "BAC LOCAL 7 TILE MARBLE AND TERRAZZO SKILLS TRAINING CORPORATI", "city": "LONG IS CITY", "state": "NY", "zip": "11101-4301", "ntee": "J40", "ruling": "201512", "deductibility": "2", "assets": 682530, "income": 68653, "revenue": 68653}, {"ein": "822914238", "name": "CHV CHV 210-214 HEGEMAN AVENUE HOUSING DEVELOPMENT FUND CORPORATI", "city": "BROOKLYN", "state": "NY", "zip": "11226-2630", "ntee": "L21", "ruling": "202112", "deductibility": "2", "assets": 0, "income": 0, "revenue": 0}, {"ein": "825247722", "name": "NORTHEASTEN CONFERENCE HOUSE ANNEX HOUSING DEVELOPMENT FUND CORPORATI", "city": "JAMAICA", "state": "NY", "zip": "11434-1852", "ntee": "L20", "ruling": "201903", "deductibility": "2", "assets": 0, "income": 0, "revenue": 0}, {"ein": "834697002", "name": "ACMH CONVENT AVENUE RESIDENCE HOUSING DEVELOPMENT FUND CORPORATI", "city": "NEW YORK", "state": "NY", "zip": "10001-2813", "ntee": "L20", "ruling": "201910", "deductibility": "2", "assets": 8721965, "income": 564200, "revenue": 564200}], "GRATIAS": [{"ein": "113434234", "name": "DEO GRATIAS FOUNDATION INC", "city": "NEW YORK", "state": "NY", "zip": "10023-5520", "ntee": "T20Z", "ruling": "199811", "deductibility": "1", "assets": 268186, "income": 96811, "revenue": 0}], "ENZIAN": [{"ein": "113638893", "name": "ORIGINAL SCHUHPLATTER V V ENZIAN INC", "city": "FRANKLIN SQ", "state": "NY", "zip": "11010-1535", "ntee": "A20", "ruling": "201101", "deductibility": "1", "assets": 91867, "income": 118004, "revenue": 100428}], "CHASSIDIM": [{"ein": "113723827", "name": "CONGREGATION K HAL CHASSIDIM OF VIENNA INC", "city": "BROOKLYN", "state": "NY", "zip": "11218-5795", "ntee": "X30", "ruling": "200506", "deductibility": "1", "assets": 0, "income": 0, "revenue": 0}, {"ein": "831135157", "name": "KHAL CHASSIDIM OF BAYSWATER", "city": "BROOKLYN", "state": "NY", "zip": "11206-3773", "ntee": "X30", "ruling": "202002", "deductibility": "1", "assets": 0, "income": 0, "revenue": 0}, {"ein": "832235036", "name": "TRAVELING CHASSIDIM INC", "city": "SUFFERN", "state": "NY", "zip": "10901-4008", "ntee": "X30", "ruling": "201906", "deductibility": "1", "assets": 88509, "income": 208973, "revenue": 208973}, {"ein": "872139802", "name": "CONGREGATION KHAL CHASSIDIM OF WPB INC", "city": "BROOKLYN", "state": "NY", "zip": "11211-8484", "ntee": "X30", "ruling": "202205", "deductibility": "1", "assets": 0, "income": 0, "revenue": 0}, {"ein": "992585912", "name": "KHAL CHASSIDIM HEICHAL HATORAH WPB", "city": "BROOKLYN", "state": "NY", "zip": "11249-9235", "ntee": "X30", "ruling": "202410", "deductibility": "1", "assets": 0, "income": 0, "revenue": 0}, {"ein": "994384640", "name": "CONGREGATION KHAL CHASSIDIM OF HAVESTRAW INC", "city": "POMONA", "state": "NY", "zip": "10970-2656", "ntee": "X99", "ruling": "202408", "deductibility": "1", "assets": 0, "income": 0, "revenue": 0}], "FLYFISHERS": [{"ein": "116061771", "name": "THE WOMEN FLYFISHERS CLUB INC", "city": "ROSCOE", "state": "NY", "zip": "12776-0415", "ntee": "", "ruling": "196010", "deductibility": "2", "assets": 472534, "income": 42287, "revenue": 42287}, {"ein": "132654783", "name": "THEODORE GORDON FLYFISHERS INC", "city": "NEW YORK", "state": "NY", "zip": "10163-2345", "ntee": "N61Z", "ruling": "196602", "deductibility": "1", "assets": 325983, "income": 118593, "revenue": 118593}], "WEED": [{"ein": "116078621", "name": "NORTHEASTERN WEED SCIENCE SOCIETY", "city": "KING FERRY", "state": "NY", "zip": "13081-0303", "ntee": "C034", "ruling": "196804", "deductibility": "1", "assets": 235209, "income": 81122, "revenue": 81122}, {"ein": "161582818", "name": "SEED AND WEED GARDEN CLUB ENVIRONS OF UTICA NEW YORK", "city": "CHADWICKS", "state": "NY", "zip": "13319-3403", "ntee": "S80", "ruling": "201408", "deductibility": "1", "assets": 0, "income": 0, "revenue": 0}], "SILBERMAN": [{"ein": "116534409", "name": "NATHAN AND MARILYN SILBERMAN FOUNDATIN TRUST 030100", "city": "BROOKLYN", "state": "NY", "zip": "11210-5143", "ntee": "T20", "ruling": "200203", "deductibility": "1", "assets": 5120, "income": 336001, "revenue": 0}, {"ein": "137098259", "name": "SILBERMAN-AQUA FAMILY FOUNDATION TR", "city": "NEW ROCHELLE", "state": "NY", "zip": "10804-3202", "ntee": "T22", "ruling": "200402", "deductibility": "1", "assets": 881845, "income": 649104, "revenue": 0}], "KOSCIUSZKO": [{"ein": "131628179", "name": "KOSCIUSZKO FOUNDATION INC", "city": "NEW YORK", "state": "NY", "zip": "10065-6501", "ntee": "Q122", "ruling": "195001", "deductibility": "1", "assets": 55659436, "income": 23805473, "revenue": 4983281}, {"ein": "830532759", "name": "400 KOSCIUSZKO STREET BLOCK ASSOCIATION", "city": "BROOKLYN", "state": "NY", "zip": "11221-2006", "ntee": "S21", "ruling": "201808", "deductibility": "1", "assets": 0, "income": 0, "revenue": 0}], "HODSON": [{"ein": "131660334", "name": "WILLIAM HODSON COMMUNITY CENTER INC", "city": "BRONX", "state": "NY", "zip": "10456-1804", "ntee": "P81Z", "ruling": "194603", "deductibility": "1", "assets": 101699, "income": 584122, "revenue": 584122}], "BENEDICTA": [{"ein": "132688388", "name": "OUR LADY OF MOUNT CARMEL-ST BENEDICTA CHURCH", "city": "STATEN ISLAND", "state": "NY", "zip": "10310-1715", "ntee": "", "ruling": "194603", "deductibility": "1", "assets": 0, "income": 0, "revenue": 0}, {"ein": "133594429", "name": "OUR LADE OF MOUNT CARMEL-ST BENEDICTA SCHOOL", "city": "STATEN ISLAND", "state": "NY", "zip": "10310-1906", "ntee": "", "ruling": "194603", "deductibility": "1", "assets": 0, "income": 0, "revenue": 0}], "FINDLAY": [{"ein": "132689955", "name": "FINDLAY HOUSE INC", "city": "BRONX", "state": "NY", "zip": "10461-2334", "ntee": "P75Z", "ruling": "197212", "deductibility": "1", "assets": 3734425, "income": 1874274, "revenue": 1874274}, {"ein": "270838855", "name": "FINDLAY TELLER HOUSING DEVELOPMENT FUND CORPORATION", "city": "BRONX", "state": "NY", "zip": "10458-8742", "ntee": "L21", "ruling": "201002", "deductibility": "1", "assets": 200000, "income": 100, "revenue": 100}], "MANPOWER": [{"ein": "132755214", "name": "CHINATOWN MANPOWER PROJECT INC", "city": "NEW YORK", "state": "NY", "zip": "10002-5042", "ntee": "J200", "ruling": "197601", "deductibility": "1", "assets": 5515721, "income": 4166275, "revenue": 3819146}], "BEATE": [{"ein": "132952718", "name": "BEATE KLARSFELD FOUNDATION", "city": "NEW YORK", "state": "NY", "zip": "10017-3204", "ntee": "Q700", "ruling": "197904", "deductibility": "1", "assets": 131745, "income": 285, "revenue": 285}], "REICH": [{"ein": "133048648", "name": "OR TORAS CHAIM INCC/O ISRAEL REICH", "city": "BROOKLYN", "state": "NY", "zip": "11211-7311", "ntee": "", "ruling": "198102", "deductibility": "1", "assets": 0, "income": 0, "revenue": 0}, {"ein": "133911296", "name": "THE JEFFREY P REICH FAMILY FOUNDATION", "city": "NEW YORK", "state": "NY", "zip": "10016-0000", "ntee": "T20", "ruling": "199903", "deductibility": "1", "assets": 348468, "income": 247338, "revenue": 0}, {"ein": "134084107", "name": "HELEN B REICH MEMORIAL SCHOLARSHIP FUND INC", "city": "NEW YORK", "state": "NY", "zip": "10017-8157", "ntee": "T20", "ruling": "199912", "deductibility": "1", "assets": 822781, "income": 619220, "revenue": 0}, {"ein": "137029481", "name": "REICH FAM CHARITABLE TR", "city": "BROOKLYN", "state": "NY", "zip": "11235-3719", "ntee": "", "ruling": "199405", "deductibility": "1", "assets": 625346, "income": 604344, "revenue": 0}, {"ein": "300137021", "name": "AMERICAN FRIENDS OF MOSDOS HARAV KOPPEL REICH BUDAPEST", "city": "BROOKLYN", "state": "NY", "zip": "11219-2101", "ntee": "T30", "ruling": "200712", "deductibility": "1", "assets": 21724, "income": 23000, "revenue": 23000}, {"ein": "510166322", "name": "REICH FUND", "city": "NEW YORK", "state": "NY", "zip": "10024-3332", "ntee": "", "ruling": "197601", "deductibility": "1", "assets": 5435567, "income": 1558106, "revenue": 0}], "CAUSE": [{"ein": "133083978", "name": "CAUSE EFFECTIVE INC", "city": "NEW YORK", "state": "NY", "zip": "10018-4539", "ntee": "W99B", "ruling": "198107", "deductibility": "1", "assets": 312209, "income": 1235731, "revenue": 1234731}, {"ein": "133851512", "name": "JUST-CAUSE VOLUNTEER SERVICES INC", "city": "BRONX", "state": "NY", "zip": "10475-2919", "ntee": "X99M", "ruling": "200004", "deductibility": "1", "assets": 25028, "income": 1, "revenue": 0}, {"ein": "141824577", "name": "B CAUSE", "city": "POUGHKEEPSIE", "state": "NY", "zip": "12603-8651", "ntee": "T12", "ruling": "200103", "deductibility": "1", "assets": 0, "income": 0, "revenue": 0}, {"ein": "260516927", "name": "CAUSE CELEBRE", "city": "NEW YORK", "state": "NY", "zip": "10036-6848", "ntee": "E12", "ruling": "200711", "deductibility": "1", "assets": 95826, "income": 180346, "revenue": 180346}, {"ein": "270858685", "name": "CARE FOR A CAUSE FOUNDATION INC", "city": "NEW PALTZ", "state": "NY", "zip": "12561-3716", "ntee": "T12", "ruling": "201003", "deductibility": "1", "assets": 53693, "income": 94372, "revenue": 90087}, {"ein": "272192617", "name": "CAUSE VISION LTD", "city": "NEW YORK", "state": "NY", "zip": "10011-8781", "ntee": "B90", "ruling": "201012", "deductibility": "1", "assets": 0, "income": 0, "revenue": 0}, {"ein": "273028992", "name": "CAUSE FOR PAWZ INC", "city": "NEW YORK", "state": "NY", "zip": "10003-2914", "ntee": "P29", "ruling": "201110", "deductibility": "1", "assets": 36275, "income": 213348, "revenue": 213348}, {"ein": "274691971", "name": "COME JOIN THE CAUSE THEATRE COMPANY INC", "city": "BRONX", "state": "NY", "zip": "10453-4506", "ntee": "A25", "ruling": "201106", "deductibility": "1", "assets": 0, "income": 0, "revenue": 0}, {"ein": "332885076", "name": "ALAN OS CAST FOR A CAUSE INC", "city": "FREEPORT", "state": "NY", "zip": "11520-6238", "ntee": "H30", "ruling": "202502", "deductibility": "1", "assets": 0, "income": 0, "revenue": 0}, {"ein": "352526627", "name": "HUDSON VALLEY PAWS FOR A CAUSE", "city": "HIGHLAND FLS", "state": "NY", "zip": "10928-4316", "ntee": "D99", "ruling": "201504", "deductibility": "1", "assets": 0, "income": 0, "revenue": 0}, {"ein": "452808761", "name": "MICHAELS CAUSE INC", "city": "STATEN ISLAND", "state": "NY", "zip": "10312-3021", "ntee": "G122", "ruling": "201204", "deductibility": "1", "assets": 882294, "income": 432277, "revenue": 340350}, {"ein": "460537389", "name": "MUDRA FOUNDATION-ART FOR A CAUSE", "city": "MUTTONTOWN", "state": "NY", "zip": "11791-2413", "ntee": "T30", "ruling": "201209", "deductibility": "1", "assets": 64230, "income": 0, "revenue": 0}, {"ein": "462176914", "name": "KELLEIGHS CAUSE", "city": "MANLIUS", "state": "NY", "zip": "13104-1918", "ntee": "B12", "ruling": "201406", "deductibility": "1", "assets": 0, "income": 0, "revenue": 0}, {"ein": "463119562", "name": "JUST BE CAUSE NOT-FOR-PROFIT DEVELOPMENT CENTER", "city": "ITHACA", "state": "NY", "zip": "14850-0000", "ntee": "P20", "ruling": "201601", "deductibility": "1", "assets": 35280, "income": 130780, "revenue": 61374}, {"ein": "465421012", "name": "CAUSE OF VENERABLE ANTHONY VINCENT GALLO INC", "city": "MANHASSET", "state": "NY", "zip": "11030-2233", "ntee": "X22", "ruling": "201407", "deductibility": "1", "assets": 0, "income": 0, "revenue": 0}, {"ein": "471965121", "name": "JULIES CAUSE INC", "city": "MILLBROOK", "state": "NY", "zip": "12545-6033", "ntee": "G30", "ruling": "201801", "deductibility": "1", "assets": 0, "income": 0, "revenue": 0}, {"ein": "475544063", "name": "PAWS FOR THE CAUSE RESCUE INC", "city": "BLOSSVALE", "state": "NY", "zip": "13308-1818", "ntee": "D20", "ruling": "201512", "deductibility": "1", "assets": 64914, "income": 32530, "revenue": 32530}, {"ein": "475667635", "name": "D ST AUBYNS CAUSE INC", "city": "JAMAICA", "state": "NY", "zip": "11434-3305", "ntee": "L40", "ruling": "201602", "deductibility": "1", "assets": 0, "income": 0, "revenue": 0}, {"ein": "651257281", "name": "A CAUSE A CONCERN A SOLUTION NETWORK INC", "city": "JAMAICA", "state": "NY", "zip": "11436-2311", "ntee": "O50", "ruling": "202202", "deductibility": "1", "assets": 0, "income": 0, "revenue": 0}, {"ein": "811794194", "name": "ABBYS PAWS FOR A CAUSE", "city": "ELMIRA", "state": "NY", "zip": "14905-1352", "ntee": "O99", "ruling": "201709", "deductibility": "1", "assets": 0, "income": 0, "revenue": 0}, {"ein": "812543201", "name": "GOOD CAUSE THEATER COMPANY INC", "city": "RENSSELAERVLE", "state": "NY", "zip": "12147-0145", "ntee": "A65", "ruling": "201703", "deductibility": "1", "assets": 0, "income": 0, "revenue": 0}, {"ein": "813784667", "name": "SARAH JAYNE ORTON PAWS FOR A CAUSE INC", "city": "CANDOR", "state": "NY", "zip": "13743-0613", "ntee": "D20", "ruling": "201705", "deductibility": "1", "assets": 0, "income": 0, "revenue": 0}, {"ein": "820584665", "name": "PLAY FOR YOUR CAUSE", "city": "NEW YORK", "state": "NY", "zip": "10025-6617", "ntee": "T31", "ruling": "200310", "deductibility": "1", "assets": 0, "income": 0, "revenue": 0}, {"ein": "820967887", "name": "COLTONS XXXTRAORDINARY CAUSE LTD", "city": "RED HOOK", "state": "NY", "zip": "12571-4735", "ntee": "T12", "ruling": "201708", "deductibility": "1", "assets": 0, "income": 0, "revenue": 0}, {"ein": "822746983", "name": "WARRIORS FOR A CAUSE INC", "city": "W HEMPSTEAD", "state": "NY", "zip": "11552-3219", "ntee": "P20", "ruling": "201801", "deductibility": "1", "assets": 26783, "income": 124051, "revenue": 57723}, {"ein": "822963126", "name": "NETWORKING FOR A CAUSE INC", "city": "NORTHPORT", "state": "NY", "zip": "11768-3175", "ntee": "D12", "ruling": "201710", "deductibility": "1", "assets": 0, "income": 0, "revenue": 0}, {"ein": "823366144", "name": "ONE COMMON CAUSE INC", "city": "BROOKLYN", "state": "NY", "zip": "11239-2814", "ntee": "W99", "ruling": "202107", "deductibility": "1", "assets": 0, "income": 0, "revenue": 0}, {"ein": "833128764", "name": "COPS 4 A CAUSE", "city": "VESTAL", "state": "NY", "zip": "13851-0293", "ntee": "P01", "ruling": "201905", "deductibility": "1", "assets": 24948, "income": 81180, "revenue": 0}, {"ein": "841769497", "name": "PYRAMID SCHEME TERMINATION CAUSE", "city": "NEW YORK", "state": "NY", "zip": "10019-5174", "ntee": "B99", "ruling": "201906", "deductibility": "1", "assets": 0, "income": 0, "revenue": 0}, {"ein": "843402297", "name": "RUNWAY FOR A CAUSE OF THE SOUTHERN TIER", "city": "ELMIRA", "state": "NY", "zip": "14905-1906", "ntee": "A12", "ruling": "202505", "deductibility": "1", "assets": 0, "income": 0, "revenue": 0}, {"ein": "843693491", "name": "3 FOR A CAUSE CORP", "city": "MELVILLE", "state": "NY", "zip": "11747-4260", "ntee": "T50", "ruling": "202002", "deductibility": "1", "assets": 487, "income": 2800, "revenue": 2800}, {"ein": "852389233", "name": "LEARNING FOR A CAUSE INC", "city": "GREAT NECK", "state": "NY", "zip": "11020-1434", "ntee": "B90", "ruling": "202011", "deductibility": "1", "assets": 0, "income": 0, "revenue": 0}, {"ein": "852926494", "name": "CAUSE FOR THE CUSE INC", "city": "SYRACUSE", "state": "NY", "zip": "13202-9203", "ntee": "P20", "ruling": "202102", "deductibility": "1", "assets": 51957, "income": 35558, "revenue": 0}, {"ein": "853537673", "name": "JUST CAUSE FOUNDATION INC", "city": "JAMAICA", "state": "NY", "zip": "11434-4948", "ntee": "T50", "ruling": "202101", "deductibility": "1", "assets": 6504, "income": 20, "revenue": 20}, {"ein": "883317303", "name": "CAUSE COFFEE BY REVIVAL LTD", "city": "BLOSSVALE", "state": "NY", "zip": "13308-2111", "ntee": "F12", "ruling": "202305", "deductibility": "1", "assets": 1, "income": 558, "revenue": 0}, {"ein": "932420716", "name": "CAUSE N EFFECT EDUCATIONAL CONSULTANTS INC", "city": "BROOKLYN", "state": "NY", "zip": "11205-2566", "ntee": "P20", "ruling": "202404", "deductibility": "1", "assets": 0, "income": 0, "revenue": 0}, {"ein": "934650447", "name": "A SIMPLE CAUSE INC", "city": "LANCASTER", "state": "NY", "zip": "14086-0000", "ntee": "", "ruling": "202312", "deductibility": "1", "assets": 0, "income": 0, "revenue": 0}], "CIVITAS": [{"ein": "133132603", "name": "CIVITAS CITIZENS INC", "city": "NEW YORK", "state": "NY", "zip": "10128-0000", "ntee": "I21Z", "ruling": "198211", "deductibility": "1", "assets": 179200, "income": 194556, "revenue": 194556}], "BANKSVILLE": [{"ein": "133191335", "name": "BANKSVILLE INDEPENDENT FIRE COMPANY INC", "city": "BEDFORD", "state": "NY", "zip": "10506-2217", "ntee": "M24", "ruling": "199904", "deductibility": "1", "assets": 4821576, "income": 725400, "revenue": 725400}, {"ein": "510515396", "name": "BANKSVILLE INDEPENDENT FIREMENS BENEVOLENT ASSOCIATION INC", "city": "BEDFORD", "state": "NY", "zip": "10506-2217", "ntee": "P12", "ruling": "202002", "deductibility": "1", "assets": 0, "income": 0, "revenue": 0}], "ENERGETICS": [{"ein": "133216425", "name": "INSTITUTE OF CORE ENERGETICS INC", "city": "NEW YORK", "state": "NY", "zip": "10023-0001", "ntee": "F99Z", "ruling": "198505", "deductibility": "1", "assets": 539396, "income": 516910, "revenue": 516910}], "SELK": [{"ein": "133230516", "name": "SELK HOUSING DEVELOPMENT FUND COMPANY INC", "city": "QUEENS VLG", "state": "NY", "zip": "11428-2047", "ntee": "L20", "ruling": "198701", "deductibility": "1", "assets": 2536246, "income": 1807680, "revenue": 1807680}], "POLICEWOMANS": [{"ein": "133324091", "name": "POLICEWOMANS ENDOWMENT ASSOC INC", "city": "NEW YORK", "state": "NY", "zip": "10038-1403", "ntee": "T30", "ruling": "201402", "deductibility": "1", "assets": 26003, "income": 146171, "revenue": 79638}], "MENDELL": [{"ein": "133437893", "name": "THOMAS G & ANDREA MENDELL", "city": "NEW YORK", "state": "NY", "zip": "10017-1418", "ntee": "", "ruling": "198902", "deductibility": "1", "assets": 769996, "income": 352575, "revenue": 0}, {"ein": "136159009", "name": "MENDELL FAMILY FUND INC", "city": "NEW YORK", "state": "NY", "zip": "10017-1418", "ntee": "", "ruling": "195404", "deductibility": "1", "assets": 2085439, "income": 869557, "revenue": 0}], "CORO": [{"ein": "133571610", "name": "CORO NEW YORK LEADERSHIP CENTER", "city": "NEW YORK", "state": "NY", "zip": "10004-3852", "ntee": "R99Z", "ruling": "198911", "deductibility": "1", "assets": 1024004, "income": 2537167, "revenue": 2482361}], "CONTINENTS": [{"ein": "133810492", "name": "ELYSIUM BETWEEN TWO CONTINENTS INC", "city": "NEW YORK", "state": "NY", "zip": "10028-4319", "ntee": "Q210", "ruling": "199606", "deductibility": "1", "assets": 13829, "income": 146117, "revenue": 146117}], "UNIGROUP": [{"ein": "134008318", "name": "UNIGROUP OF NEW YORK INC", "city": "BROOKLYN", "state": "NY", "zip": "11235-2401", "ntee": "S41", "ruling": "200007", "deductibility": "2", "assets": 0, "income": 0, "revenue": 0}], "KRIS": [{"ein": "134081145", "name": "KRIS AND KATHY HEINZELMAN FOUNDATION", "city": "NEW YORK", "state": "NY", "zip": "10029-6931", "ntee": "T20", "ruling": "199912", "deductibility": "1", "assets": 803879, "income": 622770, "revenue": 0}, {"ein": "474558342", "name": "KEN GLICKFELD AND KRIS HALL FOUNDATION INC", "city": "NEW YORK", "state": "NY", "zip": "10011-2406", "ntee": "T22", "ruling": "201602", "deductibility": "1", "assets": 2783, "income": 1, "revenue": 0}, {"ein": "854131770", "name": "KRIS & SAYOKO FOUNDATION", "city": "FLUSHING", "state": "NY", "zip": "11354-5321", "ntee": "B99", "ruling": "202103", "deductibility": "1", "assets": 1, "income": 1, "revenue": 0}], "RAGA": [{"ein": "134084094", "name": "RAGA MUSIC CIRCLE OF NEW YORK INC", "city": "NEW YORK", "state": "NY", "zip": "10024-4344", "ntee": "A68", "ruling": "201412", "deductibility": "1", "assets": 0, "income": 0, "revenue": 0}, {"ein": "473876402", "name": "RAGA MASSIVE INC", "city": "BROOKLYN", "state": "NY", "zip": "11238-4004", "ntee": "A20", "ruling": "201506", "deductibility": "1", "assets": 119129, "income": 411821, "revenue": 410789}], "FLINT": [{"ein": "134123155", "name": "FLINT PARK CONSERVANCY LIMITED", "city": "LARCHMONT", "state": "NY", "zip": "10538-0918", "ntee": "C34", "ruling": "200104", "deductibility": "1", "assets": 11335, "income": 83518, "revenue": 83518}, {"ein": "311799162", "name": "FLINT CREEK FAMILY MINISTRIES INC", "city": "STANLEY", "state": "NY", "zip": "14561-0589", "ntee": "X99", "ruling": "200204", "deductibility": "1", "assets": 0, "income": 0, "revenue": 0}, {"ein": "852641417", "name": "FLINT COLLECTIVE NYC INC", "city": "NEW YORK", "state": "NY", "zip": "10013-1429", "ntee": "", "ruling": "202109", "deductibility": "1", "assets": 60065, "income": 55009, "revenue": 55009}], "MEDHANEALEM": [{"ein": "134230636", "name": "ETHIOPIAN ORTHODOX TEWAHEDO CHURCH BUFFALO MEDHANEALEM", "city": "BUFFALO", "state": "NY", "zip": "14209-0595", "ntee": "X21", "ruling": "200309", "deductibility": "1", "assets": 0, "income": 0, "revenue": 0}], "LOWENHAUPT": [{"ein": "136021678", "name": "W H LOWENHAUPT TA 24-24561", "city": "NORWICH", "state": "NY", "zip": "13815-0000", "ntee": "", "ruling": "196012", "deductibility": "1", "assets": 413961, "income": 39489, "revenue": 0}], "GOLDSTONE": [{"ein": "136028782", "name": "GOLDSTONE FUND INC", "city": "NEW YORK", "state": "NY", "zip": "10006-2756", "ntee": "", "ruling": "196011", "deductibility": "1", "assets": 5422495, "income": 784189, "revenue": 0}, {"ein": "203736639", "name": "THE THELMA AND MORTIMER GOLDSTONE FOUNDATION INC", "city": "NEW YORK", "state": "NY", "zip": "10017-0000", "ntee": "T22", "ruling": "200512", "deductibility": "1", "assets": 51838, "income": 32459, "revenue": 0}], "COLLATERAL": [{"ein": "136162537", "name": "COLLATERAL LOAN BROKERS ASSOCIATION OF NEW YORK STATE", "city": "BRONX", "state": "NY", "zip": "10451-5601", "ntee": "", "ruling": "194405", "deductibility": "2", "assets": 0, "income": 0, "revenue": 0}, {"ein": "204928141", "name": "COLLATERAL REPAIR PROJECT", "city": "BROOKLYN", "state": "NY", "zip": "11202-3146", "ntee": "Q30", "ruling": "201201", "deductibility": "1", "assets": 646616, "income": 1183322, "revenue": 1183322}], "MCKNIGHT": [{"ein": "146152814", "name": "ELOISE MCKNIGHT TR UA 04-05-91", "city": "NEW PALTZ", "state": "NY", "zip": "12561-1103", "ntee": "", "ruling": "000000", "deductibility": "0", "assets": 264264, "income": 131242, "revenue": 0}], "HOLBRITTER": [{"ein": "146197876", "name": "JANE BALDWIN HOLBRITTER CHARITABLE TRUST", "city": "SLINGERLANDS", "state": "NY", "zip": "12159-9362", "ntee": "T20", "ruling": "199912", "deductibility": "1", "assets": 452151, "income": 31571, "revenue": 0}], "AURELIA": [{"ein": "150539039", "name": "AURELIA OSBORN FOX MEMORIAL HOSPITAL SOCIETY", "city": "ONEONTA", "state": "NY", "zip": "13820-2629", "ntee": "E220", "ruling": "198511", "deductibility": "1", "assets": 59864117, "income": 96297599, "revenue": 96297599}], "CONSTABLEVILLE": [{"ein": "150614037", "name": "CONSTABLEVILLE LIBRARY ASSOC", "city": "CONSTABLEVLE", "state": "NY", "zip": "13325-0376", "ntee": "B70", "ruling": "200908", "deductibility": "1", "assets": 0, "income": 0, "revenue": 0}, {"ein": "161577571", "name": "CONSTABLEVILLE VOLUNTEER FIRE COMPANY", "city": "CONSTABLEVLE", "state": "NY", "zip": "13325-0438", "ntee": "M24", "ruling": "201008", "deductibility": "1", "assets": 432294, "income": 194910, "revenue": 151278}, {"ein": "453043686", "name": "CONSTABLEVILLE FISH AND GAME CLUB", "city": "CONSTABLEVLE", "state": "NY", "zip": "13325-0051", "ntee": "N61", "ruling": "201305", "deductibility": "2", "assets": 0, "income": 0, "revenue": 0}, {"ein": "844069879", "name": "CONSTABLEVILLE AMBULANCE INC", "city": "CONSTABLEVILLE", "state": "NY", "zip": "13325-0000", "ntee": "E62", "ruling": "202105", "deductibility": "1", "assets": 147174, "income": 55964, "revenue": 55964}], "MACHPELAH": [{"ein": "160706015", "name": "MACHPELAH CEMETERY ASSOCIATION", "city": "LE ROY", "state": "NY", "zip": "14482-0313", "ntee": "", "ruling": "194606", "deductibility": "1", "assets": 647643, "income": 38642, "revenue": 38642}, {"ein": "832022422", "name": "FRIENDS OF MACHPELAH INC", "city": "LE ROY", "state": "NY", "zip": "14482-0033", "ntee": "Y11", "ruling": "202103", "deductibility": "1", "assets": 0, "income": 0, "revenue": 0}], "CANISIUS": [{"ein": "160743942", "name": "CANISIUS UNIVERSITY OF BUFFALO NEW YORK", "city": "BUFFALO", "state": "NY", "zip": "14208-1035", "ntee": "B430", "ruling": "197104", "deductibility": "1", "assets": 278789656, "income": 122859556, "revenue": 103771945}, {"ein": "160743943", "name": "CANISIUS HIGH SCHOOL", "city": "BUFFALO", "state": "NY", "zip": "14209-1402", "ntee": "", "ruling": "194603", "deductibility": "0", "assets": 0, "income": 0, "revenue": 0}, {"ein": "160989046", "name": "THE CANISIUS JESUIT COMMUNITY INC", "city": "BUFFALO", "state": "NY", "zip": "14208-1035", "ntee": "", "ruling": "194603", "deductibility": "1", "assets": 0, "income": 0, "revenue": 0}], "MOYERS": [{"ein": "160770053", "name": "MOYERS CORNERS FIRE DEPARTMENT INC", "city": "LIVERPOOL", "state": "NY", "zip": "13090-2436", "ntee": "E62Z", "ruling": "199504", "deductibility": "1", "assets": 3582916, "income": 2427320, "revenue": 2084352}, {"ein": "474893115", "name": "MOYERS CORNERS VOLUNTEER FIRE DEPARTMENT AUXILIARY INC", "city": "LIVERPOOL", "state": "NY", "zip": "13090-0000", "ntee": "M11", "ruling": "201602", "deductibility": "1", "assets": 0, "income": 0, "revenue": 0}], "CINEPHILE": [{"ein": "161037519", "name": "SYRACUSE CINEPHILE SOCIETY INC", "city": "SYRACUSE", "state": "NY", "zip": "13219-2841", "ntee": "", "ruling": "197712", "deductibility": "2", "assets": 545, "income": 5188, "revenue": 5188}], "AKRON": [{"ein": "161321030", "name": "AKRON SPORTS INC", "city": "AKRON", "state": "NY", "zip": "14001-0013", "ntee": "", "ruling": "199406", "deductibility": "1", "assets": 18830, "income": 38565, "revenue": 36013}, {"ein": "161353899", "name": "ROTARY CLUB OF AKRON-NEWSTEAD", "city": "AKRON", "state": "NY", "zip": "14001-0300", "ntee": "", "ruling": "202402", "deductibility": "1", "assets": 40146, "income": 118894, "revenue": 86877}, {"ein": "161405608", "name": "AKRON SOCCER LEAGUE INC", "city": "AKRON", "state": "NY", "zip": "14001-0094", "ntee": "N64", "ruling": "202010", "deductibility": "1", "assets": 120560, "income": 99822, "revenue": 98122}, {"ein": "161423369", "name": "AKRON ALUMNI ASSOCIATION INC", "city": "AKRON", "state": "NY", "zip": "14001-0082", "ntee": "B82", "ruling": "201404", "deductibility": "1", "assets": 0, "income": 0, "revenue": 0}, {"ein": "161518995", "name": "AKRON LITTLE LEAGUE FOOTBALL INC", "city": "AKRON", "state": "NY", "zip": "14001-0044", "ntee": "N65", "ruling": "200112", "deductibility": "1", "assets": 24917, "income": 61418, "revenue": 49101}, {"ein": "161529092", "name": "AKRON PARENTS ASSOCIATION NURSERY SCHOOL INC", "city": "AKRON", "state": "NY", "zip": "14001-1217", "ntee": "B21Z", "ruling": "199803", "deductibility": "1", "assets": 7039, "income": 43418, "revenue": 35808}, {"ein": "161566974", "name": "AKRON NEWSTEAD SENIOR CITIZENS INC", "city": "AKRON", "state": "NY", "zip": "14001-9322", "ntee": "S80", "ruling": "200003", "deductibility": "1", "assets": 133985, "income": 79878, "revenue": 73147}, {"ein": "222531448", "name": "AKRON FREE METHODIST CHURCH", "city": "AKRON", "state": "NY", "zip": "14001-1101", "ntee": "", "ruling": "195806", "deductibility": "1", "assets": 0, "income": 0, "revenue": 0}, {"ein": "237147322", "name": "AKRON LODGE NO 527", "city": "AKRON", "state": "NY", "zip": "14001-1037", "ntee": "Y42", "ruling": "202010", "deductibility": "1", "assets": 0, "income": 0, "revenue": 0}, {"ein": "262477824", "name": "AKRON MUSIC PARENTS ASSOCIATION INC", "city": "AKRON", "state": "NY", "zip": "14001-0431", "ntee": "B192", "ruling": "200907", "deductibility": "1", "assets": 157941, "income": 96657, "revenue": 76727}, {"ein": "263672275", "name": "AKRON CANINE RESCUED ANGELS", "city": "SANBORN", "state": "NY", "zip": "14132-9413", "ntee": "D20", "ruling": "200903", "deductibility": "1", "assets": 106510, "income": 54198, "revenue": 54198}, {"ein": "471665119", "name": "AKRON COMMUNITY BAND INC", "city": "AKRON", "state": "NY", "zip": "14001-1020", "ntee": "A6C", "ruling": "201703", "deductibility": "1", "assets": 0, "income": 0, "revenue": 0}, {"ein": "921997037", "name": "AKRON-NEWSTEAD DRUG AND ALCOHOL PREVENTION COALITION", "city": "AKRON", "state": "NY", "zip": "14001-9702", "ntee": "F21", "ruling": "202309", "deductibility": "1", "assets": 0, "income": 0, "revenue": 0}, {"ein": "991222210", "name": "AKRON RESCUE CATS", "city": "AKRON", "state": "NY", "zip": "14001-9663", "ntee": "D20", "ruling": "202405", "deductibility": "1", "assets": 0, "income": 0, "revenue": 0}], "COLLAR": [{"ein": "161448868", "name": "CSEA UNIT 815-676501 ERIE CO TOWN OF ORCHARD PARK WHITE COLLAR", "city": "BUFFALO", "state": "NY", "zip": "14218-3767", "ntee": "J40", "ruling": "202202", "deductibility": "2", "assets": 0, "income": 0, "revenue": 0}, {"ein": "161463640", "name": "CSEA UNIT 804-615601 BROOME CO VILLAGE OF ENDICOTT WHITE COLLAR", "city": "ENDICOTT", "state": "NY", "zip": "13760-5248", "ntee": "J40", "ruling": "197007", "deductibility": "2", "assets": 0, "income": 0, "revenue": 0}, {"ein": "161601610", "name": "CSEA UNIT 0834-782302 ONONDAGA COUNTY TOWN OF DEWITT BLUE COLLAR", "city": "EAST SYRACUSE", "state": "NY", "zip": "13057-9518", "ntee": "J40", "ruling": "201606", "deductibility": "2", "assets": 0, "income": 0, "revenue": 0}, {"ein": "454523238", "name": "COLLAR WORKS", "city": "TROY", "state": "NY", "zip": "12180-1501", "ntee": "P20", "ruling": "201601", "deductibility": "1", "assets": 756262, "income": 186232, "revenue": 186232}, {"ein": "462107037", "name": "BLUE COLLAR ATHLETICS INC", "city": "EAST NORWICH", "state": "NY", "zip": "11732-1231", "ntee": "N63", "ruling": "201405", "deductibility": "1", "assets": 4836, "income": 106782, "revenue": 106782}, {"ein": "475586400", "name": "BLUE COLLAR POST COLLECTIVE", "city": "NEW YORK", "state": "NY", "zip": "10005-4301", "ntee": "P03", "ruling": "201603", "deductibility": "1", "assets": 0, "income": 0, "revenue": 0}, {"ein": "991019255", "name": "COLLAR CITY PRIDE INC", "city": "TROY", "state": "NY", "zip": "12182-0000", "ntee": "P88", "ruling": "202405", "deductibility": "1", "assets": 0, "income": 0, "revenue": 0}], "FEEDMORE": [{"ein": "161475486", "name": "FEEDMORE FOUNDATION OF WESTERN NEW YORK INC", "city": "BUFFALO", "state": "NY", "zip": "14206-2368", "ntee": "P80", "ruling": "199509", "deductibility": "1", "assets": 63645946, "income": 12718036, "revenue": 12718036}, {"ein": "222470820", "name": "FEEDMORE WESTERN NEW YORK INC", "city": "BUFFALO", "state": "NY", "zip": "14206-2368", "ntee": "K31Z", "ruling": "198311", "deductibility": "1", "assets": 11149517, "income": 38836332, "revenue": 38836332}], "WOODMEN": [{"ein": "161501007", "name": "MODERN WOODMEN OF AMERICA", "city": "BERNHARDS BAY", "state": "NY", "zip": "13028-3164", "ntee": "", "ruling": "196105", "deductibility": "1", "assets": 0, "income": 0, "revenue": 0}, {"ein": "237629425", "name": "WOODMEN OF THE WORLD LIFE INSURANCE SOCIETY", "city": "S GLENS FALLS", "state": "NY", "zip": "12803-5105", "ntee": "", "ruling": "194112", "deductibility": "1", "assets": 0, "income": 0, "revenue": 0}, {"ein": "237629426", "name": "WOODMEN OF THE WORLD LIFE INSURANCE SOCIETY", "city": "CHAMPLAIN", "state": "NY", "zip": "12919-4654", "ntee": "", "ruling": "194112", "deductibility": "1", "assets": 0, "income": 0, "revenue": 0}, {"ein": "237629706", "name": "WOODMEN OF THE WORLD LIFE INSURANCE SOCIETY", "city": "MIDDLETOWN", "state": "NY", "zip": "10940-3244", "ntee": "", "ruling": "194112", "deductibility": "1", "assets": 0, "income": 0, "revenue": 0}, {"ein": "237629709", "name": "WOODMEN OF THE WORLD LIFE INSURANCE SOCIETY", "city": "RENSSELAERVLE", "state": "NY", "zip": "12147-1303", "ntee": "", "ruling": "194112", "deductibility": "1", "assets": 0, "income": 0, "revenue": 0}, {"ein": "364778884", "name": "WOODMEN OF THE WORLD LIFE INSURANCE SOCIETY", "city": "ROME", "state": "NY", "zip": "13440-3862", "ntee": "", "ruling": "194112", "deductibility": "1", "assets": 0, "income": 0, "revenue": 0}, {"ein": "510591586", "name": "WOODMEN OF THE WORLD LIFE INSURANCE SOCIETY", "city": "FREEPORT", "state": "NY", "zip": "11520-5618", "ntee": "", "ruling": "194112", "deductibility": "1", "assets": 0, "income": 0, "revenue": 0}, {"ein": "561551517", "name": "WOODMEN OF THE WORLD LIFE INSURANCE SOCIETY", "city": "FREEPORT", "state": "NY", "zip": "11520-5618", "ntee": "", "ruling": "194112", "deductibility": "1", "assets": 0, "income": 0, "revenue": 0}, {"ein": "593794144", "name": "WOODMEN OF THE WORLD LIFE INSURANCE SOCIETY", "city": "TUPPER LAKE", "state": "NY", "zip": "12986-2325", "ntee": "", "ruling": "194112", "deductibility": "1", "assets": 0, "income": 0, "revenue": 0}, {"ein": "810571920", "name": "WOODMEN OF THE WORLD LIFE INSURANCE SOCIETY", "city": "KEESEVILLE", "state": "NY", "zip": "12944-0153", "ntee": "", "ruling": "194112", "deductibility": "1", "assets": 0, "income": 0, "revenue": 0}], "AUDREYS": [{"ein": "161562519", "name": "AUDREYS ARK FOR ANIMALS INC", "city": "SYRACUSE", "state": "NY", "zip": "13214-1853", "ntee": "D200", "ruling": "199906", "deductibility": "1", "assets": 0, "income": 0, "revenue": 0}], "SPEI": [{"ein": "161590210", "name": "MUSICA SPEI INC", "city": "ROCHESTER", "state": "NY", "zip": "14607-2121", "ntee": "A6B", "ruling": "201811", "deductibility": "1", "assets": 0, "income": 0, "revenue": 0}], "ERIVA": [{"ein": "166054165", "name": "ERMA P & EARL E SCHOPFER SCHOL FUND ERIVA P & EARL E SCHOPFER SCH FUND", "city": "SYRACUSE", "state": "NY", "zip": "13206-3468", "ntee": "", "ruling": "196411", "deductibility": "1", "assets": 0, "income": 0, "revenue": 0}], "DRS": [{"ein": "166104454", "name": "JOSEPHINE O COWPER TR UW 21-12-77 DRS AARON & KOENIC TR", "city": "NEW YORK", "state": "NY", "zip": "10001-2189", "ntee": "", "ruling": "196908", "deductibility": "1", "assets": 478186, "income": 124037, "revenue": 71646}], "ILONA": [{"ein": "200212281", "name": "ILONA FEHER FOUNDATION INC", "city": "NEW YORK", "state": "NY", "zip": "10024-2605", "ntee": "A68", "ruling": "200311", "deductibility": "1", "assets": 0, "income": 0, "revenue": 0}, {"ein": "454102015", "name": "ILONA & HERMANN MARTIN FOUNDATION", "city": "BROOKLYN", "state": "NY", "zip": "11210-3611", "ntee": "T20", "ruling": "201503", "deductibility": "1", "assets": 109731, "income": 442962, "revenue": 0}], "AMEND": [{"ein": "202614698", "name": "AMEND ORG", "city": "NEW YORK", "state": "NY", "zip": "10012-2410", "ntee": "Q33", "ruling": "200601", "deductibility": "1", "assets": 3537398, "income": 5091164, "revenue": 1975549}], "DKEREN": [{"ein": "202631374", "name": "HISACHDIS HATALMIDIM DKEREN SHMIEL", "city": "BROOKLYN", "state": "NY", "zip": "11219-3823", "ntee": "X30", "ruling": "201007", "deductibility": "1", "assets": 0, "income": 0, "revenue": 0}], "CONVERTSCENTER": [{"ein": "204244993", "name": "MUSLIM EDUCATION AND CONVERTSCENTER OF AMERICA INC", "city": "NEW YORK", "state": "NY", "zip": "10001-4509", "ntee": "X40", "ruling": "200606", "deductibility": "1", "assets": 124049, "income": 78158, "revenue": 78158}], "WASTEWATER": [{"ein": "204675505", "name": "NEW YORK ONSITE WASTEWATER TREATMENT TRADING NETWORK INC", "city": "VOORHEESVILLE", "state": "NY", "zip": "12186-2815", "ntee": "C32", "ruling": "200708", "deductibility": "1", "assets": 0, "income": 0, "revenue": 0}, {"ein": "454628219", "name": "WASTEWATER RECOVERY FOUNDATION INC", "city": "WALLKILL", "state": "NY", "zip": "12589-0000", "ntee": "C32", "ruling": "201408", "deductibility": "1", "assets": 352566, "income": 400000, "revenue": 44223}], "COUNTDOWN": [{"ein": "205334857", "name": "COUNTDOWN TO THE CURE INC", "city": "STATEN ISLAND", "state": "NY", "zip": "10309-2116", "ntee": "H30", "ruling": "200705", "deductibility": "1", "assets": 137, "income": 0, "revenue": 0}], "HOCKEYBOOSTER": [{"ein": "205875244", "name": "CORTLAND HOMER GOLDEN EAGLES HOCKEYBOOSTER CLUB INC", "city": "HOMER", "state": "NY", "zip": "13077-0324", "ntee": "N60", "ruling": "201003", "deductibility": "1", "assets": 0, "income": 0, "revenue": 0}], "YAO": [{"ein": "208451114", "name": "UNCLE YAO S CHORUS INC", "city": "FLUSHING", "state": "NY", "zip": "11354-3013", "ntee": "A23", "ruling": "200907", "deductibility": "1", "assets": 0, "income": 0, "revenue": 0}, {"ein": "472571947", "name": "YAO & LU FAMILY FOUNDATION INC", "city": "N BELLMORE", "state": "NY", "zip": "11710-1528", "ntee": "T50", "ruling": "201512", "deductibility": "1", "assets": 1068527, "income": 113873, "revenue": 0}, {"ein": "474955048", "name": "TAI GUAN YAO TEMPLE INC", "city": "BROOKLYN", "state": "NY", "zip": "11229-3309", "ntee": "X50", "ruling": "201602", "deductibility": "1", "assets": 886, "income": 28750, "revenue": 28750}], "VARYSBURG": [{"ein": "222519172", "name": "VARYSBURG FIRE DEPARTMENT", "city": "VARYSBURG", "state": "NY", "zip": "14167-0638", "ntee": "M24", "ruling": "201607", "deductibility": "1", "assets": 455656, "income": 70196, "revenue": 66868}], "NEWCOMB": [{"ein": "222519636", "name": "AMER LEGN AUX UNIT OF NEWCOMB LONG POST NO 928 THE AMER LEG DEPT OF N", "city": "DERBY", "state": "NY", "zip": "14047-9612", "ntee": "", "ruling": "202006", "deductibility": "1", "assets": 0, "income": 0, "revenue": 0}, {"ein": "812053129", "name": "NEWCOMB HISTORICAL MUSEUM INC", "city": "NEWCOMB", "state": "NY", "zip": "12852-0408", "ntee": "A54", "ruling": "202108", "deductibility": "1", "assets": 172368, "income": 229831, "revenue": 229831}], "ARISTOS": [{"ein": "222775272", "name": "ARISTOS FOUNDATION", "city": "NEW YORK", "state": "NY", "zip": "10025-7016", "ntee": "A20", "ruling": "201312", "deductibility": "1", "assets": 0, "income": 0, "revenue": 0}], "CRANALEITH": [{"ein": "232726952", "name": "CRANALEITH FOUNDATION INC", "city": "NEW YORK", "state": "NY", "zip": "10036-0000", "ntee": "", "ruling": "199402", "deductibility": "1", "assets": 21484624, "income": 20438338, "revenue": 0}], "WGHQ": [{"ein": "237085346", "name": "WGHQ HAPPY CHRISTMAS FUND INC", "city": "KINGSTON", "state": "NY", "zip": "12402-4364", "ntee": "", "ruling": "197101", "deductibility": "1", "assets": 70724, "income": 14521, "revenue": 14521}], "ONTOLOGICAL": [{"ein": "237250654", "name": "ONTOLOGICAL-HYSTERIC THEATRE INC", "city": "NEW YORK", "state": "NY", "zip": "10013-2260", "ntee": "A650", "ruling": "197301", "deductibility": "1", "assets": 9830, "income": 1, "revenue": 0}, {"ein": "934857812", "name": "NATIONAL CENTER FOR ONTOLOGICAL RESEARCH INC", "city": "BUFFALO", "state": "NY", "zip": "14204-1988", "ntee": "U99", "ruling": "202501", "deductibility": "1", "assets": 0, "income": 0, "revenue": 0}], "FABRICATOR": [{"ein": "237300465", "name": "FABRICATOR ERECTORS AND REINFORCERS OF THE HUDSON VALLEY TRUST", "city": "NEWBURGH", "state": "NY", "zip": "12550-3043", "ntee": "", "ruling": "197306", "deductibility": "2", "assets": 639800, "income": 160263, "revenue": 106519}], "NEGRI": [{"ein": "237325511", "name": "MARIO NEGRI INSTITUTE FOUNDATION", "city": "NEW YORK", "state": "NY", "zip": "10022-0000", "ntee": "Q053", "ruling": "197311", "deductibility": "1", "assets": 58117, "income": 472943, "revenue": 0}], "HAYUSHUN": [{"ein": "237375778", "name": "BAIS YAKOV HAYUSHUN INC", "city": "BROOKLYN", "state": "NY", "zip": "11211-7615", "ntee": "", "ruling": "197405", "deductibility": "1", "assets": 0, "income": 0, "revenue": 0}], "WOODCHUCK": [{"ein": "237413428", "name": "JOHN BURROUGHS WOODCHUCK LODGE", "city": "ROXBURY", "state": "NY", "zip": "12474-0492", "ntee": "A50", "ruling": "201607", "deductibility": "1", "assets": 0, "income": 0, "revenue": 0}, {"ein": "883257838", "name": "WOODCHUCK HILL ENVIRONMENTAL ASSOCIATION INC", "city": "MANLIUS", "state": "NY", "zip": "13104-1301", "ntee": "C30", "ruling": "202209", "deductibility": "1", "assets": 0, "income": 0, "revenue": 0}], "DEKLE": [{"ein": "256677347", "name": "VIRGINIA MILLER DEKLE FOUNDATION COLLEGE", "city": "AMHERST", "state": "NY", "zip": "14228-2307", "ntee": "T20", "ruling": "200102", "deductibility": "1", "assets": 159433, "income": 47095, "revenue": 0}, {"ein": "256677348", "name": "VIRGINIA MILLER DEKLE FOUNDATION MARY COLLEGE", "city": "AMHERST", "state": "NY", "zip": "14228-2307", "ntee": "T20", "ruling": "200102", "deductibility": "1", "assets": 157461, "income": 45964, "revenue": 0}], "AUXILIIARY": [{"ein": "260803337", "name": "DEPARTMENT OF NEW YORK VFW AUXILIIARY", "city": "WATERLOO", "state": "NY", "zip": "13165-1037", "ntee": "W30", "ruling": "200909", "deductibility": "2", "assets": 0, "income": 0, "revenue": 0}], "EAYRES": [{"ein": "261210310", "name": "EAYRES HOPE FOUNDATION", "city": "ROCHESTER", "state": "NY", "zip": "14623-0000", "ntee": "T220", "ruling": "200802", "deductibility": "1", "assets": 11339803, "income": 2662275, "revenue": 0}], "CMNY": [{"ein": "261337001", "name": "CHINMAYA MISSION NEW YORK CMNY", "city": "WOODBURY", "state": "NY", "zip": "11797-1334", "ntee": "X70", "ruling": "200809", "deductibility": "1", "assets": 0, "income": 0, "revenue": 0}], "MCGOLDRICK": [{"ein": "262561303", "name": "NEIL & AMY MCGOLDRICK CHARITABLE FOUNDATION", "city": "GARDEN CITY", "state": "NY", "zip": "11530-4416", "ntee": "T20", "ruling": "200808", "deductibility": "1", "assets": 801841, "income": 142819, "revenue": 0}], "RCB": [{"ein": "262669287", "name": "RCB APARTMENTS HOUSING DEVELOPMENT FUND CORPORATION", "city": "NEW YORK", "state": "NY", "zip": "10010-6002", "ntee": "L21", "ruling": "201212", "deductibility": "2", "assets": 0, "income": 0, "revenue": 0}], "INSPIRATIONS": [{"ein": "262890342", "name": "INSPIRATIONS ON THE GO INC", "city": "BRONX", "state": "NY", "zip": "10466-2404", "ntee": "P20", "ruling": "202010", "deductibility": "1", "assets": 0, "income": 0, "revenue": 0}, {"ein": "933439719", "name": "INSPIRATIONS CENTER INC", "city": "SELDEN", "state": "NY", "zip": "11784-2032", "ntee": "P20", "ruling": "202310", "deductibility": "1", "assets": 0, "income": 0, "revenue": 0}], "ERCO": [{"ein": "271362596", "name": "ERCO FOUNDATION INC", "city": "JACKSON HTS", "state": "NY", "zip": "11372-7945", "ntee": "T20", "ruling": "201004", "deductibility": "1", "assets": 65083, "income": 13006, "revenue": 0}], "SARAVIA": [{"ein": "272071626", "name": "JOSE L SARAVIA LEGAL SERVICES INC", "city": "LIBERTY", "state": "NY", "zip": "12754-0127", "ntee": "I80", "ruling": "201109", "deductibility": "1", "assets": 0, "income": 0, "revenue": 0}], "EASTLIGHT": [{"ein": "272799007", "name": "EASTLIGHT THEATER COMPANY INC", "city": "ORIENT", "state": "NY", "zip": "11957-0262", "ntee": "A60", "ruling": "201011", "deductibility": "1", "assets": 0, "income": 0, "revenue": 0}], "PETALS": [{"ein": "273177506", "name": "PETALS-N-BELLES INC", "city": "ROSEDALE", "state": "NY", "zip": "11422-1475", "ntee": "O22", "ruling": "201101", "deductibility": "1", "assets": 0, "income": 0, "revenue": 0}, {"ein": "811566426", "name": "PROJECT PETALS INC", "city": "JAMAICA", "state": "NY", "zip": "11434-7430", "ntee": "S20", "ruling": "201605", "deductibility": "1", "assets": 0, "income": 0, "revenue": 0}, {"ein": "884384210", "name": "BLUE PETALS UTMOST CARE INC", "city": "BROOKLYN", "state": "NY", "zip": "11213-3153", "ntee": "L02", "ruling": "202302", "deductibility": "1", "assets": 1, "income": 1, "revenue": 0}], "VIRGILIENNES": [{"ein": "273191069", "name": "FOUNDATION VIRGILIENS AND VIRGILIENNES FOR THE DEVELOPMENT O", "city": "BROOKLYN", "state": "NY", "zip": "11236-3808", "ntee": "P60", "ruling": "201012", "deductibility": "1", "assets": 0, "income": 0, "revenue": 0}], "INMATES": [{"ein": "300301626", "name": "FEDERAL INMATES FAMILIES CARE INC", "city": "S OZONE PARK", "state": "NY", "zip": "11420-2603", "ntee": "O99", "ruling": "201607", "deductibility": "1", "assets": 0, "income": 0, "revenue": 0}], "SLEEPING": [{"ein": "331020155", "name": "TICKLE THE SLEEPING GIANT INC", "city": "BROOKLYN", "state": "NY", "zip": "11215-0000", "ntee": "A20", "ruling": "200305", "deductibility": "1", "assets": 0, "income": 0, "revenue": 0}, {"ein": "874513865", "name": "SLEEPING PHOENIX FOUNDATION", "city": "NEW YORK", "state": "NY", "zip": "10001-0000", "ntee": "T20", "ruling": "202207", "deductibility": "1", "assets": 54899230, "income": 2396702, "revenue": 0}], "INTERFAITHS": [{"ein": "331198902", "name": "NATIONAL DISASTER INTERFAITHS NETWORK", "city": "BRONX", "state": "NY", "zip": "10467-2806", "ntee": "M20", "ruling": "201308", "deductibility": "1", "assets": 0, "income": 0, "revenue": 0}], "DOAST": [{"ein": "331277355", "name": "DOAST PROJECT INC", "city": "IRVINGTON", "state": "NY", "zip": "10533-1014", "ntee": "A23", "ruling": "202502", "deductibility": "1", "assets": 0, "income": 0, "revenue": 0}], "TRAILER": [{"ein": "331973764", "name": "XMAS TRAILER INC", "city": "N TONAWANDA", "state": "NY", "zip": "14120-1906", "ntee": "T99", "ruling": "202412", "deductibility": "1", "assets": 0, "income": 0, "revenue": 0}], "TIERRA": [{"ein": "332276478", "name": "ANA IRMA THOMPSON PEREZ FUNDACION DE LA TIERRA PROMETIDA", "city": "SYRACUSE", "state": "NY", "zip": "13205-1130", "ntee": "A23", "ruling": "202506", "deductibility": "1", "assets": 0, "income": 0, "revenue": 0}, {"ein": "371538377", "name": "MINISTERIO INTERNACIONAL TIERRA DESEABLE INC", "city": "JAMAICA", "state": "NY", "zip": "11423-2416", "ntee": "X20", "ruling": "200808", "deductibility": "1", "assets": 5335199, "income": 1443435, "revenue": 1443435}, {"ein": "465633777", "name": "FUNDACION D LA TIERRA CORP", "city": "BAYSIDE", "state": "NY", "zip": "11361-3038", "ntee": "G41", "ruling": "201501", "deductibility": "1", "assets": 0, "income": 0, "revenue": 0}, {"ein": "862963276", "name": "EL REINO DE DIOS AQUI EN LA TIERRA", "city": "YONKERS", "state": "NY", "zip": "10705-2413", "ntee": "X20", "ruling": "202203", "deductibility": "1", "assets": 0, "income": 0, "revenue": 0}, {"ein": "921430593", "name": "IGLESIA TIERRA DE MILAGROS NY INC", "city": "FLUSHING", "state": "NY", "zip": "11355-4181", "ntee": "X20", "ruling": "202312", "deductibility": "1", "assets": 0, "income": 0, "revenue": 0}], "LALITAMBA": [{"ein": "342025742", "name": "LALITAMBA INC", "city": "NEW YORK", "state": "NY", "zip": "10024-4049", "ntee": "E50", "ruling": "201204", "deductibility": "1", "assets": 0, "income": 0, "revenue": 0}], "SAVETT": [{"ein": "352585794", "name": "SAVETT CHRISTIAN FOUNDATION", "city": "HARTSDALE", "state": "NY", "zip": "10530-1059", "ntee": "B90", "ruling": "201705", "deductibility": "1", "assets": 0, "income": 0, "revenue": 0}], "KAPNICK": [{"ein": "367434011", "name": "KAPNICK FOUNDATION TR", "city": "NEW YORK", "state": "NY", "zip": "10274-0073", "ntee": "T20", "ruling": "200411", "deductibility": "1", "assets": 49329733, "income": 12831680, "revenue": 0}], "DINEEN": [{"ein": "452351723", "name": "DR PATRICK J DINEEN MEMORIAL FOUNDATION", "city": "BOHEMIA", "state": "NY", "zip": "11716-3958", "ntee": "G30", "ruling": "202410", "deductibility": "1", "assets": 0, "income": 0, "revenue": 0}], "EXPEDITIONARY": [{"ein": "452442373", "name": "LAUNCH EXPEDITIONARY LEARNING CHARTER SCHOOL", "city": "BROOKLYN", "state": "NY", "zip": "11213-1713", "ntee": "B29", "ruling": "201110", "deductibility": "1", "assets": 3599356, "income": 7715432, "revenue": 7715432}], "HUGS": [{"ein": "452945739", "name": "HUGS FROM CARA INC", "city": "AUBURN", "state": "NY", "zip": "13021-4801", "ntee": "F60", "ruling": "201203", "deductibility": "1", "assets": 0, "income": 0, "revenue": 0}, {"ein": "582673458", "name": "HUGS FOUNDATION INC", "city": "ROCHESTER", "state": "NY", "zip": "14607-0000", "ntee": "Q33", "ruling": "200308", "deductibility": "1", "assets": 2663737, "income": 940628, "revenue": 638662}, {"ein": "845147073", "name": "HUGS FOR US", "city": "NEW YORK", "state": "NY", "zip": "10003-4710", "ntee": "M12", "ruling": "202005", "deductibility": "1", "assets": 197836, "income": 44724, "revenue": 44724}, {"ein": "854303132", "name": "9 HUGS FOUNDATION INC", "city": "MERRICK", "state": "NY", "zip": "11566-1962", "ntee": "T30", "ruling": "202104", "deductibility": "1", "assets": 21331, "income": 28009, "revenue": 28009}, {"ein": "863297555", "name": "WORLD WIDE HUGS INC", "city": "BROOKLYN", "state": "NY", "zip": "11230-7297", "ntee": "P50", "ruling": "202109", "deductibility": "1", "assets": 1, "income": 4500, "revenue": 4500}, {"ein": "873077336", "name": "HUGS FOR HOPE INC", "city": "SYRACUSE", "state": "NY", "zip": "13204-1565", "ntee": "P58", "ruling": "202303", "deductibility": "1", "assets": 0, "income": 0, "revenue": 0}], "IRCS": [{"ein": "453686069", "name": "IRCS CENTER FOR ECONOMIC OPPORTUNITY INC", "city": "NEW YORK", "state": "NY", "zip": "10168-1299", "ntee": "P84", "ruling": "201408", "deductibility": "1", "assets": 18295231, "income": 6039414, "revenue": 6039414}], "EXPLOSION": [{"ein": "454976550", "name": "THE WORD EXPLOSION MINISTRIES INC", "city": "JAMAICA", "state": "NY", "zip": "11436-1321", "ntee": "X21", "ruling": "201302", "deductibility": "1", "assets": 0, "income": 0, "revenue": 0}, {"ein": "475004767", "name": "NEW YORK EXPLOSION ATHLETIC LEAGUE INC", "city": "FREEPORT", "state": "NY", "zip": "11520-3631", "ntee": "N60", "ruling": "201610", "deductibility": "1", "assets": 0, "income": 0, "revenue": 0}, {"ein": "814257273", "name": "MIRACLE EXPLOSION WORLWIDE MINISTRIES INC", "city": "HEMPSTEAD", "state": "NY", "zip": "11551-0543", "ntee": "X21", "ruling": "201611", "deductibility": "1", "assets": 0, "income": 0, "revenue": 0}], "ELEVEN": [{"ein": "455286688", "name": "ELEVEN AND B HOUSING DEVELOPMENT FUND COMPANY INC", "city": "NEW YORK", "state": "NY", "zip": "10009-7584", "ntee": "L20", "ruling": "201410", "deductibility": "2", "assets": 0, "income": 0, "revenue": 0}, {"ein": "824820264", "name": "ACADEMY ELEVEN GHANA INC", "city": "BROOKLYN", "state": "NY", "zip": "11215-2032", "ntee": "O50", "ruling": "201804", "deductibility": "1", "assets": 41621, "income": 67266, "revenue": 67266}, {"ein": "994918305", "name": "DAWN ELEVEN CONTEMPORARY ART FOUNDATION", "city": "LONG ISLAND CITY", "state": "NY", "zip": "11101-3092", "ntee": "A90", "ruling": "202409", "deductibility": "1", "assets": 0, "income": 0, "revenue": 0}], "MUDRA": [{"ein": "460537389", "name": "MUDRA FOUNDATION-ART FOR A CAUSE", "city": "MUTTONTOWN", "state": "NY", "zip": "11791-2413", "ntee": "T30", "ruling": "201209", "deductibility": "1", "assets": 64230, "income": 0, "revenue": 0}], "LHAKSAM": [{"ein": "460630635", "name": "THRANGU LHAKSAM TSOKPA INC", "city": "JACKSON HTS", "state": "NY", "zip": "11372-1837", "ntee": "X50", "ruling": "202501", "deductibility": "1", "assets": 6130, "income": 6130, "revenue": 6130}], "DAMA": [{"ein": "461056585", "name": "BUDDHA DAMA THUKA TEMPLE", "city": "FRANKFORT", "state": "NY", "zip": "13340-5204", "ntee": "X50", "ruling": "201311", "deductibility": "1", "assets": 0, "income": 0, "revenue": 0}], "ATALIES": [{"ein": "462766394", "name": "ATALIES HOPE INC", "city": "NEW HYDE PARK", "state": "NY", "zip": "11040-1201", "ntee": "P30", "ruling": "202204", "deductibility": "1", "assets": 45425, "income": 10150, "revenue": 0}], "SPARE": [{"ein": "462875392", "name": "SPARE CHANGE INC", "city": "NEW YORK", "state": "NY", "zip": "10018-4502", "ntee": "A12", "ruling": "201907", "deductibility": "1", "assets": 0, "income": 0, "revenue": 0}], "ASM": [{"ein": "464012857", "name": "ASM FAMILY CHARITABLE FOUNDATION TRUST", "city": "BROOKLYN", "state": "NY", "zip": "11211-7369", "ntee": "T99", "ruling": "201407", "deductibility": "1", "assets": 349000, "income": 58550, "revenue": 0}], "MINTY": [{"ein": "464137962", "name": "MINTY ORGANIZATION FOR THE PERFORMING ARTS INC", "city": "STATEN ISLAND", "state": "NY", "zip": "10309-2433", "ntee": "A25", "ruling": "201412", "deductibility": "1", "assets": 78299, "income": 83942, "revenue": 61502}], "DRAV": [{"ein": "464160517", "name": "AMERICAN FRIENDS OF ORCHOT TORAH DRAV SHTEINMAN INC", "city": "BROOKLYN", "state": "NY", "zip": "11204-1228", "ntee": "T11", "ruling": "201409", "deductibility": "1", "assets": 38780, "income": 3502820, "revenue": 3502820}], "CHIRON": [{"ein": "471835008", "name": "CHIRON RETURN INC", "city": "KINGSTON", "state": "NY", "zip": "12402-4141", "ntee": "P20", "ruling": "201704", "deductibility": "1", "assets": 0, "income": 0, "revenue": 0}, {"ein": "991856644", "name": "CHIRON YOUTH INC", "city": "NEW YORK", "state": "NY", "zip": "10128-6862", "ntee": "O50", "ruling": "202403", "deductibility": "1", "assets": 0, "income": 0, "revenue": 0}], "KREIZ": [{"ein": "472424434", "name": "KEHAL KEDUSHAS AHARON SANZ KREIZ", "city": "BROOKLYN", "state": "NY", "zip": "11204-1122", "ntee": "X30", "ruling": "201502", "deductibility": "1", "assets": 0, "income": 0, "revenue": 0}], "GERIZIM": [{"ein": "472866364", "name": "IGLESIA EVANGELICA GERIZIM INC", "city": "BRONX", "state": "NY", "zip": "10454-0000", "ntee": "X20", "ruling": "201603", "deductibility": "1", "assets": 94514, "income": 134839, "revenue": 134839}], "POWDER": [{"ein": "473710661", "name": "POWDER MILL HOMEOWNERS ASSOCIATION INC", "city": "SAUGERTIES", "state": "NY", "zip": "12477-0000", "ntee": "L50", "ruling": "201508", "deductibility": "2", "assets": 0, "income": 0, "revenue": 0}, {"ein": "611694135", "name": "ADIRONDACK POWDER SKIER ASSOCIATION INC", "city": "KEENE VALLEY", "state": "NY", "zip": "12943-0702", "ntee": "N68", "ruling": "201402", "deductibility": "1", "assets": 0, "income": 0, "revenue": 0}], "HIGHVIEW": [{"ein": "474540438", "name": "HIGHVIEW GARDENS INC", "city": "LIBERTY", "state": "NY", "zip": "12754-0311", "ntee": "Y50", "ruling": "201609", "deductibility": "2", "assets": 0, "income": 0, "revenue": 0}, {"ein": "994114664", "name": "CONGREGATION OF HIGHVIEW HILLS", "city": "SUFFERN", "state": "NY", "zip": "10901-4167", "ntee": "X30", "ruling": "202501", "deductibility": "1", "assets": 0, "income": 0, "revenue": 0}], "CALYPSO": [{"ein": "475017204", "name": "DYNAMITE CALYPSO TENT OF NEW YORK", "city": "BROOKLYN", "state": "NY", "zip": "11207-4306", "ntee": "A20", "ruling": "202408", "deductibility": "1", "assets": 0, "income": 0, "revenue": 0}], "WERMERS": [{"ein": "475552647", "name": "THOMAS AND MICHELLE WERMERS FAMILY FOUNDATION", "city": "GARDEN CITY", "state": "NY", "zip": "11530-0000", "ntee": "T20", "ruling": "201701", "deductibility": "1", "assets": 6402400, "income": 673288, "revenue": 0}], "LUNCHBOX": [{"ein": "562485570", "name": "COMMUNITY LUNCHBOX", "city": "SARANAC LAKE", "state": "NY", "zip": "12983-1734", "ntee": "K31", "ruling": "200501", "deductibility": "1", "assets": 0, "income": 0, "revenue": 0}, {"ein": "882501290", "name": "LANSING LUNCHBOX INC", "city": "ITHACA", "state": "NY", "zip": "14850-9754", "ntee": "K30", "ruling": "202207", "deductibility": "1", "assets": 34334, "income": 44851, "revenue": 44851}], "SWINT": [{"ein": "586032740", "name": "SWINT FOUNDATION", "city": "SOUTHAMPTON", "state": "NY", "zip": "11969-1307", "ntee": "", "ruling": "195811", "deductibility": "1", "assets": 182706, "income": 245300, "revenue": 0}], "ANYWHERE": [{"ein": "611404777", "name": "STRIKE ANYWHERE INC", "city": "NEW YORK", "state": "NY", "zip": "10108-2396", "ntee": "A60", "ruling": "200405", "deductibility": "1", "assets": 307267, "income": 362504, "revenue": 362504}, {"ein": "932104282", "name": "ANYWHERE THEATRE COMPANY INC", "city": "SLEEPY HOLLOW", "state": "NY", "zip": "10591-2608", "ntee": "A20", "ruling": "202401", "deductibility": "1", "assets": 31489, "income": 65843, "revenue": 65843}], "ELIACIN": [{"ein": "611608876", "name": "UNITED FOUNDATION ANDRE ELIACIN FOR LIFE", "city": "SYRACUSE", "state": "NY", "zip": "13204-1805", "ntee": "P12", "ruling": "201411", "deductibility": "1", "assets": 0, "income": 0, "revenue": 0}], "ROMANIA": [{"ein": "611910426", "name": "CHABAD OF CIUJ-NAPOCA ROMANIA INC", "city": "BROOKLYN", "state": "NY", "zip": "11213-5137", "ntee": "X30", "ruling": "201902", "deductibility": "1", "assets": 211, "income": 144554, "revenue": 144554}, {"ein": "994376312", "name": "AMERICAN FRIENDS OF CHILDREN IN DISTRESS ROMANIA INC", "city": "BROOKLYN", "state": "NY", "zip": "11217-4189", "ntee": "T11", "ruling": "202411", "deductibility": "1", "assets": 0, "income": 0, "revenue": 0}], "APSE": [{"ein": "630861233", "name": "APSE ASSOCIATED PRESS SPORTS EDITORS", "city": "HUNTINGTON", "state": "NY", "zip": "11743-3237", "ntee": "", "ruling": "199010", "deductibility": "2", "assets": 51170, "income": 96412, "revenue": 96412}], "CHEVRON": [{"ein": "810850397", "name": "BHMD BY ON CHEVRON INC", "city": "MONROE", "state": "NY", "zip": "10950-3069", "ntee": "X30", "ruling": "201602", "deductibility": "1", "assets": 0, "income": 0, "revenue": 0}, {"ein": "861192142", "name": "CHEVRON GROUP FOUNDATION INC", "city": "MONROE", "state": "NY", "zip": "10950-2905", "ntee": "X30", "ruling": "202105", "deductibility": "1", "assets": 562083, "income": 12226, "revenue": 0}], "KOSINIMA": [{"ein": "814658972", "name": "KOSINIMA INC", "city": "JACKSON HTS", "state": "NY", "zip": "11372-8735", "ntee": "A31", "ruling": "202111", "deductibility": "1", "assets": 0, "income": 0, "revenue": 0}], "RECONCILING": [{"ein": "814694671", "name": "RECONCILING THE WORLD WITH GOD CHURCH", "city": "BROOKLYN", "state": "NY", "zip": "11206-5323", "ntee": "X20", "ruling": "201705", "deductibility": "1", "assets": 0, "income": 0, "revenue": 0}], "ARGERSINGER": [{"ein": "816421373", "name": "ARGERSINGER CHARITABLE TR", "city": "NORWICH", "state": "NY", "zip": "13815-0000", "ntee": "T20", "ruling": "201607", "deductibility": "1", "assets": 960110, "income": 44119, "revenue": 0}], "GPB": [{"ein": "822870225", "name": "GPB CARES INC", "city": "MINEOLA", "state": "NY", "zip": "11501-4883", "ntee": "P12", "ruling": "201710", "deductibility": "1", "assets": 0, "income": 0, "revenue": 0}], "SOULAJE": [{"ein": "823304295", "name": "SOULAJE LAKAY", "city": "BROOKLYN", "state": "NY", "zip": "11213-2936", "ntee": "Q33", "ruling": "201712", "deductibility": "1", "assets": 0, "income": 0, "revenue": 0}], "PAYROLLORG": [{"ein": "823836440", "name": "THE NY METRO CHAPTER OF PAYROLLORG", "city": "WHITNEY POINT", "state": "NY", "zip": "13862-1415", "ntee": "B03", "ruling": "201910", "deductibility": "1", "assets": 0, "income": 0, "revenue": 0}], "KOACHATORAH": [{"ein": "824860143", "name": "KOACHATORAH INC", "city": "BROOKLYN", "state": "NY", "zip": "11219-3011", "ntee": "X30", "ruling": "201809", "deductibility": "1", "assets": 8141, "income": 105062, "revenue": 105062}], "SHABAT": [{"ein": "825190487", "name": "GEMILAS CHESED SHOMREY SHABAT INC", "city": "BROOKLYN", "state": "NY", "zip": "11213-4329", "ntee": "X30", "ruling": "201805", "deductibility": "1", "assets": 0, "income": 0, "revenue": 0}], "INHERIT": [{"ein": "831656601", "name": "INHERIT THE GOLD FOUNDATION INC", "city": "FORT EDWARD", "state": "NY", "zip": "12828-9217", "ntee": "D01", "ruling": "202105", "deductibility": "1", "assets": 0, "income": 0, "revenue": 0}, {"ein": "844136021", "name": "INHERIT THE KINGDOM INC", "city": "HARRISVILLE", "state": "NY", "zip": "13648-3277", "ntee": "X03", "ruling": "202003", "deductibility": "1", "assets": 0, "income": 0, "revenue": 0}], "CELENTANO": [{"ein": "832561874", "name": "CELENTANO FOUNDATION INC", "city": "E PATCHOGUE", "state": "NY", "zip": "11772-4537", "ntee": "B82", "ruling": "201812", "deductibility": "1", "assets": 0, "income": 0, "revenue": 0}], "EVANGELIZING": [{"ein": "842022912", "name": "EVANGELIZING FOR JESUS INC", "city": "BROOKLYN", "state": "NY", "zip": "11236-1225", "ntee": "X20", "ruling": "202004", "deductibility": "1", "assets": 0, "income": 0, "revenue": 0}], "LAWNCHAIR": [{"ein": "842075383", "name": "LAWNCHAIR THEATRE INC", "city": "PORT CHESTER", "state": "NY", "zip": "10573-1807", "ntee": "A65", "ruling": "202003", "deductibility": "1", "assets": 8311, "income": 1060, "revenue": 1060}], "TC": [{"ein": "842495002", "name": "TC MEMORIAL LTD", "city": "BUFFALO", "state": "NY", "zip": "14226-3422", "ntee": "B82", "ruling": "201911", "deductibility": "1", "assets": 1, "income": 1, "revenue": 0}, {"ein": "854169225", "name": "EMPIRE ELITE TC INC", "city": "NEW PALTZ", "state": "NY", "zip": "12561-1222", "ntee": "N40", "ruling": "202104", "deductibility": "1", "assets": 156984, "income": 305671, "revenue": 302795}, {"ein": "900090289", "name": "TC FIGURE SKATING CLUB INC", "city": "FAIRPORT", "state": "NY", "zip": "14450-0293", "ntee": "N68", "ruling": "200408", "deductibility": "1", "assets": 48826, "income": 253608, "revenue": 240784}], "NASRUL": [{"ein": "843732337", "name": "NASRUL-LAHIL-L FATIH SOCIETY - NASFAT NEW YORK INC", "city": "JAMAICA", "state": "NY", "zip": "11436-1928", "ntee": "X40", "ruling": "202310", "deductibility": "1", "assets": 0, "income": 0, "revenue": 0}], "KODA": [{"ein": "844076721", "name": "KODA ARTS INC", "city": "BROOKLYN", "state": "NY", "zip": "11216-5491", "ntee": "A20", "ruling": "202008", "deductibility": "1", "assets": 2288, "income": 96363, "revenue": 96363}], "SKK": [{"ein": "844132439", "name": "SKK ALUMNI ASSOCIATION OF NY INC", "city": "MANHASSET", "state": "NY", "zip": "11030-2646", "ntee": "B84", "ruling": "202007", "deductibility": "1", "assets": 0, "income": 0, "revenue": 0}], "VEDAS": [{"ein": "852924704", "name": "CONG BINAH VEDAS", "city": "MONROE", "state": "NY", "zip": "10950-0000", "ntee": "X30", "ruling": "202409", "deductibility": "1", "assets": 0, "income": 0, "revenue": 0}], "ULFANA": [{"ein": "861546628", "name": "BAIS ULFANA", "city": "BROOKLYN", "state": "NY", "zip": "11210-5236", "ntee": "X30", "ruling": "202207", "deductibility": "1", "assets": 0, "income": 0, "revenue": 0}], "BAKE": [{"ein": "862276263", "name": "WE BAKE NYC INC", "city": "ST ALBANS", "state": "NY", "zip": "11412-2129", "ntee": "K30", "ruling": "202109", "deductibility": "1", "assets": 0, "income": 0, "revenue": 0}, {"ein": "863053476", "name": "BAKE BACK AMERICA INC", "city": "SCARSDALE", "state": "NY", "zip": "10583-2806", "ntee": "W99", "ruling": "202107", "deductibility": "1", "assets": 0, "income": 0, "revenue": 0}], "DIALOGUES": [{"ein": "863000127", "name": "HEALING DIALOGUES INSTITUTE", "city": "BAY SHORE", "state": "NY", "zip": "11706-2826", "ntee": "B99", "ruling": "202109", "deductibility": "1", "assets": 76, "income": 750, "revenue": 750}, {"ein": "993886393", "name": "MIRROR BIOLOGY DIALOGUES FUND", "city": "NEW YORK", "state": "NY", "zip": "10110-0002", "ntee": "U99", "ruling": "202407", "deductibility": "1", "assets": 0, "income": 0, "revenue": 0}], "KTHUNDER": [{"ein": "863014027", "name": "KTHUNDER INC", "city": "KINGSTON", "state": "NY", "zip": "12401-3805", "ntee": "N64", "ruling": "202203", "deductibility": "1", "assets": 0, "income": 0, "revenue": 0}], "SACRAMENTS": [{"ein": "872274894", "name": "SACRAMENTS OF ETERNITY", "city": "ROCK HILL", "state": "NY", "zip": "12775-6222", "ntee": "X99", "ruling": "202111", "deductibility": "1", "assets": 0, "income": 0, "revenue": 0}], "AMBITION": [{"ein": "873112422", "name": "QUEENS AMBITION IN MOTION INC", "city": "QUEENS VLG", "state": "NY", "zip": "11429-2533", "ntee": "O50", "ruling": "202202", "deductibility": "1", "assets": 0, "income": 0, "revenue": 0}, {"ein": "931404091", "name": "WOMEN WITH AMBITION INC", "city": "WOODSIDE", "state": "NY", "zip": "11377-4205", "ntee": "S81", "ruling": "202306", "deductibility": "1", "assets": 0, "income": 0, "revenue": 0}], "INCONMOVIBLE": [{"ein": "873822954", "name": "IGLESIA PENTECOSTAL LA ROCA INCONMOVIBLE DE FREEPORT INC", "city": "CENTRAL ISLIP", "state": "NY", "zip": "11722-2832", "ntee": "X99", "ruling": "202410", "deductibility": "1", "assets": 0, "income": 0, "revenue": 0}], "HALOMDIM": [{"ein": "873891986", "name": "CONG MIVTZAR HALOMDIM", "city": "BROOKLYN", "state": "NY", "zip": "11211-0119", "ntee": "X30", "ruling": "202206", "deductibility": "1", "assets": 0, "income": 0, "revenue": 0}], "IBIZA": [{"ein": "873913790", "name": "CHABAD OF IBIZA INC", "city": "BROOKLYN", "state": "NY", "zip": "11203-1020", "ntee": "X30", "ruling": "202202", "deductibility": "1", "assets": 4795, "income": 129917, "revenue": 129917}], "XYZ": [{"ein": "874266574", "name": "LOVE XYZ INC", "city": "ELMHURST", "state": "NY", "zip": "11373-4433", "ntee": "P20", "ruling": "202206", "deductibility": "1", "assets": 14635, "income": 241056, "revenue": 241056}], "CRAIN": [{"ein": "874840601", "name": "JENNI CRAIN FOUNDATION INC", "city": "BRENTWOOD", "state": "NY", "zip": "11717-4617", "ntee": "A25", "ruling": "202203", "deductibility": "1", "assets": 0, "income": 0, "revenue": 0}], "UNCOVERED": [{"ein": "881643311", "name": "ART UNCOVERED INC", "city": "NEWBURGH", "state": "NY", "zip": "12550-1410", "ntee": "A40", "ruling": "202206", "deductibility": "1", "assets": 0, "income": 0, "revenue": 0}], "WAKEM": [{"ein": "882004455", "name": "WAKEM - UP MINISTRY INC", "city": "ROCHESTER", "state": "NY", "zip": "14612-5458", "ntee": "X20", "ruling": "202209", "deductibility": "1", "assets": 10644, "income": 130464, "revenue": 130464}], "GOVERMENT": [{"ein": "911920449", "name": "AMERICAN FEDERATION OF GOVERMENT EMPLOYEES", "city": "BROOKLYN", "state": "NY", "zip": "11209-7104", "ntee": "", "ruling": "194010", "deductibility": "2", "assets": 186520, "income": 192678, "revenue": 192678}], "PSALMIST": [{"ein": "920900329", "name": "TMOP - THE MINISTRY OF THE PSALMIST", "city": "ASTORIA", "state": "NY", "zip": "11105-1460", "ntee": "A25", "ruling": "202505", "deductibility": "1", "assets": 0, "income": 0, "revenue": 0}], "VILLAYATTU": [{"ein": "923498565", "name": "THAIMAN VILLAYATTU KALAGAM CORP", "city": "HICKSVILLE", "state": "NY", "zip": "11801-2432", "ntee": "N99", "ruling": "202305", "deductibility": "1", "assets": 1551, "income": 9087, "revenue": 0}], "PST": [{"ein": "931619557", "name": "PST ASAP", "city": "BALDWIN", "state": "NY", "zip": "11510-0000", "ntee": "O50", "ruling": "202311", "deductibility": "1", "assets": 0, "income": 0, "revenue": 0}], "UNINCORPORATED": [{"ein": "932632304", "name": "KATZ FAMILY CEMETERY UNINCORPORATED ASSOCIATION - KFCUA", "city": "EAST ROCKAWAY", "state": "NY", "zip": "11518-2106", "ntee": "Y50", "ruling": "202404", "deductibility": "1", "assets": 0, "income": 0, "revenue": 0}], "REIMAGINE": [{"ein": "932685782", "name": "REIMAGINE OUR WELLNESS INC", "city": "MOUNT VERNON", "state": "NY", "zip": "10550-4370", "ntee": "N30", "ruling": "202406", "deductibility": "1", "assets": 0, "income": 0, "revenue": 0}], "TEENAGE": [{"ein": "933299659", "name": "PARADISE MISSION FOR WIDOWS AND TEENAGE GIRLS INC", "city": "VESTAL", "state": "NY", "zip": "13850-3617", "ntee": "P20", "ruling": "202310", "deductibility": "1", "assets": 0, "income": 0, "revenue": 0}], "BUSKERBALL": [{"ein": "933451948", "name": "NYC BUSKERBALL INC", "city": "RIDGEWOOD", "state": "NY", "zip": "11385-1555", "ntee": "A01", "ruling": "202311", "deductibility": "1", "assets": 1, "income": 0, "revenue": 0}], "KNIZHNIKI": [{"ein": "933489111", "name": "KNIZHNIKI FOUNDATION USA INC", "city": "BROOKLYN", "state": "NY", "zip": "11213-5126", "ntee": "T30", "ruling": "202309", "deductibility": "1", "assets": 0, "income": 0, "revenue": 0}], "HALAWAI": [{"ein": "943491040", "name": "HALAWAI INC", "city": "NEW YORK", "state": "NY", "zip": "10025-1533", "ntee": "A23", "ruling": "201007", "deductibility": "1", "assets": 0, "income": 0, "revenue": 0}], "CNYSL": [{"ein": "990931744", "name": "CNYSL", "city": "MARCELLUS", "state": "NY", "zip": "13108-9776", "ntee": "B70", "ruling": "202407", "deductibility": "1", "assets": 0, "income": 0, "revenue": 0}], "ALGONAC": [{"ein": "992695325", "name": "ALGONAC HOUSE", "city": "NEWBURGH", "state": "NY", "zip": "12550-1410", "ntee": "A82", "ruling": "202405", "deductibility": "1", "assets": 0, "income": 0, "revenue": 0}], "BISU": [{"ein": "994901449", "name": "BISU NORTH AMERICA ALUMNI ASSOICATION INC", "city": "PELHAM", "state": "NY", "zip": "10803-1700", "ntee": "B84", "ruling": "202410", "deductibility": "1", "assets": 0, "income": 0, "revenue": 0}], "WEILD": [{"ein": "995121191", "name": "WEILD FOUNDATION FOR AMERICAN COMPETITIVENESS INC", "city": "NEW YORK", "state": "NY", "zip": "10169-0018", "ntee": "W05", "ruling": "202411", "deductibility": "1", "assets": 0, "income": 0, "revenue": 0}]}
