{"CLEARY": [{"ein": "010902150", "name": "CLEARY FOUNDATION FOR THE DEAF INC", "city": "NESCONSET", "state": "NY", "zip": "11767-2080", "ntee": "B11", "ruling": "200810", "deductibility": "1", "assets": 589020, "income": 16735, "revenue": 16698}, {"ein": "046060043", "name": "THE CLEARY FAMILY FOUNDATION", "city": "ALBANY", "state": "NY", "zip": "12212-5201", "ntee": "", "ruling": "196406", "deductibility": "1", "assets": 999891, "income": 283920, "revenue": 0}, {"ein": "841745582", "name": "MICHAEL J CLEARY LIVE LARGE FOUNDATION INC", "city": "BAY SHORE", "state": "NY", "zip": "11706-8623", "ntee": "P12", "ruling": "201907", "deductibility": "1", "assets": 40363, "income": 10000, "revenue": 7778}], "NJ": [{"ein": "011976266", "name": "NJ NY YOUTH BRIDGE ASSOCIATION", "city": "POUGHKEEPSIE", "state": "NY", "zip": "12603-4707", "ntee": "O50", "ruling": "201203", "deductibility": "1", "assets": 0, "income": 0, "revenue": 0}, {"ein": "113404020", "name": "AMERICAN ASSOCIATION OF BANGLADESHI ENGINEERS & ARCHITECTS NY NJ CT", "city": "NEW HYDE PARK", "state": "NY", "zip": "11040-5539", "ntee": "B60", "ruling": "199807", "deductibility": "1", "assets": 0, "income": 0, "revenue": 0}, {"ein": "205071101", "name": "NJ GRACE KOREAN METHODIST CHURCHINC", "city": "NEW YORK", "state": "NY", "zip": "10034-4108", "ntee": "X20", "ruling": "200805", "deductibility": "1", "assets": 0, "income": 0, "revenue": 0}, {"ein": "208165909", "name": "URHOBO ASSOCIATION OF NY NJ & CTINC", "city": "BROOKLYN", "state": "NY", "zip": "11236-3516", "ntee": "A23", "ruling": "201612", "deductibility": "1", "assets": 0, "income": 0, "revenue": 0}, {"ein": "221522177", "name": "WINE AND LIQUOR SALESMEN OF NJ LOCAL NO 19D WELFARE FUND", "city": "STATEN ISLAND", "state": "NY", "zip": "10305-1839", "ntee": "E81Z", "ruling": "195302", "deductibility": "2", "assets": 144173, "income": 8576577, "revenue": 8576577}, {"ein": "222768870", "name": "DETECTIVES CRIME CLINIC METROPOLITN NEW JERSEY-NEW YORK A NJ NNPFT CRP", "city": "BRONX", "state": "NY", "zip": "10451-1219", "ntee": "", "ruling": "199005", "deductibility": "1", "assets": 0, "income": 0, "revenue": 0}, {"ein": "223849398", "name": "LENNIE PIERRO MEMORIAL ARTS FOUNDATION A NJ NONPROFIT CORP", "city": "NEW YORK", "state": "NY", "zip": "10027-4704", "ntee": "A60", "ruling": "200205", "deductibility": "1", "assets": 0, "income": 0, "revenue": 0}, {"ein": "271983191", "name": "DIVINE CHILD FOUNDATION A NJ NONPROFIT CORPORATION", "city": "HOLLIS", "state": "NY", "zip": "11423-1104", "ntee": "A23", "ruling": "201101", "deductibility": "1", "assets": 0, "income": 0, "revenue": 0}, {"ein": "320268304", "name": "NEW JERSEY KOREAN CH NEW EGYPT NJ", "city": "STATEN ISLAND", "state": "NY", "zip": "10309-1774", "ntee": "", "ruling": "196408", "deductibility": "0", "assets": 0, "income": 0, "revenue": 0}, {"ein": "331401328", "name": "ERITREAN CULTURAL AND CIVIC CENTER OF GREATER NY NJ AND CT INC", "city": "BRONX", "state": "NY", "zip": "10462-0000", "ntee": "A23", "ruling": "202502", "deductibility": "1", "assets": 0, "income": 0, "revenue": 0}, {"ein": "452552448", "name": "PUBLIC MEDIA NJ INC", "city": "NEW YORK", "state": "NY", "zip": "10019-7416", "ntee": "A30", "ruling": "201111", "deductibility": "1", "assets": 13345675, "income": 16623775, "revenue": 11485239}, {"ein": "454612750", "name": "GREEN TREE CHARITY A NJ NONPROFIT CORPORATION", "city": "BRONX", "state": "NY", "zip": "10474-0000", "ntee": "P99", "ruling": "201304", "deductibility": "1", "assets": 206193, "income": 324975, "revenue": 324975}, {"ein": "472123883", "name": "MY RECOVERY BUDDY A NJ NONPROFIT CORPORATION", "city": "BURDETT", "state": "NY", "zip": "14818-0194", "ntee": "A90", "ruling": "201411", "deductibility": "1", "assets": 0, "income": 0, "revenue": 0}, {"ein": "474360803", "name": "YMATH A NJ NONPROFIT CORPORATION", "city": "WARWICK", "state": "NY", "zip": "10990-2261", "ntee": "B90", "ruling": "201809", "deductibility": "1", "assets": 0, "income": 0, "revenue": 0}, {"ein": "611875670", "name": "HILLSONG NJ LLC", "city": "NEW YORK", "state": "NY", "zip": "10012-2719", "ntee": "X21", "ruling": "202012", "deductibility": "1", "assets": 0, "income": 0, "revenue": 0}, {"ein": "815151076", "name": "PS RESCUE ORG A NJ NONPROFIT CORPORATION", "city": "BROOKLYN", "state": "NY", "zip": "11204-1155", "ntee": "P99", "ruling": "202212", "deductibility": "1", "assets": 0, "income": 0, "revenue": 0}, {"ein": "817035230", "name": "THE SISTERS OF CHRISTIAN CHARITY- MALLINCKRODT CONVENT MENHAM NJ", "city": "BUFFALO", "state": "NY", "zip": "14240-1504", "ntee": "X11", "ruling": "202007", "deductibility": "1", "assets": 2135072, "income": 1201731, "revenue": 223353}, {"ein": "820881443", "name": "STUDENT MOVEMENT AGAINST CANCER INC A NJ NOT-FOR-PROFIT CORPORATIO", "city": "LAKE SUCCESS", "state": "NY", "zip": "11042-0000", "ntee": "G12", "ruling": "201807", "deductibility": "1", "assets": 19523, "income": 51540, "revenue": 51540}, {"ein": "822081601", "name": "IGLESIA PENTECOSTAL MISIONERA LA SENDA ANTIGUA INTERNACIONAL A NJ N", "city": "BROOKLYN", "state": "NY", "zip": "11220-1117", "ntee": "X21", "ruling": "202211", "deductibility": "1", "assets": 0, "income": 0, "revenue": 0}, {"ein": "823956391", "name": "AULIYA COUNCIL OF NORTH AMERICA A NJ NONPROFIT CORPORATION", "city": "BRONX", "state": "NY", "zip": "10471-1818", "ntee": "A20", "ruling": "201905", "deductibility": "1", "assets": 583173, "income": 222904, "revenue": 222904}, {"ein": "824306899", "name": "CENTER FOR SDG GLOBAL EDUCATION USA A NJ NONPROFIT", "city": "BRONX", "state": "NY", "zip": "10462-6982", "ntee": "T12", "ruling": "201808", "deductibility": "1", "assets": 0, "income": 0, "revenue": 0}, {"ein": "824486640", "name": "TOWBOAT AND HARBOR CARRIERS ASSOCIATION OF NY NJ", "city": "STATEN ISLAND", "state": "NY", "zip": "10301-0986", "ntee": "S41", "ruling": "202206", "deductibility": "2", "assets": 64995, "income": 63350, "revenue": 63350}, {"ein": "830601357", "name": "LAUNCH NJ", "city": "WHITE PLAINS", "state": "NY", "zip": "10603-1232", "ntee": "", "ruling": "199112", "deductibility": "1", "assets": 0, "income": 0, "revenue": 0}, {"ein": "831503421", "name": "SCHOOL OF GOOD WORKS A NJ NONPROFIT CORPORATION", "city": "ELMIRA", "state": "NY", "zip": "14905-1963", "ntee": "X20", "ruling": "201901", "deductibility": "1", "assets": 805804, "income": 187722, "revenue": 187722}, {"ein": "831764452", "name": "KACPA SOCIETY OF NY & NJ INC", "city": "NEW YORK", "state": "NY", "zip": "10001-3025", "ntee": "S40", "ruling": "201909", "deductibility": "2", "assets": 15378, "income": 27650, "revenue": 27650}, {"ein": "850845005", "name": "DO GOOD AUTO COALITION A NJ NONPROFIT CORPORATION", "city": "NEW YORK", "state": "NY", "zip": "10007-0166", "ntee": "M01", "ruling": "202009", "deductibility": "1", "assets": 0, "income": 0, "revenue": 0}, {"ein": "852413556", "name": "NDOKWA ASSOCIATION IN AMERICA NY-NJ CHAPTER INC", "city": "BRONX", "state": "NY", "zip": "10469-3929", "ntee": "A23", "ruling": "202212", "deductibility": "1", "assets": 11541, "income": 11020, "revenue": 11020}, {"ein": "854194350", "name": "NORTH AMERICAN JAAT HERITAGE FOUNDATION A NJ NONPROFIT CORPORAT", "city": "JERICHO", "state": "NY", "zip": "11753-1307", "ntee": "A23", "ruling": "202208", "deductibility": "1", "assets": 76778, "income": 34112, "revenue": 34112}, {"ein": "861578086", "name": "TRIUMPHANT HANDS A NJ NONPROFIT CORPORATION", "city": "HARRIMAN", "state": "NY", "zip": "10926-3802", "ntee": "P01", "ruling": "202108", "deductibility": "1", "assets": 36575, "income": 285454, "revenue": 285454}, {"ein": "870963984", "name": "LINA LIU ARTIST GROUP A NJ NONPROFIT CORPORATION", "city": "NEW YORK", "state": "NY", "zip": "10019-1307", "ntee": "A99", "ruling": "202109", "deductibility": "1", "assets": 55720, "income": 68794, "revenue": 68794}, {"ein": "872394677", "name": "TIBETAN PEOPLES MOVEMENT FOR MIDDLE WAY APPROACH OF NY AND NJ INC", "city": "WOODHAVEN", "state": "NY", "zip": "11421-1134", "ntee": "A23", "ruling": "202112", "deductibility": "1", "assets": 0, "income": 0, "revenue": 0}, {"ein": "873609845", "name": "MATBIA CHARITIES A NJ NONPROFIT CORPORATION", "city": "BROOKLYN", "state": "NY", "zip": "11204-1425", "ntee": "T31", "ruling": "202409", "deductibility": "1", "assets": 1263511, "income": 7032453, "revenue": 7032453}, {"ein": "880694471", "name": "CONGREGATION MYRCB NJ", "city": "BROOKLYN", "state": "NY", "zip": "11230-4715", "ntee": "X30", "ruling": "202210", "deductibility": "1", "assets": 0, "income": 0, "revenue": 0}, {"ein": "901069558", "name": "ANCIENT ORDER OF HIBERNIANS LADIES NJ OCEAN DIV 2", "city": "BROOKLYN", "state": "NY", "zip": "11229-4111", "ntee": "Y42", "ruling": "201702", "deductibility": "1", "assets": 0, "income": 0, "revenue": 0}, {"ein": "920790608", "name": "MUSSOORIE ALUMNI ASSOCIATION OF NY AND NJ INC", "city": "JACKSON HTS", "state": "NY", "zip": "11372-1823", "ntee": "B84", "ruling": "202211", "deductibility": "1", "assets": 0, "income": 0, "revenue": 0}, {"ein": "921906601", "name": "PORT AUTHORITY OF NY & NJ POLICE DEPARTMENT ARMED FORCES ASSOCIATIO", "city": "EAST ROCKAWAY", "state": "NY", "zip": "11518-0000", "ntee": "W30", "ruling": "202307", "deductibility": "1", "assets": 0, "income": 0, "revenue": 0}, {"ein": "923553662", "name": "WAY CONNECTIONS A NJ NONPROFIT CORPORATION", "city": "SPRING VALLEY", "state": "NY", "zip": "10977-2006", "ntee": "T50", "ruling": "202304", "deductibility": "1", "assets": 0, "income": 0, "revenue": 0}, {"ein": "931678562", "name": "HOPE IN ACTION A NJ NONPROFIT CORPORATION", "city": "SPRING VALLEY", "state": "NY", "zip": "10977-2006", "ntee": "X30", "ruling": "202307", "deductibility": "1", "assets": 0, "income": 0, "revenue": 0}, {"ein": "932096172", "name": "NORTHWELL HEALTH MEDICAL NJ PC", "city": "WESTBURY", "state": "NY", "zip": "11590-1740", "ntee": "E21", "ruling": "202502", "deductibility": "1", "assets": 1, "income": 0, "revenue": 0}, {"ein": "994681636", "name": "HOMENETMEN NJ INC", "city": "ALBANY", "state": "NY", "zip": "12207-2843", "ntee": "P12", "ruling": "202409", "deductibility": "1", "assets": 0, "income": 0, "revenue": 0}], "CANINE": [{"ein": "020612110", "name": "EASTERN POLICE CANINE ASSOCIATION", "city": "BINGHAMTON", "state": "NY", "zip": "13903-2628", "ntee": "M23", "ruling": "200309", "deductibility": "1", "assets": 1384, "income": 850, "revenue": 850}, {"ein": "141780034", "name": "CANINE COMPANY OF ALBANY OBEDIENCE INC", "city": "GLENMONT", "state": "NY", "zip": "12077-4004", "ntee": "B99", "ruling": "199506", "deductibility": "1", "assets": 0, "income": 0, "revenue": 0}, {"ein": "161204576", "name": "CANINE HELPERS FOR THE HANDICAPPED INC", "city": "NEWFANE", "state": "NY", "zip": "14108-1044", "ntee": "D60Z", "ruling": "199004", "deductibility": "1", "assets": 264774, "income": 22, "revenue": 22}, {"ein": "161289005", "name": "SOUTHERN TIER CANINE ASSOCIATION INC", "city": "BINGHAMTON", "state": "NY", "zip": "13903-2628", "ntee": "I20", "ruling": "200410", "deductibility": "1", "assets": 63958, "income": 11815, "revenue": 11815}, {"ein": "161578179", "name": "NORTHERN CHAUTAUQUA CANINE RESCUE INC", "city": "WESTFIELD", "state": "NY", "zip": "14787-9740", "ntee": "D20", "ruling": "200006", "deductibility": "1", "assets": 774214, "income": 339679, "revenue": 339679}, {"ein": "202062786", "name": "EARTH ANGELS CANINE RESCUE", "city": "BRONX", "state": "NY", "zip": "10453-3010", "ntee": "D20", "ruling": "200503", "deductibility": "1", "assets": 0, "income": 0, "revenue": 0}, {"ein": "263672275", "name": "AKRON CANINE RESCUED ANGELS", "city": "SANBORN", "state": "NY", "zip": "14132-9413", "ntee": "D20", "ruling": "200903", "deductibility": "1", "assets": 106510, "income": 54198, "revenue": 54198}, {"ein": "264370327", "name": "NATIONAL CANINE RESEARCH COUNCIL ACTION FUND", "city": "BANGALL", "state": "NY", "zip": "12506-0538", "ntee": "P20", "ruling": "200904", "deductibility": "2", "assets": 0, "income": 0, "revenue": 0}, {"ein": "331111833", "name": "CLINTON COUNTY CANINE CLUB INC", "city": "PLATTSBURGH", "state": "NY", "zip": "12901-0101", "ntee": "D20", "ruling": "200604", "deductibility": "2", "assets": 0, "income": 0, "revenue": 0}, {"ein": "462477796", "name": "CANINE CRUSADE FOUNDATION INC", "city": "NEW CITY", "state": "NY", "zip": "10956-2243", "ntee": "D99", "ruling": "201405", "deductibility": "1", "assets": 0, "income": 0, "revenue": 0}, {"ein": "462725246", "name": "SADIES SAFE HARBOR CANINE RESCUE", "city": "HAMBURG", "state": "NY", "zip": "14075-4501", "ntee": "D99", "ruling": "201407", "deductibility": "1", "assets": 34421, "income": 129798, "revenue": 120071}, {"ein": "465753115", "name": "CELEBRATION OF CANINE LIVES SANCTUARY INC", "city": "CUBA", "state": "NY", "zip": "14727-9113", "ntee": "D20", "ruling": "201410", "deductibility": "1", "assets": 0, "income": 0, "revenue": 0}, {"ein": "471758589", "name": "NEW YORK STATE CANINE ASSOCIATION INC", "city": "RENSSELAER", "state": "NY", "zip": "12144-9734", "ntee": "D20", "ruling": "201409", "deductibility": "1", "assets": 0, "income": 0, "revenue": 0}, {"ein": "471997779", "name": "11TH HOUR CANINE RESCUE NY INC", "city": "WILTON", "state": "NY", "zip": "12831-5297", "ntee": "D20", "ruling": "201502", "deductibility": "1", "assets": 8113, "income": 21762, "revenue": 21762}, {"ein": "521326143", "name": "UNITED STATES POLICE CANINE ASSOCIATION", "city": "HOLTSVILLE", "state": "NY", "zip": "11742-2532", "ntee": "B99", "ruling": "200705", "deductibility": "1", "assets": 50855, "income": 8901, "revenue": 8901}, {"ein": "821220469", "name": "A CANINE GEM RESCUE", "city": "PERU", "state": "NY", "zip": "12972-4658", "ntee": "D60", "ruling": "201704", "deductibility": "1", "assets": 23789, "income": 116417, "revenue": 116417}, {"ein": "831793661", "name": "GLOBAL CANINE AND FELINE RESCUE ASSOCIATION INC", "city": "MANHASSET HL", "state": "NY", "zip": "11040-1149", "ntee": "D20", "ruling": "201810", "deductibility": "1", "assets": 104, "income": 31985, "revenue": 31985}, {"ein": "832646059", "name": "NICKEL CITY CANINE RESCUE INC", "city": "WILLIAMSVILLE", "state": "NY", "zip": "14221-2864", "ntee": "D20", "ruling": "201901", "deductibility": "1", "assets": 186927, "income": 425964, "revenue": 396408}, {"ein": "850998210", "name": "NOTHING BUT LOVE CANINE FOUNDATION INC", "city": "BLOOMINGTON", "state": "NY", "zip": "12411-5009", "ntee": "", "ruling": "202110", "deductibility": "1", "assets": 0, "income": 0, "revenue": 0}, {"ein": "883261140", "name": "CANINE CANCER FOUNDATION INC", "city": "EAST HAMPTON", "state": "NY", "zip": "11937-1059", "ntee": "D20", "ruling": "202211", "deductibility": "1", "assets": 0, "income": 0, "revenue": 0}, {"ein": "921501967", "name": "GYPSY CANINE SOLUTIONS INC", "city": "HAMBURG", "state": "NY", "zip": "14075-1812", "ntee": "D61", "ruling": "202302", "deductibility": "1", "assets": 0, "income": 0, "revenue": 0}, {"ein": "933608769", "name": "CANINE PROJECT INC", "city": "CARTHAGE", "state": "NY", "zip": "13619-0583", "ntee": "D60", "ruling": "202312", "deductibility": "1", "assets": 0, "income": 0, "revenue": 0}, {"ein": "991469744", "name": "CATSKILL CANINE RESCUE INC", "city": "HANNACROIX", "state": "NY", "zip": "12087-0383", "ntee": "D20", "ruling": "202403", "deductibility": "1", "assets": 0, "income": 0, "revenue": 0}, {"ein": "991830974", "name": "CANINE CONNECTIONS YOUTH TRAINING PROGRAM", "city": "ISLIP TERRACE", "state": "NY", "zip": "11752-1023", "ntee": "P30", "ruling": "202403", "deductibility": "1", "assets": 0, "income": 0, "revenue": 0}], "SHE": [{"ein": "030462471", "name": "SHE FOUNDATION", "city": "BROOKLYN", "state": "NY", "zip": "11231-3767", "ntee": "O50", "ruling": "200308", "deductibility": "1", "assets": 0, "income": 0, "revenue": 0}, {"ein": "113423282", "name": "SHE ARIM", "city": "FAR ROCKAWAY", "state": "NY", "zip": "11691-5219", "ntee": "X30Z", "ruling": "199808", "deductibility": "1", "assets": 0, "income": 0, "revenue": 0}, {"ein": "204210843", "name": "SHE SHOULD RUN", "city": "NEW YORK", "state": "NY", "zip": "10016-5101", "ntee": "P80", "ruling": "200605", "deductibility": "1", "assets": 757847, "income": 893453, "revenue": 893453}, {"ein": "464224215", "name": "YES SHE CAN INCORPORATED", "city": "WHITE PLAINS", "state": "NY", "zip": "10601-1901", "ntee": "J30", "ruling": "201408", "deductibility": "1", "assets": 531156, "income": 686811, "revenue": 570477}, {"ein": "814416545", "name": "SHE NYC ARTS INC", "city": "NEW YORK", "state": "NY", "zip": "10018-3612", "ntee": "A65", "ruling": "201705", "deductibility": "1", "assets": 94569, "income": 187115, "revenue": 187115}, {"ein": "825405599", "name": "SHE WILL RISE INC", "city": "NEW YORK", "state": "NY", "zip": "10024-5775", "ntee": "P20", "ruling": "202312", "deductibility": "2", "assets": 0, "income": 0, "revenue": 0}, {"ein": "833708722", "name": "ITS A SHE THING INC", "city": "BROOKLYN", "state": "NY", "zip": "11215-3957", "ntee": "P20", "ruling": "201910", "deductibility": "1", "assets": 11919, "income": 24509, "revenue": 24509}, {"ein": "871645485", "name": "SHE LEADS STEM INC", "city": "CONGERS", "state": "NY", "zip": "10920-1521", "ntee": "B01", "ruling": "202110", "deductibility": "1", "assets": 0, "income": 0, "revenue": 0}, {"ein": "880690994", "name": "SHE IS THE WORLD INC", "city": "BROOKLYN", "state": "NY", "zip": "11233-2006", "ntee": "A23", "ruling": "202206", "deductibility": "1", "assets": 1, "income": 0, "revenue": 0}, {"ein": "883203541", "name": "SHE TANK INC", "city": "BROOKLYN", "state": "NY", "zip": "11217-5086", "ntee": "R20", "ruling": "202208", "deductibility": "1", "assets": 577878, "income": 1600000, "revenue": 1600000}, {"ein": "920422348", "name": "WE THE SHE NYC LTD", "city": "NEW YORK", "state": "NY", "zip": "10009-8113", "ntee": "A20", "ruling": "202306", "deductibility": "1", "assets": 0, "income": 0, "revenue": 0}, {"ein": "922212561", "name": "SHE INSPIRES TO EMPOWER INC", "city": "CHEEKTOWAGA", "state": "NY", "zip": "14215-2043", "ntee": "P83", "ruling": "202303", "deductibility": "1", "assets": 0, "income": 0, "revenue": 0}, {"ein": "932477671", "name": "SHE GOT BUCKETS INC", "city": "LONG IS CITY", "state": "NY", "zip": "11101-3294", "ntee": "P20", "ruling": "202308", "deductibility": "1", "assets": 0, "income": 0, "revenue": 0}, {"ein": "991834117", "name": "NEW YORK LING NAN QU YI SHE INC", "city": "NEW YORK", "state": "NY", "zip": "10013-5119", "ntee": "A6A", "ruling": "202406", "deductibility": "1", "assets": 0, "income": 0, "revenue": 0}, {"ein": "994396251", "name": "SHE IS SAFE", "city": "MAYVILLE", "state": "NY", "zip": "14757-0107", "ntee": "P83", "ruling": "202411", "deductibility": "1", "assets": 0, "income": 0, "revenue": 0}], "LINGSHAN": [{"ein": "030494963", "name": "SINO-AMERICAN BUDDHIST ASSOCIATION LINGSHAN TEMPLE INC", "city": "ELMHURST", "state": "NY", "zip": "11373-2739", "ntee": "X50", "ruling": "200309", "deductibility": "1", "assets": 2228780, "income": 379581, "revenue": 379581}], "CRISTIANO": [{"ein": "030533692", "name": "CENTRO CRISTIANO DE RESTAURACION Y AVIVAMIENTO INC", "city": "BROOKLYN", "state": "NY", "zip": "11214-1603", "ntee": "X21", "ruling": "200405", "deductibility": "1", "assets": 0, "income": 0, "revenue": 0}, {"ein": "112826068", "name": "IGLESIA PENTECOSTAL TABERNACULO CRISTIANO INC", "city": "BROOKLYN", "state": "NY", "zip": "11208-1316", "ntee": "", "ruling": "200801", "deductibility": "1", "assets": 0, "income": 0, "revenue": 0}, {"ein": "113067336", "name": "CENTRO CRISTIANO RENACER INC", "city": "FREEPORT", "state": "NY", "zip": "11520-1031", "ntee": "", "ruling": "199401", "deductibility": "1", "assets": 0, "income": 0, "revenue": 0}, {"ein": "113165345", "name": "MINISTERIO CENTRO DE LIBERACION CRISTIANO NUEVA VIDA INC", "city": "RICHMOND HILLS", "state": "NY", "zip": "11418-2624", "ntee": "", "ruling": "199402", "deductibility": "1", "assets": 0, "income": 0, "revenue": 0}, {"ein": "113202256", "name": "TABERNACULO CRISTIANO INC", "city": "QUEENS VLG", "state": "NY", "zip": "11427-2515", "ntee": "", "ruling": "196402", "deductibility": "1", "assets": 0, "income": 0, "revenue": 0}, {"ein": "133633973", "name": "CENTRO CRISTIANO EMANUEL", "city": "BRONX", "state": "NY", "zip": "10459-1165", "ntee": "", "ruling": "196408", "deductibility": "1", "assets": 0, "income": 0, "revenue": 0}, {"ein": "134122518", "name": "CENTRO CRISTIANO VIDA ABUNDANTE", "city": "YONKERS", "state": "NY", "zip": "10705-1540", "ntee": "X21", "ruling": "200012", "deductibility": "1", "assets": 0, "income": 0, "revenue": 0}, {"ein": "205735125", "name": "CENTRO CRISTIANO RESTAURACION INTL", "city": "HICKSVILLE", "state": "NY", "zip": "11801-5300", "ntee": "", "ruling": "196408", "deductibility": "1", "assets": 0, "income": 0, "revenue": 0}, {"ein": "208372199", "name": "CENTRO CRISTIANO JESUS MI AMOR MINISTERIOS INC", "city": "NEW YORK", "state": "NY", "zip": "10029-0047", "ntee": "X20", "ruling": "201203", "deductibility": "1", "assets": 847, "income": 22461, "revenue": 22461}, {"ein": "260720459", "name": "CENTRO CRISTIANO MISIONERO INC", "city": "HICKSVILLE", "state": "NY", "zip": "11801-3413", "ntee": "X21", "ruling": "201307", "deductibility": "1", "assets": 0, "income": 0, "revenue": 0}, {"ein": "262602308", "name": "CENTRO CRISTIANO HEBREOS 13-8", "city": "BRONX", "state": "NY", "zip": "10465-1047", "ntee": "X21", "ruling": "200905", "deductibility": "1", "assets": 0, "income": 0, "revenue": 0}, {"ein": "264420303", "name": "MOVIMIENTO CRISTIANO IMPACTANDO LAS NACIONES INC", "city": "SYRACUSE", "state": "NY", "zip": "13204-3602", "ntee": "X21", "ruling": "200910", "deductibility": "1", "assets": 0, "income": 0, "revenue": 0}, {"ein": "271057395", "name": "CENTRO CRISTIANO ELOHIM INC", "city": "GARNERVILLE", "state": "NY", "zip": "10923-1209", "ntee": "X20", "ruling": "201003", "deductibility": "1", "assets": 0, "income": 0, "revenue": 0}, {"ein": "271826164", "name": "CENTRO CRISTIANO DE ADORACION OR", "city": "BRONX", "state": "NY", "zip": "10468-1333", "ntee": "X21", "ruling": "201003", "deductibility": "1", "assets": 30338, "income": 210127, "revenue": 210127}, {"ein": "272487073", "name": "MINISTERIO CRISTIANO IMPACTO DE VIDA", "city": "BRONX", "state": "NY", "zip": "10466-2304", "ntee": "X20", "ruling": "201110", "deductibility": "1", "assets": 0, "income": 0, "revenue": 0}, {"ein": "272556602", "name": "IGLESIA CRISTIANO NUEVO RENACER EN CRISTO", "city": "JAMAICA", "state": "NY", "zip": "11435-4146", "ntee": "X21", "ruling": "201304", "deductibility": "1", "assets": 0, "income": 0, "revenue": 0}, {"ein": "455436305", "name": "CENTRO CRISTIANO DE BENDICION INC", "city": "BROOKLYN", "state": "NY", "zip": "11208-1204", "ntee": "X20", "ruling": "201208", "deductibility": "1", "assets": 0, "income": 0, "revenue": 0}, {"ein": "460640748", "name": "CENTRO CRISTIANO RECONCILIANDO LA FAMILIA CON CRISTO", "city": "BRONX", "state": "NY", "zip": "10459-1408", "ntee": "X20", "ruling": "201409", "deductibility": "1", "assets": 0, "income": 0, "revenue": 0}, {"ein": "461198042", "name": "CENTRO CRISTIANO DE RESTAURACION", "city": "BRONX", "state": "NY", "zip": "10459-4494", "ntee": "X21", "ruling": "202406", "deductibility": "1", "assets": 0, "income": 0, "revenue": 0}, {"ein": "462574984", "name": "CENTRO CRISTIANO FAMILIA DE FE INC", "city": "JAMAICA", "state": "NY", "zip": "11435-4713", "ntee": "X21", "ruling": "201508", "deductibility": "1", "assets": 140246, "income": 128247, "revenue": 128247}, {"ein": "462676751", "name": "CENTRO CRISTIANO FARO DE LUZ", "city": "BROOKLYN", "state": "NY", "zip": "11208-2031", "ntee": "X21", "ruling": "201504", "deductibility": "1", "assets": 151055, "income": 163174, "revenue": 163174}, {"ein": "462836620", "name": "CENTRO CRISTIANO ALIENTO DE VIDA INC", "city": "LYNBROOK", "state": "NY", "zip": "11563-0042", "ntee": "X21", "ruling": "201410", "deductibility": "1", "assets": 0, "income": 0, "revenue": 0}, {"ein": "463032546", "name": "CENTRO CRISTIANO FUENTE DE VIDA INC", "city": "BROOKLYN", "state": "NY", "zip": "11208-1419", "ntee": "X20", "ruling": "201408", "deductibility": "1", "assets": 0, "income": 0, "revenue": 0}, {"ein": "463084229", "name": "MINISTERIO CRISTIANO SIMIENTE DE PAZ", "city": "SELDEN", "state": "NY", "zip": "11784-2248", "ntee": "X20", "ruling": "201805", "deductibility": "1", "assets": 0, "income": 0, "revenue": 0}, {"ein": "463914515", "name": "CENTRO CRISTIANO LEVANTATE DEJA TODO LO QUE TIENES Y SIGUEME", "city": "BRONX", "state": "NY", "zip": "10456-5335", "ntee": "X20", "ruling": "201504", "deductibility": "1", "assets": 0, "income": 0, "revenue": 0}, {"ein": "464990655", "name": "CENTRO CRISTIANO NUEVA VIDA", "city": "MIDDLETOWN", "state": "NY", "zip": "10940-2611", "ntee": "", "ruling": "196408", "deductibility": "1", "assets": 0, "income": 0, "revenue": 0}, {"ein": "471149446", "name": "CENTRO CRISTIANO DE RESTAURACION ADULAM INC", "city": "PORT CHESTER", "state": "NY", "zip": "10573-4707", "ntee": "X20", "ruling": "201501", "deductibility": "1", "assets": 0, "income": 0, "revenue": 0}, {"ein": "472162466", "name": "CENTRO CRISTIANO TORREON FUERTE CORP", "city": "STONY POINT", "state": "NY", "zip": "10980-3009", "ntee": "X20", "ruling": "202205", "deductibility": "1", "assets": 0, "income": 0, "revenue": 0}, {"ein": "473704978", "name": "TEMPLO CRISTIANO BAJO LA SHEKINA DE JEHOVA", "city": "BRONX", "state": "NY", "zip": "10467-6236", "ntee": "X20", "ruling": "201510", "deductibility": "1", "assets": 0, "income": 0, "revenue": 0}, {"ein": "473728151", "name": "CENTRO CRISTIANO DE RESTAURACION EL SHADDAI", "city": "BRONX", "state": "NY", "zip": "10454-2678", "ntee": "X21", "ruling": "201507", "deductibility": "1", "assets": 0, "income": 0, "revenue": 0}, {"ein": "542137148", "name": "TEMPLO CRISTIANO JESUS HA RESUCITADO INC", "city": "ELMHURST", "state": "NY", "zip": "11373-5130", "ntee": "X20", "ruling": "200407", "deductibility": "1", "assets": 0, "income": 0, "revenue": 0}, {"ein": "562451465", "name": "CENTRO CRISTIANO MISIONERO PORTADORES DE PAZ", "city": "BROOKLYN", "state": "NY", "zip": "11219-6216", "ntee": "X21", "ruling": "200503", "deductibility": "1", "assets": 0, "income": 0, "revenue": 0}, {"ein": "811037953", "name": "MOVIMIENTO FAMILIAR CRISTIANO CATOLICO USA", "city": "MALVERNE", "state": "NY", "zip": "11565-1025", "ntee": "P80", "ruling": "201702", "deductibility": "1", "assets": 0, "income": 0, "revenue": 0}, {"ein": "811038078", "name": "MOVIMIENTO FAMILIAR CRISTIANO CATOLICO USA", "city": "COPIAGUE", "state": "NY", "zip": "11726-1918", "ntee": "P80", "ruling": "201702", "deductibility": "1", "assets": 0, "income": 0, "revenue": 0}, {"ein": "811038110", "name": "MOVIMIENTO FAMILIAR CRISTIANO CATOLICO USA", "city": "EAST HAMPTON", "state": "NY", "zip": "11937-2240", "ntee": "P80", "ruling": "201702", "deductibility": "1", "assets": 0, "income": 0, "revenue": 0}, {"ein": "814370541", "name": "CENTRO CRISTIANO CASA DE ORACION PARA TODAS LAS NACIONES", "city": "BRONX", "state": "NY", "zip": "10466-3802", "ntee": "X21", "ruling": "202201", "deductibility": "1", "assets": 0, "income": 0, "revenue": 0}, {"ein": "815460972", "name": "IGLESIA CRISTIANO PENTECOSTES ALFA Y OMEGA INC", "city": "JAMAICA", "state": "NY", "zip": "11433-1122", "ntee": "X21", "ruling": "202202", "deductibility": "1", "assets": 0, "income": 0, "revenue": 0}, {"ein": "832987648", "name": "CENTRO MISIONERO CRISTIANO INC", "city": "BROOKLYN", "state": "NY", "zip": "11206-4055", "ntee": "X20", "ruling": "201912", "deductibility": "1", "assets": 0, "income": 0, "revenue": 0}, {"ein": "851404914", "name": "MOVIMIENTO FAMILIAR CRISTIANO CATOLICO USA", "city": "COPAKE", "state": "NY", "zip": "12516-1212", "ntee": "", "ruling": "201702", "deductibility": "1", "assets": 0, "income": 0, "revenue": 0}, {"ein": "862946134", "name": "LA VID CENTRO CRISTIANO", "city": "COLLEGE POINT", "state": "NY", "zip": "11356-2021", "ntee": "X20", "ruling": "202107", "deductibility": "1", "assets": 1, "income": 1, "revenue": 0}, {"ein": "863838472", "name": "CENTRO CRISTIANO LAFAMILIA INC", "city": "NIAGARA FALLS", "state": "NY", "zip": "14305-3104", "ntee": "X20", "ruling": "202206", "deductibility": "1", "assets": 0, "income": 0, "revenue": 0}, {"ein": "873124971", "name": "MOVIMIENTO INTERNACIONAL CENTRO CRISTIANO DE BENDICION INC", "city": "BROOKLYN", "state": "NY", "zip": "11208-1726", "ntee": "X21", "ruling": "202206", "deductibility": "1", "assets": 0, "income": 0, "revenue": 0}, {"ein": "881254793", "name": "MINISTERIO CRISTIANO REMANSO DE DIOS INTERNACIONAL INC", "city": "FAR ROCKAWAY", "state": "NY", "zip": "11691-1207", "ntee": "X20", "ruling": "202206", "deductibility": "1", "assets": 0, "income": 0, "revenue": 0}, {"ein": "883656751", "name": "CENTRO CRISTIANO SUNEM INC", "city": "POMONA", "state": "NY", "zip": "10970-3006", "ntee": "X20", "ruling": "202306", "deductibility": "1", "assets": 0, "income": 0, "revenue": 0}, {"ein": "900535831", "name": "CENTRO CRISTIANO ALUMBRANDO LAS NACION", "city": "BAY SHORE", "state": "NY", "zip": "11706-4214", "ntee": "", "ruling": "197210", "deductibility": "1", "assets": 0, "income": 0, "revenue": 0}, {"ein": "931769062", "name": "OASIS DE AMOR CRISTIANO NEW YORK", "city": "HEMPSTEAD", "state": "NY", "zip": "11550-5042", "ntee": "", "ruling": "196911", "deductibility": "1", "assets": 0, "income": 0, "revenue": 0}, {"ein": "990888466", "name": "CENTRO FAMILIAR CRISTIANO INC", "city": "MAMARONECK", "state": "NY", "zip": "10543-2762", "ntee": "X20", "ruling": "202401", "deductibility": "1", "assets": 13145, "income": 41732, "revenue": 41732}], "UNA": [{"ein": "050536586", "name": "UNA VOCE NEW YORK", "city": "WOODSIDE", "state": "NY", "zip": "11377-6259", "ntee": "X21", "ruling": "200303", "deductibility": "1", "assets": 0, "income": 0, "revenue": 0}, {"ein": "161356383", "name": "UNA VOCE-SYRACUSE", "city": "OSWEGO", "state": "NY", "zip": "13126-0993", "ntee": "", "ruling": "199203", "deductibility": "1", "assets": 0, "income": 0, "revenue": 0}, {"ein": "272978662", "name": "CULTIVAMOS UNA ROSA BLANCA", "city": "BAYSIDE", "state": "NY", "zip": "11360-1463", "ntee": "R99", "ruling": "201412", "deductibility": "1", "assets": 0, "income": 0, "revenue": 0}, {"ein": "275192401", "name": "UNA ESPERANZA VIVA PARA LAS NACIONES", "city": "PLEASANTVILLE", "state": "NY", "zip": "10570-3131", "ntee": "X20", "ruling": "201411", "deductibility": "1", "assets": 0, "income": 0, "revenue": 0}, {"ein": "843873011", "name": "HERITAGE & MUSEUMS USA UNA", "city": "ASTORIA", "state": "NY", "zip": "11106-3374", "ntee": "A23", "ruling": "202004", "deductibility": "1", "assets": 0, "income": 0, "revenue": 0}, {"ein": "844897283", "name": "UNA VOCE BUFFALO", "city": "HAMBURG", "state": "NY", "zip": "14075-3615", "ntee": "X99", "ruling": "202004", "deductibility": "1", "assets": 0, "income": 0, "revenue": 0}, {"ein": "873322723", "name": "JUNTOS POR UNA SONRISA INC", "city": "CORONA", "state": "NY", "zip": "11368-4080", "ntee": "P84", "ruling": "202201", "deductibility": "1", "assets": 1, "income": 1, "revenue": 0}, {"ein": "923857140", "name": "UNA USA SOUTHERN NEW YORK DIVISION INC", "city": "OSSINING", "state": "NY", "zip": "10562-3713", "ntee": "B99", "ruling": "202404", "deductibility": "1", "assets": 0, "income": 0, "revenue": 0}, {"ein": "933301743", "name": "UNA LUZ EN EL CAMINO INC", "city": "YONKERS", "state": "NY", "zip": "10705-1502", "ntee": "K31", "ruling": "202312", "deductibility": "1", "assets": 0, "income": 0, "revenue": 0}, {"ein": "933456259", "name": "DR UNA CLARKE WOMEN IN GOVERNMENT LECTURE SERIES INCORPOR", "city": "BROOKLYN", "state": "NY", "zip": "11225-2010", "ntee": "O50", "ruling": "202410", "deductibility": "1", "assets": 0, "income": 0, "revenue": 0}], "SEBASTIAN": [{"ein": "050545360", "name": "SEBASTIAN CHAMBER PLAYERS", "city": "NEW YORK", "state": "NY", "zip": "10026-1216", "ntee": "A68", "ruling": "200411", "deductibility": "1", "assets": 45070, "income": 209437, "revenue": 209437}, {"ein": "111635117", "name": "ST SEBASTIAN", "city": "WOODSIDE", "state": "NY", "zip": "11377-3349", "ntee": "", "ruling": "194603", "deductibility": "1", "assets": 0, "income": 0, "revenue": 0}, {"ein": "334306097", "name": "STILL SEBASTIAN", "city": "DEWITT", "state": "NY", "zip": "13214-2419", "ntee": "P12", "ruling": "202505", "deductibility": "1", "assets": 0, "income": 0, "revenue": 0}, {"ein": "812676731", "name": "ST SEBASTIAN CATHOLIC ACADEMY", "city": "WOODSIDE", "state": "NY", "zip": "11377-3352", "ntee": "", "ruling": "194603", "deductibility": "1", "assets": 0, "income": 0, "revenue": 0}], "CHESTER": [{"ein": "061303995", "name": "MONROE-CHESTER SPORTSMEN CLUB INC", "city": "MONROE", "state": "NY", "zip": "10949-0624", "ntee": "N50", "ruling": "202206", "deductibility": "2", "assets": 2864728, "income": 355147, "revenue": 355147}, {"ein": "061525076", "name": "TOWN OF CHESTER POLICE BENEVOLENT", "city": "CHESTER", "state": "NY", "zip": "10918-1484", "ntee": "J40", "ruling": "202108", "deductibility": "2", "assets": 33372, "income": 51887, "revenue": 0}, {"ein": "116624349", "name": "CHESTER FOUNDATION TR", "city": "BROOKLYN", "state": "NY", "zip": "11204-0000", "ntee": "T21", "ruling": "200808", "deductibility": "1", "assets": 9224216, "income": 2241860, "revenue": 0}, {"ein": "131832949", "name": "PORT CHESTER CARVER CENTER INC", "city": "PORT CHESTER", "state": "NY", "zip": "10573-3604", "ntee": "P33Z", "ruling": "196407", "deductibility": "1", "assets": 7486531, "income": 5188174, "revenue": 4772215}, {"ein": "131851298", "name": "PORT CHESTER - RYE BROOK PUBLIC LIBRARY", "city": "PORT CHESTER", "state": "NY", "zip": "10573-3905", "ntee": "B700", "ruling": "194411", "deductibility": "1", "assets": 4610947, "income": 1960846, "revenue": 1960846}, {"ein": "131861101", "name": "PORT CHESTER-TOWN OF RYE CHAMBER OF COMMERCE & CIVIC ASSOCIATION INC", "city": "PORT CHESTER", "state": "NY", "zip": "10573-5168", "ntee": "", "ruling": "196103", "deductibility": "2", "assets": 23133, "income": 93993, "revenue": 67726}, {"ein": "132787890", "name": "THE TOWN OF RYE PORT CHESTER RYE BROOK COUNCIL OF COMMUNITY", "city": "PORT CHESTER", "state": "NY", "zip": "10573-0123", "ntee": "P20C", "ruling": "198805", "deductibility": "1", "assets": 35892, "income": 29821, "revenue": 29821}, {"ein": "132903185", "name": "PORT CHESTER TEACHERS ASSOCIATION WELFARE TRUST FUND", "city": "VALHALLA", "state": "NY", "zip": "10595-1308", "ntee": "", "ruling": "197708", "deductibility": "2", "assets": 1237532, "income": 1315908, "revenue": 854496}, {"ein": "133029264", "name": "PORT CHESTER POLICE ASSN INC", "city": "PORT CHESTER", "state": "NY", "zip": "10573-0325", "ntee": "", "ruling": "198211", "deductibility": "2", "assets": 653924, "income": 113786, "revenue": 113786}, {"ein": "133192994", "name": "PORT CHESTER OBEDIENCE TRAINING CLUB INC", "city": "WHITE PLAINS", "state": "NY", "zip": "10603-3462", "ntee": "", "ruling": "198802", "deductibility": "2", "assets": 281114, "income": 675424, "revenue": 675424}, {"ein": "133229024", "name": "PORT CHESTER COUNCIL FOR THE ARTS", "city": "PORT CHESTER", "state": "NY", "zip": "10573-0015", "ntee": "A26Z", "ruling": "198809", "deductibility": "1", "assets": 103687, "income": 972807, "revenue": 972497}, {"ein": "133419791", "name": "MEALS ON WHEELS OF PORT CHESTER RYE BROOK RYE INC", "city": "RYE", "state": "NY", "zip": "10580-0555", "ntee": "", "ruling": "198804", "deductibility": "1", "assets": 0, "income": 0, "revenue": 0}, {"ein": "133486416", "name": "CHESTER HISTORICAL SOCIETY", "city": "CHESTER", "state": "NY", "zip": "10918-1330", "ntee": "", "ruling": "198908", "deductibility": "1", "assets": 50764, "income": 16689, "revenue": 16689}, {"ein": "133670462", "name": "TAMARACK TOWER FOUNDATION OF THE PORT CHESTER RYE UNION FREE SCHOOL", "city": "PORT CHESTER", "state": "NY", "zip": "10573-8718", "ntee": "B99Z", "ruling": "199210", "deductibility": "1", "assets": 651979, "income": 185371, "revenue": 74325}, {"ein": "133998608", "name": "EAST CHESTER CHURCH INC", "city": "BRONX", "state": "NY", "zip": "10469-3202", "ntee": "X21", "ruling": "200006", "deductibility": "1", "assets": 0, "income": 0, "revenue": 0}, {"ein": "134061214", "name": "PORT CHESTER YACHT CLUB INC", "city": "PORT CHESTER", "state": "NY", "zip": "10573-5008", "ntee": "N50", "ruling": "199911", "deductibility": "2", "assets": 499134, "income": 150095, "revenue": 150095}, {"ein": "136161232", "name": "PORT CHESTER MIDDLE SCHOOL", "city": "RYE BROOK", "state": "NY", "zip": "10573-2808", "ntee": "", "ruling": "195405", "deductibility": "1", "assets": 0, "income": 0, "revenue": 0}, {"ein": "136271939", "name": "HIGH SCHOOL BAND ASSOCIATION PORT CHESTER", "city": "PORT CHESTER", "state": "NY", "zip": "10573-0826", "ntee": "", "ruling": "196712", "deductibility": "1", "assets": 156142, "income": 103879, "revenue": 47656}, {"ein": "136272694", "name": "PORT CHESTER-RYE-RYE BROOK EMERGENCY MEDICAL SERVICES INC", "city": "PORT CHESTER", "state": "NY", "zip": "10573-3533", "ntee": "E62Z", "ruling": "196805", "deductibility": "1", "assets": 4751166, "income": 4613231, "revenue": 4613231}, {"ein": "136955890", "name": "CHESTER TEACHERS ASSOCIATION BENEFIT FUND", "city": "CHESTER", "state": "NY", "zip": "10918-1023", "ntee": "", "ruling": "199012", "deductibility": "2", "assets": 378477, "income": 130495, "revenue": 130495}, {"ein": "141585890", "name": "HISTORICAL SOCIETY TOWN OF CHESTER", "city": "CHESTERTOWN", "state": "NY", "zip": "12817-0000", "ntee": "A80", "ruling": "200103", "deductibility": "1", "assets": 0, "income": 0, "revenue": 0}, {"ein": "141766814", "name": "FRIENDS OF THE TOWN OF CHESTER LIBRARY INC", "city": "CHESTERTOWN", "state": "NY", "zip": "12817-0451", "ntee": "B117", "ruling": "199409", "deductibility": "1", "assets": 0, "income": 0, "revenue": 0}, {"ein": "237175057", "name": "PORT CHESTER TEACHERS ASSN STUDENT", "city": "PORT CHESTER", "state": "NY", "zip": "10573-2559", "ntee": "B82", "ruling": "200710", "deductibility": "1", "assets": 153005, "income": 125940, "revenue": 22630}, {"ein": "237326243", "name": "PORT CHESTER HISTORICAL SOCIETY", "city": "PORT CHESTER", "state": "NY", "zip": "10573-8511", "ntee": "A80", "ruling": "202001", "deductibility": "1", "assets": 0, "income": 0, "revenue": 0}, {"ein": "237427679", "name": "PORT CHESTER OLD TIMES ATHLETIC ASSOC", "city": "PORT CHESTER", "state": "NY", "zip": "10573-0000", "ntee": "", "ruling": "197502", "deductibility": "1", "assets": 0, "income": 0, "revenue": 0}, {"ein": "260005881", "name": "FAMILY TIES OF WEST CHESTER INC", "city": "WHITE PLAINS", "state": "NY", "zip": "10601-5113", "ntee": "P40", "ruling": "200205", "deductibility": "1", "assets": 1050209, "income": 1946925, "revenue": 1946925}, {"ein": "274466142", "name": "ELBERT T CHESTER MINISTRIES INC", "city": "S FLORAL PARK", "state": "NY", "zip": "11001-3803", "ntee": "X21", "ruling": "201202", "deductibility": "1", "assets": 0, "income": 0, "revenue": 0}, {"ein": "311652127", "name": "ROTARY CLUB OF PORT CHESTER-RYE BROOK CHARITY FOUNDATION", "city": "PORT CHESTER", "state": "NY", "zip": "10573-0026", "ntee": "", "ruling": "199902", "deductibility": "1", "assets": 167044, "income": 113515, "revenue": 59686}, {"ein": "331168576", "name": "NATIONAL ASSOCIATION OF POSTAL SUPERVISORS WEST CHESTER", "city": "MOUNT VERNON", "state": "NY", "zip": "10552-0003", "ntee": "J40", "ruling": "200802", "deductibility": "2", "assets": 0, "income": 0, "revenue": 0}, {"ein": "453323105", "name": "BETTY E AND CHESTER C THOMPSON FOUNDATION INC", "city": "ROSLYN HTS", "state": "NY", "zip": "11577-1617", "ntee": "T20", "ruling": "201307", "deductibility": "1", "assets": 47554, "income": 3, "revenue": 0}, {"ein": "454663991", "name": "CARITAS OF PORT CHESTER INC", "city": "PORT CHESTER", "state": "NY", "zip": "10573-0682", "ntee": "K31", "ruling": "201308", "deductibility": "1", "assets": 3936107, "income": 2365903, "revenue": 2365903}, {"ein": "462012985", "name": "CSEA UNIT 857-900300 WARREN COUNTY TOWN OF CHESTER", "city": "QUEENSBURY", "state": "NY", "zip": "12804-0000", "ntee": "J40", "ruling": "201905", "deductibility": "2", "assets": 0, "income": 0, "revenue": 0}, {"ein": "462449676", "name": "CHESTER PUBLIC LIBRARY FRIENDS INC", "city": "CHESTER", "state": "NY", "zip": "10918-3013", "ntee": "B70", "ruling": "201607", "deductibility": "1", "assets": 0, "income": 0, "revenue": 0}, {"ein": "471469375", "name": "PORT CHESTER MIDDLE SCHOOL BAND ASSOCIATION", "city": "RYE BROOK", "state": "NY", "zip": "10573-2808", "ntee": "B94", "ruling": "201408", "deductibility": "1", "assets": 7769, "income": 1, "revenue": 0}, {"ein": "710928471", "name": "PORT CHESTER SOCCER CLUB INC", "city": "PORT CHESTER", "state": "NY", "zip": "10573-5168", "ntee": "N64", "ruling": "201507", "deductibility": "1", "assets": 82192, "income": 82695, "revenue": 82695}, {"ein": "760798307", "name": "PA CHESTER DIVI OF LAOH INC", "city": "BROOKLYN", "state": "NY", "zip": "11229-4111", "ntee": "Y40", "ruling": "201611", "deductibility": "1", "assets": 0, "income": 0, "revenue": 0}, {"ein": "813546999", "name": "SUSTAINABLE PORT CHESTER ALLIANCE INC", "city": "HUNTINGTON", "state": "NY", "zip": "11743-3554", "ntee": "S21", "ruling": "201806", "deductibility": "2", "assets": 0, "income": 0, "revenue": 0}, {"ein": "814602405", "name": "PORT CHESTER RAMS FOOTBALL-CHEER BOOSTER CLUB", "city": "NEW ROCHELLE", "state": "NY", "zip": "10805-2704", "ntee": "N12", "ruling": "201707", "deductibility": "1", "assets": 39388, "income": 125786, "revenue": 0}, {"ein": "822471240", "name": "VILLAGE OF CHESTER POLICEMENS BENEVOLENT ASSOCIATION INC", "city": "CHESTER", "state": "NY", "zip": "10918-0527", "ntee": "J40", "ruling": "201805", "deductibility": "2", "assets": 0, "income": 0, "revenue": 0}, {"ein": "823525660", "name": "PORT CHESTER COMMUNITY GARDENS", "city": "PORT CHESTER", "state": "NY", "zip": "10573-3536", "ntee": "K30", "ruling": "201802", "deductibility": "1", "assets": 0, "income": 0, "revenue": 0}, {"ein": "823848152", "name": "PORT CHESTER ITALIAN HERITAGE CLUB", "city": "RYE BROOK", "state": "NY", "zip": "10573-1311", "ntee": "A20", "ruling": "201811", "deductibility": "1", "assets": 0, "income": 0, "revenue": 0}, {"ein": "830381094", "name": "PORT CHESTER YOUTH BASEBALL LEAGUE", "city": "PORT CHESTER", "state": "NY", "zip": "10573-5195", "ntee": "N63", "ruling": "200405", "deductibility": "1", "assets": 155305, "income": 225455, "revenue": 218815}, {"ein": "832270722", "name": "TOWN OF CHESTER PUBLIC LIBRARY", "city": "CHESTERTOWN", "state": "NY", "zip": "12817-0000", "ntee": "B70", "ruling": "202304", "deductibility": "1", "assets": 0, "income": 0, "revenue": 0}, {"ein": "832810667", "name": "FRIENDS OF THE PORT CHESTER - RYE BROOK PUBLIC LIBRARY INC", "city": "PORT CHESTER", "state": "NY", "zip": "10573-3905", "ntee": "A12", "ruling": "201902", "deductibility": "1", "assets": 0, "income": 0, "revenue": 0}, {"ein": "832899262", "name": "CHESTER AGRICULTURAL CENTER INC", "city": "CHESTER", "state": "NY", "zip": "10918-1233", "ntee": "K99", "ruling": "202206", "deductibility": "1", "assets": 3917151, "income": 2592824, "revenue": 1443606}, {"ein": "854303680", "name": "CHESTER KOLLEL INC", "city": "SUFFERN", "state": "NY", "zip": "10901-4004", "ntee": "X30", "ruling": "202107", "deductibility": "1", "assets": 0, "income": 0, "revenue": 0}, {"ein": "863560699", "name": "SOUNDWAVES PORT CHESTER INC", "city": "RYE", "state": "NY", "zip": "10580-4315", "ntee": "A68", "ruling": "202203", "deductibility": "1", "assets": 404, "income": 104546, "revenue": 104546}, {"ein": "883198835", "name": "CHESTER SOCCER CLUB OF NY INC", "city": "CHESTER", "state": "NY", "zip": "10918-1109", "ntee": "O50", "ruling": "202208", "deductibility": "1", "assets": 13640, "income": 14511, "revenue": 14511}], "VINCENTS": [{"ein": "111631823", "name": "ST VINCENTS SERVICES INC", "city": "BROOKLYN", "state": "NY", "zip": "11201-2935", "ntee": "P320", "ruling": "194603", "deductibility": "1", "assets": 60791942, "income": 66565602, "revenue": 66317383}, {"ein": "113524781", "name": "ALUMNAE OF ST VINCENTS HOSPITAL SCHOOL OF NURSING INC", "city": "WARWICK", "state": "NY", "zip": "10990-3567", "ntee": "E039", "ruling": "200002", "deductibility": "2", "assets": 2509, "income": 63361, "revenue": 63361}, {"ein": "133178692", "name": "OLIVET-ST VINCENTS HOUSING DEVELOPMENT FUND COMPANY INC", "city": "STATEN ISLAND", "state": "NY", "zip": "10314-6400", "ntee": "", "ruling": "198502", "deductibility": "1", "assets": 10291955, "income": 1926989, "revenue": 1926989}, {"ein": "133746945", "name": "NORTHFIELD ST VINCENTS HOUSING DEVELOPMENT FUND COMPANY INC", "city": "STATEN ISLAND", "state": "NY", "zip": "10314-6400", "ntee": "L220", "ruling": "199403", "deductibility": "1", "assets": 3298128, "income": 1422322, "revenue": 1422322}, {"ein": "141601651", "name": "ST VINCENTS APARTMENTS HOUSING DEVELOPMENT COMPANY INC", "city": "ALBANY", "state": "NY", "zip": "12203-1414", "ntee": "", "ruling": "194603", "deductibility": "1", "assets": 4051831, "income": 751314, "revenue": 751314}, {"ein": "160743167", "name": "ST VINCENTS HOME FOR THE AGED", "city": "BUFFALO", "state": "NY", "zip": "14203-1560", "ntee": "", "ruling": "194603", "deductibility": "1", "assets": 0, "income": 0, "revenue": 0}, {"ein": "203329856", "name": "ST VINCENTS UROLOGY RESEARCH FUND CORP", "city": "RYE", "state": "NY", "zip": "10580-1144", "ntee": "G44", "ruling": "200512", "deductibility": "1", "assets": 5159947, "income": 2040939, "revenue": 0}, {"ein": "621775418", "name": "ST VINCENTS HOUSING DEVELOPMENT FUND COMPANY INC", "city": "STATEN ISLAND", "state": "NY", "zip": "10314-6400", "ntee": "L210", "ruling": "199907", "deductibility": "1", "assets": 4732342, "income": 1390983, "revenue": 1271164}], "RAMBAM": [{"ein": "111667833", "name": "YESHIVA RAMBAM", "city": "BROOKLYN", "state": "NY", "zip": "11234-2624", "ntee": "", "ruling": "194607", "deductibility": "1", "assets": 0, "income": 0, "revenue": 0}, {"ein": "113071327", "name": "RAMBAM RESEARCH ACADEMY", "city": "BROOKLYN", "state": "NY", "zip": "11219-2610", "ntee": "", "ruling": "199109", "deductibility": "1", "assets": 0, "income": 0, "revenue": 0}, {"ein": "113119721", "name": "RAMBAM MESIVTA-MAIMONIDES HIGH SCHOOL", "city": "LAWRENCE", "state": "NY", "zip": "11559-1239", "ntee": "B20", "ruling": "199609", "deductibility": "1", "assets": 0, "income": 0, "revenue": 0}, {"ein": "133354145", "name": "MIDRASH RAMBAM INC C/O MOSHE FAHAM", "city": "NEW YORK", "state": "NY", "zip": "10036-4502", "ntee": "", "ruling": "198608", "deductibility": "1", "assets": 0, "income": 0, "revenue": 0}, {"ein": "237049727", "name": "AMERICAN FRIENDS OF THE RAMBAM MEDICAL CENTER", "city": "NEW YORK", "state": "NY", "zip": "10018-2794", "ntee": "Q113", "ruling": "196910", "deductibility": "1", "assets": 17979409, "income": 6061661, "revenue": 6061661}], "WHALING": [{"ein": "111761496", "name": "SAG HARBOR WHALING & HISTORICAL MUSEUM", "city": "SAG HARBOR", "state": "NY", "zip": "11963-3009", "ntee": "A540", "ruling": "197111", "deductibility": "1", "assets": 318015, "income": 159800, "revenue": 154936}, {"ein": "116037958", "name": "WHALING MUSEUM SOCIETY INC", "city": "COLD SPG HBR", "state": "NY", "zip": "11724-1438", "ntee": "A500", "ruling": "194710", "deductibility": "1", "assets": 3297672, "income": 1472732, "revenue": 680758}], "CAR": [{"ein": "111803862", "name": "NASSAU-SUFFOLK DINING CAR &", "city": "VALLEY STREAM", "state": "NY", "zip": "11580-4647", "ntee": "", "ruling": "196510", "deductibility": "2", "assets": 0, "income": 0, "revenue": 0}, {"ein": "112661062", "name": "BMW CAR CLUB OF AMERICA INC", "city": "EAST MEADOW", "state": "NY", "zip": "11554-0062", "ntee": "", "ruling": "200702", "deductibility": "2", "assets": 103663, "income": 56782, "revenue": -643}, {"ein": "112795600", "name": "VINTAGE SPORTS CAR CLUB OF AMERICA INCORPORATED", "city": "NEW ROCHELLE", "state": "NY", "zip": "10801-5359", "ntee": "", "ruling": "199202", "deductibility": "2", "assets": 296762, "income": 266126, "revenue": 266126}, {"ein": "113562256", "name": "FABULOUS 50S & 60S NOSTALGIA CAR CLUB", "city": "MASTIC", "state": "NY", "zip": "11950-4241", "ntee": "S20", "ruling": "202409", "deductibility": "1", "assets": 1, "income": 0, "revenue": 0}, {"ein": "113631763", "name": "EAST COAST CAR ASSOCIATION INC", "city": "GLENDALE", "state": "NY", "zip": "11385-7648", "ntee": "T12", "ruling": "200202", "deductibility": "1", "assets": 0, "income": 0, "revenue": 0}, {"ein": "131939577", "name": "SPORTS CAR CLUB OF AMERICA INC NEW YORK REGION GRAND CENTRAL STATION", "city": "S FARMINGDALE", "state": "NY", "zip": "11735-5748", "ntee": "", "ruling": "196203", "deductibility": "2", "assets": 148886, "income": 57064, "revenue": 57064}, {"ein": "133720129", "name": "NEW YORK ANTI CAR THEFT & FRAUD ASSOCIATION", "city": "ALBANY", "state": "NY", "zip": "12203-5319", "ntee": "I03", "ruling": "200004", "deductibility": "2", "assets": 92627, "income": 140270, "revenue": 140270}, {"ein": "141628196", "name": "NEW YORK STATE CAR WASH ASSOCIATION", "city": "REXFORD", "state": "NY", "zip": "12148-0230", "ntee": "", "ruling": "198206", "deductibility": "2", "assets": 154578, "income": 173015, "revenue": 79249}, {"ein": "161447577", "name": "CAYUGA SPORTS CAR CLUB INC", "city": "LANSING", "state": "NY", "zip": "14882-8909", "ntee": "", "ruling": "199402", "deductibility": "2", "assets": 0, "income": 0, "revenue": 0}, {"ein": "161546130", "name": "NORTHEAST CLASSIC CAR MUSEUM INC", "city": "NORWICH", "state": "NY", "zip": "13815-1146", "ntee": "A500", "ruling": "199807", "deductibility": "1", "assets": 7088338, "income": 1315351, "revenue": 856247}, {"ein": "161586783", "name": "MG CAR CLUB OF CENTRAL NY INC", "city": "CICERO", "state": "NY", "zip": "13039-1666", "ntee": "N50", "ruling": "201401", "deductibility": "2", "assets": 0, "income": 0, "revenue": 0}, {"ein": "166050888", "name": "GENESEE VALLEY ANTIQUE CAR SOCIETY INC", "city": "PENFIELD", "state": "NY", "zip": "14526-2413", "ntee": "", "ruling": "195508", "deductibility": "2", "assets": 0, "income": 0, "revenue": 0}, {"ein": "166050995", "name": "FINGER LAKES REGION SPORTS CAR CLUB OF AMERICA INC", "city": "WEBSTER", "state": "NY", "zip": "14580-8613", "ntee": "N6XZ", "ruling": "199505", "deductibility": "2", "assets": 250272, "income": 179701, "revenue": 179701}, {"ein": "166051861", "name": "SPORTS CAR CLUB OF AMERICA INCORPORATED GLEN REGION", "city": "WATKINS GLEN", "state": "NY", "zip": "14891-0027", "ntee": "", "ruling": "196207", "deductibility": "2", "assets": 221804, "income": 298958, "revenue": 298958}, {"ein": "166052049", "name": "SPORTS CAR CLUB OF AMERICA OF CENTRAL NEW YORK REGION", "city": "SYRACUSE", "state": "NY", "zip": "13203-1605", "ntee": "", "ruling": "196109", "deductibility": "2", "assets": 15061, "income": 20042, "revenue": -2031}, {"ein": "166096975", "name": "CRUISIN BUDDIES ROD CUSTOM & CLASSIC CAR CLUB INC", "city": "VESTAL", "state": "NY", "zip": "13851-0612", "ntee": "N50", "ruling": "201403", "deductibility": "2", "assets": 0, "income": 0, "revenue": 0}, {"ein": "203800331", "name": "BMW CAR CLUB OF AMERICA INC", "city": "ALBANY", "state": "NY", "zip": "12203-0918", "ntee": "", "ruling": "200702", "deductibility": "2", "assets": 132470, "income": 21567, "revenue": 21567}, {"ein": "222314666", "name": "ROLLING ANTIQUERS OLD CAR CLUB INC", "city": "NORWICH", "state": "NY", "zip": "13815-0712", "ntee": "", "ruling": "198009", "deductibility": "2", "assets": 122551, "income": 60185, "revenue": 60185}, {"ein": "222331490", "name": "WESTERN NEW YORK SPORTS CAR CLUB OF AMERICA INCORPORATED", "city": "WHEATFIELD", "state": "NY", "zip": "14120-1218", "ntee": "", "ruling": "195301", "deductibility": "2", "assets": 42040, "income": 4850, "revenue": 4850}, {"ein": "222628269", "name": "BMW CAR CLUB OF AMERICA INC", "city": "FAIRPORT", "state": "NY", "zip": "14450-7333", "ntee": "", "ruling": "200702", "deductibility": "2", "assets": 144410, "income": 244479, "revenue": 244479}, {"ein": "270466509", "name": "DIRT MODIFIED STOCK CAR MUSEUM", "city": "WEEDSPORT", "state": "NY", "zip": "13166-0416", "ntee": "A54", "ruling": "200911", "deductibility": "1", "assets": 0, "income": 0, "revenue": 0}, {"ein": "271499984", "name": "DUTCHESS CRUISER CAR CLUB INC", "city": "WAPPINGERS FL", "state": "NY", "zip": "12590-3405", "ntee": "P12", "ruling": "201010", "deductibility": "1", "assets": 0, "income": 0, "revenue": 0}, {"ein": "333760416", "name": "FOUNDATION OF CRITICAL CAR ACCIDENT INC", "city": "POMONA", "state": "NY", "zip": "10970-2622", "ntee": "P82", "ruling": "202504", "deductibility": "1", "assets": 0, "income": 0, "revenue": 0}, {"ein": "432087767", "name": "SOUTHERN NEW YORK REGION SPORTS CAR CLUB OF AMERICA INC", "city": "VESTAL", "state": "NY", "zip": "13850-5112", "ntee": "N60", "ruling": "202408", "deductibility": "2", "assets": 0, "income": 0, "revenue": 0}, {"ein": "461612917", "name": "KEELER MOTOR CAR COMPANY CHARITABLE FOUNDATION", "city": "LOUDONVILLE", "state": "NY", "zip": "12211-0002", "ntee": "T22", "ruling": "201407", "deductibility": "1", "assets": 3750579, "income": 780426, "revenue": 0}, {"ein": "475214735", "name": "DRIFTERS CAR CLUB INC", "city": "BUFFALO", "state": "NY", "zip": "14220-2132", "ntee": "N50", "ruling": "201607", "deductibility": "2", "assets": 0, "income": 0, "revenue": 0}, {"ein": "475300440", "name": "CAR-LESS LONG ISLAND INC", "city": "HEMPSTEAD", "state": "NY", "zip": "11550-3444", "ntee": "W01", "ruling": "201603", "deductibility": "1", "assets": 0, "income": 0, "revenue": 0}, {"ein": "814391846", "name": "ERIE BUSINESS CAR SOCIETY", "city": "KILL BUCK", "state": "NY", "zip": "14748-9705", "ntee": "Z99", "ruling": "201701", "deductibility": "1", "assets": 92320, "income": 1223, "revenue": 0}, {"ein": "922235735", "name": "LAKE EFFECT CAR MEET INC", "city": "POUGHKEEPSIE", "state": "NY", "zip": "12601-6535", "ntee": "G32", "ruling": "202302", "deductibility": "1", "assets": 0, "income": 0, "revenue": 0}, {"ein": "923648003", "name": "BUFFALO CAR SEAT CLUB INC", "city": "BUFFALO", "state": "NY", "zip": "14228-1358", "ntee": "M42", "ruling": "202306", "deductibility": "1", "assets": 0, "income": 0, "revenue": 0}, {"ein": "992231862", "name": "OAKFIELD BOX CAR DERBY ASSOCIATION INC", "city": "OAKFIELD", "state": "NY", "zip": "14125-1119", "ntee": "B12", "ruling": "202412", "deductibility": "1", "assets": 0, "income": 0, "revenue": 0}, {"ein": "992781564", "name": "MAINETTI CAR SHOW INC", "city": "KINGSTON", "state": "NY", "zip": "12401-3741", "ntee": "N12", "ruling": "202405", "deductibility": "1", "assets": 0, "income": 0, "revenue": 0}], "ALTERNATIVES": [{"ein": "112249900", "name": "YOUTH DIRECTIONS AND ALTERNATIVES COMMUNITY AND YOUTH AGENCY INC", "city": "NORTHPORT", "state": "NY", "zip": "11768-1766", "ntee": "P36Z", "ruling": "197803", "deductibility": "1", "assets": 301424, "income": 469121, "revenue": 452526}, {"ein": "112801792", "name": "LONG ISLAND ALIANCE FOR PEACEFUL ALTERNATIVES INC", "city": "GARDEN CITY", "state": "NY", "zip": "11530-0000", "ntee": "", "ruling": "198609", "deductibility": "1", "assets": 0, "income": 0, "revenue": 0}, {"ein": "112933851", "name": "ALTERNATIVES FOR CHILDREN", "city": "EAST SETAUKET", "state": "NY", "zip": "11733-3453", "ntee": "", "ruling": "200209", "deductibility": "1", "assets": 13790335, "income": 31948263, "revenue": 31319965}, {"ein": "133014706", "name": "ALTERNATIVES TO VIOLENCE PROJECT INC", "city": "ITHACA", "state": "NY", "zip": "14851-6851", "ntee": "", "ruling": "198604", "deductibility": "1", "assets": 265590, "income": 47305, "revenue": 46857}, {"ein": "133149298", "name": "NEW ALTERNATIVES FOR CHILDREN INC", "city": "NEW YORK", "state": "NY", "zip": "10019-6014", "ntee": "", "ruling": "198305", "deductibility": "1", "assets": 81895070, "income": 35438920, "revenue": 35102290}, {"ein": "134162735", "name": "ALTERNATIVES TO VIOLENCE PROJECT INC", "city": "ITHACA", "state": "NY", "zip": "14851-6851", "ntee": "", "ruling": "000000", "deductibility": "1", "assets": 0, "income": 0, "revenue": 0}, {"ein": "134316608", "name": "ALTERNATIVES TO VIOLENCE PROJECT", "city": "ALBANY", "state": "NY", "zip": "12203-5618", "ntee": "", "ruling": "198604", "deductibility": "1", "assets": 0, "income": 0, "revenue": 0}, {"ein": "136127348", "name": "THE DOOR - A CENTER OF ALTERNATIVES INC", "city": "NEW YORK", "state": "NY", "zip": "10013-0000", "ntee": "", "ruling": "196406", "deductibility": "1", "assets": 57144559, "income": 43654523, "revenue": 38801850}, {"ein": "141633192", "name": "COMMUNITY ALTERNATIVES 2 INC", "city": "JOHNSTOWN", "state": "NY", "zip": "12095-1014", "ntee": "", "ruling": "198210", "deductibility": "1", "assets": 662856, "income": 26848, "revenue": 26848}, {"ein": "141753542", "name": "ALTERNATIVES TO VIOLENCE PROJECT INC", "city": "TROY", "state": "NY", "zip": "12180-4597", "ntee": "", "ruling": "198604", "deductibility": "1", "assets": 0, "income": 0, "revenue": 0}, {"ein": "161085194", "name": "OPPORTUNITIES ALTERNATIVES AND RESOURCES OF TOMPKINS COUNTY", "city": "ITHACA", "state": "NY", "zip": "14850-3306", "ntee": "I43Z", "ruling": "197710", "deductibility": "1", "assets": 674543, "income": 1067155, "revenue": 1067155}, {"ein": "161341075", "name": "ALTERNATIVES TO VIOLENCE PROJECT INC", "city": "BUFFALO", "state": "NY", "zip": "14221-3163", "ntee": "", "ruling": "000000", "deductibility": "1", "assets": 0, "income": 0, "revenue": 0}, {"ein": "161341081", "name": "ALTERNATIVES TO VIOLENCE PROJECT INC", "city": "ROCHESTER", "state": "NY", "zip": "14623-1119", "ntee": "", "ruling": "000000", "deductibility": "1", "assets": 0, "income": 0, "revenue": 0}, {"ein": "161395992", "name": "CENTER FOR COMMUNITY ALTERNATIVES", "city": "SYRACUSE", "state": "NY", "zip": "13202-2537", "ntee": "Z99Z", "ruling": "199110", "deductibility": "1", "assets": 14575873, "income": 18928608, "revenue": 18928608}, {"ein": "161508985", "name": "ALTERNATIVES FUND OF ITHACA INC", "city": "ITHACA", "state": "NY", "zip": "14850-3301", "ntee": "P99", "ruling": "201603", "deductibility": "2", "assets": 0, "income": 0, "revenue": 0}, {"ein": "161541078", "name": "INTEGRATED COMMUNITY ALTERNATIVES NETWORK INC", "city": "UTICA", "state": "NY", "zip": "13501-1236", "ntee": "", "ruling": "199812", "deductibility": "1", "assets": 27360284, "income": 32126594, "revenue": 31957541}, {"ein": "222372993", "name": "COMMUNITY ALTERNATIVES INC", "city": "QUEENSBURY", "state": "NY", "zip": "12804-1535", "ntee": "", "ruling": "000000", "deductibility": "1", "assets": 151125, "income": 0, "revenue": 0}, {"ein": "222880949", "name": "ALBANY COMMUNITY ALTERNATIVES 3 INC", "city": "JOHNSTOWN", "state": "NY", "zip": "12095-1014", "ntee": "P73Z", "ruling": "198905", "deductibility": "1", "assets": 404852, "income": 39835, "revenue": 39835}, {"ein": "222961680", "name": "ALTERNATIVES TO VIOLENCE PROJECT INC", "city": "ITHACA", "state": "NY", "zip": "14851-6851", "ntee": "", "ruling": "198604", "deductibility": "1", "assets": 0, "income": 0, "revenue": 0}, {"ein": "223142650", "name": "ALTERNATIVES TO VIOLENCE PROJECT INC", "city": "FAYETTEVILLE", "state": "NY", "zip": "13066-1529", "ntee": "", "ruling": "198604", "deductibility": "1", "assets": 0, "income": 0, "revenue": 0}, {"ein": "223209674", "name": "ALTERNATIVES TO VIOLENCE PROJECT INC", "city": "NEW PALTZ", "state": "NY", "zip": "12561-4519", "ntee": "", "ruling": "198604", "deductibility": "1", "assets": 0, "income": 0, "revenue": 0}, {"ein": "270127555", "name": "HEALTHY ALTERNATIVES THROUGH HEALING ARTS INC", "city": "HAMBURG", "state": "NY", "zip": "14075-2905", "ntee": "F02", "ruling": "202011", "deductibility": "1", "assets": 0, "income": 0, "revenue": 0}, {"ein": "272151000", "name": "NEW ALTERNATIVES FOR LGBT HOMELESS YOUTH INC", "city": "NEW YORK", "state": "NY", "zip": "10018-1204", "ntee": "L40", "ruling": "201008", "deductibility": "1", "assets": 859128, "income": 441779, "revenue": 441779}, {"ein": "300580814", "name": "CONSUMER AVOCATES FOR SMOKE FREE ALTERNATIVES ASSOCIATION INC", "city": "PLATTSBURGH", "state": "NY", "zip": "12903-3900", "ntee": "F52", "ruling": "201305", "deductibility": "2", "assets": 71698, "income": 120581, "revenue": 120581}, {"ein": "465261800", "name": "CITIZENS FOR ALTERNATIVES TO ANIMAL RESEARCH ANDEXPERIMENTATION CAARE", "city": "DOBBS FERRY", "state": "NY", "zip": "10522-2015", "ntee": "D20", "ruling": "201409", "deductibility": "1", "assets": 0, "income": 0, "revenue": 0}, {"ein": "510186015", "name": "TRANSPORTATION ALTERNATIVES INC", "city": "NEW YORK", "state": "NY", "zip": "10038-0112", "ntee": "", "ruling": "197604", "deductibility": "1", "assets": 4792696, "income": 4833262, "revenue": 4691309}, {"ein": "834414485", "name": "FELION YOUTH ALTERNATIVES INC", "city": "GARDEN CITY", "state": "NY", "zip": "11530-1623", "ntee": "B90", "ruling": "201907", "deductibility": "1", "assets": 0, "income": 0, "revenue": 0}, {"ein": "874099613", "name": "YOUTH ALTERNATIVES TO INCARCERATION INC", "city": "MAMARONECK", "state": "NY", "zip": "10543-0681", "ntee": "I21", "ruling": "202404", "deductibility": "1", "assets": 7403, "income": 3501, "revenue": 3501}, {"ein": "922196594", "name": "JANUSZ KORCZAK INSTITUTE FOR EDUCATIONAL ALTERNATIVES INC", "city": "BROOKLYN", "state": "NY", "zip": "11204-0000", "ntee": "B05", "ruling": "202303", "deductibility": "1", "assets": 25622, "income": 40000, "revenue": 40000}, {"ein": "934864716", "name": "WNY HOUSING ALTERNATIVES INC", "city": "TONAWANDA", "state": "NY", "zip": "14150-5223", "ntee": "L21", "ruling": "202401", "deductibility": "1", "assets": 0, "income": 0, "revenue": 0}], "ERASMUS": [{"ein": "112457457", "name": "ERASMUS HALL HIGH SCHOOL AND ACADEMY OF THE ARTS ALUMNI INC", "city": "BROOKLYN", "state": "NY", "zip": "11203-5131", "ntee": "", "ruling": "198006", "deductibility": "1", "assets": 0, "income": 0, "revenue": 0}, {"ein": "112490986", "name": "ERASMUS NEIGHBORHOOD FEDERATION INC", "city": "BROOKLYN", "state": "NY", "zip": "11226-3606", "ntee": "T99Z", "ruling": "199112", "deductibility": "1", "assets": 229910, "income": 241772, "revenue": 241772}], "SHAKTI": [{"ein": "112487093", "name": "MA YOGA SHAKTI INTERNATIONAL MISSION INC", "city": "S OZONE PARK", "state": "NY", "zip": "11420-2001", "ntee": "", "ruling": "198104", "deductibility": "1", "assets": 743488, "income": 199158, "revenue": 192921}, {"ein": "113420215", "name": "SHIV SHAKTI PEETH HINDU TEMPLE", "city": "FLORAL PARK", "state": "NY", "zip": "11004-1738", "ntee": "X70", "ruling": "199904", "deductibility": "1", "assets": 5604397, "income": 256202, "revenue": 256202}, {"ein": "113624231", "name": "SHRI PADMAVATI SHAKTI PEETH INC", "city": "SYOSSET", "state": "NY", "zip": "11791-4646", "ntee": "X99", "ruling": "200203", "deductibility": "1", "assets": 131453, "income": 74679, "revenue": 74679}, {"ein": "274866717", "name": "SHAKTI VILLAGE EMPOWERMENT INC", "city": "MANLIUS", "state": "NY", "zip": "13104-9390", "ntee": "Q30", "ruling": "201105", "deductibility": "1", "assets": 0, "income": 0, "revenue": 0}, {"ein": "453265062", "name": "OM SHAKTI TEMPLE", "city": "WOODSIDE", "state": "NY", "zip": "11377-0000", "ntee": "X70", "ruling": "201811", "deductibility": "1", "assets": 267969, "income": 46328, "revenue": 0}, {"ein": "814799285", "name": "SAI RAM HANUMAN SHAKTI MANDIR INC", "city": "HOLLIS", "state": "NY", "zip": "11423-1529", "ntee": "X70", "ruling": "201807", "deductibility": "1", "assets": 2584, "income": 4715, "revenue": 4715}, {"ein": "833860218", "name": "SHAKTI MISSION INC", "city": "S RICHMOND HL", "state": "NY", "zip": "11419-3225", "ntee": "P99", "ruling": "201905", "deductibility": "1", "assets": 0, "income": 17132, "revenue": 17132}], "LATIN": [{"ein": "112524531", "name": "LATIN AMERICAN PENTECOSTAL BIBLE CHURCH INC", "city": "BROOKLYN", "state": "NY", "zip": "11215-1104", "ntee": "", "ruling": "198005", "deductibility": "1", "assets": 0, "income": 0, "revenue": 0}, {"ein": "112616153", "name": "FRIENDS OF LATIN AMERICA-CLAMOR", "city": "SLINGERLANDS", "state": "NY", "zip": "12159-0421", "ntee": "", "ruling": "198211", "deductibility": "1", "assets": 0, "income": 0, "revenue": 0}, {"ein": "112963529", "name": "LATIN AMERICAN PENTECOSTAL CHURCH OF GOD MORIA INC", "city": "CORONA", "state": "NY", "zip": "11368-3207", "ntee": "", "ruling": "199410", "deductibility": "1", "assets": 0, "income": 0, "revenue": 0}, {"ein": "112997255", "name": "LATIN AMERICAN CULTURAL CENTER OF QUEENS INC", "city": "KEW GARDENS", "state": "NY", "zip": "11424-1015", "ntee": "A230", "ruling": "199003", "deductibility": "1", "assets": 0, "income": 0, "revenue": 0}, {"ein": "113290928", "name": "LATIN EVANGELICAL FREE CHURCH", "city": "BROOKLYN", "state": "NY", "zip": "11217-2407", "ntee": "", "ruling": "196504", "deductibility": "1", "assets": 0, "income": 0, "revenue": 0}, {"ein": "113400519", "name": "LATIN AMERICAN FRATERNITY EL SENOR", "city": "GLEN COVE", "state": "NY", "zip": "11542-0291", "ntee": "X20", "ruling": "200910", "deductibility": "1", "assets": 11841, "income": 2942, "revenue": 2942}, {"ein": "132604488", "name": "NORTH AMERICAN CONGRESS ON LATIN AMERICA", "city": "NEW YORK", "state": "NY", "zip": "10012-1018", "ntee": "P20", "ruling": "201808", "deductibility": "1", "assets": 5799, "income": 138432, "revenue": 138432}, {"ein": "132989461", "name": "HISPANIC ORGANIZATION OF LATIN ACTORS", "city": "NEW YORK", "state": "NY", "zip": "10002-3387", "ntee": "A65C", "ruling": "198111", "deductibility": "1", "assets": 93157, "income": 146468, "revenue": 105106}, {"ein": "132995536", "name": "LATIN AMERICAN WORKSHOP INC", "city": "NEW YORK", "state": "NY", "zip": "10001-5594", "ntee": "", "ruling": "199007", "deductibility": "1", "assets": 188367, "income": 428677, "revenue": 428677}, {"ein": "133334130", "name": "LATIN AMERICAN THEATER EXPERIMENT ASSOCIATES INC", "city": "NEW YORK", "state": "NY", "zip": "10002-3300", "ntee": "A650", "ruling": "199304", "deductibility": "1", "assets": 2147, "income": 264949, "revenue": 264949}, {"ein": "133404960", "name": "LATIN AMERICAN PENTECOSTAL CHURCH OF GOD", "city": "NEW YORK CITY", "state": "NY", "zip": "10035-1614", "ntee": "X20", "ruling": "199901", "deductibility": "1", "assets": 0, "income": 0, "revenue": 0}, {"ein": "133731349", "name": "FUND FOR FAMILY PLANNING IN LATIN AMERICA", "city": "NEWBURGH", "state": "NY", "zip": "12550-2041", "ntee": "Q300", "ruling": "199506", "deductibility": "1", "assets": 10218458, "income": 953644, "revenue": 566227}, {"ein": "134072526", "name": "CHRISTIAN MELODY COUNCIL AND INTERNATIONAL LATIN NIGHT", "city": "BRONX", "state": "NY", "zip": "10452-1683", "ntee": "X20", "ruling": "201510", "deductibility": "1", "assets": 36789, "income": 75661, "revenue": 75661}, {"ein": "134299976", "name": "AMERICAN LATIN ASSOCIATION OF NY INC", "city": "BRONX", "state": "NY", "zip": "10459-0886", "ntee": "P30", "ruling": "200606", "deductibility": "1", "assets": 0, "income": 0, "revenue": 0}, {"ein": "136135873", "name": "LATIN AMERICAN PENTECOSTAL CHURCH OF GOD INC THE EDEN", "city": "NEW YORK", "state": "NY", "zip": "10002-5101", "ntee": "", "ruling": "198307", "deductibility": "1", "assets": 0, "income": 0, "revenue": 0}, {"ein": "141794470", "name": "ALBANY LATIN FESTIVAL ASSOCIATION", "city": "ALBANY", "state": "NY", "zip": "12206-1350", "ntee": "A60Z", "ruling": "199705", "deductibility": "1", "assets": 0, "income": 0, "revenue": 0}, {"ein": "161292407", "name": "LATIN AMERICAN CULTURAL ASSOCIATION OF HISPANIC APOSTOLATE", "city": "BUFFALO", "state": "NY", "zip": "14201-1420", "ntee": "A20", "ruling": "202111", "deductibility": "1", "assets": 10166, "income": 14898, "revenue": 0}, {"ein": "204519764", "name": "LATIN AMERICAN PENTECOSTAL CHURCHEL AMPARO DIVINO", "city": "STATEN ISLAND", "state": "NY", "zip": "10301-1106", "ntee": "X21", "ruling": "201106", "deductibility": "1", "assets": 0, "income": 0, "revenue": 0}, {"ein": "205747578", "name": "BROOKLYN LATIN SCHOOL PARENT ASSOCIATION", "city": "BROOKLYN", "state": "NY", "zip": "11206-1203", "ntee": "B94", "ruling": "201602", "deductibility": "1", "assets": 32172, "income": 70996, "revenue": 66835}, {"ein": "237007435", "name": "SEMINAR ON THE ACQUISITION OF LATIN AMERICAN LIBRARY MATERIALS", "city": "NEW YORK", "state": "NY", "zip": "10012-1018", "ntee": "V35Z", "ruling": "196901", "deductibility": "1", "assets": 1478380, "income": 898646, "revenue": 227045}, {"ein": "237333440", "name": "SECOND LATIN EVANGELICAL FREE CHURCH OF CONEY ISLAND", "city": "BROOKLYN", "state": "NY", "zip": "11224-2509", "ntee": "", "ruling": "197312", "deductibility": "1", "assets": 0, "income": 0, "revenue": 0}, {"ein": "263946088", "name": "FRIENDS OF THE BROOKLYN LATIN SCHOOL INC", "city": "BROOKLYN", "state": "NY", "zip": "11206-1203", "ntee": "B11", "ruling": "200903", "deductibility": "1", "assets": 0, "income": 0, "revenue": 0}, {"ein": "271260407", "name": "JEWISH LATIN CENTER NYC", "city": "NEW YORK", "state": "NY", "zip": "10028-0871", "ntee": "P20", "ruling": "201107", "deductibility": "1", "assets": 145208, "income": 385668, "revenue": 385668}, {"ein": "272399795", "name": "LATIN AGENTS AND BROKERS ASSOCIATION", "city": "PLAINVIEW", "state": "NY", "zip": "11803-4228", "ntee": "S41", "ruling": "201108", "deductibility": "2", "assets": 0, "income": 0, "revenue": 0}, {"ein": "300539383", "name": "INEC CARIBBEAN AND LATIN AMERICAN INSTITUTE INC", "city": "BRONX", "state": "NY", "zip": "10452-5763", "ntee": "A80", "ruling": "201102", "deductibility": "1", "assets": 0, "income": 0, "revenue": 0}, {"ein": "320601186", "name": "LATIN AMERICAN RECOVERY INC", "city": "NEW YORK", "state": "NY", "zip": "10019-5949", "ntee": "R99", "ruling": "202002", "deductibility": "1", "assets": 18597, "income": 0, "revenue": 0}, {"ein": "364695733", "name": "FRIENDS OF HUNTINGTON STATION LATIN QUARTER", "city": "HUNTINGTON", "state": "NY", "zip": "11743-1513", "ntee": "P20", "ruling": "201110", "deductibility": "1", "assets": 0, "income": 0, "revenue": 0}, {"ein": "452349868", "name": "LATIN WOMEN EMPOWER FACES", "city": "BRONX", "state": "NY", "zip": "10453-4040", "ntee": "R24", "ruling": "202312", "deductibility": "1", "assets": 0, "income": 0, "revenue": 0}, {"ein": "452674134", "name": "UNITED LATIN FESTIVAL OF HAVERSTRAW INC", "city": "HAVERSTRAW", "state": "NY", "zip": "10927-0664", "ntee": "W99", "ruling": "201408", "deductibility": "1", "assets": 0, "income": 0, "revenue": 0}, {"ein": "453665976", "name": "AFRO-LATIN JAZZ ALLIANCE OF NEW YORK INC", "city": "NEW YORK", "state": "NY", "zip": "10037-1026", "ntee": "A6C", "ruling": "201203", "deductibility": "1", "assets": 3437151, "income": 2899363, "revenue": 2882266}, {"ein": "465086201", "name": "LATIN AMERICAN CULTURAL HERITAGE", "city": "BRONX", "state": "NY", "zip": "10467-6722", "ntee": "A20", "ruling": "202002", "deductibility": "1", "assets": 21229, "income": 11785, "revenue": 11785}, {"ein": "471551920", "name": "LATIN AMERICAN MOTORCYCLE ASSC OF NY", "city": "ROCHESTER", "state": "NY", "zip": "14608-1957", "ntee": "N50", "ruling": "202308", "deductibility": "2", "assets": 0, "income": 0, "revenue": 0}, {"ein": "472395917", "name": "LATIN AMERICAN FILM CENTER INC", "city": "NEW YORK", "state": "NY", "zip": "10012-1801", "ntee": "A31", "ruling": "201603", "deductibility": "1", "assets": 2270, "income": 32279, "revenue": 32279}, {"ein": "474192008", "name": "LATIN AMERICAN MOTORCYCLE ASSOCATION", "city": "BUFFALO", "state": "NY", "zip": "14217-0216", "ntee": "N50", "ruling": "202410", "deductibility": "2", "assets": 0, "income": 0, "revenue": 0}, {"ein": "475456170", "name": "LATIN UNITED OF BROOKLYN LEAGUE INC", "city": "BROOKLYN", "state": "NY", "zip": "11220-4064", "ntee": "N64", "ruling": "201804", "deductibility": "2", "assets": 3418, "income": 36613, "revenue": 36613}, {"ein": "510183518", "name": "LATIN AMERICA PARENTS ASSOCIATION INC", "city": "BROOKLYN", "state": "NY", "zip": "11234-0339", "ntee": "", "ruling": "197603", "deductibility": "1", "assets": 0, "income": 0, "revenue": 0}, {"ein": "550790450", "name": "PORTAL FOR INVESTMENT IN THE LATIN AMERICAN SOCIAL SECTOR", "city": "NEW YORK", "state": "NY", "zip": "10128-0788", "ntee": "Q30", "ruling": "200301", "deductibility": "1", "assets": 1988441, "income": 2403013, "revenue": 2403013}, {"ein": "611556846", "name": "LATIN AMERICAN PENTECOSTAL CHURCH OF GOD", "city": "AMSTERDAM", "state": "NY", "zip": "12010-0000", "ntee": "X21", "ruling": "202402", "deductibility": "1", "assets": 0, "income": 0, "revenue": 0}, {"ein": "743057973", "name": "BALLROOM & LATIN DANCE CLUB OF THE HUDSON VALLEY", "city": "PLEASANT VLY", "state": "NY", "zip": "12569-7636", "ntee": "N50", "ruling": "200302", "deductibility": "2", "assets": 0, "income": 0, "revenue": 0}, {"ein": "811555174", "name": "FRIENDS OF SYRACUSE LATIN INC", "city": "SYRACUSE", "state": "NY", "zip": "13210-3211", "ntee": "B94", "ruling": "201604", "deductibility": "1", "assets": 0, "income": 0, "revenue": 0}, {"ein": "831642296", "name": "LATIN UNITED OF THE BRONX INC", "city": "BRONX", "state": "NY", "zip": "10453-7671", "ntee": "P28", "ruling": "201905", "deductibility": "1", "assets": 0, "income": 0, "revenue": 0}, {"ein": "832635899", "name": "LATIN MASS SOCIETY OF THE HUDSON VALLEY INC", "city": "POUGHKEEPSIE", "state": "NY", "zip": "12601-5240", "ntee": "N11", "ruling": "201903", "deductibility": "1", "assets": 0, "income": 0, "revenue": 0}, {"ein": "832751853", "name": "LATIN AMERICAN STUDIES FOR THE PROFESSIONS INC", "city": "PLATTSBURGH", "state": "NY", "zip": "12901-2542", "ntee": "T01", "ruling": "201908", "deductibility": "1", "assets": 702308, "income": 390135, "revenue": 0}, {"ein": "832834778", "name": "JEWISH LATIN YOUTH CENTER INC", "city": "BROOKLYN", "state": "NY", "zip": "11225-3579", "ntee": "X30", "ruling": "201902", "deductibility": "1", "assets": 443128, "income": 185574, "revenue": 185574}, {"ein": "832863669", "name": "LATIN AMERICAN LACROSSE COALITION INC", "city": "NEW YORK", "state": "NY", "zip": "10005-4301", "ntee": "N70", "ruling": "202312", "deductibility": "1", "assets": 0, "income": 0, "revenue": 0}, {"ein": "843992665", "name": "LATIN AFRO JAZZ INC", "city": "BRONX", "state": "NY", "zip": "10451-2722", "ntee": "A20", "ruling": "202002", "deductibility": "1", "assets": 0, "income": 0, "revenue": 0}, {"ein": "844712652", "name": "LATIN AMERICAN ORGANIZATION FOR LITERATURE AND THE ARTS INC", "city": "QUEENS", "state": "NY", "zip": "11372-7127", "ntee": "A23", "ruling": "202201", "deductibility": "1", "assets": 0, "income": 0, "revenue": 0}, {"ein": "874201234", "name": "NEW YORK LATIN AMERICAN ART TRIENAL INC", "city": "NEW YORK", "state": "NY", "zip": "10009-8125", "ntee": "A20", "ruling": "202203", "deductibility": "1", "assets": 0, "income": 0, "revenue": 0}, {"ein": "882540603", "name": "HOUSING OPPORTUNITIES FOR LATIN AMERICANS INC", "city": "JACKSON HTS", "state": "NY", "zip": "11372-8028", "ntee": "L30", "ruling": "202206", "deductibility": "1", "assets": 0, "income": 0, "revenue": 0}, {"ein": "920924592", "name": "LATIN AMERICAN PAIN SOCIETY LTD", "city": "NEW YORK", "state": "NY", "zip": "10022-0000", "ntee": "E03", "ruling": "202408", "deductibility": "2", "assets": 72329, "income": 162855, "revenue": 162855}, {"ein": "922997504", "name": "CATHOLIC LEADERS ACADEMY LATIN AMERICA USA INC", "city": "MAHOPAC", "state": "NY", "zip": "10541-3631", "ntee": "X01", "ruling": "202507", "deductibility": "1", "assets": 0, "income": 0, "revenue": 0}], "HACHAYIM": [{"ein": "112570621", "name": "CONGREGATION OIR HACHAYIM", "city": "BROOKLYN", "state": "NY", "zip": "11211-7707", "ntee": "", "ruling": "199102", "deductibility": "1", "assets": 0, "income": 0, "revenue": 0}, {"ein": "136181949", "name": "OR HACHAYIM INC", "city": "NEW YORK", "state": "NY", "zip": "10006-0000", "ntee": "", "ruling": "196511", "deductibility": "1", "assets": 6313, "income": 1920968, "revenue": 1920968}], "DEMBITZER": [{"ein": "112677332", "name": "DEMBITZER LANDSLEIT INC", "city": "STATEN ISLAND", "state": "NY", "zip": "10314-5044", "ntee": "", "ruling": "198406", "deductibility": "2", "assets": 0, "income": 0, "revenue": 0}, {"ein": "113371820", "name": "LESTER AND MARJORIE DEMBITZER FOUNDATION INC", "city": "SCARSDALE", "state": "NY", "zip": "10583-7718", "ntee": "T22J", "ruling": "199707", "deductibility": "1", "assets": 1963, "income": 1, "revenue": 0}], "YESHARIM": [{"ein": "112778996", "name": "MESILAT YESHARIM INC IN-CARE-OF MOSHE HARIR", "city": "BROOKLYN", "state": "NY", "zip": "11223-4037", "ntee": "", "ruling": "198604", "deductibility": "1", "assets": 0, "income": 0, "revenue": 0}, {"ein": "223044314", "name": "CONGREGATION TEFFLIAS YESHARIM INC", "city": "BROOKLYN", "state": "NY", "zip": "11230-6707", "ntee": "", "ruling": "199112", "deductibility": "1", "assets": 0, "income": 0, "revenue": 0}, {"ein": "465108123", "name": "YESHIVAS TORAS YESHARIM", "city": "BROOKLYN", "state": "NY", "zip": "11229-2427", "ntee": "X30", "ruling": "201407", "deductibility": "1", "assets": 235, "income": 52422, "revenue": 52422}], "SHWEKEY": [{"ein": "112832347", "name": "KEREN YEHUDIT SHWEKEY C/O M SHWEKEY", "city": "BROOKLYN", "state": "NY", "zip": "11223-3232", "ntee": "", "ruling": "198612", "deductibility": "1", "assets": 0, "income": 0, "revenue": 0}], "FEDERAZIONE": [{"ein": "113044143", "name": "FEDERAZIONE ITALO-AMERICANA DI BROOKLYN AND QUEENS INC", "city": "GLENDALE", "state": "NY", "zip": "11385-7055", "ntee": "P84", "ruling": "200202", "deductibility": "1", "assets": 51458, "income": 77708, "revenue": 17708}, {"ein": "208708494", "name": "FEDERAZIONE DELLE ASSOCIAZONI DELLACAMPANIA USA INC", "city": "BRONX", "state": "NY", "zip": "10457-1636", "ntee": "P20", "ruling": "200704", "deductibility": "1", "assets": 15636, "income": 65266, "revenue": 65266}], "STY": [{"ein": "113055594", "name": "NEW BED-STY BOXING CENTER INC", "city": "BROOKLYN", "state": "NY", "zip": "11221-6692", "ntee": "N60", "ruling": "201206", "deductibility": "1", "assets": 1067, "income": 2760, "revenue": 2760}], "SCHION": [{"ein": "113088605", "name": "SCHION SEUNG KOREAN PRESBYTERIAN CHURCH OF N Y", "city": "FRESH MEADOWS", "state": "NY", "zip": "11365-2123", "ntee": "", "ruling": "199306", "deductibility": "1", "assets": 0, "income": 0, "revenue": 0}], "NOBEL": [{"ein": "113187562", "name": "FRED I AND GILDA NOBEL FOUNDATION INC", "city": "OYSTER BAY", "state": "NY", "zip": "11771-1101", "ntee": "", "ruling": "199404", "deductibility": "1", "assets": 11130379, "income": 4350115, "revenue": 0}], "JACMEL": [{"ein": "113265918", "name": "THE HOUSE OF HOPE FOR THE COMMUNITY OF JACMEL INC", "city": "BROOKLYN", "state": "NY", "zip": "11236-3428", "ntee": "X20", "ruling": "201203", "deductibility": "1", "assets": 0, "income": 0, "revenue": 0}, {"ein": "821630361", "name": "CENTRE DE FORMATION FAMILIALE ET SOCIALE DE JACMEL CFFSJ INC", "city": "BRONX", "state": "NY", "zip": "10475-5432", "ntee": "P99", "ruling": "202007", "deductibility": "1", "assets": 0, "income": 0, "revenue": 0}], "TARUMI": [{"ein": "113307415", "name": "TARUMI VIOLIN CHILDRENS FOUNDATION FOR THE ARTS", "city": "DOUGLASTON", "state": "NY", "zip": "11363-0000", "ntee": "A68", "ruling": "199610", "deductibility": "1", "assets": 306828, "income": 60903, "revenue": 60903}], "SHIVAS": [{"ein": "113363744", "name": "CONGREGATION SHIVAS TZION", "city": "BROOKLYN", "state": "NY", "zip": "11206-8006", "ntee": "X99Z", "ruling": "199704", "deductibility": "1", "assets": 0, "income": 0, "revenue": 0}], "JOUNEYMEN": [{"ein": "113386159", "name": "UNITED ASSOCIATION OF JOUNEYMEN & APPRENTICES OF THE PLUMBING & PIPE", "city": "LONG IS CITY", "state": "NY", "zip": "11101-6164", "ntee": "", "ruling": "194101", "deductibility": "2", "assets": 55849197, "income": 20217167, "revenue": 12705889}], "BINE": [{"ein": "113452798", "name": "CONGREGATION BINE HELMETZ", "city": "BROOKLYN", "state": "NY", "zip": "11219-1037", "ntee": "X30", "ruling": "199901", "deductibility": "1", "assets": 0, "income": 0, "revenue": 0}], "MIDNIGHT": [{"ein": "113565167", "name": "MIDNIGHT MISSION BAPTIST CHURCH INC", "city": "BROOKLYN", "state": "NY", "zip": "11221-1438", "ntee": "X21", "ruling": "200112", "deductibility": "1", "assets": 0, "income": 0, "revenue": 0}, {"ein": "133576702", "name": "MIDNIGHT RUN INC", "city": "DOBBS FERRY", "state": "NY", "zip": "10522-1774", "ntee": "J21Z", "ruling": "199008", "deductibility": "1", "assets": 541454, "income": 387913, "revenue": 381221}, {"ein": "934028702", "name": "5 PAST MIDNIGHT LLC", "city": "NEW YORK", "state": "NY", "zip": "10036-2030", "ntee": "N69", "ruling": "202312", "deductibility": "1", "assets": 0, "income": 0, "revenue": 0}, {"ein": "993769680", "name": "MIDNIGHT BLUE EVENTS LLC", "city": "NEWBURGH", "state": "NY", "zip": "12550-7241", "ntee": "W12", "ruling": "202506", "deductibility": "1", "assets": 0, "income": 0, "revenue": 0}], "SHAHADA": [{"ein": "113599728", "name": "NOORUSH-SHAHADA ISLAMIC CENTER INC", "city": "BROOKLYN", "state": "NY", "zip": "11210-4156", "ntee": "X40", "ruling": "200206", "deductibility": "1", "assets": 0, "income": 0, "revenue": 0}], "EECO": [{"ein": "113626343", "name": "EECO FARM LTD", "city": "EAST HAMPTON", "state": "NY", "zip": "11937-0247", "ntee": "O50", "ruling": "200112", "deductibility": "1", "assets": 76493, "income": 64998, "revenue": 64998}], "CAPPELLO": [{"ein": "113627929", "name": "JONATHAN NEFF CAPPELLO MEMORIAL FUND", "city": "GARDEN CITY", "state": "NY", "zip": "11530-0000", "ntee": "B82", "ruling": "200612", "deductibility": "1", "assets": 0, "income": 0, "revenue": 0}], "COMMUNITY2COMMUNITY": [{"ein": "113843879", "name": "COMMUNITY2COMMUNITY", "city": "BROOKLYN", "state": "NY", "zip": "11239-2806", "ntee": "Q33", "ruling": "201311", "deductibility": "1", "assets": 13826, "income": 102103, "revenue": 102103}], "ACRES": [{"ein": "116036657", "name": "PROPERTY OWNERS ASSOCIATION OF HARBOR ACRES INCORPORATED", "city": "PRT WASHINGTN", "state": "NY", "zip": "11050-0189", "ntee": "", "ruling": "195910", "deductibility": "2", "assets": 343106, "income": 106322, "revenue": 106322}, {"ein": "131866768", "name": "SHORE ACRES POINT CORPORATION", "city": "MAMARONECK", "state": "NY", "zip": "10543-4013", "ntee": "", "ruling": "194902", "deductibility": "2", "assets": 2022292, "income": 491092, "revenue": 491092}, {"ein": "141690588", "name": "LORDS ACRES CHRISTIAN FELLOWSHIP", "city": "ALTAMONT", "state": "NY", "zip": "12009-3315", "ntee": "", "ruling": "198708", "deductibility": "1", "assets": 0, "income": 0, "revenue": 0}, {"ein": "141732064", "name": "BIRCH ACRES CO-OPERATIVE INC", "city": "HOPEWELL JUNCTION", "state": "NY", "zip": "12533-7701", "ntee": "N50", "ruling": "199906", "deductibility": "2", "assets": 138588, "income": 117071, "revenue": 117071}, {"ein": "161577187", "name": "UNITY ACRES INC", "city": "ORWELL", "state": "NY", "zip": "13426-0153", "ntee": "F200", "ruling": "200005", "deductibility": "1", "assets": 1020156, "income": 272957, "revenue": 229522}, {"ein": "222377127", "name": "BALDWIN ACRES INC", "city": "NORWOOD", "state": "NY", "zip": "13668-0212", "ntee": "L22Z", "ruling": "198204", "deductibility": "1", "assets": 3209666, "income": 565714, "revenue": 565714}, {"ein": "223882266", "name": "CONGREGATION MOUNTAIN ACRES", "city": "BROOKLYN", "state": "NY", "zip": "11211-8737", "ntee": "X30", "ruling": "200311", "deductibility": "1", "assets": 0, "income": 0, "revenue": 0}, {"ein": "262219064", "name": "PEACEFUL ACRES HORSES INC", "city": "PATTERSONVLE", "state": "NY", "zip": "12137-2104", "ntee": "E50", "ruling": "200903", "deductibility": "1", "assets": 255001, "income": 201405, "revenue": 201405}, {"ein": "264340659", "name": "COUNTRY ACRES ANIMAL SHELTER INC", "city": "HOMER", "state": "NY", "zip": "13077-8324", "ntee": "D20", "ruling": "200906", "deductibility": "1", "assets": 14894, "income": 52332, "revenue": 50284}, {"ein": "334164561", "name": "PRICELESS ACRES", "city": "LIVONIA", "state": "NY", "zip": "14487-9672", "ntee": "D20", "ruling": "202505", "deductibility": "1", "assets": 0, "income": 0, "revenue": 0}, {"ein": "454153340", "name": "SUGARS ACRES OF LOVE INC", "city": "ONTARIO", "state": "NY", "zip": "14519-9321", "ntee": "P20", "ruling": "201408", "deductibility": "1", "assets": 0, "income": 0, "revenue": 0}, {"ein": "455063678", "name": "SKYVIEW ACRES LAND TRUST INC", "city": "POMONA", "state": "NY", "zip": "10970-3315", "ntee": "C34", "ruling": "201405", "deductibility": "1", "assets": 0, "income": 0, "revenue": 0}, {"ein": "464905871", "name": "VICTORIA ACRES EQUINE FACILITY INC", "city": "ALTAMONT", "state": "NY", "zip": "12009-5618", "ntee": "P80", "ruling": "201403", "deductibility": "1", "assets": 0, "income": 0, "revenue": 0}, {"ein": "473289027", "name": "THREE AND A HALF ACRES YOGA FOUNDATION", "city": "ANDES", "state": "NY", "zip": "13731-0032", "ntee": "O99", "ruling": "201506", "deductibility": "1", "assets": 16183, "income": 65514, "revenue": 65514}, {"ein": "474170089", "name": "CONGREGATION COUNTRYSIDE ACRES", "city": "BROOKLYN", "state": "NY", "zip": "11234-4340", "ntee": "X30", "ruling": "201601", "deductibility": "1", "assets": 0, "income": 0, "revenue": 0}, {"ein": "800286613", "name": "COOPERS PLAINS - LONG ACRES VOLUNTEER FIRE DEPARTMENT", "city": "COOPERS PLNS", "state": "NY", "zip": "14827-0021", "ntee": "M24", "ruling": "201707", "deductibility": "1", "assets": 0, "income": 0, "revenue": 0}, {"ein": "823507701", "name": "ARTHURS ACRES ANIMAL SANCTUARY CORPORATION", "city": "PARKSVILLE", "state": "NY", "zip": "12768-6501", "ntee": "D34", "ruling": "201712", "deductibility": "1", "assets": 2827648, "income": 1143357, "revenue": 1143357}, {"ein": "833811165", "name": "GARNSEY S FERAL ACRES INC", "city": "CLAYTON", "state": "NY", "zip": "13624-0313", "ntee": "D20", "ruling": "201911", "deductibility": "1", "assets": 21714, "income": 63306, "revenue": 62748}, {"ein": "853820713", "name": "UNBROKEN ACRES INC", "city": "COCHECTON", "state": "NY", "zip": "12726-5343", "ntee": "K99", "ruling": "202104", "deductibility": "1", "assets": 0, "income": 0, "revenue": 0}, {"ein": "863251873", "name": "FOOLISH ACRES", "city": "BURT", "state": "NY", "zip": "14028-9718", "ntee": "D20", "ruling": "202409", "deductibility": "1", "assets": 0, "income": 0, "revenue": 0}, {"ein": "863921899", "name": "LOST CREEK ACRES INC", "city": "MARCELLUS", "state": "NY", "zip": "13108-9611", "ntee": "", "ruling": "202201", "deductibility": "0", "assets": 0, "income": 0, "revenue": 0}, {"ein": "873704037", "name": "NOTT ACRES ANIMAL PLACEMENT & SANCTUARY INC", "city": "GUILDERLAND", "state": "NY", "zip": "12084-9513", "ntee": "D20", "ruling": "202202", "deductibility": "1", "assets": 0, "income": 0, "revenue": 0}, {"ein": "882835464", "name": "WARD ACRES CONSERVANCY INC", "city": "NEW ROCHELLE", "state": "NY", "zip": "10804-0251", "ntee": "N32", "ruling": "202303", "deductibility": "1", "assets": 0, "income": 0, "revenue": 0}, {"ein": "900959649", "name": "SCOTT ACRES WATER USERS ASSOCIATION INC", "city": "ROCK TAVERN", "state": "NY", "zip": "12575-0000", "ntee": "Y22", "ruling": "202412", "deductibility": "2", "assets": 0, "income": 0, "revenue": 0}, {"ein": "991353846", "name": "HAYVEN ACRES INC", "city": "ALBANY", "state": "NY", "zip": "12207-2834", "ntee": "P12", "ruling": "202402", "deductibility": "1", "assets": 0, "income": 0, "revenue": 0}, {"ein": "991967891", "name": "SERENITY ACRES EQUINE THERAPY AND RESCUE INC", "city": "ARGYLE", "state": "NY", "zip": "12809-7797", "ntee": "D20", "ruling": "202406", "deductibility": "1", "assets": 0, "income": 0, "revenue": 0}], "BECKER": [{"ein": "116103238", "name": "FRANK J BECKER EDUCATIONAL FOUNDATION", "city": "MALVERNE", "state": "NY", "zip": "11565-1902", "ntee": "", "ruling": "198008", "deductibility": "1", "assets": 6073, "income": 92, "revenue": 0}, {"ein": "133937865", "name": "JACK & DEBORAH BECKER CHARITABLE FOUNDATION", "city": "HARRISON", "state": "NY", "zip": "10528-1648", "ntee": "T22J", "ruling": "199706", "deductibility": "1", "assets": 404620, "income": 40707, "revenue": 0}, {"ein": "136093181", "name": "MRS CHEEVER PORTER FOUNDATION ADAMS & BECKER", "city": "HUNTINGTON", "state": "NY", "zip": "11743-4231", "ntee": "", "ruling": "196308", "deductibility": "1", "assets": 2772337, "income": 304746, "revenue": 0}, {"ein": "141593701", "name": "HISTORICAL SOCIETY OF THE TOWN OF OLIVE C O FRANK E BECKER", "city": "WEST HURLEY", "state": "NY", "zip": "12491-5619", "ntee": "", "ruling": "197712", "deductibility": "1", "assets": 0, "income": 0, "revenue": 0}, {"ein": "204510704", "name": "MARGE AND RANDY BECKER FOUNDATIONINC", "city": "MIDDLEBURGH", "state": "NY", "zip": "12122-0191", "ntee": "T20", "ruling": "200703", "deductibility": "1", "assets": 1320244, "income": 121703, "revenue": 0}, {"ein": "462886635", "name": "JENIFER T BECKER FOUNDATION", "city": "BROOKLYN", "state": "NY", "zip": "11218-4648", "ntee": "B28", "ruling": "201405", "deductibility": "1", "assets": 0, "income": 0, "revenue": 0}], "HASENFELD": [{"ein": "116579799", "name": "HERTZ AND LIBBY HASENFELD CHARITABLE FOUNDATION TR", "city": "BROOKLYN", "state": "NY", "zip": "11219-4228", "ntee": "T22", "ruling": "200305", "deductibility": "1", "assets": 181733, "income": 494413, "revenue": 0}, {"ein": "237017589", "name": "A & Z HASENFELD FOUNDATION INC", "city": "NEW YORK", "state": "NY", "zip": "10036-0000", "ntee": "", "ruling": "196907", "deductibility": "1", "assets": 27312, "income": 13, "revenue": 0}], "SHANKER": [{"ein": "132675671", "name": "ALBERT SHANKER COLLEGE SCHOLARSHIP FUND OF THE UNITED FED OF TEACHERS", "city": "NEW YORK", "state": "NY", "zip": "10004-1603", "ntee": "B82Z", "ruling": "197110", "deductibility": "1", "assets": 1141318, "income": 1066369, "revenue": 1066369}], "DMIR": [{"ein": "132946608", "name": "AMERICAN FRIENDS OF YESHIVA DMIR INC", "city": "BROOKLYN", "state": "NY", "zip": "11219-3829", "ntee": "Q123", "ruling": "197808", "deductibility": "1", "assets": 14216004, "income": 41238627, "revenue": 39014952}], "STIMULUS": [{"ein": "132956749", "name": "STIMULUS FOUNDATION", "city": "NEW YORK", "state": "NY", "zip": "10019-1104", "ntee": "", "ruling": "197903", "deductibility": "1", "assets": 347791, "income": 89993, "revenue": 0}, {"ein": "831405424", "name": "SCIENCE AND STORY STIMULUS INCORPORATED", "city": "MANHASSET", "state": "NY", "zip": "11030-3940", "ntee": "B90", "ruling": "201808", "deductibility": "1", "assets": 1, "income": 1, "revenue": 0}], "VANDEN": [{"ein": "133098970", "name": "THE VANDEN BRUL FOUNDATION INC", "city": "ROCHESTER", "state": "NY", "zip": "14610-3134", "ntee": "", "ruling": "198112", "deductibility": "1", "assets": 75921, "income": 18050, "revenue": 0}, {"ein": "133980534", "name": "MELINDA & WILLIAM J VANDEN HEUVEL FOUNDATION INC", "city": "NEW YORK", "state": "NY", "zip": "10021-2759", "ntee": "T20Z", "ruling": "199807", "deductibility": "1", "assets": 686553, "income": 226889, "revenue": 0}], "MAURITSHUIS": [{"ein": "133118418", "name": "FRIENDS OF THE MAURITSHUIS INC", "city": "NEW YORK", "state": "NY", "zip": "10016-3469", "ntee": "", "ruling": "199312", "deductibility": "1", "assets": 480761, "income": 38924, "revenue": 33499}], "CHAUNCEY": [{"ein": "133140546", "name": "GENERAL CHAUNCEY M HOOPER TOWERS HOUSING DEVELOPMENT FUND CO INC", "city": "RICHMOND HILL", "state": "NY", "zip": "11418-2426", "ntee": "L210", "ruling": "198212", "deductibility": "1", "assets": 6419975, "income": 2269853, "revenue": 2269853}, {"ein": "166222234", "name": "CHAUNCEY H WINTERS TRUST UW CENTRAL NATL BK CANAJOHARIE", "city": "NORWICH", "state": "NY", "zip": "13815-0000", "ntee": "", "ruling": "197812", "deductibility": "1", "assets": 8199332, "income": 1858616, "revenue": 0}], "KEEPS": [{"ein": "133182620", "name": "KEEPS INC", "city": "MAMARONECK", "state": "NY", "zip": "10543-0731", "ntee": "P33", "ruling": "198904", "deductibility": "1", "assets": 5934, "income": 210746, "revenue": 210746}, {"ein": "334158009", "name": "KODESH FOR KEEPS INC", "city": "POMONA", "state": "NY", "zip": "10970-2651", "ntee": "B92", "ruling": "202505", "deductibility": "1", "assets": 0, "income": 0, "revenue": 0}], "SALTZ": [{"ein": "133267114", "name": "GARY SALTZ FOUNDATION INC", "city": "NEW YORK", "state": "NY", "zip": "10020-1605", "ntee": "", "ruling": "198508", "deductibility": "1", "assets": 67912290, "income": 10602938, "revenue": 0}, {"ein": "133914629", "name": "JACK AND ANITA SALTZ FOUNDATION INC", "city": "NEW YORK", "state": "NY", "zip": "10020-1605", "ntee": "J99Z", "ruling": "199704", "deductibility": "1", "assets": 28574, "income": 1, "revenue": 0}], "SIXERS": [{"ein": "133419634", "name": "THE ADIRONDACK FORTY-SIXERS INC", "city": "PLATTSBURGH", "state": "NY", "zip": "12903-4006", "ntee": "C600", "ruling": "199312", "deductibility": "1", "assets": 221938, "income": 297352, "revenue": 240010}], "STEINIGER": [{"ein": "133585674", "name": "EDWARD L & JOAN B STEINIGER FNDTN FOR RC CHARITABLE ED PURPOSE", "city": "NEW YORK", "state": "NY", "zip": "10013-2362", "ntee": "", "ruling": "199104", "deductibility": "1", "assets": 23612386, "income": 17344971, "revenue": 0}], "TORCH": [{"ein": "133638911", "name": "TORCH FOUNDATION", "city": "COMMACK", "state": "NY", "zip": "11725-4707", "ntee": "P120", "ruling": "199303", "deductibility": "1", "assets": 393465, "income": 424806, "revenue": 69520}, {"ein": "146087322", "name": "TORCH CLUB OF SCHENECTADY", "city": "WATERVLIET", "state": "NY", "zip": "12189-1221", "ntee": "", "ruling": "197501", "deductibility": "2", "assets": 0, "income": 0, "revenue": 0}, {"ein": "161480742", "name": "DELTA TORCH FOUNDATION", "city": "SYRACUSE", "state": "NY", "zip": "13218-1551", "ntee": "B99", "ruling": "199612", "deductibility": "1", "assets": 0, "income": 0, "revenue": 0}, {"ein": "455425295", "name": "TORCH OF LIFE", "city": "CONGERS", "state": "NY", "zip": "10920-2056", "ntee": "", "ruling": "197001", "deductibility": "1", "assets": 0, "income": 0, "revenue": 0}, {"ein": "800886277", "name": "TORCH MISSION PRESBYTERIAN CHURCH", "city": "FLUSHING", "state": "NY", "zip": "11354-3145", "ntee": "X20", "ruling": "202207", "deductibility": "1", "assets": 0, "income": 0, "revenue": 0}, {"ein": "812638534", "name": "EGLISE DE DIEU DU FLAMBEAU CELESTE CHURCH OF GOD HEAVENLY TORCH", "city": "BROOKLYN", "state": "NY", "zip": "11210-2330", "ntee": "X20", "ruling": "201705", "deductibility": "1", "assets": 0, "income": 0, "revenue": 0}, {"ein": "813651292", "name": "EMMAS TORCH LTD", "city": "BROOKLYN", "state": "NY", "zip": "11231-4605", "ntee": "P40", "ruling": "201704", "deductibility": "1", "assets": 4954757, "income": 3860982, "revenue": 3860982}, {"ein": "862992927", "name": "PASS THE TORCH GLOBAL INC", "city": "LONG ISLAND CITY", "state": "NY", "zip": "11101-1740", "ntee": "A70", "ruling": "202108", "deductibility": "1", "assets": 0, "income": 0, "revenue": 0}, {"ein": "993290913", "name": "TORCH OF FAITH FOUNDATION INC", "city": "BRONX", "state": "NY", "zip": "10457-3819", "ntee": "T19", "ruling": "202406", "deductibility": "1", "assets": 0, "income": 0, "revenue": 0}], "REDHAWK": [{"ein": "133712843", "name": "REDHAWK INDIAN ARTS COUNCIL INC", "city": "BROOKLYN", "state": "NY", "zip": "11219-1083", "ntee": "", "ruling": "199404", "deductibility": "1", "assets": 3870, "income": 246134, "revenue": 246134}, {"ein": "203609699", "name": "REDHAWK COMMUNITY BASKETBALL INC", "city": "WEST MONROE", "state": "NY", "zip": "13167-3261", "ntee": "N60", "ruling": "200803", "deductibility": "1", "assets": 0, "income": 0, "revenue": 0}, {"ein": "760801318", "name": "CENTRAL SQUARE REDHAWK ATHLETIC BOOSTERS INC", "city": "CENTRAL SQ", "state": "NY", "zip": "13036-0016", "ntee": "B112", "ruling": "200612", "deductibility": "1", "assets": 102804, "income": 209508, "revenue": 188375}], "MUNDIAL": [{"ein": "133733617", "name": "IGLESIA PENTECOSTAL VISION MISLONERA MUNDIAL INC MI AKA", "city": "BRONX", "state": "NY", "zip": "10473-2917", "ntee": "X20I", "ruling": "199605", "deductibility": "1", "assets": 0, "income": 0, "revenue": 0}, {"ein": "205480815", "name": "CENTRO MUNDIAL DE AVIVAMIENTO INC", "city": "EAST ELMHURST", "state": "NY", "zip": "11369-2510", "ntee": "X21", "ruling": "201010", "deductibility": "1", "assets": 0, "income": 0, "revenue": 0}, {"ein": "300856812", "name": "PRIMERA IGLESIA PENTECOSTAL DEL MINISTERIO MUNDIAL DEL", "city": "BRONX", "state": "NY", "zip": "10456-5139", "ntee": "X20", "ruling": "201504", "deductibility": "1", "assets": 0, "income": 0, "revenue": 0}, {"ein": "461250583", "name": "MINISTERIO MUNDIAL FUENTE DE BENDICION", "city": "NEW YORK", "state": "NY", "zip": "10027-8005", "ntee": "X21", "ruling": "201407", "deductibility": "1", "assets": 0, "income": 0, "revenue": 0}, {"ein": "463323688", "name": "LA ACADEMIA MUNDIAL BOMBEROS INC", "city": "NEW YORK", "state": "NY", "zip": "10032-2440", "ntee": "P99", "ruling": "201408", "deductibility": "1", "assets": 0, "income": 0, "revenue": 0}, {"ein": "464185865", "name": "AME - ASAMBLEA MUNDIAL EVANGELICA INC", "city": "MEDFORD", "state": "NY", "zip": "11763-4113", "ntee": "X20", "ruling": "201410", "deductibility": "1", "assets": 1, "income": 12917, "revenue": 12917}, {"ein": "823736993", "name": "CRISTINA MUNDIAL FOUNDATION INC", "city": "AIRMONT", "state": "NY", "zip": "10901-7514", "ntee": "", "ruling": "202008", "deductibility": "1", "assets": 0, "income": 0, "revenue": 0}, {"ein": "851037073", "name": "IGLESIA MUNDIAL EMAUS INC", "city": "NANUET", "state": "NY", "zip": "10954-5959", "ntee": "X20", "ruling": "202105", "deductibility": "1", "assets": 0, "income": 0, "revenue": 0}, {"ein": "934028689", "name": "FUNDACION POR AMOR MUNDIAL INC", "city": "BRONX", "state": "NY", "zip": "10462-1506", "ntee": "P50", "ruling": "202406", "deductibility": "1", "assets": 0, "income": 0, "revenue": 0}], "TRAFFICKING": [{"ein": "133755580", "name": "ECPAT USA END CHILD PROSTITUTION CHILD PORNOGRAPHY AND TRAFFICKING", "city": "BROOKLYN", "state": "NY", "zip": "11237-0743", "ntee": "Q017", "ruling": "199409", "deductibility": "1", "assets": 2993210, "income": 4270845, "revenue": 3240922}, {"ein": "203679977", "name": "STOP TRAFFICKING OF PEOPLE INC", "city": "NEW YORK", "state": "NY", "zip": "10075-2528", "ntee": "Q20", "ruling": "200512", "deductibility": "1", "assets": 0, "income": 0, "revenue": 0}, {"ein": "223032134", "name": "COALITION AGAINST TRAFFICKING IN WOMEN", "city": "NEW YORK", "state": "NY", "zip": "10001-6262", "ntee": "Q700", "ruling": "199006", "deductibility": "1", "assets": 757666, "income": 865083, "revenue": 801906}, {"ein": "472027643", "name": "PEOPLE AGAINST TRAFFICKING HUMANS INC", "city": "DEPEW", "state": "NY", "zip": "14043-4012", "ntee": "P20", "ruling": "201506", "deductibility": "1", "assets": 990380, "income": 450953, "revenue": 450953}, {"ein": "472631316", "name": "MENTARI HUMAN TRAFFICKING SURVIVOR EMPOWERMENT PROGRAM INCORPORATED", "city": "EAST ELMHURST", "state": "NY", "zip": "11370-1311", "ntee": "P62", "ruling": "201709", "deductibility": "1", "assets": 0, "income": 0, "revenue": 0}, {"ein": "473366666", "name": "LONG ISLAND AGAINST TRAFFICKING INC", "city": "EAST SETAUKET", "state": "NY", "zip": "11733-3331", "ntee": "B99", "ruling": "201607", "deductibility": "1", "assets": 0, "income": 0, "revenue": 0}, {"ein": "831473129", "name": "ROCHESTER REGIONAL COALITION AGAINST HUMAN TRAFFICKING INC", "city": "ROCHESTER", "state": "NY", "zip": "14610-0445", "ntee": "I70", "ruling": "201808", "deductibility": "1", "assets": 0, "income": 0, "revenue": 0}, {"ein": "853269203", "name": "HUMAN TRAFFICKING PROJECT INC", "city": "GARDEN CITY", "state": "NY", "zip": "11530-0712", "ntee": "I02", "ruling": "202103", "deductibility": "1", "assets": 1, "income": 490, "revenue": 490}, {"ein": "853473092", "name": "ATLANTIC COUNTER TRAFFICKING FOUNDATION INC", "city": "BAY SHORE", "state": "NY", "zip": "11706-1016", "ntee": "M01", "ruling": "202104", "deductibility": "1", "assets": 0, "income": 0, "revenue": 0}], "PARMENIDES": [{"ein": "133787024", "name": "PARMENIDES TRADITIONAL PHILOSOPHY FOUNDATION", "city": "NEW YORK", "state": "NY", "zip": "10024-2534", "ntee": "T70J", "ruling": "199503", "deductibility": "1", "assets": 2098323, "income": 269450, "revenue": 0}], "MOINESTER": [{"ein": "133797662", "name": "THE DORIS AND ISAAC MOINESTER FOUNDATION", "city": "NEW YORK", "state": "NY", "zip": "10022-0000", "ntee": "T30J", "ruling": "199508", "deductibility": "1", "assets": 1, "income": 22593, "revenue": 22593}], "FIELDSTON": [{"ein": "133862529", "name": "ETHICAL CULTURE FIELDSTON SCHOOL", "city": "NEW YORK", "state": "NY", "zip": "10023-6001", "ntee": "B200", "ruling": "199606", "deductibility": "1", "assets": 245662442, "income": 188267535, "revenue": 129322931}], "AGNUS": [{"ein": "133936959", "name": "AGNUS NOSTER FOUNDATION", "city": "FLUSHING", "state": "NY", "zip": "11354-2304", "ntee": "T20", "ruling": "199707", "deductibility": "1", "assets": 2313549, "income": 487352, "revenue": 0}], "WAKA": [{"ein": "133973868", "name": "WAKA FOUNDATION INC", "city": "LAGRANGEVILLE", "state": "NY", "zip": "12540-0000", "ntee": "E30", "ruling": "199909", "deductibility": "1", "assets": 326819, "income": 97601, "revenue": 0}], "CRANSTON": [{"ein": "133987103", "name": "CRANSTON & SPADE THEATER COMPANY INC", "city": "FARMINGDALE", "state": "NY", "zip": "11735-6113", "ntee": "A600", "ruling": "200106", "deductibility": "1", "assets": 0, "income": 0, "revenue": 0}, {"ein": "274370813", "name": "ASST DEP WARDENS - DEPUTY WARDENS ASSOC DONALD J CRANSTON MEM FUND", "city": "STATEN ISLAND", "state": "NY", "zip": "10302-2231", "ntee": "B90", "ruling": "201203", "deductibility": "1", "assets": 138235, "income": 39095, "revenue": 11683}], "DRUKIER": [{"ein": "134018561", "name": "DRUKIER FOUNDATION INC", "city": "NEW YORK", "state": "NY", "zip": "10022-1642", "ntee": "T12", "ruling": "199902", "deductibility": "1", "assets": 1616952, "income": 337134, "revenue": 0}], "MALECARE": [{"ein": "134057382", "name": "MALECARE INC", "city": "NEW YORK", "state": "NY", "zip": "10009-6535", "ntee": "G193", "ruling": "200401", "deductibility": "1", "assets": 1639020, "income": 571570, "revenue": 571570}], "BELLINZONI": [{"ein": "136075443", "name": "ARTHUR J BELLINZONI FOUNDATION", "city": "AURORA", "state": "NY", "zip": "13026-0005", "ntee": "", "ruling": "196003", "deductibility": "1", "assets": 115359, "income": 2662, "revenue": 0}], "MARIST": [{"ein": "136078015", "name": "MARIST BROTHERS OF THE SCHOOLS INC", "city": "BRONX", "state": "NY", "zip": "10466-1928", "ntee": "X20", "ruling": "201412", "deductibility": "1", "assets": 0, "income": 0, "revenue": 0}, {"ein": "141442493", "name": "MARIST UNIVERSITY", "city": "POUGHKEEPSIE", "state": "NY", "zip": "12601-1350", "ntee": "B430", "ruling": "197012", "deductibility": "1", "assets": 1081904140, "income": 531814864, "revenue": 379482585}, {"ein": "141785087", "name": "MARIST REAL PROPERTY SERVICES INC", "city": "POUGHKEEPSIE", "state": "NY", "zip": "12601-1350", "ntee": "B80Z", "ruling": "199602", "deductibility": "1", "assets": 19660974, "income": 0, "revenue": 0}, {"ein": "141820814", "name": "MARIST COLLEGE SUPPLEMENTAL HEALTH COVERAGE PLAN TR", "city": "POUGHKEEPSIE", "state": "NY", "zip": "12601-1350", "ntee": "Y43", "ruling": "200007", "deductibility": "2", "assets": 1518613, "income": 123684, "revenue": 70729}, {"ein": "223202332", "name": "THE MARIST BROTHERS CHAMPAGNAT HALL COMMUNITY", "city": "BRONX", "state": "NY", "zip": "10466-1928", "ntee": "", "ruling": "194603", "deductibility": "1", "assets": 0, "income": 0, "revenue": 0}, {"ein": "821870902", "name": "SACRED HEART MARIST OBSERVATORY INC", "city": "NEW YORK", "state": "NY", "zip": "10028-0009", "ntee": "Q11", "ruling": "201805", "deductibility": "1", "assets": 0, "income": 0, "revenue": 0}, {"ein": "923469396", "name": "MARIST BROTHERS CENTER AT ESOPUS FOUNDATION", "city": "ESOPUS", "state": "NY", "zip": "12429-0252", "ntee": "B12", "ruling": "202402", "deductibility": "1", "assets": 261228, "income": 274199, "revenue": 263145}], "DUMITRU": [{"ein": "136082575", "name": "ST DUMITRU ROMANIAN ORTHODOX CHURCH", "city": "NEW YORK", "state": "NY", "zip": "10024-2001", "ntee": "", "ruling": "197703", "deductibility": "1", "assets": 0, "income": 0, "revenue": 0}, {"ein": "223880439", "name": "SF DUMITRU ROMANIAN MONASTERY AND C AMP", "city": "MIDDLETOWN", "state": "NY", "zip": "10940-7122", "ntee": "", "ruling": "200502", "deductibility": "1", "assets": 0, "income": 0, "revenue": 0}], "GRAUSMAN": [{"ein": "136086092", "name": "BLOCK GRAUSMAN FUND", "city": "NEW YORK", "state": "NY", "zip": "10024-6022", "ntee": "", "ruling": "194706", "deductibility": "1", "assets": 819297, "income": 593811, "revenue": 0}], "WM": [{"ein": "136089682", "name": "WM B THOMPSON FUND", "city": "GARDEN CITY", "state": "NY", "zip": "11530-4874", "ntee": "", "ruling": "195005", "deductibility": "1", "assets": 105803, "income": 48114, "revenue": 0}, {"ein": "146050628", "name": "JAMES J MCCANN TRUST UW C/0 JOHN J GARTLAND JR & WM J GARDNER", "city": "POUGHKEEPSIE", "state": "NY", "zip": "12601-3092", "ntee": "", "ruling": "196906", "deductibility": "1", "assets": 29447581, "income": 6206265, "revenue": 0}, {"ein": "166024150", "name": "WM J MOORE TRUST FD NY 28-2-0406-0 MARINE MIDLAND", "city": "OLEAN", "state": "NY", "zip": "14760-2738", "ntee": "", "ruling": "000000", "deductibility": "0", "assets": 554524, "income": 63880, "revenue": 24267}, {"ein": "166202044", "name": "WM DUNNE TRUST FBO CHENANGO MEMORIAL HOSPITAL 07601-60-2 NATIO", "city": "NORWICH", "state": "NY", "zip": "13815-1646", "ntee": "", "ruling": "197602", "deductibility": "1", "assets": 0, "income": 0, "revenue": 0}], "SHIPMAN": [{"ein": "141794204", "name": "THOMAS SHIPMAN SR MEMORIAL YOUTH CENTER INC", "city": "LAKE PLACID", "state": "NY", "zip": "12946-5122", "ntee": "N31", "ruling": "199702", "deductibility": "1", "assets": 361578, "income": 160477, "revenue": 97824}], "ACCESSCNY": [{"ein": "150532247", "name": "ACCESSCNY INC", "city": "SYRACUSE", "state": "NY", "zip": "13208-1834", "ntee": "G23Z", "ruling": "195106", "deductibility": "1", "assets": 30268609, "income": 53620788, "revenue": 53068203}], "APREN": [{"ein": "160956568", "name": "INTERNATIONAL BROTHERHOOD OF ELEC WKRS LOCAL 325 JNT APREN & TRAN TR", "city": "BINGHAMTON", "state": "NY", "zip": "13904-3213", "ntee": "", "ruling": "196906", "deductibility": "1", "assets": 2427858, "income": 593079, "revenue": 593079}], "MCLEAN": [{"ein": "161026270", "name": "MCLEAN COMMUNITY CHURCH UCC", "city": "MCLEAN", "state": "NY", "zip": "13102-0246", "ntee": "", "ruling": "197703", "deductibility": "1", "assets": 0, "income": 0, "revenue": 0}, {"ein": "811338201", "name": "YONKERS ST PATRICKS PARADE ON MCLEAN AVENUE INC", "city": "YONKERS", "state": "NY", "zip": "10703-1921", "ntee": "A84", "ruling": "201902", "deductibility": "1", "assets": 63819, "income": 112321, "revenue": 112321}, {"ein": "921201803", "name": "MCLEAN FIRE DEPARTMENT", "city": "MCLEAN", "state": "NY", "zip": "13102-0121", "ntee": "M24", "ruling": "202311", "deductibility": "1", "assets": 0, "income": 0, "revenue": 0}], "HASKINVILLE": [{"ein": "161085058", "name": "HASKINVILLE WESLEYAN CHURCH", "city": "COHOCTON", "state": "NY", "zip": "14826-9779", "ntee": "", "ruling": "197005", "deductibility": "1", "assets": 0, "income": 0, "revenue": 0}], "MORNINSIDE": [{"ein": "161160171", "name": "OAKWOOD MORNINSIDE CEMETERY OF SYRACUSE INC", "city": "SYRACUSE", "state": "NY", "zip": "13210-2812", "ntee": "", "ruling": "197706", "deductibility": "1", "assets": 8891865, "income": 2889989, "revenue": 2069451}], "BUYERS": [{"ein": "161428487", "name": "MARJORIE AND JOHN BUYERS FOUNDATION INC", "city": "ORCHARD PARK", "state": "NY", "zip": "14127-2501", "ntee": "", "ruling": "199311", "deductibility": "1", "assets": 1224762, "income": 225356, "revenue": 0}, {"ein": "205377268", "name": "BUYERS AND RENTERS UNITED TO SAVE HARLEM INC", "city": "NEW YORK", "state": "NY", "zip": "10031-3133", "ntee": "I51", "ruling": "200707", "deductibility": "1", "assets": 0, "income": 0, "revenue": 0}, {"ein": "923544219", "name": "SUSTAINABLE BUYERS GUIDE INC", "city": "NEW YORK", "state": "NY", "zip": "10128-5293", "ntee": "K20", "ruling": "202402", "deductibility": "1", "assets": 0, "income": 0, "revenue": 0}], "BAHAIA": [{"ein": "161439262", "name": "BAHAIA OF SYRACUSE", "city": "SYRACUSE", "state": "NY", "zip": "13207-1906", "ntee": "", "ruling": "199505", "deductibility": "1", "assets": 0, "income": 0, "revenue": 0}], "IRONWORKER": [{"ein": "161490395", "name": "UPSTATE IRONWORKER EMPLOYERS ASSOCIATION INC", "city": "CHEEKTOWAGA", "state": "NY", "zip": "14227-1816", "ntee": "", "ruling": "199705", "deductibility": "2", "assets": 1450917, "income": 746025, "revenue": 80703}], "MAGICAL": [{"ein": "161577390", "name": "A MAGICAL JOURNEY THRU STAGES INC", "city": "ROCHESTER", "state": "NY", "zip": "14605-2747", "ntee": "A61", "ruling": "201410", "deductibility": "1", "assets": 174903, "income": 467104, "revenue": 466527}, {"ein": "432107211", "name": "MAGICAL ORCHESTRA INC", "city": "ROCKY POINT", "state": "NY", "zip": "11778-0320", "ntee": "A6C", "ruling": "201308", "deductibility": "1", "assets": 2601, "income": 251, "revenue": 251}, {"ein": "923785325", "name": "MAGICAL URBANISTS INC", "city": "BROOKLYN", "state": "NY", "zip": "11206-3801", "ntee": "A20", "ruling": "202403", "deductibility": "1", "assets": 0, "income": 0, "revenue": 0}, {"ein": "934277486", "name": "MAGICAL MUSICAL SQUAD ADVISORY BOARD", "city": "SYRACUSE", "state": "NY", "zip": "13210-1736", "ntee": "A60", "ruling": "202312", "deductibility": "1", "assets": 0, "income": 0, "revenue": 0}, {"ein": "992022131", "name": "CHILDRENS MAGICAL GARDEN LAND INC", "city": "NEW YORK", "state": "NY", "zip": "10002-3481", "ntee": "S20", "ruling": "202410", "deductibility": "1", "assets": 0, "income": 0, "revenue": 0}], "ANDALORA": [{"ein": "161584128", "name": "DR WILLIAM S ANDALORA MEDICAL SCHOLARSHIP CORP", "city": "MUMFORD", "state": "NY", "zip": "14511-0195", "ntee": "B82", "ruling": "200006", "deductibility": "1", "assets": 57497, "income": 5105, "revenue": 0}], "DOWNRIVER": [{"ein": "166092800", "name": "VETERANS OF FOREIGN WARS 7487 USA NY DOWNRIVER", "city": "LEWISTON", "state": "NY", "zip": "14092-8164", "ntee": "", "ruling": "197210", "deductibility": "1", "assets": 0, "income": 0, "revenue": 0}], "KEHILA": [{"ein": "202755665", "name": "KEHILA KEDOSHA JANINA PRESERVATION AND CULTURAL FUND INC", "city": "NEW YORK", "state": "NY", "zip": "10002-3702", "ntee": "X11", "ruling": "200605", "deductibility": "1", "assets": 0, "income": 0, "revenue": 0}, {"ein": "651185831", "name": "KEHILA ASHKENAZ INC", "city": "LAWRENCE", "state": "NY", "zip": "11559-1911", "ntee": "X30", "ruling": "200401", "deductibility": "1", "assets": 0, "income": 0, "revenue": 0}], "TENRI": [{"ein": "203507927", "name": "ARTS AT TENRI CULTURAL INSTITUTE", "city": "NEW YORK", "state": "NY", "zip": "10011-0000", "ntee": "P20", "ruling": "201505", "deductibility": "1", "assets": 0, "income": 0, "revenue": 0}], "HAPPEN": [{"ein": "206740756", "name": "MAKE GREAT THINGS HAPPEN FOUNDATION", "city": "CLIFTON PARK", "state": "NY", "zip": "12065-2314", "ntee": "T20", "ruling": "200601", "deductibility": "1", "assets": 142273, "income": 27390, "revenue": 0}, {"ein": "383804669", "name": "IT COULD HAPPEN TO YOU INC", "city": "WEBSTER", "state": "NY", "zip": "14580-2102", "ntee": "I80", "ruling": "201006", "deductibility": "1", "assets": 1, "income": 14793, "revenue": 14793}, {"ein": "473431760", "name": "ANYTHING YOU THINK CAN HAPPEN INC", "city": "NEW YORK", "state": "NY", "zip": "10116-0548", "ntee": "O01", "ruling": "201503", "deductibility": "1", "assets": 0, "income": 0, "revenue": 0}, {"ein": "854140122", "name": "LETS MAKE IT HAPPEN NY INC", "city": "BROOKLYN", "state": "NY", "zip": "11213-4505", "ntee": "T22", "ruling": "202104", "deductibility": "1", "assets": 322269, "income": 367025, "revenue": 0}], "IVAN": [{"ein": "208097145", "name": "IVAN CIMENT FOUNDATION", "city": "NEW YORK", "state": "NY", "zip": "10023-8217", "ntee": "T22", "ruling": "200709", "deductibility": "1", "assets": 1020523, "income": 297443, "revenue": 0}, {"ein": "332204325", "name": "IVAN FOUNDATION INC", "city": "NEW YORK", "state": "NY", "zip": "10003-7937", "ntee": "T22", "ruling": "202502", "deductibility": "1", "assets": 0, "income": 0, "revenue": 0}, {"ein": "521891582", "name": "NINA AND IVAN SELIN FAMILY FOUNDATION INC", "city": "NEW YORK", "state": "NY", "zip": "10055-0023", "ntee": "", "ruling": "199412", "deductibility": "1", "assets": 6609, "income": 130587, "revenue": 0}, {"ein": "814731292", "name": "RUNVIRA EDUCATIONAL SOCIETY IN THE NAME OF IVAN HRYHOROVYCH LOZOWY LI", "city": "NEW YORK", "state": "NY", "zip": "10009-5715", "ntee": "T22", "ruling": "201704", "deductibility": "1", "assets": 1, "income": 1, "revenue": 0}, {"ein": "934061613", "name": "IVAN AND GAYLE DOLOWICH FAMILY FOUNDATION INC", "city": "BROOKVILLE", "state": "NY", "zip": "11545-3320", "ntee": "T20", "ruling": "202403", "deductibility": "1", "assets": 32922, "income": 110605, "revenue": 0}], "BIXBY": [{"ein": "222171725", "name": "MID WEST EVANGELISTIC ASSOCIATION INC C O ELIZABETH BIXBY", "city": "JAMESTOWN", "state": "NY", "zip": "14701-7052", "ntee": "", "ruling": "197709", "deductibility": "1", "assets": 0, "income": 0, "revenue": 0}], "CHOPPERS": [{"ein": "222341421", "name": "PRICE CHOPPERS GOLUB FOUNDATION", "city": "SCHENECTADY", "state": "NY", "zip": "12308-1812", "ntee": "", "ruling": "198103", "deductibility": "1", "assets": 401038, "income": 400000, "revenue": 0}], "NABOKOV": [{"ein": "223458181", "name": "VLADIMIR NABOKOV LITERARY FOUNDATION INC", "city": "NEW YORK", "state": "NY", "zip": "10107-2199", "ntee": "T90Z", "ruling": "199806", "deductibility": "1", "assets": 5822426, "income": 1094625, "revenue": 0}, {"ein": "431926832", "name": "INTERNATIONAL VLADIMIR NABOKOV SOCIETY", "city": "RED HOOK", "state": "NY", "zip": "12571-0354", "ntee": "A33", "ruling": "201210", "deductibility": "1", "assets": 0, "income": 0, "revenue": 0}], "RADBELL": [{"ein": "226887924", "name": "CHARNA RADBELL PRIVATE FOUNDATION", "city": "LAWRENCE", "state": "NY", "zip": "11559-1908", "ntee": "T20", "ruling": "200205", "deductibility": "1", "assets": 1582402, "income": 497384, "revenue": 0}], "NODA": [{"ein": "237240845", "name": "NODA B YEHUDA-MERKAL TEL NOF", "city": "BROOKLYN", "state": "NY", "zip": "11224-1343", "ntee": "", "ruling": "197304", "deductibility": "1", "assets": 0, "income": 0, "revenue": 0}], "MANNELLI": [{"ein": "260439786", "name": "JOANN MANNELLI FUND INC", "city": "PATCHOGUE", "state": "NY", "zip": "11772-4034", "ntee": "P12", "ruling": "200808", "deductibility": "1", "assets": 0, "income": 0, "revenue": 0}], "BDH": [{"ein": "260479488", "name": "BDH FOUNDATION", "city": "SUFFERN", "state": "NY", "zip": "10901-2706", "ntee": "T20", "ruling": "200801", "deductibility": "1", "assets": 2134674, "income": 684562, "revenue": 0}], "SCHWARTZBERG": [{"ein": "262415050", "name": "STEVEN SCHWARTZBERG FOUNDATION INC", "city": "IRVINGTON", "state": "NY", "zip": "10533-1594", "ntee": "T22", "ruling": "200809", "deductibility": "1", "assets": 210412, "income": 429235, "revenue": 0}], "THIS": [{"ein": "262514228", "name": "IN THIS LIFE INC", "city": "JAMAICA", "state": "NY", "zip": "11436-1419", "ntee": "T30", "ruling": "201505", "deductibility": "1", "assets": 0, "income": 0, "revenue": 0}, {"ein": "352519096", "name": "TAKE THIS PHONE AND GLOVE IT INC", "city": "ROSLYN", "state": "NY", "zip": "11576-2208", "ntee": "T50", "ruling": "201412", "deductibility": "1", "assets": 0, "income": 0, "revenue": 0}, {"ein": "452752227", "name": "BORN THIS WAY FOUNDATION", "city": "NEW YORK", "state": "NY", "zip": "10016-7701", "ntee": "T30", "ruling": "201108", "deductibility": "1", "assets": 9611826, "income": 9582289, "revenue": 7129796}, {"ein": "453746977", "name": "UPON THIS ROCK ANOINTED OUTREACH MINISTRIES", "city": "BROOKLYN", "state": "NY", "zip": "11203-3610", "ntee": "X21", "ruling": "201408", "deductibility": "1", "assets": 0, "income": 0, "revenue": 0}, {"ein": "464354320", "name": "THIS ABILITY NOT DISABILITY INC", "city": "NEW YORK", "state": "NY", "zip": "10008-2217", "ntee": "G01", "ruling": "201410", "deductibility": "1", "assets": 0, "income": 0, "revenue": 0}, {"ein": "550815699", "name": "UPON THIS ROCK MINISTRIES INC", "city": "MOUNT VERNON", "state": "NY", "zip": "10553-1402", "ntee": "X20", "ruling": "201412", "deductibility": "1", "assets": 195912, "income": 139417, "revenue": 139417}, {"ein": "810810470", "name": "MEDITATE AND CONTEMPLATE ON THIS INC", "city": "STATEN ISLAND", "state": "NY", "zip": "10305-1252", "ntee": "X99", "ruling": "201512", "deductibility": "1", "assets": 0, "income": 0, "revenue": 0}, {"ein": "814728273", "name": "ON THIS JOURNE INC", "city": "JAMAICA", "state": "NY", "zip": "11434-3119", "ntee": "P01", "ruling": "201706", "deductibility": "1", "assets": 0, "income": 0, "revenue": 0}, {"ein": "834544060", "name": "EYE GOT THIS INC", "city": "LIVERPOOL", "state": "NY", "zip": "13090-3438", "ntee": "N01", "ruling": "201905", "deductibility": "1", "assets": 0, "income": 0, "revenue": 0}, {"ein": "850964625", "name": "ART AT A TIME LIKE THIS INC", "city": "NEW YORK", "state": "NY", "zip": "10014-4056", "ntee": "A40", "ruling": "202005", "deductibility": "1", "assets": 18436, "income": 74150, "revenue": 74150}, {"ein": "852644518", "name": "THIS LAND IS OURS CLT INC", "city": "NEW YORK", "state": "NY", "zip": "10003-8963", "ntee": "L25", "ruling": "202010", "deductibility": "1", "assets": 0, "income": 0, "revenue": 0}, {"ein": "853644460", "name": "IMAGINE THIS WOMENS FILM FESTIVAL INC", "city": "MONROE", "state": "NY", "zip": "10950-4211", "ntee": "", "ruling": "202102", "deductibility": "1", "assets": 0, "income": 0, "revenue": 0}, {"ein": "862293582", "name": "I RUN THIS ISLAND FOUNDATION", "city": "BALDWIN", "state": "NY", "zip": "11510-3032", "ntee": "T99", "ruling": "202409", "deductibility": "1", "assets": 1, "income": 255562, "revenue": 255562}, {"ein": "871202836", "name": "ON THIS SPOT NYC INC", "city": "NEW YORK", "state": "NY", "zip": "10024-1541", "ntee": "A25", "ruling": "202201", "deductibility": "1", "assets": 6925, "income": 151083, "revenue": 151083}, {"ein": "884111242", "name": "WARCRY FOR THIS GENERATION INC", "city": "CAMBRIA HTS", "state": "NY", "zip": "11411-1227", "ntee": "B60", "ruling": "202310", "deductibility": "1", "assets": 0, "income": 0, "revenue": 0}], "HIRONDELLE": [{"ein": "263635953", "name": "HIRONDELLE US LTD", "city": "NEW YORK", "state": "NY", "zip": "10007-1113", "ntee": "Q40", "ruling": "200904", "deductibility": "1", "assets": 0, "income": 0, "revenue": 0}], "CHU": [{"ein": "266762017", "name": "RUTH MULAN CHU CHAO FOUNDATION", "city": "NEW YORK", "state": "NY", "zip": "10020-1605", "ntee": "T20", "ruling": "200903", "deductibility": "1", "assets": 85155, "income": 524769, "revenue": 0}, {"ein": "271680918", "name": "BRONXVILLE COMMUNTIY CHU", "city": "BRONXVILLE", "state": "NY", "zip": "10708-4129", "ntee": "", "ruling": "197204", "deductibility": "1", "assets": 0, "income": 0, "revenue": 0}, {"ein": "453823314", "name": "CITY OF GOD INTERNATIONAL COUNCIL OF CHURCHES NEW JERUSALEM HOLY CHU", "city": "BROOKLYN", "state": "NY", "zip": "11208-3567", "ntee": "X20", "ruling": "201207", "deductibility": "1", "assets": 0, "income": 0, "revenue": 0}, {"ein": "810894741", "name": "CHU FAMILY FOUNDATION", "city": "NEW YORK", "state": "NY", "zip": "10022-0000", "ntee": "T20", "ruling": "201607", "deductibility": "1", "assets": 22008421, "income": 5148234, "revenue": 0}, {"ein": "844503111", "name": "SAINT ANDREW MALANKARA ORTHODOX CHU RCH", "city": "ALBERTSON", "state": "NY", "zip": "11507-0052", "ntee": "X20", "ruling": "202006", "deductibility": "1", "assets": 0, "income": 0, "revenue": 0}, {"ein": "876456025", "name": "CHINH E CHU CHARITABLE TR", "city": "ALBANY", "state": "NY", "zip": "12203-3710", "ntee": "T22", "ruling": "202311", "deductibility": "1", "assets": 101445, "income": 4850, "revenue": 0}, {"ein": "934791249", "name": "BETHEL OF GRACE GOSPEL CHURCH CHERUBIM AND SERAPHIM MOVEMENT CHU", "city": "FAR ROCKAWAY", "state": "NY", "zip": "11691-1304", "ntee": "X20", "ruling": "202406", "deductibility": "1", "assets": 0, "income": 0, "revenue": 0}, {"ein": "946526906", "name": "CECIL J S MACLAUGHLIN TRUST FBO RUTH CHU BANK OF AMERICA TTEE", "city": "AMHERST", "state": "NY", "zip": "14228-2307", "ntee": "", "ruling": "198201", "deductibility": "1", "assets": 3761456, "income": 811191, "revenue": 126071}], "MMT": [{"ein": "272419518", "name": "TEAM MMT", "city": "NEW YORK", "state": "NY", "zip": "10024-2835", "ntee": "T12", "ruling": "201409", "deductibility": "1", "assets": 0, "income": 0, "revenue": 0}], "NANA": [{"ein": "273595054", "name": "NISHTAR ALUMNI OF NORTH AMERICA - NANA", "city": "HORSEHEADS", "state": "NY", "zip": "14845-2283", "ntee": "T99", "ruling": "201211", "deductibility": "1", "assets": 481648, "income": 348317, "revenue": 348317}, {"ein": "453451248", "name": "NANA ANNA FOUNDATION MEALS TILL THE CURE", "city": "ADAMS", "state": "NY", "zip": "13605-2137", "ntee": "G11", "ruling": "201208", "deductibility": "1", "assets": 0, "income": 0, "revenue": 0}, {"ein": "823113740", "name": "KING NANA ANDRE FLAUBERT FOUNDATION", "city": "BRONX", "state": "NY", "zip": "10459-3398", "ntee": "A23", "ruling": "202412", "deductibility": "1", "assets": 0, "income": 0, "revenue": 0}, {"ein": "993536263", "name": "NANA ROLLES HOUSE", "city": "BROOKLYN", "state": "NY", "zip": "11221-3117", "ntee": "P20", "ruling": "202406", "deductibility": "1", "assets": 0, "income": 0, "revenue": 0}], "TURK": [{"ein": "311575443", "name": "NATHAN AND RACHEL TURK MEMORIAL FOUNDATION INC", "city": "BROOKLYN", "state": "NY", "zip": "11210-4631", "ntee": "T22Z", "ruling": "199801", "deductibility": "1", "assets": 41760, "income": 14388, "revenue": 0}], "GRIT": [{"ein": "331405549", "name": "GRIT FOUNDATION", "city": "NEW YORK", "state": "NY", "zip": "10022-4867", "ntee": "J22", "ruling": "202506", "deductibility": "1", "assets": 0, "income": 0, "revenue": 0}, {"ein": "332943885", "name": "GRIT AUTISM FOUNDATION INC", "city": "PORT JEFF STA", "state": "NY", "zip": "11776-1214", "ntee": "P20", "ruling": "202501", "deductibility": "1", "assets": 0, "income": 0, "revenue": 0}, {"ein": "815408102", "name": "NEW YORK GRIT INC", "city": "BROOKLYN", "state": "NY", "zip": "11234-6806", "ntee": "B80", "ruling": "201703", "deductibility": "1", "assets": 428233, "income": 156759, "revenue": 129399}], "TAKING": [{"ein": "332215441", "name": "T R U C 3 TAKING RESPONSIBILITY & UNITING COMMUNITIES THRU 3DUCATION", "city": "MOUNT VERNON", "state": "NY", "zip": "10550-4623", "ntee": "B90", "ruling": "202502", "deductibility": "1", "assets": 0, "income": 0, "revenue": 0}, {"ein": "454587177", "name": "LEWIS COUNTY TAKING CARE OF OUR OWN", "city": "LYONS FALLS", "state": "NY", "zip": "13368-1919", "ntee": "P60", "ruling": "201408", "deductibility": "1", "assets": 18457, "income": 25984, "revenue": 25984}, {"ein": "461744694", "name": "PROJECT EYESIGHT - TAKING EYECARE TO THE STREETS INC", "city": "GARDEN CITY", "state": "NY", "zip": "11530-4843", "ntee": "G12", "ruling": "201305", "deductibility": "1", "assets": 97279, "income": 97279, "revenue": 97279}, {"ein": "800312433", "name": "TAKING IT TO THE STREETS MINISTRIES INC", "city": "BUFFALO", "state": "NY", "zip": "14212-0284", "ntee": "P99", "ruling": "201302", "deductibility": "1", "assets": 0, "income": 0, "revenue": 0}, {"ein": "811532192", "name": "TAKING IT TO THE STREETS FHWD", "city": "GLENHAM", "state": "NY", "zip": "12527-0242", "ntee": "P60", "ruling": "202202", "deductibility": "1", "assets": 0, "income": 0, "revenue": 0}, {"ein": "881738622", "name": "TAKING BACK OUR RIGHTS FREEDOMS AND LIBERTIES INC", "city": "LEWISTON", "state": "NY", "zip": "14092-7009", "ntee": "W01", "ruling": "202206", "deductibility": "1", "assets": 220786, "income": 67000, "revenue": 67000}], "TESTIMONIES": [{"ein": "332226552", "name": "TESTIMONIES OVER TEA MINISTRIES INC", "city": "WOLCOTT", "state": "NY", "zip": "14590-1218", "ntee": "X20", "ruling": "202412", "deductibility": "1", "assets": 0, "income": 0, "revenue": 0}], "BENDECIR": [{"ein": "333465309", "name": "BENDECIDOS PARA BENDECIR", "city": "EAST MEADOW", "state": "NY", "zip": "11554-1521", "ntee": "O55", "ruling": "202502", "deductibility": "1", "assets": 0, "income": 0, "revenue": 0}], "WHIFF": [{"ein": "334335396", "name": "WHIFF OF WISDOM INC", "city": "GREAT NECK", "state": "NY", "zip": "11021-1139", "ntee": "B05", "ruling": "202505", "deductibility": "1", "assets": 0, "income": 0, "revenue": 0}], "RAMONE": [{"ein": "341995962", "name": "JOEY RAMONE FOUNDATION FOR LYMPHOMA RESEARCH INC", "city": "GREAT NECK", "state": "NY", "zip": "11021-5115", "ntee": "G123", "ruling": "200604", "deductibility": "1", "assets": 0, "income": 0, "revenue": 0}], "SCHAFFNER": [{"ein": "383652881", "name": "SCHAFFNER FAMILY FOUNDATION", "city": "NEW YORK", "state": "NY", "zip": "10001-7326", "ntee": "T20", "ruling": "200209", "deductibility": "1", "assets": 1518369, "income": 679890, "revenue": 0}], "SANGER": [{"ein": "411859638", "name": "SANGER FAMILY FOUNDATION", "city": "SARATOGA SPGS", "state": "NY", "zip": "12866-2386", "ntee": "T20Z", "ruling": "199705", "deductibility": "1", "assets": 61752634, "income": 11546799, "revenue": 0}], "KIMBERLEY": [{"ein": "412077173", "name": "US KIMBERLEY PROCESS AUTHORITY INSTITUTE", "city": "NEW YORK", "state": "NY", "zip": "10128-0021", "ntee": "S41", "ruling": "200503", "deductibility": "2", "assets": 93658, "income": 25695, "revenue": 25695}], "BELIZEAN": [{"ein": "452657210", "name": "BELIZEAN AMERICAN CARIBBEAN FOOTBALL ASSOCIATION INC", "city": "BRONX", "state": "NY", "zip": "10473-3023", "ntee": "I20", "ruling": "202112", "deductibility": "1", "assets": 0, "income": 0, "revenue": 0}, {"ein": "873010811", "name": "DI BELIZEAN BUNCH", "city": "BROOKLYN", "state": "NY", "zip": "11213-1321", "ntee": "A01", "ruling": "202203", "deductibility": "1", "assets": 0, "income": 0, "revenue": 0}], "SAB": [{"ein": "453563771", "name": "SAB FOUNDATION INC", "city": "JAMAICA", "state": "NY", "zip": "11434-3909", "ntee": "", "ruling": "202405", "deductibility": "1", "assets": 0, "income": 0, "revenue": 0}], "DYLAN": [{"ein": "453642887", "name": "DYLAN FOUNDATION", "city": "STATEN ISLAND", "state": "NY", "zip": "10304-1210", "ntee": "P99", "ruling": "201406", "deductibility": "1", "assets": 26338, "income": 91088, "revenue": 0}, {"ein": "853285191", "name": "DYLAN OLIVIA MEMORIAL FUND INC", "city": "SCARSDALE", "state": "NY", "zip": "10583-3140", "ntee": "B82", "ruling": "202104", "deductibility": "1", "assets": 145154, "income": 86460, "revenue": 86460}, {"ein": "920712174", "name": "DYLAN NEWMAN FOREVER 5 FOUNDATION INC", "city": "SOUTHOLD", "state": "NY", "zip": "11971-3381", "ntee": "G12", "ruling": "202211", "deductibility": "1", "assets": 111811, "income": 140659, "revenue": 140659}], "AVIHEM": [{"ein": "453783824", "name": "AVIHEM INC", "city": "BROOKLYN", "state": "NY", "zip": "11219-4490", "ntee": "P12", "ruling": "201206", "deductibility": "1", "assets": 116656, "income": 1432436, "revenue": 1432436}], "4LYFE": [{"ein": "453968447", "name": "MTD 4LYFE", "city": "KINGSTON", "state": "NY", "zip": "12401-7208", "ntee": "E12", "ruling": "201202", "deductibility": "1", "assets": 0, "income": 0, "revenue": 0}], "ANEURYSM": [{"ein": "454041229", "name": "CENTRAL NEW YORK BRAIN ANEURYSM AWARENESS CAMPAIGN", "city": "EAST SYRACUSE", "state": "NY", "zip": "13057-2132", "ntee": "H96", "ruling": "201709", "deductibility": "1", "assets": 0, "income": 0, "revenue": 0}], "PROPHET": [{"ein": "454760183", "name": "WEEPING PROPHET MINISTRIES INC", "city": "BROOKLYN", "state": "NY", "zip": "11208-3123", "ntee": "X20", "ruling": "201307", "deductibility": "1", "assets": 0, "income": 0, "revenue": 0}, {"ein": "881726295", "name": "PROPHET PREMPEH MINISTRIES INC", "city": "BRONX", "state": "NY", "zip": "10456-5377", "ntee": "", "ruling": "196402", "deductibility": "0", "assets": 0, "income": 0, "revenue": 0}], "PANTS": [{"ein": "454864364", "name": "WET PANTS SAILING ASSOCIATION INC", "city": "SAYVILLE", "state": "NY", "zip": "11782-3205", "ntee": "N50", "ruling": "201402", "deductibility": "2", "assets": 88805, "income": 100881, "revenue": 98925}], "FOUTIYOU": [{"ein": "455008546", "name": "CHEIKH OUMAR FOUTIYOU FOUNDATION IN AMERICA", "city": "NEW YORK", "state": "NY", "zip": "10027-4285", "ntee": "X40", "ruling": "201504", "deductibility": "1", "assets": 0, "income": 0, "revenue": 0}], "HORNED": [{"ein": "455118937", "name": "HORNED DORSET COLONY FOUNDATION INC", "city": "LEONARDSVILLE", "state": "NY", "zip": "13364-0182", "ntee": "A12", "ruling": "201307", "deductibility": "1", "assets": 1196035, "income": 68997, "revenue": 0}], "EIBSHUTZ": [{"ein": "461416574", "name": "EIBSHUTZ LAZARUS CHARITABLE FOUNDATION INC", "city": "NEW YORK", "state": "NY", "zip": "10028-0418", "ntee": "T22", "ruling": "201307", "deductibility": "1", "assets": 115558, "income": 5419, "revenue": 0}, {"ein": "461424131", "name": "THE EIBSHUTZ-RAPHAN FOUNDATION", "city": "NEW YORK", "state": "NY", "zip": "10119-0000", "ntee": "T22", "ruling": "201307", "deductibility": "1", "assets": 4266093, "income": 1766199, "revenue": 0}], "GLAM4GOOD": [{"ein": "462284247", "name": "GLAM4GOOD FOUNDATION", "city": "DOBBS FERRY", "state": "NY", "zip": "10522-1617", "ntee": "T30", "ruling": "201603", "deductibility": "1", "assets": 2644436, "income": 1078972, "revenue": 1078972}], "TAYTRAIN": [{"ein": "462768027", "name": "HART & TAYTRAIN FOUNDATION INC", "city": "CLAY", "state": "NY", "zip": "13041-9123", "ntee": "N01", "ruling": "201603", "deductibility": "1", "assets": 0, "income": 0, "revenue": 0}], "5K": [{"ein": "463192511", "name": "BEST DAM 5K", "city": "DOWNSVILLE", "state": "NY", "zip": "13755-3623", "ntee": "N12", "ruling": "201411", "deductibility": "1", "assets": 0, "income": 0, "revenue": 0}, {"ein": "465279275", "name": "VAISAKHI 5K INC", "city": "JAMAICA", "state": "NY", "zip": "11432-0000", "ntee": "N99", "ruling": "201603", "deductibility": "1", "assets": 2887, "income": 33, "revenue": 33}, {"ein": "813198946", "name": "EASTCHESTER 5K", "city": "EASTCHESTER", "state": "NY", "zip": "10709-2014", "ntee": "N12", "ruling": "201607", "deductibility": "1", "assets": 0, "income": 0, "revenue": 0}, {"ein": "880545760", "name": "RITZKIDS CRUSH CANCER 5K", "city": "OSWEGO", "state": "NY", "zip": "13126-1032", "ntee": "N70", "ruling": "202302", "deductibility": "1", "assets": 0, "income": 0, "revenue": 0}, {"ein": "923923527", "name": "SUPPORT OUR TROOPS 5K CHARITY INC", "city": "STATEN ISLAND", "state": "NY", "zip": "10312-3511", "ntee": "T12", "ruling": "202308", "deductibility": "1", "assets": 13014, "income": 17996, "revenue": 17996}], "SINGSTRONG": [{"ein": "464038340", "name": "SINGSTRONG INC", "city": "NEW YORK", "state": "NY", "zip": "10036-6230", "ntee": "A6B", "ruling": "201511", "deductibility": "1", "assets": 291574, "income": 46890, "revenue": 46890}], "ACTASIA": [{"ein": "464200560", "name": "ACTASIA INC", "city": "BREWSTER", "state": "NY", "zip": "10509-4020", "ntee": "D20", "ruling": "201410", "deductibility": "1", "assets": 116298, "income": 264099, "revenue": 264099}], "JAIME": [{"ein": "464331623", "name": "JOHN AND JAIME NEARY FAMILY FOUNDATION INC", "city": "NEW YORK", "state": "NY", "zip": "10028-8005", "ntee": "T99", "ruling": "201407", "deductibility": "1", "assets": 664732, "income": 319201, "revenue": 0}, {"ein": "932969056", "name": "JAIME HAWKINS GEORGE FOUNDATION INC", "city": "NEW HARTFORD", "state": "NY", "zip": "13413-5913", "ntee": "F01", "ruling": "202309", "deductibility": "1", "assets": 60502, "income": 71945, "revenue": 52188}], "HAKOTEL": [{"ein": "464818077", "name": "YESHIVAT HAKOTEL ALUMNI ASSOCIATION", "city": "WOODMERE", "state": "NY", "zip": "11598-1519", "ntee": "B84", "ruling": "201407", "deductibility": "1", "assets": 0, "income": 0, "revenue": 0}, {"ein": "824684974", "name": "SHOMREI HAKOTEL - THE JEWISH HERITAGE PRESERVATION SOCIETY INC", "city": "INWOOD", "state": "NY", "zip": "11096-1216", "ntee": "X30", "ruling": "201903", "deductibility": "1", "assets": 151, "income": 97443, "revenue": 97443}], "KESEF": [{"ein": "471117145", "name": "IKT IM KESEF TALVE", "city": "SPRING VALLEY", "state": "NY", "zip": "10977-6611", "ntee": "W60", "ruling": "201408", "deductibility": "1", "assets": 0, "income": 0, "revenue": 0}], "LEISLER": [{"ein": "471950810", "name": "JACOB LEISLER INSTITUTE FOR THE STUDY OF EARLY NEW YORK HISTORY IN", "city": "HUDSON", "state": "NY", "zip": "12534-0086", "ntee": "A80", "ruling": "201504", "deductibility": "1", "assets": 74606, "income": 75766, "revenue": 75766}], "WORKINGS": [{"ein": "472042832", "name": "FIRST WORKINGS INC", "city": "NEW YORK", "state": "NY", "zip": "10010-5833", "ntee": "P20", "ruling": "201504", "deductibility": "1", "assets": 45981, "income": 341428, "revenue": 341428}], "DELUGE": [{"ein": "472170341", "name": "NEWARK VOLUNTEER FIREMENS ASSOCIATION OF DELUGE HOSE COMPANY", "city": "NEWARK", "state": "NY", "zip": "14513-1523", "ntee": "M24", "ruling": "201502", "deductibility": "1", "assets": 0, "income": 0, "revenue": 0}], "THRIFTY": [{"ein": "472229915", "name": "NIFTY THRIFTY SHOP LTD", "city": "FISHKILL", "state": "NY", "zip": "12524-3509", "ntee": "P29", "ruling": "202105", "deductibility": "1", "assets": 0, "income": 0, "revenue": 0}, {"ein": "882381674", "name": "THRIFTY & NIFTY INC", "city": "TUPPER LAKE", "state": "NY", "zip": "12986-1616", "ntee": "P29", "ruling": "202209", "deductibility": "1", "assets": 27328, "income": 88673, "revenue": 88673}], "EXAMPLE": [{"ein": "472765517", "name": "LEAD BY EXAMPLE AND REVERSE THE TREND", "city": "NEW YORK", "state": "NY", "zip": "10027-3811", "ntee": "O21", "ruling": "201508", "deductibility": "1", "assets": 172505, "income": 625000, "revenue": 625000}, {"ein": "922646964", "name": "WE LEAD BY EXAMPLE INC", "city": "PATCHOGUE", "state": "NY", "zip": "11772-1212", "ntee": "P20", "ruling": "202303", "deductibility": "1", "assets": 1, "income": 1, "revenue": 0}], "AARIZS": [{"ein": "473202441", "name": "AARIZS ANGELS FOUNDATION", "city": "BAY SHORE", "state": "NY", "zip": "11706-2835", "ntee": "E86", "ruling": "201601", "deductibility": "1", "assets": 0, "income": 0, "revenue": 0}], "THINKSTEAM": [{"ein": "474812212", "name": "THINKSTEAM INC", "city": "MOHEGAN LAKE", "state": "NY", "zip": "10547-1067", "ntee": "B80", "ruling": "201509", "deductibility": "1", "assets": 0, "income": 0, "revenue": 0}], "ROCKGOSPELTIME": [{"ein": "510180656", "name": "ROCKGOSPELTIME CHURCH INC", "city": "NEW YORK", "state": "NY", "zip": "10031-5302", "ntee": "", "ruling": "197602", "deductibility": "1", "assets": 0, "income": 0, "revenue": 0}], "OLNICK": [{"ein": "716221160", "name": "THE@SYLVIA OLNICK FOUNDATION", "city": "NEW YORK", "state": "NY", "zip": "10022-2134", "ntee": "T20", "ruling": "200501", "deductibility": "1", "assets": 4865028, "income": 234261, "revenue": 0}], "WACHUKU": [{"ein": "743110269", "name": "WACHUKU FOUNDATION FOR HUMANITARIAN AID INC", "city": "ROCHESTER", "state": "NY", "zip": "14608-1433", "ntee": "P99", "ruling": "201407", "deductibility": "1", "assets": 0, "income": 0, "revenue": 0}], "CAPTIVE": [{"ein": "753164838", "name": "WTC CAPTIVE INSURANCE CO INC", "city": "NEW YORK", "state": "NY", "zip": "10007-3751", "ntee": "Y20", "ruling": "200409", "deductibility": "2", "assets": 0, "income": 0, "revenue": 0}], "TERRAN": [{"ein": "760827225", "name": "TERRAN WARRIOR CHURCH", "city": "SAUGERTIES", "state": "NY", "zip": "12477-1055", "ntee": "X20", "ruling": "201503", "deductibility": "1", "assets": 0, "income": 0, "revenue": 0}], "ELYAHU": [{"ein": "811530913", "name": "LEV ELYAHU INC", "city": "NEW YORK", "state": "NY", "zip": "10001-3101", "ntee": "T23", "ruling": "201603", "deductibility": "1", "assets": 1716, "income": 478719, "revenue": 478719}], "PAWJECT": [{"ein": "811934816", "name": "ZERO STRAY PAWJECT", "city": "NEW YORK", "state": "NY", "zip": "10023-7498", "ntee": "D20", "ruling": "201603", "deductibility": "1", "assets": 276676, "income": 345956, "revenue": 345956}], "RKA": [{"ein": "812474087", "name": "RKA 141 PARENTS ASSOCIATION INC", "city": "BRONX", "state": "NY", "zip": "10463-1408", "ntee": "B94", "ruling": "201606", "deductibility": "1", "assets": 0, "income": 0, "revenue": 0}], "TFD": [{"ein": "812714183", "name": "TFD SOCCER LIMITED", "city": "BROOKLYN", "state": "NY", "zip": "11221-1310", "ntee": "O50", "ruling": "201607", "deductibility": "1", "assets": 39186, "income": 65524, "revenue": 65524}], "YUH": [{"ein": "820613556", "name": "WE GAT AH YUH BAC CORP", "city": "S RICHMOND HL", "state": "NY", "zip": "11419-1721", "ntee": "P99", "ruling": "202305", "deductibility": "1", "assets": 0, "income": 0, "revenue": 0}], "BALARAM": [{"ein": "820641369", "name": "BALARAM GROUP INC", "city": "STATEN ISLAND", "state": "NY", "zip": "10301-3459", "ntee": "X99", "ruling": "201707", "deductibility": "1", "assets": 0, "income": 0, "revenue": 0}], "KIBERA": [{"ein": "820660023", "name": "KINGS OF KIBERA INC", "city": "BROOKLYN", "state": "NY", "zip": "11237-6455", "ntee": "P30", "ruling": "201805", "deductibility": "1", "assets": 0, "income": 0, "revenue": 0}], "ADDO": [{"ein": "821469026", "name": "ADDO FOUNDATION INC", "city": "BROOKLYN", "state": "NY", "zip": "11225-5447", "ntee": "R24", "ruling": "201705", "deductibility": "1", "assets": 0, "income": 0, "revenue": 0}], "CONVERSATIONALIST": [{"ein": "824420562", "name": "THE CONVERSATIONALIST", "city": "NEW YORK", "state": "NY", "zip": "10011-1607", "ntee": "B05", "ruling": "201803", "deductibility": "1", "assets": 246068, "income": 1127410, "revenue": 0}], "DORILL": [{"ein": "824767340", "name": "DORILL INITIATIVE INC", "city": "NEW YORK", "state": "NY", "zip": "10002-3516", "ntee": "A20", "ruling": "201811", "deductibility": "1", "assets": 26, "income": 50828, "revenue": 50828}], "HACH": [{"ein": "824974201", "name": "MICHAEL J HACH FOUNDATION INC", "city": "OYSTER BAY", "state": "NY", "zip": "11771-4514", "ntee": "T90", "ruling": "202001", "deductibility": "1", "assets": 0, "income": 0, "revenue": 0}], "ADVOCAT": [{"ein": "832095878", "name": "ADVOCAT RESCUE INC", "city": "FOREST HILLS", "state": "NY", "zip": "11375-3178", "ntee": "D20", "ruling": "201811", "deductibility": "1", "assets": 265012, "income": 149941, "revenue": 149941}], "YREN": [{"ein": "834206919", "name": "YREN ARTS AND CULTURE SOCIETY INC", "city": "NEW YORK", "state": "NY", "zip": "10028-0957", "ntee": "A20", "ruling": "201904", "deductibility": "1", "assets": 0, "income": 0, "revenue": 0}], "PNAM": [{"ein": "843138177", "name": "CONGREGATION PNAM INC", "city": "POMONA", "state": "NY", "zip": "10970-2829", "ntee": "X30", "ruling": "202106", "deductibility": "1", "assets": 0, "income": 0, "revenue": 0}], "IBI": [{"ein": "844282620", "name": "IBI SEMPER TRAINING INC", "city": "NISKAYUNA", "state": "NY", "zip": "12309-1442", "ntee": "D60", "ruling": "202003", "deductibility": "1", "assets": 0, "income": 0, "revenue": 0}], "PROFAMIL": [{"ein": "850576988", "name": "FRIENDS OF PROFAMIL HAITI INC", "city": "BROOKLYN", "state": "NY", "zip": "11215-5900", "ntee": "Q11", "ruling": "202009", "deductibility": "1", "assets": 0, "income": 0, "revenue": 0}], "BROTHERSISTER": [{"ein": "851145017", "name": "RUSEAS BROTHERSISTER FOUNDATION INC", "city": "MT VERNON", "state": "NY", "zip": "10550-4623", "ntee": "B84", "ruling": "202007", "deductibility": "1", "assets": 0, "income": 0, "revenue": 0}], "PRECEDE": [{"ein": "851199264", "name": "PRECEDE FOUNDATION INC", "city": "RED HOOK", "state": "NY", "zip": "12571-2263", "ntee": "", "ruling": "202010", "deductibility": "1", "assets": 1047247, "income": 1388468, "revenue": 1388468}, {"ein": "863367209", "name": "PRECEDE CONSORTIUM INCORPORATED", "city": "RED HOOK", "state": "NY", "zip": "12571-0207", "ntee": "T22", "ruling": "202202", "deductibility": "1", "assets": 204662, "income": 1, "revenue": 0}], "INTOLERANCE": [{"ein": "861487741", "name": "FOUNDATION AGAINST INTOLERANCE & RACISM INC", "city": "NEW YORK", "state": "NY", "zip": "10001-5666", "ntee": "R20", "ruling": "202303", "deductibility": "1", "assets": 812769, "income": 1016255, "revenue": 1016255}, {"ein": "990381802", "name": "LEAGUE AGAINST RELIGIOUS INTOLERANCE INC", "city": "ALBANY", "state": "NY", "zip": "12204-1000", "ntee": "R01", "ruling": "201807", "deductibility": "1", "assets": 300, "income": 721, "revenue": 0}], "MINAIIS": [{"ein": "862905143", "name": "MINAIIS HOUSE INC", "city": "STATEN ISLAND", "state": "NY", "zip": "10303-2120", "ntee": "P30", "ruling": "202107", "deductibility": "1", "assets": 0, "income": 0, "revenue": 0}], "SICHA": [{"ein": "873099526", "name": "DAILY SICHA INC", "city": "BROOKLYN", "state": "NY", "zip": "11225-4627", "ntee": "X30", "ruling": "202112", "deductibility": "1", "assets": 0, "income": 0, "revenue": 0}], "BROOKSYS": [{"ein": "873348015", "name": "BROOKSYS MISSION LTD", "city": "BABYLON", "state": "NY", "zip": "11702-0000", "ntee": "M01", "ruling": "202201", "deductibility": "1", "assets": 51308, "income": 137095, "revenue": 117474}], "KAYLOR": [{"ein": "873619284", "name": "KAYLOR YETTO FAMILY FOUNDATION", "city": "ALBANY", "state": "NY", "zip": "12212-5201", "ntee": "T20", "ruling": "202203", "deductibility": "1", "assets": 4665278, "income": 742828, "revenue": 0}], "CIERA": [{"ein": "873723550", "name": "SUNFLOWERS FOR CIERA", "city": "AKRON", "state": "NY", "zip": "14001-0000", "ntee": "F60", "ruling": "202202", "deductibility": "1", "assets": 0, "income": 0, "revenue": 0}], "DISTRIBU": [{"ein": "874275837", "name": "NATIONAL ASSOCIATION OF AFRICAN AMERICAN CANNABIS GROWERS DISTRIBU", "city": "JAMAICA", "state": "NY", "zip": "11433-3918", "ntee": "O52", "ruling": "202207", "deductibility": "1", "assets": 0, "income": 0, "revenue": 0}], "DOO": [{"ein": "880551987", "name": "WHOOP DEE DOO", "city": "BROOKLYN", "state": "NY", "zip": "11205-3291", "ntee": "A20", "ruling": "202204", "deductibility": "1", "assets": 35231, "income": 162795, "revenue": 162795}], "YCHASKEL": [{"ein": "883974263", "name": "CONGREGATION MISHNAS YCHASKEL SHUL", "city": "BROOKLYN", "state": "NY", "zip": "11204-1767", "ntee": "X30", "ruling": "202303", "deductibility": "1", "assets": 0, "income": 0, "revenue": 0}], "AGODA": [{"ein": "884186822", "name": "AGODA ESL & CIVICS CENTER", "city": "STATEN ISLAND", "state": "NY", "zip": "10303-1751", "ntee": "B60", "ruling": "202401", "deductibility": "1", "assets": 0, "income": 0, "revenue": 0}], "INTERSECTIONS": [{"ein": "900458939", "name": "INTERSECTIONS INTERNATIONAL INITIATIVE INC", "city": "NEW YORK", "state": "NY", "zip": "10024-6801", "ntee": "B90", "ruling": "201003", "deductibility": "1", "assets": 0, "income": 0, "revenue": 0}, {"ein": "993334410", "name": "MUSIC INTERSECTIONS CORPORATION", "city": "LONG IS CITY", "state": "NY", "zip": "11101-0004", "ntee": "A20", "ruling": "202409", "deductibility": "1", "assets": 0, "income": 0, "revenue": 0}], "UNBREAKABLE": [{"ein": "921125678", "name": "UNBREAKABLE SPIRIT FOUNDATION INC", "city": "BROOKLYN", "state": "NY", "zip": "11214-4592", "ntee": "Q71", "ruling": "202407", "deductibility": "1", "assets": 2590, "income": 20314, "revenue": 20314}], "ETTEILLA": [{"ein": "922293542", "name": "ETTEILLA FOUNDATION INC", "city": "NEW YORK CITY", "state": "NY", "zip": "10016-5403", "ntee": "A99", "ruling": "202304", "deductibility": "1", "assets": 0, "income": 0, "revenue": 0}], "BALLANTYNE": [{"ein": "931628644", "name": "BALLANTYNE FOUNDATION INC", "city": "ROCKVILLE CTR", "state": "NY", "zip": "11570-3515", "ntee": "B90", "ruling": "202403", "deductibility": "1", "assets": 0, "income": 0, "revenue": 0}], "BURGH": [{"ein": "932322633", "name": "BURGH BASKETBALL ASSOCIATION LLC", "city": "TROY", "state": "NY", "zip": "12182-1028", "ntee": "N50", "ruling": "202406", "deductibility": "1", "assets": 0, "income": 0, "revenue": 0}], "MEZRIDCH": [{"ein": "932758748", "name": "CONGREGATION MEZRIDCH", "city": "BROOKLYN", "state": "NY", "zip": "11211-8149", "ntee": "X30", "ruling": "202405", "deductibility": "1", "assets": 0, "income": 0, "revenue": 0}], "LIFESAVERS": [{"ein": "933879455", "name": "LIVER LIFESAVERS INC", "city": "BROOKLYN", "state": "NY", "zip": "11204-1112", "ntee": "P20", "ruling": "202311", "deductibility": "1", "assets": 0, "income": 0, "revenue": 0}], "JDOVE": [{"ein": "990392646", "name": "JDOVE DANCE ACADEMY", "city": "BRONX", "state": "NY", "zip": "10458-5108", "ntee": "O50", "ruling": "202402", "deductibility": "1", "assets": 0, "income": 0, "revenue": 0}], "CLAYS": [{"ein": "990931489", "name": "CLAYS FOR HEROES", "city": "LOCKPORT", "state": "NY", "zip": "14094-7943", "ntee": "W12", "ruling": "202408", "deductibility": "1", "assets": 0, "income": 0, "revenue": 0}], "HEINLEIN": [{"ein": "991575235", "name": "PEARL HEINLEIN FOUNDATION INC", "city": "BRIGHTWATERS", "state": "NY", "zip": "11718-1613", "ntee": "T31", "ruling": "202404", "deductibility": "1", "assets": 0, "income": 0, "revenue": 0}], "CONTADORES": [{"ein": "991730358", "name": "FRENTE DE CONTADORES DOMINICANOS NY INC", "city": "BRONX", "state": "NY", "zip": "10456-7527", "ntee": "W03", "ruling": "202501", "deductibility": "1", "assets": 0, "income": 0, "revenue": 0}], "HINTON": [{"ein": "992334125", "name": "HINTON FAMILY FOUNDATION INC", "city": "NEW ROCHELLE", "state": "NY", "zip": "10804-4036", "ntee": "W99", "ruling": "202412", "deductibility": "1", "assets": 0, "income": 0, "revenue": 0}], "RANIORG": [{"ein": "992428889", "name": "RANIORG INC", "city": "NEW YORK", "state": "NY", "zip": "10282-0019", "ntee": "O50", "ruling": "202406", "deductibility": "1", "assets": 0, "income": 0, "revenue": 0}], "TALE": [{"ein": "992436575", "name": "WHALE TALE FOUNDATION INC", "city": "BELLMORE", "state": "NY", "zip": "11710-0990", "ntee": "B12", "ruling": "202409", "deductibility": "1", "assets": 0, "income": 0, "revenue": 0}], "CHINYC": [{"ein": "992448260", "name": "CHINYC INC", "city": "BROOKLYN", "state": "NY", "zip": "11226-4552", "ntee": "L24", "ruling": "202505", "deductibility": "1", "assets": 0, "income": 0, "revenue": 0}], "HAHESDER": [{"ein": "993878089", "name": "AMERICAN FRIENDS OF YESHIVAT HAHESDER YERUCHAM INC", "city": "CEDARHURST", "state": "NY", "zip": "11516-2246", "ntee": "X30", "ruling": "202502", "deductibility": "1", "assets": 0, "income": 0, "revenue": 0}], "LAPDOGS": [{"ein": "994369975", "name": "LITERATURE AND LAPDOGS", "city": "NEW YORK", "state": "NY", "zip": "10031-7728", "ntee": "A70", "ruling": "202408", "deductibility": "1", "assets": 0, "income": 0, "revenue": 0}]}