{"ADIRONDACK": [{"ein": "010562418", "name": "ADIRONDACK CENTER FOR WRITING INC", "city": "SARANAC LAKE", "state": "NY", "zip": "12983-1727", "ntee": "A33", "ruling": "200202", "deductibility": "1", "assets": 243486, "income": 392685, "revenue": 391580}, {"ein": "010842283", "name": "ADIRONDACK USBC", "city": "HUDSON FALLS", "state": "NY", "zip": "12839-0000", "ntee": "N60", "ruling": "202410", "deductibility": "1", "assets": 0, "income": 0, "revenue": 0}, {"ein": "020724006", "name": "ADIRONDACK JEWISH CENTER", "city": "WATERTOWN", "state": "NY", "zip": "13601-2554", "ntee": "X30", "ruling": "200506", "deductibility": "1", "assets": 0, "income": 0, "revenue": 0}, {"ein": "061726937", "name": "ADIRONDACK EXPERIENCE INC", "city": "LAKE PLACID", "state": "NY", "zip": "12946-4202", "ntee": "O50", "ruling": "200410", "deductibility": "1", "assets": 97041, "income": 140443, "revenue": 140443}, {"ein": "113666946", "name": "ADIRONDACK AS MODEL A FORD CLUB", "city": "CLIFTON PARK", "state": "NY", "zip": "12065-0804", "ntee": "O50", "ruling": "201904", "deductibility": "1", "assets": 0, "income": 0, "revenue": 0}, {"ein": "113701826", "name": "ADIRONDACK WIND ENSEMBLE INC", "city": "PLATTSBURGH", "state": "NY", "zip": "12901-1443", "ntee": "A6C", "ruling": "202506", "deductibility": "1", "assets": 0, "income": 0, "revenue": 0}, {"ein": "116024766", "name": "ADIRONDACK MOUNTAIN CLUB INC NEW YORK CHAPTER", "city": "NEW YORK", "state": "NY", "zip": "10009-0327", "ntee": "", "ruling": "195808", "deductibility": "2", "assets": 82088, "income": 36283, "revenue": 36283}, {"ein": "133419634", "name": "THE ADIRONDACK FORTY-SIXERS INC", "city": "PLATTSBURGH", "state": "NY", "zip": "12903-4006", "ntee": "C600", "ruling": "199312", "deductibility": "1", "assets": 221938, "income": 297352, "revenue": 240010}, {"ein": "133772587", "name": "ADIRONDACK THEATRE FESTIVAL INC", "city": "GLENS FALLS", "state": "NY", "zip": "12801-3535", "ntee": "A65Z", "ruling": "199503", "deductibility": "1", "assets": 227770, "income": 538344, "revenue": 478144}, {"ein": "135635801", "name": "ADIRONDACK HISTORICAL ASSOCIATION", "city": "BLUE MTN LAKE", "state": "NY", "zip": "12812-0099", "ntee": "A800", "ruling": "199210", "deductibility": "1", "assets": 84086930, "income": 9741237, "revenue": 6109945}, {"ein": "140696450", "name": "ADIRONDACK REGIONAL CHAMBERS OF COMMERCE INC", "city": "GLENS FALLS", "state": "NY", "zip": "12801-4530", "ntee": "", "ruling": "194310", "deductibility": "2", "assets": 1197738, "income": 887273, "revenue": 887273}, {"ein": "141340137", "name": "YOUNG WOMENS CHRISTIAN ASSOCIATION OF THE ADIRONDACK FOOTHILLS", "city": "GLOVERSVILLE", "state": "NY", "zip": "12078-0473", "ntee": "P27Z", "ruling": "194301", "deductibility": "1", "assets": 0, "income": 0, "revenue": 0}, {"ein": "141368185", "name": "UNITED WAY OF THE ADIRONDACK REGION INC", "city": "PLATTSBURGH", "state": "NY", "zip": "12901-1245", "ntee": "T70Z", "ruling": "197207", "deductibility": "1", "assets": 1469168, "income": 911653, "revenue": 591582}, {"ein": "141461794", "name": "ADIRONDACK COMMUNITY CHURCH", "city": "LAKE PLACID", "state": "NY", "zip": "12946-3305", "ntee": "", "ruling": "197410", "deductibility": "1", "assets": 0, "income": 0, "revenue": 0}, {"ein": "141486436", "name": "ADIRONDACK TRAIL IMPROVEMENT", "city": "KEENE VALLEY", "state": "NY", "zip": "12943-1718", "ntee": "N320", "ruling": "195209", "deductibility": "1", "assets": 2174160, "income": 517123, "revenue": 516537}, {"ein": "141490418", "name": "ADIRONDACK COMMUNITY ACTION PROGRAMS INC", "city": "ELIZABETHTOWN", "state": "NY", "zip": "12932-0000", "ntee": "B22Z", "ruling": "196603", "deductibility": "1", "assets": 2872451, "income": 8207157, "revenue": 8207157}, {"ein": "141491972", "name": "GREATER ADIRONDACK HOME AIDES INC", "city": "QUEENSBURY", "state": "NY", "zip": "12804-3137", "ntee": "P44Z", "ruling": "197508", "deductibility": "1", "assets": 2030220, "income": 4551444, "revenue": 3527086}, {"ein": "141501361", "name": "ADIRONDACK LAKES CENTER FOR THE ARTS", "city": "BLUE MTN LAKE", "state": "NY", "zip": "12812-7728", "ntee": "A200", "ruling": "196805", "deductibility": "1", "assets": 98329, "income": 541293, "revenue": 536190}, {"ein": "141590278", "name": "ADIRONDACK CHRISTIAN MINISTRIES", "city": "HADLEY", "state": "NY", "zip": "12835-0000", "ntee": "", "ruling": "197902", "deductibility": "1", "assets": 0, "income": 0, "revenue": 0}, {"ein": "141590804", "name": "ADIRONDACK HOT AIR BALLOON FESTIVAL INC", "city": "GLENS FALLS", "state": "NY", "zip": "12801-0883", "ntee": "", "ruling": "199402", "deductibility": "2", "assets": 109780, "income": 281023, "revenue": 283669}, {"ein": "141594386", "name": "ADIRONDACK COUNCIL INC", "city": "ELIZABETHTOWN", "state": "NY", "zip": "12932-0640", "ntee": "C34", "ruling": "197804", "deductibility": "1", "assets": 10849450, "income": 2804133, "revenue": 2312455}, {"ein": "141612609", "name": "ADIRONDACK ART ASSOCIATION", "city": "ESSEX", "state": "NY", "zip": "12936-0051", "ntee": "A20", "ruling": "199904", "deductibility": "1", "assets": 0, "income": 0, "revenue": 0}, {"ein": "141646480", "name": "ADIRONDACK SAMARITAN COUNSELING CENTER INC", "city": "HUDSON FALLS", "state": "NY", "zip": "12839-1001", "ntee": "E87Z", "ruling": "198404", "deductibility": "1", "assets": 889614, "income": 330553, "revenue": 325963}, {"ein": "141659828", "name": "ADIRONDACK LIVE STEAMERS INC", "city": "CLIFTON PARK", "state": "NY", "zip": "12065-0000", "ntee": "B99Z", "ruling": "199510", "deductibility": "1", "assets": 126427, "income": 44161, "revenue": 40408}, {"ein": "141662695", "name": "GREATER ADIRONDACK RESOURCE CONSERVATION & DEVELOPMENT COUNCIL", "city": "WARRENSBURG", "state": "NY", "zip": "12885-5101", "ntee": "C300", "ruling": "198704", "deductibility": "1", "assets": 0, "income": 0, "revenue": 0}, {"ein": "141670428", "name": "ORGANIZATION OF ADIRONDACK ROWERS AND SCULLERS INC", "city": "ALBANY", "state": "NY", "zip": "12201-0857", "ntee": "N67Z", "ruling": "199104", "deductibility": "1", "assets": 213906, "income": 303029, "revenue": 289587}, {"ein": "141670435", "name": "ADIRONDACK YOUTH ORCHESTRA ASSOCIATION", "city": "PERU", "state": "NY", "zip": "12972-0836", "ntee": "", "ruling": "198605", "deductibility": "1", "assets": 0, "income": 0, "revenue": 0}, {"ein": "141676777", "name": "SOUTHERN ADIRONDACK DOG CLUB INC", "city": "SCOTIA", "state": "NY", "zip": "12302-3906", "ntee": "", "ruling": "198608", "deductibility": "2", "assets": 0, "income": 0, "revenue": 0}, {"ein": "141676924", "name": "NORTHERN ADIRONDACK BOARD OF REALTORS INC", "city": "PLATTSBURGH", "state": "NY", "zip": "12901-3151", "ntee": "S41", "ruling": "200410", "deductibility": "2", "assets": 186208, "income": 103401, "revenue": 103401}, {"ein": "141690270", "name": "ADIRONDACK SKI TOURING COUNCIL INC", "city": "LAKE PLACID", "state": "NY", "zip": "12946-0843", "ntee": "O50", "ruling": "200303", "deductibility": "1", "assets": 241734, "income": 303353, "revenue": 303353}, {"ein": "141698269", "name": "ADIRONDACK HEALTH INSTITUTE INC", "city": "PLATTSBURGH", "state": "NY", "zip": "12901-2200", "ntee": "E31Z", "ruling": "198907", "deductibility": "1", "assets": 30844260, "income": 29885096, "revenue": 29885096}, {"ein": "141701636", "name": "ADIRONDACK HIGH PEAKS DOG TRAINING CLUB", "city": "SARANAC LAKE", "state": "NY", "zip": "12983-0822", "ntee": "D61", "ruling": "201108", "deductibility": "2", "assets": 0, "income": 0, "revenue": 0}, {"ein": "141731786", "name": "ADIRONDACK MEDICAL CENTER", "city": "SARANAC LAKE", "state": "NY", "zip": "12983-5644", "ntee": "E220", "ruling": "199201", "deductibility": "1", "assets": 100860604, "income": 152869804, "revenue": 144974062}, {"ein": "141732103", "name": "FACULTY ASSOCIATION OF ADIRONDACK COMMUNITY COLLEGE", "city": "QUEENSBURY", "state": "NY", "zip": "12804-1445", "ntee": "T40", "ruling": "200410", "deductibility": "2", "assets": 251719, "income": 111730, "revenue": 39701}, {"ein": "141736130", "name": "ADIRONDACK BAROQUE CONSORT", "city": "KINDERHOOK", "state": "NY", "zip": "12106-0161", "ntee": "A68", "ruling": "201106", "deductibility": "1", "assets": 0, "income": 0, "revenue": 0}, {"ein": "141737929", "name": "ADIRONDACK OUTREACH SERVICES INC", "city": "QUEENSBURY", "state": "NY", "zip": "12804-2151", "ntee": "", "ruling": "199211", "deductibility": "1", "assets": 247748, "income": 70527, "revenue": 0}, {"ein": "141741841", "name": "ADIRONDACK CHAPTER 602 E A A INC", "city": "HADLEY", "state": "NY", "zip": "12835-3455", "ntee": "", "ruling": "199411", "deductibility": "1", "assets": 0, "income": 0, "revenue": 0}, {"ein": "141753459", "name": "ADIRONDACK BIBLE CHAPEL AN EFC", "city": "PISECO", "state": "NY", "zip": "12139-0102", "ntee": "", "ruling": "196504", "deductibility": "1", "assets": 0, "income": 0, "revenue": 0}, {"ein": "141754764", "name": "ADIRONDACK SAVE-A-STRAY INC", "city": "CORINTH", "state": "NY", "zip": "12822-0185", "ntee": "D200", "ruling": "199505", "deductibility": "1", "assets": 69071, "income": 62142, "revenue": 62142}, {"ein": "141755478", "name": "SOUTHERN ADIRONDACK CHILD CARE NETWORK INC", "city": "GLENS FALLS", "state": "NY", "zip": "12801-3636", "ntee": "X99Z", "ruling": "199405", "deductibility": "1", "assets": 792419, "income": 1052263, "revenue": 1052263}, {"ein": "141781617", "name": "ADIRONDACK EXPLORER INC", "city": "SARANAC LAKE", "state": "NY", "zip": "12983-7355", "ntee": "A33", "ruling": "199507", "deductibility": "1", "assets": 2150260, "income": 1657181, "revenue": 1490544}, {"ein": "141789626", "name": "ADIRONDACK CHAPTER OF N C R S INC", "city": "SCOTIA", "state": "NY", "zip": "12302-2003", "ntee": "", "ruling": "199705", "deductibility": "2", "assets": 0, "income": 0, "revenue": 0}, {"ein": "141792065", "name": "ADIRONDACK CORVETTE CLUB INC", "city": "GLENS FALLS", "state": "NY", "zip": "12801-0716", "ntee": "N50", "ruling": "201606", "deductibility": "2", "assets": 0, "income": 0, "revenue": 0}, {"ein": "141804287", "name": "ADIRONDACK MARATHON INC", "city": "SCHROON LAKE", "state": "NY", "zip": "12870-0583", "ntee": "Z99Z", "ruling": "199808", "deductibility": "1", "assets": 12911, "income": 66839, "revenue": 66839}, {"ein": "141806862", "name": "ADIRONDACK VOICES INC", "city": "GLENS FALLS", "state": "NY", "zip": "12801-3028", "ntee": "A6B", "ruling": "200801", "deductibility": "1", "assets": 0, "income": 0, "revenue": 0}, {"ein": "141814734", "name": "ADIRONDACK LEARN TO EARN INC", "city": "WILLSBORO", "state": "NY", "zip": "12996-4908", "ntee": "B60", "ruling": "200101", "deductibility": "1", "assets": 0, "income": 0, "revenue": 0}, {"ein": "141816417", "name": "ADIRONDACK FILM SOCIETY INC", "city": "LAKE PLACID", "state": "NY", "zip": "12946-3557", "ntee": "A31", "ruling": "199910", "deductibility": "1", "assets": 17575, "income": 154880, "revenue": 154880}, {"ein": "141821434", "name": "ADIRONDACK BAPTIST CHURCH INC", "city": "GLOVERSVILLE", "state": "NY", "zip": "12078-6755", "ntee": "X21", "ruling": "200102", "deductibility": "1", "assets": 0, "income": 0, "revenue": 0}, {"ein": "141823340", "name": "ADIRONDACK CHRISTIAN FELLOWSHIP", "city": "GANSEVOORT", "state": "NY", "zip": "12831-2539", "ntee": "X21", "ruling": "200008", "deductibility": "1", "assets": 0, "income": 0, "revenue": 0}, {"ein": "141827199", "name": "GLENN AND CAROL PEARSALL ADIRONDACK FOUNDATION INC", "city": "JOHNSBURG", "state": "NY", "zip": "12843-2403", "ntee": "T20", "ruling": "200102", "deductibility": "1", "assets": 2347626, "income": 66623, "revenue": 0}, {"ein": "141827697", "name": "ADIRONDACK BALLET THEATER INC", "city": "GLENS FALLS", "state": "NY", "zip": "12801-4512", "ntee": "A62", "ruling": "201408", "deductibility": "1", "assets": 0, "income": 0, "revenue": 0}, {"ein": "141829187", "name": "ADIRONDACK CAROUSEL INC", "city": "SARANAC LAKE", "state": "NY", "zip": "12983-1059", "ntee": "A20", "ruling": "200107", "deductibility": "1", "assets": 114998, "income": 119942, "revenue": 112951}, {"ein": "141829330", "name": "ADIRONDACK VETS HOUSE INC", "city": "GLENS FALLS", "state": "NY", "zip": "12801-3444", "ntee": "L41", "ruling": "200104", "deductibility": "1", "assets": 266042, "income": 228129, "revenue": 228129}, {"ein": "141836397", "name": "ADIRONDACK SOARING GROUP INC", "city": "BALLSTON SPA", "state": "NY", "zip": "12020-2816", "ntee": "N50", "ruling": "200203", "deductibility": "2", "assets": 115652, "income": 6754, "revenue": 6754}, {"ein": "146032431", "name": "SOUTHERN ADIRONDACK REALTORS INC", "city": "QUEENSBURY", "state": "NY", "zip": "12804-2006", "ntee": "", "ruling": "196108", "deductibility": "2", "assets": 960436, "income": 231824, "revenue": 216870}, {"ein": "146038858", "name": "FACULTY-STUDENT ASSOCIATION OF ADIRONDACK COMMUNITY COLLEGE INC", "city": "QUEENSBURY", "state": "NY", "zip": "12804-1445", "ntee": "B80Z", "ruling": "196802", "deductibility": "1", "assets": 26769343, "income": 5079416, "revenue": 5079416}, {"ein": "146045548", "name": "THE LOWER ADIRONDACK REGIONAL CENTER FOR HISTORY", "city": "TICONDEROGA", "state": "NY", "zip": "12883-1041", "ntee": "", "ruling": "196804", "deductibility": "1", "assets": 503164, "income": 377755, "revenue": 375570}, {"ein": "150227290", "name": "ADIRONDACK LEAGUE CLUB", "city": "OLD FORGE", "state": "NY", "zip": "13420-0008", "ntee": "N50", "ruling": "198710", "deductibility": "2", "assets": 13654365, "income": 7533298, "revenue": 5823840}, {"ein": "150563934", "name": "ADIRONDACK NORTH COUNTRY ASSOCIATION INC", "city": "SARANAC LAKE", "state": "NY", "zip": "12983-5747", "ntee": "K28Z", "ruling": "198506", "deductibility": "1", "assets": 947101, "income": 2720552, "revenue": 2720552}, {"ein": "150586270", "name": "ADIRONDACK MOUNTAIN CLUB INC", "city": "SARATOGA SPGS", "state": "NY", "zip": "12866-5560", "ntee": "C600", "ruling": "195811", "deductibility": "1", "assets": 8578572, "income": 6753073, "revenue": 5575175}, {"ein": "161296105", "name": "ADIRONDACK FOOTHILLS ROTARY CLUB", "city": "BARNEVELD", "state": "NY", "zip": "13304-0422", "ntee": "S80", "ruling": "202004", "deductibility": "1", "assets": 0, "income": 0, "revenue": 0}, {"ein": "161333180", "name": "ADIRONDACK MENNONITE RETIREMENT COMMUNITY INC", "city": "LOWVILLE", "state": "NY", "zip": "13367-4144", "ntee": "P75Z", "ruling": "199009", "deductibility": "1", "assets": 12379840, "income": 1713684, "revenue": 1711285}, {"ein": "161445810", "name": "ADIRONDACK COMMUNITIES ADVISORY LEAGUE INC", "city": "BOONVILLE", "state": "NY", "zip": "13309-0202", "ntee": "", "ruling": "199312", "deductibility": "1", "assets": 0, "income": 0, "revenue": 0}, {"ein": "161461666", "name": "ADIRONDACK MENNONITE HERITAGE ASSOCIATION AND HISTORICAL SOCIETY", "city": "CROGHAN", "state": "NY", "zip": "13327-0368", "ntee": "A80Z", "ruling": "199508", "deductibility": "1", "assets": 418634, "income": 108714, "revenue": 106572}, {"ein": "161528554", "name": "ADIRONDACK MEDICAL CENTER FOUNDATION", "city": "SARANAC LAKE", "state": "NY", "zip": "12983-0120", "ntee": "T20", "ruling": "199710", "deductibility": "1", "assets": 25225462, "income": 27204862, "revenue": 3440410}, {"ein": "161532453", "name": "ADIRONDACK HOUSING DEVELOPMENT FUND CO INC", "city": "ELLENBURG CENTER", "state": "NY", "zip": "12934-2952", "ntee": "L80I", "ruling": "199709", "deductibility": "1", "assets": 288541, "income": 75437, "revenue": 75437}, {"ein": "161533841", "name": "ADIRONDACK SOCCER CLUB INC", "city": "FORT EDWARD", "state": "NY", "zip": "12828-2205", "ntee": "N64", "ruling": "199804", "deductibility": "1", "assets": 67454, "income": 141575, "revenue": 141575}, {"ein": "161535724", "name": "ADIRONDACK FOUNDATION", "city": "LAKE PLACID", "state": "NY", "zip": "12946-0288", "ntee": "T310", "ruling": "199710", "deductibility": "1", "assets": 101766694, "income": 25168157, "revenue": 14349046}, {"ein": "161611972", "name": "CENTRAL ADIRONDACK PARTNERSHIP FOR THE 21ST CENTURY INC", "city": "OLD FORGE", "state": "NY", "zip": "13420-0642", "ntee": "S20", "ruling": "200205", "deductibility": "1", "assets": 745790, "income": 312601, "revenue": 312601}, {"ein": "166054304", "name": "CENTRAL ADIRONDACK ASSOCIATION", "city": "OLD FORGE", "state": "NY", "zip": "13420-3714", "ntee": "", "ruling": "194101", "deductibility": "2", "assets": 254299, "income": 299630, "revenue": 114054}, {"ein": "166212625", "name": "GENESEE VALLEY CHAPTER OF THE ADIRONDACK MOUNTAIN CLUB INC", "city": "ROCHESTER", "state": "NY", "zip": "14692-2822", "ntee": "C60", "ruling": "200007", "deductibility": "1", "assets": 0, "income": 0, "revenue": 0}, {"ein": "201541921", "name": "ADIRONDACK JEEPS INC", "city": "FORT ANN", "state": "NY", "zip": "12827-1815", "ntee": "N50", "ruling": "200508", "deductibility": "2", "assets": 3280, "income": 1635, "revenue": 1635}, {"ein": "202371351", "name": "SOUTHERN ADIRONDACK MUSICIANS FUND INC", "city": "CORINTH", "state": "NY", "zip": "12822-2843", "ntee": "E80", "ruling": "200509", "deductibility": "1", "assets": 0, "income": 0, "revenue": 0}, {"ein": "204174188", "name": "ADIRONDACK RESEARCH CONSORTIUM", "city": "PAUL SMITHS", "state": "NY", "zip": "12970-0096", "ntee": "N32", "ruling": "200607", "deductibility": "1", "assets": 16054, "income": 65006, "revenue": 65006}, {"ein": "208657587", "name": "ADIRONDACK COMMUNITY HOUSING TRUST", "city": "ELIZABETHTOWN", "state": "NY", "zip": "12932-0157", "ntee": "L20", "ruling": "200903", "deductibility": "1", "assets": 1277657, "income": 390487, "revenue": 390487}, {"ein": "222243540", "name": "ADIRONDACK ECONOMIC DEVELOPMENT CORP", "city": "SARANAC LAKE", "state": "NY", "zip": "12983-5747", "ntee": "S30", "ruling": "199607", "deductibility": "1", "assets": 3712856, "income": 950209, "revenue": 950209}, {"ein": "222303625", "name": "ADIRONDACK SCHOLARSHIP FOUNDATION INC", "city": "PLATTSBURGH", "state": "NY", "zip": "12901-0004", "ntee": "B82Z", "ruling": "198005", "deductibility": "1", "assets": 1606228, "income": 566060, "revenue": 197602}, {"ein": "222348993", "name": "ADIRONDACK GARDEN CLUB INC", "city": "KEENE", "state": "NY", "zip": "12942-0072", "ntee": "", "ruling": "197806", "deductibility": "1", "assets": 0, "income": 0, "revenue": 0}, {"ein": "222486001", "name": "ADIRONDACK COMMUNITY COLLEGE FOUNDATION INC", "city": "QUEENSBURY", "state": "NY", "zip": "12804-1445", "ntee": "B110", "ruling": "198406", "deductibility": "1", "assets": 8638731, "income": 1198068, "revenue": 940167}, {"ein": "222540492", "name": "ADIRONDACK BAPTIST CHURCH", "city": "GLEMS FALLS", "state": "NY", "zip": "12804-9803", "ntee": "", "ruling": "198411", "deductibility": "1", "assets": 0, "income": 0, "revenue": 0}, {"ein": "222559576", "name": "ADIRONDACK LAND TRUST INC", "city": "KEENE", "state": "NY", "zip": "12942-0130", "ntee": "C340", "ruling": "198405", "deductibility": "1", "assets": 30673280, "income": 8089741, "revenue": 6958731}, {"ein": "222610241", "name": "SOUTHERN ADIRONDACK AUDUBON SOCIETY INC", "city": "SARATOGA SPGS", "state": "NY", "zip": "12866-8036", "ntee": "", "ruling": "198509", "deductibility": "1", "assets": 0, "income": 0, "revenue": 0}, {"ein": "222610249", "name": "ADIRONDACK-APPALACHIAN REGIONAL EMERGENCY MEDICAL SERVICES COUNCIL", "city": "ALBANY", "state": "NY", "zip": "12203-5396", "ntee": "E63Z", "ruling": "198510", "deductibility": "1", "assets": 228734, "income": 191174, "revenue": 191174}, {"ein": "222775585", "name": "ADIRONDACK CHAPTER AMERICAN ROCK GARDEN SOCIETY", "city": "SYRACUSE", "state": "NY", "zip": "13215-9770", "ntee": "", "ruling": "198703", "deductibility": "2", "assets": 0, "income": 0, "revenue": 0}, {"ein": "222861424", "name": "ADIRONDACK-1000 ISLANDS SPORTS & EVENTS COMMISSION INC", "city": "LAKE PLACID", "state": "NY", "zip": "12946-5470", "ntee": "", "ruling": "198803", "deductibility": "1", "assets": 1555742, "income": 1189750, "revenue": 1189750}, {"ein": "222921564", "name": "ADIRONDACK SINGERS INC", "city": "RAY BROOK", "state": "NY", "zip": "12977-0189", "ntee": "", "ruling": "198912", "deductibility": "1", "assets": 0, "income": 0, "revenue": 0}, {"ein": "222985477", "name": "ADIRONDACK PARK INSTITUTE INC", "city": "NEWCOMB", "state": "NY", "zip": "12852-0067", "ntee": "", "ruling": "198909", "deductibility": "1", "assets": 56190, "income": 38172, "revenue": 0}, {"ein": "223022125", "name": "ADIRONDACK REGIONAL TOURISM COUNCIL INC", "city": "LAKE PLACID", "state": "NY", "zip": "12946-1117", "ntee": "", "ruling": "199101", "deductibility": "2", "assets": 24553, "income": 291275, "revenue": 291275}, {"ein": "223074470", "name": "ADIRONDACK RAILWAY PRESERVATION SOCIETY", "city": "UTICA", "state": "NY", "zip": "13501-1215", "ntee": "", "ruling": "199310", "deductibility": "1", "assets": 2853303, "income": 2584845, "revenue": 2503455}, {"ein": "223085644", "name": "ADIRONDACK CITIZEN AID FUND INC", "city": "CROWN POINT", "state": "NY", "zip": "12928-2412", "ntee": "", "ruling": "199208", "deductibility": "1", "assets": 46982, "income": 80, "revenue": 80}, {"ein": "223107652", "name": "ADIRONDACK LANDOWNERS ASSOCIATION INC", "city": "FULTON", "state": "NY", "zip": "13069-4158", "ntee": "", "ruling": "199112", "deductibility": "2", "assets": 0, "income": 0, "revenue": 0}, {"ein": "223117009", "name": "ADIRONDACK ARCHITECTURAL HERITAGE", "city": "KEESEVILLE", "state": "NY", "zip": "12944-3740", "ntee": "A80Z", "ruling": "199109", "deductibility": "1", "assets": 1819829, "income": 592522, "revenue": 579324}, {"ein": "223174687", "name": "LOWER ADIRONDACK SEARCH AND RESCUE INC", "city": "BALLSTON SPA", "state": "NY", "zip": "12020-6027", "ntee": "M23Z", "ruling": "199208", "deductibility": "1", "assets": 0, "income": 0, "revenue": 0}, {"ein": "223177391", "name": "ADIRONDACK MOOSE LEGION NO 126", "city": "CANTON", "state": "NY", "zip": "13617-3124", "ntee": "", "ruling": "193508", "deductibility": "1", "assets": 0, "income": 0, "revenue": 0}, {"ein": "223768044", "name": "SOUTHERN ADIRONDACK SNOWMOBILE ASSOCIATION INC", "city": "MAYFIELD", "state": "NY", "zip": "12117-0142", "ntee": "N99", "ruling": "201404", "deductibility": "1", "assets": 64599, "income": 36011, "revenue": 35067}, {"ein": "234230007", "name": "ADIRONDACK TRI-COUNTY NURSING AND REHABILITATION CENTER INC", "city": "NORTH RIVER", "state": "NY", "zip": "12856-0000", "ntee": "E91", "ruling": "200307", "deductibility": "1", "assets": 1505, "income": 0, "revenue": 0}, {"ein": "237024200", "name": "ADIRONDACK MENNONITE CAMPING ASSOCIATION INC", "city": "LOWVILLE", "state": "NY", "zip": "13367-2323", "ntee": "N20Z", "ruling": "197107", "deductibility": "1", "assets": 1720877, "income": 872152, "revenue": 841656}, {"ein": "237057523", "name": "ADIRONDACK LITERACY COUNCIL", "city": "SARATOGA SPGS", "state": "NY", "zip": "12866-0839", "ntee": "B03", "ruling": "202002", "deductibility": "1", "assets": 0, "income": 0, "revenue": 0}, {"ein": "237182079", "name": "LOWER ADIRONDACK REGIONAL ARTS COUNCIL INC", "city": "GLENS FALLS", "state": "NY", "zip": "12801-3605", "ntee": "A26Z", "ruling": "197206", "deductibility": "1", "assets": 195633, "income": 355436, "revenue": 330020}, {"ein": "237366205", "name": "ADIRONDACK CONSERVATION COUNCIL", "city": "BALLSTON SPA", "state": "NY", "zip": "12020-8405", "ntee": "C30", "ruling": "202412", "deductibility": "1", "assets": 0, "income": 0, "revenue": 0}, {"ein": "237381018", "name": "ADIRONDACK", "city": "LAKE PLACID", "state": "NY", "zip": "12946-3002", "ntee": "", "ruling": "196307", "deductibility": "1", "assets": 0, "income": 0, "revenue": 0}, {"ein": "237446777", "name": "ADIRONDACK YOUTH HOCKEY ASSOCIATION INC", "city": "GLENS FALLS", "state": "NY", "zip": "12801-0940", "ntee": "N68Z", "ruling": "197708", "deductibility": "1", "assets": 757223, "income": 422076, "revenue": 409621}, {"ein": "260779914", "name": "ADIRONDACK PRODUCTIONS AND THEATERINC", "city": "QUEENSBURY", "state": "NY", "zip": "12804-0648", "ntee": "A65", "ruling": "200806", "deductibility": "1", "assets": 0, "income": 0, "revenue": 0}, {"ein": "261279682", "name": "SOUTHERN ADIRONDACK AGILITY CLUB INC", "city": "SCHENECTADY", "state": "NY", "zip": "12306-4506", "ntee": "N60", "ruling": "201601", "deductibility": "1", "assets": 0, "income": 0, "revenue": 0}, {"ein": "263355078", "name": "SOUTHERN ADIRONDACK CHAPTER - NAVHDA", "city": "GANSEVOORT", "state": "NY", "zip": "12831-2124", "ntee": "D60", "ruling": "201008", "deductibility": "2", "assets": 0, "income": 0, "revenue": 0}, {"ein": "263554700", "name": "ADIRONDACK YOUNG PROFESSIONALS INC", "city": "PLATTSBURGH", "state": "NY", "zip": "12901-2921", "ntee": "T50", "ruling": "201006", "deductibility": "1", "assets": 0, "income": 0, "revenue": 0}, {"ein": "264541597", "name": "ADIRONDACK HOUSING DEVELOPMENT CORPORATION", "city": "SARANAC LAKE", "state": "NY", "zip": "12983-2358", "ntee": "L20", "ruling": "201006", "deductibility": "1", "assets": 217588, "income": 104278, "revenue": 104278}, {"ein": "264642350", "name": "ADIRONDACK SAMARITAN LICENSED CLINICAL SOCIAL WORK PC", "city": "HUDSON FALLS", "state": "NY", "zip": "12839-1001", "ntee": "F30", "ruling": "201404", "deductibility": "1", "assets": 204601, "income": 644056, "revenue": 644056}, {"ein": "266394395", "name": "ADIRONDACK TR COMPANY COMMUNITY FUND", "city": "SARATOGA SPGS", "state": "NY", "zip": "12866-2006", "ntee": "T31", "ruling": "200811", "deductibility": "1", "assets": 6722221, "income": 863588, "revenue": 599792}, {"ein": "270063263", "name": "CENTRAL ADIRONDACK SEARCH AND RESCUE TEAM INC", "city": "CLINTON", "state": "NY", "zip": "13323-0000", "ntee": "M23", "ruling": "200401", "deductibility": "1", "assets": 0, "income": 0, "revenue": 0}, {"ein": "270756427", "name": "ADIRONDACK ASSOCIATION OF TOWNS AND VILLAGES INC", "city": "HADLEY", "state": "NY", "zip": "12835-0083", "ntee": "S32", "ruling": "201201", "deductibility": "1", "assets": 25286, "income": 48953, "revenue": 48953}, {"ein": "271447887", "name": "ADIRONDACK HEAT BASEBALL INC", "city": "CLIFTON PARK", "state": "NY", "zip": "12065-7617", "ntee": "N63", "ruling": "201010", "deductibility": "1", "assets": 0, "income": 0, "revenue": 0}, {"ein": "271468956", "name": "ADIRONDACK SHAKESPEARE COMPANY LTD", "city": "SCHENECTADY", "state": "NY", "zip": "12302-4801", "ntee": "B90", "ruling": "201104", "deductibility": "1", "assets": 0, "income": 0, "revenue": 0}, {"ein": "272184676", "name": "ADIRONDACK AMATEUR RADIO ASSOCIATION INC", "city": "SARANAC LAKE", "state": "NY", "zip": "12983-0000", "ntee": "A34", "ruling": "201104", "deductibility": "1", "assets": 0, "income": 0, "revenue": 0}, {"ein": "272281324", "name": "ADIRONDACK FOLK SCHOOL INCORPORATED", "city": "LAKE LUZERNE", "state": "NY", "zip": "12846-0002", "ntee": "B90", "ruling": "201007", "deductibility": "1", "assets": 669204, "income": 577120, "revenue": 561993}, {"ein": "273103376", "name": "ADIRONDACK TREKS INC", "city": "JOHNSBURG", "state": "NY", "zip": "12843-1900", "ntee": "B90", "ruling": "201106", "deductibility": "1", "assets": 0, "income": 0, "revenue": 0}, {"ein": "274580755", "name": "ADIRONDACK CYCLING ADVOCATES", "city": "QUEENSBURY", "state": "NY", "zip": "12801-0064", "ntee": "N60", "ruling": "201109", "deductibility": "1", "assets": 58726, "income": 66292, "revenue": 66292}, {"ein": "300154141", "name": "ADIRONDACK CAMP SCHOLARSHIP FUND INC", "city": "PUTNAM STA", "state": "NY", "zip": "12861-0093", "ntee": "N20", "ruling": "200401", "deductibility": "1", "assets": 123893, "income": 32029, "revenue": 32029}, {"ein": "300638396", "name": "ADIRONDACK WILDLIFE INC", "city": "KEENE VALLEY", "state": "NY", "zip": "12943-0824", "ntee": "C20", "ruling": "201106", "deductibility": "1", "assets": 0, "income": 0, "revenue": 0}, {"ein": "300863192", "name": "ADIRONDACK SPEEDSKATING CLUB", "city": "LAKE PLACID", "state": "NY", "zip": "12946-1537", "ntee": "N68", "ruling": "201605", "deductibility": "1", "assets": 0, "income": 0, "revenue": 0}, {"ein": "320151813", "name": "ADIRONDACK COMMUNITY OUTREACH CENTER INC", "city": "NORTH CREEK", "state": "NY", "zip": "12853-0201", "ntee": "P20", "ruling": "200506", "deductibility": "1", "assets": 385949, "income": 162594, "revenue": 155775}, {"ein": "320453519", "name": "ADIRONDACK MOUNTAIN CLUB FOUNDATION INC", "city": "LAKE PLACID", "state": "NY", "zip": "12946-4113", "ntee": "C11", "ruling": "201506", "deductibility": "1", "assets": 0, "income": 0, "revenue": 0}, {"ein": "332449508", "name": "ADIRONDACK QUEER ICEFEST INC", "city": "DELMAR", "state": "NY", "zip": "12054-2117", "ntee": "N01", "ruling": "202501", "deductibility": "1", "assets": 0, "income": 0, "revenue": 0}, {"ein": "352847011", "name": "ADIRONDACK REGIONAL IMMIGRATION COLLABORATIVE INC", "city": "LAKE GEORGE", "state": "NY", "zip": "12845-0027", "ntee": "Q71", "ruling": "202406", "deductibility": "1", "assets": 0, "income": 0, "revenue": 0}, {"ein": "364566394", "name": "ADIRONDACK STORM VOLLEYBALL ASSOCIATION INC", "city": "QUEENSBURY", "state": "NY", "zip": "12804-5002", "ntee": "N99", "ruling": "200909", "deductibility": "1", "assets": 0, "income": 0, "revenue": 0}, {"ein": "371639973", "name": "ADIRONDACK SOARING ASSOCIATION INC", "city": "BALLSTON SPA", "state": "NY", "zip": "12020-2816", "ntee": "U30", "ruling": "201107", "deductibility": "1", "assets": 378764, "income": 130123, "revenue": 130123}, {"ein": "453143851", "name": "ADIRONDACK WATER WORKS CONFERENCE", "city": "ALBANY", "state": "NY", "zip": "12203-5339", "ntee": "Y03", "ruling": "201403", "deductibility": "2", "assets": 0, "income": 0, "revenue": 0}, {"ein": "454420054", "name": "ADIRONDACK RUGBY INC", "city": "SARANAC LAKE", "state": "NY", "zip": "12983-0774", "ntee": "N70", "ruling": "201304", "deductibility": "1", "assets": 98917, "income": 229085, "revenue": 229085}, {"ein": "454752327", "name": "ADIRONDACK RECREATIONAL TRAIL ADVOCATES", "city": "SARANAC LAKE", "state": "NY", "zip": "12983-1081", "ntee": "A80", "ruling": "201205", "deductibility": "1", "assets": 166317, "income": 154054, "revenue": 154054}, {"ein": "455609097", "name": "NORTHERN ADIRONDACK HOUSING DEVELOPMENT FUND", "city": "MALONE", "state": "NY", "zip": "12953-1777", "ntee": "", "ruling": "201311", "deductibility": "1", "assets": 4594401, "income": 513180, "revenue": 513180}, {"ein": "463273950", "name": "CENTER FOR ADIRONDACK SPIRIT INC", "city": "LAKE CLEAR", "state": "NY", "zip": "12945-0000", "ntee": "B60", "ruling": "201505", "deductibility": "1", "assets": 0, "income": 0, "revenue": 0}, {"ein": "464762120", "name": "ADIRONDACK POP WARNER ASSOCIATION", "city": "BOONVILLE", "state": "NY", "zip": "13309-1329", "ntee": "O50", "ruling": "201509", "deductibility": "1", "assets": 34461, "income": 88434, "revenue": 47572}, {"ein": "465500266", "name": "ADIRONDACK AQUATIC CENTER INC", "city": "BALLSTON SPA", "state": "NY", "zip": "12020-4432", "ntee": "N11", "ruling": "201408", "deductibility": "1", "assets": 223990, "income": 91957, "revenue": 91957}, {"ein": "473565518", "name": "ADIRONDACK CHAPTER OF THE NEW YORK STATE ARCHAEOLOGICAL ASSOCIATION", "city": "FORT EDWARD", "state": "NY", "zip": "12828-1856", "ntee": "", "ruling": "201806", "deductibility": "1", "assets": 0, "income": 0, "revenue": 0}, {"ein": "475034224", "name": "ADIRONDACK COMMUNITY CHORUS INC", "city": "LYONS FALLS", "state": "NY", "zip": "13368-1921", "ntee": "A6B", "ruling": "201610", "deductibility": "1", "assets": 0, "income": 0, "revenue": 0}, {"ein": "475676016", "name": "ADIRONDACK HEALTH REGIONAL MEDICAL PC", "city": "SARANAC LAKE", "state": "NY", "zip": "12983-0471", "ntee": "E22", "ruling": "201804", "deductibility": "1", "assets": 30578, "income": 154727, "revenue": 154727}, {"ein": "550827028", "name": "SOUTHERN ADIRONDACK FIREARMS EDUCATION AND TRAINING INC", "city": "QUEENSBURY", "state": "NY", "zip": "12804-1139", "ntee": "B99", "ruling": "200403", "deductibility": "1", "assets": 0, "income": 0, "revenue": 0}, {"ein": "550850210", "name": "ADIRONDACK GOSPEL CONNECTION INC", "city": "NORTH BANGOR", "state": "NY", "zip": "12966-2202", "ntee": "X84", "ruling": "200407", "deductibility": "1", "assets": 0, "income": 0, "revenue": 0}, {"ein": "611694135", "name": "ADIRONDACK POWDER SKIER ASSOCIATION INC", "city": "KEENE VALLEY", "state": "NY", "zip": "12943-0702", "ntee": "N68", "ruling": "201402", "deductibility": "1", "assets": 0, "income": 0, "revenue": 0}, {"ein": "710956136", "name": "ADIRONDACK REGIONAL THEATRE INC", "city": "PLATTSBURGH", "state": "NY", "zip": "12901-0260", "ntee": "A65", "ruling": "200402", "deductibility": "1", "assets": 214107, "income": 89547, "revenue": 89547}, {"ein": "770616930", "name": "ADIRONDACK PUBLIC OBSERVATORY INC", "city": "TUPPER LAKE", "state": "NY", "zip": "12986-0332", "ntee": "U31", "ruling": "200404", "deductibility": "1", "assets": 690101, "income": 234395, "revenue": 222923}, {"ein": "812414839", "name": "ADIRONDACK LEADERSHIP INSTITUTE", "city": "RAINBOW LAKE", "state": "NY", "zip": "12976-0210", "ntee": "B02", "ruling": "201605", "deductibility": "1", "assets": 1, "income": 1, "revenue": 0}, {"ein": "814246352", "name": "ADIRONDACK NORTH COUNTRY GENDER ALLIANCE", "city": "SARANAC LAKE", "state": "NY", "zip": "12983-7113", "ntee": "", "ruling": "201708", "deductibility": "1", "assets": 33584, "income": 46634, "revenue": 46634}, {"ein": "814571117", "name": "ADIRONDACK CENTER FOR LOON CONSERVATION", "city": "RAY BROOK", "state": "NY", "zip": "12977-0195", "ntee": "D32", "ruling": "201702", "deductibility": "1", "assets": 212565, "income": 587566, "revenue": 543225}, {"ein": "814833239", "name": "ADIRONDACK HAMLETS TO HUTS INC", "city": "SARANAC LAKE", "state": "NY", "zip": "12983-5778", "ntee": "N99", "ruling": "201704", "deductibility": "1", "assets": 107766, "income": 310727, "revenue": 219167}, {"ein": "822422236", "name": "ADIRONDACK MOUNTAIN RESCUE INC", "city": "HALFMOON", "state": "NY", "zip": "12065-8643", "ntee": "M23", "ruling": "201708", "deductibility": "1", "assets": 0, "income": 0, "revenue": 0}, {"ein": "822439115", "name": "SOUTHERN ADIRONDACK HIGH SCHOOL CLAY TARGET ASSOCIATION", "city": "QUEENSBURY", "state": "NY", "zip": "12804-9355", "ntee": "N12", "ruling": "201708", "deductibility": "1", "assets": 0, "income": 0, "revenue": 0}, {"ein": "823962735", "name": "ADIRONDACK CAMP OF THE ROCK INC", "city": "WILMINGTON", "state": "NY", "zip": "12997-0484", "ntee": "X20", "ruling": "201805", "deductibility": "1", "assets": 0, "income": 0, "revenue": 0}, {"ein": "825288744", "name": "ADIRONDACK FISH & GAME SOCIAL CLUB CORP", "city": "DOBBS FERRY", "state": "NY", "zip": "10522-1212", "ntee": "N50", "ruling": "201811", "deductibility": "2", "assets": 0, "income": 0, "revenue": 0}, {"ein": "831208461", "name": "ADIRONDACK ANIMAL COALITION", "city": "OWLS HEAD", "state": "NY", "zip": "12969-1900", "ntee": "D20", "ruling": "201906", "deductibility": "1", "assets": 0, "income": 0, "revenue": 0}, {"ein": "831620181", "name": "ADIRONDACK BIBLE FELLOWSHIP", "city": "NEWCOMB", "state": "NY", "zip": "12852-0311", "ntee": "X21", "ruling": "201903", "deductibility": "1", "assets": 0, "income": 0, "revenue": 0}, {"ein": "831799284", "name": "ADIRONDACK CENTER STAGE INC", "city": "CORINTH", "state": "NY", "zip": "12822-0053", "ntee": "A6E", "ruling": "201809", "deductibility": "1", "assets": 0, "income": 0, "revenue": 0}, {"ein": "831985774", "name": "ADIRONDACK SNOWDRIFTERS SNOWMOBILE CLUB INC", "city": "OWLS HEAD", "state": "NY", "zip": "12969-0000", "ntee": "N68", "ruling": "201810", "deductibility": "1", "assets": 0, "income": 0, "revenue": 0}, {"ein": "833409931", "name": "ADIRONDACK WILDERNESS ADOVOCATES INC", "city": "HONEOYE FALLS", "state": "NY", "zip": "14472-1046", "ntee": "C30", "ruling": "202312", "deductibility": "1", "assets": 0, "income": 0, "revenue": 0}, {"ein": "841780707", "name": "LOWER ADIRONDACK VISIONARY ASSOCIATION CORP", "city": "GLENS FALLS", "state": "NY", "zip": "12801-3584", "ntee": "B02", "ruling": "201906", "deductibility": "1", "assets": 0, "income": 0, "revenue": 0}, {"ein": "842624947", "name": "ADIRONDACK FOOTHILLS TRAILS ALLIANCE INC", "city": "OLD FORGE", "state": "NY", "zip": "13420-0415", "ntee": "N01", "ruling": "201909", "deductibility": "1", "assets": 0, "income": 0, "revenue": 0}, {"ein": "843234575", "name": "ADIRONDACK PREGNANCY CENTER", "city": "SARANAC LAKE", "state": "NY", "zip": "12983-1957", "ntee": "X20", "ruling": "202007", "deductibility": "1", "assets": 77825, "income": 177014, "revenue": 177014}, {"ein": "843279201", "name": "SOUTHERN ADIRONDACK BEEKEEPERS ASSOCIATION INC", "city": "NISKAYUNA", "state": "NY", "zip": "12309-4109", "ntee": "B90", "ruling": "201910", "deductibility": "1", "assets": 0, "income": 0, "revenue": 0}, {"ein": "850989121", "name": "ADIRONDACK CLIMBERS COALITION INC", "city": "KEENE VALLEY", "state": "NY", "zip": "12943-0767", "ntee": "N01", "ruling": "202103", "deductibility": "1", "assets": 0, "income": 0, "revenue": 0}, {"ein": "852044141", "name": "ADIRONDACK INSTITUTE", "city": "GLENS FALLS", "state": "NY", "zip": "12801-2636", "ntee": "A60", "ruling": "202305", "deductibility": "1", "assets": 0, "income": 0, "revenue": 0}, {"ein": "862439680", "name": "ADIRONDACK BATTALION", "city": "ALBANY", "state": "NY", "zip": "12205-3240", "ntee": "O50", "ruling": "202305", "deductibility": "1", "assets": 0, "income": 0, "revenue": 0}, {"ein": "862693184", "name": "ADIRONDACK MOUNTAIN NEWS INC", "city": "HALFMOON", "state": "NY", "zip": "12065-8643", "ntee": "M40", "ruling": "202106", "deductibility": "1", "assets": 0, "income": 0, "revenue": 0}, {"ein": "872285964", "name": "SAVE OUR SCHOOLHOUSE ADIRONDACK EXHIBIT CENTER", "city": "STAR LAKE", "state": "NY", "zip": "13690-0222", "ntee": "A20", "ruling": "202211", "deductibility": "1", "assets": 0, "income": 0, "revenue": 0}, {"ein": "873876795", "name": "ADIRONDACK COMPOST EDUCATION COUNCIL INC", "city": "QUEENSBURY", "state": "NY", "zip": "12804-0171", "ntee": "C60", "ruling": "202311", "deductibility": "1", "assets": 0, "income": 0, "revenue": 0}, {"ein": "874171977", "name": "ADIRONDACK WELCOME CIRCLE", "city": "GLENS FALLS", "state": "NY", "zip": "12801-0132", "ntee": "Q71", "ruling": "202311", "deductibility": "1", "assets": 0, "income": 0, "revenue": 0}, {"ein": "881057324", "name": "ADIRONDACK FOOTHILLS CYCLING CLUB", "city": "CROGHAN", "state": "NY", "zip": "13327-0033", "ntee": "N99", "ruling": "202205", "deductibility": "1", "assets": 18064, "income": 43245, "revenue": 43245}, {"ein": "881311640", "name": "ACCESSIBLE ADIRONDACK TOURISM", "city": "HUDSON FALLS", "state": "NY", "zip": "12839-2231", "ntee": "R23", "ruling": "202203", "deductibility": "1", "assets": 0, "income": 0, "revenue": 0}, {"ein": "883406509", "name": "ADIRONDACK CHAPTER ANTIQUE & CLASSIC BOAT SOCIETY INC", "city": "STILLWATER", "state": "NY", "zip": "12170-0048", "ntee": "B03", "ruling": "202212", "deductibility": "1", "assets": 0, "income": 0, "revenue": 0}, {"ein": "920264478", "name": "ADIRONDACK 40STIXTERS INC", "city": "QUEENSBURY", "state": "NY", "zip": "12804-9348", "ntee": "N60", "ruling": "202303", "deductibility": "1", "assets": 16036, "income": 40336, "revenue": 0}, {"ein": "922846666", "name": "ADIRONDACK COAST BASKETBALL CAMP", "city": "PLATTSBURGH", "state": "NY", "zip": "12901-5005", "ntee": "N60", "ruling": "202310", "deductibility": "1", "assets": 0, "income": 0, "revenue": 0}, {"ein": "922913631", "name": "SOUTHERN ADIRONDACK HEALTH INITIATIVE", "city": "SHUSHAN", "state": "NY", "zip": "12873-0100", "ntee": "E32", "ruling": "202305", "deductibility": "1", "assets": 0, "income": 0, "revenue": 0}, {"ein": "922974942", "name": "ADIRONDACK ADVENTURE & WHISKEY SOCIETY INC", "city": "SARATOGA SPGS", "state": "NY", "zip": "12866-4802", "ntee": "C01", "ruling": "202404", "deductibility": "2", "assets": 4701, "income": 25966, "revenue": 25966}, {"ein": "923488320", "name": "ADIRONDACK TRACK CLUB INCORPORATED", "city": "BOONVILLE", "state": "NY", "zip": "13309-1321", "ntee": "N60", "ruling": "202305", "deductibility": "1", "assets": 0, "income": 0, "revenue": 0}, {"ein": "923692251", "name": "ADIRONDACK INCLUSION MOVEMENT INC", "city": "SCHROON LAKE", "state": "NY", "zip": "12870-0487", "ntee": "R23", "ruling": "202310", "deductibility": "1", "assets": 25148, "income": 16627, "revenue": 16627}, {"ein": "931488403", "name": "ADIRONDACK FALLEN FIREFIGHTER PROJECT", "city": "TICONDEROGA", "state": "NY", "zip": "12883-3041", "ntee": "T22", "ruling": "202306", "deductibility": "1", "assets": 0, "income": 0, "revenue": 0}, {"ein": "934272254", "name": "CYCLING WITHOUT AGE ADIRONDACK COAST", "city": "WEST CHAZY", "state": "NY", "zip": "12992-3440", "ntee": "P99", "ruling": "202408", "deductibility": "1", "assets": 0, "income": 0, "revenue": 0}, {"ein": "993153036", "name": "ADIRONDACK JAZZ INC", "city": "KEESEVILLE", "state": "NY", "zip": "12944-4155", "ntee": "P12", "ruling": "202405", "deductibility": "1", "assets": 0, "income": 0, "revenue": 0}, {"ein": "993155316", "name": "ADIRONDACK COMMUNITY AVALANCHE PROJECT", "city": "LAKE PLACID", "state": "NY", "zip": "12946-4808", "ntee": "B99", "ruling": "202407", "deductibility": "1", "assets": 0, "income": 0, "revenue": 0}, {"ein": "993685647", "name": "ADIRONDACK IMPACT TRAVEL SOFTBALL", "city": "TICONDEROGA", "state": "NY", "zip": "12883-1102", "ntee": "N63", "ruling": "202408", "deductibility": "1", "assets": 0, "income": 0, "revenue": 0}, {"ein": "993952337", "name": "LOWER ADIRONDACK ALLIANCE FOR FREEDOM INC", "city": "QUEENSBURY", "state": "NY", "zip": "12804-8432", "ntee": "I01", "ruling": "202506", "deductibility": "1", "assets": 0, "income": 0, "revenue": 0}, {"ein": "994035017", "name": "NORTHERN ADIRONDACK PET FUND INC", "city": "SARANAC", "state": "NY", "zip": "12981-0002", "ntee": "D12", "ruling": "202408", "deductibility": "1", "assets": 0, "income": 0, "revenue": 0}], "PRESSE": [{"ein": "010728746", "name": "UGLY DUCKLING PRESSE LTD", "city": "BROOKLYN", "state": "NY", "zip": "11215-2733", "ntee": "A20", "ruling": "200404", "deductibility": "1", "assets": 270896, "income": 381176, "revenue": 381176}], "CANEADEA": [{"ein": "010770019", "name": "CANEADEA HILLS COMMUNITY CHURCH", "city": "PORTAGEVILLE", "state": "NY", "zip": "14536-9702", "ntee": "X20", "ruling": "200309", "deductibility": "1", "assets": 0, "income": 0, "revenue": 0}, {"ein": "161592484", "name": "CANEADEA BOOSTERS INC", "city": "CANEADEA", "state": "NY", "zip": "14717-8708", "ntee": "M11", "ruling": "200712", "deductibility": "1", "assets": 0, "income": 0, "revenue": 0}], "RENEWAL": [{"ein": "010795769", "name": "RENEWAL OF THE LORDS TEMPLE MINISTRIES INC", "city": "GLEN COVE", "state": "NY", "zip": "11542-2617", "ntee": "X20", "ruling": "200407", "deductibility": "1", "assets": 0, "income": 0, "revenue": 0}, {"ein": "061626123", "name": "RENEWAL FOUNDATION INC", "city": "OAKLAND GDNS", "state": "NY", "zip": "11364-3537", "ntee": "B82", "ruling": "200301", "deductibility": "1", "assets": 925987, "income": 1066001, "revenue": 1066001}, {"ein": "113144117", "name": "RENEWAL MINISTRIES INCORPORATED", "city": "BROOKLYN", "state": "NY", "zip": "11203-3489", "ntee": "", "ruling": "199311", "deductibility": "1", "assets": 0, "income": 0, "revenue": 0}, {"ein": "132602882", "name": "PROJECT RENEWAL INC", "city": "NEW YORK", "state": "NY", "zip": "10014-4810", "ntee": "F300", "ruling": "196804", "deductibility": "1", "assets": 96897841, "income": 121955549, "revenue": 121741421}, {"ein": "132614182", "name": "EAST RIVER NORTH RENEWAL INC", "city": "NEW YORK", "state": "NY", "zip": "10035-4325", "ntee": "", "ruling": "196903", "deductibility": "1", "assets": 1, "income": 0, "revenue": 0}, {"ein": "132834016", "name": "CONGREGATIONS LINKED IN URBAN STRATEGY TO EFFECT RENEWAL INC", "city": "YONKERS", "state": "NY", "zip": "10701-7045", "ntee": "P800", "ruling": "197609", "deductibility": "1", "assets": 5500426, "income": 7402332, "revenue": 7402332}, {"ein": "133320984", "name": "OUTSTANDING RENEWAL ENTERPRISES INC", "city": "NEW YORK", "state": "NY", "zip": "10009-8972", "ntee": "", "ruling": "198604", "deductibility": "1", "assets": 3425836, "income": 1779367, "revenue": 1774732}, {"ein": "133450836", "name": "COMMUNITY OF THE FRANCISCAN FRIARS OF THE RENEWAL", "city": "BRONX", "state": "NY", "zip": "10455-1205", "ntee": "", "ruling": "194603", "deductibility": "1", "assets": 0, "income": 0, "revenue": 0}, {"ein": "133466166", "name": "WESTON UNITED COMMUNITY RENEWAL INC", "city": "NEW YORK", "state": "NY", "zip": "10027-4991", "ntee": "P800", "ruling": "198909", "deductibility": "1", "assets": 33566228, "income": 10953187, "revenue": 10953187}, {"ein": "133641489", "name": "YOUTH RENEWAL FUND", "city": "NEW YORK", "state": "NY", "zip": "10036-7329", "ntee": "B25I", "ruling": "199202", "deductibility": "1", "assets": 10579483, "income": 12916392, "revenue": 12492259}, {"ein": "133697868", "name": "FRANCISCAN RENEWAL SERVICES INC", "city": "BRONX", "state": "NY", "zip": "10455-1232", "ntee": "X99Z", "ruling": "199302", "deductibility": "1", "assets": 0, "income": 0, "revenue": 0}, {"ein": "134163968", "name": "PROJECT RENEWAL FUND INC", "city": "NEW YORK", "state": "NY", "zip": "10014-4810", "ntee": "T30", "ruling": "200305", "deductibility": "1", "assets": 0, "income": 0, "revenue": 0}, {"ein": "134198207", "name": "CHRISTIAN ACTION FOR RENEWAL & DEVELOPMENT CORPORATION", "city": "BROOKLYN", "state": "NY", "zip": "11225-4701", "ntee": "P81", "ruling": "200403", "deductibility": "1", "assets": 0, "income": 0, "revenue": 0}, {"ein": "141776627", "name": "RENEWAL PRAYER NETWORK INC", "city": "ALBANY", "state": "NY", "zip": "12211-0316", "ntee": "X99I", "ruling": "199607", "deductibility": "1", "assets": 9125, "income": 58462, "revenue": 58462}, {"ein": "161182249", "name": "ST LAWRENCE VALLEY RENEWAL HOUSE FOR VICTIMS OF FAMILY VIOLENCE INC", "city": "CANTON", "state": "NY", "zip": "13617-1134", "ntee": "", "ruling": "198302", "deductibility": "1", "assets": 1677669, "income": 1296024, "revenue": 1289007}, {"ein": "161493335", "name": "RENEWAL OF LIFE CHURCH OF GOD AND CHRIST", "city": "PALMYRA", "state": "NY", "zip": "14522-9705", "ntee": "X20", "ruling": "202202", "deductibility": "1", "assets": 0, "income": 0, "revenue": 0}, {"ein": "161534909", "name": "CENTER OF RENEWAL INC", "city": "STELA NIAGARA", "state": "NY", "zip": "14144-1001", "ntee": "", "ruling": "194603", "deductibility": "1", "assets": 0, "income": 0, "revenue": 0}, {"ein": "202592943", "name": "RENEWAL OF THE MIND CHURCH", "city": "BRONX", "state": "NY", "zip": "10453-4128", "ntee": "X21", "ruling": "200610", "deductibility": "1", "assets": 0, "income": 0, "revenue": 0}, {"ein": "222296810", "name": "SPIRITUAL RENEWAL CENTER OF", "city": "SYRACUSE", "state": "NY", "zip": "13210-3332", "ntee": "", "ruling": "198110", "deductibility": "1", "assets": 162029, "income": 188480, "revenue": 188480}, {"ein": "260037088", "name": "WESTON UNITED COMMUNITY RENEWAL HOUSING DEVELOPMENT FUND CORP", "city": "NEW YORK", "state": "NY", "zip": "10027-4991", "ntee": "", "ruling": "200201", "deductibility": "0", "assets": 0, "income": 0, "revenue": 0}, {"ein": "454311936", "name": "SOUTH BROOKLYN RENEWAL HOUSING DEVELOPMENT FUND CORPORATION", "city": "BROOKLYN", "state": "NY", "zip": "11231-1466", "ntee": "L20", "ruling": "201307", "deductibility": "1", "assets": 2573933, "income": 396497, "revenue": 396497}, {"ein": "455233944", "name": "COMMUNITY ENRICHMENT NETWORK TOWARDS EMPOWERMENT AND RENEWAL IN", "city": "HAVERSTRAW", "state": "NY", "zip": "10927-0000", "ntee": "P80", "ruling": "201209", "deductibility": "1", "assets": 0, "income": 0, "revenue": 0}, {"ein": "460856026", "name": "PROPHETIC RENEWAL MINISTRIES INC", "city": "S RICHMOND HL", "state": "NY", "zip": "11419-2219", "ntee": "X21", "ruling": "201408", "deductibility": "1", "assets": 0, "income": 0, "revenue": 0}, {"ein": "461578773", "name": "COMMUNITY RENEWAL HOUSING DEVELOPMENT FUND COMPANY INC", "city": "NEW YORK", "state": "NY", "zip": "10002-2374", "ntee": "L21", "ruling": "201606", "deductibility": "1", "assets": 1644, "income": 0, "revenue": 0}, {"ein": "463192471", "name": "LONG ISLAND ASSOCIATION OF HOUSING AND RENEWAL OFFICIALS INC", "city": "OAKDALE", "state": "NY", "zip": "11769-1433", "ntee": "S20", "ruling": "201407", "deductibility": "1", "assets": 0, "income": 0, "revenue": 0}, {"ein": "472767866", "name": "KOL HAI HUDSON VALLEY JEWISH RENEWAL INC", "city": "ULSTER PARK", "state": "NY", "zip": "12487-5222", "ntee": "X30", "ruling": "201608", "deductibility": "1", "assets": 0, "income": 0, "revenue": 0}, {"ein": "473219583", "name": "FUND FOR THE RENEWAL OF JEWISH LIFE IN KAUNAS INC", "city": "CEDARHURST", "state": "NY", "zip": "11516-1915", "ntee": "X30", "ruling": "201503", "deductibility": "1", "assets": 5886, "income": 290429, "revenue": 290429}, {"ein": "593670362", "name": "CHRISTIAN RENEWAL CENTER", "city": "CANANDAIGUA", "state": "NY", "zip": "14424-8074", "ntee": "", "ruling": "199112", "deductibility": "1", "assets": 0, "income": 0, "revenue": 0}, {"ein": "611675617", "name": "BRANCHES CHRISTIAN REST AND RENEWAL CENTERS INC", "city": "LANCASTER", "state": "NY", "zip": "14086-9605", "ntee": "X99", "ruling": "201302", "deductibility": "1", "assets": 1316, "income": 12078, "revenue": 12078}, {"ein": "824601176", "name": "PARTNERSHIP FOR MUSIC MINISTRY RENEWAL", "city": "HORSEHEADS", "state": "NY", "zip": "14845-9216", "ntee": "X20", "ruling": "201806", "deductibility": "1", "assets": 0, "income": 0, "revenue": 0}, {"ein": "833652635", "name": "NEIGHBORHOOD RENEWAL HOUSING DEVELOPMENT FUND CORPORATION", "city": "JAMAICA", "state": "NY", "zip": "11435-2557", "ntee": "L11", "ruling": "202101", "deductibility": "1", "assets": 225550097, "income": 568260, "revenue": 568260}, {"ein": "842755808", "name": "REEF RENEWAL FOUNDATION INTERNATIONAL", "city": "LARCHMONT", "state": "NY", "zip": "10538-1136", "ntee": "C32", "ruling": "201909", "deductibility": "1", "assets": 142030, "income": 304500, "revenue": 304500}, {"ein": "900772896", "name": "RENEWAL OF LIFE INC", "city": "BROOKLYN", "state": "NY", "zip": "11219-2510", "ntee": "P20", "ruling": "201209", "deductibility": "1", "assets": 16248866, "income": 12063942, "revenue": 10202540}, {"ein": "920715890", "name": "SUN HILL RENEWAL FUND", "city": "NEW YORK", "state": "NY", "zip": "10023-2624", "ntee": "T20", "ruling": "202304", "deductibility": "1", "assets": 5105663, "income": 2214677, "revenue": 0}, {"ein": "922621461", "name": "COLLABORATIVE FOR HEALING AND RENEWAL IN MEDICINE", "city": "NEW YORK", "state": "NY", "zip": "10029-6504", "ntee": "E03", "ruling": "202403", "deductibility": "1", "assets": 72543, "income": 95802, "revenue": 95802}, {"ein": "992054299", "name": "RENEWAL RANCH", "city": "VESTAL", "state": "NY", "zip": "13850-6124", "ntee": "X01", "ruling": "202404", "deductibility": "1", "assets": 0, "income": 0, "revenue": 0}], "HEIGHTS": [{"ein": "030468650", "name": "CONCERTS IN THE HEIGHTS INC", "city": "NEW YORK", "state": "NY", "zip": "10034-1271", "ntee": "A68", "ruling": "200208", "deductibility": "1", "assets": 0, "income": 0, "revenue": 0}, {"ein": "061081232", "name": "MORRIS HEIGHTS HEALTH CENTER INC", "city": "BRONX", "state": "NY", "zip": "10453-4015", "ntee": "E32Z", "ruling": "198506", "deductibility": "1", "assets": 146809181, "income": 86787642, "revenue": 77490805}, {"ein": "061523283", "name": "FRIENDS OF GRACE CHURCH SCHOOL BROOKLYN HEIGHTS INC", "city": "BROOKLYN", "state": "NY", "zip": "11201-4028", "ntee": "T20Z", "ruling": "199812", "deductibility": "1", "assets": 2574970, "income": 368066, "revenue": 346871}, {"ein": "110868220", "name": "HEIGHTS CASINO INC", "city": "BROOKLYN", "state": "NY", "zip": "11201-3304", "ntee": "", "ruling": "194211", "deductibility": "2", "assets": 8949087, "income": 8809099, "revenue": 7330122}, {"ein": "111504005", "name": "BROOKLYN HEIGHTS ASSOCIATION INC", "city": "BROOKLYN", "state": "NY", "zip": "11201-2266", "ntee": "S220", "ruling": "197801", "deductibility": "1", "assets": 715740, "income": 111563, "revenue": 111563}, {"ein": "111631837", "name": "WYCKOFF HEIGHTS MEDICAL CENTER", "city": "BROOKLYN", "state": "NY", "zip": "11237-4434", "ntee": "E21", "ruling": "194212", "deductibility": "1", "assets": 471648060, "income": 415310891, "revenue": 415310891}, {"ein": "111633496", "name": "YESHIVAH TALMUD TORAH OF CROWN HEIGHTS", "city": "BROOKLYN", "state": "NY", "zip": "11234-5930", "ntee": "", "ruling": "194907", "deductibility": "1", "assets": 0, "income": 0, "revenue": 0}, {"ein": "111681124", "name": "JEWISH CENTER OF JACKSON HEIGHTS INC", "city": "JACKSON HTS", "state": "NY", "zip": "11372-6630", "ntee": "", "ruling": "198004", "deductibility": "1", "assets": 0, "income": 0, "revenue": 0}, {"ein": "111733457", "name": "CAMBRIA HEIGHTS COMMUNITY CHURCH", "city": "CAMBRIA HTS", "state": "NY", "zip": "11411-1607", "ntee": "", "ruling": "198601", "deductibility": "1", "assets": 0, "income": 0, "revenue": 0}, {"ein": "111984926", "name": "REMSEN HEIGHTS JEWISH CENTER INC", "city": "BROOKLYN", "state": "NY", "zip": "11236-4759", "ntee": "", "ruling": "196006", "deductibility": "1", "assets": 0, "income": 0, "revenue": 0}, {"ein": "112194085", "name": "STUYVESTANT HEIGHTS CHRISTIAN CHURCH", "city": "BROOKLYN", "state": "NY", "zip": "11216-2303", "ntee": "", "ruling": "195107", "deductibility": "1", "assets": 0, "income": 0, "revenue": 0}, {"ein": "112305641", "name": "FRIENDS OF CROWN HEIGHTS EDUCATIONAL CENTERS INC", "city": "BROOKLYN", "state": "NY", "zip": "11216-3508", "ntee": "P330", "ruling": "197605", "deductibility": "1", "assets": 47002641, "income": 62273311, "revenue": 62273311}, {"ein": "112322490", "name": "CROWN HEIGHTS PRESERVATION COMMITTEE CORP", "city": "BROOKLYN", "state": "NY", "zip": "11203-1001", "ntee": "", "ruling": "199409", "deductibility": "1", "assets": 227220, "income": 757614, "revenue": 757614}, {"ein": "112335811", "name": "BROOKLYN HEIGHTS MUSIC SOCIETY INC", "city": "BROOKLYN", "state": "NY", "zip": "11202-0334", "ntee": "", "ruling": "197412", "deductibility": "1", "assets": 104679, "income": 93073, "revenue": 86287}, {"ein": "112369875", "name": "HASSIDIC CONGREGATION OF CROWN HEIGHTS", "city": "BROOKLYN", "state": "NY", "zip": "11213-4449", "ntee": "", "ruling": "197602", "deductibility": "1", "assets": 0, "income": 0, "revenue": 0}, {"ein": "112404508", "name": "BROOKLYN HEIGHTS SYNAGOGUE", "city": "BROOKLYN", "state": "NY", "zip": "11201-4212", "ntee": "", "ruling": "196112", "deductibility": "1", "assets": 0, "income": 0, "revenue": 0}, {"ein": "112506422", "name": "CROWN HEIGHTS YOUTH COLLECTIVE INC", "city": "BROOKLYN", "state": "NY", "zip": "11216-3913", "ntee": "P300", "ruling": "197805", "deductibility": "1", "assets": 92636, "income": 198681, "revenue": 198681}, {"ein": "112513146", "name": "WYCKOFF HEIGHTS HOSPITAL SELF INSURANCE FUND", "city": "BROOKLYN", "state": "NY", "zip": "11237-4006", "ntee": "", "ruling": "198001", "deductibility": "1", "assets": 1, "income": 0, "revenue": 0}, {"ein": "112534644", "name": "REACH INTO CULTURAL HEIGHTS INC", "city": "FLUSHING", "state": "NY", "zip": "11367-1575", "ntee": "", "ruling": "199109", "deductibility": "1", "assets": 0, "income": 0, "revenue": 0}, {"ein": "112540663", "name": "CROWN HEIGHTS PASTORAL COUNCIL INC", "city": "BKLYN", "state": "NY", "zip": "11213-4801", "ntee": "", "ruling": "198011", "deductibility": "1", "assets": 0, "income": 0, "revenue": 0}, {"ein": "112542011", "name": "HARMONY HEIGHTS SCHOOL", "city": "EAST NORWICH", "state": "NY", "zip": "11732-1416", "ntee": "B28Z", "ruling": "198207", "deductibility": "1", "assets": 6845923, "income": 2841913, "revenue": 2841913}, {"ein": "112562535", "name": "CROWN HEIGHTS SERVICE CENTER INC", "city": "BROOKLYN", "state": "NY", "zip": "11216-3404", "ntee": "P28", "ruling": "198212", "deductibility": "1", "assets": 493, "income": 36560, "revenue": 36560}, {"ein": "112586154", "name": "AGUDSA TAHARAS HAMISHPACHA OF CROW HEIGHTS-CROWN HEIGHTS MIKVAH INC", "city": "BROOKLYN", "state": "NY", "zip": "11213-4446", "ntee": "X30", "ruling": "201302", "deductibility": "1", "assets": 205342, "income": 118667, "revenue": 118667}, {"ein": "112587033", "name": "WYANDANCH WHEATLEY HEIGHTS AMBULANCE CORP", "city": "WYANDANCH", "state": "NY", "zip": "11798-2330", "ntee": "", "ruling": "198310", "deductibility": "1", "assets": 4394353, "income": 2793686, "revenue": 2714560}, {"ein": "112588802", "name": "BUSHWICK STUYVESANT HEIGHTS HOME ATTENDENT PROGRAM INC", "city": "BROOKLYN", "state": "NY", "zip": "11221-3602", "ntee": "P440", "ruling": "198309", "deductibility": "1", "assets": 7309679, "income": 10623332, "revenue": 10623332}, {"ein": "112669852", "name": "FLUSHING HEIGHTS CIVIC ASSN", "city": "FRESH MEADOWS", "state": "NY", "zip": "11365-2001", "ntee": "", "ruling": "198209", "deductibility": "2", "assets": 0, "income": 0, "revenue": 0}, {"ein": "112688282", "name": "JACKSON HEIGHTS ART CLUB INC", "city": "JACKSON HTS", "state": "NY", "zip": "11372-0335", "ntee": "", "ruling": "198503", "deductibility": "1", "assets": 14546, "income": 20583, "revenue": 20583}, {"ein": "112785192", "name": "CONGREGATION BNAI SOLOMON ZALMAN OF CROWN HEIGHTS", "city": "BROOKLYN", "state": "NY", "zip": "11213-5038", "ntee": "", "ruling": "198609", "deductibility": "1", "assets": 0, "income": 0, "revenue": 0}, {"ein": "112785605", "name": "HEIGHTS HILL MENTAL HEALTH SERIVCE", "city": "BROOKLYN", "state": "NY", "zip": "11201-5826", "ntee": "", "ruling": "199010", "deductibility": "1", "assets": 4323847, "income": 2059258, "revenue": 2059258}, {"ein": "112789513", "name": "CAMBRIA HEIGHTS CIVIC ASSOCIATION INC", "city": "CAMBRIA HTS", "state": "NY", "zip": "11411-0007", "ntee": "S22", "ruling": "201102", "deductibility": "2", "assets": 0, "income": 0, "revenue": 0}, {"ein": "112792941", "name": "CONGREGATION ANASH OF CROWN HEIGHTS", "city": "BROOKLYN", "state": "NY", "zip": "11213-5244", "ntee": "", "ruling": "198604", "deductibility": "1", "assets": 0, "income": 0, "revenue": 0}, {"ein": "112802661", "name": "CROWN HEIGHTS GOSPEL CHURCH INC", "city": "BROOKLYN", "state": "NY", "zip": "11208-2341", "ntee": "", "ruling": "198606", "deductibility": "1", "assets": 0, "income": 0, "revenue": 0}, {"ein": "112873163", "name": "VAAD HAKOHOL DESCHUNAS CROWN HEIGHTS", "city": "BROOKLYN", "state": "NY", "zip": "11225-3126", "ntee": "X30", "ruling": "201401", "deductibility": "1", "assets": 268288, "income": 604961, "revenue": 604961}, {"ein": "112890302", "name": "LOCAL DEVELOPMENT CORPORATION OF CROWN HEIGHTS INC", "city": "BROOKLYN", "state": "NY", "zip": "11213-2696", "ntee": "S200", "ruling": "198809", "deductibility": "1", "assets": 12860552, "income": 3806619, "revenue": 1226111}, {"ein": "112925587", "name": "JACKSON HEIGHTS BEAUTIFICATION GROUP LTD", "city": "JACKSON HTS", "state": "NY", "zip": "11372-0253", "ntee": "C500", "ruling": "198904", "deductibility": "1", "assets": 59269, "income": 66465, "revenue": 63627}, {"ein": "113004824", "name": "JACKSON HEIGHTS SDA SCHOOL", "city": "WOODSIDE", "state": "NY", "zip": "11377-3998", "ntee": "", "ruling": "194704", "deductibility": "1", "assets": 0, "income": 0, "revenue": 0}, {"ein": "113018126", "name": "CROWN HEIGHTS RESIDENCE FOR ADULTS HOUSING DEVELOPMENT FUND CORP", "city": "BROOKLYN", "state": "NY", "zip": "11213-1293", "ntee": "L20", "ruling": "199404", "deductibility": "1", "assets": 212955, "income": 603931, "revenue": 603931}, {"ein": "113058266", "name": "GREATER GORDON HEIGHTS CIVIC ASSN INC", "city": "MIDDLE ISLAND", "state": "NY", "zip": "11953-0803", "ntee": "P28Z", "ruling": "199504", "deductibility": "1", "assets": 0, "income": 0, "revenue": 0}, {"ein": "113063055", "name": "CHABAD LUBAVITCH OF BROOKLYN HEIGHTS", "city": "BROOKLYN", "state": "NY", "zip": "11201-4212", "ntee": "", "ruling": "199302", "deductibility": "1", "assets": 0, "income": 0, "revenue": 0}, {"ein": "113207432", "name": "CONCERNED TAXPAYERS OF WHEATLEY HEIGHTS-DIX HILLS INC", "city": "WHEATLEY HTS", "state": "NY", "zip": "11798-0472", "ntee": "", "ruling": "199706", "deductibility": "2", "assets": 15867, "income": 10450, "revenue": 4133}, {"ein": "113363647", "name": "FRIENDS OF THE BROOKLYN HEIGHTS BRANCH LIBRARY INC", "city": "BROOKLYN", "state": "NY", "zip": "11201-2701", "ntee": "B117", "ruling": "199707", "deductibility": "1", "assets": 0, "income": 0, "revenue": 0}, {"ein": "113422707", "name": "DYKER HEIGHTS ATHLETIC ASSOC INC", "city": "BROOKLYN", "state": "NY", "zip": "11228-3015", "ntee": "N99", "ruling": "200303", "deductibility": "1", "assets": 184434, "income": 316407, "revenue": 316407}, {"ein": "113440088", "name": "WYCKOFF HEIGHTS DENTAL SERVICES P C", "city": "BROOKLYN", "state": "NY", "zip": "11237-4006", "ntee": "E300", "ruling": "200306", "deductibility": "1", "assets": 22267, "income": 1131997, "revenue": 1131997}, {"ein": "113493618", "name": "VAAD HAKOL CROWN HEIGHTS", "city": "BROOKLYN", "state": "NY", "zip": "11213-4238", "ntee": "P20", "ruling": "202503", "deductibility": "1", "assets": 116792, "income": 205907, "revenue": 205907}, {"ein": "113496049", "name": "THE MOTHERS CLUB OF WHEATLEY HEIGHTS INC", "city": "WHEATLEY HTS", "state": "NY", "zip": "11798-0820", "ntee": "P30", "ruling": "201408", "deductibility": "1", "assets": 0, "income": 0, "revenue": 0}, {"ein": "113506190", "name": "CROWN HEIGHTS NORTH & SOUTH FAITH BASE COMMUNITY OUTREACH ORGANIZATI", "city": "BROOKLYN", "state": "NY", "zip": "11213-4901", "ntee": "P20", "ruling": "200004", "deductibility": "1", "assets": 0, "income": 0, "revenue": 0}, {"ein": "113519417", "name": "WYCKOFF HEIGHTS MEDICAL SERVICES P C", "city": "BROOKLYN", "state": "NY", "zip": "11237-4434", "ntee": "E600", "ruling": "200306", "deductibility": "1", "assets": 2143, "income": 80249, "revenue": 80249}, {"ein": "113569499", "name": "ISLAMIC CENTER OF JACKSON HEIGHTS INC", "city": "EAST ELMHURST", "state": "NY", "zip": "11370-1818", "ntee": "X40", "ruling": "200305", "deductibility": "1", "assets": 5222678, "income": 833767, "revenue": 833767}, {"ein": "113626419", "name": "WYCKOFF HEIGHTS MEDICAL CENTER FOUNDATION", "city": "BROOKLYN", "state": "NY", "zip": "11237-4006", "ntee": "E11", "ruling": "200111", "deductibility": "1", "assets": 4174424, "income": 8520, "revenue": 8520}, {"ein": "116000438", "name": "CONGREGATION TIFERETH ISRAEL OF JACKSON HEIGHTS INC", "city": "EAST ELMHURST", "state": "NY", "zip": "11369-1415", "ntee": "", "ruling": "193810", "deductibility": "1", "assets": 0, "income": 0, "revenue": 0}, {"ein": "116035649", "name": "HEIGHTS PLAYERS INC", "city": "BROOKLYN", "state": "NY", "zip": "11201-4513", "ntee": "A650", "ruling": "196010", "deductibility": "1", "assets": 269631, "income": 196900, "revenue": 187855}, {"ein": "116044329", "name": "BROOKLYN HEIGHTS MONTESSORI SCHOOL", "city": "BROOKLYN", "state": "NY", "zip": "11201-6444", "ntee": "", "ruling": "196512", "deductibility": "1", "assets": 23421432, "income": 13038243, "revenue": 12786409}, {"ein": "130831470", "name": "HEBREW TABERNACLE OF WASHINGTON HEIGHTS INC", "city": "NEW YORK", "state": "NY", "zip": "10033-1908", "ntee": "", "ruling": "195208", "deductibility": "1", "assets": 0, "income": 0, "revenue": 0}, {"ein": "131635308", "name": "YOUNG MENS AND YOUNG WOMENS HEBREW ASSOCIATION OF WASHINGTON HEIGHTS", "city": "NEW YORK", "state": "NY", "zip": "10040-1406", "ntee": "P27Z", "ruling": "193806", "deductibility": "1", "assets": 25878956, "income": 20202308, "revenue": 13866232}, {"ein": "131656643", "name": "CONGREGATION BETH HAMEDRASH HAGODOL OF WASHINGTON HEIGHTS", "city": "NEW YORK", "state": "NY", "zip": "10033-7925", "ntee": "", "ruling": "197702", "deductibility": "1", "assets": 0, "income": 0, "revenue": 0}, {"ein": "131656693", "name": "WASHINGTON HEIGHTS HELLENIC ORTHODOX CHURCH INC", "city": "NEW YORK", "state": "NY", "zip": "10033-4812", "ntee": "", "ruling": "195210", "deductibility": "1", "assets": 0, "income": 0, "revenue": 0}, {"ein": "131681989", "name": "WASHINGTON HEIGHTS CONGREGATION", "city": "NEW YORK", "state": "NY", "zip": "10040-0813", "ntee": "", "ruling": "195801", "deductibility": "1", "assets": 0, "income": 0, "revenue": 0}, {"ein": "131739986", "name": "JEWISH CENTER OF UNIVERSITY HEIGHTS INC", "city": "BRONX", "state": "NY", "zip": "10453-7665", "ntee": "", "ruling": "194101", "deductibility": "1", "assets": 0, "income": 0, "revenue": 0}, {"ein": "131739996", "name": "KINGSBRIDGE HEIGHTS JEWISH CENTER", "city": "BRONX", "state": "NY", "zip": "10468-3306", "ntee": "", "ruling": "193711", "deductibility": "1", "assets": 0, "income": 0, "revenue": 0}, {"ein": "131802293", "name": "CONGREGATION BETH ISRAEL OF WASHINGTON HEIGHTS INC", "city": "NEW YORK", "state": "NY", "zip": "10033-5001", "ntee": "", "ruling": "196508", "deductibility": "1", "assets": 0, "income": 0, "revenue": 0}, {"ein": "132564241", "name": "COMMUNITY LEAGUE OF THE HEIGHTS INC", "city": "NEW YORK", "state": "NY", "zip": "10032-6912", "ntee": "S80Z", "ruling": "197103", "deductibility": "1", "assets": 5158794, "income": 3188315, "revenue": 3105572}, {"ein": "132709329", "name": "WASHINGTON HEIGHTS CHILD CARE CENTER", "city": "NEW YORK", "state": "NY", "zip": "10033-0000", "ntee": "", "ruling": "197509", "deductibility": "0", "assets": 32235, "income": 665596, "revenue": 665596}, {"ein": "132792876", "name": "WASHINGTON HEIGHTS COMMUNITY SERVICES INC", "city": "NEW YORK", "state": "NY", "zip": "10033-1321", "ntee": "P81Z", "ruling": "197302", "deductibility": "1", "assets": 2019192, "income": 1008422, "revenue": 1008422}, {"ein": "132813809", "name": "KINGSBRIDGE HEIGHTS COMMUNITY CENTER INC", "city": "BRONX", "state": "NY", "zip": "10463-5900", "ntee": "P280", "ruling": "197611", "deductibility": "1", "assets": 4688362, "income": 15229120, "revenue": 15144809}, {"ein": "132870441", "name": "IGLESIA PENTECOSTAL OF WASHINGTON HEIGHTS", "city": "NEW YORK", "state": "NY", "zip": "10033-4215", "ntee": "X20Z", "ruling": "196408", "deductibility": "1", "assets": 0, "income": 0, "revenue": 0}, {"ein": "132883903", "name": "BRONX HEIGHTS NEIGHBORHOOD COMMUNITY CORPORATION", "city": "BRONX", "state": "NY", "zip": "10452-1654", "ntee": "L50Z", "ruling": "197703", "deductibility": "1", "assets": 0, "income": 0, "revenue": 0}, {"ein": "132884172", "name": "BIKUR CHOLIM OF CROWN HEIGHTS", "city": "BROOKLYN", "state": "NY", "zip": "11225-3125", "ntee": "P20Z", "ruling": "197702", "deductibility": "1", "assets": 1058218, "income": 758018, "revenue": 758018}, {"ein": "132944830", "name": "WASHINGTON HEIGHTS INWOOD PRESERVATION AND RESTORATION CORPO", "city": "NEW YORK", "state": "NY", "zip": "10033-2300", "ntee": "S220", "ruling": "197905", "deductibility": "1", "assets": 2658394, "income": 1482895, "revenue": 1482895}, {"ein": "132950346", "name": "WASHINGTON HEIGHTS AND INWOOD DEVELOPMENT CORPORATION", "city": "NEW YORK", "state": "NY", "zip": "10033-0000", "ntee": "S31Z", "ruling": "197902", "deductibility": "1", "assets": 221875, "income": 332663, "revenue": 332663}, {"ein": "133091475", "name": "CANTERBURY HEIGHTS DEVELOPMENT CORPORATION", "city": "HAUPPAUGE", "state": "NY", "zip": "11788-3078", "ntee": "", "ruling": "198111", "deductibility": "1", "assets": 0, "income": 0, "revenue": 0}, {"ein": "133121268", "name": "FORT WASHINGTON HEIGHTS PRESBYTERIAN CHURCH", "city": "NEW YORK", "state": "NY", "zip": "10033-7018", "ntee": "", "ruling": "196401", "deductibility": "0", "assets": 0, "income": 0, "revenue": 0}, {"ein": "133206671", "name": "FRIENDS OF WASHINGTON HEIGHTS HATZOLOH INC C/O KAGANOFF", "city": "NEW YORK", "state": "NY", "zip": "10033-2353", "ntee": "E62I", "ruling": "198411", "deductibility": "1", "assets": 653363, "income": 221286, "revenue": 221286}, {"ein": "133280104", "name": "BIKUR CHOLIM OF WASHINGTON HEIGHTS", "city": "NEW YORK", "state": "NY", "zip": "10033-2118", "ntee": "X30Z", "ruling": "198510", "deductibility": "1", "assets": 112378, "income": 113654, "revenue": 113654}, {"ein": "133624145", "name": "NEW WASHINGTON HEIGHTS BAPTIST CHURCH", "city": "BRONX", "state": "NY", "zip": "10451-5013", "ntee": "X21", "ruling": "200308", "deductibility": "1", "assets": 0, "income": 0, "revenue": 0}, {"ein": "133668752", "name": "WASHINGTON HEIGHTS DEVELOPMENT FUND CORPORATION", "city": "YONKERS", "state": "NY", "zip": "10710-5319", "ntee": "L20Z", "ruling": "199306", "deductibility": "1", "assets": 921618, "income": 414091, "revenue": 414091}, {"ein": "133687895", "name": "ARMI WASHINGTON HEIGHTS HOUSING CORPORATION", "city": "NEW YORK", "state": "NY", "zip": "10001-2813", "ntee": "L99Z", "ruling": "199306", "deductibility": "1", "assets": 3701180, "income": 250829, "revenue": 250829}, {"ein": "133767240", "name": "UNIVERSITY HEIGHTS BAPTIST CHURCH", "city": "POMONA", "state": "NY", "zip": "10970-2708", "ntee": "X21Z", "ruling": "199501", "deductibility": "1", "assets": 0, "income": 0, "revenue": 0}, {"ein": "133804546", "name": "IGLESIA BAUTISTA DE WASHINGTON HEIGHTS INC", "city": "NEW YORK", "state": "NY", "zip": "10033-0000", "ntee": "", "ruling": "195504", "deductibility": "1", "assets": 0, "income": 0, "revenue": 0}, {"ein": "134017676", "name": "UNIVERSITY HEIGHTS EDUCATIONAL & CULTURAL DEVEL COMMUNITY CNTR INC", "city": "BROOKLYN", "state": "NY", "zip": "11237-8019", "ntee": "O50", "ruling": "201606", "deductibility": "1", "assets": 0, "income": 0, "revenue": 0}, {"ein": "134111840", "name": "CHILDRENS LEARNING CENTER AT MORNINGSIDE HEIGHTS INC", "city": "NEW YORK", "state": "NY", "zip": "10027-4719", "ntee": "P33", "ruling": "200104", "deductibility": "1", "assets": 483935, "income": 583842, "revenue": 583842}, {"ein": "135596812", "name": "BRIGHTON HEIGHTS REFORMED CHURCH", "city": "STATEN ISLAND", "state": "NY", "zip": "10301-2409", "ntee": "", "ruling": "196801", "deductibility": "1", "assets": 0, "income": 0, "revenue": 0}, {"ein": "136150285", "name": "YORKTOWN HEIGHTS ENGINE COMPANY NO 1", "city": "YORKTOWN HTS", "state": "NY", "zip": "10598-0463", "ntee": "M24", "ruling": "201402", "deductibility": "1", "assets": 1325490, "income": 195679, "revenue": 187729}, {"ein": "136167133", "name": "CHEVRA MISHNAYES OF HEBREW INSTITUTE OF UNIVERSITY HEIGHTS", "city": "BRONX", "state": "NY", "zip": "10453-4403", "ntee": "", "ruling": "194308", "deductibility": "1", "assets": 0, "income": 0, "revenue": 0}, {"ein": "141781912", "name": "UNIVERSITY HEIGHTS ASSOCIATION INC", "city": "ALBANY", "state": "NY", "zip": "12208-3423", "ntee": "S50Z", "ruling": "199611", "deductibility": "1", "assets": 1119498, "income": 3187227, "revenue": 3175795}, {"ein": "141806433", "name": "SCHUYLER HEIGHTS HOUSING DEVELOPMENT FUND COMPANY INC", "city": "ALBANY", "state": "NY", "zip": "12210-2616", "ntee": "L80", "ruling": "199811", "deductibility": "1", "assets": 0, "income": 0, "revenue": 0}, {"ein": "146017794", "name": "COMMUNITY HOSE COMPANY OF CLINTON HEIGHTS NEW YORK INC", "city": "RENSSELAER", "state": "NY", "zip": "12144-0226", "ntee": "M24", "ruling": "201011", "deductibility": "1", "assets": 0, "income": 0, "revenue": 0}, {"ein": "160849792", "name": "CLEVELAND HEIGHTS CHRISTIAN CHURCH", "city": "CHEEKTOWAGA", "state": "NY", "zip": "14225-1844", "ntee": "", "ruling": "195105", "deductibility": "1", "assets": 0, "income": 0, "revenue": 0}, {"ein": "160921420", "name": "COLONIAL HEIGHTS FMC", "city": "NIAGARA FALLS", "state": "NY", "zip": "14305-1443", "ntee": "", "ruling": "195806", "deductibility": "1", "assets": 0, "income": 0, "revenue": 0}, {"ein": "160956059", "name": "WESTFALL HEIGHTS HOUSING DEVELOPMENT FUND CORPORATION", "city": "ROCHESTER", "state": "NY", "zip": "14609-2457", "ntee": "L21", "ruling": "199906", "deductibility": "1", "assets": 6569793, "income": 252359, "revenue": 252359}, {"ein": "160995420", "name": "COMMUNITY NURSERY OF CAYUGA HEIGHTS INC", "city": "ITHACA", "state": "NY", "zip": "14850-2301", "ntee": "", "ruling": "196806", "deductibility": "1", "assets": 301122, "income": 378555, "revenue": 377416}, {"ein": "161007416", "name": "NEW HEIGHTS UNITED METHODIST CHURCH", "city": "JAMESTOWN", "state": "NY", "zip": "14701-9217", "ntee": "", "ruling": "197410", "deductibility": "0", "assets": 0, "income": 0, "revenue": 0}, {"ein": "161008545", "name": "CALVARY HEIGHTS BAPTIST CHURCH", "city": "ELMA", "state": "NY", "zip": "14059-0215", "ntee": "", "ruling": "197311", "deductibility": "1", "assets": 0, "income": 0, "revenue": 0}, {"ein": "161160170", "name": "MARKETVIEW HEIGHTS ASSOCIATION", "city": "ROCHESTER", "state": "NY", "zip": "14605-2540", "ntee": "", "ruling": "199204", "deductibility": "1", "assets": 296349, "income": 875097, "revenue": 875097}, {"ein": "161184848", "name": "STANWIX HEIGHTS VOLUNTEER FIRE DEPARTMENT INC", "city": "ROME", "state": "NY", "zip": "13440-1314", "ntee": "M24", "ruling": "201201", "deductibility": "1", "assets": 382563, "income": 90684, "revenue": 90684}, {"ein": "161479745", "name": "ELMIRA HEIGHTS POLICE BENEVOLENT ASSOCIATION INC", "city": "ELMIRA", "state": "NY", "zip": "14903-1736", "ntee": "", "ruling": "199605", "deductibility": "2", "assets": 53228, "income": 68735, "revenue": 68735}, {"ein": "161559294", "name": "STERLING HEIGHTS INC", "city": "SKANEATELES", "state": "NY", "zip": "13152-0000", "ntee": "X22", "ruling": "199910", "deductibility": "1", "assets": 0, "income": 0, "revenue": 0}, {"ein": "166050724", "name": "CHRISTIAN HEIGHTS INC", "city": "LITTLE VALLEY", "state": "NY", "zip": "14755-9734", "ntee": "X20", "ruling": "201408", "deductibility": "1", "assets": 0, "income": 0, "revenue": 0}, {"ein": "166054665", "name": "CAYUGA HEIGHTS FIRE CO 1", "city": "ITHACA", "state": "NY", "zip": "14850-2660", "ntee": "M24Z", "ruling": "199508", "deductibility": "1", "assets": 0, "income": 0, "revenue": 0}, {"ein": "166056996", "name": "KENWOOD HEIGHTS ALLIANCE CHURCH", "city": "SHERRILL", "state": "NY", "zip": "13461-1101", "ntee": "", "ruling": "197205", "deductibility": "1", "assets": 0, "income": 0, "revenue": 0}, {"ein": "166073704", "name": "SENTINEL HEIGHTS VOLUNTEER FIRE DEPARTMENT INC", "city": "JAMESVILLE", "state": "NY", "zip": "13078-9837", "ntee": "M24", "ruling": "202304", "deductibility": "1", "assets": 131370, "income": 73011, "revenue": 73011}, {"ein": "200006693", "name": "CROWN HEIGHTS NORTH ASSOCIATION INC", "city": "BROOKLYN", "state": "NY", "zip": "11213-2518", "ntee": "S20", "ruling": "200402", "deductibility": "1", "assets": 13118, "income": 63715, "revenue": 63715}, {"ein": "200780201", "name": "CROWN HEIGHTS CHEVRA SIMCHAS SHABBOS VYOM TOV INC", "city": "BROOKLYN", "state": "NY", "zip": "11225-3130", "ntee": "T30", "ruling": "200405", "deductibility": "1", "assets": 1084715, "income": 3826150, "revenue": 3826150}, {"ein": "201542908", "name": "GORDON HEIGHTS SPORTS COACH & PARENTS ASSOCIATION INC", "city": "MIDDLE ISLAND", "state": "NY", "zip": "11953-4050", "ntee": "O50", "ruling": "202404", "deductibility": "1", "assets": 0, "income": 0, "revenue": 0}, {"ein": "201903332", "name": "NEW HEIGHTS YOUTH INC", "city": "BROOKLYN", "state": "NY", "zip": "11225-1306", "ntee": "O50", "ruling": "200501", "deductibility": "1", "assets": 3590496, "income": 5315513, "revenue": 4013806}, {"ein": "202261056", "name": "CROWN HEIGHTS YOUTH INITIATIVE", "city": "BROOKLYN", "state": "NY", "zip": "11213-3911", "ntee": "B90", "ruling": "201003", "deductibility": "1", "assets": 0, "income": 0, "revenue": 0}, {"ein": "203057343", "name": "NEW HEIGHTS ACADEMY CHARTER SCHOOL", "city": "NEW YORK", "state": "NY", "zip": "10031-1715", "ntee": "B29", "ruling": "200703", "deductibility": "1", "assets": 33431955, "income": 15307285, "revenue": 15307285}, {"ein": "203779560", "name": "MORRIS HEIGHTS SENIOR HOUSING DEVELOPMENT FUND COMPANY INC", "city": "BRONX", "state": "NY", "zip": "10453-4015", "ntee": "L20", "ruling": "200512", "deductibility": "1", "assets": 0, "income": 0, "revenue": 0}, {"ein": "205727179", "name": "CHABAD OF WASHINGTON HEIGHTS INC", "city": "NEW YORK", "state": "NY", "zip": "10033-0000", "ntee": "X30", "ruling": "201407", "deductibility": "1", "assets": 0, "income": 0, "revenue": 0}, {"ein": "222461582", "name": "ELMIRA HEIGHTS HISTORICAL SOCIETY", "city": "ELMIRA HTS", "state": "NY", "zip": "14903-1320", "ntee": "", "ruling": "198308", "deductibility": "1", "assets": 0, "income": 0, "revenue": 0}, {"ein": "237237927", "name": "HEIGHTS AND HILLS INC", "city": "BROOKLYN", "state": "NY", "zip": "11201-5291", "ntee": "P81Z", "ruling": "197211", "deductibility": "1", "assets": 2994442, "income": 5912123, "revenue": 5099667}, {"ein": "237270012", "name": "BARCLAY HEIGHTS COMMUNITY CHURCH", "city": "LAKE KATRINE", "state": "NY", "zip": "12449-0019", "ntee": "", "ruling": "197303", "deductibility": "1", "assets": 0, "income": 0, "revenue": 0}, {"ein": "237325106", "name": "ARDEN HEIGHTS-BOULEVARD JEWISH CENTER", "city": "STATEN ISLAND", "state": "NY", "zip": "10312-1356", "ntee": "", "ruling": "197710", "deductibility": "1", "assets": 0, "income": 0, "revenue": 0}, {"ein": "237338682", "name": "HARMONY HEIGHTS INC", "city": "EAST NORWICH", "state": "NY", "zip": "11732-1416", "ntee": "P700", "ruling": "197405", "deductibility": "1", "assets": 3141315, "income": 43786, "revenue": 43786}, {"ein": "237390996", "name": "CROWN HEIGHTS JEWISH COMMUNITY COUNCIL INC", "city": "BROOKLYN", "state": "NY", "zip": "11225-3126", "ntee": "P200", "ruling": "197408", "deductibility": "1", "assets": 2090357, "income": 3626350, "revenue": 3626350}, {"ein": "237436147", "name": "ALPHA PHI ALPHA SENIOR CITIZENS CENTER INC CAMBRIA HEIGHTS COMMUN", "city": "CAMBRIA HTS", "state": "NY", "zip": "11411-1620", "ntee": "", "ruling": "197506", "deductibility": "1", "assets": 1299752, "income": 1169623, "revenue": 1169623}, {"ein": "237448492", "name": "CAMBRIA HEIGHTS GOSPEL CHAPEL INC", "city": "CAMBRIA HTS", "state": "NY", "zip": "11411-1623", "ntee": "", "ruling": "197505", "deductibility": "1", "assets": 0, "income": 0, "revenue": 0}, {"ein": "260152339", "name": "COUNCIL OF JEWISH ORGANIZATIONS OFCROWN HEIGHTS", "city": "BROOKLYN", "state": "NY", "zip": "11213-4432", "ntee": "P99", "ruling": "201406", "deductibility": "1", "assets": 12039, "income": 82266, "revenue": 82266}, {"ein": "261765459", "name": "WASHINGTON HEIGHTS CAT COLONY", "city": "NEW YORK", "state": "NY", "zip": "10033-6707", "ntee": "D20", "ruling": "200808", "deductibility": "1", "assets": 0, "income": 0, "revenue": 0}, {"ein": "264668635", "name": "UNIVERSITY HEIGHTS COLLABORATIVE INC", "city": "BUFFALO", "state": "NY", "zip": "14215-6688", "ntee": "S20", "ruling": "201002", "deductibility": "1", "assets": 0, "income": 0, "revenue": 0}, {"ein": "264725337", "name": "JACKSON HEIGHTS GREEN ALLIANCE INC", "city": "JACKSON HEIGHTS", "state": "NY", "zip": "11372-4986", "ntee": "N32", "ruling": "201105", "deductibility": "1", "assets": 0, "income": 0, "revenue": 0}, {"ein": "273524743", "name": "ROTARY CLUB OF HISTORIC JACKSON HEIGHTS INC", "city": "JACKSON HEIGHTS", "state": "NY", "zip": "11372-3951", "ntee": "W99", "ruling": "201412", "deductibility": "1", "assets": 0, "income": 0, "revenue": 0}, {"ein": "273968542", "name": "COMMUNITY BAPTIST CHURCH OF GORDON HEIGHTS INC", "city": "MIDDLE ISLAND", "state": "NY", "zip": "11953-1833", "ntee": "X21", "ruling": "201206", "deductibility": "1", "assets": 0, "income": 0, "revenue": 0}, {"ein": "274267737", "name": "ELMIRA HEIGHTS ROTARY FOUNDATION INC", "city": "ELMIRA", "state": "NY", "zip": "14903-0093", "ntee": "T30", "ruling": "201104", "deductibility": "1", "assets": 94214, "income": 3920, "revenue": 3920}, {"ein": "275117951", "name": "CHABAD HEIGHTS BROWNSTONE GAN KATAN INC", "city": "BROOKLYN", "state": "NY", "zip": "11216-3804", "ntee": "X30", "ruling": "201409", "deductibility": "1", "assets": 0, "income": 0, "revenue": 0}, {"ein": "301207994", "name": "CROWN HEIGHTS FILM FESTIVAL INC", "city": "BROOKLYN", "state": "NY", "zip": "11225-5566", "ntee": "A31", "ruling": "201910", "deductibility": "1", "assets": 0, "income": 0, "revenue": 0}, {"ein": "333716376", "name": "WASHINGTON HEIGHTS-INWOOD MASK BLOC", "city": "NEW YORK", "state": "NY", "zip": "10040-4249", "ntee": "P20", "ruling": "202504", "deductibility": "1", "assets": 0, "income": 0, "revenue": 0}, {"ein": "333935686", "name": "HUDSON HEIGHTS FOUNDATION", "city": "BRIARCLIFF", "state": "NY", "zip": "10510-2400", "ntee": "A82", "ruling": "202506", "deductibility": "1", "assets": 0, "income": 0, "revenue": 0}, {"ein": "412138050", "name": "PROSPECT HEIGHTS NEIGHBORHOOD DEVELOPMENT COUNCIL", "city": "BROOKLYN", "state": "NY", "zip": "11238-3906", "ntee": "S30", "ruling": "200509", "deductibility": "1", "assets": 74538, "income": 182599, "revenue": 182599}, {"ein": "452828381", "name": "HEIGHTS PRIMARY SCHOOL PARENT FACULTY ASSOCIATION INC", "city": "ROSLYN HTS", "state": "NY", "zip": "11577-1253", "ntee": "B94", "ruling": "201205", "deductibility": "1", "assets": 32090, "income": 56564, "revenue": 56564}, {"ein": "453211706", "name": "HIGHER HEIGHTS FOR AMERICA", "city": "BROOKLYN", "state": "NY", "zip": "11201-3022", "ntee": "R24", "ruling": "201407", "deductibility": "2", "assets": 246257, "income": 978168, "revenue": 994671}, {"ein": "454128097", "name": "JACKSON HEIGHTS MEDITATION INC", "city": "JACKSON HEIGHTS", "state": "NY", "zip": "11372-1523", "ntee": "X20", "ruling": "201301", "deductibility": "1", "assets": 71716, "income": 81486, "revenue": 81486}, {"ein": "455625226", "name": "RISING TO NEW HEIGHTS INC", "city": "BROOKLYN", "state": "NY", "zip": "11207-4214", "ntee": "L41", "ruling": "201708", "deductibility": "1", "assets": 0, "income": 0, "revenue": 0}, {"ein": "461942247", "name": "MID-BEDFORD HEIGHTS LIONS FOUNDATION INC", "city": "BROOKLYN", "state": "NY", "zip": "11225-3901", "ntee": "E70", "ruling": "201307", "deductibility": "1", "assets": 0, "income": 0, "revenue": 0}, {"ein": "462794947", "name": "CROWN HEIGHTS CLUBHOUSE INC", "city": "POUGKEEPSIE", "state": "NY", "zip": "12601-0000", "ntee": "", "ruling": "201406", "deductibility": "0", "assets": 0, "income": 0, "revenue": 0}, {"ein": "463379693", "name": "HEALTH IN THE HEIGHTS INC", "city": "NEW YORK", "state": "NY", "zip": "10025-3206", "ntee": "E70", "ruling": "201312", "deductibility": "1", "assets": 0, "income": 0, "revenue": 0}, {"ein": "463554404", "name": "HIGHER HEIGHTS LEADERSHIP FUND", "city": "BROOKLYN", "state": "NY", "zip": "11201-3022", "ntee": "R99", "ruling": "201511", "deductibility": "1", "assets": 1030638, "income": 1617351, "revenue": 1617351}, {"ein": "465217107", "name": "CROWN HEIGHTS COMMUNITY COUNCIL INC", "city": "BROOKLYN", "state": "NY", "zip": "11225-2401", "ntee": "W99", "ruling": "202202", "deductibility": "1", "assets": 0, "income": 0, "revenue": 0}, {"ein": "465740905", "name": "CHABAD OF HAMILTON HEIGHTS INC", "city": "NEW YORK", "state": "NY", "zip": "10031-2506", "ntee": "X30", "ruling": "201502", "deductibility": "1", "assets": 0, "income": 0, "revenue": 0}, {"ein": "471002072", "name": "SCIENCE AND ENTREPRENEURSHIP ASSOCIATION OF CROWN HEIGHTS INC", "city": "BROOKLYN", "state": "NY", "zip": "11234-1707", "ntee": "B92", "ruling": "201602", "deductibility": "1", "assets": 0, "income": 0, "revenue": 0}, {"ein": "471583227", "name": "DANCE PROJECT OF WASHINGTON HEIGHTS INC", "city": "NEW YORK", "state": "NY", "zip": "10033-6846", "ntee": "A62", "ruling": "201502", "deductibility": "1", "assets": 168783, "income": 471857, "revenue": 470197}, {"ein": "471852415", "name": "SHOMRIM OF CROWN HEIGHTS INC", "city": "BROOKLYN", "state": "NY", "zip": "11213-5410", "ntee": "I20", "ruling": "201411", "deductibility": "1", "assets": 132924, "income": 61744, "revenue": 61744}, {"ein": "472285764", "name": "PROSPECTS HEIGHTS CHURCH OF CHRIST INC", "city": "BROOKLYN", "state": "NY", "zip": "11238-4103", "ntee": "", "ruling": "198610", "deductibility": "1", "assets": 0, "income": 0, "revenue": 0}, {"ein": "473603634", "name": "BROOKLYN HEIGHTS JEWISH ACADEMY INC", "city": "BROOKLYN", "state": "NY", "zip": "11201-4212", "ntee": "X30", "ruling": "201504", "deductibility": "1", "assets": 0, "income": 0, "revenue": 0}, {"ein": "473934514", "name": "CONGREGATION POMONA HEIGHTS", "city": "POMONA", "state": "NY", "zip": "10970-2102", "ntee": "X30", "ruling": "202007", "deductibility": "1", "assets": 0, "income": 0, "revenue": 0}, {"ein": "474902761", "name": "WASHINGTON HEIGHTS CHAMBER ORCHESTRA CORPORATION", "city": "NEW YORK", "state": "NY", "zip": "10033-2086", "ntee": "A69", "ruling": "201601", "deductibility": "1", "assets": 34344, "income": 84258, "revenue": 84258}, {"ein": "475540715", "name": "HELPING HAND FOUNDATION OF CROWN HEIGHTS INC", "city": "BROOKLYN", "state": "NY", "zip": "11213-4238", "ntee": "P20", "ruling": "201602", "deductibility": "1", "assets": 0, "income": 0, "revenue": 0}, {"ein": "510192355", "name": "MORNINGSIDE HEIGHTS LEGAL SERVICES INC", "city": "NEW YORK", "state": "NY", "zip": "10027-0000", "ntee": "", "ruling": "198801", "deductibility": "1", "assets": 217644, "income": 79418, "revenue": 79418}, {"ein": "510229843", "name": "HEIGHTS FOUNDATION RIDGE INC", "city": "NEW ROCHELLE", "state": "NY", "zip": "10801-6560", "ntee": "", "ruling": "197710", "deductibility": "1", "assets": 0, "income": 0, "revenue": 0}, {"ein": "522017226", "name": "MORNINGSIDE HEIGHTS HISTORIC DISTRICT COMMITTEE", "city": "NEW YORK", "state": "NY", "zip": "10025-1536", "ntee": "A99", "ruling": "201406", "deductibility": "1", "assets": 0, "income": 0, "revenue": 0}, {"ein": "526062426", "name": "HEIGHTS FOUNDATION INC", "city": "NEW ROCHELLE", "state": "NY", "zip": "10801-6560", "ntee": "", "ruling": "197710", "deductibility": "1", "assets": 1674604, "income": 2728, "revenue": 2728}, {"ein": "550844926", "name": "WASHINGTON HEIGHTS JAYBIES SPORTS ACADEMY INC", "city": "BRONX", "state": "NY", "zip": "10453-5913", "ntee": "N62", "ruling": "202404", "deductibility": "1", "assets": 2590, "income": 31993, "revenue": 31993}, {"ein": "550865688", "name": "FRANCISCAN HEIGHTS COMMUNITY SERVICES CORP", "city": "ALBANY", "state": "NY", "zip": "12203-1414", "ntee": "", "ruling": "194603", "deductibility": "1", "assets": 0, "income": 0, "revenue": 0}, {"ein": "562582402", "name": "CHABAD OF PROSPECT HEIGHTS INC", "city": "BROOKLYN", "state": "NY", "zip": "11238-3013", "ntee": "X30", "ruling": "201008", "deductibility": "1", "assets": 0, "income": 0, "revenue": 0}, {"ein": "593772598", "name": "NEW HEIGHTS DANCE THEATER", "city": "ELMIRA HTS", "state": "NY", "zip": "14903-1319", "ntee": "A65", "ruling": "200504", "deductibility": "1", "assets": 0, "income": 0, "revenue": 0}, {"ein": "611684563", "name": "GRACE BROOKLYN HEIGHTS CONSERVANCY INC", "city": "BROOKLYN", "state": "NY", "zip": "11201-4028", "ntee": "X11", "ruling": "201212", "deductibility": "1", "assets": 0, "income": 0, "revenue": 0}, {"ein": "611726602", "name": "HERTHUM HEIGHTS ASSOCIATION INC", "city": "WHITESBORO", "state": "NY", "zip": "13492-2236", "ntee": "Z99", "ruling": "201407", "deductibility": "1", "assets": 0, "income": 0, "revenue": 0}, {"ein": "611741380", "name": "GAN YISROEL OF CROWN HEIGHTS", "city": "BROOKLYN", "state": "NY", "zip": "11210-4821", "ntee": "", "ruling": "202003", "deductibility": "1", "assets": 0, "income": 0, "revenue": 0}, {"ein": "611811425", "name": "CONGREGATION OF MANOR HEIGHTS INC", "city": "STATEN ISLAND", "state": "NY", "zip": "10314-6927", "ntee": "X30", "ruling": "201709", "deductibility": "1", "assets": 0, "income": 0, "revenue": 0}, {"ein": "640956418", "name": "BROOKLYN CROWN HEIGHTS LIONS CLUB FOUNDATION INC", "city": "BROOKLYN", "state": "NY", "zip": "11212-3220", "ntee": "T30", "ruling": "200706", "deductibility": "1", "assets": 0, "income": 0, "revenue": 0}, {"ein": "800750046", "name": "PROSPECT HEIGHTS SHUL", "city": "BROOKLYN", "state": "NY", "zip": "11238-3206", "ntee": "X30", "ruling": "201910", "deductibility": "1", "assets": 0, "income": 0, "revenue": 0}, {"ein": "811011634", "name": "SMBMT DBA YESHIVA CROWN HEIGHTS", "city": "BROOKLYN", "state": "NY", "zip": "11203-1001", "ntee": "X30", "ruling": "201604", "deductibility": "1", "assets": 0, "income": 0, "revenue": 0}, {"ein": "811115506", "name": "HEIGHTS URBAN EMPOWERMENT INC", "city": "NEW YORK", "state": "NY", "zip": "10033-3035", "ntee": "B99", "ruling": "201708", "deductibility": "1", "assets": 0, "income": 0, "revenue": 0}, {"ein": "811603851", "name": "CHEVRA HATZALAH OF CROWN HEIGHTS CORP", "city": "BROOKLYN", "state": "NY", "zip": "11213-4333", "ntee": "M23", "ruling": "201705", "deductibility": "1", "assets": 4584000, "income": 1332191, "revenue": 1332191}, {"ein": "811869329", "name": "CROWN HEIGHTS SOUTH ASSOCIATION", "city": "BROOKLYN", "state": "NY", "zip": "11225-2106", "ntee": "S22", "ruling": "201605", "deductibility": "1", "assets": 0, "income": 0, "revenue": 0}, {"ein": "813828854", "name": "CAMBRIDGE HEIGHTS SHUL", "city": "POMONA", "state": "NY", "zip": "10970-4510", "ntee": "X20", "ruling": "201602", "deductibility": "1", "assets": 0, "income": 0, "revenue": 0}, {"ein": "813891268", "name": "NY JACKSON HEIGHTS PUJA FOUNDATION INC", "city": "MASPETH", "state": "NY", "zip": "11378-0000", "ntee": "X70", "ruling": "201610", "deductibility": "1", "assets": 0, "income": 0, "revenue": 0}, {"ein": "813976395", "name": "CPC OF THE WMM-WASHINGTON HEIGHTS NY-ONE INC", "city": "NEW YORK", "state": "NY", "zip": "10033-7367", "ntee": "X20", "ruling": "201503", "deductibility": "1", "assets": 0, "income": 0, "revenue": 0}, {"ein": "813984395", "name": "MORNINGSIDE HEIGHTS COMMUNITY COALITION", "city": "NEW YORK", "state": "NY", "zip": "10025-1536", "ntee": "P20", "ruling": "202410", "deductibility": "1", "assets": 0, "income": 0, "revenue": 0}, {"ein": "815137096", "name": "WASHINGTON HEIGHTS VOLUNTEER FIRE CO INC", "city": "MIDDLETOWN", "state": "NY", "zip": "10940-4311", "ntee": "M24", "ruling": "202305", "deductibility": "1", "assets": 81493, "income": 61752, "revenue": 60584}, {"ein": "820694923", "name": "CHABAD OF POMONA HEIGHTS", "city": "POMONA", "state": "NY", "zip": "10970-2111", "ntee": "X30", "ruling": "201903", "deductibility": "1", "assets": 0, "income": 0, "revenue": 0}, {"ein": "822187320", "name": "SHTIBEL OF CROWN HEIGHTS INC", "city": "BROOKLYN", "state": "NY", "zip": "11203-1001", "ntee": "X30", "ruling": "201710", "deductibility": "1", "assets": 0, "income": 0, "revenue": 0}, {"ein": "822719006", "name": "HAMILTON HEIGHTS DARKROOM AND PHOTOGRAPHY CENTER INC", "city": "NEW YORK", "state": "NY", "zip": "10032-0507", "ntee": "A33", "ruling": "201712", "deductibility": "1", "assets": 0, "income": 0, "revenue": 0}, {"ein": "823770129", "name": "TRINITY GRACE CHURCH CROWN HEIGHTS", "city": "BROOKLYN", "state": "NY", "zip": "11216-3340", "ntee": "X21", "ruling": "201808", "deductibility": "1", "assets": 0, "income": 0, "revenue": 0}, {"ein": "824375664", "name": "CHRISTIAN COMMUNITY CHURCH OF THE HEIGHTS", "city": "NEW YORK", "state": "NY", "zip": "10033-2347", "ntee": "", "ruling": "197507", "deductibility": "1", "assets": 0, "income": 0, "revenue": 0}, {"ein": "824622412", "name": "GREEN HEIGHTS ORGANIZATION INC", "city": "JACKSON HTS", "state": "NY", "zip": "11372-4135", "ntee": "P12", "ruling": "201803", "deductibility": "1", "assets": 0, "income": 0, "revenue": 0}, {"ein": "825000178", "name": "JACKSON HEIGHTS COMMUNITY CHURCH INC", "city": "FOREST HILLS", "state": "NY", "zip": "11375-5915", "ntee": "X20", "ruling": "202312", "deductibility": "1", "assets": 31581, "income": 88964, "revenue": 88964}, {"ein": "831076482", "name": "MOTHERS OF CROWN HEIGHTS INC", "city": "BROOKLYN", "state": "NY", "zip": "11213-4208", "ntee": "P40", "ruling": "201807", "deductibility": "1", "assets": 64453, "income": 126084, "revenue": 126084}, {"ein": "833017478", "name": "CREATIVE HEIGHTS SOCIETY INC", "city": "NEW YORK", "state": "NY", "zip": "10033-8505", "ntee": "A99", "ruling": "201902", "deductibility": "1", "assets": 13418, "income": 5380, "revenue": 5030}, {"ein": "833082512", "name": "EAGLE HEIGHTS NEIGHBORHOOD ASSOCIATION INC", "city": "ROCHESTER", "state": "NY", "zip": "14617-3610", "ntee": "S22", "ruling": "202009", "deductibility": "1", "assets": 0, "income": 0, "revenue": 0}, {"ein": "833518698", "name": "ELMIRA HEIGHTS PFO", "city": "ELMIRA HTS", "state": "NY", "zip": "14903-1549", "ntee": "B94", "ruling": "202004", "deductibility": "1", "assets": 0, "income": 0, "revenue": 0}, {"ein": "834640454", "name": "MARKETVIEW HEIGHTS COLLECTIVE ACTION PROJECT INC", "city": "ROCHESTER", "state": "NY", "zip": "14605-2625", "ntee": "S20", "ruling": "201907", "deductibility": "1", "assets": 0, "income": 0, "revenue": 0}, {"ein": "841902284", "name": "UP TO THE HEIGHTS INC", "city": "NEW YORK", "state": "NY", "zip": "10032-4710", "ntee": "A20", "ruling": "201907", "deductibility": "1", "assets": 0, "income": 0, "revenue": 0}, {"ein": "841980976", "name": "HEIGHTS MEDITATION & YOGA INC", "city": "NEW YORK", "state": "NY", "zip": "10036-0000", "ntee": "X99", "ruling": "201907", "deductibility": "1", "assets": 9704, "income": 91013, "revenue": 91013}, {"ein": "842668403", "name": "MHANY STELLA HEIGHTS HOUSING DEVELOPMENT FUND CORPORATION", "city": "BROOKLYN", "state": "NY", "zip": "11238-2208", "ntee": "L21", "ruling": "202005", "deductibility": "1", "assets": 4875, "income": 608935, "revenue": 608935}, {"ein": "844476989", "name": "CHABAD OF THE HEIGHTS INC", "city": "POMONA", "state": "NY", "zip": "10970-2110", "ntee": "X30", "ruling": "202007", "deductibility": "1", "assets": 0, "income": 0, "revenue": 0}, {"ein": "852120159", "name": "VOICES IN THE HEIGHTS INC", "city": "NEW YORK", "state": "NY", "zip": "10001-4738", "ntee": "A68", "ruling": "202009", "deductibility": "1", "assets": 0, "income": 0, "revenue": 0}, {"ein": "852408734", "name": "CHABAD OF WASHINGTON HEIGHTS EAST INC", "city": "BROOKLYN", "state": "NY", "zip": "11213-4237", "ntee": "X30", "ruling": "202109", "deductibility": "1", "assets": 0, "income": 0, "revenue": 0}, {"ein": "853252316", "name": "IGLESIA BAUTISTA DE WASHINGTON HEIGHTS INC", "city": "NEW YORK", "state": "NY", "zip": "10033-4211", "ntee": "", "ruling": "195504", "deductibility": "0", "assets": 0, "income": 0, "revenue": 0}, {"ein": "862085382", "name": "ELMIRA HEIGHTS CINDERELLA SOFTBALL LEAGUE", "city": "ELMIRA HTS", "state": "NY", "zip": "14903-0253", "ntee": "N60", "ruling": "202105", "deductibility": "1", "assets": 0, "income": 0, "revenue": 0}, {"ein": "872110751", "name": "NEW HOPE FOR MARKETVIEW HEIGHTS INC", "city": "ROCHESTER", "state": "NY", "zip": "14607-1338", "ntee": "S20", "ruling": "202202", "deductibility": "1", "assets": 0, "income": 0, "revenue": 0}, {"ein": "872992798", "name": "SHELTER ISLAND HEIGHTS PRESERVATION AND IMPROVEMENT SOCIETY INC", "city": "SHELTER IS HT", "state": "NY", "zip": "11965-0589", "ntee": "C50", "ruling": "202201", "deductibility": "1", "assets": 0, "income": 0, "revenue": 0}, {"ein": "873417784", "name": "YESHIVA OF CROWN HEIGHTS", "city": "BROOKLYN", "state": "NY", "zip": "11203-1285", "ntee": "X30", "ruling": "202112", "deductibility": "1", "assets": 0, "income": 0, "revenue": 0}, {"ein": "874509381", "name": "MUNA CENTER OF JACKSON HEIGHTS INC", "city": "JACKSON HTS", "state": "NY", "zip": "11372-3940", "ntee": "X40", "ruling": "202403", "deductibility": "1", "assets": 1564734, "income": 60589, "revenue": 60589}, {"ein": "874821117", "name": "NYSNA RETIREE HEALTH FUND AT WYCKOFF HEIGHTS MEDICAL CENTER", "city": "NEW YORK", "state": "NY", "zip": "10001-2908", "ntee": "Y43", "ruling": "202411", "deductibility": "2", "assets": 0, "income": 0, "revenue": 0}, {"ein": "900080357", "name": "JACKSON HEIGHTS ISLAMIC CENTER & MOSQUE INC", "city": "JACKSON HTS", "state": "NY", "zip": "11372-6137", "ntee": "X40", "ruling": "200403", "deductibility": "1", "assets": 0, "income": 0, "revenue": 0}, {"ein": "923041626", "name": "HEIGHTS AND MINDS FOUNDATION", "city": "BROOKLYN", "state": "NY", "zip": "11201-3213", "ntee": "P40", "ruling": "202312", "deductibility": "2", "assets": 66267, "income": 185245, "revenue": 185245}, {"ein": "923796070", "name": "SAFE TECH CROWN HEIGHTS INC", "city": "BROOKLYN", "state": "NY", "zip": "11213-5737", "ntee": "X30", "ruling": "202306", "deductibility": "1", "assets": 0, "income": 0, "revenue": 0}, {"ein": "923953894", "name": "JACKSON HEIGHTS IMMIGRANT CENTER", "city": "JACKSON HTS", "state": "NY", "zip": "11372-5855", "ntee": "P84", "ruling": "202305", "deductibility": "1", "assets": 0, "income": 0, "revenue": 0}, {"ein": "932245109", "name": "KIWANIS CLUB OF DYKER HEIGHTS BORO PARK", "city": "BROOKLYN", "state": "NY", "zip": "11219-0000", "ntee": "", "ruling": "194007", "deductibility": "2", "assets": 0, "income": 0, "revenue": 0}, {"ein": "932431005", "name": "CROWN HEIGHTS SHEITEL GEMACH INC", "city": "BROOKLYN", "state": "NY", "zip": "11213-5329", "ntee": "X30", "ruling": "202307", "deductibility": "1", "assets": 0, "income": 0, "revenue": 0}, {"ein": "990741202", "name": "HEIGHTS DEVELOPMENT FOUNDATION INC", "city": "PEARL RIVER", "state": "NY", "zip": "10965-2675", "ntee": "T30", "ruling": "202408", "deductibility": "1", "assets": 0, "income": 0, "revenue": 0}, {"ein": "991467525", "name": "BROOKLYN PLAZA CROWN HEIGHTS CENTER", "city": "BROOKLYN", "state": "NY", "zip": "11217-1517", "ntee": "S47", "ruling": "202407", "deductibility": "2", "assets": 0, "income": 0, "revenue": 0}, {"ein": "992252014", "name": "SHIFRA AND PUAH CROWN HEIGHTS INC", "city": "BROOKLYN", "state": "NY", "zip": "11203-1006", "ntee": "X30", "ruling": "202405", "deductibility": "1", "assets": 0, "income": 0, "revenue": 0}], "CONTRACT": [{"ein": "030509972", "name": "NATIONAL CONTRACT MANAGEMENT ASSOCIATION", "city": "FABIUS", "state": "NY", "zip": "13063-9732", "ntee": "", "ruling": "196506", "deductibility": "2", "assets": 0, "income": 0, "revenue": 0}, {"ein": "043727367", "name": "DIRECTORS GUILD OF AMERICA COMMERCIALS CONTRACT ADM TR", "city": "NEW YORK CITY", "state": "NY", "zip": "10019-5904", "ntee": "J40", "ruling": "200308", "deductibility": "2", "assets": 239180, "income": 501903, "revenue": 501903}, {"ein": "133552952", "name": "ASSOCIATION FOR CONTRACT TEXTILES INC", "city": "BEACON", "state": "NY", "zip": "12508-0085", "ntee": "", "ruling": "199005", "deductibility": "2", "assets": 323622, "income": 533895, "revenue": 533895}, {"ein": "146030540", "name": "HUDSON VALLEY CONTRACT BRIDGE ASSOCIATION INC", "city": "MONTICELLO", "state": "NY", "zip": "12701-1687", "ntee": "N50", "ruling": "201603", "deductibility": "2", "assets": 0, "income": 0, "revenue": 0}, {"ein": "156025163", "name": "INTERNATIONAL BROTHERHOOD OF ELECTL WKRS 43 & ELECTRICAL CONTRACT WLFR", "city": "SYRACUSE", "state": "NY", "zip": "13220-2218", "ntee": "", "ruling": "195911", "deductibility": "2", "assets": 67237106, "income": 50265965, "revenue": 24535686}, {"ein": "383782498", "name": "UNIT 116 WESTERN NEW YORK OF THE AMERICAN CONTRACT BRIDGE LEAGUE", "city": "HAMBURG", "state": "NY", "zip": "14075-7234", "ntee": "N50", "ruling": "201407", "deductibility": "2", "assets": 0, "income": 0, "revenue": 0}, {"ein": "593190625", "name": "SERVICE CONTRACT INDUSTRY COUNCIL INC", "city": "ALBANY", "state": "NY", "zip": "12203-5390", "ntee": "", "ruling": "199312", "deductibility": "2", "assets": 966191, "income": 998222, "revenue": 998222}, {"ein": "800563019", "name": "FEDERAL CONTRACT GUARDS OF AMERICA", "city": "NEW YORK", "state": "NY", "zip": "10022-2606", "ntee": "J40", "ruling": "201208", "deductibility": "2", "assets": 707217, "income": 451314, "revenue": 451314}, {"ein": "810559571", "name": "NATIONAL CONTRACT MANAGEMENT ASSOCIATION", "city": "LIMA", "state": "NY", "zip": "14485-9501", "ntee": "", "ruling": "196506", "deductibility": "2", "assets": 0, "income": 0, "revenue": 0}], "YE": [{"ein": "030523204", "name": "YE SERVANT OF GOD TEMPLE INC", "city": "BRONX", "state": "NY", "zip": "10466-4268", "ntee": "X20", "ruling": "201009", "deductibility": "1", "assets": 0, "income": 0, "revenue": 0}, {"ein": "113309479", "name": "SEEK YE FIRST MINISTRY OF GOD FOR ALL PEOPLE INC", "city": "BROOKLYN", "state": "NY", "zip": "11221-3601", "ntee": "P990", "ruling": "200011", "deductibility": "1", "assets": 0, "income": 0, "revenue": 0}, {"ein": "113346367", "name": "ALMANAH V YATOM YE ODED", "city": "MONSEY", "state": "NY", "zip": "10952-2501", "ntee": "X30Z", "ruling": "199707", "deductibility": "1", "assets": 0, "income": 0, "revenue": 0}, {"ein": "270701815", "name": "HA YE SUNG CHURCH OF NY", "city": "FLUSHING", "state": "NY", "zip": "11354-1500", "ntee": "X20", "ruling": "201008", "deductibility": "1", "assets": 0, "income": 0, "revenue": 0}, {"ein": "562497381", "name": "BE YE STEADFAST MINISTRIES INTERNATIONAL INC", "city": "WEST NYACK", "state": "NY", "zip": "10994-0063", "ntee": "X21", "ruling": "201609", "deductibility": "1", "assets": 0, "income": 0, "revenue": 0}], "MASSACHUSETTS": [{"ein": "042946668", "name": "MASSACHUSETTS STATE HEALTH CARE PROFESSIONALS DENTAL FUND", "city": "WHITE PLAINS", "state": "NY", "zip": "10604-0000", "ntee": "Y44", "ruling": "198907", "deductibility": "2", "assets": 20167262, "income": 30552606, "revenue": 5313110}, {"ein": "043123614", "name": "MASSACHUSETTS COUNCIL FOR QUALITY INC", "city": "TARRYTOWN", "state": "NY", "zip": "10591-3031", "ntee": "B99Z", "ruling": "199305", "deductibility": "1", "assets": 16423, "income": 22481, "revenue": 10000}, {"ein": "046122502", "name": "CAMP RAMAH OF MASSACHUSETTS INC", "city": "NEW YORK", "state": "NY", "zip": "10027-4650", "ntee": "", "ruling": "198910", "deductibility": "1", "assets": 0, "income": 0, "revenue": 0}, {"ein": "161585356", "name": "MASSACHUSETTS AVENUE PROJECT INC", "city": "BUFFALO", "state": "NY", "zip": "14213-0000", "ntee": "P20", "ruling": "200005", "deductibility": "1", "assets": 2895539, "income": 1298495, "revenue": 1297744}, {"ein": "205395059", "name": "MASSACHUSETTS RETAIL LUMBER DEALERS ASSN INC", "city": "RENSSELAER", "state": "NY", "zip": "12144-8419", "ntee": "S41", "ruling": "200703", "deductibility": "2", "assets": 271567, "income": 182569, "revenue": 115637}, {"ein": "272382090", "name": "MASSACHUSETTS AVENUE HOUSING DEVELOPMENT FUND CORPORATION", "city": "BUFFALO", "state": "NY", "zip": "14213-2180", "ntee": "L50", "ruling": "201305", "deductibility": "1", "assets": 1514846, "income": 56194, "revenue": 56194}, {"ein": "463864309", "name": "MASSACHUSETTS AVENUE SUSTAINABLE HOMES HOUSING DEVELOPMENT FUND COM", "city": "BUFFALO", "state": "NY", "zip": "14213-2180", "ntee": "L20", "ruling": "201410", "deductibility": "1", "assets": 1086684, "income": 21270, "revenue": 21270}, {"ein": "516558385", "name": "FJ RYAN MEMORIAL SCHOLARSHIP FUND FBO MASSACHUSETTS INSTITUTE OF", "city": "OLEAN", "state": "NY", "zip": "14760-2738", "ntee": "T22", "ruling": "200510", "deductibility": "1", "assets": 732283, "income": 196924, "revenue": 0}, {"ein": "844998850", "name": "SOUTHERN MASSACHUSETTS CONSERVATION LAND TRUST INCORPORATED", "city": "WARWICK", "state": "NY", "zip": "10990-3809", "ntee": "C30", "ruling": "202005", "deductibility": "1", "assets": 0, "income": 0, "revenue": 0}], "MOORE": [{"ein": "043642634", "name": "ALICE MOORE FOUNDATION INC", "city": "ALBANY", "state": "NY", "zip": "12205-5542", "ntee": "T20", "ruling": "200205", "deductibility": "1", "assets": 203830, "income": 361, "revenue": 0}, {"ein": "061633557", "name": "DOUGLAS MOORE FUND FOR AMERICAN OPERA INC", "city": "NEW YORK", "state": "NY", "zip": "10034-0000", "ntee": "B820", "ruling": "200208", "deductibility": "1", "assets": 90489, "income": 3755, "revenue": 0}, {"ein": "133741954", "name": "MOORE CHARITABLE FOUNDATION INC", "city": "NEW YORK", "state": "NY", "zip": "10036-6600", "ntee": "", "ruling": "199401", "deductibility": "1", "assets": 467736276, "income": 8400972, "revenue": 0}, {"ein": "141828249", "name": "GEORGE AND SHIRLEY MOORE FOUNDATION INC", "city": "KEESEVILLE", "state": "NY", "zip": "12944-0385", "ntee": "T20", "ruling": "200112", "deductibility": "1", "assets": 898296, "income": 365502, "revenue": 0}, {"ein": "150548745", "name": "MOORE MEMORIAL LIBRARY", "city": "GREENE", "state": "NY", "zip": "13778-0103", "ntee": "", "ruling": "195203", "deductibility": "1", "assets": 3856079, "income": 3007430, "revenue": 1452585}, {"ein": "166024150", "name": "WM J MOORE TRUST FD NY 28-2-0406-0 MARINE MIDLAND", "city": "OLEAN", "state": "NY", "zip": "14760-2738", "ntee": "", "ruling": "000000", "deductibility": "0", "assets": 554524, "income": 63880, "revenue": 24267}, {"ein": "203962155", "name": "MOORE STEPHENS NORTH AMERICA INCORPORATED", "city": "BROOKLYN", "state": "NY", "zip": "11238-2268", "ntee": "S41", "ruling": "200803", "deductibility": "2", "assets": 2835907, "income": 3749377, "revenue": 3749377}, {"ein": "270672195", "name": "MOORE CATHOLIC HIGH SCHOOL", "city": "STATEN ISLAND", "state": "NY", "zip": "10314-3312", "ntee": "", "ruling": "194603", "deductibility": "1", "assets": 0, "income": 0, "revenue": 0}, {"ein": "276030602", "name": "CLARENCE L AND MAYNARDA L MOORE EDUCATION FUND TR", "city": "PITTSFORD", "state": "NY", "zip": "14534-3838", "ntee": "T22", "ruling": "200907", "deductibility": "1", "assets": 260161, "income": 40696, "revenue": 0}, {"ein": "334688535", "name": "MOORE THAN A MEMORY", "city": "NANUET", "state": "NY", "zip": "10954-3524", "ntee": "B82", "ruling": "202506", "deductibility": "1", "assets": 0, "income": 0, "revenue": 0}, {"ein": "462889704", "name": "B-COME-MOORE", "city": "WYANDANCH", "state": "NY", "zip": "11798-4428", "ntee": "", "ruling": "201812", "deductibility": "1", "assets": 0, "income": 0, "revenue": 0}, {"ein": "463402376", "name": "MAY MOORE PARENT FACULTY CLUB", "city": "DEER PARK", "state": "NY", "zip": "11729-4933", "ntee": "B94", "ruling": "201411", "deductibility": "1", "assets": 0, "income": 0, "revenue": 0}, {"ein": "473311895", "name": "VIRGINA D MOORE-RAINEY FIGHTING LUNG CANCER INC", "city": "BUFFALO", "state": "NY", "zip": "14214-1270", "ntee": "S80", "ruling": "201802", "deductibility": "1", "assets": 0, "income": 0, "revenue": 0}, {"ein": "474058171", "name": "MOORE BOOKS INC", "city": "NEW YORK", "state": "NY", "zip": "10004-2209", "ntee": "B90", "ruling": "201506", "deductibility": "1", "assets": 0, "income": 0, "revenue": 0}, {"ein": "550755281", "name": "MOORE-CHURCH SCHOLARSHIP TRUST", "city": "AMHERST", "state": "NY", "zip": "14228-2307", "ntee": "T22", "ruling": "200003", "deductibility": "1", "assets": 138391, "income": 36792, "revenue": 0}, {"ein": "550849044", "name": "ROBERT H MOORE SENIOR HOME", "city": "BROOKLYN", "state": "NY", "zip": "11217-1549", "ntee": "L22", "ruling": "200503", "deductibility": "1", "assets": 6521511, "income": 676759, "revenue": 676759}, {"ein": "812650102", "name": "BRIAN MOORE MEMORIAL FUND", "city": "MASSAPEQUA", "state": "NY", "zip": "11758-1554", "ntee": "P20", "ruling": "202205", "deductibility": "1", "assets": 217834, "income": 150130, "revenue": 87467}, {"ein": "820834667", "name": "MARY TYLER MOORE LEVINE AND S ROBERT LEVINE MD CHARITABLE FOUNDA", "city": "QUOGUE", "state": "NY", "zip": "11959-2029", "ntee": "T22", "ruling": "201708", "deductibility": "1", "assets": 635973, "income": 1185880, "revenue": 0}, {"ein": "823752489", "name": "MOORE-JACKSON CEMETERY REVITALIZATION PROJECT", "city": "WOODSIDE", "state": "NY", "zip": "11377-1646", "ntee": "S20", "ruling": "202408", "deductibility": "1", "assets": 0, "income": 0, "revenue": 0}, {"ein": "832923352", "name": "MOORE 4 YOU COMMUNITY DEVELOPMENT CENTER INC", "city": "FREEPORT", "state": "NY", "zip": "11520-4616", "ntee": "P30", "ruling": "202204", "deductibility": "1", "assets": 145228, "income": 304747, "revenue": 304747}, {"ein": "834015462", "name": "HEATHER MOORE FOUNDATION INC", "city": "BUFFALO", "state": "NY", "zip": "14203-1652", "ntee": "P20", "ruling": "202004", "deductibility": "1", "assets": 0, "income": 0, "revenue": 0}, {"ein": "841993362", "name": "MOORE FAMILY CHARITABLE FOUNDATION", "city": "NEW YORK", "state": "NY", "zip": "10001-2179", "ntee": "T23", "ruling": "201912", "deductibility": "1", "assets": 1722554, "income": 17744, "revenue": 0}, {"ein": "842027361", "name": "MOORE STATISTICS CONSULTING FOUNDATION INCORPORATED", "city": "WHITE PLAINS", "state": "NY", "zip": "10601-3806", "ntee": "B11", "ruling": "201911", "deductibility": "1", "assets": 0, "income": 0, "revenue": 0}, {"ein": "851132924", "name": "MOORE LOVES ALL INC", "city": "ALBANY", "state": "NY", "zip": "12207-1715", "ntee": "X19", "ruling": "202105", "deductibility": "1", "assets": 0, "income": 0, "revenue": 0}, {"ein": "862944905", "name": "MOORE FAMILY FOUNDATION FOR CHANGE INC", "city": "NEW YORK", "state": "NY", "zip": "10028-0318", "ntee": "T01", "ruling": "202208", "deductibility": "1", "assets": 7071126, "income": 2076710, "revenue": 0}, {"ein": "871071212", "name": "DAVID & LENI MOORE FAMILY FOUNDATION II", "city": "NEW YORK", "state": "NY", "zip": "10001-3031", "ntee": "T20", "ruling": "202110", "deductibility": "1", "assets": 19973683, "income": 6450198, "revenue": 0}, {"ein": "873808712", "name": "RICHARD AND BARBARA MOORE FAMILY FOUNDATION INC", "city": "NEW YORK", "state": "NY", "zip": "10001-3009", "ntee": "T20", "ruling": "202208", "deductibility": "1", "assets": 15777350, "income": 5501182, "revenue": 0}, {"ein": "884338184", "name": "MARY TYLER MOORE VISION INITIATIVE INC", "city": "QUOGUE", "state": "NY", "zip": "11959-2029", "ntee": "T30", "ruling": "202305", "deductibility": "1", "assets": 179062, "income": 1115217, "revenue": 1115217}, {"ein": "934080049", "name": "MIRIAM MAVIS MOORE SCHOLARSHIP FOUNDATION INC", "city": "NEW YORK", "state": "NY", "zip": "10016-0000", "ntee": "B82", "ruling": "202311", "deductibility": "1", "assets": 0, "income": 0, "revenue": 0}], "PRECINCT": [{"ein": "043784543", "name": "71ST PRECINCT COMMUNITY COUNCIL INC", "city": "BROOKLYN", "state": "NY", "zip": "11225-3217", "ntee": "P20", "ruling": "200402", "deductibility": "1", "assets": 0, "income": 0, "revenue": 0}, {"ein": "112417336", "name": "109TH PRECINCT COMMUNITY COUNCIL", "city": "FLUSHING", "state": "NY", "zip": "11354-4117", "ntee": "", "ruling": "197708", "deductibility": "1", "assets": 19053, "income": 49821, "revenue": 49821}, {"ein": "112478910", "name": "68TH PRECINCT YOUTH COUNCIL INC", "city": "BROOKLYN", "state": "NY", "zip": "11220-4927", "ntee": "", "ruling": "197902", "deductibility": "1", "assets": 0, "income": 0, "revenue": 0}, {"ein": "112799514", "name": "88TH PRECINCT YOUTH COUNCIL INC", "city": "BROOKLYN", "state": "NY", "zip": "11205-0000", "ntee": "", "ruling": "199204", "deductibility": "1", "assets": 0, "income": 0, "revenue": 0}, {"ein": "112947101", "name": "78TH PRECINCT YOUTH COUNCIL INC", "city": "BROOKLYN", "state": "NY", "zip": "11215-1783", "ntee": "", "ruling": "198910", "deductibility": "1", "assets": 139175, "income": 1058972, "revenue": 0}, {"ein": "113149257", "name": "84TH PRECINCT COMMUNITY COUNCIL", "city": "BROOKLYN", "state": "NY", "zip": "11201-3003", "ntee": "S21", "ruling": "201410", "deductibility": "1", "assets": 6896, "income": 8734, "revenue": 0}, {"ein": "113217458", "name": "100TH PRECINCT COMMUNITY COUNCIL INC", "city": "ROCKAWAY PARK", "state": "NY", "zip": "11694-0000", "ntee": "I21", "ruling": "199610", "deductibility": "1", "assets": 0, "income": 0, "revenue": 0}, {"ein": "113218377", "name": "113TH PRECINCT COMMUNITY COUNCIL INC", "city": "JAMAICA", "state": "NY", "zip": "11434-7075", "ntee": "S01", "ruling": "201603", "deductibility": "1", "assets": 0, "income": 0, "revenue": 0}, {"ein": "113301768", "name": "111TH PRECINCT COMMUNITY COUNCIL INC", "city": "BAYSIDE", "state": "NY", "zip": "11361-3340", "ntee": "S22", "ruling": "201305", "deductibility": "2", "assets": 0, "income": 0, "revenue": 0}, {"ein": "113463183", "name": "77TH PRECINCT COMMUNITY COUNCIL INC", "city": "BROOKLYN", "state": "NY", "zip": "11213-0000", "ntee": "M40", "ruling": "200209", "deductibility": "1", "assets": 90, "income": 7325, "revenue": 7325}, {"ein": "133250563", "name": "19TH PRECINCT COMMUNITY COUNCIL INC", "city": "NEW YORK", "state": "NY", "zip": "10065-5964", "ntee": "S41Z", "ruling": "199112", "deductibility": "1", "assets": 0, "income": 0, "revenue": 0}, {"ein": "133302025", "name": "17TH PRECINCT COMMUNITY COUNCIL INCORPORATED", "city": "NEW YORK", "state": "NY", "zip": "10022-6010", "ntee": "", "ruling": "198603", "deductibility": "1", "assets": 21848, "income": 17240, "revenue": 17240}, {"ein": "133371153", "name": "122ND PRECINCT COMMUNITY COUNCIL", "city": "STATEN ISLAND", "state": "NY", "zip": "10306-3207", "ntee": "I20", "ruling": "201507", "deductibility": "1", "assets": 0, "income": 0, "revenue": 0}, {"ein": "133691890", "name": "120 PRECINCT COMMUNITY COUNCIL INC", "city": "STATEN ISLAND", "state": "NY", "zip": "10301-1905", "ntee": "I01", "ruling": "202208", "deductibility": "1", "assets": 0, "income": 0, "revenue": 0}, {"ein": "133941786", "name": "7TH PRECINCT COMMUNITY COUNCIL INC", "city": "NEW YORK", "state": "NY", "zip": "10002-4771", "ntee": "S82", "ruling": "199711", "deductibility": "1", "assets": 0, "income": 0, "revenue": 0}, {"ein": "133952470", "name": "30TH PRECINCT COMMUNITY COUNCIL", "city": "NEW YORK", "state": "NY", "zip": "10031-1802", "ntee": "S01", "ruling": "201904", "deductibility": "1", "assets": 0, "income": 0, "revenue": 0}, {"ein": "146017096", "name": "HISTORICAL SOCIETY OF MIDDLETOWN AND THE WALLKILL PRECINCT INC", "city": "MIDDLETOWN", "state": "NY", "zip": "10940-0034", "ntee": "", "ruling": "194106", "deductibility": "1", "assets": 240566, "income": 36219, "revenue": 0}, {"ein": "208252569", "name": "FIRST PRECINCT BROTHERHOOD CLUB INC", "city": "WEST BABYLON", "state": "NY", "zip": "11704-0855", "ntee": "I60", "ruling": "202310", "deductibility": "1", "assets": 0, "income": 0, "revenue": 0}, {"ein": "263686961", "name": "6TH PRECINCT COPS WHO CARE", "city": "SELDEN", "state": "NY", "zip": "11784-2501", "ntee": "T30", "ruling": "201009", "deductibility": "1", "assets": 16868, "income": 87300, "revenue": 87300}, {"ein": "270368165", "name": "75TH PRECINCT CLERGY COUNCIL", "city": "BROOKLYN", "state": "NY", "zip": "11208-3553", "ntee": "S99", "ruling": "202401", "deductibility": "1", "assets": 0, "income": 0, "revenue": 0}, {"ein": "274581070", "name": "67TH PRECINCT CLERGY COUNCIL INC", "city": "BROOKLYN", "state": "NY", "zip": "11203-4313", "ntee": "S01", "ruling": "201411", "deductibility": "1", "assets": 725009, "income": 7712104, "revenue": 7712104}, {"ein": "301232960", "name": "44TH PRECINCT COMMUNITY COUNCIL", "city": "BRONX", "state": "NY", "zip": "10452-7800", "ntee": "S21", "ruling": "202403", "deductibility": "1", "assets": 0, "income": 0, "revenue": 0}, {"ein": "371552208", "name": "THE 79TH PRECINCT CLERGY COUNCIL INC", "city": "BROOKLYN", "state": "NY", "zip": "11221-1286", "ntee": "", "ruling": "200901", "deductibility": "1", "assets": 0, "income": 0, "revenue": 0}, {"ein": "462612590", "name": "45TH PRECINCT COMMUNITY COUNCIL", "city": "BRONX", "state": "NY", "zip": "10465-1949", "ntee": "S80", "ruling": "201704", "deductibility": "1", "assets": 0, "income": 0, "revenue": 0}, {"ein": "463745556", "name": "69TH PRECINCT CLERGY COUNCIL INC", "city": "BROOKLYN", "state": "NY", "zip": "11236-4823", "ntee": "S21", "ruling": "201703", "deductibility": "1", "assets": 0, "income": 0, "revenue": 0}, {"ein": "463856711", "name": "121 POLICE PRECINCT COMMUNITY COUNCIL", "city": "STATEN ISLAND", "state": "NY", "zip": "10314-1503", "ntee": "I20", "ruling": "201501", "deductibility": "1", "assets": 0, "income": 0, "revenue": 0}, {"ein": "472045646", "name": "20TH PRECINCT COMMUNITY COUNCIL INC", "city": "NEW YORK", "state": "NY", "zip": "10024-5502", "ntee": "W01", "ruling": "201410", "deductibility": "1", "assets": 0, "income": 0, "revenue": 0}, {"ein": "472754998", "name": "4TH PRECINCT FELLOWSHIP INC", "city": "SMITHTOWN", "state": "NY", "zip": "11787-4314", "ntee": "S80", "ruling": "201611", "deductibility": "1", "assets": 40275, "income": 70206, "revenue": 70206}, {"ein": "510470226", "name": "24TH PRECINCT COMMUNITY COUNCIL INC", "city": "WOODBURY", "state": "NY", "zip": "11797-2530", "ntee": "S21", "ruling": "200306", "deductibility": "1", "assets": 867, "income": 1538, "revenue": 1538}, {"ein": "822535215", "name": "75 PRECINCT CLUB INC", "city": "BROOKLYN", "state": "NY", "zip": "11208-3553", "ntee": "N50", "ruling": "201802", "deductibility": "2", "assets": 7842, "income": 91624, "revenue": 91624}, {"ein": "862370885", "name": "48TH PRECINCT COMMUNITY COUNCIL INC", "city": "BRONX", "state": "NY", "zip": "10457-7401", "ntee": "M01", "ruling": "202409", "deductibility": "1", "assets": 0, "income": 0, "revenue": 0}, {"ein": "880897858", "name": "77TH PRECINCT UNITED CLERGY COUNCIL INC", "city": "BROOKLYN", "state": "NY", "zip": "11213-3911", "ntee": "W01", "ruling": "202207", "deductibility": "1", "assets": 0, "income": 0, "revenue": 0}, {"ein": "882272591", "name": "YONKERS SECOND PRECINCT COMMUNITY COUNCIL INC", "city": "WHITE PLAIN", "state": "NY", "zip": "10601-1715", "ntee": "P12", "ruling": "202205", "deductibility": "1", "assets": 0, "income": 0, "revenue": 0}, {"ein": "882419342", "name": "105TH PRECINCT CLUB", "city": "QUEENS VLG", "state": "NY", "zip": "11428-1474", "ntee": "N50", "ruling": "202301", "deductibility": "2", "assets": 0, "income": 0, "revenue": 0}, {"ein": "920765569", "name": "7TH PRECINCT COMMUNITY UNITY INC", "city": "CORAM", "state": "NY", "zip": "11727-4148", "ntee": "A12", "ruling": "202211", "deductibility": "1", "assets": 0, "income": 0, "revenue": 0}, {"ein": "922762161", "name": "61 PRECINCT WELFARE FUND", "city": "BROOKLYN", "state": "NY", "zip": "11223-5027", "ntee": "P50", "ruling": "202303", "deductibility": "1", "assets": 9247, "income": 77768, "revenue": 77768}, {"ein": "931984240", "name": "6TH PRECINCT SHIELD INC", "city": "SELDEN", "state": "NY", "zip": "11784-2501", "ntee": "I60", "ruling": "202403", "deductibility": "1", "assets": 12353, "income": 55516, "revenue": 21477}, {"ein": "992517566", "name": "61 PRECINCT COMMUNITY COUNCIL", "city": "BROOKLYN", "state": "NY", "zip": "11223-5027", "ntee": "M01", "ruling": "202404", "deductibility": "1", "assets": 0, "income": 0, "revenue": 0}, {"ein": "993163731", "name": "FIFTH PRECINCT FELLOWSHIP INC", "city": "PATCHOGUE", "state": "NY", "zip": "11772-2148", "ntee": "I12", "ruling": "202406", "deductibility": "1", "assets": 0, "income": 0, "revenue": 0}], "GOSHEN": [{"ein": "061311442", "name": "GOSHEN YOUTH LEAGUE", "city": "GOSHEN", "state": "NY", "zip": "10924-0652", "ntee": "N64", "ruling": "200806", "deductibility": "1", "assets": 115780, "income": 145446, "revenue": 145446}, {"ein": "061352671", "name": "GOSHEN ROTARY SCHOLARSHIP FOUNDATION INC", "city": "GOSHEN", "state": "NY", "zip": "10924-0563", "ntee": "", "ruling": "199305", "deductibility": "1", "assets": 976266, "income": 63232, "revenue": 38383}, {"ein": "061367121", "name": "GOSHEN ECUMENICAL PANTRY INC", "city": "GOSHEN", "state": "NY", "zip": "10924-2108", "ntee": "P99Z", "ruling": "199807", "deductibility": "1", "assets": 235015, "income": 100297, "revenue": 100297}, {"ein": "061369813", "name": "GOSHEN HUMANE SOCIETY INC", "city": "GOSHEN", "state": "NY", "zip": "10924-0037", "ntee": "D20", "ruling": "201408", "deductibility": "1", "assets": 248609, "income": 71141, "revenue": 71141}, {"ein": "061516567", "name": "FRIENDS OF GOSHEN PUBLIC LIBRARY AND HISTORICAL SOCIETY INC", "city": "GOSHEN", "state": "NY", "zip": "10924-2320", "ntee": "X21", "ruling": "201202", "deductibility": "1", "assets": 0, "income": 0, "revenue": 0}, {"ein": "113481747", "name": "THE SEOKWANG KOREAN PRESBYTERIAN CHURCH OF GOSHEN AND NYSKC MISSION", "city": "FLUSHING", "state": "NY", "zip": "11354-5482", "ntee": "X20", "ruling": "200007", "deductibility": "1", "assets": 0, "income": 0, "revenue": 0}, {"ein": "133207143", "name": "GOSHEN TEACHERS ASSOCIATION INSURANCE TRUST FUND", "city": "WARWICK", "state": "NY", "zip": "10990-0630", "ntee": "Y33Z", "ruling": "198511", "deductibility": "2", "assets": 681895, "income": 703320, "revenue": 703320}, {"ein": "133263003", "name": "GOSHEN RESTORATION UNLIMITED INC", "city": "MIDDLETOWN", "state": "NY", "zip": "10940-2104", "ntee": "C500", "ruling": "198505", "deductibility": "1", "assets": 0, "income": 0, "revenue": 0}, {"ein": "141402499", "name": "GOSHEN CHRISTIAN SCHOOL SOCIETY", "city": "GOSHEN", "state": "NY", "zip": "10924-6626", "ntee": "", "ruling": "197502", "deductibility": "1", "assets": 0, "income": 0, "revenue": 0}, {"ein": "141410840", "name": "GOSHEN PUBLIC LIBRARY AND", "city": "GOSHEN", "state": "NY", "zip": "10924-1614", "ntee": "B71Z", "ruling": "194305", "deductibility": "1", "assets": 0, "income": 0, "revenue": 0}, {"ein": "141413673", "name": "GOSHEN CHRISTIAN REFORMED CHURCH", "city": "GOSHEN", "state": "NY", "zip": "10924-6626", "ntee": "", "ruling": "199502", "deductibility": "1", "assets": 0, "income": 0, "revenue": 0}, {"ein": "141422081", "name": "MIDDLETOWN-GOSHEN CONVALESCENT CHILDRENS HOME INC", "city": "MIDDLETOWN", "state": "NY", "zip": "10940-0288", "ntee": "E91Z", "ruling": "194407", "deductibility": "1", "assets": 115598, "income": 95664, "revenue": 95664}, {"ein": "141590357", "name": "THE GOSHEN CHAMBER OF COMMERCE INC", "city": "GOSHEN", "state": "NY", "zip": "10924-2128", "ntee": "", "ruling": "198704", "deductibility": "2", "assets": 85782, "income": 165088, "revenue": 141085}, {"ein": "141607405", "name": "GOSHEN HISTORIC TRACK INC", "city": "GOSHEN", "state": "NY", "zip": "10924-2109", "ntee": "A82Z", "ruling": "197909", "deductibility": "1", "assets": 2571218, "income": 968688, "revenue": 955037}, {"ein": "146029753", "name": "BUSINESS & PROFESSIONAL WOMENS CLUB OF GOSHEN N Y", "city": "GOSHEN", "state": "NY", "zip": "10924-0064", "ntee": "", "ruling": "195912", "deductibility": "2", "assets": 0, "income": 0, "revenue": 0}, {"ein": "208867640", "name": "GOSHEN FOOTBALL TOUCHDOWN CLUB INC", "city": "GOSHEN", "state": "NY", "zip": "10924-0587", "ntee": "N40", "ruling": "200709", "deductibility": "1", "assets": 0, "income": 0, "revenue": 0}, {"ein": "237304414", "name": "VETERANS FOREIGN WARS UNITED STATES DEPT NY 1708 GOSHEN MEMORIAL", "city": "GOSHEN", "state": "NY", "zip": "10924-0625", "ntee": "", "ruling": "197210", "deductibility": "1", "assets": 0, "income": 0, "revenue": 0}, {"ein": "264290951", "name": "GOSHEN YOUTH FOOTBALL AND CHEERLEADING INC", "city": "GOSHEN", "state": "NY", "zip": "10924-0613", "ntee": "N65", "ruling": "202312", "deductibility": "1", "assets": 33047, "income": 102348, "revenue": 98196}, {"ein": "270766352", "name": "GOSHEN YOUTH LACROSSE", "city": "GOSHEN", "state": "NY", "zip": "10924-0867", "ntee": "O11", "ruling": "201410", "deductibility": "1", "assets": 17100, "income": 20854, "revenue": 20854}, {"ein": "271215374", "name": "GOSHEN EMERALD SOCIETY FIREFIGHTER MCPADDEN PIPES & DRUMS", "city": "GOSHEN", "state": "NY", "zip": "10924-0000", "ntee": "A6C", "ruling": "201103", "deductibility": "1", "assets": 0, "income": 0, "revenue": 0}, {"ein": "272140756", "name": "GOSHEN LIONS CLUB FOUNDATION INC", "city": "GOSHEN", "state": "NY", "zip": "10924-0142", "ntee": "T31", "ruling": "201109", "deductibility": "1", "assets": 0, "income": 0, "revenue": 0}, {"ein": "300783852", "name": "GOSHEN SCIENCE OLYMPIAD ORGANIZATION", "city": "MIDDLETOWN", "state": "NY", "zip": "10941-1411", "ntee": "B94", "ruling": "201611", "deductibility": "1", "assets": 0, "income": 0, "revenue": 0}, {"ein": "331403399", "name": "GOSHEN XC PARENTS ASSOCIATION", "city": "GOSHEN", "state": "NY", "zip": "10924-2145", "ntee": "B94", "ruling": "202411", "deductibility": "1", "assets": 0, "income": 0, "revenue": 0}, {"ein": "331859560", "name": "NY SHARKS GOSHEN INC", "city": "MONROE", "state": "NY", "zip": "10950-6946", "ntee": "O12", "ruling": "202411", "deductibility": "1", "assets": 0, "income": 0, "revenue": 0}, {"ein": "464163669", "name": "GOSHEN INTERMEDIATE SCHOOL PTO INC", "city": "GOSHEN", "state": "NY", "zip": "10924-0000", "ntee": "Z99", "ruling": "201408", "deductibility": "1", "assets": 51339, "income": 111985, "revenue": 111985}, {"ein": "844112641", "name": "GOSHEN MINISTRIES - MINISTERIOS GOSEN", "city": "WOODHAVEN", "state": "NY", "zip": "11421-1215", "ntee": "X20", "ruling": "202102", "deductibility": "1", "assets": 0, "income": 0, "revenue": 0}, {"ein": "873073138", "name": "THE KNOLLS AT GOSHEN INC", "city": "CROTON HDSN", "state": "NY", "zip": "10520-1169", "ntee": "L22", "ruling": "202206", "deductibility": "1", "assets": 0, "income": 0, "revenue": 0}, {"ein": "874367276", "name": "GOSHEN TSNY INC", "city": "FREEPORT", "state": "NY", "zip": "11520-4327", "ntee": "X20", "ruling": "202312", "deductibility": "1", "assets": 0, "income": 0, "revenue": 0}, {"ein": "883600951", "name": "GOSHEN SENIOR CLASS ANP INC", "city": "GOSHEN", "state": "NY", "zip": "10924-2116", "ntee": "B12", "ruling": "202405", "deductibility": "1", "assets": 0, "income": 0, "revenue": 0}, {"ein": "934015932", "name": "GOSHEN EMS CORPS INC", "city": "GOSHEN", "state": "NY", "zip": "10924-0695", "ntee": "E30", "ruling": "202401", "deductibility": "1", "assets": 0, "income": 0, "revenue": 0}, {"ein": "991227086", "name": "GOSHEN HOMEOWNERS ALLIANCE INC", "city": "ALBANY", "state": "NY", "zip": "12207-2834", "ntee": "P12", "ruling": "202402", "deductibility": "1", "assets": 0, "income": 0, "revenue": 0}, {"ein": "994710240", "name": "GOSHEN CHURCH", "city": "ROSCOE", "state": "NY", "zip": "12776-4512", "ntee": "X99", "ruling": "202507", "deductibility": "1", "assets": 0, "income": 0, "revenue": 0}], "MERCYFIRST": [{"ein": "111635089", "name": "MERCYFIRST", "city": "SYOSSET", "state": "NY", "zip": "11791-3868", "ntee": "P320", "ruling": "194603", "deductibility": "1", "assets": 28055328, "income": 56431943, "revenue": 56343392}], "DEEPDALE": [{"ein": "111671750", "name": "DEEPDALE INC", "city": "MANHASSET", "state": "NY", "zip": "11030-4101", "ntee": "", "ruling": "194209", "deductibility": "2", "assets": 79491891, "income": 16082172, "revenue": 11292537}], "MEDRASH": [{"ein": "112062483", "name": "BETH MEDRASH EEYUN HATALMUD", "city": "MONSEY", "state": "NY", "zip": "10952-0250", "ntee": "", "ruling": "196603", "deductibility": "1", "assets": 0, "income": 0, "revenue": 0}, {"ein": "112484044", "name": "KOLLEL MEDRASH SHMUEL", "city": "BROOKLYN", "state": "NY", "zip": "11211-7108", "ntee": "", "ruling": "197903", "deductibility": "1", "assets": 0, "income": 0, "revenue": 0}, {"ein": "112506224", "name": "KEREN ZICHRON GEDALYAHU INC DBA BEIS MEDRASH NEZER GEDALYAHU", "city": "BROOKLYN", "state": "NY", "zip": "11230-4120", "ntee": "", "ruling": "197908", "deductibility": "1", "assets": 0, "income": 0, "revenue": 0}, {"ein": "112521910", "name": "FRIENDS OF YESHIVA MEDRASH CHAIM INC", "city": "CEDARHURST", "state": "NY", "zip": "11516-2158", "ntee": "B99I", "ruling": "198209", "deductibility": "1", "assets": 189423, "income": 34336, "revenue": 34336}, {"ein": "112579298", "name": "CONG & YESHIVA HAFLOH-BOSTONER BAIS MEDRASH-FRIENDS OF BOSTON", "city": "BROOKLYN", "state": "NY", "zip": "11204-1425", "ntee": "", "ruling": "198206", "deductibility": "1", "assets": 0, "income": 0, "revenue": 0}, {"ein": "112588850", "name": "BAIS MEDRASH MARPEH LENEFESH KHAL BNAI MESIVTA INC", "city": "BROOKLYN", "state": "NY", "zip": "11210-2930", "ntee": "", "ruling": "198205", "deductibility": "1", "assets": 0, "income": 0, "revenue": 0}, {"ein": "112623538", "name": "BAIS MEDRASH REM", "city": "FLUSHING", "state": "NY", "zip": "11367-3129", "ntee": "", "ruling": "199011", "deductibility": "1", "assets": 0, "income": 0, "revenue": 0}, {"ein": "112626131", "name": "BETH MEDRASH OHR TORAH", "city": "BROOKLYN", "state": "NY", "zip": "11204-1218", "ntee": "X99Z", "ruling": "199612", "deductibility": "1", "assets": 0, "income": 0, "revenue": 0}, {"ein": "112785208", "name": "BETH MEDRASH AND KOLLEL TIFERETH ZEKAINIM LEVI YITZCHOK", "city": "BROOKLYN", "state": "NY", "zip": "11213-4326", "ntee": "", "ruling": "198604", "deductibility": "1", "assets": 0, "income": 0, "revenue": 0}, {"ein": "112827236", "name": "CONGREGATION BETH MEDRASH HAGADOL OF BORO PARK INC", "city": "BROOKLYN", "state": "NY", "zip": "11219-4616", "ntee": "", "ruling": "198611", "deductibility": "1", "assets": 0, "income": 0, "revenue": 0}, {"ein": "112840436", "name": "CONGREGATION BAIS MEDRASH JOSEPH PETERSEIL MEMORIAL TRUST", "city": "CEDARHURST", "state": "NY", "zip": "11516-1638", "ntee": "", "ruling": "198703", "deductibility": "1", "assets": 0, "income": 0, "revenue": 0}, {"ein": "113090384", "name": "CONGREGATION BETH MEDRASH GOVVOAH OF FLATBUSH", "city": "BROOKLYN", "state": "NY", "zip": "11230-4713", "ntee": "X30", "ruling": "200403", "deductibility": "1", "assets": 0, "income": 0, "revenue": 0}, {"ein": "113403065", "name": "BAIS MEDRASH ATERES MORDECHAI", "city": "KEW GARDEN HL", "state": "NY", "zip": "11367-1936", "ntee": "X21Z", "ruling": "199804", "deductibility": "1", "assets": 0, "income": 0, "revenue": 0}, {"ein": "113475045", "name": "CONG BAIS MEDRASH EITZ CHAIM", "city": "BROOKLYN", "state": "NY", "zip": "11211-7691", "ntee": "X30", "ruling": "199907", "deductibility": "1", "assets": 0, "income": 0, "revenue": 0}, {"ein": "113479528", "name": "CONGREGATION BETH MEDRASH DARKEI YOSHER", "city": "BROOKLYN", "state": "NY", "zip": "11230-6504", "ntee": "X30", "ruling": "200011", "deductibility": "1", "assets": 0, "income": 0, "revenue": 0}, {"ein": "113484253", "name": "BETH MEDRASH HAZOAR", "city": "BROOKLYN", "state": "NY", "zip": "11219-3011", "ntee": "Y30", "ruling": "199906", "deductibility": "1", "assets": 0, "income": 0, "revenue": 0}, {"ein": "113570461", "name": "BETH MEDRASH BAIS BINYOMIN", "city": "BROOKLYN", "state": "NY", "zip": "11213-5110", "ntee": "X30", "ruling": "200203", "deductibility": "1", "assets": 0, "income": 0, "revenue": 0}, {"ein": "113599905", "name": "BEIS MEDRASH HEICHAL DOVID", "city": "FAR ROCKAWAY", "state": "NY", "zip": "11691-4433", "ntee": "X30", "ruling": "200208", "deductibility": "1", "assets": 0, "income": 0, "revenue": 0}, {"ein": "132871165", "name": "BETH MEDRASH L TORAH V HOROAH", "city": "NEW YORK", "state": "NY", "zip": "10002-6301", "ntee": "", "ruling": "195202", "deductibility": "1", "assets": 0, "income": 0, "revenue": 0}, {"ein": "132937059", "name": "BAIS MEDRASH EYUN TEFILAH INC CO", "city": "FAR ROCKAWAY", "state": "NY", "zip": "11691-1758", "ntee": "", "ruling": "197810", "deductibility": "1", "assets": 0, "income": 0, "revenue": 0}, {"ein": "133275026", "name": "BAIS MEDRASH L TORAH", "city": "MONSEY", "state": "NY", "zip": "10952-8425", "ntee": "", "ruling": "198607", "deductibility": "1", "assets": 0, "income": 0, "revenue": 0}, {"ein": "133728890", "name": "RABBINICAL COLLEGE OF YESHIVA AND KOLEL BAIS MEDRASH ELYON ASSN INC", "city": "MONSEY", "state": "NY", "zip": "10952-3013", "ntee": "", "ruling": "199403", "deductibility": "1", "assets": 0, "income": 0, "revenue": 0}, {"ein": "134148426", "name": "CONGREGATION KHAL AND BETH MEDRASH ZICHRON YAAKOV INC", "city": "MONSEY", "state": "NY", "zip": "10952-2800", "ntee": "X40", "ruling": "200112", "deductibility": "1", "assets": 0, "income": 0, "revenue": 0}, {"ein": "203274709", "name": "BEIS MEDRASH OHR SHLOMO", "city": "FAR ROCKAWAY", "state": "NY", "zip": "11691-5003", "ntee": "X30", "ruling": "200802", "deductibility": "1", "assets": 0, "income": 0, "revenue": 0}, {"ein": "203585685", "name": "BAIS MEDRASH ZICHRON YISROEL DOVID", "city": "BROOKLYN", "state": "NY", "zip": "11230-6209", "ntee": "X30", "ruling": "200606", "deductibility": "1", "assets": 0, "income": 0, "revenue": 0}, {"ein": "237214805", "name": "BETH MEDRASH EMEK HALACHA", "city": "BROOKLYN", "state": "NY", "zip": "11230-0006", "ntee": "", "ruling": "197003", "deductibility": "1", "assets": 0, "income": 0, "revenue": 0}, {"ein": "237225287", "name": "CONG BETH MEDRASH CHEMED", "city": "MT KISCO", "state": "NY", "zip": "10549-0000", "ntee": "", "ruling": "197209", "deductibility": "1", "assets": 0, "income": 0, "revenue": 0}, {"ein": "237248598", "name": "BAIS MEDRASH ATERES YISROEL", "city": "FAR ROCKAWAY", "state": "NY", "zip": "11691-5215", "ntee": "", "ruling": "197212", "deductibility": "1", "assets": 0, "income": 0, "revenue": 0}, {"ein": "237270512", "name": "CONGREGATION BAIS MEDRASH INC", "city": "CEDARHURST", "state": "NY", "zip": "11516-1638", "ntee": "", "ruling": "197303", "deductibility": "1", "assets": 0, "income": 0, "revenue": 0}, {"ein": "260623550", "name": "CONG BETH MEDRASH MEOR YITZCHOK INC", "city": "MONSEY", "state": "NY", "zip": "10952-0942", "ntee": "X30", "ruling": "201108", "deductibility": "1", "assets": 0, "income": 0, "revenue": 0}, {"ein": "271146254", "name": "BAIS MEDRASH LTORAH VHOROAH SOUTH EAST INC", "city": "BROOKLYN", "state": "NY", "zip": "11218-4966", "ntee": "X30", "ruling": "201007", "deductibility": "1", "assets": 0, "income": 0, "revenue": 0}, {"ein": "272128167", "name": "BET MEDRASH GADOL ATERET TORAH", "city": "BROOKLYN", "state": "NY", "zip": "11223-2339", "ntee": "X30", "ruling": "201201", "deductibility": "1", "assets": 0, "income": 0, "revenue": 0}, {"ein": "272863100", "name": "BAIS MEDRASH OF ROCKLAND INC", "city": "MONSEY", "state": "NY", "zip": "10952-0995", "ntee": "X30", "ruling": "201202", "deductibility": "1", "assets": 0, "income": 0, "revenue": 0}, {"ein": "272896736", "name": "BETH MEDRASH ZICHRON TUVIA", "city": "BROOKLYN", "state": "NY", "zip": "11204-2249", "ntee": "X30", "ruling": "201106", "deductibility": "1", "assets": 0, "income": 0, "revenue": 0}, {"ein": "273685371", "name": "BEIS MEDRASH LEVI YITZCHAK INC", "city": "BROOKLYN", "state": "NY", "zip": "11213-0000", "ntee": "X30", "ruling": "201311", "deductibility": "1", "assets": 158269, "income": 240489, "revenue": 240489}, {"ein": "274380986", "name": "BAIS MEDRASH SOCIETY INC", "city": "FAR ROCKAWAY", "state": "NY", "zip": "11691-1703", "ntee": "X30", "ruling": "201202", "deductibility": "1", "assets": 0, "income": 0, "revenue": 0}, {"ein": "371434080", "name": "BAIS MEDRASH NESIVOS HATORAH", "city": "STATEN ISLAND", "state": "NY", "zip": "10310-2325", "ntee": "X30", "ruling": "200212", "deductibility": "1", "assets": 0, "income": 0, "revenue": 0}, {"ein": "454723104", "name": "BEIT MEDRASH OF GREAT NECK INC", "city": "GREAT NECK", "state": "NY", "zip": "11023-2453", "ntee": "X30", "ruling": "201408", "deductibility": "1", "assets": 0, "income": 0, "revenue": 0}, {"ein": "460505606", "name": "BAIS MEDRASH MINYAN ASHKENAZ", "city": "BROOKLYN", "state": "NY", "zip": "11218-5858", "ntee": "X30", "ruling": "200504", "deductibility": "1", "assets": 0, "income": 0, "revenue": 0}, {"ein": "460932109", "name": "BAIS MEDRASH LAVREICHEM INC", "city": "BROOKLYN", "state": "NY", "zip": "11230-3801", "ntee": "T30", "ruling": "201311", "deductibility": "1", "assets": 1624, "income": 186306, "revenue": 186306}, {"ein": "462758739", "name": "BAIS MEDRASH OF ROCKLAND COUNTY INC", "city": "MONSEY", "state": "NY", "zip": "10952-2810", "ntee": "X30", "ruling": "202105", "deductibility": "1", "assets": 77719, "income": 396492, "revenue": 396492}, {"ein": "464061056", "name": "BAIS MEDRASH OF WOODMERE", "city": "WOODMERE", "state": "NY", "zip": "11598-0578", "ntee": "X30", "ruling": "201410", "deductibility": "1", "assets": 0, "income": 0, "revenue": 0}, {"ein": "510137088", "name": "CONGREGATION BETH MEDRASH GOVOHA", "city": "BROOKLYN", "state": "NY", "zip": "11204-1407", "ntee": "", "ruling": "197506", "deductibility": "1", "assets": 0, "income": 0, "revenue": 0}, {"ein": "753258245", "name": "BET MEDRASH GADOL ATERET TORAH FUND", "city": "BROOKLYN", "state": "NY", "zip": "11223-2214", "ntee": "X113", "ruling": "201002", "deductibility": "1", "assets": 0, "income": 0, "revenue": 0}, {"ein": "800508691", "name": "BETH MEDRASH LTORAH UTEFILAH", "city": "BROOKLYN", "state": "NY", "zip": "11225-3126", "ntee": "", "ruling": "198108", "deductibility": "0", "assets": 0, "income": 0, "revenue": 0}, {"ein": "811418574", "name": "BETH MEDRASH KOVETS AL YAD INC", "city": "BROOKLYN", "state": "NY", "zip": "11210-2843", "ntee": "X30", "ruling": "201609", "deductibility": "1", "assets": 0, "income": 0, "revenue": 0}, {"ein": "813055012", "name": "BAIS MEDRASH ATERES SHLOMO", "city": "CORTLANDT MNR", "state": "NY", "zip": "10567-6112", "ntee": "X30", "ruling": "201608", "deductibility": "1", "assets": 0, "income": 0, "revenue": 0}, {"ein": "831890843", "name": "CONGREGATION BAIS MEDRASH OF NORTH LAWRENCE", "city": "LAWRENCE", "state": "NY", "zip": "11559-1213", "ntee": "X30", "ruling": "201908", "deductibility": "1", "assets": 0, "income": 0, "revenue": 0}, {"ein": "833030596", "name": "BAIS MEDRASH LMORIM", "city": "MONSEY", "state": "NY", "zip": "10952-1701", "ntee": "A82", "ruling": "202201", "deductibility": "1", "assets": 7694, "income": 185793, "revenue": 185793}, {"ein": "844062101", "name": "BAIS MEDRASH OF CLARKSTOWN", "city": "NEW CITY", "state": "NY", "zip": "10956-2105", "ntee": "X30", "ruling": "202005", "deductibility": "1", "assets": 0, "income": 0, "revenue": 0}, {"ein": "853832531", "name": "CONGREGATION BAIS MEDRASH OF SOUTH MONSEY", "city": "AIRMONT", "state": "NY", "zip": "10952-4526", "ntee": "X30", "ruling": "202206", "deductibility": "1", "assets": 0, "income": 0, "revenue": 0}, {"ein": "881617935", "name": "BAIS MEDRASH OF HAVERSTRAW", "city": "POMONA", "state": "NY", "zip": "10970-2665", "ntee": "X30", "ruling": "202209", "deductibility": "1", "assets": 0, "income": 0, "revenue": 0}, {"ein": "884046818", "name": "BEIS MEDRASH OF THIELLS", "city": "THIELLS", "state": "NY", "zip": "10984-1424", "ntee": "X30", "ruling": "202305", "deductibility": "1", "assets": 0, "income": 0, "revenue": 0}, {"ein": "901037060", "name": "CONGREGATION BEIS MEDRASH OF LAWRENCE", "city": "LAWRENCE", "state": "NY", "zip": "11559-1505", "ntee": "X30", "ruling": "202008", "deductibility": "1", "assets": 0, "income": 0, "revenue": 0}, {"ein": "922687938", "name": "RABBINICAL BEIT MEDRASH INC", "city": "JAMAICA", "state": "NY", "zip": "11432-1502", "ntee": "X30", "ruling": "202307", "deductibility": "1", "assets": 0, "income": 0, "revenue": 0}, {"ein": "932433270", "name": "BEIS MEDRASH OF WEST HEMPSTEAD", "city": "W HEMPSTEAD", "state": "NY", "zip": "11552-2207", "ntee": "X30", "ruling": "202403", "deductibility": "1", "assets": 0, "income": 0, "revenue": 0}], "INITIAL": [{"ein": "112074243", "name": "INITIAL TEACHING ALPHABET FOUNDATION INC", "city": "NEW YORK", "state": "NY", "zip": "10017-6940", "ntee": "", "ruling": "196612", "deductibility": "1", "assets": 1986915, "income": 2099844, "revenue": 0}], "YEHOSHIA": [{"ein": "112464379", "name": "DIVREI YEHOSHIA", "city": "BKLYN", "state": "NY", "zip": "11219-3967", "ntee": "", "ruling": "197808", "deductibility": "1", "assets": 0, "income": 0, "revenue": 0}, {"ein": "933656909", "name": "KOLLEL BEIS CHAIM YEHOSHIA", "city": "BROOKLYN", "state": "NY", "zip": "11204-1310", "ntee": "X30", "ruling": "202405", "deductibility": "1", "assets": 0, "income": 0, "revenue": 0}], "LEMETZUYONIM": [{"ein": "112584949", "name": "AMERICANS FOR YESHIVA LEMETZUYONIM OF JERUSALEM", "city": "BROOKLYN", "state": "NY", "zip": "11214-1983", "ntee": "Q122", "ruling": "198207", "deductibility": "1", "assets": 0, "income": 0, "revenue": 0}], "CANT": [{"ein": "112632189", "name": "A C T ANIMALS CANT TALK INC", "city": "LITTLE NECK", "state": "NY", "zip": "11363-0408", "ntee": "D200", "ruling": "198407", "deductibility": "1", "assets": 69265, "income": 9228, "revenue": 9228}, {"ein": "204452979", "name": "CANT SLEEP INCORPORATED", "city": "BROOKLYN", "state": "NY", "zip": "11215-4570", "ntee": "A62", "ruling": "200711", "deductibility": "1", "assets": 28207, "income": 5653, "revenue": 5653}, {"ein": "205256866", "name": "CANT BE SILENCED INC", "city": "NEW YORK", "state": "NY", "zip": "10026-2953", "ntee": "G81", "ruling": "200701", "deductibility": "1", "assets": 0, "income": 0, "revenue": 0}, {"ein": "452760754", "name": "RUNNING FOR THOSE WHO CANT INC", "city": "ELMA", "state": "NY", "zip": "14059-9272", "ntee": "N01", "ruling": "201509", "deductibility": "1", "assets": 0, "income": 0, "revenue": 0}, {"ein": "822399386", "name": "CANCER CANT KILL HOPE INC", "city": "DEPEW", "state": "NY", "zip": "14043-1917", "ntee": "P12", "ruling": "201808", "deductibility": "1", "assets": 0, "income": 0, "revenue": 0}, {"ein": "874454622", "name": "THEY CANT BURN US ALL INC", "city": "MASPETH", "state": "NY", "zip": "11378-1404", "ntee": "S80", "ruling": "202201", "deductibility": "1", "assets": 0, "income": 0, "revenue": 0}], "EFROIM": [{"ein": "112634934", "name": "CONGREATION BAIS EFROIM INC", "city": "BROOKLYN", "state": "NY", "zip": "11211-8116", "ntee": "", "ruling": "198303", "deductibility": "1", "assets": 0, "income": 0, "revenue": 0}], "MIR": [{"ein": "112635890", "name": "CONGREGATION MINYAN MIR- WILLIAMSBURGH", "city": "BROOKLYN", "state": "NY", "zip": "11211-7189", "ntee": "", "ruling": "198307", "deductibility": "1", "assets": 0, "income": 0, "revenue": 0}, {"ein": "112818379", "name": "CONGREGATION TALMEDAI YESHIVAS MIR INC", "city": "BROOKLYN", "state": "NY", "zip": "11230-1033", "ntee": "", "ruling": "198702", "deductibility": "1", "assets": 0, "income": 0, "revenue": 0}, {"ein": "116003413", "name": "CONGREGATION MINYAN MIR", "city": "BROOKLYN", "state": "NY", "zip": "11204-1805", "ntee": "", "ruling": "196204", "deductibility": "1", "assets": 0, "income": 0, "revenue": 0}, {"ein": "333472965", "name": "MIR FAMILY FOUNDATION INC", "city": "BROOKLYN", "state": "NY", "zip": "11208-3016", "ntee": "P99", "ruling": "202504", "deductibility": "1", "assets": 0, "income": 0, "revenue": 0}, {"ein": "472419829", "name": "MIR FOUNDATION INC", "city": "OLD WESTBURY", "state": "NY", "zip": "11568-1521", "ntee": "P20", "ruling": "201506", "deductibility": "1", "assets": 0, "income": 0, "revenue": 0}, {"ein": "611633420", "name": "RESTORATION CHURCH MIR NEW YORK", "city": "NEW YORK", "state": "NY", "zip": "10036-2402", "ntee": "X20", "ruling": "201504", "deductibility": "1", "assets": 0, "income": 0, "revenue": 0}, {"ein": "884268628", "name": "JOIE DE VIVRE MIR INC", "city": "GREAT NECK", "state": "NY", "zip": "11021-3645", "ntee": "A70", "ruling": "202301", "deductibility": "1", "assets": 0, "income": 0, "revenue": 0}], "ANNANDALE": [{"ein": "112689332", "name": "ANNANDALE DRIVE HOMEOWNERS ASSN", "city": "SYOSSET", "state": "NY", "zip": "11791-1001", "ntee": "Z99", "ruling": "199912", "deductibility": "2", "assets": 0, "income": 0, "revenue": 0}], "MUSTAQEEM": [{"ein": "112694201", "name": "MASJIDUL-MUSTAQEEM MOSQUE INC C/O IHSAN ABD AZIZ", "city": "HUNTINGTON", "state": "NY", "zip": "11743-3039", "ntee": "", "ruling": "199409", "deductibility": "1", "assets": 0, "income": 0, "revenue": 0}], "TAIMIDEI": [{"ein": "112737367", "name": "CONGREGATION TAIMIDEI SHAY INC", "city": "BROOKLYN", "state": "NY", "zip": "11219-1683", "ntee": "", "ruling": "198603", "deductibility": "1", "assets": 0, "income": 0, "revenue": 0}], "INGLESIA": [{"ein": "112901304", "name": "INGLESIA REFORMADA DISCIPULOS DECRISTO INC", "city": "WOODHAVEN", "state": "NY", "zip": "11421-2100", "ntee": "", "ruling": "199303", "deductibility": "1", "assets": 0, "income": 0, "revenue": 0}, {"ein": "133649723", "name": "INGLESIA CRISTO ES LA RESPUESTA", "city": "NEW YORK", "state": "NY", "zip": "10035-4103", "ntee": "", "ruling": "199306", "deductibility": "1", "assets": 0, "income": 0, "revenue": 0}, {"ein": "133774405", "name": "INGLESIA CHRISTIANA RENACER INC", "city": "CORONA", "state": "NY", "zip": "11368-2324", "ntee": "X20Z", "ruling": "199506", "deductibility": "1", "assets": 0, "income": 0, "revenue": 0}, {"ein": "202630429", "name": "INGLESIA DE DIOS PENTECOSTAL INC", "city": "CORONA", "state": "NY", "zip": "11368-3606", "ntee": "X21", "ruling": "201404", "deductibility": "1", "assets": 0, "income": 0, "revenue": 0}, {"ein": "473134776", "name": "INGLESIA CRISTIANA EVANGELILCA CRISTO EL HIJO DEL DIOS VIVIENTE", "city": "NEW YORK", "state": "NY", "zip": "10035-4359", "ntee": "X20", "ruling": "201510", "deductibility": "1", "assets": 0, "income": 0, "revenue": 0}], "PARENTERAL": [{"ein": "112920162", "name": "NEW YORK STATE LONG ISLAND SOCIETY FOR PARENTERAL & ENTERAL NUTRITION", "city": "JERICHO", "state": "NY", "zip": "11753-2645", "ntee": "E03", "ruling": "201112", "deductibility": "1", "assets": 0, "income": 0, "revenue": 0}], "UPKAAR": [{"ein": "113096596", "name": "UPKAAR SABHA INC", "city": "BROOKLYN", "state": "NY", "zip": "11234-3120", "ntee": "X99Z", "ruling": "199605", "deductibility": "1", "assets": 0, "income": 0, "revenue": 0}], "GRUNWALD": [{"ein": "113181042", "name": "Y&F GRUNWALD FOUNDATION", "city": "BROOKLYN", "state": "NY", "zip": "11204-1257", "ntee": "", "ruling": "199402", "deductibility": "1", "assets": 1, "income": 1, "revenue": 0}, {"ein": "261378052", "name": "GRUNWALD FAMILY FOUNDATION", "city": "BROOKLYN", "state": "NY", "zip": "11219-4973", "ntee": "T20", "ruling": "200812", "deductibility": "1", "assets": 10751, "income": 1, "revenue": 0}], "POOL": [{"ein": "113194845", "name": "L I POOL & SPA ASSOCIATION INC", "city": "E NORTHPORT", "state": "NY", "zip": "11731-0174", "ntee": "S41", "ruling": "200511", "deductibility": "2", "assets": 118024, "income": 180315, "revenue": 107178}, {"ein": "133845105", "name": "NEW YORK GAY POOL LEAGUE-NYGPL- INCORPORATED", "city": "MANHATTAN", "state": "NY", "zip": "10128-4014", "ntee": "T21", "ruling": "199512", "deductibility": "1", "assets": 0, "income": 0, "revenue": 0}, {"ein": "136074609", "name": "ALSTEAD TOWN VILAS POOL", "city": "BUFFALO", "state": "NY", "zip": "14240-1504", "ntee": "T90", "ruling": "201906", "deductibility": "1", "assets": 569562, "income": 103273, "revenue": 33959}, {"ein": "141577841", "name": "RURAL RIDGE POOL ADMINISTRATION", "city": "CAMPBELL HALL", "state": "NY", "zip": "10916-3327", "ntee": "", "ruling": "197612", "deductibility": "2", "assets": 0, "income": 0, "revenue": 0}, {"ein": "161017062", "name": "CHAPEL WOODS POOL & TENNIS CLUB INC", "city": "WILLIAMSVILLE", "state": "NY", "zip": "14221-0000", "ntee": "", "ruling": "197505", "deductibility": "2", "assets": 0, "income": 0, "revenue": 0}, {"ein": "161533159", "name": "DEPOSIT COMMUNITY POOL ASSOCIATION", "city": "DEPOSIT", "state": "NY", "zip": "13754-0138", "ntee": "N30", "ruling": "199711", "deductibility": "1", "assets": 0, "income": 0, "revenue": 0}, {"ein": "201515620", "name": "RIVER POOL AT BEACON INC", "city": "BEACON", "state": "NY", "zip": "12508-0000", "ntee": "N30", "ruling": "200605", "deductibility": "1", "assets": 157616, "income": 79054, "revenue": 79054}, {"ein": "274751942", "name": "POOL OF SILOAM", "city": "BROOKLYN", "state": "NY", "zip": "11225-0116", "ntee": "X20", "ruling": "201311", "deductibility": "1", "assets": 572903, "income": 249198, "revenue": 249198}, {"ein": "472096400", "name": "WILTSE POOL ASSOCIATION INC", "city": "VAN HORNESVLE", "state": "NY", "zip": "13475-0035", "ntee": "N50", "ruling": "201503", "deductibility": "2", "assets": 0, "income": 0, "revenue": 0}, {"ein": "474385432", "name": "ALBANY CSO POOL COMMUNITIES CORPORATION", "city": "ALBANY", "state": "NY", "zip": "12205-2676", "ntee": "", "ruling": "201607", "deductibility": "1", "assets": 10270, "income": 12068927, "revenue": 12068927}, {"ein": "510152384", "name": "BISHOP HILL ROAD POOL CLUB INC", "city": "MARCELLUS", "state": "NY", "zip": "13108-9613", "ntee": "", "ruling": "197508", "deductibility": "2", "assets": 0, "income": 0, "revenue": 0}, {"ein": "611745367", "name": "FRIENDS OF POOL INC", "city": "NEW YORK", "state": "NY", "zip": "10007-2522", "ntee": "C32", "ruling": "201503", "deductibility": "1", "assets": 1036273, "income": 840115, "revenue": 789329}, {"ein": "922025445", "name": "ORATAMIN COMMUNITY POOL INC", "city": "NYACK", "state": "NY", "zip": "10960-0289", "ntee": "N31", "ruling": "202306", "deductibility": "1", "assets": 0, "income": 0, "revenue": 0}], "AKTINA": [{"ein": "113220961", "name": "AKTINA PRODUCTIONS INC", "city": "ASTORIA", "state": "NY", "zip": "11105-3110", "ntee": "A230", "ruling": "199411", "deductibility": "1", "assets": 1, "income": 62765, "revenue": 62765}], "BENESON": [{"ein": "113352088", "name": "BENESON FAMILY FOUNDATION", "city": "NEW YORK", "state": "NY", "zip": "10128-1312", "ntee": "T20Z", "ruling": "199801", "deductibility": "1", "assets": 1105258, "income": 543500, "revenue": 0}], "MACHOL": [{"ein": "113382855", "name": "RICK MACHOL FOUNDATION INC", "city": "HUNTINGTON", "state": "NY", "zip": "11743-2617", "ntee": "B82", "ruling": "201109", "deductibility": "1", "assets": 0, "income": 0, "revenue": 0}], "BETHMEDRSH": [{"ein": "113445329", "name": "CONGREGATION DUVID DINVER BETHMEDRSH", "city": "BROOKLYN", "state": "NY", "zip": "11218-5603", "ntee": "X30Z", "ruling": "199809", "deductibility": "1", "assets": 0, "income": 0, "revenue": 0}], "ADIR": [{"ein": "113483578", "name": "ADIR ELIEZER", "city": "FAR ROCKAWAY", "state": "NY", "zip": "11691-5206", "ntee": "X30", "ruling": "199907", "deductibility": "1", "assets": 0, "income": 0, "revenue": 0}, {"ein": "134101976", "name": "CONGREGATION ADIR BAMOROM", "city": "MONSEY", "state": "NY", "zip": "10952-2312", "ntee": "X30", "ruling": "200005", "deductibility": "1", "assets": 0, "income": 0, "revenue": 0}], "CREOLE": [{"ein": "113525187", "name": "CREOLE JUNIORS BIG APPLE VOLLEYBALL CLUB INC", "city": "JAMAICA", "state": "NY", "zip": "11434-3328", "ntee": "N60", "ruling": "200810", "deductibility": "1", "assets": 46709, "income": 133702, "revenue": 133702}], "CHAMJOHOON": [{"ein": "113546654", "name": "CHAMJOHOON PRESBYTERIAN CHURCH OF NEW YORK", "city": "FLUSHING", "state": "NY", "zip": "11354-5483", "ntee": "X21", "ruling": "200006", "deductibility": "1", "assets": 0, "income": 0, "revenue": 0}], "MINDSHIFT": [{"ein": "113777406", "name": "THE MINDSHIFT INSTITUTE", "city": "NEW YORK", "state": "NY", "zip": "10024-3048", "ntee": "B990", "ruling": "200612", "deductibility": "1", "assets": 0, "income": 0, "revenue": 0}], "CHRISTI": [{"ein": "116018572", "name": "CORPUS CHRISTI COUNCIL NO 2502 KNIGHTS OF COLUMBUS", "city": "MINEOLA", "state": "NY", "zip": "11501-0243", "ntee": "Y40", "ruling": "201703", "deductibility": "1", "assets": 18688, "income": 134322, "revenue": 134322}, {"ein": "132569144", "name": "CORPUS CHRISTI SCHOOL", "city": "PORT CHESTER", "state": "NY", "zip": "10573-3511", "ntee": "", "ruling": "194603", "deductibility": "1", "assets": 0, "income": 0, "revenue": 0}, {"ein": "133424349", "name": "PAX CHRISTI METRO NEW YORK", "city": "NEW YORK", "state": "NY", "zip": "10036-1602", "ntee": "", "ruling": "194603", "deductibility": "1", "assets": 90093, "income": 39241, "revenue": 39241}, {"ein": "161582433", "name": "SPIRITUS CHRISTI PRISON OUTREACH INC", "city": "ROCHESTER", "state": "NY", "zip": "14609-7143", "ntee": "I31", "ruling": "200007", "deductibility": "1", "assets": 3665202, "income": 4314700, "revenue": 4305313}, {"ein": "270221761", "name": "PARISH OF MATER CHRISTI", "city": "ALBANY", "state": "NY", "zip": "12208-1505", "ntee": "", "ruling": "194603", "deductibility": "1", "assets": 0, "income": 0, "revenue": 0}, {"ein": "453539020", "name": "FRIENDS OF CORPUS CHRISTI INC", "city": "BUFFALO", "state": "NY", "zip": "14240-0784", "ntee": "S20", "ruling": "201606", "deductibility": "1", "assets": 27340, "income": 26948, "revenue": 26948}, {"ein": "812334734", "name": "ROMAN CATHOLIC CHURCH OF CORPUS CHRISTI AND OUR LADY OF THE ROSARY", "city": "PORT CHESTER", "state": "NY", "zip": "10573-3511", "ntee": "", "ruling": "194603", "deductibility": "1", "assets": 0, "income": 0, "revenue": 0}, {"ein": "876330949", "name": "FRIENDS OF CORPUS CHRISTI HOLY ROSARY SCHOOL TR", "city": "PORT CHESTER", "state": "NY", "zip": "10573-3510", "ntee": "", "ruling": "202108", "deductibility": "1", "assets": 425929, "income": 346327, "revenue": 285446}], "EUREKAS": [{"ein": "116027589", "name": "RVC EUREKAS INC", "city": "LYNBROOK", "state": "NY", "zip": "11563-0000", "ntee": "M24", "ruling": "201808", "deductibility": "2", "assets": 525143, "income": 9750, "revenue": 9750}], "BERYL": [{"ein": "116035628", "name": "BERYL H DOFT FOUNDATION INC", "city": "NEW YORK", "state": "NY", "zip": "10021-2758", "ntee": "", "ruling": "194911", "deductibility": "1", "assets": 23367, "income": 135, "revenue": 0}, {"ein": "873454399", "name": "BERYL AND ADA FUND INC", "city": "SPRING VALLEY", "state": "NY", "zip": "10977-1605", "ntee": "P40", "ruling": "202201", "deductibility": "1", "assets": 2729, "income": 26296, "revenue": 0}], "BIBLIOGRAPHICAL": [{"ein": "131632509", "name": "BIBLIOGRAPHICAL SOCIETY OF AMERICA", "city": "BROOKLYN", "state": "NY", "zip": "11222-5391", "ntee": "A33C", "ruling": "195101", "deductibility": "1", "assets": 4446977, "income": 254548, "revenue": 254548}], "FURNACE": [{"ein": "132879766", "name": "FRANKLIN FURNACE ARCHIVE INC", "city": "BROOKLYN", "state": "NY", "zip": "11205-3817", "ntee": "", "ruling": "197701", "deductibility": "1", "assets": 651819, "income": 441441, "revenue": 441441}, {"ein": "332916463", "name": "THE FURNACE", "city": "NEW YORK", "state": "NY", "zip": "10019-6018", "ntee": "J99", "ruling": "202502", "deductibility": "1", "assets": 0, "income": 0, "revenue": 0}], "SDC": [{"ein": "132958267", "name": "SDC-LEAGUE HEALTH FUND", "city": "NEW YORK", "state": "NY", "zip": "10036-5404", "ntee": "", "ruling": "197908", "deductibility": "2", "assets": 6586039, "income": 5405418, "revenue": 5405418}], "HAVEMEYER": [{"ein": "133022482", "name": "DOROTHY RUSSELL HAVEMEYER FOUNDATION INC", "city": "NEW YORK", "state": "NY", "zip": "10165-0048", "ntee": "", "ruling": "198005", "deductibility": "1", "assets": 4724581, "income": 1133362, "revenue": 0}], "PLASTIC": [{"ein": "133081813", "name": "ASTON PLASTIC SURGERY FOUNDATION", "city": "NEW YORK", "state": "NY", "zip": "10021-0000", "ntee": "", "ruling": "198404", "deductibility": "1", "assets": 3319194, "income": 771361, "revenue": 0}, {"ein": "263803825", "name": "NEW YORK STATE SOCIETY OF PLASTIC SURGEONS INC", "city": "ALBANY", "state": "NY", "zip": "12207-1646", "ntee": "S41", "ruling": "201003", "deductibility": "2", "assets": 240279, "income": 143863, "revenue": 143863}, {"ein": "820740463", "name": "PLASTIC TIDES INC", "city": "ITHACA", "state": "NY", "zip": "14850-4724", "ntee": "C20", "ruling": "201802", "deductibility": "1", "assets": 0, "income": 0, "revenue": 0}, {"ein": "821772747", "name": "SUITE 130 PLASTIC SURGERY PC", "city": "WESTBURY", "state": "NY", "zip": "11590-1740", "ntee": "G11", "ruling": "201809", "deductibility": "1", "assets": 511118, "income": 6800264, "revenue": 6800264}], "MACY": [{"ein": "133091830", "name": "IRMA AND MACY CHAMBERLIN SCHOLARSHIP FUND", "city": "TANNERSVILLE", "state": "NY", "zip": "12485-0021", "ntee": "", "ruling": "198204", "deductibility": "1", "assets": 400328, "income": 30151, "revenue": 7679}, {"ein": "135596895", "name": "JOSIAH MACY JR FOUNDATION", "city": "NEW YORK", "state": "NY", "zip": "10065-7306", "ntee": "", "ruling": "193009", "deductibility": "1", "assets": 147192747, "income": 38549779, "revenue": 0}], "GORGE": [{"ein": "133523329", "name": "MIANUS RIVER GORGE INC", "city": "BEDFORD", "state": "NY", "zip": "10506-1808", "ntee": "D340", "ruling": "199310", "deductibility": "1", "assets": 27050438, "income": 3116167, "revenue": 1457308}, {"ein": "141827582", "name": "GRAND GORGE COMMUNITY ACTION GROUP", "city": "GRAND GORGE", "state": "NY", "zip": "12434-0306", "ntee": "S20", "ruling": "200107", "deductibility": "1", "assets": 0, "income": 0, "revenue": 0}, {"ein": "335021188", "name": "GRAND GORGE FOOD PANTRY INC", "city": "GRAND GORGE", "state": "NY", "zip": "12434-0018", "ntee": "K31", "ruling": "202506", "deductibility": "1", "assets": 0, "income": 0, "revenue": 0}, {"ein": "834216260", "name": "CHAUTAUQUA GORGE RELIGIOUS SOCIETY", "city": "FREDONIA", "state": "NY", "zip": "14063-1002", "ntee": "X20", "ruling": "202002", "deductibility": "1", "assets": 0, "income": 0, "revenue": 0}, {"ein": "923131797", "name": "CATSKILL FOLKLIFE CENTER OF GRAND GORGE INC", "city": "GRAND GORGE", "state": "NY", "zip": "12434-1358", "ntee": "A20", "ruling": "202303", "deductibility": "1", "assets": 0, "income": 0, "revenue": 0}], "ORENSANZ": [{"ein": "133649382", "name": "ANGEL ORENSANZ FOUNDATION", "city": "NEW YORK", "state": "NY", "zip": "10002-1602", "ntee": "W12", "ruling": "202001", "deductibility": "1", "assets": 117979, "income": 54947, "revenue": 0}], "UNIONE": [{"ein": "133803418", "name": "UNIONE SPORTIVA ITALIANA INC", "city": "SCARSDALE", "state": "NY", "zip": "10583-0522", "ntee": "N50", "ruling": "200211", "deductibility": "2", "assets": 0, "income": 0, "revenue": 0}], "ORAN": [{"ein": "133927715", "name": "JOEL & ORAN BENTON MONROE BENTON MEMORIAL FOUNDATION", "city": "NEW YORK", "state": "NY", "zip": "10022-0000", "ntee": "T21I", "ruling": "199704", "deductibility": "1", "assets": 19353723, "income": 0, "revenue": 0}], "BABAJIDE": [{"ein": "133931289", "name": "BABAJIDE FOUNDATION", "city": "ALBANY", "state": "NY", "zip": "12212-5201", "ntee": "T22Z", "ruling": "199806", "deductibility": "1", "assets": 1954, "income": 94, "revenue": 0}], "THUMB": [{"ein": "133947679", "name": "CLUBBED THUMB INC", "city": "NEW YORK", "state": "NY", "zip": "10003-6919", "ntee": "A650", "ruling": "199706", "deductibility": "1", "assets": 1348400, "income": 1884989, "revenue": 1774576}, {"ein": "161027136", "name": "GREEN THUMB ENVIRONMENTAL BEAUTIFICATION INC", "city": "ALBANY", "state": "NY", "zip": "12205-1677", "ntee": "J200", "ruling": "197410", "deductibility": "1", "assets": 2830558, "income": 5861936, "revenue": 5861936}], "MARCHA": [{"ein": "134010925", "name": "PUEBLO EN MARCHA II INC", "city": "BRONX", "state": "NY", "zip": "10454-1077", "ntee": "P20", "ruling": "201206", "deductibility": "1", "assets": 0, "income": 0, "revenue": 0}], "TAMTZIS": [{"ein": "134060794", "name": "MEFAL HATORAH LEHAFOTZAS TAMTZIS HAINYONIM", "city": "MONSEY", "state": "NY", "zip": "10952-2630", "ntee": "X30", "ruling": "199910", "deductibility": "1", "assets": 0, "income": 0, "revenue": 0}], "PERSONALITY": [{"ein": "134069081", "name": "BORDERLINE PERSONALITY DISORDER RESEARCH FOUNDATION", "city": "NEW YORK", "state": "NY", "zip": "10018-3496", "ntee": "F127", "ruling": "199908", "deductibility": "1", "assets": 109464, "income": 866943, "revenue": 0}, {"ein": "201890534", "name": "ASSOCIATION FOR RESEARCH IN PERSONALITY", "city": "BUFFALO", "state": "NY", "zip": "14208-0000", "ntee": "H99", "ruling": "201307", "deductibility": "1", "assets": 154642, "income": 90476, "revenue": 90476}, {"ein": "471681396", "name": "TARA FOR BORDERLINE PERSONALITY DISORDER INC", "city": "NEW YORK", "state": "NY", "zip": "10013-2536", "ntee": "G01", "ruling": "202010", "deductibility": "1", "assets": 122009, "income": 167566, "revenue": 167566}], "PAVILLION": [{"ein": "134112393", "name": "THE PAVILLION HOUSING DEVELOPMENT FUND CORPORATION", "city": "BRONX", "state": "NY", "zip": "10467-5943", "ntee": "L20", "ruling": "201606", "deductibility": "1", "assets": 4546666, "income": 763829, "revenue": 763829}], "JOSIAH": [{"ein": "135596895", "name": "JOSIAH MACY JR FOUNDATION", "city": "NEW YORK", "state": "NY", "zip": "10065-7306", "ntee": "", "ruling": "193009", "deductibility": "1", "assets": 147192747, "income": 38549779, "revenue": 0}, {"ein": "146023489", "name": "JOSIAH H DANFORTH MEMORIAL FUND", "city": "NORWICH", "state": "NY", "zip": "13815-0000", "ntee": "", "ruling": "194603", "deductibility": "1", "assets": 627472, "income": 111940, "revenue": 0}, {"ein": "822996772", "name": "JOSIAH AKINDAYOMI FOUNDATION NFP", "city": "NEW ROCHELLE", "state": "NY", "zip": "10801-6387", "ntee": "X20", "ruling": "201807", "deductibility": "1", "assets": 0, "income": 0, "revenue": 0}, {"ein": "992218549", "name": "ORLANDO JOSIAH MEMORIAL INC", "city": "HORSEHEADS", "state": "NY", "zip": "14845-0149", "ntee": "B82", "ruling": "202404", "deductibility": "1", "assets": 0, "income": 0, "revenue": 0}], "WALLERSTEIN": [{"ein": "136059795", "name": "JACOB M WALLERSTEIN FOUNDATION INC", "city": "RYE BROOK", "state": "NY", "zip": "10573-1933", "ntee": "", "ruling": "195401", "deductibility": "1", "assets": 49543, "income": 11232, "revenue": 0}], "KUHN": [{"ein": "136144809", "name": "LEE & LOUIS KUHN FOUNDATION INC", "city": "NEW YORK", "state": "NY", "zip": "10028-1031", "ntee": "", "ruling": "196403", "deductibility": "1", "assets": 1389394, "income": 143849, "revenue": 0}, {"ein": "273593047", "name": "THE KERRY AND GAIL KUHN FAMILY FOUNDATION INC", "city": "GARDEN CITY", "state": "NY", "zip": "11530-0000", "ntee": "T20", "ruling": "201012", "deductibility": "1", "assets": 2742441, "income": 718782, "revenue": 0}], "INSEAD": [{"ein": "136209297", "name": "INSEAD MANAGEMENT EDUCATION FOUNDATION", "city": "ARMONK", "state": "NY", "zip": "10504-0015", "ntee": "Q123", "ruling": "196611", "deductibility": "1", "assets": 1136213, "income": 1586747, "revenue": 1566684}, {"ein": "311734079", "name": "INSEAD NORTH AMERICA INC", "city": "JEFFERSON VALLEY", "state": "NY", "zip": "10535-0000", "ntee": "Q220", "ruling": "200101", "deductibility": "2", "assets": 12122094, "income": 8311685, "revenue": 8311685}], "WINNIE": [{"ein": "136260339", "name": "MAX J & WINNIE S ROSENSHEIN FOUNDATION", "city": "NEW YORK", "state": "NY", "zip": "10165-0048", "ntee": "", "ruling": "196805", "deductibility": "1", "assets": 8010387, "income": 1367389, "revenue": 0}], "SVM": [{"ein": "137105557", "name": "SVM FOUNDATION", "city": "NEW YORK", "state": "NY", "zip": "10022-9242", "ntee": "T20J", "ruling": "199704", "deductibility": "1", "assets": 1516327, "income": 42988, "revenue": 0}], "ECOS": [{"ein": "141544107", "name": "ECOS THE ENVIROMENTAL CLEARINGHOUSE INC", "city": "NISKAYUNA", "state": "NY", "zip": "12309-0118", "ntee": "C60Z", "ruling": "197307", "deductibility": "1", "assets": 93934, "income": 45282, "revenue": 40453}], "ZADOCK": [{"ein": "141561004", "name": "ZADOCK PRATT MUSEUM INC", "city": "PRATTSVILLE", "state": "NY", "zip": "12468-0333", "ntee": "A540", "ruling": "197507", "deductibility": "1", "assets": 716781, "income": 343006, "revenue": 343006}], "SPORTMEN": [{"ein": "141592342", "name": "ST REGIS FALLS SPORTMEN CLUB INC", "city": "ST REGIS FLS", "state": "NY", "zip": "12980-0041", "ntee": "N50", "ruling": "201408", "deductibility": "2", "assets": 442735, "income": 445106, "revenue": 325341}], "BROCKWAY": [{"ein": "141624970", "name": "BEULAH BAPTIST CHURCH OF BROCKWAY NEW YORK", "city": "WAPPINGERS FALLS", "state": "NY", "zip": "12590-0000", "ntee": "", "ruling": "199303", "deductibility": "1", "assets": 0, "income": 0, "revenue": 0}, {"ein": "156021436", "name": "BROCKWAY FOUNDATION FOR THE NEEDY OF THE VILLAGE & TOWNSHIP ET AL", "city": "HOMER", "state": "NY", "zip": "13077-0121", "ntee": "", "ruling": "194205", "deductibility": "1", "assets": 357422, "income": 111840, "revenue": 0}, {"ein": "261329102", "name": "BROCKWAY TRUCK PRESERVATION ASSOCIATION", "city": "CORTLAND", "state": "NY", "zip": "13045-0333", "ntee": "A50", "ruling": "200801", "deductibility": "1", "assets": 173870, "income": 127917, "revenue": 127917}], "CLOSE": [{"ein": "141783014", "name": "CLOSE ENCOUNTERS WITH MUSIC INC", "city": "SPENCERTOWN", "state": "NY", "zip": "12165-0130", "ntee": "A680", "ruling": "199508", "deductibility": "1", "assets": 303162, "income": 284653, "revenue": 284653}, {"ein": "542066856", "name": "CHUCK CLOSE FOUNDATION", "city": "BROOKLYN", "state": "NY", "zip": "11231-2996", "ntee": "T20", "ruling": "200303", "deductibility": "1", "assets": 1, "income": 42, "revenue": 0}], "COMMANDMENTS": [{"ein": "141797567", "name": "GREATER COMMANDMENTS MINISTRIES CHURCH INC", "city": "SARATOGA SPGS", "state": "NY", "zip": "12866-0887", "ntee": "X20Z", "ruling": "199704", "deductibility": "1", "assets": 0, "income": 0, "revenue": 0}], "DANFORTH": [{"ein": "146023489", "name": "JOSIAH H DANFORTH MEMORIAL FUND", "city": "NORWICH", "state": "NY", "zip": "13815-0000", "ntee": "", "ruling": "194603", "deductibility": "1", "assets": 627472, "income": 111940, "revenue": 0}], "GAYLORD": [{"ein": "156014221", "name": "JAY BONNER GAYLORD TRUST", "city": "BUFFALO", "state": "NY", "zip": "14240-1504", "ntee": "T20", "ruling": "200903", "deductibility": "1", "assets": 7342602, "income": 1885074, "revenue": 0}, {"ein": "166106774", "name": "MANUFACTURERS AND TRADERS TRUST CO TRUSTEE U WILL OF CORA H GAYLORD", "city": "BUFFALO", "state": "NY", "zip": "14240-1504", "ntee": "", "ruling": "201912", "deductibility": "1", "assets": 2823743, "income": 625059, "revenue": 0}, {"ein": "166265083", "name": "ALICE M GAYLORD TRUST FBO EDWARD STALFORD", "city": "BUFFALO", "state": "NY", "zip": "14240-1504", "ntee": "T22", "ruling": "200204", "deductibility": "1", "assets": 1657387, "income": 473090, "revenue": 0}, {"ein": "166273334", "name": "CORA GAYLORD TRUST UWO FBO JAY BONNER", "city": "BUFFALO", "state": "NY", "zip": "14240-1504", "ntee": "T20", "ruling": "200907", "deductibility": "1", "assets": 1224867, "income": 332041, "revenue": 0}], "MCCAVANAUGH": [{"ein": "156020786", "name": "MCCAVANAUGH POND CLUB INC", "city": "CANANDAIGUA", "state": "NY", "zip": "14424-8143", "ntee": "", "ruling": "196202", "deductibility": "2", "assets": 1007951, "income": 150171, "revenue": 128494}], "BARGAINING": [{"ein": "160570159", "name": "NIAGARA FRONTIER COOPERATIVE MILK PRODUCERS BARGAINING AGENCY INC", "city": "WEST SENECA", "state": "NY", "zip": "14224-3572", "ntee": "", "ruling": "195503", "deductibility": "2", "assets": 0, "income": 0, "revenue": 0}, {"ein": "237292744", "name": "FORDHAM LAW SCHOOL BARGAINING COMMITTEE", "city": "NEW YORK", "state": "NY", "zip": "10023-7407", "ntee": "", "ruling": "197305", "deductibility": "2", "assets": 0, "income": 0, "revenue": 0}, {"ein": "237430462", "name": "WESTERN NEW YORK MILK PRODUCERS COOP BARGAINING AGENCY INC", "city": "WEST SENECA", "state": "NY", "zip": "14224-3572", "ntee": "", "ruling": "198212", "deductibility": "2", "assets": 0, "income": 0, "revenue": 0}], "CHORUSES": [{"ein": "161063495", "name": "AFFILIATED CHORUSES OF ITHACA INC", "city": "ITHACA", "state": "NY", "zip": "14851-0622", "ntee": "", "ruling": "199408", "deductibility": "1", "assets": 104788, "income": 87879, "revenue": 87879}, {"ein": "742586442", "name": "GALA CHORUSES INC", "city": "NEW YORK", "state": "NY", "zip": "10025-0000", "ntee": "A6BZ", "ruling": "198402", "deductibility": "1", "assets": 2130780, "income": 821889, "revenue": 821889}], "CDS": [{"ein": "161089115", "name": "CDS MONARCH INC", "city": "WEBSTER", "state": "NY", "zip": "14580-8825", "ntee": "P73Z", "ruling": "197801", "deductibility": "1", "assets": 45712363, "income": 54682642, "revenue": 54682642}, {"ein": "161425111", "name": "CDS HOUSING DEVELOPMENT FUND CORPORATION I", "city": "WEBSTER", "state": "NY", "zip": "14580-8825", "ntee": "P75Z", "ruling": "199301", "deductibility": "1", "assets": 187120, "income": 73754, "revenue": 73754}, {"ein": "204311706", "name": "CDS WOLF FOUNDATION INC", "city": "WEBSTER", "state": "NY", "zip": "14580-8825", "ntee": "H11", "ruling": "200608", "deductibility": "1", "assets": 20249070, "income": 1634756, "revenue": 1367284}, {"ein": "475672694", "name": "CDS LIFE TRANSITIONS INC", "city": "WEBSTER", "state": "NY", "zip": "14580-8825", "ntee": "P11", "ruling": "201603", "deductibility": "1", "assets": 30814698, "income": 48722300, "revenue": 48722300}], "NARCISSA": [{"ein": "161195014", "name": "COMMITTEE TO PRESERVE THE NARCISSA HOUSE", "city": "PRATTSBURGH", "state": "NY", "zip": "14873-0201", "ntee": "A54Z", "ruling": "199711", "deductibility": "1", "assets": 122356, "income": 6649, "revenue": 0}], "NORTHGATE": [{"ein": "161234057", "name": "NORTHGATE FREE METHODIST CHURCH", "city": "BATAVIA", "state": "NY", "zip": "14020-9705", "ntee": "", "ruling": "195806", "deductibility": "1", "assets": 0, "income": 0, "revenue": 0}, {"ein": "161604384", "name": "NORTHGATE CHURCH", "city": "SINCLAIRVILLE", "state": "NY", "zip": "14782-9645", "ntee": "X20", "ruling": "200202", "deductibility": "1", "assets": 0, "income": 0, "revenue": 0}], "REALIZATION": [{"ein": "161362684", "name": "MENTALIA SANCTUARY CHURCH OF GOD REALIZATION LTD", "city": "BUFFALO", "state": "NY", "zip": "14202-3612", "ntee": "", "ruling": "199110", "deductibility": "1", "assets": 0, "income": 0, "revenue": 0}], "WATERSHEDS": [{"ein": "161447322", "name": "WATERSHED AGRICULTURAL COUNCIL OF THE NEW YORK CITY WATERSHEDS INC", "city": "WALTON", "state": "NY", "zip": "13856-2159", "ntee": "B99Z", "ruling": "199404", "deductibility": "1", "assets": 12294288, "income": 17300361, "revenue": 17300361}], "LAUMER": [{"ein": "161553655", "name": "FESSENDEN LAUMER & DEANGELO A ATHLETIC CLUB INC", "city": "JAMESTOWN", "state": "NY", "zip": "14702-0590", "ntee": "O12", "ruling": "200001", "deductibility": "1", "assets": 0, "income": 0, "revenue": 0}], "ONNOLEE": [{"ein": "166523074", "name": "SIDNEY L HUFF & ONNOLEE D HUFF CHARITABLE TR", "city": "NORWICH", "state": "NY", "zip": "13815-0000", "ntee": "B82", "ruling": "200112", "deductibility": "1", "assets": 101158, "income": 27212, "revenue": 0}], "ISHWAR": [{"ein": "200066839", "name": "ISHWAR USA INC", "city": "JACKSON HTS", "state": "NY", "zip": "11372-3922", "ntee": "X90", "ruling": "200508", "deductibility": "1", "assets": 0, "income": 0, "revenue": 0}], "BEERAS": [{"ein": "200210656", "name": "BEERAS HAMAYIM", "city": "BROOKLYN", "state": "NY", "zip": "11204-1531", "ntee": "X30", "ruling": "201707", "deductibility": "1", "assets": 0, "income": 0, "revenue": 0}], "KAMENAS": [{"ein": "200428181", "name": "KAMENAS KINSHIP INC", "city": "BROOKLYN", "state": "NY", "zip": "11210-3432", "ntee": "S20", "ruling": "202506", "deductibility": "1", "assets": 0, "income": 0, "revenue": 0}], "COV": [{"ein": "200603690", "name": "ARTISAN CHURCH AN EVANGELICAL COV CHURCH ROCHESTER NY", "city": "ROCHESTER", "state": "NY", "zip": "14620-2003", "ntee": "", "ruling": "197507", "deductibility": "1", "assets": 0, "income": 0, "revenue": 0}], "DIMENSION": [{"ein": "201523907", "name": "NEW DIMENSION CHRISTIAN CENTER", "city": "STATEN ISLAND", "state": "NY", "zip": "10310-0053", "ntee": "X21", "ruling": "200504", "deductibility": "1", "assets": 0, "income": 0, "revenue": 0}, {"ein": "332682091", "name": "BRAVE DIMENSION GLOBAL", "city": "CHEEKTOWAGA", "state": "NY", "zip": "14215-1917", "ntee": "R99", "ruling": "202506", "deductibility": "1", "assets": 0, "income": 0, "revenue": 0}, {"ein": "352319682", "name": "NEW DIMENSION CHRISTIAN CENTRE INC", "city": "BRONX", "state": "NY", "zip": "10457-4401", "ntee": "X20", "ruling": "201602", "deductibility": "1", "assets": 0, "income": 0, "revenue": 0}, {"ein": "471659200", "name": "FOUR DIMENSION PRODUCTIONS INC", "city": "N SYRACUSE", "state": "NY", "zip": "13212-2767", "ntee": "O11", "ruling": "201410", "deductibility": "1", "assets": 0, "income": 0, "revenue": 0}, {"ein": "811454722", "name": "NEW DIMENSION COMMUNITY CHURCH", "city": "BROOKLYN", "state": "NY", "zip": "11207-6749", "ntee": "X20", "ruling": "201606", "deductibility": "1", "assets": 0, "income": 0, "revenue": 0}, {"ein": "841874811", "name": "NEXT DIMENSION TABERNACLE", "city": "BROOKLYN", "state": "NY", "zip": "11207-2811", "ntee": "X20", "ruling": "202103", "deductibility": "1", "assets": 0, "income": 0, "revenue": 0}, {"ein": "920934639", "name": "ART AS A THIRD DIMENSION INC", "city": "TARRYTOWN", "state": "NY", "zip": "10591-3023", "ntee": "A20", "ruling": "202212", "deductibility": "1", "assets": 176015, "income": 199262, "revenue": 140275}], "CORGI": [{"ein": "201931160", "name": "CARDIGAN WELSH CORGI NATIONAL RESCUE TRUST", "city": "CORNING", "state": "NY", "zip": "14830-3764", "ntee": "D20", "ruling": "200502", "deductibility": "1", "assets": 542231, "income": 52168, "revenue": 27722}], "DARUSALAM": [{"ein": "202607161", "name": "DARUSALAM", "city": "SPRING VALLEY", "state": "NY", "zip": "10977-2303", "ntee": "X40", "ruling": "200509", "deductibility": "1", "assets": 0, "income": 0, "revenue": 0}], "RAVIKUMAR": [{"ein": "203776033", "name": "RAVIKUMAR FOUNDATION INC", "city": "NEW YORK", "state": "NY", "zip": "10075-0816", "ntee": "T22", "ruling": "200512", "deductibility": "1", "assets": 292846, "income": 69969, "revenue": 0}], "KUSUMA": [{"ein": "205727471", "name": "GAMELAN KUSUMA LARAS INC", "city": "NEW YORK", "state": "NY", "zip": "10009-7308", "ntee": "A23", "ruling": "200707", "deductibility": "1", "assets": 0, "income": 0, "revenue": 0}], "MINGLE": [{"ein": "205836823", "name": "MULTIPLE MOMS MINGLE", "city": "SYRACUSE", "state": "NY", "zip": "13215-0000", "ntee": "P40", "ruling": "198210", "deductibility": "1", "assets": 0, "income": 0, "revenue": 0}], "CAPITALREGION": [{"ein": "208100791", "name": "AUDUBON SOCIETY OF THE CAPITALREGION INC", "city": "ALBANY", "state": "NY", "zip": "12203-8177", "ntee": "D30", "ruling": "201201", "deductibility": "1", "assets": 0, "income": 0, "revenue": 0}], "FARMWORKER": [{"ein": "208907374", "name": "FARMWORKER LAW CENTER INC", "city": "ROCHESTER", "state": "NY", "zip": "14609-5448", "ntee": "R11", "ruling": "201004", "deductibility": "1", "assets": 420855, "income": 72002, "revenue": 72002}, {"ein": "822792159", "name": "WESTERN NY COALITION OF FARMWORKER SERVING AGENCIES", "city": "ROCHESTER", "state": "NY", "zip": "14608-2237", "ntee": "P01", "ruling": "201811", "deductibility": "1", "assets": 1093637, "income": 924099, "revenue": 922738}, {"ein": "854221804", "name": "WARWICK AREA FARMWORKER ORGANIZATION", "city": "GOSHEN", "state": "NY", "zip": "10924-6034", "ntee": "P20", "ruling": "202001", "deductibility": "1", "assets": 44036, "income": 220317, "revenue": 220317}], "VANS": [{"ein": "222299264", "name": "SALT CITY VANS LTD", "city": "CANASTOTA", "state": "NY", "zip": "13032-3210", "ntee": "", "ruling": "198009", "deductibility": "2", "assets": 0, "income": 0, "revenue": 0}], "DEVELOPMENTEL": [{"ein": "222570251", "name": "NEW YORK STATE INTELLECTUAL DIS DEVELOPMENTEL DIS NURSES ASSOC INC", "city": "ROCHESTER", "state": "NY", "zip": "14625-0832", "ntee": "", "ruling": "199209", "deductibility": "2", "assets": 114799, "income": 88235, "revenue": 88235}], "RACQUETS": [{"ein": "222765623", "name": "ROCHESTER SQUASH RACQUETS ASSOCIATION INC", "city": "ROCHESTER", "state": "NY", "zip": "14618-0025", "ntee": "", "ruling": "198712", "deductibility": "1", "assets": 0, "income": 0, "revenue": 0}, {"ein": "223145563", "name": "BUFFALO SQUASH RACQUETS ASSOCIATION", "city": "KENMORE", "state": "NY", "zip": "14217-1701", "ntee": "N66", "ruling": "201805", "deductibility": "1", "assets": 0, "income": 0, "revenue": 0}, {"ein": "223283986", "name": "CAPITAL DISTRICT SQUASH RACQUETS ASSOCIATION INC", "city": "CLIFTON PARK", "state": "NY", "zip": "12065-6781", "ntee": "N66Z", "ruling": "199411", "deductibility": "1", "assets": 0, "income": 0, "revenue": 0}], "GERNATA": [{"ein": "222914177", "name": "DANIEL & FLAVIA GERNATA FAMILY FOUNDATION", "city": "GOWANDA", "state": "NY", "zip": "14070-9767", "ntee": "", "ruling": "198809", "deductibility": "1", "assets": 3249021, "income": 79019, "revenue": 0}], "CULPEPER": [{"ein": "237227846", "name": "DAPHNE SYBOLT CULPEPER FOUNDATION INC", "city": "NEW HYDE PARK", "state": "NY", "zip": "11040-0148", "ntee": "", "ruling": "197212", "deductibility": "1", "assets": 433071, "income": 310885, "revenue": 0}], "NACHLEI": [{"ein": "237401862", "name": "CONGREGATION NACHLEI EMUNAH", "city": "BROOKLYN", "state": "NY", "zip": "11211-7325", "ntee": "", "ruling": "197410", "deductibility": "1", "assets": 0, "income": 0, "revenue": 0}, {"ein": "853826784", "name": "CONGREGATION NACHLEI SHOMAYIM", "city": "HURLEYVILLE", "state": "NY", "zip": "12747-0000", "ntee": "X30", "ruling": "202104", "deductibility": "1", "assets": 0, "income": 0, "revenue": 0}], "DOELL": [{"ein": "256536714", "name": "ANNA F DOELL TR UW MEMORIAL TR FUND", "city": "BUFFALO", "state": "NY", "zip": "14240-1504", "ntee": "T20", "ruling": "200110", "deductibility": "1", "assets": 3974243, "income": 1096943, "revenue": 0}], "ARTWALK": [{"ein": "260060259", "name": "ARTWALK", "city": "ROCHESTER", "state": "NY", "zip": "14607-1116", "ntee": "A40", "ruling": "200307", "deductibility": "1", "assets": 0, "income": 0, "revenue": 0}], "OFCOMMERCE": [{"ein": "260424506", "name": "GREATER CHURCHVILLE-RIGA CHAMBER OFCOMMERCE INC", "city": "CHURCHVILLE", "state": "NY", "zip": "14428-0362", "ntee": "S41", "ruling": "200712", "deductibility": "2", "assets": 8892, "income": 11708, "revenue": 4959}], "KLIMAN": [{"ein": "261619962", "name": "JACOB AND MINNIE KLIMAN CHARITABLE FOUNDATION", "city": "HAMILTON", "state": "NY", "zip": "13346-1216", "ntee": "T22", "ruling": "200907", "deductibility": "1", "assets": 476347, "income": 28080, "revenue": 0}], "CAPOZZI": [{"ein": "261979630", "name": "MICHAEL CAPOZZI SCHOLARSHIP FUND", "city": "EAST MEADOW", "state": "NY", "zip": "11554-3727", "ntee": "B82", "ruling": "200804", "deductibility": "1", "assets": 0, "income": 0, "revenue": 0}], "WIELKIE": [{"ein": "263378417", "name": "THE WIELKIE OCZY FOUNDATION INC", "city": "WHITE PLAINS", "state": "NY", "zip": "10607-1363", "ntee": "A80", "ruling": "200906", "deductibility": "1", "assets": 0, "income": 0, "revenue": 0}], "HAS": [{"ein": "264028128", "name": "TREY HAS HEART FOUNDATION", "city": "OZONE PARK", "state": "NY", "zip": "11416-2303", "ntee": "B90", "ruling": "201005", "deductibility": "1", "assets": 3243, "income": 0, "revenue": 0}], "TERZAL": [{"ein": "264181113", "name": "CONGREGATION TERZAL INC", "city": "MONSEY", "state": "NY", "zip": "10952-2603", "ntee": "X30", "ruling": "201009", "deductibility": "1", "assets": 0, "income": 0, "revenue": 0}], "KENYA": [{"ein": "300770802", "name": "EYES ON KENYA INC", "city": "MOUNT KISCO", "state": "NY", "zip": "10549-3420", "ntee": "Q33", "ruling": "201312", "deductibility": "1", "assets": 6023, "income": 56000, "revenue": 56000}, {"ein": "331376325", "name": "HOPE FOR KENYA INC", "city": "CORINTH", "state": "NY", "zip": "12822-2639", "ntee": "Q33", "ruling": "202506", "deductibility": "1", "assets": 0, "income": 0, "revenue": 0}, {"ein": "463438443", "name": "HOPE FOR POKOT KENYA MINISTRIES INC", "city": "QUEENSBURY", "state": "NY", "zip": "12804-3931", "ntee": "P20", "ruling": "201506", "deductibility": "1", "assets": 0, "income": 0, "revenue": 0}, {"ein": "542056227", "name": "KENYA EDUCATION FUND", "city": "NEW YORK", "state": "NY", "zip": "10021-4753", "ntee": "P80", "ruling": "200204", "deductibility": "1", "assets": 2439243, "income": 897929, "revenue": 894668}, {"ein": "834514174", "name": "GITARE KENYA OUTREACH", "city": "WAYLAND", "state": "NY", "zip": "14572-9726", "ntee": "P20", "ruling": "201906", "deductibility": "1", "assets": 12460, "income": 22206, "revenue": 22206}, {"ein": "934200751", "name": "JEWISH CENTER - CHABAD KENYA INC", "city": "FOREST HILLS", "state": "NY", "zip": "11375-5833", "ntee": "X30", "ruling": "202406", "deductibility": "1", "assets": 0, "income": 0, "revenue": 0}, {"ein": "934675751", "name": "TIKVAH KENYA MISSION INC", "city": "GARDEN CITY", "state": "NY", "zip": "11530-3336", "ntee": "T20", "ruling": "202411", "deductibility": "1", "assets": 0, "income": 0, "revenue": 0}], "THELA": [{"ein": "301207133", "name": "SIGMA THELA TAU INTERNATIONAL", "city": "BROOKLYN", "state": "NY", "zip": "11201-5301", "ntee": "B832", "ruling": "195412", "deductibility": "1", "assets": 0, "income": 0, "revenue": 0}, {"ein": "384086767", "name": "SIGMA THELA TAU INTERNATIONAL", "city": "PLEASANTVILLE", "state": "NY", "zip": "10570-2724", "ntee": "B832", "ruling": "195412", "deductibility": "1", "assets": 0, "income": 0, "revenue": 0}], "STAMM": [{"ein": "320031283", "name": "G T E V SCHLIERACHTALER STAMM INC", "city": "FRANKLIN SQ", "state": "NY", "zip": "11010-1535", "ntee": "A62", "ruling": "201707", "deductibility": "1", "assets": 0, "income": 0, "revenue": 0}], "KHALEEL": [{"ein": "332468964", "name": "AL-KHALEEL FOUNDATION INC", "city": "WOODSIDE", "state": "NY", "zip": "11377-1259", "ntee": "X40", "ruling": "202505", "deductibility": "1", "assets": 0, "income": 0, "revenue": 0}], "PETITES": [{"ein": "332597841", "name": "FRIENDS OF AGROPASTORAL CENTER OF PETITES SOEURS DE SAINTE THERESE", "city": "NEW YORK", "state": "NY", "zip": "10039-3127", "ntee": "K30", "ruling": "202502", "deductibility": "1", "assets": 0, "income": 0, "revenue": 0}], "ARTSNYS": [{"ein": "371895350", "name": "ARTSNYS", "city": "TROY", "state": "NY", "zip": "12180-3215", "ntee": "A20", "ruling": "201907", "deductibility": "1", "assets": 28633, "income": 42982, "revenue": 42982}], "MOSKOVICS": [{"ein": "386861382", "name": "MOSKOVICS FAM FOUNDATION 08202008", "city": "BROOKLYN", "state": "NY", "zip": "11249-9209", "ntee": "T20", "ruling": "200902", "deductibility": "1", "assets": 1875300, "income": 100204, "revenue": 0}], "VONGLIS": [{"ein": "453638447", "name": "VONGLIS CHARITIES INC", "city": "AVON", "state": "NY", "zip": "14414-9732", "ntee": "P20", "ruling": "201210", "deductibility": "1", "assets": 0, "income": 0, "revenue": 0}], "RAISE": [{"ein": "460984106", "name": "RAISE YOUR HANDS UP HIGH INC", "city": "WHEATLEY HTS", "state": "NY", "zip": "11798-1304", "ntee": "Q33", "ruling": "201408", "deductibility": "1", "assets": 0, "income": 0, "revenue": 0}, {"ein": "800072605", "name": "IT TAKES A COMMUNITY TO RAISE A CHILD INC", "city": "S OZONE PARK", "state": "NY", "zip": "11420-0575", "ntee": "P33", "ruling": "202104", "deductibility": "1", "assets": 1, "income": 12052, "revenue": 12052}, {"ein": "812805886", "name": "RAISE A GLASS FOUNDATION INC", "city": "WEBSTER", "state": "NY", "zip": "14580-2977", "ntee": "S12", "ruling": "201801", "deductibility": "1", "assets": 34612, "income": 202706, "revenue": 202706}, {"ein": "934333666", "name": "RAISE THE BASELINE FOUNDATION INC", "city": "NEW YORK", "state": "NY", "zip": "10016-9202", "ntee": "Q32", "ruling": "202312", "deductibility": "1", "assets": 0, "income": 0, "revenue": 0}, {"ein": "934487713", "name": "RAISE THE RAIL INC", "city": "BROOKLYN", "state": "NY", "zip": "11217-2215", "ntee": "F01", "ruling": "202401", "deductibility": "1", "assets": 0, "income": 0, "revenue": 0}, {"ein": "992046396", "name": "RAISE MONEY CURE CANCER", "city": "NEW YORK", "state": "NY", "zip": "10017-9257", "ntee": "G30", "ruling": "202409", "deductibility": "1", "assets": 0, "income": 0, "revenue": 0}, {"ein": "992747198", "name": "WE RAISE HOPE INC", "city": "NEW YORK", "state": "NY", "zip": "10021-5559", "ntee": "T20", "ruling": "202503", "deductibility": "1", "assets": 0, "income": 0, "revenue": 0}], "CHAKRA": [{"ein": "464012358", "name": "GURU CHAKRA PARIBAR USA INC", "city": "HOLLIS", "state": "NY", "zip": "11423-2208", "ntee": "X70", "ruling": "201709", "deductibility": "1", "assets": 176072, "income": 45059, "revenue": 45059}], "MIDNITE": [{"ein": "473117923", "name": "MIDNITE GROUP INC", "city": "NEW YORK", "state": "NY", "zip": "10014-4846", "ntee": "F21", "ruling": "202009", "deductibility": "1", "assets": 31006, "income": 82364, "revenue": 82364}], "SHARREI": [{"ein": "474333136", "name": "CONGREGATION SHARREI CHAIM", "city": "BROOKLYN", "state": "NY", "zip": "11219-4140", "ntee": "X30", "ruling": "201509", "deductibility": "1", "assets": 0, "income": 0, "revenue": 0}], "CONSOLACION": [{"ein": "542144430", "name": "MINISTERIO DE COMPASION CONSOLACION", "city": "STATEN ISLAND", "state": "NY", "zip": "10302-2015", "ntee": "Z99", "ruling": "202002", "deductibility": "1", "assets": 1, "income": 0, "revenue": 0}], "CISNEVISION": [{"ein": "582538971", "name": "CISNEVISION INC", "city": "BRONX", "state": "NY", "zip": "10468-4640", "ntee": "B90", "ruling": "200504", "deductibility": "1", "assets": 0, "income": 0, "revenue": 0}], "CONNOLLY": [{"ein": "611661057", "name": "INDUSTRIAL WORKERS OF THE WORLD JAMES CONNOLLY GMB", "city": "ALTAMONT", "state": "NY", "zip": "12009-0077", "ntee": "J40", "ruling": "202307", "deductibility": "2", "assets": 0, "income": 0, "revenue": 0}, {"ein": "830706484", "name": "JAMES CONNOLLY SOCIAL CLUB INC", "city": "TROY", "state": "NY", "zip": "12180-5304", "ntee": "N50", "ruling": "202105", "deductibility": "2", "assets": 0, "income": 0, "revenue": 0}], "PERPIGNAND": [{"ein": "651126935", "name": "HENRI RIQUET PERPIGNAND FOUNDATION INC", "city": "W HEMPSTEAD", "state": "NY", "zip": "11552-1612", "ntee": "Q33", "ruling": "201904", "deductibility": "1", "assets": 0, "income": 0, "revenue": 0}], "MERINE": [{"ein": "743045048", "name": "GURFEIN-MERINE FAMILY FOUNDATION INC", "city": "NEW YORK", "state": "NY", "zip": "10021-4038", "ntee": "T22", "ruling": "200206", "deductibility": "1", "assets": 141992, "income": 15320, "revenue": 0}], "SAVEKITTY": [{"ein": "760791179", "name": "SAVEKITTY FOUNDATION", "city": "EAST ELMHURST", "state": "NY", "zip": "11369-1431", "ntee": "D20", "ruling": "200512", "deductibility": "1", "assets": 12766, "income": 89541, "revenue": 89541}], "JEY": [{"ein": "800448933", "name": "SERA JEY BUDDHIST CULTURE CENTER", "city": "WOODSIDE", "state": "NY", "zip": "11377-4746", "ntee": "X50", "ruling": "201109", "deductibility": "1", "assets": 0, "income": 0, "revenue": 0}], "AMSTERDOG": [{"ein": "800596984", "name": "AMSTERDOG RESCUE", "city": "NEW YORK", "state": "NY", "zip": "10274-1062", "ntee": "D20", "ruling": "201107", "deductibility": "1", "assets": 29208, "income": 221645, "revenue": 221645}], "NEDJAT": [{"ein": "811848349", "name": "NEDJAT ESHAGHOFF FOUNDATION INC", "city": "GREAT NECK", "state": "NY", "zip": "11024-2113", "ntee": "T22", "ruling": "201608", "deductibility": "1", "assets": 105580, "income": 105, "revenue": 0}], "DOST": [{"ein": "812973086", "name": "KASHMIR DOST ANJUMAN INC", "city": "STATEN ISLAND", "state": "NY", "zip": "10303-1727", "ntee": "Q33", "ruling": "201611", "deductibility": "1", "assets": 20887, "income": 71072, "revenue": 71072}], "BRYDEN": [{"ein": "821930484", "name": "BRYDEN CHARITABLE FOUNDATION", "city": "NEW YORK", "state": "NY", "zip": "10123-2710", "ntee": "T20", "ruling": "201801", "deductibility": "2", "assets": 4765306, "income": 1808487, "revenue": 0}], "ARMENIANS": [{"ein": "822438458", "name": "UNION OF MARASH ARMENIANS STUDENT FUND INC", "city": "LITTLE NECK", "state": "NY", "zip": "11362-1849", "ntee": "B82", "ruling": "201708", "deductibility": "1", "assets": 0, "income": 0, "revenue": 0}], "IRSR": [{"ein": "822548085", "name": "IRSR INSTITUTE INCORPORATED", "city": "PORT JEFF STA", "state": "NY", "zip": "11776-4349", "ntee": "S20", "ruling": "201709", "deductibility": "1", "assets": 0, "income": 0, "revenue": 0}], "GURNEY": [{"ein": "823050736", "name": "BILL AND JACKIE GURNEY FAMILY FOUNDATION INC", "city": "BUFFALO", "state": "NY", "zip": "14209-1800", "ntee": "T22", "ruling": "201804", "deductibility": "1", "assets": 1142012, "income": 437064, "revenue": 0}], "DURHAMS": [{"ein": "823328399", "name": "DURHAMS MATERNAL STRESS FREE ZONE DH INC", "city": "BUFFALO", "state": "NY", "zip": "14207-0421", "ntee": "P20", "ruling": "201807", "deductibility": "1", "assets": 52028, "income": 8138, "revenue": 8138}], "LGBTQIA": [{"ein": "823338305", "name": "NEWBURGH LGBTQIA CENTER", "city": "NEWBURGH", "state": "NY", "zip": "12550-5950", "ntee": "P88", "ruling": "202205", "deductibility": "1", "assets": 59048, "income": 96607, "revenue": 96607}], "BROADLEA": [{"ein": "823963829", "name": "BROADLEA HARMONY FARMS INC", "city": "BLAUVELT", "state": "NY", "zip": "10913-2000", "ntee": "S80", "ruling": "201808", "deductibility": "1", "assets": 0, "income": 0, "revenue": 0}], "DATSYS": [{"ein": "830841912", "name": "DATSYS GIRLS", "city": "ROSEDALE", "state": "NY", "zip": "11422-2915", "ntee": "Z99", "ruling": "201905", "deductibility": "1", "assets": 0, "income": 0, "revenue": 0}], "ACCADEMIA": [{"ein": "831270246", "name": "ACCADEMIA ITALIANA DELLA CUCINA NEW YORK CORP", "city": "BROOKLYN", "state": "NY", "zip": "11228-0000", "ntee": "", "ruling": "202108", "deductibility": "0", "assets": 0, "income": 0, "revenue": 0}], "TZEDUKAH": [{"ein": "833730349", "name": "KIPAS TZEDUKAH INC", "city": "BROOKLYN", "state": "NY", "zip": "11219-4747", "ntee": "T12", "ruling": "201903", "deductibility": "1", "assets": 0, "income": 0, "revenue": 0}], "QUAID": [{"ein": "843590402", "name": "QUAID-E AZAM COMMUNITY CENTER INC", "city": "BROOKLYN", "state": "NY", "zip": "11235-5261", "ntee": "S20", "ruling": "201911", "deductibility": "1", "assets": 2407, "income": 400, "revenue": 400}], "ORCHAS": [{"ein": "844159129", "name": "ORCHAS CHAIM INC", "city": "MONROE", "state": "NY", "zip": "10950-9623", "ntee": "B99", "ruling": "202006", "deductibility": "1", "assets": 0, "income": 0, "revenue": 0}], "ABDEL": [{"ein": "844240031", "name": "FAISAL ABDEL-RAHMAN FOUNDATION INC", "city": "NEW YORK", "state": "NY", "zip": "10128-6900", "ntee": "B82", "ruling": "202006", "deductibility": "1", "assets": 0, "income": 0, "revenue": 0}], "OKUAPEMMAN": [{"ein": "845029254", "name": "OKUAPEMMAN FEKUW OF NEW YORK INC", "city": "BRONX", "state": "NY", "zip": "10451-1707", "ntee": "N64", "ruling": "202004", "deductibility": "1", "assets": 0, "income": 0, "revenue": 0}], "BT": [{"ein": "845071181", "name": "BREAKTHROUGH BT MEDIA INC", "city": "NEW YORK", "state": "NY", "zip": "10018-4232", "ntee": "A30", "ruling": "202006", "deductibility": "1", "assets": 219912, "income": 1199979, "revenue": 1199979}, {"ein": "933794714", "name": "BT FOUNDATION USA INC", "city": "HICKSVILLE", "state": "NY", "zip": "11801-4430", "ntee": "B12", "ruling": "202403", "deductibility": "1", "assets": 0, "income": 0, "revenue": 0}], "CARROLLS": [{"ein": "850635742", "name": "CARROLLS KITCHEN", "city": "EAST ISLIP", "state": "NY", "zip": "11730-0000", "ntee": "K30", "ruling": "202005", "deductibility": "1", "assets": 1, "income": 182498, "revenue": 0}], "TYPE1MOM": [{"ein": "852722195", "name": "TYPE1MOM INC", "city": "WELLSVILLE", "state": "NY", "zip": "14895-1249", "ntee": "G11", "ruling": "202011", "deductibility": "1", "assets": 0, "income": 0, "revenue": 0}], "SOF": [{"ein": "853945236", "name": "AIN SOF CHARITABLE FOUNDATION", "city": "BROOKLYN", "state": "NY", "zip": "11213-5356", "ntee": "T22", "ruling": "202106", "deductibility": "1", "assets": 91, "income": 8349, "revenue": 0}], "ANOTHERWAY": [{"ein": "871129932", "name": "ANOTHERWAY THE WAY OF THE LORD MINISTRY INC", "city": "EAST ELMHURST", "state": "NY", "zip": "11369-2355", "ntee": "X20", "ruling": "202208", "deductibility": "1", "assets": 0, "income": 0, "revenue": 0}], "FREEDMEN": [{"ein": "872362704", "name": "U S FREEDMEN PROJECT INC", "city": "NEW YORK", "state": "NY", "zip": "10108-1400", "ntee": "R20", "ruling": "202211", "deductibility": "1", "assets": 0, "income": 0, "revenue": 0}], "LAVI": [{"ein": "873757215", "name": "CONGREGATION LAVI KOLLEL", "city": "WOODMERE", "state": "NY", "zip": "11598-1528", "ntee": "X20", "ruling": "202401", "deductibility": "1", "assets": 0, "income": 0, "revenue": 0}], "NNLB": [{"ein": "880828786", "name": "NNLB UNITED INC", "city": "ALBANY", "state": "NY", "zip": "12207-1707", "ntee": "R22", "ruling": "202210", "deductibility": "1", "assets": 0, "income": 0, "revenue": 0}], "ECSO": [{"ein": "883927239", "name": "ECSO SCIENTIFIC RESERVE DIVISION", "city": "CHEEKTOWAGA", "state": "NY", "zip": "14227-2676", "ntee": "I20", "ruling": "202310", "deductibility": "1", "assets": 0, "income": 0, "revenue": 0}], "HTH": [{"ein": "920274901", "name": "HTH TOURISM THRU MUSIC INC", "city": "AUBURN", "state": "NY", "zip": "13021-3617", "ntee": "A23", "ruling": "202303", "deductibility": "1", "assets": 2204, "income": 2457, "revenue": 0}], "ROULAS": [{"ein": "921412962", "name": "ROULAS KIDS A SPACE FOR GRIEVING FAMILIES INC", "city": "SHOKAN", "state": "NY", "zip": "12481-5001", "ntee": "F60", "ruling": "202304", "deductibility": "1", "assets": 0, "income": 0, "revenue": 0}], "CHAYECHA": [{"ein": "921715232", "name": "CHAYECHA", "city": "ROSLYN", "state": "NY", "zip": "11576-2002", "ntee": "X30", "ruling": "202307", "deductibility": "1", "assets": 0, "income": 0, "revenue": 0}], "MESILOS": [{"ein": "922871617", "name": "CONGREGATION MESILOS HATORA BELZ", "city": "BROOKLYN", "state": "NY", "zip": "11219-2243", "ntee": "X30", "ruling": "202403", "deductibility": "1", "assets": 0, "income": 0, "revenue": 0}], "KAPITAL": [{"ein": "932552327", "name": "KAPITAL HILL", "city": "NEW YORK", "state": "NY", "zip": "10032-7222", "ntee": "S20", "ruling": "202309", "deductibility": "1", "assets": 0, "income": 0, "revenue": 0}], "TONO": [{"ein": "934238881", "name": "TONO FESTIVAL INC", "city": "NEW YORK", "state": "NY", "zip": "10024-6791", "ntee": "A99", "ruling": "202408", "deductibility": "1", "assets": 1, "income": 99601, "revenue": 17188}], "RYU": [{"ein": "934874076", "name": "THOKAR-RYU KARATE DO USA INC", "city": "WOODSIDE", "state": "NY", "zip": "11377-4988", "ntee": "N99", "ruling": "202408", "deductibility": "1", "assets": 0, "income": 0, "revenue": 0}], "WEEDEN": [{"ein": "946109313", "name": "WEEDEN FOUNDATION", "city": "BEDFORD HILLS", "state": "NY", "zip": "10507-0606", "ntee": "", "ruling": "196408", "deductibility": "1", "assets": 37327728, "income": 19791797, "revenue": 0}], "ASBL": [{"ein": "980423435", "name": "MURANDERERA ASBL", "city": "ALBANY", "state": "NY", "zip": "12203-3109", "ntee": "Q33", "ruling": "200503", "deductibility": "2", "assets": 0, "income": 0, "revenue": 0}], "ELIF": [{"ein": "992872199", "name": "ELIF COLLECTIVE INC", "city": "NEW YORK", "state": "NY", "zip": "10014-1634", "ntee": "A60", "ruling": "202505", "deductibility": "1", "assets": 0, "income": 0, "revenue": 0}]}