{"OSWEGO": [{"ein": "020644639", "name": "WESTON T HYDE OSWEGO COUNTY EDUCATIONAL FOUNDATION", "city": "OSWEGO", "state": "NY", "zip": "13126-0795", "ntee": "B122", "ruling": "200301", "deductibility": "1", "assets": 348679, "income": 98866, "revenue": 47930}, {"ein": "043798420", "name": "FRIENDS OF RIVERSIDE CEMETERY OF OSWEGO NY INC", "city": "OSWEGO", "state": "NY", "zip": "13126-6401", "ntee": "A80", "ruling": "200503", "deductibility": "1", "assets": 0, "income": 0, "revenue": 0}, {"ein": "061754218", "name": "OSWEGO TOWN HISTORICAL SOCIETY", "city": "OSWEGO", "state": "NY", "zip": "13126-5745", "ntee": "A80", "ruling": "200510", "deductibility": "1", "assets": 0, "income": 0, "revenue": 0}, {"ein": "133943194", "name": "OSWEGO VALLEY RAILROAD ASSOCIATION INC", "city": "NEW HAVEN", "state": "NY", "zip": "13121-0205", "ntee": "B90", "ruling": "202311", "deductibility": "1", "assets": 0, "income": 0, "revenue": 0}, {"ein": "134265021", "name": "OPERATION OSWEGO COUNTY FOUNDATION INC", "city": "OSWEGO", "state": "NY", "zip": "13126-2026", "ntee": "S30", "ruling": "200411", "deductibility": "1", "assets": 32373, "income": 18476, "revenue": 18476}, {"ein": "150408120", "name": "GREATER OSWEGO-FULTON CHAMBER OF COMMERCE INC", "city": "OSWEGO", "state": "NY", "zip": "13126-2113", "ntee": "S41Z", "ruling": "194008", "deductibility": "2", "assets": 0, "income": 0, "revenue": 0}, {"ein": "150408150", "name": "OSWEGO COUNTRY CLUB", "city": "OSWEGO", "state": "NY", "zip": "13126-4138", "ntee": "N51Z", "ruling": "194510", "deductibility": "2", "assets": 1486785, "income": 1280332, "revenue": 1280332}, {"ein": "150408380", "name": "RIVERSIDE CEMETERY OF OSWEGO INC", "city": "OSWEGO", "state": "NY", "zip": "13126-6401", "ntee": "", "ruling": "195211", "deductibility": "1", "assets": 1252514, "income": 172628, "revenue": 167283}, {"ein": "150532220", "name": "OSWEGO HOSPITAL", "city": "OSWEGO", "state": "NY", "zip": "13126-2507", "ntee": "E220", "ruling": "193605", "deductibility": "1", "assets": 134023773, "income": 186701033, "revenue": 185452544}, {"ein": "150532224", "name": "UNITED WAY OF GREATER OSWEGO COUNTY INC", "city": "FULTON", "state": "NY", "zip": "13069-1704", "ntee": "T70Z", "ruling": "196509", "deductibility": "1", "assets": 678852, "income": 587884, "revenue": 548946}, {"ein": "150532272", "name": "YOUNG MENS CHRISTIAN ASSOCIATION OF OSWEGO INC", "city": "OSWEGO", "state": "NY", "zip": "13126-3028", "ntee": "P27Z", "ruling": "197309", "deductibility": "1", "assets": 1388348, "income": 1295065, "revenue": 1270494}, {"ein": "150536961", "name": "AGRICULTURAL SOCIETY OF OSWEGO COUNTY INC", "city": "OSWEGO", "state": "NY", "zip": "13126-6031", "ntee": "Z99", "ruling": "201408", "deductibility": "1", "assets": 471576, "income": 150048, "revenue": 143342}, {"ein": "150543477", "name": "OSWEGO COLLEGE FOUNDATION INC", "city": "OSWEGO", "state": "NY", "zip": "13126-0000", "ntee": "B110", "ruling": "198909", "deductibility": "1", "assets": 80075581, "income": 22900869, "revenue": 6462721}, {"ein": "150546396", "name": "AUXILIARY SERVICES STATE UNIVERSITY COLLEGE AT OSWEGO INC", "city": "OSWEGO", "state": "NY", "zip": "13126-3525", "ntee": "B43I", "ruling": "195209", "deductibility": "1", "assets": 27298444, "income": 25025221, "revenue": 25025221}, {"ein": "150556616", "name": "OPERATION OSWEGO COUNTY INC", "city": "OSWEGO", "state": "NY", "zip": "13126-2026", "ntee": "", "ruling": "197310", "deductibility": "2", "assets": 4462804, "income": 1169571, "revenue": 987760}, {"ein": "150628338", "name": "NEWMAN FOUNDATION OF OSWEGO INC", "city": "OSWEGO", "state": "NY", "zip": "13126-1764", "ntee": "X21", "ruling": "201110", "deductibility": "1", "assets": 328226, "income": 107350, "revenue": 107350}, {"ein": "156024641", "name": "OSWEGO HISTORICAL SOCIETY", "city": "OSWEGO", "state": "NY", "zip": "13126-2608", "ntee": "A82Z", "ruling": "194812", "deductibility": "1", "assets": 352318, "income": 78663, "revenue": 78663}, {"ein": "160953503", "name": "GRACE EVANGELICAL LUTHERAN CHURCH OF THE CITY OF OSWEGO NY", "city": "OSWEGO", "state": "NY", "zip": "13126-3231", "ntee": "", "ruling": "198804", "deductibility": "1", "assets": 0, "income": 0, "revenue": 0}, {"ein": "160975651", "name": "CHILDRENS CENTER OF OSWEGO INC", "city": "OSWEGO", "state": "NY", "zip": "13126-0114", "ntee": "P33Z", "ruling": "198003", "deductibility": "1", "assets": 741364, "income": 882601, "revenue": 882601}, {"ein": "160979876", "name": "OSWEGO COUNTY OPPORTUNITIES INC", "city": "FULTON", "state": "NY", "zip": "13069-1228", "ntee": "P200", "ruling": "197110", "deductibility": "1", "assets": 17889419, "income": 36540527, "revenue": 36426673}, {"ein": "161058867", "name": "ROTARY CLUB OF OSWEGO", "city": "OSWEGO", "state": "NY", "zip": "13126-0795", "ntee": "", "ruling": "201205", "deductibility": "2", "assets": 0, "income": 0, "revenue": 0}, {"ein": "161063680", "name": "OSWEGO COMMUNITY HOUSING COMPANY INC C O JOHN P GHWALEK ESQ", "city": "LIVERPOOL", "state": "NY", "zip": "13088-5146", "ntee": "L22Z", "ruling": "197706", "deductibility": "1", "assets": 3217309, "income": 739057, "revenue": 739057}, {"ein": "161130902", "name": "OSWEGO ALLIANCE CHURCH OF THE CHRISTIAN AND MISSIONARY ALLIANCE", "city": "OSWEGO", "state": "NY", "zip": "13126-6158", "ntee": "", "ruling": "199201", "deductibility": "1", "assets": 0, "income": 0, "revenue": 0}, {"ein": "161144902", "name": "OSWEGO MIDDLE SCHOOL HSA INC", "city": "OSWEGO", "state": "NY", "zip": "13126-0000", "ntee": "B94", "ruling": "202006", "deductibility": "1", "assets": 15161, "income": 5964, "revenue": 5964}, {"ein": "161157968", "name": "DIV NO 3 LADIES ANCIENT ORDER OF HIBERNIANS INC OF OSWEGO COUNTY", "city": "BROOKLYN", "state": "NY", "zip": "11229-4111", "ntee": "Y42", "ruling": "201611", "deductibility": "1", "assets": 0, "income": 0, "revenue": 0}, {"ein": "161164184", "name": "OSWEGO HOUSING DEVELOPMENT COUNCIL INC", "city": "FULTON", "state": "NY", "zip": "13069-2134", "ntee": "L21", "ruling": "198808", "deductibility": "1", "assets": 571615, "income": 526155, "revenue": 526155}, {"ein": "161243752", "name": "NEW COVENANT COMMUNITY CHURCH & OSWEGO COMMUNITY CHRISTIAN SCHOOL", "city": "OSWEGO", "state": "NY", "zip": "13126-2219", "ntee": "", "ruling": "198701", "deductibility": "1", "assets": 0, "income": 0, "revenue": 0}, {"ein": "161271613", "name": "FAMILY RESOURCE CENTER OF OSWEGO COUNTY INC", "city": "OSWEGO", "state": "NY", "zip": "13126-0000", "ntee": "E400", "ruling": "198609", "deductibility": "1", "assets": 153822, "income": 161952, "revenue": 144337}, {"ein": "161302464", "name": "INTEGRATED COMMUNITY PLANNING OF OSWEGO COUNTY INC", "city": "OSWEGO", "state": "NY", "zip": "13126-3678", "ntee": "W99", "ruling": "198811", "deductibility": "1", "assets": 1372315, "income": 1164850, "revenue": 1164850}, {"ein": "161307464", "name": "OSWEGO PLAYERS", "city": "OSWEGO", "state": "NY", "zip": "13126-0183", "ntee": "", "ruling": "199107", "deductibility": "1", "assets": 0, "income": 0, "revenue": 0}, {"ein": "161314643", "name": "TARANDI FOUNDATION 4338 W RIVER RD OSWEGO NY", "city": "OSWEGO", "state": "NY", "zip": "13126-5734", "ntee": "", "ruling": "198803", "deductibility": "1", "assets": 1305908, "income": 52820, "revenue": 0}, {"ein": "161348741", "name": "OSWEGO HARBOR FESTIVALS INC", "city": "OSWEGO", "state": "NY", "zip": "13126-1026", "ntee": "", "ruling": "199012", "deductibility": "2", "assets": 212086, "income": 594273, "revenue": 594273}, {"ein": "161397095", "name": "OSWEGO COUNTY HABITAT FOR HUMANITY INCORPORATED", "city": "OSWEGO", "state": "NY", "zip": "13126-5255", "ntee": "L80", "ruling": "202001", "deductibility": "1", "assets": 302915, "income": 227548, "revenue": 66142}, {"ein": "161459786", "name": "LORETTO-OSWEGO REALTY CORPORATION", "city": "SYRACUSE", "state": "NY", "zip": "13205-2201", "ntee": "E91", "ruling": "199507", "deductibility": "1", "assets": 0, "income": 0, "revenue": 0}, {"ein": "161480151", "name": "FRIENDS OF OSWEGO COUNTY HOSPICE INC", "city": "OSWEGO", "state": "NY", "zip": "13126-0102", "ntee": "S80", "ruling": "199506", "deductibility": "1", "assets": 253259, "income": 69540, "revenue": 69540}, {"ein": "161486996", "name": "OSWEGO CITY VETERANS COUNCIL", "city": "OSWEGO", "state": "NY", "zip": "13126-6530", "ntee": "P20", "ruling": "200205", "deductibility": "1", "assets": 0, "income": 0, "revenue": 0}, {"ein": "161555936", "name": "OSWEGO HEALTH INC", "city": "OSWEGO", "state": "NY", "zip": "13126-2507", "ntee": "E20", "ruling": "199909", "deductibility": "1", "assets": 3947777, "income": 4933992, "revenue": 4933992}, {"ein": "161564437", "name": "OSWEGO COUNTY PIONEER SEARCH AND RESCUE TEAM INC", "city": "PARISH", "state": "NY", "zip": "13131-0229", "ntee": "M23", "ruling": "200701", "deductibility": "1", "assets": 0, "income": 0, "revenue": 0}, {"ein": "161567192", "name": "ART ASSOCIATION OF OSWEGO INC", "city": "OSWEGO", "state": "NY", "zip": "13126-0271", "ntee": "A20", "ruling": "200006", "deductibility": "1", "assets": 0, "income": 0, "revenue": 0}, {"ein": "161577687", "name": "OSWEGO LAKER SWIM CLUB CORP", "city": "OSWEGO", "state": "NY", "zip": "13126-5311", "ntee": "N67", "ruling": "201012", "deductibility": "1", "assets": 0, "income": 0, "revenue": 0}, {"ein": "161579959", "name": "OSWEGO SCHOOL DISTRICT PUBLIC LIBRARY", "city": "OSWEGO", "state": "NY", "zip": "13126-2107", "ntee": "B70", "ruling": "200203", "deductibility": "1", "assets": 8465140, "income": 1487483, "revenue": 1487483}, {"ein": "161581130", "name": "OSWEGO YACHT CLUB", "city": "OSWEGO", "state": "NY", "zip": "13126-1540", "ntee": "N67", "ruling": "201208", "deductibility": "2", "assets": 294761, "income": 60091, "revenue": 53180}, {"ein": "161586001", "name": "OSWEGO COUNTY HUMANE SOCIETY INC", "city": "OSWEGO", "state": "NY", "zip": "13126-1269", "ntee": "D200", "ruling": "200007", "deductibility": "1", "assets": 294201, "income": 418629, "revenue": 199032}, {"ein": "161592002", "name": "OSWEGO MINOR HOCKEY ASSOCIATION", "city": "OSWEGO", "state": "NY", "zip": "13126-5525", "ntee": "N80", "ruling": "201503", "deductibility": "1", "assets": 151932, "income": 216137, "revenue": 152829}, {"ein": "162197163", "name": "OSWEGO INDUSTRIES INC", "city": "FULTON", "state": "NY", "zip": "13069-1597", "ntee": "J33Z", "ruling": "197807", "deductibility": "1", "assets": 4032694, "income": 7020666, "revenue": 6938571}, {"ein": "166049660", "name": "HERITAGE FOUNDATION OF OSWEGO INC", "city": "OSWEGO", "state": "NY", "zip": "13126-0405", "ntee": "A72J", "ruling": "197509", "deductibility": "1", "assets": 0, "income": 0, "revenue": 0}, {"ein": "200503109", "name": "LORETTO-OSWEGO HEALTH AND REHABILITATION CENTER", "city": "SYRACUSE", "state": "NY", "zip": "13205-2201", "ntee": "P75", "ruling": "200406", "deductibility": "1", "assets": 0, "income": 0, "revenue": 0}, {"ein": "208628050", "name": "LOVING EDUCATION AT HOME OSWEGO COUNTY LEAH", "city": "OSWEGO", "state": "NY", "zip": "13126-1440", "ntee": "B90", "ruling": "201809", "deductibility": "1", "assets": 0, "income": 0, "revenue": 0}, {"ein": "222177796", "name": "OSWEGO CLASSROOM TEACHERS ASSOCIATION BENEFIT FUND C O MICHA", "city": "FAYETTEVILLE", "state": "NY", "zip": "13066-0247", "ntee": "", "ruling": "197711", "deductibility": "2", "assets": 732730, "income": 610949, "revenue": 610949}, {"ein": "222234087", "name": "OSWEGO OPERA THEATER INC", "city": "OSWEGO", "state": "NY", "zip": "13126-0739", "ntee": "A6AZ", "ruling": "197902", "deductibility": "1", "assets": 0, "income": 0, "revenue": 0}, {"ein": "222330519", "name": "OSWEGO ALUMNI ASSOCIATION INC", "city": "OSWEGO", "state": "NY", "zip": "13126-1726", "ntee": "B84Z", "ruling": "198104", "deductibility": "1", "assets": 617703, "income": 330946, "revenue": 330946}, {"ein": "222368218", "name": "TOWN OF OSWEGO VOLUNTEER FIRE DEPARTMENT INC", "city": "OSWEGO", "state": "NY", "zip": "13126-5613", "ntee": "M24", "ruling": "201106", "deductibility": "1", "assets": 0, "income": 0, "revenue": 0}, {"ein": "222370372", "name": "OSWEGO HIGH SCHOOL BAND PARENTS ASSOCIATION INC", "city": "OSWEGO", "state": "NY", "zip": "13126-1951", "ntee": "B25I", "ruling": "198201", "deductibility": "1", "assets": 43632, "income": 91731, "revenue": 65085}, {"ein": "222482437", "name": "OSWEGO MASONIC CHARITIES CORP", "city": "PHOENIX", "state": "NY", "zip": "13135-9501", "ntee": "", "ruling": "198404", "deductibility": "1", "assets": 0, "income": 0, "revenue": 0}, {"ein": "222566851", "name": "CHILDRENS BOARD OF OSWEGO NEW YORK", "city": "OSWEGO", "state": "NY", "zip": "13126-0373", "ntee": "", "ruling": "198506", "deductibility": "1", "assets": 0, "income": 0, "revenue": 0}, {"ein": "222904730", "name": "OSWEGO YOUTH SOCCER ASSOCIATION INC", "city": "OSWEGO", "state": "NY", "zip": "13126-5155", "ntee": "N64", "ruling": "199504", "deductibility": "1", "assets": 306587, "income": 50380, "revenue": 50380}, {"ein": "223163818", "name": "SENECA HILL MANOR INC OSWEGO HOSPITAL", "city": "OSWEGO", "state": "NY", "zip": "13126-6496", "ntee": "E910", "ruling": "199310", "deductibility": "1", "assets": 10891565, "income": 14531631, "revenue": 14531631}, {"ein": "223329257", "name": "OSWEGO HOSPITAL EMPLOYEE FUND", "city": "OSWEGO", "state": "NY", "zip": "13126-2507", "ntee": "J40", "ruling": "201504", "deductibility": "2", "assets": 0, "income": 0, "revenue": 0}, {"ein": "223729416", "name": "PAWS ACROSS OSWEGO COUNTY INC", "city": "OSWEGO", "state": "NY", "zip": "13126-6152", "ntee": "D20", "ruling": "200105", "deductibility": "1", "assets": 80173, "income": 108560, "revenue": 108560}, {"ein": "237036393", "name": "NORTHERN OSWEGO COUNTY HEALTH SERVICES INC", "city": "PULASKI", "state": "NY", "zip": "13142-1400", "ntee": "E39Z", "ruling": "196908", "deductibility": "1", "assets": 21652204, "income": 33329342, "revenue": 29819996}, {"ein": "237177883", "name": "STATE UNIVERSITY COLLEGE AT OSWEGO STUDENT ASSOCIATION", "city": "OSWEGO", "state": "NY", "zip": "13126-0000", "ntee": "", "ruling": "197305", "deductibility": "1", "assets": 1953671, "income": 1386262, "revenue": 1386262}, {"ein": "237243487", "name": "OSWEGO COUNTY ANIMAL WELFARE LEAGUE INC", "city": "FULTON", "state": "NY", "zip": "13069-0442", "ntee": "D200", "ruling": "197212", "deductibility": "1", "assets": 6333, "income": 104630, "revenue": 104630}, {"ein": "237352277", "name": "NORTHERN OSWEGO COUNTY AMBULANCE INC", "city": "PULASKI", "state": "NY", "zip": "13142-4204", "ntee": "", "ruling": "197402", "deductibility": "1", "assets": 2639270, "income": 2094012, "revenue": 2018471}, {"ein": "237356036", "name": "CHURCH OF CHRIST OF OSWEGO", "city": "OSWEGO", "state": "NY", "zip": "13126-6425", "ntee": "", "ruling": "197406", "deductibility": "1", "assets": 0, "income": 0, "revenue": 0}, {"ein": "261230295", "name": "CHABAD OF OSWEGO INC", "city": "OSWEGO", "state": "NY", "zip": "13126-0000", "ntee": "X30", "ruling": "200901", "deductibility": "1", "assets": 0, "income": 0, "revenue": 0}, {"ein": "261366142", "name": "OSWEGO COUNTY AUTISM TASK FORCE", "city": "OSWEGO", "state": "NY", "zip": "13126-0322", "ntee": "H84", "ruling": "200804", "deductibility": "1", "assets": 2044, "income": 10788, "revenue": 10788}, {"ein": "300122211", "name": "FRIENDS OF THE OSWEGO PUBLIC LIBRARY INC", "city": "OSWEGO", "state": "NY", "zip": "13126-2107", "ntee": "B11", "ruling": "200212", "deductibility": "1", "assets": 0, "income": 0, "revenue": 0}, {"ein": "331166143", "name": "OSWEGO COUNTY SPORTSMENS FOUNDATION INCORPORATED", "city": "LYCOMING", "state": "NY", "zip": "13093-0135", "ntee": "N99", "ruling": "200711", "deductibility": "1", "assets": 0, "income": 0, "revenue": 0}, {"ein": "364728874", "name": "ISBI OSWEGO PROPERTY LLC", "city": "NEW YORK", "state": "NY", "zip": "10169-0009", "ntee": "S470", "ruling": "201304", "deductibility": "2", "assets": 0, "income": 0, "revenue": 0}, {"ein": "383650954", "name": "OSWEGO COUNTY ATV CLUB INC", "city": "ALTMAR", "state": "NY", "zip": "13302-0296", "ntee": "N50", "ruling": "200601", "deductibility": "2", "assets": 223754, "income": 118941, "revenue": 104752}, {"ein": "412035589", "name": "ROTARY CLUB OF OSWEGO SUNRISE NEW YORK INC", "city": "OSWEGO", "state": "NY", "zip": "13126-0042", "ntee": "", "ruling": "201903", "deductibility": "2", "assets": 0, "income": 0, "revenue": 0}, {"ein": "462044953", "name": "OSWEGO SAILING AND BOATING FOUNDATION INC", "city": "OSWEGO", "state": "NY", "zip": "13126-5241", "ntee": "N12", "ruling": "201407", "deductibility": "1", "assets": 0, "income": 0, "revenue": 0}, {"ein": "462648553", "name": "CHILDRENS MUSEUM OF OSWEGO", "city": "OSWEGO", "state": "NY", "zip": "13126-2184", "ntee": "A52", "ruling": "201309", "deductibility": "1", "assets": 2727960, "income": 723349, "revenue": 542868}, {"ein": "464185285", "name": "OSWEGO COUNTY CHILDRENS FUND INC", "city": "OSWEGO", "state": "NY", "zip": "13126-0951", "ntee": "P30", "ruling": "201601", "deductibility": "1", "assets": 6638, "income": 26298, "revenue": 26298}, {"ein": "471516126", "name": "OSWEGO COUNTY DEVELOPMENT CORP", "city": "FULTON", "state": "NY", "zip": "13069-2080", "ntee": "L20", "ruling": "201412", "deductibility": "1", "assets": 1053299, "income": 657582, "revenue": 654433}, {"ein": "472335621", "name": "H LEE WHITE MARITIME MUSEUM AT OSWEGO", "city": "OSWEGO", "state": "NY", "zip": "13126-0000", "ntee": "A50", "ruling": "201503", "deductibility": "1", "assets": 475122, "income": 283771, "revenue": 283771}, {"ein": "510137734", "name": "FIRST BAPTIST CHURCH FERNWOOD OSWEGO CO NY", "city": "PULASKI", "state": "NY", "zip": "13142-0000", "ntee": "", "ruling": "197505", "deductibility": "1", "assets": 0, "income": 0, "revenue": 0}, {"ein": "510542620", "name": "OSWEGO ROTARY FOUNDATION INC", "city": "OSWEGO", "state": "NY", "zip": "13126-0795", "ntee": "B82", "ruling": "200601", "deductibility": "1", "assets": 0, "income": 0, "revenue": 0}, {"ein": "640958027", "name": "OSWEGO COMMUNITY YOUTH ORCHESTRA INC", "city": "FULTON", "state": "NY", "zip": "13069-3452", "ntee": "A68", "ruling": "202304", "deductibility": "1", "assets": 0, "income": 0, "revenue": 0}, {"ein": "753089623", "name": "FOSTER ADOPTIVE PARENT ASSOCIATION OF OSWEGO COUNTY INC", "city": "CENTRAL SQ", "state": "NY", "zip": "13036-2364", "ntee": "P20", "ruling": "201806", "deductibility": "1", "assets": 0, "income": 0, "revenue": 0}, {"ein": "753230164", "name": "OSWEGO VALLEY ATV CLUB INC", "city": "HANNIBAL", "state": "NY", "zip": "13074-0153", "ntee": "N50", "ruling": "200803", "deductibility": "2", "assets": 0, "income": 0, "revenue": 0}, {"ein": "800037925", "name": "OSWEGO COUNTY FEDERATION OF SPORTSMENS CLUBS INC", "city": "OSWEGO", "state": "NY", "zip": "13126-1117", "ntee": "N61", "ruling": "201208", "deductibility": "2", "assets": 0, "income": 0, "revenue": 0}, {"ein": "800822020", "name": "OSWEGO HEALTH FOUNDATION INC", "city": "OSWEGO", "state": "NY", "zip": "13126-2507", "ntee": "T30", "ruling": "201304", "deductibility": "1", "assets": 1542193, "income": 689026, "revenue": 689026}, {"ein": "811451803", "name": "OSWEGO BOOKMOBILE INC", "city": "OSWEGO", "state": "NY", "zip": "13126-5405", "ntee": "O01", "ruling": "201703", "deductibility": "1", "assets": 177009, "income": 31504, "revenue": 31504}, {"ein": "812549668", "name": "OSWEGO COUNTY LAND BANK CORPORATION", "city": "OSWEGO", "state": "NY", "zip": "13126-2192", "ntee": "S47", "ruling": "201701", "deductibility": "1", "assets": 4017147, "income": 2958464, "revenue": 1179677}, {"ein": "813142786", "name": "OSWEGO COUNTY MUSICIANS COLLECTIVE INC", "city": "MEXICO", "state": "NY", "zip": "13114-0028", "ntee": "A68", "ruling": "201611", "deductibility": "1", "assets": 0, "income": 0, "revenue": 0}, {"ein": "822179543", "name": "OSWEGO MUSIC HALL OF FAME", "city": "OSWEGO", "state": "NY", "zip": "13126-6395", "ntee": "A68", "ruling": "201804", "deductibility": "1", "assets": 14311, "income": 200, "revenue": 0}, {"ein": "832765432", "name": "OSWEGO HISTORY RECORDS CENTER INC", "city": "OSWEGO", "state": "NY", "zip": "13126-6254", "ntee": "A80", "ruling": "201906", "deductibility": "1", "assets": 0, "income": 0, "revenue": 0}, {"ein": "833388742", "name": "OSWEGO LACROSSE FOUNDATION INC", "city": "OSWEGO", "state": "NY", "zip": "13126-5315", "ntee": "N60", "ruling": "201903", "deductibility": "1", "assets": 0, "income": 0, "revenue": 0}, {"ein": "881809529", "name": "OWNA SPONSOR CIRCLE - OSWEGO NY", "city": "MEXICO", "state": "NY", "zip": "13114-3282", "ntee": "Q71", "ruling": "202204", "deductibility": "1", "assets": 0, "income": 0, "revenue": 0}, {"ein": "900535332", "name": "OSWEGO FIGURE SKATING CLUB", "city": "OSWEGO", "state": "NY", "zip": "13126-0844", "ntee": "N60", "ruling": "201409", "deductibility": "1", "assets": 0, "income": 0, "revenue": 0}, {"ein": "932339140", "name": "FRIENDS OF RECOVERY OSWEGO COUNTY INC", "city": "FULTON", "state": "NY", "zip": "13069-1560", "ntee": "F20", "ruling": "202308", "deductibility": "1", "assets": 30103, "income": 45100, "revenue": 45100}], "SUSAN": [{"ein": "043338422", "name": "SUSAN DANIELS FAMILY CHARITABLE FOUNDATION", "city": "NEW YORK", "state": "NY", "zip": "10016-0000", "ntee": "", "ruling": "199702", "deductibility": "1", "assets": 679151, "income": 248186, "revenue": 0}, {"ein": "046036499", "name": "SUSAN A DODGE EDUCATIONAL FUND TR UW SUSAN A DODGE", "city": "BUFFALO", "state": "NY", "zip": "14240-1504", "ntee": "", "ruling": "199008", "deductibility": "1", "assets": 177063, "income": 20834, "revenue": 9584}, {"ein": "113241597", "name": "MARVIN & SUSAN OSTREICHER FAMILY FOUNDATION", "city": "VALLEY STREAM", "state": "NY", "zip": "11581-1260", "ntee": "T31J", "ruling": "199604", "deductibility": "1", "assets": 1, "income": 1, "revenue": 0}, {"ein": "113375888", "name": "ARNOLD AND SUSAN SCHARF FOUNDATION INC", "city": "NEW YORK", "state": "NY", "zip": "10023-4250", "ntee": "T90Z", "ruling": "199807", "deductibility": "1", "assets": 160448, "income": 9343, "revenue": 0}, {"ein": "113377549", "name": "EDWARD AND SUSAN BLUMENFELD FOUNDATION", "city": "SYOSSET", "state": "NY", "zip": "11791-6012", "ntee": "T22J", "ruling": "199706", "deductibility": "1", "assets": 2734328, "income": 918855, "revenue": 0}, {"ein": "113527438", "name": "DR SUSAN SMITH MCKINNEY NURSING & REHABILITATION CTR AUXILIARY INC", "city": "BROOKLYN", "state": "NY", "zip": "11203-1706", "ntee": "", "ruling": "200408", "deductibility": "1", "assets": 11864, "income": 38011, "revenue": -1270}, {"ein": "113636116", "name": "NEAL AND SUSAN BROXMEYER FAMILY FOUNDATION", "city": "UNIONDALE", "state": "NY", "zip": "11556-0000", "ntee": "T22", "ruling": "200211", "deductibility": "1", "assets": 1004394, "income": 832045, "revenue": 0}, {"ein": "132285060", "name": "FREDERICK M & SUSAN FRIEDMAN FAMILY FOUNDATION INC", "city": "NEW YORK", "state": "NY", "zip": "10075-0337", "ntee": "", "ruling": "198806", "deductibility": "1", "assets": 15023, "income": 1, "revenue": 0}, {"ein": "133322380", "name": "ARTHUR I AND SUSAN MAIER FUND INC", "city": "NEW YORK", "state": "NY", "zip": "10024-6022", "ntee": "", "ruling": "198608", "deductibility": "1", "assets": 146834, "income": 1294217, "revenue": 0}, {"ein": "133384028", "name": "PETER AND SUSAN SOLOMON FAMILY FOUNDATION", "city": "NEW YORK", "state": "NY", "zip": "10016-0000", "ntee": "", "ruling": "198702", "deductibility": "1", "assets": 9034025, "income": 3298330, "revenue": 0}, {"ein": "133484181", "name": "SUSAN AND ELIHU ROSE FOUNDATION INC", "city": "NEW YORK", "state": "NY", "zip": "10017-1307", "ntee": "", "ruling": "198909", "deductibility": "1", "assets": 3020729, "income": 3097097, "revenue": 0}, {"ein": "133554420", "name": "SUSAN HEFNER AND DANCERS INC", "city": "BROOKLYN", "state": "NY", "zip": "11201-2011", "ntee": "", "ruling": "199110", "deductibility": "1", "assets": 0, "income": 0, "revenue": 0}, {"ein": "133617665", "name": "SUSAN DEVINE CAMILLI FOUNDATION INC", "city": "BRIGHTWATERS", "state": "NY", "zip": "11718-1304", "ntee": "", "ruling": "199108", "deductibility": "1", "assets": 6174696, "income": 2824071, "revenue": 0}, {"ein": "133634385", "name": "RICHARD A AND SUSAN P FRIEDMAN FAMILY FOUNDATION GOLDMAN SACHS CO", "city": "NEW YORK", "state": "NY", "zip": "10274-0073", "ntee": "", "ruling": "199303", "deductibility": "1", "assets": 9296331, "income": 5634697, "revenue": 0}, {"ein": "133799925", "name": "NORMAN AND SUSAN EMBER FOUNDATION", "city": "NEW YORK", "state": "NY", "zip": "10025-5524", "ntee": "T22J", "ruling": "199501", "deductibility": "1", "assets": 306918, "income": 257024, "revenue": 0}, {"ein": "133921102", "name": "JOSEPH AND SUSAN GATTO FOUNDATION", "city": "MELVILLE", "state": "NY", "zip": "11747-3146", "ntee": "T20Z", "ruling": "199802", "deductibility": "1", "assets": 7236097, "income": 329318, "revenue": 0}, {"ein": "133940569", "name": "ROBERT AND SUSAN TAUB FOUNDATION INC", "city": "NEW YORK", "state": "NY", "zip": "10128-1152", "ntee": "T22Z", "ruling": "199706", "deductibility": "1", "assets": 149903, "income": 58369, "revenue": 0}, {"ein": "134050662", "name": "JEFFREY AND SUSAN GOLDENBERG FOUNDATION", "city": "NEW YORK", "state": "NY", "zip": "10274-0073", "ntee": "T20", "ruling": "200004", "deductibility": "1", "assets": 1231474, "income": 845682, "revenue": 0}, {"ein": "134078933", "name": "SUSAN CORSO INTERNATIONAL MINISTRIES", "city": "NEW YORK", "state": "NY", "zip": "10011-3550", "ntee": "X20", "ruling": "200004", "deductibility": "1", "assets": 0, "income": 0, "revenue": 0}, {"ein": "134082155", "name": "PAUL AND SUSAN EFRON FOUNDATION", "city": "NEW YORK", "state": "NY", "zip": "10274-0073", "ntee": "T21", "ruling": "200106", "deductibility": "1", "assets": 10161, "income": 3756, "revenue": 0}, {"ein": "134128044", "name": "WILLIAM C AND SUSAN F MORRIS FOUNDATION", "city": "NEW YORK", "state": "NY", "zip": "10165-0056", "ntee": "T22", "ruling": "200111", "deductibility": "1", "assets": 191858, "income": 5691, "revenue": 0}, {"ein": "136863977", "name": "RONALD P & SUSAN E LYNCH FOUNDATION", "city": "NEW YORK", "state": "NY", "zip": "10022-0000", "ntee": "", "ruling": "198704", "deductibility": "1", "assets": 22542956, "income": 2482549, "revenue": 0}, {"ein": "137068846", "name": "HERMAND AND SUSAN MERINOFF CHARITABLE TRUST", "city": "MINEOLA", "state": "NY", "zip": "11501-0000", "ntee": "T21Z", "ruling": "199610", "deductibility": "1", "assets": 7910, "income": 2783, "revenue": 0}, {"ein": "137099576", "name": "GARY J & SUSAN O FERRENTINO FOUNDATION", "city": "MUTTONTOWN", "state": "NY", "zip": "11791-2304", "ntee": "", "ruling": "199702", "deductibility": "0", "assets": 385548, "income": 43842, "revenue": 0}, {"ein": "137107477", "name": "BENJAMIN AND SUSAN WINTER FOUNDATION", "city": "NEW YORK", "state": "NY", "zip": "10019-5429", "ntee": "T20J", "ruling": "199705", "deductibility": "1", "assets": 6553980, "income": 569942, "revenue": 0}, {"ein": "137147899", "name": "SUSAN S & KENNETH WALLACH FOUNDATION", "city": "PURCHASE", "state": "NY", "zip": "10577-0000", "ntee": "T20Z", "ruling": "199809", "deductibility": "1", "assets": 87134015, "income": 52287682, "revenue": 0}, {"ein": "141805402", "name": "SUSAN ODELL TAYLOR SCHOOL FOR CHILDREN", "city": "TROY", "state": "NY", "zip": "12180-4845", "ntee": "B24", "ruling": "199811", "deductibility": "1", "assets": 1811732, "income": 1169924, "revenue": 1169924}, {"ein": "161213228", "name": "SUSAN B ANTHONY NEIGHBORHOOD ASSOCIATION INC", "city": "ROCHESTER", "state": "NY", "zip": "14608-1935", "ntee": "", "ruling": "199405", "deductibility": "1", "assets": 26450, "income": 1, "revenue": 0}, {"ein": "161577002", "name": "THE RONALD S AND SUSAN D HUMMEL", "city": "FAYETTEVILLE", "state": "NY", "zip": "13066-8718", "ntee": "P11", "ruling": "200005", "deductibility": "1", "assets": 367612, "income": 78564, "revenue": 0}, {"ein": "205125654", "name": "SUSAN WEIL KIRSCHENBAUM AND BERNARD E KIRSCHENBAUM FOUNDATION", "city": "NEW YORK", "state": "NY", "zip": "10038-1161", "ntee": "T22", "ruling": "200608", "deductibility": "1", "assets": 1, "income": 1, "revenue": 0}, {"ein": "206952088", "name": "SUSAN SATRIANO MEMORIAL CHARITABLEFOUNDATION TRUST", "city": "OCEANSIDE", "state": "NY", "zip": "11572-2722", "ntee": "B82", "ruling": "201504", "deductibility": "1", "assets": 24051, "income": 46051, "revenue": 0}, {"ein": "208834456", "name": "SUSAN SONTAG FOUNDATION", "city": "NEW YORK", "state": "NY", "zip": "10013-3444", "ntee": "B82", "ruling": "201601", "deductibility": "1", "assets": 0, "income": 0, "revenue": 0}, {"ein": "222521216", "name": "SUSAN LOOK AVERY CLUB", "city": "PAVILION", "state": "NY", "zip": "14525-9737", "ntee": "", "ruling": "198412", "deductibility": "2", "assets": 0, "income": 0, "revenue": 0}, {"ein": "222635294", "name": "ST SUSAN CENTER INC", "city": "JAMESTOWN", "state": "NY", "zip": "14701-6975", "ntee": "", "ruling": "198509", "deductibility": "1", "assets": 926281, "income": 679874, "revenue": 641868}, {"ein": "226108097", "name": "JOHN C AND SUSAN K HUBBARD FOUNDATION INC", "city": "SCHENECTADY", "state": "NY", "zip": "12302-4734", "ntee": "", "ruling": "196811", "deductibility": "1", "assets": 253766, "income": 83488, "revenue": 0}, {"ein": "237055756", "name": "PTA-SUSAN E WAGNER", "city": "STATEN ISLAND", "state": "NY", "zip": "10314-7027", "ntee": "", "ruling": "197002", "deductibility": "1", "assets": 0, "income": 0, "revenue": 0}, {"ein": "237098699", "name": "THE SUSAN B ANTHONY HOUSE INC", "city": "ROCHESTER", "state": "NY", "zip": "14608-1928", "ntee": "", "ruling": "197103", "deductibility": "1", "assets": 4463931, "income": 1388316, "revenue": 1265289}, {"ein": "263303971", "name": "SUSAN E WAGNER BASKETBALL ALUMNI FUND", "city": "STATEN ISLAND", "state": "NY", "zip": "10314-7027", "ntee": "B90", "ruling": "202201", "deductibility": "1", "assets": 13278, "income": 4500, "revenue": 4500}, {"ein": "271551662", "name": "SUSAN AND GERALD BEREIKA FAMILY FOUNDATION", "city": "RHINEBECK", "state": "NY", "zip": "12572-0740", "ntee": "", "ruling": "201101", "deductibility": "2", "assets": 2154267, "income": 1270016, "revenue": 0}, {"ein": "273047161", "name": "SUSAN ISABEL FOUNDATION", "city": "NEW YORK", "state": "NY", "zip": "10001-0000", "ntee": "T21", "ruling": "201105", "deductibility": "1", "assets": 12117449, "income": 2766433, "revenue": 0}, {"ein": "273493774", "name": "SUSAN S SHIVA FOUNDATION", "city": "NEW YORK", "state": "NY", "zip": "10001-0000", "ntee": "T20", "ruling": "201209", "deductibility": "1", "assets": 7689089, "income": 3893048, "revenue": 0}, {"ein": "275445207", "name": "SUSAN G AND EDMUND W GORDON COMMUNITY PARTNERSHIP INC", "city": "POMONA", "state": "NY", "zip": "10970-3309", "ntee": "A80", "ruling": "201107", "deductibility": "1", "assets": 0, "income": 0, "revenue": 0}, {"ein": "276715189", "name": "SUSAN SIMON LOTIERZO CHARITABLE TR", "city": "E SYRACUSE", "state": "NY", "zip": "13057-2905", "ntee": "T20", "ruling": "201012", "deductibility": "1", "assets": 21353, "income": 17725, "revenue": 0}, {"ein": "300103736", "name": "JAMES L AND SUSAN G WINTER FOUNDATION", "city": "NEW YORK", "state": "NY", "zip": "10019-5429", "ntee": "T22", "ruling": "200209", "deductibility": "1", "assets": 3920514, "income": 1945532, "revenue": 0}, {"ein": "306259695", "name": "THE@SUSAN AND MICHAEL B GOLDBERG FAMILY FOUNDATION", "city": "NEW YORK", "state": "NY", "zip": "10013-0000", "ntee": "T20", "ruling": "201106", "deductibility": "1", "assets": 368299, "income": 1244, "revenue": 0}, {"ein": "326676729", "name": "SUSAN P GUILLIA CHARITABLE TRUST", "city": "NEW YORK", "state": "NY", "zip": "10176-2603", "ntee": "", "ruling": "202308", "deductibility": "1", "assets": 6371063, "income": 6371063, "revenue": 0}, {"ein": "332984810", "name": "SUSAN MARIE OLSON DANCE FOUNDATION INC", "city": "POUGHKEEPSIE", "state": "NY", "zip": "12601-3206", "ntee": "A60", "ruling": "202501", "deductibility": "1", "assets": 0, "income": 0, "revenue": 0}, {"ein": "453005204", "name": "SUSAN ZIRKL Z L MEMORIAL CHARITABLE FOUNDATION TRUST", "city": "NEW YORK", "state": "NY", "zip": "10019-3873", "ntee": "T22", "ruling": "201301", "deductibility": "1", "assets": 10614415, "income": 4826324, "revenue": 0}, {"ein": "471068290", "name": "COLEMAN AND SUSAN BURKE FOUNDATION INC", "city": "NEW YORK", "state": "NY", "zip": "10001-1164", "ntee": "T20", "ruling": "201501", "deductibility": "1", "assets": 19247208, "income": 9462390, "revenue": 0}, {"ein": "472024154", "name": "ELIZABETH CADY STANTON AND SUSAN B ANTHONY STATUE FUND INC", "city": "BROOKLYN", "state": "NY", "zip": "11215-0150", "ntee": "P20", "ruling": "201502", "deductibility": "1", "assets": 195643, "income": 115351, "revenue": 84083}, {"ein": "472158485", "name": "MEYER & SUSAN EDERY FOUNDATION", "city": "BROOKLYN", "state": "NY", "zip": "11223-2822", "ntee": "T20", "ruling": "201509", "deductibility": "1", "assets": 122, "income": 101905, "revenue": 0}, {"ein": "616290003", "name": "SUSAN ZISES GREEN FAM CHARITABLE TR", "city": "NEW YORK", "state": "NY", "zip": "10016-4129", "ntee": "T22", "ruling": "200210", "deductibility": "1", "assets": 27, "income": 803, "revenue": 0}, {"ein": "812833067", "name": "SUSAN WHELAN MEMORIAL FOUNDATION INC", "city": "STATEN ISLAND", "state": "NY", "zip": "10304-1410", "ntee": "B12", "ruling": "201608", "deductibility": "1", "assets": 0, "income": 0, "revenue": 0}, {"ein": "814656546", "name": "MARTIN & SUSAN SANDERS FAMILY FOUNDATION", "city": "NEW YORK", "state": "NY", "zip": "10022-3172", "ntee": "T90", "ruling": "201704", "deductibility": "1", "assets": 426456, "income": 20016, "revenue": 0}, {"ein": "820613111", "name": "SUSAN HAXTON MEMORIAL FOUNDATION INC", "city": "WEST SENECA", "state": "NY", "zip": "14224-2544", "ntee": "G80", "ruling": "201703", "deductibility": "1", "assets": 0, "income": 0, "revenue": 0}, {"ein": "823554750", "name": "MARTIN AND SUSAN DIETRICH FAMILY FOUNDATION INC", "city": "S NEW BERLIN", "state": "NY", "zip": "13843-2220", "ntee": "T19", "ruling": "201905", "deductibility": "1", "assets": 152656, "income": 103918, "revenue": 0}, {"ein": "871695854", "name": "THE DAVID A COULTER AND SUSAN C WEEKS CHARITABLE FOUNDATION", "city": "ALBANY", "state": "NY", "zip": "12212-5201", "ntee": "S30", "ruling": "202204", "deductibility": "1", "assets": 5387094, "income": 11051869, "revenue": 0}, {"ein": "912170805", "name": "EDWARD T HABERMANN AND SUSAN B KOEHN FOUNDATION", "city": "WATER MILL", "state": "NY", "zip": "11976-3104", "ntee": "T22", "ruling": "200211", "deductibility": "1", "assets": 724380, "income": 85764, "revenue": 0}, {"ein": "920409049", "name": "SUSAN ROTHENBERG FOUNDATION", "city": "NEW YORK", "state": "NY", "zip": "10002-3002", "ntee": "T23", "ruling": "202303", "deductibility": "1", "assets": 1, "income": 1, "revenue": 0}, {"ein": "920743381", "name": "SUSAN KLINGENSTEIN FAMILY FOUNDATION", "city": "NEW YORK", "state": "NY", "zip": "10006-2756", "ntee": "T20", "ruling": "202506", "deductibility": "1", "assets": 3400000, "income": 3400000, "revenue": 0}, {"ein": "932109346", "name": "SUSAN ETESS AND HOWARD ZIMMERMAN FAMILY FOUNDATION", "city": "NEW YORK", "state": "NY", "zip": "10022-4728", "ntee": "P99", "ruling": "202308", "deductibility": "1", "assets": 0, "income": 0, "revenue": 0}, {"ein": "932358643", "name": "RONALD AND SUSAN FRANKEL FAMILY FOUNDATION", "city": "NEW YORK", "state": "NY", "zip": "10022-1287", "ntee": "T20", "ruling": "202409", "deductibility": "1", "assets": 1603473, "income": 3003473, "revenue": 0}, {"ein": "990773200", "name": "JOSEPH AND SUSAN PISACANO MEMORIAL FOUNDATION INC", "city": "MELVILLE", "state": "NY", "zip": "11747-6634", "ntee": "B82", "ruling": "202402", "deductibility": "1", "assets": 500, "income": 2500, "revenue": 0}], "PERFORMANCE": [{"ein": "043702601", "name": "FIST AND HEEL PERFORMANCE GROUP INC", "city": "BROOKLYN", "state": "NY", "zip": "11217-2132", "ntee": "A62", "ruling": "200409", "deductibility": "1", "assets": 109250, "income": 155091, "revenue": 155091}, {"ein": "113434979", "name": "PERFORMANCE POETS ASSOCIATION INC", "city": "N BELLMORE", "state": "NY", "zip": "11710-1837", "ntee": "A70", "ruling": "201203", "deductibility": "1", "assets": 0, "income": 0, "revenue": 0}, {"ein": "132943022", "name": "PICK UP PERFORMANCE COMPANY INC", "city": "NEW YORK", "state": "NY", "zip": "10001-2327", "ntee": "", "ruling": "197807", "deductibility": "1", "assets": 33536, "income": 257500, "revenue": 257500}, {"ein": "133080710", "name": "PRIMARY PERFORMANCE GROUP INC", "city": "SPENCER", "state": "NY", "zip": "14883-9668", "ntee": "", "ruling": "198201", "deductibility": "1", "assets": 0, "income": 0, "revenue": 0}, {"ein": "133335670", "name": "CROSS PERFORMANCE INC", "city": "BROOKLYN", "state": "NY", "zip": "11218-3151", "ntee": "A600", "ruling": "198705", "deductibility": "1", "assets": 0, "income": 0, "revenue": 0}, {"ein": "133357408", "name": "PERFORMANCE ZONE INC", "city": "NEW YORK", "state": "NY", "zip": "10003-1502", "ntee": "", "ruling": "198611", "deductibility": "1", "assets": 1383591, "income": 4967052, "revenue": 4967052}, {"ein": "133522283", "name": "PERFORMANCE SPACE 122 INC", "city": "NEW YORK", "state": "NY", "zip": "10009-5782", "ntee": "A6FZ", "ruling": "199310", "deductibility": "1", "assets": 1626208, "income": 2020734, "revenue": 1923761}, {"ein": "134022249", "name": "TAMAR ROGOFF PERFORMANCE PROJECTS INC", "city": "NEW YORK", "state": "NY", "zip": "10009-4241", "ntee": "A620", "ruling": "199801", "deductibility": "1", "assets": 37159, "income": 13120, "revenue": 13120}, {"ein": "134072157", "name": "AMERICAN ACADEMY OF BALLET PERFORMANCE AWARDS INC", "city": "NEW YORK", "state": "NY", "zip": "10024-1100", "ntee": "B82", "ruling": "200002", "deductibility": "1", "assets": 8638, "income": 970739, "revenue": 970739}, {"ein": "136295168", "name": "MUSIC PERFORMANCE TRUST FUND", "city": "NEW YORK", "state": "NY", "zip": "10036-5601", "ntee": "A120", "ruling": "195007", "deductibility": "1", "assets": 10706735, "income": 11195680, "revenue": 5946878}, {"ein": "136405088", "name": "MUSIC PERFORMANCE TRUST FUNDS 2", "city": "NEW YORK", "state": "NY", "zip": "10019-0000", "ntee": "A116", "ruling": "195007", "deductibility": "1", "assets": 266995, "income": 161025, "revenue": 161025}, {"ein": "141789014", "name": "BUILDING PERFORMANCE INSTITUTE INC", "city": "SARATOGA SPGS", "state": "NY", "zip": "12866-3285", "ntee": "L99Z", "ruling": "199708", "deductibility": "1", "assets": 1384155, "income": 2843048, "revenue": 2843048}, {"ein": "141792799", "name": "PERFORMANCE PLUS OF STAMFORD NY INC", "city": "STAMFORD", "state": "NY", "zip": "12167-1143", "ntee": "A200", "ruling": "199702", "deductibility": "1", "assets": 0, "income": 0, "revenue": 0}, {"ein": "204696793", "name": "RELATIONSHIP PERFORMANCE AND ARTSGROUP INC", "city": "NEW YORK", "state": "NY", "zip": "10009-5822", "ntee": "A60", "ruling": "200702", "deductibility": "1", "assets": 0, "income": 0, "revenue": 0}, {"ein": "205987525", "name": "GRACE EXHIBITION SPACE FOR INTERNATIONAL PERFORMANCE ART INC", "city": "NEW YORK", "state": "NY", "zip": "10034-4538", "ntee": "A61", "ruling": "201501", "deductibility": "1", "assets": 21324, "income": 122987, "revenue": 122987}, {"ein": "222978639", "name": "DINOSAUR PERFORMANCE INC", "city": "BROOKLYN", "state": "NY", "zip": "11217-2210", "ntee": "A23", "ruling": "201109", "deductibility": "1", "assets": 0, "income": 0, "revenue": 0}, {"ein": "260082959", "name": "AVANT MEDIA PERFORMANCE INC", "city": "GARRISON", "state": "NY", "zip": "10524-0196", "ntee": "A90", "ruling": "200507", "deductibility": "1", "assets": 0, "income": 0, "revenue": 0}, {"ein": "261406687", "name": "ARABIAN ENGLISH PERFORMANCE ASSOCIATION INC", "city": "EAST AURORA", "state": "NY", "zip": "14052-9463", "ntee": "S41", "ruling": "200809", "deductibility": "2", "assets": 886061, "income": 259763, "revenue": 64913}, {"ein": "262014214", "name": "INTERNATIONAL FESTIVAL FOR CONTEMPORARY PERFORMANCE INC", "city": "NEW YORK", "state": "NY", "zip": "10023-8232", "ntee": "A68", "ruling": "200806", "deductibility": "1", "assets": 0, "income": 0, "revenue": 0}, {"ein": "263572536", "name": "INTERNATIONAL CENTER FOR PERFORMANCE AUDITING", "city": "ROCKY POINT", "state": "NY", "zip": "11778-8912", "ntee": "A03", "ruling": "202405", "deductibility": "1", "assets": 0, "income": 0, "revenue": 0}, {"ein": "273916150", "name": "MARINA ABRAMOVIC INSTITUTE FOR PRESERVATION OF PERFORMANCE ART IN", "city": "NEW YORK", "state": "NY", "zip": "10018-0000", "ntee": "A20", "ruling": "201105", "deductibility": "1", "assets": 68173, "income": 7, "revenue": 7}, {"ein": "311738930", "name": "CENTER FOR PERFORMANCE AND CIVIC PRACTICE", "city": "BROOKLYN", "state": "NY", "zip": "11225-6167", "ntee": "A65", "ruling": "200012", "deductibility": "1", "assets": 134671, "income": 11036, "revenue": 11036}, {"ein": "311788062", "name": "ASSOCIATION FOR ASIAN PERFORMANCE", "city": "BROOKLYN", "state": "NY", "zip": "11226-5681", "ntee": "A20", "ruling": "200203", "deductibility": "1", "assets": 0, "income": 0, "revenue": 0}, {"ein": "332058567", "name": "PERFORMANCE ELITE VBC INC", "city": "SHIRLEY", "state": "NY", "zip": "11967-1805", "ntee": "N60", "ruling": "202412", "deductibility": "1", "assets": 0, "income": 0, "revenue": 0}, {"ein": "334817227", "name": "PURE EDGE PERFORMANCE TRAINING INC", "city": "PULASKI", "state": "NY", "zip": "13142-4419", "ntee": "N60", "ruling": "202506", "deductibility": "1", "assets": 0, "income": 0, "revenue": 0}, {"ein": "510650214", "name": "ERICA ESSNER PERFORMANCE INC", "city": "BROOKLYN", "state": "NY", "zip": "11215-4502", "ntee": "", "ruling": "200806", "deductibility": "1", "assets": 0, "income": 0, "revenue": 0}, {"ein": "562412082", "name": "PARTNERS IN PERFORMANCE INC", "city": "NEW YORK", "state": "NY", "zip": "10022-2611", "ntee": "A69", "ruling": "200402", "deductibility": "1", "assets": 0, "income": 0, "revenue": 0}, {"ein": "710991159", "name": "ID STUDIO THEATER PERFORMANCE AND", "city": "NEW YORK", "state": "NY", "zip": "10025-1628", "ntee": "A65", "ruling": "200611", "deductibility": "1", "assets": 452141, "income": 595372, "revenue": 595372}, {"ein": "830492015", "name": "CENTER FOR PERFORMANCE RESEARCH INC", "city": "BROOKLYN", "state": "NY", "zip": "11211-1887", "ntee": "A61", "ruling": "200904", "deductibility": "1", "assets": 858062, "income": 408929, "revenue": 400429}, {"ein": "833098219", "name": "RADICAL EVOLUTION PERFORMANCE COLLECTIVE INC", "city": "BROOKLYN", "state": "NY", "zip": "11225-6231", "ntee": "A31", "ruling": "201904", "deductibility": "1", "assets": 72399, "income": 129304, "revenue": 129304}, {"ein": "841755160", "name": "TABULA RASA NYC THEATER AND PERFORMANCE LAB INC", "city": "NEW YORK", "state": "NY", "zip": "10011-7139", "ntee": "A40", "ruling": "202010", "deductibility": "1", "assets": 0, "income": 0, "revenue": 0}, {"ein": "842041593", "name": "JIM CLARK COMMUNITY PERFORMANCE FUND INC", "city": "DELMAR", "state": "NY", "zip": "12054-1218", "ntee": "A68", "ruling": "202307", "deductibility": "1", "assets": 7504, "income": 55000, "revenue": 55000}, {"ein": "842293299", "name": "ELITE FITNESS AND PERFORMANCE FOUNDATION INC", "city": "PORT CHESTER", "state": "NY", "zip": "10573-3361", "ntee": "N30", "ruling": "202102", "deductibility": "1", "assets": 0, "income": 0, "revenue": 0}, {"ein": "852672167", "name": "360 ELITE PERFORMANCE ACADEMY INC", "city": "BRONX", "state": "NY", "zip": "10451-2591", "ntee": "N63", "ruling": "202108", "deductibility": "1", "assets": 0, "income": 0, "revenue": 0}, {"ein": "853779769", "name": "ROSEWOOD PERFORMANCE ART INC", "city": "NEW YORK", "state": "NY", "zip": "10011-2301", "ntee": "A90", "ruling": "202104", "deductibility": "1", "assets": 0, "income": 390, "revenue": 390}, {"ein": "874110693", "name": "DIAMOND PERFORMANCE COMPANY INC", "city": "E NORTHPORT", "state": "NY", "zip": "11731-5305", "ntee": "A60", "ruling": "202204", "deductibility": "1", "assets": 0, "income": 0, "revenue": 0}, {"ein": "920616390", "name": "TOM GOLD DANCE PERFORMANCE SOCIETY INC", "city": "NEW YORK", "state": "NY", "zip": "10024-6004", "ntee": "A61", "ruling": "202403", "deductibility": "1", "assets": 0, "income": 0, "revenue": 0}, {"ein": "921789671", "name": "NEW YORK INSTITUTE OF HOME PERFORMANCE INC", "city": "HOWARD BEACH", "state": "NY", "zip": "11414-2810", "ntee": "U05", "ruling": "202301", "deductibility": "1", "assets": 0, "income": 0, "revenue": 0}, {"ein": "923100569", "name": "PEOPLES PERFORMANCE PROJECT INC", "city": "NEW YORK", "state": "NY", "zip": "10019-5139", "ntee": "A60", "ruling": "202312", "deductibility": "1", "assets": 0, "income": 0, "revenue": 0}, {"ein": "931373583", "name": "ONLINE PERFORMANCE ART ONLINEUM INC", "city": "NEW YORK", "state": "NY", "zip": "10019-7070", "ntee": "A60", "ruling": "202412", "deductibility": "1", "assets": 0, "income": 0, "revenue": 0}, {"ein": "932600909", "name": "HEALTHY JACKSON AND PERFORMANCE MARIGOLDS THEATRE COMPANY INC", "city": "CAZENOVIA", "state": "NY", "zip": "13035-9346", "ntee": "A65", "ruling": "202409", "deductibility": "1", "assets": 0, "income": 0, "revenue": 0}, {"ein": "934623094", "name": "EAST-WEST PERFORMANCE ARTS CENTER INC", "city": "WHITESTONE", "state": "NY", "zip": "11357-1324", "ntee": "A20", "ruling": "202408", "deductibility": "1", "assets": 10022, "income": 28832, "revenue": 28832}, {"ein": "990938734", "name": "STUDENT ATHLETE PERFORMANCE ASSOCIATION CORP", "city": "STATEN ISLAND", "state": "NY", "zip": "10306-3905", "ntee": "O50", "ruling": "202402", "deductibility": "1", "assets": 0, "income": 0, "revenue": 0}], "TD": [{"ein": "061157580", "name": "THE TD & MA OMALLEY FOUNDATION INC", "city": "NEW YORK", "state": "NY", "zip": "10020-1635", "ntee": "", "ruling": "198607", "deductibility": "1", "assets": 8424501, "income": 2485836, "revenue": 0}, {"ein": "113019289", "name": "CENTRAL OPERATING LINES TD", "city": "BOHEMIA", "state": "NY", "zip": "11716-2918", "ntee": "", "ruling": "199806", "deductibility": "2", "assets": 0, "income": 0, "revenue": 0}, {"ein": "814468410", "name": "TD LEARNING ORGANIZATION INC", "city": "FLUSHING", "state": "NY", "zip": "11367-1707", "ntee": "B20", "ruling": "201611", "deductibility": "1", "assets": 0, "income": 0, "revenue": 0}, {"ein": "823775525", "name": "TD SECURITIES UNDERWRITING HOPE FUND INC", "city": "NEW YORK", "state": "NY", "zip": "10017-3978", "ntee": "T30", "ruling": "201810", "deductibility": "1", "assets": 107710, "income": 938759, "revenue": 599267}], "LUISI": [{"ein": "061829102", "name": "THE PAUL LUISI FOUNDATION", "city": "TUCKAHOE", "state": "NY", "zip": "10707-0213", "ntee": "H12", "ruling": "200804", "deductibility": "1", "assets": 0, "income": 0, "revenue": 0}], "SLAVIC": [{"ein": "112285970", "name": "POLISH & SLAVIC CENTER INC", "city": "BROOKLYN", "state": "NY", "zip": "11222-2105", "ntee": "P840", "ruling": "197307", "deductibility": "1", "assets": 1759412, "income": 3050458, "revenue": 3050458}, {"ein": "112445090", "name": "SLAVIC ARTS ENSEMBLE INC", "city": "BROOKLYN", "state": "NY", "zip": "11222-2533", "ntee": "", "ruling": "198004", "deductibility": "1", "assets": 0, "income": 0, "revenue": 0}, {"ein": "161568792", "name": "SLAVIC PENTACOSTAL CHURCH", "city": "UTICA", "state": "NY", "zip": "13504-4185", "ntee": "X21", "ruling": "200803", "deductibility": "1", "assets": 0, "income": 0, "revenue": 0}, {"ein": "161613772", "name": "SLAVIC BIBLE BAPTIST CHURCH", "city": "ROCHESTER", "state": "NY", "zip": "14617-3435", "ntee": "X20", "ruling": "201808", "deductibility": "1", "assets": 0, "income": 0, "revenue": 0}, {"ein": "201059562", "name": "SLAVIC BAPTIST CHURCH", "city": "CAMILLUS", "state": "NY", "zip": "13031-9716", "ntee": "X21", "ruling": "200510", "deductibility": "1", "assets": 0, "income": 0, "revenue": 0}, {"ein": "582486181", "name": "SLAVIC EVANGELICAL CHRISTIAN CHURCH INC", "city": "NEW YORK", "state": "NY", "zip": "10003-2908", "ntee": "X20", "ruling": "200101", "deductibility": "1", "assets": 0, "income": 0, "revenue": 0}, {"ein": "931426787", "name": "SLAVIC HERITAGE INITIATIVE INC", "city": "EAST SETAUKET", "state": "NY", "zip": "11733-2032", "ntee": "A23", "ruling": "202305", "deductibility": "1", "assets": 0, "income": 0, "revenue": 0}], "CENTEREACH": [{"ein": "112299539", "name": "AD-HOC COMMITTEE FOR SELDEN CENTEREACH YOUTH ASSOCIATION INC", "city": "SELDEN", "state": "NY", "zip": "11784-0439", "ntee": "P300", "ruling": "199606", "deductibility": "1", "assets": 0, "income": 0, "revenue": 0}, {"ein": "112452456", "name": "CENTEREACH FIRE DEPARTMENT INC", "city": "CENTEREACH", "state": "NY", "zip": "11720-4039", "ntee": "M24Z", "ruling": "197808", "deductibility": "2", "assets": 260763, "income": 123862, "revenue": 91780}, {"ein": "116257187", "name": "CENTEREACH CIVIC ASSOCIATION INC", "city": "CENTEREACH", "state": "NY", "zip": "11720-2511", "ntee": "", "ruling": "198602", "deductibility": "2", "assets": 0, "income": 0, "revenue": 0}, {"ein": "161673400", "name": "CENTEREACH CHAMBER OF COMMERCE", "city": "CENTEREACH", "state": "NY", "zip": "11720-0065", "ntee": "S41", "ruling": "200407", "deductibility": "2", "assets": 0, "income": 0, "revenue": 0}], "PLANNED": [{"ein": "112454790", "name": "PLANNED PARENTHOOD HUDSON PECONIC INC", "city": "ELMSFORD", "state": "NY", "zip": "10523-2349", "ntee": "E420", "ruling": "197808", "deductibility": "1", "assets": 60716165, "income": 24722455, "revenue": 23762971}, {"ein": "131644147", "name": "PLANNED PARENTHOOD FEDERATION OF", "city": "NEW YORK", "state": "NY", "zip": "10038-3804", "ntee": "E420", "ruling": "199505", "deductibility": "1", "assets": 483062353, "income": 670048382, "revenue": 392274739}, {"ein": "131845455", "name": "INTERNATIONAL PLANNED PARENTHOOD FEDERATION", "city": "NEW YORK", "state": "NY", "zip": "10038-5063", "ntee": "Q300", "ruling": "195711", "deductibility": "1", "assets": 109926458, "income": 37744470, "revenue": 32793335}, {"ein": "132621497", "name": "PLANNED PARENTHOOD OF GREATER NEW YORK INC", "city": "NEW YORK", "state": "NY", "zip": "10012-2413", "ntee": "E420", "ruling": "195106", "deductibility": "1", "assets": 179293724, "income": 119876760, "revenue": 88403461}, {"ein": "133539048", "name": "PLANNED PARENTHOOD ACTION FUND INC", "city": "NEW YORK", "state": "NY", "zip": "10038-3844", "ntee": "E01", "ruling": "199002", "deductibility": "2", "assets": 13425614, "income": 40460371, "revenue": 40460371}, {"ein": "133731867", "name": "VOICE FOR CHOICE PLANNED PARENTHOOD OF NEW YORK CITY ACTION FUND INC", "city": "NEW YORK", "state": "NY", "zip": "10012-2413", "ntee": "", "ruling": "199311", "deductibility": "2", "assets": 744799, "income": 502847, "revenue": 502847}, {"ein": "134133042", "name": "PLANNED PARENTHOOD HUDSON PECONIC ACTION FUND INC", "city": "ELMSFORD", "state": "NY", "zip": "10523-2349", "ntee": "E42", "ruling": "200102", "deductibility": "2", "assets": 386186, "income": 214070, "revenue": 214070}, {"ein": "141593876", "name": "PLANNED PARENTHOOD EMPIRE STATE ACTS INC", "city": "ALBANY", "state": "NY", "zip": "12207-2512", "ntee": "E01", "ruling": "197710", "deductibility": "2", "assets": 1403104, "income": 1240581, "revenue": 1240581}, {"ein": "146000805", "name": "UPPER HUDSON PLANNED PARENTHOOD INC", "city": "ALBANY", "state": "NY", "zip": "12206-1513", "ntee": "E420", "ruling": "196402", "deductibility": "1", "assets": 10562257, "income": 9824509, "revenue": 9802848}, {"ein": "160746860", "name": "PLANNED PARENTHOOD OF CENTRAL AND WESTERN NEW YORK INC", "city": "ROCHESTER", "state": "NY", "zip": "14605-2929", "ntee": "E42", "ruling": "196505", "deductibility": "1", "assets": 28438607, "income": 29327045, "revenue": 29133139}, {"ein": "160919175", "name": "PLANNED PARENTHOOD OF THE NORTH COUNTRY NEW YORK INC", "city": "WATERTOWN", "state": "NY", "zip": "13601-3250", "ntee": "E420", "ruling": "199404", "deductibility": "1", "assets": 3650406, "income": 8422662, "revenue": 8422662}, {"ein": "475312115", "name": "PLANNED PARENTHOOD GLOBAL INC", "city": "NEW YORK", "state": "NY", "zip": "10038-3844", "ntee": "E42", "ruling": "201605", "deductibility": "1", "assets": 2801460, "income": 14728515, "revenue": 14728515}, {"ein": "833412405", "name": "PLANNED ACTS OF KINDNESS", "city": "NEW YORK", "state": "NY", "zip": "10002-6814", "ntee": "T50", "ruling": "201903", "deductibility": "1", "assets": 0, "income": 0, "revenue": 0}], "YOHAY": [{"ein": "112522326", "name": "TZEDAKAH UMARPE CHARITY FUND RIBBI SHIMEON BAR YOHAY", "city": "BROOKLYN", "state": "NY", "zip": "11223-2040", "ntee": "E83J", "ruling": "198008", "deductibility": "1", "assets": 1466733, "income": 158746, "revenue": 158746}], "MARGERT": [{"ein": "112534700", "name": "MARGERT COMMUNITY CORPORATION", "city": "FAR ROCKAWAY", "state": "NY", "zip": "11691-1510", "ntee": "L81Z", "ruling": "198102", "deductibility": "1", "assets": 3087939, "income": 3414888, "revenue": 3414888}], "OIR": [{"ein": "112570621", "name": "CONGREGATION OIR HACHAYIM", "city": "BROOKLYN", "state": "NY", "zip": "11211-7707", "ntee": "", "ruling": "199102", "deductibility": "1", "assets": 0, "income": 0, "revenue": 0}, {"ein": "237296300", "name": "CONGREGATION YESHIVA OIR PNEI YEHOSHUA", "city": "BROOKLYN", "state": "NY", "zip": "11211-8111", "ntee": "", "ruling": "197306", "deductibility": "1", "assets": 0, "income": 0, "revenue": 0}, {"ein": "813654604", "name": "CONGREGATION OIR NAFTOLI INC", "city": "PEARL RIVER", "state": "NY", "zip": "10965-1008", "ntee": "X30", "ruling": "201610", "deductibility": "1", "assets": 0, "income": 0, "revenue": 0}, {"ein": "842423605", "name": "CONG OIR YISROEL ELIMILECH", "city": "BROOKLYN", "state": "NY", "zip": "11211-8396", "ntee": "X30", "ruling": "202209", "deductibility": "1", "assets": 0, "income": 0, "revenue": 0}, {"ein": "843570192", "name": "OIR HACHAIM", "city": "BROOKLYN", "state": "NY", "zip": "11211-8031", "ntee": "X30", "ruling": "202002", "deductibility": "1", "assets": 0, "income": 0, "revenue": 0}, {"ein": "912194776", "name": "KOLEL OIR HAMEIR & KUPATH MASKHIL EL DOL REB MEIR BAAL HANESS", "city": "BROOKLYN", "state": "NY", "zip": "11211-8726", "ntee": "X30", "ruling": "200311", "deductibility": "1", "assets": 0, "income": 0, "revenue": 0}], "PUCKS": [{"ein": "112798085", "name": "OLD PUCKS HOCKEY CLUB INC", "city": "BALDWIN", "state": "NY", "zip": "11510-0000", "ntee": "", "ruling": "198611", "deductibility": "2", "assets": 37424, "income": 52273, "revenue": 52273}, {"ein": "200414016", "name": "SUFFERN PUCKS INC", "city": "SUFFERN", "state": "NY", "zip": "10901-3228", "ntee": "B112", "ruling": "201308", "deductibility": "1", "assets": 0, "income": 0, "revenue": 0}], "REGINALD": [{"ein": "112800733", "name": "REGINALD A AND ELIZABETH S LENNA FOUNDATION INC", "city": "LAKEWOOD", "state": "NY", "zip": "14750-0013", "ntee": "", "ruling": "198605", "deductibility": "1", "assets": 34476322, "income": 6628094, "revenue": 0}, {"ein": "133429965", "name": "THE REGINALD F LEWIS FOUNDATION INC", "city": "NEW YORK", "state": "NY", "zip": "10022-2110", "ntee": "", "ruling": "198802", "deductibility": "1", "assets": 24140280, "income": 9869236, "revenue": 0}, {"ein": "800341648", "name": "REGINALD WOOD MEMORIAL INC", "city": "HAMMONDSPORT", "state": "NY", "zip": "14840-0144", "ntee": "B82", "ruling": "201004", "deductibility": "1", "assets": 412741, "income": 126271, "revenue": 28173}], "MIDTOWN": [{"ein": "113046538", "name": "CHABAD OF MIDTOWN MANHATTAN INC", "city": "NEW YORK", "state": "NY", "zip": "10017-4905", "ntee": "X30", "ruling": "199102", "deductibility": "1", "assets": 0, "income": 0, "revenue": 0}, {"ein": "133192793", "name": "THE MIDTOWN MANAGEMENT GROUP INC", "city": "NEW YORK", "state": "NY", "zip": "10036-3746", "ntee": "", "ruling": "198404", "deductibility": "1", "assets": 2158087, "income": 2233705, "revenue": 2233705}, {"ein": "133556939", "name": "MIDTOWN WEST PARENTS ASSOC INC", "city": "NEW YORK", "state": "NY", "zip": "10036-1302", "ntee": "P20", "ruling": "202203", "deductibility": "1", "assets": 334857, "income": 136793, "revenue": 126125}, {"ein": "133873705", "name": "ECF MIDTOWN SCHOOL SUPPORTING ORGANIZATION INC", "city": "NEW YORK", "state": "NY", "zip": "10023-0000", "ntee": "", "ruling": "199606", "deductibility": "1", "assets": 1, "income": 0, "revenue": 0}, {"ein": "203049366", "name": "UPPER MIDTOWN CHABAD LUBAVITCH INC", "city": "NEW YORK", "state": "NY", "zip": "10022-2302", "ntee": "X30", "ruling": "200803", "deductibility": "1", "assets": 0, "income": 0, "revenue": 0}, {"ein": "222384953", "name": "MIDTOWN BIBLE CHAPEL", "city": "BUFFALO", "state": "NY", "zip": "14209-1301", "ntee": "", "ruling": "198207", "deductibility": "1", "assets": 0, "income": 0, "revenue": 0}, {"ein": "270138480", "name": "MIDTOWN SOUTH COMMUNITY COUNCIL", "city": "NEW YORK", "state": "NY", "zip": "10018-2923", "ntee": "B99", "ruling": "201506", "deductibility": "1", "assets": 15020, "income": 34215, "revenue": 34215}, {"ein": "471353432", "name": "MIDTOWN UTICA COMMUNITY CENTER", "city": "UTICA", "state": "NY", "zip": "13505-8853", "ntee": "A23", "ruling": "201407", "deductibility": "1", "assets": 513009, "income": 745093, "revenue": 745093}, {"ein": "811665183", "name": "KINGSTON MIDTOWN RISING", "city": "KINGSTON", "state": "NY", "zip": "12401-3488", "ntee": "L21", "ruling": "201703", "deductibility": "1", "assets": 338903, "income": 701216, "revenue": 701216}, {"ein": "814055092", "name": "KINGSTON MIDTOWN ARTS DISTRICT", "city": "KINGSTON", "state": "NY", "zip": "12402-2892", "ntee": "A90", "ruling": "201708", "deductibility": "1", "assets": 223020, "income": 593791, "revenue": 593791}, {"ein": "882555452", "name": "MIDTOWN BUSINESS ALLIANCE", "city": "KINGSTON", "state": "NY", "zip": "12401-3470", "ntee": "S40", "ruling": "202312", "deductibility": "2", "assets": 96003, "income": 121676, "revenue": 121676}, {"ein": "994132967", "name": "MIDTOWN SCHOOL OF JIU JITSU", "city": "STONE RIDGE", "state": "NY", "zip": "12484-5508", "ntee": "N30", "ruling": "202408", "deductibility": "1", "assets": 0, "income": 0, "revenue": 0}], "STEINWAY": [{"ein": "113067330", "name": "STEINWAY STREET DISTRICT MANAGEMENT ASSOCIATION INC", "city": "ASTORIA", "state": "NY", "zip": "11103-4164", "ntee": "S20Z", "ruling": "199710", "deductibility": "1", "assets": 487649, "income": 595733, "revenue": 595733}], "SANCTIFIED": [{"ein": "113071894", "name": "SANCTIFIED CHURCH OF GOD INC", "city": "BROOKLYN", "state": "NY", "zip": "11225-4315", "ntee": "X20Z", "ruling": "199503", "deductibility": "1", "assets": 0, "income": 0, "revenue": 0}, {"ein": "471175583", "name": "ABUNDANT LIFE TRANSFORMATION SEVENTH DAY SANCTIFIED CHURCH INC", "city": "NEW YORK", "state": "NY", "zip": "10027-5707", "ntee": "X20", "ruling": "201503", "deductibility": "1", "assets": 0, "income": 0, "revenue": 0}], "LAY": [{"ein": "113128599", "name": "ECUMENICAL LAY COUNCIL OF NORTHPORT-EAST NORTHPORT INC", "city": "NORTHPORT", "state": "NY", "zip": "11768-1701", "ntee": "P99", "ruling": "201507", "deductibility": "1", "assets": 108346, "income": 126778, "revenue": 126778}, {"ein": "113187115", "name": "ROMAN CATHOLIC PONTIFICAL LAY ASSOCIATION MEMORES DOMINI", "city": "BROOKLYN", "state": "NY", "zip": "11209-3004", "ntee": "", "ruling": "199402", "deductibility": "1", "assets": 14843603, "income": 1579245, "revenue": 1579245}, {"ein": "132664189", "name": "CATHOLIC LAY TEACHERS GROUP OF THE ARCHOIOCESE OF NEW YORK INC", "city": "STATEN ISLAND", "state": "NY", "zip": "10314-3926", "ntee": "", "ruling": "199705", "deductibility": "0", "assets": 144145, "income": 1321888, "revenue": 1162109}, {"ein": "135596761", "name": "NATIONAL INSTITUTE FOR LAY TRAINING", "city": "NEW YORK", "state": "NY", "zip": "10011-4924", "ntee": "", "ruling": "194008", "deductibility": "1", "assets": 0, "income": 0, "revenue": 0}, {"ein": "542190456", "name": "DIOCESE OF ROCHESTER LAY EMPLOYEES RETIREMENT ACCUMULATION PLAN", "city": "ROCHESTER", "state": "NY", "zip": "14624-1823", "ntee": "", "ruling": "194603", "deductibility": "1", "assets": 0, "income": 0, "revenue": 0}, {"ein": "743231035", "name": "MARYKNOLL LAY MISSIONERS FOUNDATION", "city": "MARYKNOLL", "state": "NY", "zip": "10545-0307", "ntee": "", "ruling": "194603", "deductibility": "1", "assets": 0, "income": 0, "revenue": 0}, {"ein": "842557084", "name": "ZEPHYR LAY CARMELITE MISSION INC", "city": "CANANDAIGUA", "state": "NY", "zip": "14424-8366", "ntee": "X22", "ruling": "201908", "deductibility": "1", "assets": 0, "income": 0, "revenue": 0}, {"ein": "933544588", "name": "LAY MINISTER OF BUDDHIST RELIGION", "city": "JACKSON HTS", "state": "NY", "zip": "11372-5638", "ntee": "X50", "ruling": "202505", "deductibility": "1", "assets": 0, "income": 0, "revenue": 0}, {"ein": "992108195", "name": "LAY THE GUNS DOWN NOW FOUNDATION", "city": "BROOKLYN", "state": "NY", "zip": "11216-2560", "ntee": "I20", "ruling": "202405", "deductibility": "1", "assets": 0, "income": 0, "revenue": 0}], "PRESPYTERIAN": [{"ein": "113158049", "name": "HOLY MOUNTAIN PRESPYTERIAN CHURCH", "city": "SUNNYSIDE", "state": "NY", "zip": "11104-1900", "ntee": "", "ruling": "199307", "deductibility": "1", "assets": 0, "income": 0, "revenue": 0}, {"ein": "113481118", "name": "JESUSS LOVE PRESPYTERIAN CHURCH", "city": "WHITESTONE", "state": "NY", "zip": "11357-3621", "ntee": "X21", "ruling": "199907", "deductibility": "1", "assets": 0, "income": 0, "revenue": 0}, {"ein": "133684413", "name": "BRONX KOREAN PRESPYTERIAN CHURCH OF N Y INC", "city": "BRONX", "state": "NY", "zip": "10470-1701", "ntee": "", "ruling": "199306", "deductibility": "1", "assets": 0, "income": 0, "revenue": 0}], "SALAM": [{"ein": "113284376", "name": "SALAM ARABIC CHURCH", "city": "BROOKLYN", "state": "NY", "zip": "11228-2817", "ntee": "", "ruling": "198704", "deductibility": "1", "assets": 0, "income": 0, "revenue": 0}, {"ein": "113449114", "name": "SALAM ARABIC CHURCH CORP", "city": "BROOKLYN", "state": "NY", "zip": "11228-2817", "ntee": "", "ruling": "198704", "deductibility": "1", "assets": 0, "income": 0, "revenue": 0}, {"ein": "113452552", "name": "MASJID BAB-SALAM U S A INC", "city": "BROOKLYN", "state": "NY", "zip": "11224-1505", "ntee": "X40", "ruling": "202206", "deductibility": "1", "assets": 68986, "income": 50479, "revenue": 10085}, {"ein": "141833662", "name": "MASJID AS-SALAM", "city": "ALBANY", "state": "NY", "zip": "12206-2522", "ntee": "X40", "ruling": "202402", "deductibility": "1", "assets": 0, "income": 0, "revenue": 0}, {"ein": "392783059", "name": "SALAM HOME INC", "city": "NEW YORK", "state": "NY", "zip": "10019-5187", "ntee": "Q20", "ruling": "202507", "deductibility": "1", "assets": 0, "income": 0, "revenue": 0}, {"ein": "455345092", "name": "DAROU SALAM ISLAMIC COMMUNITY", "city": "BRONX", "state": "NY", "zip": "10455-1226", "ntee": "X40", "ruling": "201808", "deductibility": "1", "assets": 228117, "income": 141432, "revenue": 141432}, {"ein": "814942507", "name": "MASJID AL SALAM", "city": "BUFFALO", "state": "NY", "zip": "14215-3802", "ntee": "X40", "ruling": "201811", "deductibility": "1", "assets": 0, "income": 0, "revenue": 0}, {"ein": "871267198", "name": "AS-SALAM COMMUNITY CENTER INC", "city": "BROOKLYN", "state": "NY", "zip": "11214-4957", "ntee": "P50", "ruling": "202507", "deductibility": "1", "assets": 0, "income": 0, "revenue": 0}], "SONGS": [{"ein": "113314191", "name": "SONGS OF LOVE FOUNDATION", "city": "FOREST HILLS", "state": "NY", "zip": "11375-4159", "ntee": "P58", "ruling": "199607", "deductibility": "1", "assets": 2172048, "income": 676116, "revenue": 619073}, {"ein": "134195889", "name": "SONGS OF SOLOMON AN INSPIRATIONAL ENSEMBLE", "city": "NEW YORK", "state": "NY", "zip": "10030-1903", "ntee": "A68", "ruling": "201504", "deductibility": "1", "assets": 18, "income": 146131, "revenue": 146131}, {"ein": "161510087", "name": "MUSICIANS UNITED FOR SONGS IN THE CLASSROOM INC", "city": "ONEONTA", "state": "NY", "zip": "13820-3625", "ntee": "A99", "ruling": "199706", "deductibility": "1", "assets": 0, "income": 0, "revenue": 0}, {"ein": "222173973", "name": "OLD SONGS INC", "city": "VOORHEESVILLE", "state": "NY", "zip": "12186-0466", "ntee": "A200", "ruling": "197711", "deductibility": "1", "assets": 477614, "income": 410354, "revenue": 410354}, {"ein": "364635750", "name": "SONGS AT MIRROR LAKE INC", "city": "LAKE PLACID", "state": "NY", "zip": "12946-5450", "ntee": "A6B", "ruling": "200901", "deductibility": "1", "assets": 82861, "income": 71395, "revenue": 71395}, {"ein": "472309824", "name": "SONGS FOR SMILES INC", "city": "KATONAH", "state": "NY", "zip": "10536-3032", "ntee": "E86", "ruling": "201505", "deductibility": "1", "assets": 0, "income": 0, "revenue": 0}, {"ein": "510630322", "name": "SONG OF SONGS WORSHIP MINISTRY INC", "city": "NEW YORK", "state": "NY", "zip": "10033-6607", "ntee": "X20", "ruling": "201411", "deductibility": "1", "assets": 0, "income": 0, "revenue": 0}, {"ein": "841823151", "name": "NEW YORK SONG OF SONGS PUBLICATIONS INC", "city": "ISLAND PARK", "state": "NY", "zip": "11558-1106", "ntee": "X83", "ruling": "202001", "deductibility": "1", "assets": 15344, "income": 16948, "revenue": 16948}, {"ein": "862761755", "name": "SONG OF SONGS CHURCH", "city": "SYOSSET", "state": "NY", "zip": "11791-6717", "ntee": "X21", "ruling": "202203", "deductibility": "1", "assets": 0, "income": 0, "revenue": 0}], "OUTRECH": [{"ein": "113314510", "name": "FAITH OUTRECH REVIVAL CENTER", "city": "JAMAICA", "state": "NY", "zip": "11436-1108", "ntee": "T22", "ruling": "201612", "deductibility": "1", "assets": 0, "income": 0, "revenue": 0}, {"ein": "300518916", "name": "FAYETTEVILLE-MANLIUS COMMUNITY OUTRECH INC", "city": "MANLIUS", "state": "NY", "zip": "13104-0626", "ntee": "K31", "ruling": "200906", "deductibility": "1", "assets": 291679, "income": 62582, "revenue": 62582}], "YATOM": [{"ein": "113346367", "name": "ALMANAH V YATOM YE ODED", "city": "MONSEY", "state": "NY", "zip": "10952-2501", "ntee": "X30Z", "ruling": "199707", "deductibility": "1", "assets": 0, "income": 0, "revenue": 0}], "JETS": [{"ein": "113401835", "name": "ROSEDALE JETS FOOTBALL ASSOCIATION", "city": "ROSEDALE", "state": "NY", "zip": "11422-1033", "ntee": "N65", "ruling": "200503", "deductibility": "1", "assets": 1082, "income": 198066, "revenue": 198066}, {"ein": "203556368", "name": "JETS OF HARLEM INC", "city": "NEW YORK", "state": "NY", "zip": "10027-5329", "ntee": "N65", "ruling": "201204", "deductibility": "1", "assets": 127836, "income": 385490, "revenue": 368930}, {"ein": "465600229", "name": "WESTCHESTER JETS YOUTH SPORTS ORGAN IZATION INC", "city": "MOUNT VERNON", "state": "NY", "zip": "10550-1606", "ntee": "N70", "ruling": "201409", "deductibility": "1", "assets": 0, "income": 0, "revenue": 0}, {"ein": "510157901", "name": "LIVERPOOL JETS SWIM CLUB INC", "city": "LIVERPOOL", "state": "NY", "zip": "13089-2130", "ntee": "N67", "ruling": "200906", "deductibility": "1", "assets": 3974, "income": 126667, "revenue": 117294}, {"ein": "844193131", "name": "JETS REHAB RESCUE INC", "city": "LE ROY", "state": "NY", "zip": "14482-8930", "ntee": "D20", "ruling": "202003", "deductibility": "1", "assets": 0, "income": 0, "revenue": 0}], "BEIJING": [{"ein": "113414764", "name": "BEIJING CHINESE SCHOOL INC", "city": "BAYSIDE", "state": "NY", "zip": "11361-2632", "ntee": "B99", "ruling": "199907", "deductibility": "1", "assets": 45488, "income": 38910, "revenue": 38910}, {"ein": "202802590", "name": "AMERICAN FRIENDS OF THE JEWISH COMMUNITY OF BEIJING INC", "city": "MONSEY", "state": "NY", "zip": "10952-2828", "ntee": "Q123", "ruling": "200812", "deductibility": "1", "assets": 38190, "income": 856218, "revenue": 856218}, {"ein": "203341962", "name": "BEIJING ASSOCIATION OF NEW YORK INC", "city": "FLUSHING", "state": "NY", "zip": "11358-1821", "ntee": "", "ruling": "201106", "deductibility": "2", "assets": 0, "income": 153870, "revenue": 153870}, {"ein": "813618029", "name": "AMERICA BEIJING CHAMBER OF COMMERCE INC", "city": "FLUSHING", "state": "NY", "zip": "11354-5418", "ntee": "S41", "ruling": "201903", "deductibility": "2", "assets": 6243, "income": 0, "revenue": 0}], "SWAHA": [{"ein": "113436000", "name": "SWAHA INC", "city": "RICHMOND HILL", "state": "NY", "zip": "11419-2707", "ntee": "X21Z", "ruling": "199812", "deductibility": "1", "assets": 0, "income": 0, "revenue": 0}], "HEAR": [{"ein": "113503085", "name": "SHEMA KOLAINU-HEAR OUR VOICES", "city": "BROOKLYN", "state": "NY", "zip": "11219-1831", "ntee": "B28", "ruling": "199911", "deductibility": "1", "assets": 16114862, "income": 14904533, "revenue": 14904533}, {"ein": "133459846", "name": "LET MY CHILDREN HEAR MUSIC INC", "city": "NEW YORK", "state": "NY", "zip": "10007-0000", "ntee": "", "ruling": "198806", "deductibility": "0", "assets": 161940, "income": 158269, "revenue": 158269}, {"ein": "200878279", "name": "HELP AMERICA HEAR INC", "city": "MASSAPEQUA", "state": "NY", "zip": "11758-7630", "ntee": "G40", "ruling": "200406", "deductibility": "1", "assets": 95528, "income": 458263, "revenue": 285633}, {"ein": "844099535", "name": "DO YOU HEAR THE CHILDREN SING INC", "city": "HOLTSVILLE", "state": "NY", "zip": "11742-1133", "ntee": "A25", "ruling": "202201", "deductibility": "1", "assets": 1188, "income": 4022, "revenue": 4022}, {"ein": "853483842", "name": "HEAR YOUR SONG INC", "city": "NEW YORK", "state": "NY", "zip": "10022-3625", "ntee": "E86", "ruling": "202104", "deductibility": "1", "assets": 158387, "income": 193032, "revenue": 193032}, {"ein": "884081823", "name": "PROJECT HEAR", "city": "KEW GARDENS", "state": "NY", "zip": "11415-3205", "ntee": "Q71", "ruling": "202209", "deductibility": "1", "assets": 0, "income": 0, "revenue": 0}, {"ein": "920934429", "name": "HEARTS THAT HEAR INC", "city": "STONY CREEK", "state": "NY", "zip": "12878-1668", "ntee": "O50", "ruling": "202212", "deductibility": "1", "assets": 0, "income": 0, "revenue": 0}, {"ein": "923746980", "name": "WE HEAR YOU", "city": "DIX HILLS", "state": "NY", "zip": "11746-7804", "ntee": "P87", "ruling": "202306", "deductibility": "1", "assets": 0, "income": 0, "revenue": 0}, {"ein": "991291655", "name": "HEAR TODAY GONE TOMORROW HAMMERS GOLF SCHOLARSHIP INC", "city": "CORINTH", "state": "NY", "zip": "12822-2656", "ntee": "N12", "ruling": "202402", "deductibility": "1", "assets": 0, "income": 0, "revenue": 0}], "VMOSHE": [{"ein": "113518185", "name": "CONGREGATION ZICHRON YITZCHOK VMOSHE ELIYAHU", "city": "BROOKLYN", "state": "NY", "zip": "11204-2304", "ntee": "X30", "ruling": "200001", "deductibility": "1", "assets": 0, "income": 0, "revenue": 0}], "FOCUSING": [{"ein": "113676963", "name": "FOCUSING OUR RESOURCES FOR COMMUNITY ENLIGHTENMENT INC", "city": "SYRACUSE", "state": "NY", "zip": "13205-0317", "ntee": "S20", "ruling": "200710", "deductibility": "1", "assets": 0, "income": 0, "revenue": 0}, {"ein": "363425089", "name": "THE INTERNATIONAL FOCUSING INSTITUTE INC", "city": "NYACK", "state": "NY", "zip": "10960-3015", "ntee": "", "ruling": "198702", "deductibility": "1", "assets": 378828, "income": 597062, "revenue": 597062}], "HARTFORD": [{"ein": "131667057", "name": "JOHN A HARTFORD FOUNDATION", "city": "NEW YORK", "state": "NY", "zip": "10022-1713", "ntee": "T21", "ruling": "193611", "deductibility": "1", "assets": 675031343, "income": 138796989, "revenue": 0}, {"ein": "141638980", "name": "HARTFORD VOLUNTEER FIRE CO INC", "city": "HARTFORD", "state": "NY", "zip": "12838-0121", "ntee": "M24", "ruling": "200408", "deductibility": "1", "assets": 1054466, "income": 273090, "revenue": 273090}, {"ein": "161061410", "name": "NEW HARTFORD FIREMENS BENEVOLENT ASSOCIATION INC", "city": "NEW HARTFORD", "state": "NY", "zip": "13413-0328", "ntee": "M24", "ruling": "202212", "deductibility": "1", "assets": 598647, "income": 197395, "revenue": 144967}, {"ein": "161114514", "name": "NEW HARTFORD MARCHING BAND PARENTS INC NEW HARTFORD CENTRAL H S", "city": "NEW HARTFORD", "state": "NY", "zip": "13413-2637", "ntee": "", "ruling": "198512", "deductibility": "1", "assets": 112012, "income": 282045, "revenue": 262403}, {"ein": "161444189", "name": "NEW HARTFORD CENTRAL SCHOOL DISTRICT FOUNDATION", "city": "NEW HARTFORD", "state": "NY", "zip": "13413-0101", "ntee": "T50Z", "ruling": "199403", "deductibility": "1", "assets": 0, "income": 0, "revenue": 0}, {"ein": "203974134", "name": "HARTFORD FACULTY ASSOCIATION", "city": "HARTFORD", "state": "NY", "zip": "12838-0000", "ntee": "J40", "ruling": "201204", "deductibility": "2", "assets": 0, "income": 0, "revenue": 0}, {"ein": "222141661", "name": "NEW HARTFORD PUBLIC LIBRARY", "city": "NEW HARTFORD", "state": "NY", "zip": "13413-2815", "ntee": "", "ruling": "197703", "deductibility": "1", "assets": 1926977, "income": 388878, "revenue": 388878}, {"ein": "222389673", "name": "NEW HARTFORD HISTORICAL SOCIETY", "city": "NEW HARTFORD", "state": "NY", "zip": "13413-0238", "ntee": "", "ruling": "198206", "deductibility": "0", "assets": 0, "income": 0, "revenue": 0}, {"ein": "222508205", "name": "LIONS CLUB OF NEW HARTFORD NEW YORK MILLS WHITESTOWN", "city": "UTICA", "state": "NY", "zip": "13502-3622", "ntee": "W12", "ruling": "202308", "deductibility": "2", "assets": 0, "income": 0, "revenue": 0}, {"ein": "222593056", "name": "HARTFORD HISTORICAL GROUP", "city": "HARTFORD", "state": "NY", "zip": "12838-0203", "ntee": "A80", "ruling": "200309", "deductibility": "1", "assets": 0, "income": 0, "revenue": 0}, {"ein": "222811481", "name": "I HAVE A DREAM FOUNDATION OF HARTFORD INC", "city": "NEW YORK", "state": "NY", "zip": "10003-5944", "ntee": "T23", "ruling": "198707", "deductibility": "1", "assets": 15038, "income": 25010, "revenue": 0}, {"ein": "223043401", "name": "FIRST BAPTIST CHURCH OF HARTFORD", "city": "HARTFORD", "state": "NY", "zip": "12838-0000", "ntee": "", "ruling": "195504", "deductibility": "1", "assets": 0, "income": 0, "revenue": 0}, {"ein": "226601968", "name": "NEW HARTFORD TEACHERS ASSOCIATION BENEFIT TR", "city": "NEW HARTFORD", "state": "NY", "zip": "13413-2637", "ntee": "Y44", "ruling": "199902", "deductibility": "2", "assets": 7523, "income": 61575, "revenue": 61575}, {"ein": "463968610", "name": "NEW HARTFORD WRESTLING CLUB", "city": "SAUQUOIT", "state": "NY", "zip": "13456-3223", "ntee": "N60", "ruling": "201504", "deductibility": "1", "assets": 0, "income": 0, "revenue": 0}, {"ein": "471102186", "name": "NEW HARTFORD CITIZENS BAND", "city": "MOHAWK", "state": "NY", "zip": "13407-0192", "ntee": "A6C", "ruling": "201408", "deductibility": "1", "assets": 0, "income": 0, "revenue": 0}, {"ein": "800163258", "name": "FRIENDS OF THE NEW HARTFORD PUBLIC LIBRARY", "city": "NEW HARTFORD", "state": "NY", "zip": "13413-2815", "ntee": "B90", "ruling": "201102", "deductibility": "1", "assets": 0, "income": 0, "revenue": 0}, {"ein": "831738687", "name": "NEW HARTFORD YOUTH HOCKEY", "city": "NEW HARTFORD", "state": "NY", "zip": "13413-0082", "ntee": "N70", "ruling": "201908", "deductibility": "1", "assets": 217368, "income": 246225, "revenue": 219283}, {"ein": "842015809", "name": "NEW HARTFORD GIRLS LACROSSE ASSOCIATION", "city": "NEW HARTFORD", "state": "NY", "zip": "13413-5714", "ntee": "N60", "ruling": "201906", "deductibility": "1", "assets": 0, "income": 0, "revenue": 0}], "URSULA": [{"ein": "131740430", "name": "ACADEMY OF MOUNT SAINT URSULA", "city": "BRONX", "state": "NY", "zip": "10458-2402", "ntee": "", "ruling": "194603", "deductibility": "1", "assets": 0, "income": 0, "revenue": 0}, {"ein": "132811433", "name": "MOUNT ST URSULA SPEECH CENTER INC", "city": "BRONX", "state": "NY", "zip": "10458-3012", "ntee": "", "ruling": "194601", "deductibility": "2", "assets": 0, "income": 0, "revenue": 0}, {"ein": "812700006", "name": "ROMAN CATHOLIC CHURCH OF SAINTS PETER AND PAUL AND SAINT URSULA", "city": "MOUNT VERNON", "state": "NY", "zip": "10552-1919", "ntee": "", "ruling": "194603", "deductibility": "1", "assets": 0, "income": 0, "revenue": 0}], "UNICEF": [{"ein": "131760110", "name": "UNITED STATES FUND FOR UNICEF", "city": "NEW YORK", "state": "NY", "zip": "10038-4912", "ntee": "Q420", "ruling": "194908", "deductibility": "1", "assets": 275185035, "income": 744726336, "revenue": 720404955}, {"ein": "203287404", "name": "UNICEF USA IMPACT FUND FOR CHILDREN INC", "city": "NEW YORK", "state": "NY", "zip": "10038-4713", "ntee": "T11", "ruling": "200511", "deductibility": "1", "assets": 68913451, "income": 20164231, "revenue": 20164231}], "VALERIA": [{"ein": "131773646", "name": "JACOB & VALERIA LANGELOTH FOUNDATION", "city": "NEW YORK", "state": "NY", "zip": "10016-1137", "ntee": "", "ruling": "197509", "deductibility": "1", "assets": 47384851, "income": 34554398, "revenue": 0}, {"ein": "237763256", "name": "VALERIA E HOFFERT SCHOLARSHIP TRUST", "city": "BUFFALO", "state": "NY", "zip": "14240-1504", "ntee": "", "ruling": "199405", "deductibility": "1", "assets": 947874, "income": 297204, "revenue": 0}], "SKL": [{"ein": "131968055", "name": "INTERNATIONAL UNION OF OPRTNG ENGNR LOC137 137A B&C APPR & SKL IMP FND", "city": "BRIARCLIFF", "state": "NY", "zip": "10510-1620", "ntee": "", "ruling": "196309", "deductibility": "1", "assets": 3274440, "income": 2213578, "revenue": 1134829}], "ISIS": [{"ein": "132872724", "name": "DAUGHTERS OF ISIS OF NORTH & SOUTH AMERICA", "city": "OSSINING", "state": "NY", "zip": "10562-4608", "ntee": "", "ruling": "195002", "deductibility": "1", "assets": 0, "income": 0, "revenue": 0}, {"ein": "237532272", "name": "DAUGHTERS OF ISIS OF NORTH & SOUTH AMERICA", "city": "NEW YORK", "state": "NY", "zip": "10032-6303", "ntee": "", "ruling": "202203", "deductibility": "1", "assets": 0, "income": 0, "revenue": 0}, {"ein": "237532273", "name": "DAUGHTERS OF ISIS OF NORTH & SOUTH AMERICA", "city": "SCHENECTADY", "state": "NY", "zip": "12309-6216", "ntee": "", "ruling": "197209", "deductibility": "1", "assets": 0, "income": 0, "revenue": 0}, {"ein": "237532274", "name": "HADJI COURT NO 62 OF THE DAUGHTERS OF ISIS", "city": "BUFFALO", "state": "NY", "zip": "14208-2015", "ntee": "R40", "ruling": "202105", "deductibility": "1", "assets": 0, "income": 0, "revenue": 0}, {"ein": "237532275", "name": "DAUGHTERS OF ISIS OF NORTH & SOUTH AMERICA", "city": "BROOKLYN", "state": "NY", "zip": "11234-2356", "ntee": "", "ruling": "197209", "deductibility": "1", "assets": 0, "income": 0, "revenue": 0}, {"ein": "300941665", "name": "DAUGHTERS OF ISIS OF NORTH & SOUTH AMERICA", "city": "VALLEY STREAM", "state": "NY", "zip": "11581-2434", "ntee": "", "ruling": "195002", "deductibility": "1", "assets": 0, "income": 0, "revenue": 0}], "STEAMFITTER": [{"ein": "132911908", "name": "WESTCHESTER & PUTNAM COUNTIES STEAMFITTER INDUSTRY PROMOTION FUN", "city": "BRIARCLIFF MANOR", "state": "NY", "zip": "10510-1051", "ntee": "S41", "ruling": "199104", "deductibility": "2", "assets": 1200145, "income": 437122, "revenue": 437122}, {"ein": "156016577", "name": "PLUMBERS & STEAMFITTER LOCAL 73", "city": "SYRACUSE", "state": "NY", "zip": "13206-1205", "ntee": "", "ruling": "000000", "deductibility": "0", "assets": 0, "income": 0, "revenue": 0}], "MATZ": [{"ein": "133023003", "name": "ISRAEL MATZ HEBREW CLASSICS LTD", "city": "NEW YORK", "state": "NY", "zip": "10012-1141", "ntee": "", "ruling": "198112", "deductibility": "1", "assets": 0, "income": 0, "revenue": 0}, {"ein": "136121533", "name": "ISRAEL MATZ FOUNDATION", "city": "NEW YORK", "state": "NY", "zip": "10012-1141", "ntee": "", "ruling": "194212", "deductibility": "1", "assets": 578266, "income": 267796, "revenue": 0}], "STATESINC": [{"ein": "133039163", "name": "COUNCIL OF MASAJID OF UNITED STATESINC", "city": "NEW YORK", "state": "NY", "zip": "10017-4504", "ntee": "", "ruling": "198108", "deductibility": "1", "assets": 0, "income": 0, "revenue": 0}], "GOTTESMAN": [{"ein": "133047546", "name": "THE CENTRAL NATIONAL-GOTTESMAN FOUNDATION", "city": "PURCHASE", "state": "NY", "zip": "10577-0000", "ntee": "T20", "ruling": "198102", "deductibility": "1", "assets": 49481816, "income": 28203700, "revenue": 0}, {"ein": "137042162", "name": "GOTTESMAN FAMILY FOUNDATION", "city": "NEW YORK", "state": "NY", "zip": "10025-5349", "ntee": "T20", "ruling": "201402", "deductibility": "1", "assets": 330423, "income": 670, "revenue": 0}], "ORTENBERG": [{"ein": "133200329", "name": "LIZ CLAIBORNE & ART ORTENBERG FOUNDATION", "city": "NEW YORK", "state": "NY", "zip": "10018-6013", "ntee": "", "ruling": "198508", "deductibility": "1", "assets": 209903621, "income": 294049549, "revenue": 0}], "INTERSCHOOL": [{"ein": "133218842", "name": "NEW YORK INTERSCHOOL ASSOCIATION INC", "city": "NEW YORK", "state": "NY", "zip": "10069-0927", "ntee": "", "ruling": "198501", "deductibility": "1", "assets": 554137, "income": 745738, "revenue": 745738}], "TADA": [{"ein": "133311294", "name": "TADA THEATRE AND DANCE ALLIANCE INC", "city": "NEW YORK", "state": "NY", "zip": "10001-6410", "ntee": "A6E0", "ruling": "198512", "deductibility": "1", "assets": 717571, "income": 1991188, "revenue": 1991188}], "NLEA": [{"ein": "133435837", "name": "NLEA INC", "city": "NEW YORK", "state": "NY", "zip": "10008-3399", "ntee": "", "ruling": "200708", "deductibility": "1", "assets": 57921, "income": 219098, "revenue": 219098}], "REMEMBERANCE": [{"ein": "133446048", "name": "MOSAD OF RECOGNITION AND REMEMBERANCE", "city": "MONSEY", "state": "NY", "zip": "10952-3631", "ntee": "", "ruling": "198802", "deductibility": "1", "assets": 0, "income": 0, "revenue": 0}], "NINAN": [{"ein": "133500050", "name": "ST GREGORIOS ORTHODOX CHURCH C/O REV FR NINAN T EASO", "city": "BRONX", "state": "NY", "zip": "10458-2285", "ntee": "X23Z", "ruling": "199712", "deductibility": "1", "assets": 0, "income": 0, "revenue": 0}, {"ein": "475208175", "name": "BISHOP GEORGE NINAN MEMORIAL MISSION", "city": "SPRING VALLEY", "state": "NY", "zip": "10977-3701", "ntee": "P20", "ruling": "201606", "deductibility": "1", "assets": 0, "income": 0, "revenue": 0}], "SUR": [{"ein": "133551270", "name": "SUR SANGAM INC", "city": "FOREST HILLS", "state": "NY", "zip": "11375-1431", "ntee": "Z99", "ruling": "202203", "deductibility": "1", "assets": 0, "income": 0, "revenue": 0}, {"ein": "133911083", "name": "IGLESIA DE CRISTO EN LAS ANTILLAS PRIMERA RAMA DEL SUR BRONX INC", "city": "BRONX", "state": "NY", "zip": "10453-1804", "ntee": "X20Z", "ruling": "199609", "deductibility": "1", "assets": 0, "income": 0, "revenue": 0}, {"ein": "271057685", "name": "LA FINCA DEL SUR SOUTH BRONX FARMERS INC", "city": "BRONX", "state": "NY", "zip": "10463-4567", "ntee": "K20", "ruling": "201901", "deductibility": "1", "assets": 0, "income": 0, "revenue": 0}, {"ein": "332547998", "name": "CAPPELLA SUR FOUNDATION FOR THE ARTS INC", "city": "ALBANY", "state": "NY", "zip": "12207-2834", "ntee": "P12", "ruling": "202501", "deductibility": "1", "assets": 0, "income": 0, "revenue": 0}, {"ein": "845118949", "name": "SUR PLUS FOR HUMANITY INC", "city": "BROOKLYN", "state": "NY", "zip": "11236-3933", "ntee": "P19", "ruling": "202004", "deductibility": "1", "assets": 0, "income": 0, "revenue": 0}], "CRAWFORD": [{"ein": "133552064", "name": "CRAWFORD FOUNDATION INC", "city": "NEW ROCHELLE", "state": "NY", "zip": "10804-4501", "ntee": "", "ruling": "199003", "deductibility": "1", "assets": 173658, "income": 772262, "revenue": 772262}, {"ein": "133986833", "name": "FRIENDS OF CRAWFORD PARK INC", "city": "RYE BROOK", "state": "NY", "zip": "10573-2822", "ntee": "N11", "ruling": "201305", "deductibility": "1", "assets": 0, "income": 0, "revenue": 0}, {"ein": "137190672", "name": "CRAWFORD-DOYLE CHARITABLE FOUNDATION", "city": "NEW YORK", "state": "NY", "zip": "10128-0000", "ntee": "T22", "ruling": "199907", "deductibility": "1", "assets": 252852, "income": 146345, "revenue": 0}, {"ein": "141758390", "name": "TOWN OF CRAWFORD HISTORICAL SOCIETY", "city": "PINE BUSH", "state": "NY", "zip": "12566-7129", "ntee": "A80", "ruling": "199503", "deductibility": "1", "assets": 0, "income": 0, "revenue": 0}, {"ein": "141946861", "name": "FRIENDS OF THE TOWN OF CRAWFORD FREE LIBRARY", "city": "PINE BUSH", "state": "NY", "zip": "12566-0063", "ntee": "B117", "ruling": "200702", "deductibility": "1", "assets": 0, "income": 0, "revenue": 0}, {"ein": "160743055", "name": "WINIFRED CRAWFORD DIBERT BOYS AND GIRLS CLUB OF JAMESTOWN INC", "city": "JAMESTOWN", "state": "NY", "zip": "14701-0000", "ntee": "", "ruling": "195003", "deductibility": "1", "assets": 2718586, "income": 1192365, "revenue": 966330}, {"ein": "274588915", "name": "TOWN OF CRAWFORD POLICE BENEVOLENT ASSOCIATION INC", "city": "THOMPSON RDG", "state": "NY", "zip": "10985-0120", "ntee": "J40", "ruling": "201103", "deductibility": "2", "assets": 26596, "income": 88809, "revenue": 63576}, {"ein": "471267437", "name": "ADACC CRAWFORD FOUNDATION INC", "city": "CHEEKTOWAGA", "state": "NY", "zip": "14215-1935", "ntee": "P40", "ruling": "202101", "deductibility": "1", "assets": 0, "income": 0, "revenue": 0}, {"ein": "900598919", "name": "FRIENDS OF ETHELBERT B CRAWFORD PUBLIC LIBRARY INC", "city": "MONTICELLO", "state": "NY", "zip": "12701-3080", "ntee": "B117", "ruling": "201209", "deductibility": "1", "assets": 0, "income": 0, "revenue": 0}], "READ": [{"ein": "133575549", "name": "FRIENDS OF READ WILDLIFE SANCTUARY INC", "city": "RYE", "state": "NY", "zip": "10580-0548", "ntee": "D30Z", "ruling": "199501", "deductibility": "1", "assets": 354732, "income": 92185, "revenue": 92185}, {"ein": "133636559", "name": "READ AHEAD INC", "city": "NEW YORK", "state": "NY", "zip": "10004-2966", "ntee": "T99Z", "ruling": "199112", "deductibility": "1", "assets": 2072773, "income": 2122246, "revenue": 1915316}, {"ein": "134080045", "name": "REACH OUT AND READ OF GREATER NEW YORK INC", "city": "NEW YORK", "state": "NY", "zip": "10024-3412", "ntee": "B92", "ruling": "200002", "deductibility": "1", "assets": 1403841, "income": 1714863, "revenue": 1592431}, {"ein": "134091062", "name": "READ ALLIANCE INC", "city": "NEW YORK", "state": "NY", "zip": "10038-0000", "ntee": "B920", "ruling": "200003", "deductibility": "1", "assets": 4960211, "income": 5181012, "revenue": 5005986}, {"ein": "161452956", "name": "PROJECT READ", "city": "CASTILE", "state": "NY", "zip": "14427-9612", "ntee": "", "ruling": "199408", "deductibility": "1", "assets": 0, "income": 0, "revenue": 0}, {"ein": "226053510", "name": "CHARLES L READ FOUNDATION", "city": "BAYSHORE", "state": "NY", "zip": "11706-7122", "ntee": "", "ruling": "195611", "deductibility": "1", "assets": 3931643, "income": 1520507, "revenue": 0}, {"ein": "263606661", "name": "READ TO SUCCEED BUFFALO INC", "city": "BUFFALO", "state": "NY", "zip": "14202-2210", "ntee": "B92", "ruling": "200902", "deductibility": "1", "assets": 1055464, "income": 1028709, "revenue": 1028709}, {"ein": "464080472", "name": "READ 718", "city": "BROOKLYN", "state": "NY", "zip": "11217-1704", "ntee": "B99", "ruling": "201406", "deductibility": "1", "assets": 905321, "income": 923676, "revenue": 912681}, {"ein": "821513866", "name": "RIGHT 2 READ", "city": "DIX HILLS", "state": "NY", "zip": "11746-6233", "ntee": "R01", "ruling": "202209", "deductibility": "1", "assets": 8444, "income": 8000, "revenue": 0}, {"ein": "821522628", "name": "LET GIRLS READ RUN GROW", "city": "NEW YORK", "state": "NY", "zip": "10030-3361", "ntee": "B90", "ruling": "201705", "deductibility": "1", "assets": 35334, "income": 48809, "revenue": 48809}, {"ein": "822044437", "name": "READ 650", "city": "WALLKILL", "state": "NY", "zip": "12589-3272", "ntee": "A99", "ruling": "201707", "deductibility": "1", "assets": 0, "income": 0, "revenue": 0}, {"ein": "822398792", "name": "READ 2 LEAD AFGHANISTAN CORP", "city": "HAUPPAUGE", "state": "NY", "zip": "11788-0718", "ntee": "S20", "ruling": "202103", "deductibility": "1", "assets": 2609, "income": 74343, "revenue": 74343}, {"ein": "822472593", "name": "MASONS READ TO SENIORS INC", "city": "NEW YORK", "state": "NY", "zip": "10034-1807", "ntee": "B01", "ruling": "202102", "deductibility": "1", "assets": 0, "income": 0, "revenue": 0}, {"ein": "823261834", "name": "TEACH MY KID TO READ INC", "city": "ALBANY", "state": "NY", "zip": "12208-0314", "ntee": "P82", "ruling": "201806", "deductibility": "1", "assets": 17751, "income": 74690, "revenue": 73478}, {"ein": "834694226", "name": "READ IT AND LEAVE IT INC", "city": "NEW YORK", "state": "NY", "zip": "10026-1955", "ntee": "B92", "ruling": "201908", "deductibility": "1", "assets": 0, "income": 0, "revenue": 0}, {"ein": "861219122", "name": "READ LEARN GROW INC", "city": "CORONA", "state": "NY", "zip": "11368-3430", "ntee": "P40", "ruling": "202106", "deductibility": "1", "assets": 0, "income": 0, "revenue": 0}, {"ein": "863153498", "name": "WELL READ SISTAS INC", "city": "BRONX", "state": "NY", "zip": "10460-3735", "ntee": "A60", "ruling": "202202", "deductibility": "1", "assets": 0, "income": 0, "revenue": 0}, {"ein": "863193017", "name": "READ NATION INC", "city": "FRESH MEADOWS", "state": "NY", "zip": "11365-3535", "ntee": "O50", "ruling": "202108", "deductibility": "1", "assets": 0, "income": 0, "revenue": 0}, {"ein": "872533877", "name": "DRIVE TO READ INC", "city": "ROCHESTER", "state": "NY", "zip": "14619-1626", "ntee": "S20", "ruling": "202201", "deductibility": "1", "assets": 0, "income": 0, "revenue": 0}, {"ein": "882551513", "name": "READ-ME ORG INC", "city": "ALBANY", "state": "NY", "zip": "12203-9722", "ntee": "A30", "ruling": "202206", "deductibility": "1", "assets": 0, "income": 0, "revenue": 0}, {"ein": "934836756", "name": "READ AND GIVE PROJECT", "city": "LINDENHURST", "state": "NY", "zip": "11757-3731", "ntee": "B92", "ruling": "202501", "deductibility": "1", "assets": 0, "income": 0, "revenue": 0}, {"ein": "990714623", "name": "READ CENTER - RESTORATION - EMPOWERMENT AND DEVELOPMENT CENTER", "city": "ELMSFORD", "state": "NY", "zip": "10523-3117", "ntee": "S20", "ruling": "202410", "deductibility": "1", "assets": 0, "income": 0, "revenue": 0}, {"ein": "991984263", "name": "LET S READ BIBLE STUDY COMMUNITY CORP", "city": "NEW YORK", "state": "NY", "zip": "10003-1502", "ntee": "X20", "ruling": "202404", "deductibility": "1", "assets": 0, "income": 0, "revenue": 0}], "COUCH": [{"ein": "133666088", "name": "JIM COUCH FOUNDATION INC", "city": "NEW YORK", "state": "NY", "zip": "10034-1804", "ntee": "", "ruling": "199208", "deductibility": "1", "assets": 0, "income": 0, "revenue": 0}, {"ein": "852718070", "name": "THE COUCH ON WHEELS FOUNDATION INC", "city": "LONG BEACH", "state": "NY", "zip": "11561-3303", "ntee": "", "ruling": "202010", "deductibility": "1", "assets": 0, "income": 0, "revenue": 0}], "PROFESIONALES": [{"ein": "133741942", "name": "ASOCIACION HISPANA DE PROFESIONALES DE LA SALUD INC", "city": "WOODHAVEN", "state": "NY", "zip": "11421-2720", "ntee": "P20", "ruling": "202402", "deductibility": "1", "assets": 0, "income": 0, "revenue": 0}, {"ein": "884142418", "name": "ASOCIACION DE PROFESIONALES EN BELLEZA NACIONAL E INTERNACIONAL I", "city": "YONKERS", "state": "NY", "zip": "10701-4878", "ntee": "W03", "ruling": "202402", "deductibility": "1", "assets": 0, "income": 0, "revenue": 0}], "SPENCER": [{"ein": "133799186", "name": "W L S SPENCER FOUNDATION", "city": "NEW YORK", "state": "NY", "zip": "10022-3319", "ntee": "T22Z", "ruling": "199501", "deductibility": "1", "assets": 9185734, "income": 3529299, "revenue": 0}, {"ein": "136855911", "name": "SPENCER CHARITABLE FUND", "city": "LARCHMONT", "state": "NY", "zip": "10538-0197", "ntee": "", "ruling": "198606", "deductibility": "1", "assets": 429604, "income": 119575, "revenue": 0}, {"ein": "150595649", "name": "SPENCER LIBRARY ASSOCIATION", "city": "SPENCER", "state": "NY", "zip": "14883-9100", "ntee": "", "ruling": "199204", "deductibility": "1", "assets": 0, "income": 0, "revenue": 0}, {"ein": "161063263", "name": "SPENCER EMERGENCY FIRST AID SQUAD INC", "city": "SPENCER", "state": "NY", "zip": "14883-9548", "ntee": "", "ruling": "198106", "deductibility": "2", "assets": 259061, "income": 107761, "revenue": 107761}, {"ein": "161445705", "name": "SPENCER-VAN ETTEN YOUTH ASSOCIATION INC", "city": "SPENCER", "state": "NY", "zip": "14883-0162", "ntee": "O20Z", "ruling": "199408", "deductibility": "1", "assets": 59350, "income": 73563, "revenue": 73563}, {"ein": "222487370", "name": "SPENCER FEDERATED CHURCH", "city": "SPENCER", "state": "NY", "zip": "14883-0321", "ntee": "X21", "ruling": "200707", "deductibility": "1", "assets": 0, "income": 0, "revenue": 0}, {"ein": "223066517", "name": "SPENCER HISTORICAL SOCIETY", "city": "SPENCER", "state": "NY", "zip": "14883-0646", "ntee": "A50", "ruling": "201909", "deductibility": "1", "assets": 0, "income": 0, "revenue": 0}, {"ein": "223067944", "name": "PETER SPENCER UAME CHURCH", "city": "UTICA", "state": "NY", "zip": "13501-3144", "ntee": "X21", "ruling": "200110", "deductibility": "1", "assets": 0, "income": 0, "revenue": 0}, {"ein": "261344457", "name": "SPENCER CHAMBER OF COMMERCE INC", "city": "SPENCER", "state": "NY", "zip": "14883-0158", "ntee": "S41", "ruling": "200812", "deductibility": "2", "assets": 0, "income": 0, "revenue": 0}, {"ein": "366756150", "name": "J SPENCER & CHRISTINE L STANDISH CHARITABLE TRUST UA 07 08 82", "city": "LOUDONVILLE", "state": "NY", "zip": "12211-1423", "ntee": "", "ruling": "000000", "deductibility": "0", "assets": 0, "income": 0, "revenue": 0}, {"ein": "452282009", "name": "SPENCER REID FOUNDATION INC", "city": "JERICHO", "state": "NY", "zip": "11753-2106", "ntee": "G19", "ruling": "201111", "deductibility": "1", "assets": 85251, "income": 58024, "revenue": 58024}, {"ein": "452968723", "name": "J WYATT SPENCER MEMORIAL SCHOLARSHIP FUND", "city": "SLINGERLANDS", "state": "NY", "zip": "12159-3629", "ntee": "H12", "ruling": "201204", "deductibility": "1", "assets": 0, "income": 0, "revenue": 0}, {"ein": "581420617", "name": "SPENCER EDUCATIONAL FOUNDATION INC", "city": "NEW YORK", "state": "NY", "zip": "10087-3613", "ntee": "B82Z", "ruling": "198105", "deductibility": "1", "assets": 9493138, "income": 15731031, "revenue": 2484287}, {"ein": "611746994", "name": "SPENCER VAN ETTEN ALUMNI ASSOCIATION INC", "city": "SPENCER", "state": "NY", "zip": "14883-0216", "ntee": "B84", "ruling": "201506", "deductibility": "1", "assets": 0, "income": 0, "revenue": 0}, {"ein": "812409612", "name": "SPENCER FOUNDATION INC", "city": "HUNTINGTON", "state": "NY", "zip": "11743-1926", "ntee": "T90", "ruling": "201703", "deductibility": "1", "assets": 19362, "income": 15316, "revenue": 0}, {"ein": "820987151", "name": "SPENCER FIRE COMPANY", "city": "SPENCER", "state": "NY", "zip": "14883-0507", "ntee": "M24", "ruling": "202205", "deductibility": "1", "assets": 81737, "income": 31524, "revenue": 23920}, {"ein": "843254473", "name": "SPENCER-DAVID FOUNDATION INC", "city": "FAYETTEVILLE", "state": "NY", "zip": "13066-9727", "ntee": "T20", "ruling": "202002", "deductibility": "1", "assets": 373265, "income": 300059, "revenue": 0}, {"ein": "844374324", "name": "SPENCER ESTATE CIVIC ASSOCIATION INC", "city": "BRONX", "state": "NY", "zip": "10465-1016", "ntee": "S20", "ruling": "202004", "deductibility": "1", "assets": 0, "income": 0, "revenue": 0}, {"ein": "884166865", "name": "M SPENCER FOUNDATION INC", "city": "NEW YORK", "state": "NY", "zip": "10010-5030", "ntee": "P20", "ruling": "202211", "deductibility": "1", "assets": 12819, "income": 25780, "revenue": 0}], "KANOVITZ": [{"ein": "133859430", "name": "HOWARD KANOVITZ FOUNDATION INC", "city": "SAG HARBOR", "state": "NY", "zip": "11963-3928", "ntee": "T99J", "ruling": "199601", "deductibility": "1", "assets": 1203200, "income": 1, "revenue": 0}], "DIVRI": [{"ein": "133963612", "name": "CONG DIVRI EMUNA INC", "city": "MONSEY", "state": "NY", "zip": "10952-0826", "ntee": "X30Z", "ruling": "199801", "deductibility": "1", "assets": 0, "income": 0, "revenue": 0}], "DOMINO": [{"ein": "134084439", "name": "JANA DOMINO THOROUGHBRED FOUNDATION INC", "city": "GANSEVOORT", "state": "NY", "zip": "12831-5125", "ntee": "T30", "ruling": "200202", "deductibility": "1", "assets": 49017, "income": 25500, "revenue": 0}, {"ein": "853859302", "name": "ASOCIACION DE DOMINO DE BUSHWICK AND WILLIAMSBURG", "city": "BROOKLYN", "state": "NY", "zip": "11237-2132", "ntee": "A23", "ruling": "202411", "deductibility": "1", "assets": 0, "income": 0, "revenue": 0}], "SCHULTZE": [{"ein": "134111641", "name": "SCHULTZE FOUNDATION", "city": "RYE BROOK", "state": "NY", "zip": "10573-1362", "ntee": "T21", "ruling": "200507", "deductibility": "1", "assets": 580357, "income": 5, "revenue": 0}], "AIX": [{"ein": "134162022", "name": "INTERNATIONAL FRIEND OF THE INTL LYRIC ART FESTIVAL IN AIX-EN", "city": "NEW YORK", "state": "NY", "zip": "10022-5585", "ntee": "A90", "ruling": "200302", "deductibility": "1", "assets": 66033, "income": 134581, "revenue": 134581}], "HENDRICKSON": [{"ein": "134195678", "name": "EDITH HENDRICKSON FAMILY FOUNDATION INC", "city": "FOREST HILLS", "state": "NY", "zip": "11375-6843", "ntee": "T22", "ruling": "200207", "deductibility": "1", "assets": 5648, "income": 19, "revenue": 0}, {"ein": "372115842", "name": "HENDRICKSON FAMILY FOUNDATION", "city": "ALBANY", "state": "NY", "zip": "12212-5201", "ntee": "T20", "ruling": "202401", "deductibility": "1", "assets": 425851, "income": 813466, "revenue": 0}], "MODEST": [{"ein": "134288916", "name": "MODEST COMMUNITY SERVICES ASSOCIATION INC", "city": "STATEN ISLAND", "state": "NY", "zip": "10312-6239", "ntee": "P99", "ruling": "200609", "deductibility": "1", "assets": 1647556, "income": 2645540, "revenue": 2631244}, {"ein": "470863430", "name": "MODEST NEEDS FOUNDATION", "city": "NEW YORK", "state": "NY", "zip": "10016-7532", "ntee": "P60", "ruling": "200206", "deductibility": "1", "assets": 1107508, "income": 1595548, "revenue": 1595548}], "WITHERELL": [{"ein": "136043342", "name": "REBECCA WITHERELL TRUST YMCA GREENWICH CT 239704", "city": "NEW YORK", "state": "NY", "zip": "10008-1297", "ntee": "", "ruling": "000000", "deductibility": "2", "assets": 440812, "income": 66605, "revenue": 0}], "LANGSAN": [{"ein": "136051637", "name": "LILLIAN & IRA N LANGSAN FOUNDATION INC", "city": "NEW YORK", "state": "NY", "zip": "10170-0000", "ntee": "T23", "ruling": "202401", "deductibility": "1", "assets": 1462577, "income": 555681, "revenue": 0}], "HERSKOWITZ": [{"ein": "136115242", "name": "HARRY HERSKOWITZ FOUNDATION INC", "city": "NEW YORK", "state": "NY", "zip": "10024-0000", "ntee": "", "ruling": "195810", "deductibility": "1", "assets": 60365, "income": 2439, "revenue": 0}, {"ein": "136197776", "name": "MARVIN J HERSKOWITZ FOUNDATION INC", "city": "CEDARHURST", "state": "NY", "zip": "11516-1801", "ntee": "", "ruling": "196603", "deductibility": "1", "assets": 123186, "income": 56832, "revenue": 0}], "FABRIKANT": [{"ein": "136160022", "name": "IRVING FABRIKANT FOUNDATION", "city": "NEW YORK", "state": "NY", "zip": "10028-0132", "ntee": "", "ruling": "195905", "deductibility": "1", "assets": 550411, "income": 14803, "revenue": 0}], "SSEU": [{"ein": "136199762", "name": "CHARLES ENSLEY EDUCATIONAL & SCHOLARSHIP FUND OF THE SSEU", "city": "NEW YORK", "state": "NY", "zip": "10036-5505", "ntee": "", "ruling": "196610", "deductibility": "1", "assets": 82434, "income": 300951, "revenue": 300951}], "CIVIS": [{"ein": "136215329", "name": "CIVIS FOUNDATION", "city": "NEW YORK", "state": "NY", "zip": "10018-2082", "ntee": "", "ruling": "196706", "deductibility": "1", "assets": 74534012, "income": 19066231, "revenue": 0}], "SOCIEY": [{"ein": "136271605", "name": "SOCIEY FOR AVATAR MEHER BABA", "city": "NEW YORK", "state": "NY", "zip": "10017-1005", "ntee": "", "ruling": "196804", "deductibility": "1", "assets": 0, "income": 0, "revenue": 0}, {"ein": "161349526", "name": "OLD VILLAGE OF UNION HISTORICAL SOCIEY", "city": "ENDICOTT", "state": "NY", "zip": "13763-5817", "ntee": "A80", "ruling": "201401", "deductibility": "1", "assets": 1048661, "income": 113526, "revenue": 113526}], "WEBUTUCK": [{"ein": "141763657", "name": "WEBUTUCK TEACHERS ASSN BENEFIT FUND", "city": "AMENIA", "state": "NY", "zip": "12501-0400", "ntee": "J40", "ruling": "200205", "deductibility": "2", "assets": 121518, "income": 168992, "revenue": 168992}, {"ein": "371465573", "name": "WEBUTUCK COUNTRY SCHOOLHOUSE ASSOCIATION", "city": "AMENIA", "state": "NY", "zip": "12501-0000", "ntee": "A80", "ruling": "200310", "deductibility": "1", "assets": 0, "income": 0, "revenue": 0}], "GUILDERHAVEN": [{"ein": "141836365", "name": "GUILDERHAVEN INC", "city": "ALTAMONT", "state": "NY", "zip": "12009-5206", "ntee": "B99", "ruling": "200205", "deductibility": "1", "assets": 120340, "income": 133462, "revenue": 133462}], "SANIDAD": [{"ein": "141851887", "name": "IGLESIA PENTECOSTAL TABERNACULO DE LIBERACION Y SANIDAD DIVINA I", "city": "BRONX", "state": "NY", "zip": "10466-4601", "ntee": "X20", "ruling": "200406", "deductibility": "1", "assets": 0, "income": 0, "revenue": 0}], "ORTHPDC": [{"ein": "146018708", "name": "ELLIS L ROWE & THE EASTERN ORTHPDC FUND TA2-0474-0", "city": "NORWICH", "state": "NY", "zip": "13815-0000", "ntee": "", "ruling": "196908", "deductibility": "1", "assets": 203255, "income": 18534, "revenue": 0}], "KLOCK": [{"ein": "146032435", "name": "FORT KLOCK HISTORIC RESTORATION", "city": "ST JOHNSVILLE", "state": "NY", "zip": "13452-0042", "ntee": "", "ruling": "196504", "deductibility": "1", "assets": 0, "income": 0, "revenue": 0}, {"ein": "256747770", "name": "SALEM D SHUCHMAN & BARBARA L KLOCK FOUNDATION", "city": "GARDEN CITY", "state": "NY", "zip": "11530-1650", "ntee": "T90", "ruling": "200112", "deductibility": "1", "assets": 41301, "income": 274329, "revenue": 0}], "MAURO": [{"ein": "146138823", "name": "JOHN MAURO MEMORIAL SCHOLARSHIP FUND", "city": "NORWICH", "state": "NY", "zip": "13815-0000", "ntee": "", "ruling": "199010", "deductibility": "1", "assets": 46605, "income": 10374, "revenue": 0}, {"ein": "146153728", "name": "LOUIS D MAURO SR CHARITABLE TRUST", "city": "NORWICH", "state": "NY", "zip": "13815-0000", "ntee": "T20J", "ruling": "199608", "deductibility": "1", "assets": 903899, "income": 642434, "revenue": 0}], "PINNACLE": [{"ein": "160869384", "name": "PINNACLE LUTHERAN CHURCH", "city": "ROCHESTER", "state": "NY", "zip": "14623-4104", "ntee": "", "ruling": "194107", "deductibility": "1", "assets": 0, "income": 0, "revenue": 0}, {"ein": "166052152", "name": "PINNACLE COMMUNITY SERVICES INC", "city": "NIAGARA FALLS", "state": "NY", "zip": "14305-2522", "ntee": "P40Z", "ruling": "194409", "deductibility": "1", "assets": 4487409, "income": 4801489, "revenue": 4801489}, {"ein": "474162249", "name": "PINNACLE RTC INC", "city": "BROOKLYN", "state": "NY", "zip": "11210-3952", "ntee": "P62", "ruling": "201508", "deductibility": "1", "assets": 563148, "income": 2356764, "revenue": 2356764}, {"ein": "721614836", "name": "PINNACLE ORGANIZATION", "city": "MEXICO", "state": "NY", "zip": "13114-3229", "ntee": "B99", "ruling": "200608", "deductibility": "1", "assets": 0, "income": 73770, "revenue": 73770}, {"ein": "854190066", "name": "PINNACLE INTERNATIONAL CENTER INC", "city": "FAYETTEVILLE", "state": "NY", "zip": "13066-1033", "ntee": "A99", "ruling": "202107", "deductibility": "1", "assets": 0, "income": 0, "revenue": 0}, {"ein": "933626518", "name": "EJ PINNACLE FOUNDATION INC", "city": "BRONX", "state": "NY", "zip": "10475-0000", "ntee": "P20", "ruling": "202311", "deductibility": "1", "assets": 0, "income": 0, "revenue": 0}, {"ein": "934360200", "name": "URBAN PINNACLE", "city": "BRONX", "state": "NY", "zip": "10462-0000", "ntee": "J22", "ruling": "202403", "deductibility": "1", "assets": 0, "income": 0, "revenue": 0}], "OREGON": [{"ein": "160988124", "name": "OREGON-LEOPOLD DAY CARE CENTER ASSOCIATION INC", "city": "ROCHESTER", "state": "NY", "zip": "14605-1616", "ntee": "", "ruling": "197207", "deductibility": "1", "assets": 132535, "income": 320254, "revenue": 320254}, {"ein": "463831937", "name": "7X24 EXCHANGE INTERNATIONAL OREGON CHAPTER INC", "city": "STATEN ISLAND", "state": "NY", "zip": "10306-7360", "ntee": "S41", "ruling": "201102", "deductibility": "2", "assets": 0, "income": 0, "revenue": 0}], "YORKSHIRE": [{"ein": "161007617", "name": "YORKSHIRE FREE METHODIST CHURCH", "city": "YORKSHIRE", "state": "NY", "zip": "14173-0576", "ntee": "", "ruling": "195806", "deductibility": "1", "assets": 0, "income": 0, "revenue": 0}, {"ein": "237415532", "name": "DELEVAN-YORKSHIRE PUBLIC LIBRARY", "city": "DELEVAN", "state": "NY", "zip": "14042-0185", "ntee": "", "ruling": "197411", "deductibility": "1", "assets": 543352, "income": 19578, "revenue": 19578}, {"ein": "901247953", "name": "CRYSTAL HOSE COMPANY INC OF YORKSHIRE NY", "city": "YORKSHIRE", "state": "NY", "zip": "14173-0145", "ntee": "M24", "ruling": "201711", "deductibility": "1", "assets": 95082, "income": 82979, "revenue": 55651}], "CROGHAN": [{"ein": "161319685", "name": "CROGHAN CONSERVATIVE MENNONITE CHURCH", "city": "CROGHAN", "state": "NY", "zip": "13327-0068", "ntee": "", "ruling": "199308", "deductibility": "1", "assets": 0, "income": 0, "revenue": 0}, {"ein": "161398681", "name": "CROGHAN-NAUMBURG APOSTOLIC CHRISTIAN CHURCH", "city": "BEAVER FALLS", "state": "NY", "zip": "13305-0028", "ntee": "", "ruling": "198601", "deductibility": "1", "assets": 0, "income": 0, "revenue": 0}, {"ein": "161408200", "name": "CROGHAN VOLUNTEER FIRE DEPARTMENT INC", "city": "CROGHAN", "state": "NY", "zip": "13327-0405", "ntee": "M24", "ruling": "200301", "deductibility": "1", "assets": 1003685, "income": 175998, "revenue": 175998}, {"ein": "166182058", "name": "CROGHAN FREE LIBRARY", "city": "CROGHAN", "state": "NY", "zip": "13327-0008", "ntee": "B90", "ruling": "201105", "deductibility": "1", "assets": 73489, "income": 78587, "revenue": 78587}], "OSWEGATHIE": [{"ein": "161346188", "name": "OSWEGATHIE DEVELOPMENT CORPORATION", "city": "HEUVELTON", "state": "NY", "zip": "13654-4124", "ntee": "", "ruling": "198909", "deductibility": "1", "assets": 722595, "income": 8225, "revenue": 8225}], "HOLMBERG": [{"ein": "161426226", "name": "HOLMBERG FOUNDATION INC", "city": "JAMESTOWN", "state": "NY", "zip": "14701-2517", "ntee": "", "ruling": "199309", "deductibility": "1", "assets": 4693575, "income": 465889, "revenue": 0}], "SUNYIT": [{"ein": "161471904", "name": "SUNYIT STUDENT ASSOCIATION", "city": "UTICA", "state": "NY", "zip": "13502-1311", "ntee": "B80", "ruling": "201904", "deductibility": "1", "assets": 680501, "income": 535385, "revenue": 535385}], "NGUR": [{"ein": "201628136", "name": "NORTH COUNTRY DRONG NGUR JANGCHUB DRUBDHE RETREQT CENTER", "city": "ELLENBURG DEP", "state": "NY", "zip": "12935-3215", "ntee": "X50", "ruling": "200508", "deductibility": "1", "assets": 0, "income": 0, "revenue": 0}], "MAYSLES": [{"ein": "202545574", "name": "MAYSLES INSTITUTE INC", "city": "NEW YORK", "state": "NY", "zip": "10027-3933", "ntee": "A31", "ruling": "200608", "deductibility": "1", "assets": 433430, "income": 906141, "revenue": 851987}], "DAYADVENTIST": [{"ein": "204312371", "name": "CALVERY FIRST NIGERIAN SEVENTH-DAYADVENTIST CHURCH", "city": "BROOKLYN", "state": "NY", "zip": "11221-0000", "ntee": "X20", "ruling": "202311", "deductibility": "1", "assets": 0, "income": 0, "revenue": 0}], "HARVESTER": [{"ein": "204749025", "name": "INTERNATIONAL HARVESTER COLLECTORSCHAPTER 35 OF NEW YORK STATE INC", "city": "MOUNT MORRIS", "state": "NY", "zip": "14510-9716", "ntee": "N50", "ruling": "200804", "deductibility": "2", "assets": 0, "income": 0, "revenue": 0}], "LIFEINC": [{"ein": "205043524", "name": "WEST SIDE CENTER FOR JEWISH LIFEINC", "city": "NEW YORK", "state": "NY", "zip": "10024-5827", "ntee": "X30", "ruling": "201212", "deductibility": "1", "assets": 0, "income": 0, "revenue": 0}], "SURVIVE": [{"ein": "205523150", "name": "HELPING DESPERATE WOMEN SURVIVE INC", "city": "WESTBURY", "state": "NY", "zip": "11590-1217", "ntee": "P46", "ruling": "200912", "deductibility": "1", "assets": 0, "income": 0, "revenue": 0}, {"ein": "412183783", "name": "SUSTAIN INSPIRE SURVIVE", "city": "ROCHESTER", "state": "NY", "zip": "14623-4216", "ntee": "P80", "ruling": "200510", "deductibility": "1", "assets": 11553, "income": 59586, "revenue": 50419}, {"ein": "454521178", "name": "THRIVE TO SURVIVE", "city": "GENEVA", "state": "NY", "zip": "14456-8146", "ntee": "E86", "ruling": "201205", "deductibility": "1", "assets": 251908, "income": 199198, "revenue": 175450}, {"ein": "464594004", "name": "RIDE 2 SURVIVE - SULLIVAN COUNTY", "city": "YOUNGSVILLE", "state": "NY", "zip": "12791-0282", "ntee": "E12", "ruling": "201409", "deductibility": "1", "assets": 303339, "income": 103825, "revenue": 90691}, {"ein": "813713708", "name": "SURVIVE TO THRIVE GLOBAL INC", "city": "YONKERS", "state": "NY", "zip": "10705-3661", "ntee": "R24", "ruling": "201701", "deductibility": "1", "assets": 0, "income": 0, "revenue": 0}, {"ein": "832422702", "name": "CAST ASIDE TO SURVIVE INC", "city": "SAUGERTIES", "state": "NY", "zip": "12477-4912", "ntee": "D20", "ruling": "201812", "deductibility": "1", "assets": 0, "income": 0, "revenue": 0}], "KLAUS": [{"ein": "205792833", "name": "ARTHUR KLAUS FAMILY FOUNDATION", "city": "NEW YORK", "state": "NY", "zip": "10022-2519", "ntee": "T22", "ruling": "200702", "deductibility": "1", "assets": 3471258, "income": 94769, "revenue": 0}, {"ein": "205793010", "name": "THE LESTER AND ESTHER KLAUS FAMILY FOUNDATION", "city": "CEDARHURST", "state": "NY", "zip": "11516-2247", "ntee": "T22", "ruling": "200702", "deductibility": "1", "assets": 599549, "income": 386244, "revenue": 0}], "BBBBJETS": [{"ein": "205852715", "name": "BBBBJETS OF AMERICA LTD", "city": "HUNTINGTON", "state": "NY", "zip": "11743-6905", "ntee": "P20", "ruling": "200703", "deductibility": "1", "assets": 24471, "income": 67515, "revenue": 46121}], "ICECATS": [{"ein": "205892696", "name": "NY ICECATS INC", "city": "NEW YORK", "state": "NY", "zip": "10028-2004", "ntee": "N60", "ruling": "202203", "deductibility": "1", "assets": 212128, "income": 298459, "revenue": 298459}], "WILLUMSTAD": [{"ein": "206785538", "name": "WILLUMSTAD FAMILY CHARITABLE TRUST", "city": "ALBANY", "state": "NY", "zip": "12212-5201", "ntee": "T22", "ruling": "200603", "deductibility": "1", "assets": 74428, "income": 17459, "revenue": 0}], "EXIT": [{"ein": "208728956", "name": "PARALLEL EXIT INC", "city": "BROOKLYN", "state": "NY", "zip": "11238-6056", "ntee": "A65", "ruling": "200905", "deductibility": "1", "assets": 34082, "income": 120867, "revenue": 120867}, {"ein": "331437049", "name": "EXIT S HOMELESS CHURCH", "city": "HEMPSTEAD", "state": "NY", "zip": "11550-6425", "ntee": "X20", "ruling": "202410", "deductibility": "1", "assets": 0, "income": 0, "revenue": 0}, {"ein": "830796732", "name": "CATSKILL EXIT 21 YOUTH BASKETBALL INC", "city": "CATSKILL", "state": "NY", "zip": "12414-1717", "ntee": "N62", "ruling": "202002", "deductibility": "1", "assets": 0, "income": 0, "revenue": 0}, {"ein": "832270566", "name": "EXIT 12 DANCE COMPANY INC", "city": "NEW YORK", "state": "NY", "zip": "10026-1068", "ntee": "A62", "ruling": "201811", "deductibility": "1", "assets": 92402, "income": 137207, "revenue": 137207}], "ROYCROFTERS": [{"ein": "222258981", "name": "ROYCROFTERS-AT-LARGE-ASSOCIATION", "city": "EAST AURORA", "state": "NY", "zip": "14052-9738", "ntee": "A99Z", "ruling": "199606", "deductibility": "1", "assets": 78784, "income": 96788, "revenue": 96583}], "PENATCOSTAL": [{"ein": "222564727", "name": "FREE IN CHRIST PENATCOSTAL CHURCH INC", "city": "UTICA", "state": "NY", "zip": "13501-3726", "ntee": "", "ruling": "198504", "deductibility": "1", "assets": 0, "income": 0, "revenue": 0}], "CYPRIOT": [{"ein": "237090386", "name": "TURKISH CYPRIOT MOSQUE", "city": "BRONX", "state": "NY", "zip": "10472-4708", "ntee": "", "ruling": "197109", "deductibility": "1", "assets": 0, "income": 0, "revenue": 0}, {"ein": "471396308", "name": "FEDERATION OF CYPRIOT AMERICAN ORGANIZATIONS INC", "city": "ASTORIA", "state": "NY", "zip": "11102-0000", "ntee": "A23", "ruling": "201511", "deductibility": "1", "assets": 667435, "income": 258368, "revenue": 258368}], "INTERMIX": [{"ein": "237146941", "name": "ELECTRONIC ARTS INTERMIX INC", "city": "NEW YORK", "state": "NY", "zip": "10013-3592", "ntee": "A31Z", "ruling": "197201", "deductibility": "1", "assets": 1248885, "income": 805237, "revenue": 805237}], "PRUDEN": [{"ein": "237304418", "name": "VETERANS OF FOREIGN WARS OF THE U S DEPT OF NY 6292 LT HARRY PRUDEN JR", "city": "JEFFERSON", "state": "NY", "zip": "12093-3127", "ntee": "", "ruling": "197210", "deductibility": "1", "assets": 0, "income": 0, "revenue": 0}], "CHOCHMEI": [{"ein": "237391135", "name": "YESHIVA CHOCHMEI YERUSHULAIM", "city": "NEW YORK", "state": "NY", "zip": "10003-3236", "ntee": "", "ruling": "197408", "deductibility": "1", "assets": 0, "income": 0, "revenue": 0}], "PULA": [{"ein": "237449724", "name": "AMERICAN FRIENDS OF MARU A PULA SCHOOL INC", "city": "BRONXVILLE", "state": "NY", "zip": "10708-5136", "ntee": "A12", "ruling": "197505", "deductibility": "1", "assets": 483189, "income": 356179, "revenue": 356179}], "SRW": [{"ein": "261406320", "name": "SRW FOUNDATION", "city": "BROOKLYN", "state": "NY", "zip": "11219-6478", "ntee": "T22", "ruling": "200812", "deductibility": "1", "assets": 14569, "income": 720, "revenue": 0}, {"ein": "824872986", "name": "SRW 6-11 FOUNDATION", "city": "BROOKLYN", "state": "NY", "zip": "11204-1743", "ntee": "T22", "ruling": "201810", "deductibility": "1", "assets": 438514, "income": 39955, "revenue": 0}], "YUKO": [{"ein": "262175965", "name": "YUKO NII FOUNDATION INC", "city": "BROOKLYN", "state": "NY", "zip": "11211-6129", "ntee": "T20", "ruling": "200807", "deductibility": "1", "assets": 4082998, "income": 12938, "revenue": 0}], "VARIABLE": [{"ein": "264572204", "name": "DANCES FOR A VARIABLE POPULATION INC", "city": "NEW YORK", "state": "NY", "zip": "10027-3723", "ntee": "A62", "ruling": "200906", "deductibility": "1", "assets": 540000, "income": 445656, "revenue": 445656}, {"ein": "934151775", "name": "VARIABLE COLLECTIVE", "city": "NEW YORK", "state": "NY", "zip": "10013-3752", "ntee": "B03", "ruling": "202311", "deductibility": "1", "assets": 1, "income": 0, "revenue": 0}], "GRETCHEN": [{"ein": "272511652", "name": "THE@GRETCHEN BEINECKE CHARITABLE TRUST", "city": "NEW YORK", "state": "NY", "zip": "10281-0000", "ntee": "T22", "ruling": "201102", "deductibility": "1", "assets": 2995407, "income": 1798893, "revenue": 0}], "GLENHAM": [{"ein": "274528702", "name": "GLENHAM ELEMENTARY SCHOOL PTO INC", "city": "FISHKILL", "state": "NY", "zip": "12524-1964", "ntee": "B11", "ruling": "201108", "deductibility": "1", "assets": 0, "income": 0, "revenue": 0}], "BETTERARTS": [{"ein": "274589600", "name": "BETTERARTS", "city": "REDWOOD", "state": "NY", "zip": "13679-3113", "ntee": "A90", "ruling": "201203", "deductibility": "1", "assets": 0, "income": 0, "revenue": 0}], "COLOMBINI": [{"ein": "276877265", "name": "MICHAEL COLOMBINI FOUNDATION", "city": "OSSINING", "state": "NY", "zip": "10562-1970", "ntee": "T22", "ruling": "201203", "deductibility": "1", "assets": 242441, "income": 30641, "revenue": 0}], "FURNITURE": [{"ein": "300668282", "name": "AND FURNITURE FOR ALL INC", "city": "CENTRAL ISLIP", "state": "NY", "zip": "11722-1937", "ntee": "P60", "ruling": "201112", "deductibility": "1", "assets": 0, "income": 0, "revenue": 0}, {"ein": "331137455", "name": "FURNITURE SHAREHOUSE INC", "city": "LARCHMONT", "state": "NY", "zip": "10538-0702", "ntee": "P60", "ruling": "200606", "deductibility": "1", "assets": 620425, "income": 1196289, "revenue": 685440}, {"ein": "541839284", "name": "THE FURNITURE SOCIETY", "city": "BANGALL", "state": "NY", "zip": "12506-0547", "ntee": "A400", "ruling": "199710", "deductibility": "1", "assets": 150863, "income": 193553, "revenue": 193553}, {"ein": "863907950", "name": "HOLYWOOD FURNITURE BUILDERS INC", "city": "MERRICK", "state": "NY", "zip": "11566-5204", "ntee": "", "ruling": "202108", "deductibility": "1", "assets": 1, "income": 1, "revenue": 0}], "JENNISON": [{"ein": "300963392", "name": "JENNISON ASSOCIATES LLC RETIREE HEALTH BENEFITS TR", "city": "NEW YORK", "state": "NY", "zip": "10017-3149", "ntee": "Y43", "ruling": "201804", "deductibility": "2", "assets": 48365963, "income": 996861, "revenue": 996861}], "UMARPEH": [{"ein": "331190140", "name": "AMERICAN FRIENDS OF BARUCH UMARPEH CORP", "city": "BROOKLYN", "state": "NY", "zip": "11219-3011", "ntee": "T30", "ruling": "201006", "deductibility": "1", "assets": 1028, "income": 26581, "revenue": 0}, {"ein": "432086376", "name": "TORAH UMARPEH", "city": "FAR ROCKAWAY", "state": "NY", "zip": "11691-1745", "ntee": "X30", "ruling": "200603", "deductibility": "1", "assets": 0, "income": 0, "revenue": 0}], "MUKARRAM": [{"ein": "331554219", "name": "BAITUL MUKARRAM JAME MASJID BUFFALO CORP", "city": "BUFFALO", "state": "NY", "zip": "14215-1613", "ntee": "P20", "ruling": "202502", "deductibility": "1", "assets": 0, "income": 0, "revenue": 0}], "MOVES": [{"ein": "332158652", "name": "MOVES FOR A MISSION INC", "city": "NEW YORK", "state": "NY", "zip": "10016-3261", "ntee": "P12", "ruling": "202412", "deductibility": "1", "assets": 0, "income": 0, "revenue": 0}, {"ein": "851707753", "name": "PURE MOVES", "city": "BRONX", "state": "NY", "zip": "10457-8230", "ntee": "P62", "ruling": "202008", "deductibility": "1", "assets": 2391, "income": 0, "revenue": 0}], "WOMEN2WOMEN": [{"ein": "333075588", "name": "MORE THAN ENOUGH WOMEN2WOMEN INC", "city": "HORSEHEADS", "state": "NY", "zip": "14845-2326", "ntee": "X20", "ruling": "202503", "deductibility": "1", "assets": 0, "income": 0, "revenue": 0}], "HAIMS": [{"ein": "367588311", "name": "HAIMS FAMILY FOUNDATION", "city": "WOODMERE", "state": "NY", "zip": "11598-2317", "ntee": "T12", "ruling": "201202", "deductibility": "1", "assets": 14562, "income": 247, "revenue": 0}], "LANTISEMITISME": [{"ein": "371472889", "name": "LICRA-LIGUE INTERNATIONALE CONTRE LE RACISME ET LANTISEMITISME INC", "city": "NEWYORK", "state": "NY", "zip": "10128-0000", "ntee": "Q40", "ruling": "200511", "deductibility": "1", "assets": 0, "income": 0, "revenue": 0}], "OWL": [{"ein": "371943369", "name": "CAMPUS OWL INC", "city": "NEW YORK", "state": "NY", "zip": "10017-0000", "ntee": "Q20", "ruling": "202003", "deductibility": "1", "assets": 18002, "income": 120874, "revenue": 120874}], "PITTER": [{"ein": "432103189", "name": "PITTER PATTER PAWS CORP", "city": "LK RONKONKOMA", "state": "NY", "zip": "11779-4240", "ntee": "D20", "ruling": "200702", "deductibility": "1", "assets": 0, "income": 0, "revenue": 0}], "JOPPA": [{"ein": "450537553", "name": "JOPPA CHRISTIAN MINISTRIES INC", "city": "BROOKLYN", "state": "NY", "zip": "11217-0606", "ntee": "X20", "ruling": "200808", "deductibility": "1", "assets": 0, "income": 0, "revenue": 0}], "FAMERS": [{"ein": "451205943", "name": "WEBSTER JOE OBBIE FAMERS MARKET", "city": "SODUS", "state": "NY", "zip": "14551-9529", "ntee": "K20", "ruling": "202403", "deductibility": "1", "assets": 0, "income": 0, "revenue": 0}], "PICKUP": [{"ein": "454113166", "name": "PICKUP SOCCER YOUTH OUTREACH INC", "city": "NEW YORK", "state": "NY", "zip": "10012-0012", "ntee": "O50", "ruling": "201408", "deductibility": "1", "assets": 0, "income": 0, "revenue": 0}], "SANCTUARIES": [{"ein": "454998901", "name": "TIGER SANCTUARIES INC", "city": "NEW YORK", "state": "NY", "zip": "10014-1912", "ntee": "D30", "ruling": "201205", "deductibility": "1", "assets": 55599, "income": 241079, "revenue": 241079}, {"ein": "814670993", "name": "SOCIETY FOR THE CREATION OF SANCTUARIES FOR ENDANGERED BIRD SP", "city": "GREAT NECK", "state": "NY", "zip": "11021-4704", "ntee": "D32", "ruling": "201711", "deductibility": "1", "assets": 647399, "income": 22173, "revenue": 22173}], "BURROUS": [{"ein": "455089891", "name": "ANDREW BURROUS BEST BUDDY FOUNDATION", "city": "FLORAL PARK", "state": "NY", "zip": "11001-2237", "ntee": "Z99", "ruling": "201407", "deductibility": "1", "assets": 0, "income": 0, "revenue": 0}], "BAROWSKY": [{"ein": "460563089", "name": "ANDREW P BAROWSKY FOUNDATION INC", "city": "GARDEN CITY", "state": "NY", "zip": "11530-1650", "ntee": "T20", "ruling": "201209", "deductibility": "1", "assets": 9341948, "income": 4066387, "revenue": 0}], "LAVREICHEM": [{"ein": "460932109", "name": "BAIS MEDRASH LAVREICHEM INC", "city": "BROOKLYN", "state": "NY", "zip": "11230-3801", "ntee": "T30", "ruling": "201311", "deductibility": "1", "assets": 1624, "income": 186306, "revenue": 186306}], "LJDR": [{"ein": "462216693", "name": "LJDR DAVIS FOUNDATION", "city": "ROSEDALE", "state": "NY", "zip": "11422-1445", "ntee": "E99", "ruling": "201409", "deductibility": "1", "assets": 10922, "income": 45000, "revenue": 45000}], "OLUPONA": [{"ein": "462364042", "name": "MICHAEL AND HENRIETTA OLUPONA FOUNDATION", "city": "NEW YORK", "state": "NY", "zip": "10024-5129", "ntee": "B82", "ruling": "201511", "deductibility": "1", "assets": 1, "income": 116912, "revenue": 116912}], "ROHDE": [{"ein": "462599055", "name": "KATRIN ROHDE FOUNDATION USA INC", "city": "BROOKLYN", "state": "NY", "zip": "11213-2569", "ntee": "O11", "ruling": "201407", "deductibility": "1", "assets": 0, "income": 0, "revenue": 0}], "MUSCOTA": [{"ein": "463535529", "name": "MUSCOTA PARENTS ASSOCIATION INC", "city": "NEW YORK", "state": "NY", "zip": "10034-3174", "ntee": "B94", "ruling": "201503", "deductibility": "1", "assets": 99323, "income": 69696, "revenue": 0}], "TUTE": [{"ein": "465346005", "name": "DIVINE MERCY TALENTS & SKILLS INSTI TUTE INC", "city": "JAMAICA", "state": "NY", "zip": "11434-1025", "ntee": "X20", "ruling": "201607", "deductibility": "1", "assets": 0, "income": 0, "revenue": 0}], "OTWAY": [{"ein": "471639112", "name": "HOWARD OTWAY AND FLORENCE OTWAY OPPORTUNITY PROJECT INC", "city": "GRAND GORGE", "state": "NY", "zip": "12434-1358", "ntee": "A65", "ruling": "201501", "deductibility": "1", "assets": 0, "income": 0, "revenue": 0}], "MORBALLET": [{"ein": "471758099", "name": "MORBALLET INC", "city": "HASTINGS HDSN", "state": "NY", "zip": "10706-4020", "ntee": "A63", "ruling": "201409", "deductibility": "1", "assets": 22143, "income": 192970, "revenue": 192970}], "DECIDIR": [{"ein": "473183860", "name": "EL PODER DE DECIDIR", "city": "JACKSON HTS", "state": "NY", "zip": "11372-6232", "ntee": "E70", "ruling": "202001", "deductibility": "1", "assets": 0, "income": 0, "revenue": 0}], "MIDURA": [{"ein": "474008376", "name": "COL FRANCIS S MIDURA POST 12144", "city": "ISLANDIA", "state": "NY", "zip": "11749-4701", "ntee": "J20", "ruling": "202210", "deductibility": "2", "assets": 0, "income": 0, "revenue": 0}], "OZUBULU": [{"ein": "474682011", "name": "OZUBULU-USA INC", "city": "BRONX", "state": "NY", "zip": "10465-1350", "ntee": "P80", "ruling": "201603", "deductibility": "1", "assets": 0, "income": 0, "revenue": 0}], "GIRLSKORNER": [{"ein": "474816643", "name": "GIRLSKORNER", "city": "BROOKLYN", "state": "NY", "zip": "11225-4900", "ntee": "P30", "ruling": "201609", "deductibility": "1", "assets": 0, "income": 0, "revenue": 0}], "SMARTER": [{"ein": "475172854", "name": "SHK - SMARTER HEALTHIER KID FOUNDATION CORP", "city": "FLORAL PARK", "state": "NY", "zip": "11004-1539", "ntee": "O50", "ruling": "201602", "deductibility": "1", "assets": 3142, "income": 1500, "revenue": 1500}], "WINLEY": [{"ein": "521230146", "name": "WINLEY FOUNDATION", "city": "ROCHESTER", "state": "NY", "zip": "14624-7041", "ntee": "", "ruling": "196201", "deductibility": "1", "assets": 12195479, "income": 11395190, "revenue": 0}], "MEKIMI": [{"ein": "550870419", "name": "MEKIMI", "city": "BROOKLYN", "state": "NY", "zip": "11219-3011", "ntee": "E80", "ruling": "200410", "deductibility": "1", "assets": 140021, "income": 223399, "revenue": 223399}], "LUBO": [{"ein": "586043631", "name": "LUBO FUND INCORPORATED", "city": "NEW YORK", "state": "NY", "zip": "10017-0000", "ntee": "", "ruling": "195910", "deductibility": "1", "assets": 8848116, "income": 681525, "revenue": 0}], "GLAUBINGER": [{"ein": "592862615", "name": "GLAUBINGER FOUNDATION INC", "city": "NEW YORK", "state": "NY", "zip": "10016-2556", "ntee": "", "ruling": "198906", "deductibility": "1", "assets": 172672, "income": 4355346, "revenue": 0}], "NICHOLLS": [{"ein": "611965558", "name": "THE@NICHOLLS BIONDI FOUNDATION", "city": "NEW YORK", "state": "NY", "zip": "10171-0002", "ntee": "T20", "ruling": "202009", "deductibility": "1", "assets": 46099186, "income": 8601025, "revenue": 0}, {"ein": "812187543", "name": "NICHOLLS & LYNDA CLEAN", "city": "BROOKLYN", "state": "NY", "zip": "11203-3210", "ntee": "O50", "ruling": "201607", "deductibility": "1", "assets": 0, "income": 0, "revenue": 0}], "CARICOM": [{"ein": "810937351", "name": "MISS CARICOM INTL FOUNDATION CIP INC", "city": "JAMAICA", "state": "NY", "zip": "11434-5034", "ntee": "T12", "ruling": "201601", "deductibility": "1", "assets": 0, "income": 0, "revenue": 0}], "VSHULEM": [{"ein": "810944935", "name": "CHAIM VSHULEM FOUNDATION INC", "city": "MONSEY", "state": "NY", "zip": "10952-2005", "ntee": "T20", "ruling": "201608", "deductibility": "1", "assets": 1, "income": 1, "revenue": 0}, {"ein": "832928990", "name": "KEREN CHAIM VSHULEM FOUNDATION INC", "city": "MONROE", "state": "NY", "zip": "10950-5905", "ntee": "X30", "ruling": "201908", "deductibility": "1", "assets": 17975, "income": 167400, "revenue": 0}, {"ein": "852093348", "name": "CONGREGATION AHAVAH VSHULEM", "city": "BROOKLYN", "state": "NY", "zip": "11219-4235", "ntee": "X30", "ruling": "202103", "deductibility": "1", "assets": 0, "income": 0, "revenue": 0}], "ARCENCIEL": [{"ein": "811265030", "name": "ARCENCIEL USA INC", "city": "NEW YORK", "state": "NY", "zip": "10011-0000", "ntee": "Q33", "ruling": "201612", "deductibility": "1", "assets": 70711, "income": 22130, "revenue": 22130}], "NMAH": [{"ein": "811639783", "name": "NMAH CLARKE FAMILY HUMANITARIAN AID INC", "city": "BROOKLYN", "state": "NY", "zip": "11212-6045", "ntee": "Q33", "ruling": "201706", "deductibility": "1", "assets": 0, "income": 0, "revenue": 0}], "KEENAN": [{"ein": "814094893", "name": "KEENAN FOUNDATION INC", "city": "RYE", "state": "NY", "zip": "10580-4114", "ntee": "T20", "ruling": "201703", "deductibility": "1", "assets": 2530719, "income": 4252192, "revenue": 0}], "DROPBOX": [{"ein": "814755668", "name": "DROPBOX FOUNDATION", "city": "NEW YORK", "state": "NY", "zip": "10271-3401", "ntee": "T30", "ruling": "201706", "deductibility": "1", "assets": 26750011, "income": 3047339, "revenue": 2108525}], "MARONA": [{"ein": "816916111", "name": "CLARENCE JOHN MARONA AND AGNES WALSH MARONA CHARITABLE FOUNDATION", "city": "POUGHKEEPSIE", "state": "NY", "zip": "12601-0999", "ntee": "T20", "ruling": "201708", "deductibility": "1", "assets": 1125589, "income": 413743, "revenue": 0}], "SINGNASIUM": [{"ein": "821220128", "name": "SINGNASIUM INC", "city": "NEW YORK", "state": "NY", "zip": "10036-3672", "ntee": "A6B", "ruling": "201710", "deductibility": "1", "assets": 27154, "income": 154046, "revenue": 142064}], "DIGNITE": [{"ein": "821993680", "name": "NOBLESSE DIGNITE ELEGANCE OF NEW YORK INC", "city": "BRONX", "state": "NY", "zip": "10473-3029", "ntee": "A23", "ruling": "201904", "deductibility": "1", "assets": 0, "income": 0, "revenue": 0}], "SATTES": [{"ein": "822800297", "name": "SATTES-PARRISH CEMETERY ASSOCIATION", "city": "MOUNT MORRIS", "state": "NY", "zip": "14510-0000", "ntee": "Y50", "ruling": "201803", "deductibility": "1", "assets": 0, "income": 0, "revenue": 0}], "DOCUMENTS": [{"ein": "823315229", "name": "IDENTITY DOCUMENTS PROJECT INC", "city": "NEW YORK", "state": "NY", "zip": "10014-0701", "ntee": "R02", "ruling": "201909", "deductibility": "1", "assets": 0, "income": 0, "revenue": 0}], "APOYO": [{"ein": "823591950", "name": "LAS HERMANAS DE APOYO INC", "city": "NEW YORK", "state": "NY", "zip": "10031-2261", "ntee": "P40", "ruling": "202010", "deductibility": "1", "assets": 0, "income": 0, "revenue": 0}], "LOKANA": [{"ein": "824226420", "name": "LOKANA INC", "city": "NEW YORK", "state": "NY", "zip": "10016-4329", "ntee": "Q30", "ruling": "201903", "deductibility": "1", "assets": 0, "income": 0, "revenue": 0}], "MUKAMA": [{"ein": "830777948", "name": "MUKAMA AFAYO UGANDA", "city": "EAST CHATHAM", "state": "NY", "zip": "12060-0000", "ntee": "Q12", "ruling": "201905", "deductibility": "1", "assets": 0, "income": 0, "revenue": 0}], "ICELAND": [{"ein": "830964730", "name": "CHABAD OF ICELAND INC", "city": "BROOKLYN", "state": "NY", "zip": "11213-5127", "ntee": "X30", "ruling": "201807", "deductibility": "1", "assets": 3734406, "income": 2317052, "revenue": 2317052}], "BYS": [{"ein": "831798872", "name": "FRIENDS OF KOLEL BYS SHLOME ARYE INC", "city": "BROOKLYN", "state": "NY", "zip": "11206-5533", "ntee": "T12", "ruling": "201904", "deductibility": "1", "assets": 9521, "income": 763196, "revenue": 763196}], "DIPIETRA": [{"ein": "832073610", "name": "WILLIAM F DIPIETRA FOUNDATION INC", "city": "HOWARD BEACH", "state": "NY", "zip": "11414-2907", "ntee": "P12", "ruling": "201811", "deductibility": "1", "assets": 0, "income": 0, "revenue": 0}], "CHISDU": [{"ein": "832767853", "name": "CHINU V CHISDU INC", "city": "BROOKLYN", "state": "NY", "zip": "11219-4367", "ntee": "P20", "ruling": "201908", "deductibility": "1", "assets": 42805, "income": 198729, "revenue": 198729}], "SPARKLER": [{"ein": "834145114", "name": "SPARKLER LEARNING INC", "city": "NEW YORK", "state": "NY", "zip": "10023-8135", "ntee": "B19", "ruling": "201907", "deductibility": "1", "assets": 621267, "income": 2197431, "revenue": 2197431}], "WARDROBE": [{"ein": "834176737", "name": "REPURPOSE WARDROBE STYLE FOR GOOD CHARITABLE CONCEPT INC", "city": "NEW YORK", "state": "NY", "zip": "10024-6343", "ntee": "P29", "ruling": "202003", "deductibility": "1", "assets": 103634, "income": 697198, "revenue": 48721}], "MAIRONIS": [{"ein": "842909619", "name": "NY MAIRONIS LITHUANIAN SCHOOL INC", "city": "RIDGEWOOD", "state": "NY", "zip": "11385-4553", "ntee": "A23", "ruling": "201910", "deductibility": "1", "assets": 0, "income": 0, "revenue": 0}], "ELFA": [{"ein": "843065514", "name": "KASHMIR ELFA INTERNATIONAL INC", "city": "WOODMERE", "state": "NY", "zip": "11598-1605", "ntee": "A12", "ruling": "201910", "deductibility": "1", "assets": 4881, "income": 111281, "revenue": 0}], "ARROWETTES": [{"ein": "843100315", "name": "SACHEM NORTH ARROWETTES BOOSTER CLUB INC", "city": "HOLBROOK", "state": "NY", "zip": "11741-2939", "ntee": "B11", "ruling": "202002", "deductibility": "1", "assets": 23225, "income": 91003, "revenue": 91003}], "DESENS": [{"ein": "843163618", "name": "DESENS HOUSE INC", "city": "OSWEGO", "state": "NY", "zip": "13126-3624", "ntee": "P72", "ruling": "202209", "deductibility": "1", "assets": 366335, "income": 364315, "revenue": 364315}], "KEHULA": [{"ein": "844859688", "name": "KEHULA KADISHA", "city": "BROOKLYN", "state": "NY", "zip": "11204-1048", "ntee": "X30", "ruling": "202312", "deductibility": "1", "assets": 0, "income": 0, "revenue": 0}, {"ein": "934952378", "name": "KEHULA KADISHA HAMBURG INC", "city": "BROOKLYN", "state": "NY", "zip": "11211-8483", "ntee": "X30", "ruling": "202407", "deductibility": "1", "assets": 0, "income": 0, "revenue": 0}], "KACHIN": [{"ein": "844924044", "name": "NEW YORK KACHIN BAPTIST CHURCH", "city": "ROCHESTER", "state": "NY", "zip": "14609-5451", "ntee": "", "ruling": "195504", "deductibility": "0", "assets": 0, "income": 0, "revenue": 0}], "SOONER": [{"ein": "851103820", "name": "1DAY SOONER INC", "city": "BROOKLYN", "state": "NY", "zip": "11225-1414", "ntee": "", "ruling": "202009", "deductibility": "1", "assets": 3057232, "income": 2665512, "revenue": 2665512}], "RUEDATHON": [{"ein": "852215404", "name": "RUEDATHON", "city": "JACKSON HTS", "state": "NY", "zip": "11372-0000", "ntee": "A20", "ruling": "202406", "deductibility": "1", "assets": 0, "income": 0, "revenue": 0}], "KDM": [{"ein": "852520578", "name": "KDM FOUNDATION INC", "city": "NEW YORK", "state": "NY", "zip": "10022-6817", "ntee": "T50", "ruling": "202211", "deductibility": "1", "assets": 4877905, "income": 1524273, "revenue": 0}], "YCHESKEL": [{"ein": "852690223", "name": "CONGREGATION MARAH YCHESKEL OF FLATBUSH", "city": "BROOKLYN", "state": "NY", "zip": "11230-4402", "ntee": "X30", "ruling": "197002", "deductibility": "1", "assets": 0, "income": 0, "revenue": 0}], "BANDHAV": [{"ein": "852874800", "name": "BHAKTA BANDHAV MISSION INC", "city": "ELLENVILLE", "state": "NY", "zip": "12428-5900", "ntee": "X70", "ruling": "202110", "deductibility": "1", "assets": 0, "income": 0, "revenue": 0}], "PHILOSONIA": [{"ein": "853970159", "name": "PHILOSONIA INC", "city": "BROOKLYN", "state": "NY", "zip": "11215-8810", "ntee": "A6C", "ruling": "202104", "deductibility": "1", "assets": 0, "income": 0, "revenue": 0}], "RAHIMA": [{"ein": "854273350", "name": "RAHIMA AZIZ FOUNDATION CORP", "city": "WEST SENECA", "state": "NY", "zip": "14224-1211", "ntee": "T30", "ruling": "202105", "deductibility": "1", "assets": 27607, "income": 269470, "revenue": 269470}], "GEZARI": [{"ein": "863579807", "name": "TEMIMA GEZARI FOUNDATION FOR ART AND EDUCATION", "city": "ROCKY POINT", "state": "NY", "zip": "11778-0793", "ntee": "A20", "ruling": "202108", "deductibility": "1", "assets": 0, "income": 0, "revenue": 0}], "LAHAVAS": [{"ein": "871810058", "name": "CONG LAHAVAS DOVID BIALA INC", "city": "BROOKLYN", "state": "NY", "zip": "11219-3011", "ntee": "X30", "ruling": "202505", "deductibility": "1", "assets": 0, "income": 0, "revenue": 0}], "HOBY": [{"ein": "872493381", "name": "HOBY NEW YORK EAST INC", "city": "GLENHAM", "state": "NY", "zip": "12527-7545", "ntee": "O50", "ruling": "202202", "deductibility": "1", "assets": 0, "income": 0, "revenue": 0}], "GENEVAN": [{"ein": "873013475", "name": "GENEVAN OF CHANGE SCHOLARSHIP", "city": "GENEVA", "state": "NY", "zip": "14456-3174", "ntee": "B82", "ruling": "202203", "deductibility": "1", "assets": 12635, "income": 10092, "revenue": 10092}], "KURDISH": [{"ein": "874221788", "name": "NEW YORK KURDISH CULTURAL CENTER INC", "city": "NEW YORK", "state": "NY", "zip": "10026-1436", "ntee": "A23", "ruling": "202207", "deductibility": "1", "assets": 16371, "income": 64799, "revenue": 64799}, {"ein": "934435967", "name": "AMERICAN KURDISH COMMITTEE INC", "city": "NEW YORK", "state": "NY", "zip": "10174-2699", "ntee": "T99", "ruling": "202504", "deductibility": "1", "assets": 0, "income": 0, "revenue": 0}], "COUNTED": [{"ein": "880557046", "name": "STAND UP AND BE COUNTED INC", "city": "MASSAPEQUA", "state": "NY", "zip": "11758-0000", "ntee": "S20", "ruling": "202206", "deductibility": "1", "assets": 0, "income": 0, "revenue": 0}, {"ein": "912146692", "name": "BE COUNTED FOR INC", "city": "HOLLIS", "state": "NY", "zip": "11423-3026", "ntee": "L21", "ruling": "200202", "deductibility": "2", "assets": 11156, "income": 143, "revenue": 0}], "GENXYZRA": [{"ein": "881092634", "name": "GENXYZRA NEXT GENERATION ECONOMIC DEVELOPMENT CORPORATION", "city": "BRONX", "state": "NY", "zip": "10466-1214", "ntee": "P20", "ruling": "202204", "deductibility": "1", "assets": 0, "income": 0, "revenue": 0}], "CHIBANDA": [{"ein": "883219220", "name": "IRENE CHIBANDA FOUNDATION INC", "city": "BROOKLYN", "state": "NY", "zip": "11217-3881", "ntee": "B99", "ruling": "202207", "deductibility": "1", "assets": 0, "income": 0, "revenue": 0}], "ECKARDT": [{"ein": "883346689", "name": "ECKARDT FAMILY FOUNDATION INC", "city": "SAINT JAMES", "state": "NY", "zip": "11780-3909", "ntee": "P60", "ruling": "202208", "deductibility": "1", "assets": 0, "income": 0, "revenue": 0}], "UNIQUELY": [{"ein": "883582358", "name": "UNIQUELY PAWS LIMITED", "city": "NEW YORK", "state": "NY", "zip": "10118-6400", "ntee": "D12", "ruling": "202208", "deductibility": "1", "assets": 0, "income": 0, "revenue": 0}, {"ein": "932603969", "name": "UNIQUELY ME CREATIVE ARTS INC", "city": "BROOKLYN", "state": "NY", "zip": "11221-1572", "ntee": "B28", "ruling": "202405", "deductibility": "1", "assets": 0, "income": 0, "revenue": 0}], "TZEVET": [{"ein": "900801125", "name": "TZEVET HATZOLAH EMERGENCY RESPONSE INC", "city": "SPRING VALLEY", "state": "NY", "zip": "10977-1611", "ntee": "M99", "ruling": "201805", "deductibility": "1", "assets": 452402, "income": 497690, "revenue": 497690}], "LAROSA": [{"ein": "920690091", "name": "JOSEPH LAROSA JR FOUNDATION INC", "city": "SETAUKET", "state": "NY", "zip": "11733-0739", "ntee": "T30", "ruling": "202305", "deductibility": "1", "assets": 53233, "income": 144548, "revenue": 67754}], "PINEVILLE": [{"ein": "922869095", "name": "PINEVILLE INITIATIVE INC", "city": "BROOKLYN", "state": "NY", "zip": "11220-1807", "ntee": "B90", "ruling": "202305", "deductibility": "1", "assets": 0, "income": 0, "revenue": 0}], "IRACI": [{"ein": "923353777", "name": "ANTHONY R IRACI MEMORIAL FOUNDATION INC", "city": "STATEN ISLAND", "state": "NY", "zip": "10302-2425", "ntee": "A12", "ruling": "202310", "deductibility": "1", "assets": 0, "income": 0, "revenue": 0}], "NOVELLOS": [{"ein": "932834719", "name": "JAMISON NOVELLOS STILL SPARKLING FOUNDATION INC", "city": "ROCKVILLE CTR", "state": "NY", "zip": "11570-4203", "ntee": "T20", "ruling": "202401", "deductibility": "1", "assets": 0, "income": 0, "revenue": 0}], "KANGALEE": [{"ein": "933609817", "name": "KANGALEE ARTS ENSEMBLE INC", "city": "BROOKLYN", "state": "NY", "zip": "11238-4331", "ntee": "A60", "ruling": "202310", "deductibility": "1", "assets": 0, "income": 0, "revenue": 0}], "PAM": [{"ein": "934628767", "name": "PAM FOUNDATION INC", "city": "ALBANY", "state": "NY", "zip": "12207-2922", "ntee": "T30", "ruling": "202411", "deductibility": "1", "assets": 0, "income": 0, "revenue": 0}], "BENETIA": [{"ein": "934651296", "name": "BENETIA JOHNSON DRUM CORPS INC", "city": "BROOKLYN", "state": "NY", "zip": "11233-4823", "ntee": "P20", "ruling": "202401", "deductibility": "1", "assets": 0, "income": 0, "revenue": 0}], "SAHGAMI": [{"ein": "990913870", "name": "SAHGAMI FOUNDATION", "city": "SCARSDALE", "state": "NY", "zip": "10583-1048", "ntee": "B80", "ruling": "202406", "deductibility": "1", "assets": 0, "income": 0, "revenue": 0}], "WIDGET": [{"ein": "991656902", "name": "WIDGET WILDLIFE WEE-HAB", "city": "CHITTENANGO", "state": "NY", "zip": "13037-8791", "ntee": "P20", "ruling": "202404", "deductibility": "1", "assets": 0, "income": 0, "revenue": 0}], "EHRLICHA": [{"ein": "992065827", "name": "EHRLICHA KINDER", "city": "BROOKLYN", "state": "NY", "zip": "11218-5913", "ntee": "X30", "ruling": "202405", "deductibility": "1", "assets": 0, "income": 0, "revenue": 0}], "FEMINARUM": [{"ein": "994721392", "name": "VOX FEMINARUM CORP", "city": "NEW YORK", "state": "NY", "zip": "10031-7345", "ntee": "A68", "ruling": "202409", "deductibility": "1", "assets": 0, "income": 0, "revenue": 0}]}