{"HAVESTRAW": [{"ein": "010632456", "name": "TOWN OF HAVESTRAW SENIOR CITIZENS CLUB INC", "city": "HAVERSTRAW", "state": "NY", "zip": "10923-1742", "ntee": "P81", "ruling": "200602", "deductibility": "1", "assets": 12961, "income": 52726, "revenue": 52726}, {"ein": "994384640", "name": "CONGREGATION KHAL CHASSIDIM OF HAVESTRAW INC", "city": "POMONA", "state": "NY", "zip": "10970-2656", "ntee": "X99", "ruling": "202408", "deductibility": "1", "assets": 0, "income": 0, "revenue": 0}], "PROMOTION": [{"ein": "010698861", "name": "SOCIETY FOR THE PROMOTION OF WINTER CARNIVAL OF SARANAC LAKE INC", "city": "SARANAC LAKE", "state": "NY", "zip": "12983-0829", "ntee": "N52", "ruling": "201407", "deductibility": "2", "assets": 211551, "income": 169814, "revenue": 148281}, {"ein": "061646697", "name": "COMMUNITY HEALTH PROMOTION PROJECT", "city": "NEW YORK", "state": "NY", "zip": "10016-1761", "ntee": "E70", "ruling": "200305", "deductibility": "1", "assets": 0, "income": 0, "revenue": 0}, {"ein": "112483349", "name": "ROOFING INDUSTRY PROMOTION FUND", "city": "BROOKLYN", "state": "NY", "zip": "11241-1022", "ntee": "", "ruling": "197903", "deductibility": "2", "assets": 1573402, "income": 472748, "revenue": 472748}, {"ein": "112511065", "name": "BUILDING RESTORATION CONTRACTORS INDUSTRY PROMOTION FUND OF NY", "city": "BROOKLYN", "state": "NY", "zip": "11241-1022", "ntee": "", "ruling": "197912", "deductibility": "2", "assets": 539466, "income": 279422, "revenue": 279422}, {"ein": "112646781", "name": "PLUMBING INDUSTRY PROMOTION FUND OF LONG ISLAND", "city": "NORTH BABYLON", "state": "NY", "zip": "11703-3805", "ntee": "", "ruling": "198309", "deductibility": "2", "assets": 1667501, "income": 695991, "revenue": 695991}, {"ein": "112893610", "name": "NORTH FORK PROMOTION COUNCIL INC", "city": "SOUTHOLD", "state": "NY", "zip": "11971-0944", "ntee": "S41", "ruling": "201106", "deductibility": "2", "assets": 0, "income": 0, "revenue": 0}, {"ein": "113271731", "name": "BOILERMAKERS INDUSTRY PROMOTION FUN", "city": "BROOKLYN", "state": "NY", "zip": "11241-1022", "ntee": "", "ruling": "199601", "deductibility": "2", "assets": 408760, "income": 79079, "revenue": 79079}, {"ein": "113284427", "name": "CENTER FOR MENTAL HEALTH PROMOTION INC", "city": "BAYPORT", "state": "NY", "zip": "11705-2229", "ntee": "F80", "ruling": "199506", "deductibility": "1", "assets": 68096, "income": 146350, "revenue": 146350}, {"ein": "113294805", "name": "CHINESE CULTURAL PROMOTION OF AMERICA INC", "city": "FLUSHING", "state": "NY", "zip": "11354-3013", "ntee": "A23Z", "ruling": "199605", "deductibility": "1", "assets": 0, "income": 0, "revenue": 0}, {"ein": "113309529", "name": "NORTH SHORE PROMOTION ALLIANCE INC", "city": "STONY BROOK", "state": "NY", "zip": "11790-0572", "ntee": "", "ruling": "199701", "deductibility": "2", "assets": 0, "income": 0, "revenue": 0}, {"ein": "113503686", "name": "RADIN INSTITUTE FOR FAMILY HEALTH EDUCATION & PROMOTION RIFHEP INC", "city": "NEW YORK", "state": "NY", "zip": "10017-0000", "ntee": "E70", "ruling": "200108", "deductibility": "1", "assets": 0, "income": 0, "revenue": 0}, {"ein": "132911908", "name": "WESTCHESTER & PUTNAM COUNTIES STEAMFITTER INDUSTRY PROMOTION FUN", "city": "BRIARCLIFF MANOR", "state": "NY", "zip": "10510-1051", "ntee": "S41", "ruling": "199104", "deductibility": "2", "assets": 1200145, "income": 437122, "revenue": 437122}, {"ein": "132923724", "name": "ASSOCIATION OF MASTER PNTRS & DECO RATORS OF NYC IND PROMOTION FUND", "city": "NEW YORK", "state": "NY", "zip": "10001-0024", "ntee": "", "ruling": "197803", "deductibility": "2", "assets": 2409051, "income": 1316296, "revenue": 1316296}, {"ein": "133084705", "name": "WINDOW AND PLATE GLASS DEALERS ASSOCIATION INDUSTRY PROMOTION FUN", "city": "NANUET", "state": "NY", "zip": "10954-5285", "ntee": "", "ruling": "198110", "deductibility": "2", "assets": 2516342, "income": 477193, "revenue": 337757}, {"ein": "133096060", "name": "CEMENT LEAGUE ADVANCEMENT & PROMOTION FUND", "city": "NEW YORK", "state": "NY", "zip": "10036-4603", "ntee": "", "ruling": "198202", "deductibility": "2", "assets": 13164247, "income": 1989718, "revenue": 780997}, {"ein": "133100063", "name": "ASSOCIATION FOR PROMOTION OF JEWISH SECULARISM", "city": "BROOKLYN", "state": "NY", "zip": "11213-0049", "ntee": "A90Z", "ruling": "199807", "deductibility": "1", "assets": 1361608, "income": 641940, "revenue": 641057}, {"ein": "133803696", "name": "PROMOTION OF EDUCATION IN PAKISTAN FOUNDATION INC", "city": "STATEN ISLAND", "state": "NY", "zip": "10314-2408", "ntee": "Q30", "ruling": "201407", "deductibility": "1", "assets": 1115564, "income": 148582, "revenue": 12946}, {"ein": "136180291", "name": "SOCIETY FOR THE PROMOTION OF JEWISH EDUCATION INC", "city": "NEW YORK", "state": "NY", "zip": "10033-0000", "ntee": "B20J", "ruling": "199904", "deductibility": "1", "assets": 21244, "income": 34624, "revenue": 34624}, {"ein": "136213168", "name": "SHEET METAL INDUSTRY PROMOTION FUND OF NEW YORK CITY", "city": "BROOKLYN", "state": "NY", "zip": "11241-1021", "ntee": "", "ruling": "196709", "deductibility": "2", "assets": 3201226, "income": 1179227, "revenue": 1179227}, {"ein": "136272083", "name": "PLUMBING INDUSTRY PROMOTION FUND OF NEW YORK CITY", "city": "NEW YORK", "state": "NY", "zip": "10018-1716", "ntee": "", "ruling": "196806", "deductibility": "2", "assets": 4241984, "income": 2148699, "revenue": 2148699}, {"ein": "136353009", "name": "CERAMIC TILE PROMOTION FUND OF GREATER NEW YORK", "city": "AMITYVILLE", "state": "NY", "zip": "11701-2821", "ntee": "", "ruling": "197110", "deductibility": "2", "assets": 574910, "income": 136989, "revenue": 136989}, {"ein": "161159692", "name": "SPEAK SOCIETY FOR THE PROMOTION OF EDUCATION IN ANIMAL KINDNESS", "city": "APALACHIN", "state": "NY", "zip": "13732-4140", "ntee": "D200", "ruling": "197712", "deductibility": "1", "assets": 1127594, "income": 73335, "revenue": 73335}, {"ein": "161651233", "name": "KOREA YOUTH PROMOTION ASSOCIATION OF USA INC", "city": "FLUSHING", "state": "NY", "zip": "11358-3127", "ntee": "N60", "ruling": "200909", "deductibility": "1", "assets": 147530, "income": 90911, "revenue": 90911}, {"ein": "203406405", "name": "NEW YORK SPA PROMOTION ALLIANCE", "city": "SKANEATELES", "state": "NY", "zip": "13152-9303", "ntee": "S41", "ruling": "200802", "deductibility": "2", "assets": 0, "income": 0, "revenue": 0}, {"ein": "222533370", "name": "ASSOCIATION FOR THE PROMOTION OF NEW MUSIC INC CERAR", "city": "BRONX", "state": "NY", "zip": "10463-6260", "ntee": "A68", "ruling": "201410", "deductibility": "1", "assets": 0, "income": 0, "revenue": 0}, {"ein": "333806267", "name": "KUNOL PROMOTION FEDERATION INC", "city": "BROOKLYN", "state": "NY", "zip": "11225-4801", "ntee": "A23", "ruling": "202504", "deductibility": "1", "assets": 0, "income": 0, "revenue": 0}, {"ein": "364636298", "name": "LOCAL 580 LABOR MANAGEMENT PROMOTION FUND", "city": "NEW YORK", "state": "NY", "zip": "10036-6205", "ntee": "J40", "ruling": "200903", "deductibility": "2", "assets": 4439071, "income": 5938164, "revenue": 378443}, {"ein": "472750142", "name": "GLOBAL HEALTH PROMOTION UNITED ASSOCIATION INC", "city": "AMSTERDAM", "state": "NY", "zip": "12010-0000", "ntee": "X50", "ruling": "201507", "deductibility": "1", "assets": 0, "income": 0, "revenue": 0}, {"ein": "474566508", "name": "CENTER FOR EDUCATION AND PROFESSIONAL PROMOTION INCORPORATE", "city": "NEW YORK", "state": "NY", "zip": "10028-4305", "ntee": "B60", "ruling": "201510", "deductibility": "1", "assets": 0, "income": 0, "revenue": 0}, {"ein": "800328798", "name": "LOCAL 40 AND LOCAL 361 LABOR MANAGEMENT PROMOTION FUND", "city": "NEW YORK", "state": "NY", "zip": "10016-7390", "ntee": "J40", "ruling": "200904", "deductibility": "2", "assets": 0, "income": 0, "revenue": 0}, {"ein": "812830573", "name": "WORLD BUDDHISM PROMOTION ASSOCIATION INC", "city": "NEW YORK", "state": "NY", "zip": "10023-7859", "ntee": "X50", "ruling": "201703", "deductibility": "1", "assets": 0, "income": 0, "revenue": 0}, {"ein": "814636939", "name": "INTERNATIONAL CULTURE ATHLETIC PROMOTION ASSOCIATION INC", "city": "BAYSIDE", "state": "NY", "zip": "11361-8010", "ntee": "A99", "ruling": "202408", "deductibility": "1", "assets": 0, "income": 0, "revenue": 0}, {"ein": "833547337", "name": "MID-NEW YORK ENVIRONMENTAL AND SUSTAINABILTY PROMOTION COMMITTEE", "city": "NEW PALTZ", "state": "NY", "zip": "12561-1758", "ntee": "C02", "ruling": "202004", "deductibility": "1", "assets": 0, "income": 0, "revenue": 0}, {"ein": "841658946", "name": "EASTERN U S TAIWAN CULTURE PROMOTION ASSOCIATION INC", "city": "NEW HAMPTON", "state": "NY", "zip": "10958-0207", "ntee": "A23", "ruling": "200710", "deductibility": "1", "assets": 8510, "income": 1, "revenue": 1}, {"ein": "921947590", "name": "INTERNATIONAL SDGS PROMOTION FOUNDATION", "city": "WOODSIDE", "state": "NY", "zip": "11377-2743", "ntee": "S20", "ruling": "202501", "deductibility": "1", "assets": 0, "income": 0, "revenue": 0}], "BASICS": [{"ein": "010864001", "name": "BABY BASICS NYC INC", "city": "NEW YORK", "state": "NY", "zip": "10024-4204", "ntee": "P40", "ruling": "200606", "deductibility": "1", "assets": 0, "income": 0, "revenue": 0}, {"ein": "454111369", "name": "BACK 2 BASICS ACADEMY", "city": "BEACON", "state": "NY", "zip": "12508-3105", "ntee": "O50", "ruling": "201602", "deductibility": "1", "assets": 0, "income": 0, "revenue": 0}, {"ein": "883489854", "name": "BACK TO BASICS MINISTRY USA INC", "city": "ALBANY", "state": "NY", "zip": "12203-2612", "ntee": "X20", "ruling": "202210", "deductibility": "1", "assets": 0, "income": 0, "revenue": 0}], "DIRECTION": [{"ein": "010914112", "name": "CHURCH OF A NEW DIRECTION OF THE HOLY SPIRIT", "city": "BROOKLYN", "state": "NY", "zip": "11236-5014", "ntee": "X20", "ruling": "201106", "deductibility": "1", "assets": 0, "income": 0, "revenue": 0}, {"ein": "133597573", "name": "NEW DIRECTION BAPTIST CHURCH", "city": "STATEN ISLAND", "state": "NY", "zip": "10301-2237", "ntee": "", "ruling": "199209", "deductibility": "1", "assets": 0, "income": 0, "revenue": 0}, {"ein": "133962713", "name": "POSITIVE DIRECTION OF QUEENS COUNTY INC", "city": "ROSEDALE", "state": "NY", "zip": "11422-1722", "ntee": "N62", "ruling": "201310", "deductibility": "1", "assets": 0, "income": 0, "revenue": 0}, {"ein": "134118080", "name": "NEW DIRECTION SERVICES INC", "city": "STATEN ISLAND", "state": "NY", "zip": "10302-1839", "ntee": "B60", "ruling": "200008", "deductibility": "1", "assets": 89547, "income": 483363, "revenue": 483363}, {"ein": "477308226", "name": "FAMILY-SELF-DIRECTION TR", "city": "MASSAPEQUA", "state": "NY", "zip": "11758-1847", "ntee": "R23", "ruling": "201510", "deductibility": "1", "assets": 0, "income": 0, "revenue": 0}, {"ein": "813269600", "name": "RIGHT DIRECTION RESOURCE CENTER", "city": "CHEEKTOWAGA", "state": "NY", "zip": "14225-3928", "ntee": "O50", "ruling": "201609", "deductibility": "1", "assets": 0, "income": 0, "revenue": 0}, {"ein": "821581953", "name": "TBS NEW DIRECTION INC", "city": "BRONX", "state": "NY", "zip": "10475-4842", "ntee": "P20", "ruling": "202103", "deductibility": "1", "assets": 1, "income": 0, "revenue": 0}, {"ein": "884084210", "name": "GREATER DIRECTION INC", "city": "BROOKLYN", "state": "NY", "zip": "11225-3325", "ntee": "O20", "ruling": "202303", "deductibility": "1", "assets": 0, "income": 0, "revenue": 0}, {"ein": "932606258", "name": "MY YOUTH NEED DIRECTION RITE CORPORATION", "city": "BROOKLYN", "state": "NY", "zip": "11233-4070", "ntee": "O50", "ruling": "202403", "deductibility": "1", "assets": 0, "income": 0, "revenue": 0}], "EKSTEIN": [{"ein": "020665786", "name": "ABRAHAM & RAIZEL EKSTEIN CHARITABLE FOUNDATION", "city": "MONSEY", "state": "NY", "zip": "10952-2616", "ntee": "T20", "ruling": "200304", "deductibility": "1", "assets": 124755, "income": 1, "revenue": 0}, {"ein": "113576396", "name": "D&D EKSTEIN FAMILY FOUNDATION INC", "city": "MONROE", "state": "NY", "zip": "10950-3833", "ntee": "T23", "ruling": "200104", "deductibility": "1", "assets": 251772, "income": 10307, "revenue": 0}, {"ein": "202751975", "name": "EKSTEIN GROUP FOUNDATION INC", "city": "MONROE", "state": "NY", "zip": "10950-9109", "ntee": "X30", "ruling": "200905", "deductibility": "1", "assets": 1, "income": 1, "revenue": 0}], "ADVENTISTS": [{"ein": "030469980", "name": "TRINITY TEMPLE MINISTRIES OF ADVENTISTS INC", "city": "BROOKLYN", "state": "NY", "zip": "11203-3052", "ntee": "X20", "ruling": "200303", "deductibility": "1", "assets": 0, "income": 0, "revenue": 0}, {"ein": "112642768", "name": "GENERAL ASSOCIATION OF DAVIDIAN SEVENTH DAY ADVENTISTS MT CARMEL", "city": "MOUNTAIN DALE", "state": "NY", "zip": "12763-0119", "ntee": "", "ruling": "198805", "deductibility": "1", "assets": 0, "income": 0, "revenue": 0}, {"ein": "131865286", "name": "NORTHEASTERN CONFERENCE OF SEVENTH DAY ADVENTISTS", "city": "JAMAICA", "state": "NY", "zip": "11434-0000", "ntee": "", "ruling": "195001", "deductibility": "1", "assets": 0, "income": 0, "revenue": 0}, {"ein": "133558616", "name": "SEVENTH DAY ADVENTISTS", "city": "MANHASSET", "state": "NY", "zip": "11030-5029", "ntee": "", "ruling": "194704", "deductibility": "1", "assets": 0, "income": 0, "revenue": 0}, {"ein": "753164029", "name": "EAST NIGERIA SEVENTH DAY ADVENTISTS IN NEW YORK METROPOLITAN AREA", "city": "NEW ROCHELLE", "state": "NY", "zip": "10801-3209", "ntee": "B82", "ruling": "201003", "deductibility": "1", "assets": 0, "income": 0, "revenue": 0}, {"ein": "822655766", "name": "ADVENTISTS FOR SOCIAL JUSTICE INC", "city": "BRONX", "state": "NY", "zip": "10471-1403", "ntee": "P20", "ruling": "201804", "deductibility": "1", "assets": 0, "income": 0, "revenue": 0}, {"ein": "912147187", "name": "SEVENTH DAY ADVENTISTS", "city": "ROOSEVELT", "state": "NY", "zip": "11575-1452", "ntee": "", "ruling": "194704", "deductibility": "1", "assets": 0, "income": 0, "revenue": 0}], "MANORVILLE": [{"ein": "030540120", "name": "MANORVILLE CHAMBER OF COMMERCE INC", "city": "MANORVILLE", "state": "NY", "zip": "11949-0232", "ntee": "S41", "ruling": "200510", "deductibility": "2", "assets": 0, "income": 0, "revenue": 0}, {"ein": "112867871", "name": "MANORVILLE HISTORICAL SOCIETY", "city": "MANORVILLE", "state": "NY", "zip": "11949-0004", "ntee": "A54", "ruling": "201803", "deductibility": "1", "assets": 0, "income": 0, "revenue": 0}, {"ein": "113042631", "name": "MANORVILLE COMMUNITY CHURCH", "city": "MANORVILLE", "state": "NY", "zip": "11949-0748", "ntee": "", "ruling": "198601", "deductibility": "1", "assets": 0, "income": 0, "revenue": 0}, {"ein": "113260521", "name": "MANORVILLE SOCCER LEAGUE INC", "city": "MANORVILLE", "state": "NY", "zip": "11949-0015", "ntee": "N64", "ruling": "200708", "deductibility": "1", "assets": 33326, "income": 199484, "revenue": 199484}, {"ein": "237224943", "name": "MANORVILLE FIRE DEPARTMENT INC", "city": "MANORVILLE", "state": "NY", "zip": "11949-2412", "ntee": "", "ruling": "197310", "deductibility": "2", "assets": 180941, "income": 69739, "revenue": 69739}, {"ein": "263652829", "name": "MANORVILLE COMMUNITY AMBULANCE BENEVOLENT ASSOC", "city": "MANORVILLE", "state": "NY", "zip": "11949-0003", "ntee": "M12", "ruling": "201602", "deductibility": "2", "assets": 0, "income": 0, "revenue": 0}, {"ein": "510197083", "name": "MANORVILLE COMMUNITY AMBULANCE INC", "city": "MANORVILLE", "state": "NY", "zip": "11949-3051", "ntee": "M41", "ruling": "200807", "deductibility": "1", "assets": 3064891, "income": 1702500, "revenue": 1702500}, {"ein": "800725987", "name": "MANORVILLE FIRE DEPT CO 4 INC", "city": "MANORVILLE", "state": "NY", "zip": "11949-2412", "ntee": "M24", "ruling": "201205", "deductibility": "1", "assets": 0, "income": 0, "revenue": 0}, {"ein": "871048119", "name": "MANORVILLE FIRE DEPARTMENT COMPANY ONE", "city": "MANORVILLE", "state": "NY", "zip": "11949-2412", "ntee": "Y12", "ruling": "202108", "deductibility": "1", "assets": 0, "income": 0, "revenue": 0}], "END": [{"ein": "043622083", "name": "WITS END PLAYERS INC", "city": "JAMESVILLE", "state": "NY", "zip": "13078-9716", "ntee": "A65", "ruling": "200210", "deductibility": "1", "assets": 0, "income": 0, "revenue": 0}, {"ein": "061546314", "name": "EAST END HOSPICE GROUP INC", "city": "W HAMPTON BCH", "state": "NY", "zip": "11978-1216", "ntee": "P74", "ruling": "199908", "deductibility": "1", "assets": 465, "income": 0, "revenue": 0}, {"ein": "111735958", "name": "EAST END BAPTIST CHURCH", "city": "BROOKLYN", "state": "NY", "zip": "11207-3622", "ntee": "", "ruling": "196501", "deductibility": "0", "assets": 0, "income": 0, "revenue": 0}, {"ein": "112285495", "name": "EAST END ARTS & HUMANITIES COUNCIL", "city": "FLANDERS", "state": "NY", "zip": "11901-2455", "ntee": "", "ruling": "197312", "deductibility": "1", "assets": 187243, "income": 780403, "revenue": 780403}, {"ein": "112490224", "name": "EAST END CHURCH OF CHRIST INC", "city": "GREENPORT", "state": "NY", "zip": "11944-1124", "ntee": "X20", "ruling": "200204", "deductibility": "1", "assets": 0, "income": 0, "revenue": 0}, {"ein": "112576019", "name": "WEST END GARDENS HOUSING DEVELOP- MENT FUND COMPANY INC", "city": "BROOKLYN", "state": "NY", "zip": "11218-5708", "ntee": "L21Z", "ruling": "198109", "deductibility": "1", "assets": 3623950, "income": 139140, "revenue": 139140}, {"ein": "112671708", "name": "EAST END WOMENS NETWORK INC", "city": "RIVERHEAD", "state": "NY", "zip": "11901-0904", "ntee": "V32", "ruling": "201705", "deductibility": "1", "assets": 0, "income": 0, "revenue": 0}, {"ein": "112878502", "name": "EAST END HOSPICE INC", "city": "W HAMPTON BCH", "state": "NY", "zip": "11978-7048", "ntee": "P740", "ruling": "198803", "deductibility": "1", "assets": 19897282, "income": 15153572, "revenue": 12789741}, {"ein": "113021354", "name": "LUBAVITCH OF THE EAST END INC", "city": "CORAM", "state": "NY", "zip": "11727-2403", "ntee": "", "ruling": "199104", "deductibility": "1", "assets": 0, "income": 0, "revenue": 0}, {"ein": "113048109", "name": "EAST END SPECIAL PLAYERS INC", "city": "WATER MILL", "state": "NY", "zip": "11976-2632", "ntee": "N99Z", "ruling": "199503", "deductibility": "1", "assets": 133126, "income": 116138, "revenue": 116138}, {"ein": "113049329", "name": "EAST END HEALTH PLAN INC", "city": "PATCHOGUE", "state": "NY", "zip": "11772-1868", "ntee": "Y44", "ruling": "199209", "deductibility": "2", "assets": 0, "income": 0, "revenue": 0}, {"ein": "113109151", "name": "EAST END SEAPORT MUSEUM AND MARINE", "city": "GREENPORT", "state": "NY", "zip": "11944-0624", "ntee": "S31I", "ruling": "199209", "deductibility": "1", "assets": 346552, "income": 307125, "revenue": 307125}, {"ein": "113183422", "name": "EAST END DISABILITIES GROUP", "city": "EAST HAMPTON", "state": "NY", "zip": "11937-2138", "ntee": "P01", "ruling": "201406", "deductibility": "1", "assets": 0, "income": 0, "revenue": 0}, {"ein": "113288194", "name": "END TIME MINISTRIES INC", "city": "ROOSEVELT", "state": "NY", "zip": "11575-1225", "ntee": "X20", "ruling": "199903", "deductibility": "1", "assets": 0, "income": 0, "revenue": 0}, {"ein": "113318718", "name": "EAST END DISABILITY ASSOCIATES INC", "city": "RIVERHEAD", "state": "NY", "zip": "11901-2700", "ntee": "P80", "ruling": "199606", "deductibility": "1", "assets": 16146700, "income": 36706580, "revenue": 36615401}, {"ein": "113431939", "name": "CHILDRENS MUSEUM OF THE EAST END", "city": "BRIDGEHAMPTON", "state": "NY", "zip": "11932-0316", "ntee": "A520", "ruling": "199810", "deductibility": "1", "assets": 4638415, "income": 2075138, "revenue": 1865891}, {"ein": "113469051", "name": "PEOPLE FOR THE END OF ANIMAL CRUELTY AND EXPLOITATION", "city": "EAST HAMPTON", "state": "NY", "zip": "11937-2150", "ntee": "D20", "ruling": "199902", "deductibility": "1", "assets": 0, "income": 0, "revenue": 0}, {"ein": "113513544", "name": "EAST END CLASSIC BOAT SOCIETY INC", "city": "EAST HAMPTON", "state": "NY", "zip": "11937-0906", "ntee": "A80", "ruling": "200003", "deductibility": "1", "assets": 309234, "income": 47115, "revenue": 45825}, {"ein": "113528597", "name": "GREATER BETH-U-EL TABERNACLE CHURCH OF OUR LORD JESUS CHRIST END-TIME", "city": "WESTBURY", "state": "NY", "zip": "11590-1209", "ntee": "X21", "ruling": "200003", "deductibility": "1", "assets": 0, "income": 0, "revenue": 0}, {"ein": "113534812", "name": "EAST END LITTLE LEAGUE INC", "city": "WESTHAMPTON", "state": "NY", "zip": "11977-0554", "ntee": "", "ruling": "196701", "deductibility": "1", "assets": 36323, "income": 75131, "revenue": 75131}, {"ein": "113557023", "name": "HELPING END VIOLENCE NOW INC", "city": "UNIONDALE", "state": "NY", "zip": "11553-3129", "ntee": "I20", "ruling": "202004", "deductibility": "1", "assets": 0, "income": 0, "revenue": 0}, {"ein": "113616368", "name": "EAST END MARINE FARMERS ASSOCIATION INC", "city": "SOUTHOLD", "state": "NY", "zip": "11971-0266", "ntee": "S41", "ruling": "202209", "deductibility": "2", "assets": 0, "income": 0, "revenue": 0}, {"ein": "113618054", "name": "EAST END PHOTOGRAPHERS GROUP INC", "city": "EAST HAMPTON", "state": "NY", "zip": "11937-4705", "ntee": "A40", "ruling": "201301", "deductibility": "2", "assets": 0, "income": 0, "revenue": 0}, {"ein": "113809930", "name": "ELMONT EAST END CHEMICAL ENGINE AND HOSE COMPANY INC", "city": "ELMONT", "state": "NY", "zip": "11003-3241", "ntee": "M24", "ruling": "201405", "deductibility": "1", "assets": 1258534, "income": 126624, "revenue": 126624}, {"ein": "132789089", "name": "WEST END SYNAGOGUE", "city": "NEW YORK", "state": "NY", "zip": "10024-1705", "ntee": "", "ruling": "197512", "deductibility": "1", "assets": 0, "income": 0, "revenue": 0}, {"ein": "133442001", "name": "WEST END RESIDENCES HDFC INC", "city": "NEW YORK", "state": "NY", "zip": "10115-0701", "ntee": "L20Z", "ruling": "199708", "deductibility": "1", "assets": 8961014, "income": 5705173, "revenue": 5705173}, {"ein": "133732698", "name": "THE PARTNERSHIP TO END HOMELESSNESS INC", "city": "NEW YORK", "state": "NY", "zip": "10001-6008", "ntee": "L41", "ruling": "199403", "deductibility": "1", "assets": 2127919, "income": 2779732, "revenue": 2779732}, {"ein": "133755580", "name": "ECPAT USA END CHILD PROSTITUTION CHILD PORNOGRAPHY AND TRAFFICKING", "city": "BROOKLYN", "state": "NY", "zip": "11237-0743", "ntee": "Q017", "ruling": "199409", "deductibility": "1", "assets": 2993210, "income": 4270845, "revenue": 3240922}, {"ein": "133889938", "name": "PENTECOSTAL CHURCH THE END IS NEAR INC", "city": "BRONX", "state": "NY", "zip": "10467-2152", "ntee": "X20Z", "ruling": "199806", "deductibility": "1", "assets": 0, "income": 0, "revenue": 0}, {"ein": "134044967", "name": "END TIME HARVEST MINISTRIES INC", "city": "BARDONIA", "state": "NY", "zip": "10954-2137", "ntee": "X21", "ruling": "200101", "deductibility": "1", "assets": 0, "income": 0, "revenue": 0}, {"ein": "134048114", "name": "END OF LIFE CHOICES NEW YORK", "city": "NEW YORK", "state": "NY", "zip": "10001-7604", "ntee": "", "ruling": "201503", "deductibility": "1", "assets": 242769, "income": 253181, "revenue": 253181}, {"ein": "135602328", "name": "EAST END TEMPLE-CONGREGATION ELEMEN T", "city": "NEW YORK", "state": "NY", "zip": "10010-0000", "ntee": "X30", "ruling": "199810", "deductibility": "1", "assets": 0, "income": 0, "revenue": 0}, {"ein": "136379135", "name": "GROUP FOR THE EAST END INC", "city": "SOUTHOLD", "state": "NY", "zip": "11971-0950", "ntee": "C010", "ruling": "197209", "deductibility": "1", "assets": 2443138, "income": 1319276, "revenue": 1128591}, {"ein": "141604145", "name": "SOUTH END IMPROVEMENT CORPORATION", "city": "ALBANY", "state": "NY", "zip": "12202-1605", "ntee": "S20Z", "ruling": "198110", "deductibility": "1", "assets": 195614, "income": 185111, "revenue": 185111}, {"ein": "141810530", "name": "RAINBOWS END CHILD DEVELOPMENT CENTER INC", "city": "SALT POINT", "state": "NY", "zip": "12578-0214", "ntee": "B21", "ruling": "199902", "deductibility": "1", "assets": 0, "income": 0, "revenue": 0}, {"ein": "141949805", "name": "WEST END ARTS", "city": "LONG BEACH", "state": "NY", "zip": "11561-1237", "ntee": "A26", "ruling": "200701", "deductibility": "1", "assets": 0, "income": 0, "revenue": 0}, {"ein": "161242203", "name": "JOURNEYS END REFUGEE SERVICES", "city": "BUFFALO", "state": "NY", "zip": "14214-2135", "ntee": "", "ruling": "198706", "deductibility": "1", "assets": 5408533, "income": 10904264, "revenue": 10799260}, {"ein": "201579114", "name": "ANNOINTED END TIME OUTREACH TABERNACLE INC", "city": "BRONX", "state": "NY", "zip": "10470-1001", "ntee": "X21", "ruling": "200511", "deductibility": "1", "assets": 144276, "income": 23359, "revenue": 23359}, {"ein": "222567563", "name": "SOUTH END CHURCH OF CHRIST", "city": "TROY", "state": "NY", "zip": "12180-6211", "ntee": "", "ruling": "198502", "deductibility": "1", "assets": 0, "income": 0, "revenue": 0}, {"ein": "260346133", "name": "SOCIETY TO END PARKINSONS DISEASE", "city": "PORT JEFF STA", "state": "NY", "zip": "11776-3206", "ntee": "T300", "ruling": "200804", "deductibility": "1", "assets": 11835, "income": 0, "revenue": 0}, {"ein": "261149237", "name": "CENTER FOR THERAPEUTIC RIDING OF THE EAST END INC", "city": "BRIDGEHAMPTON", "state": "NY", "zip": "11932-1148", "ntee": "E50", "ruling": "200808", "deductibility": "1", "assets": 112591, "income": 357100, "revenue": 252430}, {"ein": "261661287", "name": "WEST END PRESERVATION SOCIETY INC", "city": "NEW YORK", "state": "NY", "zip": "10024-4337", "ntee": "A80", "ruling": "200909", "deductibility": "1", "assets": 0, "income": 0, "revenue": 0}, {"ein": "262661485", "name": "EAST END TOURISM ALLIANCE INC", "city": "RIVERHEAD", "state": "NY", "zip": "11901-2556", "ntee": "S41", "ruling": "200903", "deductibility": "2", "assets": 48714, "income": 139672, "revenue": 139672}, {"ein": "262708870", "name": "EAST END AFRICAN AMERICAN MUSEUM AND CENTER FOR EXCELLENCE", "city": "SOUTHAMPTON", "state": "NY", "zip": "11968-2070", "ntee": "A54", "ruling": "201910", "deductibility": "1", "assets": 370928, "income": 195534, "revenue": 195534}, {"ein": "270443756", "name": "SPRING VALLEY ROTARY SCHOOLS TO END POVERTY STEP INC", "city": "AIRMONT", "state": "NY", "zip": "10952-4407", "ntee": "Q33", "ruling": "200909", "deductibility": "1", "assets": 104571, "income": 56294, "revenue": 54379}, {"ein": "271962169", "name": "EAST END FOOD INSTITUTE", "city": "SOUTHAMPTON", "state": "NY", "zip": "11969-0356", "ntee": "K40", "ruling": "201012", "deductibility": "1", "assets": 3438515, "income": 1691437, "revenue": 1691437}, {"ein": "272436312", "name": "EAST END ERUV ASSOCIATION INC", "city": "NEW YORK", "state": "NY", "zip": "10023-4315", "ntee": "X30", "ruling": "201411", "deductibility": "1", "assets": 43586, "income": 9788, "revenue": 9788}, {"ein": "273551120", "name": "WEST END FOUNDATION", "city": "BROOKLYN", "state": "NY", "zip": "11211-8481", "ntee": "T12", "ruling": "201502", "deductibility": "1", "assets": 446856, "income": 1, "revenue": 0}, {"ein": "273941186", "name": "END FUND INC", "city": "NEW YORK", "state": "NY", "zip": "10016-9303", "ntee": "Q30", "ruling": "201112", "deductibility": "1", "assets": 38929869, "income": 62698882, "revenue": 62672882}, {"ein": "301064058", "name": "MISSION TO END MODERN SLAVERY INC", "city": "LONG ISLAND CITY", "state": "NY", "zip": "11101-2807", "ntee": "P80", "ruling": "202110", "deductibility": "1", "assets": 0, "income": 0, "revenue": 0}, {"ein": "301253891", "name": "END TIME WARRIORS", "city": "BROOKLYN", "state": "NY", "zip": "11203-1808", "ntee": "S20", "ruling": "202108", "deductibility": "1", "assets": 0, "income": 0, "revenue": 0}, {"ein": "364638094", "name": "EAST END OCEAN RESCUE LTD", "city": "EAST HAMPTON", "state": "NY", "zip": "11937-3243", "ntee": "U21", "ruling": "200911", "deductibility": "1", "assets": 0, "income": 0, "revenue": 0}, {"ein": "364717957", "name": "WEST END BEAUTIFICATION ASSOCIATION INC", "city": "LONG BEACH", "state": "NY", "zip": "11561-1539", "ntee": "C50", "ruling": "202211", "deductibility": "1", "assets": 0, "income": 0, "revenue": 0}, {"ein": "431972489", "name": "DRIVE EDUCATED DRIVE INFORMED COMMIT AND TOTALLY END DRUNK DRVNG", "city": "FRANKLIN SQ", "state": "NY", "zip": "11010-2703", "ntee": "I23", "ruling": "200301", "deductibility": "1", "assets": 21288, "income": 45152, "revenue": 45152}, {"ein": "452690482", "name": "HARVEST EAST END INC", "city": "RIVERHEAD", "state": "NY", "zip": "11901-0600", "ntee": "P24", "ruling": "201207", "deductibility": "1", "assets": 26910, "income": 170113, "revenue": 170113}, {"ein": "454825061", "name": "END TO CYBER BULLYING INC", "city": "OLD WESTBURY", "state": "NY", "zip": "11568-1222", "ntee": "P20", "ruling": "201208", "deductibility": "1", "assets": 0, "income": 0, "revenue": 0}, {"ein": "455124688", "name": "EAST END LIVESTOCK AND HORSEMENS ASSOCIATION", "city": "PECONIC", "state": "NY", "zip": "11958-0102", "ntee": "B82", "ruling": "201409", "deductibility": "1", "assets": 0, "income": 0, "revenue": 0}, {"ein": "455302915", "name": "ALL FOR THE EAST END INC", "city": "BRIDGEHAMPTON", "state": "NY", "zip": "11932-2183", "ntee": "P12", "ruling": "201208", "deductibility": "1", "assets": 0, "income": 0, "revenue": 0}, {"ein": "460861046", "name": "EAST END YOUTH SAILING FOUNDATION INC", "city": "NEW SUFFOLK", "state": "NY", "zip": "11956-0086", "ntee": "N67", "ruling": "201210", "deductibility": "1", "assets": 0, "income": 0, "revenue": 0}, {"ein": "463827821", "name": "EAST END WOMENS CHOIR", "city": "EAST MORICHES", "state": "NY", "zip": "11940-1460", "ntee": "A6B", "ruling": "201609", "deductibility": "1", "assets": 0, "income": 0, "revenue": 0}, {"ein": "471994480", "name": "EAST END COUNSELORS ASSOCIATION INC", "city": "RIVERHEAD", "state": "NY", "zip": "11901-0951", "ntee": "B82", "ruling": "201507", "deductibility": "1", "assets": 61636, "income": 59955, "revenue": 59955}, {"ein": "472174510", "name": "EAST END YOUNG ARTS INITIATIVE INC", "city": "EAST HAMPTON", "state": "NY", "zip": "11937-2091", "ntee": "A60", "ruling": "201411", "deductibility": "1", "assets": 0, "income": 0, "revenue": 0}, {"ein": "472833342", "name": "END-TIME HOLY GHOST TABERNACLE", "city": "BRONX", "state": "NY", "zip": "10467-5809", "ntee": "X20", "ruling": "202404", "deductibility": "1", "assets": 0, "income": 0, "revenue": 0}, {"ein": "475260073", "name": "SOUTH END NEIGHBORHOOD TUTORS", "city": "ALBANY", "state": "NY", "zip": "12201-0061", "ntee": "B90", "ruling": "201510", "deductibility": "1", "assets": 197358, "income": 179067, "revenue": 179067}, {"ein": "475375597", "name": "PARENT ASSOCIATION OF WEST END SECONDARY SCHOOL INCORPORATED", "city": "NEW YORK", "state": "NY", "zip": "10023-7835", "ntee": "B94", "ruling": "201604", "deductibility": "1", "assets": 209838, "income": 311846, "revenue": 250607}, {"ein": "521736502", "name": "PARTNERSHIP TO END ADDICTION", "city": "NEW YORK", "state": "NY", "zip": "10017-9212", "ntee": "F010", "ruling": "199107", "deductibility": "1", "assets": 63237232, "income": 50935190, "revenue": 10788916}, {"ein": "814865829", "name": "EAST END ELITE ACADEMY", "city": "W HAMPTON BCH", "state": "NY", "zip": "11978-1806", "ntee": "N60", "ruling": "201701", "deductibility": "1", "assets": 0, "income": 0, "revenue": 0}, {"ein": "815239519", "name": "MISSION TO END LEPROSY INC", "city": "NEW YORK", "state": "NY", "zip": "10019-4702", "ntee": "G12", "ruling": "201710", "deductibility": "1", "assets": 0, "income": 0, "revenue": 0}, {"ein": "815290087", "name": "EAST END FOR OPPORTUNITY INC", "city": "EAST HAMPTON", "state": "NY", "zip": "11937-1025", "ntee": "I80", "ruling": "201703", "deductibility": "1", "assets": 0, "income": 0, "revenue": 0}, {"ein": "822353210", "name": "21 WEST END ASSOCIATION INC", "city": "NEW YORK", "state": "NY", "zip": "10019-6888", "ntee": "N50", "ruling": "201911", "deductibility": "2", "assets": 0, "income": 0, "revenue": 0}, {"ein": "822800838", "name": "GLOBAL ACTION TO END SMOKING INC", "city": "NEW YORK", "state": "NY", "zip": "10170-0399", "ntee": "S05", "ruling": "201907", "deductibility": "1", "assets": 129271030, "income": 65839394, "revenue": 0}, {"ein": "823434643", "name": "SOUTH END CHILDRENS CAFE INC", "city": "ALBANY", "state": "NY", "zip": "12202-1602", "ntee": "P20", "ruling": "202201", "deductibility": "1", "assets": 45081, "income": 482925, "revenue": 482925}, {"ein": "834258166", "name": "CHABAD OF THE CENTRAL WEST END INC", "city": "BROOKLYN", "state": "NY", "zip": "11213-5212", "ntee": "X30", "ruling": "202006", "deductibility": "1", "assets": 0, "income": 0, "revenue": 0}, {"ein": "842866739", "name": "SPECIAL SERVICES EAST END NETWORK INC", "city": "WATER MILL", "state": "NY", "zip": "11976-2632", "ntee": "P80", "ruling": "202011", "deductibility": "1", "assets": 0, "income": 0, "revenue": 0}, {"ein": "843242253", "name": "EAST END MUSIC ALLIANCE INC", "city": "GREENPORT", "state": "NY", "zip": "11944-1404", "ntee": "A01", "ruling": "202004", "deductibility": "1", "assets": 0, "income": 0, "revenue": 0}, {"ein": "852715814", "name": "BIKE TO THE END FOR A FRIEND INC", "city": "ISLIP TERRACE", "state": "NY", "zip": "11752-1505", "ntee": "", "ruling": "202102", "deductibility": "1", "assets": 13349, "income": 37725, "revenue": 37725}, {"ein": "862016985", "name": "FRIENDS OF CHABAD EAST END TORONTO INC", "city": "BROOKLYN", "state": "NY", "zip": "11213-4310", "ntee": "X30", "ruling": "202409", "deductibility": "1", "assets": 0, "income": 0, "revenue": 0}, {"ein": "862942168", "name": "END BOOK DESERTS", "city": "RYE", "state": "NY", "zip": "10580-3526", "ntee": "B01", "ruling": "202107", "deductibility": "1", "assets": 0, "income": 0, "revenue": 0}, {"ein": "882920738", "name": "EAST END UNITED COMMUNITY PARTNERS INC", "city": "ORIENT", "state": "NY", "zip": "11957-0653", "ntee": "P84", "ruling": "202207", "deductibility": "1", "assets": 0, "income": 0, "revenue": 0}, {"ein": "900453927", "name": "EAST END MEMORIAL SOCCER TOURNAMENT INC", "city": "MASTIC", "state": "NY", "zip": "11950-4513", "ntee": "N64", "ruling": "201507", "deductibility": "1", "assets": 0, "income": 0, "revenue": 0}, {"ein": "920800104", "name": "WORLDS END SCHOOL OF THOUGHT AGRICULTURE AND CRAFT INC", "city": "ESPERANCE", "state": "NY", "zip": "12066-1901", "ntee": "K99", "ruling": "202311", "deductibility": "1", "assets": 857, "income": 155083, "revenue": 155083}, {"ein": "921664902", "name": "EAST END ATHLETICS INC", "city": "EAST MORICHES", "state": "NY", "zip": "11940-1532", "ntee": "N99", "ruling": "202302", "deductibility": "1", "assets": 0, "income": 0, "revenue": 0}, {"ein": "932269490", "name": "EAST END CENTER FOR INDEPENDENCE", "city": "CUTCHOGUE", "state": "NY", "zip": "11935-2243", "ntee": "J30", "ruling": "202501", "deductibility": "1", "assets": 0, "income": 0, "revenue": 0}, {"ein": "932313594", "name": "EAST END VENISON INC", "city": "MATTITUCK", "state": "NY", "zip": "11952-0462", "ntee": "K30", "ruling": "202311", "deductibility": "1", "assets": 0, "income": 0, "revenue": 0}, {"ein": "932323890", "name": "COMMITTEE TO END ANTISEMITISM AND PROMOTE PEACE", "city": "LOCUST VALLEY", "state": "NY", "zip": "11560-1228", "ntee": "B01", "ruling": "202309", "deductibility": "1", "assets": 0, "income": 0, "revenue": 0}, {"ein": "933157562", "name": "EAST END LIONS CLUB FOUNDATION INC", "city": "MATTITUCK", "state": "NY", "zip": "11952-0905", "ntee": "S80", "ruling": "202309", "deductibility": "1", "assets": 0, "income": 0, "revenue": 0}, {"ein": "933309896", "name": "EAST END LACROSSE FOR ALL INC", "city": "EAST HAMPTON", "state": "NY", "zip": "11937-1471", "ntee": "N50", "ruling": "202310", "deductibility": "1", "assets": 0, "income": 0, "revenue": 0}, {"ein": "933739030", "name": "END VETERAN DEBT INC", "city": "NEW YORK", "state": "NY", "zip": "10003-2655", "ntee": "W30", "ruling": "202403", "deductibility": "1", "assets": 0, "income": 0, "revenue": 0}, {"ein": "934730413", "name": "END ANTISEMITISM NOW INC", "city": "EAST SYRACUSE", "state": "NY", "zip": "13057-3084", "ntee": "B01", "ruling": "202404", "deductibility": "1", "assets": 0, "income": 0, "revenue": 0}, {"ein": "934973739", "name": "EAST END JAZZ INC", "city": "EAST QUOGUE", "state": "NY", "zip": "11942-4339", "ntee": "A20", "ruling": "202401", "deductibility": "1", "assets": 0, "income": 0, "revenue": 0}, {"ein": "991806603", "name": "EAST END TRACK & FIELD INC", "city": "MANORVILLE", "state": "NY", "zip": "11949-2941", "ntee": "N60", "ruling": "202403", "deductibility": "1", "assets": 0, "income": 0, "revenue": 0}], "NOACH": [{"ein": "050593114", "name": "ZICHRON NOACH TZVI FOUNDATION INC", "city": "BROOKLYN", "state": "NY", "zip": "11210-2929", "ntee": "T20", "ruling": "200410", "deductibility": "1", "assets": 815759, "income": 49156, "revenue": 0}, {"ein": "134090062", "name": "CONGREGATION ZICHRON CHAIM NOACH", "city": "MONSEY", "state": "NY", "zip": "10952-3610", "ntee": "X30", "ruling": "200001", "deductibility": "1", "assets": 0, "income": 0, "revenue": 0}, {"ein": "923501839", "name": "ZICHRON ZALMAN NOACH INC", "city": "CHESTNUT RDG", "state": "NY", "zip": "10977-6522", "ntee": "B20", "ruling": "202403", "deductibility": "1", "assets": 0, "income": 0, "revenue": 0}], "MOMENTS": [{"ein": "061156351", "name": "MOMENTS OF MIRACLES DELIVERANCE CENTER INC", "city": "ST ALBANS", "state": "NY", "zip": "11412-1048", "ntee": "", "ruling": "198904", "deductibility": "1", "assets": 0, "income": 0, "revenue": 0}, {"ein": "113388717", "name": "MOMENTS GOLF CLUB INC", "city": "WESTBURY", "state": "NY", "zip": "11590-0801", "ntee": "N50", "ruling": "201506", "deductibility": "2", "assets": 61205, "income": 79961, "revenue": 79961}, {"ein": "800802804", "name": "MOMENTS INC", "city": "WHITE PLAINS", "state": "NY", "zip": "10601-2118", "ntee": "O50", "ruling": "201208", "deductibility": "1", "assets": 0, "income": 0, "revenue": 0}, {"ein": "874752148", "name": "SHAMAYIM MOMENTS 4U INC", "city": "BROOKLYN", "state": "NY", "zip": "11217-2561", "ntee": "E60", "ruling": "202208", "deductibility": "1", "assets": 1924, "income": 4540, "revenue": 610}, {"ein": "921267491", "name": "TEACH ME & TEACHABLE MOMENTS", "city": "BUFFALO", "state": "NY", "zip": "14228-1800", "ntee": "F60", "ruling": "202301", "deductibility": "1", "assets": 0, "income": 0, "revenue": 0}, {"ein": "993116241", "name": "AIMASAI MAKING MOMENTS MATTER INC", "city": "FLUSHING", "state": "NY", "zip": "11367-3111", "ntee": "S20", "ruling": "202405", "deductibility": "1", "assets": 0, "income": 0, "revenue": 0}], "ENVISION": [{"ein": "061207341", "name": "ENVISION COORDINATED SUPPORTS INC", "city": "MIDDLETOWN", "state": "NY", "zip": "10941-1625", "ntee": "P73Z", "ruling": "199008", "deductibility": "1", "assets": 0, "income": 0, "revenue": 0}, {"ein": "113296724", "name": "ENVISION ENVIRONMENTAL MEDIA CENTER", "city": "SAG HARBOR", "state": "NY", "zip": "11963-0061", "ntee": "C35", "ruling": "199608", "deductibility": "1", "assets": 0, "income": 0, "revenue": 0}, {"ein": "813542172", "name": "ENVISION CHURCH OF THE CHRISTIAN AND MISSIONARY ALLIANCE", "city": "PLAINVIEW", "state": "NY", "zip": "11803-3633", "ntee": "", "ruling": "197205", "deductibility": "1", "assets": 0, "income": 0, "revenue": 0}, {"ein": "850766015", "name": "ENVISION NYC", "city": "NEW YORK", "state": "NY", "zip": "10027-5125", "ntee": "X20", "ruling": "202209", "deductibility": "1", "assets": 116502, "income": 312219, "revenue": 312219}, {"ein": "851909945", "name": "ENVISION ACCELERATOR INC", "city": "VALLEY STREAM", "state": "NY", "zip": "11581-2722", "ntee": "S41", "ruling": "202209", "deductibility": "1", "assets": 0, "income": 0, "revenue": 0}, {"ein": "882148287", "name": "ENVISION FLIGHT INC", "city": "NEW HARTFORD", "state": "NY", "zip": "13413-5345", "ntee": "G41", "ruling": "202207", "deductibility": "1", "assets": 0, "income": 0, "revenue": 0}], "NATURE": [{"ein": "061208587", "name": "THE VOICE OF NATURE NETWORK INC", "city": "BREWSTER", "state": "NY", "zip": "10509-2837", "ntee": "", "ruling": "198804", "deductibility": "1", "assets": 0, "income": 0, "revenue": 0}, {"ein": "066085965", "name": "JOHN DORR NATURE LABORATORY OF HORACE MANN SCHOOL INC", "city": "BRONX", "state": "NY", "zip": "10471-3430", "ntee": "", "ruling": "196702", "deductibility": "1", "assets": 1, "income": 1, "revenue": 0}, {"ein": "113188602", "name": "THIRD HOUSE NATURE CENTER INC", "city": "MONTAUK", "state": "NY", "zip": "11954-0143", "ntee": "C30", "ruling": "201402", "deductibility": "1", "assets": 0, "income": 0, "revenue": 0}, {"ein": "113809200", "name": "SOCIAL JUSTICE & ADVOCACY FOR ANIMALS & NATURE INC", "city": "HOWES CAVE", "state": "NY", "zip": "12092-0064", "ntee": "D20", "ruling": "202207", "deductibility": "1", "assets": 0, "income": 0, "revenue": 0}, {"ein": "133092685", "name": "SERPENTINE ART AND NATURE COMMONS INC", "city": "STATEN ISLAND", "state": "NY", "zip": "10304-0252", "ntee": "", "ruling": "198203", "deductibility": "1", "assets": 201292, "income": 2076, "revenue": 2076}, {"ein": "133147087", "name": "FORCES OF NATURE INC", "city": "NEW YORK", "state": "NY", "zip": "10027-2407", "ntee": "A60", "ruling": "201408", "deductibility": "1", "assets": 88954, "income": 553666, "revenue": 553666}, {"ein": "133380659", "name": "RIVERDALE NATURE PRESERVANCY INC", "city": "BRONX", "state": "NY", "zip": "10471-2409", "ntee": "C300", "ruling": "198705", "deductibility": "1", "assets": 0, "income": 0, "revenue": 0}, {"ein": "133566673", "name": "FRIENDS OF THE WEINBERG NATURE CENTER INC", "city": "SCARSDALE", "state": "NY", "zip": "10583-3605", "ntee": "", "ruling": "199203", "deductibility": "1", "assets": 0, "income": 0, "revenue": 0}, {"ein": "133637915", "name": "NURTURE NATURE FOUNDATION", "city": "NEW YORK", "state": "NY", "zip": "10120-0000", "ntee": "C50", "ruling": "199202", "deductibility": "1", "assets": 31426115, "income": 17095235, "revenue": 0}, {"ein": "133778383", "name": "PEOPLE ALLIED FOR NATURE LTD", "city": "NEW YORK", "state": "NY", "zip": "10122-2201", "ntee": "C30", "ruling": "199511", "deductibility": "1", "assets": 0, "income": 0, "revenue": 0}, {"ein": "134174918", "name": "SHAWANGUNK NATURE PRESERVE", "city": "COLD BROOK", "state": "NY", "zip": "13324-2748", "ntee": "C34", "ruling": "200209", "deductibility": "1", "assets": 0, "income": 0, "revenue": 0}, {"ein": "136176032", "name": "FRIENDS OF RYE NATURE CENTER INC", "city": "RYE", "state": "NY", "zip": "10580-0274", "ntee": "C116", "ruling": "196504", "deductibility": "1", "assets": 2638281, "income": 2455382, "revenue": 2340526}, {"ein": "141470087", "name": "HUDSON HIGHLANDS NATURE MUSEUM", "city": "CORNWALL", "state": "NY", "zip": "12518-0451", "ntee": "A560", "ruling": "196401", "deductibility": "1", "assets": 1749293, "income": 1563235, "revenue": 1403756}, {"ein": "141803390", "name": "NATURE INSTITUTE INC", "city": "GHENT", "state": "NY", "zip": "12075-1909", "ntee": "U50", "ruling": "199807", "deductibility": "1", "assets": 2022599, "income": 838790, "revenue": 838790}, {"ein": "160973044", "name": "BALTIMORE WOODS NATURE CENTER INC", "city": "MARCELLUS", "state": "NY", "zip": "13108-0133", "ntee": "C600", "ruling": "196612", "deductibility": "1", "assets": 2197433, "income": 924061, "revenue": 813352}, {"ein": "161012352", "name": "TANGLEWOOD COMMUNITY NATURE CENTER INC", "city": "ELMIRA", "state": "NY", "zip": "14903-9311", "ntee": "C600", "ruling": "197405", "deductibility": "1", "assets": 2372243, "income": 920017, "revenue": 920017}, {"ein": "161283300", "name": "FRIENDS OF ROCK RIDGES NATURE TRAILS INC", "city": "THOUSAND ISLANDS PARK", "state": "NY", "zip": "13692-0000", "ntee": "", "ruling": "199103", "deductibility": "1", "assets": 0, "income": 0, "revenue": 0}, {"ein": "161377177", "name": "NATURE SANCTUARY SOCIETY OF WESTERN NY YORK INC", "city": "WEST SENECA", "state": "NY", "zip": "14224-0828", "ntee": "D32", "ruling": "201002", "deductibility": "1", "assets": 179720, "income": 73948, "revenue": 73948}, {"ein": "161523554", "name": "FRIENDS OF TINKER NATURE PARK HANSEN NATURE CENTER", "city": "HENRIETTA", "state": "NY", "zip": "14467-0999", "ntee": "C30", "ruling": "199712", "deductibility": "1", "assets": 0, "income": 0, "revenue": 0}, {"ein": "161547712", "name": "FRIENDS OF THE STERLING NATURE CENTER INC", "city": "STERLING", "state": "NY", "zip": "13156-0216", "ntee": "C30", "ruling": "199808", "deductibility": "1", "assets": 0, "income": 0, "revenue": 0}, {"ein": "161549003", "name": "OWASCO FLATS NATURE RESERVE INC", "city": "MORAVIA", "state": "NY", "zip": "13118-3616", "ntee": "C32", "ruling": "200501", "deductibility": "1", "assets": 0, "income": 0, "revenue": 0}, {"ein": "161557741", "name": "PFEIFFER NATURE CENTER AND FOUNDATION INC", "city": "PORTVILLE", "state": "NY", "zip": "14770-9789", "ntee": "C36", "ruling": "199901", "deductibility": "1", "assets": 731922, "income": 52202, "revenue": 0}, {"ein": "161578563", "name": "FINDLEY LAKE NATURE CENTER INC", "city": "FINDLEY LAKE", "state": "NY", "zip": "14736-0634", "ntee": "P30", "ruling": "200103", "deductibility": "1", "assets": 0, "income": 0, "revenue": 0}, {"ein": "161600502", "name": "THE FRIENDS OF THE ROBERT MOSES STATE PARK NATURE CENTER INC", "city": "MASSENA", "state": "NY", "zip": "13662-0408", "ntee": "C30", "ruling": "200204", "deductibility": "1", "assets": 397903, "income": 453230, "revenue": 453230}, {"ein": "161603172", "name": "WELLSPRING NATURE CENTER INC", "city": "WELLSVILLE", "state": "NY", "zip": "14895-9785", "ntee": "C60", "ruling": "200105", "deductibility": "1", "assets": 39753, "income": 4708, "revenue": 4708}, {"ein": "166031149", "name": "AUDUBON COMMUNITY NATURE CENTER", "city": "JAMESTOWN", "state": "NY", "zip": "14701-9340", "ntee": "C300", "ruling": "196112", "deductibility": "1", "assets": 3390865, "income": 967798, "revenue": 861690}, {"ein": "166043991", "name": "PERKINSVILLE NATURE CONSERVANCY INC", "city": "PERKINSVILLE", "state": "NY", "zip": "14529-0140", "ntee": "C30", "ruling": "201711", "deductibility": "1", "assets": 0, "income": 0, "revenue": 0}, {"ein": "166054355", "name": "BURROUGHS AUDUBON NATURE CLUB", "city": "ROCHESTER", "state": "NY", "zip": "14610-3107", "ntee": "", "ruling": "194405", "deductibility": "1", "assets": 373598, "income": 11782, "revenue": 11782}, {"ein": "201658341", "name": "FRIENDS OF FORSYTH NATURE CENTER INC", "city": "KINGSTON", "state": "NY", "zip": "12402-3923", "ntee": "C11", "ruling": "200610", "deductibility": "1", "assets": 0, "income": 0, "revenue": 0}, {"ein": "201685767", "name": "AMERICAN FREINDS OF CANADIAN NATURE INC", "city": "BUFFALO", "state": "NY", "zip": "14202-2215", "ntee": "C34", "ruling": "200503", "deductibility": "4", "assets": 1653064, "income": 3164558, "revenue": 3164558}, {"ein": "204275448", "name": "COMMUNITY PREVENTION ALTERNATIVESFOR FAMILIES IN CRISIS - NATURE", "city": "FLUSHING", "state": "NY", "zip": "11355-1827", "ntee": "F20", "ruling": "200605", "deductibility": "1", "assets": 172, "income": 5684, "revenue": 5684}, {"ein": "205274163", "name": "WOLF MOUNTAIN NATURE CENTER INC", "city": "SMYRNA", "state": "NY", "zip": "13464-2216", "ntee": "D30", "ruling": "200704", "deductibility": "1", "assets": 177636, "income": 115977, "revenue": 86603}, {"ein": "222328461", "name": "FRIENDS OF THE NATURE CENTER INC", "city": "WELLESLEY IS", "state": "NY", "zip": "13640-0111", "ntee": "C116", "ruling": "198103", "deductibility": "1", "assets": 170511, "income": 118226, "revenue": 81460}, {"ein": "222328464", "name": "CHURCH OF NATURE IN MAN", "city": "AVERILL PARK", "state": "NY", "zip": "12018-0000", "ntee": "", "ruling": "198811", "deductibility": "1", "assets": 0, "income": 0, "revenue": 0}, {"ein": "237327808", "name": "FRIENDS OF TRAILSIDE NATURE MUSEUM", "city": "CROSS RIVER", "state": "NY", "zip": "10518-0236", "ntee": "", "ruling": "198206", "deductibility": "1", "assets": 326545, "income": 92869, "revenue": 92869}, {"ein": "237339667", "name": "LIME HOLLOW NATURE CENTER INC", "city": "CORTLAND", "state": "NY", "zip": "13045-9225", "ntee": "C600", "ruling": "197401", "deductibility": "1", "assets": 2470561, "income": 855179, "revenue": 839709}, {"ein": "263773710", "name": "CHIP HOLT NATURE CENTER INC", "city": "LAKEVILLE", "state": "NY", "zip": "14480-0523", "ntee": "C60", "ruling": "201008", "deductibility": "1", "assets": 0, "income": 0, "revenue": 0}, {"ein": "264000283", "name": "MIRACLE OF NATURE INC", "city": "ITHACA", "state": "NY", "zip": "14851-0084", "ntee": "C60", "ruling": "201005", "deductibility": "1", "assets": 0, "income": 0, "revenue": 0}, {"ein": "270083622", "name": "GREYSTONE NATURE PRESERVE", "city": "FREDONIA", "state": "NY", "zip": "14063-9665", "ntee": "C30", "ruling": "201004", "deductibility": "1", "assets": 0, "income": 0, "revenue": 0}, {"ein": "270412677", "name": "BETTER ANGELS OF OUR HUMAN NATURE INC", "city": "NEW YORK", "state": "NY", "zip": "10150-0123", "ntee": "P300", "ruling": "200911", "deductibility": "1", "assets": 0, "income": 0, "revenue": 0}, {"ein": "272958909", "name": "VICTOR WOOTENS CENTER FOR MUSIC AND NATURE", "city": "NEW YORK", "state": "NY", "zip": "10123-0000", "ntee": "A68", "ruling": "201012", "deductibility": "1", "assets": 480464, "income": 465657, "revenue": 465657}, {"ein": "273281930", "name": "BLUE WIND NATURE CAMP", "city": "LIVINGSTN MNR", "state": "NY", "zip": "12758-5654", "ntee": "O20", "ruling": "201406", "deductibility": "1", "assets": 0, "income": 0, "revenue": 0}, {"ein": "333618616", "name": "NATURE HEALTH GLOBAL INC", "city": "TALLMAN", "state": "NY", "zip": "10982-7505", "ntee": "C05", "ruling": "202504", "deductibility": "1", "assets": 0, "income": 0, "revenue": 0}, {"ein": "334420461", "name": "NATURE AND ART ALLIANCE INC", "city": "NEW YORK", "state": "NY", "zip": "10034-1294", "ntee": "A12", "ruling": "202506", "deductibility": "1", "assets": 0, "income": 0, "revenue": 0}, {"ein": "364649204", "name": "PIANO BY NATURE INC", "city": "WESTPORT", "state": "NY", "zip": "12993-4303", "ntee": "A68", "ruling": "201005", "deductibility": "1", "assets": 0, "income": 0, "revenue": 0}, {"ein": "371592636", "name": "FLYING DEER NATURE CENTER INC", "city": "EAST CHATHAM", "state": "NY", "zip": "12060-3812", "ntee": "C60", "ruling": "201002", "deductibility": "1", "assets": 2067510, "income": 808260, "revenue": 805059}, {"ein": "372056058", "name": "LONG ISLAND NATURE CORPS INC", "city": "NORTHPORT", "state": "NY", "zip": "11768-1643", "ntee": "D30", "ruling": "202402", "deductibility": "1", "assets": 0, "income": 0, "revenue": 0}, {"ein": "461668772", "name": "THE NATURE OF CITIES INC", "city": "NEW YORK", "state": "NY", "zip": "10022-9024", "ntee": "C60", "ruling": "201508", "deductibility": "1", "assets": 2666, "income": 226579, "revenue": 226579}, {"ein": "461718556", "name": "LONG ISLAND NATURE ORGANIZATION INC", "city": "EAST HAMPTON", "state": "NY", "zip": "11937-3112", "ntee": "S80", "ruling": "201711", "deductibility": "1", "assets": 0, "income": 0, "revenue": 0}, {"ein": "462244513", "name": "LONG ISLAND ORCHESTRATING FOR NATURE INC", "city": "RIVERHEAD", "state": "NY", "zip": "11901-6309", "ntee": "D20", "ruling": "201409", "deductibility": "1", "assets": 66410, "income": 119518, "revenue": 117235}, {"ein": "463371693", "name": "FORCES OF NATURE DANCE THEATER INC", "city": "NEW YORK", "state": "NY", "zip": "10027-2407", "ntee": "A62", "ruling": "201311", "deductibility": "1", "assets": 0, "income": 0, "revenue": 0}, {"ein": "472154581", "name": "CHURCH OF NATURE INC", "city": "POUGHKEEPSIE", "state": "NY", "zip": "12603-1550", "ntee": "X99", "ruling": "201503", "deductibility": "1", "assets": 0, "income": 0, "revenue": 0}, {"ein": "473469805", "name": "NATURE DEFENSE FOUNDATION", "city": "HUDSON", "state": "NY", "zip": "12534-3008", "ntee": "D34", "ruling": "202303", "deductibility": "1", "assets": 6762989, "income": 170934, "revenue": 0}, {"ein": "521467954", "name": "AMERICAN SOCIETY FOR THE PROTECTION OF NATURE ISRAEL INC", "city": "NEW YORK", "state": "NY", "zip": "10016-0410", "ntee": "", "ruling": "198609", "deductibility": "1", "assets": 620746, "income": 2189415, "revenue": 2189415}, {"ein": "542130702", "name": "FRIENDS OF REINSTEIN NATURE PRESERVE INC", "city": "DEPEW", "state": "NY", "zip": "14043-4118", "ntee": "C27", "ruling": "200403", "deductibility": "1", "assets": 656553, "income": 368365, "revenue": 338448}, {"ein": "611515380", "name": "B C FAN & M C PENG MEMORIAL NATURE & HUMANITY FOUNDATION", "city": "ISLIP", "state": "NY", "zip": "11751-2927", "ntee": "B82", "ruling": "200808", "deductibility": "1", "assets": 19962, "income": 4000, "revenue": 0}, {"ein": "753165488", "name": "AVALON NATURE PRESERVE INC", "city": "STONY BROOK", "state": "NY", "zip": "11790-2000", "ntee": "N32", "ruling": "200504", "deductibility": "1", "assets": 55912209, "income": 16067199, "revenue": 0}, {"ein": "821075476", "name": "CALMING NATURE DOULA CENTER INC", "city": "BUFFALO", "state": "NY", "zip": "14213-1607", "ntee": "E86", "ruling": "202305", "deductibility": "1", "assets": 0, "income": 0, "revenue": 0}, {"ein": "830489386", "name": "PEACE IN NATURE WILDLIFE SANCTUARY", "city": "FORESTVILLE", "state": "NY", "zip": "14062-9610", "ntee": "D01", "ruling": "202303", "deductibility": "1", "assets": 0, "income": 0, "revenue": 0}, {"ein": "832043292", "name": "GWYDION FUND FOR WILD NATURE", "city": "NEW YORK", "state": "NY", "zip": "10005-0000", "ntee": "", "ruling": "202103", "deductibility": "1", "assets": 3659240, "income": 1408101, "revenue": 0}, {"ein": "832481262", "name": "LUCKY HOLLOW NATURE PARK AND RETREAT INC", "city": "FABIUS", "state": "NY", "zip": "13063-9740", "ntee": "N32", "ruling": "201901", "deductibility": "1", "assets": 592, "income": 50, "revenue": 50}, {"ein": "850758207", "name": "MOTHER NATURE FESTIVAL LIVE INCORPORATED", "city": "OSWEGO", "state": "NY", "zip": "13126-2734", "ntee": "C60", "ruling": "202007", "deductibility": "1", "assets": 0, "income": 0, "revenue": 0}, {"ein": "852255846", "name": "RETURN TO NATURE FARM INC", "city": "WALLKILL", "state": "NY", "zip": "12589-3970", "ntee": "K30", "ruling": "202101", "deductibility": "1", "assets": 0, "income": 0, "revenue": 0}, {"ein": "872377775", "name": "LOCAL NATURE LAB", "city": "NEW YORK", "state": "NY", "zip": "10012-2106", "ntee": "C99", "ruling": "202202", "deductibility": "1", "assets": 0, "income": 0, "revenue": 0}, {"ein": "872767113", "name": "NEW YORK NATURE MOBILE INC", "city": "STATEN ISLAND", "state": "NY", "zip": "10301-1305", "ntee": "C60", "ruling": "202202", "deductibility": "1", "assets": 0, "income": 0, "revenue": 0}, {"ein": "881182594", "name": "BROOKS-PARK ARTS AND NATURE CENTER", "city": "EAST HAMPTON", "state": "NY", "zip": "11937-2617", "ntee": "A82", "ruling": "202211", "deductibility": "1", "assets": 0, "income": 0, "revenue": 0}, {"ein": "923915752", "name": "ALLEGANY NATURE PILGRIMAGE INC", "city": "EAST AURORA", "state": "NY", "zip": "14052-9541", "ntee": "C60", "ruling": "202309", "deductibility": "1", "assets": 0, "income": 0, "revenue": 0}, {"ein": "992980184", "name": "NATURE WISDOM FOUNDATION", "city": "WOODSTOCK", "state": "NY", "zip": "12498-2517", "ntee": "C60", "ruling": "202504", "deductibility": "1", "assets": 0, "income": 0, "revenue": 0}, {"ein": "993066695", "name": "DEEP HOLE NATURE SANCTUARY INC", "city": "ACCORD", "state": "NY", "zip": "12404-5510", "ntee": "C30", "ruling": "202407", "deductibility": "1", "assets": 0, "income": 0, "revenue": 0}, {"ein": "994262363", "name": "NOVELS IN NATURE INC", "city": "CHAPPAQUA", "state": "NY", "zip": "10514-3300", "ntee": "B99", "ruling": "202408", "deductibility": "1", "assets": 0, "income": 0, "revenue": 0}], "GABRIELS": [{"ein": "111635091", "name": "ST GABRIELS CHURCH", "city": "HOLLIS", "state": "NY", "zip": "11423-2984", "ntee": "", "ruling": "197206", "deductibility": "1", "assets": 0, "income": 0, "revenue": 0}, {"ein": "112463892", "name": "ST GABRIELS CHURCH", "city": "BROOKLYN", "state": "NY", "zip": "11225-5909", "ntee": "", "ruling": "197206", "deductibility": "1", "assets": 0, "income": 0, "revenue": 0}, {"ein": "113364731", "name": "GABRIELS COMMUNITY SERVICES ORGANIZATION INC", "city": "BROOKLYN", "state": "NY", "zip": "11213-3942", "ntee": "P80", "ruling": "202207", "deductibility": "1", "assets": 0, "income": 0, "revenue": 0}, {"ein": "141626525", "name": "PAUL SMITHS-GABRIELS VOLUNTEER FIRE DEPT INC", "city": "GABRIELS", "state": "NY", "zip": "12939-0145", "ntee": "M24Z", "ruling": "199307", "deductibility": "1", "assets": 589356, "income": 211068, "revenue": 199981}], "BEN": [{"ein": "111785135", "name": "VOLUNTEER AND EXEMPT FIREMEN BEN ASSOC UNIONDALE", "city": "UNIONDALE", "state": "NY", "zip": "11553-2234", "ntee": "", "ruling": "199203", "deductibility": "2", "assets": 1937804, "income": 347370, "revenue": 347370}, {"ein": "112576351", "name": "KOLEL YESHIVOTH RABBI YOCHONON BEN ZAKAI", "city": "BROOKLYN", "state": "NY", "zip": "11219-1037", "ntee": "", "ruling": "198108", "deductibility": "1", "assets": 0, "income": 0, "revenue": 0}, {"ein": "112607295", "name": "CONG TEHILOS YOEL ZICHRON MOSHE ELYA BEN CHAIM AHRON INC", "city": "BROOKLYN", "state": "NY", "zip": "11219-4647", "ntee": "", "ruling": "198211", "deductibility": "1", "assets": 0, "income": 0, "revenue": 0}, {"ein": "112635601", "name": "OLD BROOKVILLE POLICEMENS BEN ASSO", "city": "GLEN HEAD", "state": "NY", "zip": "11545-0344", "ntee": "", "ruling": "199306", "deductibility": "2", "assets": 673543, "income": 180772, "revenue": 126663}, {"ein": "112854923", "name": "MIDRASH BEN ISH HAI", "city": "GREAT NECK", "state": "NY", "zip": "11021-2000", "ntee": "", "ruling": "198708", "deductibility": "1", "assets": 0, "income": 0, "revenue": 0}, {"ein": "112915370", "name": "BEN BAY KIWANIS FOUNDATION INC", "city": "BROOKLYN", "state": "NY", "zip": "11209-7742", "ntee": "", "ruling": "199810", "deductibility": "1", "assets": 137582, "income": 306788, "revenue": 151856}, {"ein": "113056338", "name": "CONGREGATION BEN ELUZER", "city": "BROOKLYN", "state": "NY", "zip": "11211-8129", "ntee": "", "ruling": "199104", "deductibility": "1", "assets": 0, "income": 0, "revenue": 0}, {"ein": "113400483", "name": "GEMACH MOSHE BEN AHARON YIDA INC", "city": "BROOKLYN", "state": "NY", "zip": "11211-6034", "ntee": "X30Z", "ruling": "199807", "deductibility": "1", "assets": 0, "income": 0, "revenue": 0}, {"ein": "113571263", "name": "RABBI YEHOUDA BEN BETERA CONGREGATION INC", "city": "BROOKLYN", "state": "NY", "zip": "11223-3350", "ntee": "X30", "ruling": "200408", "deductibility": "1", "assets": 0, "income": 0, "revenue": 0}, {"ein": "116036975", "name": "ABRAHAM BEN JACOB SUTTON FOUNDATION INC", "city": "LONG BEACH", "state": "NY", "zip": "11561-3742", "ntee": "", "ruling": "195105", "deductibility": "1", "assets": 4567, "income": 16000, "revenue": 0}, {"ein": "133968517", "name": "CONGREGATION BEN CHESED INC", "city": "SPRING VALLEY", "state": "NY", "zip": "10977-0000", "ntee": "X30Z", "ruling": "199711", "deductibility": "1", "assets": 0, "income": 0, "revenue": 0}, {"ein": "134094812", "name": "CONGREGATION BEN BEISY", "city": "MONROE", "state": "NY", "zip": "10950-8909", "ntee": "X30", "ruling": "200004", "deductibility": "1", "assets": 0, "income": 0, "revenue": 0}, {"ein": "134171562", "name": "CONGREGATION ZICHRON ELIEZER AL SHEM ELIEZER BEN SHOLEM INC", "city": "BROOKLYN", "state": "NY", "zip": "11211-0166", "ntee": "X30", "ruling": "200108", "deductibility": "1", "assets": 0, "income": 0, "revenue": 0}, {"ein": "136112704", "name": "JOHN BEN SNOW FOUNDATION INC", "city": "MANLIUS", "state": "NY", "zip": "13104-2444", "ntee": "", "ruling": "195204", "deductibility": "1", "assets": 8920164, "income": 3567891, "revenue": 0}, {"ein": "136195193", "name": "POLICE BEN ASSN OF THE CITY OF WHITE PLAINS", "city": "WHITE PLAINS", "state": "NY", "zip": "10602-1194", "ntee": "J40", "ruling": "201407", "deductibility": "2", "assets": 274777, "income": 887050, "revenue": 845547}, {"ein": "136212653", "name": "MARION & BEN DUFFY FOUNDATION", "city": "NEW YORK", "state": "NY", "zip": "10170-0399", "ntee": "", "ruling": "196710", "deductibility": "1", "assets": 978, "income": 923, "revenue": 0}, {"ein": "137039406", "name": "LVMH MOET HENNESSY LOUIS VUITTON INC AND AFFILIATED CO EMP BEN TR", "city": "NEW YORK", "state": "NY", "zip": "10022-2506", "ntee": "", "ruling": "199512", "deductibility": "2", "assets": 51736660, "income": 132172370, "revenue": 132172370}, {"ein": "141461803", "name": "BRICKLAYERS & ALLIED CRAFTWORKERS LOC 2 ALBANY NY HEALTH BEN FUND", "city": "ALBANY", "state": "NY", "zip": "12203-4474", "ntee": "", "ruling": "196208", "deductibility": "2", "assets": 13480709, "income": 11330969, "revenue": 8861946}, {"ein": "146078613", "name": "KJELSEN TRUST UW MARY FBO BEN KJELSEN SCHOLARSHIP FUND", "city": "BERLIN", "state": "NY", "zip": "12022-0000", "ntee": "", "ruling": "000000", "deductibility": "0", "assets": 0, "income": 0, "revenue": 0}, {"ein": "161299735", "name": "WAVERLY POLICE BEN ASSN", "city": "WAVERLY", "state": "NY", "zip": "14892-1532", "ntee": "I600", "ruling": "199312", "deductibility": "1", "assets": 0, "income": 0, "revenue": 0}, {"ein": "161438193", "name": "NATIONAL FUEL GAS DISTRIBUTION CORP -NY DIV VOL EMP BEN ASSOC FOR NON-", "city": "WILLIAMSVILLE", "state": "NY", "zip": "14221-5855", "ntee": "Y43", "ruling": "200506", "deductibility": "2", "assets": 43213825, "income": 2921738, "revenue": 2921738}, {"ein": "202108716", "name": "YAKOV BEN MEIR THEDAKAH FUD INC", "city": "REGO PARK", "state": "NY", "zip": "11374-4256", "ntee": "P60", "ruling": "200502", "deductibility": "1", "assets": 0, "income": 0, "revenue": 0}, {"ein": "202742227", "name": "MIDRASH MOSHE BEN MAIMON", "city": "BROOKLYN", "state": "NY", "zip": "11223-4731", "ntee": "X30", "ruling": "200601", "deductibility": "1", "assets": 0, "income": 0, "revenue": 0}, {"ein": "208027048", "name": "KEREN YAAKOV BEN MENACHEM TZVI FOUNDATION", "city": "NEW YORK", "state": "NY", "zip": "10016-0000", "ntee": "T20", "ruling": "200906", "deductibility": "1", "assets": 3686810, "income": 1114014, "revenue": 0}, {"ein": "222108008", "name": "ONEIDA COUNTY DEPUTY SHERIFFS BEN ASSN OF ORISKANY NY", "city": "ORISKANY", "state": "NY", "zip": "13424-0396", "ntee": "", "ruling": "197705", "deductibility": "2", "assets": 169757, "income": 8605, "revenue": 8605}, {"ein": "222481521", "name": "NORTH SYRACUSE POLICE BEN ASSOC", "city": "N SYRACUSE", "state": "NY", "zip": "13212-3118", "ntee": "", "ruling": "200103", "deductibility": "0", "assets": 0, "income": 0, "revenue": 0}, {"ein": "237270753", "name": "AMERICANS FOR BEN-GURION UNIVERSITY INC", "city": "NEW YORK", "state": "NY", "zip": "10018-5460", "ntee": "B110", "ruling": "197307", "deductibility": "1", "assets": 764651298, "income": 215281783, "revenue": 21147894}, {"ein": "237355741", "name": "ESTHER BEN-DAVID MEMORIAL FUND", "city": "SPRING VALLEY", "state": "NY", "zip": "10977-1741", "ntee": "T30", "ruling": "197408", "deductibility": "1", "assets": 0, "income": 0, "revenue": 0}, {"ein": "237380364", "name": "NORTH WHITE PLAINS VOLUNTEER FIREMENS BEN ASSN INC", "city": "WHITE PLAINS", "state": "NY", "zip": "10603-2408", "ntee": "", "ruling": "197407", "deductibility": "2", "assets": 1211958, "income": 269037, "revenue": 22522}, {"ein": "251902663", "name": "ZVI AND JODY BEN-HAIM FAMILY FOUNDATION", "city": "BROOKLYN", "state": "NY", "zip": "11223-4028", "ntee": "T20", "ruling": "200309", "deductibility": "1", "assets": 8192, "income": 1, "revenue": 0}, {"ein": "272548769", "name": "EDEED BEN JOSEF AND LIDIA BEN JOSEF FAMILY FOUNDATION INC", "city": "NEW YORK", "state": "NY", "zip": "10018-3680", "ntee": "H99", "ruling": "201407", "deductibility": "1", "assets": 36989, "income": 794794, "revenue": 0}, {"ein": "272891765", "name": "BEN OSBORN MEMORIAL FUND", "city": "QUEENSBURY", "state": "NY", "zip": "12804-0040", "ntee": "B82", "ruling": "201209", "deductibility": "1", "assets": 0, "income": 0, "revenue": 0}, {"ein": "311581381", "name": "CHASDEI SHMIEL SHMELKA BEN CHAIM Z TL", "city": "BROOKLYN", "state": "NY", "zip": "11204-1154", "ntee": "X30Z", "ruling": "199801", "deductibility": "1", "assets": 0, "income": 0, "revenue": 0}, {"ein": "812891190", "name": "YITZHAK YEHUDA BEN SHMAYA FOR THE GOOD OF OTHERS FOUNDATION", "city": "LAWRENCE", "state": "NY", "zip": "11559-1440", "ntee": "T30", "ruling": "202011", "deductibility": "1", "assets": 1245, "income": 25001, "revenue": 25001}, {"ein": "815299629", "name": "CONGREGATION BEN MELECH INC", "city": "NEW CITY", "state": "NY", "zip": "10956-1134", "ntee": "X30", "ruling": "201705", "deductibility": "1", "assets": 0, "income": 0, "revenue": 0}, {"ein": "823383908", "name": "R SHAYA BEN MOSHE FOUNDATION", "city": "BROOKLYN", "state": "NY", "zip": "11219-3260", "ntee": "Z99", "ruling": "201907", "deductibility": "1", "assets": 56037, "income": 35500, "revenue": 0}, {"ein": "825186436", "name": "A STAR FOR BEN FOUNDATION", "city": "KATONAH", "state": "NY", "zip": "10536-2512", "ntee": "G20", "ruling": "201805", "deductibility": "1", "assets": 176226, "income": 214738, "revenue": 214738}, {"ein": "832841969", "name": "BEN-ABOU FOUNDATION", "city": "BROOKLYN", "state": "NY", "zip": "11213-5211", "ntee": "T01", "ruling": "201905", "deductibility": "1", "assets": 848791, "income": 500000, "revenue": 0}, {"ein": "843281141", "name": "CHRISTIE AND BEN JACOBS FAMILY FOUNDATION INC", "city": "NEW YORK", "state": "NY", "zip": "10167-0000", "ntee": "T22", "ruling": "202003", "deductibility": "1", "assets": 1821825, "income": 504570, "revenue": 0}, {"ein": "844094573", "name": "YOSEF BEN ABRAHAM CHARITABLE FOUNDATION INC", "city": "MONSEY", "state": "NY", "zip": "10952-3902", "ntee": "T22", "ruling": "202104", "deductibility": "1", "assets": 1, "income": 1, "revenue": 0}, {"ein": "854229863", "name": "WALK IN THE LIGHT WITH BEN THOMAS INC", "city": "EAST MEADOW", "state": "NY", "zip": "11554-4538", "ntee": "P99", "ruling": "202107", "deductibility": "1", "assets": 117, "income": 3169, "revenue": 3169}, {"ein": "872569228", "name": "CONGREGATION MOSHA BEN ARON YIDA", "city": "BROOKLYN", "state": "NY", "zip": "11249-6034", "ntee": "X30", "ruling": "202205", "deductibility": "1", "assets": 0, "income": 0, "revenue": 0}, {"ein": "884375387", "name": "BEN KARKI FOUNDATION INC", "city": "JACKSON HEIGHTS", "state": "NY", "zip": "11372-6343", "ntee": "E80", "ruling": "202303", "deductibility": "1", "assets": 0, "income": 0, "revenue": 0}, {"ein": "932611876", "name": "BEN JUE ZEN TEMPLE INC", "city": "FLUSHING", "state": "NY", "zip": "11354-2745", "ntee": "X99", "ruling": "202308", "deductibility": "1", "assets": 0, "income": 0, "revenue": 0}, {"ein": "933980407", "name": "LOVE LIKE BEN FOUNDATION INC", "city": "LOCKPORT", "state": "NY", "zip": "14094-9086", "ntee": "N60", "ruling": "202401", "deductibility": "1", "assets": 34646, "income": 15171, "revenue": 0}, {"ein": "934183087", "name": "WEST BABYLON VOLUNTEER FIREMENS BEN EVOLENT ASSOCIATION", "city": "WEST BABYLON", "state": "NY", "zip": "11704-7204", "ntee": "T50", "ruling": "202501", "deductibility": "1", "assets": 1752732, "income": 215371, "revenue": 215371}, {"ein": "992263642", "name": "BEN PARAG MUSIC INC", "city": "RICHMOND HILL", "state": "NY", "zip": "11418-1923", "ntee": "A99", "ruling": "202404", "deductibility": "1", "assets": 0, "income": 0, "revenue": 0}], "SALON": [{"ein": "111935865", "name": "LE SALON DEPARTMENTAL DE NEW YORK 13", "city": "BINGHAMTON", "state": "NY", "zip": "13903-3640", "ntee": "", "ruling": "195006", "deductibility": "1", "assets": 0, "income": 0, "revenue": 0}, {"ein": "113212678", "name": "KOREAN-AMERICAN NAIL SALON ASSOCIATION OF NEW YORK INC", "city": "STATEN ISLAND", "state": "NY", "zip": "10312-1204", "ntee": "", "ruling": "199509", "deductibility": "2", "assets": 9327, "income": 22283, "revenue": 22283}, {"ein": "116037109", "name": "SALON NATIONAL LABOUTIQUE DES HUIT CHAPEAUX ET QUARANTE FEMMES", "city": "MANHASSET", "state": "NY", "zip": "11030-1965", "ntee": "", "ruling": "195006", "deductibility": "1", "assets": 0, "income": 0, "revenue": 0}, {"ein": "133542161", "name": "SALON DE VIRTUOSI INC", "city": "NEW YORK", "state": "NY", "zip": "10038-0000", "ntee": "A680", "ruling": "199105", "deductibility": "1", "assets": 452050, "income": 125371, "revenue": 125371}, {"ein": "222511569", "name": "SALON NATIONAL LABOUTIQUE DES HUIT", "city": "DERUYTER", "state": "NY", "zip": "13052-0000", "ntee": "", "ruling": "195006", "deductibility": "1", "assets": 0, "income": 0, "revenue": 0}, {"ein": "332272778", "name": "MILLBROOK MUSIC SALON INC", "city": "MILLBROOK", "state": "NY", "zip": "12545-0368", "ntee": "A69", "ruling": "202502", "deductibility": "1", "assets": 0, "income": 0, "revenue": 0}, {"ein": "834422191", "name": "ATMOSPHERE SALON INC", "city": "LOCKPORT", "state": "NY", "zip": "14094-4848", "ntee": "S99", "ruling": "202002", "deductibility": "1", "assets": 35717, "income": 2129, "revenue": 2129}, {"ein": "841721846", "name": "THE SALON FAMILY FOUNDATION INC", "city": "ARMONK", "state": "NY", "zip": "10504-0000", "ntee": "U19", "ruling": "200708", "deductibility": "1", "assets": 1286060, "income": 630512, "revenue": 0}, {"ein": "842970385", "name": "TEEN ART SALON INC", "city": "LONG IS CITY", "state": "NY", "zip": "11101-2933", "ntee": "A25", "ruling": "202006", "deductibility": "1", "assets": 62883, "income": 97345, "revenue": 97345}, {"ein": "851484221", "name": "TB MOBILE SALON INC", "city": "BROOKLYN", "state": "NY", "zip": "11212-4939", "ntee": "P20", "ruling": "202108", "deductibility": "1", "assets": 0, "income": 0, "revenue": 0}, {"ein": "861716595", "name": "JEWISH ART SALON INCC", "city": "NEW YORK", "state": "NY", "zip": "10029-6914", "ntee": "A19", "ruling": "202107", "deductibility": "1", "assets": 7717, "income": 33049, "revenue": 33049}, {"ein": "922228005", "name": "SALON SEANCE PRODUCTIONS INC", "city": "NEW YORK", "state": "NY", "zip": "10032-7298", "ntee": "A20", "ruling": "202404", "deductibility": "1", "assets": 0, "income": 0, "revenue": 0}, {"ein": "932507374", "name": "SALON SANCTUARY CONCERTS", "city": "NEW YORK", "state": "NY", "zip": "10011-8436", "ntee": "A20", "ruling": "202406", "deductibility": "1", "assets": 0, "income": 0, "revenue": 0}], "HUMANITIES": [{"ein": "112285495", "name": "EAST END ARTS & HUMANITIES COUNCIL", "city": "FLANDERS", "state": "NY", "zip": "11901-2455", "ntee": "", "ruling": "197312", "deductibility": "1", "assets": 187243, "income": 780403, "revenue": 780403}, {"ein": "113464974", "name": "INSTITUTE OF JEWISH HUMANITIES AKA CONGREGATION KOL YAAKOV", "city": "BROOKLYN", "state": "NY", "zip": "11230-3050", "ntee": "X30", "ruling": "200206", "deductibility": "1", "assets": 0, "income": 0, "revenue": 0}, {"ein": "133713211", "name": "COUNCIL ON THE ARTS & HUMANITIES FOR STATEN ISLAND", "city": "STATEN ISLAND", "state": "NY", "zip": "10301-1827", "ntee": "Z99Z", "ruling": "199501", "deductibility": "1", "assets": 957682, "income": 854458, "revenue": 854458}, {"ein": "133915372", "name": "DACTYL FOUNDATION FOR THE ARTS & HUMANITIES INC", "city": "AMENIA", "state": "NY", "zip": "12501-5627", "ntee": "W70Z", "ruling": "199803", "deductibility": "1", "assets": 70972, "income": 2447, "revenue": 0}, {"ein": "134061835", "name": "RICARDO OGORMAN GARDEN AND CENTER FOR RESOURCES IN THE HUMANITIES IN", "city": "NEW YORK", "state": "NY", "zip": "10027-0000", "ntee": "P28", "ruling": "199910", "deductibility": "1", "assets": 708505, "income": 394841, "revenue": 394841}, {"ein": "141774186", "name": "LAKE PLACID FORUM FOR THE ARTS AND HUMANITIES INC", "city": "LAKE PLACID", "state": "NY", "zip": "12946-0988", "ntee": "P20", "ruling": "199410", "deductibility": "1", "assets": 106741, "income": 84594, "revenue": 70183}, {"ein": "262014427", "name": "CLEMENTE COURSE IN THE HUMANITIES INC", "city": "NEW YORK", "state": "NY", "zip": "10019-6018", "ntee": "B40", "ruling": "200808", "deductibility": "1", "assets": 302997, "income": 389721, "revenue": 389721}, {"ein": "271339490", "name": "WATER FOR THE HUMANITIES INC", "city": "NYACK", "state": "NY", "zip": "10960-0095", "ntee": "Q33", "ruling": "201006", "deductibility": "1", "assets": 0, "income": 0, "revenue": 0}, {"ein": "275013306", "name": "OLGA RAGUSA PHD AND ISA RAGUSA PHD FOUNDATION FOR THE HUMANITIES INC", "city": "NEW YORK", "state": "NY", "zip": "10011-8635", "ntee": "T23", "ruling": "201911", "deductibility": "1", "assets": 17786785, "income": 649674, "revenue": 0}, {"ein": "332520130", "name": "HUMANITIES CHINA ACADEMY INC", "city": "OAKLAND GDNS", "state": "NY", "zip": "11364-3403", "ntee": "A70", "ruling": "202501", "deductibility": "1", "assets": 0, "income": 0, "revenue": 0}, {"ein": "451559526", "name": "UNITED CHARTER HIGH SCHOOL FOR THE HUMANITIES", "city": "BRONX", "state": "NY", "zip": "10463-5079", "ntee": "B29", "ruling": "201205", "deductibility": "1", "assets": 4756949, "income": 9745718, "revenue": 9745718}, {"ein": "454667733", "name": "UNITED CHARTER HIGH SCHOOL FOR THE HUMANITIES II", "city": "NEW YORK", "state": "NY", "zip": "10115-1000", "ntee": "B29", "ruling": "201304", "deductibility": "1", "assets": 5466829, "income": 7455089, "revenue": 7455089}, {"ein": "510152266", "name": "NEW YORK COUNCIL FOR THE HUMANITIES", "city": "NEW YORK", "state": "NY", "zip": "10038-4364", "ntee": "A700", "ruling": "197507", "deductibility": "1", "assets": 3891088, "income": 2737274, "revenue": 2648933}, {"ein": "521188804", "name": "DAME JILLIAN & DR ARTHUR M SACKLER FDN FOR THE ARTS SCS & HUMANITIES", "city": "NEW YORK", "state": "NY", "zip": "10065-5963", "ntee": "", "ruling": "198107", "deductibility": "1", "assets": 4044583, "income": 275079, "revenue": 0}, {"ein": "832328137", "name": "HUMANITIES PREP PTA", "city": "NEW YORK", "state": "NY", "zip": "10011-4402", "ntee": "B94", "ruling": "202209", "deductibility": "1", "assets": 0, "income": 0, "revenue": 0}, {"ein": "852896305", "name": "NEW YORK INSTITUTE FOR THE HUMANITIES AND SOCIAL STUDIES INC", "city": "NEW YORK", "state": "NY", "zip": "10029-1307", "ntee": "A05", "ruling": "202101", "deductibility": "1", "assets": 0, "income": 0, "revenue": 0}, {"ein": "862032324", "name": "NEW YORK INSTITUTE FOR THE HUMANITIES", "city": "NEW YORK", "state": "NY", "zip": "10018-0000", "ntee": "P20", "ruling": "202208", "deductibility": "1", "assets": 61187, "income": 77990, "revenue": 77990}], "ELIYAHU": [{"ein": "112406529", "name": "CONGREGATION B NAI ELIYAHU C O YECHIEL KAUFMAN", "city": "BROOKLYN", "state": "NY", "zip": "11218-3509", "ntee": "", "ruling": "197707", "deductibility": "1", "assets": 0, "income": 0, "revenue": 0}, {"ein": "112737368", "name": "CONGREGATION ADERETH ELIYAHU INC", "city": "FLUSHING", "state": "NY", "zip": "11367-2546", "ntee": "", "ruling": "198509", "deductibility": "1", "assets": 0, "income": 0, "revenue": 0}, {"ein": "113518185", "name": "CONGREGATION ZICHRON YITZCHOK VMOSHE ELIYAHU", "city": "BROOKLYN", "state": "NY", "zip": "11204-2304", "ntee": "X30", "ruling": "200001", "deductibility": "1", "assets": 0, "income": 0, "revenue": 0}, {"ein": "113524479", "name": "CONG NER ELIYAHU", "city": "BROOKLYN", "state": "NY", "zip": "11225-3130", "ntee": "X30", "ruling": "200005", "deductibility": "1", "assets": 0, "income": 0, "revenue": 0}, {"ein": "113539890", "name": "AMERICAN FRIENDS OF ZICHRON ELIYAHU OFAKIM", "city": "BROOKLYN", "state": "NY", "zip": "11230-5808", "ntee": "N200", "ruling": "200202", "deductibility": "1", "assets": 46357, "income": 1080679, "revenue": 1080679}, {"ein": "113556325", "name": "AMERICAN FRIENDS OF TORAT ELIYAHU", "city": "BROOKLYN", "state": "NY", "zip": "11229-3322", "ntee": "T90", "ruling": "201411", "deductibility": "1", "assets": 3691, "income": 224286, "revenue": 0}, {"ein": "113579774", "name": "CONGREGATION ADERES ELIYAHU INC", "city": "BROOKLYN", "state": "NY", "zip": "11230-2102", "ntee": "X30", "ruling": "200104", "deductibility": "1", "assets": 0, "income": 0, "revenue": 0}, {"ein": "133752332", "name": "CONGREGATION OHR ELIYAHU GEMACH SOCIETY", "city": "BROOKLYN", "state": "NY", "zip": "11210-3714", "ntee": "", "ruling": "199404", "deductibility": "1", "assets": 0, "income": 0, "revenue": 0}, {"ein": "133938771", "name": "CONGREGATION AND YESHIVA BETH ELIYAHU", "city": "MONSEY", "state": "NY", "zip": "10952-2410", "ntee": "X30Z", "ruling": "199707", "deductibility": "1", "assets": 0, "income": 0, "revenue": 0}, {"ein": "133978200", "name": "KEREN ELIYAHU INC", "city": "NEW YORK", "state": "NY", "zip": "10017-1163", "ntee": "T20Z", "ruling": "199801", "deductibility": "1", "assets": 2095152, "income": 313086, "revenue": 0}, {"ein": "208063555", "name": "ZICHRON ELIYAHU INC", "city": "BROOKLYN", "state": "NY", "zip": "11218-5903", "ntee": "X12", "ruling": "200801", "deductibility": "1", "assets": 2571561, "income": 2687131, "revenue": 2687131}, {"ein": "452439839", "name": "SHAAREI ELIYAHU CONGREGATION", "city": "FOREST HILLS", "state": "NY", "zip": "11375-1346", "ntee": "X21", "ruling": "201204", "deductibility": "1", "assets": 0, "income": 0, "revenue": 0}, {"ein": "465153291", "name": "ELIYAHU DOV FUND INC", "city": "BROOKLYN", "state": "NY", "zip": "11204-2352", "ntee": "", "ruling": "201512", "deductibility": "1", "assets": 88345, "income": 75949, "revenue": 0}, {"ein": "471644619", "name": "BIRKAT ELIYAHU", "city": "FAR ROCKAWAY", "state": "NY", "zip": "11691-1770", "ntee": "X30", "ruling": "201611", "deductibility": "1", "assets": 0, "income": 0, "revenue": 0}, {"ein": "813736551", "name": "ADERET ELIYAHU INC", "city": "NEW YORK", "state": "NY", "zip": "10036-3303", "ntee": "T12", "ruling": "202305", "deductibility": "1", "assets": 43156, "income": 120069, "revenue": 120069}, {"ein": "843278631", "name": "BEIS ELIYAHU INC", "city": "BROOKLYN", "state": "NY", "zip": "11230-0000", "ntee": "B82", "ruling": "201910", "deductibility": "1", "assets": 54720, "income": 301673, "revenue": 301673}, {"ein": "854308390", "name": "MISHKAN ELIYAHU UMALKA INC", "city": "HORNELL", "state": "NY", "zip": "14843-2119", "ntee": "X30", "ruling": "202106", "deductibility": "1", "assets": 0, "income": 0, "revenue": 0}, {"ein": "862099865", "name": "ANSHEI ELIYAHU V NAFTALI TOMCHEI RBS", "city": "BROOKLYN", "state": "NY", "zip": "11210-4138", "ntee": "X30", "ruling": "202205", "deductibility": "1", "assets": 0, "income": 0, "revenue": 0}, {"ein": "922636243", "name": "ELIYAHU BIKUR HOLIM INC", "city": "BROOKLYN", "state": "NY", "zip": "11224-1321", "ntee": "L40", "ruling": "202303", "deductibility": "1", "assets": 0, "income": 0, "revenue": 0}], "RINZAI": [{"ein": "112449331", "name": "NEW YORK ZEN CENTER OF RINZAI-JI INC C O EDGAR KANN", "city": "SETAUKET", "state": "NY", "zip": "11733-1424", "ntee": "", "ruling": "197812", "deductibility": "1", "assets": 0, "income": 0, "revenue": 0}, {"ein": "133085752", "name": "NEW YORK RINZAI ZEN TEMPLE", "city": "NEW YORK", "state": "NY", "zip": "10022-4166", "ntee": "", "ruling": "198111", "deductibility": "1", "assets": 0, "income": 0, "revenue": 0}, {"ein": "237055843", "name": "RINZAI ZEN TEMPLE", "city": "NEW YORK", "state": "NY", "zip": "10022-0000", "ntee": "", "ruling": "197002", "deductibility": "1", "assets": 0, "income": 0, "revenue": 0}], "ESHEL": [{"ein": "112576622", "name": "CONGREGATION & YESHIVA ESHEL YISROEL INC", "city": "BROOKLYN", "state": "NY", "zip": "11230-6719", "ntee": "", "ruling": "198109", "deductibility": "1", "assets": 0, "income": 0, "revenue": 0}, {"ein": "113165361", "name": "CONGREGATION ESHEL AVRAHAM", "city": "BROOKLYN", "state": "NY", "zip": "11230-5706", "ntee": "", "ruling": "199308", "deductibility": "1", "assets": 0, "income": 0, "revenue": 0}, {"ein": "113356563", "name": "ESHEL AVRAHAM", "city": "BROOKLYN", "state": "NY", "zip": "11204-1227", "ntee": "X30Z", "ruling": "199705", "deductibility": "1", "assets": 0, "income": 0, "revenue": 0}, {"ein": "364454775", "name": "CHABAD LUBAVITCH HOSPITALITY CENTER ESHEL HACHNOSAS ORCHIM INC", "city": "BROOKLYN", "state": "NY", "zip": "11213-3409", "ntee": "Q12", "ruling": "201409", "deductibility": "1", "assets": 5547748, "income": 4189375, "revenue": 4189375}, {"ein": "460743219", "name": "AMERICAN FRIENDS OF ESHEL INC", "city": "BROOKLYN", "state": "NY", "zip": "11210-5310", "ntee": "B11", "ruling": "201406", "deductibility": "1", "assets": 123236, "income": 527302, "revenue": 527302}, {"ein": "770594854", "name": "ESHEL AVRAHAM ORGANIZATION INC", "city": "KEW GARDEN HL", "state": "NY", "zip": "11367-1735", "ntee": "X30", "ruling": "200401", "deductibility": "1", "assets": 0, "income": 0, "revenue": 0}], "NAMI": [{"ein": "112622795", "name": "NAMI MID-HUDSON INC", "city": "POUGHKEEPSIE", "state": "NY", "zip": "12602-0787", "ntee": "", "ruling": "198409", "deductibility": "1", "assets": 320356, "income": 249532, "revenue": 249532}, {"ein": "112666397", "name": "NAMI QUEENS-NASSAU INC", "city": "NEW HYDE PARK", "state": "NY", "zip": "11042-1038", "ntee": "F99Z", "ruling": "198407", "deductibility": "1", "assets": 239619, "income": 170191, "revenue": 170191}, {"ein": "113336158", "name": "NAMI HUNTINGTON INCORPORATED", "city": "MOUNT SINAI", "state": "NY", "zip": "11766-2802", "ntee": "F01", "ruling": "201501", "deductibility": "1", "assets": 0, "income": 0, "revenue": 0}, {"ein": "133370368", "name": "NAMI-NYC STATEN ISLAND INC", "city": "STATEN ISLAND", "state": "NY", "zip": "10314-4209", "ntee": "", "ruling": "198707", "deductibility": "1", "assets": 21186, "income": 99119, "revenue": 56609}, {"ein": "141704423", "name": "NAMI-SCHENECTADY INC", "city": "SCHENECTADY", "state": "NY", "zip": "12301-0974", "ntee": "F60", "ruling": "200204", "deductibility": "1", "assets": 0, "income": 0, "revenue": 0}, {"ein": "204938856", "name": "NAMI FINGER LAKES INCORPORATED", "city": "ITHACA", "state": "NY", "zip": "14851-6544", "ntee": "F01", "ruling": "200607", "deductibility": "1", "assets": 182242, "income": 119980, "revenue": 119980}, {"ein": "222469922", "name": "NAMI SYRACUSE INC", "city": "SYRACUSE", "state": "NY", "zip": "13204-1527", "ntee": "", "ruling": "198311", "deductibility": "1", "assets": 107073, "income": 140932, "revenue": 138407}, {"ein": "222571353", "name": "NAMI NEW YORK STATE INC", "city": "MENANDS", "state": "NY", "zip": "12204-2893", "ntee": "F00A", "ruling": "198502", "deductibility": "1", "assets": 3000452, "income": 1159460, "revenue": 1159460}, {"ein": "222573563", "name": "NATIONAL ALLIANCE ON MENTAL ILLNESS NAMI IN BUFFALO & ERIE COUNTY", "city": "BUFFALO", "state": "NY", "zip": "14209-2260", "ntee": "F80Z", "ruling": "198506", "deductibility": "1", "assets": 1023506, "income": 326382, "revenue": 254989}, {"ein": "222797794", "name": "NAMI ROCHESTER", "city": "ROCHESTER", "state": "NY", "zip": "14607-1146", "ntee": "", "ruling": "198705", "deductibility": "1", "assets": 662085, "income": 413963, "revenue": 397128}, {"ein": "352346750", "name": "NAMI-PUTNAM CHAPTER INC", "city": "MAHOPAC", "state": "NY", "zip": "10541-0552", "ntee": "F30", "ruling": "200902", "deductibility": "1", "assets": 27038, "income": 4126, "revenue": 4126}, {"ein": "421670897", "name": "NAMI ORANGE COUNTY NY INC", "city": "MIDDLETOWN", "state": "NY", "zip": "10940-0637", "ntee": "P82", "ruling": "200605", "deductibility": "1", "assets": 0, "income": 0, "revenue": 0}, {"ein": "454222655", "name": "NAMI CAPITAL REGION NY INC", "city": "ALBANY", "state": "NY", "zip": "12208-0720", "ntee": "F30", "ruling": "201210", "deductibility": "1", "assets": 49264, "income": 106955, "revenue": 69087}, {"ein": "454307089", "name": "NAMI COLUMBIA COUNTY NY INC", "city": "VALATIE", "state": "NY", "zip": "12184-0269", "ntee": "F80", "ruling": "201208", "deductibility": "1", "assets": 0, "income": 0, "revenue": 0}, {"ein": "510197010", "name": "NAMI SULLIVAN COUNTY NY INC", "city": "MONTICELLO", "state": "NY", "zip": "12701-1380", "ntee": "", "ruling": "200006", "deductibility": "0", "assets": 87679, "income": 331972, "revenue": 331972}, {"ein": "921755273", "name": "NAMI CENTRAL SUFFOLK LONG ISLAND NY INC", "city": "WILLISTON PK", "state": "NY", "zip": "11596-0177", "ntee": "F80", "ruling": "202301", "deductibility": "1", "assets": 119570, "income": 85885, "revenue": 85885}], "MAXIMILIAN": [{"ein": "112697957", "name": "MARION O & MAXIMILIAN E HOFFMAN FDN", "city": "MUTTONTOWN", "state": "NY", "zip": "11732-1601", "ntee": "", "ruling": "198601", "deductibility": "1", "assets": 20394072, "income": 4858029, "revenue": 0}, {"ein": "150553960", "name": "ST MAXIMILIAN KOLBE", "city": "ONTARIO", "state": "NY", "zip": "14519-9511", "ntee": "", "ruling": "194603", "deductibility": "1", "assets": 0, "income": 0, "revenue": 0}, {"ein": "160784098", "name": "SAINT MAXIMILIAN KOLBE ROMAN CATHOLIC PARISH OF CORFU NY", "city": "CORFU", "state": "NY", "zip": "14036-0278", "ntee": "", "ruling": "194603", "deductibility": "1", "assets": 0, "income": 0, "revenue": 0}], "ATIFA": [{"ein": "112845295", "name": "ATIFA D B A MASJIDI HAZARAT-I- ABUBAKR IMMIGRANTS OF AFGHANISTAN", "city": "OLD BETHPAGE", "state": "NY", "zip": "11804-0536", "ntee": "X40", "ruling": "201410", "deductibility": "1", "assets": 0, "income": 0, "revenue": 0}], "TZIVOS": [{"ein": "112872082", "name": "TZIVOS HASHEM", "city": "BROOKLYN", "state": "NY", "zip": "11213-3502", "ntee": "", "ruling": "199208", "deductibility": "1", "assets": 0, "income": 0, "revenue": 0}, {"ein": "263665444", "name": "CONGREGATION TZIVOS HASHEM", "city": "BROOKLYN", "state": "NY", "zip": "11213-4330", "ntee": "X21", "ruling": "201111", "deductibility": "1", "assets": 0, "income": 0, "revenue": 0}, {"ein": "843176604", "name": "TZIVOS HASHEM BP", "city": "BROOKLYN", "state": "NY", "zip": "11204-1482", "ntee": "X30", "ruling": "202005", "deductibility": "1", "assets": 0, "income": 0, "revenue": 0}], "STARFLOWER": [{"ein": "112976420", "name": "STARFLOWER EXPERIENCES INC", "city": "WYANDANCH", "state": "NY", "zip": "11798-4025", "ntee": "", "ruling": "199109", "deductibility": "1", "assets": 8276, "income": 42336, "revenue": 40757}], "IGBO": [{"ein": "113068277", "name": "IGBO ORGANIZATION INC", "city": "SAINT ALBANS", "state": "NY", "zip": "11412-3346", "ntee": "A230", "ruling": "199909", "deductibility": "1", "assets": 894593, "income": 146050, "revenue": 124050}, {"ein": "300474927", "name": "ANGLICAN UKA-NDI IGBO MINISTRIES INC", "city": "BRONX", "state": "NY", "zip": "10466-4615", "ntee": "X20", "ruling": "201210", "deductibility": "1", "assets": 0, "income": 0, "revenue": 0}, {"ein": "461793447", "name": "PROGRESSIVE ALLIANCE OF IGBO WOMEN", "city": "ELMONT", "state": "NY", "zip": "11003-4300", "ntee": "P20", "ruling": "201605", "deductibility": "1", "assets": 1262, "income": 0, "revenue": 0}, {"ein": "475072292", "name": "UNITED UMUADA IGBO CLUB INTERNATIONAL -UUICI- INC", "city": "NEW ROCHELLE", "state": "NY", "zip": "10801-3105", "ntee": "P40", "ruling": "201603", "deductibility": "1", "assets": 0, "income": 0, "revenue": 0}, {"ein": "830833297", "name": "IGBO NDI OMA INCORPORATED", "city": "SAINT ALBANS", "state": "NY", "zip": "11412-3346", "ntee": "A23", "ruling": "201911", "deductibility": "1", "assets": 0, "income": 0, "revenue": 0}, {"ein": "854016797", "name": "EZI UMUADA IGBO CLUB INC", "city": "VALLEY STREAM", "state": "NY", "zip": "11580-2224", "ntee": "A12", "ruling": "202107", "deductibility": "1", "assets": 0, "income": 0, "revenue": 0}, {"ein": "871096764", "name": "ODI MMA NDI IGBO INC", "city": "STATEN ISLAND", "state": "NY", "zip": "10304-7228", "ntee": "S80", "ruling": "202206", "deductibility": "1", "assets": 1, "income": 15970, "revenue": 0}, {"ein": "923934221", "name": "IGBO NURSES ASSOCIATION OF NEW YORK INC", "city": "BRONX", "state": "NY", "zip": "10469-2711", "ntee": "P20", "ruling": "202306", "deductibility": "1", "assets": 0, "income": 0, "revenue": 0}, {"ein": "931594622", "name": "IGBO COMMUNITY OF THE BRONX AND HUDSON VALLEY INC", "city": "NEW ROCHELLE", "state": "NY", "zip": "10801-5355", "ntee": "A23", "ruling": "202306", "deductibility": "1", "assets": 0, "income": 0, "revenue": 0}], "VACATION": [{"ein": "113124072", "name": "PLUMBERS LOCAL UNION NO 200 VACATION FUND", "city": "RONKONKOMA", "state": "NY", "zip": "11779-6908", "ntee": "", "ruling": "199403", "deductibility": "2", "assets": 1500451, "income": 3615981, "revenue": 3615981}, {"ein": "113322904", "name": "IBEW LOCAL 1049 VACATION FUND", "city": "HOLTSVILLE", "state": "NY", "zip": "11742-2000", "ntee": "", "ruling": "199807", "deductibility": "2", "assets": 502880, "income": 248335, "revenue": 7335}, {"ein": "131951757", "name": "BOILERMAKERS LODGE-5 VACATION FUND", "city": "FLORAL PARK", "state": "NY", "zip": "11001-2013", "ntee": "", "ruling": "196404", "deductibility": "2", "assets": 3237770, "income": 2971584, "revenue": 2971584}, {"ein": "131954024", "name": "GIRLS VACATION FUND INC", "city": "NEW YORK", "state": "NY", "zip": "10028-0948", "ntee": "N20I", "ruling": "194003", "deductibility": "1", "assets": 2921073, "income": 147658, "revenue": 147658}, {"ein": "132874176", "name": "LOCAL 580-VACATION FUND", "city": "NEW YORK", "state": "NY", "zip": "10036-6205", "ntee": "", "ruling": "196611", "deductibility": "2", "assets": 26961967, "income": 55343902, "revenue": 32936246}, {"ein": "136121373", "name": "STONE SETTERS VACATION FUND 84", "city": "NEW YORK", "state": "NY", "zip": "10018-3726", "ntee": "", "ruling": "196601", "deductibility": "2", "assets": 573928, "income": 1756725, "revenue": 1756725}, {"ein": "136149682", "name": "STEAMFITTERS INDUSTRY VACATION PLAN", "city": "LONG ISLAND CITY", "state": "NY", "zip": "11101-3725", "ntee": "", "ruling": "196502", "deductibility": "2", "assets": 8020368, "income": 24715962, "revenue": 24715962}, {"ein": "237345994", "name": "I A T S E NATIONAL VACATION FUND", "city": "NEW YORK", "state": "NY", "zip": "10016-2240", "ntee": "", "ruling": "197401", "deductibility": "2", "assets": 4890625, "income": 4923250, "revenue": 4923250}, {"ein": "260585677", "name": "VITAMIN VACATION FUND INC", "city": "LAWRENCE", "state": "NY", "zip": "11559-2009", "ntee": "Q30", "ruling": "200709", "deductibility": "1", "assets": 0, "income": 0, "revenue": 0}, {"ein": "844409331", "name": "VACATION IS A RIGHT FOUNDATION", "city": "FOREST HILLS", "state": "NY", "zip": "11375-4182", "ntee": "P20", "ruling": "202104", "deductibility": "1", "assets": 4406, "income": 322062, "revenue": 262431}, {"ein": "922526400", "name": "ONEIDA LAKE VACATION RENTERS ALLIANCE FOUNDATION", "city": "CICERO", "state": "NY", "zip": "13039-9732", "ntee": "B05", "ruling": "202304", "deductibility": "1", "assets": 0, "income": 0, "revenue": 0}], "YAA": [{"ein": "113181257", "name": "SPIRITUAL TEMPLE OF YAABAA OT & YAA ANUM INC", "city": "BROOKLYN", "state": "NY", "zip": "11217-1519", "ntee": "", "ruling": "199405", "deductibility": "1", "assets": 0, "income": 0, "revenue": 0}, {"ein": "352381871", "name": "ASASE YAA CULTURAL ARTS FOUNDATION INC", "city": "BROOKLYN", "state": "NY", "zip": "11217-1506", "ntee": "B99", "ruling": "201510", "deductibility": "1", "assets": 335315, "income": 1094334, "revenue": 1094334}, {"ein": "611594913", "name": "YAA SAMAR DANCE THEATER", "city": "BROOKLYN", "state": "NY", "zip": "11222-3664", "ntee": "A60", "ruling": "200909", "deductibility": "1", "assets": 79869, "income": 287558, "revenue": 287558}, {"ein": "873640899", "name": "YAA SERWAA", "city": "MENANDS", "state": "NY", "zip": "12204-1308", "ntee": "B90", "ruling": "202206", "deductibility": "1", "assets": 0, "income": 0, "revenue": 0}], "MAYANOT": [{"ein": "113348050", "name": "FRIENDS OF MAYANOT INSTITUTE INC", "city": "NEW YORK", "state": "NY", "zip": "10003-1502", "ntee": "T00Z", "ruling": "199806", "deductibility": "1", "assets": 1279789, "income": 5160925, "revenue": 5160925}], "SOBA": [{"ein": "113353940", "name": "BNEI ARAM SOBA", "city": "BROOKLYN", "state": "NY", "zip": "11223-2144", "ntee": "X30", "ruling": "199912", "deductibility": "1", "assets": 0, "income": 0, "revenue": 0}, {"ein": "201869361", "name": "AMERICAN FRIENDS OF ARAM SOBA", "city": "BROOKLYN", "state": "NY", "zip": "11230-6901", "ntee": "X193", "ruling": "200604", "deductibility": "1", "assets": 77122, "income": 1220714, "revenue": 1220714}, {"ein": "821609391", "name": "SOBA SCHOLARSHIP FUND INC", "city": "FLORAL PARK", "state": "NY", "zip": "11001-1974", "ntee": "B82", "ruling": "201709", "deductibility": "1", "assets": 22400, "income": 27942, "revenue": 14573}, {"ein": "922777270", "name": "CONGREGATION ARAM SOBA INC", "city": "BROOKLYN", "state": "NY", "zip": "11229-2437", "ntee": "X30", "ruling": "202309", "deductibility": "1", "assets": 0, "income": 0, "revenue": 0}], "NARSAD": [{"ein": "113401438", "name": "NARSAD RESEARCH INSTITUTE INC", "city": "NEW YORK", "state": "NY", "zip": "10017-2803", "ntee": "T30Z", "ruling": "199804", "deductibility": "1", "assets": 38717, "income": 78692, "revenue": 78692}], "CHASSIDIC": [{"ein": "113419934", "name": "CONGREGATION CHASSIDIC VIZNITC", "city": "MONSEY", "state": "NY", "zip": "10952-0190", "ntee": "X30Z", "ruling": "199806", "deductibility": "1", "assets": 0, "income": 0, "revenue": 0}, {"ein": "844530416", "name": "OHR SHLOMO CHASSIDIC CENTER", "city": "SUFFERN", "state": "NY", "zip": "10901-1907", "ntee": "X30", "ruling": "202006", "deductibility": "1", "assets": 0, "income": 0, "revenue": 0}], "WARNER": [{"ein": "113426508", "name": "JOSEPH LEROY AND ANN C WARNER FUND INC", "city": "NEW YORK", "state": "NY", "zip": "10004-2783", "ntee": "T20", "ruling": "199804", "deductibility": "1", "assets": 17874516, "income": 4574870, "revenue": 0}, {"ein": "133171726", "name": "SOUTHERN ORANGE COUNTY POP WARNER FOOTBALL LEAGUE INC", "city": "MONROE", "state": "NY", "zip": "10949-0283", "ntee": "", "ruling": "198312", "deductibility": "1", "assets": 145391, "income": 120925, "revenue": 120925}, {"ein": "134122111", "name": "POP WARNER LITTLE SCHOLARS INC", "city": "TUCKAHOE", "state": "NY", "zip": "10707-0334", "ntee": "", "ruling": "199002", "deductibility": "1", "assets": 69529, "income": 187684, "revenue": 187672}, {"ein": "136160928", "name": "FRIENDS OF THE WARNER PUBLIC LIBRARY OF THE TARRYTOWNS INC", "city": "TARRYTOWN", "state": "NY", "zip": "10591-3203", "ntee": "", "ruling": "195909", "deductibility": "1", "assets": 35217, "income": 17677, "revenue": 13228}, {"ein": "141586458", "name": "POP WARNER LITTLE SCHOLARS INC", "city": "E GREENBUSH", "state": "NY", "zip": "12061-1306", "ntee": "", "ruling": "199002", "deductibility": "0", "assets": 0, "income": 0, "revenue": 0}, {"ein": "141652635", "name": "POP WARNER LITTLE SCHOLARS INC", "city": "STILLWATER", "state": "NY", "zip": "12170-2210", "ntee": "", "ruling": "199002", "deductibility": "0", "assets": 49610, "income": 105405, "revenue": 105405}, {"ein": "141696325", "name": "POP WARNER LITTLE SCHOLARS INC", "city": "SCHENECTADY", "state": "NY", "zip": "12304-0400", "ntee": "", "ruling": "199002", "deductibility": "1", "assets": 0, "income": 0, "revenue": 0}, {"ein": "141733111", "name": "POP WARNER LITTLE SCHOLARS INC", "city": "BALLSTON SPA", "state": "NY", "zip": "12020-0011", "ntee": "", "ruling": "199402", "deductibility": "1", "assets": 0, "income": 0, "revenue": 0}, {"ein": "141769372", "name": "POP WARNER LITTLE SCHOLARS INC", "city": "SOUTH CAIRO", "state": "NY", "zip": "12482-0397", "ntee": "", "ruling": "199002", "deductibility": "1", "assets": 0, "income": 0, "revenue": 0}, {"ein": "141802169", "name": "POP WARNER LITTLE SCHOLARS INC", "city": "AVERILL PARK", "state": "NY", "zip": "12018-0561", "ntee": "N65", "ruling": "202307", "deductibility": "1", "assets": 0, "income": 0, "revenue": 0}, {"ein": "141819899", "name": "POP WARNER LITTLE SCHOLARS INC", "city": "CHATHAM", "state": "NY", "zip": "12037-0246", "ntee": "", "ruling": "199002", "deductibility": "1", "assets": 0, "income": 0, "revenue": 0}, {"ein": "141822673", "name": "POP WARNER LITTLE SCHOLARS INC", "city": "ALBANY", "state": "NY", "zip": "12205-4314", "ntee": "", "ruling": "199002", "deductibility": "1", "assets": 19760, "income": 118639, "revenue": 101386}, {"ein": "141827185", "name": "POP WARNER LITTLE SCHOLARS INC", "city": "PINE PLAINS", "state": "NY", "zip": "12567-5604", "ntee": "O50", "ruling": "199402", "deductibility": "1", "assets": 0, "income": 0, "revenue": 0}, {"ein": "146017375", "name": "GERALDINE & WARNER REFUGE INC", "city": "NEW WINDSOR", "state": "NY", "zip": "12553-4749", "ntee": "B820", "ruling": "196002", "deductibility": "1", "assets": 434570, "income": 38422, "revenue": 24149}, {"ein": "150508495", "name": "VETERANS OF FOREIGN WARS OF THE US DEPT OF NY G A WARNER POST 1371", "city": "OWEGO", "state": "NY", "zip": "13827-1633", "ntee": "", "ruling": "197210", "deductibility": "1", "assets": 450097, "income": 351841, "revenue": 269724}, {"ein": "150509709", "name": "AMERICAN LEGION WARNER VAN RIPER POST NO 435 DEPT OF NEW YORK INC", "city": "WATERLOO", "state": "NY", "zip": "13165-1410", "ntee": "", "ruling": "194603", "deductibility": "1", "assets": 218834, "income": 100003, "revenue": 75378}, {"ein": "160783521", "name": "ELIZABETH WARNER MARVIN COMMUNITY HOUSE INC", "city": "JAMESTOWN", "state": "NY", "zip": "14701-5012", "ntee": "P28Z", "ruling": "195301", "deductibility": "1", "assets": 618567, "income": 80894, "revenue": 80894}, {"ein": "161069721", "name": "POP WARNER LITTLE SCHOLARS INC", "city": "BRIDEPORT", "state": "NY", "zip": "13030-0000", "ntee": "", "ruling": "199002", "deductibility": "1", "assets": 126177, "income": 149275, "revenue": 149275}, {"ein": "161086986", "name": "COTTREALL-WARNER MEMORIAL HOME INC", "city": "WEBSTER", "state": "NY", "zip": "14580-2411", "ntee": "W30", "ruling": "201703", "deductibility": "1", "assets": 366445, "income": 1055622, "revenue": 201549}, {"ein": "161106419", "name": "PENFIELD POP WARNER FOOTBALL INC", "city": "PENFIELD", "state": "NY", "zip": "14526-0141", "ntee": "N63", "ruling": "201008", "deductibility": "1", "assets": 59283, "income": 138314, "revenue": 134099}, {"ein": "161122517", "name": "POP WARNER LITTLE SCHOLARS INC", "city": "ROCHESTER", "state": "NY", "zip": "14605-2367", "ntee": "", "ruling": "199002", "deductibility": "1", "assets": 0, "income": 0, "revenue": 0}, {"ein": "161146425", "name": "POP WARNER LITTLE SCHOLARS INC", "city": "ROCHESTER", "state": "NY", "zip": "14615-3626", "ntee": "", "ruling": "199002", "deductibility": "1", "assets": 0, "income": 0, "revenue": 0}, {"ein": "161316601", "name": "POP WARNER LITTLE SCHOLARS INC", "city": "LIVERPOOL", "state": "NY", "zip": "13089-2504", "ntee": "", "ruling": "199002", "deductibility": "1", "assets": 44376, "income": 202145, "revenue": 165270}, {"ein": "161353886", "name": "POP WARNER LITTLE SCHOLARS INC", "city": "CAMDEN", "state": "NY", "zip": "13316-0519", "ntee": "N65", "ruling": "201403", "deductibility": "0", "assets": 0, "income": 0, "revenue": 0}, {"ein": "161385368", "name": "POP WARNER LITTLE SCHOLARS INC", "city": "CHITTENANGO", "state": "NY", "zip": "13037-0009", "ntee": "N65", "ruling": "201307", "deductibility": "1", "assets": 0, "income": 0, "revenue": 0}, {"ein": "161427852", "name": "POP WARNER LITTLE SCHOLARS INC", "city": "ROME", "state": "NY", "zip": "13440-8836", "ntee": "", "ruling": "199002", "deductibility": "1", "assets": 0, "income": 0, "revenue": 0}, {"ein": "161432223", "name": "POP WARNER LITTLE SCHOLARS INC", "city": "BALDWINSVILLE", "state": "NY", "zip": "13027-0850", "ntee": "", "ruling": "199002", "deductibility": "1", "assets": 46302, "income": 107581, "revenue": 89653}, {"ein": "161444279", "name": "POP WARNER LITTLE SCHOLARS INC", "city": "ROME", "state": "NY", "zip": "13440-0000", "ntee": "", "ruling": "199002", "deductibility": "1", "assets": 0, "income": 0, "revenue": 0}, {"ein": "161454201", "name": "POP WARNER LITTLE SCHOLARS INC", "city": "CENTRAL SQ", "state": "NY", "zip": "13036-0783", "ntee": "", "ruling": "199002", "deductibility": "1", "assets": 0, "income": 0, "revenue": 0}, {"ein": "161519044", "name": "POP WARNER LITTLE SCHOLARS INC", "city": "GLENS FALLS", "state": "NY", "zip": "12801-0165", "ntee": "", "ruling": "199002", "deductibility": "1", "assets": 0, "income": 0, "revenue": 0}, {"ein": "161581776", "name": "SOUTH JEFF POP WARNER LITTLE SCHOLARS INC", "city": "ADAMS CENTER", "state": "NY", "zip": "13606-0532", "ntee": "", "ruling": "201605", "deductibility": "1", "assets": 0, "income": 0, "revenue": 0}, {"ein": "161588008", "name": "POP WARNER LITTLE SCHOLARS INC", "city": "NORWICH", "state": "NY", "zip": "13815-1646", "ntee": "", "ruling": "199402", "deductibility": "1", "assets": 0, "income": 0, "revenue": 0}, {"ein": "161607391", "name": "POP WARNER LITTLE SCHOLARS INC", "city": "PULASKI", "state": "NY", "zip": "13142-0605", "ntee": "N65", "ruling": "202306", "deductibility": "1", "assets": 0, "income": 0, "revenue": 0}, {"ein": "204122671", "name": "POP WARNER LITTLE SCHOLARS INC", "city": "NEDROW", "state": "NY", "zip": "13120-0204", "ntee": "O50", "ruling": "199002", "deductibility": "2", "assets": 0, "income": 0, "revenue": 0}, {"ein": "222534021", "name": "POP WARNER LITTLE SCHOLARS INC", "city": "NEW HARTFORD", "state": "NY", "zip": "13413-2309", "ntee": "N65", "ruling": "201306", "deductibility": "1", "assets": 0, "income": 0, "revenue": 0}, {"ein": "237049079", "name": "POP WARNER LITTLE SCHOLARS INC", "city": "CAMILLUS", "state": "NY", "zip": "13031-0025", "ntee": "", "ruling": "199002", "deductibility": "1", "assets": 143366, "income": 151191, "revenue": 147771}, {"ein": "237177643", "name": "POP WARNER LITTLE SCHOLARS INC", "city": "MANLIUS", "state": "NY", "zip": "13104-0340", "ntee": "", "ruling": "199002", "deductibility": "1", "assets": 67311, "income": 47732, "revenue": 47732}, {"ein": "237234403", "name": "POP WARNER LITTLE SCHOLARS INC", "city": "SCHENECTADY", "state": "NY", "zip": "12303-5113", "ntee": "", "ruling": "199002", "deductibility": "1", "assets": 0, "income": 0, "revenue": 0}, {"ein": "237334637", "name": "VASSAR-WARNER HOME", "city": "POUGHKEEPSIE", "state": "NY", "zip": "12601-4117", "ntee": "P750", "ruling": "197505", "deductibility": "1", "assets": 1317547, "income": 2549176, "revenue": 2549176}, {"ein": "262109437", "name": "POP WARNER LITTLE SCHOLARS INC", "city": "HAMLIN", "state": "NY", "zip": "14464-9339", "ntee": "N65", "ruling": "202112", "deductibility": "1", "assets": 21676, "income": 108913, "revenue": 0}, {"ein": "264299529", "name": "WARNER FUND INCORPORATED", "city": "NEW YORK", "state": "NY", "zip": "10023-4250", "ntee": "T22", "ruling": "200903", "deductibility": "1", "assets": 6707137, "income": 667737, "revenue": 0}, {"ein": "271311606", "name": "FAMILY AND FRIENDS OF LIZA ELLEN WARNER ASSOCIATION INC", "city": "RENSSELAER", "state": "NY", "zip": "12144-0013", "ntee": "T99", "ruling": "201405", "deductibility": "1", "assets": 0, "income": 0, "revenue": 0}, {"ein": "311683859", "name": "VASSAR-WARNER HOME FOUNDATION INC", "city": "POUGHKEEPSIE", "state": "NY", "zip": "12601-4117", "ntee": "L22", "ruling": "200004", "deductibility": "1", "assets": 581342, "income": 1941932, "revenue": -53106}, {"ein": "331133901", "name": "FULTON POP WARNER INC", "city": "FULTON", "state": "NY", "zip": "13069-2238", "ntee": "N65", "ruling": "200609", "deductibility": "1", "assets": 37857, "income": 75908, "revenue": 42253}, {"ein": "371471886", "name": "POP WARNER LITTLE SCHOLARS INC", "city": "GREEN ISLAND", "state": "NY", "zip": "12183-1104", "ntee": "", "ruling": "199402", "deductibility": "1", "assets": 0, "income": 0, "revenue": 0}, {"ein": "421601302", "name": "POP WARNER LITTLE SCHOLARS INC", "city": "VLY COTTAGE", "state": "NY", "zip": "10989-1427", "ntee": "", "ruling": "199402", "deductibility": "1", "assets": 11236, "income": 48635, "revenue": 48320}, {"ein": "432015019", "name": "POP WARNER LITTLE SCHOLARS INC", "city": "CANASTOTA", "state": "NY", "zip": "13032-0000", "ntee": "", "ruling": "199402", "deductibility": "1", "assets": 0, "income": 0, "revenue": 0}, {"ein": "453641070", "name": "POP WARNER LITTLE SCHOLARS INC", "city": "RENSSELAER", "state": "NY", "zip": "12144-1020", "ntee": "N65", "ruling": "199002", "deductibility": "1", "assets": 0, "income": 0, "revenue": 0}, {"ein": "453805060", "name": "POP WARNER LITTLE SCHOLARS INC", "city": "PEARL RIVER", "state": "NY", "zip": "10965-0164", "ntee": "", "ruling": "199402", "deductibility": "1", "assets": 97592, "income": 22013, "revenue": 20932}, {"ein": "460725003", "name": "POP WARNER LITTLE SCHOLARS INC", "city": "ROCHESTER", "state": "NY", "zip": "14609-3415", "ntee": "N65", "ruling": "202202", "deductibility": "1", "assets": 0, "income": 0, "revenue": 0}, {"ein": "460804048", "name": "WATERVILLE POP WARNER", "city": "WATERVILLE", "state": "NY", "zip": "13480-0335", "ntee": "N60", "ruling": "202412", "deductibility": "1", "assets": 0, "income": 0, "revenue": 0}, {"ein": "464762120", "name": "ADIRONDACK POP WARNER ASSOCIATION", "city": "BOONVILLE", "state": "NY", "zip": "13309-1329", "ntee": "O50", "ruling": "201509", "deductibility": "1", "assets": 34461, "income": 88434, "revenue": 47572}, {"ein": "510142883", "name": "POP WARNER LITTLE SCHOLARS INC", "city": "AUBURN", "state": "NY", "zip": "13021-3116", "ntee": "", "ruling": "199002", "deductibility": "1", "assets": 78811, "income": 78998, "revenue": 78998}, {"ein": "510209530", "name": "POP WARNER LITTLE SCHOLARS INC", "city": "LITTLE FALLS", "state": "NY", "zip": "13365-3802", "ntee": "N65", "ruling": "199002", "deductibility": "1", "assets": 0, "income": 0, "revenue": 0}, {"ein": "510243800", "name": "WARNER LIBRARY", "city": "TARRYTOWN", "state": "NY", "zip": "10591-3203", "ntee": "", "ruling": "197611", "deductibility": "1", "assets": 0, "income": 0, "revenue": 0}, {"ein": "521656342", "name": "POP WARNER LITTLE SCHOLARS INC", "city": "CICERO", "state": "NY", "zip": "13039-1398", "ntee": "N126", "ruling": "199002", "deductibility": "1", "assets": 52268, "income": 110654, "revenue": 110654}, {"ein": "521656346", "name": "POP WARNER LITTLE SCHOLARS INC", "city": "MANNSVILLE", "state": "NY", "zip": "13661-3201", "ntee": "N65", "ruling": "199002", "deductibility": "1", "assets": 0, "income": 0, "revenue": 0}, {"ein": "521656368", "name": "POP WARNER LITTLE SCHOLARS INC", "city": "VERNON", "state": "NY", "zip": "13476-1086", "ntee": "", "ruling": "199002", "deductibility": "1", "assets": 46771, "income": 69524, "revenue": 69524}, {"ein": "521709430", "name": "POP WARNER LITTLE SCHOLARS INC", "city": "CAZENOVIA", "state": "NY", "zip": "13035-0554", "ntee": "N65", "ruling": "199002", "deductibility": "2", "assets": 0, "income": 0, "revenue": 0}, {"ein": "562636200", "name": "POP WARNER LITTLE SCHOLARS INC", "city": "SAUQUOIT", "state": "NY", "zip": "13456-3316", "ntee": "", "ruling": "199002", "deductibility": "1", "assets": 0, "income": 0, "revenue": 0}, {"ein": "571232464", "name": "POP WARNER LITTLE SCHOLARS INC", "city": "PHOENIX", "state": "NY", "zip": "13135-0347", "ntee": "", "ruling": "199402", "deductibility": "1", "assets": 0, "income": 0, "revenue": 0}, {"ein": "680648544", "name": "POP WARNER LITTLE SCHOLARS INC", "city": "UTICA", "state": "NY", "zip": "13502-2111", "ntee": "", "ruling": "199002", "deductibility": "1", "assets": 0, "income": 0, "revenue": 0}, {"ein": "753155761", "name": "POP WARNER LITTLE SCHOLARS INC", "city": "MEXICO", "state": "NY", "zip": "13114-1052", "ntee": "", "ruling": "199402", "deductibility": "2", "assets": 0, "income": 0, "revenue": 0}, {"ein": "760767683", "name": "POP WARNER LITTLE SCHOLARS INC", "city": "VLY COTTAGE", "state": "NY", "zip": "10989-1427", "ntee": "", "ruling": "199002", "deductibility": "1", "assets": 39404, "income": 62856, "revenue": 48105}, {"ein": "800665532", "name": "TENTH WARD TIGERS POP WARNER", "city": "ROCHESTER", "state": "NY", "zip": "14616-1108", "ntee": "N65", "ruling": "201110", "deductibility": "1", "assets": 0, "income": 0, "revenue": 0}, {"ein": "811968467", "name": "POP WARNER LITTLE SCHOLARS INC", "city": "UTICA", "state": "NY", "zip": "13502-0000", "ntee": "", "ruling": "199002", "deductibility": "1", "assets": 0, "income": 0, "revenue": 0}, {"ein": "822984878", "name": "DOLGEVILLE POP WARNER", "city": "DOLGEVILLE", "state": "NY", "zip": "13329-0066", "ntee": "N65", "ruling": "202402", "deductibility": "1", "assets": 0, "income": 0, "revenue": 0}, {"ein": "830449509", "name": "POP WARNER LITTLE SCHOLARS INC", "city": "HOLLAND PATNT", "state": "NY", "zip": "13354-0244", "ntee": "", "ruling": "199002", "deductibility": "1", "assets": 0, "income": 0, "revenue": 0}, {"ein": "832381835", "name": "WARNER WARDELL FAMILY FOUNDATION", "city": "ALBANY", "state": "NY", "zip": "12212-5201", "ntee": "T20", "ruling": "201905", "deductibility": "1", "assets": 327925, "income": 398819, "revenue": 0}, {"ein": "832778099", "name": "CARTHAGE POP WARNER INC", "city": "CARTHAGE", "state": "NY", "zip": "13619-0125", "ntee": "N65", "ruling": "201910", "deductibility": "1", "assets": 31370, "income": 101430, "revenue": 101430}, {"ein": "844216049", "name": "POP WARNER LITTLE SCHOLARS INC", "city": "OSWEGO", "state": "NY", "zip": "13126-5430", "ntee": "", "ruling": "199402", "deductibility": "1", "assets": 0, "income": 0, "revenue": 0}, {"ein": "853060424", "name": "WARNER MUSIC GROUP BLAVATNIK FAMILY FOUNDATION SOCIAL JUSTICE FUND", "city": "NEW YORK", "state": "NY", "zip": "10019-6708", "ntee": "T21", "ruling": "202108", "deductibility": "1", "assets": 43726, "income": 259801, "revenue": 0}, {"ein": "862868796", "name": "POP WARNER LITTLE SCHOLARS INC", "city": "SYRACUSE", "state": "NY", "zip": "13209-1784", "ntee": "N65", "ruling": "199002", "deductibility": "1", "assets": 0, "income": 0, "revenue": 0}, {"ein": "872704736", "name": "CAMDEN POP WARNER CHEER", "city": "CAMDEN", "state": "NY", "zip": "13316-0036", "ntee": "N65", "ruling": "202211", "deductibility": "1", "assets": 0, "income": 0, "revenue": 0}, {"ein": "873656686", "name": "POP WARNER LITTLE SCHOLARS INC", "city": "EAST SYRACUSE", "state": "NY", "zip": "13057-0265", "ntee": "", "ruling": "199002", "deductibility": "1", "assets": 0, "income": 0, "revenue": 0}, {"ein": "922162564", "name": "MARCY DEERFIELD POP WARNER FOOTBALL CORPORATION", "city": "MARCY", "state": "NY", "zip": "13403-2427", "ntee": "N65", "ruling": "202302", "deductibility": "1", "assets": 0, "income": 0, "revenue": 0}, {"ein": "922819853", "name": "POP WARNER LITTLE SCHOLARS INC", "city": "HUDSON", "state": "NY", "zip": "12534-4116", "ntee": "", "ruling": "199002", "deductibility": "1", "assets": 0, "income": 0, "revenue": 0}, {"ein": "932438942", "name": "TROY PATRIOTS POP WARNER FOOTBALL INC", "city": "TROY", "state": "NY", "zip": "12182-9782", "ntee": "N65", "ruling": "202308", "deductibility": "1", "assets": 0, "income": 0, "revenue": 0}, {"ein": "990623476", "name": "INDIAN RIVER POP WARNER ASSOCIATION", "city": "THERESA", "state": "NY", "zip": "13691-2005", "ntee": "N60", "ruling": "202401", "deductibility": "1", "assets": 0, "income": 0, "revenue": 0}], "ZOLTSHEV": [{"ein": "113430532", "name": "CONGREGATION MAHRU ZOLTSHEV", "city": "WEST LAWRENCE", "state": "NY", "zip": "11691-5235", "ntee": "X30Z", "ruling": "199806", "deductibility": "1", "assets": 0, "income": 0, "revenue": 0}], "SUDDEN": [{"ein": "113486212", "name": "SUDDEN ENLIGHTENMENT THEATRE INC", "city": "JACKSON HTS", "state": "NY", "zip": "11372-6241", "ntee": "X990", "ruling": "200006", "deductibility": "1", "assets": 0, "income": 0, "revenue": 0}, {"ein": "462855423", "name": "SUDDEN IMPACT MINISTRIES FOR CHRIST", "city": "ROCHESTER", "state": "NY", "zip": "14624-2273", "ntee": "X20", "ruling": "201512", "deductibility": "1", "assets": 0, "income": 0, "revenue": 0}], "USW": [{"ein": "113522006", "name": "LOCAL 355 USW JOINT APPRENTICESHIP AND TRAINING FUND", "city": "NEW ROCHELLE", "state": "NY", "zip": "10801-5251", "ntee": "B30", "ruling": "200301", "deductibility": "1", "assets": 2531733, "income": 1151082, "revenue": 1151082}], "ANEW": [{"ein": "113566083", "name": "HOMES ANEW I LTD", "city": "OLD BETHPAGE", "state": "NY", "zip": "11804-1342", "ntee": "P99", "ruling": "200108", "deductibility": "1", "assets": 879416, "income": 193369, "revenue": 193369}, {"ein": "113593067", "name": "HOMES ANEW II LTD", "city": "OLD BETHPAGE", "state": "NY", "zip": "11804-1342", "ntee": "L112", "ruling": "200212", "deductibility": "1", "assets": 687736, "income": 76133, "revenue": 76133}, {"ein": "202901349", "name": "BEGINNING ANEW COMMUNITY DEVELOPMENT COPORATION", "city": "AMITYVILLE", "state": "NY", "zip": "11701-3000", "ntee": "P20", "ruling": "200710", "deductibility": "1", "assets": 0, "income": 0, "revenue": 0}], "CHIEN": [{"ein": "113586625", "name": "CONG CHIEN V CHESED", "city": "BROOKLYN", "state": "NY", "zip": "11211-8036", "ntee": "X30", "ruling": "200107", "deductibility": "1", "assets": 0, "income": 0, "revenue": 0}, {"ein": "463917869", "name": "UGLY AND MAUDE CHIEN FOUNDATION FOR CHILDREN OF THE WORLD INC", "city": "AMITYVILLE", "state": "NY", "zip": "11701-2751", "ntee": "E99", "ruling": "201405", "deductibility": "1", "assets": 15965, "income": 38706, "revenue": 0}], "SAMMUL": [{"ein": "113600928", "name": "SAMMUL PRESBYTERIAN CHURCH", "city": "GREAT NECK", "state": "NY", "zip": "11021-2649", "ntee": "X21", "ruling": "200309", "deductibility": "1", "assets": 0, "income": 0, "revenue": 0}], "NANBPWC": [{"ein": "113619820", "name": "MID-ISLAND CLUB NANBPWC INC", "city": "CENTRAL ISLIP", "state": "NY", "zip": "11722-0349", "ntee": "", "ruling": "199809", "deductibility": "0", "assets": 0, "income": 0, "revenue": 0}], "CORA": [{"ein": "113639921", "name": "CORA INCORPORATED", "city": "BROOKLYN", "state": "NY", "zip": "11231-1549", "ntee": "B99", "ruling": "200208", "deductibility": "1", "assets": 185703, "income": 605180, "revenue": 597536}, {"ein": "133948612", "name": "BONIFACIO CORA TEXIDOR HOUSING DEVELOPEMENT FUND CORP", "city": "NEW YORK", "state": "NY", "zip": "10029-1075", "ntee": "L80Z", "ruling": "199707", "deductibility": "1", "assets": 4575906, "income": 1730306, "revenue": 1730306}, {"ein": "161263983", "name": "THE CORA FOUNDATION INC", "city": "SYRACUSE", "state": "NY", "zip": "13217-6865", "ntee": "A23", "ruling": "200906", "deductibility": "1", "assets": 536884, "income": 194853, "revenue": 194801}, {"ein": "166106774", "name": "MANUFACTURERS AND TRADERS TRUST CO TRUSTEE U WILL OF CORA H GAYLORD", "city": "BUFFALO", "state": "NY", "zip": "14240-1504", "ntee": "", "ruling": "201912", "deductibility": "1", "assets": 2823743, "income": 625059, "revenue": 0}, {"ein": "166272694", "name": "CORA A & MENZO W GOODELL SCHOLARSHIP ENDOWMENT TRUST", "city": "ONEONTA", "state": "NY", "zip": "13820-0430", "ntee": "", "ruling": "198907", "deductibility": "1", "assets": 113418, "income": 24725, "revenue": 0}, {"ein": "166273334", "name": "CORA GAYLORD TRUST UWO FBO JAY BONNER", "city": "BUFFALO", "state": "NY", "zip": "14240-1504", "ntee": "T20", "ruling": "200907", "deductibility": "1", "assets": 1224867, "income": 332041, "revenue": 0}, {"ein": "800612429", "name": "CORA INC", "city": "HEMPSTEAD", "state": "NY", "zip": "11550-1616", "ntee": "Q33", "ruling": "201409", "deductibility": "1", "assets": 0, "income": 0, "revenue": 0}], "RWANDA": [{"ein": "113837036", "name": "FOUNDATION RWANDA INC", "city": "NEW YORK", "state": "NY", "zip": "10038-3755", "ntee": "Q30", "ruling": "200807", "deductibility": "1", "assets": 136074, "income": 49573, "revenue": 49573}, {"ein": "262465035", "name": "RWANDA EDUCATION ASSISTANCE PROJECT INC", "city": "KATONAH", "state": "NY", "zip": "10536-0351", "ntee": "Q33", "ruling": "200809", "deductibility": "1", "assets": 184207, "income": 139749, "revenue": 139749}, {"ein": "881600313", "name": "FRIENDS OF CHABAD RWANDA INC", "city": "BROOKLYN", "state": "NY", "zip": "11203-1020", "ntee": "X30", "ruling": "202205", "deductibility": "1", "assets": 0, "income": 0, "revenue": 0}], "SCHUETZEN": [{"ein": "116039046", "name": "BROOKLYN SCHUETZEN CORPS", "city": "FRANKLIN SQUARE", "state": "NY", "zip": "11010-0000", "ntee": "", "ruling": "194609", "deductibility": "2", "assets": 0, "income": 0, "revenue": 0}], "KOLBER": [{"ein": "116044771", "name": "SAM KOLBER FOUNDATION INC", "city": "NEW YORK", "state": "NY", "zip": "10021-4766", "ntee": "", "ruling": "196604", "deductibility": "1", "assets": 374255, "income": 21493, "revenue": 0}, {"ein": "824925860", "name": "JESSE KOLBER FOUNDATION", "city": "WHITE PLAINS", "state": "NY", "zip": "10601-4463", "ntee": "B82", "ruling": "201905", "deductibility": "1", "assets": 138280, "income": 6648, "revenue": 6648}], "GYMNASTIC": [{"ein": "130508060", "name": "BOHEMIAN GYMNASTIC ASSOCIATION SOKOL OF THE CITY OF NEW YORK", "city": "NEW YORK", "state": "NY", "zip": "10021-4827", "ntee": "", "ruling": "194612", "deductibility": "1", "assets": 2594664, "income": 365538, "revenue": 0}, {"ein": "133702778", "name": "NEW YORK SWISS GYMNASTIC SOCIETY", "city": "WHITE PLAINS", "state": "NY", "zip": "10603-0207", "ntee": "", "ruling": "199409", "deductibility": "2", "assets": 0, "income": 0, "revenue": 0}, {"ein": "136167240", "name": "SLOVAK GYMNASTIC UNION SOKOL OF THE USA NATIONAL HEADQUARTERS", "city": "SLEEPY HOLLOW", "state": "NY", "zip": "10591-2421", "ntee": "", "ruling": "197210", "deductibility": "2", "assets": 48670, "income": 35682, "revenue": 33266}, {"ein": "160878327", "name": "GIRLS GYMNASTIC-ATHLETIC CLUB OF OWEGO NEW YORK INC", "city": "OWEGO", "state": "NY", "zip": "13827-3216", "ntee": "N6XZ", "ruling": "196707", "deductibility": "1", "assets": 333065, "income": 332795, "revenue": 323791}, {"ein": "161361859", "name": "NATIONAL COLLEGIATE GYMNASTIC ASSOCIATION", "city": "ROCHESTER", "state": "NY", "zip": "14623-3607", "ntee": "N70", "ruling": "201105", "deductibility": "1", "assets": 0, "income": 0, "revenue": 0}], "PATRIARCHATES": [{"ein": "132687426", "name": "CATHEDRAL OF LEARNING OF AMERICAN WORLD PATRIARCHATES INC", "city": "OSSINING", "state": "NY", "zip": "10562-4103", "ntee": "", "ruling": "197202", "deductibility": "1", "assets": 0, "income": 0, "revenue": 0}], "ESPERANZA": [{"ein": "132688412", "name": "CENTRO SOCIAL LA ESPERANZA", "city": "NEW YORK", "state": "NY", "zip": "10033-5150", "ntee": "", "ruling": "197202", "deductibility": "2", "assets": 21448292, "income": 16695082, "revenue": 16695082}, {"ein": "133305576", "name": "EL AMANECER DE LA ESPERANZA MINISTRY INC", "city": "BRONX", "state": "NY", "zip": "10472-2222", "ntee": "X20", "ruling": "200004", "deductibility": "1", "assets": 0, "income": 0, "revenue": 0}, {"ein": "133384379", "name": "IGLESIA CRISTO LA UNICA ESPERANZA", "city": "BRONX", "state": "NY", "zip": "10453-3100", "ntee": "X20", "ruling": "200003", "deductibility": "1", "assets": 0, "income": 0, "revenue": 0}, {"ein": "133739822", "name": "MINISTERIO EL AMANECER DE LA ESPERANZA DE QUEENS INC", "city": "CORONA", "state": "NY", "zip": "11368-0000", "ntee": "", "ruling": "199407", "deductibility": "1", "assets": 0, "income": 0, "revenue": 0}, {"ein": "133910170", "name": "IGLESIA CRISTIANA FE Y ESPERANZA", "city": "MOUNT KISCO", "state": "NY", "zip": "10549-0599", "ntee": "X20I", "ruling": "196408", "deductibility": "1", "assets": 0, "income": 0, "revenue": 0}, {"ein": "133962366", "name": "CASA ESPERANZA HOUSING DEVELOPMENT FUND INC", "city": "BRONX", "state": "NY", "zip": "10460-4617", "ntee": "L40", "ruling": "200410", "deductibility": "1", "assets": 1476074, "income": 271341, "revenue": 271341}, {"ein": "141787292", "name": "ESPERANZA DUTCHESS COUNTY HISPANIC ORGANIZATION INC", "city": "POUGHKEEPSIE", "state": "NY", "zip": "12601-4612", "ntee": "S20", "ruling": "201906", "deductibility": "1", "assets": 0, "income": 0, "revenue": 0}, {"ein": "204187873", "name": "CASA DE ESPERANZA PARA MUJERES YNINOS INC", "city": "NEW WINDSOR", "state": "NY", "zip": "12553-6866", "ntee": "P850", "ruling": "200703", "deductibility": "1", "assets": 0, "income": 0, "revenue": 0}, {"ein": "204393724", "name": "LA NUEVA ESPERANZA", "city": "BROOKLYN", "state": "NY", "zip": "11206-2743", "ntee": "G81", "ruling": "200709", "deductibility": "1", "assets": 762135, "income": 1831368, "revenue": 1831368}, {"ein": "274216831", "name": "REFUGIO DE ESPERANZA INCORPORATED", "city": "RYE", "state": "NY", "zip": "10580-1942", "ntee": "X21", "ruling": "201107", "deductibility": "1", "assets": 0, "income": 0, "revenue": 0}, {"ein": "275192401", "name": "UNA ESPERANZA VIVA PARA LAS NACIONES", "city": "PLEASANTVILLE", "state": "NY", "zip": "10570-3131", "ntee": "X20", "ruling": "201411", "deductibility": "1", "assets": 0, "income": 0, "revenue": 0}, {"ein": "352582161", "name": "IGLESIA CRISTIANA LA ESPERANZA DE GLORIA INC", "city": "NEW YORK", "state": "NY", "zip": "10037-1309", "ntee": "X20", "ruling": "201708", "deductibility": "1", "assets": 0, "income": 0, "revenue": 0}, {"ein": "364908479", "name": "THE MARIA ESPERANZA ORTIZ FOUNDATION INC", "city": "YONKERS", "state": "NY", "zip": "10705-3535", "ntee": "", "ruling": "201809", "deductibility": "1", "assets": 3083, "income": 1, "revenue": 0}, {"ein": "454599538", "name": "MINISTERIO LUZ DE ESPERANZA", "city": "BAY SHORE", "state": "NY", "zip": "11706-4535", "ntee": "X21", "ruling": "201301", "deductibility": "1", "assets": 0, "income": 0, "revenue": 0}, {"ein": "454785640", "name": "IGLESIA FILIPA LUGAR DE ESPERANZA", "city": "YONKERS", "state": "NY", "zip": "10701-2604", "ntee": "", "ruling": "196408", "deductibility": "1", "assets": 0, "income": 0, "revenue": 0}, {"ein": "461318307", "name": "IGLESIA EVANGELICA ESPERANZA DIVINA INC", "city": "JAMAICA", "state": "NY", "zip": "11435-3528", "ntee": "X20", "ruling": "201412", "deductibility": "1", "assets": 0, "income": 0, "revenue": 0}, {"ein": "464995380", "name": "CONCILIO DE IGLESIAS LUZ Y ESPERANZA INTERNACIONAL", "city": "GLENDALE", "state": "NY", "zip": "11385-6662", "ntee": "X21", "ruling": "201408", "deductibility": "1", "assets": 0, "income": 0, "revenue": 0}, {"ein": "465611698", "name": "IGLESIA EBEN-EZER PALABRA DE ESPERANZA NY INC", "city": "RICHMOND HILL", "state": "NY", "zip": "11418-2624", "ntee": "X21", "ruling": "201507", "deductibility": "1", "assets": 0, "income": 0, "revenue": 0}, {"ein": "510620349", "name": "MINISTERIO ESPERANZA", "city": "AMSTERDAM", "state": "NY", "zip": "12010-0765", "ntee": "", "ruling": "196408", "deductibility": "1", "assets": 0, "income": 0, "revenue": 0}, {"ein": "753128396", "name": "ESPERANZA DEL BARRIO INC", "city": "NEW YORK", "state": "NY", "zip": "10029-2105", "ntee": "P20", "ruling": "200510", "deductibility": "1", "assets": 42060, "income": 94622, "revenue": 94622}, {"ein": "800866369", "name": "MIN ENS CRISIANA IGLESIA CAMINO DE ESPERANZA", "city": "BROOKLYN", "state": "NY", "zip": "11237-5714", "ntee": "X20", "ruling": "201412", "deductibility": "1", "assets": 0, "income": 0, "revenue": 0}, {"ein": "820978078", "name": "IGLESIA CRISTO LA UNICA ESPERANZA NUMERO DOS INC", "city": "BREWSTER", "state": "NY", "zip": "10509-1526", "ntee": "X99", "ruling": "202401", "deductibility": "1", "assets": 0, "income": 0, "revenue": 0}, {"ein": "825510616", "name": "NIDO DE ESPERANZA CHARITABLE SOCIETY", "city": "NEW YORK", "state": "NY", "zip": "10033-3704", "ntee": "P20", "ruling": "201902", "deductibility": "1", "assets": 968597, "income": 1939992, "revenue": 1939992}, {"ein": "831905764", "name": "ESPERANZA DOMINICAN OUTREACH", "city": "FAYETTEVILLE", "state": "NY", "zip": "13066-1530", "ntee": "Q12", "ruling": "201811", "deductibility": "1", "assets": 0, "income": 0, "revenue": 0}, {"ein": "833278949", "name": "ESPERANZA DE VIDA COMMUNITY CHURCH", "city": "FOREST HILLS", "state": "NY", "zip": "11375-2708", "ntee": "", "ruling": "197005", "deductibility": "1", "assets": 0, "income": 0, "revenue": 0}, {"ein": "881589431", "name": "SEMILLITAS DE ESPERANZA PARA LA FAMILIA INC", "city": "EAST ELMHURST", "state": "NY", "zip": "11370-1472", "ntee": "P20", "ruling": "202207", "deductibility": "1", "assets": 2, "income": 6403, "revenue": 0}, {"ein": "922118920", "name": "BRIGADA DE ESPERANZA INCORPORATION", "city": "EAST ELMHURST", "state": "NY", "zip": "11369-1511", "ntee": "P29", "ruling": "202308", "deductibility": "1", "assets": 0, "income": 0, "revenue": 0}, {"ein": "932358968", "name": "HORIZONTE DE ESPERANZA CORP", "city": "WOODSIDE", "state": "NY", "zip": "11377-6577", "ntee": "P84", "ruling": "202309", "deductibility": "1", "assets": 4239, "income": 50181, "revenue": 50181}, {"ein": "990412462", "name": "IGLESIA DE JESUCRISTO ESPERANZA Y VIDA INC", "city": "BRONX", "state": "NY", "zip": "10460-2537", "ntee": "X20", "ruling": "202411", "deductibility": "1", "assets": 0, "income": 0, "revenue": 0}], "SPARK": [{"ein": "133037380", "name": "SPARK YOUTH NYC INC", "city": "NEW YORK", "state": "NY", "zip": "10022-6903", "ntee": "I83Z", "ruling": "198009", "deductibility": "1", "assets": 1565813, "income": 2304088, "revenue": 1868256}, {"ein": "137179286", "name": "NOAHS SPARK FOUNDATION", "city": "SPRING VALLEY", "state": "NY", "zip": "10977-1125", "ntee": "T22", "ruling": "200009", "deductibility": "1", "assets": 20217, "income": 105949, "revenue": 0}, {"ein": "204064386", "name": "SPARK IN MEDIA AND EDUCATION INC", "city": "BROOKLYN", "state": "NY", "zip": "11210-5125", "ntee": "X30", "ruling": "200602", "deductibility": "1", "assets": 0, "income": 0, "revenue": 0}, {"ein": "272014427", "name": "SPARK AND ECHO ARTS INC", "city": "BEACON", "state": "NY", "zip": "12508-3548", "ntee": "X80", "ruling": "201004", "deductibility": "1", "assets": 0, "income": 0, "revenue": 0}, {"ein": "333402303", "name": "A SPARK TO INSPIRE INC", "city": "NEW YORK", "state": "NY", "zip": "10024-6648", "ntee": "P99", "ruling": "202506", "deductibility": "1", "assets": 0, "income": 0, "revenue": 0}, {"ein": "333748528", "name": "SPARK PRESENTS", "city": "PAWLING", "state": "NY", "zip": "12564-0728", "ntee": "W99", "ruling": "202506", "deductibility": "1", "assets": 0, "income": 0, "revenue": 0}, {"ein": "452275630", "name": "SPARK MICROGRANTS", "city": "NEW YORK", "state": "NY", "zip": "10044-0145", "ntee": "Q33", "ruling": "201203", "deductibility": "1", "assets": 19394935, "income": 10336960, "revenue": 10336960}, {"ein": "452796572", "name": "SPARK MOVEMENT COLLECTIVE", "city": "ASTORIA", "state": "NY", "zip": "11105-2208", "ntee": "A20", "ruling": "201309", "deductibility": "1", "assets": 0, "income": 0, "revenue": 0}, {"ein": "454683418", "name": "SUNSET SPARK INC", "city": "BROOKLYN", "state": "NY", "zip": "11232-0145", "ntee": "B90", "ruling": "201608", "deductibility": "1", "assets": 34278, "income": 195116, "revenue": 195116}, {"ein": "830821986", "name": "SPARK CREATIVE WORKS INC", "city": "LYNBROOK", "state": "NY", "zip": "11563-3310", "ntee": "A90", "ruling": "201909", "deductibility": "1", "assets": 0, "income": 0, "revenue": 0}, {"ein": "833163523", "name": "SPARK FILMMAKERS COLLABORATIVE INCORPORATED", "city": "BUFFALO", "state": "NY", "zip": "14214-1942", "ntee": "A25", "ruling": "201908", "deductibility": "1", "assets": 3131, "income": 13249, "revenue": 13249}, {"ein": "853003076", "name": "SPARK OF HUDSON FOUNDATION", "city": "HUDSON", "state": "NY", "zip": "12534-2816", "ntee": "B60", "ruling": "202112", "deductibility": "1", "assets": 201432, "income": 242320, "revenue": 242320}, {"ein": "873418866", "name": "IGNITE THE SPARK INC", "city": "FAR ROCKAWAY", "state": "NY", "zip": "11691-1848", "ntee": "X30", "ruling": "202202", "deductibility": "1", "assets": 0, "income": 0, "revenue": 0}, {"ein": "881278681", "name": "SPARK INSTITUTE OF RESEARCH AND INNOVATION INC", "city": "ITHACA", "state": "NY", "zip": "14850-2531", "ntee": "C05", "ruling": "202302", "deductibility": "1", "assets": 0, "income": 0, "revenue": 0}, {"ein": "920482185", "name": "SPARK ARTS INC", "city": "NEW YORK", "state": "NY", "zip": "10023-3300", "ntee": "A25", "ruling": "202406", "deductibility": "1", "assets": 0, "income": 0, "revenue": 0}, {"ein": "934634291", "name": "SPARK FOUNDATION INC", "city": "RONKONKOMA", "state": "NY", "zip": "11779-7626", "ntee": "P60", "ruling": "202403", "deductibility": "1", "assets": 145789, "income": 218520, "revenue": 175512}, {"ein": "993461238", "name": "FREEPORT SPARK INC", "city": "FREEPORT", "state": "NY", "zip": "11520-2507", "ntee": "O12", "ruling": "202410", "deductibility": "1", "assets": 0, "income": 0, "revenue": 0}], "GRAINGER": [{"ein": "133049629", "name": "INTERNATIONAL PERCY GRAINGER SOCIETY", "city": "WHITE PLAINS", "state": "NY", "zip": "10601-5005", "ntee": "", "ruling": "198106", "deductibility": "1", "assets": 684314, "income": 77132, "revenue": 0}, {"ein": "813300405", "name": "PERCY GRAINGER AMERICA INC", "city": "WHITE PLAINS", "state": "NY", "zip": "10601-5005", "ntee": "A54", "ruling": "201607", "deductibility": "1", "assets": 0, "income": 0, "revenue": 0}], "MURRY": [{"ein": "133093969", "name": "MURRY BERGTRAUM HIGH SCHOOL BUSINESS ADVISORY COUNCIL", "city": "NEW YORK", "state": "NY", "zip": "10018-0000", "ntee": "B82Z", "ruling": "198201", "deductibility": "1", "assets": 0, "income": 0, "revenue": 0}, {"ein": "873948670", "name": "JESSE MURRY FOUNDATION", "city": "NEW YORK", "state": "NY", "zip": "10011-0000", "ntee": "A40", "ruling": "202204", "deductibility": "1", "assets": 505445, "income": 239400, "revenue": 0}], "KAVANAGH": [{"ein": "133267023", "name": "COLUMBA KAVANAGH HOUSE INC", "city": "NEW YORK", "state": "NY", "zip": "10035-4165", "ntee": "L23B", "ruling": "198703", "deductibility": "1", "assets": 391914, "income": 459886, "revenue": 459886}], "CONSEILLERS": [{"ein": "133381745", "name": "ASSOCIATION DES CONSEILLERS DU COMMERCE EXTERIEUR DE LA FRANCE", "city": "NEW YORK", "state": "NY", "zip": "10022-0000", "ntee": "", "ruling": "198703", "deductibility": "2", "assets": 255021, "income": 165815, "revenue": 165815}], "INSTITURE": [{"ein": "133567619", "name": "RESOURCE INSTITURE FOR LOW ENTROPY SYSTEMS INC", "city": "NEW YORK", "state": "NY", "zip": "10111-0100", "ntee": "Q300", "ruling": "199007", "deductibility": "1", "assets": 149203, "income": 400135, "revenue": 0}], "HILIBRAND": [{"ein": "133632625", "name": "HILIBRAND FOUNDATION", "city": "NEW YORK", "state": "NY", "zip": "10006-0000", "ntee": "", "ruling": "199110", "deductibility": "1", "assets": 15453669, "income": 1543707, "revenue": 0}], "WIC": [{"ein": "133853833", "name": "METROPOLITAN NEW YORK CITY WIC ASSOCIATION INC", "city": "NEW YORK", "state": "NY", "zip": "10007-0000", "ntee": "K40", "ruling": "201202", "deductibility": "1", "assets": 0, "income": 0, "revenue": 0}, {"ein": "222570371", "name": "WIC ASSOCIATION OF NEW YORK STATE INC", "city": "ALBANY", "state": "NY", "zip": "12203-5066", "ntee": "", "ruling": "198506", "deductibility": "1", "assets": 394084, "income": 98363, "revenue": 98363}, {"ein": "542158741", "name": "METRO NY PRESBYTERY WIC", "city": "ASTORIA", "state": "NY", "zip": "11102-1251", "ntee": "", "ruling": "197404", "deductibility": "1", "assets": 0, "income": 0, "revenue": 0}], "REVEREND": [{"ein": "133861293", "name": "REVEREND LINNETTE C WILLIAMSON MEMORIAL PARK ASSOCIATION", "city": "NEW YORK", "state": "NY", "zip": "10030-2236", "ntee": "C99Z", "ruling": "199701", "deductibility": "1", "assets": 1275048, "income": 40340, "revenue": 40340}, {"ein": "236692323", "name": "REVEREND WILLIAM J FITZPATRICK MEMORIAL SCHOLARSHIP FUND", "city": "BUFFALO", "state": "NY", "zip": "14240-1504", "ntee": "", "ruling": "198101", "deductibility": "1", "assets": 184055, "income": 17049, "revenue": 0}, {"ein": "256231365", "name": "REVEREND FRANCIS LYNCH T A FBO ST VINCENT SEMINARY", "city": "AMHERST", "state": "NY", "zip": "14228-2307", "ntee": "T20", "ruling": "200508", "deductibility": "1", "assets": 551892, "income": 93361, "revenue": 0}, {"ein": "471819542", "name": "REVEREND GENG MING SHIH FOUNDATION INC", "city": "SOMERS", "state": "NY", "zip": "10589-2305", "ntee": "X12", "ruling": "201510", "deductibility": "1", "assets": 21324779, "income": 6905094, "revenue": 0}], "MOAR": [{"ein": "133970344", "name": "CONGREGTAION MOAR VESHUMISH INC", "city": "SPRING VALLEY", "state": "NY", "zip": "10977-1987", "ntee": "X99Z", "ruling": "199801", "deductibility": "1", "assets": 0, "income": 0, "revenue": 0}], "ATF": [{"ein": "133997203", "name": "IRON-ATF REALTY INC", "city": "ASTORIA", "state": "NY", "zip": "11106-1335", "ntee": "", "ruling": "199812", "deductibility": "0", "assets": 2845588, "income": 0, "revenue": 0}], "BOLERO": [{"ein": "134021599", "name": "AMERICAN BOLERO DANCE COMPANY INC", "city": "PRT WASHINGTN", "state": "NY", "zip": "11050-3216", "ntee": "A62", "ruling": "199810", "deductibility": "1", "assets": 1748, "income": 5780, "revenue": 5780}], "HOROLOGICAL": [{"ein": "136139887", "name": "HOROLOGICAL SOCIETY OF NEW YORK INC", "city": "NEW YORK", "state": "NY", "zip": "10036-6603", "ntee": "U20", "ruling": "201503", "deductibility": "1", "assets": 2033811, "income": 1291452, "revenue": 1144336}], "REINHARDT": [{"ein": "136156410", "name": "JACK & JEANNE REINHARDT FOUNDATION", "city": "STATEN ISLAND", "state": "NY", "zip": "10312-1613", "ntee": "", "ruling": "196201", "deductibility": "1", "assets": 53783, "income": 56, "revenue": 0}, {"ein": "161512484", "name": "REINHARDT FAMILY SCHOLARSHIP TRUST", "city": "BUFFALO", "state": "NY", "zip": "14226-1855", "ntee": "B82Z", "ruling": "199704", "deductibility": "1", "assets": 413443, "income": 207157, "revenue": 0}, {"ein": "800434773", "name": "AD REINHARDT FOUNDATION INC", "city": "NEW YORK", "state": "NY", "zip": "10106-0000", "ntee": "", "ruling": "201004", "deductibility": "0", "assets": 65728, "income": 60000, "revenue": 0}], "SIVANANDA": [{"ein": "136167185", "name": "SIVANANDA YOGA VEDANTA CENTER INC", "city": "WOODBOURNE", "state": "NY", "zip": "12788-0195", "ntee": "X70", "ruling": "201810", "deductibility": "1", "assets": 2014706, "income": 167636, "revenue": 165117}], "KEYWOMEN": [{"ein": "136272483", "name": "KEYWOMEN OF AMERICA INC", "city": "BROOKLYN", "state": "NY", "zip": "11221-1896", "ntee": "", "ruling": "196801", "deductibility": "1", "assets": 0, "income": 0, "revenue": 0}], "GAVIN": [{"ein": "136779926", "name": "ORA & BERNARD M GAVIN EDUCATIONAL TRUST", "city": "OLEAN", "state": "NY", "zip": "14760-2738", "ntee": "", "ruling": "000000", "deductibility": "1", "assets": 1207871, "income": 198731, "revenue": 0}, {"ein": "830740597", "name": "GAVIN FARRELL FOUNDATION", "city": "NEW YORK", "state": "NY", "zip": "10024-6422", "ntee": "P20", "ruling": "201903", "deductibility": "1", "assets": 79666, "income": 202541, "revenue": 202541}], "JOYS": [{"ein": "141702795", "name": "JOYS FOR TOTS INC", "city": "KINGSTON", "state": "NY", "zip": "12401-2110", "ntee": "", "ruling": "198810", "deductibility": "1", "assets": 0, "income": 0, "revenue": 0}], "GUNK": [{"ein": "141777559", "name": "GUNK FOUNDATION", "city": "WOODSTOCK", "state": "NY", "zip": "12498-0160", "ntee": "A33Z", "ruling": "199506", "deductibility": "1", "assets": 11011, "income": 250816, "revenue": 0}], "GAMBLING": [{"ein": "141786116", "name": "NEW YORK COUNCIL ON PROBLEM GAMBLING INC", "city": "ALBANY", "state": "NY", "zip": "12203-7914", "ntee": "F22Z", "ruling": "199603", "deductibility": "1", "assets": 3314524, "income": 6709148, "revenue": 6704018}, {"ein": "993953870", "name": "RESPONSIBLE GAMBLING ADVOCACY NETWORK LTD", "city": "NEW YORK CITY", "state": "NY", "zip": "10001-1228", "ntee": "W01", "ruling": "202407", "deductibility": "1", "assets": 0, "income": 0, "revenue": 0}], "CORONERS": [{"ein": "141790787", "name": "NEW YORK ASSOCIATION OF COUNTY CORONERS AND MEDICAL EXAMINERS INC", "city": "OSWEGO", "state": "NY", "zip": "13126-3122", "ntee": "", "ruling": "199802", "deductibility": "2", "assets": 8802, "income": 105448, "revenue": 104993}], "LAWYERSVILLE": [{"ein": "146034483", "name": "LAWYERSVILLE REFORMED CHURCH", "city": "COBLESKILL", "state": "NY", "zip": "12043-0000", "ntee": "", "ruling": "198601", "deductibility": "1", "assets": 0, "income": 0, "revenue": 0}], "SALVAGE": [{"ein": "160834970", "name": "ST VINCENT DE PAUL SALVAGE BUREAU INC", "city": "OLEAN", "state": "NY", "zip": "14760-2656", "ntee": "P290", "ruling": "194603", "deductibility": "1", "assets": 297418, "income": 70764, "revenue": 70764}, {"ein": "932280303", "name": "WILLISTON PARK FIRE DEPARTMENT HOSE & SALVAGE COMPANY 3 INC", "city": "WILLISTON PK", "state": "NY", "zip": "11596-2231", "ntee": "M24", "ruling": "202307", "deductibility": "1", "assets": 0, "income": 0, "revenue": 0}], "DAYS": [{"ein": "161098274", "name": "PALMYRA CANALTOWN DAYS INC", "city": "PALMYRA", "state": "NY", "zip": "14522-0064", "ntee": "N52", "ruling": "201508", "deductibility": "1", "assets": 0, "income": 0, "revenue": 0}, {"ein": "161180555", "name": "NEW YORK STATE WOODSMENS FIELD DAYS INC", "city": "BOONVILLE", "state": "NY", "zip": "13309-0123", "ntee": "", "ruling": "000000", "deductibility": "0", "assets": 231250, "income": 34186, "revenue": 26700}, {"ein": "161416814", "name": "SPENCERPORT CANAL DAYS INC", "city": "SPENCERPORT", "state": "NY", "zip": "14559-0331", "ntee": "", "ruling": "199308", "deductibility": "2", "assets": 0, "income": 0, "revenue": 0}, {"ein": "202007522", "name": "DAYS OF ADVENTURES CAMP INC", "city": "BROOKLYN", "state": "NY", "zip": "11234-6505", "ntee": "P33", "ruling": "200612", "deductibility": "1", "assets": 0, "income": 0, "revenue": 0}, {"ein": "204374153", "name": "LAST DAYS HARVEST CHRISTIAN FELLOWSHIP INC", "city": "ROCHESTER", "state": "NY", "zip": "14623-5315", "ntee": "X20", "ruling": "200712", "deductibility": "1", "assets": 0, "income": 0, "revenue": 0}, {"ein": "205724192", "name": "WESTERN NEW YORK CONSTRUCTIONCAREER DAYS INC", "city": "CHEEKTOWAGA", "state": "NY", "zip": "14227-1816", "ntee": "S194", "ruling": "200706", "deductibility": "1", "assets": 30873, "income": 50400, "revenue": 50400}, {"ein": "222329654", "name": "CAMP GOOD DAYS & SPECIAL TIMES INC", "city": "MENDON", "state": "NY", "zip": "14506-0665", "ntee": "N00Z", "ruling": "198209", "deductibility": "1", "assets": 33441663, "income": 8705032, "revenue": 4415561}, {"ein": "261206254", "name": "ANCIENT OF DAYS MINISTRIES INC", "city": "BROOKLYN", "state": "NY", "zip": "11226-7110", "ntee": "X21", "ruling": "200809", "deductibility": "1", "assets": 0, "income": 0, "revenue": 0}, {"ein": "263186807", "name": "BRIGHTER DAYS FOUNDATION", "city": "ROCHESTER", "state": "NY", "zip": "14623-0000", "ntee": "T20", "ruling": "200811", "deductibility": "1", "assets": 983594, "income": 331477, "revenue": 0}, {"ein": "474107219", "name": "STEUBEN OLD HOME DAYS", "city": "REMSEN", "state": "NY", "zip": "13438-4660", "ntee": "A99", "ruling": "201507", "deductibility": "1", "assets": 0, "income": 0, "revenue": 0}, {"ein": "813631130", "name": "CHURCH OF GOD LAST DAYS MINISTRIES", "city": "BROOKLYN", "state": "NY", "zip": "11221-3974", "ntee": "X20", "ruling": "202104", "deductibility": "1", "assets": 0, "income": 0, "revenue": 0}, {"ein": "824673948", "name": "PENDLETON FARM & HOME DAYS", "city": "LOCKPORT", "state": "NY", "zip": "14094-8901", "ntee": "P99", "ruling": "201805", "deductibility": "1", "assets": 0, "income": 0, "revenue": 0}, {"ein": "824861853", "name": "WELLSBURG COMMUNITY DAYS INC", "city": "WELLSBURG", "state": "NY", "zip": "14894-0171", "ntee": "B84", "ruling": "201811", "deductibility": "2", "assets": 0, "income": 0, "revenue": 0}, {"ein": "843907363", "name": "DEVOPS DAYS NEW YORK INC", "city": "PLAINVIEW", "state": "NY", "zip": "11803-6429", "ntee": "U40", "ruling": "202203", "deductibility": "1", "assets": 0, "income": 0, "revenue": 0}, {"ein": "874684692", "name": "CELEBRATING 5 BOROUGHS WITHIN 5 DAYS INC", "city": "STATEN ISLAND", "state": "NY", "zip": "10304-2728", "ntee": "P27", "ruling": "202311", "deductibility": "1", "assets": 0, "income": 0, "revenue": 0}, {"ein": "900760087", "name": "BETTER DAYS ARE COMING DOG RESCUE INC", "city": "BUFFALO", "state": "NY", "zip": "14210-2328", "ntee": "D20", "ruling": "201204", "deductibility": "1", "assets": 0, "income": 0, "revenue": 0}, {"ein": "943489811", "name": "DAYS OF RUSSIA FOUNDATION INC", "city": "NEW YORK", "state": "NY", "zip": "10017-6134", "ntee": "Q33", "ruling": "201309", "deductibility": "1", "assets": 0, "income": 0, "revenue": 0}], "FUSTINOS": [{"ein": "161177453", "name": "GLORIA FUSTINOS LIVING WORD MINISTRIES INC", "city": "NIAGARA FALLS", "state": "NY", "zip": "14304-3802", "ntee": "", "ruling": "198303", "deductibility": "1", "assets": 0, "income": 0, "revenue": 0}], "SPORTSMENT": [{"ein": "161193810", "name": "SQUARE DEAL SPORTSMENT INC", "city": "ENDICOTT", "state": "NY", "zip": "13763-5572", "ntee": "N61", "ruling": "200704", "deductibility": "2", "assets": 122904, "income": 25339, "revenue": 25339}], "ASC": [{"ein": "161518592", "name": "ASC PROPERTIES INC", "city": "ROCHESTER", "state": "NY", "zip": "14620-3098", "ntee": "", "ruling": "199702", "deductibility": "1", "assets": 1, "income": 0, "revenue": 0}, {"ein": "201878196", "name": "ASC FAMILY FUND INC", "city": "CORTLAND", "state": "NY", "zip": "13045-2435", "ntee": "P60", "ruling": "200501", "deductibility": "1", "assets": 0, "income": 0, "revenue": 0}, {"ein": "814237381", "name": "ASC WORKS INC", "city": "WHITE PLAINS", "state": "NY", "zip": "10606-1714", "ntee": "A20", "ruling": "202005", "deductibility": "1", "assets": 0, "income": 0, "revenue": 0}], "JESSIC": [{"ein": "166253879", "name": "JESSIC C WILSON MEMORIAL TRUST FUND", "city": "WESTFIELD", "state": "NY", "zip": "14787-1616", "ntee": "", "ruling": "198303", "deductibility": "1", "assets": 147112, "income": 15300, "revenue": 0}], "VELMA": [{"ein": "166417052", "name": "VELMA M MAYWALT UW TRUST ST ALPHONSUS", "city": "AUBURN", "state": "NY", "zip": "13021-0000", "ntee": "T22", "ruling": "199906", "deductibility": "1", "assets": 1034170, "income": 257768, "revenue": 0}], "SHIMLOW": [{"ein": "200592849", "name": "CONGREGATION OHR YEHOSHUA SHIMLOW", "city": "BROOKLYN", "state": "NY", "zip": "11211-7257", "ntee": "X30", "ruling": "200407", "deductibility": "1", "assets": 0, "income": 0, "revenue": 0}], "LIBICHOIV": [{"ein": "201796208", "name": "CONGREGATION MIGDAL HASHAIN OF LIBICHOIV", "city": "MONSEY", "state": "NY", "zip": "10952-0000", "ntee": "X30", "ruling": "200507", "deductibility": "1", "assets": 0, "income": 0, "revenue": 0}], "MICHAUD": [{"ein": "203615539", "name": "MICHAUD RESIDENTIAL HEALTH SERVICES INC", "city": "OSWEGO", "state": "NY", "zip": "13126-6400", "ntee": "E910", "ruling": "200701", "deductibility": "1", "assets": 0, "income": 0, "revenue": 0}], "BARRERA": [{"ein": "206777049", "name": "THE BARRERA PURI FAMILY FOUNDATION", "city": "NEW YORK", "state": "NY", "zip": "10128-7600", "ntee": "T20", "ruling": "201509", "deductibility": "1", "assets": 4735201, "income": 641589, "revenue": 0}], "ANDSERVICES": [{"ein": "208523557", "name": "TOTAL INTEGRATED PROGRAMS ANDSERVICES INC", "city": "OZONE PARK", "state": "NY", "zip": "11416-1832", "ntee": "B60", "ruling": "200902", "deductibility": "1", "assets": 0, "income": 0, "revenue": 0}], "CURSILLO": [{"ein": "208928879", "name": "ST PAULS CURSILLO AND RETREAT PROGRAMS INC", "city": "COLD SPG HBR", "state": "NY", "zip": "11724-1826", "ntee": "X20", "ruling": "200805", "deductibility": "1", "assets": 76860, "income": 92815, "revenue": 90115}], "GENERALE": [{"ein": "223935222", "name": "AMERICAN FRIENDS OF THE STUDIUM GENERALE MARCIANUM", "city": "NEW YORK", "state": "NY", "zip": "10022-8077", "ntee": "A128", "ruling": "200608", "deductibility": "1", "assets": 4048, "income": 1, "revenue": 0}, {"ein": "237396695", "name": "UNION GENERALE ARMENIENNE DE BIENFAISANCE", "city": "NEW YORK", "state": "NY", "zip": "10022-1112", "ntee": "B00I", "ruling": "197408", "deductibility": "1", "assets": 0, "income": 0, "revenue": 0}], "ROSENAU": [{"ein": "236251768", "name": "FRED J ROSENAU FOUNDATION", "city": "TIVOLI", "state": "NY", "zip": "12583-5309", "ntee": "", "ruling": "194406", "deductibility": "1", "assets": 254601, "income": 179262, "revenue": 0}], "OROSKY": [{"ein": "236632950", "name": "PAULINE M OROSKY TRUST UW", "city": "BUFFALO", "state": "NY", "zip": "14240-1504", "ntee": "T90", "ruling": "201311", "deductibility": "1", "assets": 285181, "income": 78505, "revenue": 0}], "DEFIBAUGH": [{"ein": "236953047", "name": "MARK DEFIBAUGH MEMORIAL SCHOLARSHIP", "city": "BUFFALO", "state": "NY", "zip": "14203-2309", "ntee": "", "ruling": "000000", "deductibility": "0", "assets": 12811, "income": 7854, "revenue": 0}], "ILUY": [{"ein": "237090388", "name": "VISKER ILUY TORAH RESEARCH INC", "city": "BROOKLYN", "state": "NY", "zip": "11230-6604", "ntee": "", "ruling": "197103", "deductibility": "1", "assets": 0, "income": 0, "revenue": 0}], "ADCO": [{"ein": "237268285", "name": "ADCO FOUNDATION INC", "city": "NEW YORK", "state": "NY", "zip": "10176-0000", "ntee": "", "ruling": "197404", "deductibility": "1", "assets": 518488, "income": 546737, "revenue": 0}], "83RD": [{"ein": "237381591", "name": "EAST 83RD 84TH STREET BLOCK ASSOCIATION INC", "city": "NEW YORK", "state": "NY", "zip": "10028-0933", "ntee": "", "ruling": "197411", "deductibility": "2", "assets": 0, "income": 0, "revenue": 0}], "FAHRNEY": [{"ein": "256183567", "name": "BOERNER RN-FAHRNEY T A", "city": "BUFFALO", "state": "NY", "zip": "14240-1504", "ntee": "T20", "ruling": "200507", "deductibility": "1", "assets": 403859, "income": 126650, "revenue": 0}], "BERMAN": [{"ein": "256648479", "name": "THE KERMIT AND ANETTE BERMAN CHARITABLE FOUNDATION", "city": "STATEN ISLAND", "state": "NY", "zip": "10312-3859", "ntee": "T20", "ruling": "199911", "deductibility": "1", "assets": 2693, "income": 12, "revenue": 0}, {"ein": "311736689", "name": "THE NEUBERGER BERMAN FOUNDATION", "city": "NEW YORK", "state": "NY", "zip": "10104-0101", "ntee": "T22", "ruling": "200011", "deductibility": "1", "assets": 16502221, "income": 2250814, "revenue": 0}, {"ein": "841894333", "name": "BERMAN FOUNDATION INC", "city": "STATEN ISLAND", "state": "NY", "zip": "10301-2409", "ntee": "T23", "ruling": "201906", "deductibility": "1", "assets": 20152, "income": 65006, "revenue": 0}], "3L": [{"ein": "264549893", "name": "3L FOUNDATION INC", "city": "HOLLIS", "state": "NY", "zip": "11423-0145", "ntee": "S80", "ruling": "202412", "deductibility": "1", "assets": 0, "income": 0, "revenue": 0}], "TABERNA": [{"ein": "270401878", "name": "TABERNACLE DE LA VERGE D AARON A FLEURIE THE BLOSSOMING ROD TABERNA", "city": "BRONX", "state": "NY", "zip": "10457-3401", "ntee": "X20", "ruling": "201407", "deductibility": "1", "assets": 0, "income": 0, "revenue": 0}], "RONN": [{"ein": "270937220", "name": "RONN TOROSSIAN FAMILY FOUNDATION INC", "city": "KATONAH", "state": "NY", "zip": "10536-7042", "ntee": "T22", "ruling": "201001", "deductibility": "1", "assets": 128161, "income": 45785, "revenue": 0}], "LABASTILLE": [{"ein": "271947155", "name": "FRIENDS OF SILOAM SCHOOL AT LABASTILLE INC", "city": "LAKE LUZERNE", "state": "NY", "zip": "12846-6709", "ntee": "", "ruling": "196402", "deductibility": "1", "assets": 0, "income": 0, "revenue": 0}], "HAWA": [{"ein": "274382004", "name": "DR HAWA ABDI FOUNDATION INC", "city": "NEW YORK", "state": "NY", "zip": "10159-9600", "ntee": "Q30", "ruling": "201203", "deductibility": "1", "assets": 23153, "income": 96185, "revenue": 96185}], "WEEJ": [{"ein": "274766722", "name": "WEEJ FOUNDATION", "city": "NEW YORK", "state": "NY", "zip": "10128-0506", "ntee": "T22", "ruling": "201307", "deductibility": "1", "assets": 506116, "income": 60997, "revenue": 0}], "STEEN": [{"ein": "300075550", "name": "VAN STEEN FOUNDATION", "city": "OSSINING", "state": "NY", "zip": "10562-5614", "ntee": "T22", "ruling": "202410", "deductibility": "1", "assets": 55666, "income": 49574, "revenue": 0}], "TM": [{"ein": "301052027", "name": "AMERICAN GARDEN ROSE SELECTIONS TM INC", "city": "GLEN COVE", "state": "NY", "zip": "11542-1220", "ntee": "C40", "ruling": "202205", "deductibility": "2", "assets": 0, "income": 0, "revenue": 0}, {"ein": "335044101", "name": "RAYMOND PACE & SADIE TM ALEXANDER FOUNDATION", "city": "NEW YORK", "state": "NY", "zip": "10025-7724", "ntee": "R99", "ruling": "202507", "deductibility": "1", "assets": 0, "income": 0, "revenue": 0}, {"ein": "472550237", "name": "TM FOUNDATION", "city": "SUFFERN", "state": "NY", "zip": "10901-3931", "ntee": "P20", "ruling": "201504", "deductibility": "1", "assets": 4299, "income": 1, "revenue": 0}], "SCHIZOPHRENIA": [{"ein": "311020010", "name": "NATIONAL ALLIANCE FOR RESEARCH ON SCHIZOPHRENIA AND DEPRESSION INC", "city": "NEW YORK", "state": "NY", "zip": "10017-2831", "ntee": "", "ruling": "198112", "deductibility": "1", "assets": 53127638, "income": 27407724, "revenue": 21666231}], "LATORAH": [{"ein": "311653391", "name": "INSTITUTE OF RELIGIOUS STUDIES BET MIDRASH LATORAH", "city": "NEW YORK", "state": "NY", "zip": "10021-2941", "ntee": "X30", "ruling": "199912", "deductibility": "1", "assets": 0, "income": 0, "revenue": 0}], "PHILANDER": [{"ein": "320638110", "name": "ALPHA LAMBDA DELTA AT PHILANDER SMITH COLLEGE", "city": "FAIRPORT", "state": "NY", "zip": "14450-3514", "ntee": "", "ruling": "195103", "deductibility": "1", "assets": 0, "income": 0, "revenue": 0}], "174Q": [{"ein": "364741556", "name": "PARENT ASSOCIATION OF PS 174Q", "city": "REGO PARK", "state": "NY", "zip": "11374-5029", "ntee": "B94", "ruling": "202405", "deductibility": "1", "assets": 0, "income": 0, "revenue": 0}], "THOSE": [{"ein": "452760754", "name": "RUNNING FOR THOSE WHO CANT INC", "city": "ELMA", "state": "NY", "zip": "14059-9272", "ntee": "N01", "ruling": "201509", "deductibility": "1", "assets": 0, "income": 0, "revenue": 0}, {"ein": "842008687", "name": "HAIRCUTS FOR THOSE IN NEED INC", "city": "TONAWANDA", "state": "NY", "zip": "14150-5454", "ntee": "P85", "ruling": "201909", "deductibility": "1", "assets": 0, "income": 0, "revenue": 0}, {"ein": "991437040", "name": "THOSE NERDY GIRLS INC", "city": "LARCHMONT", "state": "NY", "zip": "10538-3917", "ntee": "E01", "ruling": "202503", "deductibility": "1", "assets": 0, "income": 0, "revenue": 0}], "FPE": [{"ein": "454371256", "name": "FPE FOUNDATION", "city": "NEW YORK", "state": "NY", "zip": "10016-1924", "ntee": "T20", "ruling": "201205", "deductibility": "1", "assets": 864372, "income": 327482, "revenue": 0}], "KADA": [{"ein": "460569110", "name": "I KADA DANCE INC", "city": "CORONA", "state": "NY", "zip": "11368-4059", "ntee": "A62", "ruling": "201908", "deductibility": "1", "assets": 11308, "income": 50260, "revenue": 50260}], "TORTOISE": [{"ein": "461093279", "name": "TORTOISE FOUNDATION", "city": "NEW YORK", "state": "NY", "zip": "10016-0000", "ntee": "T20", "ruling": "201403", "deductibility": "1", "assets": 196921, "income": 2017, "revenue": 0}], "LIFEFORCE": [{"ein": "461104647", "name": "LIFEFORCE HOLISTIC FOUNDATION INC", "city": "BROOKLYN", "state": "NY", "zip": "11234-5520", "ntee": "E99", "ruling": "201407", "deductibility": "1", "assets": 0, "income": 0, "revenue": 0}, {"ein": "800401075", "name": "LIFEFORCE IN LATER YEARS INC", "city": "NEW YORK", "state": "NY", "zip": "10025-1960", "ntee": "P80", "ruling": "200908", "deductibility": "1", "assets": 380396, "income": 264919, "revenue": 264919}], "AIDAN": [{"ein": "461452734", "name": "AIDAN JACK SEEGER FOUNDATION INC", "city": "BROOKLYN", "state": "NY", "zip": "11218-1140", "ntee": "G48", "ruling": "201310", "deductibility": "1", "assets": 12538, "income": 129752, "revenue": 129752}, {"ein": "562653270", "name": "THE LEE AND AIDAN MCMAHON FOUNDATION INC", "city": "COMMACK", "state": "NY", "zip": "11725-1931", "ntee": "G12", "ruling": "201609", "deductibility": "1", "assets": 1326, "income": 40764, "revenue": 40764}, {"ein": "810931174", "name": "AIDAN GRIFFIN FAMILY FOUNDATION", "city": "FLUSHING", "state": "NY", "zip": "11354-5105", "ntee": "T20", "ruling": "201702", "deductibility": "1", "assets": 350241, "income": 15688, "revenue": 0}, {"ein": "863377124", "name": "IN MEMORY OF AIDAN VICTOR HERNANDEZ FOUNDATION", "city": "YONKERS", "state": "NY", "zip": "10705-2814", "ntee": "B20", "ruling": "202108", "deductibility": "1", "assets": 0, "income": 0, "revenue": 0}, {"ein": "921856871", "name": "AIDAN KAMINSKA MY DAY FOUNDATION INC", "city": "PRT JEFFERSON", "state": "NY", "zip": "11777-1966", "ntee": "T50", "ruling": "202301", "deductibility": "1", "assets": 0, "income": 0, "revenue": 0}], "ACRONYM": [{"ein": "461483360", "name": "ACRONYM ENSEMBLE INC", "city": "NEW YORK", "state": "NY", "zip": "10033-1106", "ntee": "A99", "ruling": "201406", "deductibility": "1", "assets": 0, "income": 0, "revenue": 0}], "SUANHACKY": [{"ein": "463352118", "name": "SUANHACKY CAMPERSHIP ASSOCIATION INC", "city": "REGO PARK", "state": "NY", "zip": "11374-0000", "ntee": "O50", "ruling": "201312", "deductibility": "1", "assets": 188586, "income": 11456, "revenue": 11456}], "KWAKU": [{"ein": "465559805", "name": "FRANCIS KWAKU AGBEKO SEGBEFIA HEART FOUNDATION INC", "city": "BRONX", "state": "NY", "zip": "10469-5003", "ntee": "T12", "ruling": "201807", "deductibility": "1", "assets": 0, "income": 0, "revenue": 0}], "POTENCIAL": [{"ein": "471832413", "name": "MAYOR POTENCIAL CORPORATION", "city": "FREEVILLE", "state": "NY", "zip": "13068-9557", "ntee": "B12", "ruling": "201605", "deductibility": "1", "assets": 0, "income": 0, "revenue": 0}], "STIVEN": [{"ein": "473221700", "name": "KEDNER STIVEN FOUNDATION INC", "city": "QUEENS VLG", "state": "NY", "zip": "11428-1625", "ntee": "P84", "ruling": "201505", "deductibility": "1", "assets": 1170, "income": 6844, "revenue": 6844}], "NULLARY": [{"ein": "473684504", "name": "NULLARY CARE", "city": "NEW YORK", "state": "NY", "zip": "10001-0045", "ntee": "S01", "ruling": "201504", "deductibility": "1", "assets": 0, "income": 0, "revenue": 0}], "LIPKE": [{"ein": "510176074", "name": "LIPKE FOUNDATION", "city": "WILLIAMSVILLE", "state": "NY", "zip": "14221-7384", "ntee": "", "ruling": "197601", "deductibility": "1", "assets": 207977, "income": 15136, "revenue": 0}], "BINYEN": [{"ein": "562333977", "name": "CONG BINYEN ADAI AD INC", "city": "BROOKLYN", "state": "NY", "zip": "11211-7182", "ntee": "X30", "ruling": "200306", "deductibility": "1", "assets": 0, "income": 0, "revenue": 0}, {"ein": "990598443", "name": "CONG BINYEN ELUZER INC", "city": "BROOKLYN", "state": "NY", "zip": "11224-1376", "ntee": "X30", "ruling": "202405", "deductibility": "1", "assets": 0, "income": 0, "revenue": 0}], "VETYE": [{"ein": "562365589", "name": "RIVEVOTH EPHRAIM VETYE FUND LTD", "city": "LAWRENCE", "state": "NY", "zip": "11559-2606", "ntee": "T30", "ruling": "200309", "deductibility": "1", "assets": 0, "income": 0, "revenue": 0}], "MADAME": [{"ein": "562407984", "name": "MADAME BIRDEE TRAPCAGE", "city": "W HEMPSTEAD", "state": "NY", "zip": "11552-0241", "ntee": "D20", "ruling": "200410", "deductibility": "1", "assets": 0, "income": 0, "revenue": 0}], "KOPS": [{"ein": "571186974", "name": "SURI KOPS KEREN MISHPACHOS INC", "city": "FLUSHING", "state": "NY", "zip": "11367-1943", "ntee": "P60", "ruling": "200404", "deductibility": "1", "assets": 8940, "income": 70128, "revenue": 70128}], "ABADA": [{"ein": "611504658", "name": "ABADA CAPOEIRA NEW YORK CITY", "city": "NEW YORK", "state": "NY", "zip": "10032-4745", "ntee": "A20", "ruling": "201409", "deductibility": "1", "assets": 0, "income": 0, "revenue": 0}, {"ein": "814401281", "name": "ABADA-CAPOEIRA BRONX ARTS INC", "city": "NEW YORK", "state": "NY", "zip": "10033-4509", "ntee": "Q21", "ruling": "201707", "deductibility": "1", "assets": 0, "income": 0, "revenue": 0}], "DADDYS": [{"ein": "800340449", "name": "MOMMY & DADDYS LITTLE ANGELS YOUTH & FAMIMLY SERVICES INC", "city": "STATEN ISLAND", "state": "NY", "zip": "10305-3634", "ntee": "P30", "ruling": "201001", "deductibility": "1", "assets": 0, "income": 0, "revenue": 0}], "ALUMNEI": [{"ein": "810788991", "name": "CONGREGATION ALUMNEI CHASEDI SQUARE", "city": "BROOKLYN", "state": "NY", "zip": "11211-8107", "ntee": "X30", "ruling": "201601", "deductibility": "1", "assets": 0, "income": 0, "revenue": 0}], "KELM": [{"ein": "810997015", "name": "KELM INC", "city": "LYNBROOK", "state": "NY", "zip": "11563-0110", "ntee": "B60", "ruling": "201604", "deductibility": "1", "assets": 106232, "income": 195019, "revenue": 195019}, {"ein": "873951736", "name": "KELM ACADEMY", "city": "LYNBROOK", "state": "NY", "zip": "11563-0110", "ntee": "B60", "ruling": "202209", "deductibility": "1", "assets": 0, "income": 0, "revenue": 0}], "STALWARTS": [{"ein": "812074368", "name": "STALWARTS YOUTH CORPORATION", "city": "BROOKLYN", "state": "NY", "zip": "11234-5908", "ntee": "B92", "ruling": "201608", "deductibility": "1", "assets": 0, "income": 0, "revenue": 0}], "LAVERGHETTA": [{"ein": "813177487", "name": "LAVERGHETTA FAMILY FOUNDATION INC", "city": "EASTCHESTER", "state": "NY", "zip": "10709-5210", "ntee": "", "ruling": "201607", "deductibility": "1", "assets": 428637, "income": 2425, "revenue": 2425}], "STRETCH": [{"ein": "814054053", "name": "HOME STRETCH DOG HAVEN", "city": "POUGHKEEPSIE", "state": "NY", "zip": "12603-5506", "ntee": "D20", "ruling": "201704", "deductibility": "1", "assets": 0, "income": 0, "revenue": 0}], "CHASERS": [{"ein": "815100593", "name": "STORM CHASERS ALL-STAR CHEERLEADING", "city": "ORCHARD PARK", "state": "NY", "zip": "14127-1344", "ntee": "N60", "ruling": "202111", "deductibility": "1", "assets": 0, "income": 0, "revenue": 0}], "MINHAJ": [{"ein": "815486331", "name": "MINHAJ WELFARE FOUNDATION USA INC", "city": "NEW YORK", "state": "NY", "zip": "10016-0804", "ntee": "Q33", "ruling": "201709", "deductibility": "1", "assets": 1506289, "income": 993596, "revenue": 993596}], "PARLIAMENT": [{"ein": "822552121", "name": "WORLD SIKH PARLIAMENT LTD", "city": "EAST ELMHURST", "state": "NY", "zip": "11370-1207", "ntee": "X11", "ruling": "202407", "deductibility": "1", "assets": 0, "income": 0, "revenue": 0}], "FOUNDRY": [{"ein": "822590607", "name": "TROY FOUNDRY THEATRE", "city": "TROY", "state": "NY", "zip": "12181-1701", "ntee": "", "ruling": "201708", "deductibility": "1", "assets": 5521, "income": 45889, "revenue": 45889}, {"ein": "853942021", "name": "MODERN ART FOUNDRY FOUNDATION INC", "city": "ASTORIA", "state": "NY", "zip": "11105-1025", "ntee": "A80", "ruling": "202103", "deductibility": "1", "assets": 0, "income": 0, "revenue": 0}, {"ein": "874579256", "name": "LOISAIDA FOUNDRY INC", "city": "NEW YORK", "state": "NY", "zip": "10009-7508", "ntee": "S01", "ruling": "202202", "deductibility": "1", "assets": 0, "income": 0, "revenue": 0}], "DERATZFERT": [{"ein": "824830547", "name": "CONGREGATION MARSHU DERATZFERT INC", "city": "BROOKLYN", "state": "NY", "zip": "11219-4116", "ntee": "X30", "ruling": "202205", "deductibility": "1", "assets": 0, "income": 0, "revenue": 0}], "CHILCARE": [{"ein": "824924603", "name": "SUNSHINE VILLAGE COMMUNITY CHILCARE CENTER INC", "city": "ROCHESTER", "state": "NY", "zip": "14611-1345", "ntee": "P20", "ruling": "202208", "deductibility": "1", "assets": 32796, "income": 197975, "revenue": 197975}], "OFFSET": [{"ein": "833615794", "name": "HELP OFFSET GLOBAL WARMING FOUNDATION", "city": "HARTSDALE", "state": "NY", "zip": "10530-3106", "ntee": "C20", "ruling": "201905", "deductibility": "1", "assets": 0, "income": 0, "revenue": 0}], "OSBOURNE": [{"ein": "833719143", "name": "DAVE OSBOURNE MINISTRIES INC", "city": "BROOKLYN", "state": "NY", "zip": "11226-1501", "ntee": "X90", "ruling": "201907", "deductibility": "1", "assets": 0, "income": 0, "revenue": 0}], "OFICINA": [{"ein": "833747036", "name": "OFICINA DESIGN INC", "city": "BROOKLYN", "state": "NY", "zip": "11233-1305", "ntee": "L20", "ruling": "201904", "deductibility": "1", "assets": 0, "income": 0, "revenue": 0}], "STATISTICS": [{"ein": "842027361", "name": "MOORE STATISTICS CONSULTING FOUNDATION INCORPORATED", "city": "WHITE PLAINS", "state": "NY", "zip": "10601-3806", "ntee": "B11", "ruling": "201911", "deductibility": "1", "assets": 0, "income": 0, "revenue": 0}], "WAHI": [{"ein": "842177708", "name": "JAZZ WAHI INC", "city": "NEW YORK", "state": "NY", "zip": "10033-1121", "ntee": "A60", "ruling": "201908", "deductibility": "1", "assets": 23132, "income": 60925, "revenue": 60925}, {"ein": "852853560", "name": "WAHI STUDIO INC", "city": "NEWFANE", "state": "NY", "zip": "14108-0054", "ntee": "A25", "ruling": "202011", "deductibility": "1", "assets": 17324, "income": 79662, "revenue": 79662}], "ODUWAIYE": [{"ein": "842236617", "name": "SARAH AYOKA ODUWAIYE FOUNDATION USA INC", "city": "NEW YORK", "state": "NY", "zip": "10038-4751", "ntee": "G32", "ruling": "202304", "deductibility": "1", "assets": 0, "income": 0, "revenue": 0}], "SECONDS": [{"ein": "845151021", "name": "SPARKS IN SECONDS INC", "city": "SPRING VALLEY", "state": "NY", "zip": "10977-1122", "ntee": "X80", "ruling": "202011", "deductibility": "1", "assets": 0, "income": 0, "revenue": 0}], "ABDELHAMID": [{"ein": "861563214", "name": "ABDELHAMID SABRA FOUNDATION INC", "city": "NEW YORK", "state": "NY", "zip": "10035-4537", "ntee": "T20", "ruling": "202110", "deductibility": "1", "assets": 424515, "income": 32156, "revenue": 0}], "GRAZIERS": [{"ein": "861647711", "name": "NOMADIC GRAZIERS REHABILITATION CORPORATION", "city": "NEW YORK", "state": "NY", "zip": "10038-2452", "ntee": "Q30", "ruling": "202112", "deductibility": "1", "assets": 186, "income": 150, "revenue": 150}], "NWORA": [{"ein": "861739165", "name": "JORDAN NWORA FOUNDATION", "city": "AMHERST", "state": "NY", "zip": "14226-4118", "ntee": "O20", "ruling": "202107", "deductibility": "1", "assets": 25578, "income": 83057, "revenue": 0}], "VTOV": [{"ein": "862478370", "name": "DERECH EMUNAH VTOV INC", "city": "MONROE", "state": "NY", "zip": "10950-2209", "ntee": "P20", "ruling": "202109", "deductibility": "1", "assets": 0, "income": 0, "revenue": 0}], "LAP": [{"ein": "862813440", "name": "LAP OF FAITH INC", "city": "BUFFALO", "state": "NY", "zip": "14226-7809", "ntee": "F01", "ruling": "202201", "deductibility": "1", "assets": 0, "income": 0, "revenue": 0}], "GRISWOLD": [{"ein": "871484669", "name": "GRISWOLD FAMILY MEMORIAL FUND", "city": "PHELPS", "state": "NY", "zip": "14532-1164", "ntee": "B82", "ruling": "202305", "deductibility": "1", "assets": 0, "income": 0, "revenue": 0}], "SADNE": [{"ein": "872265911", "name": "CONGREGATION SADNE INC", "city": "BROOKLYN", "state": "NY", "zip": "11230-1111", "ntee": "X30", "ruling": "202403", "deductibility": "1", "assets": 0, "income": 0, "revenue": 0}], "PAWSABILITY": [{"ein": "872796872", "name": "PAWSABILITY DOG CLUB INC", "city": "BROOKLYN", "state": "NY", "zip": "11237-6641", "ntee": "J20", "ruling": "202206", "deductibility": "1", "assets": 467608, "income": 528933, "revenue": 528933}], "SONRISA": [{"ein": "873322723", "name": "JUNTOS POR UNA SONRISA INC", "city": "CORONA", "state": "NY", "zip": "11368-4080", "ntee": "P84", "ruling": "202201", "deductibility": "1", "assets": 1, "income": 1, "revenue": 0}], "EDIFYING": [{"ein": "874502433", "name": "LOVE EDIFYING INC", "city": "STATEN ISLAND", "state": "NY", "zip": "10304-1817", "ntee": "P20", "ruling": "202202", "deductibility": "1", "assets": 0, "income": 0, "revenue": 0}], "KALMYK": [{"ein": "880943497", "name": "KALMYK HERITAGE CENTER INC", "city": "BROOKLYN", "state": "NY", "zip": "11229-2648", "ntee": "A82", "ruling": "202301", "deductibility": "0", "assets": 0, "income": 0, "revenue": 0}, {"ein": "932743125", "name": "CONGRESS OF THE OIRAT-KALMYK PEOPLE INC", "city": "NEW YORK", "state": "NY", "zip": "10013-4727", "ntee": "A23", "ruling": "202502", "deductibility": "1", "assets": 0, "income": 0, "revenue": 0}, {"ein": "993993201", "name": "BURYAT KALMYK BUDDHIST CENTER SHAMBHALA INC", "city": "BROOKLYN", "state": "NY", "zip": "11214-7402", "ntee": "S20", "ruling": "202407", "deductibility": "1", "assets": 0, "income": 0, "revenue": 0}], "BPA": [{"ein": "881159652", "name": "NEW YORK METRO BPA FLYING CLUB INC", "city": "SAINT ALBANS", "state": "NY", "zip": "11412-3730", "ntee": "O50", "ruling": "202205", "deductibility": "1", "assets": 0, "income": 0, "revenue": 0}], "HARMONIOUS": [{"ein": "881528515", "name": "HARMONIOUS HEARTS INC", "city": "MONSEY", "state": "NY", "zip": "10952-0424", "ntee": "T30", "ruling": "202204", "deductibility": "1", "assets": 17077, "income": 144193, "revenue": 29008}], "SAMARA": [{"ein": "883094246", "name": "SAMARA S JUSTICE INC", "city": "JAMAICA", "state": "NY", "zip": "11428-1783", "ntee": "P20", "ruling": "202208", "deductibility": "1", "assets": 0, "income": 0, "revenue": 0}], "SHAIB": [{"ein": "884029612", "name": "AL-SHAIB NY COMMUNITY CENTER", "city": "BRONX", "state": "NY", "zip": "10472-6011", "ntee": "N50", "ruling": "202409", "deductibility": "1", "assets": 0, "income": 0, "revenue": 0}], "LEGENDARY": [{"ein": "921054720", "name": "STONY BROOK LEGENDARY LIGHTS INC", "city": "LANCASTER", "state": "NY", "zip": "14086-1418", "ntee": "P12", "ruling": "202406", "deductibility": "1", "assets": 2160, "income": 151637, "revenue": 151637}, {"ein": "993967635", "name": "LEGENDARY EAGLES", "city": "BROOKLYN", "state": "NY", "zip": "11236-4201", "ntee": "N70", "ruling": "202409", "deductibility": "1", "assets": 0, "income": 0, "revenue": 0}], "BLEACHUS": [{"ein": "921499462", "name": "1-900-BLEACHUS INC", "city": "NEW YORK", "state": "NY", "zip": "10009-4831", "ntee": "B82", "ruling": "202307", "deductibility": "1", "assets": 0, "income": 0, "revenue": 0}], "CODECONNECT": [{"ein": "922889874", "name": "CODECONNECT CORP", "city": "FLORAL PARK", "state": "NY", "zip": "11001-3210", "ntee": "S20", "ruling": "202308", "deductibility": "1", "assets": 0, "income": 0, "revenue": 0}], "TZU": [{"ein": "922965036", "name": "SHIH-TZU SANCTUARY", "city": "EAST BETHANY", "state": "NY", "zip": "14054-9510", "ntee": "D20", "ruling": "202308", "deductibility": "1", "assets": 0, "income": 0, "revenue": 0}], "EEPS": [{"ein": "931965912", "name": "EEPS FOUNDATION", "city": "NEW YORK", "state": "NY", "zip": "10150-2001", "ntee": "A03", "ruling": "202402", "deductibility": "1", "assets": 507954, "income": 508467, "revenue": 508467}], "KASPRZYK": [{"ein": "932152888", "name": "CHERYL KASPRZYK 4 FOUNDATION", "city": "EAST AURORA", "state": "NY", "zip": "14052-2834", "ntee": "P20", "ruling": "202312", "deductibility": "1", "assets": 0, "income": 0, "revenue": 0}], "CHAITCHE": [{"ein": "934965541", "name": "CHASDEI CHAITCHE INC", "city": "FALLSBURG", "state": "NY", "zip": "12733-5062", "ntee": "", "ruling": "202402", "deductibility": "1", "assets": 0, "income": 0, "revenue": 0}], "WIZARD": [{"ein": "953981791", "name": "WIZARD MUSIC INC", "city": "CORTLANDT MNR", "state": "NY", "zip": "10567-7027", "ntee": "", "ruling": "198510", "deductibility": "1", "assets": 0, "income": 0, "revenue": 0}], "PAD": [{"ein": "991304444", "name": "THE SANITARY PAD INITIATIVE", "city": "BRONX", "state": "NY", "zip": "10457-6297", "ntee": "E70", "ruling": "202404", "deductibility": "1", "assets": 0, "income": 0, "revenue": 0}], "WHISTLING": [{"ein": "992000735", "name": "WHISTLING FINCH LABS INC", "city": "NEW YORK", "state": "NY", "zip": "10025-7904", "ntee": "B99", "ruling": "202502", "deductibility": "1", "assets": 0, "income": 0, "revenue": 0}], "HALEVYIM": [{"ein": "994125602", "name": "SHIRAS HALEVYIM INC", "city": "MONSEY", "state": "NY", "zip": "10952-1812", "ntee": "X30", "ruling": "202504", "deductibility": "1", "assets": 0, "income": 0, "revenue": 0}], "MARINGOUIN": [{"ein": "994445181", "name": "MON PETITE MARINGOUIN INC", "city": "NEW YORK", "state": "NY", "zip": "10024-6021", "ntee": "T12", "ruling": "202408", "deductibility": "1", "assets": 0, "income": 0, "revenue": 0}]}