{"ENGINEERING": [{"ein": "010451903", "name": "ILLUMINATING ENGINEERING SOCIETY", "city": "NEW YORK", "state": "NY", "zip": "10004-2783", "ntee": "", "ruling": "199102", "deductibility": "0", "assets": 0, "income": 0, "revenue": 0}, {"ein": "061650684", "name": "ENGINEERING CONFERENCES INTERNATIONAL INC", "city": "NEW YORK", "state": "NY", "zip": "10004-1644", "ntee": "U40", "ruling": "200303", "deductibility": "1", "assets": 2670277, "income": 4817273, "revenue": 4749568}, {"ein": "112664807", "name": "AUDIO ENGINEERING SOCIETY EDUCATIONAL FOUNDATION INC", "city": "NEW YORK", "state": "NY", "zip": "10017-4003", "ntee": "", "ruling": "198806", "deductibility": "1", "assets": 73548, "income": 39830, "revenue": 0}, {"ein": "112987269", "name": "ILLUMINATING ENGINEERING SOCIETY", "city": "FREEPORT", "state": "NY", "zip": "11520-4707", "ntee": "", "ruling": "199102", "deductibility": "1", "assets": 0, "income": 0, "revenue": 0}, {"ein": "113185132", "name": "L I SCIENCE AND ENGINEERING FAIR INC", "city": "PLAINVIEW", "state": "NY", "zip": "11803-4936", "ntee": "U99", "ruling": "199505", "deductibility": "1", "assets": 102293, "income": 178941, "revenue": 178941}, {"ein": "131679606", "name": "ENGINEERING INFORMATION FOUNDATION INC", "city": "NEW YORK", "state": "NY", "zip": "10024-6370", "ntee": "", "ruling": "199607", "deductibility": "1", "assets": 5887144, "income": 1487640, "revenue": 0}, {"ein": "131767038", "name": "ILLUMINATING ENGINEERING SOCIETY", "city": "NEW YORK", "state": "NY", "zip": "10005-3904", "ntee": "", "ruling": "199102", "deductibility": "1", "assets": 7306323, "income": 5131858, "revenue": 3821163}, {"ein": "131816600", "name": "AMERICAN COUNCIL OF ENGINEERING COMPANIES OF NEW YORK INC", "city": "ALBANY", "state": "NY", "zip": "12205-1051", "ntee": "", "ruling": "196003", "deductibility": "2", "assets": 3063325, "income": 3697781, "revenue": 3379763}, {"ein": "132903187", "name": "HOSPITAL ENGINEERING SOCIETY OF GREATER NEW YORK", "city": "NEW YORK", "state": "NY", "zip": "10021-9292", "ntee": "E03", "ruling": "202007", "deductibility": "1", "assets": 152609, "income": 189158, "revenue": 128822}, {"ein": "133541307", "name": "ILLUMINATING ENGINEERING SOCIETY", "city": "NEW YORK", "state": "NY", "zip": "10018-8005", "ntee": "", "ruling": "199102", "deductibility": "1", "assets": 3083503, "income": 495372, "revenue": 231189}, {"ein": "133783694", "name": "ILLUMINATING ENGINEERING SOCIETY", "city": "NEW YORK", "state": "NY", "zip": "10004-2783", "ntee": "", "ruling": "000000", "deductibility": "1", "assets": 1626469, "income": 562092, "revenue": 562092}, {"ein": "135603831", "name": "AUDIO ENGINEERING SOCIETY INC", "city": "NEW YORK", "state": "NY", "zip": "10017-4003", "ntee": "S400", "ruling": "196612", "deductibility": "1", "assets": 2477468, "income": 3238587, "revenue": 3238587}, {"ein": "136094761", "name": "COLUMBIA ENGINEERING SCHOOL ALUMNI ASSOCIATION INC", "city": "NEW YORK", "state": "NY", "zip": "10115-0089", "ntee": "B84Z", "ruling": "196410", "deductibility": "1", "assets": 4829497, "income": 154610, "revenue": 154610}, {"ein": "141773366", "name": "ILLUMINATING ENGINEERING SOCIETY", "city": "NEW YORK", "state": "NY", "zip": "10005-4026", "ntee": "", "ruling": "199102", "deductibility": "0", "assets": 0, "income": 0, "revenue": 0}, {"ein": "141795649", "name": "FOUNDATION FOR ENGINEERING EDUCATION INC", "city": "ALBANY", "state": "NY", "zip": "12205-1022", "ntee": "S41", "ruling": "199712", "deductibility": "1", "assets": 603848, "income": 104628, "revenue": 104628}, {"ein": "160424155", "name": "ENGINEERING SOCIETY OF BUFFALO INC", "city": "AMHERST", "state": "NY", "zip": "14226-7677", "ntee": "", "ruling": "198107", "deductibility": "1", "assets": 0, "income": 0, "revenue": 0}, {"ein": "160743133", "name": "ROCHESTER ENGINEERING SOCIETY INC", "city": "ROCHESTER", "state": "NY", "zip": "14625-2837", "ntee": "U42C", "ruling": "195104", "deductibility": "1", "assets": 323036, "income": 178649, "revenue": 124550}, {"ein": "161361052", "name": "ILLUMINATING ENGINEERING SOCIETY", "city": "BLASDELL", "state": "NY", "zip": "14219-2914", "ntee": "", "ruling": "199102", "deductibility": "1", "assets": 0, "income": 0, "revenue": 0}, {"ein": "161428991", "name": "ILLUMINATING ENGINEERING SOCIETY", "city": "CHURCHVILLE", "state": "NY", "zip": "14428-9706", "ntee": "", "ruling": "199102", "deductibility": "1", "assets": 0, "income": 0, "revenue": 0}, {"ein": "161428993", "name": "ILLUMINATING ENGINEERING SOCIETY", "city": "BALDWINSVILLE", "state": "NY", "zip": "13027-9296", "ntee": "", "ruling": "199102", "deductibility": "1", "assets": 0, "income": 0, "revenue": 0}, {"ein": "161509885", "name": "NATIONAL ASSOCIATION OF ENGINEERING STUDENT COUNCILS INC", "city": "NEW YORK", "state": "NY", "zip": "10001-2507", "ntee": "B99", "ruling": "201506", "deductibility": "1", "assets": 0, "income": 0, "revenue": 0}, {"ein": "161900480", "name": "BUFFALO AREA ENGINEERING AWARENESS FOR MINORITIES INC C/O SUNY AB", "city": "BUFFALO", "state": "NY", "zip": "14205-0162", "ntee": "", "ruling": "198609", "deductibility": "1", "assets": 129338, "income": 209054, "revenue": 190351}, {"ein": "222364349", "name": "PRACTICING INSTITUTE OF ENGINEERING", "city": "ALBANY", "state": "NY", "zip": "12205-1022", "ntee": "", "ruling": "198109", "deductibility": "1", "assets": 319757, "income": 137664, "revenue": 137664}, {"ein": "237354628", "name": "NEW YORK STATE TECHNOLOGY AND ENGINEERING EDUCATORS ASSOCIATION", "city": "ROME", "state": "NY", "zip": "13440-7512", "ntee": "", "ruling": "197605", "deductibility": "2", "assets": 0, "income": 0, "revenue": 0}, {"ein": "270892940", "name": "STUDENT PLATFORM FOR ENGINEERING EDUCATION DEVELOPMENT", "city": "KEW GARDENS", "state": "NY", "zip": "11415-3232", "ntee": "B83", "ruling": "201805", "deductibility": "1", "assets": 0, "income": 0, "revenue": 0}, {"ein": "311741515", "name": "NEW YORK CONSULTING ENGINEERING SCHOLARSHIP AND EDUCATIONAL FUND", "city": "ALBANY", "state": "NY", "zip": "12205-1051", "ntee": "B82", "ruling": "200103", "deductibility": "1", "assets": 121891, "income": 491620, "revenue": 100782}, {"ein": "320395324", "name": "MATH ENGINEERING AND SCIENCE ACADEMY CHARTER HIGH SCHOOL", "city": "BROOKLYN", "state": "NY", "zip": "11221-4712", "ntee": "B29", "ruling": "201405", "deductibility": "1", "assets": 6712926, "income": 11873158, "revenue": 11873158}, {"ein": "453176164", "name": "GREATER CAPITAL REGION SCIENCE AND ENGINEERING FAIR INC", "city": "SARATOGA SPGS", "state": "NY", "zip": "12866-6153", "ntee": "U20", "ruling": "201110", "deductibility": "1", "assets": 0, "income": 0, "revenue": 0}, {"ein": "460980465", "name": "INSTITUTE FOR HANDS-ON SCIENCE ENGINEERING & TECHNOLOGY INC", "city": "JAMAICA", "state": "NY", "zip": "11412-2523", "ntee": "B19", "ruling": "201302", "deductibility": "1", "assets": 0, "income": 0, "revenue": 0}, {"ein": "473068376", "name": "CENTER OF EXCELLENCE FOR ENGINEERING BIOLOGY INC", "city": "NEW YORK", "state": "NY", "zip": "10007-2485", "ntee": "U03", "ruling": "201907", "deductibility": "1", "assets": 185599, "income": 16, "revenue": 16}, {"ein": "542065347", "name": "BRIDGE ENGINEERING ASSOCIATION INC", "city": "BROOKLYN", "state": "NY", "zip": "11209-2344", "ntee": "S41", "ruling": "200303", "deductibility": "2", "assets": 178267, "income": 239186, "revenue": 239186}, {"ein": "752999893", "name": "NEW YORK STATE SCIENCE & ENGINEERING FAIR INC", "city": "VALLEY STREAM", "state": "NY", "zip": "11582-0605", "ntee": "O50", "ruling": "200204", "deductibility": "1", "assets": 31367, "income": 87693, "revenue": 87693}, {"ein": "813984205", "name": "YOUTH ENGINEERING INITIATIVE INC", "city": "MANLIUS", "state": "NY", "zip": "13104-9423", "ntee": "B80", "ruling": "201701", "deductibility": "1", "assets": 0, "income": 0, "revenue": 0}, {"ein": "820580642", "name": "WESTCHESTER SCIENCE AND ENGINEERING FAIR INC", "city": "MAHOPAC", "state": "NY", "zip": "10541-3948", "ntee": "N52", "ruling": "200402", "deductibility": "1", "assets": 10075, "income": 247931, "revenue": 247931}, {"ein": "833411878", "name": "AECI II NYC CHARTER HIGH SCHOOL FOR COMPUTER ENGINEERING AND INNOVAT", "city": "BRONX", "state": "NY", "zip": "10454-3041", "ntee": "B29", "ruling": "201909", "deductibility": "1", "assets": 9195669, "income": 22728108, "revenue": 22728108}, {"ein": "834076867", "name": "ROBO369 ENGINEERING CLUB CORPORATION", "city": "JERICHO", "state": "NY", "zip": "11753-2230", "ntee": "O20", "ruling": "202204", "deductibility": "1", "assets": 0, "income": 0, "revenue": 0}, {"ein": "842632071", "name": "RAJSHAHI UNIVERSITY OF ENGINEERING AND TECHNOLOGY ALUMNI ASSOCIATION", "city": "JAMAICA", "state": "NY", "zip": "11432-3916", "ntee": "B03", "ruling": "201909", "deductibility": "1", "assets": 3880, "income": 8806, "revenue": 8806}, {"ein": "863013843", "name": "GROWING SCIENCE TECHNOLOGY ENGINEERING AND MATH Z INCORPORATE", "city": "POUGHKEEPSIE", "state": "NY", "zip": "12601-3113", "ntee": "B90", "ruling": "202204", "deductibility": "1", "assets": 0, "income": 0, "revenue": 0}, {"ein": "872808410", "name": "POB ROBOTICS AND ENGINEERING INC", "city": "PLAINVIEW", "state": "NY", "zip": "11803-3113", "ntee": "U42", "ruling": "202202", "deductibility": "1", "assets": 0, "income": 0, "revenue": 0}, {"ein": "883980544", "name": "NEW YORK INTERAGENCY ENGINEERING COUNCIL INC", "city": "NEW YORK", "state": "NY", "zip": "10022-6754", "ntee": "S41", "ruling": "202306", "deductibility": "2", "assets": 30420, "income": 22497, "revenue": 22497}, {"ein": "934970831", "name": "MATH ENGINEERING AND SCIENCE ACADEMY CHARTER HIGH SCHOOL 2", "city": "BROOKLYN", "state": "NY", "zip": "11221-4712", "ntee": "B29", "ruling": "202412", "deductibility": "1", "assets": 0, "income": 0, "revenue": 0}], "MALE": [{"ein": "010765675", "name": "JOAN A MALE FAMILY SUPPORT CENTER FOUNDATION", "city": "BUFFALO", "state": "NY", "zip": "14206-2308", "ntee": "P11", "ruling": "200305", "deductibility": "1", "assets": 592099, "income": 142139, "revenue": 128965}, {"ein": "222322500", "name": "AMHERST MALE GLEE CLUB INC", "city": "WILLIAMSVILLE", "state": "NY", "zip": "14221-6750", "ntee": "A68", "ruling": "201408", "deductibility": "1", "assets": 42139, "income": 67026, "revenue": 67026}, {"ein": "411831829", "name": "MALESURVIVOR NATL ORGANIZATION AGAINST MALE SEXUAL VICTIMIZATION", "city": "NEW YORK", "state": "NY", "zip": "10025-8842", "ntee": "F42", "ruling": "199607", "deductibility": "1", "assets": 0, "income": 0, "revenue": 0}, {"ein": "471577132", "name": "GAY MALE RIGHTS PROJECT", "city": "NEW YORK", "state": "NY", "zip": "10005-0000", "ntee": "R26", "ruling": "201409", "deductibility": "1", "assets": 0, "income": 0, "revenue": 0}, {"ein": "800685879", "name": "MALE ISSUES COALITION INC", "city": "WHITE PLAINS", "state": "NY", "zip": "10605-1440", "ntee": "R01", "ruling": "201104", "deductibility": "2", "assets": 0, "income": 0, "revenue": 0}, {"ein": "833432849", "name": "FOUNDATION FOR THE STUDY OF MALE RAPE AND SEXUAL ASSAULT INC", "city": "HAMILTON", "state": "NY", "zip": "13346-0000", "ntee": "B01", "ruling": "201905", "deductibility": "1", "assets": 0, "income": 0, "revenue": 0}, {"ein": "900540994", "name": "FOUNDATION FOR MALE STUDIES INC", "city": "WHITE PLAINS", "state": "NY", "zip": "10605-1440", "ntee": "B99", "ruling": "201008", "deductibility": "1", "assets": 0, "income": 0, "revenue": 0}], "TESTAMENT": [{"ein": "010954967", "name": "SPRING VALLEY NEW TESTAMENT CHURCH OF GOD", "city": "SPRING VALLEY", "state": "NY", "zip": "10977-4906", "ntee": "", "ruling": "197210", "deductibility": "1", "assets": 0, "income": 0, "revenue": 0}, {"ein": "112501288", "name": "NEW TESTAMENT BAPTIST CHURCH OF SOUTHAMPTON INC", "city": "SOUTHAMPTON", "state": "NY", "zip": "11969-0307", "ntee": "", "ruling": "197910", "deductibility": "1", "assets": 0, "income": 0, "revenue": 0}, {"ein": "112548534", "name": "NEW TESTAMENT ASSEMBLIES INC", "city": "BRONX", "state": "NY", "zip": "10457-2445", "ntee": "X21Z", "ruling": "199808", "deductibility": "1", "assets": 0, "income": 0, "revenue": 0}, {"ein": "113082366", "name": "NEW TESTAMENT CHURCH OF GOD", "city": "BROOKLYN", "state": "NY", "zip": "11206-6505", "ntee": "", "ruling": "196007", "deductibility": "1", "assets": 0, "income": 0, "revenue": 0}, {"ein": "133033849", "name": "NEW TESTAMENT MISSIONARY FELLOWSHIP", "city": "YONKERS", "state": "NY", "zip": "10701-1914", "ntee": "", "ruling": "196706", "deductibility": "1", "assets": 0, "income": 0, "revenue": 0}, {"ein": "133762440", "name": "NEW TESTAMENT TEMPLE CHURCH OF GOD", "city": "BRONX", "state": "NY", "zip": "10469-2916", "ntee": "", "ruling": "197210", "deductibility": "1", "assets": 0, "income": 0, "revenue": 0}, {"ein": "134216228", "name": "LIVING ROOM NEW TESTAMENT CHURCH OF GOD IN CHRIST INC", "city": "ST ALBANS", "state": "NY", "zip": "11412-3413", "ntee": "X99", "ruling": "200804", "deductibility": "1", "assets": 0, "income": 0, "revenue": 0}, {"ein": "161188267", "name": "NEW TESTAMENT CHRISTIAN CHURCH OF GREECE INC", "city": "ROCHESTER", "state": "NY", "zip": "14626-1054", "ntee": "", "ruling": "199905", "deductibility": "0", "assets": 0, "income": 0, "revenue": 0}, {"ein": "161446125", "name": "NEW TESTAMENT CHURCH", "city": "BUFFALO", "state": "NY", "zip": "14220-1515", "ntee": "", "ruling": "199311", "deductibility": "1", "assets": 0, "income": 0, "revenue": 0}, {"ein": "161612411", "name": "VICTORY NEW TESTAMENT FELLOWSHIP INTERNATIONAL", "city": "BINGHAMTON", "state": "NY", "zip": "13905-4703", "ntee": "X20", "ruling": "200211", "deductibility": "0", "assets": 0, "income": 0, "revenue": 0}, {"ein": "166067591", "name": "NEW TESTAMENT CHURCH AND YOUTH CENTER OF PERRY", "city": "PERRY", "state": "NY", "zip": "14530-9616", "ntee": "", "ruling": "196605", "deductibility": "1", "assets": 0, "income": 0, "revenue": 0}, {"ein": "202606670", "name": "VICTORY NEW TESTAMENT FELLOWSHIP INTERNATIONAL", "city": "WEST BABYLON", "state": "NY", "zip": "11704-5509", "ntee": "X20", "ruling": "200211", "deductibility": "1", "assets": 39816, "income": 21693, "revenue": 21693}, {"ein": "222237190", "name": "NEW TESTAMENT FELLOWSHIP CHURCH INC", "city": "SARANAC", "state": "NY", "zip": "12983-2459", "ntee": "", "ruling": "197902", "deductibility": "1", "assets": 0, "income": 0, "revenue": 0}, {"ein": "222813017", "name": "NEW TESTAMENT CHURCH INC", "city": "ROME", "state": "NY", "zip": "13442-0748", "ntee": "", "ruling": "198710", "deductibility": "1", "assets": 0, "income": 0, "revenue": 0}, {"ein": "222993627", "name": "NEW TESTAMENT REVIVAL CATHEDRAL INC", "city": "BUFFALO", "state": "NY", "zip": "14215-2729", "ntee": "", "ruling": "198912", "deductibility": "1", "assets": 0, "income": 0, "revenue": 0}, {"ein": "270135236", "name": "DELIVERANCE NEW TESTAMENT CHURCH OF GOD INC", "city": "BROOKLYN", "state": "NY", "zip": "11207-7320", "ntee": "", "ruling": "197210", "deductibility": "1", "assets": 0, "income": 0, "revenue": 0}, {"ein": "352251412", "name": "VICTORY NEW TESTAMENT FELLOWSHIP INTERNATIONAL", "city": "JAMESTOWN", "state": "NY", "zip": "14701-5643", "ntee": "X20", "ruling": "200211", "deductibility": "0", "assets": 0, "income": 0, "revenue": 0}, {"ein": "460469561", "name": "NEW TESTAMENT CHURCH OF YONKERS", "city": "YONKERS", "state": "NY", "zip": "10703-2352", "ntee": "X21", "ruling": "200206", "deductibility": "1", "assets": 0, "income": 0, "revenue": 0}, {"ein": "462101659", "name": "NEW TESTAMENT GATHERING IN CHRIST", "city": "BROOKLYN", "state": "NY", "zip": "11210-1132", "ntee": "X21", "ruling": "201502", "deductibility": "1", "assets": 0, "income": 0, "revenue": 0}, {"ein": "510603898", "name": "MACEDONIA CATHEDRAL NEW TESTAMENT CHURCH OF GOD INC", "city": "SAINT ALBANS", "state": "NY", "zip": "11412-2425", "ntee": "X21", "ruling": "200801", "deductibility": "1", "assets": 0, "income": 0, "revenue": 0}, {"ein": "527245773", "name": "MUSEUM TRUST UPARA FIFTH C OF LAST WILL & TESTAMENT OF WILLIAM B", "city": "NEW YORK", "state": "NY", "zip": "10001-2189", "ntee": "T22", "ruling": "200211", "deductibility": "1", "assets": 985729, "income": 400381, "revenue": 0}, {"ein": "640952092", "name": "MIRACLE TEMPLE NEW TESTAMENT CHURCH OF GOD INC", "city": "BROOKLYN", "state": "NY", "zip": "11234-0000", "ntee": "X20", "ruling": "201502", "deductibility": "1", "assets": 0, "income": 0, "revenue": 0}, {"ein": "680518100", "name": "VICTORY NEW TESTAMENT FELLOWSHIP INTERNATIONAL", "city": "BROOKLYN", "state": "NY", "zip": "11207-5615", "ntee": "X20", "ruling": "202207", "deductibility": "1", "assets": 0, "income": 0, "revenue": 0}, {"ein": "800034331", "name": "VICTORY NEW TESTAMENT FELLOWSHIP INTERNATIONAL", "city": "LINDENHURST", "state": "NY", "zip": "11757-4053", "ntee": "", "ruling": "200211", "deductibility": "0", "assets": 0, "income": 0, "revenue": 0}, {"ein": "833202565", "name": "NEW TESTAMENT CHURCH OF PLATTSBURGH INC", "city": "PLATTSBURGH", "state": "NY", "zip": "12901-0268", "ntee": "X20", "ruling": "202002", "deductibility": "1", "assets": 0, "income": 0, "revenue": 0}, {"ein": "871524129", "name": "NEW TESTAMENT EPISCOPAL ZION CHURCH INTERNATIONAL INC", "city": "BRONX", "state": "NY", "zip": "10466-3003", "ntee": "X20", "ruling": "202302", "deductibility": "1", "assets": 924, "income": 35613, "revenue": 35613}], "PERFECTION": [{"ein": "010974826", "name": "GROWING TO PERFECTION REDEMPTION MINISTRY INC", "city": "BROOKLYN", "state": "NY", "zip": "11212-5677", "ntee": "X20", "ruling": "201409", "deductibility": "1", "assets": 0, "income": 0, "revenue": 0}, {"ein": "222543521", "name": "VETTES IN PERFECTION LTD", "city": "GUILDERLAND", "state": "NY", "zip": "12084-0151", "ntee": "", "ruling": "198412", "deductibility": "2", "assets": 0, "income": 0, "revenue": 0}, {"ein": "352799401", "name": "AGED TO PERFECTION INC", "city": "ROME", "state": "NY", "zip": "13440-7834", "ntee": "P81", "ruling": "202305", "deductibility": "1", "assets": 0, "income": 0, "revenue": 0}, {"ein": "461144894", "name": "EGLISE PRIMITIVE DE LA PERFECTION INC PRIVITIVE CHURCH OF PERFECTION", "city": "ELMONT", "state": "NY", "zip": "11003-1503", "ntee": "X20", "ruling": "201402", "deductibility": "1", "assets": 0, "income": 0, "revenue": 0}, {"ein": "475458645", "name": "DARE TO DREAM PERFECTION INC", "city": "ELMONT", "state": "NY", "zip": "11003-4241", "ntee": "A60", "ruling": "201611", "deductibility": "1", "assets": 0, "income": 0, "revenue": 0}], "SPECIAL": [{"ein": "020590957", "name": "ELMYS SPECIAL SERVICES INC", "city": "BROOKLYN", "state": "NY", "zip": "11221-6663", "ntee": "P82", "ruling": "200207", "deductibility": "1", "assets": 6002212, "income": 8728483, "revenue": 8728483}, {"ein": "020659070", "name": "IMAGINE SPECIAL EQUESTRIANS INC", "city": "RIVERHEAD", "state": "NY", "zip": "11901-4643", "ntee": "P20", "ruling": "202206", "deductibility": "1", "assets": 59966, "income": 148995, "revenue": 148995}, {"ein": "043117710", "name": "INTERNATIONAL ASSOCIATION OF SPECIAL INVESTIGATION UNITS INC", "city": "ALBANY", "state": "NY", "zip": "12203-5319", "ntee": "", "ruling": "199309", "deductibility": "2", "assets": 1489650, "income": 1202948, "revenue": 1201994}, {"ein": "112107335", "name": "HEBREW ACADEMY FOR SPECIAL CHILDREN INC", "city": "BROOKLYN", "state": "NY", "zip": "11204-4749", "ntee": "B28Z", "ruling": "196804", "deductibility": "1", "assets": 18560641, "income": 40495814, "revenue": 37053958}, {"ein": "112548572", "name": "SPECIAL AND SUPERIOR OFFICERS BENEVOLENT ASSOC WELFARE FUN", "city": "WEST BABYLON", "state": "NY", "zip": "11704-6115", "ntee": "", "ruling": "198104", "deductibility": "2", "assets": 12186257, "income": 9818909, "revenue": 4491559}, {"ein": "112594790", "name": "RESOURCES FOR CHILDREN WITH SPECIAL NEEDS INC", "city": "NEW YORK", "state": "NY", "zip": "10018-6507", "ntee": "P190", "ruling": "198912", "deductibility": "1", "assets": 6429277, "income": 5475570, "revenue": 5471578}, {"ein": "112678732", "name": "FRIENDS OF THE SMITHTOWN SPECIAL LIBRARY DISTRICT", "city": "NESCONSET", "state": "NY", "zip": "11767-1746", "ntee": "B12", "ruling": "200702", "deductibility": "1", "assets": 77023, "income": 28632, "revenue": 28632}, {"ein": "112915672", "name": "SOMETHING SPECIAL BIG BAND INC C/O PHILIP COSTA", "city": "HICKSVILLE", "state": "NY", "zip": "11801-2235", "ntee": "A68Z", "ruling": "199502", "deductibility": "1", "assets": 0, "income": 0, "revenue": 0}, {"ein": "113048109", "name": "EAST END SPECIAL PLAYERS INC", "city": "WATER MILL", "state": "NY", "zip": "11976-2632", "ntee": "N99Z", "ruling": "199503", "deductibility": "1", "assets": 133126, "income": 116138, "revenue": 116138}, {"ein": "113108612", "name": "NEW YORK COALITION FOR CHILDREN WITH SPECIAL NEEDS BIRTH TO 5 INC", "city": "FOREST HILLS", "state": "NY", "zip": "11375-4608", "ntee": "S20", "ruling": "199708", "deductibility": "1", "assets": 47958, "income": 122496, "revenue": 122496}, {"ein": "113329517", "name": "STEP SPECIAL TORAH EDUCATION PROGRAM INC", "city": "BROOKLYN", "state": "NY", "zip": "11204-1545", "ntee": "X30Z", "ruling": "199711", "deductibility": "1", "assets": 0, "income": 0, "revenue": 0}, {"ein": "113474497", "name": "SPECIAL FUND IMO SOTIROS N CACHULES FBO ST PAULS GREEK ORTH CHURCH", "city": "HEMPSTEAD", "state": "NY", "zip": "11550-2050", "ntee": "X11", "ruling": "200101", "deductibility": "1", "assets": 2508911, "income": 217218, "revenue": 217218}, {"ein": "113476645", "name": "SPECIAL CARE FOR FAMILIES AND CHILDRENS SERVICES INC", "city": "BROOKLYN", "state": "NY", "zip": "11230-5501", "ntee": "P82", "ruling": "200002", "deductibility": "1", "assets": 9383445, "income": 6317256, "revenue": 6317256}, {"ein": "113488500", "name": "ROLLING THUNDER SPECIAL NEEDS PROGRAM", "city": "SHIRLEY", "state": "NY", "zip": "11967-2340", "ntee": "N69", "ruling": "200008", "deductibility": "1", "assets": 0, "income": 0, "revenue": 0}, {"ein": "113575035", "name": "DOVIS PLAYHOUSE FOR CHILDREN WITH SPECIAL NEEDS INC", "city": "BROOKLYN", "state": "NY", "zip": "11229-3412", "ntee": "H25", "ruling": "201606", "deductibility": "1", "assets": 61145, "income": 63145, "revenue": 63145}, {"ein": "113586205", "name": "YOUNG ADULTS WITH SPECIAL ABILITIES INC", "city": "JAMAICA", "state": "NY", "zip": "11432-5557", "ntee": "P80", "ruling": "200205", "deductibility": "1", "assets": 489387, "income": 2800184, "revenue": 2800184}, {"ein": "131331235", "name": "SPECIAL FUNDS CONSERVATION COMMITTEE", "city": "NEW YORK", "state": "NY", "zip": "10016-0000", "ntee": "", "ruling": "197203", "deductibility": "2", "assets": 1922023, "income": 0, "revenue": 0}, {"ein": "131740010", "name": "NEW YORK INSTITUTE FOR SPECIAL EDUCATION", "city": "BRONX", "state": "NY", "zip": "10469-4905", "ntee": "B280", "ruling": "194205", "deductibility": "1", "assets": 234735730, "income": 93717473, "revenue": 46375350}, {"ein": "132865903", "name": "SPECIAL CITIZENS FUTURES UNLIMITED INC", "city": "YONKERS", "state": "NY", "zip": "10701-8806", "ntee": "P82Z", "ruling": "197705", "deductibility": "1", "assets": 14645180, "income": 15787962, "revenue": 15787962}, {"ein": "133005006", "name": "A VERY SPECIAL PLACE INC", "city": "STATEN ISLAND", "state": "NY", "zip": "10306-5774", "ntee": "", "ruling": "198003", "deductibility": "1", "assets": 22484336, "income": 43065801, "revenue": 43027580}, {"ein": "133076622", "name": "SOUTH EAST CONSORTIUM FOR SPECIAL SERVICES INC", "city": "MAMARONECK", "state": "NY", "zip": "10543-3345", "ntee": "P820", "ruling": "198204", "deductibility": "1", "assets": 2136851, "income": 1163948, "revenue": 1163948}, {"ein": "133098542", "name": "NORTH EAST WESTCHESTER SPECIAL RECREATION INC", "city": "HAWTHORNE", "state": "NY", "zip": "10532-2181", "ntee": "P82Z", "ruling": "198312", "deductibility": "1", "assets": 2580270, "income": 1880998, "revenue": 1422253}, {"ein": "133172387", "name": "COURT APPOINTED SPECIAL ADVOCATES INC", "city": "NEW YORK", "state": "NY", "zip": "10005-2907", "ntee": "R200", "ruling": "198308", "deductibility": "1", "assets": 0, "income": 0, "revenue": 0}, {"ein": "133176016", "name": "WESTCHESTER SCHOOL FOR SPECIAL CHILDREN", "city": "YONKERS", "state": "NY", "zip": "10703-3401", "ntee": "", "ruling": "198408", "deductibility": "1", "assets": 8989550, "income": 20274160, "revenue": 20274160}, {"ein": "133363237", "name": "WEST SIDE SPECIAL HOUSING DEVELOPMENT FUND CORP", "city": "NEW YORK", "state": "NY", "zip": "10024-3213", "ntee": "N200", "ruling": "200008", "deductibility": "2", "assets": 4884317, "income": 72, "revenue": 72}, {"ein": "133479996", "name": "BRONXCARE SPECIAL CARE CENTER", "city": "BRONX", "state": "NY", "zip": "10456-3467", "ntee": "E32Z", "ruling": "198902", "deductibility": "1", "assets": 27610727, "income": 42764974, "revenue": 42764974}, {"ein": "133548670", "name": "SPECIAL MINISTRIES TO JAPANESE", "city": "TARRYTOWN", "state": "NY", "zip": "10591-3206", "ntee": "", "ruling": "198601", "deductibility": "1", "assets": 0, "income": 0, "revenue": 0}, {"ein": "133601849", "name": "ROCKLAND INSTITUTE FOR SPECIAL ED", "city": "CHESTNUT RDG", "state": "NY", "zip": "10977-6609", "ntee": "", "ruling": "199312", "deductibility": "1", "assets": 2339277, "income": 2294527, "revenue": 2294527}, {"ein": "133801721", "name": "SELFHELP SPECIAL FAMILY HOME CARE INC", "city": "NEW YORK", "state": "NY", "zip": "10018-6553", "ntee": "P80", "ruling": "199503", "deductibility": "1", "assets": 103059, "income": 5972637, "revenue": 5972637}, {"ein": "133932107", "name": "NEW YORK RAPTORS SPECIAL HOCKEY CLUB INC", "city": "HURLEY", "state": "NY", "zip": "12443-5925", "ntee": "N68", "ruling": "199709", "deductibility": "1", "assets": 0, "income": 0, "revenue": 0}, {"ein": "134030496", "name": "SPECIAL KIDS OF N Y", "city": "KATONAH", "state": "NY", "zip": "10536-3003", "ntee": "P58", "ruling": "200002", "deductibility": "1", "assets": 120503, "income": 144593, "revenue": 93289}, {"ein": "136180704", "name": "SOUND RECORDING SPECIAL PAYMENTS FUND", "city": "NEW YORK", "state": "NY", "zip": "10022-6246", "ntee": "S46", "ruling": "202004", "deductibility": "2", "assets": 22748683, "income": 15003291, "revenue": 15003291}, {"ein": "136221005", "name": "SPECIAL EDUCATION SERVICES COUNCIL ARCHDIOCESE OF N Y HEAD START", "city": "BRONX", "state": "NY", "zip": "10455-0000", "ntee": "", "ruling": "194603", "deductibility": "1", "assets": 0, "income": 0, "revenue": 0}, {"ein": "136271914", "name": "JEWISH FOUNDATION SCHOOL OF STATEN ISLAND INC SPECIAL", "city": "STATEN ISLAND", "state": "NY", "zip": "10314-1700", "ntee": "", "ruling": "199102", "deductibility": "1", "assets": 0, "income": 0, "revenue": 0}, {"ein": "136714749", "name": "HOSPITAL FOR SPECIAL SURGERY FUND INC", "city": "NEW YORK", "state": "NY", "zip": "10021-4823", "ntee": "E110", "ruling": "198706", "deductibility": "1", "assets": 135240308, "income": 42046221, "revenue": 27268172}, {"ein": "137039705", "name": "HESHY AND CHAYA GROSS SPECIAL ACCOUNT TR", "city": "MONSEY", "state": "NY", "zip": "10952-1704", "ntee": "T20J", "ruling": "199601", "deductibility": "1", "assets": 318438, "income": 163341, "revenue": 0}, {"ein": "150626250", "name": "SPECIAL METALS FEDERAL CREDIT UNION", "city": "NEW HARTFORD", "state": "NY", "zip": "13413-5316", "ntee": "", "ruling": "201411", "deductibility": "0", "assets": 0, "income": 0, "revenue": 0}, {"ein": "160926574", "name": "EMPIRE STATE SPECIAL NEEDS EXPERIENCE INC", "city": "SPENCER", "state": "NY", "zip": "14883-9612", "ntee": "E56Z", "ruling": "196704", "deductibility": "1", "assets": 559248, "income": 442976, "revenue": 408670}, {"ein": "161101938", "name": "FIRST BAPTIST CHURCH OF HARTW NEW YORK SPECIAL ACCOUNT", "city": "HARTWICK", "state": "NY", "zip": "13348-0000", "ntee": "", "ruling": "199107", "deductibility": "1", "assets": 0, "income": 0, "revenue": 0}, {"ein": "161265602", "name": "THE CAMP FOR SPECIAL KIDS CHARITIES OF THE MOHAWK VALLEY INC", "city": "UTICA", "state": "NY", "zip": "13501-2102", "ntee": "", "ruling": "198809", "deductibility": "1", "assets": 0, "income": 0, "revenue": 0}, {"ein": "161326609", "name": "PARENTS OF SPECIAL CHILDREN", "city": "FULTON", "state": "NY", "zip": "13069-1530", "ntee": "", "ruling": "199306", "deductibility": "1", "assets": 0, "income": 0, "revenue": 0}, {"ein": "161464168", "name": "DOWNTOWN SPECIAL SERVICES INCP INC", "city": "ROCHESTER", "state": "NY", "zip": "14604-2410", "ntee": "S30", "ruling": "202204", "deductibility": "1", "assets": 312891, "income": 395420, "revenue": 395420}, {"ein": "161523685", "name": "NEW YORK STATE CHAPTER OF SPECIAL INVESTIGATION UNITS INC", "city": "LEVITTOWN", "state": "NY", "zip": "11756-0011", "ntee": "S41", "ruling": "200411", "deductibility": "2", "assets": 0, "income": 0, "revenue": 0}, {"ein": "201272708", "name": "FRIENDS WITH SPECIAL NEEDS INC", "city": "CHEEKTOWAGA", "state": "NY", "zip": "14225-3601", "ntee": "P80", "ruling": "200503", "deductibility": "1", "assets": 0, "income": 0, "revenue": 0}, {"ein": "203414890", "name": "POPPYS SPECIAL FRIENDS INC", "city": "PRT WASHINGTN", "state": "NY", "zip": "11050-2029", "ntee": "P50", "ruling": "200512", "deductibility": "1", "assets": 64008, "income": 25850, "revenue": 25850}, {"ein": "203645385", "name": "LONG ISLAND ASSOCIATION OF SPECIAL EDUCATION ADMINISTRATORS INC", "city": "MASTIC BEACH", "state": "NY", "zip": "11951-0144", "ntee": "B82", "ruling": "200605", "deductibility": "1", "assets": 189061, "income": 309140, "revenue": 309140}, {"ein": "205932226", "name": "ST PETERS FUND FOR SPECIAL MINISTRY INC", "city": "HUNTINGTN STA", "state": "NY", "zip": "11746-3059", "ntee": "T990", "ruling": "200710", "deductibility": "1", "assets": 288410, "income": 150319, "revenue": 128719}, {"ein": "206095388", "name": "SPECIAL METALS CORPORATION IAM RETIREE VEBA TR", "city": "NEW HARTFORD", "state": "NY", "zip": "13413-5317", "ntee": "Y43", "ruling": "200510", "deductibility": "2", "assets": 429806, "income": 566694, "revenue": 566694}, {"ein": "208355318", "name": "GOVOAH SPECIAL PROJECTS INC", "city": "BROOKLYN", "state": "NY", "zip": "11210-5418", "ntee": "N20", "ruling": "200804", "deductibility": "1", "assets": 671470, "income": 1473721, "revenue": 1473721}, {"ein": "222329654", "name": "CAMP GOOD DAYS & SPECIAL TIMES INC", "city": "MENDON", "state": "NY", "zip": "14506-0665", "ntee": "N00Z", "ruling": "198209", "deductibility": "1", "assets": 33441663, "income": 8705032, "revenue": 4415561}, {"ein": "222348184", "name": "SPECIAL RESIDENTIAL OPPORTUNTIES INC", "city": "ROCHESTER", "state": "NY", "zip": "14623-3057", "ntee": "P73I", "ruling": "198105", "deductibility": "1", "assets": 193225, "income": 216605, "revenue": 216605}, {"ein": "222511306", "name": "CARDINAL HAYES SCHOOL FOR SPECIAL CHILDREN", "city": "MILLBROOK", "state": "NY", "zip": "12545-0000", "ntee": "B28Z", "ruling": "194603", "deductibility": "1", "assets": 1787064, "income": 4220016, "revenue": 4220016}, {"ein": "222684858", "name": "THE JEWISH CENTER FOR SPECIAL EDUCATION", "city": "BROOKLYN", "state": "NY", "zip": "11219-3250", "ntee": "", "ruling": "198605", "deductibility": "1", "assets": 0, "income": 0, "revenue": 0}, {"ein": "237061382", "name": "SPECIAL OLYMPICS NEW YORK INC", "city": "ALBANY", "state": "NY", "zip": "12203-7304", "ntee": "", "ruling": "197004", "deductibility": "1", "assets": 8276390, "income": 11467246, "revenue": 10681166}, {"ein": "237200883", "name": "SPECIAL & SUPERIOR OFFICERS BENEVOLENT ASSOCIATION", "city": "WEST BABYLON", "state": "NY", "zip": "11704-6115", "ntee": "I60Z", "ruling": "197304", "deductibility": "2", "assets": 199103, "income": 1185326, "revenue": 1185326}, {"ein": "237448740", "name": "AMERICAN SPECIAL RISKS ASSOCIATION INC", "city": "ALBANY", "state": "NY", "zip": "12207-2922", "ntee": "S41", "ruling": "201906", "deductibility": "2", "assets": 0, "income": 0, "revenue": 0}, {"ein": "262754431", "name": "LONG ISLAND COALITION FOR YOUNG CHILDREN WITH SPECIAL NEEDS INC", "city": "SEAFORD", "state": "NY", "zip": "11783-1328", "ntee": "S41", "ruling": "200903", "deductibility": "2", "assets": 9630, "income": 78780, "revenue": 78780}, {"ein": "263131222", "name": "WESTERN NEW YORK SPECIAL HOCKEY ASSOCIATION INC", "city": "AMHERST", "state": "NY", "zip": "14228-2836", "ntee": "N68", "ruling": "200906", "deductibility": "1", "assets": 0, "income": 0, "revenue": 0}, {"ein": "263742901", "name": "SPECIAL NEEDS AUTISM PROGRAM INC", "city": "PLAINVIEW", "state": "NY", "zip": "11803-1932", "ntee": "G84", "ruling": "201401", "deductibility": "1", "assets": 0, "income": 0, "revenue": 0}, {"ein": "264480126", "name": "YALDEI SHLUCHEI HAREBBE SPECIAL NEEDS ORGANIZATION", "city": "BROOKLYN", "state": "NY", "zip": "11225-3217", "ntee": "T30", "ruling": "201003", "deductibility": "1", "assets": 535370, "income": 2033745, "revenue": 2033745}, {"ein": "270903154", "name": "FOUNDATIN FOR SPECIAL NEEDS KIDS PLUS INC", "city": "NORTHPORT", "state": "NY", "zip": "11768-1168", "ntee": "P82", "ruling": "201008", "deductibility": "1", "assets": 0, "income": 0, "revenue": 0}, {"ein": "270958315", "name": "SPECIAL MUSIC SCHOOL PTA", "city": "NEW YORK", "state": "NY", "zip": "10023-0000", "ntee": "B94", "ruling": "201208", "deductibility": "1", "assets": 162938, "income": 88731, "revenue": 87912}, {"ein": "274297533", "name": "SPECIAL NEEDS LIFELINE CORP", "city": "NEW YORK", "state": "NY", "zip": "10016-8709", "ntee": "P017", "ruling": "201109", "deductibility": "1", "assets": 0, "income": 0, "revenue": 0}, {"ein": "300144468", "name": "SPECS-SPECIAL PROTECTION OF THE EN VIRONMENT FOR THE CNTY SULLIVAN", "city": "MONTICELLO", "state": "NY", "zip": "12701-1709", "ntee": "C30", "ruling": "200307", "deductibility": "1", "assets": 0, "income": 0, "revenue": 0}, {"ein": "300798089", "name": "SPECIAL FIT BY FIVE INC", "city": "PENFIELD", "state": "NY", "zip": "14526-1745", "ntee": "B21", "ruling": "201407", "deductibility": "1", "assets": 0, "income": 0, "revenue": 0}, {"ein": "331111482", "name": "AMERICAN SPECIAL HOCKEY ASSOCIATION", "city": "BINGHAMTON", "state": "NY", "zip": "13903-1344", "ntee": "N68", "ruling": "200703", "deductibility": "1", "assets": 116011, "income": 156141, "revenue": 156141}, {"ein": "331391325", "name": "SPECIAL NESHAMAHS INC", "city": "FRESH MEADOWS", "state": "NY", "zip": "11365-3542", "ntee": "E19", "ruling": "202411", "deductibility": "1", "assets": 0, "income": 0, "revenue": 0}, {"ein": "332152310", "name": "NY SPECIAL CARE INC", "city": "REGO PARK", "state": "NY", "zip": "11374-1431", "ntee": "P20", "ruling": "202412", "deductibility": "1", "assets": 0, "income": 0, "revenue": 0}, {"ein": "332679234", "name": "SPECIAL LIVING SERVICES INC", "city": "STATEN ISLAND", "state": "NY", "zip": "10303-2510", "ntee": "S20", "ruling": "202502", "deductibility": "1", "assets": 0, "income": 0, "revenue": 0}, {"ein": "334830165", "name": "NEW YORK SPECIAL NEEDS EMPOWER CENTER INC", "city": "ALBANY", "state": "NY", "zip": "12207-2922", "ntee": "P20", "ruling": "202506", "deductibility": "1", "assets": 0, "income": 0, "revenue": 0}, {"ein": "462189083", "name": "CAPTAIN DAVES CRUISES FOR SPECIAL NEEDS CHILDREN INC", "city": "GENESEO", "state": "NY", "zip": "14454-0246", "ntee": "P58", "ruling": "201308", "deductibility": "1", "assets": 4931, "income": 18914, "revenue": 18914}, {"ein": "462555041", "name": "EVERYTHING SPECIAL NEEDS", "city": "N BELLMORE", "state": "NY", "zip": "11710-2007", "ntee": "P99", "ruling": "201503", "deductibility": "1", "assets": 0, "income": 0, "revenue": 0}, {"ein": "463970878", "name": "NEW YORK SPECIAL DISTRICT ORG INC", "city": "GREAT NECK", "state": "NY", "zip": "11023-1821", "ntee": "B90", "ruling": "201506", "deductibility": "1", "assets": 19227, "income": 0, "revenue": 0}, {"ein": "464044487", "name": "NEW YORK CITY SPECIAL RIGGERS ASSOCIATION INC", "city": "LONG ISLAND CITY", "state": "NY", "zip": "11101-3118", "ntee": "Y99", "ruling": "201406", "deductibility": "2", "assets": 145715, "income": 202250, "revenue": 202250}, {"ein": "464670004", "name": "FRIENDS OF SPECIAL WEBSTER POLICE", "city": "WEBSTER", "state": "NY", "zip": "14580-2917", "ntee": "I12", "ruling": "201705", "deductibility": "1", "assets": 0, "income": 0, "revenue": 0}, {"ein": "471815524", "name": "SPECIAL NEEDS CIRCLE OF FRIENDS INC", "city": "SELDEN", "state": "NY", "zip": "11784-2554", "ntee": "P82", "ruling": "201504", "deductibility": "1", "assets": 0, "income": 0, "revenue": 0}, {"ein": "471863839", "name": "BEDFORD SPECIAL EDUCATION PARENT TEACHERS ORGAINIZATION", "city": "BEDFORD", "state": "NY", "zip": "10506-0000", "ntee": "B94", "ruling": "202504", "deductibility": "1", "assets": 0, "income": 0, "revenue": 0}, {"ein": "472214970", "name": "EAST ISLIP SPECIAL EDUCATION PARENT TEACHER ORGANIZATION", "city": "ISLIP TERRACE", "state": "NY", "zip": "11752-2820", "ntee": "B94", "ruling": "201511", "deductibility": "1", "assets": 0, "income": 0, "revenue": 0}, {"ein": "472616448", "name": "CARE FOR SPECIAL NEEDS CHILDREN FOUNDATION INC", "city": "BROOKLYN", "state": "NY", "zip": "11223-2328", "ntee": "P80", "ruling": "201511", "deductibility": "1", "assets": 2890697, "income": 2081838, "revenue": 1814581}, {"ein": "550914442", "name": "NATIONAL INSTITUTE FOR SPECIAL EDUCATION INC", "city": "RIVERHEAD", "state": "NY", "zip": "11901-6301", "ntee": "P40", "ruling": "201505", "deductibility": "1", "assets": 0, "income": 0, "revenue": 0}, {"ein": "562467642", "name": "WEG FAMILY SPECIAL FUND", "city": "SUFFERN", "state": "NY", "zip": "10901-2426", "ntee": "T22", "ruling": "200409", "deductibility": "1", "assets": 9602, "income": 88200, "revenue": 0}, {"ein": "800274406", "name": "MONROE 2 BOCES SPECIAL EDUCATION PARENT TEACHER ORGANIZATION", "city": "SPENCERPORT", "state": "NY", "zip": "14559-1709", "ntee": "B94", "ruling": "202404", "deductibility": "1", "assets": 0, "income": 0, "revenue": 0}, {"ein": "810725136", "name": "HARVEY & ELLEN WEISENBERG SPECIAL NEEDS RESOURCE CORP", "city": "LONG BEACH", "state": "NY", "zip": "11561-2868", "ntee": "P80", "ruling": "201605", "deductibility": "1", "assets": 84615, "income": 63619, "revenue": 63619}, {"ein": "810918633", "name": "NEW YORK SPECIAL FORCE CADET INC", "city": "BRONX", "state": "NY", "zip": "10473-4101", "ntee": "O50", "ruling": "201702", "deductibility": "1", "assets": 0, "income": 0, "revenue": 0}, {"ein": "811046988", "name": "INFINITY EDUCATIONAL SPECIAL PROGRAMS CORP", "city": "BROOKLYN", "state": "NY", "zip": "11229-6528", "ntee": "B20", "ruling": "202107", "deductibility": "1", "assets": 10085, "income": 0, "revenue": 0}, {"ein": "811074637", "name": "ALLIANCE FOR SPECIAL AID INTERNATIONAL INC", "city": "BROOKLYN", "state": "NY", "zip": "11219-1086", "ntee": "Q99", "ruling": "201603", "deductibility": "1", "assets": 0, "income": 0, "revenue": 0}, {"ein": "813690291", "name": "ENRICHING SPECIAL ADULTS INC", "city": "NEW HYDE PARK", "state": "NY", "zip": "11040-5026", "ntee": "E99", "ruling": "201612", "deductibility": "1", "assets": 89380, "income": 73225, "revenue": 73225}, {"ein": "814216385", "name": "SPECIAL INSPECTOR SUPERVISORS EMPLOYEE ASSOCIATION", "city": "W HEMPSTEAD", "state": "NY", "zip": "11552-2354", "ntee": "J40", "ruling": "201711", "deductibility": "2", "assets": 84697, "income": 22135, "revenue": 22135}, {"ein": "815133302", "name": "SPECIAL TOUCH BAKERY INC", "city": "ROCHESTER", "state": "NY", "zip": "14623-4540", "ntee": "P20", "ruling": "201707", "deductibility": "1", "assets": 4852766, "income": 5874617, "revenue": 5835817}, {"ein": "815255360", "name": "SPECIAL AUDIENCES AND MUSICIANS INC", "city": "NEW YORK", "state": "NY", "zip": "10011-2461", "ntee": "A60", "ruling": "201702", "deductibility": "1", "assets": 0, "income": 0, "revenue": 0}, {"ein": "820980067", "name": "KATONAH LEWISBORO SPECIAL EDUCATION PARENT TEACHER ORGANIZATION PTO", "city": "GOLDENS BRG", "state": "NY", "zip": "10526-0475", "ntee": "B94", "ruling": "202011", "deductibility": "1", "assets": 0, "income": 0, "revenue": 0}, {"ein": "822859303", "name": "GALA SPECIAL NEEDS FOUNDATION INC", "city": "MOHEGAN LAKE", "state": "NY", "zip": "10547-7523", "ntee": "L21", "ruling": "201805", "deductibility": "1", "assets": 0, "income": 0, "revenue": 0}, {"ein": "823687990", "name": "SPECIAL NEEDS ASSISTANCE FOUNDATION INC", "city": "BROOKLYN", "state": "NY", "zip": "11218-5579", "ntee": "P12", "ruling": "201801", "deductibility": "1", "assets": 0, "income": 0, "revenue": 0}, {"ein": "825525589", "name": "SOUTH FORK BAKERY FOR THE SPECIAL NEEDS CORP", "city": "SAG HARBOR", "state": "NY", "zip": "11963-1920", "ntee": "P82", "ruling": "201812", "deductibility": "1", "assets": 248534, "income": 624633, "revenue": 624633}, {"ein": "831028255", "name": "BEATS SPECIAL NEEDS DANCE SHOWCASE INC", "city": "WELLSVILLE", "state": "NY", "zip": "14895-1414", "ntee": "A62", "ruling": "201807", "deductibility": "1", "assets": 0, "income": 0, "revenue": 0}, {"ein": "832161271", "name": "LONG ISLAND BLUES SPECIAL NEEDS HOCKEY CLUB INC", "city": "BETHPAGE", "state": "NY", "zip": "11714-0020", "ntee": "O50", "ruling": "201909", "deductibility": "1", "assets": 14111, "income": 36784, "revenue": 36784}, {"ein": "832751598", "name": "FIRST RESPONDERS SPECIAL TREATMENT AGENCY INC", "city": "WEBSTER", "state": "NY", "zip": "14580-0844", "ntee": "F99", "ruling": "201907", "deductibility": "1", "assets": 0, "income": 0, "revenue": 0}, {"ein": "833146984", "name": "OPPORTUNITIES COLLABORATIVE FOR STUDENTS WITH SPECIAL NEEDS INC", "city": "TONAWANDA", "state": "NY", "zip": "14150-9415", "ntee": "B28", "ruling": "201906", "deductibility": "1", "assets": 298229, "income": 182208, "revenue": 182208}, {"ein": "841641931", "name": "TORAH FOR SPECIAL CHILDREN", "city": "BROOKLYN", "state": "NY", "zip": "11204-3319", "ntee": "X30", "ruling": "200506", "deductibility": "1", "assets": 0, "income": 0, "revenue": 0}, {"ein": "842866739", "name": "SPECIAL SERVICES EAST END NETWORK INC", "city": "WATER MILL", "state": "NY", "zip": "11976-2632", "ntee": "P80", "ruling": "202011", "deductibility": "1", "assets": 0, "income": 0, "revenue": 0}, {"ein": "843250335", "name": "MY SPECIAL CHILD FOUNDATION INC", "city": "LAWRENCE", "state": "NY", "zip": "11559-1518", "ntee": "T12", "ruling": "202001", "deductibility": "1", "assets": 0, "income": 0, "revenue": 0}, {"ein": "843488489", "name": "SPECIAL SMILES FOUNDATION", "city": "BUFFALO", "state": "NY", "zip": "14202-2216", "ntee": "T30", "ruling": "201911", "deductibility": "1", "assets": 0, "income": 0, "revenue": 0}, {"ein": "853756422", "name": "BUFFALO SPECIAL POLICE", "city": "BUFFALO", "state": "NY", "zip": "14209-1925", "ntee": "O54", "ruling": "202103", "deductibility": "1", "assets": 0, "income": 0, "revenue": 0}, {"ein": "861374890", "name": "LONGWOOD SPECIAL EDUCATION PARENT TEACHER ORGANIZATION", "city": "MIDDLE ISLAND", "state": "NY", "zip": "11953-0324", "ntee": "B94", "ruling": "202106", "deductibility": "1", "assets": 2810, "income": 141021, "revenue": 141021}, {"ein": "871259820", "name": "OUR KIDS SPECIAL ED INC", "city": "MAHOPAC", "state": "NY", "zip": "10541-0628", "ntee": "O01", "ruling": "202111", "deductibility": "1", "assets": 0, "income": 0, "revenue": 0}, {"ein": "871659562", "name": "A SPECIAL PLACE FOR ME INC", "city": "WESTBURY", "state": "NY", "zip": "11590-1041", "ntee": "G84", "ruling": "202204", "deductibility": "1", "assets": 0, "income": 0, "revenue": 0}, {"ein": "883400862", "name": "MIDWOOD SPECIAL EDUCATION SERVICES INC", "city": "BROOKLYN", "state": "NY", "zip": "11230-3601", "ntee": "T30", "ruling": "202211", "deductibility": "1", "assets": 406230, "income": 2472101, "revenue": 2472101}, {"ein": "911917512", "name": "QUEENS COLLEGE SPECIAL PROJECTS FUND INC", "city": "FLUSHING", "state": "NY", "zip": "11367-1597", "ntee": "T50Z", "ruling": "199808", "deductibility": "1", "assets": 48268541, "income": 6638360, "revenue": 6638360}, {"ein": "920270897", "name": "ARYEHS SPECIAL SMILE INC", "city": "BROOKLYN", "state": "NY", "zip": "11203-2225", "ntee": "P50", "ruling": "202210", "deductibility": "1", "assets": 0, "income": 0, "revenue": 0}, {"ein": "921181490", "name": "TITUS SPECIAL EDUCATION ADVOCACY GROUP INC", "city": "NEW YORK", "state": "NY", "zip": "10038-0000", "ntee": "B28", "ruling": "202311", "deductibility": "1", "assets": 250000, "income": 250000, "revenue": 250000}, {"ein": "921702192", "name": "MY SPECIAL NEEDS MOMENT INC", "city": "CAMBRIA HTS", "state": "NY", "zip": "11411-1835", "ntee": "F99", "ruling": "202412", "deductibility": "1", "assets": 365, "income": 13500, "revenue": 13500}, {"ein": "921757955", "name": "FDNY FAMILIES WITH SPECIAL NEEDS GROUP INC", "city": "NEW YORK", "state": "NY", "zip": "11694-0000", "ntee": "T50", "ruling": "202303", "deductibility": "1", "assets": 0, "income": 0, "revenue": 0}, {"ein": "921851295", "name": "MULTILEVEL FITNESS 4 SPECIAL KIDS FOUNDATION", "city": "LONG IS CITY", "state": "NY", "zip": "11101-3376", "ntee": "O12", "ruling": "202405", "deductibility": "1", "assets": 0, "income": 0, "revenue": 0}, {"ein": "922691481", "name": "SAVED FOR SPECIAL NEEDS", "city": "COMMACK", "state": "NY", "zip": "11725-4658", "ntee": "P20", "ruling": "202504", "deductibility": "1", "assets": 0, "income": 0, "revenue": 0}, {"ein": "932059920", "name": "DEER PARK SPECIAL EDUCATION PARENT FACULTY CLUB", "city": "DEER PARK", "state": "NY", "zip": "11729-3205", "ntee": "", "ruling": "202309", "deductibility": "1", "assets": 0, "income": 0, "revenue": 0}, {"ein": "990828879", "name": "SPECIAL HARMONY INC", "city": "VALLEY STREAM", "state": "NY", "zip": "11581-3541", "ntee": "B03", "ruling": "202404", "deductibility": "1", "assets": 0, "income": 0, "revenue": 0}, {"ein": "991478433", "name": "ALL THINGS SPECIAL INC", "city": "BROOKLYN", "state": "NY", "zip": "11219-1401", "ntee": "O99", "ruling": "202404", "deductibility": "1", "assets": 2131, "income": 292828, "revenue": 292828}, {"ein": "991580540", "name": "APRILES MEMORIAL FRENCH BULLDOGS SPECIAL NEEDS SUPPORT SERVICES", "city": "NEW YORK", "state": "NY", "zip": "10075-0245", "ntee": "D20", "ruling": "202403", "deductibility": "1", "assets": 0, "income": 0, "revenue": 0}, {"ein": "994331926", "name": "WILLIAM FLOYD SPECIAL EDUCATION PTO", "city": "MASTIC BEACH", "state": "NY", "zip": "11951-1028", "ntee": "B28", "ruling": "202410", "deductibility": "1", "assets": 0, "income": 0, "revenue": 0}, {"ein": "994513801", "name": "FLOWER CITY SPECIAL HOCKEY INC", "city": "W HENRIETTA", "state": "NY", "zip": "14586-9481", "ntee": "N68", "ruling": "202410", "deductibility": "1", "assets": 0, "income": 0, "revenue": 0}, {"ein": "994895873", "name": "MOUNT SINAI SPECIAL EDUCATION PARENT TEACHER ORGANIZATION", "city": "MOUNT SINAI", "state": "NY", "zip": "11766-2801", "ntee": "B01", "ruling": "202409", "deductibility": "1", "assets": 9217, "income": 9727, "revenue": 9727}], "INTERNATIONALS": [{"ein": "030547067", "name": "INTERNATIONALS NETWORK FOR PUBLIC SCHOOLS INC", "city": "LONG ISLAND CITY", "state": "NY", "zip": "11101-2813", "ntee": "", "ruling": "200504", "deductibility": "1", "assets": 6970066, "income": 3684742, "revenue": 3684742}], "MADNI": [{"ein": "050573905", "name": "AL-MADNI INC", "city": "EAST ELMHURST", "state": "NY", "zip": "11369-1014", "ntee": "X40", "ruling": "200406", "deductibility": "1", "assets": 0, "income": 0, "revenue": 0}, {"ein": "134139893", "name": "MADNI MASJID OF BRONX INC", "city": "BRONX", "state": "NY", "zip": "10462-2749", "ntee": "X40", "ruling": "200205", "deductibility": "1", "assets": 0, "income": 0, "revenue": 0}], "BON": [{"ein": "061370576", "name": "BON SECOURS CHARITY HEALTH SYSTEM INC", "city": "WARWICK", "state": "NY", "zip": "10990-1035", "ntee": "E91", "ruling": "201311", "deductibility": "1", "assets": 21915375, "income": 9542748, "revenue": 0}, {"ein": "061381994", "name": "BON SECOURS CHARITY HEALTH SYSTEMS INC", "city": "WARWICK", "state": "NY", "zip": "10990-1014", "ntee": "X200", "ruling": "201104", "deductibility": "1", "assets": 0, "income": 0, "revenue": 0}, {"ein": "112521912", "name": "MISSION EVANGELIQUE DE L EGLISE LE BON SAMARITAIN INC", "city": "BROOKLYN", "state": "NY", "zip": "11238-5103", "ntee": "", "ruling": "198006", "deductibility": "1", "assets": 0, "income": 0, "revenue": 0}, {"ein": "113476270", "name": "EGLISE DE DIEU DU BON SAMARITAIN DE MIDDLE ISLAND INC", "city": "CORAM", "state": "NY", "zip": "11727-3359", "ntee": "X21", "ruling": "200910", "deductibility": "1", "assets": 0, "income": 0, "revenue": 0}, {"ein": "131740104", "name": "BON SECOURS CHARITY HEALTH SYSTEM INC", "city": "SUFFERN", "state": "NY", "zip": "10901-4812", "ntee": "E21", "ruling": "201311", "deductibility": "1", "assets": 0, "income": 0, "revenue": 0}, {"ein": "131740397", "name": "BON SECOURS NEW YORK HEALTH SYSTEM INC", "city": "BRONX", "state": "NY", "zip": "10463-4620", "ntee": "E21", "ruling": "201105", "deductibility": "1", "assets": 0, "income": 0, "revenue": 0}, {"ein": "141340100", "name": "BON SECOURS CHARITY HEALTH SYSTEM INC", "city": "WARWICK", "state": "NY", "zip": "10990-1028", "ntee": "E21", "ruling": "201104", "deductibility": "1", "assets": 0, "income": 0, "revenue": 0}, {"ein": "141347717", "name": "BON SECOURS CHARITY HEALTH SYSTEM INC", "city": "PORT JERVIS", "state": "NY", "zip": "12771-2114", "ntee": "E22", "ruling": "201311", "deductibility": "1", "assets": 0, "income": 0, "revenue": 0}, {"ein": "141972807", "name": "BON SECOURS WARWICK HEALTH FOUNDATION", "city": "SUFFERN", "state": "NY", "zip": "10901-4812", "ntee": "", "ruling": "201108", "deductibility": "1", "assets": 1116267, "income": 155075, "revenue": 143190}, {"ein": "223636986", "name": "BON SECOURS CHARITY HEALTH SYSTEM INC", "city": "WARWICK", "state": "NY", "zip": "10990-1035", "ntee": "E30", "ruling": "201104", "deductibility": "2", "assets": 0, "income": 0, "revenue": 0}, {"ein": "274642665", "name": "EGLISE EVANGELIQUE DU BON SAMARITAIN INC", "city": "ELMONT", "state": "NY", "zip": "11003-4240", "ntee": "X21", "ruling": "201110", "deductibility": "1", "assets": 0, "income": 0, "revenue": 0}, {"ein": "452964467", "name": "BON SECOURS CHARITY HEALTH SYSTEM AFFILIATED GROUP", "city": "SUFFERN", "state": "NY", "zip": "10901-4812", "ntee": "E21", "ruling": "201104", "deductibility": "1", "assets": 282247828, "income": 637082263, "revenue": 636407693}, {"ein": "810667395", "name": "BON SECOURS COMMUNITY HOSPITAL FOUNDATION", "city": "SUFFERN", "state": "NY", "zip": "10901-4812", "ntee": "E112", "ruling": "200504", "deductibility": "1", "assets": 1722472, "income": 75722, "revenue": 40235}, {"ein": "912135195", "name": "BON SECOURS CHARITY HEALTH SYSTEM INC", "city": "SUFFERN", "state": "NY", "zip": "10901-4812", "ntee": "E21", "ruling": "201104", "deductibility": "1", "assets": 94158586, "income": 45877, "revenue": 45877}, {"ein": "933291797", "name": "BON CHONG LING INC", "city": "WOODSIDE", "state": "NY", "zip": "11377-3435", "ntee": "S19", "ruling": "202402", "deductibility": "1", "assets": 1, "income": 1, "revenue": 0}, {"ein": "954275835", "name": "BON FOUNDATION", "city": "CORNING", "state": "NY", "zip": "14830-9403", "ntee": "", "ruling": "199009", "deductibility": "1", "assets": 95459, "income": 39863, "revenue": 39863}], "JENNIFER": [{"ein": "061600450", "name": "JENNIFER AND THOMAS BELL FAMILY FOUNDATION", "city": "ALBANY", "state": "NY", "zip": "12212-5201", "ntee": "T20", "ruling": "200101", "deductibility": "0", "assets": 2578101, "income": 2531325, "revenue": 0}, {"ein": "133985910", "name": "JENNIFER OINES MEMORIAL SCHOLARSHIP FUND", "city": "STATEN ISLAND", "state": "NY", "zip": "10308-2736", "ntee": "B82", "ruling": "199807", "deductibility": "1", "assets": 67459, "income": 9032, "revenue": 9032}, {"ein": "200618456", "name": "ROBERT AND JENNIFER DIAMOND FAMILY FOUNDATION", "city": "MELVILLE", "state": "NY", "zip": "11747-4810", "ntee": "T20", "ruling": "200412", "deductibility": "1", "assets": 722829, "income": 732101, "revenue": 0}, {"ein": "201877079", "name": "HOWARD AND JENNIFER MICHAELS FAMILY FOUNDATION INC", "city": "NEW YORK", "state": "NY", "zip": "10017-0000", "ntee": "T20", "ruling": "200412", "deductibility": "1", "assets": 1467252, "income": 285139, "revenue": 0}, {"ein": "201897019", "name": "JENNIFER DELL FOUNDATION INC", "city": "GOLDENS BRG", "state": "NY", "zip": "10526-1207", "ntee": "A62", "ruling": "200504", "deductibility": "1", "assets": 0, "income": 0, "revenue": 0}, {"ein": "206656081", "name": "OWEN D & JENNIFER THOMAS CHARITABLE TR", "city": "BRONXVILLE", "state": "NY", "zip": "10708-4202", "ntee": "T22", "ruling": "200602", "deductibility": "1", "assets": 17111295, "income": 8717066, "revenue": 0}, {"ein": "276692318", "name": "MICHAEL WARD AND JENNIFER GLOCK FOUNDATION", "city": "ALBANY", "state": "NY", "zip": "12212-5201", "ntee": "T20", "ruling": "201009", "deductibility": "1", "assets": 12462406, "income": 4038221, "revenue": 0}, {"ein": "452258060", "name": "MARC AND JENNIFER LIPSCHULTZ FAMILY FOUNDATION", "city": "SARATOGA SPGS", "state": "NY", "zip": "12866-2386", "ntee": "T20", "ruling": "201106", "deductibility": "1", "assets": 8761395, "income": 7671732, "revenue": 0}, {"ein": "800464952", "name": "JENNIFER AND JONATHAN ALLAN SOROS FOUNDATION", "city": "NEW YORK", "state": "NY", "zip": "10106-0000", "ntee": "T22", "ruling": "201003", "deductibility": "1", "assets": 256684495, "income": 14634500, "revenue": 0}, {"ein": "812556793", "name": "JENNIFER C LEPERA MEMORIAL FOUNDATION INC", "city": "WAPPINGERS FL", "state": "NY", "zip": "12590-0332", "ntee": "E86", "ruling": "201612", "deductibility": "1", "assets": 24925, "income": 10386, "revenue": 10386}, {"ein": "831600950", "name": "JENNIFER FORD BERRY MINISTRIES INC", "city": "ATTICA", "state": "NY", "zip": "14011-9440", "ntee": "X99", "ruling": "201902", "deductibility": "1", "assets": 1429, "income": 19893, "revenue": 0}, {"ein": "883280013", "name": "JENNIFER M CZARNECKI FDN INC", "city": "LAKEVIEW", "state": "NY", "zip": "14085-9570", "ntee": "P19", "ruling": "202209", "deductibility": "1", "assets": 0, "income": 0, "revenue": 0}], "TRAILS": [{"ein": "061619893", "name": "MID-HUDSON HORSE TRAILS ASSOCIATION INC", "city": "GOSHEN", "state": "NY", "zip": "10924-5108", "ntee": "N32", "ruling": "201112", "deductibility": "1", "assets": 0, "income": 0, "revenue": 0}, {"ein": "113444548", "name": "EAST HAMPTON TRAILS PRESERVATION SOCIETY INC", "city": "AMAGANSETT", "state": "NY", "zip": "11930-2144", "ntee": "N32", "ruling": "200003", "deductibility": "1", "assets": 0, "income": 0, "revenue": 0}, {"ein": "141753475", "name": "PARKS & TRAILS NEW YORK INC", "city": "ALBANY", "state": "NY", "zip": "12207-2107", "ntee": "N320", "ruling": "199610", "deductibility": "1", "assets": 2784881, "income": 2244216, "revenue": 2192007}, {"ein": "161283300", "name": "FRIENDS OF ROCK RIDGES NATURE TRAILS INC", "city": "THOUSAND ISLANDS PARK", "state": "NY", "zip": "13692-0000", "ntee": "", "ruling": "199103", "deductibility": "1", "assets": 0, "income": 0, "revenue": 0}, {"ein": "161452778", "name": "CHAUTAUQUA RAILS TO TRAILS INC", "city": "MAYVILLE", "state": "NY", "zip": "14757-0151", "ntee": "C500", "ruling": "199405", "deductibility": "1", "assets": 0, "income": 0, "revenue": 0}, {"ein": "161461193", "name": "VICTOR HIKING TRAILS INC", "city": "VICTOR", "state": "NY", "zip": "14564-1301", "ntee": "", "ruling": "199406", "deductibility": "1", "assets": 32231, "income": 31251, "revenue": 31251}, {"ein": "161591922", "name": "ALLEGANY TRAILS INC", "city": "WELLSVILLE", "state": "NY", "zip": "14895-0066", "ntee": "N99", "ruling": "202001", "deductibility": "1", "assets": 10706, "income": 0, "revenue": 0}, {"ein": "205392261", "name": "NORTH COUNTRY TRAILS ASSOCIATIONINC", "city": "BEDFORD HILLS", "state": "NY", "zip": "10507-1834", "ntee": "C34", "ruling": "200611", "deductibility": "1", "assets": 34377, "income": 60783, "revenue": 60783}, {"ein": "237077837", "name": "NORTH SALEM BRIDLE TRAILS ASSOCIATION INC", "city": "NORTH SALEM", "state": "NY", "zip": "10560-0585", "ntee": "", "ruling": "197012", "deductibility": "1", "assets": 328347, "income": 89887, "revenue": 89887}, {"ein": "263516018", "name": "CATSKILLS LIVE - TRAILS & WILDERNESS ASSOCIATION", "city": "MOUNT TREMPER", "state": "NY", "zip": "12457-0015", "ntee": "C34", "ruling": "201003", "deductibility": "1", "assets": 0, "income": 0, "revenue": 0}, {"ein": "264004845", "name": "CHAMPLAIN AREA TRAILS INC", "city": "WESTPORT", "state": "NY", "zip": "12993-0193", "ntee": "N32", "ruling": "200906", "deductibility": "1", "assets": 1206317, "income": 805250, "revenue": 805250}, {"ein": "272074047", "name": "FRIENDS OF WEBSTER TRAILS INC", "city": "WEBSTER", "state": "NY", "zip": "14580-9777", "ntee": "N32", "ruling": "201201", "deductibility": "1", "assets": 0, "income": 0, "revenue": 0}, {"ein": "364738524", "name": "FRANKLIN COUNTY RECREATIONAL TRAILS ASSOCIATION INC", "city": "MALONE", "state": "NY", "zip": "12953-9445", "ntee": "N99", "ruling": "201409", "deductibility": "1", "assets": 0, "income": 0, "revenue": 0}, {"ein": "472238055", "name": "FRIENDS OF HAMMONDSPORT AREA TRAILS & PARKS INC", "city": "HAMMONDSPORT", "state": "NY", "zip": "14840-0503", "ntee": "C34", "ruling": "201812", "deductibility": "1", "assets": 0, "income": 0, "revenue": 0}, {"ein": "472950181", "name": "TORAH TRAILS", "city": "SPRING VALLEY", "state": "NY", "zip": "10977-2010", "ntee": "O50", "ruling": "201503", "deductibility": "1", "assets": 0, "income": 0, "revenue": 0}, {"ein": "473975424", "name": "UPPER HUDSON TRAILS ALLIANCE", "city": "NORTH RIVER", "state": "NY", "zip": "12856-0073", "ntee": "N01", "ruling": "201509", "deductibility": "1", "assets": 0, "income": 0, "revenue": 0}, {"ein": "510559437", "name": "DEERFIELD SNOW TRAILS INC", "city": "MARCY", "state": "NY", "zip": "13403-0323", "ntee": "N30", "ruling": "201410", "deductibility": "1", "assets": 0, "income": 0, "revenue": 0}, {"ein": "831798734", "name": "PENOBSCOT RIVER TRAILS INC", "city": "GREAT NECK", "state": "NY", "zip": "11021-3104", "ntee": "C34", "ruling": "201906", "deductibility": "1", "assets": 20562756, "income": 939733, "revenue": 0}, {"ein": "833696458", "name": "ARTISAN TRAILS IN WASHINGTON COUNTY INC", "city": "ARGYLE", "state": "NY", "zip": "12809-0281", "ntee": "A26", "ruling": "201903", "deductibility": "1", "assets": 0, "income": 0, "revenue": 0}, {"ein": "834422761", "name": "KIRKLAND TRAILS INC", "city": "CLINTON", "state": "NY", "zip": "13323-0086", "ntee": "N30", "ruling": "202005", "deductibility": "1", "assets": 219323, "income": 157349, "revenue": 157349}, {"ein": "842624947", "name": "ADIRONDACK FOOTHILLS TRAILS ALLIANCE INC", "city": "OLD FORGE", "state": "NY", "zip": "13420-0415", "ntee": "N01", "ruling": "201909", "deductibility": "1", "assets": 0, "income": 0, "revenue": 0}, {"ein": "871881478", "name": "IMPACT FRIENDS IMPROVING ALLEGANY COUNTY TRAILS", "city": "BELMONT", "state": "NY", "zip": "14813-9539", "ntee": "C30", "ruling": "202201", "deductibility": "1", "assets": 0, "income": 0, "revenue": 0}, {"ein": "883842494", "name": "FRIENDS OF COLONIE TOWN PARK TRAILS", "city": "ALBANY", "state": "NY", "zip": "12211-1316", "ntee": "N50", "ruling": "202209", "deductibility": "1", "assets": 0, "income": 0, "revenue": 0}, {"ein": "934402016", "name": "SAUGERTIES TRAILS ALLIANCE INC", "city": "SAUGERTIES", "state": "NY", "zip": "12477-1122", "ntee": "N01", "ruling": "202312", "deductibility": "1", "assets": 0, "income": 0, "revenue": 0}, {"ein": "990480393", "name": "SARATOGA TRAILS ALLIANCE", "city": "PORTER CORS", "state": "NY", "zip": "12859-1908", "ntee": "C01", "ruling": "202401", "deductibility": "1", "assets": 15416, "income": 37100, "revenue": 37100}], "BUTTERFLIES": [{"ein": "061732712", "name": "BUTTERFLIES FROM JODIE", "city": "NEW ROCHELLE", "state": "NY", "zip": "10801-1810", "ntee": "T12", "ruling": "200906", "deductibility": "1", "assets": 699455, "income": 76571, "revenue": 55083}, {"ein": "061784985", "name": "BUTTERFLIES USA INC", "city": "NEW YORK", "state": "NY", "zip": "10159-0272", "ntee": "P20", "ruling": "201407", "deductibility": "1", "assets": 47975, "income": 68168, "revenue": 68168}, {"ein": "454874876", "name": "BUTTERFLIES BY BLAQ INCORPORATED", "city": "ST ALBANS", "state": "NY", "zip": "11412-3022", "ntee": "G32", "ruling": "201403", "deductibility": "1", "assets": 0, "income": 0, "revenue": 0}, {"ein": "822829928", "name": "AMARAS BUTTERFLIES FOUNDATION INC", "city": "PATCHOGUE", "state": "NY", "zip": "11772-7601", "ntee": "G98", "ruling": "201805", "deductibility": "1", "assets": 0, "income": 0, "revenue": 0}, {"ein": "831164457", "name": "NATHANS BUTTERFLIES", "city": "APALACHIN", "state": "NY", "zip": "13732-3825", "ntee": "O50", "ruling": "201808", "deductibility": "1", "assets": 0, "income": 0, "revenue": 0}, {"ein": "923516277", "name": "MILLIONS OF BUTTERFLIES", "city": "NEW PALTZ", "state": "NY", "zip": "12561-4512", "ntee": "P45", "ruling": "202305", "deductibility": "1", "assets": 0, "income": 0, "revenue": 0}, {"ein": "923716098", "name": "EBONY BUTTERFLIES INC", "city": "NEW ROCHELLE", "state": "NY", "zip": "10801-7101", "ntee": "O50", "ruling": "202306", "deductibility": "1", "assets": 1, "income": 1, "revenue": 0}], "ASCENSION": [{"ein": "111665826", "name": "CHURCH OF THE ASCENSION", "city": "ROCKVILLE CTR", "state": "NY", "zip": "11570-4605", "ntee": "", "ruling": "197206", "deductibility": "1", "assets": 0, "income": 0, "revenue": 0}, {"ein": "111681131", "name": "ASCENSION LUTHERN CHURCH FRANKLIN", "city": "FRANKLIN SQ", "state": "NY", "zip": "11010-1434", "ntee": "", "ruling": "000000", "deductibility": "1", "assets": 0, "income": 0, "revenue": 0}, {"ein": "112025980", "name": "ASCENSION LUTHERAN CHURCH", "city": "JAMAICA", "state": "NY", "zip": "11435-1217", "ntee": "", "ruling": "194107", "deductibility": "1", "assets": 0, "income": 0, "revenue": 0}, {"ein": "112667107", "name": "CHURCH OF THE ASCENSION", "city": "BROOKLYN", "state": "NY", "zip": "11222-2103", "ntee": "", "ruling": "197206", "deductibility": "1", "assets": 0, "income": 0, "revenue": 0}, {"ein": "131628191", "name": "ROMAN CATHOLIC CHURCH OF THE ASCENSION", "city": "NEW YORK", "state": "NY", "zip": "10025-3020", "ntee": "", "ruling": "194603", "deductibility": "1", "assets": 0, "income": 0, "revenue": 0}, {"ein": "133668472", "name": "VOICES OF ASCENSION INC", "city": "NEW YORK", "state": "NY", "zip": "10011-8778", "ntee": "A60Z", "ruling": "199208", "deductibility": "1", "assets": 3404739, "income": 2213224, "revenue": 1531863}, {"ein": "160814004", "name": "ASCENSION", "city": "BATAVIA", "state": "NY", "zip": "14020-3634", "ntee": "", "ruling": "194603", "deductibility": "1", "assets": 0, "income": 0, "revenue": 0}, {"ein": "160974795", "name": "ASCENSION LUTHERAN CHURCH NURSERY SCHOOL", "city": "ROME", "state": "NY", "zip": "13440-1947", "ntee": "", "ruling": "198804", "deductibility": "1", "assets": 0, "income": 0, "revenue": 0}, {"ein": "205871993", "name": "ASCENSION OUTREACH INCORPORATED", "city": "NEW YORK", "state": "NY", "zip": "10011-8778", "ntee": "E70", "ruling": "201709", "deductibility": "1", "assets": 0, "income": 0, "revenue": 0}, {"ein": "237103125", "name": "EVANGELICAL LUTHERAN CHURCH OF THE ASCENSION", "city": "FRANKLIN SQUARE", "state": "NY", "zip": "11010-0000", "ntee": "", "ruling": "197103", "deductibility": "1", "assets": 0, "income": 0, "revenue": 0}, {"ein": "332060812", "name": "FRIENDS OF ASCENSION INC", "city": "BATAVIA", "state": "NY", "zip": "14020-3411", "ntee": "X11", "ruling": "202412", "deductibility": "1", "assets": 0, "income": 0, "revenue": 0}, {"ein": "463146286", "name": "ASCENSION SOCIETY", "city": "BROOKLYN", "state": "NY", "zip": "11218-0011", "ntee": "E60", "ruling": "202106", "deductibility": "1", "assets": 0, "income": 0, "revenue": 0}, {"ein": "522397087", "name": "ASCENSION CHURCH", "city": "FOREST HILLS", "state": "NY", "zip": "11375-6622", "ntee": "", "ruling": "197404", "deductibility": "1", "assets": 0, "income": 0, "revenue": 0}, {"ein": "812756467", "name": "RESURRECTION ASCENSION CATHOLIC ACADEMY", "city": "REGO PARK", "state": "NY", "zip": "11374-2733", "ntee": "", "ruling": "194603", "deductibility": "1", "assets": 0, "income": 0, "revenue": 0}, {"ein": "824303647", "name": "MISION LATINA DE ASCENSION", "city": "DEER PARK", "state": "NY", "zip": "11729-6601", "ntee": "", "ruling": "198804", "deductibility": "1", "assets": 0, "income": 0, "revenue": 0}, {"ein": "923571304", "name": "ASCENSION VILLAGE INC", "city": "ROSEDALE", "state": "NY", "zip": "11422-2411", "ntee": "F60", "ruling": "202305", "deductibility": "1", "assets": 0, "income": 0, "revenue": 0}], "JACOBUS": [{"ein": "111674393", "name": "ST JACOBUS EVANGELICAL LUTHERAN CH OF THE UNALTERED AUGSBURG CONFE", "city": "WOODSIDE", "state": "NY", "zip": "11377-3949", "ntee": "", "ruling": "198804", "deductibility": "1", "assets": 0, "income": 0, "revenue": 0}], "CORNER": [{"ein": "111807542", "name": "CORNER SCHOOL", "city": "FLUSHING", "state": "NY", "zip": "11354-2432", "ntee": "B24Z", "ruling": "195912", "deductibility": "1", "assets": 298825, "income": 517303, "revenue": 517303}, {"ein": "133070333", "name": "LA GUARDIA CORNER GARDENS INC", "city": "NEWYORKCITY", "state": "NY", "zip": "10012-0002", "ntee": "C99", "ruling": "201408", "deductibility": "1", "assets": 0, "income": 0, "revenue": 0}, {"ein": "133182064", "name": "ARMONK CHILDRENS CORNER INC", "city": "ARMONK", "state": "NY", "zip": "10504-2102", "ntee": "", "ruling": "198505", "deductibility": "1", "assets": 769039, "income": 883057, "revenue": 883057}, {"ein": "133724008", "name": "ST ANNS CORNER OF HARM REDUCTION INC", "city": "BRONX", "state": "NY", "zip": "10459-4010", "ntee": "", "ruling": "199408", "deductibility": "1", "assets": 4580958, "income": 5260037, "revenue": 5144690}, {"ein": "133770169", "name": "CORNER HOUSE HOUSING DEVELOPMENT FUND CORPORATION", "city": "BROOKLYN", "state": "NY", "zip": "11232-2549", "ntee": "L21", "ruling": "201308", "deductibility": "1", "assets": 1591051, "income": 600915, "revenue": 600915}, {"ein": "141683314", "name": "POOHS CORNER INC", "city": "SCHENECTADY", "state": "NY", "zip": "12304-2247", "ntee": "P33Z", "ruling": "198709", "deductibility": "1", "assets": 185346, "income": 358915, "revenue": 358188}, {"ein": "161116690", "name": "HARRIS CORNER FIRE DEPARTMENT INC", "city": "COWLESVILLE", "state": "NY", "zip": "14037-9714", "ntee": "M24", "ruling": "201301", "deductibility": "1", "assets": 295552, "income": 152317, "revenue": 111753}, {"ein": "161554791", "name": "KITTY CORNER OF CNY INC", "city": "LIVERPOOL", "state": "NY", "zip": "13088-4932", "ntee": "D20", "ruling": "199908", "deductibility": "1", "assets": 62544, "income": 87395, "revenue": 87395}, {"ein": "260149521", "name": "STREET CORNER RESOURCE", "city": "NEW YORK", "state": "NY", "zip": "10039-4214", "ntee": "P20", "ruling": "200909", "deductibility": "1", "assets": 1239654, "income": 2567299, "revenue": 2567299}, {"ein": "270738915", "name": "CORNER STONE EVANGELICAL CHURCH INC", "city": "BROOKLYN", "state": "NY", "zip": "11236-5106", "ntee": "X21", "ruling": "201407", "deductibility": "1", "assets": 0, "income": 0, "revenue": 0}, {"ein": "273648623", "name": "DENIS E DILLON CORNER MANS FOUNDATION INC", "city": "WESTBURY", "state": "NY", "zip": "11590-2238", "ntee": "N60", "ruling": "202305", "deductibility": "1", "assets": 0, "income": 0, "revenue": 0}, {"ein": "464108014", "name": "CORNER STONE CHURCH OF GOD", "city": "W HEMPSTEAD", "state": "NY", "zip": "11552-1536", "ntee": "", "ruling": "197210", "deductibility": "1", "assets": 0, "income": 128628, "revenue": 128628}, {"ein": "464340215", "name": "CORNER FOUNDATION INC", "city": "NEW YORK", "state": "NY", "zip": "10016-8810", "ntee": "T11", "ruling": "201503", "deductibility": "1", "assets": 15992509, "income": 3246448, "revenue": 0}, {"ein": "471220274", "name": "SPONSORS CORNER INC", "city": "PORT JERVIS", "state": "NY", "zip": "12771-5132", "ntee": "X99", "ruling": "201504", "deductibility": "1", "assets": 0, "income": 0, "revenue": 0}, {"ein": "852544440", "name": "CHEZKYS CORNER INC", "city": "BROOKLYN", "state": "NY", "zip": "11234-3534", "ntee": "O50", "ruling": "202409", "deductibility": "1", "assets": 39902, "income": 13834, "revenue": 13834}, {"ein": "852922653", "name": "HOT CORNER FUTURES FOUNDATION INC", "city": "LOCKPORT", "state": "NY", "zip": "14094-6142", "ntee": "N63", "ruling": "202108", "deductibility": "1", "assets": 0, "income": 0, "revenue": 0}, {"ein": "883717873", "name": "KYLES COZY CORNER REHAB AND RESCUE INC", "city": "ROCHESTER", "state": "NY", "zip": "14624-1632", "ntee": "D20", "ruling": "202406", "deductibility": "1", "assets": 0, "income": 0, "revenue": 0}, {"ein": "933379110", "name": "WNY COACHES CORNER INC", "city": "BUFFALO", "state": "NY", "zip": "14209-1713", "ntee": "B90", "ruling": "202502", "deductibility": "1", "assets": 0, "income": 0, "revenue": 0}, {"ein": "933790515", "name": "HOT CORNER CHARITIES INC", "city": "STATEN ISLAND", "state": "NY", "zip": "10301-2840", "ntee": "T50", "ruling": "202310", "deductibility": "1", "assets": 0, "income": 0, "revenue": 0}, {"ein": "934719771", "name": "KIMMYS KITTY CORNER INC", "city": "EAGLE BRIDGE", "state": "NY", "zip": "12057-3218", "ntee": "D20", "ruling": "202312", "deductibility": "1", "assets": 0, "income": 0, "revenue": 0}, {"ein": "991728344", "name": "DAUGHTERS OF THE CORNER", "city": "BROOKLYN", "state": "NY", "zip": "11210-3481", "ntee": "R01", "ruling": "202403", "deductibility": "1", "assets": 0, "income": 0, "revenue": 0}], "FLATLANDS": [{"ein": "111966510", "name": "THE PROTESTANT DUTCH REFORMED CHURCH OF THE TOWN OF FLATLANDS", "city": "BROOKLYN", "state": "NY", "zip": "11234-2908", "ntee": "", "ruling": "196801", "deductibility": "1", "assets": 0, "income": 0, "revenue": 0}, {"ein": "112832429", "name": "EGLISE DU CHRIST DE FLATLANDS", "city": "BROOKLYN", "state": "NY", "zip": "11210-0545", "ntee": "", "ruling": "199409", "deductibility": "1", "assets": 0, "income": 0, "revenue": 0}, {"ein": "237447977", "name": "CONGREGATION BETH ABRAHAM OF FLATLANDS", "city": "BROOKLYN", "state": "NY", "zip": "11236-3802", "ntee": "", "ruling": "197505", "deductibility": "1", "assets": 0, "income": 0, "revenue": 0}, {"ein": "510138370", "name": "FLATLANDS VOLUNTEER AMBULANCE & FIRST AID CORPS INC", "city": "BROOKLYN", "state": "NY", "zip": "11234-3614", "ntee": "E62", "ruling": "201709", "deductibility": "1", "assets": 1, "income": 199167, "revenue": 199167}, {"ein": "884231778", "name": "FLATLANDS COMMUNITY PARTNERSHIP INC", "city": "BROOKLYN", "state": "NY", "zip": "11210-4924", "ntee": "R99", "ruling": "202212", "deductibility": "1", "assets": 0, "income": 0, "revenue": 0}], "EDMUND": [{"ein": "112125611", "name": "DENIS MALONEY INSTITUTE-ST EDMUND PREPARATORY HIGH SCHOOL", "city": "BROOKLYN", "state": "NY", "zip": "11229-3916", "ntee": "", "ruling": "194603", "deductibility": "1", "assets": 0, "income": 0, "revenue": 0}, {"ein": "133339948", "name": "NEVE YOSEF EDMUND TENNENHAUS", "city": "MONSEY", "state": "NY", "zip": "10952-2528", "ntee": "", "ruling": "198607", "deductibility": "1", "assets": 0, "income": 0, "revenue": 0}, {"ein": "136082501", "name": "EDMUND BECK FOUNDATION", "city": "NEW YORK", "state": "NY", "zip": "10017-2431", "ntee": "", "ruling": "195804", "deductibility": "1", "assets": 1940318, "income": 1037185, "revenue": 0}, {"ein": "136104203", "name": "EDMUND C LYNCH FUND", "city": "NEW YORK", "state": "NY", "zip": "10176-0000", "ntee": "", "ruling": "196405", "deductibility": "1", "assets": 376075, "income": 166638, "revenue": 0}, {"ein": "141338387", "name": "EDMUND NILES HUYCK PRESERVE INC", "city": "RENSSELAERVLE", "state": "NY", "zip": "12147-0189", "ntee": "", "ruling": "194302", "deductibility": "1", "assets": 3593868, "income": 548232, "revenue": 548232}, {"ein": "275445207", "name": "SUSAN G AND EDMUND W GORDON COMMUNITY PARTNERSHIP INC", "city": "POMONA", "state": "NY", "zip": "10970-3309", "ntee": "A80", "ruling": "201107", "deductibility": "1", "assets": 0, "income": 0, "revenue": 0}, {"ein": "472970593", "name": "CAROL AND EDMUND BLAKE FOUNDATION", "city": "NEW YORK", "state": "NY", "zip": "10022-0000", "ntee": "T90", "ruling": "201503", "deductibility": "1", "assets": 17064870, "income": 7191763, "revenue": 0}], "YERAIM": [{"ein": "112315789", "name": "CONGREGATION KAHAL YERAIM HALLEIN", "city": "BROOKLYN", "state": "NY", "zip": "11219-3340", "ntee": "", "ruling": "196407", "deductibility": "1", "assets": 0, "income": 0, "revenue": 0}], "ESTAB": [{"ein": "112450792", "name": "IDEAS INSTITUTE FOR DESIGN & ESTAB LISHMENT OF ALTERNATIVE SYST INC", "city": "NEW YORK", "state": "NY", "zip": "10022-6704", "ntee": "", "ruling": "197805", "deductibility": "1", "assets": 104386, "income": 214164, "revenue": 94726}], "VARGHESE": [{"ein": "112462921", "name": "ST BASELIOS ORTHODOX CHURCH OF INDIA C O T V VARGHESE", "city": "BROOKLYN", "state": "NY", "zip": "11215-3614", "ntee": "", "ruling": "197810", "deductibility": "1", "assets": 0, "income": 0, "revenue": 0}], "CROATIAN": [{"ein": "112464900", "name": "CROATIAN RADIO CLUB INC", "city": "ASTORIA", "state": "NY", "zip": "11103-3607", "ntee": "A34", "ruling": "201505", "deductibility": "2", "assets": 346179, "income": 134893, "revenue": 74050}, {"ein": "112948934", "name": "CROATIAN FRATERNAL UNION OF AMERICA", "city": "WHITESTONE", "state": "NY", "zip": "11357-2275", "ntee": "", "ruling": "194104", "deductibility": "1", "assets": 0, "income": 0, "revenue": 0}, {"ein": "113569761", "name": "CROATIAN COMMUNITY OF ASTORIA INC", "city": "ASTORIA", "state": "NY", "zip": "11106-1103", "ntee": "A230", "ruling": "200102", "deductibility": "1", "assets": 66499, "income": 3217, "revenue": 3217}, {"ein": "134035596", "name": "CROATIAN NATIONAL TOURIST OFFICE INC", "city": "NEW YORK", "state": "NY", "zip": "10003-2332", "ntee": "Q21", "ruling": "199907", "deductibility": "2", "assets": 53888, "income": 960483, "revenue": 960483}, {"ein": "136161447", "name": "CROATIAN ACADEMY OF AMERICA INC", "city": "LONG ISLAND CITY", "state": "NY", "zip": "11101-0000", "ntee": "", "ruling": "196307", "deductibility": "1", "assets": 382012, "income": 692, "revenue": 692}, {"ein": "205621020", "name": "CROATIAN AMERICAN GOLF ASSOCIATIONINC", "city": "LONG IS CITY", "state": "NY", "zip": "11105-1005", "ntee": "B99", "ruling": "200810", "deductibility": "1", "assets": 230367, "income": 318520, "revenue": 122880}, {"ein": "222558869", "name": "CROATIAN FRATERNAL UNION OF AMERICA", "city": "KENMORE", "state": "NY", "zip": "14217-1204", "ntee": "", "ruling": "194104", "deductibility": "1", "assets": 0, "income": 0, "revenue": 0}, {"ein": "900846413", "name": "CROATIAN FRATERNAL UNION OF AMERICA", "city": "NORTHPORT", "state": "NY", "zip": "11768-2329", "ntee": "", "ruling": "194104", "deductibility": "1", "assets": 0, "income": 0, "revenue": 0}, {"ein": "991591741", "name": "CROATIAN AMERICAN MEDIA ASSOCIATION CORP", "city": "ASTORIA", "state": "NY", "zip": "11103-0000", "ntee": "A30", "ruling": "202403", "deductibility": "1", "assets": 0, "income": 0, "revenue": 0}], "ASOCIACION": [{"ein": "112548753", "name": "LA ASOCIACION BENEFICA CULTURALFATHER BILLINI", "city": "LYNBROOK", "state": "NY", "zip": "11563-2713", "ntee": "I210", "ruling": "198102", "deductibility": "1", "assets": 60038, "income": 246553, "revenue": 246553}, {"ein": "113035290", "name": "ASOCIACION PRO-BIENESTAR DE JUNCALITO INC", "city": "COPIAGUE", "state": "NY", "zip": "11726-0448", "ntee": "S12", "ruling": "201802", "deductibility": "1", "assets": 0, "income": 0, "revenue": 0}, {"ein": "113493463", "name": "ASOCIACION DE LONG ISLAND DE UNIDAD HISPANA-AMERICANA INC", "city": "JAMAICA", "state": "NY", "zip": "11433-2421", "ntee": "B30", "ruling": "201111", "deductibility": "1", "assets": 0, "income": 0, "revenue": 0}, {"ein": "133059518", "name": "LA ASOCIACION AMERICANA DE ESTUDIOS INC", "city": "NEW YORK", "state": "NY", "zip": "10034-0603", "ntee": "A20", "ruling": "199202", "deductibility": "1", "assets": 447923, "income": 198893, "revenue": 192089}, {"ein": "133741942", "name": "ASOCIACION HISPANA DE PROFESIONALES DE LA SALUD INC", "city": "WOODHAVEN", "state": "NY", "zip": "11421-2720", "ntee": "P20", "ruling": "202402", "deductibility": "1", "assets": 0, "income": 0, "revenue": 0}, {"ein": "134009930", "name": "ASOCIACION TEPEYAC DE NEW YORK", "city": "NEW YORK", "state": "NY", "zip": "10018-9672", "ntee": "P84", "ruling": "199901", "deductibility": "1", "assets": 33660, "income": 82194, "revenue": 82194}, {"ein": "463326603", "name": "ASOCIACION DE SANJUANEROS EN NY INC", "city": "CORONA", "state": "NY", "zip": "11368-1944", "ntee": "A23", "ruling": "201502", "deductibility": "1", "assets": 1, "income": 0, "revenue": 0}, {"ein": "742019804", "name": "ASOCIACION DE ESTUDIOS DE GENERO Y SEXUALIDADES", "city": "HAMILTON", "state": "NY", "zip": "13346-9574", "ntee": "", "ruling": "197908", "deductibility": "1", "assets": 0, "income": 0, "revenue": 0}, {"ein": "814448151", "name": "ASOCIACION DE JINETES DEL PARAGUAY FILIAL NUEVA YORK CORP", "city": "WHITE PLAINS", "state": "NY", "zip": "10603-3607", "ntee": "A20", "ruling": "201703", "deductibility": "1", "assets": 0, "income": 0, "revenue": 0}, {"ein": "831706779", "name": "ASOCIACION DE IGLESIAS EVANGELICAS DE NORTE AMERICA ASIENA", "city": "BRONX", "state": "NY", "zip": "10472-2225", "ntee": "X21", "ruling": "201907", "deductibility": "1", "assets": 0, "income": 0, "revenue": 0}, {"ein": "853859302", "name": "ASOCIACION DE DOMINO DE BUSHWICK AND WILLIAMSBURG", "city": "BROOKLYN", "state": "NY", "zip": "11237-2132", "ntee": "A23", "ruling": "202411", "deductibility": "1", "assets": 0, "income": 0, "revenue": 0}, {"ein": "861662823", "name": "ASOCIACION INTERNACIONAL DE CAPELLA NES ESCOGIDOS PARA SERVIR INC", "city": "ROCHESTER", "state": "NY", "zip": "14615-2346", "ntee": "K30", "ruling": "202402", "deductibility": "1", "assets": 0, "income": 0, "revenue": 0}, {"ein": "883618714", "name": "ASOCIACION EVANGELISTICA CUANDO DIOS LA SANGRE VE INC", "city": "BROOKLYN", "state": "NY", "zip": "11238-1621", "ntee": "X20", "ruling": "202208", "deductibility": "1", "assets": 0, "income": 0, "revenue": 0}, {"ein": "884142418", "name": "ASOCIACION DE PROFESIONALES EN BELLEZA NACIONAL E INTERNACIONAL I", "city": "YONKERS", "state": "NY", "zip": "10701-4878", "ntee": "W03", "ruling": "202402", "deductibility": "1", "assets": 0, "income": 0, "revenue": 0}, {"ein": "922634388", "name": "ASOCIACION DE MUJERES AFRODESCENDIENTES", "city": "BRONX", "state": "NY", "zip": "10453-6822", "ntee": "P20", "ruling": "202309", "deductibility": "1", "assets": 0, "income": 0, "revenue": 0}], "MASHAS": [{"ein": "112556663", "name": "CONGREGATION BETH HALEVY & MASHAS LADIES AUXILIARY", "city": "BROOKLYN", "state": "NY", "zip": "11219-1506", "ntee": "", "ruling": "197002", "deductibility": "1", "assets": 0, "income": 0, "revenue": 0}], "NACHLAT": [{"ein": "112668887", "name": "NACHLAT MOSHE INC", "city": "BROOKLYN", "state": "NY", "zip": "11223-2229", "ntee": "", "ruling": "198403", "deductibility": "1", "assets": 0, "income": 0, "revenue": 0}, {"ein": "113535088", "name": "NACHLAT YEHOSHUA", "city": "NEW YORK", "state": "NY", "zip": "10001-5304", "ntee": "X30", "ruling": "200008", "deductibility": "1", "assets": 0, "income": 0, "revenue": 0}, {"ein": "133178045", "name": "YESHIVA NACHLAT MOSHE INC", "city": "NEW YORK", "state": "NY", "zip": "10012-3225", "ntee": "", "ruling": "198310", "deductibility": "1", "assets": 0, "income": 0, "revenue": 0}, {"ein": "137131323", "name": "YESHIVAT NACHLAT HALVIIM TR", "city": "NEW YORK", "state": "NY", "zip": "10019-0000", "ntee": "Q12", "ruling": "199911", "deductibility": "1", "assets": 7681, "income": 2079632, "revenue": 2079632}, {"ein": "264616219", "name": "NACHLAT MEIR INSTITUTIONS INC", "city": "BROOKLYN", "state": "NY", "zip": "11230-5701", "ntee": "X11", "ruling": "200909", "deductibility": "1", "assets": 3653, "income": 55716, "revenue": 55716}, {"ein": "461823199", "name": "AMERICAN FRIENDS OF YESHIVAT NACHLAT MOSHE", "city": "BROOKLYN", "state": "NY", "zip": "11230-6539", "ntee": "X30", "ruling": "201408", "deductibility": "1", "assets": 2378385, "income": 2397447, "revenue": 2397447}], "TRIBES": [{"ein": "112780750", "name": "12 TRIBES OF ISRAEL U S A INC", "city": "SPRINGFIELD GDNS", "state": "NY", "zip": "11413-1054", "ntee": "", "ruling": "199111", "deductibility": "1", "assets": 0, "income": 0, "revenue": 0}, {"ein": "133714232", "name": "GATHERING OF THE TRIBES", "city": "BROOKLYN", "state": "NY", "zip": "11237-2561", "ntee": "A20", "ruling": "201506", "deductibility": "1", "assets": 1, "income": 73513, "revenue": 73513}, {"ein": "134141050", "name": "12 TRIBES OF ISRAEL INC", "city": "MOUNT VERNON", "state": "NY", "zip": "10553-1818", "ntee": "X30", "ruling": "200111", "deductibility": "1", "assets": 0, "income": 0, "revenue": 0}, {"ein": "141720252", "name": "GOOD NEWS-HOLY BIBLE CHURCH MOHAWK DR TRIBES HILL NY", "city": "FULTONVILLE", "state": "NY", "zip": "12072-0000", "ntee": "", "ruling": "199101", "deductibility": "1", "assets": 0, "income": 0, "revenue": 0}, {"ein": "474742565", "name": "TRIBES HILL HERITAGE CENTER", "city": "TRIBES HILL", "state": "NY", "zip": "12177-0000", "ntee": "A23", "ruling": "201508", "deductibility": "1", "assets": 13040, "income": 190897, "revenue": 190897}, {"ein": "833258482", "name": "OUR UNITED TRIBES", "city": "NEW PALTZ", "state": "NY", "zip": "12561-4100", "ntee": "S11", "ruling": "202011", "deductibility": "2", "assets": 0, "income": 0, "revenue": 0}], "HAHN": [{"ein": "112806815", "name": "THE HAHN KOREAN CHURCH", "city": "FLUSHING", "state": "NY", "zip": "11368-1117", "ntee": "", "ruling": "198611", "deductibility": "1", "assets": 0, "income": 0, "revenue": 0}, {"ein": "206541898", "name": "MIRIAM E HAHN TR UA FBO YORK LUTHERAN HOME", "city": "BUFFALO", "state": "NY", "zip": "14240-1504", "ntee": "T20", "ruling": "200610", "deductibility": "1", "assets": 213897, "income": 72217, "revenue": 0}, {"ein": "207376988", "name": "MELISSA AND DOUG HAHN CHARITABLE TR", "city": "NEW YORK", "state": "NY", "zip": "10023-8260", "ntee": "T21", "ruling": "200708", "deductibility": "1", "assets": 600, "income": 1, "revenue": 0}, {"ein": "770478012", "name": "HAHN-BLOCK FAMILY FOUNDATION", "city": "GARDEN CITY", "state": "NY", "zip": "11530-1650", "ntee": "T20Z", "ruling": "199804", "deductibility": "1", "assets": 4554699, "income": 803005, "revenue": 0}, {"ein": "926280776", "name": "KIM AND HAHN CHARITABLE TR", "city": "MANLIUS", "state": "NY", "zip": "13104-2319", "ntee": "T20", "ruling": "202302", "deductibility": "1", "assets": 1, "income": 1, "revenue": 0}], "EMECHU": [{"ein": "112815905", "name": "TORAS EMECHU C/O ABRAHAM LEITNER", "city": "BROOKLYN", "state": "NY", "zip": "11211-8006", "ntee": "", "ruling": "198609", "deductibility": "1", "assets": 0, "income": 0, "revenue": 0}], "HAMEIER": [{"ein": "112856658", "name": "CONGREGATION BAIS YISROEL VOHR HAMEIER", "city": "BROOKLYN", "state": "NY", "zip": "11211-8118", "ntee": "", "ruling": "198706", "deductibility": "1", "assets": 0, "income": 0, "revenue": 0}], "BURSHTIN": [{"ein": "112858305", "name": "YESHIVA OR HATORAH BURSHTIN", "city": "BROOKLYN", "state": "NY", "zip": "11219-4509", "ntee": "", "ruling": "198706", "deductibility": "1", "assets": 0, "income": 0, "revenue": 0}, {"ein": "113411069", "name": "GEMACH BURSHTIN PODAYETZ", "city": "BROOKLYN", "state": "NY", "zip": "11211-8111", "ntee": "X30Z", "ruling": "199802", "deductibility": "1", "assets": 0, "income": 0, "revenue": 0}], "NASSUA": [{"ein": "112994237", "name": "CLASSIS OF NASSUA-SUFFOLK PARTICULAR SYNOD OF NY REFORMED CH", "city": "MASSAPEQUA", "state": "NY", "zip": "11758-5807", "ntee": "", "ruling": "198601", "deductibility": "1", "assets": 0, "income": 0, "revenue": 0}, {"ein": "116030578", "name": "NASSUA COUNTY COMMITTEE AMERICAN LEGION AUXILIARY", "city": "MANHASSET", "state": "NY", "zip": "11030-1965", "ntee": "W20", "ruling": "201507", "deductibility": "1", "assets": 0, "income": 0, "revenue": 0}], "BREAKING": [{"ein": "113048002", "name": "BREAKING GROUND HOUSING DEVELOPMENT FUND CORPORATION", "city": "NEW YORK", "state": "NY", "zip": "10018-6550", "ntee": "L80Z", "ruling": "199103", "deductibility": "1", "assets": 214800596, "income": 32233284, "revenue": 31598965}, {"ein": "113352350", "name": "UNITY FELLOWSHIP BREAKING GROUND INC", "city": "NEW YORK", "state": "NY", "zip": "10032-0510", "ntee": "X20", "ruling": "201410", "deductibility": "1", "assets": 0, "income": 0, "revenue": 0}, {"ein": "133193376", "name": "THEATER BREAKING THROUGH BARRIERS CORP", "city": "NEW YORK", "state": "NY", "zip": "10036-6318", "ntee": "G41Z", "ruling": "198408", "deductibility": "1", "assets": 266356, "income": 383614, "revenue": 383614}, {"ein": "133846708", "name": "BREAKING GROUND II HOUSING DEVELOPMENT FUND CORPORATION", "city": "NEW YORK", "state": "NY", "zip": "10018-6550", "ntee": "L20", "ruling": "199710", "deductibility": "1", "assets": 115715861, "income": 8820753, "revenue": 4846250}, {"ein": "134138205", "name": "BREAKING GROUND III HOUSING DEVELOPMENT FUND CORPORATION", "city": "NEW YORK", "state": "NY", "zip": "10018-6550", "ntee": "L20", "ruling": "200303", "deductibility": "1", "assets": 1083679, "income": 361336, "revenue": 361336}, {"ein": "134196931", "name": "BREAKING GROUND IV HOUSING DEVELOPMENT FUND CORPORATION", "city": "NEW YORK", "state": "NY", "zip": "10018-6550", "ntee": "L41", "ruling": "200206", "deductibility": "1", "assets": 15946035, "income": 6130660, "revenue": 6130660}, {"ein": "460790837", "name": "BREAKING WALLS INC", "city": "NEW YORK", "state": "NY", "zip": "10014-1608", "ntee": "A60", "ruling": "201310", "deductibility": "1", "assets": 29, "income": 62315, "revenue": 62315}, {"ein": "465700593", "name": "YOKE BREAKING DELIVERANCE MINISTRIES INC", "city": "BROOKLYN", "state": "NY", "zip": "11203-4110", "ntee": "X21", "ruling": "201412", "deductibility": "1", "assets": 0, "income": 0, "revenue": 0}, {"ein": "831096674", "name": "BREAKING FREE MINISTRIES INC", "city": "BRONX", "state": "NY", "zip": "10464-0106", "ntee": "X20", "ruling": "202002", "deductibility": "1", "assets": 0, "income": 0, "revenue": 0}, {"ein": "842018245", "name": "BREAKING BARRIERS YOGA INC", "city": "JOHNSON CITY", "state": "NY", "zip": "13790-1013", "ntee": "N30", "ruling": "201908", "deductibility": "1", "assets": 0, "income": 0, "revenue": 0}, {"ein": "844666388", "name": "BREAKING ALL BARRIERS INC", "city": "ROCHESTER", "state": "NY", "zip": "14615-2418", "ntee": "O50", "ruling": "202003", "deductibility": "1", "assets": 26415, "income": 19934, "revenue": 19934}, {"ein": "863209430", "name": "BREAKING THE CYCLE DROP CORP", "city": "BROOKLYN", "state": "NY", "zip": "11223-5945", "ntee": "P12", "ruling": "202107", "deductibility": "1", "assets": 0, "income": 0, "revenue": 0}, {"ein": "872182743", "name": "BREAKING BARRIERS INTERNATIONAL MINISTRIES INC", "city": "VALLEY STREAM", "state": "NY", "zip": "11581-2930", "ntee": "X20", "ruling": "202312", "deductibility": "1", "assets": 0, "income": 0, "revenue": 0}, {"ein": "934028599", "name": "BREAKING BORDERS INTERNATIONAL PERFORMING ARTISTS EXCHANGE INC", "city": "NEW YORK", "state": "NY", "zip": "10024-0000", "ntee": "A20", "ruling": "202311", "deductibility": "1", "assets": 0, "income": 0, "revenue": 0}], "SHOWCASE": [{"ein": "113077449", "name": "SUMMER SHOWCASE CONCERT SERIES OF SOUTHOLD INC", "city": "SOUTHOLD", "state": "NY", "zip": "11971-0163", "ntee": "A6C", "ruling": "201609", "deductibility": "1", "assets": 0, "income": 0, "revenue": 0}, {"ein": "831028255", "name": "BEATS SPECIAL NEEDS DANCE SHOWCASE INC", "city": "WELLSVILLE", "state": "NY", "zip": "14895-1414", "ntee": "A62", "ruling": "201807", "deductibility": "1", "assets": 0, "income": 0, "revenue": 0}, {"ein": "843910903", "name": "SCHOLASTIC TALENT SHOWCASE INC", "city": "ALBANY", "state": "NY", "zip": "12205-4900", "ntee": "O12", "ruling": "202004", "deductibility": "1", "assets": 35839, "income": 191743, "revenue": 191743}, {"ein": "874429809", "name": "NY PA CORPORATE CUP SOCCER SHOWCASE INC", "city": "OLEAN", "state": "NY", "zip": "14760-3019", "ntee": "N64", "ruling": "202204", "deductibility": "1", "assets": 0, "income": 0, "revenue": 0}, {"ein": "991046399", "name": "LE ROY SHOWCASE COMPLEX INC", "city": "LEROY", "state": "NY", "zip": "14482-9741", "ntee": "N99", "ruling": "202404", "deductibility": "1", "assets": 0, "income": 0, "revenue": 0}], "LYISOMIM": [{"ein": "113081200", "name": "KEREN EM LYISOMIM", "city": "BROOKLYN", "state": "NY", "zip": "11219-3550", "ntee": "", "ruling": "199201", "deductibility": "1", "assets": 0, "income": 0, "revenue": 0}], "SUDAMA": [{"ein": "113156033", "name": "SUDAMA MANDIR INC", "city": "S RICHMOND HL", "state": "NY", "zip": "11419-1825", "ntee": "", "ruling": "199310", "deductibility": "1", "assets": 0, "income": 0, "revenue": 0}], "SPROUT": [{"ein": "113182514", "name": "NEW SPROUT PRESBYTERIAN CHURCH OF N Y", "city": "FLUSHING", "state": "NY", "zip": "11354-4724", "ntee": "", "ruling": "199405", "deductibility": "1", "assets": 0, "income": 0, "revenue": 0}, {"ein": "132830437", "name": "YOUNG JUDAEA CAMP SPROUT LAKE", "city": "VERBANK", "state": "NY", "zip": "12585-5034", "ntee": "", "ruling": "198712", "deductibility": "1", "assets": 6005007, "income": 5246964, "revenue": 5040448}, {"ein": "146030131", "name": "SPROUT BROOK ROD & GUN CLUB INC", "city": "CANAJOHARIE", "state": "NY", "zip": "13317-3616", "ntee": "N61", "ruling": "201507", "deductibility": "2", "assets": 0, "income": 0, "revenue": 0}, {"ein": "273511754", "name": "SPROUT CREEK FARM INC", "city": "POUGHKEEPSIE", "state": "NY", "zip": "12603-3903", "ntee": "B99", "ruling": "201110", "deductibility": "1", "assets": 2907075, "income": 8556, "revenue": 8556}, {"ein": "300331864", "name": "POTATO SPROUT NFP", "city": "NYC", "state": "NY", "zip": "10023-8211", "ntee": "B90", "ruling": "200606", "deductibility": "1", "assets": 0, "income": 0, "revenue": 0}, {"ein": "371595626", "name": "FRIENDS OF CAMP YOUNG JUDAEA SPROUT LAKE INC", "city": "VERBANK", "state": "NY", "zip": "12585-5034", "ntee": "O11", "ruling": "201010", "deductibility": "1", "assets": 696733, "income": 193452, "revenue": 193452}, {"ein": "842060720", "name": "SPROUT FOUNDATION FOR SENSORY PROCESSING DISORDER AND DYSPRAXIA", "city": "ELMIRA HEIGHTS", "state": "NY", "zip": "14903-1347", "ntee": "N99", "ruling": "202005", "deductibility": "1", "assets": 1890, "income": 2050, "revenue": 0}], "MANDEL": [{"ein": "113264337", "name": "BENJAMIN MANDEL FOUNDATION", "city": "FAR ROCKAWAY", "state": "NY", "zip": "11691-4805", "ntee": "", "ruling": "199506", "deductibility": "1", "assets": 1269264, "income": 422385, "revenue": 0}, {"ein": "203981452", "name": "FRANK AND EVELYN MANDEL FAMILYFOUNDATION", "city": "NEW YORK", "state": "NY", "zip": "10023-8106", "ntee": "T22", "ruling": "200602", "deductibility": "1", "assets": 346061, "income": 98348, "revenue": 0}, {"ein": "472248279", "name": "JOEL E MANDEL FOUNDATION FOR THE ARTS AND SCIENCES CORP", "city": "NEW WINDSOR", "state": "NY", "zip": "12553-7927", "ntee": "T20", "ruling": "201603", "deductibility": "1", "assets": 302140, "income": 137577, "revenue": 0}, {"ein": "873256888", "name": "HARRIS MANDEL MEMORIAL FOUNDATION INC", "city": "NEW YORK", "state": "NY", "zip": "10010-4102", "ntee": "T12", "ruling": "202201", "deductibility": "1", "assets": 0, "income": 0, "revenue": 0}], "OZONE": [{"ein": "113298748", "name": "QUEENS OZONE PARK CHURCH OF THE NAZARENE", "city": "W HEMPSTEAD", "state": "NY", "zip": "11552-3316", "ntee": "A99Z", "ruling": "196307", "deductibility": "1", "assets": 0, "income": 0, "revenue": 0}, {"ein": "113434975", "name": "SOUTH OZONE PARK CHRISTADELPHIAN ECCLESIA", "city": "SOUTH OZONE PARK", "state": "NY", "zip": "11420-0000", "ntee": "X20", "ruling": "199912", "deductibility": "1", "assets": 0, "income": 0, "revenue": 0}, {"ein": "113579191", "name": "KIWANIS CLUB OF OZONE PARK N Y FOUNDATION", "city": "HOWARD BEACH", "state": "NY", "zip": "11414-3451", "ntee": "T30", "ruling": "200108", "deductibility": "1", "assets": 3941, "income": 25684, "revenue": 25684}, {"ein": "116044696", "name": "OUR NEIGHBORS CIVIC ASSOCIATION OF OZONE PARK INC", "city": "HOWARD BEACH", "state": "NY", "zip": "11414-0000", "ntee": "", "ruling": "202201", "deductibility": "1", "assets": 30948, "income": 5765, "revenue": 5765}, {"ein": "116084714", "name": "OZONE PARK GOSPEL CHAPEL", "city": "OZONE PARK", "state": "NY", "zip": "11417-0162", "ntee": "", "ruling": "195710", "deductibility": "1", "assets": 0, "income": 0, "revenue": 0}, {"ein": "332348709", "name": "OZONE PARK FRIENDS CLUB USA INC", "city": "OZONE PARK", "state": "NY", "zip": "11416-1909", "ntee": "S21", "ruling": "202412", "deductibility": "1", "assets": 0, "income": 0, "revenue": 0}, {"ein": "333195417", "name": "149TH SOUTH OZONE PARK CIVIC ASSOCIATION INC", "city": "JAMAICA", "state": "NY", "zip": "11436-1827", "ntee": "S20", "ruling": "202503", "deductibility": "1", "assets": 0, "income": 0, "revenue": 0}, {"ein": "462370153", "name": "SOUTH OZONE PARK WESLEYAN CHURCH", "city": "ELMONT", "state": "NY", "zip": "11003-2203", "ntee": "", "ruling": "197005", "deductibility": "1", "assets": 0, "income": 0, "revenue": 0}, {"ein": "475566107", "name": "OZONE PARK ISLAMIC CENTER", "city": "OZONE PARK", "state": "NY", "zip": "11417-2223", "ntee": "X40", "ruling": "201909", "deductibility": "1", "assets": 0, "income": 0, "revenue": 0}, {"ein": "813871888", "name": "MUNA CENTER OF OZONE PARK INC", "city": "OZONE PARK", "state": "NY", "zip": "11417-1328", "ntee": "X40", "ruling": "201803", "deductibility": "1", "assets": 0, "income": 0, "revenue": 0}, {"ein": "821192460", "name": "FULTOLI JAME MASJID & ISLAMIC INSTITUTE OZONE PARK INC", "city": "OZONE PARK", "state": "NY", "zip": "11416-2017", "ntee": "X40", "ruling": "201803", "deductibility": "1", "assets": 983265, "income": 270965, "revenue": 261118}, {"ein": "844635316", "name": "CITY LINE OZONE PARK CIVILIAN PATROL INC", "city": "OZONE PARK", "state": "NY", "zip": "11416-1946", "ntee": "M40", "ruling": "202007", "deductibility": "1", "assets": 3471, "income": 76313, "revenue": 76313}, {"ein": "920990832", "name": "OZONE PARK RESIDENTS BLOCK ASSOCIATION-OZPKRBA INC", "city": "OZONE PARK", "state": "NY", "zip": "11416-1314", "ntee": "B01", "ruling": "202301", "deductibility": "1", "assets": 1, "income": 67298, "revenue": 67298}, {"ein": "920995279", "name": "OZONE PARK HOWARD BEACH WOODHAVEN LIONS CLUB", "city": "OZONE PARK", "state": "NY", "zip": "11416-1314", "ntee": "S80", "ruling": "202211", "deductibility": "1", "assets": 1, "income": 12590, "revenue": 12590}, {"ein": "923192886", "name": "OZONE PARK FOOD PANTRY", "city": "OZONE PARK", "state": "NY", "zip": "11416-1336", "ntee": "K31", "ruling": "202304", "deductibility": "1", "assets": 0, "income": 0, "revenue": 0}], "REACHING": [{"ein": "113305331", "name": "WOMEN REACHING FOR ECONOMIC FREEDOM INC", "city": "HOLBROOK", "state": "NY", "zip": "11741-0000", "ntee": "O22", "ruling": "201208", "deductibility": "1", "assets": 0, "income": 0, "revenue": 0}, {"ein": "113365516", "name": "REACHING OUT FOR SERVICE PROGRAMS INC", "city": "BROOKLYN", "state": "NY", "zip": "11204-3414", "ntee": "P12", "ruling": "202106", "deductibility": "1", "assets": 0, "income": 0, "revenue": 0}, {"ein": "113572515", "name": "REACHING ACROSS THE WORLD MINISTRIES", "city": "BROOKLYN", "state": "NY", "zip": "11206-2423", "ntee": "X21", "ruling": "200104", "deductibility": "1", "assets": 0, "income": 0, "revenue": 0}, {"ein": "113615625", "name": "REACHING OUT COMMUNITY SERVICES INC", "city": "BROOKLYN", "state": "NY", "zip": "11204-3753", "ntee": "K30", "ruling": "200109", "deductibility": "1", "assets": 2327590, "income": 1898595, "revenue": 1898595}, {"ein": "161600990", "name": "REACHING THE WORLD FOR CHRIST MINISTIES", "city": "WEBSTER", "state": "NY", "zip": "14580-8964", "ntee": "X20", "ruling": "200205", "deductibility": "1", "assets": 0, "income": 0, "revenue": 0}, {"ein": "271513868", "name": "ORGANIZATION REACHING FOR THE EMPOWERMENT OF YOUTH INC", "city": "NEW YORK", "state": "NY", "zip": "10023-6128", "ntee": "O51", "ruling": "201509", "deductibility": "1", "assets": 8609, "income": 0, "revenue": 0}, {"ein": "333695655", "name": "REACHING OUR OUTDOOR FAMILIES CORP", "city": "CAMBRIDGE", "state": "NY", "zip": "12816-9998", "ntee": "L80", "ruling": "202505", "deductibility": "1", "assets": 0, "income": 0, "revenue": 0}, {"ein": "412055310", "name": "HUMANE EDUCATION ADVOCATES REACHING TEACHERS INC", "city": "MAMARONECK", "state": "NY", "zip": "10543-0738", "ntee": "C60", "ruling": "200210", "deductibility": "1", "assets": 776577, "income": 634316, "revenue": 634316}, {"ein": "450577055", "name": "REACHING OUT MINISTRIES INC", "city": "BROOKLYN", "state": "NY", "zip": "11208-1023", "ntee": "P20", "ruling": "201408", "deductibility": "1", "assets": 0, "income": 0, "revenue": 0}, {"ein": "455571903", "name": "REACHING OUT TO CHILDREN WITH KINDNESS ROCK INC", "city": "BRONX", "state": "NY", "zip": "10475-3749", "ntee": "O99", "ruling": "201412", "deductibility": "1", "assets": 0, "income": 0, "revenue": 0}, {"ein": "471826652", "name": "ACTORS REACHING OUT", "city": "NEW YORK", "state": "NY", "zip": "10040-2922", "ntee": "A60", "ruling": "201504", "deductibility": "1", "assets": 0, "income": 0, "revenue": 0}, {"ein": "472831345", "name": "REACHING NEXT GENERATIONS INC", "city": "FISHKILL", "state": "NY", "zip": "12524-1390", "ntee": "X20", "ruling": "201504", "deductibility": "1", "assets": 0, "income": 0, "revenue": 0}, {"ein": "474334584", "name": "REACHING FOR THE ARTS INC", "city": "NEW YORK", "state": "NY", "zip": "10023-1485", "ntee": "A25", "ruling": "201508", "deductibility": "1", "assets": 0, "income": 0, "revenue": 0}, {"ein": "474477995", "name": "WOMEN REACHING WOMEN GLOBAL INC", "city": "CORNING", "state": "NY", "zip": "14830-3459", "ntee": "P80", "ruling": "201512", "deductibility": "1", "assets": 0, "income": 0, "revenue": 0}, {"ein": "814089791", "name": "BREUKELEN REACHING INDEPENDENCE THROUGH SELF EMPOWERMENT INC", "city": "BROOKLYN", "state": "NY", "zip": "11203-4780", "ntee": "P80", "ruling": "201804", "deductibility": "1", "assets": 0, "income": 0, "revenue": 0}, {"ein": "830372988", "name": "REACHING THE IMPOSSIBLE INTERNATIONAL MINISTRIES INC", "city": "BROOKLYN", "state": "NY", "zip": "11239-1202", "ntee": "X20", "ruling": "200506", "deductibility": "1", "assets": 0, "income": 0, "revenue": 0}, {"ein": "862226469", "name": "REACHING BEYOND ME", "city": "ITHACA", "state": "NY", "zip": "14850-9495", "ntee": "P20", "ruling": "202312", "deductibility": "1", "assets": 0, "income": 0, "revenue": 0}, {"ein": "883244334", "name": "KEEP REACHING OUT-TO OUR KIDS", "city": "NORTH BALDWIN", "state": "NY", "zip": "11510-2932", "ntee": "O01", "ruling": "202303", "deductibility": "1", "assets": 0, "income": 0, "revenue": 0}, {"ein": "921325103", "name": "REACHING LOST SOULS INC", "city": "SYRACUSE", "state": "NY", "zip": "13205-3241", "ntee": "W30", "ruling": "202301", "deductibility": "1", "assets": 0, "income": 0, "revenue": 0}, {"ein": "932326627", "name": "DEVELOPMENT ORGANIZATION REACHING CHILDREN TO ACHIEVE SUCCESS", "city": "ST ALBANS", "state": "NY", "zip": "11412-3249", "ntee": "P12", "ruling": "202312", "deductibility": "1", "assets": 0, "income": 0, "revenue": 0}], "PEANUT": [{"ein": "113354735", "name": "PEANUT BUTTER GANG HOSPITALITY TOO INC", "city": "BRENTWOOD", "state": "NY", "zip": "11717-0514", "ntee": "T30", "ruling": "200012", "deductibility": "1", "assets": 28725, "income": 51993, "revenue": 51993}, {"ein": "334551615", "name": "LITTLEST PEANUT GALLERY CORPORATION", "city": "NEW YORK", "state": "NY", "zip": "10017-3549", "ntee": "A20", "ruling": "202506", "deductibility": "1", "assets": 0, "income": 0, "revenue": 0}], "MORRISON": [{"ein": "113356806", "name": "NOW FAITH MINISTRIES INCORPORATED C/O ELDER ASTOR MORRISON SMITH SR", "city": "AMITYVILLE", "state": "NY", "zip": "11701-1354", "ntee": "X20Z", "ruling": "199704", "deductibility": "1", "assets": 0, "income": 0, "revenue": 0}, {"ein": "134076448", "name": "TONI MORRISON FOUNDATION", "city": "NEW CITY", "state": "NY", "zip": "10956-1431", "ntee": "A20", "ruling": "202401", "deductibility": "1", "assets": 1358710, "income": 63325, "revenue": 0}, {"ein": "166429037", "name": "CLARENCE H MORRISON CHARITABLE TRUST", "city": "ONEONTA", "state": "NY", "zip": "13820-0000", "ntee": "T20J", "ruling": "199702", "deductibility": "1", "assets": 4812365, "income": 1331590, "revenue": 0}, {"ein": "204232840", "name": "THOMAS PATRICK MORRISON FOUNDATION", "city": "GUILDERLAND", "state": "NY", "zip": "12084-0238", "ntee": "G20", "ruling": "200603", "deductibility": "1", "assets": 866703, "income": 118431, "revenue": 64708}, {"ein": "208422447", "name": "BETH MORRISON PROJECTS", "city": "BROOKLYN", "state": "NY", "zip": "11217-1694", "ntee": "A65", "ruling": "200709", "deductibility": "1", "assets": 2092365, "income": 3212715, "revenue": 3212715}, {"ein": "260485156", "name": "VERONICA MORRISON FOUNDATION INC", "city": "SAINT ALBANS", "state": "NY", "zip": "11412-1144", "ntee": "B82", "ruling": "200910", "deductibility": "1", "assets": 0, "income": 0, "revenue": 0}, {"ein": "454581763", "name": "MORRISON MENTORS INC", "city": "HEMPSTEAD", "state": "NY", "zip": "11550-3447", "ntee": "W99", "ruling": "201405", "deductibility": "1", "assets": 206510, "income": 528587, "revenue": 528587}], "SHAPLA": [{"ein": "113382178", "name": "SHAPLA WELFARE ASSOCIATES NEW YORK INC", "city": "JACKSON HTS", "state": "NY", "zip": "11372-4315", "ntee": "S41", "ruling": "202204", "deductibility": "2", "assets": 0, "income": 0, "revenue": 0}], "IRGUN": [{"ein": "113407360", "name": "IRGUN SHIURAI TORAH", "city": "BROOKLYN", "state": "NY", "zip": "11218-3510", "ntee": "X30Z", "ruling": "199802", "deductibility": "1", "assets": 0, "income": 0, "revenue": 0}, {"ein": "113427506", "name": "IRGUN SHOFAR", "city": "BROOKLYN", "state": "NY", "zip": "11223-0706", "ntee": "X20Z", "ruling": "199808", "deductibility": "1", "assets": 0, "income": 0, "revenue": 0}, {"ein": "133757174", "name": "AMERICAN FRIENDS OF IRGUN LMAAN HAVERUT VTODAH YEHUDIT INC", "city": "FLUSHING", "state": "NY", "zip": "11367-1943", "ntee": "X30J", "ruling": "199708", "deductibility": "1", "assets": 0, "income": 0, "revenue": 0}, {"ein": "200537753", "name": "IRGUN REFUAH KROVA", "city": "BROOKLYN", "state": "NY", "zip": "11211-8726", "ntee": "X30", "ruling": "200405", "deductibility": "1", "assets": 0, "income": 0, "revenue": 0}, {"ein": "990514186", "name": "IRGUN LEV SIMCHA CORP", "city": "SPRING VALLEY", "state": "NY", "zip": "10977-7841", "ntee": "X30", "ruling": "202401", "deductibility": "1", "assets": 0, "income": 0, "revenue": 0}], "POSTPARTUM": [{"ein": "113449880", "name": "POSTPARTUM RESOURCE CENTER OF NEW YORK INC", "city": "WEST ISLIP", "state": "NY", "zip": "11795-2319", "ntee": "F70", "ruling": "200007", "deductibility": "1", "assets": 262982, "income": 463083, "revenue": 415477}, {"ein": "851336227", "name": "WNY POSTPARTUM CONNECTION INC", "city": "ORCHARD PARK", "state": "NY", "zip": "14127-4855", "ntee": "P40", "ruling": "202009", "deductibility": "1", "assets": 0, "income": 0, "revenue": 0}, {"ein": "990438286", "name": "KRYSTAL & BELLA FOUNDATION FOR POSTPARTUM SAFETY & SUPPORT CORP", "city": "ALBANY", "state": "NY", "zip": "12207-2834", "ntee": "P12", "ruling": "202402", "deductibility": "1", "assets": 0, "income": 0, "revenue": 0}], "JASON": [{"ein": "113455167", "name": "JASON CHRISTOPHER KLEIN FOUNDATION", "city": "NEW YORK", "state": "NY", "zip": "10017-6853", "ntee": "B82Z", "ruling": "199812", "deductibility": "1", "assets": 91976, "income": 9334, "revenue": 0}, {"ein": "113531503", "name": "EVA & JASON YAGODA CHARITABLE FOUNDATION INC", "city": "NEW YORK", "state": "NY", "zip": "10017-0000", "ntee": "T22", "ruling": "200112", "deductibility": "1", "assets": 686, "income": 97, "revenue": 0}, {"ein": "133338743", "name": "JASON F GRUEN RESEARCH FOUNDATION INC", "city": "EAST MEADOW", "state": "NY", "zip": "11554-5607", "ntee": "", "ruling": "198702", "deductibility": "1", "assets": 0, "income": 0, "revenue": 0}, {"ein": "205232706", "name": "JASON MORRIS ELITE JUDO TRAINING INC", "city": "GLENVILLE", "state": "NY", "zip": "12325-0505", "ntee": "N60", "ruling": "200801", "deductibility": "1", "assets": 15750, "income": 48330, "revenue": 48330}, {"ein": "262869888", "name": "JASON K A MATTER OF HOPE INC", "city": "NEW YORK", "state": "NY", "zip": "10028-6065", "ntee": "H12", "ruling": "200901", "deductibility": "1", "assets": 0, "income": 0, "revenue": 0}, {"ein": "263865378", "name": "JASON CHRISTOPHER WILHELM SCHOLARSHIP FUND", "city": "WILTON", "state": "NY", "zip": "12831-2524", "ntee": "B82", "ruling": "201009", "deductibility": "1", "assets": 0, "income": 0, "revenue": 0}, {"ein": "824585344", "name": "JASON A WRIGHT FOUNDATION INC", "city": "NEW YORK", "state": "NY", "zip": "10168-2103", "ntee": "T20", "ruling": "201811", "deductibility": "1", "assets": 1, "income": 1, "revenue": 0}, {"ein": "880874202", "name": "JASON NORFOLK MEMORIAL", "city": "JORDAN", "state": "NY", "zip": "13080-9767", "ntee": "N61", "ruling": "202304", "deductibility": "1", "assets": 0, "income": 0, "revenue": 0}, {"ein": "884125466", "name": "LINDA AND JASON J KIM FOUNDATION", "city": "MELVILLE", "state": "NY", "zip": "11747-3681", "ntee": "T20", "ruling": "202211", "deductibility": "1", "assets": 0, "income": 0, "revenue": 0}, {"ein": "922622506", "name": "JASON MICHAEL BRESCIA FOUNDATION INC", "city": "HUNTINGTN STA", "state": "NY", "zip": "11746-1984", "ntee": "G20", "ruling": "202303", "deductibility": "1", "assets": 0, "income": 0, "revenue": 0}, {"ein": "923756364", "name": "REMEMBER ME JASON JUICE INC", "city": "BROOKLYN", "state": "NY", "zip": "11224-2230", "ntee": "N70", "ruling": "202305", "deductibility": "1", "assets": 0, "income": 0, "revenue": 0}], "IMAN": [{"ein": "113480280", "name": "AL-IMAN CENTER INC", "city": "ASTORIA", "state": "NY", "zip": "11102-3728", "ntee": "X40", "ruling": "200111", "deductibility": "1", "assets": 0, "income": 0, "revenue": 0}, {"ein": "113639258", "name": "AL IMAN JAMEE MASJID", "city": "JAMAICA", "state": "NY", "zip": "11435-5118", "ntee": "X40", "ruling": "200208", "deductibility": "1", "assets": 0, "income": 0, "revenue": 0}, {"ein": "200738189", "name": "AL-IMAN SCHOOL", "city": "JAMAICA", "state": "NY", "zip": "11435-4129", "ntee": "B25", "ruling": "200607", "deductibility": "1", "assets": 713602, "income": 1812593, "revenue": 1812593}, {"ein": "472573822", "name": "MASJID DARUL IMAN ISLAMIC COMMUNITY CENTER INC", "city": "BRONX", "state": "NY", "zip": "10472-3801", "ntee": "X40", "ruling": "201603", "deductibility": "1", "assets": 19702, "income": 43639, "revenue": 43639}, {"ein": "843856261", "name": "DARUL IMAN BUFFALO INC", "city": "BUFFALO", "state": "NY", "zip": "14212-0000", "ntee": "X40", "ruling": "202007", "deductibility": "1", "assets": 132127, "income": 330761, "revenue": 330761}, {"ein": "851606956", "name": "IMAN & YAQEEN INC", "city": "FARMINGDALE", "state": "NY", "zip": "11735-3407", "ntee": "X40", "ruling": "202106", "deductibility": "1", "assets": 0, "income": 0, "revenue": 0}, {"ein": "873105926", "name": "MA HADUL IMAN NY INC", "city": "BROOKLYN", "state": "NY", "zip": "11220-3417", "ntee": "X40", "ruling": "202404", "deductibility": "1", "assets": 0, "income": 19163, "revenue": 19163}], "NESIVOS": [{"ein": "113580544", "name": "YESHIVA NESIVOS CHAIM", "city": "BROOKLYN", "state": "NY", "zip": "11218-5767", "ntee": "X30", "ruling": "200102", "deductibility": "1", "assets": 0, "income": 0, "revenue": 0}, {"ein": "134003987", "name": "KEREN NESIVOS MOSHE-DEVELPMENT FUND FOR TORAH CHINUCH IN ISRAEL INC", "city": "BROOKLYN", "state": "NY", "zip": "11219-2635", "ntee": "Q123", "ruling": "199902", "deductibility": "1", "assets": 424665, "income": 1361000, "revenue": 1361000}, {"ein": "200517515", "name": "NESIVOS BAIS YAAKOV", "city": "BROOKLYN", "state": "NY", "zip": "11204-2124", "ntee": "X30", "ruling": "200503", "deductibility": "1", "assets": 0, "income": 0, "revenue": 0}, {"ein": "371434080", "name": "BAIS MEDRASH NESIVOS HATORAH", "city": "STATEN ISLAND", "state": "NY", "zip": "10310-2325", "ntee": "X30", "ruling": "200212", "deductibility": "1", "assets": 0, "income": 0, "revenue": 0}, {"ein": "461580901", "name": "AMERICAN FRIENDS OF NESIVOS HATORAH INC", "city": "MONSEY", "state": "NY", "zip": "10952-0000", "ntee": "B82", "ruling": "201506", "deductibility": "1", "assets": 4822, "income": 425793, "revenue": 425793}, {"ein": "472838056", "name": "CONG YESHIVA NESIVOS HATORAH OF BELZ", "city": "BROOKLYN", "state": "NY", "zip": "11214-0000", "ntee": "X30", "ruling": "201812", "deductibility": "1", "assets": 0, "income": 0, "revenue": 0}, {"ein": "820572042", "name": "MECHON NESIVOS", "city": "BROOKLYN", "state": "NY", "zip": "11211-7257", "ntee": "X99", "ruling": "200309", "deductibility": "1", "assets": 0, "income": 0, "revenue": 0}, {"ein": "833171113", "name": "YESHIVA NESIVOS OLAM", "city": "SPRING VALLEY", "state": "NY", "zip": "10977-6517", "ntee": "X30", "ruling": "202007", "deductibility": "1", "assets": 0, "income": 0, "revenue": 0}, {"ein": "842488004", "name": "CONGREGATION NESIVOS", "city": "SPRING VALLEY", "state": "NY", "zip": "10977-1924", "ntee": "X30", "ruling": "202002", "deductibility": "1", "assets": 0, "income": 0, "revenue": 0}, {"ein": "872434460", "name": "YESHIVA NESIVOS HATORAH", "city": "AIRMONT", "state": "NY", "zip": "10952-4820", "ntee": "X30", "ruling": "202304", "deductibility": "1", "assets": 0, "income": 0, "revenue": 0}], "ROZLEEN": [{"ein": "113634621", "name": "CONG BAIS YIDA ROZLEEN INC", "city": "BROOKLYN", "state": "NY", "zip": "11211-7257", "ntee": "X30", "ruling": "200201", "deductibility": "1", "assets": 0, "income": 0, "revenue": 0}], "BANIM": [{"ein": "113730589", "name": "CONGREGATION ATERES BANIM", "city": "BROOKLYN", "state": "NY", "zip": "11205-2787", "ntee": "X30", "ruling": "202505", "deductibility": "1", "assets": 0, "income": 0, "revenue": 0}, {"ein": "332990496", "name": "ATERES BANIM INC", "city": "BROOKLYN", "state": "NY", "zip": "11205-2787", "ntee": "X30", "ruling": "202502", "deductibility": "1", "assets": 0, "income": 0, "revenue": 0}], "DONGAN": [{"ein": "116028898", "name": "DONGAN PATENT LODGE NO 1134 FREE & ACCEPTED MASONS", "city": "SMITHTOWN", "state": "NY", "zip": "11787-1817", "ntee": "Y40", "ruling": "201802", "deductibility": "1", "assets": 0, "income": 0, "revenue": 0}, {"ein": "136127079", "name": "DONGAN HILLS UNITED UNITS INC", "city": "STATEN ISLAND", "state": "NY", "zip": "10304-4115", "ntee": "", "ruling": "197801", "deductibility": "2", "assets": 346746, "income": 67, "revenue": 67}], "RATING": [{"ein": "130594020", "name": "NEW YORK COMPENSATION INSURANCE RATING BOARD", "city": "NEW YORK", "state": "NY", "zip": "10022-7238", "ntee": "", "ruling": "194211", "deductibility": "2", "assets": 53105680, "income": 23501640, "revenue": 23501640}, {"ein": "131996451", "name": "MEDIA RATING COUNCIL INC", "city": "NEW YORK", "state": "NY", "zip": "10170-0002", "ntee": "", "ruling": "196512", "deductibility": "2", "assets": 2654665, "income": 3210723, "revenue": 3210723}, {"ein": "141132305", "name": "UNDERWRITERS RATING BOARD", "city": "SCHENECTADY", "state": "NY", "zip": "12303-2825", "ntee": "", "ruling": "195207", "deductibility": "2", "assets": 3093327, "income": 2143481, "revenue": 2108411}, {"ein": "472494638", "name": "INTERNATIONAL AGE RATING COALITION", "city": "NEW YORK", "state": "NY", "zip": "10170-2903", "ntee": "S41", "ruling": "201602", "deductibility": "2", "assets": 2854438, "income": 2854438, "revenue": 2854438}], "JPRO": [{"ein": "131624105", "name": "JPRO NETWORK INC", "city": "NEW YORK", "state": "NY", "zip": "10004-2783", "ntee": "S80P", "ruling": "194012", "deductibility": "1", "assets": 1214621, "income": 1014988, "revenue": 1014988}], "PODIATRIC": [{"ein": "131632522", "name": "NEW YORK COLLEGE OF PODIATRIC MEDICINE", "city": "NEW YORK", "state": "NY", "zip": "10035-1815", "ntee": "B500", "ruling": "195510", "deductibility": "1", "assets": 44550752, "income": 34879868, "revenue": 19653228}, {"ein": "131679614", "name": "NEW YORK STATE PODIATRIC MEDICAL ASSOCIATION", "city": "NEW YORK", "state": "NY", "zip": "10018-8403", "ntee": "", "ruling": "195410", "deductibility": "2", "assets": 2470306, "income": 1946625, "revenue": 1897929}, {"ein": "200631931", "name": "GREATER NEW YORK PODIATRIC FOUNDATION", "city": "FLUSHING", "state": "NY", "zip": "11358-1922", "ntee": "B82", "ruling": "200408", "deductibility": "1", "assets": 79398, "income": 11161, "revenue": 11161}, {"ein": "222608583", "name": "AMERICAN PODIATRIC MEDICAL WRITERS ASSOCIATION", "city": "FOREST HILLS", "state": "NY", "zip": "11375-0129", "ntee": "", "ruling": "198605", "deductibility": "2", "assets": 2812, "income": 400, "revenue": 400}, {"ein": "432038618", "name": "AMERICAN ASSOCIATION OF PODIATRIC PHYSICIANS AND SURGEONS", "city": "GREENWICH", "state": "NY", "zip": "12834-0211", "ntee": "G03", "ruling": "200603", "deductibility": "1", "assets": 4504, "income": 69653, "revenue": 22643}, {"ein": "943186276", "name": "AMERICAN BOARD OF PODIATRIC MEDICINE", "city": "EAST SYRACUSE", "state": "NY", "zip": "13057-4204", "ntee": "", "ruling": "199403", "deductibility": "2", "assets": 8762162, "income": 4207561, "revenue": 4045055}], "PRACTICAL": [{"ein": "132623987", "name": "LICENSED PRACTICAL NURSES WELFARE FUND", "city": "NEW YORK", "state": "NY", "zip": "10036-6902", "ntee": "", "ruling": "197106", "deductibility": "2", "assets": 5831552, "income": 809549, "revenue": 809549}, {"ein": "133054382", "name": "PRACTICAL CATS INC", "city": "NEW YORK", "state": "NY", "zip": "10024-6686", "ntee": "A620", "ruling": "198305", "deductibility": "1", "assets": 0, "income": 0, "revenue": 0}, {"ein": "133107679", "name": "THE SCHOOL OF PRACTICAL PHILOSOPHY", "city": "NEW YORK", "state": "NY", "zip": "10150-1825", "ntee": "", "ruling": "198207", "deductibility": "1", "assets": 20885975, "income": 5495408, "revenue": 4099323}, {"ein": "136163532", "name": "UNITY UNIVERSAL CENTER -OF PRACTICAL CHRISTIANITY-", "city": "NEW YORK", "state": "NY", "zip": "10027-4820", "ntee": "", "ruling": "196407", "deductibility": "1", "assets": 0, "income": 0, "revenue": 0}, {"ein": "161073149", "name": "COUNCIL OF PRACTICAL NURSE PROGRAMS NYS", "city": "ROCHESTER", "state": "NY", "zip": "14609-0621", "ntee": "B90", "ruling": "202305", "deductibility": "1", "assets": 0, "income": 0, "revenue": 0}, {"ein": "274938308", "name": "PRACTICAL CLIMATE SOLUTIONS INC", "city": "SMYRNA", "state": "NY", "zip": "13464-2214", "ntee": "C053", "ruling": "201109", "deductibility": "1", "assets": 0, "income": 0, "revenue": 0}, {"ein": "275492753", "name": "INTERNATIONAL HAVEN OF PRACTICAL EDUCATION INC", "city": "BINGHAMTON", "state": "NY", "zip": "13903-1304", "ntee": "B41", "ruling": "201208", "deductibility": "1", "assets": 30420, "income": 96327, "revenue": 96327}, {"ein": "452556441", "name": "PRACTICAL URBAN NOTIONS LTD", "city": "BROOKLYN", "state": "NY", "zip": "11211-6448", "ntee": "C35", "ruling": "201309", "deductibility": "1", "assets": 0, "income": 0, "revenue": 0}, {"ein": "473250130", "name": "FOUNDATION FOR PRACTICAL PHILOSOPHY INC", "city": "ROCHESTER", "state": "NY", "zip": "14620-2709", "ntee": "A70", "ruling": "201507", "deductibility": "1", "assets": 0, "income": 0, "revenue": 0}, {"ein": "844058992", "name": "PERISE PRACTICAL INC", "city": "NEW YORK", "state": "NY", "zip": "10013-1691", "ntee": "R40", "ruling": "202109", "deductibility": "2", "assets": 98007, "income": 0, "revenue": 0}, {"ein": "872962443", "name": "APIARY FOR PRACTICAL SUPPORT INC", "city": "NEW YORK", "state": "NY", "zip": "10005-4301", "ntee": "R02", "ruling": "202112", "deductibility": "1", "assets": 828765, "income": 1195857, "revenue": 1022306}, {"ein": "921552648", "name": "PRACTICAL KNOWLEDGE INC", "city": "FLUSHING", "state": "NY", "zip": "11366-1138", "ntee": "P51", "ruling": "202307", "deductibility": "1", "assets": 2078, "income": 33000, "revenue": 33000}], "MUSICES": [{"ein": "132898806", "name": "POMERIUM MUSICES INCORPORATED", "city": "NEW YORK", "state": "NY", "zip": "10025-2148", "ntee": "A68Z", "ruling": "197707", "deductibility": "1", "assets": 7555, "income": 25390, "revenue": 25390}], "DEANE": [{"ein": "132967490", "name": "DEANE A AND JOHN D GILLIAM FOUNDATION", "city": "NEW YORK", "state": "NY", "zip": "10021-4298", "ntee": "", "ruling": "197907", "deductibility": "1", "assets": 8315446, "income": 3520814, "revenue": 0}, {"ein": "137160165", "name": "LELAND DEANE FOUNDATION", "city": "LLOYD HARBOR", "state": "NY", "zip": "11743-1724", "ntee": "T20", "ruling": "199910", "deductibility": "1", "assets": 735381, "income": 197804, "revenue": 0}], "CHRSIT": [{"ein": "133038680", "name": "BRONX REFUGE CHURCH OF CHRSIT", "city": "BRONX", "state": "NY", "zip": "10456-6634", "ntee": "", "ruling": "198011", "deductibility": "0", "assets": 0, "income": 0, "revenue": 0}], "YERUSHA": [{"ein": "133104323", "name": "AMERICAN FRIENDS OF YEKERAI YERUSHA LAYIM", "city": "BROOKLYN", "state": "NY", "zip": "11230-0000", "ntee": "B12", "ruling": "202202", "deductibility": "1", "assets": 8019449, "income": 1673500, "revenue": 1673500}], "PEN": [{"ein": "133447888", "name": "PEN AMERICAN CENTER INC", "city": "NEW YORK", "state": "NY", "zip": "10271-0042", "ntee": "A700", "ruling": "199211", "deductibility": "1", "assets": 47830208, "income": 36522169, "revenue": 21777695}, {"ein": "135311420", "name": "THE PEN AND BRUSH INC", "city": "NEW YORK", "state": "NY", "zip": "10010-5303", "ntee": "", "ruling": "196502", "deductibility": "1", "assets": 7312916, "income": 1129132, "revenue": 243565}, {"ein": "232343455", "name": "NEW PEN DEL NEWFOUNDLAND CLUB INC", "city": "SARATOGA SPGS", "state": "NY", "zip": "12866-5455", "ntee": "D03", "ruling": "201811", "deductibility": "2", "assets": 0, "income": 0, "revenue": 0}, {"ein": "383715897", "name": "NEW PEN LEAGUE LTD", "city": "NEW YORK", "state": "NY", "zip": "10025-1868", "ntee": "A70", "ruling": "200508", "deductibility": "1", "assets": 1, "income": 0, "revenue": 0}, {"ein": "462288007", "name": "PEN & SCROLL ORGANIZATION INC", "city": "NEW YORK", "state": "NY", "zip": "10032-7801", "ntee": "O99", "ruling": "201409", "deductibility": "1", "assets": 0, "income": 0, "revenue": 0}, {"ein": "462304312", "name": "PEN PARENTIS LTD", "city": "NEW YORK", "state": "NY", "zip": "10038-2518", "ntee": "A20", "ruling": "201412", "deductibility": "1", "assets": 64549, "income": 130681, "revenue": 130681}, {"ein": "831913333", "name": "PEN CHINESE WRITERS ABROAD CENTRE INC", "city": "FRESH MEADOWS", "state": "NY", "zip": "11365-4580", "ntee": "B03", "ruling": "201810", "deductibility": "1", "assets": 0, "income": 0, "revenue": 0}, {"ein": "852409795", "name": "POWER IN THE PEN WRITERS WORKSHOP", "city": "BROOKLYN", "state": "NY", "zip": "11212-5920", "ntee": "A33", "ruling": "202311", "deductibility": "1", "assets": 0, "income": 0, "revenue": 0}, {"ein": "853091306", "name": "WALDOS RESCUE PEN INC", "city": "NEW YORK", "state": "NY", "zip": "10038-1752", "ntee": "D20", "ruling": "202101", "deductibility": "1", "assets": 63690, "income": 683693, "revenue": 670658}, {"ein": "953502910", "name": "PEN AMERICA LOS ANGELES", "city": "NEW YORK", "state": "NY", "zip": "10271-0042", "ntee": "", "ruling": "198108", "deductibility": "1", "assets": 319194, "income": 71673, "revenue": 71673}], "BELT": [{"ein": "133481845", "name": "GREEN BELT CONSERVANCY INC", "city": "STATEN ISLAND", "state": "NY", "zip": "10306-1310", "ntee": "C60Z", "ruling": "199004", "deductibility": "1", "assets": 1422786, "income": 198953, "revenue": 173832}, {"ein": "201667154", "name": "CONCORD GRAPE BELT HERITAGE ASSOCIATION INC", "city": "WESTFIELD", "state": "NY", "zip": "14787-9748", "ntee": "K25", "ruling": "200612", "deductibility": "1", "assets": 991530, "income": 169617, "revenue": 113166}, {"ein": "222391978", "name": "SNOW BELT HOUSING COMPANY INC", "city": "LOWVILLE", "state": "NY", "zip": "13367-1582", "ntee": "L200", "ruling": "198308", "deductibility": "1", "assets": 2875235, "income": 1211403, "revenue": 1211403}, {"ein": "472166334", "name": "KTK-BELT INC", "city": "MANHASSET HL", "state": "NY", "zip": "11040-2327", "ntee": "C30", "ruling": "201512", "deductibility": "1", "assets": 153901, "income": 1182065, "revenue": 1158661}, {"ein": "571148475", "name": "ST JOHN FRUIT BELT COMMUNITY DEVELOPMENT CORPORATION", "city": "BUFFALO", "state": "NY", "zip": "14204-1251", "ntee": "L20", "ruling": "200311", "deductibility": "1", "assets": 620717, "income": 538776, "revenue": 538776}, {"ein": "810776336", "name": "ONE BELT ONE ROAD ASSOCIATION INC", "city": "ELMHURST", "state": "NY", "zip": "11373-5542", "ntee": "R30", "ruling": "201608", "deductibility": "1", "assets": 6003, "income": 0, "revenue": 0}, {"ein": "871241845", "name": "BELT FOUNDATION INC", "city": "NEW YORK", "state": "NY", "zip": "10036-5901", "ntee": "T20", "ruling": "202201", "deductibility": "1", "assets": 1286954, "income": 92535, "revenue": 0}, {"ein": "943178913", "name": "THE GREEN BELT MOVEMENT INTERNATIONAL-NORTH AMERICA", "city": "BROOKLYN", "state": "NY", "zip": "11206-1030", "ntee": "C30", "ruling": "199306", "deductibility": "1", "assets": 478139, "income": 135736, "revenue": 135736}], "HUMANITARIAN": [{"ein": "133482528", "name": "PYTHIAN HUMANITARIAN FUND", "city": "VALLEY STREAM", "state": "NY", "zip": "11580-5495", "ntee": "", "ruling": "198902", "deductibility": "1", "assets": 0, "income": 0, "revenue": 0}, {"ein": "134045245", "name": "SPORTS HUMANITARIAN GROUP INC", "city": "NEW YORK", "state": "NY", "zip": "10004-1755", "ntee": "N126", "ruling": "199912", "deductibility": "1", "assets": 2001380, "income": 4435612, "revenue": 4103278}, {"ein": "134057391", "name": "MALSIA HUMANITARIAN FUND INC", "city": "YONKERS", "state": "NY", "zip": "10704-3054", "ntee": "T30", "ruling": "200411", "deductibility": "1", "assets": 18602, "income": 48600, "revenue": 48600}, {"ein": "134090151", "name": "COMMUNITY HUMANITARIAN ASSOCIATION INC", "city": "MONSEY", "state": "NY", "zip": "10952-2738", "ntee": "L20", "ruling": "200005", "deductibility": "1", "assets": 0, "income": 0, "revenue": 0}, {"ein": "161425108", "name": "HUMANITARIAN ORGANIZATION FOR MULTICULTURAL EXPERIENCES INC", "city": "SYRACUSE", "state": "NY", "zip": "13203-2584", "ntee": "R300", "ruling": "199306", "deductibility": "1", "assets": 288153, "income": 1375862, "revenue": 1375862}, {"ein": "202455636", "name": "UNITED EDUCATIONAL AND HUMANITARIAN CENTERS INC", "city": "BROOKLYN", "state": "NY", "zip": "11204-1213", "ntee": "X30", "ruling": "200602", "deductibility": "1", "assets": 0, "income": 0, "revenue": 0}, {"ein": "207374196", "name": "ETHICAL HUMANITARIAN FOUNDATION", "city": "COHOES", "state": "NY", "zip": "12047-4909", "ntee": "B82", "ruling": "200711", "deductibility": "1", "assets": 1, "income": 1, "revenue": 0}, {"ein": "237088770", "name": "ISRAEL HUMANITARIAN FOUNDATION INC", "city": "NEW YORK", "state": "NY", "zip": "10065-7958", "ntee": "Q300", "ruling": "197012", "deductibility": "1", "assets": 17030627, "income": 2000353, "revenue": 1842332}, {"ein": "262639437", "name": "MOEGYO HUMANITARIAN FOUNDATION", "city": "MIDDLE VLG", "state": "NY", "zip": "11379-5409", "ntee": "T30", "ruling": "201212", "deductibility": "1", "assets": 0, "income": 0, "revenue": 0}, {"ein": "271129260", "name": "NORTH AMERICAN HUMANITARIAN AID AND RELIEF INC", "city": "BROOKLYN", "state": "NY", "zip": "11208-2984", "ntee": "Q33", "ruling": "201009", "deductibility": "1", "assets": 112299, "income": 1225115, "revenue": 1225115}, {"ein": "271853859", "name": "HEALTH AND HUMANITARIAN AID FOUNDATION", "city": "NEW YORK", "state": "NY", "zip": "10016-3295", "ntee": "Q33", "ruling": "201004", "deductibility": "1", "assets": 117994, "income": 126360, "revenue": 126360}, {"ein": "275108159", "name": "HUMANITARIAN WORKS INC", "city": "GARDEN CITY", "state": "NY", "zip": "11530-5425", "ntee": "A70", "ruling": "201509", "deductibility": "1", "assets": 0, "income": 0, "revenue": 0}, {"ein": "334812404", "name": "UKRAINE HUMANITARIAN TRANSPORT INCORPORATED", "city": "ROCHESTER", "state": "NY", "zip": "14618-1801", "ntee": "P62", "ruling": "202507", "deductibility": "1", "assets": 0, "income": 0, "revenue": 0}, {"ein": "365064358", "name": "IBEW LOCAL 236 HUMANITARIAN FUND INCORPORATED", "city": "SCHENECTADY", "state": "NY", "zip": "12309-1614", "ntee": "W12", "ruling": "202402", "deductibility": "1", "assets": 3206, "income": 88365, "revenue": 46378}, {"ein": "460533581", "name": "HUMANITARIAN RESOURCE FOUNDATION INTERNATIONAL INC", "city": "GLEN COVE", "state": "NY", "zip": "11542-1946", "ntee": "P20", "ruling": "201312", "deductibility": "1", "assets": 1, "income": 4300, "revenue": 4300}, {"ein": "461012693", "name": "STACY BORELL HUMANITARIAN FOUNDATION INC", "city": "RYE", "state": "NY", "zip": "10580-1107", "ntee": "P12", "ruling": "201212", "deductibility": "1", "assets": 0, "income": 0, "revenue": 0}, {"ein": "472069028", "name": "AMERICAN FRIENDS OF LATET HUMANITARIAN AID INC", "city": "WHITE PLAINS", "state": "NY", "zip": "10604-2910", "ntee": "Q33", "ruling": "201501", "deductibility": "1", "assets": 910248, "income": 3381101, "revenue": 3381101}, {"ein": "474688745", "name": "PARDES HUMANITARIAN PRIZE INC", "city": "NEW YORK", "state": "NY", "zip": "10017-2803", "ntee": "T30", "ruling": "201601", "deductibility": "1", "assets": 1, "income": 0, "revenue": 0}, {"ein": "582586156", "name": "DAVID YURMAN HUMANITARIAN FOUNDATION INC", "city": "NEW YORK", "state": "NY", "zip": "10013-1903", "ntee": "T22", "ruling": "200109", "deductibility": "1", "assets": 17098435, "income": 748426, "revenue": 0}, {"ein": "743110269", "name": "WACHUKU FOUNDATION FOR HUMANITARIAN AID INC", "city": "ROCHESTER", "state": "NY", "zip": "14608-1433", "ntee": "P99", "ruling": "201407", "deductibility": "1", "assets": 0, "income": 0, "revenue": 0}, {"ein": "770685422", "name": "SOCIETY OF INTERNATIONAL HUMANITARIAN SURGEONS INC", "city": "NEW YORK", "state": "NY", "zip": "10009-6210", "ntee": "B99", "ruling": "200709", "deductibility": "1", "assets": 21518, "income": 4951, "revenue": 4951}, {"ein": "811639783", "name": "NMAH CLARKE FAMILY HUMANITARIAN AID INC", "city": "BROOKLYN", "state": "NY", "zip": "11212-6045", "ntee": "Q33", "ruling": "201706", "deductibility": "1", "assets": 0, "income": 0, "revenue": 0}, {"ein": "811968804", "name": "TRIESHI HUMANITARIAN AID FUND INC", "city": "KATONAH", "state": "NY", "zip": "10536-3143", "ntee": "Q33", "ruling": "202405", "deductibility": "1", "assets": 1200, "income": 12075, "revenue": 12075}, {"ein": "814232370", "name": "GLOBAL HUMANITARIAN SURROUND CARE MOBILE WELLNESS INITIATIVE INC", "city": "ROCHESTER", "state": "NY", "zip": "14603-3259", "ntee": "W99", "ruling": "201703", "deductibility": "1", "assets": 0, "income": 0, "revenue": 0}, {"ein": "823015704", "name": "FREED & KWON HUMANITARIAN MEDICAL FUND INC", "city": "NEW YORK", "state": "NY", "zip": "10128-0000", "ntee": "E05", "ruling": "201911", "deductibility": "1", "assets": 58600, "income": 17281, "revenue": 17281}, {"ein": "831283073", "name": "NEW LIFE RESTORATION HUMANITARIAN FOUNDATION INC", "city": "WESTBURY", "state": "NY", "zip": "11590-2304", "ntee": "P20", "ruling": "202302", "deductibility": "1", "assets": 1, "income": 1, "revenue": 0}, {"ein": "833153362", "name": "BRING HOPE HUMANITARIAN FOUNDATION INCORPORATED", "city": "NEW YORK", "state": "NY", "zip": "10037-2709", "ntee": "P20", "ruling": "201906", "deductibility": "1", "assets": 1655, "income": 3147, "revenue": 3147}, {"ein": "843737931", "name": "HAMDARD HUMANITARIAN RELIEF INC", "city": "LEVITTOWN", "state": "NY", "zip": "11756-5235", "ntee": "Q33", "ruling": "201912", "deductibility": "1", "assets": 984629, "income": 241589, "revenue": 241589}, {"ein": "844870753", "name": "ALBANIAN-AMERICAN HUMANITARIAN FUND TROJET TONA", "city": "YORKTOWN HTS", "state": "NY", "zip": "10598-3413", "ntee": "P20", "ruling": "202007", "deductibility": "1", "assets": 16129, "income": 486252, "revenue": 486252}, {"ein": "853108892", "name": "HUMANITARIAN INITIATIVES AGENCY INC", "city": "WOODSIDE", "state": "NY", "zip": "11377-1338", "ntee": "", "ruling": "202109", "deductibility": "1", "assets": 1, "income": 1, "revenue": 0}, {"ein": "871298810", "name": "MYANMAR AMERICAN HUMANITARIAN AIDS ASSOCIATION INC", "city": "CORONA", "state": "NY", "zip": "11368-3940", "ntee": "B12", "ruling": "202110", "deductibility": "0", "assets": 4237, "income": 116621, "revenue": 116621}, {"ein": "871396215", "name": "NATIONAL HUMANITARIAN FUNDRAISING FOR MYANMAR INC", "city": "NEW YORK", "state": "NY", "zip": "10007-3617", "ntee": "P20", "ruling": "202205", "deductibility": "1", "assets": 15915, "income": 50000, "revenue": 50000}, {"ein": "872957904", "name": "HASENE HUMANITARIAN AID INC", "city": "BROOKLYN", "state": "NY", "zip": "11229-4804", "ntee": "P50", "ruling": "202207", "deductibility": "1", "assets": 10368, "income": 11000, "revenue": 11000}, {"ein": "881118001", "name": "CHARITY FUND HUMANITARIAN AID TO UKRAINE CORP", "city": "ROCKAWAY PARK", "state": "NY", "zip": "11694-2751", "ntee": "Q30", "ruling": "202203", "deductibility": "1", "assets": 0, "income": 0, "revenue": 0}, {"ein": "921018412", "name": "HUMANITARIAN INNOVATION GROUP INC", "city": "NEW YORK", "state": "NY", "zip": "10019-6047", "ntee": "P20", "ruling": "202301", "deductibility": "1", "assets": 19011, "income": 236983, "revenue": 236983}, {"ein": "923442212", "name": "DEVELOPMENT AND HUMANITARIAN ASSISTANCE", "city": "POUGHKEEPSIE", "state": "NY", "zip": "12603-6244", "ntee": "Q30", "ruling": "202311", "deductibility": "1", "assets": 0, "income": 0, "revenue": 0}, {"ein": "933842952", "name": "THE NEW HUMANITARIAN US INC", "city": "NEW YORK", "state": "NY", "zip": "10005-4301", "ntee": "A30", "ruling": "202409", "deductibility": "1", "assets": 0, "income": 0, "revenue": 0}, {"ein": "934078657", "name": "ELIJAH HUMANITARIAN CORPORATION", "city": "BRONX", "state": "NY", "zip": "10465-3323", "ntee": "K31", "ruling": "202407", "deductibility": "1", "assets": 0, "income": 0, "revenue": 0}, {"ein": "934450120", "name": "NAYYARS HUMANITARIAN FOUNDATION INC", "city": "FISHKILL", "state": "NY", "zip": "12524-1393", "ntee": "A70", "ruling": "202401", "deductibility": "1", "assets": 0, "income": 0, "revenue": 0}, {"ein": "934616096", "name": "GLG-20 HUMANITARIAN AID CHARITY INC", "city": "BALLSTON LAKE", "state": "NY", "zip": "12019-9234", "ntee": "T12", "ruling": "202312", "deductibility": "1", "assets": 0, "income": 0, "revenue": 0}, {"ein": "934637406", "name": "SEATUCK COVE HUMANITARIAN FOUNDATION LTD", "city": "ALBANY", "state": "NY", "zip": "12207-2834", "ntee": "P12", "ruling": "202401", "deductibility": "1", "assets": 0, "income": 0, "revenue": 0}, {"ein": "993116236", "name": "HUMANITARIAN RELIEF ORGANIZATION INC", "city": "BROOKLYN", "state": "NY", "zip": "11230-2449", "ntee": "P20", "ruling": "202406", "deductibility": "1", "assets": 0, "income": 0, "revenue": 0}], "EIGHT": [{"ein": "133653350", "name": "EIGHT COUNTY CHAPTER THREE OF THE AMERICAN ACADEMY OF PEDIATRICS INC", "city": "SMITHTOWN", "state": "NY", "zip": "11787-0658", "ntee": "B99Z", "ruling": "199312", "deductibility": "1", "assets": 191637, "income": 87624, "revenue": 87624}, {"ein": "332087961", "name": "PUNISHERS LEMC 10-EIGHT INC", "city": "WHITNEY POINT", "state": "NY", "zip": "13862-2447", "ntee": "W12", "ruling": "202412", "deductibility": "1", "assets": 0, "income": 0, "revenue": 0}, {"ein": "453541572", "name": "EIGHT STRINGS AND A WHISTLE INC", "city": "NEW YORK CITY", "state": "NY", "zip": "10019-4254", "ntee": "A68", "ruling": "201205", "deductibility": "1", "assets": 0, "income": 0, "revenue": 0}, {"ein": "800695758", "name": "EIGHT 4 THIRD WORLD HOPE INC", "city": "CANANDAIGUA", "state": "NY", "zip": "14424-2117", "ntee": "Q33", "ruling": "201108", "deductibility": "1", "assets": 83654, "income": 155003, "revenue": 155003}], "EXPECTING": [{"ein": "133684481", "name": "PENTECOSTAL CHURCH EXPECTING THE HOUR INC", "city": "BRONX", "state": "NY", "zip": "10454-1628", "ntee": "X99Z", "ruling": "199706", "deductibility": "1", "assets": 0, "income": 0, "revenue": 0}, {"ein": "364722105", "name": "EXPECTING RELIEF", "city": "BROOKLYN", "state": "NY", "zip": "11207-2049", "ntee": "", "ruling": "201409", "deductibility": "1", "assets": 5360, "income": 251634, "revenue": 251634}], "BALANCIO": [{"ein": "133777172", "name": "LOUIS BALANCIO SCHOLARSHIP FUND INC", "city": "SCARSDALE", "state": "NY", "zip": "10583-9515", "ntee": "Z99", "ruling": "201407", "deductibility": "1", "assets": 0, "income": 0, "revenue": 0}], "HOMEWARD": [{"ein": "133890499", "name": "HOMEWARD BOUND PROGRAM", "city": "BRONX", "state": "NY", "zip": "10462-5410", "ntee": "L30Z", "ruling": "199810", "deductibility": "1", "assets": 143755, "income": 143755, "revenue": 143755}, {"ein": "200962481", "name": "HOMEWARD BOUND DOG RESCUE OF NEW YORK LTD", "city": "ALBANY", "state": "NY", "zip": "12205-0782", "ntee": "D20", "ruling": "200411", "deductibility": "1", "assets": 118471, "income": 227824, "revenue": 227824}, {"ein": "274892529", "name": "HOMEWARD BOUND USA INC HOMEWARD BOUND ADIRONDACKS", "city": "SARANAC LAKE", "state": "NY", "zip": "12983-7100", "ntee": "F60", "ruling": "201204", "deductibility": "1", "assets": 732896, "income": 844452, "revenue": 782847}], "WALK": [{"ein": "133994346", "name": "BROADWAY WALK OF STARS FOUNDATION INC", "city": "NEW YORK", "state": "NY", "zip": "10021-2666", "ntee": "C50", "ruling": "199901", "deductibility": "1", "assets": 37714, "income": 40234, "revenue": 40234}, {"ein": "161476678", "name": "WALK OF LIFE CHRISTIAN CENTER", "city": "ROCHESTER", "state": "NY", "zip": "14624-0292", "ntee": "X21", "ruling": "200401", "deductibility": "1", "assets": 0, "income": 0, "revenue": 0}, {"ein": "222531849", "name": "WALKING THE WALK MINISTRIES", "city": "ALBANY", "state": "NY", "zip": "12206-3206", "ntee": "", "ruling": "198408", "deductibility": "1", "assets": 127030, "income": 17107, "revenue": 17107}, {"ein": "274787826", "name": "OPERATION WALK NEW YORK INC", "city": "SYRACUSE", "state": "NY", "zip": "13214-0580", "ntee": "E99", "ruling": "201104", "deductibility": "1", "assets": 11549, "income": 140160, "revenue": 64561}, {"ein": "332813514", "name": "RUN-WALK FOR KATHY&PAULO INC", "city": "NEW YORK", "state": "NY", "zip": "10128-4267", "ntee": "O12", "ruling": "202501", "deductibility": "1", "assets": 0, "income": 0, "revenue": 0}, {"ein": "453676705", "name": "MECHANICVILLE STILLWATER BREAST CANCER WALK INC", "city": "MECHANICVILLE", "state": "NY", "zip": "12118-0005", "ntee": "G12", "ruling": "201801", "deductibility": "1", "assets": 0, "income": 0, "revenue": 0}, {"ein": "454855356", "name": "WALK THE WALK AMERICA INC", "city": "ROCHESTER", "state": "NY", "zip": "14604-2711", "ntee": "H12", "ruling": "201301", "deductibility": "1", "assets": 5948, "income": 0, "revenue": 0}, {"ein": "571225998", "name": "WALKING THE WALK CHRISTIAN CENTER", "city": "ALBANY", "state": "NY", "zip": "12206-3206", "ntee": "", "ruling": "196402", "deductibility": "1", "assets": 0, "income": 0, "revenue": 0}, {"ein": "813679228", "name": "WALK MINISTRIES INC", "city": "WHITNEY POINT", "state": "NY", "zip": "13862-0242", "ntee": "X20", "ruling": "201807", "deductibility": "1", "assets": 0, "income": 0, "revenue": 0}, {"ein": "814491971", "name": "WALK WITH US-NYC", "city": "NEW YORK", "state": "NY", "zip": "10280-1438", "ntee": "P99", "ruling": "201612", "deductibility": "1", "assets": 0, "income": 0, "revenue": 0}, {"ein": "822022440", "name": "WALK ON US FOUNDATION", "city": "EAST SETAUKET", "state": "NY", "zip": "11733-6461", "ntee": "P12", "ruling": "201905", "deductibility": "1", "assets": 0, "income": 0, "revenue": 0}, {"ein": "822049334", "name": "HOPE WALK OF YATES COUNTY INC", "city": "PENN YAN", "state": "NY", "zip": "14527-0174", "ntee": "G30", "ruling": "201711", "deductibility": "1", "assets": 203914, "income": 62154, "revenue": 62154}, {"ein": "823694913", "name": "WALK WITH FRANK INC", "city": "BAY SHORE", "state": "NY", "zip": "11706-6215", "ntee": "P01", "ruling": "201810", "deductibility": "1", "assets": 54, "income": 16634, "revenue": 16634}, {"ein": "830606192", "name": "WESTERN NEW YORK WALK TO EMMAUS INC", "city": "ATTICA", "state": "NY", "zip": "14011-1037", "ntee": "X21", "ruling": "201807", "deductibility": "1", "assets": 0, "income": 0, "revenue": 0}, {"ein": "833372710", "name": "OPERATION WALK ALBANY INC", "city": "LOUDONVILLE", "state": "NY", "zip": "12211-1430", "ntee": "P20", "ruling": "201911", "deductibility": "1", "assets": 0, "income": 0, "revenue": 0}, {"ein": "853954598", "name": "WALK BY FAITH DELIVERANCE INTERNATIONAL MINISTRY INC", "city": "BROOKLYN", "state": "NY", "zip": "11236-1823", "ntee": "X20", "ruling": "202302", "deductibility": "1", "assets": 0, "income": 0, "revenue": 0}, {"ein": "854229863", "name": "WALK IN THE LIGHT WITH BEN THOMAS INC", "city": "EAST MEADOW", "state": "NY", "zip": "11554-4538", "ntee": "P99", "ruling": "202107", "deductibility": "1", "assets": 117, "income": 3169, "revenue": 3169}, {"ein": "862660177", "name": "WALK OF HOPE FOUNDATION INC", "city": "NEW YORK", "state": "NY", "zip": "10023-9600", "ntee": "L99", "ruling": "202107", "deductibility": "1", "assets": 0, "income": 0, "revenue": 0}, {"ein": "900765620", "name": "WALK IN LOVE FOR JESUS CHURCH INC", "city": "N BELLMORE", "state": "NY", "zip": "11710-1659", "ntee": "X21", "ruling": "201110", "deductibility": "1", "assets": 0, "income": 0, "revenue": 0}], "FARBMAN": [{"ein": "134008937", "name": "FARBMAN FAMILY FOUNDATION", "city": "WATER MILL", "state": "NY", "zip": "11976-3204", "ntee": "T20Z", "ruling": "199807", "deductibility": "1", "assets": 1752150, "income": 2262673, "revenue": 0}], "LART": [{"ein": "134131465", "name": "LART INC", "city": "NEW YORK", "state": "NY", "zip": "10009-8076", "ntee": "A20", "ruling": "200101", "deductibility": "1", "assets": 0, "income": 0, "revenue": 0}, {"ein": "261457771", "name": "LART FOUNDATION", "city": "BROOKLYN", "state": "NY", "zip": "11204-1113", "ntee": "T20", "ruling": "201007", "deductibility": "1", "assets": 85117, "income": 3440, "revenue": 0}, {"ein": "806210595", "name": "LART CHARITABLE TRUST", "city": "BROOKLYN", "state": "NY", "zip": "11204-1025", "ntee": "", "ruling": "000000", "deductibility": "0", "assets": 1587199, "income": 777264, "revenue": 0}], "CONSTRUCTIVE": [{"ein": "134147836", "name": "EDWARD J MALLOY INITIATIVE FOR CONSTRUCTIVE SKILLS INC", "city": "NEW YORK", "state": "NY", "zip": "10001-2820", "ntee": "B30", "ruling": "200211", "deductibility": "1", "assets": 2357333, "income": 1398385, "revenue": 1346907}, {"ein": "831584317", "name": "CONSTRUCTIVE DEVELOPMENTAL STEPS INC", "city": "BROOKLYN", "state": "NY", "zip": "11210-3938", "ntee": "P20", "ruling": "201903", "deductibility": "1", "assets": 0, "income": 0, "revenue": 0}, {"ein": "833388563", "name": "CONSTRUCTIVE DIALOGUE INSTITUTE INC", "city": "NEW YORK", "state": "NY", "zip": "10016-2817", "ntee": "W12", "ruling": "201907", "deductibility": "1", "assets": 2679188, "income": 1333282, "revenue": 1333282}], "ORNAMENTAL": [{"ein": "135157704", "name": "INTERNATIONAL ASSN OF BRIDGE STRUCTURAL & ORNAMENTAL IRON WKRS", "city": "NEW YORK", "state": "NY", "zip": "10036-6205", "ntee": "", "ruling": "194301", "deductibility": "2", "assets": 40998135, "income": 29758870, "revenue": 4313989}, {"ein": "136589047", "name": "ORNAMENTAL METAL INSTITUTE OF NEW YORK", "city": "NEW YORK", "state": "NY", "zip": "10016-0609", "ntee": "", "ruling": "197304", "deductibility": "2", "assets": 7306011, "income": 2915031, "revenue": 871747}, {"ein": "140771904", "name": "INTERNATIONAL ASSOCIATION OF BRIDGE STRUCTURAL & ORNAMENTAL IRON", "city": "LATHAM", "state": "NY", "zip": "12110-2203", "ntee": "", "ruling": "194411", "deductibility": "2", "assets": 1290107, "income": 1012513, "revenue": 1012513}, {"ein": "140773233", "name": "INTERNATIONAL ASSOCIATION OF BRIDGE STRUCTURAL & ORNAMENTAL IRON", "city": "WALLKILL", "state": "NY", "zip": "12589-2708", "ntee": "", "ruling": "194411", "deductibility": "2", "assets": 4263330, "income": 1041294, "revenue": 1039431}, {"ein": "150347910", "name": "INTERNATIONAL ASSN OF BRIDGE STRCTL & ORNAMENTAL IRONWKRS 60 AFL-CIO", "city": "SYRACUSE", "state": "NY", "zip": "13204-2302", "ntee": "", "ruling": "194603", "deductibility": "2", "assets": 3437030, "income": 2008367, "revenue": 874757}, {"ein": "160492630", "name": "INTERNATIONAL ASSOC OF BRIDGE STRUCTURAL ORNAMENTAL IRON WKS 33", "city": "ROCHESTER", "state": "NY", "zip": "14624-2532", "ntee": "", "ruling": "195710", "deductibility": "2", "assets": 469364, "income": 479232, "revenue": 478522}, {"ein": "160571742", "name": "INTERNATIONAL ASSOCIATION BRIDGE ORNAMENTAL IRON WORKERS 9", "city": "NIAGARA FALLS", "state": "NY", "zip": "14303-0000", "ntee": "", "ruling": "195606", "deductibility": "2", "assets": 222831, "income": 343898, "revenue": 343898}], "EATON": [{"ein": "136076804", "name": "THE EATON FAMILY FUND INC", "city": "HUNTINGTN STA", "state": "NY", "zip": "11746-0091", "ntee": "", "ruling": "196002", "deductibility": "1", "assets": 107851, "income": 19187, "revenue": 0}, {"ein": "136112113", "name": "ANNIE EATON SOCIETY INC", "city": "NEW YORK", "state": "NY", "zip": "10075-0440", "ntee": "", "ruling": "195111", "deductibility": "1", "assets": 1067912, "income": 85405, "revenue": 35740}, {"ein": "136141239", "name": "JOSEPH AND LILLIAN EATON FOUNDATION", "city": "NEW YORK", "state": "NY", "zip": "10025-0000", "ntee": "", "ruling": "196004", "deductibility": "1", "assets": 16373, "income": 6990, "revenue": 0}, {"ein": "141790964", "name": "SMITHFIELD EATON VOLUNTEER AMBULANCE CORP", "city": "MORRISVILLE", "state": "NY", "zip": "13408-1030", "ntee": "M23", "ruling": "200202", "deductibility": "1", "assets": 511264, "income": 711635, "revenue": 711635}, {"ein": "161100071", "name": "EATON BIRDING SOCIETY INC", "city": "SENECA FALLS", "state": "NY", "zip": "13148-1611", "ntee": "D30", "ruling": "201203", "deductibility": "1", "assets": 0, "income": 0, "revenue": 0}, {"ein": "161191041", "name": "EATON DEABOLD SCHOLARSHIP TRUST UW", "city": "BUFFALO", "state": "NY", "zip": "14240-1504", "ntee": "", "ruling": "000000", "deductibility": "0", "assets": 0, "income": 0, "revenue": 0}, {"ein": "161289368", "name": "WARREN E EATON JR CHARITABLE TRUST", "city": "NORWICH", "state": "NY", "zip": "13815-0000", "ntee": "", "ruling": "198712", "deductibility": "1", "assets": 382539, "income": 35867, "revenue": 0}, {"ein": "166044769", "name": "ROBERT D EATON ATHLETIC FUND", "city": "NORWICH", "state": "NY", "zip": "13815-0000", "ntee": "", "ruling": "197309", "deductibility": "1", "assets": 36987, "income": 2135, "revenue": 0}, {"ein": "166480108", "name": "WARREN E EATON", "city": "NORWICH", "state": "NY", "zip": "13815-0000", "ntee": "T20", "ruling": "199909", "deductibility": "1", "assets": 9582, "income": 527, "revenue": 0}, {"ein": "261473149", "name": "MORRISVILLE-EATON SPORTS BOOSTERS", "city": "MORRISVILLE", "state": "NY", "zip": "13408-1122", "ntee": "B12", "ruling": "202306", "deductibility": "1", "assets": 0, "income": 0, "revenue": 0}, {"ein": "311671682", "name": "EATON KNOLLS HOUSING DEVELOPMENT FUND CORPORATION", "city": "HAUPPAUGE", "state": "NY", "zip": "11788-2018", "ntee": "L20", "ruling": "199912", "deductibility": "1", "assets": 1514664, "income": 228820, "revenue": 228820}, {"ein": "475684972", "name": "FRIENDS OF THE OLD TOWN OF EATON MUSEUM", "city": "EATON", "state": "NY", "zip": "13334-3109", "ntee": "A54", "ruling": "201704", "deductibility": "1", "assets": 0, "income": 0, "revenue": 0}, {"ein": "832506645", "name": "DONALD H EATON & HAROLD FRENCH FOUNDATION INC", "city": "NEW YORK", "state": "NY", "zip": "10037-1765", "ntee": "P20", "ruling": "201908", "deductibility": "1", "assets": 1193635, "income": 17472, "revenue": 17472}, {"ein": "854263091", "name": "EATON FIRE DEPARTMENT", "city": "EATON", "state": "NY", "zip": "13334-0052", "ntee": "M24", "ruling": "202108", "deductibility": "1", "assets": 0, "income": 0, "revenue": 0}, {"ein": "854285519", "name": "WEST EATON VOLUNTEER FIREMANS ASSN", "city": "EATON", "state": "NY", "zip": "13334-0052", "ntee": "M24", "ruling": "202108", "deductibility": "1", "assets": 0, "income": 0, "revenue": 0}], "INVESTING": [{"ein": "136115754", "name": "COMMON INVESTING FUND OF THE LUTHERAN CHURCH IN AMERICA INCORPO", "city": "NEW YORK", "state": "NY", "zip": "10016-3405", "ntee": "", "ruling": "195312", "deductibility": "1", "assets": 0, "income": 0, "revenue": 0}, {"ein": "261496920", "name": "THE IMPACT INVESTING FOUNDATION", "city": "NEW YORK", "state": "NY", "zip": "10001-0891", "ntee": "T20", "ruling": "200804", "deductibility": "1", "assets": 1117530, "income": 69492, "revenue": 0}, {"ein": "273166994", "name": "GLOBAL IMPACT INVESTING NETWORK INC", "city": "NEW YORK", "state": "NY", "zip": "10004-1412", "ntee": "T50", "ruling": "201201", "deductibility": "1", "assets": 15751354, "income": 10577276, "revenue": 10577276}], "RAIZEN": [{"ein": "136122579", "name": "CHARLES S RAIZEN FDN INC", "city": "SCARSDALE", "state": "NY", "zip": "10583-7642", "ntee": "", "ruling": "194607", "deductibility": "1", "assets": 3663528, "income": 1059890, "revenue": 0}], "NOVAREDOK": [{"ein": "136161364", "name": "YESHIVATH BETH JOSEPH NOVAREDOK OF JERUSALEM INC", "city": "NEW YORK", "state": "NY", "zip": "10002-2674", "ntee": "X123", "ruling": "195604", "deductibility": "1", "assets": 0, "income": 0, "revenue": 0}], "ROOTHBERT": [{"ein": "136162570", "name": "ROOTHBERT FUND INC", "city": "NEW YORK", "state": "NY", "zip": "10115-0056", "ntee": "", "ruling": "196002", "deductibility": "1", "assets": 6303032, "income": 804037, "revenue": 0}], "YOUNGS": [{"ein": "141340011", "name": "PLATTSBURG YOUNGS MENS CHRISTIAN ASSOC", "city": "PLATTSBURGH", "state": "NY", "zip": "12901-2810", "ntee": "", "ruling": "194301", "deductibility": "1", "assets": 5427912, "income": 6110005, "revenue": 6110005}, {"ein": "221586056", "name": "YOUNGS MEMORIAL CEMETERY ASSOCIATION", "city": "OYSTER BAY", "state": "NY", "zip": "11771-0720", "ntee": "", "ruling": "195104", "deductibility": "1", "assets": 1402788, "income": 759940, "revenue": 189014}, {"ein": "237135058", "name": "YOUNGS TABERNACLE HOLINESS CHURCH INC", "city": "BUFFALO", "state": "NY", "zip": "14206-1739", "ntee": "", "ruling": "197309", "deductibility": "1", "assets": 0, "income": 0, "revenue": 0}], "LAMOURE": [{"ein": "141391037", "name": "AMERICAN LEGION POST 0072 LAMOURE- HACKETT", "city": "SAUGERTIES", "state": "NY", "zip": "12477-1307", "ntee": "", "ruling": "194603", "deductibility": "1", "assets": 352112, "income": 384530, "revenue": 274411}], "JEWETT": [{"ein": "141590292", "name": "EAST JEWETT FIRE DEPARTMENT INC", "city": "TANNERSVILLE", "state": "NY", "zip": "12485-0000", "ntee": "", "ruling": "198308", "deductibility": "1", "assets": 210904, "income": 42324, "revenue": 42324}, {"ein": "146024930", "name": "JEWETT FIRE DEPARTMENT INC", "city": "JEWETT", "state": "NY", "zip": "12444-0000", "ntee": "M24", "ruling": "200310", "deductibility": "2", "assets": 343026, "income": 60079, "revenue": 51924}, {"ein": "474078146", "name": "WINDHAM ASHLAND JEWETT EDUCATIONAL FOUNDATION INC", "city": "WINDHAM", "state": "NY", "zip": "12496-5608", "ntee": "O12", "ruling": "201702", "deductibility": "1", "assets": 0, "income": 0, "revenue": 0}], "TRUNORTHERN": [{"ein": "141596147", "name": "TRUNORTHERN FEDERAL CREDIT UNION", "city": "MALONE", "state": "NY", "zip": "12953-2100", "ntee": "", "ruling": "202204", "deductibility": "0", "assets": 0, "income": 0, "revenue": 0}], "CURRYTOWN": [{"ein": "141596201", "name": "CURRYTOWN REFORMED CHURCH", "city": "SPRAKERS", "state": "NY", "zip": "12166-4011", "ntee": "", "ruling": "196801", "deductibility": "1", "assets": 0, "income": 0, "revenue": 0}], "ELBOW": [{"ein": "141702603", "name": "CRUM ELBOW SPORTSMENS ASSOCIATION INC", "city": "HYDE PARK", "state": "NY", "zip": "12538-2855", "ntee": "", "ruling": "198811", "deductibility": "2", "assets": 251500, "income": 58968, "revenue": 54235}, {"ein": "146027710", "name": "CRUM ELBOW RURAL CEMETERY ASSN OF HYDE PARK", "city": "HYDE PARK", "state": "NY", "zip": "12538-0000", "ntee": "Y50", "ruling": "201703", "deductibility": "1", "assets": 0, "income": 0, "revenue": 0}, {"ein": "812982743", "name": "INTERNATIONAL BOARD OF SHOULDER AND ELBOW SURGERY", "city": "NEW YORK", "state": "NY", "zip": "10025-1814", "ntee": "E03", "ruling": "202410", "deductibility": "1", "assets": 0, "income": 0, "revenue": 0}, {"ein": "850936551", "name": "FRIENDS OF CRUM ELBOW MEETING HOUSE INC", "city": "HYDE PARK", "state": "NY", "zip": "12538-3018", "ntee": "A80", "ruling": "202005", "deductibility": "1", "assets": 0, "income": 0, "revenue": 0}], "TOT": [{"ein": "141734545", "name": "TENDERCARE TOT CENTER INC", "city": "RAY BROOK", "state": "NY", "zip": "12977-0303", "ntee": "P33Z", "ruling": "199209", "deductibility": "1", "assets": 20124, "income": 266442, "revenue": 266442}], "ALIGHT": [{"ein": "141742767", "name": "ALIGHT CENTER INC", "city": "HUDSON", "state": "NY", "zip": "12534-1231", "ntee": "E42Z", "ruling": "199211", "deductibility": "1", "assets": 391475, "income": 230781, "revenue": 230781}, {"ein": "141809008", "name": "ALIGHT CARE CENTER", "city": "TROY", "state": "NY", "zip": "12181-1202", "ntee": "R620", "ruling": "200006", "deductibility": "1", "assets": 32710, "income": 97974, "revenue": 97974}, {"ein": "833926783", "name": "ALIGHT THEATER GUILD", "city": "ASTORIA", "state": "NY", "zip": "11106-3396", "ntee": "A65", "ruling": "201904", "deductibility": "1", "assets": 0, "income": 0, "revenue": 0}], "AUSABLE": [{"ein": "141798052", "name": "AUSABLE FORKS VOLUNTEER AMBULANCE SERVICE CORPORATION", "city": "AU SABLE FRKS", "state": "NY", "zip": "12912-0835", "ntee": "M24", "ruling": "200311", "deductibility": "1", "assets": 320641, "income": 685815, "revenue": 685815}, {"ein": "141809764", "name": "AUSABLE RIVER ASSOCIATION INC", "city": "WILMINGTON", "state": "NY", "zip": "12997-0008", "ntee": "C053", "ruling": "199909", "deductibility": "1", "assets": 486415, "income": 1342336, "revenue": 1334568}, {"ein": "146031129", "name": "AUSABLE FORKS KNIGHTS OF COLUMBUS HOME ASSOCIATION INC", "city": "AU SABLE FRKS", "state": "NY", "zip": "12912-0719", "ntee": "", "ruling": "193901", "deductibility": "2", "assets": 0, "income": 0, "revenue": 0}, {"ein": "146049889", "name": "AUSABLE FORKS FIRE DEPARTMENT INC", "city": "AU SABLE FRKS", "state": "NY", "zip": "12912-0785", "ntee": "M24", "ruling": "200903", "deductibility": "1", "assets": 238158, "income": 281806, "revenue": 277098}, {"ein": "161604571", "name": "UPPER AUSABLE COMMUNITY ASSOCIATION INC", "city": "KEENE VALLEY", "state": "NY", "zip": "12943-0498", "ntee": "C99", "ruling": "200112", "deductibility": "1", "assets": 0, "income": 0, "revenue": 0}, {"ein": "203719078", "name": "AUSABLE CLUB PRESERVATION FOUNDATION", "city": "KEENE VALLEY", "state": "NY", "zip": "12943-1718", "ntee": "A80", "ruling": "200612", "deductibility": "1", "assets": 2528030, "income": 466559, "revenue": 370619}, {"ein": "991069112", "name": "AUSABLE RIVER BANDITS", "city": "PORT KENT", "state": "NY", "zip": "12975-0000", "ntee": "N63", "ruling": "202505", "deductibility": "1", "assets": 0, "income": 0, "revenue": 0}], "WOOL": [{"ein": "141800663", "name": "DUTCHESS COUNTY SHEEP & WOOL GROWERS ASSOCIATION INC", "city": "RED HOOK", "state": "NY", "zip": "12571-0415", "ntee": "K26", "ruling": "200610", "deductibility": "1", "assets": 1284876, "income": 521525, "revenue": 415085}], "HARPERSFIELD": [{"ein": "141909960", "name": "HARPERSFIELD HISTORICAL SOCIETY", "city": "HARPERSFIELD", "state": "NY", "zip": "13786-0264", "ntee": "A80", "ruling": "200410", "deductibility": "1", "assets": 0, "income": 0, "revenue": 0}], "TRNG": [{"ein": "156012484", "name": "NEW YORK STATE FUTURE FARMERS LEADERSHIP TRNG FOUNDATION INC", "city": "CROGHAN", "state": "NY", "zip": "13327-2525", "ntee": "O52Z", "ruling": "199612", "deductibility": "1", "assets": 6226804, "income": 1703043, "revenue": 1650593}], "HANNIBAL": [{"ein": "156023028", "name": "HANNIBAL COMMUNITY CHURCH", "city": "HANNIBAL", "state": "NY", "zip": "13074-3150", "ntee": "", "ruling": "195504", "deductibility": "1", "assets": 0, "income": 0, "revenue": 0}, {"ein": "160952597", "name": "HANNIBAL CEMETERY ASSOCIATION", "city": "HANNIBAL", "state": "NY", "zip": "13074-0119", "ntee": "", "ruling": "197011", "deductibility": "2", "assets": 198191, "income": 76685, "revenue": 76685}, {"ein": "166062091", "name": "HANNIBAL FIRE COMPANY", "city": "HANNIBAL", "state": "NY", "zip": "13074-0252", "ntee": "M24", "ruling": "200005", "deductibility": "1", "assets": 2608120, "income": 709069, "revenue": 495620}, {"ein": "203171724", "name": "HANNIBAL SPORTS BOOSTERS INC", "city": "HANNIBAL", "state": "NY", "zip": "13074-0062", "ntee": "B11", "ruling": "200511", "deductibility": "1", "assets": 17254, "income": 11126, "revenue": 6078}, {"ein": "222283078", "name": "HANNIBAL HISTORICAL SOCIETY", "city": "HANNIBAL", "state": "NY", "zip": "13074-0150", "ntee": "", "ruling": "198002", "deductibility": "1", "assets": 0, "income": 0, "revenue": 0}, {"ein": "237139287", "name": "HANNIBAL LODGE NO 550 F & A M", "city": "HANNIBAL", "state": "NY", "zip": "13074-0262", "ntee": "N50", "ruling": "202406", "deductibility": "1", "assets": 0, "income": 0, "revenue": 0}, {"ein": "452253878", "name": "HANNIBAL HOME AND SCHOOL INC", "city": "HANNIBAL", "state": "NY", "zip": "13074-0067", "ntee": "P20", "ruling": "202409", "deductibility": "1", "assets": 0, "income": 0, "revenue": 0}, {"ein": "611775895", "name": "HANNIBAL WRESTLING CLUB INC", "city": "FULTON", "state": "NY", "zip": "13069-1704", "ntee": "N62", "ruling": "201512", "deductibility": "1", "assets": 0, "income": 0, "revenue": 0}, {"ein": "990986937", "name": "HANNIBAL ALUMNI ASSOCIATION", "city": "OSWEGO", "state": "NY", "zip": "13126-6561", "ntee": "B84", "ruling": "202403", "deductibility": "1", "assets": 0, "income": 0, "revenue": 0}], "DORMANN": [{"ein": "160835026", "name": "DORMANN LIBRARY", "city": "BATH", "state": "NY", "zip": "14810-1436", "ntee": "B71Z", "ruling": "196007", "deductibility": "1", "assets": 3072830, "income": 710141, "revenue": 710141}], "NRHS": [{"ein": "160923497", "name": "CENTRAL NEW YORK CHAPTER NRHS INC", "city": "MARCELLUS", "state": "NY", "zip": "13108-0229", "ntee": "A82Z", "ruling": "197002", "deductibility": "1", "assets": 334697, "income": 142184, "revenue": 83131}, {"ein": "166056682", "name": "NIAGARA FRONTIER CHAPTER NRHS INC", "city": "N TONAWANDA", "state": "NY", "zip": "14120-9043", "ntee": "", "ruling": "196601", "deductibility": "1", "assets": 0, "income": 0, "revenue": 0}, {"ein": "832573160", "name": "NRHS AOF INC", "city": "THIELLS", "state": "NY", "zip": "10984-1201", "ntee": "B82", "ruling": "201812", "deductibility": "1", "assets": 0, "income": 0, "revenue": 0}, {"ein": "861445539", "name": "NRHS CLASS OF 2001 FUND", "city": "STONY POINT", "state": "NY", "zip": "10980-2408", "ntee": "B84", "ruling": "202109", "deductibility": "1", "assets": 0, "income": 0, "revenue": 0}], "HARMONIA": [{"ein": "161013562", "name": "HARMONIA COLLABORATIVE CARE INC", "city": "DERBY", "state": "NY", "zip": "14047-9670", "ntee": "", "ruling": "197207", "deductibility": "1", "assets": 1539548, "income": 3282575, "revenue": 3178875}, {"ein": "461038832", "name": "HARMONIA CHAMBER SINGERS INC", "city": "LEWISTON", "state": "NY", "zip": "14092-2344", "ntee": "A6B", "ruling": "201305", "deductibility": "1", "assets": 21037, "income": 74966, "revenue": 74966}], "GILS": [{"ein": "161176388", "name": "GILS HILLS INC", "city": "WELLSVILLE", "state": "NY", "zip": "14895-9634", "ntee": "", "ruling": "198303", "deductibility": "1", "assets": 360714, "income": 163368, "revenue": 0}], "UBF": [{"ein": "161372560", "name": "UBF FACULTY-STUDENT HOUSING CORP", "city": "BUFFALO", "state": "NY", "zip": "14226-0900", "ntee": "B114", "ruling": "199010", "deductibility": "1", "assets": 147269745, "income": 30506516, "revenue": 29447880}, {"ein": "510164454", "name": "UBF CORPORATION", "city": "BUFFALO", "state": "NY", "zip": "14226-0900", "ntee": "", "ruling": "197609", "deductibility": "2", "assets": 4428992, "income": 462708, "revenue": 462708}, {"ein": "810981924", "name": "SOCIAL CLUB UBF INCORPORATED", "city": "BUFFALO", "state": "NY", "zip": "14224-2181", "ntee": "N50", "ruling": "201602", "deductibility": "2", "assets": 4784, "income": 11002, "revenue": 11002}], "CHOCONUT": [{"ein": "161414441", "name": "CHOCONUT CENTER VOLUNTEER FIRE CO INC", "city": "BINGHAMTON", "state": "NY", "zip": "13905-6201", "ntee": "M24", "ruling": "200811", "deductibility": "1", "assets": 742173, "income": 207554, "revenue": 207554}, {"ein": "271476031", "name": "CHOCONUT CREEK HOUSING CORPORATION", "city": "BINGHAMTON", "state": "NY", "zip": "13905-2225", "ntee": "L22", "ruling": "201106", "deductibility": "1", "assets": 2500176, "income": 126767, "revenue": 126767}, {"ein": "932962355", "name": "CHOCONUT CENTER CHRISTIAN CHURCH", "city": "BINGHAMTON", "state": "NY", "zip": "13905-1005", "ntee": "X21", "ruling": "202402", "deductibility": "1", "assets": 0, "income": 0, "revenue": 0}], "BREASTFEEDING": [{"ein": "161418622", "name": "MOHAWK VALLEY BREASTFEEDING NETWORK", "city": "UTICA", "state": "NY", "zip": "13501-5643", "ntee": "P99", "ruling": "201409", "deductibility": "1", "assets": 0, "income": 0, "revenue": 0}, {"ein": "161525368", "name": "SOUTHERN TIER BREASTFEEDING COALITION INC", "city": "BINGHAMTON", "state": "NY", "zip": "13905-2474", "ntee": "E01", "ruling": "201807", "deductibility": "1", "assets": 0, "income": 0, "revenue": 0}, {"ein": "223143608", "name": "ROCHESTER REGIONAL BREASTFEEDING NETWORK INC", "city": "ROCHESTER", "state": "NY", "zip": "14692-8172", "ntee": "E70", "ruling": "201602", "deductibility": "1", "assets": 0, "income": 0, "revenue": 0}, {"ein": "300392884", "name": "NEW YORK STATEWIDE BREASTFEEDING COALITION", "city": "DELMAR", "state": "NY", "zip": "12054-0061", "ntee": "E99", "ruling": "201202", "deductibility": "1", "assets": 0, "income": 0, "revenue": 0}], "OTTOS": [{"ein": "166041580", "name": "OTTOS MILLS FISH AND GAME CLUB INC", "city": "ALBANY", "state": "NY", "zip": "12208-2311", "ntee": "", "ruling": "197708", "deductibility": "2", "assets": 231549, "income": 37098, "revenue": 18979}], "ISOKO": [{"ein": "201124862", "name": "ISOKO ASSOCIATION OF NEW YORK", "city": "MOUNT VERNON", "state": "NY", "zip": "10552-1203", "ntee": "Q33", "ruling": "201206", "deductibility": "1", "assets": 0, "income": 0, "revenue": 0}], "VEHATZLACHA": [{"ein": "202058937", "name": "BRACHA VEHATZLACHA FOUNDATION INC", "city": "BROOKLYN", "state": "NY", "zip": "11219-3134", "ntee": "T20", "ruling": "200509", "deductibility": "1", "assets": 9985, "income": 241000, "revenue": 0}], "92ND": [{"ein": "202550073", "name": "334 EAST 92ND HOUSING DEVELOPMENT FUND CORP", "city": "NEW YORK", "state": "NY", "zip": "10004-1561", "ntee": "L21", "ruling": "200609", "deductibility": "1", "assets": 8460902, "income": 290884, "revenue": 290884}], "GARDENERS": [{"ein": "204221358", "name": "LONG ISLAND MASTER GARDENERS", "city": "BLUE POINT", "state": "NY", "zip": "11715-1004", "ntee": "C42", "ruling": "201408", "deductibility": "2", "assets": 0, "income": 0, "revenue": 0}, {"ein": "474575487", "name": "SOUTH TOWNS GARDENERS", "city": "WEST SENECA", "state": "NY", "zip": "14224-4923", "ntee": "C42", "ruling": "201903", "deductibility": "1", "assets": 0, "income": 0, "revenue": 0}], "SOAR": [{"ein": "204562527", "name": "SOAR FOUNDATION INC", "city": "HUNTINGTN STA", "state": "NY", "zip": "11746-0539", "ntee": "B28", "ruling": "200710", "deductibility": "1", "assets": 80350, "income": 134, "revenue": 134}, {"ein": "334216103", "name": "SOAR 4 SOLUTIONS INC", "city": "BUFFALO", "state": "NY", "zip": "14215-2330", "ntee": "E70", "ruling": "202506", "deductibility": "1", "assets": 0, "income": 0, "revenue": 0}, {"ein": "820772262", "name": "EAGLES EMPOWERED TO SOAR -EETS", "city": "MANHATTAN", "state": "NY", "zip": "10018-2794", "ntee": "S80", "ruling": "201906", "deductibility": "1", "assets": 30100, "income": 35600, "revenue": 35600}, {"ein": "851505625", "name": "SOAR INSTITUTE", "city": "CENTRAL ISLIP", "state": "NY", "zip": "11722-3402", "ntee": "F99", "ruling": "202010", "deductibility": "1", "assets": 58235, "income": 83854, "revenue": 83854}, {"ein": "851927940", "name": "SOAR SCHOLAR INC", "city": "MOUNT VERNON", "state": "NY", "zip": "10550-4901", "ntee": "B82", "ruling": "202009", "deductibility": "1", "assets": 0, "income": 0, "revenue": 0}, {"ein": "873532943", "name": "SOAR OVER HATE INCORPORATED", "city": "NEW YORK", "state": "NY", "zip": "10016-3700", "ntee": "R20", "ruling": "202201", "deductibility": "1", "assets": 61958, "income": 20610, "revenue": 20610}, {"ein": "992454507", "name": "SOAR RUNNING CLUB INC", "city": "PAINTED POST", "state": "NY", "zip": "14870-0358", "ntee": "N99", "ruling": "202405", "deductibility": "1", "assets": 0, "income": 0, "revenue": 0}], "NEL": [{"ein": "205111564", "name": "CONFEDERAZIONE DEGLI IMPRENDITORI ITALIANI NEL MONDO USA", "city": "NEW YORK", "state": "NY", "zip": "10118-0000", "ntee": "S41", "ruling": "200801", "deductibility": "2", "assets": 180, "income": 0, "revenue": 0}], "CENTERAUXILIARY": [{"ein": "205223843", "name": "ORANGE REGIONAL MEDICAL CENTERAUXILIARY", "city": "MIDDLETOWN", "state": "NY", "zip": "10940-2650", "ntee": "E112", "ruling": "200611", "deductibility": "1", "assets": 31128, "income": 14495, "revenue": 14495}], "BUILDINGMATERIAL": [{"ein": "205395082", "name": "RHODE ISLAND LUMBER BUILDINGMATERIAL DEALERS ASSOCIATION", "city": "RENSSELAER", "state": "NY", "zip": "12144-8419", "ntee": "S41", "ruling": "200705", "deductibility": "2", "assets": 54002, "income": 134140, "revenue": 97763}], "TRAVELED": [{"ein": "205418226", "name": "ROAD LESS TRAVELED INC", "city": "RYE", "state": "NY", "zip": "10580-0441", "ntee": "Q12", "ruling": "200611", "deductibility": "1", "assets": 0, "income": 0, "revenue": 0}, {"ein": "651226927", "name": "ROAD LESS TRAVELED PRODUCTIONS LTD", "city": "BUFFALO", "state": "NY", "zip": "14202-3203", "ntee": "A65", "ruling": "200409", "deductibility": "1", "assets": 1042942, "income": 510205, "revenue": 510205}, {"ein": "993968376", "name": "DISTANCE TRAVELED", "city": "BROOKLYN", "state": "NY", "zip": "11215-3691", "ntee": "B90", "ruling": "202502", "deductibility": "1", "assets": 0, "income": 0, "revenue": 0}], "SCHOOLLIBRARIANS": [{"ein": "205838672", "name": "ASSOCIATION OF ARCHITECTURE SCHOOLLIBRARIANS", "city": "NEW YORK", "state": "NY", "zip": "10027-6811", "ntee": "B03", "ruling": "201407", "deductibility": "2", "assets": 28791, "income": 15605, "revenue": 15605}], "REDL": [{"ein": "207204295", "name": "HERBERT H REDL FAMILY FOUNDATION", "city": "PLEASANT VLY", "state": "NY", "zip": "12569-0636", "ntee": "T22", "ruling": "200710", "deductibility": "1", "assets": 11301810, "income": 2584943, "revenue": 0}], "CRP": [{"ein": "222768870", "name": "DETECTIVES CRIME CLINIC METROPOLITN NEW JERSEY-NEW YORK A NJ NNPFT CRP", "city": "BRONX", "state": "NY", "zip": "10451-1219", "ntee": "", "ruling": "199005", "deductibility": "1", "assets": 0, "income": 0, "revenue": 0}], "BOCKUS": [{"ein": "237120665", "name": "BOCKUS INTERNATIONAL SOCIETY OF GASTROENTEROLOGY INC", "city": "EAST HILLS", "state": "NY", "zip": "11576-2725", "ntee": "H70Z", "ruling": "197202", "deductibility": "1", "assets": 755766, "income": 62871, "revenue": 21275}], "LONGHILL": [{"ein": "237149847", "name": "LONGHILL CHARITABLE FOUNDATION INC", "city": "NEW YORK", "state": "NY", "zip": "10020-0000", "ntee": "", "ruling": "197307", "deductibility": "1", "assets": 28790746, "income": 13262897, "revenue": 0}], "REMEDCO": [{"ein": "237152841", "name": "REMEDCO FOUNDATION INC", "city": "NEW YORK", "state": "NY", "zip": "10027-7141", "ntee": "", "ruling": "197302", "deductibility": "2", "assets": 253272, "income": 58802, "revenue": 11058}], "REPAIRERS": [{"ein": "261258744", "name": "REPAIRERS OF THE BREACH INTERNATIONAL CHURCH INC", "city": "MASPETH", "state": "NY", "zip": "11378-3529", "ntee": "X20", "ruling": "200908", "deductibility": "1", "assets": 0, "income": 0, "revenue": 0}, {"ein": "473753984", "name": "REPAIRERS OF BROKEN WALLS INTERNATIONAL MINISTRIES INC", "city": "BROOKLYN", "state": "NY", "zip": "11236-5412", "ntee": "X21", "ruling": "201608", "deductibility": "1", "assets": 0, "income": 0, "revenue": 0}, {"ein": "861255474", "name": "REPAIRERS OF THE BROKEN", "city": "LAWRENCE", "state": "NY", "zip": "11559-0054", "ntee": "K31", "ruling": "202104", "deductibility": "1", "assets": 8, "income": 53878, "revenue": 53878}], "DUNES": [{"ein": "261282345", "name": "SAVE THE DUNES AND BEACHES FOUNDATION INC", "city": "NEW YORK", "state": "NY", "zip": "10021-4208", "ntee": "C32", "ruling": "200907", "deductibility": "1", "assets": 11010, "income": 0, "revenue": 0}, {"ein": "611596181", "name": "EASTERN LAKE ONTARIO DUNES FOUNDATION LTD", "city": "ROCHESTER", "state": "NY", "zip": "14620-3331", "ntee": "C32", "ruling": "201107", "deductibility": "1", "assets": 0, "income": 0, "revenue": 0}], "STEEPLES": [{"ein": "261329809", "name": "THREE STEEPLES UNITED PRESBYTERIAN CHURCH", "city": "SAUQUOIT", "state": "NY", "zip": "13456-0000", "ntee": "", "ruling": "196401", "deductibility": "1", "assets": 0, "income": 0, "revenue": 0}], "BUROCH": [{"ein": "261501547", "name": "CONGREGATION BIAS BUROCH OF YETEV LEV", "city": "MONROE", "state": "NY", "zip": "10950-5913", "ntee": "X30", "ruling": "200910", "deductibility": "1", "assets": 0, "income": 0, "revenue": 0}, {"ein": "311658638", "name": "KEREN YAKOV BUROCH", "city": "MONROE", "state": "NY", "zip": "10950-3800", "ntee": "X30", "ruling": "199910", "deductibility": "1", "assets": 0, "income": 0, "revenue": 0}], "NEWLAND": [{"ein": "262815968", "name": "NEWLAND WOOD LADIES AUXILIARY", "city": "STILLWATER", "state": "NY", "zip": "12170-0621", "ntee": "M11", "ruling": "202407", "deductibility": "1", "assets": 0, "income": 0, "revenue": 0}], "SADDLEBREDS": [{"ein": "263358522", "name": "TEAM AMERICAN SADDLEBREDS", "city": "COPAKE", "state": "NY", "zip": "12516-0308", "ntee": "O20", "ruling": "201407", "deductibility": "1", "assets": 0, "income": 0, "revenue": 0}], "CB": [{"ein": "263415950", "name": "CERT CB 11 INC", "city": "HOLLIS HILLS", "state": "NY", "zip": "11427-1433", "ntee": "M20", "ruling": "201409", "deductibility": "1", "assets": 0, "income": 0, "revenue": 0}, {"ein": "272257020", "name": "LIU-A&M SCHARTZ COLL - PHARM CB CHAPTER", "city": "BROOKLYN", "state": "NY", "zip": "11201-5423", "ntee": "S40", "ruling": "201110", "deductibility": "2", "assets": 16553, "income": 8320, "revenue": 8320}], "SAMADI": [{"ein": "264765351", "name": "SAMADI ROBOTICS FOUNDATION", "city": "NEW YORK", "state": "NY", "zip": "10022-5812", "ntee": "H30", "ruling": "200909", "deductibility": "1", "assets": 1553678, "income": 11000, "revenue": 0}], "MOE": [{"ein": "266393502", "name": "ERIC KAY & MOE MOE MYINT CHARITABLE FOUNDATION", "city": "BROOKLYN", "state": "NY", "zip": "11214-1909", "ntee": "T20", "ruling": "200809", "deductibility": "1", "assets": 658489, "income": 493884, "revenue": 0}, {"ein": "371615749", "name": "MOE COHEN FOUNDATION", "city": "BROOKLYN", "state": "NY", "zip": "11234-4222", "ntee": "T31", "ruling": "202401", "deductibility": "1", "assets": 0, "income": 0, "revenue": 0}, {"ein": "872895346", "name": "MOE FOUNDATION CORPORATION", "city": "HEMPSTEAD", "state": "NY", "zip": "11550-3437", "ntee": "T30", "ruling": "202210", "deductibility": "1", "assets": 1, "income": 0, "revenue": 0}, {"ein": "923509899", "name": "HOLY MOE ORG INC", "city": "STATEN ISLAND", "state": "NY", "zip": "10306-4749", "ntee": "S20", "ruling": "202405", "deductibility": "1", "assets": 0, "income": 0, "revenue": 0}], "SETALCOTT": [{"ein": "270247764", "name": "SETALCOTT NATION INC", "city": "MIDDLE ISLAND", "state": "NY", "zip": "11953-1858", "ntee": "P128", "ruling": "200910", "deductibility": "1", "assets": 0, "income": 0, "revenue": 0}], "DICKSON": [{"ein": "270454870", "name": "SLOCUM DICKSON EDUCATIONAL INSTITUTE INC", "city": "NEW HARTFORD", "state": "NY", "zip": "13413-1001", "ntee": "G43", "ruling": "201005", "deductibility": "1", "assets": 80384, "income": 12483, "revenue": 0}], "CRUISER": [{"ein": "271499984", "name": "DUTCHESS CRUISER CAR CLUB INC", "city": "WAPPINGERS FL", "state": "NY", "zip": "12590-3405", "ntee": "P12", "ruling": "201010", "deductibility": "1", "assets": 0, "income": 0, "revenue": 0}], "RUNAWAY": [{"ein": "272083855", "name": "RUNAWAY ASSISTANCE PROGRAM CORP", "city": "BROOKLYN", "state": "NY", "zip": "11211-3107", "ntee": "P30", "ruling": "201504", "deductibility": "1", "assets": 0, "income": 0, "revenue": 0}, {"ein": "472559066", "name": "NATIONAL RUNAWAY SLAVES FREEDOM FOUNDATION", "city": "SCHENECTADY", "state": "NY", "zip": "12304-1219", "ntee": "P60", "ruling": "201505", "deductibility": "1", "assets": 0, "income": 0, "revenue": 0}], "FAOU": [{"ein": "272399066", "name": "FAOU FOUNDATION", "city": "NEW YORK", "state": "NY", "zip": "10018-5706", "ntee": "A20", "ruling": "201007", "deductibility": "1", "assets": 174983, "income": 178069, "revenue": 178069}], "YONASON": [{"ein": "272508071", "name": "ZICHRON YONASON INC", "city": "MONSEY", "state": "NY", "zip": "10952-4026", "ntee": "X30", "ruling": "202403", "deductibility": "1", "assets": 0, "income": 0, "revenue": 0}, {"ein": "364516001", "name": "ZICHRON YONASON FOUNDATION", "city": "MONSEY", "state": "NY", "zip": "10952-1656", "ntee": "T21", "ruling": "200308", "deductibility": "1", "assets": 778080, "income": 476397, "revenue": 0}], "RACHEALS": [{"ein": "273462900", "name": "RACHEALS MEMORIALS FOR CHILDREN", "city": "GREENFLD CTR", "state": "NY", "zip": "12833-1812", "ntee": "P30", "ruling": "201610", "deductibility": "1", "assets": 0, "income": 0, "revenue": 0}], "GMA": [{"ein": "273696656", "name": "GMA AMERICA INC", "city": "FLUSHING", "state": "NY", "zip": "11358-2652", "ntee": "X20", "ruling": "201101", "deductibility": "1", "assets": 40134, "income": 15042, "revenue": 15042}], "SHOOT": [{"ein": "300094503", "name": "SHOOT HOOPS NOT GUNS BASKETBALL ASS OCIATION INC", "city": "BROOKLYN", "state": "NY", "zip": "11213-5235", "ntee": "P99", "ruling": "202306", "deductibility": "1", "assets": 0, "income": 0, "revenue": 0}, {"ein": "832451801", "name": "CHARITY CLAY SHOOT NY", "city": "MELVILLE", "state": "NY", "zip": "11747-4026", "ntee": "T12", "ruling": "201902", "deductibility": "1", "assets": 10492, "income": 0, "revenue": 0}, {"ein": "843758441", "name": "SHOOT 4 THE MOON", "city": "NEW YORK", "state": "NY", "zip": "10026-2503", "ntee": "N62", "ruling": "202203", "deductibility": "1", "assets": 2048, "income": 10000, "revenue": 10000}, {"ein": "844903929", "name": "SHOOT FOR THE STARS FOUNDATION INC", "city": "NEW HYDE PARK", "state": "NY", "zip": "11042-1096", "ntee": "C01", "ruling": "202412", "deductibility": "1", "assets": 194410, "income": 138342, "revenue": 138342}, {"ein": "934576079", "name": "SHOOT HOOPS NOT GUNS BROWER PARK ASSOCIATION", "city": "BROOKLYN", "state": "NY", "zip": "11216-5979", "ntee": "N62", "ruling": "202503", "deductibility": "1", "assets": 0, "income": 0, "revenue": 0}], "BHATIA": [{"ein": "300156517", "name": "ARUN I AND ASMITA BHATIA FAMILY FOUNDATION", "city": "NEW YORK", "state": "NY", "zip": "10036-4339", "ntee": "T22", "ruling": "200306", "deductibility": "1", "assets": 2419037, "income": 1106403, "revenue": 0}], "BUSKAID": [{"ein": "300248523", "name": "BUSKAID USA INC", "city": "BROOKLYN", "state": "NY", "zip": "11215-4206", "ntee": "A116", "ruling": "200502", "deductibility": "1", "assets": 16457, "income": 15520, "revenue": 15520}], "CASTLEROCK": [{"ein": "320262172", "name": "CASTLEROCK YOUTH ENTERPRISES INC", "city": "BRONX", "state": "NY", "zip": "10463-5015", "ntee": "O20", "ruling": "201406", "deductibility": "1", "assets": 0, "income": 0, "revenue": 0}], "LIFEILEAD": [{"ein": "320405278", "name": "LIFEILEAD INC", "city": "TRUMANSBURG", "state": "NY", "zip": "14886-9106", "ntee": "P20", "ruling": "201406", "deductibility": "1", "assets": 0, "income": 0, "revenue": 0}], "SETS": [{"ein": "331366204", "name": "FEED ME BEFORE THE SUN SETS INC", "city": "PORT WASHINGTON", "state": "NY", "zip": "11050-0000", "ntee": "K30", "ruling": "202410", "deductibility": "1", "assets": 0, "income": 0, "revenue": 0}], "BASHIR": [{"ein": "331722383", "name": "HAMIDA BASHIR FOUNDATION INC", "city": "JAMAICA", "state": "NY", "zip": "11434-1526", "ntee": "X40", "ruling": "202412", "deductibility": "1", "assets": 0, "income": 0, "revenue": 0}], "NYASHAS": [{"ein": "332654893", "name": "NYASHAS PROMISE INC", "city": "NEW YORK", "state": "NY", "zip": "10019-2401", "ntee": "P40", "ruling": "202501", "deductibility": "1", "assets": 0, "income": 0, "revenue": 0}], "ECKACITTA": [{"ein": "333123798", "name": "ECKACITTA PRODUCTIONS INC", "city": "NEW YORK", "state": "NY", "zip": "10012-2852", "ntee": "A31", "ruling": "202505", "deductibility": "1", "assets": 0, "income": 0, "revenue": 0}], "TYMOR": [{"ein": "342013458", "name": "TYMOR PARK SCHOLARSHIP FUND", "city": "LAGRANGEVILLE", "state": "NY", "zip": "12540-6829", "ntee": "B82", "ruling": "200603", "deductibility": "1", "assets": 0, "income": 0, "revenue": 0}], "KOTFE": [{"ein": "352348386", "name": "KONBIT POU DEVELOPMAN COMUNE KOTFE", "city": "ARVERNE", "state": "NY", "zip": "11692-2005", "ntee": "", "ruling": "201404", "deductibility": "1", "assets": 0, "income": 0, "revenue": 0}], "MATRIMONIAL": [{"ein": "366202433", "name": "AMERICAN ACADEMY OF MATRIMONIAL LAWYERS", "city": "JERICHO", "state": "NY", "zip": "11753-2702", "ntee": "", "ruling": "196606", "deductibility": "2", "assets": 222391, "income": 307516, "revenue": 307516}, {"ein": "475605184", "name": "MOVIMIENTO MATRIMONIAL CATOLICO INC", "city": "BRONX", "state": "NY", "zip": "10451-3413", "ntee": "X20", "ruling": "201709", "deductibility": "1", "assets": 75999, "income": 122148, "revenue": 122148}], "PLEDGE": [{"ein": "371795297", "name": "FOUNDERS PLEDGE INC", "city": "NEW YORK", "state": "NY", "zip": "10003-1502", "ntee": "T20", "ruling": "202006", "deductibility": "1", "assets": 7657489, "income": 35397622, "revenue": 0}], "OCEANA": [{"ein": "412120196", "name": "OCEANA CHARITABLE FOUNDATION", "city": "HEWLETT", "state": "NY", "zip": "11557-2640", "ntee": "T22", "ruling": "200402", "deductibility": "1", "assets": 312131, "income": 61720, "revenue": 0}], "CLARY": [{"ein": "454175167", "name": "CLARY GARDEN LTD", "city": "WARWICK", "state": "NY", "zip": "10990-1650", "ntee": "B12", "ruling": "201209", "deductibility": "1", "assets": 0, "income": 0, "revenue": 0}], "ZIVHAY": [{"ein": "455198409", "name": "FRIENDS OF ZIVHAY ZEDEK", "city": "BROOKLYN", "state": "NY", "zip": "11229-2425", "ntee": "T30", "ruling": "201310", "deductibility": "1", "assets": 0, "income": 0, "revenue": 0}], "NKAM": [{"ein": "462975371", "name": "FAMILLE HAUT- NKAM NEW YORK", "city": "BRONX", "state": "NY", "zip": "10455-5046", "ntee": "Q30", "ruling": "201709", "deductibility": "1", "assets": 0, "income": 0, "revenue": 0}], "PETRUS": [{"ein": "463530690", "name": "PETRUS FUND OF YONKERS INC", "city": "YONKERS", "state": "NY", "zip": "10705-1018", "ntee": "P20", "ruling": "201411", "deductibility": "1", "assets": 283068, "income": 155735, "revenue": 155735}], "ANNAVANSE": [{"ein": "463955542", "name": "ANNAVANSE VERRETTES INC", "city": "BROOKLYN", "state": "NY", "zip": "11236-3217", "ntee": "P99", "ruling": "201407", "deductibility": "1", "assets": 0, "income": 0, "revenue": 0}], "HASTE": [{"ein": "465424586", "name": "HASTE HELP AFRICA SAVE THEIR CHILDREN", "city": "BRONX", "state": "NY", "zip": "10469-3141", "ntee": "B12", "ruling": "201507", "deductibility": "1", "assets": 0, "income": 0, "revenue": 0}], "TREND": [{"ein": "472765517", "name": "LEAD BY EXAMPLE AND REVERSE THE TREND", "city": "NEW YORK", "state": "NY", "zip": "10027-3811", "ntee": "O21", "ruling": "201508", "deductibility": "1", "assets": 172505, "income": 625000, "revenue": 625000}], "PIXLEY": [{"ein": "472936801", "name": "THE PIXLEY HILL FOUNDATION INC", "city": "LYNBROOK", "state": "NY", "zip": "11563-0000", "ntee": "T20", "ruling": "201501", "deductibility": "1", "assets": 38090895, "income": 20938838, "revenue": 0}], "EILEENS": [{"ein": "472940997", "name": "EILEENS HOME FOR THE HOLIDAYS INC", "city": "SAYVILLE", "state": "NY", "zip": "11782-1903", "ntee": "K30", "ruling": "202002", "deductibility": "1", "assets": 1, "income": 0, "revenue": 0}, {"ein": "874289224", "name": "EILEENS FREE BODEGA INC", "city": "ISLIP TERRACE", "state": "NY", "zip": "11752-1008", "ntee": "T50", "ruling": "202203", "deductibility": "1", "assets": 0, "income": 0, "revenue": 0}], "ECCLESIAL": [{"ein": "473217236", "name": "MISSIONARY ECCLESIAL MOVEMENT WORD OF GOD INC", "city": "YONKERS", "state": "NY", "zip": "10704-2706", "ntee": "X99", "ruling": "201602", "deductibility": "1", "assets": 4723, "income": 113711, "revenue": 110769}], "HG": [{"ein": "473928697", "name": "HG HOLDING HOUSING DEVELOPMENT FUND COMPANY INC", "city": "ROCHESTER", "state": "NY", "zip": "14603-0476", "ntee": "L20", "ruling": "201507", "deductibility": "1", "assets": 6042127, "income": 357596, "revenue": 357596}, {"ein": "923100752", "name": "HG CENTER OF LONG ISLAND INC", "city": "VALLEY STREAM", "state": "NY", "zip": "11581-3518", "ntee": "E32", "ruling": "202401", "deductibility": "1", "assets": 0, "income": 0, "revenue": 0}], "91ST": [{"ein": "474031817", "name": "91ST SOJOURNERS SCOUT GROUP - BADEN POWELL SERVICE ASSOCIATION INC", "city": "SAUGERTIES", "state": "NY", "zip": "12477-4493", "ntee": "O40", "ruling": "201506", "deductibility": "1", "assets": 0, "income": 0, "revenue": 0}, {"ein": "830800062", "name": "BEACH 91ST STREET COMMUNITY GARDENS INC", "city": "ROCKAWAY BCH", "state": "NY", "zip": "11693-1503", "ntee": "S22", "ruling": "201807", "deductibility": "1", "assets": 0, "income": 0, "revenue": 0}, {"ein": "882837863", "name": "WIN 91ST STREET HOUSING DEVELOPMENT FUND CORPORATION", "city": "NEW YORK", "state": "NY", "zip": "10004-1787", "ntee": "L21", "ruling": "202401", "deductibility": "1", "assets": 0, "income": 0, "revenue": 0}], "JOINED": [{"ein": "474313888", "name": "JOINED ARTISTS MUSICIANS & SINGERS INC", "city": "SYRACUSE", "state": "NY", "zip": "13207-2040", "ntee": "A03", "ruling": "201705", "deductibility": "1", "assets": 82198, "income": 74492, "revenue": 74492}], "PLANTATIONS": [{"ein": "541858459", "name": "ORDER OF THE FIRST FAMILIES OF PR PLANTATIONS 1638-1647", "city": "SARATOGA SPGS", "state": "NY", "zip": "12866-7501", "ntee": "A80", "ruling": "201811", "deductibility": "1", "assets": 0, "income": 0, "revenue": 0}], "DELINE": [{"ein": "611739748", "name": "JANE E DELINE FOUNDATION", "city": "WATERTOWN", "state": "NY", "zip": "13601-3313", "ntee": "T11", "ruling": "201412", "deductibility": "1", "assets": 6704475, "income": 3926990, "revenue": 0}], "EURASIANET": [{"ein": "810691279", "name": "EURASIANET INC", "city": "NEW YORK", "state": "NY", "zip": "10027-7235", "ntee": "Q30", "ruling": "201605", "deductibility": "1", "assets": 152054, "income": 481318, "revenue": 481318}], "CONGREGATIONYESHIVA": [{"ein": "813585469", "name": "CONGREGATIONYESHIVA YOREH DEAH INC", "city": "MONSEY", "state": "NY", "zip": "10952-1734", "ntee": "X30", "ruling": "201911", "deductibility": "1", "assets": 0, "income": 0, "revenue": 0}], "DRUKPA": [{"ein": "814870094", "name": "DRUKPA USA INC", "city": "WOODSIDE", "state": "NY", "zip": "11377-5111", "ntee": "S80", "ruling": "201701", "deductibility": "1", "assets": 0, "income": 0, "revenue": 0}, {"ein": "833219306", "name": "DRUKPA NORTH AMERICA INC", "city": "WOODSIDE", "state": "NY", "zip": "11377-5111", "ntee": "X50", "ruling": "202108", "deductibility": "1", "assets": 1161865, "income": 74058, "revenue": 74058}], "FESTIVITIES": [{"ein": "815173063", "name": "ORIENT HARBOR JULY 4TH FESTIVITIES INC", "city": "ORIENT", "state": "NY", "zip": "11957-0076", "ntee": "A84", "ruling": "201702", "deductibility": "1", "assets": 1308, "income": 0, "revenue": 0}], "TACO": [{"ein": "821100457", "name": "TACO STAND INC", "city": "BROOKLYN", "state": "NY", "zip": "11222-3894", "ntee": "T12", "ruling": "201704", "deductibility": "1", "assets": 0, "income": 0, "revenue": 0}], "HASHEMS": [{"ein": "822625806", "name": "HASHEMS CHILDREN INC", "city": "BROOKLYN", "state": "NY", "zip": "11218-3855", "ntee": "B90", "ruling": "201806", "deductibility": "1", "assets": 42778, "income": 359744, "revenue": 359744}], "BUCHER": [{"ein": "823534844", "name": "BUCHER BISIFARTO INC", "city": "BROOKLYN", "state": "NY", "zip": "11204-1482", "ntee": "B80", "ruling": "201712", "deductibility": "1", "assets": 0, "income": 0, "revenue": 0}], "RADUNSKI": [{"ein": "823752256", "name": "RADUNSKI FAMILY FUND INC", "city": "NEW YORK", "state": "NY", "zip": "10017-9257", "ntee": "T20", "ruling": "202004", "deductibility": "1", "assets": 1489, "income": 1, "revenue": 0}], "FAIZAN": [{"ein": "824324920", "name": "FAIZAN-E-AISHA INC", "city": "HICKSVILLE", "state": "NY", "zip": "11801-3104", "ntee": "X99", "ruling": "202009", "deductibility": "1", "assets": 0, "income": 0, "revenue": 0}], "CANTANYC": [{"ein": "830608766", "name": "CANTANYC", "city": "NEW YORK", "state": "NY", "zip": "10023-9600", "ntee": "A6B", "ruling": "201906", "deductibility": "1", "assets": 0, "income": 0, "revenue": 0}], "HALABY": [{"ein": "832863503", "name": "SAMIA A HALABY FOUNDATION", "city": "NEW YORK", "state": "NY", "zip": "10013-3000", "ntee": "T20", "ruling": "201908", "deductibility": "1", "assets": 741531, "income": 319636, "revenue": 0}], "FHS": [{"ein": "833096247", "name": "FHS ALUMNI ASSOCIATION NE USA INC", "city": "BRONX", "state": "NY", "zip": "10469-3412", "ntee": "B84", "ruling": "202001", "deductibility": "1", "assets": 0, "income": 0, "revenue": 0}], "MESOPOTAMIA": [{"ein": "850909679", "name": "MESOPOTAMIA FRONTIERS INTERNATIONAL", "city": "ROCHESTER", "state": "NY", "zip": "14611-4029", "ntee": "", "ruling": "199412", "deductibility": "1", "assets": 7424, "income": 69948, "revenue": 69948}], "CARVE": [{"ein": "851258055", "name": "CARVE BUNNIES INC", "city": "STATEN ISLAND", "state": "NY", "zip": "10304-2209", "ntee": "N50", "ruling": "202203", "deductibility": "1", "assets": 5873, "income": 3674, "revenue": 0}], "HIRING": [{"ein": "851343083", "name": "HIRING AMERICA SERVES", "city": "NEW YORK", "state": "NY", "zip": "10013-1275", "ntee": "J01", "ruling": "202006", "deductibility": "1", "assets": 0, "income": 0, "revenue": 0}], "DRADASHITS": [{"ein": "853096542", "name": "CONGREGATION AVOIDES HALEVY DRADASHITS INC", "city": "MONROE", "state": "NY", "zip": "10950-4180", "ntee": "X99", "ruling": "202012", "deductibility": "1", "assets": 0, "income": 0, "revenue": 0}], "GUILT": [{"ein": "853788422", "name": "GLORY NOT GUILT INC", "city": "WAPPINGERS FL", "state": "NY", "zip": "12590-7099", "ntee": "P20", "ruling": "202411", "deductibility": "1", "assets": 0, "income": 0, "revenue": 0}], "HALONOT": [{"ein": "853911423", "name": "FRIENDS OF HALONOT INC", "city": "NEW YORK", "state": "NY", "zip": "10065-6405", "ntee": "W12", "ruling": "202104", "deductibility": "1", "assets": 249634, "income": 2363308, "revenue": 2363308}], "CHAIMS": [{"ein": "854092204", "name": "THE CHAIMS LEGACY FOUNDATION INC", "city": "MONSEY", "state": "NY", "zip": "10952-2524", "ntee": "", "ruling": "202203", "deductibility": "1", "assets": 45441, "income": 1, "revenue": 0}], "YBR": [{"ein": "862101833", "name": "YBR FOUNDATION INC", "city": "BROOKLYN", "state": "NY", "zip": "11219-4116", "ntee": "P20", "ruling": "202203", "deductibility": "1", "assets": 115825, "income": 195, "revenue": 195}], "ECOSTUDIO": [{"ein": "871730274", "name": "ECOSTUDIO FOUNDATION", "city": "SYRACUSE", "state": "NY", "zip": "13205-0359", "ntee": "B90", "ruling": "202201", "deductibility": "1", "assets": 168264, "income": 709056, "revenue": 709056}], "WPB": [{"ein": "872139802", "name": "CONGREGATION KHAL CHASSIDIM OF WPB INC", "city": "BROOKLYN", "state": "NY", "zip": "11211-8484", "ntee": "X30", "ruling": "202205", "deductibility": "1", "assets": 0, "income": 0, "revenue": 0}, {"ein": "992585912", "name": "KHAL CHASSIDIM HEICHAL HATORAH WPB", "city": "BROOKLYN", "state": "NY", "zip": "11249-9235", "ntee": "X30", "ruling": "202410", "deductibility": "1", "assets": 0, "income": 0, "revenue": 0}], "ZAIDY": [{"ein": "872292415", "name": "FROM ZAIDY WITH LOVE INC", "city": "BROOKLYN", "state": "NY", "zip": "11225-4402", "ntee": "X30", "ruling": "202203", "deductibility": "1", "assets": 56543, "income": 1225974, "revenue": 0}], "KOLBA": [{"ein": "872638507", "name": "KOLBA INC", "city": "JACKSON HEIGHTS", "state": "NY", "zip": "11372-1035", "ntee": "A23", "ruling": "202202", "deductibility": "1", "assets": 0, "income": 0, "revenue": 0}], "ROLLIE": [{"ein": "873660930", "name": "ROLLIE AND HANKS PAW PRINTS INCORPORATED", "city": "SLOATSBURG", "state": "NY", "zip": "10974-1812", "ntee": "D12", "ruling": "202207", "deductibility": "1", "assets": 58984, "income": 27345, "revenue": 19744}], "UNTURNED": [{"ein": "873905032", "name": "LEAVE NO STONE UNTURNED INC", "city": "MT VERNON", "state": "NY", "zip": "10550-4014", "ntee": "L80", "ruling": "202412", "deductibility": "1", "assets": 0, "income": 0, "revenue": 0}], "MORTENSON": [{"ein": "876680526", "name": "THE MORTENSON-WARDLE CHARITABLE TRUST", "city": "NEW YORK", "state": "NY", "zip": "10014-5207", "ntee": "", "ruling": "202110", "deductibility": "1", "assets": 1, "income": 1, "revenue": 0}], "BRTC": [{"ein": "882896825", "name": "WILLIAM W ZISKIN BRTC SCHOLARSHIP FOUNDATION INC", "city": "BURNT HILLS", "state": "NY", "zip": "12027-9794", "ntee": "A26", "ruling": "202207", "deductibility": "1", "assets": 74136, "income": 26724, "revenue": 4724}], "GERHARD": [{"ein": "884048489", "name": "JESSE GERHARD MEMORIAL FOUNDATION", "city": "ISLIP", "state": "NY", "zip": "11751-4708", "ntee": "B28", "ruling": "202303", "deductibility": "1", "assets": 79937, "income": 38439, "revenue": 0}], "FEES": [{"ein": "920642786", "name": "FINES AND FEES JUSTICE CENTER INC", "city": "NEW YORK", "state": "NY", "zip": "10013-2921", "ntee": "I05", "ruling": "202307", "deductibility": "1", "assets": 17424714, "income": 10508538, "revenue": 10508538}], "FORMATIVE": [{"ein": "921285371", "name": "TRANS FORMATIVE SCHOOLS INC", "city": "NEW YORK", "state": "NY", "zip": "10003-5213", "ntee": "B05", "ruling": "202305", "deductibility": "1", "assets": 3305, "income": 83419, "revenue": 83419}], "PASKAS": [{"ein": "922115319", "name": "PASKAS FAMILY FOUNDATION", "city": "BROOKLYN", "state": "NY", "zip": "11219-4202", "ntee": "T23", "ruling": "202302", "deductibility": "1", "assets": 11000, "income": 121000, "revenue": 0}], "MEOH": [{"ein": "922943939", "name": "MEOH FOUNDATION INC", "city": "WATER MILL", "state": "NY", "zip": "11976-2134", "ntee": "T22", "ruling": "202305", "deductibility": "1", "assets": 1233062, "income": 110931, "revenue": 0}], "CHAMBRONE": [{"ein": "933673838", "name": "JOSEPH CHAMBRONE MEMORIAL FUND INC", "city": "ILION", "state": "NY", "zip": "13357-0000", "ntee": "E12", "ruling": "202311", "deductibility": "1", "assets": 0, "income": 0, "revenue": 0}], "RAKE": [{"ein": "933905109", "name": "BUFFALO RAKE OF WNY", "city": "CHEEKTOWAGA", "state": "NY", "zip": "14227-1918", "ntee": "N63", "ruling": "202311", "deductibility": "1", "assets": 0, "income": 0, "revenue": 0}], "CHAMPETA": [{"ein": "934125607", "name": "CHAMPETA WORLD DANCE CORPORATION", "city": "ASTORIA", "state": "NY", "zip": "11106-0000", "ntee": "B90", "ruling": "202311", "deductibility": "1", "assets": 0, "income": 0, "revenue": 0}], "RELIANCE": [{"ein": "934308828", "name": "SELF RELIANCE NEW WAVE OF IMMIGRANTS INC", "city": "NEW YORK", "state": "NY", "zip": "10036-4314", "ntee": "P20", "ruling": "202312", "deductibility": "1", "assets": 1005, "income": 10282, "revenue": 0}], "CONCH": [{"ein": "990542894", "name": "CONCH SHELL PRODUCTIONS INCORPORATED", "city": "FLUSHING", "state": "NY", "zip": "11367-3445", "ntee": "A20", "ruling": "202402", "deductibility": "1", "assets": 0, "income": 0, "revenue": 0}], "RAIDERZ": [{"ein": "993673264", "name": "NYC RED RAIDERZ INC", "city": "BROOKLYN", "state": "NY", "zip": "11205-4337", "ntee": "O50", "ruling": "202407", "deductibility": "1", "assets": 0, "income": 0, "revenue": 0}], "DVIR": [{"ein": "994863851", "name": "DVIR PROJECT", "city": "SPRING VALLEY", "state": "NY", "zip": "10977-0000", "ntee": "W01", "ruling": "202409", "deductibility": "1", "assets": 1, "income": 1, "revenue": 0}]}