{"SPUR": [{"ein": "010570709", "name": "BERKSHIRE SPUR CHINESE SHAR PEI CLUB INC", "city": "SELKIRK", "state": "NY", "zip": "12158-1502", "ntee": "D60", "ruling": "200205", "deductibility": "2", "assets": 0, "income": 0, "revenue": 0}], "NYS": [{"ein": "010969756", "name": "ORDER OF THE ANCIENT & HONORABLE HUNTINGTON MILITIA NYS EDU CO", "city": "HUNTINGTON", "state": "NY", "zip": "11743-0000", "ntee": "A80", "ruling": "201009", "deductibility": "1", "assets": 0, "income": 0, "revenue": 0}, {"ein": "111877386", "name": "FOOD INDUSTRY ALLIANCE OF NYS", "city": "ALBANY", "state": "NY", "zip": "12210-2201", "ntee": "S41", "ruling": "200103", "deductibility": "2", "assets": 1435431, "income": 1323761, "revenue": 1228628}, {"ein": "111898077", "name": "NYS PROFESSIONAL FIRE FIGHTERS", "city": "ALBANY", "state": "NY", "zip": "12210-2304", "ntee": "", "ruling": "194010", "deductibility": "2", "assets": 1649272, "income": 2550174, "revenue": 1899534}, {"ein": "113336788", "name": "VETERANS HOME VOLUNTEER ALLIANCE AT NYS VETERANS HOME AT ST ALBANS", "city": "JAMAICA", "state": "NY", "zip": "11434-1467", "ntee": "W30", "ruling": "201906", "deductibility": "1", "assets": 7919, "income": 30174, "revenue": 30174}, {"ein": "113454539", "name": "NYS CHAPTER OF NAMC INCORPORATED", "city": "BROOKLYN", "state": "NY", "zip": "11205-0000", "ntee": "", "ruling": "199906", "deductibility": "0", "assets": 19077, "income": 117775, "revenue": 92570}, {"ein": "113513108", "name": "NYS ASSOC OF TRAFFIC SAFETY BOARDS PROGRAMS INC", "city": "CENTRAL ISLIP", "state": "NY", "zip": "11722-2021", "ntee": "W20", "ruling": "200401", "deductibility": "1", "assets": 218063, "income": 433498, "revenue": 433498}, {"ein": "133613708", "name": "ASSOCIATED LICENSED DETECTIVES OF NYS INC", "city": "ROCKVILLE CTR", "state": "NY", "zip": "11570-2355", "ntee": "", "ruling": "199606", "deductibility": "2", "assets": 73683, "income": 17826, "revenue": 17826}, {"ein": "133934667", "name": "HUDSON VALLEY CHAPTER OF NYS ASSOC OF HEALTH CARE PROVIDER INC", "city": "SCARSDALE", "state": "NY", "zip": "10583-4733", "ntee": "S41", "ruling": "199905", "deductibility": "2", "assets": 0, "income": 0, "revenue": 0}, {"ein": "141684108", "name": "AMERICAN ACADEMY OF ORTHOTISTS AND PROSTHETISTS INC NYS CHAPTER", "city": "MOUNT SINAI", "state": "NY", "zip": "11766-1401", "ntee": "", "ruling": "198903", "deductibility": "1", "assets": 29767, "income": 24197, "revenue": 24197}, {"ein": "141744837", "name": "TRI COUNTY CHAPTER OF THE NYS BUILDING OFFICIALS CONFERENCE INC", "city": "KAUNEONGA LK", "state": "NY", "zip": "12749-0222", "ntee": "S41", "ruling": "201410", "deductibility": "2", "assets": 70430, "income": 52817, "revenue": 52817}, {"ein": "141819686", "name": "NYS ASSOCIATION FOR BEHAVIOR ANALYSIS INC", "city": "NEW YORK", "state": "NY", "zip": "10128-5177", "ntee": "S46", "ruling": "200005", "deductibility": "2", "assets": 95823, "income": 149091, "revenue": 149091}, {"ein": "161073149", "name": "COUNCIL OF PRACTICAL NURSE PROGRAMS NYS", "city": "ROCHESTER", "state": "NY", "zip": "14609-0621", "ntee": "B90", "ruling": "202305", "deductibility": "1", "assets": 0, "income": 0, "revenue": 0}, {"ein": "161266329", "name": "INTERNATIONAL ASSOC OF ARSON INVEST NYS CHAPTER 23", "city": "CORNWALL HDSN", "state": "NY", "zip": "12520-0451", "ntee": "", "ruling": "201407", "deductibility": "1", "assets": 73694, "income": 81774, "revenue": 81774}, {"ein": "161532853", "name": "NYS PUBLIC ENTITIES SAFETY GROUP 497", "city": "REXFORD", "state": "NY", "zip": "12148-1162", "ntee": "M40", "ruling": "200403", "deductibility": "2", "assets": 0, "income": 0, "revenue": 0}, {"ein": "161586283", "name": "NYS ASSOCIATION OF INCARCERATED EDUCATION PROGRAMS INC", "city": "SYRACUSE", "state": "NY", "zip": "13219-2930", "ntee": "B90", "ruling": "200102", "deductibility": "1", "assets": 71159, "income": 119215, "revenue": 119215}, {"ein": "166523007", "name": "JB REINSTEIN TR UW ITEM XVIII FBO NYS-REINSTEIN WOODS", "city": "BUFFALO", "state": "NY", "zip": "14203-2725", "ntee": "", "ruling": "000000", "deductibility": "0", "assets": 509098, "income": 136910, "revenue": 0}, {"ein": "202850111", "name": "NYS BLUESTONE ASSOCIATION", "city": "DEPOSIT", "state": "NY", "zip": "13754-2100", "ntee": "S41", "ruling": "200506", "deductibility": "2", "assets": 76678, "income": 3750, "revenue": 3750}, {"ein": "208082224", "name": "BPCA NYS INC", "city": "SENECA FALLS", "state": "NY", "zip": "13148-9485", "ntee": "S41", "ruling": "201108", "deductibility": "2", "assets": 145057, "income": 138730, "revenue": 138730}, {"ein": "222473153", "name": "NYS TOWN CLERKS ASSOCIATION INC", "city": "N LAWRENCE", "state": "NY", "zip": "12967-1508", "ntee": "", "ruling": "000000", "deductibility": "2", "assets": 347018, "income": 194640, "revenue": 194640}, {"ein": "223149570", "name": "PIA NYS GRAPHIC ARTS EDUCATION FOUNDATION INC", "city": "AMHERST", "state": "NY", "zip": "14228-1900", "ntee": "", "ruling": "199205", "deductibility": "1", "assets": 20434, "income": 3250, "revenue": 0}, {"ein": "226506148", "name": "NYS COLLEGE OF AGRICULTURE & LIFE SCI AT CORNELL UNIV FBO CHAR TR", "city": "ITHACA", "state": "NY", "zip": "14850-1729", "ntee": "", "ruling": "199008", "deductibility": "1", "assets": 386381, "income": 31561, "revenue": 31561}, {"ein": "237126422", "name": "NINTH DISTRICT OF FEDERATED GARDEN CLUBS OF NYS INC", "city": "OSSINING", "state": "NY", "zip": "10562-3938", "ntee": "C42", "ruling": "202112", "deductibility": "1", "assets": 0, "income": 0, "revenue": 0}, {"ein": "237299025", "name": "NYS FELLOWSHIP OF THE MENNONITE CHURCH INC", "city": "LOWVILLE", "state": "NY", "zip": "13367-3701", "ntee": "", "ruling": "197702", "deductibility": "1", "assets": 0, "income": 0, "revenue": 0}, {"ein": "273784219", "name": "NYS SUBDIVISION OF THE DIVISION ON CAREER DEVELOPMENT AND TRANSITION", "city": "BUFFALO", "state": "NY", "zip": "14222-1293", "ntee": "B01", "ruling": "201709", "deductibility": "1", "assets": 0, "income": 0, "revenue": 0}, {"ein": "273886718", "name": "NYS CITIZENS AGAINST PUPPY MILLS INCORPORATED", "city": "CLARENCE", "state": "NY", "zip": "14031-1488", "ntee": "D20", "ruling": "201109", "deductibility": "1", "assets": 0, "income": 0, "revenue": 0}, {"ein": "311747747", "name": "CONSUMER DIRECTED PERSONAL ASSISTANCE ASSN OF NYS INC", "city": "ALBANY", "state": "NY", "zip": "12210-2204", "ntee": "P40", "ruling": "200101", "deductibility": "1", "assets": 533046, "income": 547794, "revenue": 547794}, {"ein": "331630326", "name": "FIREFIGHTER CANCER AWARENESS & MENTORING NYS INC", "city": "SMITHTOWN", "state": "NY", "zip": "11787-8674", "ntee": "G30", "ruling": "202505", "deductibility": "1", "assets": 0, "income": 0, "revenue": 0}, {"ein": "383918958", "name": "NYS ALLIANCE FOR THE PREVENTION OF SEXUAL ABUSE INC", "city": "ASTORIA", "state": "NY", "zip": "11105-1709", "ntee": "E01", "ruling": "201904", "deductibility": "1", "assets": 31175, "income": 88944, "revenue": 88944}, {"ein": "462534384", "name": "NYS-ADTA", "city": "NEW YORK", "state": "NY", "zip": "10011-0000", "ntee": "F03", "ruling": "201812", "deductibility": "1", "assets": 0, "income": 0, "revenue": 0}, {"ein": "464616266", "name": "NYS COALITION FOR EXCELLENCE IN HOMEOWNERSHIP EDUCATION", "city": "HAUPPAUGE", "state": "NY", "zip": "11788-3736", "ntee": "B90", "ruling": "201410", "deductibility": "1", "assets": 0, "income": 0, "revenue": 0}, {"ein": "465550209", "name": "NYS ASSOCIATION FOR HEALTH PHYSICAL EDUCATION RECREATION AND DANCE FO", "city": "LITTLE FALLS", "state": "NY", "zip": "13365-1336", "ntee": "B82", "ruling": "201411", "deductibility": "1", "assets": 0, "income": 0, "revenue": 0}, {"ein": "471251445", "name": "FAMILY ASSISTANCE FUND OF THE PBA OF NYS", "city": "ALBANY", "state": "NY", "zip": "12207-2719", "ntee": "I60", "ruling": "201502", "deductibility": "1", "assets": 0, "income": 0, "revenue": 0}, {"ein": "471843308", "name": "INCLUSIVE CATHOLIC COMMUNITY OF NYS CAPITAL REGION INC", "city": "WYNANTSKILL", "state": "NY", "zip": "12198-0394", "ntee": "X22", "ruling": "201506", "deductibility": "1", "assets": 0, "income": 0, "revenue": 0}, {"ein": "472798645", "name": "NYS ARCHAEOLOGICAL ASSOCIATION LEWIS HENRY MORGAN CHAPTER", "city": "WEBSTER", "state": "NY", "zip": "14580-9730", "ntee": "A03", "ruling": "201806", "deductibility": "1", "assets": 0, "income": 0, "revenue": 0}, {"ein": "473500168", "name": "NYS ARCHAEOLOGICAL ASSOCIATION CHENANGO CHAPTER", "city": "OXFORD", "state": "NY", "zip": "13830-3272", "ntee": "A03", "ruling": "201701", "deductibility": "1", "assets": 0, "income": 0, "revenue": 0}, {"ein": "473527634", "name": "THE INCORPORATE ORANGE COUNTY CHAPTER OF NYS ARCHAEOLOGICAL ASS", "city": "GOSHEN", "state": "NY", "zip": "10924-5708", "ntee": "A03", "ruling": "201903", "deductibility": "1", "assets": 0, "income": 0, "revenue": 0}, {"ein": "474033628", "name": "NYS ARCHAEOLOGICAL ASSOCIATION FREDERICK M HOUGHTON CHAPTER", "city": "AMHERST", "state": "NY", "zip": "14228-2433", "ntee": "A03", "ruling": "201806", "deductibility": "1", "assets": 0, "income": 0, "revenue": 0}, {"ein": "753121547", "name": "CAMP GET-A-WAY OF WESTERN REGION NYS INC", "city": "WYOMING", "state": "NY", "zip": "14591-0038", "ntee": "F30", "ruling": "200308", "deductibility": "1", "assets": 417252, "income": 82425, "revenue": 82425}, {"ein": "811570243", "name": "NYS LATINO RESTAURANT BAR AND LOUNGE ASSOCIATION INC", "city": "COLLEGE POINT", "state": "NY", "zip": "11356-1957", "ntee": "S41", "ruling": "202205", "deductibility": "2", "assets": 0, "income": 0, "revenue": 0}, {"ein": "832152370", "name": "NYS ASSOCIATION OF WORLD LANGUAGE ADMINISTRATORS INC", "city": "WOODBURY", "state": "NY", "zip": "11797-0460", "ntee": "B03", "ruling": "201903", "deductibility": "1", "assets": 26057, "income": 29392, "revenue": 29392}, {"ein": "842933184", "name": "NYS UNITED ASIAN LIQUOR STORE ASSOCIATION INC", "city": "MIDDLE VLG", "state": "NY", "zip": "11379-1325", "ntee": "P01", "ruling": "202103", "deductibility": "1", "assets": 0, "income": 0, "revenue": 0}, {"ein": "844799770", "name": "NYS RADIOLOGICAL SOCIETY FOUNDATION", "city": "LOUDONVILLE", "state": "NY", "zip": "12211-0000", "ntee": "E12", "ruling": "202007", "deductibility": "1", "assets": 34159, "income": 6462, "revenue": 6462}, {"ein": "861566121", "name": "SPIRIT NYS INC", "city": "ROCHESTER", "state": "NY", "zip": "14618-1347", "ntee": "Z99", "ruling": "202105", "deductibility": "1", "assets": 494478, "income": 167365, "revenue": 167365}, {"ein": "872967964", "name": "CANNABIS SOCIAL EQUITY COALITION - NYS", "city": "NEW YORK", "state": "NY", "zip": "10151-0502", "ntee": "R99", "ruling": "202303", "deductibility": "1", "assets": 5004, "income": 71304, "revenue": 71304}, {"ein": "874122354", "name": "CARES NYS CHARITABLE TRUST", "city": "NEW YORK", "state": "NY", "zip": "10002-7477", "ntee": "T22", "ruling": "202403", "deductibility": "1", "assets": 6935916, "income": 167461, "revenue": 0}, {"ein": "881121225", "name": "NYS COMMUNITY ARCH INC", "city": "SYRACUSE", "state": "NY", "zip": "13205-2548", "ntee": "B90", "ruling": "202207", "deductibility": "1", "assets": 0, "income": 0, "revenue": 0}, {"ein": "900635885", "name": "NYS SOCIETY OF PROFESSIONAL ENGINEERS SUFFOCK CHAPTER", "city": "WEST HILLS", "state": "NY", "zip": "11743-6616", "ntee": "S41", "ruling": "201109", "deductibility": "2", "assets": 25449, "income": 4000, "revenue": 4000}, {"ein": "922196698", "name": "BAY RIDGE COMMANDERY NO 79 KNIGHTS TEMPLAR NYS LIMITED", "city": "NEW YORK", "state": "NY", "zip": "10010-4102", "ntee": "X01", "ruling": "202304", "deductibility": "1", "assets": 0, "income": 0, "revenue": 0}, {"ein": "922360461", "name": "PEACE OFFICERS ASSOCIATION OF NYS INC", "city": "CARTHAGE", "state": "NY", "zip": "13619-1511", "ntee": "I60", "ruling": "202305", "deductibility": "1", "assets": 0, "income": 0, "revenue": 0}, {"ein": "932133091", "name": "NYS CAREER READINESS EDUCATORS ASSOCIATION", "city": "LYNBROOK", "state": "NY", "zip": "11563-4041", "ntee": "B03", "ruling": "202307", "deductibility": "1", "assets": 0, "income": 0, "revenue": 0}, {"ein": "934455460", "name": "FRIENDS OF NYS SCHOOL LIBRARIANS", "city": "PORT JERVIS", "state": "NY", "zip": "12771-1344", "ntee": "B03", "ruling": "202409", "deductibility": "1", "assets": 0, "income": 0, "revenue": 0}, {"ein": "990943777", "name": "US-NYS CHAPLAIN RESPONSE TEAM INCORPORATED", "city": "PORT WASHINGTON", "state": "NY", "zip": "11050-2562", "ntee": "X20", "ruling": "202402", "deductibility": "1", "assets": 0, "income": 0, "revenue": 0}, {"ein": "991183460", "name": "NYS-LRA RISE FOUNDATION INC", "city": "NEW YORK", "state": "NY", "zip": "10034-5314", "ntee": "B90", "ruling": "202502", "deductibility": "1", "assets": 0, "income": 0, "revenue": 0}], "LEZAMA": [{"ein": "020749266", "name": "CARLOS LEZAMA ARCHIVES AND CARIBBEAN CULTURAL CENTER", "city": "DOUGLASTON", "state": "NY", "zip": "11362-2649", "ntee": "A23", "ruling": "200511", "deductibility": "1", "assets": 147442, "income": 114999, "revenue": 114999}], "THEODORE": [{"ein": "043254361", "name": "THEODORE CROSS FAMILY CHARITABLE FOUNDATION", "city": "COMMACK", "state": "NY", "zip": "11725-2812", "ntee": "T20J", "ruling": "199506", "deductibility": "1", "assets": 12495446, "income": 2320912, "revenue": 0}, {"ein": "132654783", "name": "THEODORE GORDON FLYFISHERS INC", "city": "NEW YORK", "state": "NY", "zip": "10163-2345", "ntee": "N61Z", "ruling": "196602", "deductibility": "1", "assets": 325983, "income": 118593, "revenue": 118593}, {"ein": "133960677", "name": "DOLORES AND THEODORE EHRENREICH FOUNDATION INC", "city": "MELVILLE", "state": "NY", "zip": "11747-0000", "ntee": "T20J", "ruling": "199711", "deductibility": "1", "assets": 1268420, "income": 632035, "revenue": 0}, {"ein": "134012789", "name": "DOCTOR THEODORE A ATLAS FOUNDATION INC", "city": "STATEN ISLAND", "state": "NY", "zip": "10310-1942", "ntee": "T900", "ruling": "199908", "deductibility": "1", "assets": 1659863, "income": 733745, "revenue": 733745}, {"ein": "134067971", "name": "THEODORE ROOSEVELT PARK NEIGHBORHOOD ASSOCIATION INC", "city": "NEW YORK", "state": "NY", "zip": "10024-6045", "ntee": "N32", "ruling": "201308", "deductibility": "1", "assets": 0, "income": 0, "revenue": 0}, {"ein": "135593999", "name": "THEODORE ROOSEVELT ASSN", "city": "OYSTER BAY", "state": "NY", "zip": "11771-0719", "ntee": "A800", "ruling": "200002", "deductibility": "1", "assets": 5679650, "income": 12202169, "revenue": 418767}, {"ein": "136103401", "name": "THEODORE H BARTH FOUNDATION INC", "city": "NEW YORK", "state": "NY", "zip": "10111-3193", "ntee": "B82", "ruling": "200005", "deductibility": "1", "assets": 18989111, "income": 11443432, "revenue": 0}, {"ein": "136181441", "name": "THEODORE AND RENEE WEILER FOUNDATION INC", "city": "MELVILLE", "state": "NY", "zip": "11747-3180", "ntee": "", "ruling": "196507", "deductibility": "1", "assets": 4750493, "income": 1399711, "revenue": 0}, {"ein": "161191042", "name": "THEODORE ROOSEVELT INAUG SITE", "city": "BUFFALO", "state": "NY", "zip": "14240-1504", "ntee": "", "ruling": "000000", "deductibility": "0", "assets": 0, "income": 0, "revenue": 0}, {"ein": "161289406", "name": "THEODORE AND CASHMERE M MENDICK FOUNDATION INC", "city": "ROCHESTER", "state": "NY", "zip": "14621-1238", "ntee": "", "ruling": "198808", "deductibility": "1", "assets": 3018945, "income": 1964542, "revenue": 0}, {"ein": "161614090", "name": "KATHRYN J & THEODORE E NIXON FAMILY FOUNDATION INC", "city": "ROCHESTER", "state": "NY", "zip": "14625-0482", "ntee": "T22", "ruling": "200204", "deductibility": "1", "assets": 151964, "income": 7447, "revenue": 0}, {"ein": "166094785", "name": "THEODORE ROOSEVELT INAUGURAL SITE FOUNDATION", "city": "BUFFALO", "state": "NY", "zip": "14202-1001", "ntee": "", "ruling": "196805", "deductibility": "1", "assets": 1494680, "income": 744609, "revenue": 711939}, {"ein": "455310845", "name": "THEODORE AND KARIN MAYER FAMILY FOUNDATION INC", "city": "PELHAM", "state": "NY", "zip": "10803-2418", "ntee": "T20", "ruling": "201208", "deductibility": "1", "assets": 4663328, "income": 254430, "revenue": 0}, {"ein": "466227756", "name": "THEODORE DEMARCO IRRV TR 43C667011", "city": "BUFFALO", "state": "NY", "zip": "14240-1504", "ntee": "T22", "ruling": "201907", "deductibility": "1", "assets": 152554, "income": 41598, "revenue": 0}, {"ein": "471716810", "name": "THEODORE J FORSTMANN CHARITABLE TRUST", "city": "NEW YORK", "state": "NY", "zip": "10020-1401", "ntee": "T22", "ruling": "201503", "deductibility": "1", "assets": 41000417, "income": 55528249, "revenue": 0}, {"ein": "815101610", "name": "THEODORE ROOSEVELT LEGACY PARTNERSHIP", "city": "OYSTER BAY", "state": "NY", "zip": "11771-1807", "ntee": "A99", "ruling": "201702", "deductibility": "1", "assets": 0, "income": 0, "revenue": 0}, {"ein": "823830120", "name": "HENRY THEODORE MOHR VFW POST 1310", "city": "MERRICK", "state": "NY", "zip": "11566-0052", "ntee": "W30", "ruling": "201811", "deductibility": "1", "assets": 0, "income": 0, "revenue": 0}, {"ein": "832876942", "name": "THEODORE AIN FOUNDATION", "city": "ROSLYN", "state": "NY", "zip": "11576-3068", "ntee": "T22", "ruling": "201907", "deductibility": "1", "assets": 160618, "income": 52626, "revenue": 0}], "DAUGHTER": [{"ein": "043698619", "name": "FREEDOM O DAUGHTER OF ZION", "city": "HAUPPAUGE", "state": "NY", "zip": "11788-2208", "ntee": "F192", "ruling": "201409", "deductibility": "1", "assets": 0, "income": 0, "revenue": 0}, {"ein": "113130223", "name": "LOYAL SONS AND DAUGHTER OF THE HOUSE OF ISREAL INC", "city": "ROSEDALE", "state": "NY", "zip": "11422-1050", "ntee": "", "ruling": "199308", "deductibility": "1", "assets": 0, "income": 0, "revenue": 0}, {"ein": "320404521", "name": "CATHOLIC DAUGHTER OF THE AMERICAS", "city": "COMMACK", "state": "NY", "zip": "11725-2207", "ntee": "", "ruling": "194603", "deductibility": "1", "assets": 0, "income": 0, "revenue": 0}, {"ein": "852653307", "name": "VETERANS DADDY DAUGHTER DANCE", "city": "SPRNGFLD GDNS", "state": "NY", "zip": "11413-3241", "ntee": "A62", "ruling": "202010", "deductibility": "1", "assets": 0, "income": 0, "revenue": 0}, {"ein": "922921131", "name": "DAUGHTER HEAL INC", "city": "BROOKLYN", "state": "NY", "zip": "11203-4641", "ntee": "Y99", "ruling": "202307", "deductibility": "1", "assets": 0, "income": 0, "revenue": 0}], "SULLIVAN": [{"ein": "043731052", "name": "MUSIC INSTITUTE OF SULLIVAN & ULSTER COUNTIES", "city": "ELLENVILLE", "state": "NY", "zip": "12428-0126", "ntee": "B28", "ruling": "200503", "deductibility": "1", "assets": 0, "income": 0, "revenue": 0}, {"ein": "061286045", "name": "MATERNAL-INFANT SERVICES NETWORK OF ORANGE SULLIVAN & ULSTER CNTY INC", "city": "NEWBURGH", "state": "NY", "zip": "12550-5301", "ntee": "E46Z", "ruling": "199002", "deductibility": "1", "assets": 598092, "income": 2369664, "revenue": 2369664}, {"ein": "061645958", "name": "SULLIVAN COUNTY PROBATION OFFICERS ASSOCIATION", "city": "MONGAUP VLY", "state": "NY", "zip": "12762-0325", "ntee": "J40", "ruling": "200210", "deductibility": "2", "assets": 0, "income": 0, "revenue": 0}, {"ein": "100007034", "name": "WESTERN SULLIVAN BENEFIT TR FUND", "city": "LAKE HUNTINGTON", "state": "NY", "zip": "12752-0000", "ntee": "Y43", "ruling": "200411", "deductibility": "2", "assets": 459337, "income": 345557, "revenue": 345557}, {"ein": "112745438", "name": "GILBERT AND SULLIVAN LIGHT OPERA COMPANY OF LONG ISLAND INC", "city": "HICKSVILLE", "state": "NY", "zip": "11802-7415", "ntee": "A65", "ruling": "200509", "deductibility": "1", "assets": 0, "income": 0, "revenue": 0}, {"ein": "113149799", "name": "FRIENDS OF GILBERT & SULLIVAN INC", "city": "ROSLYN HTS", "state": "NY", "zip": "11577-1991", "ntee": "", "ruling": "199306", "deductibility": "1", "assets": 0, "income": 0, "revenue": 0}, {"ein": "113523086", "name": "THOMAS E SULLIVAN AND BARBARA A SULLIVAN FOUNDATION", "city": "GARDEN CITY", "state": "NY", "zip": "11530-0000", "ntee": "T22", "ruling": "200009", "deductibility": "1", "assets": 425404, "income": 131607, "revenue": 0}, {"ein": "113623236", "name": "SULLIVAN CHARTER SCHOOL", "city": "WEST BABYLON", "state": "NY", "zip": "11704-0266", "ntee": "B29", "ruling": "200207", "deductibility": "1", "assets": 0, "income": 0, "revenue": 0}, {"ein": "132862043", "name": "NEW YORK GILBERT & SULLIVAN PLAYERS INC", "city": "NEW YORK", "state": "NY", "zip": "10025-5014", "ntee": "A650", "ruling": "197711", "deductibility": "1", "assets": 849120, "income": 1395319, "revenue": 1395319}, {"ein": "141406962", "name": "HEBREW DAY SCHOOL OF SULLIVAN COUNTY", "city": "KIAMESHA LAKE", "state": "NY", "zip": "12751-0000", "ntee": "B24Z", "ruling": "195601", "deductibility": "1", "assets": 146981, "income": 776998, "revenue": 776998}, {"ein": "141485262", "name": "FACULTY-STUDENT ASSOCIATION OF SULLIVAN COUNTY COMMUNITY COLLEGE", "city": "LOCH SHELDRKE", "state": "NY", "zip": "12759-5721", "ntee": "B80Z", "ruling": "196807", "deductibility": "1", "assets": 732639, "income": 470085, "revenue": 380536}, {"ein": "141499946", "name": "SULLIVAN COUNTY COMMUNITY COLLEGE DORMITORY CORPORATION", "city": "LOCH SHELDRKE", "state": "NY", "zip": "12759-5721", "ntee": "B410", "ruling": "196805", "deductibility": "1", "assets": 5870205, "income": 1108786, "revenue": 1108786}, {"ein": "141567021", "name": "SULLIVAN COUNTY CHAMBER OF COMMERCE AND INDUSTRY INC", "city": "MONTICELLO", "state": "NY", "zip": "12701-3847", "ntee": "", "ruling": "197901", "deductibility": "2", "assets": 49670, "income": 265162, "revenue": 250239}, {"ein": "141594597", "name": "FIREFIGHTERS BURN TREATMENT FUND INC OF ORANGE ULSTER AND SULLIVAN", "city": "MONROE", "state": "NY", "zip": "10950-3004", "ntee": "", "ruling": "197804", "deductibility": "1", "assets": 0, "income": 0, "revenue": 0}, {"ein": "141626939", "name": "RURAL SULLIVAN HOUSING CORPORATION", "city": "MONTICELLO", "state": "NY", "zip": "12701-8497", "ntee": "L20Z", "ruling": "198111", "deductibility": "1", "assets": 254761, "income": 131977, "revenue": 131977}, {"ein": "141641649", "name": "SULLIVAN COUNTY DEPUTY SHERRIFFS ASSOCIATION", "city": "MONTICELLO", "state": "NY", "zip": "12701-1304", "ntee": "N50", "ruling": "201208", "deductibility": "2", "assets": 0, "income": 0, "revenue": 0}, {"ein": "141664789", "name": "UNITED WAY OF SULLIVAN COUNTY INC", "city": "MONTICELLO", "state": "NY", "zip": "12701-1036", "ntee": "T70Z", "ruling": "198804", "deductibility": "1", "assets": 167018, "income": 154610, "revenue": 110127}, {"ein": "141703185", "name": "HOSPICE OF ORANGE & SULLIVAN COUNTIES INC", "city": "NEWBURGH", "state": "NY", "zip": "12550-6526", "ntee": "P74Z", "ruling": "198810", "deductibility": "1", "assets": 12757188, "income": 18186753, "revenue": 16797115}, {"ein": "141720901", "name": "SULLIVAN COUNTY CHILD CARE COUNCIL INC", "city": "FERNDALE", "state": "NY", "zip": "12734-0186", "ntee": "", "ruling": "199108", "deductibility": "1", "assets": 734958, "income": 923106, "revenue": 923106}, {"ein": "141759492", "name": "CATSKILL NY BANSUK CHURCH IN SULLIVAN INC", "city": "LOCH SHELDRKE", "state": "NY", "zip": "12759-0041", "ntee": "", "ruling": "199307", "deductibility": "1", "assets": 0, "income": 0, "revenue": 0}, {"ein": "141767900", "name": "PARTNERSHIP FOR ECONOMIC DEVELOPMENT IN SULLIVAN COUNTY INC", "city": "MONTICELLO", "state": "NY", "zip": "12701-0000", "ntee": "", "ruling": "199606", "deductibility": "1", "assets": 981936, "income": 671438, "revenue": 560536}, {"ein": "141774672", "name": "LITERACY VOLUNTEERS OF SULLIVAN COUNTY", "city": "MONTICELLO", "state": "NY", "zip": "12701-0759", "ntee": "B60", "ruling": "200410", "deductibility": "1", "assets": 254276, "income": 170583, "revenue": 170136}, {"ein": "141775937", "name": "SULLIVAN COUNTY PATROLMENS BENEVOLENT ASSOCIATION", "city": "ROCK HILL", "state": "NY", "zip": "12775-0526", "ntee": "", "ruling": "199810", "deductibility": "2", "assets": 238324, "income": 57721, "revenue": 57721}, {"ein": "141799350", "name": "SULLIVAN COUNTY VISITORS ASSOCIATION", "city": "FERNDALE", "state": "NY", "zip": "12734-0000", "ntee": "", "ruling": "199903", "deductibility": "0", "assets": 2471367, "income": 3268450, "revenue": 3268450}, {"ein": "141807053", "name": "SULLIVAN COUNTY CHAMBER OF COMMERCE FOUNDATION INC", "city": "MONTICELLO", "state": "NY", "zip": "12701-3846", "ntee": "S99", "ruling": "199904", "deductibility": "1", "assets": 97811, "income": 25588, "revenue": 25059}, {"ein": "141807076", "name": "WORKFORCE DEVELOPMENT BOARD OF SULLIVAN INC", "city": "MONTICELLO", "state": "NY", "zip": "12701-1160", "ntee": "S410", "ruling": "199906", "deductibility": "1", "assets": 0, "income": 0, "revenue": 0}, {"ein": "141818989", "name": "SULLIVAN-WAWARSING REAP CORP", "city": "MONTICELLO", "state": "NY", "zip": "12701-5192", "ntee": "S32", "ruling": "200005", "deductibility": "1", "assets": 0, "income": 0, "revenue": 0}, {"ein": "141825007", "name": "WESTERN SULLIVAN PUBLIC LIBRARY", "city": "JEFFERSONVLLE", "state": "NY", "zip": "12748-0594", "ntee": "B70", "ruling": "200209", "deductibility": "1", "assets": 0, "income": 0, "revenue": 0}, {"ein": "141825135", "name": "SULLIVAN COUNTY ATV ASSOCIATION INC", "city": "MONTICELLO", "state": "NY", "zip": "12701-0675", "ntee": "T50", "ruling": "200107", "deductibility": "1", "assets": 0, "income": 0, "revenue": 0}, {"ein": "146021192", "name": "SULLIVAN COUNTY DRAMATIC WORKSHOP INC", "city": "S FALLSBURG", "state": "NY", "zip": "12779-0433", "ntee": "A650", "ruling": "198407", "deductibility": "1", "assets": 0, "income": 0, "revenue": 0}, {"ein": "146030590", "name": "SULLIVAN COUNTY BOARD OF REALTORS", "city": "MONTICELLO", "state": "NY", "zip": "12701-1154", "ntee": "", "ruling": "194302", "deductibility": "2", "assets": 276436, "income": 98054, "revenue": 98054}, {"ein": "146034632", "name": "SULLIVAN COUNTY VOLUNTEER FIREFIGHTERS ASSOCIATION INC", "city": "GLEN SPEY", "state": "NY", "zip": "12737-5254", "ntee": "M24Z", "ruling": "199507", "deductibility": "1", "assets": 130035, "income": 21860, "revenue": 20195}, {"ein": "146039299", "name": "SULLIVAN COUNTY HISTORICAL SOCIETY INC", "city": "HURLEYVILLE", "state": "NY", "zip": "12747-0247", "ntee": "", "ruling": "197703", "deductibility": "0", "assets": 23768, "income": 36164, "revenue": 29142}, {"ein": "156010118", "name": "SULLIVAN COMMUNITY COUNCIL INC", "city": "CHITTENANGO", "state": "NY", "zip": "13037-1345", "ntee": "N31", "ruling": "202210", "deductibility": "1", "assets": 110635, "income": 219971, "revenue": 219971}, {"ein": "161367581", "name": "SULLIVAN FOOD CUPBOARD INC", "city": "CHITTENANGO", "state": "NY", "zip": "13037-0201", "ntee": "K31Z", "ruling": "202310", "deductibility": "1", "assets": 192760, "income": 63994, "revenue": 17404}, {"ein": "161398410", "name": "SULLIVAN TRAIL LEGAL SOCIETY INC", "city": "ELMIRA", "state": "NY", "zip": "14901-2717", "ntee": "I800", "ruling": "199910", "deductibility": "1", "assets": 59910, "income": 949217, "revenue": 949217}, {"ein": "161534284", "name": "GEORGE W SULLIVAN FOUNDATION", "city": "WATERLOO", "state": "NY", "zip": "13165-1260", "ntee": "T20Z", "ruling": "199709", "deductibility": "1", "assets": 1, "income": 1160784, "revenue": 0}, {"ein": "161541509", "name": "GREATER SULLIVAN AREA CHAMBER OF COMMERCE INC", "city": "CHITTENANGO", "state": "NY", "zip": "13037-0435", "ntee": "S41", "ruling": "202303", "deductibility": "2", "assets": 21460, "income": 37073, "revenue": 26672}, {"ein": "161584465", "name": "TOWN OF SULLIVAN DEVELOPMENT CORPORATION", "city": "CHITTENANGO", "state": "NY", "zip": "13037-9515", "ntee": "S20", "ruling": "200001", "deductibility": "1", "assets": 0, "income": 0, "revenue": 0}, {"ein": "200220871", "name": "SULLIVAN COUNTY SCHOOL BOARDS ASSOCIATION", "city": "HUGUENOT", "state": "NY", "zip": "12746-0231", "ntee": "B03", "ruling": "201702", "deductibility": "1", "assets": 0, "income": 0, "revenue": 0}, {"ein": "201957483", "name": "FEDERATION OF SPORTSMANS CLUBS OF SULLIVAN COUNTY INC", "city": "HURLEYVILLE", "state": "NY", "zip": "12747-5003", "ntee": "D30", "ruling": "200709", "deductibility": "1", "assets": 138643, "income": 98067, "revenue": 52580}, {"ein": "202852643", "name": "SULLIVAN COUNTY CULTURAL FOUNDATION INC", "city": "LIBERTY", "state": "NY", "zip": "12754-0000", "ntee": "A20", "ruling": "200810", "deductibility": "1", "assets": 0, "income": 0, "revenue": 0}, {"ein": "208094145", "name": "SULLIVAN COUNTY ERUV CORPORATION", "city": "AIRMONY", "state": "NY", "zip": "10901-5141", "ntee": "X30", "ruling": "201110", "deductibility": "1", "assets": 0, "income": 0, "revenue": 0}, {"ein": "222213596", "name": "SULLIVAN COUNTY COMMUNITY CHORUS INC", "city": "LIVINGSTN MNR", "state": "NY", "zip": "12758-5105", "ntee": "", "ruling": "197810", "deductibility": "1", "assets": 0, "income": 0, "revenue": 0}, {"ein": "222370358", "name": "SULLIVAN CP RESIDENCE CORPORATION INC", "city": "HARRIS", "state": "NY", "zip": "12742-0840", "ntee": "", "ruling": "198110", "deductibility": "1", "assets": 122723, "income": 36948, "revenue": 36948}, {"ein": "222531889", "name": "SULLIVAN SERVICES FOR THE RETARDED INC", "city": "MONTICELLO", "state": "NY", "zip": "12701-8815", "ntee": "", "ruling": "198908", "deductibility": "2", "assets": 0, "income": 0, "revenue": 0}, {"ein": "222533455", "name": "SULLIVAN RETARDED CITIZENS SERVICES INC", "city": "MONTICELLO", "state": "NY", "zip": "12701-8815", "ntee": "", "ruling": "198909", "deductibility": "2", "assets": 0, "income": 0, "revenue": 0}, {"ein": "222936666", "name": "SULLIVAN COUNTY FEDERATION FOR THE HOMELESS INC", "city": "MONTICELLO", "state": "NY", "zip": "12701-0336", "ntee": "P85Z", "ruling": "198907", "deductibility": "1", "assets": 908283, "income": 759816, "revenue": 749662}, {"ein": "237259944", "name": "SULLIVAN FREE LIBRARY", "city": "CHITTENANGO", "state": "NY", "zip": "13037-1701", "ntee": "B71Z", "ruling": "197303", "deductibility": "1", "assets": 3337777, "income": 833254, "revenue": 833254}, {"ein": "237369227", "name": "SULLIVAN COUNTY AUDUBON SOCIETY", "city": "LOCH SHELDRKE", "state": "NY", "zip": "12759-0030", "ntee": "W99", "ruling": "201701", "deductibility": "1", "assets": 0, "income": 0, "revenue": 0}, {"ein": "260906894", "name": "HURLEYVILLE-SULLIVAN FIRST INC", "city": "HURLEYVILLE", "state": "NY", "zip": "12747-0372", "ntee": "S20", "ruling": "200807", "deductibility": "1", "assets": 0, "income": 0, "revenue": 0}, {"ein": "263955919", "name": "WOMENS BAR ASSOCIATION OF ORANGE AND SULLIVAN COUNTIES FOUND", "city": "NEW WINDSOR", "state": "NY", "zip": "12553-6150", "ntee": "I99", "ruling": "201104", "deductibility": "1", "assets": 0, "income": 0, "revenue": 0}, {"ein": "272786906", "name": "CAROLYN SULLIVAN MEMORIAL FOUNDATIO N", "city": "PEARL RIVER", "state": "NY", "zip": "10965-1025", "ntee": "H12", "ruling": "201108", "deductibility": "1", "assets": 99030, "income": 18603, "revenue": 18603}, {"ein": "300139641", "name": "SULLIVAN FAMILY FOUNDATION", "city": "NEW ROCHELLE", "state": "NY", "zip": "10804-4327", "ntee": "P20", "ruling": "202404", "deductibility": "1", "assets": 77764, "income": 39110, "revenue": 0}, {"ein": "300144468", "name": "SPECS-SPECIAL PROTECTION OF THE EN VIRONMENT FOR THE CNTY SULLIVAN", "city": "MONTICELLO", "state": "NY", "zip": "12701-1709", "ntee": "C30", "ruling": "200307", "deductibility": "1", "assets": 0, "income": 0, "revenue": 0}, {"ein": "311809780", "name": "SULLIVAN AND CROMWELL FOUNDTION", "city": "NEW YORK", "state": "NY", "zip": "10004-2498", "ntee": "T22", "ruling": "200111", "deductibility": "1", "assets": 574662, "income": 7721, "revenue": 0}, {"ein": "320151827", "name": "CATHOLIC CHARITIES OF ORANGE SULLIVAN & ULSTER", "city": "NEW YORK", "state": "NY", "zip": "10038-4828", "ntee": "", "ruling": "194603", "deductibility": "1", "assets": 6934140, "income": 9909215, "revenue": 9519902}, {"ein": "320252836", "name": "SULLIVAN COUNTY BOCES BENEFITS TR", "city": "FERNDALE", "state": "NY", "zip": "12734-0443", "ntee": "J40", "ruling": "200907", "deductibility": "2", "assets": 372279, "income": 200967, "revenue": 200967}, {"ein": "412119583", "name": "SULLIVAN LEGAL AID PANEL INC", "city": "MONTICELLO", "state": "NY", "zip": "12701-1701", "ntee": "I80", "ruling": "200503", "deductibility": "1", "assets": 244659, "income": 1570657, "revenue": 1570657}, {"ein": "421689475", "name": "SULLIVAN COUNTY FARMERS MARKET ASSOCIATION INC", "city": "CALLICOON", "state": "NY", "zip": "12723-0244", "ntee": "W99", "ruling": "200708", "deductibility": "2", "assets": 58401, "income": 52471, "revenue": 51406}, {"ein": "454170500", "name": "SULLIVAN COUNTY HORSE COUNCIL INC", "city": "ELDRED", "state": "NY", "zip": "12732-0050", "ntee": "N60", "ruling": "201205", "deductibility": "1", "assets": 0, "income": 0, "revenue": 0}, {"ein": "454423176", "name": "SULLIVAN COUNTY DIVE & RESCUE TEAM INC", "city": "MONTICELLO", "state": "NY", "zip": "12701-8111", "ntee": "M23", "ruling": "201408", "deductibility": "1", "assets": 0, "income": 0, "revenue": 0}, {"ein": "456714791", "name": "DAN SULLIVAN FOUNDATION TR", "city": "PEARL RIVER", "state": "NY", "zip": "10965-1314", "ntee": "T30", "ruling": "201301", "deductibility": "1", "assets": 80819, "income": 23379, "revenue": 23379}, {"ein": "462362978", "name": "FRIENDS OF THE WESTERN SULLIVAN PUBLIC LIBRARY", "city": "JEFFERSONVLLE", "state": "NY", "zip": "12748-0594", "ntee": "B11", "ruling": "201406", "deductibility": "1", "assets": 0, "income": 0, "revenue": 0}, {"ein": "464594004", "name": "RIDE 2 SURVIVE - SULLIVAN COUNTY", "city": "YOUNGSVILLE", "state": "NY", "zip": "12791-0282", "ntee": "E12", "ruling": "201409", "deductibility": "1", "assets": 303339, "income": 103825, "revenue": 90691}, {"ein": "510154661", "name": "SULLIVAN COUNTY COMMUNITY COLLEGE FOUNDATION INC", "city": "LOCH SHELDRKE", "state": "NY", "zip": "12759-5721", "ntee": "T31", "ruling": "197611", "deductibility": "1", "assets": 1873572, "income": 470389, "revenue": 185809}, {"ein": "510191653", "name": "SULLIVAN COUNTY COUNCIL FOR THE ARTS INC", "city": "LIBERTY", "state": "NY", "zip": "12754-1806", "ntee": "A20", "ruling": "202409", "deductibility": "1", "assets": 0, "income": 0, "revenue": 0}, {"ein": "510197010", "name": "NAMI SULLIVAN COUNTY NY INC", "city": "MONTICELLO", "state": "NY", "zip": "12701-1380", "ntee": "", "ruling": "200006", "deductibility": "0", "assets": 87679, "income": 331972, "revenue": 331972}, {"ein": "562327153", "name": "SULLIVAN COUNTY PREGNANCY SUPPORT CENTER INC", "city": "LIBERTY", "state": "NY", "zip": "12754-0832", "ntee": "P46", "ruling": "200403", "deductibility": "1", "assets": 0, "income": 0, "revenue": 0}, {"ein": "562517623", "name": "JEFFERSONVILLE ENHANCES MORE OF SULLIVAN INC", "city": "JEFFERSONVLLE", "state": "NY", "zip": "12748-0445", "ntee": "C30", "ruling": "200704", "deductibility": "1", "assets": 0, "income": 0, "revenue": 0}, {"ein": "651212275", "name": "SULLIVAN COUNTY CONFLICT LEGAL AID INC", "city": "THOMPSONVILLE", "state": "NY", "zip": "12784-0157", "ntee": "I80", "ruling": "202206", "deductibility": "1", "assets": 131579, "income": 955485, "revenue": 955485}, {"ein": "656316123", "name": "SULLIVAN FAMILY FOUNDATION", "city": "EDEN", "state": "NY", "zip": "14057-1438", "ntee": "T22", "ruling": "200012", "deductibility": "1", "assets": 6573138, "income": 668843, "revenue": 0}, {"ein": "753141094", "name": "SULLIVAN COUNTY PUBLIC LIBRARY ALLIANCE", "city": "LIVINGSTN MNR", "state": "NY", "zip": "12758-5113", "ntee": "B70", "ruling": "202202", "deductibility": "1", "assets": 0, "income": 0, "revenue": 0}, {"ein": "760809725", "name": "SULLIVAN ALLIANCE FOR SUSTAINABLE DEVELOPMENT", "city": "NARROWSBURG", "state": "NY", "zip": "12764-0464", "ntee": "Q30", "ruling": "201206", "deductibility": "1", "assets": 9221, "income": 10000, "revenue": 10000}, {"ein": "813451349", "name": "SULLIVAN 180 INC", "city": "LIBERTY", "state": "NY", "zip": "12754-0000", "ntee": "S20", "ruling": "201708", "deductibility": "1", "assets": 578643, "income": 2494003, "revenue": 2494003}, {"ein": "814085912", "name": "SULLIVAN CATSKILLS REGIONAL FOOD HUB INC", "city": "LIBERTY", "state": "NY", "zip": "12754-2059", "ntee": "F60", "ruling": "201903", "deductibility": "1", "assets": 364390, "income": 421323, "revenue": 421395}, {"ein": "820939626", "name": "SULLIVAN COUNTY LAND BANK CORPORATION", "city": "MONTICELLO", "state": "NY", "zip": "12701-5192", "ntee": "S30", "ruling": "201802", "deductibility": "1", "assets": 1253824, "income": 383571, "revenue": 319120}, {"ein": "822370791", "name": "THE@FRED SULLIVAN FOUNDATION", "city": "NEW YORK", "state": "NY", "zip": "10023-6570", "ntee": "T20", "ruling": "201801", "deductibility": "1", "assets": 1649, "income": 70, "revenue": 0}, {"ein": "841864890", "name": "JIMMY SULLIVAN CHARITABLE FOUNDATION INC", "city": "GREENLAWN", "state": "NY", "zip": "11740-2917", "ntee": "W12", "ruling": "201907", "deductibility": "1", "assets": 1, "income": 1, "revenue": 0}, {"ein": "853980506", "name": "SULLIVAN ALLIES LEADING TOGETHER INC", "city": "LIBERTY", "state": "NY", "zip": "12754-3335", "ntee": "", "ruling": "202111", "deductibility": "1", "assets": 0, "income": 0, "revenue": 0}, {"ein": "871486701", "name": "HOMESTEAD SCHOOL SULLIVAN", "city": "GLEN SPEY", "state": "NY", "zip": "12737-8521", "ntee": "B20", "ruling": "202202", "deductibility": "1", "assets": 820346, "income": 3264835, "revenue": 3264835}, {"ein": "900413446", "name": "SULLIVAN COUNTY VETERANS COALITION CORP", "city": "MONTICELLO", "state": "NY", "zip": "12701-8527", "ntee": "W30", "ruling": "201211", "deductibility": "1", "assets": 0, "income": 0, "revenue": 0}, {"ein": "922532447", "name": "VISUAL & PERFORMING ARTS OF SULLIVAN COUNTY", "city": "GRAHAMSVILLE", "state": "NY", "zip": "12740-0363", "ntee": "A20", "ruling": "202306", "deductibility": "1", "assets": 0, "income": 0, "revenue": 0}, {"ein": "923607482", "name": "SULLIVAN COUNTY SHIELDS", "city": "LIVINGSTN MNR", "state": "NY", "zip": "12758-6332", "ntee": "I60", "ruling": "202305", "deductibility": "1", "assets": 5248, "income": 7852, "revenue": 0}, {"ein": "992565618", "name": "DIAPER BANK OF ORANGE ULSTER & SULLIVAN", "city": "MILTON", "state": "NY", "zip": "12547-5481", "ntee": "P40", "ruling": "202404", "deductibility": "1", "assets": 0, "income": 0, "revenue": 0}, {"ein": "993949257", "name": "ASSOCIATION OF FIRE DISTRICT OF SULLIVAN COUNTY", "city": "KAUNEONGA LK", "state": "NY", "zip": "12749-0764", "ntee": "M19", "ruling": "202407", "deductibility": "1", "assets": 0, "income": 0, "revenue": 0}], "NIPPON": [{"ein": "050585341", "name": "BAMAR NIPPON AMERICA BUDDHIST ASSOCIATION INC", "city": "RENSSELAER", "state": "NY", "zip": "12144-2115", "ntee": "X50", "ruling": "200503", "deductibility": "1", "assets": 1, "income": 27593, "revenue": 27593}, {"ein": "131840276", "name": "NIPPON CLUB INC", "city": "NEW YORK", "state": "NY", "zip": "10019-2220", "ntee": "N50", "ruling": "195704", "deductibility": "2", "assets": 3887924, "income": 2765758, "revenue": 2497282}], "DUVOR": [{"ein": "061671827", "name": "DUVOR TOV", "city": "BEDFORD HILLS", "state": "NY", "zip": "10507-0000", "ntee": "X30", "ruling": "200302", "deductibility": "1", "assets": 0, "income": 0, "revenue": 0}], "SYNAGOGUE": [{"ein": "111631791", "name": "KEW GARDENS SYNAGOGUE ADATH YESHURUN", "city": "KEW GARDENS", "state": "NY", "zip": "11415-1732", "ntee": "", "ruling": "196310", "deductibility": "1", "assets": 0, "income": 0, "revenue": 0}, {"ein": "111797174", "name": "FREE SYNAGOGUE OF FLUSHING", "city": "FLUSHING", "state": "NY", "zip": "11355-3100", "ntee": "", "ruling": "195601", "deductibility": "1", "assets": 0, "income": 0, "revenue": 0}, {"ein": "111992681", "name": "COMMUNITY SYNAGOGUE", "city": "PRT WASHINGTN", "state": "NY", "zip": "11050-1267", "ntee": "", "ruling": "197306", "deductibility": "1", "assets": 0, "income": 0, "revenue": 0}, {"ein": "112019287", "name": "HILLEL HEBREW ACADEMY & SYNAGOGUE", "city": "MASSAPEQUA", "state": "NY", "zip": "11758-0244", "ntee": "", "ruling": "196608", "deductibility": "1", "assets": 0, "income": 0, "revenue": 0}, {"ein": "112020781", "name": "MERRICK BELLMORE SYNAGOGUE INC", "city": "MERRICK", "state": "NY", "zip": "11566-0000", "ntee": "", "ruling": "198702", "deductibility": "1", "assets": 0, "income": 0, "revenue": 0}, {"ein": "112117560", "name": "INTERNATIONAL SYNAGOGUE & JEWISH CENTER INC", "city": "JAMAICA", "state": "NY", "zip": "11430-0000", "ntee": "X30", "ruling": "201912", "deductibility": "1", "assets": 1165167, "income": 226231, "revenue": 135086}, {"ein": "112394265", "name": "ROSLYN SYNAGOGUE C O IRWIN M ECHTMAN", "city": "ROSLYN HTS", "state": "NY", "zip": "11577-1044", "ntee": "", "ruling": "197712", "deductibility": "1", "assets": 0, "income": 0, "revenue": 0}, {"ein": "112404508", "name": "BROOKLYN HEIGHTS SYNAGOGUE", "city": "BROOKLYN", "state": "NY", "zip": "11201-4212", "ntee": "", "ruling": "196112", "deductibility": "1", "assets": 0, "income": 0, "revenue": 0}, {"ein": "112515221", "name": "NORTH SHORE SEPHARDIC SYNAGOGUE", "city": "GREAT NECK", "state": "NY", "zip": "11021-3103", "ntee": "", "ruling": "198102", "deductibility": "1", "assets": 0, "income": 0, "revenue": 0}, {"ein": "112652248", "name": "COMMUNITY TORAH CENTERS SYNAGOGUE", "city": "NEW YORK", "state": "NY", "zip": "10025-7372", "ntee": "", "ruling": "198401", "deductibility": "1", "assets": 0, "income": 0, "revenue": 0}, {"ein": "112853210", "name": "CONGREGATION SHAARE SHALOM SYNAGOGUE", "city": "BROOKLYN", "state": "NY", "zip": "11210-3616", "ntee": "", "ruling": "198705", "deductibility": "1", "assets": 0, "income": 0, "revenue": 0}, {"ein": "113048031", "name": "WESTHAMPTON SYNAGOGUE INC", "city": "W HAMPTON BCH", "state": "NY", "zip": "11978-2327", "ntee": "", "ruling": "199107", "deductibility": "1", "assets": 0, "income": 0, "revenue": 0}, {"ein": "113365174", "name": "SEPHARDIC SYNAGOGUE", "city": "BROOKLYN", "state": "NY", "zip": "11223-2044", "ntee": "X20Z", "ruling": "199706", "deductibility": "1", "assets": 0, "income": 0, "revenue": 0}, {"ein": "113407781", "name": "CONGREGATION B NAI JACOB-PARK SLOPE SYNAGOGUE", "city": "BROOKLYN", "state": "NY", "zip": "11215-4101", "ntee": "X30Z", "ruling": "199708", "deductibility": "1", "assets": 0, "income": 0, "revenue": 0}, {"ein": "113445647", "name": "ZICHRON AHARON TZVI RUSSIAN SYNAGOGUE INC", "city": "BROOKLYN", "state": "NY", "zip": "11229-2402", "ntee": "X300", "ruling": "199902", "deductibility": "1", "assets": 0, "income": 0, "revenue": 0}, {"ein": "113556329", "name": "SYNAGOGUE YESHIVA & KOLEL DIVREI CHAIM", "city": "BROOKLYN", "state": "NY", "zip": "11219-1300", "ntee": "X30", "ruling": "200009", "deductibility": "1", "assets": 0, "income": 0, "revenue": 0}, {"ein": "113600442", "name": "OHR HASHALOM SYNAGOGUE", "city": "NEW HYDE PARK", "state": "NY", "zip": "11040-1228", "ntee": "X30", "ruling": "200110", "deductibility": "1", "assets": 0, "income": 0, "revenue": 0}, {"ein": "116079619", "name": "MERRICK-BELLMORE SYNAGOGUE", "city": "MERRICK", "state": "NY", "zip": "11566-4318", "ntee": "", "ruling": "199208", "deductibility": "1", "assets": 0, "income": 0, "revenue": 0}, {"ein": "131628161", "name": "CENTRAL SYNAGOGUE", "city": "NEW YORK", "state": "NY", "zip": "10022-3502", "ntee": "", "ruling": "195407", "deductibility": "1", "assets": 0, "income": 0, "revenue": 0}, {"ein": "131628215", "name": "STEPHEN WISE FREE SYNAGOGUE", "city": "NEW YORK", "state": "NY", "zip": "10023-6053", "ntee": "", "ruling": "194209", "deductibility": "1", "assets": 0, "income": 0, "revenue": 0}, {"ein": "131656627", "name": "WEST SIDE INSTITUTIONAL SYNAGOGUE", "city": "NEW YORK", "state": "NY", "zip": "10023-8401", "ntee": "", "ruling": "194808", "deductibility": "1", "assets": 0, "income": 0, "revenue": 0}, {"ein": "131656669", "name": "MILLINERY CENTER SYNAGOGUE", "city": "NEW YORK CITY", "state": "NY", "zip": "10018-5408", "ntee": "", "ruling": "201903", "deductibility": "1", "assets": 0, "income": 0, "revenue": 0}, {"ein": "131659707", "name": "UNITED SYNAGOGUE OF CONSERVATIVE JUDAISM", "city": "NEW YORK", "state": "NY", "zip": "10027-4650", "ntee": "", "ruling": "195403", "deductibility": "1", "assets": 0, "income": 0, "revenue": 0}, {"ein": "131740225", "name": "COMMUNITY SYNAGOGUE", "city": "RYE", "state": "NY", "zip": "10580-4147", "ntee": "X30", "ruling": "200603", "deductibility": "1", "assets": 0, "income": 0, "revenue": 0}, {"ein": "131876346", "name": "FIFTH AVENUE SYNAGOGUE", "city": "NEW YORK", "state": "NY", "zip": "10065-7204", "ntee": "", "ruling": "195803", "deductibility": "1", "assets": 0, "income": 0, "revenue": 0}, {"ein": "131913705", "name": "BET AM SHALOM SYNAGOGUE", "city": "WHITE PLAINS", "state": "NY", "zip": "10606-3821", "ntee": "X30", "ruling": "200511", "deductibility": "1", "assets": 0, "income": 0, "revenue": 0}, {"ein": "131924235", "name": "BROTHERHOOD SYNAGOGUE", "city": "NEW YORK", "state": "NY", "zip": "10003-1781", "ntee": "", "ruling": "197509", "deductibility": "1", "assets": 0, "income": 0, "revenue": 0}, {"ein": "131993635", "name": "OR OLAM THE EAST 55TH STREET SYNAGOGUE", "city": "NEW YORK", "state": "NY", "zip": "10022-8301", "ntee": "X30", "ruling": "200805", "deductibility": "1", "assets": 0, "income": 0, "revenue": 0}, {"ein": "132509155", "name": "LINCOLN SQUARE SYNAGOGUE INC", "city": "NEW YORK", "state": "NY", "zip": "10023-5034", "ntee": "", "ruling": "196501", "deductibility": "1", "assets": 0, "income": 0, "revenue": 0}, {"ein": "132644427", "name": "SCARSDALE SYNAGOGUE", "city": "SCARSDALE", "state": "NY", "zip": "10583-2906", "ntee": "", "ruling": "200009", "deductibility": "1", "assets": 0, "income": 0, "revenue": 0}, {"ein": "132789089", "name": "WEST END SYNAGOGUE", "city": "NEW YORK", "state": "NY", "zip": "10024-1705", "ntee": "", "ruling": "197512", "deductibility": "1", "assets": 0, "income": 0, "revenue": 0}, {"ein": "133006627", "name": "NEW SPRINGVILLE SYNAGOGUE INC", "city": "STATEN ISLAND", "state": "NY", "zip": "10314-3717", "ntee": "", "ruling": "197912", "deductibility": "1", "assets": 0, "income": 0, "revenue": 0}, {"ein": "133015809", "name": "CHEVRA TALMUD TORAH ANSHEI MAROVI OLD BROADWAY SYNAGOGUE", "city": "NEW YORK", "state": "NY", "zip": "10027-2426", "ntee": "", "ruling": "198003", "deductibility": "1", "assets": 0, "income": 0, "revenue": 0}, {"ein": "133054568", "name": "CONSERVATIVE SYNAGOGUE OF FIFTH AVENUE", "city": "NEW YORK", "state": "NY", "zip": "10003-0000", "ntee": "", "ruling": "196012", "deductibility": "1", "assets": 0, "income": 0, "revenue": 0}, {"ein": "133094061", "name": "UNITED JEWISH COUNCIL-BIALYSTOKER SYNAGOGUE HSNG DEV FUND CO INC", "city": "NEW YORK", "state": "NY", "zip": "10002-4064", "ntee": "L21Z", "ruling": "198111", "deductibility": "1", "assets": 320606, "income": 195000, "revenue": 195000}, {"ein": "133200228", "name": "THE LITTLE SYNAGOGUE CONGREGATION TEL AVIV INC", "city": "NEW YORK", "state": "NY", "zip": "10010-0000", "ntee": "", "ruling": "198609", "deductibility": "1", "assets": 0, "income": 0, "revenue": 0}, {"ein": "133346716", "name": "ALBERT EINSTEIN SYNAGOGUE INC", "city": "BRONX", "state": "NY", "zip": "10461-2187", "ntee": "", "ruling": "198612", "deductibility": "1", "assets": 0, "income": 0, "revenue": 0}, {"ein": "133419769", "name": "SEPHARDIC SERVICES OF THE FIFTH AVE SYNAGOGUE INC", "city": "NEW YORK", "state": "NY", "zip": "10021-0005", "ntee": "", "ruling": "198712", "deductibility": "1", "assets": 0, "income": 0, "revenue": 0}, {"ein": "133612641", "name": "KEHILLAT NEW HEMPSTEAD THE RAV ARON JOFEN COMMUNITY SYNAGOGUE", "city": "NEW HEMPSTEAD", "state": "NY", "zip": "10977-1700", "ntee": "", "ruling": "199301", "deductibility": "1", "assets": 0, "income": 0, "revenue": 0}, {"ein": "133910728", "name": "PLEASANTVILLE COMMUNITY SYNAGOGUE", "city": "PLEASANTVILLE", "state": "NY", "zip": "10570-0148", "ntee": "X30", "ruling": "202103", "deductibility": "1", "assets": 0, "income": 0, "revenue": 0}, {"ein": "134010099", "name": "MANHATTAN JEWISH EXPERIENCE SYNAGOGUE", "city": "NEW YORK", "state": "NY", "zip": "10024-3445", "ntee": "X30", "ruling": "199906", "deductibility": "1", "assets": 0, "income": 0, "revenue": 0}, {"ein": "134018735", "name": "CONSERVATIVE SYNAGOGUE OF THE HAMPTONS INC", "city": "BRIDGEHAMPTON", "state": "NY", "zip": "11932-1196", "ntee": "X30", "ruling": "199901", "deductibility": "1", "assets": 0, "income": 0, "revenue": 0}, {"ein": "134114856", "name": "COMMUNITY SYNAGOGUE OF MONSEY", "city": "MONSEY", "state": "NY", "zip": "10952-2457", "ntee": "X30", "ruling": "200103", "deductibility": "1", "assets": 0, "income": 0, "revenue": 0}, {"ein": "134159095", "name": "SHUL OF NEW YORK-A SYNAGOGUE FOR SPIRITUAL JUDISM INC", "city": "NEW YORK", "state": "NY", "zip": "10003-6215", "ntee": "X30", "ruling": "200108", "deductibility": "1", "assets": 0, "income": 0, "revenue": 0}, {"ein": "134302356", "name": "LAUREL ESTATES SYNAGOGUE", "city": "BROOKLYN", "state": "NY", "zip": "11230-5108", "ntee": "X30", "ruling": "200601", "deductibility": "1", "assets": 0, "income": 0, "revenue": 0}, {"ein": "135562200", "name": "CIVIC CENTER SYNAGOGUE INC", "city": "NEW YORK", "state": "NY", "zip": "10013-3528", "ntee": "", "ruling": "194612", "deductibility": "1", "assets": 0, "income": 0, "revenue": 0}, {"ein": "135657072", "name": "COMMUNITY SYNAGOGUE CENTER", "city": "NEW YORK", "state": "NY", "zip": "10003-8401", "ntee": "", "ruling": "194111", "deductibility": "1", "assets": 0, "income": 0, "revenue": 0}, {"ein": "135660280", "name": "WALL STREET SYNAGOGUE INC", "city": "NEW YORK", "state": "NY", "zip": "10038-1510", "ntee": "", "ruling": "195808", "deductibility": "1", "assets": 0, "income": 0, "revenue": 0}, {"ein": "136017147", "name": "BETH EMETH SYNAGOGUE", "city": "LARCHMONT", "state": "NY", "zip": "10538-3701", "ntee": "", "ruling": "198006", "deductibility": "1", "assets": 0, "income": 0, "revenue": 0}, {"ein": "136167965", "name": "SYNAGOGUE OF THE JEWISH THEOLOGICAL SEMINARY OF AMERICA", "city": "NEW YORK", "state": "NY", "zip": "10027-4650", "ntee": "", "ruling": "195212", "deductibility": "1", "assets": 0, "income": 0, "revenue": 0}, {"ein": "136401397", "name": "TOWN & VILLAGE CONSERVATIVE SYNAGOGUE INC", "city": "NEW YORK", "state": "NY", "zip": "10003-4201", "ntee": "", "ruling": "195304", "deductibility": "1", "assets": 0, "income": 0, "revenue": 0}, {"ein": "136931471", "name": "PARK AVENUE SYNAGOGUE INC", "city": "AIRMONT", "state": "NY", "zip": "10952-5231", "ntee": "", "ruling": "199102", "deductibility": "1", "assets": 0, "income": 0, "revenue": 0}, {"ein": "137053343", "name": "TORAH-SYNAGOGUE FOUNDATION", "city": "BROOKLYN", "state": "NY", "zip": "11229-3802", "ntee": "T31", "ruling": "199602", "deductibility": "1", "assets": 19941, "income": 189200, "revenue": 189200}, {"ein": "137430858", "name": "CHARLES COHN LIBRARY OF THE NORTH SYNAGOGUE CHAR TR UW SEYMOUR COHN", "city": "NEW YORK", "state": "NY", "zip": "10010-0000", "ntee": "T22", "ruling": "200606", "deductibility": "1", "assets": 85081, "income": 35726, "revenue": 0}, {"ein": "141817137", "name": "THE CHATHAM SYNAGOGUE", "city": "CHATHAM", "state": "NY", "zip": "12037-0051", "ntee": "X30", "ruling": "201708", "deductibility": "1", "assets": 0, "income": 0, "revenue": 0}, {"ein": "146021868", "name": "LAKE PLACID SYNAGOGUE", "city": "LAKE PLACID", "state": "NY", "zip": "12946-0521", "ntee": "", "ruling": "195508", "deductibility": "1", "assets": 0, "income": 0, "revenue": 0}, {"ein": "200484118", "name": "SYNAGOGUE BORUCH TA-AM LEIPNIK", "city": "BROOKLYN", "state": "NY", "zip": "11219-1300", "ntee": "X30", "ruling": "200602", "deductibility": "1", "assets": 0, "income": 0, "revenue": 0}, {"ein": "201596839", "name": "MAGEN DAVID SYNAGOGUE", "city": "BROOKLYN", "state": "NY", "zip": "11223-2940", "ntee": "X30", "ruling": "202007", "deductibility": "1", "assets": 0, "income": 0, "revenue": 0}, {"ein": "203131296", "name": "SYNAGOGUE 3000", "city": "SCARSDALE", "state": "NY", "zip": "10583-1622", "ntee": "X30", "ruling": "200607", "deductibility": "1", "assets": 0, "income": 0, "revenue": 0}, {"ein": "205569592", "name": "THE EDMOND J SAFRA SYNAGOGUE INC", "city": "BROOKLYN", "state": "NY", "zip": "11223-4044", "ntee": "X30", "ruling": "200801", "deductibility": "1", "assets": 0, "income": 0, "revenue": 0}, {"ein": "222315074", "name": "CRESCENT HILL SYNAGOGUE INC", "city": "ROCK HILL", "state": "NY", "zip": "12775-0000", "ntee": "", "ruling": "198812", "deductibility": "1", "assets": 0, "income": 0, "revenue": 0}, {"ein": "222573325", "name": "NASSAU SYNAGOGUE & JEWISH COMMUNITY CENTER", "city": "NASSAU", "state": "NY", "zip": "12123-0670", "ntee": "X30", "ruling": "200705", "deductibility": "1", "assets": 0, "income": 0, "revenue": 0}, {"ein": "223635275", "name": "NORTH AMERICAN ASSOCIATION OF SYNAGOGUE EXECUTIVES", "city": "NEW YORK", "state": "NY", "zip": "10027-4650", "ntee": "C03", "ruling": "199903", "deductibility": "2", "assets": 363582, "income": 137959, "revenue": 137959}, {"ein": "223884890", "name": "BNAI RAPHAEL SYNAGOGUE", "city": "BROOKLYN", "state": "NY", "zip": "11234-6324", "ntee": "X30", "ruling": "200407", "deductibility": "1", "assets": 0, "income": 0, "revenue": 0}, {"ein": "237013128", "name": "AMERICAN FRIENDS OF THE JERUSALEM GREAT SYNAGOGUE INC", "city": "NEW YORK", "state": "NY", "zip": "10030-2877", "ntee": "X30J", "ruling": "196903", "deductibility": "1", "assets": 414204, "income": 756587, "revenue": 756587}, {"ein": "237160042", "name": "RADIO CITY SYNAGOGUE", "city": "NEW YORK", "state": "NY", "zip": "10036-2838", "ntee": "", "ruling": "196203", "deductibility": "1", "assets": 0, "income": 0, "revenue": 0}, {"ein": "237193634", "name": "HERITAGE SYNAGOGUE OF WESTCHESTER INC", "city": "WHITE PLAINS", "state": "NY", "zip": "10606-3302", "ntee": "", "ruling": "197301", "deductibility": "1", "assets": 0, "income": 0, "revenue": 0}, {"ein": "237287546", "name": "NEW ROCHELLE SYNAGOGUE", "city": "NEW ROCHELLE", "state": "NY", "zip": "10804-3720", "ntee": "", "ruling": "197401", "deductibility": "1", "assets": 0, "income": 0, "revenue": 0}, {"ein": "237325779", "name": "GRAND CENTRAL SYNAGOGUE INC", "city": "BRIARWOOD", "state": "NY", "zip": "11435-1124", "ntee": "", "ruling": "197212", "deductibility": "1", "assets": 0, "income": 0, "revenue": 0}, {"ein": "237339659", "name": "SYNAGOGUE OF BAIS HAYALMUD HAIGODOL", "city": "BROOKLYN", "state": "NY", "zip": "11204-1252", "ntee": "", "ruling": "197401", "deductibility": "1", "assets": 0, "income": 0, "revenue": 0}, {"ein": "262177954", "name": "SCARSDALE SYNAGOGUE TEMPLES TREMONT AND EMANU-EL", "city": "SCARSDALE", "state": "NY", "zip": "10583-2906", "ntee": "X20", "ruling": "200906", "deductibility": "1", "assets": 0, "income": 0, "revenue": 0}, {"ein": "342040934", "name": "THE PENTECOSTAL SYNAGOGUE JOHN 3 16", "city": "BROOKLYN", "state": "NY", "zip": "11207-3920", "ntee": "", "ruling": "196408", "deductibility": "1", "assets": 0, "income": 0, "revenue": 0}, {"ein": "455374210", "name": "SYNAGOGUE SHAAREI ZION OF HOLLIS HILLS", "city": "QUEENS VLG", "state": "NY", "zip": "11427-1026", "ntee": "X30", "ruling": "201302", "deductibility": "1", "assets": 0, "income": 0, "revenue": 0}, {"ein": "455571924", "name": "AMERICAN FRIENDS OF THE ELBEUF SYNAGOGUE INC", "city": "NEW YORK", "state": "NY", "zip": "10028-0959", "ntee": "A50", "ruling": "201312", "deductibility": "1", "assets": 0, "income": 0, "revenue": 0}, {"ein": "460824833", "name": "NEW YORK SYNAGOGUE AND TORAH CENTER", "city": "BROOKLYN", "state": "NY", "zip": "11213-4337", "ntee": "X30", "ruling": "201310", "deductibility": "1", "assets": 0, "income": 0, "revenue": 0}, {"ein": "462825441", "name": "SYNAGOGUE CHURCH OF ALL NATIONS SCOAN USA INC", "city": "BROOKLYN", "state": "NY", "zip": "11226-6307", "ntee": "X20", "ruling": "201312", "deductibility": "1", "assets": 0, "income": 0, "revenue": 0}, {"ein": "510201993", "name": "SHAAREI TORAH INSTITUTE & SYNAGOGUE", "city": "BROOKLYN", "state": "NY", "zip": "11236-1209", "ntee": "", "ruling": "197611", "deductibility": "1", "assets": 0, "income": 0, "revenue": 0}, {"ein": "814479268", "name": "CENTRAL SYNAGOGUE-BETH EMETH", "city": "ROCKVILLE CTR", "state": "NY", "zip": "11570-1865", "ntee": "X30", "ruling": "201904", "deductibility": "1", "assets": 0, "income": 0, "revenue": 0}, {"ein": "823869636", "name": "MANHATTAN EAST SYNAGOGUE", "city": "NEW YORK", "state": "NY", "zip": "10017-1426", "ntee": "X30", "ruling": "201905", "deductibility": "1", "assets": 0, "income": 0, "revenue": 0}, {"ein": "830547798", "name": "BEIT HAARI SYNAGOGUE", "city": "NEW YORK", "state": "NY", "zip": "10021-1844", "ntee": "X30", "ruling": "201910", "deductibility": "1", "assets": 0, "income": 0, "revenue": 0}, {"ein": "851415043", "name": "AHABA VE AHVA CONGREFATION-OHEL YAAKOV SYNAGOGUE INC", "city": "BROOKLYN", "state": "NY", "zip": "11223-3149", "ntee": "X30", "ruling": "202112", "deductibility": "1", "assets": 0, "income": 0, "revenue": 0}, {"ein": "881124205", "name": "THE ALTNEU SYNAGOGUE", "city": "NEW YORK", "state": "NY", "zip": "10021-9602", "ntee": "X30", "ruling": "202312", "deductibility": "1", "assets": 0, "income": 0, "revenue": 0}, {"ein": "921682300", "name": "PINE LAKE PARK SYNAGOGUE", "city": "NEW ROCHELLE", "state": "NY", "zip": "10804-3107", "ntee": "X99", "ruling": "202305", "deductibility": "2", "assets": 641, "income": 1751, "revenue": 1751}, {"ein": "934308508", "name": "LIVINGSTON PLACE SYNAGOGUE INC", "city": "CEDARHURST", "state": "NY", "zip": "11516-1427", "ntee": "X30", "ruling": "202505", "deductibility": "1", "assets": 0, "income": 0, "revenue": 0}, {"ein": "993511878", "name": "JABCHRISTI SYNAGOGUE CORP", "city": "ALBANY", "state": "NY", "zip": "12207-2922", "ntee": "X30", "ruling": "202507", "deductibility": "1", "assets": 0, "income": 0, "revenue": 0}], "EMMAUS": [{"ein": "111752008", "name": "EMMAUS LUTHERAN CHURCH", "city": "RIDGEWOOD", "state": "NY", "zip": "11385-4536", "ntee": "", "ruling": "194107", "deductibility": "1", "assets": 0, "income": 0, "revenue": 0}, {"ein": "112608610", "name": "EMMAUS HOUSE FOUNDATION INC", "city": "SYOSSET", "state": "NY", "zip": "11791-1802", "ntee": "L22Z", "ruling": "199810", "deductibility": "1", "assets": 2646605, "income": 207521, "revenue": 207521}, {"ein": "112925315", "name": "EMMAUS CHRISTIAN COMMUNITY CHURCH INC", "city": "BROOKLYN", "state": "NY", "zip": "11203-2917", "ntee": "X20", "ruling": "200611", "deductibility": "1", "assets": 0, "income": 0, "revenue": 0}, {"ein": "113089110", "name": "EMMAUS MISSION CHURCH OF NEW YORK", "city": "HOLLIS HILLS", "state": "NY", "zip": "11427-1232", "ntee": "", "ruling": "197205", "deductibility": "1", "assets": 0, "income": 0, "revenue": 0}, {"ein": "132580509", "name": "EMMAUS HOUSE INC", "city": "NEW YORK", "state": "NY", "zip": "10027-6401", "ntee": "P85Z", "ruling": "196808", "deductibility": "1", "assets": 605941, "income": 25059, "revenue": 25059}, {"ein": "132893096", "name": "EMMAUS MOVEMENT INC", "city": "LONG BEACH", "state": "NY", "zip": "11561-0727", "ntee": "", "ruling": "197706", "deductibility": "1", "assets": 0, "income": 0, "revenue": 0}, {"ein": "133702022", "name": "EMMAUS BIBLE CHAPEL", "city": "BRONX", "state": "NY", "zip": "10469-0717", "ntee": "X99Z", "ruling": "199610", "deductibility": "1", "assets": 0, "income": 0, "revenue": 0}, {"ein": "273032813", "name": "LIVING WATERS EMMAUS CHRYSALIS COMMUNITY INC", "city": "QUEENSBURY", "state": "NY", "zip": "12804-2915", "ntee": "X21", "ruling": "201209", "deductibility": "1", "assets": 0, "income": 0, "revenue": 0}, {"ein": "274809744", "name": "REFUGEE AND IMMIGRANT SUPPORT SERVICES OF EMMAUS INC", "city": "ALBANY", "state": "NY", "zip": "12208-2208", "ntee": "P84", "ruling": "201210", "deductibility": "1", "assets": 1282233, "income": 1689854, "revenue": 1689854}, {"ein": "812536179", "name": "ROAD TO EMMAUS MINISTRY OF SYRACUSE INC", "city": "SYRACUSE", "state": "NY", "zip": "13205-2344", "ntee": "P20", "ruling": "201610", "deductibility": "1", "assets": 3714917, "income": 1542922, "revenue": 1533455}, {"ein": "822468526", "name": "EMMAUS ROAD BAPTIST CHURCH", "city": "BRONX", "state": "NY", "zip": "10463-6061", "ntee": "X20", "ruling": "202006", "deductibility": "1", "assets": 0, "income": 0, "revenue": 0}, {"ein": "830606192", "name": "WESTERN NEW YORK WALK TO EMMAUS INC", "city": "ATTICA", "state": "NY", "zip": "14011-1037", "ntee": "X21", "ruling": "201807", "deductibility": "1", "assets": 0, "income": 0, "revenue": 0}, {"ein": "854212693", "name": "EMMAUS CENTER INC", "city": "BROOKLYN", "state": "NY", "zip": "11249-5108", "ntee": "X11", "ruling": "202201", "deductibility": "1", "assets": 594469, "income": 517361, "revenue": 517361}, {"ein": "933405179", "name": "EMMAUS ROAD MINISTRIES OF WNY", "city": "ELMA", "state": "NY", "zip": "14059-9641", "ntee": "X20", "ruling": "202310", "deductibility": "1", "assets": 0, "income": 0, "revenue": 0}], "DUTCH": [{"ein": "111761497", "name": "REFORMED PROTESTANT DUTCH CHURCH OF THE TOWN OF FLATBRUSH KINGS COUNTY", "city": "BROOKLYN", "state": "NY", "zip": "11226-4018", "ntee": "", "ruling": "196801", "deductibility": "1", "assets": 0, "income": 0, "revenue": 0}, {"ein": "111797169", "name": "THE CORPORATION OF THE REFORMED DUTCH CHURCH OF THE TOWN OF BROOKL", "city": "BROOKLYN", "state": "NY", "zip": "11215-2101", "ntee": "", "ruling": "198601", "deductibility": "1", "assets": 0, "income": 0, "revenue": 0}, {"ein": "111966510", "name": "THE PROTESTANT DUTCH REFORMED CHURCH OF THE TOWN OF FLATLANDS", "city": "BROOKLYN", "state": "NY", "zip": "11234-2908", "ntee": "", "ruling": "196801", "deductibility": "1", "assets": 0, "income": 0, "revenue": 0}, {"ein": "111976472", "name": "REFORMED PROTESTANT DUTCH CHURCH OF QUEENS", "city": "QUEENS VLG", "state": "NY", "zip": "11428-2129", "ntee": "", "ruling": "198601", "deductibility": "1", "assets": 0, "income": 0, "revenue": 0}, {"ein": "112100335", "name": "REFORMED DUTCH CHURCH AT GREEN POINT", "city": "BROOKLYN", "state": "NY", "zip": "11222-2502", "ntee": "", "ruling": "198601", "deductibility": "1", "assets": 0, "income": 0, "revenue": 0}, {"ein": "112414444", "name": "THE REFORMED DUTCH CHURCH IN THE VILLAGE OF ASTORIA", "city": "LONG IS CITY", "state": "NY", "zip": "11102-3741", "ntee": "", "ruling": "198601", "deductibility": "1", "assets": 0, "income": 0, "revenue": 0}, {"ein": "112806214", "name": "DUTCH KILLS CIVIC ASSOCIATION INC", "city": "LONG IS CITY", "state": "NY", "zip": "11101-2603", "ntee": "", "ruling": "198802", "deductibility": "1", "assets": 0, "income": 0, "revenue": 0}, {"ein": "116016212", "name": "THE REFORMED PROTESTANT DUTCH CHURCH OF SOUTH BUSHWICK", "city": "BROOKLYN", "state": "NY", "zip": "11221-3116", "ntee": "", "ruling": "198601", "deductibility": "1", "assets": 0, "income": 0, "revenue": 0}, {"ein": "133199275", "name": "FIRST REFORMED PROTESTANT DUTCH CHURCH IN CLARKSTOWN ROCKLAND CTY", "city": "WEST NYACK", "state": "NY", "zip": "10994-1500", "ntee": "", "ruling": "198601", "deductibility": "1", "assets": 0, "income": 0, "revenue": 0}, {"ein": "133330460", "name": "THE FRIENDS OF THE OLD DUTCH BURYING GROUND", "city": "SLEEPY HOLLOW", "state": "NY", "zip": "10591-3206", "ntee": "", "ruling": "199102", "deductibility": "1", "assets": 23813, "income": 21166, "revenue": 21166}, {"ein": "135564117", "name": "MINISTER ELDERS AND DEACONS OF THE REFORMED PROTESTANT DUTCH CHURCH O", "city": "NEW YORK", "state": "NY", "zip": "10024-6801", "ntee": "", "ruling": "198601", "deductibility": "1", "assets": 0, "income": 0, "revenue": 0}, {"ein": "141369154", "name": "REFORMED DUTCH CHURCH OF POUGHKEEPSIE", "city": "POUGHKEEPSIE", "state": "NY", "zip": "12601-4612", "ntee": "", "ruling": "196801", "deductibility": "1", "assets": 0, "income": 0, "revenue": 0}, {"ein": "141395425", "name": "THE REFORMED PROTESTANT DUTCH REFORMED CHURCH OF KINGSTON NEW YO", "city": "KINGSTON", "state": "NY", "zip": "12401-3818", "ntee": "", "ruling": "198601", "deductibility": "1", "assets": 0, "income": 0, "revenue": 0}, {"ein": "141414965", "name": "DUTCH CHURCH OF BLOOMING GROVE", "city": "RENSSELAER", "state": "NY", "zip": "12144-9420", "ntee": "", "ruling": "198601", "deductibility": "1", "assets": 0, "income": 0, "revenue": 0}, {"ein": "141416685", "name": "THE PROTESTANT REFORMED DUTCH CHURCH OF NISCAYUNA IN THE COUNTY", "city": "SCHENECTADY", "state": "NY", "zip": "12309-1613", "ntee": "", "ruling": "198601", "deductibility": "1", "assets": 0, "income": 0, "revenue": 0}, {"ein": "141429764", "name": "CONSISTORY OF THE REFORMED PROTESTANT DUTCH CHURCH & CONGREGA", "city": "WARWICK", "state": "NY", "zip": "10990-1027", "ntee": "", "ruling": "198601", "deductibility": "1", "assets": 0, "income": 0, "revenue": 0}, {"ein": "141432841", "name": "THIRD REFORMED PROTESTANT DUTCH CHURCH IN THE CITY OF ALBANY", "city": "ALBANY", "state": "NY", "zip": "12209-0000", "ntee": "", "ruling": "198601", "deductibility": "1", "assets": 0, "income": 0, "revenue": 0}, {"ein": "141459320", "name": "THE MINISTER ELDERS & DEACONS OF THE REFORMED PROTESTANT LOW DUTCH", "city": "MIDDLEBURGH", "state": "NY", "zip": "12122-0000", "ntee": "", "ruling": "198601", "deductibility": "1", "assets": 0, "income": 0, "revenue": 0}, {"ein": "141459332", "name": "THE PROTESTANT REFORMED DUTCH CHURCH OF ELLENVILLE", "city": "ELLENVILLE", "state": "NY", "zip": "12428-1526", "ntee": "", "ruling": "198601", "deductibility": "1", "assets": 0, "income": 0, "revenue": 0}, {"ein": "141465166", "name": "FIRST REFORMED PROTESTANT DUTCH CHURCH OF HOPEWELL NY", "city": "HOPEWELL JCT", "state": "NY", "zip": "12533-6161", "ntee": "", "ruling": "198601", "deductibility": "1", "assets": 0, "income": 0, "revenue": 0}, {"ein": "141586408", "name": "REFORMED PROTESTANT DUTCH CHURCH", "city": "HYDE PARK", "state": "NY", "zip": "12538-1560", "ntee": "", "ruling": "198601", "deductibility": "1", "assets": 0, "income": 0, "revenue": 0}, {"ein": "141586483", "name": "REFORMED DUTCH CHURCH OF BLUE MOUNTAIN", "city": "SAUGERTIES", "state": "NY", "zip": "12477-1317", "ntee": "", "ruling": "196801", "deductibility": "1", "assets": 0, "income": 0, "revenue": 0}, {"ein": "141590165", "name": "UNION DUTCH REFORMED CHURCH", "city": "DELMAR", "state": "NY", "zip": "12054-5516", "ntee": "", "ruling": "198601", "deductibility": "1", "assets": 0, "income": 0, "revenue": 0}, {"ein": "141606821", "name": "THE FIRST REFORMED DUTCH CHURCH OF BERN", "city": "BERNE", "state": "NY", "zip": "12023-2924", "ntee": "", "ruling": "198601", "deductibility": "1", "assets": 0, "income": 0, "revenue": 0}, {"ein": "141627449", "name": "THE REFORMED PROTESTANT DUTCH CHURCH OF AMITY", "city": "REXFORD", "state": "NY", "zip": "12148-1648", "ntee": "", "ruling": "198601", "deductibility": "1", "assets": 0, "income": 0, "revenue": 0}, {"ein": "141627620", "name": "ELDERS AND DEACONS OF THE SECOND DUTCH REFORMED CHURCH IN THE TOWN", "city": "ALTAMONT", "state": "NY", "zip": "12009-3000", "ntee": "", "ruling": "198601", "deductibility": "1", "assets": 0, "income": 0, "revenue": 0}, {"ein": "141635480", "name": "REFORMED PROTESTANT DUTCH CHURCH OF PLATTEKILL", "city": "MT MARION", "state": "NY", "zip": "12456-0033", "ntee": "", "ruling": "198601", "deductibility": "1", "assets": 0, "income": 0, "revenue": 0}, {"ein": "141649382", "name": "THE CONSISTORY OF THE REFORMED PROTESTANT LOW DUTCH CHURCH OF SCH", "city": "SCHODACK LNDG", "state": "NY", "zip": "12156-2008", "ntee": "", "ruling": "196801", "deductibility": "1", "assets": 0, "income": 0, "revenue": 0}, {"ein": "141770665", "name": "REFORMED PROTESTANT DUTCH CHURCH OF WESTERLO", "city": "WESTERLO", "state": "NY", "zip": "12193-0070", "ntee": "", "ruling": "198601", "deductibility": "1", "assets": 0, "income": 0, "revenue": 0}, {"ein": "146019510", "name": "FIRST REFORMED PROTESTANT DUTCH CHURCH OF FISHKILL TOWN", "city": "FISHKILL", "state": "NY", "zip": "12524-3604", "ntee": "", "ruling": "196801", "deductibility": "1", "assets": 0, "income": 0, "revenue": 0}, {"ein": "146020685", "name": "THE REFORMED PROTESTANT DUTCH CHURCH OF KISKATOM", "city": "CATSKILL", "state": "NY", "zip": "12414-5513", "ntee": "", "ruling": "198601", "deductibility": "1", "assets": 0, "income": 0, "revenue": 0}, {"ein": "146021641", "name": "REFORMED DUTCH CHURCH", "city": "PRATTSVILLE", "state": "NY", "zip": "12468-0042", "ntee": "", "ruling": "198601", "deductibility": "1", "assets": 0, "income": 0, "revenue": 0}, {"ein": "146023426", "name": "DUTCH SETTLERS SOCIETY OF ALBANY", "city": "ALBANY", "state": "NY", "zip": "12203-2717", "ntee": "", "ruling": "194508", "deductibility": "2", "assets": 0, "income": 0, "revenue": 0}, {"ein": "146023534", "name": "MINISTER ELDERS & DEACONS OF THE REFORMED CHURCH PROTESTANT DUTCH", "city": "FULTONVILLE", "state": "NY", "zip": "12072-0000", "ntee": "", "ruling": "198601", "deductibility": "1", "assets": 0, "income": 0, "revenue": 0}, {"ein": "146024600", "name": "REFORMED DUTCH CHURCH OF CLAVERACK", "city": "CLAVERACK", "state": "NY", "zip": "12513-0439", "ntee": "", "ruling": "196801", "deductibility": "1", "assets": 0, "income": 0, "revenue": 0}, {"ein": "146037532", "name": "FIRST REFORMED PROTESTANT DUTCH CHURCH OF CHATHAM", "city": "CHATHAM", "state": "NY", "zip": "12037-1206", "ntee": "", "ruling": "196801", "deductibility": "1", "assets": 0, "income": 0, "revenue": 0}, {"ein": "146039241", "name": "THE REFORMED PROTESTANT DUTCH CHURCH OF WOODSTOCK", "city": "WOODSTOCK", "state": "NY", "zip": "12498-1233", "ntee": "", "ruling": "196801", "deductibility": "1", "assets": 0, "income": 0, "revenue": 0}, {"ein": "200681037", "name": "NATIONAL DOUBLE DUTCH LEAGUE INC", "city": "BRONX", "state": "NY", "zip": "10451-2802", "ntee": "O50", "ruling": "201012", "deductibility": "1", "assets": 16083, "income": 147357, "revenue": 147357}, {"ein": "203194757", "name": "DUTCH HOLLOW FOUNDATION INC", "city": "GREENWOOD LK", "state": "NY", "zip": "10925-1529", "ntee": "B21", "ruling": "200609", "deductibility": "1", "assets": 0, "income": 0, "revenue": 0}, {"ein": "208424822", "name": "16 DUTCH HOUSING DEVELOPMENT FUNDCORP", "city": "NEW YORK", "state": "NY", "zip": "10012-4603", "ntee": "L21", "ruling": "201912", "deductibility": "1", "assets": 0, "income": 583088, "revenue": 583088}, {"ein": "222392858", "name": "MINISTERS ELDERS AND DEACONS OF THE REFORMED PROTESTANT DUTCH CHURCH", "city": "GUILDRLND CTR", "state": "NY", "zip": "12085-0196", "ntee": "", "ruling": "000000", "deductibility": "1", "assets": 0, "income": 0, "revenue": 0}, {"ein": "222512534", "name": "FIRST REFORMED PROTESTANT DUTCH CHURCH OF FORT PLAIN", "city": "FORT PLAIN", "state": "NY", "zip": "13339-1154", "ntee": "", "ruling": "196801", "deductibility": "1", "assets": 0, "income": 0, "revenue": 0}, {"ein": "222513340", "name": "REFORMED PROTESTANT DUTCH CHURCH OF MOHAWK", "city": "MOHAWK", "state": "NY", "zip": "13407-0000", "ntee": "", "ruling": "196801", "deductibility": "1", "assets": 0, "income": 0, "revenue": 0}, {"ein": "222549325", "name": "TRUSTEES OF THE REFORMED DUTCH CHURCH OF COXACKIE", "city": "COXSACKIE", "state": "NY", "zip": "12051-0011", "ntee": "", "ruling": "196801", "deductibility": "1", "assets": 0, "income": 0, "revenue": 0}, {"ein": "237052295", "name": "TRUSTEES OF THE REFORMED PROTESTANT DUTCH CHURCH OF THE TOWNSHIP OF NE", "city": "BROOKLYN", "state": "NY", "zip": "11209-2403", "ntee": "", "ruling": "196801", "deductibility": "1", "assets": 0, "income": 0, "revenue": 0}, {"ein": "237326461", "name": "THE DUTCH REFORMED CHURCH OF THE VILLAGE OF ATHENS", "city": "ATHENS", "state": "NY", "zip": "12015-0101", "ntee": "", "ruling": "198601", "deductibility": "1", "assets": 0, "income": 0, "revenue": 0}, {"ein": "320633011", "name": "GARRETT MANDERVILLE DUTCH REFORMED CHURCH CEMETERY ASSOCIATION", "city": "SLATERVLE SPG", "state": "NY", "zip": "14881-9403", "ntee": "Y50", "ruling": "202103", "deductibility": "2", "assets": 0, "income": 0, "revenue": 0}, {"ein": "333101128", "name": "AMERICAN DOUBLE DUTCH LEAGUE - NEW YORK AFFILIATE INC", "city": "ARVERNE", "state": "NY", "zip": "11692-1819", "ntee": "N70", "ruling": "202505", "deductibility": "1", "assets": 0, "income": 0, "revenue": 0}, {"ein": "334636733", "name": "DUTCH KILLS FOUNDATION INC", "city": "LONG IS CITY", "state": "NY", "zip": "11101-2274", "ntee": "A20", "ruling": "202506", "deductibility": "1", "assets": 0, "income": 0, "revenue": 0}, {"ein": "352337686", "name": "FRIENDS OF OLD DUTCH CHURCH", "city": "KINGSTON", "state": "NY", "zip": "12401-3818", "ntee": "T30", "ruling": "200811", "deductibility": "1", "assets": 0, "income": 0, "revenue": 0}, {"ein": "462233689", "name": "DUTCH UNIVERSAL TRADITION CULTURE AND HERITAGE FOUNDATION IN", "city": "NEW YORK", "state": "NY", "zip": "10022-6040", "ntee": "A99", "ruling": "201406", "deductibility": "1", "assets": 0, "income": 0, "revenue": 0}, {"ein": "834161786", "name": "DUTCH KILLS CSA INC", "city": "LONG IS CITY", "state": "NY", "zip": "11101-1280", "ntee": "K99", "ruling": "201907", "deductibility": "1", "assets": 22191, "income": 89999, "revenue": 7518}], "CECILIA": [{"ein": "112004760", "name": "ST CECILIA CLUB INC", "city": "NEW YORK", "state": "NY", "zip": "10150-0421", "ntee": "", "ruling": "194410", "deductibility": "1", "assets": 1482941, "income": 501880, "revenue": 501880}, {"ein": "131624165", "name": "ST CECILIA ROMAN CATHOLIC CHURCH", "city": "NEW YORK", "state": "NY", "zip": "10029-4917", "ntee": "", "ruling": "194603", "deductibility": "0", "assets": 0, "income": 0, "revenue": 0}, {"ein": "133506059", "name": "ST CECILIA CHAMBER ENSEMBLE INC", "city": "BROOKLYN", "state": "NY", "zip": "11210-1132", "ntee": "A60", "ruling": "201201", "deductibility": "1", "assets": 0, "income": 0, "revenue": 0}, {"ein": "133578717", "name": "SISTER CECILIA SCHNEIDER COMMUNITY HOUSING DEVELOPMENT FUND", "city": "STATEN ISLAND", "state": "NY", "zip": "10314-6400", "ntee": "", "ruling": "199101", "deductibility": "1", "assets": 1954820, "income": 1031879, "revenue": 549685}, {"ein": "141679682", "name": "ST CECILIA CHURCH", "city": "WARRENSBURG", "state": "NY", "zip": "12885-1629", "ntee": "", "ruling": "194603", "deductibility": "1", "assets": 0, "income": 0, "revenue": 0}, {"ein": "263489550", "name": "CECILIA ATTIAS FOUNDATION FOR WOMEN", "city": "NEW YORK", "state": "NY", "zip": "10022-3301", "ntee": "T20", "ruling": "200902", "deductibility": "1", "assets": 3443, "income": 3000, "revenue": 0}, {"ein": "812471266", "name": "ROMAN CATHOLIC CHURCH OF SAINT CECILIA AND HOLY AGONY", "city": "NEW YORK", "state": "NY", "zip": "10029-4917", "ntee": "", "ruling": "194603", "deductibility": "1", "assets": 0, "income": 0, "revenue": 0}], "LUTHER": [{"ein": "112005022", "name": "MARTIN LUTHER CAMP CORP", "city": "HIGHLAND LAKE", "state": "NY", "zip": "12743-5006", "ntee": "", "ruling": "196111", "deductibility": "1", "assets": 0, "income": 0, "revenue": 0}, {"ein": "112943314", "name": "SUFFOLK COUNTY DR MARTIN LUTHER KING JR HOLIDAY COMMISSION INC", "city": "HAUPPAUGE", "state": "NY", "zip": "11788-0139", "ntee": "", "ruling": "199108", "deductibility": "1", "assets": 0, "income": 0, "revenue": 0}, {"ein": "113476506", "name": "LONG BEACH MARTIN LUTHER KING CENTER INC", "city": "LONG BEACH", "state": "NY", "zip": "11561-2121", "ntee": "P28", "ruling": "201305", "deductibility": "1", "assets": 640, "income": 187035, "revenue": 187035}, {"ein": "132707945", "name": "BRONXCARE DR MARTIN LUTHER KING JR HEALTH CENTER", "city": "BRONX", "state": "NY", "zip": "10456-3467", "ntee": "", "ruling": "197305", "deductibility": "1", "assets": 57604480, "income": 53718372, "revenue": 53718372}, {"ein": "133018398", "name": "MARTIN LUTHER KING MULTI-PURPOSE CENTER", "city": "SPRING VALLEY", "state": "NY", "zip": "10977-7302", "ntee": "P28Z", "ruling": "198404", "deductibility": "1", "assets": 3472423, "income": 999621, "revenue": 985439}, {"ein": "133736064", "name": "WESTCHESTER COUNTY MARTIN LUTHER KING JR INSTITUTE FOR NON-VIOLENCE", "city": "WHITE PLAINS", "state": "NY", "zip": "10605-2103", "ntee": "R30Z", "ruling": "199311", "deductibility": "1", "assets": 0, "income": 0, "revenue": 0}, {"ein": "141587396", "name": "BEST-LUTHER FIRE DEPARTMENT INC", "city": "W SAND LAKE", "state": "NY", "zip": "12196-3016", "ntee": "M24", "ruling": "201907", "deductibility": "1", "assets": 98036, "income": 88122, "revenue": 88122}, {"ein": "161484116", "name": "MARTIN LUTHER KING JR GREATER ROCHESTER COMMISSION INC", "city": "ROCHESTER", "state": "NY", "zip": "14692-2812", "ntee": "S20", "ruling": "202402", "deductibility": "1", "assets": 0, "income": 0, "revenue": 0}, {"ein": "203757141", "name": "MARTIN LUTHER HIGH SCHOOL FOUNDATION INC", "city": "MASPETH", "state": "NY", "zip": "11378-2712", "ntee": "X11", "ruling": "200611", "deductibility": "1", "assets": 0, "income": 0, "revenue": 0}, {"ein": "208029261", "name": "KATHERINE LUTHER RESIDENTIAL HEALTHCARE & REHABILITATION CENTER INC", "city": "CLINTON", "state": "NY", "zip": "13323-1548", "ntee": "E50", "ruling": "201512", "deductibility": "1", "assets": 8753826, "income": 17797207, "revenue": 17797207}, {"ein": "274445550", "name": "THE MARTIN LUTHER SCHOOL", "city": "MASPETH", "state": "NY", "zip": "11378-2712", "ntee": "", "ruling": "194107", "deductibility": "1", "assets": 0, "income": 0, "revenue": 0}, {"ein": "800365540", "name": "LUTHER V GARRISON SR MASONIC FOUNDATION INC", "city": "YONKERS", "state": "NY", "zip": "10701-2514", "ntee": "B82", "ruling": "200910", "deductibility": "1", "assets": 0, "income": 0, "revenue": 0}], "NAVY": [{"ein": "112137138", "name": "BROOKLYN NAVY YARD DEVELOPMENT CORPORATION", "city": "BROOKLYN", "state": "NY", "zip": "11205-1080", "ntee": "S200", "ruling": "198209", "deductibility": "1", "assets": 1070805485, "income": 129560297, "revenue": 129560297}, {"ein": "141774955", "name": "NAVY SEABEE VETERANS OF AMERICA", "city": "KINGSTON", "state": "NY", "zip": "12401-7232", "ntee": "", "ruling": "195101", "deductibility": "0", "assets": 0, "income": 0, "revenue": 0}, {"ein": "161116817", "name": "NAVY-MARINE CLUB INC", "city": "LOCKPORT", "state": "NY", "zip": "14094-2752", "ntee": "", "ruling": "200103", "deductibility": "0", "assets": 568337, "income": 355499, "revenue": 237256}, {"ein": "161407192", "name": "NAVY CLUB OF LAKE ONTARIO SHIP 1812", "city": "BROCKPORT", "state": "NY", "zip": "14420-0185", "ntee": "W30", "ruling": "201605", "deductibility": "1", "assets": 0, "income": 0, "revenue": 0}, {"ein": "161418535", "name": "NAVY SEABEE VETERANS OF AMERICA", "city": "SYRACUSE", "state": "NY", "zip": "13214-2428", "ntee": "", "ruling": "195101", "deductibility": "2", "assets": 0, "income": 0, "revenue": 0}, {"ein": "161566798", "name": "NAVY CLUB OF LOCKPORT SHIP 110 INC", "city": "LOCKPORT", "state": "NY", "zip": "14094-2752", "ntee": "", "ruling": "000000", "deductibility": "0", "assets": 0, "income": 0, "revenue": 0}, {"ein": "205331967", "name": "NAVY MEDICINE ROTA ASSOCIATION", "city": "HOLMES", "state": "NY", "zip": "12531-4622", "ntee": "", "ruling": "200708", "deductibility": "1", "assets": 0, "income": 0, "revenue": 0}, {"ein": "205916414", "name": "AMERICAN FRIENDS OF ISRAELI NAVY SEALS INC", "city": "NEW YORK", "state": "NY", "zip": "10030-3340", "ntee": "Q33", "ruling": "201308", "deductibility": "1", "assets": 5015742, "income": 11642689, "revenue": 11425130}, {"ein": "273763041", "name": "NAVY LEAGUE OF THE UNITED STATES NATIONAL HEADQUARTERS", "city": "LIVERPOOL", "state": "NY", "zip": "13089-2582", "ntee": "W30", "ruling": "201411", "deductibility": "1", "assets": 0, "income": 0, "revenue": 0}, {"ein": "300938643", "name": "NYPD NAVY ASSOCIATION", "city": "MASSAPEQUA PK", "state": "NY", "zip": "11762-1210", "ntee": "W30", "ruling": "201810", "deductibility": "2", "assets": 0, "income": 0, "revenue": 0}, {"ein": "320255599", "name": "NAVY SEABEE VETERANS OF AMERICA", "city": "HOLLEY", "state": "NY", "zip": "14470-9504", "ntee": "", "ruling": "195101", "deductibility": "1", "assets": 0, "income": 0, "revenue": 0}, {"ein": "376049784", "name": "NAVY SEABEE VETERANS OF AMERICA INC", "city": "QUEENSBURY", "state": "NY", "zip": "12804-6965", "ntee": "", "ruling": "195101", "deductibility": "1", "assets": 0, "income": 0, "revenue": 0}, {"ein": "451266478", "name": "NAVY LEAGUE OF THE UNITED STATES NATIONAL HEADQUARTERS", "city": "TONAWANDA", "state": "NY", "zip": "14150-8153", "ntee": "", "ruling": "199011", "deductibility": "1", "assets": 0, "income": 0, "revenue": 0}, {"ein": "814132284", "name": "LT MICHAEL P MURPHY NAVY SEAL MUSEUM", "city": "WEST SAYVILLE", "state": "NY", "zip": "11796-1908", "ntee": "A50", "ruling": "201704", "deductibility": "1", "assets": 3244880, "income": 795963, "revenue": 632259}, {"ein": "822409006", "name": "NEW YORK COUNCIL NAVY LEAGUE OF THE UNITED STATES INC", "city": "NEW YORK", "state": "NY", "zip": "10004-1419", "ntee": "W30", "ruling": "201711", "deductibility": "1", "assets": 4590781, "income": 2647907, "revenue": 570735}, {"ein": "823564496", "name": "NAVY LEAGUE OF THE UNITED STATES LONG ISLAND COUNCIL", "city": "RONKONKOMA", "state": "NY", "zip": "11779-7231", "ntee": "O50", "ruling": "201801", "deductibility": "1", "assets": 0, "income": 0, "revenue": 0}, {"ein": "900283118", "name": "NAVY SEABEE VETERANS OF AMERICA", "city": "HUDSON FALLS", "state": "NY", "zip": "12839-0161", "ntee": "", "ruling": "195101", "deductibility": "1", "assets": 0, "income": 0, "revenue": 0}, {"ein": "911778200", "name": "NAVY SEABEE VETERANS OF AMERICA", "city": "ASTORIA", "state": "NY", "zip": "11106-1230", "ntee": "", "ruling": "195101", "deductibility": "1", "assets": 0, "income": 0, "revenue": 0}, {"ein": "911778302", "name": "NAVY SEABEE VETERANS OF AMERICA", "city": "CHEEKTOWAGA", "state": "NY", "zip": "14225-8153", "ntee": "", "ruling": "195101", "deductibility": "1", "assets": 0, "income": 0, "revenue": 0}, {"ein": "911778703", "name": "NAVY SEABEE VETERANS OF AMERICA", "city": "BROOKLYN", "state": "NY", "zip": "11203-5135", "ntee": "", "ruling": "195101", "deductibility": "1", "assets": 0, "income": 0, "revenue": 0}], "MS": [{"ein": "112546433", "name": "WAINSCOTT WINDMILL FUNDC/O MS ELIZABETH KERR", "city": "EAST HAMPTON", "state": "NY", "zip": "11937-3268", "ntee": "A80", "ruling": "201404", "deductibility": "1", "assets": 439977, "income": 7, "revenue": 7}, {"ein": "113507278", "name": "MS NEW YORK SENIOR AMERICA INC", "city": "MASSAPEQUA", "state": "NY", "zip": "11758-8405", "ntee": "A62", "ruling": "200303", "deductibility": "1", "assets": 0, "income": 0, "revenue": 0}, {"ein": "113730203", "name": "PTA NEW YORK CONGRESS PS-MS 138", "city": "BROOKLYN", "state": "NY", "zip": "11216-3602", "ntee": "B94", "ruling": "202303", "deductibility": "1", "assets": 0, "income": 0, "revenue": 0}, {"ein": "134098842", "name": "PTA OF MS 54 INC", "city": "NEW YORK", "state": "NY", "zip": "10025-8108", "ntee": "B94", "ruling": "200105", "deductibility": "1", "assets": 992074, "income": 473935, "revenue": 422248}, {"ein": "134125025", "name": "MONTEL WILLIAMS MS FOUNDATION", "city": "NEW YORK", "state": "NY", "zip": "10019-3101", "ntee": "H125", "ruling": "200009", "deductibility": "1", "assets": 0, "income": 0, "revenue": 0}, {"ein": "237252609", "name": "MS FOUNDATION FOR WOMEN INC", "city": "BROOKLYN", "state": "NY", "zip": "11201-7617", "ntee": "R240", "ruling": "197410", "deductibility": "1", "assets": 114322777, "income": 71626862, "revenue": 59397719}, {"ein": "261771719", "name": "NEW VOICES MS 443 PARENT ASSOCIATION INC", "city": "BROOKLYN", "state": "NY", "zip": "11215-6111", "ntee": "B11", "ruling": "201102", "deductibility": "1", "assets": 53337, "income": 16695, "revenue": 14539}, {"ein": "333605487", "name": "MS EMPOWER RESILIENCE INC", "city": "BROOKLYN", "state": "NY", "zip": "11224-1560", "ntee": "G50", "ruling": "202505", "deductibility": "1", "assets": 0, "income": 0, "revenue": 0}, {"ein": "352207759", "name": "THE PARENT TEACHER ASSOCIATION OF MS 447", "city": "BROOKLYN", "state": "NY", "zip": "11217-1906", "ntee": "B94", "ruling": "200404", "deductibility": "1", "assets": 204072, "income": 148467, "revenue": 148467}, {"ein": "364826263", "name": "MS NJH ADMINISTRATIVE SERVICES LLC", "city": "NEW YORK", "state": "NY", "zip": "10029-6504", "ntee": "B12", "ruling": "201909", "deductibility": "1", "assets": 100000, "income": 0, "revenue": 0}, {"ein": "475076855", "name": "MS 839 PARENT-TEACHER ASSOCIATION", "city": "BROOKLYN", "state": "NY", "zip": "11218-2661", "ntee": "B94", "ruling": "201706", "deductibility": "1", "assets": 69356, "income": 135695, "revenue": 115624}, {"ein": "822989349", "name": "MS 297 PARENT TEACHER ASSOCIATION INC", "city": "NEW YORK", "state": "NY", "zip": "10014-5750", "ntee": "B94", "ruling": "201812", "deductibility": "1", "assets": 254081, "income": 68405, "revenue": 56243}, {"ein": "824074319", "name": "PTA OF PS-MS 207Q INC", "city": "HOWARD BEACH", "state": "NY", "zip": "11414-3037", "ntee": "B94", "ruling": "201903", "deductibility": "1", "assets": 111386, "income": 142935, "revenue": 142935}, {"ein": "832465460", "name": "MS 442 PTA", "city": "BROOKLYN", "state": "NY", "zip": "11215-6204", "ntee": "B94", "ruling": "201903", "deductibility": "1", "assets": 0, "income": 0, "revenue": 0}, {"ein": "843790627", "name": "MS COLLECTION FOUNDATION", "city": "MONROE", "state": "NY", "zip": "10950-0000", "ntee": "Z99", "ruling": "202001", "deductibility": "1", "assets": 1, "income": 1, "revenue": 0}, {"ein": "861426127", "name": "PS MS 498 VAN NEST ACADEMY PTA", "city": "BRONX", "state": "NY", "zip": "10462-3302", "ntee": "A12", "ruling": "202105", "deductibility": "1", "assets": 1475, "income": 33013, "revenue": 33013}, {"ein": "871810056", "name": "MS HOCHSTEIN FOUNDATION INC", "city": "NEW YORK", "state": "NY", "zip": "10018-3471", "ntee": "T20", "ruling": "202203", "deductibility": "1", "assets": 543838, "income": 267436, "revenue": 0}, {"ein": "920904391", "name": "LETS CRACK MS INC", "city": "BALLSTON LAKE", "state": "NY", "zip": "12019-2701", "ntee": "H80", "ruling": "202212", "deductibility": "1", "assets": 0, "income": 0, "revenue": 0}, {"ein": "922893122", "name": "SHERBURNE-EARLVILLE MS HS PTO", "city": "SHERBURNE", "state": "NY", "zip": "13460-9505", "ntee": "B94", "ruling": "202312", "deductibility": "1", "assets": 0, "income": 0, "revenue": 0}, {"ein": "931422134", "name": "MS MULTISERVICES INC", "city": "WEST BABYLON", "state": "NY", "zip": "11704-5101", "ntee": "P84", "ruling": "202309", "deductibility": "1", "assets": 0, "income": 0, "revenue": 0}, {"ein": "993147796", "name": "RCS MS PTSO", "city": "RAVENA", "state": "NY", "zip": "12143-0000", "ntee": "B94", "ruling": "202409", "deductibility": "1", "assets": 0, "income": 0, "revenue": 0}], "CULTURALFATHER": [{"ein": "112548753", "name": "LA ASOCIACION BENEFICA CULTURALFATHER BILLINI", "city": "LYNBROOK", "state": "NY", "zip": "11563-2713", "ntee": "I210", "ruling": "198102", "deductibility": "1", "assets": 60038, "income": 246553, "revenue": 246553}], "GALLERIES": [{"ein": "112572139", "name": "NORTHPORT GALLERIES INC", "city": "HUNTINGTON", "state": "NY", "zip": "11743-6901", "ntee": "A20", "ruling": "199904", "deductibility": "1", "assets": 15118, "income": 61981, "revenue": 55307}, {"ein": "141672333", "name": "ALBANY CENTER GALLERIES INC", "city": "ALBANY", "state": "NY", "zip": "12207-2913", "ntee": "A400", "ruling": "198910", "deductibility": "1", "assets": 282354, "income": 545329, "revenue": 502587}, {"ein": "472264962", "name": "AMERICAS FOUNDATION OF THE SERPENTINE GALLERIES", "city": "NEW YORK", "state": "NY", "zip": "10150-1510", "ntee": "A11", "ruling": "201502", "deductibility": "1", "assets": 203904, "income": 2299885, "revenue": 2299885}], "KESHER": [{"ein": "112588014", "name": "CONGREGATION KESHER INC", "city": "BROOKLYN", "state": "NY", "zip": "11236-3013", "ntee": "", "ruling": "198111", "deductibility": "1", "assets": 0, "income": 0, "revenue": 0}, {"ein": "112954222", "name": "KESHER INC", "city": "BROOKLYN", "state": "NY", "zip": "11213-4237", "ntee": "", "ruling": "199405", "deductibility": "1", "assets": 113117, "income": 218345, "revenue": 218345}, {"ein": "136911481", "name": "KESHER TRUST FUND", "city": "MONSEY", "state": "NY", "zip": "10952-1717", "ntee": "", "ruling": "199403", "deductibility": "1", "assets": 37235, "income": 46876, "revenue": 0}, {"ein": "141903655", "name": "AMERICAN FRIENDS OF KESHER INC", "city": "BROOKLYN", "state": "NY", "zip": "11210-3611", "ntee": "T30", "ruling": "200501", "deductibility": "1", "assets": 61103, "income": 304144, "revenue": 304144}, {"ein": "274553485", "name": "KESHER CONNECTION INC", "city": "BROOKLYN", "state": "NY", "zip": "11219-3746", "ntee": "X30", "ruling": "201409", "deductibility": "1", "assets": 0, "income": 0, "revenue": 0}, {"ein": "363673594", "name": "PROJECT KESHER", "city": "NEW YORK", "state": "NY", "zip": "10025-5190", "ntee": "", "ruling": "199403", "deductibility": "1", "assets": 835891, "income": 2269523, "revenue": 2269523}, {"ein": "364494029", "name": "KESHER SCOUTING INC", "city": "BROOKLYN", "state": "NY", "zip": "11210-5311", "ntee": "O40", "ruling": "200307", "deductibility": "1", "assets": 0, "income": 0, "revenue": 0}, {"ein": "471936766", "name": "KESHER GLOBAL INC", "city": "BROOKLYN", "state": "NY", "zip": "11204-1356", "ntee": "X30", "ruling": "201503", "deductibility": "1", "assets": 199980, "income": 283866, "revenue": 283866}, {"ein": "813967978", "name": "AMERICAN FRIENDS OF KESHER YEHUDI INC", "city": "WOODMERE", "state": "NY", "zip": "11598-1612", "ntee": "P20", "ruling": "201701", "deductibility": "1", "assets": 28586, "income": 610463, "revenue": 610463}, {"ein": "853616599", "name": "KESHER NETWORKS INC", "city": "NEW YORK", "state": "NY", "zip": "10016-2817", "ntee": "P50", "ruling": "202104", "deductibility": "1", "assets": 0, "income": 0, "revenue": 0}, {"ein": "871095338", "name": "KESHER NAFSHI INC", "city": "BROOKLYN", "state": "NY", "zip": "11204-1515", "ntee": "F40", "ruling": "202111", "deductibility": "1", "assets": 385378, "income": 2060735, "revenue": 2060735}, {"ein": "880670347", "name": "KESHER FAMILIES INC", "city": "CEDARHURST", "state": "NY", "zip": "11516-1113", "ntee": "X01", "ruling": "202207", "deductibility": "1", "assets": 57073, "income": 663360, "revenue": 663360}, {"ein": "991340062", "name": "KESHER COACHING SERVICES INC", "city": "SPRING VALLEY", "state": "NY", "zip": "10977-4330", "ntee": "F60", "ruling": "202403", "deductibility": "1", "assets": 0, "income": 0, "revenue": 0}], "AMBASSADORS": [{"ein": "112622934", "name": "AMBASSADORS FOR CHRIST", "city": "WANTAGH", "state": "NY", "zip": "11793-1864", "ntee": "", "ruling": "198304", "deductibility": "1", "assets": 0, "income": 0, "revenue": 0}, {"ein": "112741726", "name": "CHRIST AMBASSADORS CHURCH INC", "city": "HOLLIS", "state": "NY", "zip": "11423-3039", "ntee": "", "ruling": "198602", "deductibility": "1", "assets": 0, "income": 0, "revenue": 0}, {"ein": "113437961", "name": "AMBASSADORS FOR CHRIST MINISTRIES", "city": "HOLLIS", "state": "NY", "zip": "11423-1921", "ntee": "X21", "ruling": "199911", "deductibility": "1", "assets": 0, "income": 0, "revenue": 0}, {"ein": "113540536", "name": "AMBASSADORS FOR CHRIST", "city": "BROOKLYN", "state": "NY", "zip": "11234-3711", "ntee": "X20", "ruling": "200410", "deductibility": "1", "assets": 0, "income": 0, "revenue": 0}, {"ein": "223023082", "name": "LIVING AMBASSADORS FOR CHRIST INC", "city": "PATTERSON", "state": "NY", "zip": "12563-0392", "ntee": "", "ruling": "199403", "deductibility": "1", "assets": 0, "income": 0, "revenue": 0}, {"ein": "271250228", "name": "CHRISTS AMBASSADORS OF CHARITY INC", "city": "PEARL RIVER", "state": "NY", "zip": "10965-0117", "ntee": "P40", "ruling": "201003", "deductibility": "1", "assets": 0, "income": 0, "revenue": 0}, {"ein": "273793815", "name": "KNEELING AMBASSADORS OF WORSHIP TEMPLE", "city": "LK RONKONKOMA", "state": "NY", "zip": "11779-1915", "ntee": "X21", "ruling": "201107", "deductibility": "1", "assets": 0, "income": 0, "revenue": 0}, {"ein": "320282084", "name": "TANYARD MUSICAL AMBASSADORS INC", "city": "NEW YORK", "state": "NY", "zip": "10031-4327", "ntee": "A68", "ruling": "201407", "deductibility": "1", "assets": 0, "income": 0, "revenue": 0}, {"ein": "320385221", "name": "CHRIST AMBASSADORS UPPER ROOM DELIVERANCE ASSEMBLY", "city": "BRONX", "state": "NY", "zip": "10469-0000", "ntee": "X21", "ruling": "201401", "deductibility": "1", "assets": 0, "income": 0, "revenue": 0}, {"ein": "453503008", "name": "AMBASSADORS FOR CHRIST THEATRICAL WORKSHOP INC", "city": "BROOKLYN", "state": "NY", "zip": "11201-2044", "ntee": "X21", "ruling": "201202", "deductibility": "1", "assets": 0, "income": 0, "revenue": 0}, {"ein": "562493701", "name": "AFCOM AMBASSADORS FOR CHRIST OUTREACH MINISTRY INC", "city": "MOUNT VERNON", "state": "NY", "zip": "10553-1452", "ntee": "K31", "ruling": "201601", "deductibility": "1", "assets": 0, "income": 0, "revenue": 0}, {"ein": "752679444", "name": "AIRLINE AMBASSADORS INTERNATIONAL INC", "city": "NEW YORK", "state": "NY", "zip": "10038-0000", "ntee": "Q330", "ruling": "199701", "deductibility": "1", "assets": 76095, "income": 153364, "revenue": 153364}, {"ein": "822357347", "name": "PARADOCS AMBASSADORS INC", "city": "BROOKLYN", "state": "NY", "zip": "11238-3295", "ntee": "E86", "ruling": "201708", "deductibility": "1", "assets": 262470, "income": 132237, "revenue": 132237}, {"ein": "830413017", "name": "AMBASSADORS FOR CHRIST MISSIONS INTERNATIONAL INC", "city": "CAMERON", "state": "NY", "zip": "14819-9600", "ntee": "", "ruling": "199107", "deductibility": "1", "assets": 0, "income": 0, "revenue": 0}, {"ein": "882993821", "name": "YOUNG AMBASSADORS IN CHRIST THE EKKLESIA", "city": "CARMEL", "state": "NY", "zip": "10512-3759", "ntee": "X21", "ruling": "202306", "deductibility": "1", "assets": 0, "income": 0, "revenue": 0}, {"ein": "923626889", "name": "AMBASSADORS FOR PEACE", "city": "BROOKLYN", "state": "NY", "zip": "11212-4479", "ntee": "I21", "ruling": "202311", "deductibility": "1", "assets": 0, "income": 0, "revenue": 0}], "ALZHEIMERS": [{"ein": "112637292", "name": "ALZHEIMERS DISEASE RESOURCECENTER INC", "city": "EAST ISLIP", "state": "NY", "zip": "11730-1222", "ntee": "G83", "ruling": "201401", "deductibility": "1", "assets": 2519684, "income": 623743, "revenue": 514648}, {"ein": "112926958", "name": "THE LONG ISLAND ALZHEIMERS AND DEMENTIA CENTER", "city": "WESTBURY", "state": "NY", "zip": "11590-5653", "ntee": "G83Z", "ruling": "198901", "deductibility": "1", "assets": 2486429, "income": 2597613, "revenue": 1842103}, {"ein": "133277408", "name": "ALZHEIMERS DISEASE AND RELATED DISORDERS NEW YORK CITY INC", "city": "NEW YORK", "state": "NY", "zip": "10017-6568", "ntee": "G83", "ruling": "201507", "deductibility": "1", "assets": 10510973, "income": 16703687, "revenue": 9557108}, {"ein": "133859563", "name": "ZACHARY AND ELIZABETH M FISHER CENTER FOR ALZHEIMERS RESEARCH FDN", "city": "NEW YORK", "state": "NY", "zip": "10022-9815", "ntee": "H99", "ruling": "199604", "deductibility": "1", "assets": 33358648, "income": 25527020, "revenue": 10469067}, {"ein": "201041087", "name": "EARLY ALZHEIMERS FOUNDATION INC", "city": "NEW YORK", "state": "NY", "zip": "10019-5586", "ntee": "G198", "ruling": "200505", "deductibility": "1", "assets": 454734, "income": 116073, "revenue": 116073}, {"ein": "201082179", "name": "ALZHEIMERS DRUG DISCOVERY FOUNDATION", "city": "NEW YORK", "state": "NY", "zip": "10019-2819", "ntee": "V36", "ruling": "200509", "deductibility": "1", "assets": 324173528, "income": 494090424, "revenue": 37742020}, {"ein": "464963354", "name": "CULTURAL ACTION FOR ALZHEIMERS INC", "city": "NEW YORK", "state": "NY", "zip": "10010-3825", "ntee": "E86", "ruling": "201410", "deductibility": "1", "assets": 0, "income": 0, "revenue": 0}, {"ein": "812537952", "name": "ACES FOR ALZHEIMERS INC", "city": "LARCHMONT", "state": "NY", "zip": "10538-1705", "ntee": "P80", "ruling": "201605", "deductibility": "1", "assets": 0, "income": 0, "revenue": 0}, {"ein": "821875173", "name": "ALZHEIMERS PREVENTION CHARITY", "city": "TROY", "state": "NY", "zip": "12180-6506", "ntee": "G96", "ruling": "202312", "deductibility": "1", "assets": 0, "income": 0, "revenue": 0}, {"ein": "911792864", "name": "ALZHEIMERS FOUNDATION OF AMERICA INC", "city": "NEW YORK", "state": "NY", "zip": "10001-6791", "ntee": "G83A", "ruling": "199801", "deductibility": "1", "assets": 62045087, "income": 17162062, "revenue": 16996010}, {"ein": "993330348", "name": "ALZHEIMERS RESEARCH INITIATIVE INC", "city": "PITTSFORD", "state": "NY", "zip": "14534-3212", "ntee": "H12", "ruling": "202408", "deductibility": "1", "assets": 0, "income": 0, "revenue": 0}], "MAMAR": [{"ein": "112654984", "name": "MOSDOT NADVORNA MAMAR MORDECHAI INC", "city": "BROOKLYN", "state": "NY", "zip": "11232-0124", "ntee": "", "ruling": "198312", "deductibility": "1", "assets": 0, "income": 0, "revenue": 0}, {"ein": "204881284", "name": "YESHIVA MAMAR MORDECHAI NADVORNA", "city": "BROOKLYN", "state": "NY", "zip": "11204-1358", "ntee": "X123", "ruling": "200911", "deductibility": "1", "assets": 133632, "income": 1141058, "revenue": 1141058}, {"ein": "854264578", "name": "MAMAR MORDCHEI", "city": "BROOKLYN", "state": "NY", "zip": "11211-6753", "ntee": "X30", "ruling": "202108", "deductibility": "1", "assets": 0, "income": 0, "revenue": 0}], "ROMANY": [{"ein": "112889959", "name": "ROMANY CHRISTIAN CHURCH ASSEMBLIES OF GOD", "city": "FLUSHING", "state": "NY", "zip": "11364-1731", "ntee": "", "ruling": "196408", "deductibility": "1", "assets": 0, "income": 0, "revenue": 0}, {"ein": "900629683", "name": "ROMANY CHRISTIAN CHURCH", "city": "OZONE PARK", "state": "NY", "zip": "11416-2310", "ntee": "", "ruling": "195902", "deductibility": "1", "assets": 0, "income": 0, "revenue": 0}], "ORO": [{"ein": "112904399", "name": "IGLESIA PENTECOSTAL CADELERO DE ORO 265 ASHFORD STREET", "city": "BROOKLYN", "state": "NY", "zip": "11208-2201", "ntee": "", "ruling": "199109", "deductibility": "1", "assets": 0, "income": 0, "revenue": 0}], "PREM": [{"ein": "112961601", "name": "PREM BHAKTI MANDIR INC", "city": "JAMAICA", "state": "NY", "zip": "11433-1218", "ntee": "", "ruling": "199201", "deductibility": "1", "assets": 19851, "income": 54858, "revenue": 54858}, {"ein": "133727105", "name": "PREM PRAKASH MANDLI USA INC", "city": "ELMHURST", "state": "NY", "zip": "11373-3728", "ntee": "X11", "ruling": "202304", "deductibility": "1", "assets": 4876004, "income": 361160, "revenue": 361160}, {"ein": "473888176", "name": "PREM & POONAM PRIVATE FOUNDATION INC", "city": "EAST ELMHURST", "state": "NY", "zip": "11370-1836", "ntee": "K30", "ruling": "201505", "deductibility": "1", "assets": 0, "income": 0, "revenue": 0}, {"ein": "830569931", "name": "SANT BABA PREM SINGH SIKH CULTURAL SOCIETY OF NY USA", "city": "LEVITTOWN", "state": "NY", "zip": "11756-2611", "ntee": "A23", "ruling": "202402", "deductibility": "1", "assets": 0, "income": 0, "revenue": 0}], "RECIPIENTS": [{"ein": "113004587", "name": "TRANSPLANT RECIPIENTS INTERNATIONAL ORGANIZATION INC", "city": "GARDEN CITY", "state": "NY", "zip": "11530-0081", "ntee": "", "ruling": "199006", "deductibility": "1", "assets": 0, "income": 0, "revenue": 0}], "VAYETAR": [{"ein": "113058816", "name": "VAYETAR YITZCHOK", "city": "BROOKLYN", "state": "NY", "zip": "11210-3714", "ntee": "", "ruling": "199107", "deductibility": "1", "assets": 0, "income": 0, "revenue": 0}], "TABOR": [{"ein": "113109027", "name": "MT TABOR SPIRITUAL BAPTIST CHURCH INC", "city": "BROOKLYN", "state": "NY", "zip": "11216-6204", "ntee": "", "ruling": "199505", "deductibility": "1", "assets": 0, "income": 0, "revenue": 0}, {"ein": "113372328", "name": "TABOR RETREAT CENTER", "city": "OCEANSIDE", "state": "NY", "zip": "11572-3031", "ntee": "X99", "ruling": "199706", "deductibility": "1", "assets": 0, "income": 0, "revenue": 0}, {"ein": "146616107", "name": "TABOR FOUNDATION", "city": "MILLERTON", "state": "NY", "zip": "12546-0496", "ntee": "", "ruling": "195908", "deductibility": "1", "assets": 0, "income": 0, "revenue": 0}, {"ein": "204028018", "name": "TABOR MAR THOMA CHURCH", "city": "STATEN ISLAND", "state": "NY", "zip": "10314-0385", "ntee": "X22", "ruling": "200902", "deductibility": "1", "assets": 0, "income": 0, "revenue": 0}, {"ein": "824097536", "name": "IGLESIA CRISTIANA MONTE TABOR INC", "city": "BETHPAGE", "state": "NY", "zip": "11714-1022", "ntee": "X20", "ruling": "201810", "deductibility": "1", "assets": 0, "income": 0, "revenue": 0}], "PEULOS": [{"ein": "113141647", "name": "KEREN PEULOS", "city": "BROOKLYN", "state": "NY", "zip": "11213-3502", "ntee": "", "ruling": "199401", "deductibility": "1", "assets": 0, "income": 0, "revenue": 0}], "CORINTHIANS": [{"ein": "113198368", "name": "UNION CHRISTIAN BAPTIST CHURCH 1ST CORINTHIANS 15 58", "city": "BROOKLYN", "state": "NY", "zip": "11226-3606", "ntee": "X21", "ruling": "200103", "deductibility": "1", "assets": 0, "income": 0, "revenue": 0}], "COMMMUNITY": [{"ein": "113199040", "name": "BERGEN BASIN COMMMUNITY DEVELOPMENT CORPORATION", "city": "BROOKLYN", "state": "NY", "zip": "11234-6652", "ntee": "P81Z", "ruling": "199501", "deductibility": "1", "assets": 2799041, "income": 12035305, "revenue": 12035305}], "KASER": [{"ein": "113199082", "name": "KASER COMMUNITY DEVELOPMENT INC", "city": "MONSEY", "state": "NY", "zip": "10952-0000", "ntee": "L200", "ruling": "199407", "deductibility": "1", "assets": 10393453, "income": 1347067, "revenue": 0}], "PENTOCOSTAL": [{"ein": "113216053", "name": "INDONESIAN PENTOCOSTAL FAMILY CHURCH OF NEW YORK", "city": "BROOKLYN", "state": "NY", "zip": "11238-4998", "ntee": "X20Z", "ruling": "199412", "deductibility": "1", "assets": 0, "income": 0, "revenue": 0}], "FULFILLMENT": [{"ein": "113250840", "name": "WORLD SPIRITUAL FULFILLMENT CENTER INC", "city": "QUEENS VLG", "state": "NY", "zip": "11428-1056", "ntee": "X99Z", "ruling": "199709", "deductibility": "1", "assets": 0, "income": 0, "revenue": 0}], "MCGANN": [{"ein": "113273995", "name": "BISHOP JOHN R MCGANN SENIOR HOUSING DEVELOPMENT FUND COMPANY INC", "city": "HICKSVILLE", "state": "NY", "zip": "11801-6232", "ntee": "L22Z", "ruling": "199603", "deductibility": "1", "assets": 6719873, "income": 1258945, "revenue": 1258945}, {"ein": "542124133", "name": "MCGANN MERCY HIGH SCHOOL", "city": "RIVERHEAD", "state": "NY", "zip": "11901-2108", "ntee": "", "ruling": "000000", "deductibility": "0", "assets": 0, "income": 0, "revenue": 0}], "TAUB": [{"ein": "113293314", "name": "JOAN AND ALAN ADES-TAUB FAMILY FOUNDATION INC", "city": "ROSLYN HTS", "state": "NY", "zip": "11577-1415", "ntee": "T20J", "ruling": "199511", "deductibility": "1", "assets": 2235470, "income": 444110, "revenue": 0}, {"ein": "133127243", "name": "R TAUB CANCER RESEARCH FUND INC", "city": "NEW YORK", "state": "NY", "zip": "10128-1152", "ntee": "", "ruling": "198312", "deductibility": "1", "assets": 3382, "income": 12726, "revenue": 12726}, {"ein": "133940569", "name": "ROBERT AND SUSAN TAUB FOUNDATION INC", "city": "NEW YORK", "state": "NY", "zip": "10128-1152", "ntee": "T22Z", "ruling": "199706", "deductibility": "1", "assets": 149903, "income": 58369, "revenue": 0}, {"ein": "651052540", "name": "TAUB FAMILY FOUNDATION INC", "city": "PRT WASHINGTN", "state": "NY", "zip": "11050-4653", "ntee": "T20", "ruling": "200102", "deductibility": "1", "assets": 976347, "income": 275698, "revenue": 0}], "BELLEVILLE": [{"ein": "113325187", "name": "UNION ACADEMY OF BELLEVILLE", "city": "ADAMS", "state": "NY", "zip": "13605-2181", "ntee": "T30J", "ruling": "199608", "deductibility": "1", "assets": 762756, "income": 113362, "revenue": 113362}, {"ein": "150592876", "name": "BELLEVILLE PHILOMATHEAN FREE LIBRARY", "city": "BELLEVILLE", "state": "NY", "zip": "13611-0027", "ntee": "B70", "ruling": "202406", "deductibility": "1", "assets": 0, "income": 0, "revenue": 0}], "NOSSON": [{"ein": "113519768", "name": "NOSSON FUND", "city": "BROOKLYN", "state": "NY", "zip": "11210-2830", "ntee": "T20", "ruling": "200001", "deductibility": "1", "assets": 23699, "income": 2002, "revenue": 0}, {"ein": "113551926", "name": "CONGREGATION MEOROS NOSSON", "city": "BROOKLYN", "state": "NY", "zip": "11219-2331", "ntee": "X30", "ruling": "200008", "deductibility": "1", "assets": 0, "income": 0, "revenue": 0}, {"ein": "510415455", "name": "OIHEL NOSSON", "city": "BROOKLYN", "state": "NY", "zip": "11213-4335", "ntee": "X30", "ruling": "200209", "deductibility": "1", "assets": 0, "income": 0, "revenue": 0}, {"ein": "811735287", "name": "ZICHRON NOSSON TZVI FOUNDATION", "city": "BROOKLYN", "state": "NY", "zip": "11230-6709", "ntee": "X30", "ruling": "202309", "deductibility": "1", "assets": 196857, "income": 230688, "revenue": 230688}, {"ein": "813675526", "name": "CONGREGATION OHEL NOSSON", "city": "BROOKLYN", "state": "NY", "zip": "11213-2729", "ntee": "X30", "ruling": "201705", "deductibility": "1", "assets": 0, "income": 0, "revenue": 0}], "TEHILIM": [{"ein": "113577083", "name": "CONGREGATION VAYEDABER DOVID TEHILIM INTERNATIONAL", "city": "BROOKLYN", "state": "NY", "zip": "11210-3736", "ntee": "X30", "ruling": "200101", "deductibility": "1", "assets": 0, "income": 0, "revenue": 0}, {"ein": "263376080", "name": "VAAD TEHILIM TORAH", "city": "BROOKLYN", "state": "NY", "zip": "11223-0000", "ntee": "X30", "ruling": "201001", "deductibility": "1", "assets": 0, "income": 0, "revenue": 0}, {"ein": "830657475", "name": "CONGREGATION CHEVRES TEHILIM", "city": "BROOKLYN", "state": "NY", "zip": "11211-7703", "ntee": "X30", "ruling": "201903", "deductibility": "1", "assets": 0, "income": 0, "revenue": 0}], "CADASH": [{"ein": "113619208", "name": "YESHIVA OHR CADASH", "city": "FOREST HILLS", "state": "NY", "zip": "11375-0000", "ntee": "B24", "ruling": "202302", "deductibility": "1", "assets": 43082, "income": 312124, "revenue": 312124}], "SNO": [{"ein": "113840198", "name": "BC SNO-RIDERS INC", "city": "HARPURSVILLE", "state": "NY", "zip": "13787-0022", "ntee": "N50", "ruling": "202308", "deductibility": "1", "assets": 0, "income": 0, "revenue": 0}, {"ein": "136162686", "name": "SNO-CAT SKI CLUB OF EASTERN WESTCHESTER INC", "city": "PLEASANTVILLE", "state": "NY", "zip": "10570-2429", "ntee": "", "ruling": "196008", "deductibility": "2", "assets": 106127, "income": 42278, "revenue": 42278}, {"ein": "141810340", "name": "FRONTIER SNO RIDERS INC", "city": "DUANESBURG", "state": "NY", "zip": "12056-0133", "ntee": "N50", "ruling": "200308", "deductibility": "2", "assets": 113375, "income": 26273, "revenue": 26273}, {"ein": "161088800", "name": "HILTON SNO-FLYERS INC", "city": "HILTON", "state": "NY", "zip": "14468-0048", "ntee": "N32", "ruling": "200702", "deductibility": "1", "assets": 369973, "income": 54869, "revenue": 39119}, {"ein": "161380515", "name": "CHENANGO SNO RIDERS INC", "city": "NORWICH", "state": "NY", "zip": "13815-4244", "ntee": "N30", "ruling": "201709", "deductibility": "1", "assets": 0, "income": 0, "revenue": 0}, {"ein": "161424519", "name": "ELLERY SNO-CRUISERS INC", "city": "BEMUS POINT", "state": "NY", "zip": "14712-0089", "ntee": "N32", "ruling": "200703", "deductibility": "1", "assets": 33011, "income": 43108, "revenue": 35620}, {"ein": "161443876", "name": "SOUTHERN TUG HILL SNO RIDERS I", "city": "WEST LEYDEN", "state": "NY", "zip": "13489-0513", "ntee": "N68", "ruling": "200705", "deductibility": "2", "assets": 150203, "income": 108336, "revenue": 108336}, {"ein": "161496711", "name": "CHERRY CREEK SNO-GOERS INC", "city": "CASSADAGA", "state": "NY", "zip": "14718-0243", "ntee": "C30", "ruling": "201909", "deductibility": "1", "assets": 433196, "income": 206000, "revenue": 171579}, {"ein": "161528383", "name": "SARDINIA SNOWMOBILE CLUB INC DBA PIONEER SNO SURFERS", "city": "CHAFFEE", "state": "NY", "zip": "14030-9731", "ntee": "N68", "ruling": "202111", "deductibility": "1", "assets": 0, "income": 0, "revenue": 0}, {"ein": "161552261", "name": "NORTHERN ERIE SNO-SEEKERS INC", "city": "AKRON", "state": "NY", "zip": "14001-0167", "ntee": "N32", "ruling": "200511", "deductibility": "1", "assets": 86778, "income": 58557, "revenue": 58557}, {"ein": "161557105", "name": "SNO-RASCALS INC", "city": "HOLLAND", "state": "NY", "zip": "14080-0329", "ntee": "N50", "ruling": "202402", "deductibility": "1", "assets": 239908, "income": 31301, "revenue": 31301}, {"ein": "161562686", "name": "MARILLA SNO-MOB INCORPORATED", "city": "MARILLA", "state": "NY", "zip": "14102-0137", "ntee": "N30", "ruling": "201603", "deductibility": "1", "assets": 0, "income": 0, "revenue": 0}, {"ein": "562369005", "name": "EAST HERKIMER SNO-RIDERS INC", "city": "LITTLE FALLS", "state": "NY", "zip": "13365-6704", "ntee": "S20", "ruling": "200506", "deductibility": "2", "assets": 200722, "income": 75782, "revenue": 51534}, {"ein": "853625785", "name": "BOONDOCKERS SNO-CLUB", "city": "RUSSELL", "state": "NY", "zip": "13684-3173", "ntee": "C50", "ruling": "202105", "deductibility": "1", "assets": 112257, "income": 70164, "revenue": 70164}, {"ein": "900129814", "name": "BARNES CORNERS SNO PALS INC", "city": "RODMAN", "state": "NY", "zip": "13682-0533", "ntee": "N68", "ruling": "200701", "deductibility": "1", "assets": 1088660, "income": 311013, "revenue": 240897}, {"ein": "900618610", "name": "SHAWNEE SNO-CHIEFS INC", "city": "SANBORN", "state": "NY", "zip": "14132-7099", "ntee": "N32", "ruling": "201811", "deductibility": "1", "assets": 311542, "income": 39709, "revenue": 35529}], "BLAU": [{"ein": "116074351", "name": "BLAU WEISS GOTTSCHEE INC", "city": "MIDDLE VLG", "state": "NY", "zip": "11379-2340", "ntee": "N64", "ruling": "199805", "deductibility": "1", "assets": 676830, "income": 1026884, "revenue": 1026884}, {"ein": "133386869", "name": "BLAU FAMILY FOUNDATION", "city": "NEW YORK", "state": "NY", "zip": "10022-0000", "ntee": "T22Z", "ruling": "198709", "deductibility": "1", "assets": 399371, "income": 0, "revenue": 0}, {"ein": "806260086", "name": "BLAU FAMILY FOUNDATION", "city": "NEW YORK", "state": "NY", "zip": "10001-2170", "ntee": "T22", "ruling": "201511", "deductibility": "1", "assets": 31039, "income": 1509, "revenue": 0}, {"ein": "921436643", "name": "JEFF & RACHEL BLAU FOUNDATION INC", "city": "BROOKLYN", "state": "NY", "zip": "11218-4282", "ntee": "T99", "ruling": "202309", "deductibility": "1", "assets": 0, "income": 0, "revenue": 0}], "SALUTE": [{"ein": "116111196", "name": "SALUTE TO YOUTH PROJECT OF THE BROOKLYN CHAPTER OF THE LINKS", "city": "BROOKLYN", "state": "NY", "zip": "11216-0000", "ntee": "", "ruling": "196804", "deductibility": "1", "assets": 294206, "income": 211622, "revenue": 85377}, {"ein": "205140355", "name": "FULTON MEMORIAL DAY SALUTE", "city": "FULTON", "state": "NY", "zip": "13069-4186", "ntee": "A800", "ruling": "200904", "deductibility": "1", "assets": 11357, "income": 20534, "revenue": 20534}, {"ein": "810683003", "name": "WARRIOR SALUTE VETERANS SERVICES INC", "city": "WEBSTER", "state": "NY", "zip": "14580-8825", "ntee": "E50", "ruling": "201602", "deductibility": "1", "assets": 38282, "income": 480730, "revenue": 480730}, {"ein": "871144492", "name": "SALUTE TO SERVICE VETERANS COALITION INC", "city": "GLOVERSVILLE", "state": "NY", "zip": "12078-6058", "ntee": "W30", "ruling": "202204", "deductibility": "1", "assets": 49240, "income": 103299, "revenue": 97479}, {"ein": "922955808", "name": "SALUTE FOUNDATION", "city": "BROOKLYN", "state": "NY", "zip": "11238-7603", "ntee": "W70", "ruling": "202402", "deductibility": "1", "assets": 0, "income": 0, "revenue": 0}], "MAP": [{"ein": "116436661", "name": "MAP CHARITABLE FOUNDATION TRUST", "city": "BROOKLYN", "state": "NY", "zip": "11230-5605", "ntee": "T20Z", "ruling": "199502", "deductibility": "1", "assets": 999067, "income": 122194, "revenue": 0}, {"ein": "134062364", "name": "GREEN MAP SYSTEM INC", "city": "NEW YORK", "state": "NY", "zip": "10002-2517", "ntee": "C990", "ruling": "200004", "deductibility": "1", "assets": 0, "income": 0, "revenue": 0}, {"ein": "453265404", "name": "MAP EDUCATIONAL FUND", "city": "NEW YORK", "state": "NY", "zip": "10075-1811", "ntee": "G40", "ruling": "201208", "deductibility": "1", "assets": 347973, "income": 208664, "revenue": 208664}, {"ein": "461603343", "name": "COMMUNITY RESOURCE MAP INTERNATIONAL INC", "city": "EARLVILLE", "state": "NY", "zip": "13332-3165", "ntee": "Q33", "ruling": "201407", "deductibility": "1", "assets": 0, "income": 0, "revenue": 0}, {"ein": "461911356", "name": "HIT ROAD MAP FOR LIFE FOUNDATION INC", "city": "JAMAICA", "state": "NY", "zip": "11434-2604", "ntee": "P20", "ruling": "201804", "deductibility": "1", "assets": 8075, "income": 21065, "revenue": 21065}, {"ein": "474298410", "name": "THE NEW YORK MAP SOCIETY INC", "city": "RYE", "state": "NY", "zip": "10580-2248", "ntee": "B90", "ruling": "201807", "deductibility": "1", "assets": 0, "income": 0, "revenue": 0}, {"ein": "812547838", "name": "MAP FUND INC", "city": "NEW YORK", "state": "NY", "zip": "10003-1502", "ntee": "A12", "ruling": "201606", "deductibility": "1", "assets": 3134575, "income": 3761615, "revenue": 3761615}, {"ein": "813288451", "name": "MAP IT OUT COMMUNICATIONS INC", "city": "LAURELTON", "state": "NY", "zip": "11413-2108", "ntee": "A20", "ruling": "201608", "deductibility": "1", "assets": 0, "income": 0, "revenue": 0}], "RUSSELL": [{"ein": "116503874", "name": "RUSSELL ARTZT FAM CHARITABLE FOUNDATION TR UA 04161998", "city": "OLD WESTBURY", "state": "NY", "zip": "11568-1028", "ntee": "", "ruling": "199912", "deductibility": "0", "assets": 21219, "income": 27, "revenue": 0}, {"ein": "131635303", "name": "RUSSELL SAGE FOUNDATION", "city": "NEW YORK", "state": "NY", "zip": "10065-7307", "ntee": "", "ruling": "195906", "deductibility": "1", "assets": 466906661, "income": 48066860, "revenue": 0}, {"ein": "133022482", "name": "DOROTHY RUSSELL HAVEMEYER FOUNDATION INC", "city": "NEW YORK", "state": "NY", "zip": "10165-0048", "ntee": "", "ruling": "198005", "deductibility": "1", "assets": 4724581, "income": 1133362, "revenue": 0}, {"ein": "134002383", "name": "RUSSELL E WINDSOR THE RESEARCH FOUNDATION", "city": "GARDEN CITY", "state": "NY", "zip": "11530-6542", "ntee": "U20", "ruling": "199903", "deductibility": "1", "assets": 11877, "income": 899, "revenue": -6024}, {"ein": "136223755", "name": "WILLIAM RUSSELL FAWCETT FUND TRUST", "city": "NEW YORK", "state": "NY", "zip": "10008-1297", "ntee": "", "ruling": "196712", "deductibility": "1", "assets": 338487, "income": 68686, "revenue": 0}, {"ein": "141338488", "name": "RUSSELL SAGE COLLEGE", "city": "TROY", "state": "NY", "zip": "12180-4013", "ntee": "B420", "ruling": "194501", "deductibility": "1", "assets": 106307119, "income": 88900222, "revenue": 75843599}, {"ein": "146021764", "name": "RUSSELL SAGE COLLEGE ALUMNAE ASSOC", "city": "TROY", "state": "NY", "zip": "12180-4013", "ntee": "", "ruling": "196209", "deductibility": "1", "assets": 0, "income": 0, "revenue": 0}, {"ein": "161164588", "name": "RUSSELL ATTWATER HOUSING CORPORATION", "city": "RUSSELL", "state": "NY", "zip": "13684-0000", "ntee": "", "ruling": "198404", "deductibility": "1", "assets": 240952, "income": 80324, "revenue": 80324}, {"ein": "166471838", "name": "C RUSSELL WEBB AGRICULTURAL SCHOLARSHIP TR", "city": "NORWICH", "state": "NY", "zip": "13815-0000", "ntee": "B118", "ruling": "199902", "deductibility": "1", "assets": 16376, "income": 871, "revenue": 0}, {"ein": "205940154", "name": "PARENTS ASSOCIATION OF RUSSELL SAGE JUNIOR HIGH SCHOOL 190Q", "city": "FOREST HILLS", "state": "NY", "zip": "11375-4237", "ntee": "B94", "ruling": "202207", "deductibility": "1", "assets": 0, "income": 0, "revenue": 0}, {"ein": "236986879", "name": "THE RUSSELL A LEREW AND DELLA C LEREW MEMORIAL TRUST", "city": "BUFFALO", "state": "NY", "zip": "14240-1504", "ntee": "T20Z", "ruling": "199605", "deductibility": "1", "assets": 720205, "income": 217179, "revenue": 0}, {"ein": "237336116", "name": "H RUSSELL KENYON POST NO 5808 VETERANS OF FOREIGN WARS", "city": "COCHECTON", "state": "NY", "zip": "12726-5046", "ntee": "W30", "ruling": "201706", "deductibility": "2", "assets": 0, "income": 0, "revenue": 0}, {"ein": "300209987", "name": "RUSSELL PUBLIC LIBRARY", "city": "RUSSELL", "state": "NY", "zip": "13684-3100", "ntee": "B70", "ruling": "200511", "deductibility": "1", "assets": 0, "income": 0, "revenue": 0}, {"ein": "367595997", "name": "RUSSELL J SALVATORE FOUNDATION", "city": "WILLIAMSVILLE", "state": "NY", "zip": "14221-7212", "ntee": "S20", "ruling": "201208", "deductibility": "1", "assets": 2898166, "income": 672842, "revenue": 0}, {"ein": "462416620", "name": "JAMES B RUSSELL FOUNDATION INC", "city": "DUNDEE", "state": "NY", "zip": "14837-9709", "ntee": "T22", "ruling": "201307", "deductibility": "1", "assets": 1094186, "income": 332705, "revenue": 0}, {"ein": "526359740", "name": "RUSSELL BOGLEY TR UD", "city": "BUFFALO", "state": "NY", "zip": "14240-1504", "ntee": "X12", "ruling": "200110", "deductibility": "1", "assets": 859807, "income": 270379, "revenue": 0}, {"ein": "831298420", "name": "RUSSELL J EFROS FOUNDATION INC", "city": "ROSLYN", "state": "NY", "zip": "11576-3800", "ntee": "A19", "ruling": "201906", "deductibility": "1", "assets": 435336, "income": 653861, "revenue": 604669}, {"ein": "854195592", "name": "RUSSELL & LEONA BELLAMY MEMORIAL HOUSING FOUNDATION", "city": "RENSSELAER", "state": "NY", "zip": "12144-1824", "ntee": "L20", "ruling": "202201", "deductibility": "1", "assets": 0, "income": 0, "revenue": 0}], "WINIFRED": [{"ein": "131739937", "name": "THE WINIFRED MASTERSON BURKE REHABILITATION HOSPITAL", "city": "WHITE PLAINS", "state": "NY", "zip": "10605-2523", "ntee": "E20", "ruling": "194608", "deductibility": "1", "assets": 150578527, "income": 127790943, "revenue": 127109046}, {"ein": "133434924", "name": "WINIFRED MASTERSON BURKE MEDICAL RESEARCH", "city": "WHITE PLAINS", "state": "NY", "zip": "10605-2523", "ntee": "H96Z", "ruling": "198804", "deductibility": "1", "assets": 7823857, "income": 15401317, "revenue": 15401317}, {"ein": "133434928", "name": "THE WINIFRED MASTERSON BURKE FOUNDATION INC", "city": "WHITE PLAINS", "state": "NY", "zip": "10601-1832", "ntee": "E120", "ruling": "198804", "deductibility": "1", "assets": 104472906, "income": 11983539, "revenue": 3062472}, {"ein": "136167132", "name": "CHARLES R & WINIFRED R WEBER FOUNDATION", "city": "NEW YORK", "state": "NY", "zip": "10005-0000", "ntee": "", "ruling": "196011", "deductibility": "1", "assets": 5053426, "income": 1171385, "revenue": 0}, {"ein": "160743055", "name": "WINIFRED CRAWFORD DIBERT BOYS AND GIRLS CLUB OF JAMESTOWN INC", "city": "JAMESTOWN", "state": "NY", "zip": "14701-0000", "ntee": "", "ruling": "195003", "deductibility": "1", "assets": 2718586, "income": 1192365, "revenue": 966330}, {"ein": "202226224", "name": "THE@WINIFRED AND WILLIAM OREILLY FOUNDATION", "city": "NEW YORK", "state": "NY", "zip": "10168-0000", "ntee": "T22", "ruling": "200511", "deductibility": "1", "assets": 19482, "income": 12402, "revenue": 0}, {"ein": "237984132", "name": "WINIFRED M SANTMAN TR UA", "city": "BUFFALO", "state": "NY", "zip": "14240-1504", "ntee": "T20", "ruling": "200611", "deductibility": "1", "assets": 126077, "income": 33786, "revenue": 0}, {"ein": "873956853", "name": "STEVEN K AND WINIFRED A GRINSPOON HILLEL CENTER FOR JEWISH COMMUNITY", "city": "ITHACA", "state": "NY", "zip": "14853-4902", "ntee": "B80", "ruling": "202207", "deductibility": "1", "assets": 33266786, "income": 29413698, "revenue": 29170609}, {"ein": "943346733", "name": "THE W RICHARD BINGHAM AND WINIFRED W BINGHAM FOUNDATION", "city": "SARATOGA SPGS", "state": "NY", "zip": "12866-2386", "ntee": "T20", "ruling": "200009", "deductibility": "1", "assets": 3958564, "income": 3373145, "revenue": 0}], "AFRO": [{"ein": "132727406", "name": "AFRO AMERICAN PARENTS EDUCATIONAL CENTER INC", "city": "JAMAICA", "state": "NY", "zip": "11435-0000", "ntee": "P33Z", "ruling": "197305", "deductibility": "1", "assets": 515660, "income": 3623036, "revenue": 3623036}, {"ein": "133634970", "name": "AFRO-AMERICAN HISTORICAL AND GENEALOGICAL SOCIETY", "city": "NEW YORK", "state": "NY", "zip": "10116-1050", "ntee": "", "ruling": "198204", "deductibility": "1", "assets": 0, "income": 0, "revenue": 0}, {"ein": "133676279", "name": "AFRO BRAZIL ARTS INC", "city": "NEW YORK", "state": "NY", "zip": "10002-3387", "ntee": "A620", "ruling": "199208", "deductibility": "1", "assets": 52991, "income": 328277, "revenue": 324806}, {"ein": "161101844", "name": "AFRO AMERICAN HISTORICAL ASSOC OF THE NIAGARA FRONTIER", "city": "BUFFALO", "state": "NY", "zip": "14207-0063", "ntee": "", "ruling": "202008", "deductibility": "1", "assets": 0, "income": 0, "revenue": 0}, {"ein": "161350761", "name": "AFRO AMERICAN POLICE ASSOC", "city": "BUFFALO", "state": "NY", "zip": "14205-0859", "ntee": "B99C", "ruling": "199112", "deductibility": "1", "assets": 0, "income": 0, "revenue": 0}, {"ein": "453665976", "name": "AFRO-LATIN JAZZ ALLIANCE OF NEW YORK INC", "city": "NEW YORK", "state": "NY", "zip": "10037-1026", "ntee": "A6C", "ruling": "201203", "deductibility": "1", "assets": 3437151, "income": 2899363, "revenue": 2882266}, {"ein": "812493439", "name": "S I CHAPTER OF THE AFRO AMERICAN GENEALOGICAL AND HISTORICAL SOCIET", "city": "STATEN ISLAND", "state": "NY", "zip": "10310-2109", "ntee": "A80", "ruling": "201803", "deductibility": "1", "assets": 0, "income": 0, "revenue": 0}, {"ein": "822435901", "name": "FOUNDATION FOR AFRO-BRAZILIAN CULTURE INCORPORATED", "city": "BROOKLYN", "state": "NY", "zip": "11216-3967", "ntee": "A20", "ruling": "201709", "deductibility": "1", "assets": 0, "income": 0, "revenue": 0}, {"ein": "832346346", "name": "PROJECTS IN AFRO-CARIBBEAN COMMUNITY CHOICE LTD", "city": "KINGSTON", "state": "NY", "zip": "12401-4468", "ntee": "P20", "ruling": "201905", "deductibility": "1", "assets": 0, "income": 0, "revenue": 0}, {"ein": "843017627", "name": "AFRO LATINO DANCE GROUP", "city": "ROCHESTER", "state": "NY", "zip": "14615-3619", "ntee": "A62", "ruling": "201909", "deductibility": "1", "assets": 4485, "income": 4000, "revenue": 0}, {"ein": "843992665", "name": "LATIN AFRO JAZZ INC", "city": "BRONX", "state": "NY", "zip": "10451-2722", "ntee": "A20", "ruling": "202002", "deductibility": "1", "assets": 0, "income": 0, "revenue": 0}, {"ein": "872287255", "name": "AFRO L INC", "city": "VALLEY STREAM", "state": "NY", "zip": "11580-1506", "ntee": "P03", "ruling": "202112", "deductibility": "1", "assets": 0, "income": 0, "revenue": 0}, {"ein": "920834269", "name": "INTERNATIONAL SOCIAL AFRO FOUNDATION INC", "city": "BROOKLYN", "state": "NY", "zip": "11234-3506", "ntee": "P20", "ruling": "202303", "deductibility": "1", "assets": 0, "income": 0, "revenue": 0}, {"ein": "922940362", "name": "AFRO NYC INC", "city": "NEW YORK", "state": "NY", "zip": "10036-3113", "ntee": "A20", "ruling": "202411", "deductibility": "1", "assets": 0, "income": 0, "revenue": 0}], "URASENKE": [{"ein": "133011933", "name": "URASENKE TEA CEREMONY SO", "city": "NEW YORK", "state": "NY", "zip": "10021-5108", "ntee": "", "ruling": "198003", "deductibility": "1", "assets": 160951, "income": 33867, "revenue": 0}], "REISS": [{"ein": "133050322", "name": "MAHIR A & HELENE REISS FOUNDATION INC", "city": "NEW YORK", "state": "NY", "zip": "10022-6903", "ntee": "", "ruling": "198508", "deductibility": "1", "assets": 144658, "income": 564500, "revenue": 0}, {"ein": "133383095", "name": "REISS FAMILY FOUNDATION", "city": "NEW YORK", "state": "NY", "zip": "10019-3386", "ntee": "", "ruling": "198802", "deductibility": "1", "assets": 3148544, "income": 576690, "revenue": 0}, {"ein": "136130783", "name": "REISS FOUNDATION INC", "city": "NEW YORK", "state": "NY", "zip": "10065-8576", "ntee": "", "ruling": "196208", "deductibility": "1", "assets": 284393, "income": 19560, "revenue": 0}], "ABEYTON": [{"ein": "133437059", "name": "ABEYTON LODGE INC", "city": "NEW YORK", "state": "NY", "zip": "10111-0100", "ntee": "", "ruling": "198802", "deductibility": "2", "assets": 478196, "income": 684187, "revenue": 684187}], "IRI": [{"ein": "133490223", "name": "IRI INNOVATIVE RESOURCES FOR INDEPENDENCE INC", "city": "QUEENS VLG", "state": "NY", "zip": "11429-2235", "ntee": "P82Z", "ruling": "198903", "deductibility": "1", "assets": 80180128, "income": 54662857, "revenue": 54662857}], "POLICEMEN": [{"ein": "133502188", "name": "POLICEMEN BENEVOLENT ASSOCIATION OF PLEASANTVILLE", "city": "PLEASANTVILLE", "state": "NY", "zip": "10570-0041", "ntee": "J40", "ruling": "200209", "deductibility": "2", "assets": 933417, "income": 118818, "revenue": 118726}, {"ein": "160074695", "name": "NORTH TONAWANDA POLICEMEN BENEVOLENT ASSOC INC", "city": "NORTH TONAWANDA", "state": "NY", "zip": "14120-5446", "ntee": "", "ruling": "196907", "deductibility": "2", "assets": 337355, "income": 74486, "revenue": 74486}], "BROSENS": [{"ein": "133532018", "name": "FRANK AND DEENIE BROSENS FOUNDATION", "city": "NEW YORK", "state": "NY", "zip": "10022-2423", "ntee": "", "ruling": "199007", "deductibility": "1", "assets": 15429781, "income": 3490619, "revenue": 0}], "JESSICA": [{"ein": "133549098", "name": "JESSICA E SMITH AND KEVIN R BRINE CHARITABLE TRUST", "city": "SOUTHAMPTON", "state": "NY", "zip": "11968-5129", "ntee": "T20", "ruling": "199008", "deductibility": "1", "assets": 1, "income": 108585, "revenue": 0}, {"ein": "202013794", "name": "JESSICA HUMPHREY PRIVATE FAMILY FOUNDATION INC", "city": "WHITE PLAINS", "state": "NY", "zip": "10605-5006", "ntee": "T22", "ruling": "200507", "deductibility": "1", "assets": 25487, "income": 50000, "revenue": 0}, {"ein": "208759549", "name": "JESSICA N SANTOS FOUNDATION INC", "city": "ELMSFORD", "state": "NY", "zip": "10523-0302", "ntee": "B82", "ruling": "200708", "deductibility": "1", "assets": 0, "income": 0, "revenue": 0}, {"ein": "473555082", "name": "JESSICA JIAO CHILDREN S FOUNDATION INC", "city": "NEW YORK", "state": "NY", "zip": "10029-3642", "ntee": "T30", "ruling": "201505", "deductibility": "1", "assets": 0, "income": 0, "revenue": 0}, {"ein": "733902661", "name": "LET IT SHINE MISSIONARY CHURCH INC C/O JESSICA L MATTHEWS", "city": "BRONX", "state": "NY", "zip": "10467-5983", "ntee": "X99Z", "ruling": "199612", "deductibility": "1", "assets": 0, "income": 0, "revenue": 0}, {"ein": "815086999", "name": "JESSICA LEWIS ARTS", "city": "NEW YORK", "state": "NY", "zip": "10014-2514", "ntee": "A62", "ruling": "201702", "deductibility": "1", "assets": 0, "income": 0, "revenue": 0}], "AQUEDUCT": [{"ein": "133570850", "name": "FRIENDS OF THE OLD CROTON AQUEDUCT INC", "city": "DOBBS FERRY", "state": "NY", "zip": "10522-2151", "ntee": "A99", "ruling": "199012", "deductibility": "1", "assets": 318353, "income": 67833, "revenue": 67833}, {"ein": "237349953", "name": "AQUEDUCT ROWING CLUB INC", "city": "REXFORD", "state": "NY", "zip": "12148-0202", "ntee": "N67", "ruling": "201205", "deductibility": "2", "assets": 0, "income": 0, "revenue": 0}], "HEARN": [{"ein": "133636366", "name": "HEARN HISTORICAL AND PRESERVATION SOCIETY INC", "city": "NEW YORK", "state": "NY", "zip": "10028-0870", "ntee": "A80", "ruling": "201510", "deductibility": "1", "assets": 0, "income": 0, "revenue": 0}, {"ein": "316675328", "name": "THE CLAUDIA HEARN AND EDWARD STERN FOUNDATION", "city": "NEW YORK", "state": "NY", "zip": "10020-0000", "ntee": "T22", "ruling": "200201", "deductibility": "1", "assets": 152351, "income": 33689, "revenue": 0}, {"ein": "921404675", "name": "HEARN FAMILY FOUNDATION", "city": "NEW YORK", "state": "NY", "zip": "10019-6068", "ntee": "T22", "ruling": "202305", "deductibility": "1", "assets": 4236890, "income": 8691639, "revenue": 0}], "TANNEN": [{"ein": "133742562", "name": "TANNEN FAMILY FOUNDATION INC", "city": "WOODBURY", "state": "NY", "zip": "11797-2530", "ntee": "", "ruling": "199602", "deductibility": "1", "assets": 487273, "income": 120876, "revenue": 0}], "PERSHING": [{"ein": "133972876", "name": "PERSHING RIFLES COMPANY D-8 ALUMNI ASSOCIATION", "city": "OCEANSIDE", "state": "NY", "zip": "11572-4328", "ntee": "B82", "ruling": "200212", "deductibility": "1", "assets": 0, "income": 0, "revenue": 0}, {"ein": "208068401", "name": "PERSHING SQUARE FOUNDATION", "city": "NEW YORK", "state": "NY", "zip": "10017-0000", "ntee": "S12", "ruling": "200902", "deductibility": "1", "assets": 404137799, "income": 52308248, "revenue": 0}, {"ein": "612068083", "name": "CITY OF REFUGE SAVING THE PERSHING MINISTRY", "city": "BROOKLYN", "state": "NY", "zip": "11236-3611", "ntee": "X20", "ruling": "202412", "deductibility": "1", "assets": 0, "income": 0, "revenue": 0}], "STEFANY": [{"ein": "134077237", "name": "STEFANY AND SIMON BERGSON FOUNDATION", "city": "PALISADES", "state": "NY", "zip": "10964-0695", "ntee": "T22", "ruling": "200003", "deductibility": "1", "assets": 1552936, "income": 1239448, "revenue": 0}], "MYLES": [{"ein": "134078810", "name": "FIVE MYLES INC", "city": "NEW YORK", "state": "NY", "zip": "10012-3176", "ntee": "A60", "ruling": "200003", "deductibility": "1", "assets": 50329, "income": 113371, "revenue": 113371}, {"ein": "880725180", "name": "MYLES AWAY FROM HOME INC", "city": "NEW YORK", "state": "NY", "zip": "10027-5905", "ntee": "I40", "ruling": "202204", "deductibility": "1", "assets": 12945, "income": 13700, "revenue": 13700}], "BOTWINICK": [{"ein": "136111833", "name": "BOTWINICK-WOLFENSOHN FOUNDATION INC", "city": "NEW YORK", "state": "NY", "zip": "10010-4573", "ntee": "", "ruling": "195307", "deductibility": "1", "assets": 20128215, "income": 1014588, "revenue": 0}], "TULLY": [{"ein": "136154226", "name": "TULLY & MICHELE PLESSSER FOUNDATION", "city": "NEW YORK", "state": "NY", "zip": "10014-4643", "ntee": "", "ruling": "196001", "deductibility": "1", "assets": 843553, "income": 85826, "revenue": 0}, {"ein": "136192373", "name": "WILLIAM J TULLY FOUNDATION", "city": "NEW ROCHELLE", "state": "NY", "zip": "10805-1223", "ntee": "", "ruling": "196512", "deductibility": "1", "assets": 190623, "income": 9834, "revenue": 0}, {"ein": "150619748", "name": "TULLY CEMETERY ASSOCIATION INCORPORATED", "city": "TULLY", "state": "NY", "zip": "13159-0145", "ntee": "", "ruling": "195601", "deductibility": "1", "assets": 0, "income": 0, "revenue": 0}, {"ein": "156022787", "name": "TULLY FREE LIBRARY", "city": "TULLY", "state": "NY", "zip": "13159-0250", "ntee": "", "ruling": "198802", "deductibility": "1", "assets": 1860463, "income": 349420, "revenue": 349420}, {"ein": "160990319", "name": "TULLY UNITED COMMUNITY CHURCH", "city": "TULLY", "state": "NY", "zip": "13159-9528", "ntee": "", "ruling": "195504", "deductibility": "1", "assets": 0, "income": 0, "revenue": 0}, {"ein": "161102609", "name": "TULLY AREA HISTORICAL SOCIETY", "city": "TULLY", "state": "NY", "zip": "13159-3254", "ntee": "", "ruling": "198104", "deductibility": "1", "assets": 368557, "income": 85961, "revenue": 14696}, {"ein": "161352562", "name": "TULLY HILL CORPORATION", "city": "TULLY", "state": "NY", "zip": "13159-0000", "ntee": "", "ruling": "199405", "deductibility": "1", "assets": 3316150, "income": 4280611, "revenue": 4282872}, {"ein": "161441525", "name": "TULLY ACTION GROUP INC", "city": "TULLY", "state": "NY", "zip": "13159-0296", "ntee": "C30", "ruling": "199411", "deductibility": "1", "assets": 0, "income": 0, "revenue": 0}, {"ein": "161553827", "name": "TULLY AFTER SCHOOL PROGRAM INC", "city": "TULLY", "state": "NY", "zip": "13159-3254", "ntee": "P33", "ruling": "199903", "deductibility": "1", "assets": 31940, "income": 286236, "revenue": 286236}, {"ein": "223206976", "name": "TULLY HILL FOUNDATION", "city": "TULLY", "state": "NY", "zip": "13159-1116", "ntee": "", "ruling": "199302", "deductibility": "1", "assets": 359766, "income": 173413, "revenue": 173413}, {"ein": "454161433", "name": "TULLY RINCKEY FOUNDATION INC", "city": "LATHAM", "state": "NY", "zip": "12110-1046", "ntee": "T20", "ruling": "201508", "deductibility": "1", "assets": 168684, "income": 155274, "revenue": 155274}, {"ein": "810820801", "name": "TULLY ELEMENTARY PARENT TEACHER ORGANIZATION", "city": "TULLY", "state": "NY", "zip": "13159-2455", "ntee": "B94", "ruling": "201703", "deductibility": "1", "assets": 0, "income": 0, "revenue": 0}, {"ein": "813965675", "name": "TULLY BASEBALL FIELD INC", "city": "TULLY", "state": "NY", "zip": "13159-9405", "ntee": "N11", "ruling": "201610", "deductibility": "1", "assets": 0, "income": 0, "revenue": 0}, {"ein": "814265810", "name": "TULLY ARTS COUNCIL INC", "city": "TULLY", "state": "NY", "zip": "13159-0132", "ntee": "A26", "ruling": "201612", "deductibility": "1", "assets": 0, "income": 0, "revenue": 0}], "SAYASET": [{"ein": "137153241", "name": "D & N SAYASET FOUNDATION", "city": "BROOKLYN", "state": "NY", "zip": "11210-5309", "ntee": "T20Z", "ruling": "199808", "deductibility": "1", "assets": 399526, "income": 109718, "revenue": 0}], "VEHICAL": [{"ein": "141748854", "name": "CAPITAL DISTRICT RECREATION VEHICAL DEALERS ASSOCIATION INC", "city": "TROY", "state": "NY", "zip": "12180-9132", "ntee": "", "ruling": "199210", "deductibility": "2", "assets": 0, "income": 0, "revenue": 0}], "GOODS": [{"ein": "141766695", "name": "INTERNATIONAL VESSEL OPERATORS DANGEROUS GOODS ASSOCIATION INC", "city": "GLENS FALLS", "state": "NY", "zip": "12801-3624", "ntee": "", "ruling": "199505", "deductibility": "2", "assets": 138694, "income": 166849, "revenue": 123003}, {"ein": "161436931", "name": "ONE WORLD GOODS INC", "city": "ROCHESTER", "state": "NY", "zip": "14618-5513", "ntee": "Q320", "ruling": "199404", "deductibility": "1", "assets": 323289, "income": 581646, "revenue": 300498}, {"ein": "205355641", "name": "GLOBAL GOODS PARTNERS", "city": "NEW YORK", "state": "NY", "zip": "10001-4075", "ntee": "Q32", "ruling": "200708", "deductibility": "1", "assets": 459130, "income": 845283, "revenue": 414990}, {"ein": "882266997", "name": "PROJECT DAMAGED GOODS INC", "city": "TUCKAHOE", "state": "NY", "zip": "10707-4230", "ntee": "N01", "ruling": "202206", "deductibility": "1", "assets": 0, "income": 0, "revenue": 0}], "SHAWANGA": [{"ein": "146089501", "name": "SHAWANGA MOUNTAIN POST 4947 VETERANS OF FOREIGN WARS", "city": "WURTSBORO", "state": "NY", "zip": "12790-0000", "ntee": "W30", "ruling": "201601", "deductibility": "2", "assets": 0, "income": 0, "revenue": 0}], "KOT": [{"ein": "146187187", "name": "JOHN KOT CHARITABLE REMAINDER UNITR", "city": "AMSTERDAM", "state": "NY", "zip": "12010-5023", "ntee": "", "ruling": "000000", "deductibility": "0", "assets": 30042, "income": 1037, "revenue": 1037}], "RANSOMVILLE": [{"ein": "161125154", "name": "RANSOMVILLE BAPTIST CHURCH", "city": "RANSOMVILLE", "state": "NY", "zip": "14131-0000", "ntee": "", "ruling": "195504", "deductibility": "1", "assets": 0, "income": 0, "revenue": 0}, {"ein": "166032838", "name": "RANSOMVILLE FREE LIBRARY", "city": "RANSOMVILLE", "state": "NY", "zip": "14131-9768", "ntee": "", "ruling": "196602", "deductibility": "1", "assets": 526785, "income": 162432, "revenue": 159832}, {"ein": "200510501", "name": "FRIENDS OF THE RANSOMVILLE FREE LIBRARY", "city": "RANSOMVILLE", "state": "NY", "zip": "14131-9768", "ntee": "B11", "ruling": "200402", "deductibility": "1", "assets": 0, "income": 0, "revenue": 0}, {"ein": "237084187", "name": "RANSOMVILLE FREE METHODIST CHURCH", "city": "RANSOVILLE", "state": "NY", "zip": "14131-9334", "ntee": "", "ruling": "195806", "deductibility": "1", "assets": 0, "income": 0, "revenue": 0}, {"ein": "237579123", "name": "RANSOMVILLE LODGE NO 551 F & A M", "city": "LEWISTON", "state": "NY", "zip": "14092-1149", "ntee": "Y42", "ruling": "201711", "deductibility": "1", "assets": 118860, "income": 8965, "revenue": 8965}], "CASSVILLE": [{"ein": "161378429", "name": "CASSVILLE FIRE DEPARTMENT INC", "city": "CASSVILLE", "state": "NY", "zip": "13318-0371", "ntee": "", "ruling": "201106", "deductibility": "1", "assets": 0, "income": 0, "revenue": 0}, {"ein": "222517897", "name": "CASSVILLE COMMUNITY BAPTIST CHURCH", "city": "CASSVILLE", "state": "NY", "zip": "13318-0000", "ntee": "", "ruling": "198411", "deductibility": "1", "assets": 0, "income": 0, "revenue": 0}], "STEGER": [{"ein": "161468741", "name": "STEGER HOUSING DEVELOPMENT FUND COMPANY INC", "city": "ROCHESTER", "state": "NY", "zip": "14606-4309", "ntee": "", "ruling": "194603", "deductibility": "1", "assets": 741272, "income": 411398, "revenue": 411398}, {"ein": "320087740", "name": "STEGER II HOUSING DEVELOPMENT FUND COMPANY INC", "city": "SYRACUSE", "state": "NY", "zip": "13203-2879", "ntee": "L22", "ruling": "200309", "deductibility": "1", "assets": 1302537, "income": 323206, "revenue": 323206}], "WINERY": [{"ein": "161486743", "name": "SENECA LAKE WINERY ASSOCIATION INC", "city": "WATKINS GLEN", "state": "NY", "zip": "14891-0437", "ntee": "", "ruling": "199807", "deductibility": "2", "assets": 744723, "income": 537484, "revenue": 464591}], "CHAUTAUGUA": [{"ein": "161532389", "name": "BOYS AND GIRLS CLUB OF NORTHERN CHAUTAUGUA COUNTY", "city": "DUNKIRK", "state": "NY", "zip": "14048-2505", "ntee": "O23", "ruling": "199801", "deductibility": "1", "assets": 148645, "income": 415689, "revenue": 386107}, {"ein": "571212265", "name": "CATTARAUGUS CHAUTAUGUA CHAPTER OF THE N Y S HORSE COUNCIL", "city": "CASSADAGA", "state": "NY", "zip": "14718-9691", "ntee": "N193", "ruling": "200804", "deductibility": "1", "assets": 0, "income": 0, "revenue": 0}], "REVEALED": [{"ein": "161559778", "name": "FIRST LOVE CHURCH OF GOD REVEALED TRUTH INC", "city": "GENEVA", "state": "NY", "zip": "14456-1715", "ntee": "X20", "ruling": "199908", "deductibility": "1", "assets": 0, "income": 0, "revenue": 0}, {"ein": "222678489", "name": "REVEALED WORD CHRISTIAN CENTER INC", "city": "CAMBRIA HTS", "state": "NY", "zip": "11411-1851", "ntee": "", "ruling": "198702", "deductibility": "1", "assets": 0, "income": 0, "revenue": 0}, {"ein": "352306551", "name": "HIS WORD REVEALED CHURCH", "city": "GLENFORD", "state": "NY", "zip": "12433-0157", "ntee": "X20", "ruling": "200908", "deductibility": "1", "assets": 0, "income": 0, "revenue": 0}], "BLACKSTORY": [{"ein": "161566058", "name": "BLACKSTORY TELLING LEAGUE OF ROCHESTER NEW YORK", "city": "ROCHESTER", "state": "NY", "zip": "14604-0973", "ntee": "A23", "ruling": "201301", "deductibility": "1", "assets": 0, "income": 0, "revenue": 0}], "UNWANTED": [{"ein": "161573118", "name": "SANCTUARY FOR UNWANTED AND NEGLECTED ANIMALS", "city": "SILVER SPGS", "state": "NY", "zip": "14550-9727", "ntee": "D20", "ruling": "200012", "deductibility": "1", "assets": 0, "income": 0, "revenue": 0}, {"ein": "412248225", "name": "SAVING OUTLAWED AND UNWANTED LIVES", "city": "BAINBRIDGE", "state": "NY", "zip": "13733-3361", "ntee": "D99", "ruling": "201406", "deductibility": "1", "assets": 16088, "income": 52239, "revenue": 52239}, {"ein": "452431724", "name": "UNWANTED NYC PETS INC", "city": "WALDEN", "state": "NY", "zip": "12586-0000", "ntee": "D20", "ruling": "201110", "deductibility": "1", "assets": 11058, "income": 27053, "revenue": 27053}], "SHACKLES": [{"ein": "161733610", "name": "NO MORE SHACKLES HOLDING ME DOWN INTERNATIONAL", "city": "BUFFALO", "state": "NY", "zip": "14206-3261", "ntee": "X20", "ruling": "201409", "deductibility": "1", "assets": 0, "income": 0, "revenue": 0}, {"ein": "272875649", "name": "NO MORE SHACKLES WOMENS SAFE HOUSE INC", "city": "JAMAICA", "state": "NY", "zip": "11435-2931", "ntee": "P20", "ruling": "201712", "deductibility": "1", "assets": 0, "income": 0, "revenue": 0}], "DUNNE": [{"ein": "166202044", "name": "WM DUNNE TRUST FBO CHENANGO MEMORIAL HOSPITAL 07601-60-2 NATIO", "city": "NORWICH", "state": "NY", "zip": "13815-1646", "ntee": "", "ruling": "197602", "deductibility": "1", "assets": 0, "income": 0, "revenue": 0}], "CANTISANO": [{"ein": "200338384", "name": "RALPH AND ELEANOR CANTISANO FAMILY FOUNDATION", "city": "ROCHESTER", "state": "NY", "zip": "14624-1365", "ntee": "T20", "ruling": "200312", "deductibility": "1", "assets": 202595, "income": 122022, "revenue": 0}], "KNIT": [{"ein": "202246429", "name": "CARE TO KNIT INC", "city": "NORTH BABYLON", "state": "NY", "zip": "11703-1208", "ntee": "P58", "ruling": "200507", "deductibility": "1", "assets": 0, "income": 0, "revenue": 0}, {"ein": "850766917", "name": "KNIT THE RAINBOW INC", "city": "NEW YORK", "state": "NY", "zip": "10040-0458", "ntee": "P85", "ruling": "202309", "deductibility": "1", "assets": 22935, "income": 31627, "revenue": 31627}], "IMPRENDITORI": [{"ein": "205111564", "name": "CONFEDERAZIONE DEGLI IMPRENDITORI ITALIANI NEL MONDO USA", "city": "NEW YORK", "state": "NY", "zip": "10118-0000", "ntee": "S41", "ruling": "200801", "deductibility": "2", "assets": 180, "income": 0, "revenue": 0}], "RIVERTOWN": [{"ein": "205145533", "name": "RIVERTOWN FILM SOCIETY INC", "city": "NYACK", "state": "NY", "zip": "10960-3804", "ntee": "A31", "ruling": "200705", "deductibility": "1", "assets": 33908, "income": 86634, "revenue": 83876}, {"ein": "222767974", "name": "RIVERTOWN HOUSING DEVELOPMENT FUND COMPANY INC", "city": "ATHENS", "state": "NY", "zip": "12015-1000", "ntee": "L22Z", "ruling": "198701", "deductibility": "1", "assets": 1763264, "income": 392094, "revenue": 392094}, {"ein": "813574447", "name": "RIVERTOWN DANCE ACADEMY", "city": "TARRYTOWN", "state": "NY", "zip": "10591-3208", "ntee": "A6E", "ruling": "201703", "deductibility": "1", "assets": 158880, "income": 393960, "revenue": 393960}, {"ein": "932380228", "name": "RIVERTOWN PRESCHOOL PROGRAM INC", "city": "HASTINGS HDSN", "state": "NY", "zip": "10706-1602", "ntee": "P33", "ruling": "202312", "deductibility": "1", "assets": 29594, "income": 524772, "revenue": 524772}], "JUSTICEFUND": [{"ein": "205311731", "name": "NEW YORK STATE DEFENDERS JUSTICEFUND INC", "city": "ALBANY", "state": "NY", "zip": "12207-1530", "ntee": "I80", "ruling": "200609", "deductibility": "2", "assets": 0, "income": 0, "revenue": 0}], "TEBAH": [{"ein": "205430593", "name": "TEBAH EDUCATIONAL SERVICES INC", "city": "NEW YORK", "state": "NY", "zip": "10001-3304", "ntee": "X83", "ruling": "200702", "deductibility": "1", "assets": 82304, "income": 158612, "revenue": 158612}], "ADVICE": [{"ein": "205487472", "name": "CITIZENS ADVICE BUREAU PROPERTYHOLDING COMPANY INC", "city": "BRONX", "state": "NY", "zip": "10453-5842", "ntee": "S47", "ruling": "200705", "deductibility": "2", "assets": 1715646, "income": 0, "revenue": 0}, {"ein": "237125947", "name": "ANTI-DRUG VITAL INFORMATION & COMMUNICATIONS EXCHANGE ADVICE INC", "city": "WOODMERE", "state": "NY", "zip": "11598-1608", "ntee": "", "ruling": "197107", "deductibility": "1", "assets": 0, "income": 0, "revenue": 0}], "JVZ": [{"ein": "208042292", "name": "JVZ FOUNDATION", "city": "NEW YORK", "state": "NY", "zip": "10075-0000", "ntee": "T22", "ruling": "200706", "deductibility": "1", "assets": 6538079, "income": 188565, "revenue": 0}], "TRIATHLETE": [{"ein": "222554082", "name": "NEW YORK TRIATHLETE ASSOCIATION INC", "city": "CLINTONDALE", "state": "NY", "zip": "12515-5006", "ntee": "", "ruling": "198603", "deductibility": "1", "assets": 87823, "income": 197609, "revenue": 197609}], "OBJECTIVES": [{"ein": "222768668", "name": "ADVANCE DELAWARE OPPORTUNITIES OBJECTIVES INC", "city": "HAMDEN", "state": "NY", "zip": "13782-1112", "ntee": "S50Z", "ruling": "198702", "deductibility": "1", "assets": 1980702, "income": 174802, "revenue": 174802}], "BEAUTY": [{"ein": "223973154", "name": "NEW YORK HISPANIC COSMETOLOGY AND BEAUTY CHAMBER OF COMMERCE INCORPO", "city": "BRONX", "state": "NY", "zip": "10468-4640", "ntee": "S40", "ruling": "201109", "deductibility": "2", "assets": 20917, "income": 52231, "revenue": 52231}, {"ein": "262046400", "name": "REALIZE YOUR BEAUTY", "city": "NEW YORK", "state": "NY", "zip": "10005-4301", "ntee": "O50", "ruling": "201102", "deductibility": "1", "assets": 0, "income": 0, "revenue": 0}, {"ein": "263167594", "name": "BEAUTY OF THE HEART INC", "city": "ELMHURST", "state": "NY", "zip": "11373-7427", "ntee": "O01", "ruling": "201708", "deductibility": "1", "assets": 0, "income": 0, "revenue": 0}, {"ein": "334134740", "name": "FREE YOUR INNER BEAUTY", "city": "NEW YORK", "state": "NY", "zip": "10035-1855", "ntee": "P20", "ruling": "202505", "deductibility": "1", "assets": 0, "income": 0, "revenue": 0}, {"ein": "452959556", "name": "WE SEE BEAUTY FOUNDATION", "city": "MELVILLE", "state": "NY", "zip": "11747-0000", "ntee": "T23", "ruling": "201203", "deductibility": "1", "assets": 250555, "income": 9158, "revenue": 0}, {"ein": "453967935", "name": "GIVE BEAUTY WINGS INC", "city": "NEW YORK", "state": "NY", "zip": "10028-0247", "ntee": "E60", "ruling": "201807", "deductibility": "1", "assets": 35604, "income": 104124, "revenue": 0}, {"ein": "454479192", "name": "NEW YORK BEAUTY SUPPLIERS ASSOCIATION INC", "city": "BROOKLYN", "state": "NY", "zip": "11212-3913", "ntee": "S41", "ruling": "201209", "deductibility": "2", "assets": 104276, "income": 144765, "revenue": 144765}, {"ein": "472201685", "name": "BEAUTY FOR FREEDOM INC", "city": "NEW YORK", "state": "NY", "zip": "10128-5021", "ntee": "R99", "ruling": "201604", "deductibility": "1", "assets": 11524, "income": 22093, "revenue": 22093}, {"ein": "473614412", "name": "BEAUTY PLUS PLUS PLUS INC", "city": "E NORTHPORT", "state": "NY", "zip": "11731-4412", "ntee": "B30", "ruling": "201505", "deductibility": "1", "assets": 0, "income": 0, "revenue": 0}, {"ein": "812340381", "name": "BEAUTY AT THE SURFACE IN HONOR OF CAROL LEE CEPHAS INC", "city": "BROOKLYN", "state": "NY", "zip": "11238-8201", "ntee": "", "ruling": "201604", "deductibility": "1", "assets": 0, "income": 0, "revenue": 0}, {"ein": "812538035", "name": "BARBER & BEAUTY FOUNDATION INC", "city": "HEMPSTEAD", "state": "NY", "zip": "11550-0000", "ntee": "B30", "ruling": "202309", "deductibility": "1", "assets": 0, "income": 0, "revenue": 0}, {"ein": "814132606", "name": "MY BEAUTY MARK FOUNDATION INC", "city": "BRONX", "state": "NY", "zip": "10462-0000", "ntee": "E12", "ruling": "202301", "deductibility": "1", "assets": 1, "income": 0, "revenue": 0}, {"ein": "843388006", "name": "THE PROJECT BEAUTY EXPERIENCE INC", "city": "NEW YORK", "state": "NY", "zip": "10033-8769", "ntee": "A20", "ruling": "202501", "deductibility": "1", "assets": 0, "income": 0, "revenue": 0}, {"ein": "861605265", "name": "ISABELLE SCHWARTZ BEAUTY INC", "city": "NEW YORK", "state": "NY", "zip": "10001-7333", "ntee": "P58", "ruling": "202108", "deductibility": "1", "assets": 0, "income": 0, "revenue": 0}, {"ein": "861697401", "name": "DRK BEAUTY HEALING", "city": "NEW YORK", "state": "NY", "zip": "10003-0000", "ntee": "F30", "ruling": "202108", "deductibility": "1", "assets": 0, "income": 0, "revenue": 0}, {"ein": "883950289", "name": "BEAUTY COMPLEX INC", "city": "WOODSTOCK", "state": "NY", "zip": "12498-8113", "ntee": "P50", "ruling": "202210", "deductibility": "1", "assets": 0, "income": 0, "revenue": 0}, {"ein": "900835042", "name": "DIAMOND TEARZ OF BEAUTY CORPORATION", "city": "BROOKLYN", "state": "NY", "zip": "11210-6902", "ntee": "T30", "ruling": "201603", "deductibility": "1", "assets": 0, "income": 0, "revenue": 0}, {"ein": "920882911", "name": "VETERANS BEAUTY PROFESSIONALS ORGANIZATION INC", "city": "FLUSHING", "state": "NY", "zip": "11358-3032", "ntee": "T99", "ruling": "202301", "deductibility": "1", "assets": 3950, "income": 8000, "revenue": 8000}, {"ein": "991298971", "name": "VANITY BEAUTY TRAINING CENTER INC", "city": "BROOKLYN", "state": "NY", "zip": "11210-4215", "ntee": "J20", "ruling": "202402", "deductibility": "1", "assets": 0, "income": 0, "revenue": 0}, {"ein": "994388352", "name": "BEAUTY BEYOND THE PIECES INC", "city": "BROOKLYN", "state": "NY", "zip": "11209-6907", "ntee": "I70", "ruling": "202503", "deductibility": "1", "assets": 0, "income": 0, "revenue": 0}], "LENHART": [{"ein": "231861306", "name": "LAURA M LENHART TRUST", "city": "BUFFALO", "state": "NY", "zip": "14240-1504", "ntee": "T20", "ruling": "200609", "deductibility": "1", "assets": 109748, "income": 34001, "revenue": 0}, {"ein": "236768873", "name": "ADAM LENHART T W", "city": "BUFFALO", "state": "NY", "zip": "14240-1504", "ntee": "T20", "ruling": "200612", "deductibility": "1", "assets": 505308, "income": 164432, "revenue": 0}], "GRANDSTANDERS": [{"ein": "237187812", "name": "INDIAN GRANDSTANDERS OF GLENS FALLS INC", "city": "GLENS FALLS", "state": "NY", "zip": "12801-2724", "ntee": "", "ruling": "197610", "deductibility": "1", "assets": 0, "income": 0, "revenue": 0}], "SANTULLI": [{"ein": "237997212", "name": "SANTULLI FAMILY FOUNDATION", "city": "SARATOGA SPGS", "state": "NY", "zip": "12866-0471", "ntee": "T20", "ruling": "199903", "deductibility": "1", "assets": 937973, "income": 922505, "revenue": 0}], "BLANCAS": [{"ein": "261338765", "name": "BLANCAS HOUSE CORP", "city": "HUNTINGTN STA", "state": "NY", "zip": "11746-4293", "ntee": "Q99", "ruling": "200807", "deductibility": "1", "assets": 198664, "income": 59016, "revenue": 54516}], "EHLERMANN": [{"ein": "266674192", "name": "EHLERMANN-FEDDERKE DESCENDANTS FOUNDATION SCHOLARSHIP TR", "city": "DELHI", "state": "NY", "zip": "13753-1213", "ntee": "B80", "ruling": "200903", "deductibility": "1", "assets": 2445521, "income": 360150, "revenue": 0}], "HOFFBERGER": [{"ein": "273846145", "name": "HOFFBERGER FUND FOR BIBLICAL STUDIES LTD", "city": "NEW CITY", "state": "NY", "zip": "10956-5146", "ntee": "X20", "ruling": "201202", "deductibility": "1", "assets": 524734, "income": 3103657, "revenue": 3035729}], "PEACEWORKS": [{"ein": "300102398", "name": "PEACEWORKS NETWORK FOUNDATION", "city": "NEW YORK", "state": "NY", "zip": "10016-2817", "ntee": "Q20", "ruling": "200304", "deductibility": "1", "assets": 5279561, "income": 2602189, "revenue": 991155}], "ESSE": [{"ein": "311782162", "name": "ESSE AFICIONADO INC", "city": "NEW YORK", "state": "NY", "zip": "10113-1124", "ntee": "A68", "ruling": "200112", "deductibility": "1", "assets": 0, "income": 0, "revenue": 0}], "SYNCOPATED": [{"ein": "331391769", "name": "SYNCOPATED MEDIA INC", "city": "UTICA", "state": "NY", "zip": "13502-3719", "ntee": "A20", "ruling": "202410", "deductibility": "1", "assets": 0, "income": 0, "revenue": 0}], "SHIMUL": [{"ein": "331540313", "name": "PARESH & SHIMUL SHAH FOUNDATION INC", "city": "HICKSVILLE", "state": "NY", "zip": "11801-5819", "ntee": "S20", "ruling": "202501", "deductibility": "1", "assets": 0, "income": 0, "revenue": 0}], "BRATS": [{"ein": "332437420", "name": "BRIDGE HOUSE BRATS INC", "city": "PENNELLVILLE", "state": "NY", "zip": "13132-3231", "ntee": "S20", "ruling": "202501", "deductibility": "1", "assets": 0, "income": 0, "revenue": 0}], "HUM": [{"ein": "332505995", "name": "HUM FAMILY FOUNDATION INC", "city": "WOODBURY", "state": "NY", "zip": "11797-2603", "ntee": "T22", "ruling": "202501", "deductibility": "1", "assets": 0, "income": 0, "revenue": 0}], "LERIAKOS": [{"ein": "332771432", "name": "LERIAKOS SYLLOGOS OF NY INC", "city": "ROSLYN", "state": "NY", "zip": "11576-3105", "ntee": "P12", "ruling": "202501", "deductibility": "1", "assets": 0, "income": 0, "revenue": 0}], "TIFUL": [{"ein": "332882713", "name": "BE U TIFUL KREATIONS INC", "city": "JAMAICA", "state": "NY", "zip": "11434-1720", "ntee": "P20", "ruling": "202501", "deductibility": "1", "assets": 0, "income": 0, "revenue": 0}], "ATLANTIEIST": [{"ein": "452235347", "name": "THE ATLANTIEIST SUPPORT FOUNDATION", "city": "ARMONK", "state": "NY", "zip": "10504-1719", "ntee": "B122", "ruling": "201110", "deductibility": "1", "assets": 190066, "income": 180167, "revenue": 180167}], "BOUCKVILLE": [{"ein": "452716151", "name": "MADISON-BOUCKVILLE PROMOTIONS", "city": "BOUCKVILLE", "state": "NY", "zip": "13310-0126", "ntee": "A20", "ruling": "201208", "deductibility": "2", "assets": 0, "income": 0, "revenue": 0}], "LISADA": [{"ein": "453136312", "name": "M-LISADA AFRICA FOUNDATION", "city": "NEW YORK", "state": "NY", "zip": "10003-5356", "ntee": "Q33", "ruling": "201311", "deductibility": "1", "assets": 100979, "income": 164617, "revenue": 164617}], "HAULERS": [{"ein": "454570241", "name": "1000 ISLANDS HOSE HAULERS", "city": "CARTHAGE", "state": "NY", "zip": "13619-0296", "ntee": "M24", "ruling": "201503", "deductibility": "1", "assets": 0, "income": 0, "revenue": 0}, {"ein": "471651371", "name": "FAIRCHESTER HOSE HAULERS OF THE HUDSON VALLEY INC", "city": "MIDDLETOWN", "state": "NY", "zip": "10941-3227", "ntee": "A80", "ruling": "201410", "deductibility": "1", "assets": 0, "income": 0, "revenue": 0}], "BADASS": [{"ein": "461354684", "name": "BADASS ANIMAL RESCUE INC", "city": "BROOKLYN", "state": "NY", "zip": "11218-0000", "ntee": "D20", "ruling": "201312", "deductibility": "1", "assets": 267270, "income": 576027, "revenue": 546823}], "CAUTIVOS": [{"ein": "461792226", "name": "IGLESIA PENTECOSTAL ELOHIM PUBICANDO LIBERTAD A LOS CAUTIVOS", "city": "NIAGARA FALLS", "state": "NY", "zip": "14305-2470", "ntee": "X99", "ruling": "201408", "deductibility": "1", "assets": 0, "income": 0, "revenue": 0}], "ROANCHAR": [{"ein": "462065337", "name": "ROANCHAR RANCH DRAFT HORSE RESCUE", "city": "VARYSBURG", "state": "NY", "zip": "14167-9723", "ntee": "D99", "ruling": "201407", "deductibility": "1", "assets": 59181, "income": 55726, "revenue": 55726}], "DEAR": [{"ein": "462787813", "name": "DEAR TAYRIN INC", "city": "WILLIAMSVILLE", "state": "NY", "zip": "14221-2420", "ntee": "R99", "ruling": "201606", "deductibility": "1", "assets": 0, "income": 0, "revenue": 0}, {"ein": "812909627", "name": "DEAR BLACK GIRL INCORPORATED", "city": "BRONX", "state": "NY", "zip": "10457-3312", "ntee": "O50", "ruling": "201705", "deductibility": "1", "assets": 8474, "income": 184756, "revenue": 184756}, {"ein": "813414414", "name": "NO DEAR INC", "city": "BROOKLYN", "state": "NY", "zip": "11211-2476", "ntee": "B99", "ruling": "201609", "deductibility": "1", "assets": 0, "income": 0, "revenue": 0}], "HOMEOWNER": [{"ein": "463083026", "name": "CLEVELAND ESTATES HOMEOWNER ASSOCIATION INC", "city": "ITHACA", "state": "NY", "zip": "14850-2922", "ntee": "P20", "ruling": "201809", "deductibility": "2", "assets": 2457, "income": 29400, "revenue": 29400}, {"ein": "475172300", "name": "NATIONAL HOMEOWNER-LANDLORD ASSOCIATION INC", "city": "BRONX", "state": "NY", "zip": "10461-0000", "ntee": "S41", "ruling": "201610", "deductibility": "2", "assets": 23523, "income": 21761, "revenue": 21761}], "HEEB": [{"ein": "463338815", "name": "HEEB MEDIA INC", "city": "NEW YORK", "state": "NY", "zip": "10040-0058", "ntee": "E70", "ruling": "201408", "deductibility": "1", "assets": 1000, "income": 0, "revenue": 0}], "ADS": [{"ein": "464385040", "name": "HONEST ADS INC", "city": "NEW YORK", "state": "NY", "zip": "10110-0000", "ntee": "R40", "ruling": "201409", "deductibility": "1", "assets": 27931, "income": 54500, "revenue": 54500}], "WINDING": [{"ein": "465048570", "name": "WINDING ROSE FOUNDATION", "city": "NEW YORK", "state": "NY", "zip": "10024-3005", "ntee": "", "ruling": "201410", "deductibility": "1", "assets": 3521201, "income": 747071, "revenue": 0}], "AVRIL": [{"ein": "465074297", "name": "CLIFF AVRIL FAMILY FOUNDATION INC", "city": "NEW YORK", "state": "NY", "zip": "10036-0000", "ntee": "O50", "ruling": "201512", "deductibility": "1", "assets": 455679, "income": 351214, "revenue": 351214}], "TWAL": [{"ein": "465102907", "name": "BO TWAL INC", "city": "STONY BROOK", "state": "NY", "zip": "11790-1523", "ntee": "Q32", "ruling": "201410", "deductibility": "1", "assets": 0, "income": 0, "revenue": 0}], "KYRGYZ": [{"ein": "471175920", "name": "KYRGYZ CHURCH OF JESUS CHRIST INC", "city": "BROOKLYN", "state": "NY", "zip": "11229-1249", "ntee": "X21", "ruling": "201412", "deductibility": "1", "assets": 1, "income": 0, "revenue": 0}, {"ein": "813249842", "name": "KYRGYZ AMERICAN FOUNDATION INC", "city": "BROOKLYN", "state": "NY", "zip": "11204-6457", "ntee": "A23", "ruling": "201706", "deductibility": "1", "assets": 0, "income": 0, "revenue": 0}], "URBANIZATION": [{"ein": "471452643", "name": "CONSORTIUM FOR SUSTAINABLE URBANIZATION INC", "city": "NEW YORK", "state": "NY", "zip": "10003-1502", "ntee": "B90", "ruling": "201503", "deductibility": "1", "assets": 71233, "income": 108569, "revenue": 72254}], "SPEROWAY": [{"ein": "471700484", "name": "SPEROWAY INC", "city": "CLARENCE", "state": "NY", "zip": "14031-1624", "ntee": "B24", "ruling": "201808", "deductibility": "1", "assets": 125558, "income": 194525, "revenue": 194525}], "BAIT": [{"ein": "474586458", "name": "BAIT-UL JAMAAT HOUSE OF COMMUNITY", "city": "STATEN ISLAND", "state": "NY", "zip": "10314-1400", "ntee": "P20", "ruling": "201607", "deductibility": "1", "assets": 1, "income": 95274, "revenue": 95274}, {"ein": "920673803", "name": "AMERICAN FRIENDS OF BAIT YEHUDA", "city": "NEW YORK", "state": "NY", "zip": "10002-4282", "ntee": "B12", "ruling": "202211", "deductibility": "1", "assets": 0, "income": 0, "revenue": 0}, {"ein": "934395197", "name": "CONG BAIT LECHINUCH", "city": "AIRMONT", "state": "NY", "zip": "10952-4520", "ntee": "X30", "ruling": "202312", "deductibility": "1", "assets": 0, "income": 0, "revenue": 0}], "REDWOOD": [{"ein": "510534701", "name": "REDWOOD HISTORICAL SOCIETY", "city": "REDWOOD", "state": "NY", "zip": "13679-0663", "ntee": "A80", "ruling": "200508", "deductibility": "1", "assets": 0, "income": 0, "revenue": 0}, {"ein": "992186915", "name": "CARTER REDWOOD FOUNDATION", "city": "NEW YORK", "state": "NY", "zip": "10005-0000", "ntee": "T22", "ruling": "202502", "deductibility": "1", "assets": 1, "income": 1, "revenue": 0}], "DREXLER": [{"ein": "522106490", "name": "THE PEGGY AND MILLARD DREXLER FOUNDATION", "city": "NEW YORK", "state": "NY", "zip": "10065-6126", "ntee": "T20Z", "ruling": "199809", "deductibility": "1", "assets": 7136699, "income": 1238000, "revenue": 0}], "ESFORZADOS": [{"ein": "593816732", "name": "WOODSIDE VALIENTES Y ESFORZADOS", "city": "WOODSIDE", "state": "NY", "zip": "11377-3672", "ntee": "", "ruling": "196307", "deductibility": "1", "assets": 0, "income": 0, "revenue": 0}], "ZISES": [{"ein": "616290003", "name": "SUSAN ZISES GREEN FAM CHARITABLE TR", "city": "NEW YORK", "state": "NY", "zip": "10016-4129", "ntee": "T22", "ruling": "200210", "deductibility": "1", "assets": 27, "income": 803, "revenue": 0}], "MACHNA": [{"ein": "721563379", "name": "CONGREGATION MACHNA SHALVA", "city": "BROOKLYN", "state": "NY", "zip": "11219-1604", "ntee": "X30", "ruling": "200307", "deductibility": "1", "assets": 0, "income": 0, "revenue": 0}, {"ein": "812862850", "name": "MACHNA BOBOV 45 INC", "city": "BROOKLYN", "state": "NY", "zip": "11204-1205", "ntee": "X30", "ruling": "201607", "deductibility": "1", "assets": 0, "income": 0, "revenue": 0}], "HARESHBI": [{"ein": "753002267", "name": "MEOR HARESHBI", "city": "BROOKLYN", "state": "NY", "zip": "11205-0226", "ntee": "X30", "ruling": "200205", "deductibility": "1", "assets": 0, "income": 0, "revenue": 0}], "PLEASANTDALE": [{"ein": "800268065", "name": "PLEASANTDALE COMMUNITY CHURCH-TROY NY", "city": "TROY", "state": "NY", "zip": "12182-1423", "ntee": "", "ruling": "197507", "deductibility": "1", "assets": 0, "income": 0, "revenue": 0}], "CPM": [{"ein": "800730007", "name": "CPM OF THE ADIRONDACKS", "city": "GLENS FALLS", "state": "NY", "zip": "12801-0181", "ntee": "X21", "ruling": "201207", "deductibility": "1", "assets": 11488, "income": 61765, "revenue": 61765}], "LAPA": [{"ein": "810913866", "name": "LAPA FAMILY FOUNDATION INC", "city": "SUFFERN", "state": "NY", "zip": "10901-3239", "ntee": "T22", "ruling": "202005", "deductibility": "1", "assets": 20887, "income": 442193, "revenue": 0}], "INDIXIA": [{"ein": "813255816", "name": "INDIXIA FRIENDS OF ARTS FOR INDIA INC", "city": "NEW YORK", "state": "NY", "zip": "10016-0000", "ntee": "A20", "ruling": "201705", "deductibility": "1", "assets": 1, "income": 0, "revenue": 0}], "PITY": [{"ein": "813277101", "name": "ROMAN CATHOLIC CHURCH OF OUR LADY OF PITY AND SAINT ANTHONY OF PADUA", "city": "STATEN ISLAND", "state": "NY", "zip": "10314-1529", "ntee": "", "ruling": "194603", "deductibility": "1", "assets": 0, "income": 0, "revenue": 0}], "SOLIS": [{"ein": "815179475", "name": "SOLIS JUSTITIA PROJECT INC", "city": "NEW YORK", "state": "NY", "zip": "10005-0000", "ntee": "I80", "ruling": "201806", "deductibility": "1", "assets": 0, "income": 0, "revenue": 0}], "YUKON": [{"ein": "820868972", "name": "YUKON CREEK SPORTSMENS CAMP INC", "city": "WEST SENECA", "state": "NY", "zip": "14224-0410", "ntee": "T23", "ruling": "201812", "deductibility": "1", "assets": 805669, "income": 259231, "revenue": 0}], "BEINISH": [{"ein": "821464425", "name": "TZIDKUS AVROHOM BEINISH INC", "city": "WOODMERE", "state": "NY", "zip": "11598-5021", "ntee": "T30", "ruling": "201808", "deductibility": "1", "assets": 244307, "income": 625198, "revenue": 625198}, {"ein": "991109936", "name": "TZIDKAS AVRAHAM BEINISH", "city": "WOODMERE", "state": "NY", "zip": "11598-5021", "ntee": "X30", "ruling": "202408", "deductibility": "1", "assets": 0, "income": 0, "revenue": 0}], "ADEROJU": [{"ein": "823268898", "name": "JEREMIAH & FELICIA ADEROJU FOUNDATION INC", "city": "BROOKLYN", "state": "NY", "zip": "11236-4915", "ntee": "P20", "ruling": "202009", "deductibility": "1", "assets": 0, "income": 0, "revenue": 0}], "INSITA": [{"ein": "823716495", "name": "INSITA GROUP LTD", "city": "MILLERTON", "state": "NY", "zip": "12546-0649", "ntee": "T20", "ruling": "201903", "deductibility": "1", "assets": 21885546, "income": 12067694, "revenue": 0}], "KOREVOICES": [{"ein": "823923704", "name": "KOREVOICES INC", "city": "NEW YORK", "state": "NY", "zip": "10023-7532", "ntee": "P20", "ruling": "201806", "deductibility": "1", "assets": 0, "income": 0, "revenue": 0}], "MASCULINITY": [{"ein": "833981830", "name": "FORM FOCUSED OPERATION REDEFINE MASCULINITY NYC", "city": "BROOKLYN", "state": "NY", "zip": "11226-2270", "ntee": "P20", "ruling": "202006", "deductibility": "1", "assets": 0, "income": 0, "revenue": 0}], "NIKOLA": [{"ein": "843431046", "name": "BUFFALO NIAGARA NIKOLA TESLA COUNCIL INC", "city": "WILLIAMSVILLE", "state": "NY", "zip": "14221-1855", "ntee": "B99", "ruling": "202001", "deductibility": "1", "assets": 48630, "income": 0, "revenue": 0}], "ZUPON": [{"ein": "844002415", "name": "ZUPON FAMILY FOUNDATION", "city": "LARCHMONT", "state": "NY", "zip": "10538-3808", "ntee": "T22", "ruling": "202006", "deductibility": "1", "assets": 4606625, "income": 782759, "revenue": 0}], "SLAMMERS": [{"ein": "844803793", "name": "LI SLAMMERS", "city": "NEW YORK", "state": "NY", "zip": "10016-5011", "ntee": "N64", "ruling": "202007", "deductibility": "1", "assets": 197398, "income": 1604476, "revenue": 1604476}], "EXHIBITIONS": [{"ein": "850652618", "name": "BEVERLY S EXHIBITIONS CORP", "city": "NEW YORK", "state": "NY", "zip": "10038-1228", "ntee": "A20", "ruling": "202201", "deductibility": "1", "assets": 23685, "income": 96523, "revenue": 96523}], "PS20M": [{"ein": "853744181", "name": "PS20M PTA INC", "city": "NEW YORK", "state": "NY", "zip": "10002-1502", "ntee": "B94", "ruling": "202105", "deductibility": "1", "assets": 69425, "income": 38227, "revenue": 36062}], "SONREIR": [{"ein": "854294186", "name": "FUNDACION ALCANZANDO METAS PARA SONREIR EN SALUD FAMS INC", "city": "BRONX", "state": "NY", "zip": "10457-8416", "ntee": "A01", "ruling": "202103", "deductibility": "1", "assets": 0, "income": 0, "revenue": 0}], "RAHOB": [{"ein": "860923861", "name": "RAHOB DEVELOPMENT PROJECT", "city": "PETERSBURG", "state": "NY", "zip": "12138-4500", "ntee": "X20", "ruling": "199902", "deductibility": "1", "assets": 14952, "income": 30085, "revenue": 30085}], "ESTRADA": [{"ein": "861216408", "name": "SONIA SANOJA - ALFREDO SILVA ESTRADA FOUNDATION INC", "city": "ASTORIA", "state": "NY", "zip": "11102-2990", "ntee": "A20", "ruling": "202109", "deductibility": "1", "assets": 0, "income": 0, "revenue": 0}], "LINS": [{"ein": "861288629", "name": "LINS TEMPLE CORPORATION", "city": "NEW YORK", "state": "NY", "zip": "10002-2316", "ntee": "X50", "ruling": "202111", "deductibility": "1", "assets": 7836650, "income": 437757, "revenue": 437757}], "CAPELLA": [{"ein": "861662823", "name": "ASOCIACION INTERNACIONAL DE CAPELLA NES ESCOGIDOS PARA SERVIR INC", "city": "ROCHESTER", "state": "NY", "zip": "14615-2346", "ntee": "K30", "ruling": "202402", "deductibility": "1", "assets": 0, "income": 0, "revenue": 0}], "SERENDIB": [{"ein": "862281181", "name": "SERENDIB INC", "city": "RYE", "state": "NY", "zip": "10580-1956", "ntee": "Q33", "ruling": "202107", "deductibility": "1", "assets": 0, "income": 0, "revenue": 0}], "NETTWORK": [{"ein": "863260336", "name": "NETTWORK INC", "city": "QUEENS", "state": "NY", "zip": "11434-1115", "ntee": "O50", "ruling": "202110", "deductibility": "1", "assets": 0, "income": 0, "revenue": 0}], "SILL": [{"ein": "863424972", "name": "GREG W SILL FOUNDATION CORP", "city": "LAKE GROVE", "state": "NY", "zip": "11755-1650", "ntee": "N12", "ruling": "202203", "deductibility": "1", "assets": 128883, "income": 81075, "revenue": 46552}], "FORMING": [{"ein": "863433409", "name": "FORMING FUTURES INC", "city": "NEW YORK", "state": "NY", "zip": "10038-3703", "ntee": "P20", "ruling": "202108", "deductibility": "1", "assets": 0, "income": 0, "revenue": 0}], "EKOLI": [{"ein": "871266226", "name": "EKOLI EDDA DIASPORA COMMUNITY INC", "city": "HEWLETT", "state": "NY", "zip": "11557-2715", "ntee": "A23", "ruling": "202109", "deductibility": "1", "assets": 0, "income": 0, "revenue": 0}], "BYAD": [{"ein": "871646165", "name": "CONGREGATION YAD BYAD INC", "city": "BROOKLYN", "state": "NY", "zip": "11219-2102", "ntee": "X30", "ruling": "202205", "deductibility": "1", "assets": 0, "income": 0, "revenue": 0}], "EBER": [{"ein": "874111060", "name": "ACADEMY OF SHEM & EBER INC", "city": "CEDARHURST", "state": "NY", "zip": "11516-1629", "ntee": "P20", "ruling": "202202", "deductibility": "1", "assets": 0, "income": 0, "revenue": 0}], "JOHANNAS": [{"ein": "874555527", "name": "JOHANNAS HOPE INC", "city": "RIVERHEAD", "state": "NY", "zip": "11901-5305", "ntee": "P99", "ruling": "202204", "deductibility": "1", "assets": 7415, "income": 8499, "revenue": 8499}], "ANGIE": [{"ein": "884244073", "name": "ANGIE MITCHELL CARES", "city": "YONKERS", "state": "NY", "zip": "10704-3656", "ntee": "G30", "ruling": "202304", "deductibility": "1", "assets": 0, "income": 0, "revenue": 0}], "MARIAMS": [{"ein": "921392490", "name": "BLUE BRUNCH BY MARIAMS CAFE INC", "city": "FARMINGDALE", "state": "NY", "zip": "11735-0000", "ntee": "P82", "ruling": "202301", "deductibility": "1", "assets": 0, "income": 0, "revenue": 0}], "BISHTINA": [{"ein": "922021817", "name": "AMERICAN FRIENDS OF BISHTINA INC", "city": "BROOKLYN", "state": "NY", "zip": "11204-1482", "ntee": "A82", "ruling": "202305", "deductibility": "1", "assets": 0, "income": 0, "revenue": 0}], "PANCAKES": [{"ein": "922722339", "name": "HOUSE OF PANCAKES REPTILE RESCUE INC", "city": "POUGHKEEPSIE", "state": "NY", "zip": "12601-2139", "ntee": "D60", "ruling": "202305", "deductibility": "1", "assets": 0, "income": 0, "revenue": 0}, {"ein": "934753263", "name": "PANCAKES FOR ROGER INC", "city": "NEW YORK", "state": "NY", "zip": "10001-7607", "ntee": "W30", "ruling": "202401", "deductibility": "1", "assets": 0, "income": 0, "revenue": 0}], "TESLOPOLIS": [{"ein": "923766764", "name": "TESLOPOLIS", "city": "NIAGARA FALLS", "state": "NY", "zip": "14303-1848", "ntee": "A99", "ruling": "202309", "deductibility": "1", "assets": 0, "income": 0, "revenue": 0}], "PRORELIEF": [{"ein": "934446889", "name": "PRORELIEF FOUNDATION", "city": "AMHERST", "state": "NY", "zip": "14221-3892", "ntee": "P01", "ruling": "202402", "deductibility": "1", "assets": 0, "income": 0, "revenue": 0}], "DVRM1510": [{"ein": "934973394", "name": "DVRM1510 INC", "city": "MONSEY", "state": "NY", "zip": "10952-1447", "ntee": "A12", "ruling": "202506", "deductibility": "1", "assets": 400000, "income": 400000, "revenue": 0}], "UHBU": [{"ein": "992024065", "name": "UHBU INC", "city": "NEW YORK", "state": "NY", "zip": "10022-6131", "ntee": "T20", "ruling": "202404", "deductibility": "1", "assets": 0, "income": 0, "revenue": 0}], "PINEAPPLE": [{"ein": "992164385", "name": "PINEAPPLE RIDE", "city": "BROOKLYN", "state": "NY", "zip": "11214-6448", "ntee": "W99", "ruling": "202409", "deductibility": "1", "assets": 0, "income": 0, "revenue": 0}, {"ein": "993158367", "name": "PINEAPPLE SISTAS INC", "city": "SARATOGA SPGS", "state": "NY", "zip": "12866-9635", "ntee": "W99", "ruling": "202406", "deductibility": "1", "assets": 0, "income": 0, "revenue": 0}], "ABRAXAS": [{"ein": "995130582", "name": "ABRAXAS FOUNDATION INC", "city": "BRONX", "state": "NY", "zip": "10462-1464", "ntee": "L99", "ruling": "202506", "deductibility": "1", "assets": 0, "income": 0, "revenue": 0}]}