{"FINGER": [{"ein": "010561195", "name": "FINGER LAKES BRONZE INC", "city": "NEWARK", "state": "NY", "zip": "14513-1701", "ntee": "A68", "ruling": "200203", "deductibility": "1", "assets": 0, "income": 0, "revenue": 0}, {"ein": "043631445", "name": "FINGER LAKES ALLERGY SOCIETY INC", "city": "ROCHESTER", "state": "NY", "zip": "14623-2928", "ntee": "G039", "ruling": "200208", "deductibility": "1", "assets": 0, "income": 0, "revenue": 0}, {"ein": "113027057", "name": "FAMILY SERVICE RESOURCES OF THE FINGER LAKES INC", "city": "GENEVA", "state": "NY", "zip": "14456-3414", "ntee": "", "ruling": "199302", "deductibility": "2", "assets": 697049, "income": 79305, "revenue": 79305}, {"ein": "150479696", "name": "VETERANS OF FOREIGN WARS OF THE US DEPT OF NY 961 FINGER LAKES", "city": "ITHACA", "state": "NY", "zip": "14850-5219", "ntee": "", "ruling": "197210", "deductibility": "1", "assets": 430460, "income": 516012, "revenue": 103691}, {"ein": "150532256", "name": "FINGER LAKES SPCA OF CENTRAL NEW YORK", "city": "AUBURN", "state": "NY", "zip": "13021-1133", "ntee": "D200", "ruling": "194506", "deductibility": "1", "assets": 2008924, "income": 804034, "revenue": 700116}, {"ein": "150549310", "name": "FINGER LAKES HEALTH FOUNDATION INC", "city": "GENEVA", "state": "NY", "zip": "14456-1651", "ntee": "E120", "ruling": "199409", "deductibility": "1", "assets": 41646993, "income": 7035517, "revenue": 7034460}, {"ein": "150613223", "name": "FINGER LAKES LIBRARY SYSTEMS", "city": "ITHACA", "state": "NY", "zip": "14850-8734", "ntee": "B71C", "ruling": "198003", "deductibility": "1", "assets": 4465089, "income": 2163285, "revenue": 2163285}, {"ein": "160446878", "name": "FINGER LAKES AREA CHAMBER OF COMMERCE INC", "city": "GENEVA", "state": "NY", "zip": "14456-0587", "ntee": "", "ruling": "199312", "deductibility": "2", "assets": 113005, "income": 205858, "revenue": 192265}, {"ein": "160531520", "name": "FINGER LAKE LODGE NO 823 LOYAL ORDER OF MOOSE", "city": "WATERLOO", "state": "NY", "zip": "13165-1200", "ntee": "", "ruling": "194005", "deductibility": "1", "assets": 1109047, "income": 204153, "revenue": 204153}, {"ein": "160757972", "name": "FINGER LAKES ASSOCIATION INC", "city": "PENN YAN", "state": "NY", "zip": "14527-0016", "ntee": "", "ruling": "194007", "deductibility": "2", "assets": 278928, "income": 478736, "revenue": 478736}, {"ein": "160772023", "name": "FINGER LAKES SPCA INC", "city": "BATH", "state": "NY", "zip": "14810-1451", "ntee": "D20", "ruling": "195910", "deductibility": "1", "assets": 2317281, "income": 972087, "revenue": 972087}, {"ein": "160841703", "name": "FINGER LAKES NY CHAPTER NECA", "city": "LIVERPOOL", "state": "NY", "zip": "13088-5301", "ntee": "", "ruling": "195806", "deductibility": "2", "assets": 2571801, "income": 1069758, "revenue": 1069758}, {"ein": "160842436", "name": "FINGER LAKES REGIONAL TOURISM COUNCIL INC", "city": "PITTSFORD", "state": "NY", "zip": "14534-9011", "ntee": "", "ruling": "195911", "deductibility": "1", "assets": 534825, "income": 1131808, "revenue": 1131808}, {"ein": "160864789", "name": "FAMILY COUNSELING SERVICE OF THE FINGER LAKES INC", "city": "GENEVA", "state": "NY", "zip": "14456-3414", "ntee": "P46Z", "ruling": "196910", "deductibility": "1", "assets": 2507684, "income": 6586216, "revenue": 6575051}, {"ein": "160965912", "name": "FINGER LAKES UNITED CEREBRAL PALSY INC", "city": "GENEVA", "state": "NY", "zip": "14456-1335", "ntee": "G23Z", "ruling": "197107", "deductibility": "1", "assets": 12124185, "income": 15002603, "revenue": 15002603}, {"ein": "160999315", "name": "THE ARTS COUNCIL OF THE SOUTHERN FINGER LAKES INC", "city": "CORNING", "state": "NY", "zip": "14830-2526", "ntee": "A26Z", "ruling": "197301", "deductibility": "1", "assets": 2835345, "income": 1505490, "revenue": 1479509}, {"ein": "161013292", "name": "FINGER LAKES AREA COUNSELING AND RECOVERY AGENCY INC", "city": "CLIFTON SPRINGS", "state": "NY", "zip": "14432-1231", "ntee": "", "ruling": "197701", "deductibility": "1", "assets": 17265257, "income": 35479633, "revenue": 35479633}, {"ein": "161015782", "name": "UNITED WAY OF GREATER ROCHESTER AND THE FINGER LAKES INC", "city": "ROCHESTER", "state": "NY", "zip": "14607-1009", "ntee": "T700", "ruling": "198703", "deductibility": "1", "assets": 183199138, "income": 42272534, "revenue": 34619652}, {"ein": "161053661", "name": "FINGER LAKES BMW CLUB INC", "city": "CANANDAIGUA", "state": "NY", "zip": "14424-0035", "ntee": "", "ruling": "197605", "deductibility": "2", "assets": 0, "income": 0, "revenue": 0}, {"ein": "161061456", "name": "FINGER LAKES HEALTH SYSTEMS AGENCY", "city": "MOUNT MORRIS", "state": "NY", "zip": "14510-0160", "ntee": "E21Z", "ruling": "197701", "deductibility": "1", "assets": 3833579, "income": 6616081, "revenue": 5452849}, {"ein": "161082783", "name": "FINGER LAKE CREMATORY INC", "city": "LIVONIA", "state": "NY", "zip": "14487-9609", "ntee": "", "ruling": "198211", "deductibility": "1", "assets": 952342, "income": 454914, "revenue": 454914}, {"ein": "161100837", "name": "COMMUNITY FOUNDATION OF ELMIRA CORNING AND THE FINGER LAKES", "city": "HORSEHEADS", "state": "NY", "zip": "14845-2451", "ntee": "T31", "ruling": "197711", "deductibility": "1", "assets": 76020987, "income": 40086792, "revenue": 12580282}, {"ein": "161105318", "name": "FINGER LAKE CHAP NO 41 WOMEN OF THE MOOSE", "city": "WATERLOO", "state": "NY", "zip": "13165-1200", "ntee": "", "ruling": "194005", "deductibility": "1", "assets": 0, "income": 0, "revenue": 0}, {"ein": "161117144", "name": "ISLAMIC ASSOCIATION OF THE FINGER LAKES", "city": "HORSEHEADS", "state": "NY", "zip": "14845-1313", "ntee": "", "ruling": "197912", "deductibility": "1", "assets": 0, "income": 0, "revenue": 0}, {"ein": "161169037", "name": "FINGER LAKES BUILDING OFFICIALS ASSOCIATION", "city": "PENFIELD", "state": "NY", "zip": "14526-9722", "ntee": "B99", "ruling": "201307", "deductibility": "1", "assets": 213369, "income": 129090, "revenue": 129090}, {"ein": "161208385", "name": "VICTIM RESOURCE CENTER OF THE FINGER LAKES INC", "city": "NEWARK", "state": "NY", "zip": "14513-1377", "ntee": "P620", "ruling": "199101", "deductibility": "1", "assets": 1160261, "income": 1230603, "revenue": 1230603}, {"ein": "161214122", "name": "GENESEO FINGER LAKES YOUTH HOCKEY INC", "city": "GENESEO", "state": "NY", "zip": "14454-0461", "ntee": "", "ruling": "199502", "deductibility": "2", "assets": 130766, "income": 127237, "revenue": 127237}, {"ein": "161285691", "name": "FINGER LAKES REGIONAL EMERGENCY MEDICAL SERVICES COUNCIL INC", "city": "GENEVA", "state": "NY", "zip": "14456-2307", "ntee": "", "ruling": "198804", "deductibility": "1", "assets": 515818, "income": 528236, "revenue": 528236}, {"ein": "161298809", "name": "FINGER LAKES REGION LIONS HEARING FOUNDATION INC", "city": "UNION SPRINGS", "state": "NY", "zip": "13160-0200", "ntee": "", "ruling": "198712", "deductibility": "1", "assets": 0, "income": 0, "revenue": 0}, {"ein": "161303705", "name": "CRISIS PREGNANCY CENTERS OF THE FINGER LAKES INC", "city": "ITHACA", "state": "NY", "zip": "14850-5422", "ntee": "E400", "ruling": "199206", "deductibility": "1", "assets": 595203, "income": 484724, "revenue": 476873}, {"ein": "161330345", "name": "FINGER LAKES INDEPENDENCE CENTER", "city": "ITHACA", "state": "NY", "zip": "14850-3403", "ntee": "P82", "ruling": "199208", "deductibility": "1", "assets": 5916432, "income": 7494082, "revenue": 7406368}, {"ein": "161408059", "name": "ROCHESTER FINGER LAKES FILM & VIDEO OFFICE INC", "city": "ROCHESTER", "state": "NY", "zip": "14604-2225", "ntee": "A31Z", "ruling": "199405", "deductibility": "1", "assets": 50044, "income": 207828, "revenue": 207828}, {"ein": "161411913", "name": "FINGER LAKES GRASSROOTS FESTIVAL ORGANIZATION INC", "city": "TRUMANSBURG", "state": "NY", "zip": "14886-0941", "ntee": "T20J", "ruling": "199609", "deductibility": "1", "assets": 1538340, "income": 1977527, "revenue": 1921047}, {"ein": "161438998", "name": "FINGER LAKES BED AND BREAKFAST ASSOCIATION INC", "city": "CANANDAIGUA", "state": "NY", "zip": "14424-1226", "ntee": "", "ruling": "199408", "deductibility": "2", "assets": 0, "income": 0, "revenue": 0}, {"ein": "161448361", "name": "FINGER LAKES YOUTH SPORTS INC", "city": "GENEVA", "state": "NY", "zip": "14456-0110", "ntee": "B90", "ruling": "199410", "deductibility": "1", "assets": 0, "income": 0, "revenue": 0}, {"ein": "161450281", "name": "FINGER LAKES REGIONAL TOURISM DEVELOPMENT CORPORATION", "city": "PENN YAN", "state": "NY", "zip": "14527-0016", "ntee": "", "ruling": "199409", "deductibility": "2", "assets": 1, "income": 0, "revenue": 0}, {"ein": "161453042", "name": "CANCER RESOURCE CENTER OF THE FINGER LAKES", "city": "ITHACA", "state": "NY", "zip": "14850-1589", "ntee": "G30", "ruling": "199408", "deductibility": "1", "assets": 592165, "income": 480907, "revenue": 459404}, {"ein": "161467675", "name": "FINGER LAKES AREA COMMUNITY ENDOWMENT", "city": "CANANDAIGUA", "state": "NY", "zip": "14424-1905", "ntee": "T30", "ruling": "199411", "deductibility": "1", "assets": 20327058, "income": 8713717, "revenue": 4562384}, {"ein": "161489133", "name": "FINGER LAKES HOME CARE INC", "city": "GENEVA", "state": "NY", "zip": "14456-1336", "ntee": "E92", "ruling": "199608", "deductibility": "1", "assets": 446701, "income": 261512, "revenue": 261512}, {"ein": "161505097", "name": "MONTESSORI SCHOOL OF THE FINGER LAKES", "city": "AUBURN", "state": "NY", "zip": "13021-8788", "ntee": "B21P", "ruling": "199611", "deductibility": "1", "assets": 307698, "income": 321030, "revenue": 321030}, {"ein": "161527103", "name": "FINGER LAKES YOUTH FOOTBALL CHEERLEADING LEAGUE INC", "city": "CLIFTON SPGS", "state": "NY", "zip": "14432-0022", "ntee": "N65", "ruling": "201208", "deductibility": "1", "assets": 0, "income": 0, "revenue": 0}, {"ein": "161529743", "name": "FINGER LAKES MENNONITE CHURCH", "city": "AUBURN", "state": "NY", "zip": "13021-9718", "ntee": "", "ruling": "196901", "deductibility": "1", "assets": 0, "income": 0, "revenue": 0}, {"ein": "161530944", "name": "FINGER LAKES CHRISTIAN SCHOOL", "city": "MORAVIA", "state": "NY", "zip": "13118-2323", "ntee": "", "ruling": "196901", "deductibility": "1", "assets": 0, "income": 0, "revenue": 0}, {"ein": "161542277", "name": "FINGER LAKES BOATING MUSEUM", "city": "HAMMONDSPORT", "state": "NY", "zip": "14840-0575", "ntee": "A50", "ruling": "200010", "deductibility": "1", "assets": 1917810, "income": 575588, "revenue": 560457}, {"ein": "161543469", "name": "FINGER LAKES REGION PCA INC", "city": "PITTSFORD", "state": "NY", "zip": "14534-9740", "ntee": "N50", "ruling": "200907", "deductibility": "2", "assets": 0, "income": 0, "revenue": 0}, {"ein": "161544714", "name": "FINGER LAKES FINNS", "city": "NEWFIELD", "state": "NY", "zip": "14867-0072", "ntee": "B82", "ruling": "200612", "deductibility": "1", "assets": 0, "income": 0, "revenue": 0}, {"ein": "161556026", "name": "THE FINGER LAKES NATIVE PLANT SOCIETY", "city": "ITHACA", "state": "NY", "zip": "14850-1422", "ntee": "C30", "ruling": "201407", "deductibility": "1", "assets": 0, "income": 0, "revenue": 0}, {"ein": "161561999", "name": "FINGER LAKES COMMUNITY DEVELOPMENT CORPORATION", "city": "GENEVA", "state": "NY", "zip": "14456-0000", "ntee": "L20", "ruling": "199908", "deductibility": "1", "assets": 2716165, "income": 736471, "revenue": 736471}, {"ein": "161568230", "name": "FINGER LAKES LIVE STEAMERS INC", "city": "PALMYRA", "state": "NY", "zip": "14522-0141", "ntee": "N99", "ruling": "202501", "deductibility": "1", "assets": 357523, "income": 28900, "revenue": 26565}, {"ein": "161574195", "name": "FINGER LAKES COMMUNITY COLLEGE STUDENT CORPORATION", "city": "CANANDAIGUA", "state": "NY", "zip": "14424-8405", "ntee": "B80", "ruling": "201305", "deductibility": "1", "assets": 542486, "income": 349123, "revenue": 349123}, {"ein": "161580970", "name": "FRIENDLY SONS & DAUGHTERS OF ST PATRICK OF THE FINGER LAKES REGION", "city": "ROCHESTER", "state": "NY", "zip": "14625-0000", "ntee": "A84", "ruling": "200004", "deductibility": "1", "assets": 5020, "income": 0, "revenue": 0}, {"ein": "161581104", "name": "FINGER LAKES MIGRANT HEALTH CARE PROJECT INC", "city": "PENN YAN", "state": "NY", "zip": "14527-1208", "ntee": "E70", "ruling": "200004", "deductibility": "1", "assets": 24535028, "income": 31322742, "revenue": 31322742}, {"ein": "161608787", "name": "FINGER LAKES ARTS GRANTS AND SERVICES INC", "city": "AUBURN", "state": "NY", "zip": "13021-1808", "ntee": "", "ruling": "200112", "deductibility": "1", "assets": 0, "income": 0, "revenue": 0}, {"ein": "161759140", "name": "FINGER LAKES THOROUGHBRED ADOPTION PROGRAM INC", "city": "FARMINGTON", "state": "NY", "zip": "14425-0043", "ntee": "D20", "ruling": "200612", "deductibility": "1", "assets": 479231, "income": 216793, "revenue": 214582}, {"ein": "166050995", "name": "FINGER LAKES REGION SPORTS CAR CLUB OF AMERICA INC", "city": "WEBSTER", "state": "NY", "zip": "14580-8613", "ntee": "N6XZ", "ruling": "199505", "deductibility": "2", "assets": 250272, "income": 179701, "revenue": 179701}, {"ein": "166066796", "name": "FINGER LAKES TRAIL CONFERENCE INC", "city": "MOUNT MORRIS", "state": "NY", "zip": "14510-9527", "ntee": "N320", "ruling": "196604", "deductibility": "1", "assets": 2269593, "income": 652697, "revenue": 333745}, {"ein": "202017098", "name": "PEOPLE INC FINGER LAKES", "city": "WILLIAMSVILLE", "state": "NY", "zip": "14221-3292", "ntee": "P82", "ruling": "199401", "deductibility": "1", "assets": 0, "income": 0, "revenue": 0}, {"ein": "203725136", "name": "FINGER LAKES WRESTLING CLUB INC", "city": "ITHACA", "state": "NY", "zip": "14853-0000", "ntee": "N60", "ruling": "200707", "deductibility": "1", "assets": 1059735, "income": 766858, "revenue": 359137}, {"ein": "204519382", "name": "FINGER LAKES LANDLORDS ASSOCIATION INC", "city": "NEWARK", "state": "NY", "zip": "14513-0086", "ntee": "S41", "ruling": "201201", "deductibility": "2", "assets": 0, "income": 0, "revenue": 0}, {"ein": "204938856", "name": "NAMI FINGER LAKES INCORPORATED", "city": "ITHACA", "state": "NY", "zip": "14851-6544", "ntee": "F01", "ruling": "200607", "deductibility": "1", "assets": 182242, "income": 119980, "revenue": 119980}, {"ein": "208046936", "name": "FINGER LAKES YOUTH WRESTLING LEAGUEINC", "city": "SHORTSVILLE", "state": "NY", "zip": "14548-0147", "ntee": "N70", "ruling": "202302", "deductibility": "1", "assets": 6908, "income": 1, "revenue": 0}, {"ein": "208357793", "name": "FINGER LAKES CHAMBER MUSIC FESTIVALINC", "city": "PENN YAN", "state": "NY", "zip": "14527-0605", "ntee": "A68", "ruling": "200704", "deductibility": "1", "assets": 36496, "income": 13422, "revenue": 13422}, {"ein": "222255227", "name": "CALVARY CHAPEL OF THE FINGER LAKES", "city": "FARMINGTON", "state": "NY", "zip": "14425-9619", "ntee": "", "ruling": "197910", "deductibility": "1", "assets": 0, "income": 0, "revenue": 0}, {"ein": "222309677", "name": "FINGER LAKES COMMUNITY COLLEGE FOUNDATION", "city": "CANANDAIGUA", "state": "NY", "zip": "14424-8405", "ntee": "", "ruling": "198008", "deductibility": "1", "assets": 6987786, "income": 2295224, "revenue": 1581055}, {"ein": "222328456", "name": "FINGER LAKES POLICE FEDERAION INC", "city": "ROCHESTER", "state": "NY", "zip": "14616-0240", "ntee": "", "ruling": "198102", "deductibility": "2", "assets": 108492, "income": 13339, "revenue": 13339}, {"ein": "222452177", "name": "NATURAL HISTORY SOCIETY OF THE FINGER LAKES REGION INC", "city": "ITHACA", "state": "NY", "zip": "14850-8783", "ntee": "", "ruling": "198308", "deductibility": "1", "assets": 0, "income": 0, "revenue": 0}, {"ein": "222456650", "name": "FINGER LAKES BAPTIST CHURCH", "city": "GENEVA", "state": "NY", "zip": "14456-9230", "ntee": "", "ruling": "198307", "deductibility": "1", "assets": 0, "income": 0, "revenue": 0}, {"ein": "222983688", "name": "THE FINGER LAKES LAND TRUST INC", "city": "ITHACA", "state": "NY", "zip": "14850-4204", "ntee": "C340", "ruling": "199202", "deductibility": "1", "assets": 39339777, "income": 14858648, "revenue": 6892377}, {"ein": "223044481", "name": "FINGER LAKES LAW & SOCIAL POLICY CENTER INC", "city": "ITHACA", "state": "NY", "zip": "14850-4830", "ntee": "", "ruling": "199405", "deductibility": "1", "assets": 92010, "income": 122962, "revenue": 122962}, {"ein": "223059159", "name": "FINGER LAKES REGIONAL BURN ASSOCIATION INC", "city": "FAIRPORT", "state": "NY", "zip": "14450-1567", "ntee": "", "ruling": "199404", "deductibility": "1", "assets": 8964, "income": 49383, "revenue": 49383}, {"ein": "223193606", "name": "FINGER LAKES REGIONAL HEALTH SYSTEM INC", "city": "GENEVA", "state": "NY", "zip": "14456-1651", "ntee": "E99", "ruling": "202204", "deductibility": "1", "assets": 0, "income": 0, "revenue": 0}, {"ein": "237118599", "name": "FINGER LAKES COMMUNITY COLLEGE ASSOCIATION INC", "city": "CANANDAIGUA", "state": "NY", "zip": "14424-8405", "ntee": "", "ruling": "199104", "deductibility": "1", "assets": 14828840, "income": 4775299, "revenue": 4775299}, {"ein": "237228246", "name": "FINGER LAKES SYMPHONY ORCHESTRA INC", "city": "FARMINGTON", "state": "NY", "zip": "14425-9702", "ntee": "", "ruling": "197212", "deductibility": "1", "assets": 0, "income": 0, "revenue": 0}, {"ein": "237300346", "name": "FINGER LAKES SOARING CLUB INC", "city": "DANSVILLE", "state": "NY", "zip": "14437-9268", "ntee": "", "ruling": "197305", "deductibility": "1", "assets": 317296, "income": 68047, "revenue": 68047}, {"ein": "244270852", "name": "FINGER LAKES ZERO WASTE COALITION INC", "city": "GENEVA", "state": "NY", "zip": "14456-2839", "ntee": "C60", "ruling": "201002", "deductibility": "2", "assets": 0, "income": 0, "revenue": 0}, {"ein": "262093547", "name": "FINGER LAKES REUSE INC", "city": "ITHACA", "state": "NY", "zip": "14850-5302", "ntee": "C27", "ruling": "200808", "deductibility": "1", "assets": 1792311, "income": 3208743, "revenue": 3198268}, {"ein": "263346095", "name": "FRIENDS OF THE NY STATE VETERANS CEMETERY FINGER LAKES INC", "city": "SENECA FALLS", "state": "NY", "zip": "13148-0243", "ntee": "W30", "ruling": "201009", "deductibility": "1", "assets": 0, "income": 0, "revenue": 0}, {"ein": "264069622", "name": "FINGER LAKES ORGANIZATION OF NURSE EXECUTIVES INC", "city": "ROCHESTER", "state": "NY", "zip": "14615-1204", "ntee": "S41", "ruling": "201002", "deductibility": "2", "assets": 0, "income": 0, "revenue": 0}, {"ein": "270385022", "name": "FINGER LAKES CULTURAL & NATURAL HISTORY MUSEUM", "city": "BRANCHPORT", "state": "NY", "zip": "14418-9540", "ntee": "A50", "ruling": "200911", "deductibility": "1", "assets": 10354817, "income": 5563091, "revenue": 4370316}, {"ein": "270921554", "name": "FINGER LAKES WOOD TURNERS", "city": "SODUS", "state": "NY", "zip": "14551-1018", "ntee": "A25", "ruling": "201509", "deductibility": "1", "assets": 0, "income": 0, "revenue": 0}, {"ein": "272974090", "name": "COMMITTEE TO PRESERVE THE FINGER LAKES", "city": "PENN YAN", "state": "NY", "zip": "14527-0505", "ntee": "C01", "ruling": "202012", "deductibility": "1", "assets": 0, "income": 0, "revenue": 0}, {"ein": "273390079", "name": "PATHWAY HOME OF THE FINGER LAKES INC", "city": "SENECA FALLS", "state": "NY", "zip": "13148-0000", "ntee": "P74", "ruling": "201101", "deductibility": "1", "assets": 651454, "income": 357491, "revenue": 159045}, {"ein": "274212702", "name": "GOODWILL OF THE FINGER LAKES INC", "city": "ROCHESTER", "state": "NY", "zip": "14620-1103", "ntee": "P11", "ruling": "201109", "deductibility": "1", "assets": 46859126, "income": 60307996, "revenue": 56983253}, {"ein": "300135156", "name": "FINGER LAKES WORKFORCE INVESTMENT BOARD INC", "city": "GENEVA", "state": "NY", "zip": "14456-0111", "ntee": "J20", "ruling": "200308", "deductibility": "1", "assets": 164180, "income": 1780106, "revenue": 1780106}, {"ein": "316669078", "name": "AL-HUDA ISLAMIC CENTER OF FINGER LAKES CHAIRTABLE TRUST", "city": "ITHACA", "state": "NY", "zip": "14850-0000", "ntee": "X40", "ruling": "200107", "deductibility": "1", "assets": 0, "income": 0, "revenue": 0}, {"ein": "320054006", "name": "FINGER LAKES CHORAL FESTIVAL INC", "city": "ROCHESTER", "state": "NY", "zip": "14616-2216", "ntee": "A6B", "ruling": "200303", "deductibility": "1", "assets": 0, "income": 0, "revenue": 0}, {"ein": "331870463", "name": "FINGER LAKES ARCHERY INC", "city": "ITHACA", "state": "NY", "zip": "14850-3207", "ntee": "N60", "ruling": "202411", "deductibility": "1", "assets": 0, "income": 0, "revenue": 0}, {"ein": "352227844", "name": "FINGER LAKES ENVIRONMENTAL NETWORK INC", "city": "ALPINE", "state": "NY", "zip": "14805-9752", "ntee": "C99", "ruling": "200409", "deductibility": "1", "assets": 0, "income": 0, "revenue": 0}, {"ein": "352311338", "name": "SUSTAINABLE FINGER LAKES INC", "city": "ITHACA", "state": "NY", "zip": "14850-4230", "ntee": "C30", "ruling": "201512", "deductibility": "1", "assets": 234978, "income": 536019, "revenue": 536019}, {"ein": "384007595", "name": "FINGER LAKES GATEWAY COMMUNITY DEVELOPMENT CORPORATION", "city": "WATKINS GLEN", "state": "NY", "zip": "14891-1224", "ntee": "S20", "ruling": "201607", "deductibility": "1", "assets": 383342, "income": 157575, "revenue": 157575}, {"ein": "431968073", "name": "FINGER LAKES WINE ALLIANCE INC", "city": "GENEVA", "state": "NY", "zip": "14456-1325", "ntee": "S41", "ruling": "200708", "deductibility": "2", "assets": 143189, "income": 261310, "revenue": 261310}, {"ein": "452441891", "name": "FINGER LAKES CLEANWATERS INITIATIVE INC", "city": "ITHACA", "state": "NY", "zip": "14850-9201", "ntee": "C60", "ruling": "201207", "deductibility": "1", "assets": 0, "income": 0, "revenue": 0}, {"ein": "452480866", "name": "FINGER LAKES REGIONAL WATERSHED ALLIANCE INC", "city": "MARIETTA", "state": "NY", "zip": "13110-0000", "ntee": "C32", "ruling": "201112", "deductibility": "1", "assets": 0, "income": 0, "revenue": 0}, {"ein": "455270565", "name": "FINGER LAKES FINEST THOROUGHBREDS INC", "city": "BUFFALO", "state": "NY", "zip": "14222-2409", "ntee": "D20", "ruling": "201311", "deductibility": "1", "assets": 0, "income": 0, "revenue": 0}, {"ein": "461479317", "name": "FINGER LAKES GUILD", "city": "ROCHESTER", "state": "NY", "zip": "14618-3822", "ntee": "", "ruling": "194603", "deductibility": "1", "assets": 3275, "income": 910, "revenue": 910}, {"ein": "461677384", "name": "FINGER LAKES LEARNING INC", "city": "BEAVER DAMS", "state": "NY", "zip": "14812-9758", "ntee": "C99", "ruling": "201406", "deductibility": "1", "assets": 2260, "income": 500, "revenue": 500}, {"ein": "462086215", "name": "FINGER LAKES CELTIC CULTURAL ASSOCIATION INC", "city": "SHORTSVILLE", "state": "NY", "zip": "14548-9607", "ntee": "W99", "ruling": "201509", "deductibility": "1", "assets": 0, "income": 0, "revenue": 0}, {"ein": "462602391", "name": "ICIRCLE SERVICES OF THE FINGER LAKES INC", "city": "WEBSTER", "state": "NY", "zip": "14580-8825", "ntee": "P82", "ruling": "201406", "deductibility": "1", "assets": 42270609, "income": 153796525, "revenue": 153796525}, {"ein": "462764242", "name": "FINGER LAKES TRIATHLON CLUB INC", "city": "CLIFTON SPGS", "state": "NY", "zip": "14432-9313", "ntee": "N50", "ruling": "201911", "deductibility": "2", "assets": 0, "income": 0, "revenue": 0}, {"ein": "464894375", "name": "FINGER LAKES PERMACULTURE INSTITUTE INC", "city": "ITHACA", "state": "NY", "zip": "14850-9436", "ntee": "C40", "ruling": "201806", "deductibility": "1", "assets": 0, "income": 0, "revenue": 0}, {"ein": "470855454", "name": "FINGER LAKES AREA PILOTS INC", "city": "SENECA FALLS", "state": "NY", "zip": "13148-0606", "ntee": "N50", "ruling": "200409", "deductibility": "2", "assets": 0, "income": 0, "revenue": 0}, {"ein": "472335735", "name": "FINGER LAKES PERFORMING PROVIDER SYSTEM INC", "city": "ROCHESTER", "state": "NY", "zip": "14614-1134", "ntee": "E99", "ruling": "201505", "deductibility": "1", "assets": 17555417, "income": 22781496, "revenue": 22781496}, {"ein": "473073228", "name": "FINGER LAKES RAPTOR CENTER INC", "city": "LODI", "state": "NY", "zip": "14860-9661", "ntee": "D30", "ruling": "201505", "deductibility": "1", "assets": 0, "income": 0, "revenue": 0}, {"ein": "473691662", "name": "FINGER LAKES WILDLIFE CENTER", "city": "PALMYRA", "state": "NY", "zip": "14522-9409", "ntee": "D50", "ruling": "202202", "deductibility": "1", "assets": 0, "income": 0, "revenue": 0}, {"ein": "474330967", "name": "FINGER LAKES REGIONAL HOCKEY ASSOCIATION INC", "city": "ITHACA", "state": "NY", "zip": "14850-0000", "ntee": "N68", "ruling": "201507", "deductibility": "1", "assets": 21292, "income": 140547, "revenue": 140547}, {"ein": "475562806", "name": "CLIMATE SOLUTIONS ACCELERATOR OF THE GENESEE-FINGER LAKES REGION IN", "city": "ROCHESTER", "state": "NY", "zip": "14620-2228", "ntee": "C60", "ruling": "201705", "deductibility": "1", "assets": 638941, "income": 1211336, "revenue": 1211336}, {"ein": "510166725", "name": "FINGER LAKES CHAPTER OF THE NINETY NINES INC", "city": "PITTSFORD", "state": "NY", "zip": "14534-4162", "ntee": "", "ruling": "197607", "deductibility": "1", "assets": 0, "income": 0, "revenue": 0}, {"ein": "522291578", "name": "FINGER LAKES TIBETAN SPANIEL ASSOCIATION INC", "city": "TRUMANSBURG", "state": "NY", "zip": "14886-9148", "ntee": "D20", "ruling": "200311", "deductibility": "2", "assets": 0, "income": 0, "revenue": 0}, {"ein": "562290403", "name": "SAFE HARBORS OF THE FINGER LAKES INC", "city": "GENEVA", "state": "NY", "zip": "14456-0929", "ntee": "P43", "ruling": "200306", "deductibility": "1", "assets": 2384979, "income": 3675118, "revenue": 3670301}, {"ein": "651235573", "name": "FINGER LAKES SKI CLUB", "city": "AUBURN", "state": "NY", "zip": "13021-0161", "ntee": "N68", "ruling": "202203", "deductibility": "2", "assets": 0, "income": 0, "revenue": 0}, {"ein": "753090966", "name": "FINGER LAKES WINE COUNTRY TOURISM MARKETING ASSOCIATION INC", "city": "CORNING", "state": "NY", "zip": "14830-2680", "ntee": "S41", "ruling": "200408", "deductibility": "2", "assets": 375517, "income": 787351, "revenue": 787351}, {"ein": "760810128", "name": "FINGER LAKES BIBLE FELLOWSHIP", "city": "CANANDAIGUA", "state": "NY", "zip": "14424-1330", "ntee": "X20", "ruling": "200602", "deductibility": "1", "assets": 0, "income": 0, "revenue": 0}, {"ein": "810865080", "name": "FINGER LAKES REGIONAL LAND BANK CORPORATION", "city": "WATERLOO", "state": "NY", "zip": "13165-1680", "ntee": "C34", "ruling": "201801", "deductibility": "1", "assets": 0, "income": 0, "revenue": 0}, {"ein": "811072504", "name": "FINGER LAKES CANNERS INC", "city": "PHELPS", "state": "NY", "zip": "14532-9720", "ntee": "P20", "ruling": "201604", "deductibility": "1", "assets": 89749, "income": 123120, "revenue": 123120}, {"ein": "811294676", "name": "FINGER LAKES TREASURE TROVE INC", "city": "CANANDAIGUA", "state": "NY", "zip": "14424-2144", "ntee": "", "ruling": "201609", "deductibility": "1", "assets": 2677, "income": 101447, "revenue": 101447}, {"ein": "811870504", "name": "ROCHESTER FINGER LAKES DENTAL HYGIENISTS ASSOCIATION", "city": "ROCHESTER", "state": "NY", "zip": "14624-4445", "ntee": "S41", "ruling": "201706", "deductibility": "2", "assets": 0, "income": 0, "revenue": 0}, {"ein": "811957742", "name": "FINGER LAKES TOY LIBRARY INC", "city": "ITHACA", "state": "NY", "zip": "14851-6769", "ntee": "P30", "ruling": "201608", "deductibility": "1", "assets": 74876, "income": 70843, "revenue": 70843}, {"ein": "812891028", "name": "FINGER LAKES OPPORTUNITY FOR TOURISM GROWTH INC", "city": "PENN YAN", "state": "NY", "zip": "14527-1806", "ntee": "S31", "ruling": "201607", "deductibility": "1", "assets": 4175, "income": 150, "revenue": 150}, {"ein": "812896720", "name": "FINGER LAKES ARTS COUNCIL INC", "city": "AUBURN", "state": "NY", "zip": "13021-2668", "ntee": "A26", "ruling": "202205", "deductibility": "1", "assets": 0, "income": 0, "revenue": 0}, {"ein": "813275946", "name": "FINGER LAKES BIBLE CHURCH", "city": "CANANDAIGUA", "state": "NY", "zip": "14424-0374", "ntee": "X21", "ruling": "201911", "deductibility": "1", "assets": 0, "income": 0, "revenue": 0}, {"ein": "814716749", "name": "FINGER LAKES OPERA INC", "city": "ROCHESTER", "state": "NY", "zip": "14618-0610", "ntee": "A6A", "ruling": "201703", "deductibility": "1", "assets": 52036, "income": 541289, "revenue": 541289}, {"ein": "815105736", "name": "FINGER LAKE FEIS", "city": "LIVERPOOL", "state": "NY", "zip": "13090-3231", "ntee": "A23", "ruling": "201704", "deductibility": "1", "assets": 0, "income": 0, "revenue": 0}, {"ein": "821151663", "name": "FINGER LAKES CURLING CLUB", "city": "ITHACA", "state": "NY", "zip": "14850-9705", "ntee": "N60", "ruling": "202408", "deductibility": "1", "assets": 0, "income": 0, "revenue": 0}, {"ein": "824271469", "name": "FINGER LAKES IPA INC", "city": "SYRACUSE", "state": "NY", "zip": "13215-0644", "ntee": "", "ruling": "202008", "deductibility": "1", "assets": 7496276, "income": 4602819, "revenue": 4602819}, {"ein": "824654920", "name": "LOCATE FINGER LAKES INC", "city": "WATERLOO", "state": "NY", "zip": "13165-0622", "ntee": "S30", "ruling": "201812", "deductibility": "1", "assets": 5707, "income": 620, "revenue": 620}, {"ein": "830748156", "name": "CHILD ADVOCACY CENTER OF THE FINGER LAKES INC", "city": "CANANDAIGUA", "state": "NY", "zip": "14424-1049", "ntee": "I72", "ruling": "202203", "deductibility": "1", "assets": 415542, "income": 899275, "revenue": 885500}, {"ein": "833282953", "name": "PHI DELTA CHI FINGER LAKES ALUMNI CHAPTER", "city": "FAIRPORT", "state": "NY", "zip": "14450-8618", "ntee": "B84", "ruling": "201903", "deductibility": "1", "assets": 0, "income": 0, "revenue": 0}, {"ein": "843250323", "name": "FINGER LAKES OLD TIME FARMERS INC", "city": "LOCKE", "state": "NY", "zip": "13092-3194", "ntee": "W12", "ruling": "202304", "deductibility": "1", "assets": 0, "income": 0, "revenue": 0}, {"ein": "851442333", "name": "ATAXIA FOUNDATION OF THE FINGER LAKES INC", "city": "MORAVIA", "state": "NY", "zip": "13118-3249", "ntee": "T12", "ruling": "202403", "deductibility": "1", "assets": 0, "income": 0, "revenue": 0}, {"ein": "853697934", "name": "FINGER LAKES DIGITAL INCLUSION COALITION", "city": "CANANDAIGUA", "state": "NY", "zip": "14424-0912", "ntee": "S01", "ruling": "202109", "deductibility": "1", "assets": 0, "income": 0, "revenue": 0}, {"ein": "854299012", "name": "BUSINESS FOUNDATION OF THE FINGER LAKES INC", "city": "CANANDAIGUA", "state": "NY", "zip": "14424-1224", "ntee": "S41", "ruling": "202103", "deductibility": "1", "assets": 0, "income": 0, "revenue": 0}, {"ein": "861186872", "name": "GERMAN SHEPHERD RESCUE OF THE FINGER LAKES INC", "city": "LA FAYETTE", "state": "NY", "zip": "13084-0749", "ntee": "D20", "ruling": "202104", "deductibility": "1", "assets": 18402, "income": 31214, "revenue": 31214}, {"ein": "871641286", "name": "FINGER LAKES AND SOUTHERN TIER BEHAVIORAL HEALTH CARE COLLABORATI", "city": "ROCHESTER", "state": "NY", "zip": "14624-5701", "ntee": "E80", "ruling": "202308", "deductibility": "1", "assets": 652326, "income": 1054874, "revenue": 1054874}, {"ein": "881000000", "name": "FINGER LAKES CAT TALES INC", "city": "PENFIELD", "state": "NY", "zip": "14526-0773", "ntee": "D20", "ruling": "202205", "deductibility": "1", "assets": 0, "income": 0, "revenue": 0}, {"ein": "881927444", "name": "FINGER LAKES SNOWMOBILE CLUB INCORPORATED", "city": "BLOOMFIELD", "state": "NY", "zip": "14469-0101", "ntee": "N19", "ruling": "202205", "deductibility": "1", "assets": 0, "income": 0, "revenue": 0}, {"ein": "883007231", "name": "FINGER LAKES INCUBATOR AND COMMERCIAL KITCHEN INC", "city": "AUBURN", "state": "NY", "zip": "13021-4323", "ntee": "K02", "ruling": "202211", "deductibility": "1", "assets": 0, "income": 0, "revenue": 0}, {"ein": "883111669", "name": "FINGER LAKES CLOTHING CENTER INC", "city": "GENEVA", "state": "NY", "zip": "14456-9002", "ntee": "P20", "ruling": "202209", "deductibility": "1", "assets": 340311, "income": 204917, "revenue": 204917}, {"ein": "900132557", "name": "FINGER LAKES WATER WORKS CONFERENCE", "city": "CANANDAIGUA", "state": "NY", "zip": "14424-2451", "ntee": "W03", "ruling": "202203", "deductibility": "1", "assets": 0, "income": 0, "revenue": 0}, {"ein": "943452140", "name": "FINGER LAKES CHAPTER OF THE ANTIQUE AND CLASSIC BOAT SOCIETY", "city": "SKANEATELES", "state": "NY", "zip": "13152-5022", "ntee": "A80", "ruling": "201807", "deductibility": "1", "assets": 0, "income": 0, "revenue": 0}, {"ein": "991027001", "name": "FINGER LAKES AUSTRALIAN RULES FOOTBALL CLUB INC", "city": "AUBURN", "state": "NY", "zip": "13021-9287", "ntee": "N60", "ruling": "202411", "deductibility": "1", "assets": 0, "income": 0, "revenue": 0}, {"ein": "993656683", "name": "FINGER LAKES NURSE HONOR GUARD", "city": "GENEVA", "state": "NY", "zip": "14456-1406", "ntee": "E90", "ruling": "202411", "deductibility": "1", "assets": 0, "income": 0, "revenue": 0}], "JESUCRISTO": [{"ein": "010677576", "name": "IGLESIA DE LA ALABANZA DEL SENOR JESUCRISTO INC", "city": "BRONX", "state": "NY", "zip": "10457-7002", "ntee": "X20", "ruling": "200505", "deductibility": "1", "assets": 0, "income": 0, "revenue": 0}, {"ein": "010678855", "name": "IGLESIA PENTECOSTAL DE JESUCRISTO ARBOL DE VIDA", "city": "BROOKLYN", "state": "NY", "zip": "11220-1705", "ntee": "X21", "ruling": "200310", "deductibility": "1", "assets": 0, "income": 0, "revenue": 0}, {"ein": "112467728", "name": "IGLESIA PENTECOSTAL DE JESUCRISTO CRISTO VIENE INC", "city": "BROOKLYN", "state": "NY", "zip": "11224-2518", "ntee": "X21Z", "ruling": "198709", "deductibility": "1", "assets": 0, "income": 0, "revenue": 0}, {"ein": "112789536", "name": "IGLESIA PENTECOSTAL DE JESUCRISTO DE QUEENS INC", "city": "RICHMOND HILL", "state": "NY", "zip": "11419-2217", "ntee": "X212", "ruling": "198709", "deductibility": "1", "assets": 0, "income": 0, "revenue": 0}, {"ein": "113037206", "name": "IGLESIA PENTECOSTAL DE JESUCRISTO", "city": "BROOKLYN", "state": "NY", "zip": "11219-1437", "ntee": "X212", "ruling": "198709", "deductibility": "1", "assets": 0, "income": 0, "revenue": 0}, {"ein": "113061264", "name": "IGLESIA PENTECOSTAL DE JESUCRISTO FE TRIUNFANTE INC", "city": "BROOKLYN", "state": "NY", "zip": "11231-1503", "ntee": "X212", "ruling": "198709", "deductibility": "1", "assets": 0, "income": 0, "revenue": 0}, {"ein": "113151470", "name": "IGLESIA HOGAR DE JESUCRISTO INC", "city": "BROOKLYN", "state": "NY", "zip": "11215-3814", "ntee": "X20Z", "ruling": "199805", "deductibility": "1", "assets": 0, "income": 0, "revenue": 0}, {"ein": "113169023", "name": "IGLESIA PENTECOSTAL DE JESUCRISTO AMOR DE DIOS INC", "city": "BROOKLYN", "state": "NY", "zip": "11216-1052", "ntee": "X212", "ruling": "198709", "deductibility": "1", "assets": 0, "income": 0, "revenue": 0}, {"ein": "113171198", "name": "IGLESIA PENTECOSTAL JESUCRISTO EL LIBERTADOR INC", "city": "BROOKLYN", "state": "NY", "zip": "11206-4511", "ntee": "X21", "ruling": "200205", "deductibility": "1", "assets": 0, "income": 0, "revenue": 0}, {"ein": "113195895", "name": "IGLESIA MISIONERA DE JESUCRISTO INC", "city": "CORONA", "state": "NY", "zip": "11368-2623", "ntee": "X20Z", "ruling": "199809", "deductibility": "1", "assets": 0, "income": 0, "revenue": 0}, {"ein": "113229226", "name": "PRIMERA IGLESIA PENTECOSTAL DE JESUCRISTO JUAN 14 6", "city": "BROOKLYN", "state": "NY", "zip": "11221-3715", "ntee": "", "ruling": "197210", "deductibility": "1", "assets": 0, "income": 0, "revenue": 0}, {"ein": "113245621", "name": "IGLESIA PENTECOSTAL DE JESUCRISTO ARBOL DE VIDA INC", "city": "BROOKLYN", "state": "NY", "zip": "11220-1705", "ntee": "X21Z", "ruling": "198709", "deductibility": "1", "assets": 0, "income": 0, "revenue": 0}, {"ein": "113247947", "name": "IGLESIA PENTECOSTAL CE JESUCRISTO NUEVA VIDA INC", "city": "BROOKLYN", "state": "NY", "zip": "11220-1705", "ntee": "X21Z", "ruling": "198709", "deductibility": "1", "assets": 0, "income": 0, "revenue": 0}, {"ein": "113283250", "name": "IGLESIA PENTECOSTAL DE JESUCRISTO EN CRISTO SOMOS UNO INC", "city": "BROOKLYN", "state": "NY", "zip": "11232-3604", "ntee": "X21Z", "ruling": "198709", "deductibility": "1", "assets": 0, "income": 0, "revenue": 0}, {"ein": "113356057", "name": "IGLESIA PENTECOSTAL DE JESUCRISTO EL BUEN SAMARITANO", "city": "BROOKLYN", "state": "NY", "zip": "11220-1037", "ntee": "X212", "ruling": "198709", "deductibility": "1", "assets": 0, "income": 0, "revenue": 0}, {"ein": "113448653", "name": "IGLESIA DE JESUCRISTO PALABRA MIEL SANTIAGO ATITLAN LONG ISLAND NY", "city": "BRENTWOOD", "state": "NY", "zip": "11717-5129", "ntee": "X21", "ruling": "200311", "deductibility": "1", "assets": 1568901, "income": 616792, "revenue": 616792}, {"ein": "113506973", "name": "MINISTERIOS DE SALVACION Y RESTAURACION EN JESUCRISTO", "city": "ELMHURST", "state": "NY", "zip": "11373-2948", "ntee": "X20", "ruling": "200105", "deductibility": "1", "assets": 0, "income": 0, "revenue": 0}, {"ein": "113646872", "name": "IGLESIA PENTECOSTAL VISION DE JESUCRISTO INC", "city": "BROOKLYN", "state": "NY", "zip": "11220-1803", "ntee": "X21", "ruling": "200308", "deductibility": "1", "assets": 0, "income": 0, "revenue": 0}, {"ein": "133855725", "name": "IGLESIA PENTECOSTAL DE JESUCRISTO HUERTO CE ORACION INC", "city": "NEW YORK", "state": "NY", "zip": "10002-3331", "ntee": "X21Z", "ruling": "198709", "deductibility": "1", "assets": 0, "income": 0, "revenue": 0}, {"ein": "133856365", "name": "IGLESIA PENTECOSTAL DE JESUCRISTO GETHSEMANI INC", "city": "STATEN ISLAND", "state": "NY", "zip": "10304-2060", "ntee": "X212", "ruling": "198709", "deductibility": "1", "assets": 0, "income": 0, "revenue": 0}, {"ein": "133886514", "name": "IGLESIA APOSTOLICIA DE JESUCRISTO INC", "city": "BRONX", "state": "NY", "zip": "10452-5650", "ntee": "X99Z", "ruling": "199605", "deductibility": "1", "assets": 0, "income": 0, "revenue": 0}, {"ein": "134195728", "name": "IGLESIA APOSTOLICA DE JESUCRISTO", "city": "BRONX", "state": "NY", "zip": "10452-5104", "ntee": "X20", "ruling": "200310", "deductibility": "1", "assets": 0, "income": 0, "revenue": 0}, {"ein": "200267309", "name": "IGLESIA DE DIOS MINISTERIAL DE JESUCRISTO INTERNATIONAL INC", "city": "WOODSIDE", "state": "NY", "zip": "11377-4741", "ntee": "X20", "ruling": "200404", "deductibility": "1", "assets": 0, "income": 0, "revenue": 0}, {"ein": "204663859", "name": "IGLESIA DE JESUCRISTO HUERTO DELEDEN", "city": "UNIONDALE", "state": "NY", "zip": "11553-2724", "ntee": "X20", "ruling": "201201", "deductibility": "1", "assets": 0, "income": 0, "revenue": 0}, {"ein": "208183650", "name": "MINISTERIO JESUCRISTO VIVE JESUSCHRIST LIVE MINISTRY INC", "city": "SMITHTOWN", "state": "NY", "zip": "11787-1848", "ntee": "X20", "ruling": "201010", "deductibility": "1", "assets": 1, "income": 0, "revenue": 0}, {"ein": "261950196", "name": "IGLESIA DE JESUCRISTO PALABRA MIEL INC", "city": "FRESH MEADOWS", "state": "NY", "zip": "11365-0000", "ntee": "X20", "ruling": "201810", "deductibility": "1", "assets": 0, "income": 0, "revenue": 0}, {"ein": "263022536", "name": "IGLESIA EVANGELICA JESUCRISTO ES EL SENOR", "city": "BRONX", "state": "NY", "zip": "10457-1242", "ntee": "X21", "ruling": "200901", "deductibility": "1", "assets": 0, "income": 0, "revenue": 0}, {"ein": "270654822", "name": "IGLESIA PENTECOSTAL DE JESUCRISTO HE AQUI VENGO PRONTO", "city": "FREEPORT", "state": "NY", "zip": "11520-3347", "ntee": "X20", "ruling": "201102", "deductibility": "1", "assets": 0, "income": 0, "revenue": 0}, {"ein": "273869516", "name": "IGLESIA PENTECOSTAL JESUCRISTO REINA INC", "city": "BRONX", "state": "NY", "zip": "10459-2316", "ntee": "X20", "ruling": "201112", "deductibility": "1", "assets": 0, "income": 0, "revenue": 0}, {"ein": "274043971", "name": "MISION PENTECOSTES INTERNACIONAL JESUCRISTO Y EL PODER DE SU PALABR", "city": "FRESH MEADOWS", "state": "NY", "zip": "11365-2018", "ntee": "X20", "ruling": "201103", "deductibility": "1", "assets": 0, "income": 0, "revenue": 0}, {"ein": "364807058", "name": "IGLESIA DE JESUCRISTO PALABRA MIEL ITHACA NY", "city": "ITHACA", "state": "NY", "zip": "14850-4033", "ntee": "X20", "ruling": "202401", "deductibility": "1", "assets": 0, "income": 0, "revenue": 0}, {"ein": "451074768", "name": "IGLESIA PENTECOSTAL JESUCRISTO EL CAMINO AL PADRE INC", "city": "NEW YORK", "state": "NY", "zip": "10032-6102", "ntee": "X21", "ruling": "201509", "deductibility": "1", "assets": 0, "income": 0, "revenue": 0}, {"ein": "451604355", "name": "IGLESIA EDIFICANDO EN JESUCRISTO INC", "city": "BRONX", "state": "NY", "zip": "10463-7359", "ntee": "X20", "ruling": "201207", "deductibility": "1", "assets": 27010, "income": 70509, "revenue": 70509}, {"ein": "454268418", "name": "IGLESIA JESUCRISTO EL CAMINO CELESTIAL INC", "city": "ELMHURST", "state": "NY", "zip": "11373-4434", "ntee": "X20", "ruling": "201303", "deductibility": "1", "assets": 911516, "income": 433017, "revenue": 433017}, {"ein": "463587213", "name": "SEGUNDA IGLESIA CRISTIANA JESUCRISTO RESTAURA INC", "city": "BRONX", "state": "NY", "zip": "10456-7437", "ntee": "X21", "ruling": "201509", "deductibility": "1", "assets": 0, "income": 0, "revenue": 0}, {"ein": "471631425", "name": "IGLESIA JESUCRISTO ES NUESTRO REY JESUS CHRIST IS OUR KING CHURCH IN", "city": "MANORVILLE", "state": "NY", "zip": "11949-0017", "ntee": "X20", "ruling": "201502", "deductibility": "1", "assets": 0, "income": 0, "revenue": 0}, {"ein": "475270602", "name": "MINISTERIO DE JESUCRISTO ALFA Y OMEGA INC", "city": "HUNTINGTN STA", "state": "NY", "zip": "11746-2437", "ntee": "X20", "ruling": "201705", "deductibility": "1", "assets": 0, "income": 0, "revenue": 0}, {"ein": "810859603", "name": "CASA DE ADORACION ORACION Y RESTAURACION JESUCRISTO ES EL SENO", "city": "NEW YORK", "state": "NY", "zip": "10039-1314", "ntee": "X20", "ruling": "201605", "deductibility": "1", "assets": 15859, "income": 15859, "revenue": 15859}, {"ein": "812701130", "name": "MINISTERIO JESUCRISTO VIENE YA INC", "city": "BRONX", "state": "NY", "zip": "10459-0000", "ntee": "X20", "ruling": "202002", "deductibility": "1", "assets": 0, "income": 0, "revenue": 0}, {"ein": "820615542", "name": "IGLESIA PENTECOSTAL JESUCRISTO ES EL SENOR", "city": "BRONX", "state": "NY", "zip": "10452-3636", "ntee": "X20", "ruling": "201707", "deductibility": "1", "assets": 276092, "income": 82521, "revenue": 82521}, {"ein": "825015660", "name": "IGLESIA EVANGELICA JESUCRISTO ES LA PENA DE HOREB", "city": "RIVERHEAD", "state": "NY", "zip": "11901-2843", "ntee": "X21", "ruling": "202203", "deductibility": "1", "assets": 0, "income": 0, "revenue": 0}, {"ein": "851445827", "name": "F A S JESUCRISTO VIVE INC", "city": "SHIRLEY", "state": "NY", "zip": "11967-2528", "ntee": "B82", "ruling": "202008", "deductibility": "1", "assets": 1269, "income": 10277, "revenue": 10277}, {"ein": "900642691", "name": "IGLESIA DE DIOS MINISTERIAL DE JESUCRISTO INTERNATIONAL INC", "city": "FLUSHING", "state": "NY", "zip": "11354-2826", "ntee": "", "ruling": "200404", "deductibility": "1", "assets": 0, "income": 0, "revenue": 0}, {"ein": "900642692", "name": "IGLESIA DE DIOS MINISTERIAL DE JESUCRISTO INTERNATIONAL INC", "city": "HEMPSTEAD", "state": "NY", "zip": "11550-0000", "ntee": "", "ruling": "200404", "deductibility": "1", "assets": 0, "income": 0, "revenue": 0}, {"ein": "990412462", "name": "IGLESIA DE JESUCRISTO ESPERANZA Y VIDA INC", "city": "BRONX", "state": "NY", "zip": "10460-2537", "ntee": "X20", "ruling": "202411", "deductibility": "1", "assets": 0, "income": 0, "revenue": 0}, {"ein": "991058258", "name": "CONCILIO DE IGLESIAS CRISTIANAS JESUCRISTO RESTAURA INC", "city": "NEW YORK", "state": "NY", "zip": "10040-1159", "ntee": "X20", "ruling": "202404", "deductibility": "1", "assets": 0, "income": 0, "revenue": 0}, {"ein": "992893618", "name": "TABERNACULO DE JESUCRISTO RIDGEWOOD INC", "city": "ELMHURST", "state": "NY", "zip": "11373-4625", "ntee": "X99", "ruling": "202501", "deductibility": "1", "assets": 0, "income": 0, "revenue": 0}, {"ein": "992894490", "name": "TABERNACULO DE JESUCRISTO BRONX", "city": "ELMHURST", "state": "NY", "zip": "11373-4628", "ntee": "X20", "ruling": "202502", "deductibility": "1", "assets": 0, "income": 0, "revenue": 0}, {"ein": "994896837", "name": "TABERNACULO DE JESUCRISTO DE COLLEGE POINT INC", "city": "LEVITTOWN", "state": "NY", "zip": "11756-1528", "ntee": "X99", "ruling": "202502", "deductibility": "1", "assets": 0, "income": 0, "revenue": 0}], "FLEISCHMANNS": [{"ein": "010826172", "name": "GREATER FLEISCHMANNS MUSEUM OF MEMORIES", "city": "FLEISCHMANNS", "state": "NY", "zip": "12430-0000", "ntee": "A50", "ruling": "200509", "deductibility": "1", "assets": 0, "income": 0, "revenue": 0}, {"ein": "222521104", "name": "CONGREGATION BNAL ISRAEL OF FLEISCHMANNS", "city": "FLEISCHMANNS", "state": "NY", "zip": "12430-0635", "ntee": "X30", "ruling": "201612", "deductibility": "1", "assets": 0, "income": 0, "revenue": 0}, {"ein": "800500654", "name": "FLEISCHMANNS VOL FIRE ENG CO NO I INC", "city": "FLEISCHMANNS", "state": "NY", "zip": "12430-8310", "ntee": "M24", "ruling": "201102", "deductibility": "1", "assets": 0, "income": 0, "revenue": 0}, {"ein": "825472467", "name": "CHEVRA HATZOLAH OF FLEISCHMANNS INC", "city": "FLEISCHMANNS", "state": "NY", "zip": "12430-0796", "ntee": "T12", "ruling": "201807", "deductibility": "1", "assets": 0, "income": 0, "revenue": 0}, {"ein": "862163815", "name": "FLEISCHMANNS FIRST INC", "city": "FLEISCHMANNS", "state": "NY", "zip": "12430-0111", "ntee": "S20", "ruling": "202106", "deductibility": "1", "assets": 0, "income": 0, "revenue": 0}, {"ein": "934480310", "name": "FLEISCHMANNS COMMUNITY ACTION FUND INC", "city": "FLEISCHMANNS", "state": "NY", "zip": "12430-0828", "ntee": "W01", "ruling": "202407", "deductibility": "1", "assets": 0, "income": 0, "revenue": 0}], "BACHAIM": [{"ein": "030411395", "name": "CONGREGATION CHELKOM BACHAIM", "city": "AIRMONT", "state": "NY", "zip": "10952-3631", "ntee": "X30", "ruling": "200209", "deductibility": "1", "assets": 0, "income": 0, "revenue": 0}, {"ein": "222913463", "name": "UBOCHARTO BACHAIM FUNDS INC", "city": "NEW YORK", "state": "NY", "zip": "10185-0205", "ntee": "T700", "ruling": "199308", "deductibility": "1", "assets": 3018478, "income": 1322134, "revenue": 201226}], "SCOTT": [{"ein": "036047004", "name": "ARTHUR H SCOTT MEMORIAL VOLUNTARY TR UA", "city": "BUFFALO", "state": "NY", "zip": "14240-1504", "ntee": "", "ruling": "199107", "deductibility": "1", "assets": 1380733, "income": 304993, "revenue": 0}, {"ein": "113551844", "name": "SCOTT HESSION SCHOLARSHIP GOLF TOURNAMENT", "city": "BAYPORT", "state": "NY", "zip": "11705-2230", "ntee": "B82", "ruling": "200211", "deductibility": "1", "assets": 0, "income": 0, "revenue": 0}, {"ein": "133732057", "name": "INSALL-SCOTT RESEARCH FOUNDATION INC", "city": "ROCKVILLE CTR", "state": "NY", "zip": "11570-5278", "ntee": "Z99Z", "ruling": "199501", "deductibility": "1", "assets": 3204, "income": 0, "revenue": 0}, {"ein": "133921104", "name": "SCOTT & SULING MEAD FOUNDATION", "city": "NEW YORK", "state": "NY", "zip": "10274-0073", "ntee": "T30Z", "ruling": "199803", "deductibility": "1", "assets": 171967, "income": 230807, "revenue": 0}, {"ein": "133999250", "name": "WILLIAM C AND CINDY L SCOTT FOUNDATION", "city": "NEW YORK", "state": "NY", "zip": "10022-8617", "ntee": "T20Z", "ruling": "199805", "deductibility": "1", "assets": 1233894, "income": 1122719, "revenue": 0}, {"ein": "134144166", "name": "ELIZABETH AND STANLEY D SCOTT FOUNDATION INC", "city": "NEW YORK", "state": "NY", "zip": "10013-2103", "ntee": "T21", "ruling": "200103", "deductibility": "1", "assets": 5799469, "income": 2299246, "revenue": 0}, {"ein": "134171575", "name": "SCOTT FAMILY FOUNDATION INC", "city": "NEW YORK", "state": "NY", "zip": "10020-0000", "ntee": "T22", "ruling": "200202", "deductibility": "1", "assets": 2785967, "income": 455219, "revenue": 0}, {"ein": "146170686", "name": "ALICE D SCOTT TR UW FBO COUNTY OF WARREN", "city": "GLENS FALLS", "state": "NY", "zip": "12801-2161", "ntee": "N32J", "ruling": "199509", "deductibility": "1", "assets": 3439150, "income": 403681, "revenue": 218681}, {"ein": "161599236", "name": "SCOTT S KRUEGER MEMORIAL FOUNDATION INC", "city": "ORCHARD PARK", "state": "NY", "zip": "14127-3061", "ntee": "B82", "ruling": "200208", "deductibility": "1", "assets": 137858, "income": 91961, "revenue": 0}, {"ein": "161684397", "name": "SCOTT SLOANE FOUNDATION INC", "city": "NEW YORK", "state": "NY", "zip": "10016-2928", "ntee": "T20", "ruling": "200409", "deductibility": "1", "assets": 0, "income": 0, "revenue": 0}, {"ein": "166063245", "name": "SCOTT UNION CEMETERY", "city": "HOMER", "state": "NY", "zip": "13077-0000", "ntee": "", "ruling": "196602", "deductibility": "2", "assets": 0, "income": 0, "revenue": 0}, {"ein": "166182160", "name": "FOX MEMORIAL HOSPITAL TRUST UNDER WILL OF ANNE E SCOTT", "city": "ONEONTA", "state": "NY", "zip": "13820-2502", "ntee": "T11", "ruling": "199910", "deductibility": "1", "assets": 894778, "income": 316751, "revenue": 0}, {"ein": "166183805", "name": "SCOTT JENKINS FUND U W CAROLYN JENKINS", "city": "ONEONTA", "state": "NY", "zip": "13820-2502", "ntee": "", "ruling": "197604", "deductibility": "1", "assets": 306263, "income": 139057, "revenue": 0}, {"ein": "166199427", "name": "SCOTT-JENKINS FUND U/W OF ANN E SCOTT", "city": "ONEONTA", "state": "NY", "zip": "13820-2502", "ntee": "", "ruling": "197604", "deductibility": "1", "assets": 606999, "income": 233511, "revenue": 0}, {"ein": "200526006", "name": "1210 SCOTT ST INC", "city": "NEW YORK", "state": "NY", "zip": "10028-0904", "ntee": "X193", "ruling": "200402", "deductibility": "1", "assets": 23023069, "income": 508517, "revenue": 0}, {"ein": "203896945", "name": "SMILES FOR SCOTT FOUNDATION INC", "city": "PLAINVIEW", "state": "NY", "zip": "11803-0643", "ntee": "T30", "ruling": "200603", "deductibility": "1", "assets": 98794, "income": 25929, "revenue": 25929}, {"ein": "208512223", "name": "ANGELA & SCOTT JAGGAR FOUNDATION INC", "city": "PRT WASHINGTN", "state": "NY", "zip": "11050-2468", "ntee": "T20", "ruling": "200804", "deductibility": "1", "assets": 982984, "income": 520408, "revenue": 0}, {"ein": "237615742", "name": "ANCIENT ACCEPTED SCOTT RITE OF FREE MASON USA NMJ", "city": "SCHENECTADY", "state": "NY", "zip": "12325-0771", "ntee": "", "ruling": "197211", "deductibility": "1", "assets": 2382152, "income": 919682, "revenue": 425256}, {"ein": "273988384", "name": "SCOTT MCGOVERN MEMORIAL FUND", "city": "NEW YORK", "state": "NY", "zip": "10019-6018", "ntee": "B12", "ruling": "201101", "deductibility": "1", "assets": 3373, "income": 98073, "revenue": 43670}, {"ein": "311733357", "name": "GODS WOMAN VANESSA SCOTT OUTREACH MINISTRIES INC", "city": "NIAGARA FALLS", "state": "NY", "zip": "14301-1418", "ntee": "P60", "ruling": "200103", "deductibility": "1", "assets": 8591, "income": 23247, "revenue": 23247}, {"ein": "331213720", "name": "SCOTT DELFORTE FOUNDATION", "city": "CANANDAIGUA", "state": "NY", "zip": "14424-2443", "ntee": "B82", "ruling": "200902", "deductibility": "1", "assets": 0, "income": 0, "revenue": 0}, {"ein": "450949250", "name": "DON SCOTT MEMORIAL FOUNDATION INC", "city": "MANHASSET", "state": "NY", "zip": "11030-6235", "ntee": "B82", "ruling": "201107", "deductibility": "1", "assets": 38439, "income": 4, "revenue": 4}, {"ein": "451534613", "name": "CORETTA SCOTT KING HOUSING DEVELOPMENT FUND CORPORATION", "city": "BROOKLYN", "state": "NY", "zip": "11206-4628", "ntee": "L22", "ruling": "201512", "deductibility": "1", "assets": 12247123, "income": 888270, "revenue": 888270}, {"ein": "465100762", "name": "SCOTT FOUNDATION", "city": "SARATOGA SPGS", "state": "NY", "zip": "12866-2386", "ntee": "T20", "ruling": "201609", "deductibility": "1", "assets": 13594905, "income": 8205438, "revenue": 0}, {"ein": "471167085", "name": "NICOLE NIKKI D SCOTT SCHOLARSHIP FUND INC", "city": "CHESTNUT RDG", "state": "NY", "zip": "10977-7116", "ntee": "B82", "ruling": "201408", "deductibility": "1", "assets": 153912, "income": 17890, "revenue": 17890}, {"ein": "611734936", "name": "CODY SCOTT TADDONIO MEMORIAL INC", "city": "LLOYD HARBOR", "state": "NY", "zip": "11743-1606", "ntee": "T90", "ruling": "201509", "deductibility": "1", "assets": 0, "income": 0, "revenue": 0}, {"ein": "812815534", "name": "SCOTT BIELER FOUNDATION INC", "city": "ORCHARD PARK", "state": "NY", "zip": "14127-1707", "ntee": "T20", "ruling": "201608", "deductibility": "1", "assets": 12212408, "income": 11277525, "revenue": 0}, {"ein": "813693551", "name": "RHIANNON ROSE SCOTT MEMORIAL FOUNDATION INC", "city": "MASSAPEQUA", "state": "NY", "zip": "11758-3514", "ntee": "B82", "ruling": "201609", "deductibility": "1", "assets": 29663, "income": 3962, "revenue": 3962}, {"ein": "824450173", "name": "SCOTT J BEIGEL MEMORIAL FUND INC", "city": "DIX HILLS", "state": "NY", "zip": "11746-6214", "ntee": "P12", "ruling": "201803", "deductibility": "1", "assets": 20723, "income": 633071, "revenue": 453343}, {"ein": "842796741", "name": "SGT DONALD SCOTT CONNIFF FOUNDATION INC", "city": "STATEN ISLAND", "state": "NY", "zip": "10312-2123", "ntee": "M11", "ruling": "202311", "deductibility": "1", "assets": 9406, "income": 35259, "revenue": 35259}, {"ein": "854133377", "name": "THOMAS POOLE AND CHARLES SCOTT GRIESA CENTER FOUNDATION", "city": "BEACON", "state": "NY", "zip": "12508-2704", "ntee": "A61", "ruling": "202207", "deductibility": "1", "assets": 2669491, "income": 2424417, "revenue": 0}, {"ein": "861124814", "name": "SCOTT SPINO FOUNDATION INC", "city": "ROCHESTER", "state": "NY", "zip": "14612-3306", "ntee": "", "ruling": "200502", "deductibility": "1", "assets": 211086, "income": 97884, "revenue": 64681}, {"ein": "900959649", "name": "SCOTT ACRES WATER USERS ASSOCIATION INC", "city": "ROCK TAVERN", "state": "NY", "zip": "12575-0000", "ntee": "Y22", "ruling": "202412", "deductibility": "2", "assets": 0, "income": 0, "revenue": 0}, {"ein": "922529854", "name": "SCOTT ALTHOUSE WORLD CHANGERS HOUSE", "city": "WOODSIDE", "state": "NY", "zip": "11377-1902", "ntee": "X20", "ruling": "202402", "deductibility": "1", "assets": 0, "income": 0, "revenue": 0}, {"ein": "931925927", "name": "MATTHEW SCOTT RIMUALDO FOUNDATION INC", "city": "SYRACUSE", "state": "NY", "zip": "13202-1140", "ntee": "F12", "ruling": "202311", "deductibility": "1", "assets": 0, "income": 0, "revenue": 0}, {"ein": "991966594", "name": "FRIENDS OF ATLANTIC BEACH ESTATES AND SCOTT DRIVE PARK", "city": "ALBANY", "state": "NY", "zip": "12207-2834", "ntee": "P12", "ruling": "202404", "deductibility": "1", "assets": 0, "income": 0, "revenue": 0}, {"ein": "992083491", "name": "GREG SCOTT FOUNDATION INC", "city": "BRONX", "state": "NY", "zip": "10473-1904", "ntee": "P20", "ruling": "202410", "deductibility": "1", "assets": 0, "income": 0, "revenue": 0}], "KNANAYA": [{"ein": "043296294", "name": "NORTH AMERICAN KNANAYA DIOCESE INC", "city": "POMONA", "state": "NY", "zip": "10970-2647", "ntee": "X20Z", "ruling": "199804", "deductibility": "1", "assets": 0, "income": 0, "revenue": 0}, {"ein": "112995845", "name": "ST PETERS KNANAYA CHURCH INC", "city": "HAUPPAUGE", "state": "NY", "zip": "11788-5124", "ntee": "", "ruling": "199108", "deductibility": "1", "assets": 0, "income": 0, "revenue": 0}, {"ein": "113577034", "name": "ST JOSEPH SYRIAN ORTHODOX KNANAYA CHURCH", "city": "WEST BABYLON", "state": "NY", "zip": "11704-4346", "ntee": "X20", "ruling": "200106", "deductibility": "1", "assets": 0, "income": 0, "revenue": 0}, {"ein": "134015553", "name": "INDIAN KNANAYA CATHOLIC COMMUNITY OF GREATER NEW YORK INC", "city": "STONY POINT", "state": "NY", "zip": "10980-0097", "ntee": "", "ruling": "200508", "deductibility": "1", "assets": 2109039, "income": 218872, "revenue": 218872}, {"ein": "262026530", "name": "KNANAYA CATHOLIC MISSION INC", "city": "STONY POINT", "state": "NY", "zip": "10980-0097", "ntee": "X22", "ruling": "200903", "deductibility": "1", "assets": 0, "income": 0, "revenue": 0}, {"ein": "270936867", "name": "KNANAYA CATHOLIC FAMILY UNION INC", "city": "NEW HYDE PARK", "state": "NY", "zip": "11040-3854", "ntee": "P19", "ruling": "201010", "deductibility": "1", "assets": 0, "income": 0, "revenue": 0}, {"ein": "453237586", "name": "BROOKLYN QUEENS LONG ISLAND KNANAYA CATHOLIC MISSION INC", "city": "HEMPSTEAD", "state": "NY", "zip": "11550-1736", "ntee": "X22", "ruling": "201112", "deductibility": "1", "assets": 1721082, "income": 283117, "revenue": 283117}, {"ein": "843087931", "name": "KNANAYA CATHOLIC MINISTRY INC", "city": "HEMPSTEAD", "state": "NY", "zip": "11550-1736", "ntee": "X22", "ruling": "202002", "deductibility": "1", "assets": 0, "income": 0, "revenue": 0}], "RAMBAHN": [{"ein": "050541980", "name": "KUPATH RAMBAHN KOLEL POLIN", "city": "BROOKLYN", "state": "NY", "zip": "11204-1109", "ntee": "X12", "ruling": "200301", "deductibility": "1", "assets": 56609, "income": 1693793, "revenue": 1693793}], "BOTANICAL": [{"ein": "111635083", "name": "QUEENS BOTANICAL GARDEN SOCIETY INC", "city": "FLUSHING", "state": "NY", "zip": "11355-4742", "ntee": "C410", "ruling": "194812", "deductibility": "1", "assets": 15154332, "income": 7094047, "revenue": 6990826}, {"ein": "113007311", "name": "LONG ISLAND BOTANICAL SOCIETY", "city": "WILLISTON PK", "state": "NY", "zip": "11596-1529", "ntee": "C60", "ruling": "201111", "deductibility": "1", "assets": 0, "income": 0, "revenue": 0}, {"ein": "113255547", "name": "AMERICAN SOCIETY OF BOTANICAL ARTISTS INC", "city": "BRONX", "state": "NY", "zip": "10458-5126", "ntee": "A400", "ruling": "199507", "deductibility": "1", "assets": 801896, "income": 652511, "revenue": 652511}, {"ein": "113382931", "name": "NARROWS BOTANICAL GARDENS INC", "city": "BROOKLYN", "state": "NY", "zip": "11209-0467", "ntee": "C50", "ruling": "199711", "deductibility": "1", "assets": 30927, "income": 19552, "revenue": 19552}, {"ein": "131693134", "name": "NEW YORK BOTANICAL GARDEN", "city": "BRONX", "state": "NY", "zip": "10458-5126", "ntee": "C410", "ruling": "192506", "deductibility": "1", "assets": 659186710, "income": 177829888, "revenue": 109068092}, {"ein": "133830544", "name": "6BC BOTANICAL GARDEN INC", "city": "NEW YORK", "state": "NY", "zip": "10009-8973", "ntee": "C41", "ruling": "199604", "deductibility": "1", "assets": 0, "income": 0, "revenue": 0}, {"ein": "136108131", "name": "TORREY BOTANICAL SOCIETY INC", "city": "BRONX", "state": "NY", "zip": "10458-0000", "ntee": "C420", "ruling": "195004", "deductibility": "1", "assets": 958789, "income": 413001, "revenue": 109253}, {"ein": "161206521", "name": "NIAGARA FRONTIER BOTANICAL SOCIETY", "city": "WILLIAMSVILLE", "state": "NY", "zip": "14221-5317", "ntee": "", "ruling": "198507", "deductibility": "1", "assets": 0, "income": 0, "revenue": 0}, {"ein": "222514024", "name": "BUFFALO AND ERIE COUNTY BOTANICAL GARDENS SOCIETY INC", "city": "BUFFALO", "state": "NY", "zip": "14218-1526", "ntee": "C410", "ruling": "198905", "deductibility": "1", "assets": 9305253, "income": 4893058, "revenue": 2461061}, {"ein": "334403824", "name": "LAKE CHAMPLAIN BOTANICAL GARDEN INC", "city": "WESTPORT", "state": "NY", "zip": "12993-0000", "ntee": "C41", "ruling": "202506", "deductibility": "1", "assets": 0, "income": 0, "revenue": 0}, {"ein": "471991365", "name": "AMERICAN COLLEGE OF VETERINARY BOTANICAL MEDICINE", "city": "COLDEN", "state": "NY", "zip": "14033-9610", "ntee": "B90", "ruling": "201604", "deductibility": "1", "assets": 0, "income": 0, "revenue": 0}, {"ein": "800193388", "name": "SNUG HARBOR CULTURAL CENTER AND BOTANICAL GARDEN", "city": "STATEN ISLAND", "state": "NY", "zip": "10301-1181", "ntee": "C41", "ruling": "200902", "deductibility": "1", "assets": 4117452, "income": 5688702, "revenue": 5056712}, {"ein": "825234556", "name": "NORTH TONAWANDA BOTANICAL GARDEN ORGANIZATION INC", "city": "N TONAWANDA", "state": "NY", "zip": "14120-5310", "ntee": "C41", "ruling": "201807", "deductibility": "1", "assets": 74412, "income": 13266, "revenue": 10016}, {"ein": "833618594", "name": "HORTUS ARBORETUM AND BOTANICAL GARDENS INC", "city": "STONE RIDGE", "state": "NY", "zip": "12484-5310", "ntee": "C41", "ruling": "201904", "deductibility": "1", "assets": 0, "income": 0, "revenue": 0}, {"ein": "932136653", "name": "LIMELEDGE BOTANICAL GARDEN AND ARBORETUM", "city": "ELBRIDGE", "state": "NY", "zip": "13060-9759", "ntee": "C41", "ruling": "202307", "deductibility": "1", "assets": 0, "income": 0, "revenue": 0}], "VISITING": [{"ein": "111722477", "name": "VISITING NURSE SERVICE AND HOSPICE OF SUFFOLK INC", "city": "NORTHPORT", "state": "NY", "zip": "11768-1954", "ntee": "E92Z", "ruling": "195302", "deductibility": "1", "assets": 10121426, "income": 17687868, "revenue": 17620685}, {"ein": "111977434", "name": "VISITING NURSE ASSOCIATION OF BROOKLYN INC", "city": "NEW YORK", "state": "NY", "zip": "10016-6022", "ntee": "E92", "ruling": "193412", "deductibility": "1", "assets": 638747, "income": 650000, "revenue": 0}, {"ein": "113312248", "name": "BROOKLYN VISITING NURSE FOUNDATION INC", "city": "NEW YORK", "state": "NY", "zip": "10016-6022", "ntee": "E30Z", "ruling": "199605", "deductibility": "1", "assets": 1, "income": 0, "revenue": 0}, {"ein": "113574017", "name": "VISITING NURSE REGIONAL HEALTH CARE SYSTEM INC", "city": "NEW YORK", "state": "NY", "zip": "10016-6022", "ntee": "E60", "ruling": "200106", "deductibility": "1", "assets": 1, "income": 1, "revenue": 0}, {"ein": "131624211", "name": "VISITING NURSE SERVICE OF NEW YORK HOME CARE II", "city": "NEW YORK", "state": "NY", "zip": "10017-5835", "ntee": "E920", "ruling": "194412", "deductibility": "1", "assets": 84506592, "income": 262965811, "revenue": 262965811}, {"ein": "131739952", "name": "VISITING NURSE ASSOCIATION OF HUDSON VALLEY", "city": "WESTBURY", "state": "NY", "zip": "11590-1740", "ntee": "E92Z", "ruling": "193807", "deductibility": "1", "assets": 268717, "income": 0, "revenue": 0}, {"ein": "132601443", "name": "VISITING NURSE SERVICES IN WESTCHESTER INC", "city": "WHITE PLAINS", "state": "NY", "zip": "10605-5221", "ntee": "E92Z", "ruling": "196809", "deductibility": "1", "assets": 3457761, "income": 11180687, "revenue": 11180687}, {"ein": "133189926", "name": "VISITING NURSE SERVICE OF NEW YORK", "city": "NEW YORK", "state": "NY", "zip": "10017-5835", "ntee": "E92", "ruling": "198502", "deductibility": "1", "assets": 899432105, "income": 216958829, "revenue": 46918105}, {"ein": "133323176", "name": "WESTCHESTER VISITING NURSE SERVICES GROUP INC", "city": "WHITE PLAINS", "state": "NY", "zip": "10605-5221", "ntee": "", "ruling": "198704", "deductibility": "1", "assets": 13936276, "income": 3965674, "revenue": 3844293}, {"ein": "133712494", "name": "VISITING NURSE PLUS INC", "city": "STATEN ISLAND", "state": "NY", "zip": "10301-2028", "ntee": "E92Z", "ruling": "199603", "deductibility": "1", "assets": 0, "income": 0, "revenue": 0}, {"ein": "135562377", "name": "VISITING NURSE ASSOCIATION HEALTH CARE SERVICES INC", "city": "STATEN ISLAND", "state": "NY", "zip": "10301-2028", "ntee": "E92Z", "ruling": "193408", "deductibility": "1", "assets": 2629332, "income": 5367516, "revenue": 5367516}, {"ein": "141338478", "name": "VISITING NURSE SERVICE ASSOCIATION OF SCHENECTADY COUNTY", "city": "SCHENECTADY", "state": "NY", "zip": "12305-2223", "ntee": "E92Z", "ruling": "194806", "deductibility": "1", "assets": 69015, "income": 0, "revenue": 0}, {"ein": "150532259", "name": "VISITING NURSE ASSOCIATION OF UTICA AND ONEIDA COUNTY INC", "city": "UTICA", "state": "NY", "zip": "13502-4801", "ntee": "E92Z", "ruling": "195103", "deductibility": "1", "assets": 1181057, "income": 4873313, "revenue": 4873313}, {"ein": "150536614", "name": "VISITING NURSE ASSOCIATION OF CENTRAL NEW YORK INC", "city": "SYRACUSE", "state": "NY", "zip": "13204-2243", "ntee": "E92Z", "ruling": "194212", "deductibility": "1", "assets": 89689907, "income": 212217539, "revenue": 203950326}, {"ein": "160743214", "name": "VISITING NURSING ASSOCIATION OF WESTERN NEW YORK INC", "city": "CHEEKTOWAGA", "state": "NY", "zip": "14225-1434", "ntee": "E92", "ruling": "198402", "deductibility": "1", "assets": 53532625, "income": 97757150, "revenue": 97629640}, {"ein": "205898276", "name": "ISABELLA VISITING CARE INC", "city": "NEW YORK", "state": "NY", "zip": "10041-3211", "ntee": "E91", "ruling": "200802", "deductibility": "1", "assets": 505664, "income": 0, "revenue": 0}, {"ein": "222588448", "name": "VISITING NURSE SERVICE OF ITHACA AND TOMPKINS COUNTY INC", "city": "ITHACA", "state": "NY", "zip": "14850-5124", "ntee": "E92Z", "ruling": "198509", "deductibility": "1", "assets": 2354654, "income": 4812564, "revenue": 4688045}, {"ein": "237379098", "name": "VISITING NEIGHBORS INC", "city": "NEW YORK", "state": "NY", "zip": "10012-1801", "ntee": "", "ruling": "197406", "deductibility": "1", "assets": 315726, "income": 325426, "revenue": 325426}, {"ein": "300006817", "name": "VISITING NURSE SERVICE OF NEW YORK HOSPICE", "city": "NEW YORK", "state": "NY", "zip": "10017-5835", "ntee": "P74", "ruling": "200203", "deductibility": "1", "assets": 28304087, "income": 94041913, "revenue": 94041913}, {"ein": "471531013", "name": "VISITING NURSE SERVICE AND HOSPICE OF SUFFOLK FOUNDATION INC", "city": "NORTHPORT", "state": "NY", "zip": "11768-1954", "ntee": "E92", "ruling": "201503", "deductibility": "1", "assets": 16383177, "income": 895458, "revenue": 895458}], "KNOLLWOOD": [{"ein": "111869307", "name": "KNOLLWOOD BEACH ASSOCIATION INC", "city": "HALESITE", "state": "NY", "zip": "11743-0852", "ntee": "N50", "ruling": "201301", "deductibility": "2", "assets": 0, "income": 0, "revenue": 0}, {"ein": "131715650", "name": "KNOLLWOOD COUNTRY CLUB", "city": "ELMSFORD", "state": "NY", "zip": "10523-2842", "ntee": "", "ruling": "193506", "deductibility": "2", "assets": 4637135, "income": 0, "revenue": 0}], "COBBLE": [{"ein": "111893420", "name": "CHRIST CHURCH COBBLE HILL", "city": "BROOKLYN", "state": "NY", "zip": "11231-3702", "ntee": "", "ruling": "197206", "deductibility": "1", "assets": 0, "income": 0, "revenue": 0}, {"ein": "112388200", "name": "COBBLE HILL HEALTH CENTER INC", "city": "BROOKLYN", "state": "NY", "zip": "11201-6048", "ntee": "E91Z", "ruling": "197703", "deductibility": "1", "assets": 89963137, "income": 58633862, "revenue": 58633862}, {"ein": "112582627", "name": "THE COBBLE HILL TREE FUND", "city": "BROOKLYN", "state": "NY", "zip": "11201-6401", "ntee": "", "ruling": "198111", "deductibility": "1", "assets": 0, "income": 0, "revenue": 0}, {"ein": "112583001", "name": "COBBLE HILL PLAYSCHOOL", "city": "BROOKLYN", "state": "NY", "zip": "11231-2627", "ntee": "P33Z", "ruling": "199403", "deductibility": "1", "assets": 1579304, "income": 1228361, "revenue": 1228361}, {"ein": "112705851", "name": "COBBLE HILL COMMUNITY FUND", "city": "BROOKLYN", "state": "NY", "zip": "11201-0000", "ntee": "", "ruling": "198504", "deductibility": "1", "assets": 0, "income": 0, "revenue": 0}, {"ein": "113122301", "name": "COBBLE HILL FOUNDATION INC", "city": "BROOKLYN", "state": "NY", "zip": "11201-0000", "ntee": "", "ruling": "202407", "deductibility": "1", "assets": 4053211, "income": 962786, "revenue": 0}, {"ein": "116037674", "name": "COBBLE HILL ASSOCIATION INC", "city": "BROOKLYN", "state": "NY", "zip": "11201-0000", "ntee": "", "ruling": "196404", "deductibility": "2", "assets": 0, "income": 0, "revenue": 0}, {"ein": "461388106", "name": "COBBLE HILL LIFECARE INC", "city": "BROOKLYN", "state": "NY", "zip": "11201-6048", "ntee": "G19", "ruling": "201406", "deductibility": "1", "assets": 1, "income": 0, "revenue": 0}], "QUICK": [{"ein": "112219525", "name": "QUICK START DAY CARE CENTER INC", "city": "SAINT ALBANS", "state": "NY", "zip": "11412-4024", "ntee": "P33Z", "ruling": "197409", "deductibility": "1", "assets": 206170, "income": 1545922, "revenue": 1545922}, {"ein": "134048403", "name": "RAYMOND CRILE QUICK SCHOLARSHIP FOUNDATION", "city": "MILL NECK", "state": "NY", "zip": "11765-1004", "ntee": "T220", "ruling": "200007", "deductibility": "1", "assets": 3485740, "income": 575594, "revenue": 0}], "SHIA": [{"ein": "112437484", "name": "SHIA ISLAMIC CENTER INC C O LLOYD A PLATT", "city": "MERRICK", "state": "NY", "zip": "11566-3445", "ntee": "", "ruling": "197712", "deductibility": "1", "assets": 0, "income": 0, "revenue": 0}, {"ein": "141783334", "name": "ISLAMIC SHIA ITHNA-ASHERI JAMAAT OF ALBANY", "city": "GUILDERLAND", "state": "NY", "zip": "12084-1325", "ntee": "X99Z", "ruling": "199609", "deductibility": "1", "assets": 3371874, "income": 992048, "revenue": 992048}, {"ein": "510186873", "name": "SHIA ITHNA ASHERI JAMAAT OF NEW YORK", "city": "HICKSVILLE", "state": "NY", "zip": "11801-5114", "ntee": "", "ruling": "197601", "deductibility": "1", "assets": 0, "income": 0, "revenue": 0}], "GEIREM": [{"ein": "112467865", "name": "CENTER FOR GEIREM C O BENJAMIN ISAACS", "city": "BROOKLYN", "state": "NY", "zip": "11213-5424", "ntee": "", "ruling": "197809", "deductibility": "1", "assets": 0, "income": 0, "revenue": 0}], "MALAYALAM": [{"ein": "112497209", "name": "CHURCH OF SOUTH INDIA MALAYALAM CONGREGATION OF NEW YORK INC", "city": "NEW YORK", "state": "NY", "zip": "10019-3051", "ntee": "", "ruling": "198110", "deductibility": "1", "assets": 0, "income": 0, "revenue": 0}, {"ein": "112649598", "name": "CHURCH OF SOUTH INDIA MALAYALAM CONGREGATION OF GREATER NY", "city": "SEAFORD", "state": "NY", "zip": "11783-1610", "ntee": "", "ruling": "198308", "deductibility": "1", "assets": 0, "income": 0, "revenue": 0}, {"ein": "264170371", "name": "WESTCHESTER MALAYALAM CHRISTIAN CHURCH", "city": "YONKERS", "state": "NY", "zip": "10701-1992", "ntee": "X20", "ruling": "201209", "deductibility": "1", "assets": 0, "income": 0, "revenue": 0}, {"ein": "831993720", "name": "MAR GREGORIOS SYRIAN ORTHODOX CHURCH MALAYALAM INC", "city": "STATEN ISLAND", "state": "NY", "zip": "10302-1311", "ntee": "X20", "ruling": "201812", "deductibility": "1", "assets": 248381, "income": 95452, "revenue": 95452}], "LASCAHOBAS": [{"ein": "112552893", "name": "FRIENDS OF THE CHILDREN OF LASCAHOBAS HAITI INC", "city": "NEW YORK", "state": "NY", "zip": "10038-0000", "ntee": "Q330", "ruling": "198105", "deductibility": "1", "assets": 0, "income": 0, "revenue": 0}], "GRADUATE": [{"ein": "112597353", "name": "GRADUATE STUDENT ORGANIZATION OF SUNY AT STONY BROOK INC", "city": "STONY BROOK", "state": "NY", "zip": "11794-0001", "ntee": "B80Z", "ruling": "199212", "deductibility": "1", "assets": 411430, "income": 679772, "revenue": 679772}, {"ein": "113284934", "name": "THE ELMEZZI GRADUATE SCHOOL OF MOLECULAR MEDICINE", "city": "WESTBURY", "state": "NY", "zip": "11590-1740", "ntee": "B54Z", "ruling": "199603", "deductibility": "1", "assets": 923, "income": 1354, "revenue": 1354}, {"ein": "131656681", "name": "POST GRADUATE CENTER FOR MENTAL HEALTH", "city": "NEW YORK", "state": "NY", "zip": "10016-4102", "ntee": "", "ruling": "195809", "deductibility": "1", "assets": 145182462, "income": 89217025, "revenue": 47621210}, {"ein": "132619665", "name": "BLANTON PEALE GRADUATE INSTITUTE INC", "city": "NEW YORK", "state": "NY", "zip": "10001-4406", "ntee": "X20B", "ruling": "196906", "deductibility": "1", "assets": 32117, "income": 308745, "revenue": 308745}, {"ein": "133219419", "name": "THE GRADUATE CENTER FOUNDATION INC", "city": "NEW YORK", "state": "NY", "zip": "10016-4309", "ntee": "", "ruling": "198409", "deductibility": "1", "assets": 117338236, "income": 58164431, "revenue": 56719573}, {"ein": "133329377", "name": "SHLOM BONAYICH GRADUATE INSTITUTE INC", "city": "BROOKLYN", "state": "NY", "zip": "11230-6044", "ntee": "", "ruling": "198611", "deductibility": "1", "assets": 0, "income": 0, "revenue": 0}, {"ein": "136227366", "name": "FEINBERG GRADUATE SCHOOL OF THE WEIZMANN INSTITUTE OF SCIENCE", "city": "NEW YORK", "state": "NY", "zip": "10017-8156", "ntee": "B500", "ruling": "196709", "deductibility": "1", "assets": 6095398, "income": 199560897, "revenue": 199521203}, {"ein": "141569152", "name": "HJ INTERNATIONAL GRADUATE SCHOOL FOR PEACE AND PUBLIC LEADERSHIP", "city": "NEW YORK", "state": "NY", "zip": "10036-7416", "ntee": "", "ruling": "199306", "deductibility": "1", "assets": 0, "income": 0, "revenue": 0}, {"ein": "146070533", "name": "TRUST UWILL GRACE A SEASE FOR VASSAR GRADUATE NURSES", "city": "NORWICH", "state": "NY", "zip": "13815-0000", "ntee": "T20", "ruling": "201201", "deductibility": "1", "assets": 178323, "income": 38182, "revenue": 0}, {"ein": "161086549", "name": "GRADUATE STUDENT ORGANIZATION AT THE STATE U OF NY AT BINGHAMTON", "city": "BINGHAMTON", "state": "NY", "zip": "13902-6000", "ntee": "B80Z", "ruling": "199309", "deductibility": "1", "assets": 662972, "income": 353908, "revenue": 353908}, {"ein": "161249356", "name": "COOPERSTOWN GRADUATE ASSOCIATION INC", "city": "COOPERSTOWN", "state": "NY", "zip": "13326-0004", "ntee": "", "ruling": "199201", "deductibility": "1", "assets": 141004, "income": 40772, "revenue": 36536}, {"ein": "222572815", "name": "SAMUEL CURTIS JOHNSON GRADUATE SCHL MGMT OF CORNELL UNIV ENDOWMENT TR", "city": "ITHACA", "state": "NY", "zip": "14850-4378", "ntee": "", "ruling": "198502", "deductibility": "1", "assets": 65579987, "income": 4384172, "revenue": 4212419}, {"ein": "262227891", "name": "GRADUATE CENTER FOUNDATION HOUSING CORPORATION", "city": "NEW YORK", "state": "NY", "zip": "10016-4309", "ntee": "B112", "ruling": "200903", "deductibility": "1", "assets": 18004215, "income": 2098461, "revenue": 2098461}, {"ein": "274188208", "name": "CHEUNG KONG GRADUATE SCHOOL OF BUSINESS NORTH AMERICA INC", "city": "NEW YORK", "state": "NY", "zip": "10169-0302", "ntee": "B40", "ruling": "201406", "deductibility": "1", "assets": 387288, "income": 541210, "revenue": 541210}, {"ein": "275316628", "name": "RELAY GRADUATE SCHOOL OF EDUCATION", "city": "NEW YORK", "state": "NY", "zip": "10004-1061", "ntee": "B40", "ruling": "201109", "deductibility": "1", "assets": 69145975, "income": 68539349, "revenue": 62808467}, {"ein": "352189280", "name": "CUNY GRADUATE SCHOOL AND UNIVERSITY CENTER AUXILIARY ENTERPRISES CORP", "city": "NEW YORK", "state": "NY", "zip": "10016-4309", "ntee": "B19", "ruling": "200405", "deductibility": "1", "assets": 4932492, "income": 1884271, "revenue": 1884271}, {"ein": "461461744", "name": "GRADUATE CENTER FOUNDATION HOUSING CORPORATION LIC", "city": "NEW YORK", "state": "NY", "zip": "10016-4309", "ntee": "B90", "ruling": "201403", "deductibility": "1", "assets": 11285499, "income": 2124, "revenue": 2124}, {"ein": "465195587", "name": "CRAIG NEWMARK GRADUATE SCHOOL OF JOURNALISM CUNY FOUNDATION INC", "city": "NEW YORK", "state": "NY", "zip": "10018-1507", "ntee": "B11", "ruling": "201410", "deductibility": "1", "assets": 44485578, "income": 25304020, "revenue": 14592423}, {"ein": "812072207", "name": "CUNY GRADUATE SCHOOL OF PUBLIC HEALTH & HEALTH POLICY FOUNDATION", "city": "NEW YORK", "state": "NY", "zip": "10027-4536", "ntee": "B11", "ruling": "201609", "deductibility": "1", "assets": 2524773, "income": 1728955, "revenue": 1728955}, {"ein": "814817117", "name": "FRIENDS OF THE EUROPEAN GRADUATE SCHOOL EGS INC", "city": "BROOKLYN", "state": "NY", "zip": "11216-2105", "ntee": "", "ruling": "201701", "deductibility": "1", "assets": 0, "income": 0, "revenue": 0}, {"ein": "823073350", "name": "SUNY COLLEGE OF ENVIRONMENTAL SCIENCE & FORESTRY GRADUATE STUDEN", "city": "SYRACUSE", "state": "NY", "zip": "13210-2712", "ntee": "B80", "ruling": "201710", "deductibility": "1", "assets": 0, "income": 0, "revenue": 0}, {"ein": "834328745", "name": "UNIVERSITY AT BUFFALO GRADUATE MANAGEMENT STUDENT ASSOCIATION INC", "city": "BUFFALO", "state": "NY", "zip": "14260-0001", "ntee": "B80", "ruling": "202104", "deductibility": "1", "assets": 14400, "income": 26984, "revenue": 26984}, {"ein": "842404146", "name": "UNIVERSITY AT BUFFALO GRADUATE STUDENT ASSOCIATION INC", "city": "BUFFALO", "state": "NY", "zip": "14260-0001", "ntee": "B80", "ruling": "202104", "deductibility": "1", "assets": 4006458, "income": 4994607, "revenue": 1632020}, {"ein": "861791257", "name": "INTERNATIONAL GRADUATE STUDIES INC", "city": "YORKTOWN HTS", "state": "NY", "zip": "10598-6637", "ntee": "B80", "ruling": "202108", "deductibility": "1", "assets": 2832, "income": 48720, "revenue": 48720}, {"ein": "882191937", "name": "UNIVERSITY AT ALBANY GRADUATE STUDENT ASSOCIATION INC", "city": "ALBANY", "state": "NY", "zip": "12222-0100", "ntee": "B80", "ruling": "202205", "deductibility": "1", "assets": 379861, "income": 305486, "revenue": 305486}], "ADELE": [{"ein": "112614184", "name": "ADELE AND WILLIAM FEDER PRIVATE FOUNDATION INC", "city": "GREENWOOD LK", "state": "NY", "zip": "10925-2121", "ntee": "", "ruling": "198311", "deductibility": "1", "assets": 120444, "income": 21319, "revenue": 0}, {"ein": "133199597", "name": "RONALD & ADELE TAUBER FOUNDATION", "city": "NEW YORK", "state": "NY", "zip": "10017-0000", "ntee": "", "ruling": "198509", "deductibility": "1", "assets": 80301, "income": 21708, "revenue": 0}, {"ein": "136279924", "name": "GEORGE AND ADELE KLEIN FOUNDATION", "city": "NEW YORK", "state": "NY", "zip": "10022-4212", "ntee": "", "ruling": "196812", "deductibility": "1", "assets": 2265026, "income": 1, "revenue": 0}, {"ein": "161523983", "name": "SAM AND ADELE GOLDEN FOUNDATION FOR THE ARTS INC", "city": "NEW BERLIN", "state": "NY", "zip": "13411-3617", "ntee": "T20", "ruling": "201207", "deductibility": "1", "assets": 2938728, "income": 1060355, "revenue": 0}, {"ein": "201999957", "name": "THE DR ADELE V DECKINGER FAMILY FOUNDATION INC", "city": "WHITE PLAINS", "state": "NY", "zip": "10605-4456", "ntee": "T20", "ruling": "200601", "deductibility": "1", "assets": 629580, "income": 111219, "revenue": 0}, {"ein": "222766747", "name": "EDWARD AND ADELE YEDID FOUNDATION INC", "city": "BROOKLYN", "state": "NY", "zip": "11223-2039", "ntee": "", "ruling": "198803", "deductibility": "1", "assets": 1, "income": 1, "revenue": 0}, {"ein": "816889929", "name": "GEORGE AND ADELE KLEIN FAMILY FOUNDATION", "city": "NEW YORK", "state": "NY", "zip": "10022-4212", "ntee": "T20", "ruling": "201803", "deductibility": "1", "assets": 1115272, "income": 56611, "revenue": 0}], "INTEGRITY": [{"ein": "112617528", "name": "DIGNITY-INTEGRITY ROCHESTER INC", "city": "ROCHESTER", "state": "NY", "zip": "14614-1401", "ntee": "R26", "ruling": "201605", "deductibility": "1", "assets": 0, "income": 0, "revenue": 0}, {"ein": "161500579", "name": "INTEGRITY HOME CARE SERVICES INC", "city": "SYRACUSE", "state": "NY", "zip": "13219-3009", "ntee": "P75", "ruling": "199701", "deductibility": "1", "assets": 27959, "income": 312122, "revenue": 312122}, {"ein": "203422817", "name": "EXCELLENCE WITH INTEGRITY INSTITUTE INC", "city": "MANLIUS", "state": "NY", "zip": "13104-1804", "ntee": "B99", "ruling": "200610", "deductibility": "1", "assets": 333607, "income": 712701, "revenue": 712701}, {"ein": "203673520", "name": "INTEGRITY CHRISTIAN FELLOWSHIP OF LONG ISLAND NY INC", "city": "YAPHANK", "state": "NY", "zip": "11980-9762", "ntee": "", "ruling": "196504", "deductibility": "1", "assets": 0, "income": 0, "revenue": 0}, {"ein": "205025699", "name": "INTEGRITY LIFESTYLE MINISTRIES INC", "city": "ROCHESTER", "state": "NY", "zip": "14619-1614", "ntee": "X20", "ruling": "200608", "deductibility": "1", "assets": 0, "income": 0, "revenue": 0}, {"ein": "271175639", "name": "FOUNDATION FOR AGRICULTURAL INTEGRITY", "city": "HUDSON", "state": "NY", "zip": "12534-0000", "ntee": "T22", "ruling": "201001", "deductibility": "1", "assets": 48253647, "income": 15827125, "revenue": 0}, {"ein": "320327631", "name": "INTEGRITY MINISTRIES OUTREACH INC", "city": "FARMINGVILLE", "state": "NY", "zip": "11738-0000", "ntee": "X20", "ruling": "201106", "deductibility": "1", "assets": 0, "income": 0, "revenue": 0}, {"ein": "461327798", "name": "INTEGRITY CARE SERVICES INC", "city": "BROOKLYN", "state": "NY", "zip": "11218-3510", "ntee": "F99", "ruling": "201405", "deductibility": "1", "assets": 5251190, "income": 2238811, "revenue": 2238811}, {"ein": "472485133", "name": "THE CENTER FOR SCIENTIFIC INTEGRITY INC", "city": "NEW YORK", "state": "NY", "zip": "10018-3612", "ntee": "U20", "ruling": "201506", "deductibility": "1", "assets": 437620, "income": 533904, "revenue": 533904}, {"ein": "800618724", "name": "FELLOWSHIP FOR CAMPUS SAFETY AND INTEGRITY INC", "city": "AIRMONT", "state": "NY", "zip": "10952-4514", "ntee": "R60", "ruling": "201209", "deductibility": "1", "assets": 0, "income": 0, "revenue": 0}, {"ein": "800682292", "name": "WOMEN OF INTEGRITY", "city": "HEMPSTEAD", "state": "NY", "zip": "11551-5312", "ntee": "P30", "ruling": "201511", "deductibility": "1", "assets": 0, "income": 0, "revenue": 0}, {"ein": "814938908", "name": "CENTER FOR RIGHTEOUSNESS AND INTEGRITY INC", "city": "LAWRENCE", "state": "NY", "zip": "11559-1409", "ntee": "A23", "ruling": "201703", "deductibility": "1", "assets": 2936083, "income": 3001113, "revenue": 0}, {"ein": "821387997", "name": "INTEGRITY PARTNERS FOR BEHAVIORAL HEALTH INC", "city": "BATAVIA", "state": "NY", "zip": "14020-2519", "ntee": "F32", "ruling": "201712", "deductibility": "1", "assets": 0, "income": 0, "revenue": 0}, {"ein": "822040522", "name": "PEOPLE UNITED TO PROTECT PET INTEGRITY INC", "city": "NEW YORK", "state": "NY", "zip": "10036-5000", "ntee": "S41", "ruling": "201811", "deductibility": "2", "assets": 1363, "income": 41100, "revenue": 41100}, {"ein": "832118374", "name": "INTEGRITY PARTNERS FOR BEHAVIORAL HEALTH IPA INC", "city": "BATAVIA", "state": "NY", "zip": "14020-0000", "ntee": "F30", "ruling": "202005", "deductibility": "1", "assets": 2088109, "income": 783306, "revenue": 783306}, {"ein": "853863267", "name": "INTEGRITY FELLOWSHIP AND SANCTUARY", "city": "BRONXVILLE", "state": "NY", "zip": "10708-6848", "ntee": "R99", "ruling": "202501", "deductibility": "1", "assets": 0, "income": 0, "revenue": 0}, {"ein": "872867555", "name": "TECH INTEGRITY INSTITUTE", "city": "BROOKLYN", "state": "NY", "zip": "11211-1424", "ntee": "B03", "ruling": "202203", "deductibility": "1", "assets": 2006071, "income": 3029402, "revenue": 3029402}, {"ein": "873153085", "name": "INTEGRITY CHURCH MINISTRIES", "city": "CORNWALL", "state": "NY", "zip": "12518-2002", "ntee": "X20", "ruling": "202312", "deductibility": "1", "assets": 0, "income": 0, "revenue": 0}, {"ein": "873251059", "name": "CONGOLESE WOMEN VISION INTEGRITY ACTION INC", "city": "SYRACUSE", "state": "NY", "zip": "13203-2814", "ntee": "S20", "ruling": "202209", "deductibility": "1", "assets": 0, "income": 0, "revenue": 0}, {"ein": "884132221", "name": "ITSEKIRI INTEGRITY GROUP INC", "city": "ARVERNE", "state": "NY", "zip": "11692-1855", "ntee": "B82", "ruling": "202303", "deductibility": "1", "assets": 0, "income": 0, "revenue": 0}, {"ein": "923834815", "name": "INTEGRITY PROJECT SOLUTIONS INC", "city": "HURLEY", "state": "NY", "zip": "12443-5222", "ntee": "T12", "ruling": "202309", "deductibility": "1", "assets": 0, "income": 0, "revenue": 0}, {"ein": "933284147", "name": "INTEGRITY PERFORMING ARTS CENTER NYC INC", "city": "BROOKLYN", "state": "NY", "zip": "11236-3927", "ntee": "B11", "ruling": "202309", "deductibility": "1", "assets": 0, "income": 0, "revenue": 0}, {"ein": "993117085", "name": "INTEGRITY IDENTIFICATION PROTECTION INC", "city": "NEW YORK", "state": "NY", "zip": "10116-9046", "ntee": "S99", "ruling": "202406", "deductibility": "1", "assets": 0, "income": 0, "revenue": 0}], "ESTER": [{"ein": "112680069", "name": "BAYIS ESTER", "city": "BROOKLYN", "state": "NY", "zip": "11219-3502", "ntee": "", "ruling": "198406", "deductibility": "1", "assets": 0, "income": 0, "revenue": 0}, {"ein": "112910261", "name": "DAVID & ESTER BISTRICER FOUNDATION", "city": "BROOKLYN", "state": "NY", "zip": "11219-2539", "ntee": "", "ruling": "198912", "deductibility": "1", "assets": 70, "income": 1, "revenue": 0}], "NCCPAP": [{"ein": "112905409", "name": "EDUCATIONAL FOUNDATION OF THE NASSAU/SUFFOLK CHAPTER OF NCCPAP", "city": "WOODBURY", "state": "NY", "zip": "11797-2931", "ntee": "S034", "ruling": "198811", "deductibility": "1", "assets": 247041, "income": 268119, "revenue": 268119}], "SARON": [{"ein": "112912374", "name": "IGLESIA PENTECOSTAL ROSA DE SARON INC", "city": "BROOKLYN", "state": "NY", "zip": "11206-2716", "ntee": "X99", "ruling": "199701", "deductibility": "1", "assets": 0, "income": 0, "revenue": 0}, {"ein": "263449573", "name": "IGLESIA DE DIOS PENTECOSTAL SEGUNDA ROSA DE SARON MINISTERIO INTL INC", "city": "BROOKLYN", "state": "NY", "zip": "11237-6114", "ntee": "X20", "ruling": "200905", "deductibility": "1", "assets": 0, "income": 0, "revenue": 0}, {"ein": "472286883", "name": "MINISTERIO INTERNACIONAL NY ROSA DE SARON", "city": "FAR ROCKAWAY", "state": "NY", "zip": "11691-3525", "ntee": "X20", "ruling": "202001", "deductibility": "1", "assets": 0, "income": 0, "revenue": 0}, {"ein": "831216748", "name": "IGLESIA DE DIOS PENTECOSTAL ROSA DE SARON INC", "city": "ROOSEVELT", "state": "NY", "zip": "11575-1527", "ntee": "X21", "ruling": "201905", "deductibility": "1", "assets": 0, "income": 0, "revenue": 0}], "NORTHWELL": [{"ein": "112965575", "name": "NORTHWELL HEALTH FOUNDATION", "city": "WESTBURY", "state": "NY", "zip": "11590-1740", "ntee": "E122", "ruling": "199404", "deductibility": "1", "assets": 539501981, "income": 276427972, "revenue": 155789579}, {"ein": "112965586", "name": "NORTHWELL HEALTHCARE INC", "city": "WESTBURY", "state": "NY", "zip": "11590-1740", "ntee": "E32", "ruling": "199403", "deductibility": "1", "assets": 6722693502, "income": 3498226375, "revenue": 2459986464}, {"ein": "113412370", "name": "NORTHWELL HEALTH LABORATORIES", "city": "WESTBURY", "state": "NY", "zip": "11590-1740", "ntee": "E60", "ruling": "199909", "deductibility": "1", "assets": 178402540, "income": 743529825, "revenue": 743529825}, {"ein": "113418133", "name": "NORTHWELL HEALTH INC", "city": "WESTBURY", "state": "NY", "zip": "11590-1740", "ntee": "S50", "ruling": "199901", "deductibility": "1", "assets": 99450112, "income": 0, "revenue": 0}, {"ein": "237007485", "name": "NORTHWELL HEALTH STERN FAMILY CENTER FOR REHABILITATION", "city": "WESTBURY", "state": "NY", "zip": "11590-1740", "ntee": "E910", "ruling": "196810", "deductibility": "1", "assets": 36194512, "income": 64118076, "revenue": 64024661}, {"ein": "812766298", "name": "NORTHWELL PROTON THERAPY PC", "city": "WESTBURY", "state": "NY", "zip": "11590-1740", "ntee": "E30", "ruling": "201810", "deductibility": "1", "assets": 1, "income": 0, "revenue": 0}, {"ein": "824113233", "name": "NORTHWELL QUALITY AND MEDICAL AFFAIRS INC", "city": "WESTBURY", "state": "NY", "zip": "11590-1740", "ntee": "E11", "ruling": "201905", "deductibility": "1", "assets": 1, "income": 0, "revenue": 0}, {"ein": "874329881", "name": "NORTHWELL HEALTH CANCER INSTITUTE INC", "city": "WESTBURY", "state": "NY", "zip": "11590-1740", "ntee": "E24", "ruling": "202503", "deductibility": "1", "assets": 1, "income": 0, "revenue": 0}, {"ein": "932096172", "name": "NORTHWELL HEALTH MEDICAL NJ PC", "city": "WESTBURY", "state": "NY", "zip": "11590-1740", "ntee": "E21", "ruling": "202502", "deductibility": "1", "assets": 1, "income": 0, "revenue": 0}, {"ein": "932921150", "name": "NORTHWELL HEALTH MEDICAL PA PC", "city": "WESTBURY", "state": "NY", "zip": "11590-1740", "ntee": "H90", "ruling": "202411", "deductibility": "1", "assets": 1, "income": 0, "revenue": 0}, {"ein": "933512438", "name": "NORTHWELL HEALTH MEDICAL INC", "city": "WESTBURY", "state": "NY", "zip": "11590-1740", "ntee": "P20", "ruling": "202402", "deductibility": "1", "assets": 1, "income": 0, "revenue": 0}], "SAMAKKI": [{"ein": "112991112", "name": "WATT SAMAKKI-DHAMMIKARAM INC", "city": "BROOKLYN", "state": "NY", "zip": "11226-2608", "ntee": "", "ruling": "199208", "deductibility": "1", "assets": 0, "income": 0, "revenue": 0}], "CORPOR": [{"ein": "113011790", "name": "STONY BROOK DERMATOLOGY ASSOCIATES UNIVERSITY FACULTY PRACTICE CORPOR", "city": "STONYBROOK", "state": "NY", "zip": "11790-0988", "ntee": "E20", "ruling": "200802", "deductibility": "1", "assets": 2173247, "income": 14573119, "revenue": 14573119}, {"ein": "113066770", "name": "STONY BROOK EMERGENCY PHYSICIANS UNIVERSITY FACULTY PRACTICE CORPOR", "city": "STONY BROOK", "state": "NY", "zip": "11790-0988", "ntee": "E20", "ruling": "200802", "deductibility": "1", "assets": 2407762, "income": 31561886, "revenue": 31561886}, {"ein": "133101108", "name": "UNITED JEWISH COUNCIL OF THE EAST SIDE HOME ATTENDANT SERVICE CORPOR", "city": "NEW YORK", "state": "NY", "zip": "10002-4181", "ntee": "", "ruling": "198211", "deductibility": "1", "assets": 20698065, "income": 24197611, "revenue": 24197611}, {"ein": "873213128", "name": "PHELPS FACULTY MEDICAL AFFILIATES UNIVERSITY FACULTY PRACTICE CORPOR", "city": "WESTBURY", "state": "NY", "zip": "11590-1740", "ntee": "E30", "ruling": "202209", "deductibility": "1", "assets": 1, "income": 0, "revenue": 0}], "PHARMACEUTICAL": [{"ein": "113022727", "name": "NEW YORK CITY PHARMACEUTICAL SOCIETY", "city": "FARMINGDALE", "state": "NY", "zip": "11735-3231", "ntee": "", "ruling": "199608", "deductibility": "2", "assets": 421952, "income": 168714, "revenue": 168714}, {"ein": "141674684", "name": "PAKISTAN-AMERICAN PHARMACEUTICAL ASSOCIATION INC", "city": "YONKERS", "state": "NY", "zip": "10704-1111", "ntee": "S40", "ruling": "201804", "deductibility": "2", "assets": 482303, "income": 108808, "revenue": 108808}, {"ein": "146020036", "name": "PHARMACEUTICAL SOCIETY OF ORANGE COUNTY INC", "city": "MIDDLETOWN", "state": "NY", "zip": "10940-6180", "ntee": "S41", "ruling": "199907", "deductibility": "2", "assets": 0, "income": 0, "revenue": 0}, {"ein": "146027579", "name": "KAPPA PSI PHARMACEUTICAL FRATERNITY", "city": "AVERILL PARK", "state": "NY", "zip": "12018-9582", "ntee": "", "ruling": "201804", "deductibility": "2", "assets": 0, "income": 0, "revenue": 0}, {"ein": "166098135", "name": "KAPPA PSI PHARMACEUTICAL FRATERNITY", "city": "LAKE VIEW", "state": "NY", "zip": "14085-0000", "ntee": "", "ruling": "196402", "deductibility": "2", "assets": 0, "income": 0, "revenue": 0}, {"ein": "222533802", "name": "CAPITAL AREA PHARMACEUTICAL SOCIETY", "city": "COHOES", "state": "NY", "zip": "12047-4013", "ntee": "", "ruling": "198702", "deductibility": "2", "assets": 69363, "income": 937, "revenue": 937}, {"ein": "453050205", "name": "KAPPA PSI PHARMACEUTICAL FRATERNITY", "city": "BUFFALO", "state": "NY", "zip": "14201-1032", "ntee": "", "ruling": "196402", "deductibility": "2", "assets": 0, "income": 0, "revenue": 0}, {"ein": "465307024", "name": "KAPPA PSI PHARMACEUTICAL FRATERNITY", "city": "NORTH HILLS", "state": "NY", "zip": "11040-1065", "ntee": "", "ruling": "196402", "deductibility": "2", "assets": 0, "income": 0, "revenue": 0}, {"ein": "471053293", "name": "KAPPA PSI PHARMACEUTICAL FRATERNITY", "city": "NEW YORK", "state": "NY", "zip": "10036-6564", "ntee": "", "ruling": "196402", "deductibility": "2", "assets": 0, "income": 0, "revenue": 0}, {"ein": "824235903", "name": "KAPPA PSI PHARMACEUTICAL FRATERNITY ST JOHNS UNIVERSITY", "city": "JAMAICA", "state": "NY", "zip": "11439-9000", "ntee": "", "ruling": "196402", "deductibility": "2", "assets": 0, "income": 0, "revenue": 0}], "MIZPEH": [{"ein": "113056404", "name": "MIZPEH CHRISTIAN CHURCH INC", "city": "BROOKLYN", "state": "NY", "zip": "11208-2137", "ntee": "", "ruling": "199105", "deductibility": "1", "assets": 0, "income": 0, "revenue": 0}], "NON": [{"ein": "113063101", "name": "NON-SECTARIAN CHURCH OF GOD INC", "city": "NEW YORK", "state": "NY", "zip": "10035-3018", "ntee": "X21", "ruling": "201807", "deductibility": "1", "assets": 0, "income": 0, "revenue": 0}, {"ein": "113223514", "name": "NEW SEED REVELATION NON DENOMINATIONAL CHURCH INC", "city": "JAMAICA", "state": "NY", "zip": "11434-1021", "ntee": "", "ruling": "199409", "deductibility": "1", "assets": 0, "income": 0, "revenue": 0}, {"ein": "113256222", "name": "NON-DENOMINATIONAL ASSEMBLY OF GOD IN CHRIST WORLD-WIDE FELLOWSHIP", "city": "BROOKLYN", "state": "NY", "zip": "11233-3033", "ntee": "X20Z", "ruling": "199509", "deductibility": "1", "assets": 0, "income": 0, "revenue": 0}, {"ein": "133272001", "name": "NON TRADITIONAL EMPLOYMENT FOR WOMEN", "city": "NEW YORK", "state": "NY", "zip": "10011-3501", "ntee": "J220", "ruling": "198508", "deductibility": "1", "assets": 4341346, "income": 4456096, "revenue": 4132742}, {"ein": "133736064", "name": "WESTCHESTER COUNTY MARTIN LUTHER KING JR INSTITUTE FOR NON-VIOLENCE", "city": "WHITE PLAINS", "state": "NY", "zip": "10605-2103", "ntee": "R30Z", "ruling": "199311", "deductibility": "1", "assets": 0, "income": 0, "revenue": 0}, {"ein": "133807091", "name": "CINE QUA NON INC", "city": "PURCHASE", "state": "NY", "zip": "10577-2614", "ntee": "A31", "ruling": "199505", "deductibility": "1", "assets": 6716, "income": 61838, "revenue": 61838}, {"ein": "133952047", "name": "NON-PROFIT ASSISTANCE CORPORATION", "city": "NEW YORK", "state": "NY", "zip": "10007-3131", "ntee": "S30", "ruling": "199710", "deductibility": "1", "assets": 0, "income": 0, "revenue": 0}, {"ein": "133972195", "name": "CONFERENCE OF NON-GOVERNMENTAL ORGANIZATIONS FOUNDATION INC", "city": "NEW YORK", "state": "NY", "zip": "10017-3521", "ntee": "Q420", "ruling": "199804", "deductibility": "1", "assets": 0, "income": 0, "revenue": 0}, {"ein": "134054353", "name": "THE PERSONNEL ASSOCIATION OF NON PROFIT ORGANIZATIONS", "city": "NEW YORK", "state": "NY", "zip": "10113-0636", "ntee": "S41", "ruling": "201806", "deductibility": "2", "assets": 0, "income": 0, "revenue": 0}, {"ein": "134142142", "name": "WORLD ASSOCIATION OF NON-GOVERNMENTAL ORGANIZATIONS", "city": "NEW YORK", "state": "NY", "zip": "10017-1822", "ntee": "Q032", "ruling": "200108", "deductibility": "1", "assets": 0, "income": 0, "revenue": 0}, {"ein": "141771791", "name": "ONTEORA NON-TEACHING EMPLOYEES ASSOCIATION BENEFIT TR", "city": "BOICEVILLE", "state": "NY", "zip": "12412-0268", "ntee": "", "ruling": "199604", "deductibility": "2", "assets": 437145, "income": 237930, "revenue": 237930}, {"ein": "161438193", "name": "NATIONAL FUEL GAS DISTRIBUTION CORP -NY DIV VOL EMP BEN ASSOC FOR NON-", "city": "WILLIAMSVILLE", "state": "NY", "zip": "14221-5855", "ntee": "Y43", "ruling": "200506", "deductibility": "2", "assets": 43213825, "income": 2921738, "revenue": 2921738}, {"ein": "161674222", "name": "HUDSON VALLEY COMMUNITY COLLEGE NON-INSTRUCTIONAL EMPLOYEES UNION", "city": "TROY", "state": "NY", "zip": "12180-6037", "ntee": "J40", "ruling": "200407", "deductibility": "2", "assets": 459757, "income": 69950, "revenue": 69950}, {"ein": "201792589", "name": "NEW JERSEY COUNCIL FOR EXCEPTIONAL CHILDREN A NON PROFIT CORPORATION", "city": "LEVITTOWN", "state": "NY", "zip": "11756-3705", "ntee": "B03", "ruling": "201711", "deductibility": "1", "assets": 0, "income": 0, "revenue": 0}, {"ein": "222533326", "name": "CSEA 0807-631900 RIPLEY CENTRAL SCHOOL NON-TEACHING", "city": "ALBANY", "state": "NY", "zip": "12210-2303", "ntee": "", "ruling": "191007", "deductibility": "2", "assets": 0, "income": 0, "revenue": 0}, {"ein": "223097073", "name": "HUDSON VALLEY COLLEGE NON-TEACHING PROFESSIONALS ASSOCIATION", "city": "TROY", "state": "NY", "zip": "12180-6037", "ntee": "", "ruling": "199106", "deductibility": "2", "assets": 467133, "income": 67051, "revenue": 67051}, {"ein": "223463110", "name": "SOCIETY FOR THE INVESTIGATION OF EARLY PREGNANCY INC A NON-PROFIT C", "city": "NEW YORK", "state": "NY", "zip": "10016-1760", "ntee": "", "ruling": "199802", "deductibility": "2", "assets": 0, "income": 0, "revenue": 0}, {"ein": "223726345", "name": "CITIZEN FOR SOCIAL RESPONSIBILITY A NON-PROFIT CORPORATION", "city": "WHITEHALL", "state": "NY", "zip": "12887-1412", "ntee": "R99", "ruling": "200011", "deductibility": "1", "assets": 0, "income": 0, "revenue": 0}, {"ein": "237434088", "name": "NATIONAL FOOTBALL LEAGUE NON-PLAYERS INSURANCE TRUST", "city": "NEW YORK", "state": "NY", "zip": "10154-0004", "ntee": "", "ruling": "197409", "deductibility": "2", "assets": 4592497, "income": 2121967, "revenue": 2121967}, {"ein": "263484742", "name": "NON-STOP MEDIA INC", "city": "REGO PARK", "state": "NY", "zip": "11374-3655", "ntee": "A33", "ruling": "200910", "deductibility": "1", "assets": 1, "income": 0, "revenue": 0}, {"ein": "275470953", "name": "HELPERS 4 SHELTERS A NON-PROFIT CORPORATION", "city": "MIDDLETOWN", "state": "NY", "zip": "10940-5225", "ntee": "D20", "ruling": "201305", "deductibility": "1", "assets": 0, "income": 0, "revenue": 0}, {"ein": "300693098", "name": "NEW YORK HUNGARIAN SCIENTIFIC SOCIETY NON PROFIT CORPORATION", "city": "NEW YORK", "state": "NY", "zip": "10028-0011", "ntee": "U039", "ruling": "201203", "deductibility": "1", "assets": 0, "income": 0, "revenue": 0}, {"ein": "300761877", "name": "WATERLOO NON-INSTRUCTIONAL EMPLOYEES ASSOCIATION", "city": "WATERLOO", "state": "NY", "zip": "13165-8471", "ntee": "J40", "ruling": "201904", "deductibility": "2", "assets": 0, "income": 0, "revenue": 0}, {"ein": "331057705", "name": "PARTNERSHIP FOR NON-PROFIT ENTERPRISE EXCELLENCE INC", "city": "W HENRIETTA", "state": "NY", "zip": "14586-9627", "ntee": "B90", "ruling": "200311", "deductibility": "1", "assets": 0, "income": 0, "revenue": 0}, {"ein": "333891426", "name": "CONQUER NON-PROFIT INC", "city": "NEW YORK", "state": "NY", "zip": "10016-6800", "ntee": "N30", "ruling": "202504", "deductibility": "1", "assets": 0, "income": 0, "revenue": 0}, {"ein": "364741481", "name": "ST AMBROSE ALUMNI ASSOCIATION NEW YORK NON-PROFIT INC", "city": "BROOKLYN", "state": "NY", "zip": "11208-2623", "ntee": "P12", "ruling": "201407", "deductibility": "1", "assets": 3161, "income": 6537, "revenue": 6537}, {"ein": "460852837", "name": "CENTER FOR NON-PROFIT DEVELOPMENT INC", "city": "ALBANY", "state": "NY", "zip": "12203-5319", "ntee": "T02", "ruling": "201401", "deductibility": "1", "assets": 0, "income": 0, "revenue": 0}, {"ein": "521936144", "name": "YOUTH IMPROVING NON-PROFITS FOR CHILDREN", "city": "NEW YORK", "state": "NY", "zip": "10018-1761", "ntee": "O99", "ruling": "199510", "deductibility": "1", "assets": 4995972, "income": 6066639, "revenue": 5793015}, {"ein": "550909540", "name": "WESTMORELAND NON INSTRUCTIONAL EMPLOYEES SERVICE ORGANIZATION", "city": "VERNON", "state": "NY", "zip": "13476-4227", "ntee": "", "ruling": "196711", "deductibility": "2", "assets": 0, "income": 0, "revenue": 0}, {"ein": "581902609", "name": "M K GANDHI INSTITUTE FOR NON-VIOLENCE", "city": "ROCHESTER", "state": "NY", "zip": "14608-2905", "ntee": "Q44Z", "ruling": "199008", "deductibility": "1", "assets": 17755, "income": 511208, "revenue": 511208}, {"ein": "611412695", "name": "UNIVERSAL HAGAR COMMUNITY DEVELOPMENT NON-PROFIT HOUSING", "city": "QUEENS VLG", "state": "NY", "zip": "11429-2650", "ntee": "P40", "ruling": "200401", "deductibility": "1", "assets": 0, "income": 0, "revenue": 0}, {"ein": "731682480", "name": "NON NOBIS SOLUM FOUNDATION INC", "city": "CANAAN", "state": "NY", "zip": "12029-0032", "ntee": "T20", "ruling": "200312", "deductibility": "1", "assets": 1649930, "income": 297465, "revenue": 0}, {"ein": "753245361", "name": "THE SHAPIRO CENTER FOR NON-PROFIT ORGANIZATIONS INC", "city": "BROOKLYN", "state": "NY", "zip": "11235-5369", "ntee": "T30", "ruling": "201008", "deductibility": "1", "assets": 0, "income": 0, "revenue": 0}, {"ein": "822415590", "name": "ISLAMIC CENTER OF RIDGEWOOD NON PROFIT CORP", "city": "RIDGEWOOD", "state": "NY", "zip": "11385-5354", "ntee": "X40", "ruling": "201902", "deductibility": "1", "assets": 0, "income": 0, "revenue": 0}, {"ein": "862704532", "name": "NATIONAL UNION OF NON-PROFIT DOMINICAN REPUBLIC INC", "city": "BRONX", "state": "NY", "zip": "10457-2888", "ntee": "B19", "ruling": "202205", "deductibility": "1", "assets": 9767, "income": 109475, "revenue": 109475}, {"ein": "873364262", "name": "NON-DENOMINATIONAL GLOBAL CHRIST CHURCH", "city": "BROOKLYN", "state": "NY", "zip": "11205-2566", "ntee": "X20", "ruling": "202412", "deductibility": "1", "assets": 0, "income": 0, "revenue": 0}, {"ein": "874080799", "name": "TFG NON PROFIT", "city": "WILLIAMSVILLE", "state": "NY", "zip": "14221-7892", "ntee": "P51", "ruling": "202202", "deductibility": "1", "assets": 0, "income": 0, "revenue": 0}, {"ein": "921666972", "name": "CHIAMAKA NON PROFIT ORGANIZATION OF NEW YORK INC", "city": "JAMAICA", "state": "NY", "zip": "11433-3030", "ntee": "T31", "ruling": "202309", "deductibility": "1", "assets": 0, "income": 0, "revenue": 0}, {"ein": "933930720", "name": "CENTRO COMUNITARIO INTERNACIONAL NON PROFIT CORP", "city": "CORONA", "state": "NY", "zip": "11368-1742", "ntee": "P20", "ruling": "202501", "deductibility": "1", "assets": 306, "income": 5000, "revenue": 5000}, {"ein": "934892651", "name": "ALLIANCE OF NON-HIMALAYAN NUNS INC", "city": "WOODBURY", "state": "NY", "zip": "11797-2055", "ntee": "X50", "ruling": "202403", "deductibility": "1", "assets": 0, "income": 0, "revenue": 0}], "HAYDERVARA": [{"ein": "113361061", "name": "CONGREATION HAYDERVARA", "city": "BROOKLYN", "state": "NY", "zip": "11219-4220", "ntee": "X99Z", "ruling": "199704", "deductibility": "1", "assets": 0, "income": 0, "revenue": 0}], "MUJER": [{"ein": "113369566", "name": "SEPA MUJER INC", "city": "PATCHOGUE", "state": "NY", "zip": "11772-2015", "ntee": "Z99", "ruling": "199712", "deductibility": "1", "assets": 3007106, "income": 1431422, "revenue": 1389744}, {"ein": "332894132", "name": "CONGRESO DE LA MUJER LATINA INC", "city": "HAMPTON BAYS", "state": "NY", "zip": "11946-2605", "ntee": "B90", "ruling": "202506", "deductibility": "1", "assets": 0, "income": 0, "revenue": 0}, {"ein": "845172831", "name": "MUJER A LOS PIES DEL MAESTRO", "city": "YONKERS", "state": "NY", "zip": "10710-1343", "ntee": "P99", "ruling": "202204", "deductibility": "1", "assets": 0, "income": 0, "revenue": 0}, {"ein": "871680411", "name": "MUJER PROCESADA DE GUSANO A MARIPOSA", "city": "BRONX", "state": "NY", "zip": "10472-5006", "ntee": "S21", "ruling": "202202", "deductibility": "1", "assets": 0, "income": 0, "revenue": 0}, {"ein": "980115409", "name": "PRO MUJER INC", "city": "NEW YORK", "state": "NY", "zip": "10022-5403", "ntee": "Q300", "ruling": "199103", "deductibility": "1", "assets": 270187060, "income": 75116159, "revenue": 75116159}], "FORD": [{"ein": "113375143", "name": "TYLER FORD BIALEK MEMORIAL FOUNDATION INC", "city": "JERICHO", "state": "NY", "zip": "11753-2818", "ntee": "T30", "ruling": "199709", "deductibility": "1", "assets": 4099, "income": 1000, "revenue": 1000}, {"ein": "113666946", "name": "ADIRONDACK AS MODEL A FORD CLUB", "city": "CLIFTON PARK", "state": "NY", "zip": "12065-0804", "ntee": "O50", "ruling": "201904", "deductibility": "1", "assets": 0, "income": 0, "revenue": 0}, {"ein": "131684331", "name": "FORD FOUNDATION", "city": "NEW YORK", "state": "NY", "zip": "10017-4801", "ntee": "T21", "ruling": "196009", "deductibility": "1", "assets": 16791366964, "income": 2158101203, "revenue": 0}, {"ein": "150625873", "name": "EDITH B FORD MEMORIAL LIBRARY", "city": "OVID", "state": "NY", "zip": "14521-0410", "ntee": "", "ruling": "199806", "deductibility": "1", "assets": 4880870, "income": 285399, "revenue": 285399}, {"ein": "161573609", "name": "MARGARET FORD LEONARD AND MARION E MCKINNEY CHARITABLE FOUNDATION", "city": "ONEONTA", "state": "NY", "zip": "13820-1968", "ntee": "T20", "ruling": "200004", "deductibility": "1", "assets": 1175638, "income": 734408, "revenue": 0}, {"ein": "201181589", "name": "HENDERSON FAMILY FORD FOUNDATION", "city": "WEBSTER", "state": "NY", "zip": "14580-1934", "ntee": "T12", "ruling": "200904", "deductibility": "1", "assets": 0, "income": 0, "revenue": 0}, {"ein": "270904683", "name": "FORD FOUNDATION VEBA TRUST", "city": "NEW YORK", "state": "NY", "zip": "10017-4801", "ntee": "Y43", "ruling": "201101", "deductibility": "2", "assets": 33620467, "income": 6264263, "revenue": 2056539}, {"ein": "341351777", "name": "INTERNATIONAL FORD RETRACTABLE CLUB", "city": "CICERO", "state": "NY", "zip": "13039-9050", "ntee": "", "ruling": "198504", "deductibility": "2", "assets": 41584, "income": 70208, "revenue": 56058}, {"ein": "347165893", "name": "WILLIAM L FORD SCHOLARSHIP TR", "city": "SARATOGA SPGS", "state": "NY", "zip": "12866-2203", "ntee": "T20", "ruling": "200603", "deductibility": "1", "assets": 11604, "income": 1064, "revenue": 0}, {"ein": "471252584", "name": "HARDING FORD VISION INC", "city": "JAMAICA", "state": "NY", "zip": "11435-5737", "ntee": "K35", "ruling": "201502", "deductibility": "1", "assets": 29794, "income": 139455, "revenue": 139455}, {"ein": "831600950", "name": "JENNIFER FORD BERRY MINISTRIES INC", "city": "ATTICA", "state": "NY", "zip": "14011-9440", "ntee": "X99", "ruling": "201902", "deductibility": "1", "assets": 1429, "income": 19893, "revenue": 0}, {"ein": "873495360", "name": "SHARON & BOB FORD FOUNDATION", "city": "NEW YORK", "state": "NY", "zip": "10185-5016", "ntee": "T22", "ruling": "202206", "deductibility": "1", "assets": 4190873, "income": 7098975, "revenue": 0}], "EPISTLES": [{"ein": "113454725", "name": "LIVING EPISTLES MINISTRIES", "city": "SELDEN", "state": "NY", "zip": "11784-2503", "ntee": "X20", "ruling": "200002", "deductibility": "1", "assets": 112330, "income": 236332, "revenue": 236332}], "GAELIC": [{"ein": "113470545", "name": "INIS FADA GAELIC PIPE BAND LTD", "city": "E NORTHPORT", "state": "NY", "zip": "11731-2612", "ntee": "A6C", "ruling": "199911", "deductibility": "1", "assets": 0, "income": 0, "revenue": 0}, {"ein": "133502982", "name": "ROCKLAND GAELIC ATHLETIC ASSOCIATION INC", "city": "ORANGEBURG", "state": "NY", "zip": "10962-1156", "ntee": "N64", "ruling": "201808", "deductibility": "1", "assets": 3552003, "income": 572220, "revenue": 552392}, {"ein": "133964600", "name": "GAELIC ATHLETIC ASSOCIATION OF GREATER NEW YORK INC", "city": "YONKERS", "state": "NY", "zip": "10704-3145", "ntee": "A230", "ruling": "200012", "deductibility": "1", "assets": 2831751, "income": 1941243, "revenue": 1748967}, {"ein": "160973558", "name": "GAELIC AMERICAN ATHLETIC ASSOCIATION OF BUFFALO NY", "city": "BUFFALO", "state": "NY", "zip": "14220-1305", "ntee": "A23Z", "ruling": "198506", "deductibility": "2", "assets": 60721, "income": 642927, "revenue": 258525}, {"ein": "204212788", "name": "BUFFALO FENIANS GAELIC FOOTBALLCLUB", "city": "BUFFALO", "state": "NY", "zip": "14220-1305", "ntee": "A23", "ruling": "201404", "deductibility": "1", "assets": 0, "income": 0, "revenue": 0}, {"ein": "222255245", "name": "GREENWOOD LAKE GAELIC CULTURAL SOCIETY INC", "city": "GREENWOOD LK", "state": "NY", "zip": "10925-0933", "ntee": "A23Z", "ruling": "198001", "deductibility": "1", "assets": 1641563, "income": 187026, "revenue": 187026}, {"ein": "222672842", "name": "GALLOWAY GAELIC PIPES AND DRUMS", "city": "GLENS FALLS", "state": "NY", "zip": "12801-0873", "ntee": "", "ruling": "198804", "deductibility": "1", "assets": 0, "income": 0, "revenue": 0}, {"ein": "223607610", "name": "MINOR BOARD OF THE GAELIC ATHLETIC ASSOCIATION OF NEW YORK INC", "city": "YONKERS", "state": "NY", "zip": "10704-4131", "ntee": "N99", "ruling": "200105", "deductibility": "1", "assets": 1329088, "income": 1516490, "revenue": 1434590}, {"ein": "272354756", "name": "SHANNON GAELS GAELIC FOOTLBALL CLUB", "city": "QUEENS", "state": "NY", "zip": "11379-2440", "ntee": "N63", "ruling": "201011", "deductibility": "1", "assets": 175326, "income": 155367, "revenue": 107996}, {"ein": "431971624", "name": "FDNY GAELIC FOOTBALL TEAM INC", "city": "ISLAND PARK", "state": "NY", "zip": "11558-0186", "ntee": "N99", "ruling": "200812", "deductibility": "2", "assets": 0, "income": 0, "revenue": 0}, {"ein": "471192504", "name": "ALBANY REBELS GAELIC ATHLETIC ASSOCIATION INC", "city": "DELMAR", "state": "NY", "zip": "12054-2423", "ntee": "S80", "ruling": "201606", "deductibility": "2", "assets": 0, "income": 0, "revenue": 0}, {"ein": "820768941", "name": "TWO RIVERS GAELIC LEAGUE", "city": "ALBANY", "state": "NY", "zip": "12205-3810", "ntee": "A23", "ruling": "202301", "deductibility": "1", "assets": 0, "income": 0, "revenue": 0}, {"ein": "843953034", "name": "DUTCHESS COUNTY GAELIC ATHLETIC ASSOCIATION INC", "city": "LAGRANGEVILLE", "state": "NY", "zip": "12540-0000", "ntee": "A23", "ruling": "202002", "deductibility": "1", "assets": 48263, "income": 81378, "revenue": 80249}, {"ein": "861165879", "name": "FINEST GAELIC FOOTBALL CLUB INC", "city": "BRONX", "state": "NY", "zip": "10470-0036", "ntee": "W12", "ruling": "201408", "deductibility": "1", "assets": 48229, "income": 108102, "revenue": 0}, {"ein": "882036653", "name": "AMERICAN GAELIC GAMES", "city": "SYRACUSE", "state": "NY", "zip": "13207-1530", "ntee": "N60", "ruling": "202006", "deductibility": "1", "assets": 0, "income": 0, "revenue": 0}, {"ein": "990983287", "name": "ST BARNABAS GAELIC FOOTBALL CLUB INC", "city": "YONKERS", "state": "NY", "zip": "10704-3924", "ntee": "O23", "ruling": "202502", "deductibility": "1", "assets": 0, "income": 0, "revenue": 0}], "PAWS": [{"ein": "113502164", "name": "PEOPLE 4 PAWS ANIMAL RESCUE INC", "city": "MONTAUK", "state": "NY", "zip": "11954-5046", "ntee": "D20", "ruling": "199912", "deductibility": "1", "assets": 21338, "income": 58550, "revenue": 43986}, {"ein": "133729574", "name": "PRECIOUS PAWS", "city": "VAILS GATE", "state": "NY", "zip": "12584-0454", "ntee": "D20Z", "ruling": "199309", "deductibility": "1", "assets": 0, "income": 0, "revenue": 0}, {"ein": "133843120", "name": "PAWS TO LOVE ADOPTIONS INC", "city": "BRONX", "state": "NY", "zip": "10453-6802", "ntee": "D20", "ruling": "201611", "deductibility": "1", "assets": 0, "income": 0, "revenue": 0}, {"ein": "134122302", "name": "PAWS FOR LOVE INC", "city": "CORTLANDT MNR", "state": "NY", "zip": "10567-4308", "ntee": "D20", "ruling": "200009", "deductibility": "1", "assets": 0, "income": 0, "revenue": 0}, {"ein": "134158705", "name": "PAWS UNLIMITED FOUNDATION INC", "city": "KINGSTON", "state": "NY", "zip": "12401-7145", "ntee": "D20", "ruling": "200304", "deductibility": "1", "assets": 682403, "income": 191330, "revenue": 191330}, {"ein": "161564476", "name": "PAWS OF CNY INC", "city": "SYRACUSE", "state": "NY", "zip": "13220-2222", "ntee": "P80", "ruling": "200003", "deductibility": "1", "assets": 0, "income": 0, "revenue": 0}, {"ein": "205193155", "name": "WAYWARD PAWS INC", "city": "NEW WOODSTOCK", "state": "NY", "zip": "13122-9610", "ntee": "D20", "ruling": "200612", "deductibility": "1", "assets": 39480, "income": 93777, "revenue": 93777}, {"ein": "222622806", "name": "PEOPLE FOR ANIMAL WELFARE SOCIETY PAWS OF ORLEANS COUNTY INC", "city": "ALBION", "state": "NY", "zip": "14411-9063", "ntee": "D200", "ruling": "198512", "deductibility": "1", "assets": 302112, "income": 120033, "revenue": 114833}, {"ein": "223729416", "name": "PAWS ACROSS OSWEGO COUNTY INC", "city": "OSWEGO", "state": "NY", "zip": "13126-6152", "ntee": "D20", "ruling": "200105", "deductibility": "1", "assets": 80173, "income": 108560, "revenue": 108560}, {"ein": "263890776", "name": "PRECIOUS PAWS RESCUE INC", "city": "N TONAWANDA", "state": "NY", "zip": "14120-9023", "ntee": "D20", "ruling": "201002", "deductibility": "1", "assets": 0, "income": 0, "revenue": 0}, {"ein": "272353029", "name": "PURRS AND PAWS CAT AND KITTEN RESCUE INC", "city": "TUPPER LAKE", "state": "NY", "zip": "12986-1214", "ntee": "D20", "ruling": "201102", "deductibility": "1", "assets": 0, "income": 0, "revenue": 0}, {"ein": "273703424", "name": "FOR PAWS OF ULSTER INC", "city": "ACCORD", "state": "NY", "zip": "12404-5833", "ntee": "N32", "ruling": "201108", "deductibility": "1", "assets": 0, "income": 0, "revenue": 0}, {"ein": "274448312", "name": "SAVING PAWS RESCUE INC", "city": "RYE BROOK", "state": "NY", "zip": "10573-2822", "ntee": "D20", "ruling": "201106", "deductibility": "1", "assets": 0, "income": 0, "revenue": 0}, {"ein": "334125751", "name": "PURRING PAWS WNY CAT RESCUE AND ADOPTION TEAM INC", "city": "HAMBURG", "state": "NY", "zip": "14075-3643", "ntee": "D20", "ruling": "202505", "deductibility": "1", "assets": 0, "income": 0, "revenue": 0}, {"ein": "352526627", "name": "HUDSON VALLEY PAWS FOR A CAUSE", "city": "HIGHLAND FLS", "state": "NY", "zip": "10928-4316", "ntee": "D99", "ruling": "201504", "deductibility": "1", "assets": 0, "income": 0, "revenue": 0}, {"ein": "371645937", "name": "TWENTY PAWS RESCUE", "city": "BROOKLYN", "state": "NY", "zip": "11224-7007", "ntee": "D20", "ruling": "201211", "deductibility": "1", "assets": 0, "income": 0, "revenue": 0}, {"ein": "431995436", "name": "DRAW FOR PAWS", "city": "CHAPPAQUA", "state": "NY", "zip": "10514-2512", "ntee": "D12", "ruling": "202401", "deductibility": "1", "assets": 0, "income": 0, "revenue": 0}, {"ein": "432103189", "name": "PITTER PATTER PAWS CORP", "city": "LK RONKONKOMA", "state": "NY", "zip": "11779-4240", "ntee": "D20", "ruling": "200702", "deductibility": "1", "assets": 0, "income": 0, "revenue": 0}, {"ein": "452599583", "name": "FRIENDS 4 POUND PAWS", "city": "GOUVERNEUR", "state": "NY", "zip": "13642-0394", "ntee": "D20", "ruling": "201209", "deductibility": "1", "assets": 1, "income": 99337, "revenue": 79449}, {"ein": "453846095", "name": "TINY PAWS BIG HEARTS RESCUE INC", "city": "TONAWANDA", "state": "NY", "zip": "14150-4214", "ntee": "D20", "ruling": "201210", "deductibility": "1", "assets": 0, "income": 0, "revenue": 0}, {"ein": "455214155", "name": "LIL PAWS SAFE HAVEN INC", "city": "WESTERLO", "state": "NY", "zip": "12193-0000", "ntee": "D20", "ruling": "201206", "deductibility": "1", "assets": 0, "income": 0, "revenue": 0}, {"ein": "455381627", "name": "TANNERS PAWS", "city": "CORNING", "state": "NY", "zip": "14830-9403", "ntee": "D20", "ruling": "201303", "deductibility": "1", "assets": 0, "income": 0, "revenue": 0}, {"ein": "462371384", "name": "PAWS UNITE PEOPLE INC", "city": "ROCKY POINT", "state": "NY", "zip": "11778-0000", "ntee": "D20", "ruling": "201402", "deductibility": "1", "assets": 988, "income": 242925, "revenue": 242925}, {"ein": "465113396", "name": "PAWS OF WAR INC", "city": "NESCONSET", "state": "NY", "zip": "11767-1736", "ntee": "D11", "ruling": "201504", "deductibility": "1", "assets": 4322679, "income": 4197796, "revenue": 4177729}, {"ein": "471379563", "name": "PILLOWS FOR PAWS INC", "city": "NEW YORK", "state": "NY", "zip": "10028-2146", "ntee": "D99", "ruling": "201408", "deductibility": "1", "assets": 6897, "income": 50806, "revenue": 50806}, {"ein": "471493156", "name": "PAUSE 4 ALL PAWS INC", "city": "LITTLE FALLS", "state": "NY", "zip": "13365-1132", "ntee": "D20", "ruling": "201412", "deductibility": "1", "assets": 0, "income": 0, "revenue": 0}, {"ein": "471509500", "name": "HANDS SAVING PAWS INC", "city": "FRESH MEADOWS", "state": "NY", "zip": "11366-1337", "ntee": "D20", "ruling": "201507", "deductibility": "1", "assets": 0, "income": 0, "revenue": 0}, {"ein": "472359342", "name": "ADORE A BULLIE PAWS & CLAWS RESCUE INC", "city": "BRONX", "state": "NY", "zip": "10464-0191", "ntee": "D20", "ruling": "201503", "deductibility": "1", "assets": 25930, "income": 103026, "revenue": 103026}, {"ein": "474712475", "name": "PAWS CROSSED ANIMAL RESCUE INC", "city": "ELMSFORD", "state": "NY", "zip": "10523-1552", "ntee": "D20", "ruling": "201510", "deductibility": "1", "assets": 10939690, "income": 5186052, "revenue": 5144670}, {"ein": "475333286", "name": "PAWS WITHOUT BORDERS INC", "city": "ROCKAWAY BCH", "state": "NY", "zip": "11693-2010", "ntee": "D20", "ruling": "201607", "deductibility": "1", "assets": 51485, "income": 24774, "revenue": 24774}, {"ein": "475496436", "name": "MUDDY PAWS RESCUE", "city": "NEW YORK", "state": "NY", "zip": "10019-4462", "ntee": "T50", "ruling": "201602", "deductibility": "1", "assets": 1350303, "income": 2043415, "revenue": 2026270}, {"ein": "475544063", "name": "PAWS FOR THE CAUSE RESCUE INC", "city": "BLOSSVALE", "state": "NY", "zip": "13308-1818", "ntee": "D20", "ruling": "201512", "deductibility": "1", "assets": 64914, "income": 32530, "revenue": 32530}, {"ein": "811119141", "name": "PAWS AND HOOVES ANIMAL RESCUE INC", "city": "WESTBURY", "state": "NY", "zip": "11590-4134", "ntee": "D99", "ruling": "201603", "deductibility": "1", "assets": 24924, "income": 86470, "revenue": 86470}, {"ein": "811794194", "name": "ABBYS PAWS FOR A CAUSE", "city": "ELMIRA", "state": "NY", "zip": "14905-1352", "ntee": "O99", "ruling": "201709", "deductibility": "1", "assets": 0, "income": 0, "revenue": 0}, {"ein": "811920964", "name": "DGI PAWS INCORPORATED", "city": "MANLIUS", "state": "NY", "zip": "13104-1628", "ntee": "D60", "ruling": "201604", "deductibility": "1", "assets": 0, "income": 0, "revenue": 0}, {"ein": "812944791", "name": "LOVING PAWS INC", "city": "LAKE GROVE", "state": "NY", "zip": "11755-0307", "ntee": "D20", "ruling": "201606", "deductibility": "1", "assets": 0, "income": 0, "revenue": 0}, {"ein": "813784667", "name": "SARAH JAYNE ORTON PAWS FOR A CAUSE INC", "city": "CANDOR", "state": "NY", "zip": "13743-0613", "ntee": "D20", "ruling": "201705", "deductibility": "1", "assets": 0, "income": 0, "revenue": 0}, {"ein": "814426697", "name": "LITTLE PAWS RESCUE AND CARE CORP", "city": "YAPHANK", "state": "NY", "zip": "11980-2004", "ntee": "D20", "ruling": "201611", "deductibility": "1", "assets": 0, "income": 0, "revenue": 0}, {"ein": "821398069", "name": "SISTERS N PAWS INC", "city": "NEW YORK", "state": "NY", "zip": "10025-1456", "ntee": "D20", "ruling": "201707", "deductibility": "1", "assets": 0, "income": 0, "revenue": 0}, {"ein": "821986161", "name": "AWESOME PAWS RESCUE", "city": "ALDEN", "state": "NY", "zip": "14004-0162", "ntee": "D11", "ruling": "201707", "deductibility": "1", "assets": 28728, "income": 123806, "revenue": 123806}, {"ein": "822602215", "name": "LONELY PAWS INC", "city": "WEST HURLEY", "state": "NY", "zip": "12491-6028", "ntee": "D12", "ruling": "201709", "deductibility": "1", "assets": 0, "income": 0, "revenue": 0}, {"ein": "823825005", "name": "DALLYS HOPE 4 PAWS RESCUE INC", "city": "HAGAMAN", "state": "NY", "zip": "12086-0346", "ntee": "D99", "ruling": "202310", "deductibility": "1", "assets": 45435, "income": 28116, "revenue": 28116}, {"ein": "824572694", "name": "TENDER LOVING PAWS FELINE RESCUE INC", "city": "POUGHKEEPSIE", "state": "NY", "zip": "12602-0404", "ntee": "D20", "ruling": "201812", "deductibility": "1", "assets": 0, "income": 0, "revenue": 0}, {"ein": "833327902", "name": "MELISSAS PENNIES FOR PAWS INC", "city": "GREENWICH", "state": "NY", "zip": "12834-2723", "ntee": "D20", "ruling": "201903", "deductibility": "1", "assets": 1, "income": 1, "revenue": 0}, {"ein": "842359715", "name": "HOUSE OF PAWS RESCUE INC", "city": "HINCKLEY", "state": "NY", "zip": "13352-0144", "ntee": "D20", "ruling": "202001", "deductibility": "1", "assets": 0, "income": 0, "revenue": 0}, {"ein": "842577447", "name": "POWERFUL PAWS ANIMAL RESCUE", "city": "LIVERPOOL", "state": "NY", "zip": "13088-0383", "ntee": "D20", "ruling": "201909", "deductibility": "1", "assets": 5235, "income": 41795, "revenue": 40566}, {"ein": "843532808", "name": "NY LAWS FOR PAWS INC", "city": "MANORVILLE", "state": "NY", "zip": "11949-2620", "ntee": "D01", "ruling": "202110", "deductibility": "1", "assets": 0, "income": 0, "revenue": 0}, {"ein": "850996451", "name": "PAWS OF HOPE NYC", "city": "BROOKLYN", "state": "NY", "zip": "11239-2517", "ntee": "D01", "ruling": "202104", "deductibility": "1", "assets": 0, "income": 0, "revenue": 0}, {"ein": "851323960", "name": "4 LITTLE PAWS INC", "city": "NEW YORK", "state": "NY", "zip": "10027-5410", "ntee": "D20", "ruling": "202010", "deductibility": "1", "assets": 0, "income": 654353, "revenue": 654353}, {"ein": "851411493", "name": "JUST 4 PAWS CAT RESCUE TRAP NEUTER RETURN INC", "city": "RONKONKOMA", "state": "NY", "zip": "11779-4208", "ntee": "D20", "ruling": "202009", "deductibility": "1", "assets": 0, "income": 0, "revenue": 0}, {"ein": "852323499", "name": "PROTECTORS OF PAWS & CLAWS INC", "city": "ALBANY", "state": "NY", "zip": "12211-0385", "ntee": "D20", "ruling": "202010", "deductibility": "1", "assets": 1163, "income": 14097, "revenue": 14097}, {"ein": "852778826", "name": "BUDDYS HEALING PAWS CORP", "city": "NEW ROCHELLE", "state": "NY", "zip": "10801-1605", "ntee": "D12", "ruling": "202012", "deductibility": "1", "assets": 0, "income": 0, "revenue": 0}, {"ein": "853725143", "name": "PAWS AND HEROES LEGACY FOUNDATION INC", "city": "RIDGE", "state": "NY", "zip": "11961-2802", "ntee": "", "ruling": "202107", "deductibility": "1", "assets": 47475, "income": 11178, "revenue": 0}, {"ein": "863636207", "name": "CARING HEARTS AND PAWS RESCUE INC", "city": "TONAWANDA", "state": "NY", "zip": "14150-0000", "ntee": "D99", "ruling": "202109", "deductibility": "1", "assets": 7269, "income": 100302, "revenue": 97650}, {"ein": "873422366", "name": "BROOKLYN PAWS FOUNDATION INC", "city": "BROOKLYN", "state": "NY", "zip": "11235-7467", "ntee": "D20", "ruling": "202207", "deductibility": "1", "assets": 184, "income": 78616, "revenue": 78616}, {"ein": "874137280", "name": "WNY FOOD 4 PAWS INC", "city": "DEPEW", "state": "NY", "zip": "14043-4851", "ntee": "D19", "ruling": "202204", "deductibility": "1", "assets": 0, "income": 0, "revenue": 0}, {"ein": "874191864", "name": "COZY PAWS RESCUE INC", "city": "ROCKVILLE CTR", "state": "NY", "zip": "11570-2014", "ntee": "D20", "ruling": "202203", "deductibility": "1", "assets": 0, "income": 0, "revenue": 0}, {"ein": "874695598", "name": "PAWS IN PARADISE", "city": "MECHANICVILLE", "state": "NY", "zip": "12118-3415", "ntee": "D20", "ruling": "202203", "deductibility": "1", "assets": 0, "income": 0, "revenue": 0}, {"ein": "883582358", "name": "UNIQUELY PAWS LIMITED", "city": "NEW YORK", "state": "NY", "zip": "10118-6400", "ntee": "D12", "ruling": "202208", "deductibility": "1", "assets": 0, "income": 0, "revenue": 0}, {"ein": "883612545", "name": "PAW IT FORWARD WITH PAWS AND CLAWS PET CARE INC", "city": "ROCHESTER", "state": "NY", "zip": "14625-2712", "ntee": "G12", "ruling": "202403", "deductibility": "1", "assets": 0, "income": 0, "revenue": 0}, {"ein": "884181675", "name": "DOG GONE PAWS INCORPORATED", "city": "MANLIUS", "state": "NY", "zip": "13104-1628", "ntee": "D01", "ruling": "202306", "deductibility": "1", "assets": 0, "income": 0, "revenue": 0}, {"ein": "884271249", "name": "TYCHE PAWS RECUE INC", "city": "LONG IS CITY", "state": "NY", "zip": "11101-4486", "ntee": "D20", "ruling": "202211", "deductibility": "1", "assets": 0, "income": 0, "revenue": 0}, {"ein": "884330504", "name": "JUST FOR PAWS RESCUE INC", "city": "SAG HARBOR", "state": "NY", "zip": "11963-3442", "ntee": "D12", "ruling": "202406", "deductibility": "1", "assets": 0, "income": 0, "revenue": 0}, {"ein": "900737680", "name": "BIG HANDS LITTLE PAWS INC", "city": "BROOKLYN", "state": "NY", "zip": "11249-4375", "ntee": "D20", "ruling": "201202", "deductibility": "1", "assets": 0, "income": 0, "revenue": 0}, {"ein": "923666650", "name": "TINY PAWS CAT RESCUE INC", "city": "SYRACUSE", "state": "NY", "zip": "13208-2302", "ntee": "D20", "ruling": "202305", "deductibility": "1", "assets": 0, "income": 0, "revenue": 0}, {"ein": "932975398", "name": "ALL PAWS MATTER CAT RESCUE", "city": "LIBERTY", "state": "NY", "zip": "12754-8322", "ntee": "D99", "ruling": "202401", "deductibility": "1", "assets": 0, "income": 0, "revenue": 0}, {"ein": "933038096", "name": "TILL ALL PAWS ARE SAFE INC", "city": "YONKERS", "state": "NY", "zip": "10704-4303", "ntee": "D20", "ruling": "202309", "deductibility": "1", "assets": 0, "income": 0, "revenue": 0}, {"ein": "934881545", "name": "PAWS INN THE FALLS ANIMAL COMPLEX", "city": "BUFFALO", "state": "NY", "zip": "14223-2031", "ntee": "D01", "ruling": "202312", "deductibility": "1", "assets": 0, "income": 0, "revenue": 0}, {"ein": "991897189", "name": "PAWS OVER PROFITS INC", "city": "KERHONKSON", "state": "NY", "zip": "12446-1422", "ntee": "D20", "ruling": "202404", "deductibility": "1", "assets": 0, "income": 0, "revenue": 0}, {"ein": "992451031", "name": "HOOFS N PAWS OASIS INC", "city": "JAMESPORT", "state": "NY", "zip": "11947-0455", "ntee": "D20", "ruling": "202410", "deductibility": "1", "assets": 0, "income": 0, "revenue": 0}, {"ein": "994143240", "name": "WAR PAWS", "city": "ROCKY POINT", "state": "NY", "zip": "11778-0000", "ntee": "D20", "ruling": "202409", "deductibility": "1", "assets": 0, "income": 0, "revenue": 0}, {"ein": "994727765", "name": "DANCE FOR PAWS INC", "city": "NEW YORK", "state": "NY", "zip": "10024-5805", "ntee": "D12", "ruling": "202410", "deductibility": "1", "assets": 0, "income": 0, "revenue": 0}], "AKADEMIA": [{"ein": "113513476", "name": "AKADEMIA SHQIPTARO AMERIKANE E SHKENCAVE THE ALBANIAN-AMERICAN", "city": "BROOKLYN", "state": "NY", "zip": "11204-6001", "ntee": "P80", "ruling": "200004", "deductibility": "1", "assets": 0, "income": 0, "revenue": 0}, {"ein": "991253162", "name": "AKADEMIA FC AND RIVER ISLAND FC SOCCER SCHOOL INC", "city": "NEW YORK", "state": "NY", "zip": "10044-0355", "ntee": "N64", "ruling": "202403", "deductibility": "1", "assets": 0, "income": 0, "revenue": 0}], "LENITZRUCHIN": [{"ein": "113525524", "name": "YAD LACHMU ANYU LENITZRUCHIN CHOQ LYISROEL", "city": "BROOKLYN", "state": "NY", "zip": "11211-7923", "ntee": "X30", "ruling": "200003", "deductibility": "1", "assets": 0, "income": 0, "revenue": 0}], "GUTNICK": [{"ein": "113539242", "name": "GUTNICK FOUNDATION INC", "city": "BROOKLYN", "state": "NY", "zip": "11213-5280", "ntee": "X30", "ruling": "200007", "deductibility": "1", "assets": 334434, "income": 195426, "revenue": 0}], "MAAZ": [{"ein": "113542833", "name": "MASJID MAAZ BIN JABAL INC", "city": "JAMAICA", "state": "NY", "zip": "11435-3515", "ntee": "X40", "ruling": "200103", "deductibility": "1", "assets": 0, "income": 0, "revenue": 0}], "PBC": [{"ein": "113589252", "name": "PBC ALUMNI ASSOCIATION INC", "city": "BROOKLYN", "state": "NY", "zip": "11234-3334", "ntee": "B82", "ruling": "200212", "deductibility": "1", "assets": 0, "income": 0, "revenue": 0}, {"ein": "823624656", "name": "PBC FOUNDATION INC", "city": "KEW GARDENS", "state": "NY", "zip": "11415-0000", "ntee": "T20", "ruling": "201902", "deductibility": "1", "assets": 2414606, "income": 57587, "revenue": 0}], "AWESOME": [{"ein": "113632424", "name": "AWESOME WORD MINISTRIES INC", "city": "BROOKLYN", "state": "NY", "zip": "11238-6134", "ntee": "X20", "ruling": "200212", "deductibility": "1", "assets": 0, "income": 0, "revenue": 0}, {"ein": "821986161", "name": "AWESOME PAWS RESCUE", "city": "ALDEN", "state": "NY", "zip": "14004-0162", "ntee": "D11", "ruling": "201707", "deductibility": "1", "assets": 28728, "income": 123806, "revenue": 123806}, {"ein": "824359346", "name": "AWESOME WOMEN ON THE MOVE INC", "city": "BRIARWOOD", "state": "NY", "zip": "11435-2052", "ntee": "S50", "ruling": "202409", "deductibility": "1", "assets": 0, "income": 0, "revenue": 0}], "IRVING": [{"ein": "116021069", "name": "IRVING N TOLKIN FOUNDATION INC", "city": "NEW YORK", "state": "NY", "zip": "10017-1749", "ntee": "", "ruling": "195911", "deductibility": "1", "assets": 43694, "income": 2100, "revenue": 0}, {"ein": "116449730", "name": "THE IRVING LANGER CHARITABLE TRUST", "city": "LAWRENCE", "state": "NY", "zip": "11559-1605", "ntee": "T22J", "ruling": "199712", "deductibility": "1", "assets": 2542, "income": 237508, "revenue": 0}, {"ein": "116465350", "name": "IRVING SIEGEL CHARITABLE FOUNDATION", "city": "MELVILLE", "state": "NY", "zip": "11747-0000", "ntee": "", "ruling": "199601", "deductibility": "0", "assets": 243186, "income": 46628, "revenue": 0}, {"ein": "132626706", "name": "IRVING AND GERALDINE SCHAFFER FOUNDATION INC", "city": "SCARSDALE", "state": "NY", "zip": "10583-1006", "ntee": "", "ruling": "196912", "deductibility": "1", "assets": 6095836, "income": 1423604, "revenue": 0}, {"ein": "133216152", "name": "JOYCE & IRVING GOLDMAN FAMILY FOUNDATION INC", "city": "NEW YORK", "state": "NY", "zip": "10016-2204", "ntee": "", "ruling": "198407", "deductibility": "1", "assets": 205519244, "income": 77670532, "revenue": 0}, {"ein": "133387376", "name": "IRVING AND MURIEL FISCHER FOUNDATION INC", "city": "BEDFORD HILLS", "state": "NY", "zip": "10507-2230", "ntee": "", "ruling": "198707", "deductibility": "1", "assets": 319492, "income": 85733, "revenue": 0}, {"ein": "133795001", "name": "WASHINGTON IRVING HIGH SCHOOL BUSINESS ADVISORY COUNCIL LTD", "city": "NEW YORK", "state": "NY", "zip": "10018-4161", "ntee": "J20", "ruling": "199509", "deductibility": "1", "assets": 0, "income": 0, "revenue": 0}, {"ein": "136116217", "name": "SUZANNE T AND IRVING D KARPAS JR FOUNDATION INCORPORATED", "city": "NEW YORK", "state": "NY", "zip": "10168-0000", "ntee": "", "ruling": "194701", "deductibility": "1", "assets": 527081, "income": 106998, "revenue": 0}, {"ein": "136133195", "name": "IRVING AND ESTELLE LEVY FOUNDATION", "city": "MELVILLE", "state": "NY", "zip": "11747-3681", "ntee": "", "ruling": "194711", "deductibility": "1", "assets": 564132, "income": 120484, "revenue": 0}, {"ein": "136160022", "name": "IRVING FABRIKANT FOUNDATION", "city": "NEW YORK", "state": "NY", "zip": "10028-0132", "ntee": "", "ruling": "195905", "deductibility": "1", "assets": 550411, "income": 14803, "revenue": 0}, {"ein": "136270065", "name": "SYLVAN SCHEFLER TRUST FOUNDATION IRVING HANDEL & CO", "city": "NEW YORK", "state": "NY", "zip": "10028-0936", "ntee": "", "ruling": "196807", "deductibility": "1", "assets": 1338, "income": 10000, "revenue": 0}, {"ein": "137081071", "name": "IRVING PENN TRUST", "city": "MELVILLE", "state": "NY", "zip": "11747-4899", "ntee": "T70J", "ruling": "199702", "deductibility": "1", "assets": 171153, "income": 3259, "revenue": 0}, {"ein": "161428873", "name": "IRVING FAMILY FOUNDATION", "city": "HAMBURG", "state": "NY", "zip": "14075-4824", "ntee": "", "ruling": "199307", "deductibility": "1", "assets": 294042, "income": 42346, "revenue": 0}, {"ein": "202649118", "name": "IRVING PENN FOUNDATION", "city": "NEW YORK", "state": "NY", "zip": "10020-1605", "ntee": "T20", "ruling": "200512", "deductibility": "1", "assets": 152583359, "income": 4589102, "revenue": 0}, {"ein": "274176560", "name": "IRVING PLACE MINYAN", "city": "WOODMERE", "state": "NY", "zip": "11598-2106", "ntee": "X30", "ruling": "201109", "deductibility": "1", "assets": 0, "income": 0, "revenue": 0}, {"ein": "300547012", "name": "IRVING HOUSE INC", "city": "ROSLYN HTS", "state": "NY", "zip": "11577-0313", "ntee": "D20", "ruling": "201005", "deductibility": "1", "assets": 0, "income": 0, "revenue": 0}, {"ein": "464370993", "name": "MAXINE AND IRVING CASTLE FAMILY FOUNDATION INC", "city": "WILLISTON PK", "state": "NY", "zip": "11596-1015", "ntee": "Z99", "ruling": "201407", "deductibility": "1", "assets": 1, "income": 642418, "revenue": 0}, {"ein": "474275488", "name": "IRVING KRIESBERG ESTATE FOUNDATION INC", "city": "NEW YORK", "state": "NY", "zip": "10001-5524", "ntee": "T23", "ruling": "201702", "deductibility": "1", "assets": 484528, "income": 32024, "revenue": 0}, {"ein": "510244268", "name": "ELSA & IRVING NUSBLATT FOUNDATION INC", "city": "WOODMERE", "state": "NY", "zip": "11598-0427", "ntee": "", "ruling": "194408", "deductibility": "1", "assets": 479, "income": 1, "revenue": 0}, {"ein": "800590280", "name": "BETTY & IRVING RUTHEN PRIVATE FOUNDATION INC", "city": "SPRING VALLEY", "state": "NY", "zip": "10977-1402", "ntee": "T20", "ruling": "201008", "deductibility": "1", "assets": 1493897, "income": 1658158, "revenue": 0}], "MIDLAND": [{"ein": "116036399", "name": "LONG ISLAND SENIOR GOLF ASSOCIATION MARINE MIDLAND BANK BUILDING", "city": "WESTBURY", "state": "NY", "zip": "11590-5119", "ntee": "", "ruling": "195505", "deductibility": "2", "assets": 179539, "income": 233179, "revenue": 233179}, {"ein": "136133722", "name": "JAMES E NICHOLS TR UA LIBRARY ASSN MARINE MIDLAND BANK W T O C", "city": "NORWICH", "state": "NY", "zip": "13815-0000", "ntee": "", "ruling": "000000", "deductibility": "0", "assets": 53082, "income": 6810, "revenue": 0}, {"ein": "136180874", "name": "MIDLAND SCHOOL PTO", "city": "RYE", "state": "NY", "zip": "10580-3811", "ntee": "B94Z", "ruling": "199607", "deductibility": "1", "assets": 276172, "income": 324911, "revenue": 213964}, {"ein": "146065385", "name": "L ROBINSON TRUST POSA 6TH A CHARITABLE MARINE MIDLAND BK", "city": "NORWICH", "state": "NY", "zip": "13815-0000", "ntee": "", "ruling": "000000", "deductibility": "0", "assets": 101418, "income": 13652, "revenue": 0}, {"ein": "166024150", "name": "WM J MOORE TRUST FD NY 28-2-0406-0 MARINE MIDLAND", "city": "OLEAN", "state": "NY", "zip": "14760-2738", "ntee": "", "ruling": "000000", "deductibility": "0", "assets": 554524, "income": 63880, "revenue": 24267}, {"ein": "166050723", "name": "ERNIE WOLK CHARITABLE TRUST C/O MARINE MIDLAND BK & TR OPER CT", "city": "BUFFALO", "state": "NY", "zip": "14240-1504", "ntee": "", "ruling": "196407", "deductibility": "1", "assets": 490231, "income": 128387, "revenue": 0}, {"ein": "166377339", "name": "TRUST UW ELLEN C STARK - CHARITABLE TRUST MARINE MIDLAND BK PRIV CLIEN", "city": "NORWICH", "state": "NY", "zip": "13815-0000", "ntee": "", "ruling": "199301", "deductibility": "1", "assets": 414207, "income": 41923, "revenue": 0}, {"ein": "510244640", "name": "LEWIS G ROBINSON CHARITABLE TRUST C/O MARINE MIDLAND BANK", "city": "NORWICH", "state": "NY", "zip": "13815-0000", "ntee": "", "ruling": "197002", "deductibility": "1", "assets": 146350, "income": 19135, "revenue": 0}], "BILL": [{"ein": "116048099", "name": "BILL STIVALA SCHOLARSHIP FUND INC", "city": "CENTERPORT", "state": "NY", "zip": "11721-1622", "ntee": "", "ruling": "199810", "deductibility": "1", "assets": 0, "income": 0, "revenue": 0}, {"ein": "133148962", "name": "SOCIETY OF THE NATIONAL SHRINE OF THE BILL OF RIGHTS AT ST PAULS", "city": "MOUNT VERNON", "state": "NY", "zip": "10550-5018", "ntee": "X01", "ruling": "201407", "deductibility": "1", "assets": 1561, "income": 285571, "revenue": 285571}, {"ein": "161614582", "name": "MONSIGNOR RONALD C BILL SCHOLORSHIP", "city": "CICERO", "state": "NY", "zip": "13039-0000", "ntee": "B82", "ruling": "201907", "deductibility": "1", "assets": 113389, "income": 58044, "revenue": 0}, {"ein": "161637290", "name": "FRIENDS OF BILL MICCIULLI INC", "city": "STATEN ISLAND", "state": "NY", "zip": "10306-1323", "ntee": "B82", "ruling": "200304", "deductibility": "1", "assets": 45138, "income": 61299, "revenue": 61299}, {"ein": "237060333", "name": "BILL BERNBACH FOUNDATION", "city": "BEDFORD HILLS", "state": "NY", "zip": "10507-2215", "ntee": "", "ruling": "197003", "deductibility": "1", "assets": 520425, "income": 216484, "revenue": 0}, {"ein": "261437399", "name": "BILL AND ANN ZIFF FOUNDATION", "city": "NEW YORK", "state": "NY", "zip": "10128-0102", "ntee": "T20", "ruling": "201004", "deductibility": "1", "assets": 389338, "income": 36313, "revenue": 0}, {"ein": "272396571", "name": "BILL FOXEN MEMORIAL FOUNDATION INC", "city": "HUNTINGTON", "state": "NY", "zip": "11743-2401", "ntee": "B82", "ruling": "201008", "deductibility": "1", "assets": 0, "income": 0, "revenue": 0}, {"ein": "332102803", "name": "BILL MURPHY MEMORIAL SCHOLARSHIP FUND INC", "city": "SEAFORD", "state": "NY", "zip": "11783-3234", "ntee": "B82", "ruling": "202412", "deductibility": "1", "assets": 0, "income": 0, "revenue": 0}, {"ein": "474349289", "name": "BILL COOK FOUNDATION", "city": "GENESEO", "state": "NY", "zip": "14454-1305", "ntee": "Q33", "ruling": "201604", "deductibility": "1", "assets": 692006, "income": 1166006, "revenue": 1166006}, {"ein": "475404697", "name": "BILL JENSEN AND MARGRIT LEWCZUK FOUNDATION", "city": "BROOKLYN", "state": "NY", "zip": "11249-3932", "ntee": "C30", "ruling": "201603", "deductibility": "1", "assets": 285334, "income": 184496, "revenue": 0}, {"ein": "611524101", "name": "MONICA BILL BARNES & COMPANY", "city": "NEW YORK", "state": "NY", "zip": "10014-2713", "ntee": "A20", "ruling": "200711", "deductibility": "1", "assets": 448893, "income": 506376, "revenue": 506376}, {"ein": "811751988", "name": "BILL WELSH FOUNDATION", "city": "CICERO", "state": "NY", "zip": "13039-8638", "ntee": "B82", "ruling": "201608", "deductibility": "1", "assets": 0, "income": 0, "revenue": 0}, {"ein": "812634530", "name": "BILL DAVIS FOUNDATION INC", "city": "AMITYVILLE", "state": "NY", "zip": "11701-2484", "ntee": "P20", "ruling": "201606", "deductibility": "1", "assets": 0, "income": 0, "revenue": 0}, {"ein": "823050736", "name": "BILL AND JACKIE GURNEY FAMILY FOUNDATION INC", "city": "BUFFALO", "state": "NY", "zip": "14209-1800", "ntee": "T22", "ruling": "201804", "deductibility": "1", "assets": 1142012, "income": 437064, "revenue": 0}, {"ein": "850554966", "name": "SANDI AND BILL NICHOLSON- THE WOMEN WHO DARED ART FOUNDATION FOR N", "city": "WESTBURY", "state": "NY", "zip": "11590-1740", "ntee": "A12", "ruling": "202210", "deductibility": "1", "assets": 1, "income": 0, "revenue": 0}, {"ein": "876771608", "name": "THE BILL BENTON FOUNDATION", "city": "SARATOGA SPGS", "state": "NY", "zip": "12866-6142", "ntee": "B82", "ruling": "202202", "deductibility": "1", "assets": 77308, "income": 66460, "revenue": 0}, {"ein": "922486931", "name": "BILL DAY MEMORIAL COMMUNITY FOUNDATION INC", "city": "ANDES", "state": "NY", "zip": "13731-0402", "ntee": "S20", "ruling": "202304", "deductibility": "1", "assets": 14644, "income": 14750, "revenue": 0}, {"ein": "991525251", "name": "BILL & TONI CLARK MINISTRIES INC", "city": "DEPEW", "state": "NY", "zip": "14043-0044", "ntee": "X20", "ruling": "202403", "deductibility": "1", "assets": 0, "income": 0, "revenue": 0}], "MARINES": [{"ein": "131628214", "name": "SOLDIERS SAILORS MARINES AND AIRMENS CLUB INC", "city": "NEW YORK", "state": "NY", "zip": "10016-3540", "ntee": "W30", "ruling": "202506", "deductibility": "1", "assets": 59709, "income": 10583, "revenue": 10583}, {"ein": "271601045", "name": "ROME MARINES", "city": "ROME", "state": "NY", "zip": "13440-8303", "ntee": "W30", "ruling": "201409", "deductibility": "1", "assets": 0, "income": 0, "revenue": 0}, {"ein": "820846137", "name": "MARINES OF NEW YORK INC", "city": "OCEANSIDE", "state": "NY", "zip": "11572-5049", "ntee": "W12", "ruling": "201704", "deductibility": "1", "assets": 0, "income": 0, "revenue": 0}, {"ein": "823411951", "name": "WOMEN MARINES ASSOCIATION", "city": "CHESTER", "state": "NY", "zip": "10918-1582", "ntee": "", "ruling": "197304", "deductibility": "1", "assets": 0, "income": 0, "revenue": 0}, {"ein": "823510480", "name": "WOMEN MARINES ASSOCIATION", "city": "WYANDANCH", "state": "NY", "zip": "11798-2448", "ntee": "", "ruling": "197304", "deductibility": "1", "assets": 0, "income": 0, "revenue": 0}], "ASSOCIAION": [{"ein": "133034049", "name": "UNITED STAFF ASSOCIAION WELFARE FUND", "city": "AMAWALK", "state": "NY", "zip": "10501-0403", "ntee": "", "ruling": "198208", "deductibility": "2", "assets": 1183932, "income": 1111842, "revenue": 745496}, {"ein": "133813878", "name": "NEW YORK CHAPTER OF THE AGING LIFE CARE ASSOCIAION INC", "city": "BUFFALO", "state": "NY", "zip": "14227-0000", "ntee": "", "ruling": "199701", "deductibility": "2", "assets": 58176, "income": 34127, "revenue": 34127}], "SPORTMANS": [{"ein": "133043285", "name": "VALLEY COTTAGE SPORTMANS CLUB INC", "city": "VLY COTTAGE", "state": "NY", "zip": "10989-1403", "ntee": "N50", "ruling": "200611", "deductibility": "2", "assets": 0, "income": 0, "revenue": 0}, {"ein": "331134732", "name": "COLUMBIA GREENE SPORTMANS ASSOCIATION INC", "city": "STUYVESANT", "state": "NY", "zip": "12173-2809", "ntee": "M12", "ruling": "200711", "deductibility": "1", "assets": 83048, "income": 97601, "revenue": 35142}], "MARTY": [{"ein": "133146696", "name": "THE MARTY LYONS FOUNDATION INC", "city": "BAY SHORE", "state": "NY", "zip": "11706-2210", "ntee": "E860", "ruling": "198404", "deductibility": "1", "assets": 1011141, "income": 1483285, "revenue": 981660}, {"ein": "134090925", "name": "THE MARTY & IRIS WALSHIN FOUNDATION INC", "city": "NEW YORK", "state": "NY", "zip": "10019-3751", "ntee": "T22", "ruling": "200001", "deductibility": "1", "assets": 1965469, "income": 808085, "revenue": 0}, {"ein": "222777449", "name": "MARTY & DOROTHY SILVERMAN FOUNDATION", "city": "NEW YORK", "state": "NY", "zip": "10022-1384", "ntee": "", "ruling": "198703", "deductibility": "1", "assets": 499859709, "income": 32819429, "revenue": 0}, {"ein": "331200073", "name": "WILLIAM MANNING FOUNDATION INC IN MEMORY OF MARTY HARRIGAN", "city": "FAIRPORT", "state": "NY", "zip": "14450-7676", "ntee": "T22", "ruling": "200908", "deductibility": "1", "assets": 217437, "income": 325055, "revenue": 0}], "KAYBEE": [{"ein": "133202087", "name": "KAYBEE ATHLETIC CLUB INC", "city": "EDEN", "state": "NY", "zip": "14057-9518", "ntee": "N41Z", "ruling": "199211", "deductibility": "1", "assets": 0, "income": 0, "revenue": 0}], "TSENG": [{"ein": "133378370", "name": "MUNA TSENG DANCE PROJECTS INC", "city": "NEW YORK", "state": "NY", "zip": "10014-4230", "ntee": "A62Z", "ruling": "198804", "deductibility": "1", "assets": 0, "income": 0, "revenue": 0}], "TENDERS": [{"ein": "133458660", "name": "MASON TENDERS TRAINING FUND", "city": "LONG IS CITY", "state": "NY", "zip": "11101-4906", "ntee": "B30", "ruling": "200109", "deductibility": "1", "assets": 28395571, "income": 7352066, "revenue": 2490700}, {"ein": "134051313", "name": "TENDERS INC", "city": "NEW YORK", "state": "NY", "zip": "10016-7390", "ntee": "T12", "ruling": "200005", "deductibility": "1", "assets": 0, "income": 0, "revenue": 0}, {"ein": "135537605", "name": "MASON TENDERS DISTRICT COUNCIL WELFARE FUND", "city": "NEW YORK", "state": "NY", "zip": "10018-4196", "ntee": "Y43", "ruling": "194911", "deductibility": "2", "assets": 560422420, "income": 571293242, "revenue": 259159996}], "GOREN": [{"ein": "133687588", "name": "CHARLES H GOREN FOUNDATION INC", "city": "NEW YORK", "state": "NY", "zip": "10122-1506", "ntee": "", "ruling": "199401", "deductibility": "1", "assets": 1063356, "income": 629904, "revenue": 0}], "EDIBLE": [{"ein": "133880579", "name": "EDIBLE LEFTOVERS INC", "city": "CHESTNUT RDG", "state": "NY", "zip": "10977-6911", "ntee": "K30", "ruling": "199609", "deductibility": "1", "assets": 142230, "income": 152134, "revenue": 152134}, {"ein": "271237249", "name": "EDIBLE SCHOOLYARD NEW YORK", "city": "NEW YORK", "state": "NY", "zip": "10163-0737", "ntee": "B90", "ruling": "201011", "deductibility": "1", "assets": 2124960, "income": 1987506, "revenue": 1935905}, {"ein": "471920537", "name": "EDIBLE INDEPENDENCE INC", "city": "KINGSTON", "state": "NY", "zip": "12401-6223", "ntee": "K34", "ruling": "201502", "deductibility": "2", "assets": 6253, "income": 104653, "revenue": 104653}], "TEMPER": [{"ein": "133900955", "name": "TEMPER OF THE TIMES FOUNDATION INC", "city": "HARRISON", "state": "NY", "zip": "10528-1226", "ntee": "T22I", "ruling": "199612", "deductibility": "1", "assets": 685981, "income": 113142, "revenue": 0}], "BALAGH": [{"ein": "133917107", "name": "DAR-UL-BALAGH INC", "city": "RIVERDALE", "state": "NY", "zip": "10471-2106", "ntee": "X40", "ruling": "199905", "deductibility": "1", "assets": 0, "income": 0, "revenue": 0}], "FREDMAN": [{"ein": "134131687", "name": "FREDMAN LICHTENSTEIN FAMILY FOUNDATION", "city": "NEW YORK", "state": "NY", "zip": "10022-0000", "ntee": "T20", "ruling": "200201", "deductibility": "1", "assets": 141215, "income": 48377, "revenue": 6748}, {"ein": "271430745", "name": "FREDMAN FAMILY FOUNDATION INC", "city": "BRIDGEHAMPTON", "state": "NY", "zip": "11932-0000", "ntee": "", "ruling": "201010", "deductibility": "0", "assets": 48443979, "income": 3276701, "revenue": 0}], "KENBE": [{"ein": "134200004", "name": "KENBE FOUNDATION", "city": "NEW YORK", "state": "NY", "zip": "10036-0000", "ntee": "T22", "ruling": "200205", "deductibility": "1", "assets": 3521091, "income": 985150, "revenue": 0}], "NACIONAL": [{"ein": "135540230", "name": "SPANISH BENEVOLENT SOCIETY- LA NACIONAL", "city": "NEW YORK", "state": "NY", "zip": "10011-7149", "ntee": "", "ruling": "195009", "deductibility": "2", "assets": 136052, "income": 343751, "revenue": 343751}, {"ein": "320401893", "name": "LIGA NACIONAL DE FUTBOL INC", "city": "BRONX", "state": "NY", "zip": "10460-3232", "ntee": "N64", "ruling": "201910", "deductibility": "1", "assets": 500, "income": 15338, "revenue": 15338}, {"ein": "884142418", "name": "ASOCIACION DE PROFESIONALES EN BELLEZA NACIONAL E INTERNACIONAL I", "city": "YONKERS", "state": "NY", "zip": "10701-4878", "ntee": "W03", "ruling": "202402", "deductibility": "1", "assets": 0, "income": 0, "revenue": 0}], "HATZAIR": [{"ein": "135653335", "name": "HASHOMER HATZAIR INC", "city": "NEW YORK", "state": "NY", "zip": "10018-4502", "ntee": "", "ruling": "194003", "deductibility": "1", "assets": 707303, "income": 1219922, "revenue": 1219922}], "ERPF": [{"ein": "136085594", "name": "ARMAND G ERPF FUND", "city": "ARKVILLE", "state": "NY", "zip": "12406-0000", "ntee": "", "ruling": "195412", "deductibility": "1", "assets": 7015072, "income": 24261740, "revenue": 0}, {"ein": "237450160", "name": "ERPF CATSKILL CULTURAL CENTER", "city": "MARGARETVILLE", "state": "NY", "zip": "12455-0881", "ntee": "A20Z", "ruling": "197505", "deductibility": "1", "assets": 388902, "income": 36589, "revenue": 36589}], "GARBA": [{"ein": "137314796", "name": "EDWARD A AND MARTHA GARBA CHARITABLE TR", "city": "NEW YORK", "state": "NY", "zip": "10022-4106", "ntee": "X112", "ruling": "200207", "deductibility": "1", "assets": 0, "income": 0, "revenue": 0}], "CAPEN": [{"ein": "141675210", "name": "BERTHA CAPEN REYNOLDS SOCIETY INC", "city": "ROCHESTER", "state": "NY", "zip": "14607-1326", "ntee": "", "ruling": "198811", "deductibility": "1", "assets": 0, "income": 0, "revenue": 0}], "LATHAM": [{"ein": "141714477", "name": "LATHAM LASSIES SOFTBALL LEAGUE INC", "city": "LATHAM", "state": "NY", "zip": "12110-0105", "ntee": "", "ruling": "198912", "deductibility": "1", "assets": 91857, "income": 122231, "revenue": 116989}, {"ein": "237154649", "name": "S W PITTS HOSE COMPANY OF LATHAM NY INC", "city": "LATHAM", "state": "NY", "zip": "12110-2944", "ntee": "", "ruling": "197112", "deductibility": "1", "assets": 6068026, "income": 1893596, "revenue": 1887936}, {"ein": "810617174", "name": "HERITAGE BAPTIST CHURCH OF LATHAM", "city": "COHOES", "state": "NY", "zip": "12047-4522", "ntee": "X21", "ruling": "200501", "deductibility": "1", "assets": 0, "income": 0, "revenue": 0}], "SPACKENKILL": [{"ein": "141811977", "name": "SPACKENKILL ROWING CLUB", "city": "POUGHKEEPSIE", "state": "NY", "zip": "12601-0904", "ntee": "N67", "ruling": "200603", "deductibility": "1", "assets": 0, "income": 0, "revenue": 0}, {"ein": "161552114", "name": "SPACKENKILL SUPPORT STAFF WELFARE TRUST FUND", "city": "POUGHKEEPSIE", "state": "NY", "zip": "12603-5040", "ntee": "Y44", "ruling": "200003", "deductibility": "2", "assets": 155916, "income": 81230, "revenue": 81230}, {"ein": "161613057", "name": "SPACKENKILL RETIRED TEACHERS ASSOCIATION", "city": "STAATSBURG", "state": "NY", "zip": "12580-5302", "ntee": "N50", "ruling": "200205", "deductibility": "2", "assets": 0, "income": 0, "revenue": 0}, {"ein": "223097317", "name": "SPACKENKILL TEACHERS ASSOCIATION TR FUND", "city": "POUGHKEEPSIE", "state": "NY", "zip": "12603-0000", "ntee": "", "ruling": "199107", "deductibility": "2", "assets": 619252, "income": 413090, "revenue": 413090}], "NAPT": [{"ein": "141820077", "name": "NAPT FOUNDATION INC", "city": "ALBANY", "state": "NY", "zip": "12203-5066", "ntee": "B05", "ruling": "200012", "deductibility": "1", "assets": 249596, "income": 561603, "revenue": 561603}], "SPRITE": [{"ein": "150456245", "name": "SPRITE CLUB INC", "city": "DOLGEVILLE", "state": "NY", "zip": "13329-2115", "ntee": "", "ruling": "194009", "deductibility": "2", "assets": 166719, "income": 158285, "revenue": 91372}], "JORREY": [{"ein": "161092594", "name": "KIRBY FREE LIBRARY OF SALISBURY C O MRS RICHARD JORREY", "city": "SALISBURY CTR", "state": "NY", "zip": "13454-0322", "ntee": "B70", "ruling": "201404", "deductibility": "1", "assets": 0, "income": 0, "revenue": 0}], "WOODSMENS": [{"ein": "161180555", "name": "NEW YORK STATE WOODSMENS FIELD DAYS INC", "city": "BOONVILLE", "state": "NY", "zip": "13309-0123", "ntee": "", "ruling": "000000", "deductibility": "0", "assets": 231250, "income": 34186, "revenue": 26700}], "WILKINS": [{"ein": "161188525", "name": "RALPH WILKINS FOUNDATION", "city": "CORTLAND", "state": "NY", "zip": "13045-5592", "ntee": "", "ruling": "198405", "deductibility": "1", "assets": 1128062, "income": 406667, "revenue": 0}, {"ein": "201398389", "name": "FRIENDS OF ROY WILKINS PARK INC", "city": "JAMAICA", "state": "NY", "zip": "11434-7042", "ntee": "N32", "ruling": "200505", "deductibility": "1", "assets": 6650, "income": 4246, "revenue": 2446}, {"ein": "300799829", "name": "WILKINS BEACH ASSOCIATION INC", "city": "LAKEVILLE", "state": "NY", "zip": "14480-0249", "ntee": "N50", "ruling": "201409", "deductibility": "2", "assets": 0, "income": 0, "revenue": 0}, {"ein": "332025457", "name": "DOMINIQUE WILKINS MVP WELLNESS FOUNDATION INC", "city": "ALBANY", "state": "NY", "zip": "12207-2834", "ntee": "P12", "ruling": "202412", "deductibility": "1", "assets": 0, "income": 0, "revenue": 0}, {"ein": "452559991", "name": "WILKINS FAMILY CHARITABLE FOUNDATION", "city": "BATH", "state": "NY", "zip": "14810-7510", "ntee": "G83", "ruling": "201204", "deductibility": "1", "assets": 58236, "income": 102114, "revenue": 85329}, {"ein": "475641592", "name": "WILKINS MINISTRIES INTERNATIONAL INC", "city": "MIDDLETOWN", "state": "NY", "zip": "10940-6268", "ntee": "X20", "ruling": "201603", "deductibility": "1", "assets": 0, "income": 0, "revenue": 0}, {"ein": "510135262", "name": "BLACK SPECTRUM THEATRE CO INC ROY WILKINS PARK", "city": "JAMAICA", "state": "NY", "zip": "11434-0000", "ntee": "", "ruling": "197707", "deductibility": "1", "assets": 1495335, "income": 4150863, "revenue": 4150863}], "FOUDNATION": [{"ein": "161359264", "name": "EAST AURORA EDUCATIONAL FOUDNATION INC", "city": "EAST AURORA", "state": "NY", "zip": "14052-0732", "ntee": "B99J", "ruling": "199409", "deductibility": "1", "assets": 7653815, "income": 199645, "revenue": 169011}, {"ein": "882138019", "name": "ASIAN AMERICAN CHILDREN RAISING FOUDNATION INC", "city": "BROOKLYN", "state": "NY", "zip": "11214-3735", "ntee": "A20", "ruling": "202206", "deductibility": "1", "assets": 0, "income": 0, "revenue": 0}], "MADANIA": [{"ein": "161385668", "name": "DARUL-ULOOM AL-MADANIA INC", "city": "BUFFALO", "state": "NY", "zip": "14212-1506", "ntee": "", "ruling": "199111", "deductibility": "1", "assets": 0, "income": 0, "revenue": 0}, {"ein": "822377904", "name": "MADANIA COMMUNITY CENTER", "city": "BUFFALO", "state": "NY", "zip": "14212-1506", "ntee": "X40", "ruling": "201805", "deductibility": "1", "assets": 0, "income": 0, "revenue": 0}, {"ein": "881641098", "name": "MADANIA PURE INC", "city": "BUFFALO", "state": "NY", "zip": "14212-0000", "ntee": "X40", "ruling": "202301", "deductibility": "1", "assets": 0, "income": 0, "revenue": 0}], "EAGLEHILL": [{"ein": "161557787", "name": "EAGLEHILL HOME AND SCHOOL ASSOCIATION", "city": "MANLIUS", "state": "NY", "zip": "13104-8702", "ntee": "B12", "ruling": "202112", "deductibility": "1", "assets": 0, "income": 0, "revenue": 0}], "PENNEY": [{"ein": "161596245", "name": "BURCHFIELD-PENNEY ART CENTER", "city": "BUFFALO", "state": "NY", "zip": "14222-1004", "ntee": "A51", "ruling": "200103", "deductibility": "1", "assets": 20387119, "income": 3109764, "revenue": 2879883}], "CHEON": [{"ein": "201900113", "name": "YONG CHEON BUDDIST TEMPLE INC", "city": "FLUSHING", "state": "NY", "zip": "11354-5007", "ntee": "X50", "ruling": "200601", "deductibility": "1", "assets": 0, "income": 0, "revenue": 0}], "SHADDI": [{"ein": "202044772", "name": "EL SHADDI GOD IS MINISTRIES INC", "city": "BROOKLYN", "state": "NY", "zip": "11207-0000", "ntee": "X21", "ruling": "200709", "deductibility": "1", "assets": 0, "income": 0, "revenue": 0}], "SIZE": [{"ein": "202169746", "name": "CLASS SIZE MATTERS", "city": "NEW YORK", "state": "NY", "zip": "10011-9185", "ntee": "B05", "ruling": "200511", "deductibility": "1", "assets": 0, "income": 0, "revenue": 0}], "ADHIKAAR": [{"ein": "203384725", "name": "ADHIKAAR FOR HUMAN RIGHTS AND SOCIAL JUSTICE", "city": "WOODSIDE", "state": "NY", "zip": "11377-3939", "ntee": "Q70", "ruling": "200603", "deductibility": "1", "assets": 3336677, "income": 2130012, "revenue": 2130012}], "DELALFARERO": [{"ein": "208135400", "name": "IGLESIA PENTECOSTAL LA CASA DELALFARERO", "city": "NEW YORK", "state": "NY", "zip": "10040-0000", "ntee": "X20", "ruling": "201809", "deductibility": "1", "assets": 0, "income": 0, "revenue": 0}], "WFD": [{"ein": "222403297", "name": "WFD WORKING FOR DOWNTOWN INC", "city": "BUFFALO", "state": "NY", "zip": "14202-1702", "ntee": "S81Z", "ruling": "199205", "deductibility": "1", "assets": 0, "income": 0, "revenue": 0}], "GALLUPVILLE": [{"ein": "222420826", "name": "GALLUPVILLE GOSPEL CHURCH", "city": "GALLUPVILLE", "state": "NY", "zip": "12073-0056", "ntee": "", "ruling": "198212", "deductibility": "1", "assets": 0, "income": 0, "revenue": 0}, {"ein": "352766663", "name": "GALLUPVILLE HOUSE ASSOCIATION", "city": "GALLUPVILLE", "state": "NY", "zip": "12073-0053", "ntee": "B01", "ruling": "202211", "deductibility": "1", "assets": 247513, "income": 19236, "revenue": 19236}], "FIERLE": [{"ein": "222779812", "name": "ROBERT J & MARTHA B FIERLE FOUNDATION", "city": "WILLIAMSVILLE", "state": "NY", "zip": "14221-0000", "ntee": "", "ruling": "198703", "deductibility": "1", "assets": 2853241, "income": 1057944, "revenue": 0}], "BRAKA": [{"ein": "226643642", "name": "THE BRAKA PHILANTHOPIC FOUNDATION", "city": "NEW YORK", "state": "NY", "zip": "10123-4599", "ntee": "", "ruling": "199411", "deductibility": "1", "assets": 11485259, "income": 1267904, "revenue": 0}], "STIBBE": [{"ein": "226715670", "name": "KATHERINE S STIBBE CHARITABLE TR", "city": "NEW YORK", "state": "NY", "zip": "10013-2362", "ntee": "T20Z", "ruling": "199710", "deductibility": "1", "assets": 16305387, "income": 2971444, "revenue": 0}], "HOODNER": [{"ein": "236407935", "name": "FRANCIS A HOODNER TRUST 6400", "city": "BUFFALO", "state": "NY", "zip": "14240-1504", "ntee": "", "ruling": "199308", "deductibility": "1", "assets": 723203, "income": 223934, "revenue": 0}], "LIMON": [{"ein": "237012069", "name": "JOSE LIMON DANCE FOUNDATION", "city": "NEW YORK", "state": "NY", "zip": "10031-1814", "ntee": "A116", "ruling": "198610", "deductibility": "1", "assets": 1104741, "income": 1759513, "revenue": 1631144}], "KRESGE": [{"ein": "237081254", "name": "ROGER KRESGE FOUNDATION INC TRUST", "city": "JOHNSON CITY", "state": "NY", "zip": "13790-2726", "ntee": "", "ruling": "197109", "deductibility": "1", "assets": 1628001, "income": 504381, "revenue": 0}], "MAMIE": [{"ein": "256197546", "name": "MAMIE B BUSH TRUST", "city": "BUFFALO", "state": "NY", "zip": "14240-1504", "ntee": "", "ruling": "197902", "deductibility": "1", "assets": 270123, "income": 71191, "revenue": 0}], "PUGLIESEFIGLI": [{"ein": "260307995", "name": "ASSOCIAZIONE CULTURALE PUGLIESEFIGLI MARIA SS ADDOLORATA INC", "city": "BROOKLYN", "state": "NY", "zip": "11219-6024", "ntee": "A23", "ruling": "200908", "deductibility": "1", "assets": 28473, "income": 67734, "revenue": 26271}], "WRITOPIA": [{"ein": "260835350", "name": "WRITOPIA LAB INC", "city": "NEW YORK", "state": "NY", "zip": "10024-7218", "ntee": "B99", "ruling": "200906", "deductibility": "1", "assets": 702908, "income": 3417319, "revenue": 3417319}], "SANA": [{"ein": "260871400", "name": "SALA EVANGELICA DE LA SANA DOCTRINA INC", "city": "RICHMOND HILL", "state": "NY", "zip": "11418-0000", "ntee": "X21", "ruling": "200903", "deductibility": "1", "assets": 0, "income": 0, "revenue": 0}, {"ein": "882922627", "name": "SANA SANA WELLNESS", "city": "NEW YORK", "state": "NY", "zip": "10002-2975", "ntee": "E70", "ruling": "202210", "deductibility": "1", "assets": 80, "income": 7995, "revenue": 0}], "OQI": [{"ein": "262213736", "name": "OQI CARES", "city": "SYRACUSE", "state": "NY", "zip": "13224-1124", "ntee": "S31", "ruling": "201112", "deductibility": "1", "assets": 0, "income": 0, "revenue": 0}], "CORSBIE": [{"ein": "262453002", "name": "THE HECTOR M & PHYLLIS CORSBIE HYACINTHE FOUNDATION IN MEMORY OF", "city": "ARDSLEY", "state": "NY", "zip": "10502-0625", "ntee": "T22", "ruling": "200805", "deductibility": "1", "assets": 40331, "income": 4736, "revenue": 0}], "CHERIBUM": [{"ein": "263028586", "name": "CHERIBUM AND SERAPHIM CHURCH DEW OF DIVINE BLESSINGS INC", "city": "STATEN ISLAND", "state": "NY", "zip": "10304-4618", "ntee": "X20", "ruling": "200812", "deductibility": "1", "assets": 0, "income": 0, "revenue": 0}], "WAAAUB": [{"ein": "263341101", "name": "WAAAUB-BALTIMORE CHAPTER", "city": "NEW YORK", "state": "NY", "zip": "10017-2322", "ntee": "B84", "ruling": "201411", "deductibility": "1", "assets": 0, "income": 0, "revenue": 0}, {"ein": "263341176", "name": "WAAAUB-OHIO VALLEY CHAPTER", "city": "NEW YORK", "state": "NY", "zip": "10017-2322", "ntee": "B84", "ruling": "201411", "deductibility": "1", "assets": 0, "income": 0, "revenue": 0}, {"ein": "263341262", "name": "WAAAUB-HOUSTON CHAPTER", "city": "NEW YORK", "state": "NY", "zip": "10017-2322", "ntee": "B94", "ruling": "201411", "deductibility": "1", "assets": 0, "income": 0, "revenue": 0}, {"ein": "263341315", "name": "WAAAUB-INDIANA CHAPTER", "city": "NEW YORK", "state": "NY", "zip": "10017-2322", "ntee": "B84", "ruling": "201410", "deductibility": "1", "assets": 0, "income": 0, "revenue": 0}, {"ein": "263341379", "name": "WAAAUB-SOUTHERN FLORIDA - MIAMI - CHAPTER", "city": "NEW YORK", "state": "NY", "zip": "10017-2322", "ntee": "B84", "ruling": "201410", "deductibility": "1", "assets": 0, "income": 0, "revenue": 0}, {"ein": "263342291", "name": "WAAAUB-NEW YORK - TRISTATE AREA - CHAPTER", "city": "NEW YORK", "state": "NY", "zip": "10017-2322", "ntee": "B84", "ruling": "201502", "deductibility": "1", "assets": 0, "income": 0, "revenue": 0}, {"ein": "263342567", "name": "WAAAUB-NORTHEAST OHIO - CLEVELAND - CHAPTER", "city": "NEW YORK", "state": "NY", "zip": "10017-2322", "ntee": "B84", "ruling": "201410", "deductibility": "1", "assets": 0, "income": 0, "revenue": 0}, {"ein": "263342593", "name": "WAAAUB GREATER LOS ANGELES CHAPTER", "city": "NEW YORK", "state": "NY", "zip": "10017-2322", "ntee": "B84", "ruling": "201410", "deductibility": "1", "assets": 0, "income": 0, "revenue": 0}, {"ein": "263342615", "name": "WAAAUB-GREATER WASHINGTON DC CHAPTER", "city": "NEW YORK", "state": "NY", "zip": "10017-2322", "ntee": "B84", "ruling": "201411", "deductibility": "1", "assets": 0, "income": 0, "revenue": 0}, {"ein": "263345397", "name": "WAAAUB-NORTH TEXAS - DALLAS - CHAPTER", "city": "NEW YORK", "state": "NY", "zip": "10017-2322", "ntee": "B84", "ruling": "201503", "deductibility": "1", "assets": 0, "income": 0, "revenue": 0}, {"ein": "263376444", "name": "WAAAUB-ATLANTA CHAPTER", "city": "NEW YORK", "state": "NY", "zip": "10017-2322", "ntee": "B84", "ruling": "201410", "deductibility": "1", "assets": 0, "income": 0, "revenue": 0}, {"ein": "263407834", "name": "WAAAUB-MICHIGAN CHAPTER", "city": "NEW YORK", "state": "NY", "zip": "10017-2322", "ntee": "B84", "ruling": "201502", "deductibility": "1", "assets": 0, "income": 0, "revenue": 0}, {"ein": "263620151", "name": "WAAAUB-NORTHERN CALIFORNIA CHAPTER", "city": "NEW YORK", "state": "NY", "zip": "10017-2322", "ntee": "B84", "ruling": "201411", "deductibility": "1", "assets": 0, "income": 0, "revenue": 0}, {"ein": "263734101", "name": "WAAAUB-NEW ENGLAND CHAPTER", "city": "NEW YORK", "state": "NY", "zip": "10017-2322", "ntee": "B84", "ruling": "201410", "deductibility": "1", "assets": 0, "income": 0, "revenue": 0}, {"ein": "263794774", "name": "WAAAUB-MIDWEST CHAPTER", "city": "NEW YORK", "state": "NY", "zip": "10017-2322", "ntee": "B84", "ruling": "201411", "deductibility": "1", "assets": 0, "income": 0, "revenue": 0}, {"ein": "264174985", "name": "WAAAUB-PHILADELPHIA CHAPTER", "city": "NEW YORK", "state": "NY", "zip": "10017-2322", "ntee": "B84", "ruling": "201410", "deductibility": "1", "assets": 0, "income": 0, "revenue": 0}, {"ein": "461415913", "name": "WAAAUB-NORTH CAROLINA CHAPTER", "city": "NEW YORK", "state": "NY", "zip": "10017-2322", "ntee": "B84", "ruling": "201410", "deductibility": "1", "assets": 0, "income": 0, "revenue": 0}, {"ein": "824891143", "name": "WAAAUB ORANGE COUNTY CA CHAPTER", "city": "NEW YORK", "state": "NY", "zip": "10017-2322", "ntee": "B84", "ruling": "201809", "deductibility": "1", "assets": 0, "income": 0, "revenue": 0}], "COTTER": [{"ein": "264179130", "name": "FRIENDS OF THE EDWARD M COTTER", "city": "BUFFALO", "state": "NY", "zip": "14203-3049", "ntee": "A80", "ruling": "201003", "deductibility": "1", "assets": 0, "income": 0, "revenue": 0}, {"ein": "264494916", "name": "MAURICE J COTTER AND MURIEL J SHEAHAN CHARITABLE FOUNDATION", "city": "WESTBURY", "state": "NY", "zip": "11590-1838", "ntee": "T20", "ruling": "200906", "deductibility": "1", "assets": 758939, "income": 236109, "revenue": 0}, {"ein": "276060956", "name": "TED COTTER CHARITABLE TR", "city": "STATEN ISLAND", "state": "NY", "zip": "10304-1108", "ntee": "P20", "ruling": "201101", "deductibility": "1", "assets": 0, "income": 0, "revenue": 0}, {"ein": "811265898", "name": "FIREBOAT E M COTTER CONSERVANCY INC", "city": "BOWMANSVILLE", "state": "NY", "zip": "14026-0247", "ntee": "M24", "ruling": "202107", "deductibility": "1", "assets": 276221, "income": 102259, "revenue": 77337}], "COTERIE": [{"ein": "271640976", "name": "COTERIE THEATER CORPORATION", "city": "NEW YORK", "state": "NY", "zip": "10128-3927", "ntee": "A6A", "ruling": "201106", "deductibility": "1", "assets": 27211, "income": 0, "revenue": 0}], "BARBONCITO": [{"ein": "273236647", "name": "BARBONCITO FC INC", "city": "WOODSIDE", "state": "NY", "zip": "11377-5837", "ntee": "N64", "ruling": "202502", "deductibility": "1", "assets": 0, "income": 0, "revenue": 0}], "LEXLEAD": [{"ein": "273682187", "name": "LEXLEAD", "city": "NEW YORK", "state": "NY", "zip": "10014-7906", "ntee": "B83", "ruling": "201012", "deductibility": "1", "assets": 0, "income": 0, "revenue": 0}], "FRANCO": [{"ein": "276370142", "name": "CORINE AND JOE N FRANCO FAMILY CHARITABLE FOUNDATION", "city": "NEW YORK", "state": "NY", "zip": "10016-5902", "ntee": "T22", "ruling": "201004", "deductibility": "1", "assets": 22418, "income": 1, "revenue": 0}, {"ein": "276370187", "name": "MAJ FRANCO FAMILY CHARITABLE FOUNDATION", "city": "NEW YORK", "state": "NY", "zip": "10016-5902", "ntee": "T22", "ruling": "201004", "deductibility": "1", "assets": 4053, "income": 282000, "revenue": 0}], "SANCTIONING": [{"ein": "300810977", "name": "WOMENS INITIATIVE FOR SANCTIONING EMPOWERMENT INC", "city": "LATHAM", "state": "NY", "zip": "12110-5009", "ntee": "Q33", "ruling": "201405", "deductibility": "1", "assets": 0, "income": 0, "revenue": 0}], "ANACRUSIS": [{"ein": "301181072", "name": "ANACRUSIS INC", "city": "BROOKLYN", "state": "NY", "zip": "11201-5075", "ntee": "A68", "ruling": "201904", "deductibility": "1", "assets": 0, "income": 0, "revenue": 0}], "ACELERO": [{"ein": "320285851", "name": "ACELERO CHARITABLE FOUNDATION", "city": "NEW YORK", "state": "NY", "zip": "10018-4502", "ntee": "P20", "ruling": "201004", "deductibility": "1", "assets": 974801, "income": 90797, "revenue": 90552}], "STORK": [{"ein": "320541281", "name": "PROJECT STORK INC", "city": "OAKFIELD", "state": "NY", "zip": "14125-1232", "ntee": "P45", "ruling": "201712", "deductibility": "1", "assets": 927, "income": 72627, "revenue": 72627}], "FORGED": [{"ein": "332132952", "name": "FORGED BY VALOR INC", "city": "WEBSTER", "state": "NY", "zip": "14580-9040", "ntee": "B30", "ruling": "202501", "deductibility": "1", "assets": 0, "income": 0, "revenue": 0}, {"ein": "830527003", "name": "FORGED WARRIORS LAW ENFORCEMENT MOTORCYCLE CLUB INC", "city": "LIMA", "state": "NY", "zip": "14485-9428", "ntee": "I12", "ruling": "201904", "deductibility": "1", "assets": 0, "income": 0, "revenue": 0}], "RECHARGE": [{"ein": "332161704", "name": "RECHARGE SERVICES INC", "city": "BROOKLYN", "state": "NY", "zip": "11219-0000", "ntee": "P20", "ruling": "202501", "deductibility": "1", "assets": 0, "income": 0, "revenue": 0}, {"ein": "933668478", "name": "REST RECHARGE RETREAT INC", "city": "FREEPORT", "state": "NY", "zip": "11520-6239", "ntee": "B90", "ruling": "202310", "deductibility": "1", "assets": 0, "income": 0, "revenue": 0}], "SCHAEFFER": [{"ein": "411628882", "name": "FRANCIS A SCHAEFFER FOUNDATION", "city": "NEW YORK", "state": "NY", "zip": "10128-5482", "ntee": "", "ruling": "198905", "deductibility": "1", "assets": 0, "income": 0, "revenue": 0}, {"ein": "455339818", "name": "STEVEN AND MARCY SCHAEFFER FAMILY FOUNDATION INC", "city": "ITHACA", "state": "NY", "zip": "14850-9998", "ntee": "T22", "ruling": "201209", "deductibility": "1", "assets": 2752310, "income": 2114725, "revenue": 0}], "ARMED": [{"ein": "452625255", "name": "GLOBAL ACTION TO PREVENT WAR AND ARMED CONFLICT INC", "city": "NEW YORK", "state": "NY", "zip": "10027-5838", "ntee": "Q017", "ruling": "201212", "deductibility": "1", "assets": 32046, "income": 11830, "revenue": 11830}, {"ein": "521241063", "name": "ARMED FORCES COMMUNICATIONS AND ELECTRONICS ASSOCIATION", "city": "ROME", "state": "NY", "zip": "13440-2707", "ntee": "", "ruling": "198209", "deductibility": "2", "assets": 10081, "income": 13839, "revenue": 13839}, {"ein": "521550970", "name": "ARMED FORCES COMMUNICATIONS AND ELECTRONICS ASSOCIATION", "city": "MONTGOMERY", "state": "NY", "zip": "12549-2002", "ntee": "S03", "ruling": "198209", "deductibility": "2", "assets": 0, "income": 0, "revenue": 0}, {"ein": "813023897", "name": "AMERICANS SUPPORTING ARMED SERVICES INC OR ASAS", "city": "POTSDAM", "state": "NY", "zip": "13676-0533", "ntee": "W12", "ruling": "201708", "deductibility": "1", "assets": 5076, "income": 14840, "revenue": 10182}, {"ein": "921906601", "name": "PORT AUTHORITY OF NY & NJ POLICE DEPARTMENT ARMED FORCES ASSOCIATIO", "city": "EAST ROCKAWAY", "state": "NY", "zip": "11518-0000", "ntee": "W30", "ruling": "202307", "deductibility": "1", "assets": 0, "income": 0, "revenue": 0}, {"ein": "991284808", "name": "ARMED FORCES SUCCESS CENTER", "city": "WATERTOWN", "state": "NY", "zip": "13601-2310", "ntee": "W30", "ruling": "202402", "deductibility": "1", "assets": 24542, "income": 27556, "revenue": 25059}], "DAWNS": [{"ein": "452756019", "name": "DAWNS RAY OF HOPE INC", "city": "CHAPPAQUA", "state": "NY", "zip": "10514-3515", "ntee": "P99", "ruling": "202506", "deductibility": "1", "assets": 0, "income": 0, "revenue": 0}, {"ein": "813723232", "name": "THE CHURCH OF DAWNS LIGHT", "city": "FLUSHING", "state": "NY", "zip": "11358-1608", "ntee": "X20", "ruling": "201709", "deductibility": "1", "assets": 0, "income": 0, "revenue": 0}], "DOMAINE": [{"ein": "453548631", "name": "FRIENDS OF THE DOMAINE DE CHANTILLY INC", "city": "NEW YORK", "state": "NY", "zip": "10019-4703", "ntee": "T30", "ruling": "201205", "deductibility": "1", "assets": 421726, "income": 420335, "revenue": 420335}], "PROSE": [{"ein": "462382834", "name": "GLOBAL PROSE", "city": "PRT JEFFERSON", "state": "NY", "zip": "11777-2008", "ntee": "Q30", "ruling": "201705", "deductibility": "1", "assets": 0, "income": 0, "revenue": 0}], "HUSDON": [{"ein": "462766488", "name": "MID HUSDON PERFORMING ARTS GROUP INC", "city": "POUGHKEEPSIE", "state": "NY", "zip": "12601-3206", "ntee": "", "ruling": "201601", "deductibility": "1", "assets": 0, "income": 0, "revenue": 0}], "UNIQKID": [{"ein": "464352780", "name": "UNIQKID INC", "city": "BROOKLYN", "state": "NY", "zip": "11235-3434", "ntee": "P31", "ruling": "201408", "deductibility": "1", "assets": 0, "income": 0, "revenue": 0}], "KALAVEDI": [{"ein": "464693066", "name": "KALAVEDI INTERNATIONAL INC", "city": "GLEN COVE", "state": "NY", "zip": "11542-0000", "ntee": "A99", "ruling": "201512", "deductibility": "1", "assets": 0, "income": 0, "revenue": 0}], "PRAGMATICS": [{"ein": "465239823", "name": "DRAMATIC PRAGMATICS FOUNDATION INC", "city": "RYE BROOK", "state": "NY", "zip": "10573-2846", "ntee": "E12", "ruling": "201411", "deductibility": "1", "assets": 0, "income": 0, "revenue": 0}], "BARNESINC": [{"ein": "465241358", "name": "TERRELL AND JESSIE BARNESINC", "city": "BROOKLYN", "state": "NY", "zip": "11238-2600", "ntee": "E60", "ruling": "202402", "deductibility": "1", "assets": 0, "income": 0, "revenue": 0}], "LIONESS": [{"ein": "472112672", "name": "PATCHOGUE LIONESS LIONS FOUNDATION", "city": "PATCHOGUE", "state": "NY", "zip": "11772-0796", "ntee": "T50", "ruling": "201609", "deductibility": "1", "assets": 0, "income": 0, "revenue": 0}, {"ein": "990762735", "name": "LIONESS FC", "city": "CAMPBELL", "state": "NY", "zip": "14821-9000", "ntee": "T20", "ruling": "202403", "deductibility": "1", "assets": 0, "income": 0, "revenue": 0}], "BARCO": [{"ein": "472363254", "name": "CENTRO CULTURAL BARCO DE PAPEL INC", "city": "QUEENS", "state": "NY", "zip": "11373-1233", "ntee": "A70", "ruling": "201505", "deductibility": "1", "assets": 0, "income": 0, "revenue": 0}], "KENPO": [{"ein": "472723579", "name": "IKKA KENPO INTERNATIONAL LTD", "city": "MASSAPEQUA", "state": "NY", "zip": "11758-6206", "ntee": "N60", "ruling": "201608", "deductibility": "1", "assets": 0, "income": 0, "revenue": 0}], "RAPP": [{"ein": "473365900", "name": "RAPP ROAD HISTORICAL ASSOICATION", "city": "ALBANY", "state": "NY", "zip": "12208-0000", "ntee": "A23", "ruling": "201504", "deductibility": "1", "assets": 0, "income": 0, "revenue": 0}], "POWHER": [{"ein": "473609446", "name": "POWHER NEW YORK INC", "city": "MAMARONECK", "state": "NY", "zip": "10543-4608", "ntee": "S81", "ruling": "201507", "deductibility": "1", "assets": 112446, "income": 86343, "revenue": 86343}], "MANITOS": [{"ein": "473953730", "name": "MANITOS INC", "city": "BROOKLYN", "state": "NY", "zip": "11231-3009", "ntee": "G30", "ruling": "201602", "deductibility": "1", "assets": 216920, "income": 50874, "revenue": 50874}], "RA": [{"ein": "474130262", "name": "RA GUY FOUNDATION INC", "city": "NEW YORK", "state": "NY", "zip": "10009-3776", "ntee": "G01", "ruling": "201506", "deductibility": "1", "assets": 0, "income": 0, "revenue": 0}, {"ein": "872167967", "name": "RA THEATRE CORP", "city": "BROOKLYN", "state": "NY", "zip": "11201-1852", "ntee": "A65", "ruling": "202201", "deductibility": "1", "assets": 0, "income": 0, "revenue": 0}, {"ein": "872878859", "name": "AH LINN PAR RA MI MEDITATION CENTER INC", "city": "ELMHURST", "state": "NY", "zip": "11373-3784", "ntee": "X50", "ruling": "202212", "deductibility": "1", "assets": 3092, "income": 28650, "revenue": 28650}], "TUQUIS": [{"ein": "474305502", "name": "DUNCANS AND TUQUIS LEGACY ORGANIZATION INC", "city": "BROOKLYN", "state": "NY", "zip": "11215-5284", "ntee": "T20", "ruling": "201510", "deductibility": "1", "assets": 207202, "income": 10000, "revenue": 0}], "UD": [{"ein": "476235028", "name": "UD LAKEFIELD FAMILY FDN", "city": "NEW YORK", "state": "NY", "zip": "10055-0002", "ntee": "T22", "ruling": "200204", "deductibility": "1", "assets": 3272860, "income": 1035083, "revenue": 0}, {"ein": "526359740", "name": "RUSSELL BOGLEY TR UD", "city": "BUFFALO", "state": "NY", "zip": "14240-1504", "ntee": "X12", "ruling": "200110", "deductibility": "1", "assets": 859807, "income": 270379, "revenue": 0}], "DAMOSQUE": [{"ein": "510244672", "name": "DAMOSQUE LTD", "city": "WEBSTER", "state": "NY", "zip": "14580-1736", "ntee": "", "ruling": "198005", "deductibility": "2", "assets": 379004, "income": 202158, "revenue": 36780}], "PERKSDANCEMUSIC": [{"ein": "550838102", "name": "REBECCA STENN PERKSDANCEMUSIC THEATRE INC", "city": "NEW YORK", "state": "NY", "zip": "10011-1217", "ntee": "A62", "ruling": "200404", "deductibility": "1", "assets": 0, "income": 0, "revenue": 0}], "SAID": [{"ein": "562468453", "name": "BARENBOIM-SAID FOUNDATION USA", "city": "NEW YORK", "state": "NY", "zip": "10025-7764", "ntee": "A69", "ruling": "200502", "deductibility": "1", "assets": 546539, "income": 266549, "revenue": 266549}], "ASHTON": [{"ein": "562525921", "name": "THE THOMAS ASHTON FOUNDATION", "city": "LONG BEACH", "state": "NY", "zip": "11561-1519", "ntee": "T30", "ruling": "200602", "deductibility": "1", "assets": 1626, "income": 1289, "revenue": 1289}], "AIZAN": [{"ein": "582648565", "name": "AIZAN CHARITABLE ORGANIZATION", "city": "ROSEDALE", "state": "NY", "zip": "11422-2615", "ntee": "Q30", "ruling": "200212", "deductibility": "1", "assets": 0, "income": 0, "revenue": 0}], "KRESSEL": [{"ein": "593768612", "name": "KRESSEL FAMILY FOUNDATION", "city": "NEW YORK", "state": "NY", "zip": "10028-0112", "ntee": "T22", "ruling": "200304", "deductibility": "1", "assets": 1402786, "income": 433334, "revenue": 0}], "BOEHEIM": [{"ein": "800434367", "name": "JIM AND JULI BOEHEIM FOUNDATION INC", "city": "FAYETTEVILLE", "state": "NY", "zip": "13066-9788", "ntee": "P30", "ruling": "200909", "deductibility": "1", "assets": 2371346, "income": 1353122, "revenue": 1123994}], "ZROR": [{"ein": "810691878", "name": "CONG ZROR HAYIM SELISH", "city": "MONROE", "state": "NY", "zip": "10949-8318", "ntee": "X30", "ruling": "201609", "deductibility": "1", "assets": 0, "income": 0, "revenue": 0}], "WELLBEING": [{"ein": "813686100", "name": "GLOBAL WOMEN 4 WELLBEING", "city": "BLOOMING GRV", "state": "NY", "zip": "10914-5015", "ntee": "E01", "ruling": "201611", "deductibility": "1", "assets": 0, "income": 0, "revenue": 0}, {"ein": "831706815", "name": "DHARMAKAYA CENTER FOR WELLBEING INC", "city": "PINE BUSH", "state": "NY", "zip": "12566-5132", "ntee": "X50", "ruling": "201909", "deductibility": "1", "assets": 204495, "income": 690235, "revenue": 690235}, {"ein": "834588770", "name": "WELLBEING FOUNDATION AMERICA INC", "city": "WILLIAMSVILLE", "state": "NY", "zip": "14221-5854", "ntee": "F12", "ruling": "201906", "deductibility": "1", "assets": 4606555, "income": 739897, "revenue": 739897}, {"ein": "921414974", "name": "WAI WELLBEING ARTS AND INCLUSION INC", "city": "MOUNT KISCO", "state": "NY", "zip": "10549-3079", "ntee": "A25", "ruling": "202305", "deductibility": "1", "assets": 0, "income": 0, "revenue": 0}], "TENANTASSOCIATION": [{"ein": "821301733", "name": "MORRISANIA AIR RIGHTS HOUSES TENANTASSOCIATION INC", "city": "BRONX", "state": "NY", "zip": "10451-4078", "ntee": "L01", "ruling": "201712", "deductibility": "1", "assets": 0, "income": 0, "revenue": 0}], "POLAK": [{"ein": "821389020", "name": "FEYERABEND POLAK FOUNDATION INC", "city": "BINGHAMTON", "state": "NY", "zip": "13902-3049", "ntee": "Q21", "ruling": "201705", "deductibility": "1", "assets": 0, "income": 0, "revenue": 0}], "YACKOB": [{"ein": "822141732", "name": "CONGREGATION BETH BRACHA AND YACKOB INC", "city": "BROOKLYN", "state": "NY", "zip": "11235-2507", "ntee": "X30", "ruling": "202006", "deductibility": "1", "assets": 0, "income": 0, "revenue": 0}], "RB2KIDS": [{"ein": "825379069", "name": "RB2KIDS INC", "city": "STATEN ISLAND", "state": "NY", "zip": "10306-5109", "ntee": "O50", "ruling": "201807", "deductibility": "1", "assets": 0, "income": 0, "revenue": 0}], "WILDCARE": [{"ein": "825501562", "name": "WILDCARE OF WESTERN NEW YORK INC", "city": "PENDLETON", "state": "NY", "zip": "14120-9576", "ntee": "D30", "ruling": "201902", "deductibility": "1", "assets": 0, "income": 0, "revenue": 0}], "GRAYBEARD": [{"ein": "830558843", "name": "GRAYBEARD CHARITABLE FOUNDATION INC", "city": "CHEEKTOWAGA", "state": "NY", "zip": "14227-3221", "ntee": "T20", "ruling": "201903", "deductibility": "1", "assets": 6973, "income": 1, "revenue": 0}], "LUMA": [{"ein": "830967180", "name": "LUMA ARTS INITIATIVE INC", "city": "BINGHAMTON", "state": "NY", "zip": "13901-2730", "ntee": "T50", "ruling": "201903", "deductibility": "1", "assets": 60264, "income": 198325, "revenue": 198325}], "ETH": [{"ein": "843180130", "name": "ETH ZURICH FOUNDATION USA INC", "city": "NEW YORK", "state": "NY", "zip": "10005-3701", "ntee": "U12", "ruling": "202007", "deductibility": "1", "assets": 1603154, "income": 1579724, "revenue": 1579724}], "TURKISTAN": [{"ein": "843781463", "name": "CHARITABLE FUND TURKISTAN USA INC", "city": "JAMAICA", "state": "NY", "zip": "11432-1222", "ntee": "P20", "ruling": "202305", "deductibility": "1", "assets": 19773, "income": 129187, "revenue": 129187}], "BEITRY": [{"ein": "850552162", "name": "SUMMERVILLE WHITE CITY WINDSOR AND BEITRY BEACH RESIDENTS ASSOCIATION", "city": "ROCHESTER", "state": "NY", "zip": "14617-1230", "ntee": "S22", "ruling": "202205", "deductibility": "1", "assets": 0, "income": 0, "revenue": 0}], "CHITTAGONIAN": [{"ein": "850949118", "name": "HELPING HAND FOR CHITTAGONIAN INC", "city": "BROOKLYN", "state": "NY", "zip": "11209-1103", "ntee": "M99", "ruling": "202006", "deductibility": "1", "assets": 0, "income": 0, "revenue": 0}], "IMAGINARIUM": [{"ein": "851712780", "name": "IMAGINARIUM THEATRE COMPANY INC", "city": "BROOKLYN", "state": "NY", "zip": "11226-4636", "ntee": "A65", "ruling": "202107", "deductibility": "1", "assets": 0, "income": 0, "revenue": 0}], "GR": [{"ein": "852310262", "name": "COMMUNITY CULTURAL CENTER OF THE SIDNEY ARTS & CULTURAL EXCHANGE GR", "city": "SIDNEY", "state": "NY", "zip": "13838-0470", "ntee": "A20", "ruling": "202009", "deductibility": "1", "assets": 227844, "income": 29981, "revenue": 29981}, {"ein": "991764962", "name": "GIRLS HIGH SCHOOL ALUMNAE ASSOCIATION OF ST VINCENT & THE GR", "city": "BROOKLYN", "state": "NY", "zip": "11233-5129", "ntee": "B82", "ruling": "202405", "deductibility": "1", "assets": 0, "income": 0, "revenue": 0}], "WAA": [{"ein": "852576989", "name": "WAA TALIBI INC", "city": "NEW YORK", "state": "NY", "zip": "10032-6651", "ntee": "T50", "ruling": "202204", "deductibility": "1", "assets": 7210, "income": 7210, "revenue": 0}], "FLAMINGO": [{"ein": "854178803", "name": "FLAMINGO TRAUMA RECOVERY", "city": "NEW YORK", "state": "NY", "zip": "10031-7348", "ntee": "F60", "ruling": "202110", "deductibility": "1", "assets": 0, "income": 0, "revenue": 0}], "BURNOUT": [{"ein": "861362417", "name": "CLINICIAN BURNOUT FOUNDATION CORP", "city": "NEW YORK", "state": "NY", "zip": "10024-5805", "ntee": "P62", "ruling": "202207", "deductibility": "1", "assets": 0, "income": 0, "revenue": 0}], "MONKEYSHINES": [{"ein": "871137058", "name": "MONKEYSHINES MEDIA INC", "city": "BAY SHORE", "state": "NY", "zip": "11706-5317", "ntee": "A20", "ruling": "202109", "deductibility": "1", "assets": 0, "income": 0, "revenue": 0}], "FURNITSHARE": [{"ein": "871645047", "name": "FURNITSHARE FOUNDATION CORP", "city": "CEDARHURST", "state": "NY", "zip": "11516-1326", "ntee": "P20", "ruling": "202112", "deductibility": "1", "assets": 0, "income": 0, "revenue": 0}], "HFW": [{"ein": "871925817", "name": "HFW LEARNING CENTER INC", "city": "BRONX", "state": "NY", "zip": "10473-1147", "ntee": "A20", "ruling": "202501", "deductibility": "1", "assets": 0, "income": 0, "revenue": 0}], "LOEWENSTEIN": [{"ein": "882956794", "name": "RUTH LOEWENSTEIN CHARITABLE FOUNDATION INC", "city": "CENTERPORT", "state": "NY", "zip": "11721-1162", "ntee": "Z99", "ruling": "202208", "deductibility": "1", "assets": 231831, "income": 29777, "revenue": 0}], "UNLOCKED": [{"ein": "921217545", "name": "UNLOCKED FOUNDATION INC", "city": "NEW YORK", "state": "NY", "zip": "10003-1502", "ntee": "B99", "ruling": "202301", "deductibility": "1", "assets": 25939, "income": 164802, "revenue": 164802}], "TIUNY": [{"ein": "922618189", "name": "TIUNY HOLDINGS INC", "city": "ROCHESTER", "state": "NY", "zip": "14618-0000", "ntee": "S47", "ruling": "202409", "deductibility": "2", "assets": 4461571, "income": 435347, "revenue": 435347}], "JAMPON": [{"ein": "922998299", "name": "JAMPON INC", "city": "NEW YORK", "state": "NY", "zip": "10029-6418", "ntee": "P12", "ruling": "202307", "deductibility": "1", "assets": 0, "income": 0, "revenue": 0}], "ZHIYU": [{"ein": "932558171", "name": "ZHIYU FOUNDATION", "city": "NEW YORK", "state": "NY", "zip": "10008-1143", "ntee": "T20", "ruling": "202308", "deductibility": "1", "assets": 426924, "income": 125957, "revenue": 0}], "PEAY": [{"ein": "933745539", "name": "PEAY & ASSOCIATES KNOWLEGE FOUNDATION INC", "city": "BUFFALO", "state": "NY", "zip": "14206-2463", "ntee": "B90", "ruling": "202401", "deductibility": "1", "assets": 0, "income": 0, "revenue": 0}], "ASTROBOUND": [{"ein": "934759542", "name": "ASTROBOUND INITIATIVE", "city": "PITTSFORD", "state": "NY", "zip": "14534-4720", "ntee": "B90", "ruling": "202401", "deductibility": "1", "assets": 0, "income": 0, "revenue": 0}], "ZHAN": [{"ein": "990436620", "name": "AMERICAN FUJIAN SHOU ZHAN ASSOCIATION INC", "city": "FLUSHING", "state": "NY", "zip": "11355-3820", "ntee": "P20", "ruling": "202409", "deductibility": "1", "assets": 0, "income": 0, "revenue": 0}], "PSIS": [{"ein": "990919105", "name": "PSIS 49Q PARENT TEACHER ASSOCIATION", "city": "MIDDLE VLG", "state": "NY", "zip": "11379-1309", "ntee": "B94", "ruling": "202411", "deductibility": "1", "assets": 0, "income": 0, "revenue": 0}], "VIPERS": [{"ein": "994379858", "name": "VALLEY VIPERS INC", "city": "MELROSE", "state": "NY", "zip": "12121-0004", "ntee": "N63", "ruling": "202501", "deductibility": "1", "assets": 0, "income": 0, "revenue": 0}], "QEQCHI": [{"ein": "994386522", "name": "MISION CRISTIANA EN QEQCHI", "city": "KINGSTON", "state": "NY", "zip": "12401-5000", "ntee": "X20", "ruling": "202505", "deductibility": "1", "assets": 0, "income": 0, "revenue": 0}], "ALRASOOL": [{"ein": "994873687", "name": "ALRASOOL MOSQUE INCORPRATED", "city": "FAIRPORT", "state": "NY", "zip": "14450-0000", "ntee": "X40", "ruling": "202503", "deductibility": "1", "assets": 0, "income": 0, "revenue": 0}]}