{"ORCHOS": [{"ein": "010844614", "name": "YESHIVA ORCHOS CHAIM", "city": "MONSEY", "state": "NY", "zip": "10952-1219", "ntee": "X30", "ruling": "200801", "deductibility": "1", "assets": 0, "income": 0, "revenue": 0}, {"ein": "112863668", "name": "ORCHOS CHAIM OF SPINKA INC", "city": "BROOKLYN", "state": "NY", "zip": "11219-3605", "ntee": "", "ruling": "198707", "deductibility": "1", "assets": 0, "income": 0, "revenue": 0}, {"ein": "113569899", "name": "ORCHOS TZEDEK DARCHEI CHESED & REFUAH", "city": "BROOKLYN", "state": "NY", "zip": "11219-2027", "ntee": "X30", "ruling": "200011", "deductibility": "1", "assets": 0, "income": 0, "revenue": 0}, {"ein": "133957953", "name": "CONGREGATION ORCHOS CHAIM SPINKA", "city": "MONSEY", "state": "NY", "zip": "10952-2707", "ntee": "X30Z", "ruling": "199711", "deductibility": "1", "assets": 0, "income": 0, "revenue": 0}, {"ein": "205924289", "name": "FRIENDS OF ORCHOS YAAKOV", "city": "BROOKLYN", "state": "NY", "zip": "11219-3944", "ntee": "T22", "ruling": "200701", "deductibility": "1", "assets": 16862, "income": 88000, "revenue": 0}, {"ein": "820643799", "name": "AMERICAN FRIENDS OF ORCHOS ELAZAR INC", "city": "BROOKLYN", "state": "NY", "zip": "11210-4517", "ntee": "X99", "ruling": "201805", "deductibility": "1", "assets": 0, "income": 0, "revenue": 0}, {"ein": "991873177", "name": "MESIVTA ORCHOS YOSHER", "city": "SPRING VALLEY", "state": "NY", "zip": "10977-6121", "ntee": "X30", "ruling": "202411", "deductibility": "1", "assets": 0, "income": 0, "revenue": 0}], "YRSRH": [{"ein": "020544285", "name": "YRSRH OF MONSEY INC", "city": "MONSEY", "state": "NY", "zip": "10952-0000", "ntee": "X30", "ruling": "200204", "deductibility": "1", "assets": 0, "income": 0, "revenue": 0}], "ROBINSON": [{"ein": "020743314", "name": "MOTHER ROSE FAYTON ROBINSON FOUNDATION INC", "city": "JAMAICA", "state": "NY", "zip": "11435-5717", "ntee": "P810", "ruling": "200607", "deductibility": "1", "assets": 0, "income": 0, "revenue": 0}, {"ein": "132896345", "name": "JACKIE ROBINSON FOUNDATION INC", "city": "NEW YORK", "state": "NY", "zip": "10013-1947", "ntee": "", "ruling": "197706", "deductibility": "1", "assets": 38362590, "income": 12312679, "revenue": 9751292}, {"ein": "134161600", "name": "JACKIE ROBINSON PARK CONSERVANCY INC", "city": "NEW YORK", "state": "NY", "zip": "10039-0301", "ntee": "N32", "ruling": "202310", "deductibility": "1", "assets": 0, "income": 0, "revenue": 0}, {"ein": "136161094", "name": "MAURICE R ROBINSON FUND INC 30032161", "city": "NEW YORK", "state": "NY", "zip": "10012-3962", "ntee": "T22", "ruling": "202210", "deductibility": "1", "assets": 6933941, "income": 1353087, "revenue": 0}, {"ein": "137005989", "name": "RICHARD ROBINSON CHARITABLE TRUST 12231992", "city": "NEW YORK", "state": "NY", "zip": "10036-0000", "ntee": "", "ruling": "199403", "deductibility": "1", "assets": 2614731, "income": 56076, "revenue": 0}, {"ein": "141814054", "name": "EVELYN & PAUL ROBINSON FAMILY FDN", "city": "QUEENSBURY", "state": "NY", "zip": "12804-2915", "ntee": "", "ruling": "199912", "deductibility": "0", "assets": 1587055, "income": 760839, "revenue": 0}, {"ein": "146065385", "name": "L ROBINSON TRUST POSA 6TH A CHARITABLE MARINE MIDLAND BK", "city": "NORWICH", "state": "NY", "zip": "13815-0000", "ntee": "", "ruling": "000000", "deductibility": "0", "assets": 101418, "income": 13652, "revenue": 0}, {"ein": "161165348", "name": "ROBINSON KERN CORP AMERICAN", "city": "SPRINGWATER", "state": "NY", "zip": "14560-0010", "ntee": "", "ruling": "198809", "deductibility": "2", "assets": 33799, "income": 109440, "revenue": 42333}, {"ein": "161621090", "name": "KELVIN ROBINSON FOUNDATION", "city": "NEW YORK", "state": "NY", "zip": "10039-3316", "ntee": "M24", "ruling": "201407", "deductibility": "1", "assets": 1, "income": 1, "revenue": 0}, {"ein": "222558699", "name": "ROBINSON BROADHURST FOUNDATION INC", "city": "STAMFORD", "state": "NY", "zip": "12167-0160", "ntee": "", "ruling": "198505", "deductibility": "1", "assets": 37873533, "income": 7939885, "revenue": 0}, {"ein": "311607491", "name": "THE WILLIAM ELLIS ROBINSON FOUNDATION", "city": "NEW YORK", "state": "NY", "zip": "10024-1716", "ntee": "T20", "ruling": "200701", "deductibility": "1", "assets": 1616230, "income": 67875, "revenue": 0}, {"ein": "456633134", "name": "RHOADES-ROBINSON FUND", "city": "NEW YORK", "state": "NY", "zip": "10004-1482", "ntee": "T20", "ruling": "201202", "deductibility": "1", "assets": 1268180, "income": 280996, "revenue": 0}, {"ein": "510244640", "name": "LEWIS G ROBINSON CHARITABLE TRUST C/O MARINE MIDLAND BANK", "city": "NORWICH", "state": "NY", "zip": "13815-0000", "ntee": "", "ruling": "197002", "deductibility": "1", "assets": 146350, "income": 19135, "revenue": 0}, {"ein": "821103253", "name": "RENEE L ROBINSON SCHOLARSHIP FUND", "city": "LISBON", "state": "NY", "zip": "13658-3287", "ntee": "B82", "ruling": "201704", "deductibility": "1", "assets": 0, "income": 0, "revenue": 0}, {"ein": "823778774", "name": "ROBINSON ELMWOOD UNITED CHURCH", "city": "SYRACUSE", "state": "NY", "zip": "13219-1438", "ntee": "", "ruling": "196401", "deductibility": "1", "assets": 0, "income": 0, "revenue": 0}, {"ein": "831504778", "name": "BRIAN M ROBINSON FOUNDATION INC", "city": "WHITE PLAINS", "state": "NY", "zip": "10605-5313", "ntee": "O12", "ruling": "201811", "deductibility": "1", "assets": 0, "income": 0, "revenue": 0}, {"ein": "841805693", "name": "ROBINSON ROOTS FAMILY REUNION INC", "city": "HEMPSTEAD", "state": "NY", "zip": "11550-5222", "ntee": "T70", "ruling": "201911", "deductibility": "1", "assets": 0, "income": 0, "revenue": 0}, {"ein": "850736993", "name": "ROBINSON GRAHAM HOUSE", "city": "NEW YORK", "state": "NY", "zip": "10037-3620", "ntee": "S20", "ruling": "202006", "deductibility": "1", "assets": 0, "income": 0, "revenue": 0}, {"ein": "871485086", "name": "ROBINSON FAMILY FOUNDATION", "city": "HARRISON", "state": "NY", "zip": "10528-0000", "ntee": "T22", "ruling": "202112", "deductibility": "1", "assets": 2772229, "income": 593304, "revenue": 0}, {"ein": "900671094", "name": "JAMEL ROBINSON CHILD WELFARE REFORM INITATIVE", "city": "NEW YORK", "state": "NY", "zip": "10030-1851", "ntee": "O50", "ruling": "201202", "deductibility": "1", "assets": 0, "income": 0, "revenue": 0}], "SANSAR": [{"ein": "020761791", "name": "THE SANSAR CAPITAL FOUNDATION", "city": "NEW YORK", "state": "NY", "zip": "10069-1023", "ntee": "T20", "ruling": "200602", "deductibility": "1", "assets": 3090435, "income": 2031624, "revenue": 0}], "ERRAL": [{"ein": "030343444", "name": "ERRAL A VAILE & EVELYN L CLEAVELAND MEMORIAL TR FND FOR STUD OF MUSIC", "city": "BUFFALO", "state": "NY", "zip": "14240-1504", "ntee": "", "ruling": "199409", "deductibility": "1", "assets": 348726, "income": 321400, "revenue": 0}], "CELESTIAL": [{"ein": "030428101", "name": "ANNOINTED CELESTIAL CHURCH OF CHRIST OF NEW YORK", "city": "BRONX", "state": "NY", "zip": "10466-4022", "ntee": "X20", "ruling": "200303", "deductibility": "1", "assets": 0, "income": 0, "revenue": 0}, {"ein": "113024242", "name": "CELESTIAL CHURCH OF CHRIST QUEENS PARISH INC", "city": "BROOKLYN", "state": "NY", "zip": "11208-2107", "ntee": "", "ruling": "199504", "deductibility": "1", "assets": 0, "income": 0, "revenue": 0}, {"ein": "113098283", "name": "CELESTIAL CHURCH OF CHRIST INC ILERI OLUWA PARISH", "city": "BROOKLYN", "state": "NY", "zip": "11205-2404", "ntee": "", "ruling": "199303", "deductibility": "1", "assets": 41290, "income": 384145, "revenue": 384145}, {"ein": "113213976", "name": "CELESTIAL CHURCH OF CHRIST INC", "city": "BROOKLYN", "state": "NY", "zip": "11237-6010", "ntee": "", "ruling": "199406", "deductibility": "1", "assets": 0, "income": 0, "revenue": 0}, {"ein": "113284322", "name": "CELESTIAL CHURCH OF CHRIST MIRACLE PARISH INCORPORATED", "city": "WESTBURY", "state": "NY", "zip": "11590-2320", "ntee": "X20", "ruling": "200602", "deductibility": "1", "assets": 0, "income": 0, "revenue": 0}, {"ein": "113416567", "name": "CELESTIAL CHURCH OF CHRIST INC", "city": "SAINT ALBANS", "state": "NY", "zip": "11412-1801", "ntee": "X21", "ruling": "200210", "deductibility": "1", "assets": 0, "income": 0, "revenue": 0}, {"ein": "133642556", "name": "CELESTIAL CHURCH OF CHRIST", "city": "STATEN ISLAND", "state": "NY", "zip": "10310-1707", "ntee": "", "ruling": "199212", "deductibility": "1", "assets": 0, "income": 0, "revenue": 0}, {"ein": "133688370", "name": "CELESTIAL CHURCH OF CHRIST- MYSTERIOUS PARISH OF NEW YORK", "city": "BRONX", "state": "NY", "zip": "10459-2303", "ntee": "X21Z", "ruling": "199706", "deductibility": "1", "assets": 0, "income": 0, "revenue": 0}, {"ein": "133732877", "name": "ZION CELESTIAL CITY APOSTOLIC TEMPLE SPIRITUAL BAPTIST CHURCH", "city": "NEW YORK", "state": "NY", "zip": "10027-5636", "ntee": "", "ruling": "199404", "deductibility": "1", "assets": 0, "income": 0, "revenue": 0}, {"ein": "133984986", "name": "CELESTIAL LOVE FOUNDATION INC", "city": "NEW YORK", "state": "NY", "zip": "10002-6304", "ntee": "P20", "ruling": "201409", "deductibility": "1", "assets": 2006286, "income": 240121, "revenue": 240121}, {"ein": "201971229", "name": "CELESTIAL CHURCH OF CHRIST-ROCK OF AGES PARISH", "city": "ARVERNE", "state": "NY", "zip": "11692-1312", "ntee": "X20", "ruling": "200605", "deductibility": "1", "assets": 327089, "income": 140406, "revenue": 140406}, {"ein": "208004484", "name": "CELESTIAL CHURCH OF CHRIST GRACE OFBLESSING PARISH", "city": "SPRINGFIELD GARDEN", "state": "NY", "zip": "11413-0000", "ntee": "X21", "ruling": "200712", "deductibility": "1", "assets": 0, "income": 0, "revenue": 0}, {"ein": "270038508", "name": "CASA CELESTIAL DE RESTAURACION MINISTERIO INTERNACIONAL INC", "city": "BRONX", "state": "NY", "zip": "10458-2610", "ntee": "X20", "ruling": "200304", "deductibility": "1", "assets": 0, "income": 0, "revenue": 0}, {"ein": "300041963", "name": "ST RAPHAEL AND ST ANNE CELESTIAL HEALING CHURCH", "city": "BRONX", "state": "NY", "zip": "10466-2220", "ntee": "X20", "ruling": "200206", "deductibility": "1", "assets": 0, "income": 0, "revenue": 0}, {"ein": "311792425", "name": "CELESTIAL CHURCH OF CHRIST INC", "city": "BROOKLYN", "state": "NY", "zip": "11224-0437", "ntee": "X21", "ruling": "200108", "deductibility": "1", "assets": 0, "income": 0, "revenue": 0}, {"ein": "450819869", "name": "JERUSALEM LA CELESTIAL INC", "city": "BRONX", "state": "NY", "zip": "10469-1125", "ntee": "X21", "ruling": "201302", "deductibility": "1", "assets": 0, "income": 0, "revenue": 0}, {"ein": "452554889", "name": "CELESTIAL CHURCH OF CHRIST ANNOINTED PARISH", "city": "BRONX", "state": "NY", "zip": "10469-3701", "ntee": "X20", "ruling": "201202", "deductibility": "1", "assets": 0, "income": 0, "revenue": 0}, {"ein": "454268418", "name": "IGLESIA JESUCRISTO EL CAMINO CELESTIAL INC", "city": "ELMHURST", "state": "NY", "zip": "11373-4434", "ntee": "X20", "ruling": "201303", "deductibility": "1", "assets": 911516, "income": 433017, "revenue": 433017}, {"ein": "462581660", "name": "MINISTERIO PROFETICO VISION CELESTIAL INC", "city": "LITTLE NECK", "state": "NY", "zip": "11362-2423", "ntee": "X20", "ruling": "201407", "deductibility": "1", "assets": 0, "income": 0, "revenue": 0}, {"ein": "475324382", "name": "IGLESIA PENTECOSTAL OASIS CELESTIAL INC", "city": "NEW YORK", "state": "NY", "zip": "10033-1320", "ntee": "X20", "ruling": "201607", "deductibility": "1", "assets": 0, "income": 0, "revenue": 0}, {"ein": "550890925", "name": "CELESTIAL CHURCH OF CHRIST PROMISED LAND PARISH NEW YORK", "city": "BROOKLYN", "state": "NY", "zip": "11203-6735", "ntee": "X21", "ruling": "200705", "deductibility": "1", "assets": 0, "income": 0, "revenue": 0}, {"ein": "611567706", "name": "CELESTIAL CHURCH OF GOD JERIHMOHYAMAH PARISH", "city": "BROOKLYN", "state": "NY", "zip": "11212-8133", "ntee": "X20", "ruling": "201504", "deductibility": "1", "assets": 0, "income": 0, "revenue": 0}, {"ein": "843243846", "name": "IGLESIA BIBLICA SENDA CELESTIAL INTERNACIONAL INC", "city": "FLUSHING", "state": "NY", "zip": "11354-2925", "ntee": "X20", "ruling": "202001", "deductibility": "1", "assets": 0, "income": 0, "revenue": 0}, {"ein": "881912340", "name": "CELESTIAL CHURCH OF CHRIST USA NATIONAL DIOCESE INC", "city": "JAMAICA", "state": "NY", "zip": "11433-2107", "ntee": "X02", "ruling": "202206", "deductibility": "1", "assets": 0, "income": 0, "revenue": 0}, {"ein": "900613585", "name": "CELESTIAL CHURCH OF CHRIST CROWN OF LIFE PARISH", "city": "ROCKVILLE CTR", "state": "NY", "zip": "11570-4700", "ntee": "X21", "ruling": "201102", "deductibility": "1", "assets": 0, "income": 0, "revenue": 0}, {"ein": "943402407", "name": "CELESTIAL HEALTH AND HOME CARE SERVICES INC", "city": "BROOKLYN", "state": "NY", "zip": "11236-5517", "ntee": "B40", "ruling": "200201", "deductibility": "1", "assets": 0, "income": 0, "revenue": 0}], "COHESION": [{"ein": "030510234", "name": "SOCIAL COHESION INC", "city": "SCHENECTADY", "state": "NY", "zip": "12304-1316", "ntee": "Q40", "ruling": "201401", "deductibility": "1", "assets": 0, "income": 0, "revenue": 0}, {"ein": "863828696", "name": "ASIAN AMERICAN COHESION INC", "city": "FLUSHING", "state": "NY", "zip": "11355-4324", "ntee": "A20", "ruling": "202109", "deductibility": "1", "assets": 97492, "income": 123756, "revenue": 123756}], "BURRINGTON": [{"ein": "036039885", "name": "EUNICE & WILLIAM BURRINGTON TRUST SVMC 31C014011", "city": "BUFFALO", "state": "NY", "zip": "14240-1504", "ntee": "T22", "ruling": "201904", "deductibility": "1", "assets": 84823, "income": 5642, "revenue": 0}], "FREELANDER": [{"ein": "043254349", "name": "FREELANDER FAMILY CHARITABLE TRUST", "city": "NEW YORK", "state": "NY", "zip": "10025-3892", "ntee": "A23J", "ruling": "199504", "deductibility": "1", "assets": 4088853, "income": 1737074, "revenue": 0}], "PALACE": [{"ein": "046148638", "name": "UNITED PALACE OF SPIRITUAL ARTS", "city": "NEW YORK", "state": "NY", "zip": "10033-3701", "ntee": "X20Z", "ruling": "198606", "deductibility": "1", "assets": 0, "income": 0, "revenue": 0}, {"ein": "133203369", "name": "SILVER PALACE DINING ROOM INDEPENDENT HEALTH WELFARE FUND", "city": "NEW YORK", "state": "NY", "zip": "10002-4675", "ntee": "", "ruling": "202308", "deductibility": "2", "assets": 0, "income": 0, "revenue": 0}, {"ein": "133798133", "name": "PALACE RENAISSANCE INC", "city": "NEW YORK", "state": "NY", "zip": "10001-7243", "ntee": "S47", "ruling": "200607", "deductibility": "2", "assets": 5242444, "income": 203520, "revenue": 203520}, {"ein": "141708151", "name": "PALACE PERFORMING ARTS CENTER INC", "city": "ALBANY", "state": "NY", "zip": "12207-2211", "ntee": "A61Z", "ruling": "198910", "deductibility": "1", "assets": 7995965, "income": 4561436, "revenue": 4561436}, {"ein": "161596628", "name": "HISTORIC PALACE INC", "city": "LOCKPORT", "state": "NY", "zip": "14094-3708", "ntee": "A65", "ruling": "200001", "deductibility": "1", "assets": 3365654, "income": 973933, "revenue": 903639}, {"ein": "161600471", "name": "CRACKER BOX PALACE", "city": "NORTH ROSE", "state": "NY", "zip": "14516-9543", "ntee": "D20", "ruling": "200107", "deductibility": "1", "assets": 1037436, "income": 456032, "revenue": 423522}, {"ein": "204929457", "name": "PALACE OF JOY C&S CHURCH INC", "city": "BROOKLYN", "state": "NY", "zip": "11213-3096", "ntee": "X21", "ruling": "200809", "deductibility": "1", "assets": 0, "income": 0, "revenue": 0}, {"ein": "205762886", "name": "ARTS AT THE PALACE INC", "city": "HAMILTON", "state": "NY", "zip": "13346-0177", "ntee": "A40", "ruling": "200708", "deductibility": "1", "assets": 69379, "income": 127955, "revenue": 127955}, {"ein": "311734376", "name": "PALACE RENAISSANCE HOUSING DEVELOPMENT FUND CORPORATION", "city": "NEW YORK", "state": "NY", "zip": "10001-7243", "ntee": "L41", "ruling": "202301", "deductibility": "1", "assets": 0, "income": 0, "revenue": 0}, {"ein": "473821507", "name": "FALLS CAT PALACE AND RESCUE", "city": "ST REGIS FALLS", "state": "NY", "zip": "12980-0000", "ntee": "D20", "ruling": "202004", "deductibility": "1", "assets": 0, "income": 0, "revenue": 0}, {"ein": "611623145", "name": "INNER COURT SANCTUARY PRAISE PALACE", "city": "BRONX", "state": "NY", "zip": "10469-6028", "ntee": "X21", "ruling": "201307", "deductibility": "1", "assets": 0, "income": 0, "revenue": 0}, {"ein": "851603288", "name": "JOSEPH PRISON TO PALACE PROGRAM INC", "city": "BROOKLYN", "state": "NY", "zip": "11203-5110", "ntee": "P20", "ruling": "202311", "deductibility": "1", "assets": 0, "income": 0, "revenue": 0}, {"ein": "870814080", "name": "PRAYER PALACE MINISTRY INC", "city": "BROOKLYN", "state": "NY", "zip": "11205-3207", "ntee": "X21", "ruling": "201008", "deductibility": "1", "assets": 0, "income": 0, "revenue": 0}, {"ein": "900884007", "name": "UNITED PALACE OF CULTURAL ARTS INC", "city": "NEW YORK", "state": "NY", "zip": "10033-3701", "ntee": "A99", "ruling": "201301", "deductibility": "1", "assets": 0, "income": 0, "revenue": 0}, {"ein": "921790740", "name": "UNITED PALACE FOR ARTS AND CULTURE INC", "city": "NEW YORK", "state": "NY", "zip": "10033-3701", "ntee": "A20", "ruling": "202405", "deductibility": "1", "assets": 0, "income": 0, "revenue": 0}, {"ein": "943441014", "name": "REDEEMED CHRISTIAN CHURCH OF GOD RESTORATION PALACE", "city": "BRONX", "state": "NY", "zip": "10458-0568", "ntee": "X20", "ruling": "200902", "deductibility": "1", "assets": 0, "income": 0, "revenue": 0}], "BONAPARTE": [{"ein": "050527183", "name": "LAKE BONAPARTE CONSERVATION CLUB", "city": "HARRISVILLE", "state": "NY", "zip": "13648-0273", "ntee": "C30", "ruling": "200311", "deductibility": "1", "assets": 94676, "income": 26677, "revenue": 18219}], "HARMONY": [{"ein": "050606695", "name": "HARMONY PROGRAM", "city": "NEW YORK", "state": "NY", "zip": "10019-5597", "ntee": "A68", "ruling": "200411", "deductibility": "1", "assets": 4231055, "income": 4524860, "revenue": 4445672}, {"ein": "112542011", "name": "HARMONY HEIGHTS SCHOOL", "city": "EAST NORWICH", "state": "NY", "zip": "11732-1416", "ntee": "B28Z", "ruling": "198207", "deductibility": "1", "assets": 6845923, "income": 2841913, "revenue": 2841913}, {"ein": "113043670", "name": "HARMONY LODGE 241 F & AM", "city": "COLLEGE POINT", "state": "NY", "zip": "11356-0000", "ntee": "W30", "ruling": "201708", "deductibility": "1", "assets": 0, "income": 0, "revenue": 0}, {"ein": "133666190", "name": "PROJECT HARMONY INC", "city": "MANHATTAN", "state": "NY", "zip": "10027-5408", "ntee": "S20", "ruling": "199212", "deductibility": "1", "assets": 0, "income": 0, "revenue": 0}, {"ein": "133993276", "name": "HARMONY OF SHINING WOMEN FOUNDATION INC", "city": "NEW YORK", "state": "NY", "zip": "10016-0133", "ntee": "P50", "ruling": "200002", "deductibility": "1", "assets": 187917, "income": 7070, "revenue": 7070}, {"ein": "134172967", "name": "HARMONY FOUNDATION INC", "city": "RYE", "state": "NY", "zip": "10580-2048", "ntee": "A68", "ruling": "200307", "deductibility": "1", "assets": 19777, "income": 12880, "revenue": 12880}, {"ein": "141600932", "name": "HARMONY BAPTIST CHURCH INC", "city": "MIDDLETOWN", "state": "NY", "zip": "10941-0000", "ntee": "", "ruling": "196502", "deductibility": "0", "assets": 0, "income": 0, "revenue": 0}, {"ein": "161078081", "name": "HARMONY HISTORICAL SOCIETY", "city": "ASHVILLE", "state": "NY", "zip": "14710-0127", "ntee": "", "ruling": "197302", "deductibility": "1", "assets": 0, "income": 0, "revenue": 0}, {"ein": "161329935", "name": "HARMONY INC", "city": "TONAWANDA", "state": "NY", "zip": "14150-8837", "ntee": "A6B", "ruling": "201408", "deductibility": "1", "assets": 0, "income": 0, "revenue": 0}, {"ein": "161460228", "name": "HARMONY INC", "city": "HORSEHEADS", "state": "NY", "zip": "14845-0294", "ntee": "A6B", "ruling": "201408", "deductibility": "1", "assets": 0, "income": 0, "revenue": 0}, {"ein": "161524907", "name": "HARMONY INC", "city": "ROCHESTER", "state": "NY", "zip": "14612-4052", "ntee": "A6B", "ruling": "201408", "deductibility": "1", "assets": 0, "income": 0, "revenue": 0}, {"ein": "161544871", "name": "HARMONY CORNERS VOLUNTEER FIRE DEPA RTMENT INC", "city": "BALLSTON SPA", "state": "NY", "zip": "12020-3113", "ntee": "M24", "ruling": "201409", "deductibility": "1", "assets": 0, "income": 0, "revenue": 0}, {"ein": "201134350", "name": "HARMONY SERVICES INC", "city": "BROOKLYN", "state": "NY", "zip": "11218-3610", "ntee": "E50", "ruling": "200709", "deductibility": "1", "assets": 11235874, "income": 8332106, "revenue": 8332106}, {"ein": "202927943", "name": "HARMONY IN THE JEWISH HOME INC", "city": "BROOKLYN", "state": "NY", "zip": "11223-2039", "ntee": "P40", "ruling": "200602", "deductibility": "1", "assets": 1706, "income": 54425, "revenue": 54425}, {"ein": "222490739", "name": "NORTH HARMONY SENIOR CITIZENS ASSOCIATION INC", "city": "STOW", "state": "NY", "zip": "14785-0114", "ntee": "P81", "ruling": "201102", "deductibility": "1", "assets": 0, "income": 0, "revenue": 0}, {"ein": "222571372", "name": "HARMONY INC", "city": "ITHACA", "state": "NY", "zip": "14850-5532", "ntee": "A6B", "ruling": "201408", "deductibility": "1", "assets": 0, "income": 0, "revenue": 0}, {"ein": "223841411", "name": "MUSICIANS FOR WORLD HARMONY INC", "city": "ITHACA", "state": "NY", "zip": "14851-6758", "ntee": "A68", "ruling": "200211", "deductibility": "1", "assets": 11470, "income": 3757, "revenue": 3757}, {"ein": "237338682", "name": "HARMONY HEIGHTS INC", "city": "EAST NORWICH", "state": "NY", "zip": "11732-1416", "ntee": "P700", "ruling": "197405", "deductibility": "1", "assets": 3141315, "income": 43786, "revenue": 43786}, {"ein": "251446490", "name": "HARMONY CHURCH OF CHRIST", "city": "LIMESTONE", "state": "NY", "zip": "14753-0000", "ntee": "", "ruling": "198412", "deductibility": "1", "assets": 0, "income": 0, "revenue": 0}, {"ein": "262506162", "name": "HARMONY LABS INC", "city": "NEW YORK", "state": "NY", "zip": "10036-7329", "ntee": "A31", "ruling": "200902", "deductibility": "1", "assets": 828877, "income": 3396262, "revenue": 3396262}, {"ein": "262602278", "name": "DOMESTIC HARMONY FOUNDATION", "city": "HICKSVILLE", "state": "NY", "zip": "11802-0102", "ntee": "P43", "ruling": "200903", "deductibility": "1", "assets": 317895, "income": 99769, "revenue": 99769}, {"ein": "264837545", "name": "HARMONY INC", "city": "WATERTOWN", "state": "NY", "zip": "13601-4310", "ntee": "A6B", "ruling": "201408", "deductibility": "1", "assets": 0, "income": 0, "revenue": 0}, {"ein": "270216316", "name": "HARMONY HEALTH CARE LONG ISLAND", "city": "GARDEN CITY", "state": "NY", "zip": "11530-6554", "ntee": "E30", "ruling": "200909", "deductibility": "1", "assets": 68763949, "income": 60772172, "revenue": 60472656}, {"ein": "300965285", "name": "HARMONY CLUB OF BINGHAMTON", "city": "BINGHAMTON", "state": "NY", "zip": "13903-1715", "ntee": "A68", "ruling": "201904", "deductibility": "1", "assets": 0, "income": 0, "revenue": 0}, {"ein": "311699151", "name": "HARMONY MISSIONARY BAPTIST CHURCH", "city": "CORONA", "state": "NY", "zip": "11368-3011", "ntee": "X21", "ruling": "200005", "deductibility": "1", "assets": 0, "income": 0, "revenue": 0}, {"ein": "331517302", "name": "HUDSON VALLEY VOICES IN HARMONY INC", "city": "ABANY", "state": "NY", "zip": "12207-2922", "ntee": "A6B", "ruling": "202410", "deductibility": "1", "assets": 0, "income": 0, "revenue": 0}, {"ein": "332227338", "name": "HELPING HANDS OF HARMONY INC", "city": "HIGHLAND", "state": "NY", "zip": "12528-2932", "ntee": "T22", "ruling": "202501", "deductibility": "1", "assets": 0, "income": 0, "revenue": 0}, {"ein": "334544957", "name": "SHIFT SOCIAL HARMONY INITIATIVE FOR TRANSFORMATION INC", "city": "NEW YORK", "state": "NY", "zip": "10040-3236", "ntee": "P60", "ruling": "202506", "deductibility": "1", "assets": 0, "income": 0, "revenue": 0}, {"ein": "412224607", "name": "FRIENDS OF HARMONY HALL-JACOB SLOAT HOUSE", "city": "SLOATSBURG", "state": "NY", "zip": "10974-0293", "ntee": "A80", "ruling": "200807", "deductibility": "1", "assets": 0, "income": 0, "revenue": 0}, {"ein": "452637991", "name": "FAMILY HARMONY INC", "city": "NEW YORK", "state": "NY", "zip": "10038-1044", "ntee": "P40", "ruling": "201207", "deductibility": "1", "assets": 0, "income": 0, "revenue": 0}, {"ein": "465045842", "name": "HARMONY CAFE", "city": "PATCHOGUE", "state": "NY", "zip": "11772-0887", "ntee": "K30", "ruling": "201502", "deductibility": "1", "assets": 0, "income": 0, "revenue": 0}, {"ein": "472962656", "name": "HOPE AND HARMONY PERFORMING ARTS CENTER", "city": "AUBURN", "state": "NY", "zip": "13021-9417", "ntee": "A60", "ruling": "201510", "deductibility": "1", "assets": 0, "income": 0, "revenue": 0}, {"ein": "475399747", "name": "HARMONY OF PRAISE CHRISTIAN MINISTRIES", "city": "NEW ROCHELLE", "state": "NY", "zip": "10801-5711", "ntee": "P20", "ruling": "201705", "deductibility": "1", "assets": 0, "income": 0, "revenue": 0}, {"ein": "510669752", "name": "HARMONY FELLOWSHIP", "city": "SCHENECTADY", "state": "NY", "zip": "12307-1434", "ntee": "X21", "ruling": "201107", "deductibility": "1", "assets": 0, "income": 0, "revenue": 0}, {"ein": "800377505", "name": "GREATER HARMONY MISSIONARY BAPTIST CHURCH", "city": "ROCHESTER", "state": "NY", "zip": "14609-6238", "ntee": "X21", "ruling": "200908", "deductibility": "1", "assets": 0, "income": 0, "revenue": 0}, {"ein": "821930685", "name": "HARMONY PROJECT HUDSON INC", "city": "RHINECLIFF", "state": "NY", "zip": "12574-0000", "ntee": "A25", "ruling": "201710", "deductibility": "1", "assets": 337182, "income": 235333, "revenue": 235333}, {"ein": "822830803", "name": "HARMONY HOMESTEAD & WHOLENESS CENTER", "city": "HILLSDALE", "state": "NY", "zip": "12529-6236", "ntee": "A23", "ruling": "201710", "deductibility": "1", "assets": 0, "income": 0, "revenue": 0}, {"ein": "823963829", "name": "BROADLEA HARMONY FARMS INC", "city": "BLAUVELT", "state": "NY", "zip": "10913-2000", "ntee": "S80", "ruling": "201808", "deductibility": "1", "assets": 0, "income": 0, "revenue": 0}, {"ein": "841788483", "name": "NY HARMONY CHURCH", "city": "WHITESTONE", "state": "NY", "zip": "11357-1825", "ntee": "", "ruling": "201912", "deductibility": "1", "assets": 0, "income": 0, "revenue": 0}, {"ein": "843699233", "name": "PEACE & HARMONY FOUNDATION INC", "city": "POUGHKEEPSIE", "state": "NY", "zip": "12603-6056", "ntee": "T30", "ruling": "201912", "deductibility": "1", "assets": 0, "income": 0, "revenue": 0}, {"ein": "853499597", "name": "JOURNEY TO HARMONY INC", "city": "ALBANY", "state": "NY", "zip": "12207-1715", "ntee": "A68", "ruling": "202402", "deductibility": "1", "assets": 0, "income": 0, "revenue": 0}, {"ein": "853863623", "name": "HARMONY FOOD PANTRY INC", "city": "WATERLOO", "state": "NY", "zip": "13165-0248", "ntee": "K31", "ruling": "202104", "deductibility": "1", "assets": 0, "income": 0, "revenue": 0}, {"ein": "863484316", "name": "HARMONY OF MUSIC AND ART SCHOOL INC", "city": "WHITE PLAINS", "state": "NY", "zip": "10607-1011", "ntee": "A68", "ruling": "202108", "deductibility": "1", "assets": 1603, "income": 11384, "revenue": 0}, {"ein": "922450447", "name": "ALLIANCE FOR UNIVERSAL HARMONY INCORPORATED", "city": "CROTON ON HUDSON", "state": "NY", "zip": "10520-3128", "ntee": "A82", "ruling": "202312", "deductibility": "1", "assets": 0, "income": 0, "revenue": 0}, {"ein": "932460195", "name": "HARMONY 4ALL INC", "city": "S RICHMOND HL", "state": "NY", "zip": "11419-2610", "ntee": "A68", "ruling": "202308", "deductibility": "1", "assets": 53, "income": 11812, "revenue": 11812}, {"ein": "932478213", "name": "HARMONY HAVEN CORP", "city": "BROOKLYN", "state": "NY", "zip": "11215-6247", "ntee": "P99", "ruling": "202309", "deductibility": "1", "assets": 0, "income": 0, "revenue": 0}, {"ein": "933652775", "name": "HARMONY SMILES CORPORATION", "city": "JERICHO", "state": "NY", "zip": "11753-1327", "ntee": "T12", "ruling": "202402", "deductibility": "1", "assets": 0, "income": 0, "revenue": 0}, {"ein": "933661404", "name": "GEORGIA NATION HARMONY CORP", "city": "NEW YORK", "state": "NY", "zip": "10003-2142", "ntee": "Q21", "ruling": "202310", "deductibility": "1", "assets": 1, "income": 0, "revenue": 0}, {"ein": "934667555", "name": "HEARTS IN HARMONY FOUNDATION", "city": "NEW YORK", "state": "NY", "zip": "10005-0000", "ntee": "H43", "ruling": "202401", "deductibility": "1", "assets": 0, "income": 0, "revenue": 0}, {"ein": "990828879", "name": "SPECIAL HARMONY INC", "city": "VALLEY STREAM", "state": "NY", "zip": "11581-3541", "ntee": "B03", "ruling": "202404", "deductibility": "1", "assets": 0, "income": 0, "revenue": 0}, {"ein": "994234417", "name": "HARMONY BRIDGE FOUNDATION INC", "city": "AMITYVILLE", "state": "NY", "zip": "11701-1006", "ntee": "T50", "ruling": "202408", "deductibility": "1", "assets": 0, "income": 0, "revenue": 0}], "FOUN": [{"ein": "056125430", "name": "STEINOUR FAM AGREE ESTABLISH FOUN TR", "city": "ALBANY", "state": "NY", "zip": "12212-5201", "ntee": "T22", "ruling": "200203", "deductibility": "1", "assets": 2727129, "income": 1088547, "revenue": 0}, {"ein": "465136625", "name": "ROBBY WILSON SMS CLASS OF 1984 MEMORIAL SCHOLARSHIP FOUN INC", "city": "PEARL RIVER", "state": "NY", "zip": "10965-1401", "ntee": "B82", "ruling": "201601", "deductibility": "1", "assets": 0, "income": 0, "revenue": 0}], "WOODS": [{"ein": "061512701", "name": "MARIAN WOODS INC", "city": "HARTSDALE", "state": "NY", "zip": "10530-2205", "ntee": "", "ruling": "194603", "deductibility": "1", "assets": 0, "income": 0, "revenue": 0}, {"ein": "111554072", "name": "EAST WOODS SCHOOL INC", "city": "OYSTER BAY", "state": "NY", "zip": "11771-4199", "ntee": "B200", "ruling": "194609", "deductibility": "1", "assets": 16545527, "income": 9237956, "revenue": 8817749}, {"ein": "112493644", "name": "CANTON WOODS SENIOR CENTER INC", "city": "BALDWINSVILLE", "state": "NY", "zip": "13027-9759", "ntee": "", "ruling": "197906", "deductibility": "1", "assets": 199177, "income": 21136, "revenue": 13551}, {"ein": "113120846", "name": "ALBERTA WOODS HOUSING DEVELOPMENT FUND CORPORATION", "city": "BROOKLYN", "state": "NY", "zip": "11233-1773", "ntee": "L20Z", "ruling": "199609", "deductibility": "1", "assets": 563201, "income": 407337, "revenue": 407337}, {"ein": "113417827", "name": "POINT O WOODS COMMUNITY FUND INC", "city": "POINT O WOODS", "state": "NY", "zip": "11706-0000", "ntee": "T30", "ruling": "199805", "deductibility": "1", "assets": 0, "income": 0, "revenue": 0}, {"ein": "133314966", "name": "WARD W WOODS FOUNDATION", "city": "NEW YORK", "state": "NY", "zip": "10020-1401", "ntee": "", "ruling": "198705", "deductibility": "1", "assets": 17230, "income": 411644, "revenue": 0}, {"ein": "133784643", "name": "REINVENTING BRETTON WOODS FOUNDATION", "city": "NEW YORK", "state": "NY", "zip": "10016-3166", "ntee": "Q050", "ruling": "199906", "deductibility": "1", "assets": 189511, "income": 325564, "revenue": 322194}, {"ein": "133929814", "name": "WILD WOODS FOUNDATION", "city": "PEARL RIVER", "state": "NY", "zip": "10965-0930", "ntee": "T20Z", "ruling": "199706", "deductibility": "1", "assets": 1751898, "income": 133066, "revenue": 0}, {"ein": "140934615", "name": "NORTH WOODS CLUB INC", "city": "ALBANY", "state": "NY", "zip": "12207-0000", "ntee": "", "ruling": "195204", "deductibility": "2", "assets": 2262592, "income": 927611, "revenue": 496697}, {"ein": "141586960", "name": "HIGH WOODS SPORTSMENS CLUB INC", "city": "SAUGERTIES", "state": "NY", "zip": "12477-0093", "ntee": "N99", "ruling": "200205", "deductibility": "2", "assets": 0, "income": 0, "revenue": 0}, {"ein": "141601428", "name": "FRIENDS OF COLES WOODS INC", "city": "GLENS FALLS", "state": "NY", "zip": "12801-0294", "ntee": "C36", "ruling": "201408", "deductibility": "1", "assets": 0, "income": 0, "revenue": 0}, {"ein": "141747071", "name": "FOREVER WILD WATER & WOODS INC", "city": "MONGAUP VLY", "state": "NY", "zip": "12762-0542", "ntee": "", "ruling": "199301", "deductibility": "2", "assets": 0, "income": 0, "revenue": 0}, {"ein": "141752888", "name": "DOUBLE H - HOLE IN THE WOODS RANCH INC", "city": "LAKE LUZERNE", "state": "NY", "zip": "12846-3318", "ntee": "N20Z", "ruling": "199307", "deductibility": "1", "assets": 34682615, "income": 24942161, "revenue": 6225889}, {"ein": "146022430", "name": "HIGH WOODS REFORMED CHURCH", "city": "SAUGERTIES", "state": "NY", "zip": "12477-3233", "ntee": "", "ruling": "196801", "deductibility": "1", "assets": 0, "income": 0, "revenue": 0}, {"ein": "160924994", "name": "FRENCH WOODS CEMETERY ASSOCIATION INC", "city": "HANCOCK", "state": "NY", "zip": "13783-1258", "ntee": "Y50", "ruling": "201506", "deductibility": "1", "assets": 0, "income": 0, "revenue": 0}, {"ein": "160973044", "name": "BALTIMORE WOODS NATURE CENTER INC", "city": "MARCELLUS", "state": "NY", "zip": "13108-0133", "ntee": "C600", "ruling": "196612", "deductibility": "1", "assets": 2197433, "income": 924061, "revenue": 813352}, {"ein": "161017062", "name": "CHAPEL WOODS POOL & TENNIS CLUB INC", "city": "WILLIAMSVILLE", "state": "NY", "zip": "14221-0000", "ntee": "", "ruling": "197505", "deductibility": "2", "assets": 0, "income": 0, "revenue": 0}, {"ein": "161514478", "name": "MESSINGER WOODS WILDLIFE CARE AND EDUCATION CENTER INC", "city": "ORCHARD PARK", "state": "NY", "zip": "14127-0508", "ntee": "D340", "ruling": "199703", "deductibility": "1", "assets": 562781, "income": 74514, "revenue": 74514}, {"ein": "161520431", "name": "WOODS VALLEY ALPINE SKI RACING FOUNDATION INC", "city": "ROME", "state": "NY", "zip": "13442-4703", "ntee": "O20", "ruling": "199809", "deductibility": "1", "assets": 0, "income": 0, "revenue": 0}, {"ein": "161551639", "name": "BRENTLAND WOODS INC", "city": "ROCHESTER", "state": "NY", "zip": "14620-2251", "ntee": "", "ruling": "194603", "deductibility": "1", "assets": 2761343, "income": 381049, "revenue": 381049}, {"ein": "166052193", "name": "WEST WOODS FISH & GAME CLUB INC", "city": "CALEDONIA", "state": "NY", "zip": "14423-9745", "ntee": "N50", "ruling": "201403", "deductibility": "2", "assets": 0, "income": 0, "revenue": 0}, {"ein": "166523007", "name": "JB REINSTEIN TR UW ITEM XVIII FBO NYS-REINSTEIN WOODS", "city": "BUFFALO", "state": "NY", "zip": "14203-2725", "ntee": "", "ruling": "000000", "deductibility": "0", "assets": 509098, "income": 136910, "revenue": 0}, {"ein": "200471126", "name": "CHURCH IN THE WOODS INC", "city": "DANSVILLE", "state": "NY", "zip": "14437-9267", "ntee": "X21", "ruling": "200404", "deductibility": "1", "assets": 0, "income": 0, "revenue": 0}, {"ein": "201321676", "name": "HANCOCK-FRENCH WOODS ARTS ALLIANCE INC", "city": "HANCOCK", "state": "NY", "zip": "13783-0609", "ntee": "A20", "ruling": "200503", "deductibility": "1", "assets": 285792, "income": 152422, "revenue": 121931}, {"ein": "204598579", "name": "FRIENDS OF BETHEL WOODS CENTER FOR THE ARTS INC", "city": "LIBERTY", "state": "NY", "zip": "12754-0311", "ntee": "A126", "ruling": "200711", "deductibility": "1", "assets": 0, "income": 0, "revenue": 0}, {"ein": "262778926", "name": "MUSEUM AT BETHEL WOODS", "city": "LIBERTY", "state": "NY", "zip": "12754-0222", "ntee": "A50", "ruling": "200912", "deductibility": "1", "assets": 587997, "income": 1209622, "revenue": 1209622}, {"ein": "264555544", "name": "UNDER THE WOODS FOUNDATION INC", "city": "QUEENSBURY", "state": "NY", "zip": "12804-1408", "ntee": "P82", "ruling": "200906", "deductibility": "1", "assets": 18083, "income": 25692, "revenue": 25692}, {"ein": "274509890", "name": "THEATER IN THE WOODS FILM CONSERVATORY INC", "city": "STATEN ISLAND", "state": "NY", "zip": "10304-1353", "ntee": "A40", "ruling": "201109", "deductibility": "1", "assets": 11095, "income": 0, "revenue": 0}, {"ein": "311793365", "name": "SYLVIA & HERBERT WOODS ENDOWMENT", "city": "NEW YORK", "state": "NY", "zip": "10017-0000", "ntee": "B82", "ruling": "200111", "deductibility": "1", "assets": 24689, "income": 223, "revenue": 223}, {"ein": "450621475", "name": "HOODS TO WOODS INC", "city": "BROOKLYN", "state": "NY", "zip": "11221-5500", "ntee": "O50", "ruling": "201911", "deductibility": "1", "assets": 270872, "income": 153809, "revenue": 145677}, {"ein": "454083198", "name": "BETHEL WOODS CENTER FOR THE ARTS INC", "city": "LIBERTY", "state": "NY", "zip": "12754-0222", "ntee": "A20", "ruling": "201211", "deductibility": "1", "assets": 28568267, "income": 24335316, "revenue": 24141375}, {"ein": "465442663", "name": "WINONA WOODS NEIGHBORHOOD ASSOCIATION INC", "city": "ROCHESTER", "state": "NY", "zip": "14617-2924", "ntee": "S22", "ruling": "201412", "deductibility": "1", "assets": 0, "income": 0, "revenue": 0}, {"ein": "471319440", "name": "WINDOW ON THE WOODS INC", "city": "MINERVA", "state": "NY", "zip": "12851-0923", "ntee": "C99", "ruling": "201410", "deductibility": "1", "assets": 0, "income": 0, "revenue": 0}, {"ein": "510161823", "name": "PROTECTORS OF PINE OAK WOODS INC", "city": "STATEN ISLAND", "state": "NY", "zip": "10314-0747", "ntee": "", "ruling": "197508", "deductibility": "1", "assets": 100169, "income": 17101, "revenue": 17101}, {"ein": "562422839", "name": "NORTH WOODS COMMUNITY CENTER OF OLD FORGE", "city": "OLD FORGE", "state": "NY", "zip": "13420-0847", "ntee": "P28", "ruling": "200402", "deductibility": "1", "assets": 0, "income": 0, "revenue": 0}, {"ein": "824560537", "name": "WOODS VALLEY SKI PATROL INC", "city": "AVA", "state": "NY", "zip": "13303-2233", "ntee": "M23", "ruling": "201803", "deductibility": "1", "assets": 0, "income": 0, "revenue": 0}, {"ein": "842425708", "name": "K WOODS FOUNDATION INC", "city": "STATEN ISLAND", "state": "NY", "zip": "10304-1647", "ntee": "O51", "ruling": "202203", "deductibility": "1", "assets": 6000, "income": 106000, "revenue": 106000}, {"ein": "843518624", "name": "POINT O WOODS FOUNDATION INC", "city": "POINT OWOODS", "state": "NY", "zip": "11706-0000", "ntee": "T50", "ruling": "202004", "deductibility": "1", "assets": 152995, "income": 1052838, "revenue": 1052838}, {"ein": "862882860", "name": "WHISPERING WOODS WILDLIFE RESCUE AND REHABILITATION INC", "city": "OSWEGO", "state": "NY", "zip": "13126-0000", "ntee": "D30", "ruling": "202107", "deductibility": "1", "assets": 0, "income": 0, "revenue": 0}, {"ein": "871676217", "name": "CONGREGATION OF EDEN WOODS INC", "city": "BROOKLYN", "state": "NY", "zip": "11219-5028", "ntee": "X30", "ruling": "202201", "deductibility": "1", "assets": 0, "income": 0, "revenue": 0}, {"ein": "882568316", "name": "BAIS TEFILAH OF MOUNTAIN WOODS", "city": "BROOKLYN", "state": "NY", "zip": "11206-5767", "ntee": "X30", "ruling": "202301", "deductibility": "1", "assets": 0, "income": 0, "revenue": 0}, {"ein": "884371935", "name": "WILD WOODS RESTORATION PROJECT INC", "city": "SALISBURY MLS", "state": "NY", "zip": "12577-0114", "ntee": "C99", "ruling": "202301", "deductibility": "1", "assets": 0, "income": 0, "revenue": 0}], "FORK": [{"ein": "111665079", "name": "NORTH FORK COUNTRY CLUB", "city": "CUTCHOGUE", "state": "NY", "zip": "11935-0725", "ntee": "", "ruling": "192705", "deductibility": "2", "assets": 11672677, "income": 14055354, "revenue": 7759926}, {"ein": "111960057", "name": "SOUTH FORK COUNTRY CLUB INC", "city": "AMAGANSETT", "state": "NY", "zip": "11930-0708", "ntee": "", "ruling": "196111", "deductibility": "2", "assets": 27638992, "income": 11296937, "revenue": 10602427}, {"ein": "112102223", "name": "NORTH FORK COMMUNITY THEATRE INC", "city": "MATTITUCK", "state": "NY", "zip": "11952-0086", "ntee": "A650", "ruling": "199207", "deductibility": "1", "assets": 1468580, "income": 241962, "revenue": 238962}, {"ein": "112462597", "name": "NORTH FORK CHORALE INC", "city": "CUTCHOGUE", "state": "NY", "zip": "11935-0402", "ntee": "", "ruling": "197810", "deductibility": "1", "assets": 0, "income": 0, "revenue": 0}, {"ein": "112627786", "name": "NORTH FORK HOUSING ALLIANCE INC", "city": "GREENPORT", "state": "NY", "zip": "11944-1619", "ntee": "L21Z", "ruling": "198312", "deductibility": "1", "assets": 3528238, "income": 2615748, "revenue": 2615748}, {"ein": "112629979", "name": "NORTH FORK CHURCH OF CHRIST INC", "city": "MATTITUCK", "state": "NY", "zip": "11952-3234", "ntee": "", "ruling": "198809", "deductibility": "1", "assets": 0, "income": 0, "revenue": 0}, {"ein": "112669173", "name": "NORTH FORK CHAMBER OF COMMERCE", "city": "SOUTHOLD", "state": "NY", "zip": "11971-0938", "ntee": "", "ruling": "198804", "deductibility": "2", "assets": 39768, "income": 43464, "revenue": 43464}, {"ein": "112893610", "name": "NORTH FORK PROMOTION COUNCIL INC", "city": "SOUTHOLD", "state": "NY", "zip": "11971-0944", "ntee": "S41", "ruling": "201106", "deductibility": "2", "assets": 0, "income": 0, "revenue": 0}, {"ein": "112972582", "name": "SOUTH FORK NATURAL HISTORY SOCIETY", "city": "BRIDGEHAMPTON", "state": "NY", "zip": "11932-0455", "ntee": "C60Z", "ruling": "199405", "deductibility": "1", "assets": 2193135, "income": 1802953, "revenue": 1334462}, {"ein": "113116020", "name": "NORTH FORK WOMEN FOR WOMEN FUND", "city": "GREENPORT", "state": "NY", "zip": "11944-0924", "ntee": "T00I", "ruling": "199304", "deductibility": "1", "assets": 507313, "income": 194677, "revenue": 125600}, {"ein": "113128661", "name": "NORTH FORK REFORM SYNAGOUGUE", "city": "SOUTHOLD", "state": "NY", "zip": "11971-0941", "ntee": "X30", "ruling": "201607", "deductibility": "1", "assets": 0, "income": 0, "revenue": 0}, {"ein": "113251383", "name": "SOUTH FORK CRAFTSMENS GUILD", "city": "WATER MILL", "state": "NY", "zip": "11976-2325", "ntee": "", "ruling": "199608", "deductibility": "2", "assets": 0, "income": 0, "revenue": 0}, {"ein": "113280249", "name": "NORTH FORK PARISH OUTREACH INC", "city": "GREENPORT", "state": "NY", "zip": "11944-0584", "ntee": "", "ruling": "201709", "deductibility": "1", "assets": 527866, "income": 158937, "revenue": 158731}, {"ein": "113329452", "name": "NORTH FORK UNITARIAN UNIVERSALIST FELLOWSHIP", "city": "LAUREL", "state": "NY", "zip": "11948-1028", "ntee": "X90Z", "ruling": "199701", "deductibility": "1", "assets": 0, "income": 0, "revenue": 0}, {"ein": "113379806", "name": "HAMPTONS AND NORTH FORK REALTORS ASSOCIATION INC", "city": "PLATTSBURG", "state": "NY", "zip": "12901-3151", "ntee": "S47", "ruling": "200201", "deductibility": "2", "assets": 4985, "income": 51608, "revenue": 51608}, {"ein": "113443720", "name": "NORTH FORK BREAST HEALTH COALITION INC", "city": "RIVERHEAD", "state": "NY", "zip": "11901-2121", "ntee": "A99", "ruling": "199812", "deductibility": "1", "assets": 359161, "income": 318192, "revenue": 204572}, {"ein": "116024590", "name": "NORTH FORK ANIMAL WELFARE LEAGUE INC", "city": "PECONIC", "state": "NY", "zip": "11958-0000", "ntee": "D200", "ruling": "196406", "deductibility": "1", "assets": 5447645, "income": 2557827, "revenue": 1541130}, {"ein": "237250043", "name": "NORTH FORK AUDUBON SOCIETY", "city": "GREENPORT", "state": "NY", "zip": "11944-2236", "ntee": "", "ruling": "197403", "deductibility": "1", "assets": 134630, "income": 140148, "revenue": 124176}, {"ein": "237259429", "name": "CHORAL SOCIETY OF THE HAMPTONS & SOUTH FORK CHAMBER ORCHESTRA INC", "city": "BRIDGEHAMPTON", "state": "NY", "zip": "11932-1031", "ntee": "", "ruling": "197302", "deductibility": "1", "assets": 42967, "income": 111170, "revenue": 107987}, {"ein": "237295395", "name": "NORTH FORK ENVIRONMENTAL COUNCIL INC", "city": "MATTITUCK", "state": "NY", "zip": "11952-0799", "ntee": "C010", "ruling": "198812", "deductibility": "1", "assets": 130151, "income": 69420, "revenue": 63809}, {"ein": "237408436", "name": "SOUTH FORK LAND FOUNDATION INC", "city": "SAGAPONACK", "state": "NY", "zip": "11962-0384", "ntee": "C30J", "ruling": "197410", "deductibility": "1", "assets": 6975205, "income": 67118, "revenue": 67118}, {"ein": "261440960", "name": "COMMITTEE FOR A GREEN SOUTH FORK", "city": "WATER MILL", "state": "NY", "zip": "11976-0501", "ntee": "C30", "ruling": "200810", "deductibility": "1", "assets": 0, "income": 0, "revenue": 0}, {"ein": "264287659", "name": "FIELD & FORK NETWORK INC", "city": "BUFFALO", "state": "NY", "zip": "14214-2152", "ntee": "", "ruling": "201007", "deductibility": "1", "assets": 1940491, "income": 1479374, "revenue": 1479374}, {"ein": "461940249", "name": "NORTH FORK VOLUNTEER RESCUE SQUAD ASSOCIATION INC", "city": "SOUTHOLD", "state": "NY", "zip": "11971-0944", "ntee": "E62", "ruling": "201304", "deductibility": "1", "assets": 0, "income": 0, "revenue": 0}, {"ein": "462162886", "name": "NORTH FORK UNITED SOCCER CLUB", "city": "CUTCHOGUE", "state": "NY", "zip": "11935-0122", "ntee": "O50", "ruling": "201603", "deductibility": "1", "assets": 99119, "income": 281652, "revenue": 281652}, {"ein": "475095392", "name": "CHABAD OF NORTH FORK INC", "city": "MATTITUCK", "state": "NY", "zip": "11952-2505", "ntee": "X30", "ruling": "202201", "deductibility": "1", "assets": 0, "income": 0, "revenue": 0}, {"ein": "811651650", "name": "NORTH FORK COUNTRY KIDS RESCUE AND PRESERVATION THROUGH PEDAGOGY", "city": "RIVERHEAD", "state": "NY", "zip": "11901-5507", "ntee": "D20", "ruling": "201603", "deductibility": "1", "assets": 0, "income": 0, "revenue": 0}, {"ein": "821209421", "name": "NORTH FORK TV FESTIVAL INC", "city": "NEW YORK", "state": "NY", "zip": "10128-3622", "ntee": "A32", "ruling": "201709", "deductibility": "1", "assets": 183657, "income": 91642, "revenue": 91642}, {"ein": "822938378", "name": "SOUTH FORK UNITED INC", "city": "EAST QUOGUE", "state": "NY", "zip": "11942-1336", "ntee": "N01", "ruling": "201710", "deductibility": "1", "assets": 1709, "income": 105072, "revenue": 105072}, {"ein": "825525589", "name": "SOUTH FORK BAKERY FOR THE SPECIAL NEEDS CORP", "city": "SAG HARBOR", "state": "NY", "zip": "11963-1920", "ntee": "P82", "ruling": "201812", "deductibility": "1", "assets": 248534, "income": 624633, "revenue": 624633}, {"ein": "832180787", "name": "SOUTH FORK SEA FARMERS", "city": "EAST HAMPTON", "state": "NY", "zip": "11937-0995", "ntee": "D33", "ruling": "201812", "deductibility": "1", "assets": 86451, "income": 43339, "revenue": 43339}, {"ein": "833513018", "name": "SOUTH FORK PERFORMING ARTS INC", "city": "SOUTHAMPTON", "state": "NY", "zip": "11968-2273", "ntee": "A25", "ruling": "202002", "deductibility": "1", "assets": 4811, "income": 113742, "revenue": 113742}, {"ein": "870837501", "name": "NORTH FORK FRIENDS OF FERALS INC", "city": "WADING RIVER", "state": "NY", "zip": "11792-3002", "ntee": "D20", "ruling": "202109", "deductibility": "1", "assets": 165780, "income": 125514, "revenue": 125514}, {"ein": "922233043", "name": "NORTH FORK ARTS CENTER INC", "city": "GREENPORT", "state": "NY", "zip": "11944-1645", "ntee": "A20", "ruling": "202304", "deductibility": "1", "assets": 5733955, "income": 5357464, "revenue": 5357464}, {"ein": "922708446", "name": "NORTH FORK CONTEMPORARY INC", "city": "MATTITUCK", "state": "NY", "zip": "11952-0097", "ntee": "A20", "ruling": "202303", "deductibility": "1", "assets": 0, "income": 0, "revenue": 0}, {"ein": "994038545", "name": "FORK AND SPOON INC", "city": "GLEN HEAD", "state": "NY", "zip": "11545-2611", "ntee": "K31", "ruling": "202504", "deductibility": "1", "assets": 0, "income": 0, "revenue": 0}], "PLATO": [{"ein": "112475783", "name": "GREEK SCHOOL OF PLATO LTD", "city": "BROOKLYN", "state": "NY", "zip": "11228-3632", "ntee": "A70", "ruling": "200301", "deductibility": "1", "assets": 5515448, "income": 317847, "revenue": 317847}], "DENTCARE": [{"ein": "112480692", "name": "DENTCARE DELIVERY SYSTEMS INC", "city": "UNIONDALE", "state": "NY", "zip": "11553-3645", "ntee": "", "ruling": "197908", "deductibility": "2", "assets": 22868720, "income": 49531330, "revenue": 49131167}], "RN": [{"ein": "112501517", "name": "NATL SORORITY PHI DLTA KPPA BTA OMC RN CHPT BIG SISTER ED ACTN SRV CT", "city": "JAMAICA", "state": "NY", "zip": "11434-2236", "ntee": "B83Z", "ruling": "202312", "deductibility": "1", "assets": 0, "income": 29426, "revenue": 29426}, {"ein": "133946135", "name": "1199 SEIU LEAGUE HLTH CARE INDUSTRY RN TRAINING AND JOB SECURITY FUND", "city": "NEW YORK", "state": "NY", "zip": "10108-0840", "ntee": "Y43", "ruling": "200003", "deductibility": "2", "assets": 6410870, "income": 3283149, "revenue": 3283149}, {"ein": "256183567", "name": "BOERNER RN-FAHRNEY T A", "city": "BUFFALO", "state": "NY", "zip": "14240-1504", "ntee": "T20", "ruling": "200507", "deductibility": "1", "assets": 403859, "income": 126650, "revenue": 0}, {"ein": "333088213", "name": "MILAGROS RN ONLY FOR YOU RECREATION CENTER & CLUB INC", "city": "BRONX", "state": "NY", "zip": "10473-2720", "ntee": "P82", "ruling": "202502", "deductibility": "1", "assets": 0, "income": 0, "revenue": 0}, {"ein": "476584995", "name": "NYSNA-KINGSBROOK RN RETIREE HEALTH PLAN", "city": "BROOKLYN", "state": "NY", "zip": "11213-1122", "ntee": "Y43", "ruling": "201706", "deductibility": "2", "assets": 1469819, "income": 109427, "revenue": 109427}, {"ein": "582404527", "name": "LYMPHATIC EDUCATION & RESEARCH NETWORK INC LE&RN", "city": "NEW YORK", "state": "NY", "zip": "10011-7307", "ntee": "H90", "ruling": "199902", "deductibility": "1", "assets": 4009793, "income": 3061017, "revenue": 1755810}, {"ein": "821265913", "name": "CEK RN CONSULTING INC", "city": "ALBANY", "state": "NY", "zip": "12207-2107", "ntee": "E60", "ruling": "201907", "deductibility": "1", "assets": 164697, "income": 301059, "revenue": 301059}, {"ein": "871809892", "name": "RN HOCHSTEIN FOUNDATION INC", "city": "NEW YORK", "state": "NY", "zip": "10018-3471", "ntee": "T20", "ruling": "202203", "deductibility": "1", "assets": 222644, "income": 258394, "revenue": 0}], "BAAL": [{"ein": "112514107", "name": "RABBI MEIR BAAL HANEIS", "city": "BRROKLYN", "state": "NY", "zip": "11219-3846", "ntee": "", "ruling": "198004", "deductibility": "1", "assets": 0, "income": 0, "revenue": 0}, {"ein": "112742662", "name": "RABBI MEIR BAAL HANESS CHESED UTZDAKA", "city": "BROOKLYN", "state": "NY", "zip": "11219-2242", "ntee": "", "ruling": "198509", "deductibility": "1", "assets": 0, "income": 0, "revenue": 0}, {"ein": "113390838", "name": "RABBI MEIR BAAL HANESS CHARITY OF JERUSALEM INC", "city": "BROOKLYN", "state": "NY", "zip": "11219-0430", "ntee": "T30", "ruling": "199804", "deductibility": "1", "assets": 4075, "income": 88776, "revenue": 0}, {"ein": "113471447", "name": "REBBE MEIR BAAL HANES CHARITIES KOLLEL AHAVAS YISROEL VYERUSHALAIM", "city": "BROOKLYN", "state": "NY", "zip": "11219-7188", "ntee": "X30", "ruling": "199903", "deductibility": "1", "assets": 0, "income": 0, "revenue": 0}, {"ein": "113517729", "name": "REB MEIR BAAL HANES KOLEL MUNKASCH", "city": "BROOKLYN", "state": "NY", "zip": "11219-3242", "ntee": "X30", "ruling": "200001", "deductibility": "1", "assets": 0, "income": 0, "revenue": 0}, {"ein": "133915552", "name": "COMMUNITY KOLLEL-BAAL HA BATIM OF WILLOW BROOK INC", "city": "STATEN ISLAND", "state": "NY", "zip": "10314-5017", "ntee": "B80", "ruling": "199709", "deductibility": "1", "assets": 0, "income": 0, "revenue": 0}, {"ein": "134189230", "name": "BAAL VIKAS FOUNDATION", "city": "WHITE PLAINS", "state": "NY", "zip": "10605-4708", "ntee": "B90", "ruling": "200204", "deductibility": "1", "assets": 0, "income": 0, "revenue": 0}, {"ein": "161629988", "name": "CONGREGATION REB MEIR BAAL HANES", "city": "BROOKLYN", "state": "NY", "zip": "11219-2029", "ntee": "X30", "ruling": "200402", "deductibility": "1", "assets": 0, "income": 0, "revenue": 0}, {"ein": "237112329", "name": "BAIS YESOMIM KEDUSHAS MEIR AL SHEM MEIR BAAL HANESS", "city": "BROOKLYN", "state": "NY", "zip": "11204-1287", "ntee": "", "ruling": "197105", "deductibility": "1", "assets": 0, "income": 0, "revenue": 0}, {"ein": "261547802", "name": "RABBI MEIR BAAL HANESS SHAREI TZION INC", "city": "BROOKLYN", "state": "NY", "zip": "11210-4737", "ntee": "X30", "ruling": "200902", "deductibility": "1", "assets": 472773, "income": 56270, "revenue": 56270}, {"ein": "460929080", "name": "KUPAS MAOS ERETZ YISROEL MEIR BAAL HANES RIZHIN BOYAN INC", "city": "BROOKLYN", "state": "NY", "zip": "11219-4043", "ntee": "Q33", "ruling": "201402", "deductibility": "1", "assets": 4084, "income": 82440, "revenue": 82440}, {"ein": "834347722", "name": "REB MEIR BAAL HANESS INC", "city": "SPRING VALLEY", "state": "NY", "zip": "10977-4346", "ntee": "X30", "ruling": "201905", "deductibility": "1", "assets": 0, "income": 0, "revenue": 0}, {"ein": "841810680", "name": "CONGREGATION REB MEIR BAAL HANES KALISK VITEPSK", "city": "BROOKLYN", "state": "NY", "zip": "11211-8919", "ntee": "X30", "ruling": "201912", "deductibility": "1", "assets": 0, "income": 0, "revenue": 0}, {"ein": "912194776", "name": "KOLEL OIR HAMEIR & KUPATH MASKHIL EL DOL REB MEIR BAAL HANESS", "city": "BROOKLYN", "state": "NY", "zip": "11211-8726", "ntee": "X30", "ruling": "200311", "deductibility": "1", "assets": 0, "income": 0, "revenue": 0}], "SOCIETE": [{"ein": "112530569", "name": "LA SOCIETE DES 40 HOMMES ET 8 CHEVAUX VOITURE 713 SUFFOLK COUNTY", "city": "BAY SHORE", "state": "NY", "zip": "11706-8120", "ntee": "", "ruling": "193904", "deductibility": "2", "assets": 0, "income": 0, "revenue": 0}, {"ein": "113428157", "name": "SOCIETE DES FILS DE BAGUETTE INC", "city": "ROSEDALE", "state": "NY", "zip": "11422-0195", "ntee": "Q30", "ruling": "201509", "deductibility": "1", "assets": 0, "income": 0, "revenue": 0}, {"ein": "116080510", "name": "VOITURE NATIONALE LA SOCIETE DES 40 HOMMES ET 8 CHEVAUX", "city": "MALVERNE", "state": "NY", "zip": "11565-0000", "ntee": "", "ruling": "196701", "deductibility": "1", "assets": 0, "income": 0, "revenue": 0}, {"ein": "131325135", "name": "SOCIETE CULINAIRE PHILANTHROPIQUE", "city": "NEW YORK", "state": "NY", "zip": "10017-2323", "ntee": "", "ruling": "199712", "deductibility": "2", "assets": 33184930, "income": 4320595, "revenue": 1400742}, {"ein": "133150248", "name": "SOCIETE DES PROFESSEORS FRANCAIS EN AMERIQUE", "city": "NEW YORK", "state": "NY", "zip": "10036-8401", "ntee": "", "ruling": "199410", "deductibility": "1", "assets": 2963031, "income": 812670, "revenue": 0}, {"ein": "161104334", "name": "VOITURE NATIONALE LA SOCIETE DES 40 HOMMES ET 8 CHEVAUX", "city": "ROCHESTER", "state": "NY", "zip": "14607-4801", "ntee": "", "ruling": "194012", "deductibility": "1", "assets": 0, "income": 0, "revenue": 0}, {"ein": "161395511", "name": "VOITURE NATIONALE LA SOCIETE DES 40 HOMMES ET 8 CHEVAUX", "city": "ADAMS", "state": "NY", "zip": "13605-2168", "ntee": "W30", "ruling": "201202", "deductibility": "2", "assets": 0, "income": 0, "revenue": 0}, {"ein": "166072981", "name": "VOITURE NATIONALE LA SOCIETE DES 40 HOMMES ET 8 CHEVAUX", "city": "MATTYDALE", "state": "NY", "zip": "13211-1729", "ntee": "", "ruling": "196701", "deductibility": "1", "assets": 0, "income": 0, "revenue": 0}, {"ein": "454388004", "name": "VOITURE NATIONALE LA SOCIETE DES 40 HOMMES ET 8 CHEVAUX", "city": "FLY CREEK", "state": "NY", "zip": "13337-2107", "ntee": "W30", "ruling": "193904", "deductibility": "1", "assets": 0, "income": 0, "revenue": 0}, {"ein": "651240179", "name": "VOITURE NATIONALE LA SOCIETE DES 4O HOMMES ET 8 CHEVAUX", "city": "WEEDSPORT", "state": "NY", "zip": "13166-0767", "ntee": "", "ruling": "000000", "deductibility": "0", "assets": 0, "income": 0, "revenue": 0}, {"ein": "873522286", "name": "SOCIETE DES AMI DU CHAMPAGNE INC", "city": "EAST HAMPTON", "state": "NY", "zip": "11937-0705", "ntee": "N50", "ruling": "202206", "deductibility": "2", "assets": 65260, "income": 214559, "revenue": 214559}], "PASTORAL": [{"ein": "112540663", "name": "CROWN HEIGHTS PASTORAL COUNCIL INC", "city": "BKLYN", "state": "NY", "zip": "11213-4801", "ntee": "", "ruling": "198011", "deductibility": "1", "assets": 0, "income": 0, "revenue": 0}, {"ein": "112783560", "name": "PASTORAL COUNSELING CENTER OF FLUSHING", "city": "FLUSHING", "state": "NY", "zip": "11355-1206", "ntee": "", "ruling": "198712", "deductibility": "1", "assets": 93850, "income": 54473, "revenue": 54473}, {"ein": "112976709", "name": "LUTHERAN PASTORAL COUNSELING MINISTRY INC", "city": "MINEOLA", "state": "NY", "zip": "11501-2712", "ntee": "", "ruling": "199301", "deductibility": "1", "assets": 300059, "income": 557890, "revenue": 543248}, {"ein": "113031876", "name": "PASTORAL ANDLAITY MINISTRIES PALM", "city": "FRESH MEADOWS", "state": "NY", "zip": "11365-1316", "ntee": "", "ruling": "199404", "deductibility": "1", "assets": 60560, "income": 21960, "revenue": 21960}, {"ein": "133678935", "name": "NATIONAL PASTORAL CENTER FOR THE CHINESE APOSTOLATE", "city": "NEW YORK", "state": "NY", "zip": "10002-7307", "ntee": "", "ruling": "194603", "deductibility": "1", "assets": 0, "income": 0, "revenue": 0}, {"ein": "133883350", "name": "LATINO PASTORAL ACTION CENTER", "city": "BRONX", "state": "NY", "zip": "10452-3227", "ntee": "S20", "ruling": "199706", "deductibility": "1", "assets": 2582894, "income": 2178025, "revenue": 2178025}, {"ein": "134173753", "name": "PENTECOSTAL CHRISTIAN CHURCH VISION PASTORAL", "city": "BRONX", "state": "NY", "zip": "10469-5620", "ntee": "X20", "ruling": "200303", "deductibility": "1", "assets": 0, "income": 0, "revenue": 0}, {"ein": "160985052", "name": "ST JOSEPH PASTORAL CARE INC", "city": "UTICA", "state": "NY", "zip": "13501-6251", "ntee": "", "ruling": "202312", "deductibility": "1", "assets": 1705451, "income": 370485, "revenue": 123521}, {"ein": "161298256", "name": "PASTORAL COUNSELING SERVICE OF SWNY", "city": "JAMESTOWN", "state": "NY", "zip": "14701-1935", "ntee": "", "ruling": "198804", "deductibility": "1", "assets": 0, "income": 0, "revenue": 0}, {"ein": "166053250", "name": "SAMARITAN PASTORAL COUNSELING CENTER OF THE NIAGARA FRONTIER INC", "city": "N TONAWANDA", "state": "NY", "zip": "14120-3133", "ntee": "", "ruling": "196006", "deductibility": "1", "assets": 71226, "income": 57585, "revenue": 57585}, {"ein": "200885048", "name": "LONG ISLAND HISPANIC PASTORAL ASSOCIATION INC", "city": "EAST MEADOW", "state": "NY", "zip": "11554-4913", "ntee": "X21", "ruling": "200501", "deductibility": "1", "assets": 3015, "income": 2494, "revenue": 2494}, {"ein": "222502809", "name": "INSTITUTO PASTORAL HISPANO INC", "city": "NEW YORK", "state": "NY", "zip": "10011-4924", "ntee": "", "ruling": "198506", "deductibility": "1", "assets": 0, "income": 0, "revenue": 0}, {"ein": "333236882", "name": "PASTORAL DISCIPLESHIP CENTER INC", "city": "MERRICK", "state": "NY", "zip": "11566-2234", "ntee": "X99", "ruling": "202504", "deductibility": "1", "assets": 0, "income": 0, "revenue": 0}, {"ein": "454566997", "name": "CARREFOUR PASTORAL DE LA FRANCOPHONIE INC", "city": "NEW YORK", "state": "NY", "zip": "10025-1710", "ntee": "X20", "ruling": "201612", "deductibility": "1", "assets": 0, "income": 0, "revenue": 0}, {"ein": "454821173", "name": "PASTORAL CARE MISSION CENTER", "city": "EAST MEADOW", "state": "NY", "zip": "11554-2930", "ntee": "X20", "ruling": "201209", "deductibility": "1", "assets": 0, "income": 0, "revenue": 0}, {"ein": "611626111", "name": "GESTALT PASTORAL CARE ASSOCIATES INC", "city": "STATEN ISLAND", "state": "NY", "zip": "10314-0636", "ntee": "X20", "ruling": "201105", "deductibility": "1", "assets": 83819, "income": 62283, "revenue": 62283}, {"ein": "822801843", "name": "PASTORAL CARE MISSION COMMUNITY CHURCH INC", "city": "NEW HYDE PARK", "state": "NY", "zip": "11040-4855", "ntee": "X20", "ruling": "202006", "deductibility": "1", "assets": 0, "income": 0, "revenue": 0}, {"ein": "934620096", "name": "TORRES THEOLOGICAL TEACHING PASTORAL MINISTRIES INC", "city": "ST JOHNSVILLE", "state": "NY", "zip": "13452-1213", "ntee": "X20", "ruling": "202401", "deductibility": "1", "assets": 0, "income": 0, "revenue": 0}], "MISIONER": [{"ein": "112596270", "name": "FOUNDATION OF CHRIST THE REDEEMER & INSTITUTE ID-MISIONEROS Y MISIONER", "city": "FOREST HILLS", "state": "NY", "zip": "11375-6133", "ntee": "", "ruling": "198207", "deductibility": "1", "assets": 0, "income": 0, "revenue": 0}], "SCH": [{"ein": "112631530", "name": "SECTION VIII OF THE NEW YORK STATE PUBLIC HIGH SCH ATHLETIC ASSN INC", "city": "GARDEN CITY", "state": "NY", "zip": "11530-4742", "ntee": "N30", "ruling": "200201", "deductibility": "1", "assets": 1580174, "income": 2013785, "revenue": 1963427}, {"ein": "131641081", "name": "YESHIVA OHR TORAH COMM SCH", "city": "NEW YORK", "state": "NY", "zip": "10023-1602", "ntee": "", "ruling": "197212", "deductibility": "1", "assets": 0, "income": 0, "revenue": 0}, {"ein": "136258134", "name": "AMERICAN COUNCIL OF REL & VOCATNL SCH SYS OF BETH JACOB OF JER INC", "city": "BROOKLYN", "state": "NY", "zip": "11230-0369", "ntee": "B58I", "ruling": "196803", "deductibility": "1", "assets": 1587324, "income": 4218917, "revenue": 4218917}, {"ein": "141649382", "name": "THE CONSISTORY OF THE REFORMED PROTESTANT LOW DUTCH CHURCH OF SCH", "city": "SCHODACK LNDG", "state": "NY", "zip": "12156-2008", "ntee": "", "ruling": "196801", "deductibility": "1", "assets": 0, "income": 0, "revenue": 0}, {"ein": "161488251", "name": "STEVEN GERENCSER SCH P CALASANCTIUS FUND", "city": "WILLIAMSVILLE", "state": "NY", "zip": "14221-8824", "ntee": "Q22I", "ruling": "199611", "deductibility": "1", "assets": 928207, "income": 72337, "revenue": 0}, {"ein": "166054165", "name": "ERMA P & EARL E SCHOPFER SCHOL FUND ERIVA P & EARL E SCHOPFER SCH FUND", "city": "SYRACUSE", "state": "NY", "zip": "13206-3468", "ntee": "", "ruling": "196411", "deductibility": "1", "assets": 0, "income": 0, "revenue": 0}, {"ein": "223143622", "name": "EMPLOYEES HEALTH REIMBURSEMENT FUND OF THE CANANDAIGUA CITY SCH DIST", "city": "CANANDAIGUA", "state": "NY", "zip": "14424-1430", "ntee": "", "ruling": "199203", "deductibility": "2", "assets": 364828, "income": 50925, "revenue": 50925}, {"ein": "236684291", "name": "JONAS & LILLIAN WARRELL TRUST UA DTD 090779 FBO ST PATRICK SCH", "city": "BUFFALO", "state": "NY", "zip": "14240-1504", "ntee": "T20", "ruling": "200506", "deductibility": "1", "assets": 205738, "income": 59096, "revenue": 0}, {"ein": "237851151", "name": "EDWARD & ALICE MCLAUGHLIN SCH FD TR", "city": "AMHERST", "state": "NY", "zip": "14228-2307", "ntee": "B82Z", "ruling": "199704", "deductibility": "1", "assets": 111094, "income": 29672, "revenue": 0}, {"ein": "453670957", "name": "WILLIAM A SHINE GREAT NECK SOUTH HIGH SCH PARENT TEACHER ORG INC", "city": "GREAT NECK", "state": "NY", "zip": "11020-1639", "ntee": "B11", "ruling": "201301", "deductibility": "1", "assets": 18103, "income": 37494, "revenue": 37494}, {"ein": "453712372", "name": "RICHARD S SHERMAN GREAT NECK NORTH MIDDLE SCH PARENT TEACHER ORG INC", "city": "GREAT NECK", "state": "NY", "zip": "11023-1045", "ntee": "B94", "ruling": "201209", "deductibility": "1", "assets": 23920, "income": 17010, "revenue": 17010}, {"ein": "861828033", "name": "FRIENDS OF EARL MONROE NEW RENAISSANCE BASKETBALL CHARTER SCH", "city": "NEW YORK", "state": "NY", "zip": "10075-0248", "ntee": "P20", "ruling": "202109", "deductibility": "1", "assets": 11758323, "income": 16820538, "revenue": 1976619}, {"ein": "871978844", "name": "SCH SEPHARDIC CONGREGATION OF HEWLETT", "city": "HEWLETT", "state": "NY", "zip": "11557-1838", "ntee": "X30", "ruling": "202204", "deductibility": "1", "assets": 0, "income": 0, "revenue": 0}], "NAK": [{"ein": "112655880", "name": "YOUNG NAK PRESBYTERIAN CHURCH OF NEW YORK", "city": "E WILLISTON", "state": "NY", "zip": "11596-2015", "ntee": "X20", "ruling": "202007", "deductibility": "1", "assets": 0, "income": 0, "revenue": 0}], "REVIEW": [{"ein": "112662689", "name": "ISLAND PEER REVIEW ORGANIZATION INC", "city": "LAKE SUCCESS", "state": "NY", "zip": "11042-1076", "ntee": "W200", "ruling": "198408", "deductibility": "1", "assets": 101035416, "income": 105561912, "revenue": 105561912}, {"ein": "112925100", "name": "JEWISH REVIEW INC", "city": "NEW YORK", "state": "NY", "zip": "10023-6103", "ntee": "", "ruling": "199011", "deductibility": "1", "assets": 0, "income": 0, "revenue": 0}, {"ein": "131694606", "name": "NEW REVIEW INC", "city": "NEW YORK", "state": "NY", "zip": "10001-4482", "ntee": "", "ruling": "199003", "deductibility": "1", "assets": 12320, "income": 36663, "revenue": 36663}, {"ein": "132819941", "name": "REAL ESTATE TAX REVIEW BAR ASSN", "city": "NEW YORK", "state": "NY", "zip": "10018-0000", "ntee": "S47Z", "ruling": "199211", "deductibility": "2", "assets": 14957, "income": 23000, "revenue": 23000}, {"ein": "132998309", "name": "MONTHLY REVIEW FOUNDATION", "city": "NEW YORK", "state": "NY", "zip": "10001-5304", "ntee": "A33Z", "ruling": "198005", "deductibility": "1", "assets": 2271634, "income": 1433387, "revenue": 1433387}, {"ein": "133108424", "name": "FOUNDATION FOR CULTURAL REVIEW INC", "city": "NEW YORK", "state": "NY", "zip": "10003-1237", "ntee": "A33Z", "ruling": "198203", "deductibility": "1", "assets": 15950761, "income": 4126389, "revenue": 3835954}, {"ein": "133519614", "name": "THE BURMA REVIEW COMMITTEE INC", "city": "SUNNYSIDE", "state": "NY", "zip": "11104-2080", "ntee": "", "ruling": "199002", "deductibility": "1", "assets": 0, "income": 0, "revenue": 0}, {"ein": "133649537", "name": "NATIONAL REVIEW INSTITUTE", "city": "NEW YORK", "state": "NY", "zip": "10036-6101", "ntee": "Z99Z", "ruling": "199204", "deductibility": "1", "assets": 15363650, "income": 9958151, "revenue": 8950350}, {"ein": "133981873", "name": "THE EVERGREEN REVIEW", "city": "LONG IS CITY", "state": "NY", "zip": "11101-3801", "ntee": "A33", "ruling": "202308", "deductibility": "1", "assets": 7285, "income": 104907, "revenue": 104907}, {"ein": "134081729", "name": "THE PARIS REVIEW FOUNDATION INC", "city": "NEW YORK", "state": "NY", "zip": "10001-5537", "ntee": "B20", "ruling": "200008", "deductibility": "1", "assets": 11312095, "income": 5015366, "revenue": 3754518}, {"ein": "134191011", "name": "COLUMBIA BUSINESS LAW REVIEW INC", "city": "NEW YORK", "state": "NY", "zip": "10027-7237", "ntee": "B99", "ruling": "200202", "deductibility": "1", "assets": 205638, "income": 11181, "revenue": 11181}, {"ein": "135596800", "name": "NATIONAL BOARD OF REVIEW OF MOTION PICTURES INC", "city": "NEW YORK", "state": "NY", "zip": "10174-2699", "ntee": "", "ruling": "194302", "deductibility": "1", "assets": 585947, "income": 875791, "revenue": 661636}, {"ein": "136016178", "name": "HUDSON REVIEW INC", "city": "NEW YORK", "state": "NY", "zip": "10023-6224", "ntee": "A33Z", "ruling": "197906", "deductibility": "1", "assets": 618493, "income": 968008, "revenue": 416354}, {"ein": "136161436", "name": "COLUMBIA LAW REVIEW ASSOCIATION INC", "city": "NEW YORK", "state": "NY", "zip": "10027-7237", "ntee": "B53Z", "ruling": "195702", "deductibility": "1", "assets": 20504828, "income": 853771, "revenue": 853771}, {"ein": "222417571", "name": "GREENFIELD REVIEW PRESS", "city": "GREENFLD CTR", "state": "NY", "zip": "12833-0308", "ntee": "A99Z", "ruling": "198311", "deductibility": "1", "assets": 515752, "income": 243000, "revenue": 243000}, {"ein": "223252633", "name": "REVIEW FOUNDATION INC", "city": "ALBANY", "state": "NY", "zip": "12211-2396", "ntee": "", "ruling": "199412", "deductibility": "1", "assets": 14470910, "income": 7967684, "revenue": 0}, {"ein": "233099825", "name": "NATIONAL ASSOCIATION OF INDEPENDENT REVIEW ORGANIZATIONS INC", "city": "ALBANY", "state": "NY", "zip": "12203-5319", "ntee": "R99", "ruling": "201405", "deductibility": "2", "assets": 130095, "income": 181921, "revenue": 181921}, {"ein": "237379635", "name": "NEW YORK COUNTY HEALTH SERVICES REVIEW ORGANIZATIONS INC", "city": "NEW YORK", "state": "NY", "zip": "10038-3544", "ntee": "", "ruling": "197411", "deductibility": "1", "assets": 42724314, "income": 2997283, "revenue": 2997283}, {"ein": "842885958", "name": "BRONX COMMUNITY RESEARCH REVIEW BOARD INC", "city": "BRONX", "state": "NY", "zip": "10463-0000", "ntee": "U05", "ruling": "201910", "deductibility": "1", "assets": 0, "income": 0, "revenue": 0}, {"ein": "843952278", "name": "COMSTOCK REVIEW INC", "city": "SYRACUSE", "state": "NY", "zip": "13210-0000", "ntee": "A99", "ruling": "202002", "deductibility": "1", "assets": 19884, "income": 17549, "revenue": 17549}, {"ein": "851666012", "name": "BELLEVUE LITERARY REVIEW INC", "city": "NEW YORK", "state": "NY", "zip": "10010-3765", "ntee": "A33", "ruling": "202103", "deductibility": "1", "assets": 209280, "income": 242989, "revenue": 232823}, {"ein": "851687010", "name": "INCANDESCENT REVIEW", "city": "OLD WESTBURY", "state": "NY", "zip": "11568-1211", "ntee": "A99", "ruling": "202007", "deductibility": "1", "assets": 0, "income": 0, "revenue": 0}, {"ein": "921539671", "name": "PALISADES REVIEW CORP", "city": "NEW YORK", "state": "NY", "zip": "10002-5335", "ntee": "A33", "ruling": "202303", "deductibility": "1", "assets": 0, "income": 0, "revenue": 0}, {"ein": "933646770", "name": "ARCHITECHTURE REVIEW COLLECTIVE INC", "city": "NEW YORK", "state": "NY", "zip": "10113-9615", "ntee": "A30", "ruling": "202410", "deductibility": "1", "assets": 0, "income": 0, "revenue": 0}], "SHIN": [{"ein": "112695376", "name": "HYO SHIN BIBLE PRESBYTERIAN CHURCH OF NEW YORK", "city": "FLUSHING", "state": "NY", "zip": "11358-2664", "ntee": "", "ruling": "195306", "deductibility": "1", "assets": 0, "income": 0, "revenue": 0}, {"ein": "112871846", "name": "THE SHIN KWANG CHURCH OF NEW YORK", "city": "BAYSIDE", "state": "NY", "zip": "11361-1703", "ntee": "", "ruling": "198601", "deductibility": "1", "assets": 351100, "income": 1046979, "revenue": 1046979}, {"ein": "113028842", "name": "BROOKLYN BUDDHIST ASSOCIATION JIKI SHIN KAN DOJO", "city": "BROOKLYN", "state": "NY", "zip": "11217-1905", "ntee": "", "ruling": "199106", "deductibility": "1", "assets": 0, "income": 0, "revenue": 0}, {"ein": "113097550", "name": "SHIN SUNG PRESBYTERIAN CHURCH OF NEW YORK", "city": "FLUSHING", "state": "NY", "zip": "11355-1254", "ntee": "", "ruling": "199207", "deductibility": "1", "assets": 0, "income": 0, "revenue": 0}, {"ein": "113115900", "name": "SUNG SHIN REFORMED CHURCH OF KEW GARDENS", "city": "KEW GARDENS", "state": "NY", "zip": "11415-1724", "ntee": "X21I", "ruling": "198601", "deductibility": "1", "assets": 0, "income": 0, "revenue": 0}, {"ein": "113202231", "name": "NEW YORK IL-SHIN PRESBYTERIAN CHURCH", "city": "NEW HYDE PARK", "state": "NY", "zip": "11040-3041", "ntee": "", "ruling": "199411", "deductibility": "1", "assets": 0, "income": 0, "revenue": 0}, {"ein": "113218880", "name": "U S A SHIN YAT TONG MORAL SOCIETY INC", "city": "NEW YORK", "state": "NY", "zip": "10002-7202", "ntee": "X99Z", "ruling": "199510", "deductibility": "1", "assets": 0, "income": 0, "revenue": 0}, {"ein": "113346997", "name": "SHIN IL PRESBYTERIAN CHURCH OF NEW", "city": "LITTLE NECK", "state": "NY", "zip": "11362-1430", "ntee": "X20Z", "ruling": "199712", "deductibility": "1", "assets": 0, "income": 0, "revenue": 0}, {"ein": "113358046", "name": "NEW YORK JOO-SHIN CHURCH OF THE PRESBYTERIAN", "city": "FRESH MEADOWS", "state": "NY", "zip": "11366-1701", "ntee": "X20Z", "ruling": "199702", "deductibility": "1", "assets": 0, "income": 0, "revenue": 0}, {"ein": "113379601", "name": "QUEENS SUNG SHIN", "city": "FLUSHING", "state": "NY", "zip": "11354-4941", "ntee": "X20", "ruling": "196307", "deductibility": "1", "assets": 0, "income": 0, "revenue": 0}, {"ein": "113588574", "name": "SHIN HWA SA BUDDHIST TEMPLE INC", "city": "JERICHO", "state": "NY", "zip": "11753-1719", "ntee": "X50", "ruling": "201111", "deductibility": "1", "assets": 0, "income": 0, "revenue": 0}, {"ein": "132845149", "name": "SHIN-BUDO KAI INC", "city": "FISHKILL", "state": "NY", "zip": "12524-0003", "ntee": "P500", "ruling": "197712", "deductibility": "1", "assets": 22816, "income": 72095, "revenue": 72095}, {"ein": "133921809", "name": "HAN SHIN BAPTIST CHURCH OF N Y", "city": "WEST NYACK", "state": "NY", "zip": "10994-2633", "ntee": "", "ruling": "199701", "deductibility": "1", "assets": 0, "income": 0, "revenue": 0}, {"ein": "137582641", "name": "SHIN CREEK TR", "city": "LIVINGSTN MNR", "state": "NY", "zip": "12758-6223", "ntee": "T200", "ruling": "200806", "deductibility": "1", "assets": 1723844, "income": 856748, "revenue": 0}, {"ein": "263475546", "name": "KYO-SHIN-AN ARTS INC", "city": "BROOKLYN", "state": "NY", "zip": "11215-2363", "ntee": "A68", "ruling": "200902", "deductibility": "1", "assets": 0, "income": 0, "revenue": 0}, {"ein": "432065722", "name": "HWAK SHIN PRESBYTERIAN CHURCH", "city": "COMMACK", "state": "NY", "zip": "11725-1806", "ntee": "X21", "ruling": "200605", "deductibility": "1", "assets": 7253, "income": 10537, "revenue": 10537}, {"ein": "462227143", "name": "SHIN IL PRESBYTERIAN CHURCH INC", "city": "FLUSHING", "state": "NY", "zip": "11358-2606", "ntee": "X21", "ruling": "201411", "deductibility": "1", "assets": 0, "income": 0, "revenue": 0}, {"ein": "465109759", "name": "JODO-SHINSHU SHIN-BUDDHIST NEW YORK SANGHA INC", "city": "NEW YORK", "state": "NY", "zip": "10113-0103", "ntee": "X50", "ruling": "201509", "deductibility": "2", "assets": 0, "income": 0, "revenue": 0}, {"ein": "853371535", "name": "PJ SHIN FOUNDATION INC", "city": "ALBERTSON", "state": "NY", "zip": "11507-1007", "ntee": "A20", "ruling": "202101", "deductibility": "1", "assets": 0, "income": 0, "revenue": 0}, {"ein": "872154324", "name": "JIN SHIN JYUTSU SMB INC", "city": "WOODSTOCK", "state": "NY", "zip": "12498-1725", "ntee": "A20", "ruling": "202111", "deductibility": "1", "assets": 30917, "income": 46014, "revenue": 46014}, {"ein": "874487767", "name": "CS SHIN FOUNDATION INC", "city": "MANHASSET", "state": "NY", "zip": "11030-4107", "ntee": "T22", "ruling": "202202", "deductibility": "1", "assets": 0, "income": 0, "revenue": 0}], "MAIER": [{"ein": "112731059", "name": "CONGREGATION AND YESHIVA ZICHRON MAIER", "city": "BROOKLYN", "state": "NY", "zip": "11219-3705", "ntee": "", "ruling": "198509", "deductibility": "1", "assets": 0, "income": 0, "revenue": 0}, {"ein": "133322380", "name": "ARTHUR I AND SUSAN MAIER FUND INC", "city": "NEW YORK", "state": "NY", "zip": "10024-6022", "ntee": "", "ruling": "198608", "deductibility": "1", "assets": 146834, "income": 1294217, "revenue": 0}, {"ein": "133774001", "name": "MAIER FOUNDATION INC", "city": "MANHASSET", "state": "NY", "zip": "11030-4108", "ntee": "", "ruling": "199410", "deductibility": "1", "assets": 564491, "income": 167238, "revenue": 0}, {"ein": "222136614", "name": "CAYUGA COUNTY COUNCIL OF SENIOR CITIZENS INC C O R G S MAIER", "city": "AUBURN", "state": "NY", "zip": "13021-3504", "ntee": "", "ruling": "197612", "deductibility": "1", "assets": 0, "income": 0, "revenue": 0}], "MOKIR": [{"ein": "112746744", "name": "MOKIR SHABBOS", "city": "BROOKLYN", "state": "NY", "zip": "11219-2140", "ntee": "", "ruling": "198511", "deductibility": "1", "assets": 0, "income": 0, "revenue": 0}], "DVISHEVE": [{"ein": "112978818", "name": "CONGREGATION SHEARIS MENACHEM DVISHEVE", "city": "BROOKLYN", "state": "NY", "zip": "11219-3051", "ntee": "", "ruling": "199102", "deductibility": "1", "assets": 0, "income": 0, "revenue": 0}], "LUCIAN": [{"ein": "113017246", "name": "ST LUCIAN UNITED ASSOCIATION INC", "city": "BROOKLYN", "state": "NY", "zip": "11226-3604", "ntee": "", "ruling": "199404", "deductibility": "2", "assets": 0, "income": 0, "revenue": 0}, {"ein": "263941847", "name": "ST LUCIAN AMERICAN CHRISTIAN ASSOCIATION", "city": "BROOKLYN", "state": "NY", "zip": "11203-3656", "ntee": "S20", "ruling": "202102", "deductibility": "1", "assets": 0, "income": 0, "revenue": 0}], "RESIDENT": [{"ein": "113048765", "name": "INGERSOLL RESIDENT ASSOCIATION INC", "city": "BROOKLYN", "state": "NY", "zip": "11201-3129", "ntee": "L50", "ruling": "201606", "deductibility": "1", "assets": 0, "income": 0, "revenue": 0}, {"ein": "113228131", "name": "REDHOOK EAST RESIDENT ASSOCIATION INC", "city": "BROOKLYN", "state": "NY", "zip": "11231-3156", "ntee": "L50", "ruling": "201408", "deductibility": "1", "assets": 0, "income": 0, "revenue": 0}, {"ein": "132768583", "name": "ALLIANCE OF RESIDENT THEATRES NEW YORK INC", "city": "NEW YORK", "state": "NY", "zip": "10018-8654", "ntee": "A010", "ruling": "197310", "deductibility": "1", "assets": 44517405, "income": 4949065, "revenue": 4237865}, {"ein": "132958227", "name": "UNIVERSITY RESIDENT THEATRE ASSOCIATION INC", "city": "NEW YORK", "state": "NY", "zip": "10036-2516", "ntee": "A030", "ruling": "199411", "deductibility": "1", "assets": 1501732, "income": 4775394, "revenue": 4775394}, {"ein": "133562972", "name": "ST MARGARETS HOUSE RESIDENT COUNCIL THRIFT SHOP INC", "city": "NEW YORK", "state": "NY", "zip": "10038-1836", "ntee": "", "ruling": "199312", "deductibility": "1", "assets": 0, "income": 0, "revenue": 0}, {"ein": "133719168", "name": "MANHATTAN RESIDENT MANAGERS CLUB INC", "city": "NEW YORK", "state": "NY", "zip": "10016-0000", "ntee": "N50", "ruling": "201807", "deductibility": "2", "assets": 156956, "income": 259016, "revenue": 259016}, {"ein": "141742347", "name": "RESIDENT EMPOWERED ACTION COUNCIL OF TROY", "city": "TROY", "state": "NY", "zip": "12180-2848", "ntee": "L52Z", "ruling": "199302", "deductibility": "1", "assets": 17519, "income": 19352, "revenue": 19352}, {"ein": "331131361", "name": "NEW YORK STATE ASSOCIATION OF RESIDENT SERVICE COORDINATORS", "city": "ROCHESTER", "state": "NY", "zip": "14626-0651", "ntee": "L20", "ruling": "201902", "deductibility": "1", "assets": 0, "income": 0, "revenue": 0}, {"ein": "454698694", "name": "MARINO-PERETTA RESIDENT ASSOCIATION INC", "city": "UTICA", "state": "NY", "zip": "13501-2450", "ntee": "P20", "ruling": "202203", "deductibility": "1", "assets": 0, "income": 0, "revenue": 0}, {"ein": "454699034", "name": "GILLMORE-HUMPHREY RESIDENT ASSOCIATION", "city": "UTICA", "state": "NY", "zip": "13501-2450", "ntee": "L50", "ruling": "201702", "deductibility": "1", "assets": 1, "income": 62171, "revenue": 62171}, {"ein": "454699352", "name": "ADREAN-MATT RESIDENT ASSOCIATION INC", "city": "UTICA", "state": "NY", "zip": "13501-2450", "ntee": "L21", "ruling": "202203", "deductibility": "1", "assets": 1, "income": 57427, "revenue": 57427}, {"ein": "464898938", "name": "BREUKELEN RESIDENT ASSOCIATION INC", "city": "BROOKLYN", "state": "NY", "zip": "11207-8224", "ntee": "L01", "ruling": "201712", "deductibility": "1", "assets": 0, "income": 0, "revenue": 0}, {"ein": "465598902", "name": "MILLBROOK RESIDENT ASSOCIATION INC", "city": "BRONX", "state": "NY", "zip": "10454-4207", "ntee": "L50", "ruling": "201805", "deductibility": "1", "assets": 0, "income": 0, "revenue": 0}, {"ein": "465624500", "name": "BUSHWICK HOUSES RESIDENT ASSOCIATION INC", "city": "BROOKLYN", "state": "NY", "zip": "11206-3723", "ntee": "L50", "ruling": "201412", "deductibility": "1", "assets": 0, "income": 0, "revenue": 0}, {"ein": "472127565", "name": "1471-73 WATSON AVENUE RESIDENT COUNCIL INC", "city": "BRONX", "state": "NY", "zip": "10472-5331", "ntee": "L50", "ruling": "201806", "deductibility": "1", "assets": 0, "income": 0, "revenue": 0}, {"ein": "472856442", "name": "RESIDENT ELDER YOUTH ENGAGEMENT CORPORATION", "city": "FAR ROCKAWAY", "state": "NY", "zip": "11691-3806", "ntee": "A20", "ruling": "201708", "deductibility": "1", "assets": 0, "income": 0, "revenue": 0}, {"ein": "800420353", "name": "JACKSON RESIDENT ASSOCIATION INC", "city": "BRONX", "state": "NY", "zip": "10451-4315", "ntee": "L01", "ruling": "201704", "deductibility": "1", "assets": 0, "income": 0, "revenue": 0}, {"ein": "800716140", "name": "FREDERICK E SAMUEL RESIDENT ASSOCIATION INC", "city": "NEW YORK", "state": "NY", "zip": "10030-1614", "ntee": "S20", "ruling": "201107", "deductibility": "1", "assets": 0, "income": 0, "revenue": 0}, {"ein": "800824663", "name": "JURISDICTION WIDE RESIDENT COUNCIL OF BUFFALO", "city": "BUFFALO", "state": "NY", "zip": "14222-2246", "ntee": "P20", "ruling": "201302", "deductibility": "1", "assets": 0, "income": 0, "revenue": 0}, {"ein": "811753297", "name": "WYCKOFF GARDENS RESIDENT ASSOCIATION I", "city": "BROOKLYN", "state": "NY", "zip": "11217-2310", "ntee": "S99", "ruling": "202112", "deductibility": "1", "assets": 0, "income": 0, "revenue": 0}, {"ein": "813923581", "name": "THE 100-168 WEST 121ST STREET RESIDENT BLOCK ASSOCIATION INC", "city": "NEW YORK", "state": "NY", "zip": "10027-6324", "ntee": "T40", "ruling": "201906", "deductibility": "1", "assets": 7406, "income": 3694, "revenue": 3694}, {"ein": "821476867", "name": "MITCHEL RESIDENT ASSOCIATION", "city": "BRONX", "state": "NY", "zip": "10454-3842", "ntee": "L80", "ruling": "201708", "deductibility": "1", "assets": 0, "income": 0, "revenue": 0}, {"ein": "823678761", "name": "MARINERS HARBOR RESIDENT ASSOCIATION", "city": "STATEN ISLAND", "state": "NY", "zip": "10303-1975", "ntee": "L21", "ruling": "202001", "deductibility": "1", "assets": 0, "income": 0, "revenue": 0}, {"ein": "823767570", "name": "RESIDENT ACTING COMPANY", "city": "NEW YORK", "state": "NY", "zip": "10002-1250", "ntee": "A20", "ruling": "202005", "deductibility": "1", "assets": 8086, "income": 50448, "revenue": 50448}, {"ein": "824023829", "name": "MARBLE HILL RESIDENT COUNCIL INC", "city": "BRONX", "state": "NY", "zip": "10463-7660", "ntee": "L50", "ruling": "201802", "deductibility": "1", "assets": 0, "income": 0, "revenue": 0}, {"ein": "871134688", "name": "TOMPKINS RESIDENT ASSOCIATION INC", "city": "BROOKLYN", "state": "NY", "zip": "11206-5652", "ntee": "S22", "ruling": "202204", "deductibility": "1", "assets": 0, "income": 0, "revenue": 0}, {"ein": "920919112", "name": "STUYVESANT RESIDENT COUNCIL INC", "city": "BUFFALO", "state": "NY", "zip": "14222-2246", "ntee": "L01", "ruling": "202401", "deductibility": "1", "assets": 0, "income": 0, "revenue": 0}, {"ein": "923457468", "name": "BETANCES RESIDENT ASSOCIATION", "city": "BRONX", "state": "NY", "zip": "10455-4201", "ntee": "P99", "ruling": "202305", "deductibility": "1", "assets": 0, "income": 0, "revenue": 0}, {"ein": "932897055", "name": "JAMES WELDON JOHNSON RESIDENT DEVELOPMENT BOARD INC", "city": "NEW YORK", "state": "NY", "zip": "10029-2831", "ntee": "L50", "ruling": "202309", "deductibility": "1", "assets": 0, "income": 0, "revenue": 0}, {"ein": "990459262", "name": "FARRAGUT HOUSES RESIDENT ASSOCIATION INC", "city": "BROOKLYN", "state": "NY", "zip": "11201-1532", "ntee": "O50", "ruling": "202401", "deductibility": "1", "assets": 0, "income": 0, "revenue": 0}], "TEFILAS": [{"ein": "113166383", "name": "TEFILAS YISROEL", "city": "BROOKLYN", "state": "NY", "zip": "11210-3714", "ntee": "", "ruling": "199401", "deductibility": "1", "assets": 0, "income": 0, "revenue": 0}, {"ein": "921134225", "name": "CONGREGATION TEFILAS MORDECHAI", "city": "MONSEY", "state": "NY", "zip": "10952-2100", "ntee": "X30", "ruling": "202302", "deductibility": "1", "assets": 0, "income": 0, "revenue": 0}], "DRAMMEH": [{"ein": "113191208", "name": "THE DRAMMEH INSTITUTE INC", "city": "BRONX", "state": "NY", "zip": "10475-2207", "ntee": "A30Z", "ruling": "199401", "deductibility": "1", "assets": 0, "income": 0, "revenue": 0}], "MURRAY": [{"ein": "113238967", "name": "MURRAY AND BERNARD SCHUSS MEMORIAL FOUNDATION INC", "city": "LIDO BEACH", "state": "NY", "zip": "11561-5111", "ntee": "Z99", "ruling": "199509", "deductibility": "1", "assets": 0, "income": 0, "revenue": 0}, {"ein": "133083067", "name": "GLADYS AND MURRAY GOLDSTEIN FOUNDATION INC", "city": "HARRISON", "state": "NY", "zip": "10528-1715", "ntee": "", "ruling": "198109", "deductibility": "1", "assets": 24768, "income": 17174, "revenue": 0}, {"ein": "133446203", "name": "THE MURRAY ALON FAMILY CHARITABLE FOUNDATION", "city": "REGO PARK", "state": "NY", "zip": "11374-0000", "ntee": "", "ruling": "198803", "deductibility": "1", "assets": 1, "income": 1, "revenue": 0}, {"ein": "133542148", "name": "MURRAY HILL PLACE INC", "city": "NEW YORK", "state": "NY", "zip": "10016-1601", "ntee": "X220", "ruling": "199010", "deductibility": "1", "assets": 41875197, "income": 2798460, "revenue": 2798460}, {"ein": "133830227", "name": "MURRAY BERTRAM HIGH SCHOOL ALUMNI ASSOCIATION INC", "city": "NEW YORK", "state": "NY", "zip": "10038-1432", "ntee": "B84Z", "ruling": "199510", "deductibility": "1", "assets": 9176, "income": 175, "revenue": 175}, {"ein": "134164376", "name": "MURRAY HILL INSTITUTE INC", "city": "NEW YORK", "state": "NY", "zip": "10016-4605", "ntee": "R24", "ruling": "200110", "deductibility": "1", "assets": 0, "income": 0, "revenue": 0}, {"ein": "136980687", "name": "THE MURRAY & IRENE PERGAMENT FOUNDATION", "city": "WOODBURY", "state": "NY", "zip": "11797-2930", "ntee": "", "ruling": "199209", "deductibility": "1", "assets": 9443, "income": 1, "revenue": 0}, {"ein": "141781248", "name": "ALICE & MURRAY GIDDINGS FOUNDATION INC", "city": "CHATHAM", "state": "NY", "zip": "12037-0182", "ntee": "T20J", "ruling": "199506", "deductibility": "1", "assets": 757727, "income": 428552, "revenue": 0}, {"ein": "160919050", "name": "J M MURRAY CENTER INC", "city": "CORTLAND", "state": "NY", "zip": "13045-8729", "ntee": "J330", "ruling": "196804", "deductibility": "1", "assets": 17568329, "income": 29255239, "revenue": 29154704}, {"ein": "161394060", "name": "MURRAY-HOLLEY HISTORICAL SOCIETY", "city": "HOLLEY", "state": "NY", "zip": "14470-9382", "ntee": "A82", "ruling": "202506", "deductibility": "1", "assets": 0, "income": 0, "revenue": 0}, {"ein": "166185002", "name": "TRUST UWO MURRAY WALKER PAR 4 FBO IRA DAVENPORT HOSPITAL", "city": "PITTSFORD", "state": "NY", "zip": "14534-3838", "ntee": "T22", "ruling": "200909", "deductibility": "1", "assets": 141200, "income": 16554, "revenue": 0}, {"ein": "166185004", "name": "TRUST UWO MURRAY WALKER PAR 3 FBO CENTENARY UNITED CHURCH", "city": "PITTSFORD", "state": "NY", "zip": "14534-3838", "ntee": "T22", "ruling": "200907", "deductibility": "1", "assets": 153066, "income": 18649, "revenue": 0}, {"ein": "201213788", "name": "ALLEN E AND PATRICIA M MURRAY FOUNDATION", "city": "SYOSSET", "state": "NY", "zip": "11791-0490", "ntee": "T22", "ruling": "200411", "deductibility": "1", "assets": 13387104, "income": 6042875, "revenue": 0}, {"ein": "201929674", "name": "DOROTHY AND MURRAY FEISS FOUNDATION INC", "city": "BEDFORD CORS", "state": "NY", "zip": "10549-4973", "ntee": "T22", "ruling": "200509", "deductibility": "1", "assets": 1047359, "income": 417228, "revenue": 0}, {"ein": "222313929", "name": "MURRAY ISLE ASSOCIATION INC", "city": "VALATIE", "state": "NY", "zip": "12184-4713", "ntee": "", "ruling": "199308", "deductibility": "2", "assets": 0, "income": 0, "revenue": 0}, {"ein": "226642389", "name": "MURRAY HAZAN FAMILY FOUNDATION", "city": "MELVILLE", "state": "NY", "zip": "11747-0000", "ntee": "T22Z", "ruling": "199508", "deductibility": "1", "assets": 45232, "income": 18821, "revenue": 0}, {"ein": "237361016", "name": "MURRAY HILL COMMITTEE GROUP INC", "city": "NEW YORK", "state": "NY", "zip": "10156-1897", "ntee": "", "ruling": "197404", "deductibility": "2", "assets": 25722, "income": 56470, "revenue": 56470}, {"ein": "271755976", "name": "DOMINIC A MURRAY 21 MEMORIAL FOUNDATION INC", "city": "EAST ELMHURST", "state": "NY", "zip": "11369-2004", "ntee": "B82", "ruling": "201008", "deductibility": "1", "assets": 0, "income": 0, "revenue": 0}, {"ein": "311623371", "name": "MURRAY G AND BEATRICE H SHERMAN CHARITABLE TRUST", "city": "NEW YORK", "state": "NY", "zip": "10023-0313", "ntee": "T22", "ruling": "199903", "deductibility": "1", "assets": 3299830, "income": 1324021, "revenue": 0}, {"ein": "383979166", "name": "SEAN MICHAEL MURRAY CORPORATION", "city": "JACKSON HTS", "state": "NY", "zip": "11372-9036", "ntee": "X01", "ruling": "201909", "deductibility": "1", "assets": 0, "income": 0, "revenue": 0}, {"ein": "581947342", "name": "THE MURRAY & SYDELL ROSENBERG FOUNDATION INC", "city": "NEW YORK", "state": "NY", "zip": "10019-3310", "ntee": "", "ruling": "199202", "deductibility": "1", "assets": 2887259, "income": 35410268, "revenue": 0}, {"ein": "832606262", "name": "EILEEN & MURRAY FRIEDMAN FOUNDATION", "city": "WOODMERE", "state": "NY", "zip": "11598-2606", "ntee": "T20", "ruling": "201904", "deductibility": "1", "assets": 5894, "income": 131317, "revenue": 0}, {"ein": "851456404", "name": "MURRAY HILL COMMITTEE INC", "city": "NEW YORK", "state": "NY", "zip": "10016-5044", "ntee": "L80", "ruling": "202007", "deductibility": "1", "assets": 13706, "income": 35339, "revenue": 35339}, {"ein": "853565957", "name": "JOHN AND KELLYANNE MURRAY CHARITABLE FOUNDATION", "city": "TROY", "state": "NY", "zip": "12180-6540", "ntee": "T22", "ruling": "202102", "deductibility": "1", "assets": 1645179, "income": 176505, "revenue": 0}, {"ein": "872094810", "name": "J M MURRAY FOUNDATION INC", "city": "CORTLAND", "state": "NY", "zip": "13045-0000", "ntee": "P12", "ruling": "202205", "deductibility": "1", "assets": 686574, "income": 185715, "revenue": 168001}], "SHAOLIN": [{"ein": "113271620", "name": "SOCIETY OF SHAOLIN TEMPLE INC", "city": "EAST NORTHPORT", "state": "NY", "zip": "11731-2940", "ntee": "X50Z", "ruling": "199705", "deductibility": "1", "assets": 1621522, "income": 0, "revenue": -49787}, {"ein": "272667881", "name": "MEI GUO SHAOLIN SI", "city": "NEW YORK", "state": "NY", "zip": "10003-6929", "ntee": "X50", "ruling": "202004", "deductibility": "1", "assets": 0, "income": 0, "revenue": 0}, {"ein": "825428075", "name": "NEW YORK SHAOLIN ZEN MARTIAL ARTS CULTURAL CENTER INC", "city": "BROOKLYN", "state": "NY", "zip": "11204-4001", "ntee": "X50", "ruling": "201904", "deductibility": "1", "assets": 0, "income": 0, "revenue": 0}], "WHA": [{"ein": "113450042", "name": "SUNG-WHA PRESBYTERIAN CHURCH OF NEW YORK", "city": "FLUSHING", "state": "NY", "zip": "11354-2328", "ntee": "X20Z", "ruling": "199811", "deductibility": "1", "assets": 0, "income": 0, "revenue": 0}], "LP": [{"ein": "113489299", "name": "LP FAMS YOUTH ORGANIZATION INC", "city": "QUEENS", "state": "NY", "zip": "11420-1611", "ntee": "P30", "ruling": "200005", "deductibility": "1", "assets": 0, "income": 0, "revenue": 0}, {"ein": "204915538", "name": "LP-EC QUALITY DESTINATION INC", "city": "LAKE PLACID", "state": "NY", "zip": "12946-3545", "ntee": "S300", "ruling": "200712", "deductibility": "1", "assets": 27989, "income": 74735, "revenue": 74735}, {"ein": "261592072", "name": "LP STUDIO PRODUCTIONS INC", "city": "BROOKLYN", "state": "NY", "zip": "11235-4201", "ntee": "A23", "ruling": "201410", "deductibility": "1", "assets": 0, "income": 0, "revenue": 0}], "COMPASSIONATE": [{"ein": "113617160", "name": "COMPASSIONATE CAT RESCUE ASSOCIATES", "city": "BELLEROSE VLG", "state": "NY", "zip": "11001-4125", "ntee": "D20", "ruling": "200109", "deductibility": "1", "assets": 0, "income": 0, "revenue": 0}, {"ein": "134260556", "name": "INDEPENDENT MOTIVATED EDUCATED AND COMPASSIONATE YOUTH IN OUR COMMUNI", "city": "WESTBURY", "state": "NY", "zip": "11590-2505", "ntee": "O50", "ruling": "200510", "deductibility": "1", "assets": 0, "income": 0, "revenue": 0}, {"ein": "201387958", "name": "LEV LEYTZAN THE COMPASSIONATE CLOWN ALLEY INC", "city": "LAWRENCE", "state": "NY", "zip": "11559-8507", "ntee": "P80", "ruling": "200410", "deductibility": "1", "assets": 28043, "income": 85890, "revenue": 85890}, {"ein": "202461875", "name": "COMPASSIONATE ACTION INC", "city": "SELDEN", "state": "NY", "zip": "11784-3525", "ntee": "D20", "ruling": "200507", "deductibility": "1", "assets": 0, "income": 0, "revenue": 0}, {"ein": "262802654", "name": "COMPASSIONATE SOUL", "city": "BROOKLYN", "state": "NY", "zip": "11218-2211", "ntee": "Q30", "ruling": "201311", "deductibility": "1", "assets": 0, "income": 0, "revenue": 0}, {"ein": "264174719", "name": "COMPASSIONATE REACH INTERNATIONAL INC", "city": "ROUND LAKE", "state": "NY", "zip": "12151-7760", "ntee": "P20", "ruling": "201103", "deductibility": "1", "assets": 0, "income": 0, "revenue": 0}, {"ein": "320078071", "name": "TRUE BUDDHA TEMPLE OF COMPASSIONATE GRACE INC", "city": "NEW YORK", "state": "NY", "zip": "10002-5430", "ntee": "X50", "ruling": "200307", "deductibility": "1", "assets": 0, "income": 0, "revenue": 0}, {"ein": "332993720", "name": "SHALOM NETWORK COMPASSIONATE MINISTRIES INC", "city": "SYRACUSE", "state": "NY", "zip": "13209-1604", "ntee": "P20", "ruling": "202504", "deductibility": "1", "assets": 0, "income": 0, "revenue": 0}, {"ein": "463641498", "name": "COMPASSIONATE HEALTH MINISTRIES", "city": "BROOKLYN", "state": "NY", "zip": "11234-2935", "ntee": "Q30", "ruling": "201504", "deductibility": "1", "assets": 0, "income": 0, "revenue": 0}, {"ein": "472997509", "name": "LOVE NEST COMPASSIONATE CARE INC", "city": "FLUSHING", "state": "NY", "zip": "11354-4139", "ntee": "P99", "ruling": "201602", "deductibility": "1", "assets": 403312, "income": 287010, "revenue": 287010}, {"ein": "475105337", "name": "COMPASSIONATE FAMILY & INDIVIDUAL SERVICES INC", "city": "WOODMERE", "state": "NY", "zip": "11598-1549", "ntee": "S20", "ruling": "201511", "deductibility": "1", "assets": 240, "income": 1421, "revenue": 1421}, {"ein": "811727151", "name": "COMPASSIONATE STRANGER INC", "city": "NEW YORK", "state": "NY", "zip": "10003-2965", "ntee": "P50", "ruling": "201604", "deductibility": "1", "assets": 0, "income": 0, "revenue": 0}, {"ein": "814559159", "name": "COMPASSIONATE ANIMAL RESCUE EFFORTS OF DUTCHESS COUNTY INC", "city": "WAPPINGERS FL", "state": "NY", "zip": "12590-6137", "ntee": "", "ruling": "201612", "deductibility": "1", "assets": 526068, "income": 672262, "revenue": 672262}, {"ein": "832536440", "name": "COMPASSIONATE CONNECTIONS OF WALLKILL INC", "city": "VALLEY STREAM", "state": "NY", "zip": "11580-5538", "ntee": "P20", "ruling": "201907", "deductibility": "1", "assets": 0, "income": 0, "revenue": 0}, {"ein": "833166856", "name": "COMPASSIONATE LIFE CHILDRENS FOUNDATION INC", "city": "RED HOOK", "state": "NY", "zip": "12571-2445", "ntee": "T99", "ruling": "202008", "deductibility": "1", "assets": 0, "income": 0, "revenue": 0}, {"ein": "833740993", "name": "VENTURE COMPASSIONATE MINISTRIES", "city": "HENRIETTA", "state": "NY", "zip": "14467-9779", "ntee": "P99", "ruling": "202001", "deductibility": "1", "assets": 0, "income": 0, "revenue": 0}, {"ein": "842001591", "name": "CENTER FOR COMPASSIONATE LEADERSHIP INC", "city": "MONTAUK", "state": "NY", "zip": "11954-0503", "ntee": "W70", "ruling": "202201", "deductibility": "1", "assets": 70780, "income": 245324, "revenue": 245324}, {"ein": "853771158", "name": "ISLAMIC INDIGENOUS COMPASSIONATE CARE INC", "city": "JAMAICA", "state": "NY", "zip": "11433-2412", "ntee": "X40", "ruling": "202104", "deductibility": "1", "assets": 0, "income": 0, "revenue": 0}, {"ein": "882014127", "name": "COMPASSIONATE CARE FOUNDATION INC", "city": "DEXTER", "state": "NY", "zip": "13634-3171", "ntee": "E60", "ruling": "202209", "deductibility": "1", "assets": 80404, "income": 261186, "revenue": 231104}, {"ein": "922622397", "name": "COMPASSIONATE COMMUNITIES CREATING JOY INC", "city": "NEW YORK", "state": "NY", "zip": "10037-1640", "ntee": "P20", "ruling": "202303", "deductibility": "1", "assets": 0, "income": 0, "revenue": 0}, {"ein": "933019137", "name": "COMPASSIONATE MIND FOUNDATION - UNITED STATES OF AMERICA INC", "city": "PALISADES", "state": "NY", "zip": "10964-1532", "ntee": "F30", "ruling": "202310", "deductibility": "1", "assets": 0, "income": 0, "revenue": 0}, {"ein": "933646439", "name": "COMPASSIONATE GOOD SHEPHERD INC", "city": "RIDGEWOOD", "state": "NY", "zip": "11385-2228", "ntee": "P28", "ruling": "202311", "deductibility": "1", "assets": 331, "income": 2100, "revenue": 2100}], "LOTS": [{"ein": "113629699", "name": "NEW LOTS NEHEMIAH HOMEOWNERS ASSOCIATION", "city": "BROOKLYN", "state": "NY", "zip": "11239-2324", "ntee": "X20", "ruling": "200208", "deductibility": "2", "assets": 805196, "income": 83298, "revenue": 83298}, {"ein": "116013497", "name": "NEW LOTS PRIVATE CEMETERY ASSOCIATION", "city": "GLEN COVE", "state": "NY", "zip": "11542-3241", "ntee": "", "ruling": "194207", "deductibility": "1", "assets": 0, "income": 0, "revenue": 0}, {"ein": "116084156", "name": "NEW LOTS COMMUNITY CHURCH", "city": "BROOKLYN", "state": "NY", "zip": "11207-7312", "ntee": "", "ruling": "198601", "deductibility": "1", "assets": 0, "income": 0, "revenue": 0}, {"ein": "264814270", "name": "NEW LOTS AVENUE TRIANGULAR MERCHANTS ASSOCIATION INC", "city": "NEW ROCHELLE", "state": "NY", "zip": "10801-1505", "ntee": "Y03", "ruling": "201005", "deductibility": "2", "assets": 0, "income": 0, "revenue": 0}, {"ein": "474192903", "name": "LOTS TO THE TOTS INC", "city": "ROCHESTER", "state": "NY", "zip": "14612-4123", "ntee": "P58", "ruling": "201508", "deductibility": "1", "assets": 0, "income": 0, "revenue": 0}, {"ein": "800655150", "name": "NEW LOTS LIONS CLUB", "city": "BROOKLYN", "state": "NY", "zip": "11207-9011", "ntee": "Y42", "ruling": "201602", "deductibility": "2", "assets": 0, "income": 0, "revenue": 0}, {"ein": "822581838", "name": "NEW LOTS ISLAMIC CENTER INC", "city": "BROOKLYN", "state": "NY", "zip": "11208-1318", "ntee": "X40", "ruling": "201803", "deductibility": "1", "assets": 0, "income": 0, "revenue": 0}, {"ein": "833597197", "name": "COSGROVE LOTS", "city": "SPENCERPORT", "state": "NY", "zip": "14559-1942", "ntee": "B94", "ruling": "201905", "deductibility": "1", "assets": 0, "income": 0, "revenue": 0}], "GRUSS": [{"ein": "116003379", "name": "JOSEPH S GRUSS YESHIVA HIGH SCHOOL", "city": "BROOKLYN", "state": "NY", "zip": "11230-6209", "ntee": "", "ruling": "196206", "deductibility": "1", "assets": 0, "income": 0, "revenue": 0}, {"ein": "132969811", "name": "EMANUEL & RIANE GRUSS CHARITABLE FOUNDATION INC", "city": "NEW YORK", "state": "NY", "zip": "10075-0569", "ntee": "", "ruling": "197902", "deductibility": "1", "assets": 16178126, "income": 4667812, "revenue": 0}, {"ein": "133573461", "name": "CAROLINE & JOSEPH S GRUSS LIFE MONUMENT FUNDS INC", "city": "BROOKLYN", "state": "NY", "zip": "11232-2713", "ntee": "B120", "ruling": "199106", "deductibility": "1", "assets": 6238298, "income": 1887456, "revenue": 1887456}], "FNDTN": [{"ein": "116519669", "name": "DAVID AND ESTHER GOLDSTEIN CHARITABLE FNDTN TR UA 05181999", "city": "BROOKLYN", "state": "NY", "zip": "11204-1416", "ntee": "T22", "ruling": "200004", "deductibility": "1", "assets": 1791987, "income": 625519, "revenue": 0}, {"ein": "133051739", "name": "GRACE & BERT LYTELL & HELEN MENKEN FNDTN", "city": "WHITE PLAINS", "state": "NY", "zip": "10601-0000", "ntee": "", "ruling": "000000", "deductibility": "1", "assets": 208916, "income": 63721, "revenue": 0}, {"ein": "133525999", "name": "RALPH C MARCOVE INTERNATL UNDRSTDG THROUGH ARTS & CRAFTS FNDTN INC", "city": "NEW YORK", "state": "NY", "zip": "10022-0000", "ntee": "", "ruling": "198304", "deductibility": "1", "assets": 757946, "income": 34541, "revenue": 0}, {"ein": "133585674", "name": "EDWARD L & JOAN B STEINIGER FNDTN FOR RC CHARITABLE ED PURPOSE", "city": "NEW YORK", "state": "NY", "zip": "10013-2362", "ntee": "", "ruling": "199104", "deductibility": "1", "assets": 23612386, "income": 17344971, "revenue": 0}, {"ein": "136263835", "name": "EDUCATION & RES FNDTN OF BETTER BUS BUREAU OF METRO NY INC", "city": "NEW YORK", "state": "NY", "zip": "10016-5337", "ntee": "B99Z", "ruling": "196805", "deductibility": "1", "assets": 1240001, "income": 387600, "revenue": 387600}], "TAPPAN": [{"ein": "131893003", "name": "TAPPAN REFORMED CHURCH", "city": "TAPPAN", "state": "NY", "zip": "10983-2432", "ntee": "", "ruling": "198601", "deductibility": "1", "assets": 0, "income": 0, "revenue": 0}, {"ein": "131974005", "name": "TAPPAN FREE LIBRARY", "city": "TAPPAN", "state": "NY", "zip": "10983-2429", "ntee": "", "ruling": "196709", "deductibility": "1", "assets": 3828809, "income": 935931, "revenue": 935931}, {"ein": "133795378", "name": "TAPPAN ZEE BOOSTER CLUB INC", "city": "TAPPAN", "state": "NY", "zip": "10983-1208", "ntee": "N80Z", "ruling": "199601", "deductibility": "1", "assets": 0, "income": 0, "revenue": 0}, {"ein": "136137751", "name": "VOLUNTEER FIRE ASSOCIATION OF TAPPAN", "city": "TAPPAN", "state": "NY", "zip": "10983-0000", "ntee": "M24", "ruling": "200409", "deductibility": "1", "assets": 1575119, "income": 252852, "revenue": 210844}, {"ein": "136196075", "name": "TAPPAN WASHINGTON MEMORIAL CORPORATION", "city": "NEW YORK", "state": "NY", "zip": "10010-4102", "ntee": "A82Z", "ruling": "194502", "deductibility": "1", "assets": 156738, "income": 101347, "revenue": 101347}, {"ein": "237193654", "name": "TAPPAN ZEE THRIFT SHOP INC", "city": "PIERMONT", "state": "NY", "zip": "10968-1228", "ntee": "P29Z", "ruling": "197207", "deductibility": "1", "assets": 63426, "income": 148946, "revenue": 148946}, {"ein": "822961397", "name": "TAPPAN ZEE ATHLETIC HALL OF FAME", "city": "BLAUVELT", "state": "NY", "zip": "10913-1353", "ntee": "N60", "ruling": "202005", "deductibility": "1", "assets": 0, "income": 0, "revenue": 0}, {"ein": "870801100", "name": "TAPPAN SPAULDING MEMORIAL LIBRARY", "city": "NEWARK VALLEY", "state": "NY", "zip": "13811-0000", "ntee": "B11", "ruling": "200710", "deductibility": "1", "assets": 434309, "income": 188729, "revenue": 188729}], "CRPNTRS": [{"ein": "132583087", "name": "NEW YORK DISTRICT COUNCIL CRPNTRS APPRNTCSHP JRNYMN RETRAING EDUCA", "city": "NEW YORK", "state": "NY", "zip": "10014-7450", "ntee": "J220", "ruling": "196707", "deductibility": "1", "assets": 42152597, "income": 22807779, "revenue": 20542460}], "RENA": [{"ein": "132724410", "name": "RENA DAY CARE CENTERS INC", "city": "NEW YORK", "state": "NY", "zip": "10032-4348", "ntee": "P33Z", "ruling": "197509", "deductibility": "1", "assets": 2425916, "income": 12570159, "revenue": 12570159}], "FILMMAKER": [{"ein": "132965395", "name": "BLACK FILMMAKER FOUNDATION", "city": "NEW YORK", "state": "NY", "zip": "10038-2595", "ntee": "", "ruling": "197902", "deductibility": "1", "assets": 468281, "income": 180544, "revenue": 180544}], "VERY": [{"ein": "133005006", "name": "A VERY SPECIAL PLACE INC", "city": "STATEN ISLAND", "state": "NY", "zip": "10306-5774", "ntee": "", "ruling": "198003", "deductibility": "1", "assets": 22484336, "income": 43065801, "revenue": 43027580}, {"ein": "900370316", "name": "THINGS OF MY VERY OWN INC", "city": "SCHENECTADY", "state": "NY", "zip": "12305-0000", "ntee": "P30", "ruling": "200809", "deductibility": "1", "assets": 2223191, "income": 922424, "revenue": 916246}], "NATHANSON": [{"ein": "133030314", "name": "NATHANSON-ABRAMS FAMILY FOUNDATION", "city": "NEW YORK", "state": "NY", "zip": "10017-1815", "ntee": "", "ruling": "198007", "deductibility": "1", "assets": 89503, "income": 36611, "revenue": 0}], "WACHTELL": [{"ein": "133099901", "name": "WACHTELL LIPTON ROSEN & KATZ FOUNDATION", "city": "NEW YORK", "state": "NY", "zip": "10019-6119", "ntee": "", "ruling": "198202", "deductibility": "1", "assets": 31904315, "income": 7455199, "revenue": 0}, {"ein": "134197999", "name": "SVETLANA AND HERBERT M WACHTELL FOUNDATION", "city": "NEW YORK", "state": "NY", "zip": "10019-6119", "ntee": "T20", "ruling": "200201", "deductibility": "1", "assets": 4008968, "income": 2035634, "revenue": 0}], "RIO": [{"ein": "133171739", "name": "ABC NO RIO INC", "city": "NEW YORK", "state": "NY", "zip": "10002-3387", "ntee": "", "ruling": "199202", "deductibility": "1", "assets": 23845598, "income": 84737, "revenue": 84737}, {"ein": "237314992", "name": "RIO GRANDE UNION INC", "city": "NEW YORK", "state": "NY", "zip": "10012-3900", "ntee": "", "ruling": "197309", "deductibility": "1", "assets": 0, "income": 0, "revenue": 0}, {"ein": "452155957", "name": "BROADWAY RIO HOUSING DEVELOPMENT FUND COMPANY INC", "city": "NEW YORK", "state": "NY", "zip": "10031-8346", "ntee": "L20", "ruling": "201408", "deductibility": "2", "assets": 3454514, "income": 778647, "revenue": 778647}, {"ein": "453142126", "name": "CONGREGACION CRISTIANA EL RIO DE DIOS INC", "city": "PATTERSON", "state": "NY", "zip": "11002-0000", "ntee": "X20", "ruling": "201405", "deductibility": "1", "assets": 0, "income": 0, "revenue": 0}, {"ein": "462148626", "name": "EL RIO HOUSING DEVELOPMENT FUND CORPORATION", "city": "NEW YORK", "state": "NY", "zip": "10018-7832", "ntee": "P99", "ruling": "201408", "deductibility": "2", "assets": 1, "income": 0, "revenue": 0}, {"ein": "823049102", "name": "EL RIO II HOUSING DEVELOPMENT FUND CORPORATION", "city": "NEW YORK", "state": "NY", "zip": "10018-7832", "ntee": "L20", "ruling": "201809", "deductibility": "2", "assets": 1, "income": 0, "revenue": 0}, {"ein": "844843061", "name": "BIG BAMBU RIO GRANDE BRAVO INC", "city": "BEACON", "state": "NY", "zip": "12508-1706", "ntee": "A25", "ruling": "202202", "deductibility": "1", "assets": 1, "income": 0, "revenue": 0}], "DISPATCHERS": [{"ein": "133202350", "name": "UNIFORMED FIRE ALARM DISPATCHERS BENEVOLENT ASSOCIATION INC", "city": "WHITESTONE", "state": "NY", "zip": "11357-3099", "ntee": "", "ruling": "198611", "deductibility": "2", "assets": 230864, "income": 244457, "revenue": 244457}], "WAN": [{"ein": "133492118", "name": "TOY SUN DAI WAN BENEVOLENT ASSOCIATION INC", "city": "NEW YORK", "state": "NY", "zip": "10013-4489", "ntee": "", "ruling": "199106", "deductibility": "2", "assets": 67700, "income": 3199, "revenue": 3199}, {"ein": "134161117", "name": "LUI AND WAN FOUNDATION", "city": "NEW YORK", "state": "NY", "zip": "10016-6436", "ntee": "T22", "ruling": "200203", "deductibility": "1", "assets": 8274459, "income": 2522511, "revenue": 0}, {"ein": "202785087", "name": "WAN JOU FAMILY FOUNDATION", "city": "ROCHESTER", "state": "NY", "zip": "14623-0000", "ntee": "T22", "ruling": "200506", "deductibility": "1", "assets": 862951, "income": 42802, "revenue": 0}, {"ein": "331720441", "name": "WAN XIN FRESH HORIZONS INC", "city": "MIDDLETOWN", "state": "NY", "zip": "10940-7646", "ntee": "A99", "ruling": "202501", "deductibility": "1", "assets": 0, "income": 0, "revenue": 0}, {"ein": "873085557", "name": "JIA HE WAN SHI XING CORPORATION", "city": "STATEN ISLAND", "state": "NY", "zip": "10306-5309", "ntee": "K35", "ruling": "202201", "deductibility": "1", "assets": 0, "income": 0, "revenue": 0}], "TIMPSON": [{"ein": "133614970", "name": "TIMPSON HOUSING DEVELOPMENT FUND CORPORATION", "city": "BRONX", "state": "NY", "zip": "10455-5007", "ntee": "", "ruling": "199107", "deductibility": "1", "assets": 7049197, "income": 2579704, "revenue": 2579704}], "SAPP": [{"ein": "133632757", "name": "SAPP FAM FOUNDATION", "city": "NEW YORK", "state": "NY", "zip": "10274-0073", "ntee": "", "ruling": "199210", "deductibility": "1", "assets": 14883761, "income": 8277438, "revenue": 0}, {"ein": "943464983", "name": "KAREEM D SAPP FOUNDATION INC", "city": "HEMPSTEAD", "state": "NY", "zip": "11550-7402", "ntee": "I21", "ruling": "200908", "deductibility": "1", "assets": 0, "income": 0, "revenue": 0}], "RACIAL": [{"ein": "133694790", "name": "JEWS FOR RACIAL AND ECONOMIC JUSTICE", "city": "BROOKLYN", "state": "NY", "zip": "11205-2555", "ntee": "R20", "ruling": "199510", "deductibility": "1", "assets": 1561332, "income": 1743393, "revenue": 1706352}, {"ein": "223170707", "name": "WAYNE ACTION FOR RACIAL EQUALITY INC", "city": "SODUS", "state": "NY", "zip": "14551-0324", "ntee": "", "ruling": "199301", "deductibility": "1", "assets": 0, "income": 0, "revenue": 0}, {"ein": "262671377", "name": "CENTER FOR RACIAL JUSTICE IN EDUCATION INC", "city": "BRONX", "state": "NY", "zip": "10451-6340", "ntee": "P80", "ruling": "200901", "deductibility": "1", "assets": 272311, "income": 750225, "revenue": 750225}, {"ein": "822309274", "name": "SHOWING UP FOR RACIAL JUSTICE EDUCATION FUND INC", "city": "BUFFALO", "state": "NY", "zip": "14205-1053", "ntee": "R99", "ruling": "201907", "deductibility": "1", "assets": 2259449, "income": 3697545, "revenue": 3697545}, {"ein": "851370796", "name": "BROADWAY FOR RACIAL JUSTICE INC", "city": "BROOKLYN", "state": "NY", "zip": "11238-7405", "ntee": "A23", "ruling": "202211", "deductibility": "1", "assets": 238, "income": 97470, "revenue": 97470}, {"ein": "852570125", "name": "RACIAL BIAS DOT ORG", "city": "NEW YORK", "state": "NY", "zip": "10030-0610", "ntee": "R99", "ruling": "202010", "deductibility": "1", "assets": 0, "income": 0, "revenue": 0}, {"ein": "852841585", "name": "RACIAL EQUALITY FOR ARBITRATION LAWYERS INC", "city": "NEW YORK", "state": "NY", "zip": "10010-4705", "ntee": "A03", "ruling": "202011", "deductibility": "1", "assets": 0, "income": 0, "revenue": 0}], "SONGCATCHERS": [{"ein": "133753160", "name": "SONGCATCHERS INC", "city": "LARCHMONT", "state": "NY", "zip": "10538-2437", "ntee": "P20", "ruling": "194603", "deductibility": "1", "assets": 86640, "income": 393221, "revenue": 393221}], "DSHIKON": [{"ein": "133838937", "name": "CONGREGATION SDEI YAAKOV DSHIKON SQUARE", "city": "SPRING VALLEY", "state": "NY", "zip": "10977-1985", "ntee": "X30I", "ruling": "199604", "deductibility": "1", "assets": 0, "income": 0, "revenue": 0}], "SMILOVIC": [{"ein": "133843955", "name": "EUGENE SMILOVIC HOUSING DEVELOPMENT FUND CORPORATION", "city": "BRONX", "state": "NY", "zip": "10451-2746", "ntee": "L22Z", "ruling": "199508", "deductibility": "1", "assets": 4114733, "income": 1301422, "revenue": 1301422}], "TOYONAGA": [{"ein": "133929462", "name": "THE FRIEDMAN-KIEN AND TOYONAGA FOUNDATION INC", "city": "NEW YORK", "state": "NY", "zip": "10185-5016", "ntee": "A40Z", "ruling": "199612", "deductibility": "1", "assets": 3958955, "income": 76418, "revenue": 0}], "TIE": [{"ein": "134028054", "name": "TIE-NY LTD", "city": "NEW YORK", "state": "NY", "zip": "10016-8808", "ntee": "S41", "ruling": "199912", "deductibility": "2", "assets": 37558, "income": 163985, "revenue": 163985}, {"ein": "452388074", "name": "BOW TIE FOUNDATION", "city": "CEDARHURST", "state": "NY", "zip": "11516-0000", "ntee": "Z99", "ruling": "201310", "deductibility": "1", "assets": 0, "income": 0, "revenue": 0}], "IBLA": [{"ein": "134101767", "name": "IBLA FOUNDATION", "city": "NEW YORK", "state": "NY", "zip": "10002-4378", "ntee": "A60", "ruling": "200005", "deductibility": "1", "assets": 1218541, "income": 291788, "revenue": 291788}], "QUARRY": [{"ein": "134129864", "name": "QUARRY HILL FOUNDATION", "city": "NEW YORK", "state": "NY", "zip": "10018-3496", "ntee": "T21", "ruling": "200103", "deductibility": "1", "assets": 520847, "income": 88434, "revenue": 0}, {"ein": "161406217", "name": "STONE QUARRY HILL ART PARK INC", "city": "CAZENOVIA", "state": "NY", "zip": "13035-0251", "ntee": "A400", "ruling": "199204", "deductibility": "1", "assets": 2906677, "income": 376662, "revenue": 376662}, {"ein": "331529611", "name": "FRIENDS OF QUARRY PARK INC", "city": "HASTINGS ON HUDSON", "state": "NY", "zip": "10706-2856", "ntee": "C30", "ruling": "202410", "deductibility": "1", "assets": 0, "income": 0, "revenue": 0}, {"ein": "463167209", "name": "FRIENDS OF GRANITEVILLE QUARRY INC", "city": "STATEN ISLAND", "state": "NY", "zip": "10303-1817", "ntee": "C60", "ruling": "201409", "deductibility": "1", "assets": 0, "income": 0, "revenue": 0}, {"ein": "872976440", "name": "QUARRY FARM FOUNDATION INC", "city": "ELMIRA", "state": "NY", "zip": "14901-2085", "ntee": "T30", "ruling": "202203", "deductibility": "1", "assets": 547324, "income": 398051, "revenue": 352955}], "SALZBURG": [{"ein": "134134394", "name": "AMERICAN FRIENDS OF THE SALZBURG EASTER FESTIVAL", "city": "NEW YORK", "state": "NY", "zip": "10075-0000", "ntee": "A112", "ruling": "200102", "deductibility": "1", "assets": 443692, "income": 45547, "revenue": 45547}, {"ein": "412178546", "name": "SALZBURG FESTIVAL SOCIETY INC", "city": "NEW YORK", "state": "NY", "zip": "10022-0000", "ntee": "A126", "ruling": "200603", "deductibility": "1", "assets": 409869, "income": 868111, "revenue": 735801}], "HALAHMY": [{"ein": "134135345", "name": "ODED HALAHMY FOUNDATION FOR THE ARTS INC", "city": "NEW YORK", "state": "NY", "zip": "10012-0000", "ntee": "A90", "ruling": "200202", "deductibility": "1", "assets": 0, "income": 346000, "revenue": 346000}], "AC201665": [{"ein": "136056901", "name": "SUCC TR LYONS COMMUNITY CENTER INC UA 052956 AC201665", "city": "NEW YORK", "state": "NY", "zip": "10013-2362", "ntee": "", "ruling": "198209", "deductibility": "0", "assets": 193933, "income": 57490, "revenue": 0}], "SHERR": [{"ein": "136100738", "name": "ABRAHAM I AND JEAN SHERR FOUNDATION INC", "city": "NEW YORK", "state": "NY", "zip": "10024-0000", "ntee": "", "ruling": "196012", "deductibility": "1", "assets": 409780, "income": 35565, "revenue": 0}], "APPLEMAN": [{"ein": "136154978", "name": "APPLEMAN FOUNDATION INC", "city": "NEW YORK", "state": "NY", "zip": "10019-5890", "ntee": "", "ruling": "195303", "deductibility": "1", "assets": 31628427, "income": 10023084, "revenue": 0}], "TROUBH": [{"ein": "136178229", "name": "JEAN L & RAYMOND S TROUBH FUND", "city": "NEW YORK", "state": "NY", "zip": "10153-0000", "ntee": "", "ruling": "196407", "deductibility": "1", "assets": 44958, "income": 118261, "revenue": 0}], "REPORTERS": [{"ein": "136217854", "name": "ASSOCIATION OF SURROGATES SUPREME COURT REPORTERS WITHIN THE CITY OF", "city": "NEW YORK", "state": "NY", "zip": "10007-1402", "ntee": "", "ruling": "197701", "deductibility": "2", "assets": 1278880, "income": 628630, "revenue": 462425}, {"ein": "680313341", "name": "AMERICAN ASSOCIATION OF ELECTRONIC REPORTERS & TRANSCRIBER", "city": "NEW YORK", "state": "NY", "zip": "10017-4761", "ntee": "", "ruling": "199412", "deductibility": "2", "assets": 457113, "income": 573313, "revenue": 573313}], "SCHEFLER": [{"ein": "136270065", "name": "SYLVAN SCHEFLER TRUST FOUNDATION IRVING HANDEL & CO", "city": "NEW YORK", "state": "NY", "zip": "10028-0936", "ntee": "", "ruling": "196807", "deductibility": "1", "assets": 1338, "income": 10000, "revenue": 0}], "BIRTHNET": [{"ein": "141829036", "name": "BIRTHNET INC", "city": "ALBANY", "state": "NY", "zip": "12202-2099", "ntee": "E70", "ruling": "200204", "deductibility": "1", "assets": 0, "income": 0, "revenue": 0}], "GENESEO": [{"ein": "141916822", "name": "GENESEO PARISH OUTREACH CENTER INC", "city": "GENESEO", "state": "NY", "zip": "14454-1058", "ntee": "E32", "ruling": "200510", "deductibility": "1", "assets": 52870, "income": 172564, "revenue": 172564}, {"ein": "161185416", "name": "GENESEO COMMUNITY PLAYERS INC", "city": "GENESEO", "state": "NY", "zip": "14454-0344", "ntee": "", "ruling": "198408", "deductibility": "1", "assets": 0, "income": 0, "revenue": 0}, {"ein": "161214122", "name": "GENESEO FINGER LAKES YOUTH HOCKEY INC", "city": "GENESEO", "state": "NY", "zip": "14454-0461", "ntee": "", "ruling": "199502", "deductibility": "2", "assets": 130766, "income": 127237, "revenue": 127237}, {"ein": "166069127", "name": "INTER-FAITH CENTER OF GENESEO INC", "city": "GENESEO", "state": "NY", "zip": "14454-0292", "ntee": "", "ruling": "196608", "deductibility": "1", "assets": 0, "income": 0, "revenue": 0}, {"ein": "222235020", "name": "CHRISTIAN FELLOWSHIP OF GENESEO", "city": "GENESEO", "state": "NY", "zip": "14454-1313", "ntee": "", "ruling": "197902", "deductibility": "1", "assets": 0, "income": 0, "revenue": 0}, {"ein": "237104179", "name": "GENESEO FOUNDATION INC", "city": "GENESEO", "state": "NY", "zip": "14454-1485", "ntee": "B82Z", "ruling": "197107", "deductibility": "1", "assets": 50969844, "income": 53180207, "revenue": 4717152}, {"ein": "237438028", "name": "ASSOCIATION FOR THE PRESERVATION OF GENESEO", "city": "GENESEO", "state": "NY", "zip": "14454-0294", "ntee": "", "ruling": "197502", "deductibility": "1", "assets": 0, "income": 0, "revenue": 0}, {"ein": "264836963", "name": "GENESEO KIWANIS FOUNDATION INC", "city": "GENESEO", "state": "NY", "zip": "14454-0071", "ntee": "S82", "ruling": "200910", "deductibility": "1", "assets": 37155, "income": 60884, "revenue": 43317}, {"ein": "332475666", "name": "CHABAD OF GENESEO INC", "city": "ROCHESTER", "state": "NY", "zip": "14618-1701", "ntee": "X30", "ruling": "202501", "deductibility": "1", "assets": 0, "income": 0, "revenue": 0}, {"ein": "474465767", "name": "GENESEO CENTRAL EDUCATION FUND", "city": "GENESEO", "state": "NY", "zip": "14454-1346", "ntee": "B12", "ruling": "201507", "deductibility": "1", "assets": 0, "income": 0, "revenue": 0}, {"ein": "852870377", "name": "GENESEO GROVELAND EMERGENCY FOOD PANTRY INC", "city": "GENESEO", "state": "NY", "zip": "14454-1203", "ntee": "K31", "ruling": "202103", "deductibility": "1", "assets": 130361, "income": 96476, "revenue": 96476}, {"ein": "900887841", "name": "GENESEO YOUNG AT HEART INC", "city": "GENESEO", "state": "NY", "zip": "14454-9423", "ntee": "P81", "ruling": "201302", "deductibility": "2", "assets": 0, "income": 0, "revenue": 0}, {"ein": "993738456", "name": "GENESEO JAM FUND INC", "city": "GENESEO", "state": "NY", "zip": "14454-1306", "ntee": "A68", "ruling": "202410", "deductibility": "1", "assets": 0, "income": 0, "revenue": 0}], "BUTTERFIELD": [{"ein": "146000140", "name": "JULIA L BUTTERFIELD MEMORIAL LIBRARY", "city": "COLD SPRING", "state": "NY", "zip": "10516-2307", "ntee": "B71Z", "ruling": "196407", "deductibility": "1", "assets": 914659, "income": 442000, "revenue": 441889}, {"ein": "237366771", "name": "BUTTERFIELD LAKE COTTAGE OWNERS ASSOCIATION INC", "city": "REDWOOD", "state": "NY", "zip": "13679-0163", "ntee": "", "ruling": "199103", "deductibility": "2", "assets": 0, "income": 0, "revenue": 0}, {"ein": "884089481", "name": "RUBIO BUTTERFIELD FOUNDATION", "city": "NEW YORK", "state": "NY", "zip": "10013-2818", "ntee": "T20", "ruling": "202302", "deductibility": "1", "assets": 205407839, "income": 70440366, "revenue": 0}], "FALCONS": [{"ein": "160437054", "name": "POLISH FALCONS OF AMERICA", "city": "BATAVIA", "state": "NY", "zip": "14020-3621", "ntee": "", "ruling": "194012", "deductibility": "1", "assets": 203433, "income": 250744, "revenue": 186775}, {"ein": "160592720", "name": "POLISH FALCONS OF AMERICA", "city": "ROCHESTER", "state": "NY", "zip": "14617-0756", "ntee": "", "ruling": "194012", "deductibility": "1", "assets": 0, "income": 0, "revenue": 0}, {"ein": "160592727", "name": "POLISH FALCONS OF AMERICA", "city": "CHEEKTOWAGA", "state": "NY", "zip": "14227-1034", "ntee": "", "ruling": "194012", "deductibility": "1", "assets": 0, "income": 0, "revenue": 0}, {"ein": "237525491", "name": "POLISH FALCONS OF AMERICA", "city": "AUBURN", "state": "NY", "zip": "13021-1702", "ntee": "", "ruling": "194012", "deductibility": "1", "assets": 0, "income": 0, "revenue": 0}, {"ein": "237525546", "name": "POLISH FALCONS OF AMERICA", "city": "AUBURN", "state": "NY", "zip": "13021-4421", "ntee": "", "ruling": "194012", "deductibility": "1", "assets": 0, "income": 0, "revenue": 0}, {"ein": "237525607", "name": "POLISH FALCONS OF AMERICA", "city": "CHEEKTOWAGA", "state": "NY", "zip": "14227-1806", "ntee": "", "ruling": "194012", "deductibility": "1", "assets": 0, "income": 0, "revenue": 0}, {"ein": "264538174", "name": "LONG ISLAND FALCONS TRAVEL BASEBALL", "city": "RONKONKOMA", "state": "NY", "zip": "11779-0767", "ntee": "N63", "ruling": "200904", "deductibility": "1", "assets": 8290, "income": 87500, "revenue": 87500}, {"ein": "273856234", "name": "FINGERLAKES FALCONS TRAVEL BASEBALL CLUB INC", "city": "HORSEHEADS", "state": "NY", "zip": "14845-9224", "ntee": "N63", "ruling": "201103", "deductibility": "1", "assets": 53332, "income": 232178, "revenue": 200666}, {"ein": "331886798", "name": "WAGNER FALCONS BASKETBALL ALUMNI FUND INC", "city": "STATEN ISLAND", "state": "NY", "zip": "10314-5106", "ntee": "N11", "ruling": "202411", "deductibility": "1", "assets": 0, "income": 0, "revenue": 0}, {"ein": "521592386", "name": "POLISH FALCONS OF AMERICA", "city": "OZONE PARK", "state": "NY", "zip": "11416-1413", "ntee": "", "ruling": "194012", "deductibility": "1", "assets": 0, "income": 0, "revenue": 0}, {"ein": "812004185", "name": "FALCONER JUNIOR FALCONS YOUTH FOOTBALL PROGRAM INC", "city": "FALCONER", "state": "NY", "zip": "14733-0131", "ntee": "N65", "ruling": "201705", "deductibility": "1", "assets": 0, "income": 0, "revenue": 0}, {"ein": "842586538", "name": "BK FALCONS", "city": "BROOKLYN", "state": "NY", "zip": "11237-6180", "ntee": "N63", "ruling": "201908", "deductibility": "1", "assets": 0, "income": 0, "revenue": 0}, {"ein": "922850750", "name": "QUEENS FALCONS YOUTH FOOTBALL ORGANIZATION INC", "city": "ROSEDALE", "state": "NY", "zip": "11422-1708", "ntee": "O20", "ruling": "202303", "deductibility": "1", "assets": 14219, "income": 113962, "revenue": 113962}, {"ein": "931513280", "name": "DEER PARK FALCONS FOOTBALL", "city": "DEER PARK", "state": "NY", "zip": "11729-5412", "ntee": "N65", "ruling": "202306", "deductibility": "1", "assets": 0, "income": 0, "revenue": 0}], "CAUSEWAVE": [{"ein": "160741816", "name": "CAUSEWAVE COMMUNITY PARTNERS INC", "city": "ROCHESTER", "state": "NY", "zip": "14607-1170", "ntee": "", "ruling": "195205", "deductibility": "1", "assets": 809311, "income": 1105343, "revenue": 1105343}], "FOURTEEN": [{"ein": "160746847", "name": "FOURTEEN HOLY HELPERS", "city": "BUFFALO", "state": "NY", "zip": "14224-1311", "ntee": "", "ruling": "194603", "deductibility": "1", "assets": 0, "income": 0, "revenue": 0}, {"ein": "222378929", "name": "FOURTEEN ARNOLD AVENUE CORPORATION", "city": "UTICA", "state": "NY", "zip": "13501-3401", "ntee": "Y99", "ruling": "200906", "deductibility": "2", "assets": 1450365, "income": 56842, "revenue": 56842}, {"ein": "851342225", "name": "HERITAGE OF FOURTEEN INC", "city": "SOUTH HUNTINGTON", "state": "NY", "zip": "11746-0000", "ntee": "A70", "ruling": "202008", "deductibility": "1", "assets": 0, "income": 0, "revenue": 0}], "REDEVELOPMENT": [{"ein": "160907006", "name": "ELLICOTT COMMUNITY REDEVELOPMENT FOUNDATION INC", "city": "BUFFALO", "state": "NY", "zip": "14204-2042", "ntee": "P99", "ruling": "201706", "deductibility": "2", "assets": 773428, "income": 13428, "revenue": 13428}, {"ein": "161432250", "name": "BROOKSIDE REDEVELOPMENT COMPANY INC", "city": "LOWVILLE", "state": "NY", "zip": "13367-4144", "ntee": "L22Z", "ruling": "199308", "deductibility": "1", "assets": 4281816, "income": 96373, "revenue": 96373}, {"ein": "222315925", "name": "GOWANDA AREA REDEVELOPMENT CORP", "city": "GOWANDA", "state": "NY", "zip": "14070-1207", "ntee": "", "ruling": "198102", "deductibility": "1", "assets": 701645, "income": 2554, "revenue": 2554}, {"ein": "237165901", "name": "SUNSET PARK REDEVELOPMENT COMMITTEE INC", "city": "BROOKLYN", "state": "NY", "zip": "11220-1815", "ntee": "L20Z", "ruling": "197506", "deductibility": "1", "assets": 4108306, "income": 4549339, "revenue": 4190092}, {"ein": "831436238", "name": "CENDEVCO II REDEVELOPMENT FUND INC", "city": "NEW YORK", "state": "NY", "zip": "10001-2519", "ntee": "L40", "ruling": "202104", "deductibility": "1", "assets": 37270692, "income": 15165332, "revenue": 15165332}], "BORODINO": [{"ein": "161089443", "name": "BORODINO FIRE DEPARTMENT INC", "city": "SKANEATELES", "state": "NY", "zip": "13152-8938", "ntee": "M24", "ruling": "201106", "deductibility": "1", "assets": 339006, "income": 84370, "revenue": 66198}], "HARTW": [{"ein": "161101938", "name": "FIRST BAPTIST CHURCH OF HARTW NEW YORK SPECIAL ACCOUNT", "city": "HARTWICK", "state": "NY", "zip": "13348-0000", "ntee": "", "ruling": "199107", "deductibility": "1", "assets": 0, "income": 0, "revenue": 0}], "WESTHILL": [{"ein": "161181412", "name": "WESTHILL ELEMENTARY SCHOOLS TOGETHER", "city": "SYRACUSE", "state": "NY", "zip": "13219-2214", "ntee": "B112", "ruling": "200909", "deductibility": "1", "assets": 0, "income": 0, "revenue": 0}, {"ein": "452040216", "name": "WESTHILL BOOSTER CLUB INC", "city": "SYRACUSE", "state": "NY", "zip": "13219-3318", "ntee": "B11", "ruling": "201109", "deductibility": "1", "assets": 77548, "income": 91210, "revenue": 82271}, {"ein": "464089169", "name": "WESTHILL CENTRAL SCHOOL DISTRICT EDUCATIONAL FOUNDATION INC", "city": "SYRACUSE", "state": "NY", "zip": "13215-0073", "ntee": "B94", "ruling": "201703", "deductibility": "1", "assets": 644124, "income": 373716, "revenue": 349279}], "MOMS": [{"ein": "161309049", "name": "MOMS HOUSE OF ENDICOTT NEW YORK INC", "city": "JOHNSON CITY", "state": "NY", "zip": "13790-1036", "ntee": "P33", "ruling": "202304", "deductibility": "1", "assets": 1839990, "income": 563254, "revenue": 532025}, {"ein": "205836823", "name": "MULTIPLE MOMS MINGLE", "city": "SYRACUSE", "state": "NY", "zip": "13215-0000", "ntee": "P40", "ruling": "198210", "deductibility": "1", "assets": 0, "income": 0, "revenue": 0}, {"ein": "473372809", "name": "NB ALL STAR MOMS LEAGUE", "city": "BAY SHORE", "state": "NY", "zip": "11706-0000", "ntee": "P12", "ruling": "201503", "deductibility": "1", "assets": 0, "income": 0, "revenue": 0}, {"ein": "474357307", "name": "MOMS FOR MOMS NYC INC", "city": "BROOKLYN", "state": "NY", "zip": "11232-2013", "ntee": "P42", "ruling": "201509", "deductibility": "1", "assets": 171068, "income": 234767, "revenue": 234767}, {"ein": "510167387", "name": "LYNBROOK MOMS & DADS CLUB", "city": "LYNBROOK", "state": "NY", "zip": "11563-3352", "ntee": "", "ruling": "197510", "deductibility": "1", "assets": 0, "income": 0, "revenue": 0}, {"ein": "593791920", "name": "MOMS CLUB", "city": "N TONAWANDA", "state": "NY", "zip": "14120-1415", "ntee": "P20", "ruling": "200102", "deductibility": "1", "assets": 0, "income": 0, "revenue": 0}, {"ein": "813367612", "name": "MOMS LOVE INC", "city": "NEW YORK", "state": "NY", "zip": "10001-2507", "ntee": "P20", "ruling": "202404", "deductibility": "1", "assets": 0, "income": 0, "revenue": 0}, {"ein": "814119089", "name": "MOMS OF BLACK BOYS UNITED INC", "city": "NEW YORK", "state": "NY", "zip": "10035-1932", "ntee": "P20", "ruling": "201706", "deductibility": "1", "assets": 360128, "income": 0, "revenue": 0}, {"ein": "822123571", "name": "MOMS ON A MITZVAH INC", "city": "BROOKLYN", "state": "NY", "zip": "11229-3625", "ntee": "E01", "ruling": "201904", "deductibility": "1", "assets": 0, "income": 0, "revenue": 0}, {"ein": "831403831", "name": "MOMS CHRISTMAS STOCKING", "city": "NEW YORK", "state": "NY", "zip": "10024-1823", "ntee": "W99", "ruling": "202002", "deductibility": "1", "assets": 1, "income": 24878, "revenue": 24878}, {"ein": "832171986", "name": "MOMS CLUB", "city": "AMHERST", "state": "NY", "zip": "14226-1527", "ntee": "P20", "ruling": "200102", "deductibility": "1", "assets": 0, "income": 0, "revenue": 0}, {"ein": "834550960", "name": "OB MOMS GROUP CHARITY INC", "city": "ROCHESTER", "state": "NY", "zip": "14618-2537", "ntee": "E11", "ruling": "201908", "deductibility": "1", "assets": 52369, "income": 309866, "revenue": 286088}, {"ein": "851031242", "name": "LATINA MOMS CONNECT INC", "city": "NORTH BABYLON", "state": "NY", "zip": "11703-1116", "ntee": "A23", "ruling": "202308", "deductibility": "1", "assets": 22220, "income": 51425, "revenue": 24815}, {"ein": "851291764", "name": "MOMS WHO CARE INC", "city": "W HEMPSTEAD", "state": "NY", "zip": "11552-4006", "ntee": "B92", "ruling": "202008", "deductibility": "1", "assets": 0, "income": 0, "revenue": 0}, {"ein": "912128432", "name": "MOMS CLUB", "city": "HAILESBORO", "state": "NY", "zip": "13645-0106", "ntee": "", "ruling": "200102", "deductibility": "1", "assets": 0, "income": 0, "revenue": 0}, {"ein": "912128438", "name": "MOMS CLUB", "city": "BROCKPORT", "state": "NY", "zip": "14420-9612", "ntee": "", "ruling": "200102", "deductibility": "1", "assets": 0, "income": 0, "revenue": 0}, {"ein": "922207352", "name": "TURKISH MOMS INC", "city": "MAMARONECK", "state": "NY", "zip": "10543-1032", "ntee": "P84", "ruling": "202302", "deductibility": "1", "assets": 0, "income": 0, "revenue": 0}, {"ein": "934884356", "name": "MOMS LOVE GODS BLEST INC", "city": "RIDGEWOOD", "state": "NY", "zip": "11385-4952", "ntee": "T23", "ruling": "202505", "deductibility": "1", "assets": 0, "income": 0, "revenue": 0}, {"ein": "991674725", "name": "BASKETBALL MOMS SQUAD INC", "city": "BROOKLYN", "state": "NY", "zip": "11234-2505", "ntee": "N99", "ruling": "202403", "deductibility": "1", "assets": 0, "income": 0, "revenue": 0}, {"ein": "993615716", "name": "MOMS FIRST INC", "city": "NEW YORK", "state": "NY", "zip": "10001-0001", "ntee": "B05", "ruling": "202412", "deductibility": "1", "assets": 0, "income": 0, "revenue": 0}], "TOAD": [{"ein": "161475955", "name": "TOAD HOLLOW TRAIL RIDERS INC", "city": "SYRACUSE", "state": "NY", "zip": "13215-8642", "ntee": "N68", "ruling": "201804", "deductibility": "1", "assets": 0, "income": 0, "revenue": 0}], "JCTOD": [{"ein": "161498400", "name": "JCTOD OUTREACH INC", "city": "UTICA", "state": "NY", "zip": "13501-4439", "ntee": "L41", "ruling": "199609", "deductibility": "1", "assets": 11096048, "income": 3025679, "revenue": 2809414}], "IRONDEQUOT": [{"ein": "161505975", "name": "VINEYARD CHRISTIAN FELLOWSHIP OF IRONDEQUOT", "city": "ROCHESTER", "state": "NY", "zip": "14617-0000", "ntee": "X21", "ruling": "200208", "deductibility": "1", "assets": 0, "income": 0, "revenue": 0}], "MACINTOSH": [{"ein": "161516146", "name": "PROFESSIONAL MACINTOSH USERS GROUP INC", "city": "AMHERST", "state": "NY", "zip": "14226-7512", "ntee": "N50", "ruling": "201209", "deductibility": "2", "assets": 0, "income": 0, "revenue": 0}], "AKWAABA": [{"ein": "161566255", "name": "AKWAABA THE HERITAGE ASSOCIATES", "city": "ROCHESTER", "state": "NY", "zip": "14609-6705", "ntee": "A23", "ruling": "200102", "deductibility": "1", "assets": 0, "income": 0, "revenue": 0}], "BEEMAN": [{"ein": "166023824", "name": "MARTHA H BEEMAN TR 6-30-26 NECT", "city": "NORWICH", "state": "NY", "zip": "13815-0000", "ntee": "", "ruling": "197012", "deductibility": "0", "assets": 28265, "income": 3028, "revenue": 0}], "TRUCH": [{"ein": "166181358", "name": "TRUSTEES OF TRUCH DRIVERS AND HELPERS LOCAL 687 INSURANCE TRUST", "city": "POTSDAM", "state": "NY", "zip": "13676-1945", "ntee": "", "ruling": "197906", "deductibility": "2", "assets": 79077, "income": 35696, "revenue": 35696}], "ENCRGMNT": [{"ein": "169052173", "name": "SOCIETY FOR PRESERVATION & ENCRGMNT OF BARBERSHOP QUARTET SINGING AMER", "city": "WARSAW", "state": "NY", "zip": "14569-1428", "ntee": "", "ruling": "194605", "deductibility": "1", "assets": 0, "income": 0, "revenue": 0}, {"ein": "223198966", "name": "SOCIETY FOR PRESERVATION & ENCRGMNT OF BARBERSHOP QUARTET SINGING AMER", "city": "SARATOGA SPGS", "state": "NY", "zip": "12866-0713", "ntee": "A6B0", "ruling": "194605", "deductibility": "1", "assets": 0, "income": 0, "revenue": 0}, {"ein": "411348218", "name": "SOCIETY FOR PRESERVATION & ENCRGMNT OF BARBERSHOP QUARTET SINGING AMER", "city": "SYRACUSE", "state": "NY", "zip": "13214-2403", "ntee": "", "ruling": "194605", "deductibility": "1", "assets": 0, "income": 0, "revenue": 0}, {"ein": "463922218", "name": "SOCIETY FOR PRESERVATION ENCRGMNT OF BARBERSHOP QUARTET SINGING AMER", "city": "CARTHAGE", "state": "NY", "zip": "13619-8520", "ntee": "A6B", "ruling": "194605", "deductibility": "1", "assets": 0, "income": 0, "revenue": 0}, {"ein": "510243970", "name": "SOCIETY FOR PRESERVATION & ENCRGMNT OF BARBERSHOP QUARTET SINGING AMER", "city": "NEW HARTFORD", "state": "NY", "zip": "13413-0445", "ntee": "A6BZ", "ruling": "194605", "deductibility": "1", "assets": 0, "income": 0, "revenue": 0}, {"ein": "760496204", "name": "SOCIETY FOR PRESERVATION & ENCRGMNT OF BARBERSHOP QUARTET SINGING AMER", "city": "BINGHAMTON", "state": "NY", "zip": "13901-1716", "ntee": "", "ruling": "194605", "deductibility": "0", "assets": 0, "income": 0, "revenue": 0}, {"ein": "821012450", "name": "SOCIETY FOR PRESERVATION & ENCRGMNT OF BARBERSHOP QUARTET SINGING AMER", "city": "WEBSTER", "state": "NY", "zip": "14580-3558", "ntee": "T50", "ruling": "202303", "deductibility": "1", "assets": 0, "income": 0, "revenue": 0}, {"ein": "832197141", "name": "SOCIETY FOR PRESERVATION & ENCRGMNT OF BARBERSHOP QUARTET SINGING AMER", "city": "SCARSDALE", "state": "NY", "zip": "10583-7559", "ntee": "A6B0", "ruling": "194605", "deductibility": "1", "assets": 0, "income": 0, "revenue": 0}, {"ein": "843136668", "name": "SOCIETY FOR PRESERVATION & ENCRGMNT OF BARBERSHOP QUARTET SINGING AMER", "city": "WEBSTER", "state": "NY", "zip": "14580-3212", "ntee": "A6B0", "ruling": "194605", "deductibility": "1", "assets": 0, "income": 0, "revenue": 0}, {"ein": "900402357", "name": "SOCIETY FOR PRESERVATION & ENCRGMNT OF BARBERSHOP QUARTET SINGING AMER", "city": "CORTLANDT MNR", "state": "NY", "zip": "10567-6751", "ntee": "", "ruling": "194605", "deductibility": "1", "assets": 9775, "income": 114175, "revenue": 114175}], "COOKERY": [{"ein": "200016527", "name": "AMERICAN FRIENDS OF THE OXFORD SYMPOSIUM ON FOOD AND COOKERY", "city": "NEW YORK", "state": "NY", "zip": "10025-1819", "ntee": "K05", "ruling": "200307", "deductibility": "1", "assets": 0, "income": 0, "revenue": 0}], "BHUTAN": [{"ein": "200086744", "name": "FRIENDS OF THE BHUTAN YOUTH GOLF ASSOCIATION", "city": "NEW YORK", "state": "NY", "zip": "10025-7107", "ntee": "N6A", "ruling": "200312", "deductibility": "1", "assets": 0, "income": 0, "revenue": 0}, {"ein": "822102826", "name": "JSW BHUTAN LEGAL EDUCATION FOUNDATION", "city": "NEW YORK", "state": "NY", "zip": "10020-0000", "ntee": "B90", "ruling": "201906", "deductibility": "1", "assets": 15199, "income": 433788, "revenue": 0}, {"ein": "923731150", "name": "BHUTAN MINDFULNESS CENTER", "city": "GARRISON", "state": "NY", "zip": "10524-3709", "ntee": "P20", "ruling": "202401", "deductibility": "1", "assets": 7221, "income": 60211, "revenue": 60211}, {"ein": "931597186", "name": "BHUTAN CENTER INC", "city": "NEW YORK", "state": "NY", "zip": "10028-7148", "ntee": "X50", "ruling": "202401", "deductibility": "1", "assets": 57611, "income": 83044, "revenue": 83044}], "FRANCISCO": [{"ein": "205805208", "name": "ST JOHN OF SHANGHAI AND SAN FRANCISCO RUSSIAN ORTHODOX CHURCH", "city": "BROOKLYN", "state": "NY", "zip": "11229-3653", "ntee": "X22", "ruling": "200705", "deductibility": "1", "assets": 0, "income": 0, "revenue": 0}, {"ein": "237574128", "name": "ANCIENT ORDER OF HIBERNIANS LADIES CA SAN FRANCISCO COUNTY DIV 3", "city": "BROOKLYN", "state": "NY", "zip": "11229-4111", "ntee": "", "ruling": "201611", "deductibility": "1", "assets": 0, "income": 0, "revenue": 0}, {"ein": "851918738", "name": "WILLIAMS FRANCISCO INITIATIVE", "city": "FORT PLAIN", "state": "NY", "zip": "13339-1444", "ntee": "S20", "ruling": "202310", "deductibility": "1", "assets": 1000, "income": 150768, "revenue": 150768}, {"ein": "943031213", "name": "SAN FRANCISCO IESU NO MITAMA KYOKAI", "city": "COMMACK", "state": "NY", "zip": "11725-1125", "ntee": "", "ruling": "198706", "deductibility": "1", "assets": 0, "income": 0, "revenue": 0}, {"ein": "990487593", "name": "IGLESIA EPISCOPAL SAN FRANCISCO", "city": "RIVERHEAD", "state": "NY", "zip": "11901-2760", "ntee": "", "ruling": "197206", "deductibility": "1", "assets": 0, "income": 0, "revenue": 0}], "SMF": [{"ein": "205812333", "name": "SMF FOUNDATION-JGM INC", "city": "NEW YORK", "state": "NY", "zip": "10022-4219", "ntee": "T20", "ruling": "200612", "deductibility": "1", "assets": 3093233, "income": 479729, "revenue": 0}, {"ein": "208265149", "name": "SMF FOUNDATION JM INC", "city": "NEW YORK", "state": "NY", "zip": "10022-4219", "ntee": "T20", "ruling": "200706", "deductibility": "1", "assets": 5798368, "income": 941319, "revenue": 0}, {"ein": "273984505", "name": "SMF FOUNDATION TAM INC", "city": "NEW YORK", "state": "NY", "zip": "10022-4219", "ntee": "T22", "ruling": "201101", "deductibility": "1", "assets": 3206004, "income": 486298, "revenue": 0}, {"ein": "813437641", "name": "SMF FOUNDATION GC", "city": "NEW YORK", "state": "NY", "zip": "10022-4219", "ntee": "T20", "ruling": "201611", "deductibility": "1", "assets": 1267, "income": 300000, "revenue": 0}, {"ein": "900945135", "name": "SMF FOUNDATION LRM INC", "city": "NEW YORK", "state": "NY", "zip": "10022-4219", "ntee": "T20", "ruling": "201306", "deductibility": "1", "assets": 3214670, "income": 476994, "revenue": 0}], "ARSENAL": [{"ein": "222443176", "name": "AURORA ARSENAL SOCCER CLUB INC", "city": "EAST AURORA", "state": "NY", "zip": "14052-0132", "ntee": "N64", "ruling": "202303", "deductibility": "1", "assets": 44133, "income": 92600, "revenue": 92600}, {"ein": "923974572", "name": "HV ARSENAL SPORTS INC", "city": "RHINEBECK", "state": "NY", "zip": "12572-1010", "ntee": "N60", "ruling": "202305", "deductibility": "1", "assets": 0, "income": 0, "revenue": 0}], "BRINKMAN": [{"ein": "223038088", "name": "EARL W AND HILDAGUNDA A BRINKMAN PRIVATE CHARITABLE FND 010490", "city": "SCOTTSVILLE", "state": "NY", "zip": "14546-9601", "ntee": "", "ruling": "199010", "deductibility": "1", "assets": 49000, "income": 8416143, "revenue": 0}], "ELDERBERRY": [{"ein": "223109705", "name": "ELDERBERRY EXPRESS INC", "city": "PITTSFORD", "state": "NY", "zip": "14534-1998", "ntee": "", "ruling": "199209", "deductibility": "1", "assets": 0, "income": 0, "revenue": 0}], "THOMASES": [{"ein": "226063700", "name": "FLORENCE AND FRED THOMASES FOUNDATION", "city": "BROOKLYN", "state": "NY", "zip": "11238-6097", "ntee": "", "ruling": "194905", "deductibility": "1", "assets": 263450, "income": 12277, "revenue": 0}], "CALCIUM": [{"ein": "237196364", "name": "CALCIUM COMMUNITY CHURCH", "city": "CALCIUM", "state": "NY", "zip": "13616-0213", "ntee": "", "ruling": "195504", "deductibility": "1", "assets": 0, "income": 0, "revenue": 0}], "NCHA": [{"ein": "237297820", "name": "NEW YORK STATE ASSOCIATION OF NCHA INC", "city": "NELLISTON", "state": "NY", "zip": "13410-0051", "ntee": "", "ruling": "197306", "deductibility": "1", "assets": 0, "income": 0, "revenue": 0}], "PEACESMITHS": [{"ein": "237401205", "name": "PEACESMITHS INC", "city": "MASSAPEQUA", "state": "NY", "zip": "11758-0312", "ntee": "", "ruling": "197410", "deductibility": "1", "assets": 0, "income": 0, "revenue": 0}], "HASENKAMP": [{"ein": "256582125", "name": "HILLIARD A HASENKAMP TW 481-74411", "city": "BUFFALO", "state": "NY", "zip": "14240-1504", "ntee": "T22", "ruling": "200005", "deductibility": "1", "assets": 252657, "income": 83537, "revenue": 0}], "VITAMIN": [{"ein": "260585677", "name": "VITAMIN VACATION FUND INC", "city": "LAWRENCE", "state": "NY", "zip": "11559-2009", "ntee": "Q30", "ruling": "200709", "deductibility": "1", "assets": 0, "income": 0, "revenue": 0}, {"ein": "953173850", "name": "VITAMIN D WORKSHOP UNIVERSITY OF CALIFORNIA RIVERSIDE", "city": "RENSSELAER", "state": "NY", "zip": "12144-3448", "ntee": "", "ruling": "197801", "deductibility": "1", "assets": 107157, "income": 15000, "revenue": 0}], "NANDA": [{"ein": "261246811", "name": "NANDA THITSAR THERAVADA BUDDHISM AND MEDITATION CENTER INC", "city": "BROOKLYN", "state": "NY", "zip": "11223-3726", "ntee": "X50", "ruling": "201208", "deductibility": "1", "assets": 31952, "income": 40622, "revenue": 40622}], "NATIONA": [{"ein": "261307050", "name": "THE AMERICAN PATRONS OF THE NATIONA", "city": "NEW YORK", "state": "NY", "zip": "10001-0000", "ntee": "A23", "ruling": "200802", "deductibility": "1", "assets": 2526418, "income": 154827, "revenue": 154827}], "CRECIENDO": [{"ein": "261519921", "name": "CENTRO EDUCATIVO CRECIENDO EN GRACIA NY INC", "city": "CORONA", "state": "NY", "zip": "11368-2371", "ntee": "X21", "ruling": "200903", "deductibility": "1", "assets": 0, "income": 0, "revenue": 0}], "MILLIE": [{"ein": "262310724", "name": "BERNARD & MILLIE CHILDRENS FOUNDATION", "city": "WESTERLO", "state": "NY", "zip": "12193-2302", "ntee": "T20", "ruling": "200806", "deductibility": "1", "assets": 3066, "income": 265, "revenue": 0}, {"ein": "842801428", "name": "MILLIE DAGOSTINO SCHOLARSHIP FUND INC", "city": "RONKONKOMA", "state": "NY", "zip": "11779-3709", "ntee": "B82", "ruling": "202310", "deductibility": "1", "assets": 0, "income": 0, "revenue": 0}], "DITMAS": [{"ein": "262442377", "name": "DITMAS PARK YOUTH GROUP", "city": "BROOKLYN", "state": "NY", "zip": "11226-6719", "ntee": "O50", "ruling": "200806", "deductibility": "1", "assets": 0, "income": 0, "revenue": 0}, {"ein": "920617472", "name": "MUNA CENTER OF DITMAS PARK INC", "city": "BROOKLYN", "state": "NY", "zip": "11226-7516", "ntee": "X40", "ruling": "202506", "deductibility": "1", "assets": 0, "income": 0, "revenue": 0}], "NOMADS": [{"ein": "264045556", "name": "FRIENDS OF GLOBAL NOMADS GROUP INC", "city": "NEW YORK", "state": "NY", "zip": "10001-5580", "ntee": "Q112", "ruling": "200903", "deductibility": "1", "assets": 840181, "income": 1093143, "revenue": -7278}, {"ein": "752750127", "name": "GLOBAL NOMADS GROUP INC", "city": "NEW YORK", "state": "NY", "zip": "10001-5580", "ntee": "A30", "ruling": "199807", "deductibility": "1", "assets": 1957694, "income": 3397693, "revenue": 3397693}, {"ein": "932421311", "name": "FRIENDS OF NOMADS INC", "city": "QUEENS", "state": "NY", "zip": "11102-4049", "ntee": "Q33", "ruling": "202408", "deductibility": "1", "assets": 0, "income": 0, "revenue": 0}], "KHARAG": [{"ein": "266699099", "name": "DR KHARAG SINGH AND BHUPINDER SACHDEVA CHARITABLE FOUNDATION", "city": "PRT WASHINGTN", "state": "NY", "zip": "11050-1208", "ntee": "T20", "ruling": "200904", "deductibility": "1", "assets": 399397, "income": 97308, "revenue": 0}], "ALYSON": [{"ein": "270752188", "name": "THE EMMA ALYSON & KATE HANCE FAMILY FOUNDATION INC", "city": "FLORAL PARK", "state": "NY", "zip": "11001-2738", "ntee": "T30", "ruling": "201007", "deductibility": "1", "assets": 1007016, "income": 640475, "revenue": 484071}], "ESCUCHA": [{"ein": "273057677", "name": "DIOS ESCUCHA INC", "city": "BROOKLYN", "state": "NY", "zip": "11210-5432", "ntee": "X20", "ruling": "201701", "deductibility": "1", "assets": 0, "income": 0, "revenue": 0}], "ZHEJIANG": [{"ein": "273325793", "name": "ZHEJIANG CHAMBER OF COMMERCE IN AMERICA INC", "city": "LITTLE NECK", "state": "NY", "zip": "11363-0337", "ntee": "T31", "ruling": "201401", "deductibility": "2", "assets": 0, "income": 0, "revenue": 0}], "PUSSYCAT": [{"ein": "273406311", "name": "PUSSYCAT FOUNDATION", "city": "NEW YORK", "state": "NY", "zip": "10019-3741", "ntee": "T23", "ruling": "201012", "deductibility": "1", "assets": 98148455, "income": 46393729, "revenue": 0}], "DBEI": [{"ein": "273491101", "name": "CONG ARYE DBEI ILOA DWISHNITZA CORP", "city": "BROOKLYN", "state": "NY", "zip": "11206-4812", "ntee": "X30", "ruling": "201208", "deductibility": "1", "assets": 0, "income": 0, "revenue": 0}], "MELORHEOSTOSIS": [{"ein": "300215842", "name": "MELORHEOSTOSIS ASSOCIATION", "city": "NEW YORK", "state": "NY", "zip": "10022-8071", "ntee": "G50", "ruling": "200309", "deductibility": "1", "assets": 77507, "income": 22447, "revenue": 22447}], "LIBRA": [{"ein": "300716207", "name": "LIBRA-6 PRODUCTIONS INC", "city": "CONGERS", "state": "NY", "zip": "10920-2622", "ntee": "A20", "ruling": "202309", "deductibility": "1", "assets": 0, "income": 0, "revenue": 0}, {"ein": "873731514", "name": "LIBRA GLOBAL PHILANTHROPIES FOUNDATION INC", "city": "NEW YORK", "state": "NY", "zip": "10016-1706", "ntee": "T20", "ruling": "202205", "deductibility": "1", "assets": 364621, "income": 3948000, "revenue": 0}], "REMSENBURG": [{"ein": "311682284", "name": "REMSENBURG ACADEMY ASSOCIATION INC", "city": "REMSENBURG", "state": "NY", "zip": "11960-0372", "ntee": "A80", "ruling": "200001", "deductibility": "1", "assets": 270255, "income": 45977, "revenue": 44211}], "IBAHDOU": [{"ein": "311744058", "name": "MASJID IBAHDOU AR-RAMAN INC", "city": "BRONX", "state": "NY", "zip": "10466-3018", "ntee": "X40", "ruling": "200101", "deductibility": "1", "assets": 0, "income": 0, "revenue": 0}], "SAGA": [{"ein": "311814113", "name": "THE SAGA SOCIETY FOUNDATION INC", "city": "GRAND ISLAND", "state": "NY", "zip": "14072-1917", "ntee": "B99", "ruling": "200203", "deductibility": "1", "assets": 0, "income": 0, "revenue": 0}, {"ein": "842137303", "name": "SAGA KIDS INC", "city": "POMPEY", "state": "NY", "zip": "13138-0000", "ntee": "A01", "ruling": "201912", "deductibility": "1", "assets": 0, "income": 0, "revenue": 0}], "CITIZENSHIP": [{"ein": "331482548", "name": "CITIZENSHIP SUPPORT GROUP INC", "city": "BRONX", "state": "NY", "zip": "10453-2955", "ntee": "B90", "ruling": "202411", "deductibility": "1", "assets": 0, "income": 0, "revenue": 0}, {"ein": "332729266", "name": "CITIZENSHIP BRIDGE INC", "city": "LONG IS CITY", "state": "NY", "zip": "11101-2961", "ntee": "P84", "ruling": "202501", "deductibility": "1", "assets": 0, "income": 0, "revenue": 0}, {"ein": "844458371", "name": "INICIATIVA CIUDADANA PARA EL CAMBIO CITIZENSHIP INITIATIVE FOR THE CH", "city": "CENTRAL ISLIP", "state": "NY", "zip": "11722-3124", "ntee": "P20", "ruling": "202005", "deductibility": "1", "assets": 0, "income": 0, "revenue": 0}, {"ein": "854383582", "name": "6 DEGREES OF CITIZENSHIP INC", "city": "NEW YORK", "state": "NY", "zip": "10004-2400", "ntee": "R60", "ruling": "202201", "deductibility": "1", "assets": 0, "income": 0, "revenue": 0}], "LATE": [{"ein": "331831126", "name": "LATE KNIGHT WARRIORS", "city": "HOLTSVILLE", "state": "NY", "zip": "11742-1004", "ntee": "T12", "ruling": "202501", "deductibility": "1", "assets": 0, "income": 0, "revenue": 0}, {"ein": "822181806", "name": "HARLEM LATE NIGHT JAZZ INC", "city": "NEW YORK", "state": "NY", "zip": "10031-3624", "ntee": "A34", "ruling": "201709", "deductibility": "1", "assets": 21420, "income": 152828, "revenue": 152828}], "BENDECIDOS": [{"ein": "333465309", "name": "BENDECIDOS PARA BENDECIR", "city": "EAST MEADOW", "state": "NY", "zip": "11554-1521", "ntee": "O55", "ruling": "202502", "deductibility": "1", "assets": 0, "income": 0, "revenue": 0}], "VESHINANTOM": [{"ein": "333587253", "name": "VESHINANTOM INC", "city": "MONSEY", "state": "NY", "zip": "10952-2710", "ntee": "X30", "ruling": "202504", "deductibility": "1", "assets": 0, "income": 0, "revenue": 0}], "CODAS": [{"ein": "334190410", "name": "CODAS OF COLORS INC", "city": "BROOKLYN", "state": "NY", "zip": "11201-1876", "ntee": "B28", "ruling": "202505", "deductibility": "1", "assets": 0, "income": 0, "revenue": 0}], "CATHLEEN": [{"ein": "357160987", "name": "THOMAS E HARVEY & CATHLEEN P BLACK FOUNDATION", "city": "NEW YORK", "state": "NY", "zip": "10022-0000", "ntee": "T12", "ruling": "201707", "deductibility": "1", "assets": 1891115, "income": 833673, "revenue": 0}], "WHITETAILS": [{"ein": "363798433", "name": "WHITETAILS UNLIMITED INC", "city": "CENTRAL BRG", "state": "NY", "zip": "12035-0275", "ntee": "", "ruling": "198606", "deductibility": "1", "assets": 0, "income": 0, "revenue": 0}], "BERRIMAN": [{"ein": "451263315", "name": "PITKIN BERRIMAN HOUSING DEVELOPMENT FUND CORPORATION", "city": "BROOKLYN", "state": "NY", "zip": "11208-1203", "ntee": "L21", "ruling": "201312", "deductibility": "1", "assets": 0, "income": 0, "revenue": 0}], "TORAAS": [{"ein": "453170717", "name": "CONGREGATION TORAAS YEHUDA INC", "city": "BROOKLYN", "state": "NY", "zip": "11206-2902", "ntee": "X30", "ruling": "201312", "deductibility": "1", "assets": 0, "income": 0, "revenue": 0}], "MESILAS": [{"ein": "453267401", "name": "MESILAS BAIS YAAKOV", "city": "BROOKLYN", "state": "NY", "zip": "11215-6201", "ntee": "X30", "ruling": "201301", "deductibility": "1", "assets": 0, "income": 0, "revenue": 0}, {"ein": "831272141", "name": "CONGREGATION MESILAS HACHESED", "city": "BROOKLYN", "state": "NY", "zip": "11215-6209", "ntee": "X30", "ruling": "201909", "deductibility": "1", "assets": 0, "income": 0, "revenue": 0}, {"ein": "883458822", "name": "MESILAS INC", "city": "BROOKLYN", "state": "NY", "zip": "11219-1604", "ntee": "X20", "ruling": "202306", "deductibility": "1", "assets": 0, "income": 0, "revenue": 0}], "ENLACE": [{"ein": "454878288", "name": "ENLACE PROJECT INC", "city": "WATERVILLE", "state": "NY", "zip": "13480-1140", "ntee": "Q30", "ruling": "201405", "deductibility": "1", "assets": 28346, "income": 40090, "revenue": 40090}, {"ein": "921312514", "name": "GARIFUNA ENLACE USA AND HONDURAS INC", "city": "BRONX", "state": "NY", "zip": "10460-4304", "ntee": "B30", "ruling": "202301", "deductibility": "1", "assets": 0, "income": 0, "revenue": 0}], "UK": [{"ein": "455609993", "name": "AMERICAN FRIENDS OF THE UK CLOCKTOWER FUND INC", "city": "NEW YORK", "state": "NY", "zip": "10111-3193", "ntee": "T20", "ruling": "201409", "deductibility": "1", "assets": 22686, "income": 31000, "revenue": 0}, {"ein": "464584506", "name": "FRIENDS OF CHANA UK INC", "city": "BROOKLYN", "state": "NY", "zip": "11229-2547", "ntee": "Q12", "ruling": "201803", "deductibility": "1", "assets": 2455, "income": 58681, "revenue": 58681}, {"ein": "521828765", "name": "INSTITUTION OF CIVIL ENGINEERS UK", "city": "NEW YORK", "state": "NY", "zip": "10016-6700", "ntee": "", "ruling": "199401", "deductibility": "2", "assets": 0, "income": 0, "revenue": 0}], "NYCHCC": [{"ein": "461157385", "name": "NYCHCC INC", "city": "NYC", "state": "NY", "zip": "10029-1399", "ntee": "S20", "ruling": "201301", "deductibility": "1", "assets": 0, "income": 0, "revenue": 0}], "TRANSLATIONAL": [{"ein": "461318266", "name": "RENSSELAER CENTER FOR TRANSLATIONAL RESEARCH INC", "city": "TROY", "state": "NY", "zip": "12180-8376", "ntee": "H43", "ruling": "201510", "deductibility": "1", "assets": 27789, "income": 0, "revenue": 0}], "ROHI": [{"ein": "462739693", "name": "EL ROHI GLOBAL OUTREACH MINISTRIES", "city": "BROOKLYN", "state": "NY", "zip": "11238-3325", "ntee": "X21", "ruling": "201703", "deductibility": "1", "assets": 0, "income": 0, "revenue": 0}], "SHAPESHIFTER": [{"ein": "465346354", "name": "SHAPESHIFTER PLUS INC", "city": "BROOKLYN", "state": "NY", "zip": "11215-1308", "ntee": "A99", "ruling": "201711", "deductibility": "1", "assets": 11947, "income": 151412, "revenue": 151412}], "USHERED": [{"ein": "471503227", "name": "USHERED INTO HEALING INC", "city": "LAWRENCE", "state": "NY", "zip": "11559-4008", "ntee": "X20", "ruling": "201710", "deductibility": "1", "assets": 0, "income": 0, "revenue": 0}], "THREAT": [{"ein": "473219203", "name": "QUEENSBURY TRIPLE THREAT INC", "city": "SARATOGA SPGS", "state": "NY", "zip": "12866-3721", "ntee": "N62", "ruling": "201503", "deductibility": "1", "assets": 0, "income": 0, "revenue": 0}, {"ein": "822414772", "name": "T3 TEAM TRIPLE THREAT INC", "city": "PORT CHESTER", "state": "NY", "zip": "10573-3545", "ntee": "N60", "ruling": "201804", "deductibility": "1", "assets": 53894, "income": 207188, "revenue": 207188}], "TUCKERMAN": [{"ein": "474218823", "name": "TUCKERMAN FOUNDATION", "city": "GREAT NECK", "state": "NY", "zip": "11021-3104", "ntee": "T20", "ruling": "201702", "deductibility": "1", "assets": 1454098, "income": 793899, "revenue": 0}], "ROCKSTONE": [{"ein": "477022620", "name": "ROCKSTONE", "city": "MONSEY", "state": "NY", "zip": "10952-2858", "ntee": "T99", "ruling": "201510", "deductibility": "1", "assets": 1347, "income": 1, "revenue": 0}], "BEINGS": [{"ein": "770716198", "name": "HUMANE BEINGS INC", "city": "NEW YORK", "state": "NY", "zip": "10005-4301", "ntee": "D12", "ruling": "200809", "deductibility": "1", "assets": 0, "income": 0, "revenue": 0}, {"ein": "830804772", "name": "WELL BEINGS", "city": "NEW YORK", "state": "NY", "zip": "10113-9622", "ntee": "P20", "ruling": "201807", "deductibility": "1", "assets": 266969, "income": 1481547, "revenue": 1481547}], "PIYITO": [{"ein": "810682228", "name": "PIYITO INC", "city": "EAST ELMHURST", "state": "NY", "zip": "11370-1924", "ntee": "D20", "ruling": "201602", "deductibility": "1", "assets": 0, "income": 0, "revenue": 0}], "SHAIFE": [{"ein": "810753473", "name": "SHAIFE FOUNDATION INC", "city": "BROOKLYN", "state": "NY", "zip": "11204-1238", "ntee": "T50", "ruling": "201705", "deductibility": "1", "assets": 639485, "income": 222179, "revenue": 0}], "AKAAL": [{"ein": "811378544", "name": "AKAAL GATKA GURMAT GROUP INC", "city": "SOUTH OZONE PARK", "state": "NY", "zip": "11420-3736", "ntee": "O55", "ruling": "202212", "deductibility": "1", "assets": 0, "income": 0, "revenue": 0}], "CASCIA": [{"ein": "812984103", "name": "ROMAN CATHOLIC CHURCH OF SAINT RITA OF CASCIA AND SAINT PIUS V", "city": "BRONX", "state": "NY", "zip": "10451-5709", "ntee": "", "ruling": "194603", "deductibility": "1", "assets": 0, "income": 0, "revenue": 0}], "ASHMAN": [{"ein": "812992265", "name": "HOWARD ASHMAN TRUST FOR THEATER ARTS INC", "city": "TARRYTOWN", "state": "NY", "zip": "10591-7520", "ntee": "T20", "ruling": "201610", "deductibility": "1", "assets": 110261, "income": 16493, "revenue": 0}, {"ein": "834443197", "name": "ASHMAN LORD INC", "city": "NEW YORK", "state": "NY", "zip": "10001-7604", "ntee": "A33", "ruling": "201906", "deductibility": "1", "assets": 0, "income": 0, "revenue": 0}], "RANGJUNG": [{"ein": "820871195", "name": "RANGJUNG YESHE GOMDE NEW YORK INC", "city": "NEW YORK", "state": "NY", "zip": "10016-0370", "ntee": "X50", "ruling": "201712", "deductibility": "1", "assets": 0, "income": 0, "revenue": 0}], "LAASOT": [{"ein": "821429773", "name": "MAFLEE LAASOT INC", "city": "INWOOD", "state": "NY", "zip": "11096-2303", "ntee": "T20", "ruling": "202109", "deductibility": "1", "assets": 60922, "income": 675275, "revenue": 0}], "BIZYOUTH": [{"ein": "831799792", "name": "BIZYOUTH", "city": "WOODBURY", "state": "NY", "zip": "11797-1309", "ntee": "O53", "ruling": "201907", "deductibility": "1", "assets": 0, "income": 0, "revenue": 0}], "AMUKIM": [{"ein": "832506572", "name": "CONGREGATION MAYIM AMUKIM", "city": "BROOKLYN", "state": "NY", "zip": "11206-4940", "ntee": "X30", "ruling": "202001", "deductibility": "1", "assets": 0, "income": 0, "revenue": 0}], "GRAFICOS": [{"ein": "832988544", "name": "CIRCULO DE REPORTEROS GRAFICOS TV FILIAL USA INC", "city": "BRONX", "state": "NY", "zip": "10463-3137", "ntee": "A60", "ruling": "202002", "deductibility": "1", "assets": 322, "income": 1785, "revenue": 1785}], "LITHA": [{"ein": "834590433", "name": "LITHA SYMPHONY ORCHESTRA INC", "city": "NEW YORK", "state": "NY", "zip": "10116-8085", "ntee": "A69", "ruling": "201911", "deductibility": "1", "assets": 0, "income": 0, "revenue": 0}], "TURBAN": [{"ein": "842291583", "name": "TURBAN DAY INC", "city": "NEW YORK", "state": "NY", "zip": "10001-0000", "ntee": "X99", "ruling": "202310", "deductibility": "1", "assets": 48416, "income": 64036, "revenue": 64036}], "BITACHON": [{"ein": "843712053", "name": "1826 BITACHON FOUNDATION", "city": "FLUSHING", "state": "NY", "zip": "11367-2823", "ntee": "Z99", "ruling": "201912", "deductibility": "1", "assets": 1, "income": 1, "revenue": 0}], "HSMH": [{"ein": "844447810", "name": "FRIENDS OF HSMH INC", "city": "OLD WESTBURY", "state": "NY", "zip": "11568-1115", "ntee": "B84", "ruling": "202110", "deductibility": "1", "assets": 1191689, "income": 1291559, "revenue": 1259547}], "HARKYS": [{"ein": "851035267", "name": "HARKYS HEROES FOR KIDS INC", "city": "GUILDERLAND", "state": "NY", "zip": "12084-9770", "ntee": "P20", "ruling": "202006", "deductibility": "1", "assets": 0, "income": 0, "revenue": 0}], "FISHERMENS": [{"ein": "852583668", "name": "SHANE PINARD FUTURE FISHERMENS FOUNDATION", "city": "CANASTOTA", "state": "NY", "zip": "13032-0498", "ntee": "T30", "ruling": "202102", "deductibility": "1", "assets": 23059, "income": 11808, "revenue": 5974}], "TRANSLASH": [{"ein": "853318942", "name": "TRANSLASH MEDIA INC", "city": "BROOKLYN", "state": "NY", "zip": "11216-6227", "ntee": "P88", "ruling": "202103", "deductibility": "1", "assets": 1629895, "income": 2507727, "revenue": 2507727}], "VALVE": [{"ein": "853443532", "name": "HEART VALVE COLLABORATORY INC", "city": "NEW YORK", "state": "NY", "zip": "10019-7733", "ntee": "G05", "ruling": "202106", "deductibility": "1", "assets": 85401, "income": 163333, "revenue": 163333}], "ABOLARIN": [{"ein": "853586262", "name": "MULIKAT GBENUADE ABOLARIN MEMORIAL FOUNDATION INC", "city": "BROOKLYN", "state": "NY", "zip": "11208-2504", "ntee": "P12", "ruling": "202104", "deductibility": "1", "assets": 0, "income": 0, "revenue": 0}], "DAPPLE": [{"ein": "861293763", "name": "A DAPPLE A DAY EQUINE CENTER", "city": "QUEENSBURY", "state": "NY", "zip": "12804-7622", "ntee": "H80", "ruling": "202108", "deductibility": "1", "assets": 12202, "income": 109440, "revenue": 109440}], "NOFO": [{"ein": "861876516", "name": "LETIP OF NOFO", "city": "MATTITUCK", "state": "NY", "zip": "11952-0901", "ntee": "S41", "ruling": "202210", "deductibility": "2", "assets": 0, "income": 0, "revenue": 0}], "HUNNY": [{"ein": "863246144", "name": "HUNNY BUNNYS SECRET SANCTUARY INC", "city": "AMSTERDAM", "state": "NY", "zip": "12010-6810", "ntee": "D20", "ruling": "202108", "deductibility": "1", "assets": 320, "income": 6892, "revenue": 6892}], "IABYA": [{"ein": "863578225", "name": "IABYA INC", "city": "TUCKAHOE", "state": "NY", "zip": "10707-1319", "ntee": "P20", "ruling": "202108", "deductibility": "1", "assets": 0, "income": 0, "revenue": 0}], "IVM": [{"ein": "874326877", "name": "IVM FOUNDATION", "city": "RHINEBECK", "state": "NY", "zip": "12572-1965", "ntee": "T20", "ruling": "202207", "deductibility": "1", "assets": 1109184, "income": 1281077, "revenue": 0}], "BJORNDAHL": [{"ein": "874393940", "name": "BJORNDAHL FOUNDATION FOR TRAUMATIC BRAIN INJURY INC", "city": "CORAM", "state": "NY", "zip": "11727-1912", "ntee": "E12", "ruling": "202206", "deductibility": "1", "assets": 152, "income": 3252, "revenue": 3252}], "CAPTURE": [{"ein": "881796646", "name": "DIRECT AIR CAPTURE COALITION INC", "city": "NEW YORK", "state": "NY", "zip": "10010-3048", "ntee": "C20", "ruling": "202309", "deductibility": "1", "assets": 368135, "income": 590391, "revenue": 590391}], "REMEMBER7LOAVES": [{"ein": "882504674", "name": "REMEMBER7LOAVES INC", "city": "ROCHESTER", "state": "NY", "zip": "14603-1198", "ntee": "S20", "ruling": "202207", "deductibility": "1", "assets": 0, "income": 0, "revenue": 0}], "DVERETZKY": [{"ein": "883196940", "name": "YAD YECHESKEL DVERETZKY FOUNDATION", "city": "BROOKLYN", "state": "NY", "zip": "11230-4735", "ntee": "X30", "ruling": "202303", "deductibility": "1", "assets": 0, "income": 0, "revenue": 0}], "WNYG7": [{"ein": "883617987", "name": "WNYG7 FOUNDATION", "city": "BUFFALO", "state": "NY", "zip": "14224-1824", "ntee": "O50", "ruling": "202311", "deductibility": "1", "assets": 0, "income": 0, "revenue": 0}], "GBARPOLU": [{"ein": "920675326", "name": "GBARPOLU COUNTY ASSOCIATION IN THE AMERICAS", "city": "STATEN ISLAND", "state": "NY", "zip": "10304-3650", "ntee": "T30", "ruling": "202210", "deductibility": "1", "assets": 0, "income": 0, "revenue": 0}], "SAKHA": [{"ein": "920946604", "name": "SAKHA UVELWANO", "city": "NEW YORK", "state": "NY", "zip": "10023-9672", "ntee": "B90", "ruling": "202301", "deductibility": "1", "assets": 0, "income": 0, "revenue": 0}, {"ein": "994158710", "name": "SAKHA NY ASSOCIATION INC", "city": "BROOKLYN", "state": "NY", "zip": "11204-5945", "ntee": "A23", "ruling": "202408", "deductibility": "1", "assets": 0, "income": 0, "revenue": 0}], "JAMEA": [{"ein": "922242489", "name": "JAMEA AL KAUTHAR NYC INC", "city": "JACKSON HTS", "state": "NY", "zip": "11372-3922", "ntee": "X40", "ruling": "202306", "deductibility": "1", "assets": 275884, "income": 275884, "revenue": 275884}], "MENDOCINO": [{"ein": "922349759", "name": "MENDOCINO GRANTS INC", "city": "NEW YORK", "state": "NY", "zip": "10036-0000", "ntee": "T20", "ruling": "202505", "deductibility": "1", "assets": 5115, "income": 1, "revenue": 0}], "ADORACAO": [{"ein": "922452438", "name": "MINISTERIO CATEDRAL DE ADORACAO INC", "city": "HARRISON", "state": "NY", "zip": "10528-3606", "ntee": "X20", "ruling": "202404", "deductibility": "1", "assets": 18692, "income": 211978, "revenue": 211978}], "HOS": [{"ein": "922495336", "name": "HOS FOUNDATION INC", "city": "NEW YORK", "state": "NY", "zip": "10030-2588", "ntee": "W70", "ruling": "202305", "deductibility": "1", "assets": 0, "income": 0, "revenue": 0}], "FOLKLIFE": [{"ein": "923131797", "name": "CATSKILL FOLKLIFE CENTER OF GRAND GORGE INC", "city": "GRAND GORGE", "state": "NY", "zip": "12434-1358", "ntee": "A20", "ruling": "202303", "deductibility": "1", "assets": 0, "income": 0, "revenue": 0}], "GADLUS": [{"ein": "923889786", "name": "YESHIVA GADLUS HATORAH", "city": "POMONA", "state": "NY", "zip": "10970-2626", "ntee": "X30", "ruling": "202401", "deductibility": "1", "assets": 0, "income": 0, "revenue": 0}], "RELATION": [{"ein": "923893517", "name": "STUDENT AND COMMUNITY RELATION OFFICERS", "city": "BAY SHORE", "state": "NY", "zip": "11706-3424", "ntee": "S20", "ruling": "202306", "deductibility": "1", "assets": 0, "income": 0, "revenue": 0}], "KREPPEIN": [{"ein": "926596716", "name": "JEFFERSON CENTRAL SCHOOL TUW LOTTE KREPPEIN", "city": "ONEONTA", "state": "NY", "zip": "13820-2502", "ntee": "B82", "ruling": "202411", "deductibility": "1", "assets": 222535, "income": 61058, "revenue": 0}, {"ein": "926598818", "name": "COBLESKILL REGIONAL HOSPITAL TUW LOTTE KREPPEIN", "city": "ONEONTA", "state": "NY", "zip": "13820-2502", "ntee": "E20", "ruling": "202506", "deductibility": "1", "assets": 656791, "income": 154131, "revenue": 0}], "URVET": [{"ein": "931603528", "name": "URVET CARE PATIENT ASSISTANCE FUND INC", "city": "NEW YORK", "state": "NY", "zip": "10021-3303", "ntee": "D40", "ruling": "202403", "deductibility": "1", "assets": 0, "income": 0, "revenue": 0}], "SCHOLARZ": [{"ein": "932369256", "name": "STREET SCHOLARZ CORPORATION", "city": "BROOKLYN", "state": "NY", "zip": "11216-1303", "ntee": "P73", "ruling": "202402", "deductibility": "1", "assets": 0, "income": 0, "revenue": 0}], "CAROLINES": [{"ein": "933207652", "name": "CAROLINES CHILDREN", "city": "VICTOR", "state": "NY", "zip": "14564-8822", "ntee": "O50", "ruling": "202312", "deductibility": "1", "assets": 0, "income": 0, "revenue": 0}], "LUMETRA": [{"ein": "942918600", "name": "LUMETRA HEALTHCARE SOLUTIONS", "city": "NEW HYDE PARK", "state": "NY", "zip": "11042-0000", "ntee": "", "ruling": "198603", "deductibility": "2", "assets": 2127353, "income": 1075255, "revenue": 1075255}], "EASTERNNAIRES": [{"ein": "990513084", "name": "ELECTRIFYING EASTERNNAIRES", "city": "WHITE PLAINS", "state": "NY", "zip": "10606-2807", "ntee": "X11", "ruling": "202411", "deductibility": "1", "assets": 0, "income": 0, "revenue": 0}], "MANALI": [{"ein": "992309856", "name": "CHABAD MANALI INDIA INC", "city": "BROOKLYN", "state": "NY", "zip": "11225-4405", "ntee": "X30", "ruling": "202404", "deductibility": "1", "assets": 0, "income": 0, "revenue": 0}]}