{"NATALIE": [{"ein": "010635531", "name": "NATALIE BAILEY & HERBERT J KIRSHNER FOUNDATION", "city": "WOODBURY", "state": "NY", "zip": "11797-0000", "ntee": "T22", "ruling": "200206", "deductibility": "1", "assets": 2331850, "income": 996370, "revenue": 0}, {"ein": "133316233", "name": "THE RICHARD AND NATALIE JACOFF FOUNDATION INC", "city": "SEVEN TIMES SQ NY", "state": "NY", "zip": "10036-0000", "ntee": "", "ruling": "198603", "deductibility": "1", "assets": 8931896, "income": 1419793, "revenue": 0}, {"ein": "133976351", "name": "DAVID MERRICK AND NATALIE LLOYD FOUNDATION INC", "city": "NEW YORK", "state": "NY", "zip": "10123-1308", "ntee": "A60Z", "ruling": "199803", "deductibility": "1", "assets": 1, "income": 1, "revenue": 0}, {"ein": "431956680", "name": "NATALIE BRUNO SQUASSI CANCER FOUNDATION", "city": "NEW YORK", "state": "NY", "zip": "10021-3167", "ntee": "G113", "ruling": "200207", "deductibility": "1", "assets": 0, "income": 0, "revenue": 0}, {"ein": "475173998", "name": "NATALIE FOUNDATION INC", "city": "BETHPAGE", "state": "NY", "zip": "11714-6225", "ntee": "O50", "ruling": "201512", "deductibility": "1", "assets": 0, "income": 0, "revenue": 0}, {"ein": "510552367", "name": "NATALIE L CARROLL CHARITABLE FOUNDATION", "city": "SUFFERN", "state": "NY", "zip": "10901-3825", "ntee": "D20", "ruling": "200604", "deductibility": "1", "assets": 293104, "income": 10675, "revenue": 0}, {"ein": "656319168", "name": "THE SAMUEL AND NATALIE LIPSETT FOUNDATION", "city": "NEW YORK", "state": "NY", "zip": "10020-1300", "ntee": "T22", "ruling": "200004", "deductibility": "1", "assets": 69261, "income": 41118, "revenue": 0}, {"ein": "814087154", "name": "CF TEAM NATALIE", "city": "WYOMING", "state": "NY", "zip": "14591-9730", "ntee": "E12", "ruling": "201706", "deductibility": "1", "assets": 0, "income": 0, "revenue": 0}, {"ein": "833290256", "name": "BRIANA NATALIE BROWN FOUNDATION INC", "city": "NEW CITY", "state": "NY", "zip": "10956-7102", "ntee": "T50", "ruling": "201903", "deductibility": "1", "assets": 0, "income": 0, "revenue": 0}, {"ein": "846780254", "name": "NAFTALI AND NATALIE ZANZIPER FOUNDATION", "city": "BROOKLYN", "state": "NY", "zip": "11210-5226", "ntee": "T22", "ruling": "202107", "deductibility": "1", "assets": 99149, "income": 2116000, "revenue": 0}], "INWOOD": [{"ein": "010946106", "name": "VOLUNTEER AND EXEMPT FIREMANS BENEVOLENT ASSN OF INWOOD", "city": "LAWRENCE", "state": "NY", "zip": "11559-0081", "ntee": "Y44", "ruling": "201005", "deductibility": "2", "assets": 1068617, "income": 95264, "revenue": 95264}, {"ein": "110908748", "name": "INWOOD COUNTRY CLUB", "city": "INWOOD", "state": "NY", "zip": "11096-1112", "ntee": "", "ruling": "193410", "deductibility": "2", "assets": 10669817, "income": 8761051, "revenue": 7803730}, {"ein": "112526997", "name": "THE COMMUNITY BIBLE CHURCH OF INWOOD", "city": "INWOOD", "state": "NY", "zip": "11096-1365", "ntee": "", "ruling": "199008", "deductibility": "1", "assets": 0, "income": 0, "revenue": 0}, {"ein": "112692159", "name": "ST JOHNS BAPTIST CHURCH OF INWOOD LONG ISLAND NEW YORK", "city": "INWOOD", "state": "NY", "zip": "11096-2213", "ntee": "", "ruling": "200109", "deductibility": "1", "assets": 0, "income": 0, "revenue": 0}, {"ein": "112834978", "name": "INWOOD VETERANS I V A INC", "city": "CEDARHURST", "state": "NY", "zip": "11516-2227", "ntee": "", "ruling": "198803", "deductibility": "2", "assets": 2428867, "income": 130888, "revenue": 129742}, {"ein": "113473992", "name": "INWOOD COUNTRY CLUB CHARITIES FUND INC", "city": "INWOOD", "state": "NY", "zip": "11096-1112", "ntee": "T12", "ruling": "200110", "deductibility": "1", "assets": 0, "income": 0, "revenue": 0}, {"ein": "116079119", "name": "INWOOD BUCCANEERS ATHLETIC CLUB", "city": "INWOOD", "state": "NY", "zip": "11096-0000", "ntee": "N60Z", "ruling": "196704", "deductibility": "1", "assets": 1, "income": 0, "revenue": 0}, {"ein": "132944830", "name": "WASHINGTON HEIGHTS INWOOD PRESERVATION AND RESTORATION CORPO", "city": "NEW YORK", "state": "NY", "zip": "10033-2300", "ntee": "S220", "ruling": "197905", "deductibility": "1", "assets": 2658394, "income": 1482895, "revenue": 1482895}, {"ein": "132950346", "name": "WASHINGTON HEIGHTS AND INWOOD DEVELOPMENT CORPORATION", "city": "NEW YORK", "state": "NY", "zip": "10033-0000", "ntee": "S31Z", "ruling": "197902", "deductibility": "1", "assets": 221875, "income": 332663, "revenue": 332663}, {"ein": "133087407", "name": "INWOOD COMMUNITY SERVICES INC", "city": "NEW YORK", "state": "NY", "zip": "10034-5003", "ntee": "P200", "ruling": "198206", "deductibility": "1", "assets": 7353092, "income": 9073063, "revenue": 9073063}, {"ein": "202526118", "name": "INWOOD CIVIC ASSOCIATION INC", "city": "INWOOD", "state": "NY", "zip": "11096-1345", "ntee": "S20", "ruling": "202405", "deductibility": "2", "assets": 0, "income": 0, "revenue": 0}, {"ein": "222477459", "name": "INWOOD CANOE CLUB OF NEW YORK INC", "city": "NEW YORK", "state": "NY", "zip": "10034-0562", "ntee": "N50", "ruling": "202303", "deductibility": "2", "assets": 449108, "income": 28831, "revenue": 28831}, {"ein": "271874838", "name": "BAIS TEFILA OF INWOOD", "city": "INWOOD", "state": "NY", "zip": "11096-1021", "ntee": "X30", "ruling": "201007", "deductibility": "1", "assets": 0, "income": 0, "revenue": 0}, {"ein": "271936773", "name": "INWOOD ACADEMY FOR LEADERSHIP CHARTER SCHOOL", "city": "NEW YORK", "state": "NY", "zip": "10034-0000", "ntee": "B29", "ruling": "201106", "deductibility": "1", "assets": 62953801, "income": 26931858, "revenue": 26931858}, {"ein": "274716122", "name": "INWOOD FIRE DEPARTMENT OF INWOOD NASSAU COUNTY NY", "city": "INWOOD", "state": "NY", "zip": "11096-2124", "ntee": "M24", "ruling": "201312", "deductibility": "1", "assets": 728747, "income": 182012, "revenue": 47598}, {"ein": "333716376", "name": "WASHINGTON HEIGHTS-INWOOD MASK BLOC", "city": "NEW YORK", "state": "NY", "zip": "10040-4249", "ntee": "P20", "ruling": "202504", "deductibility": "1", "assets": 0, "income": 0, "revenue": 0}, {"ein": "461041417", "name": "INWOOD UNITED SOCCER CLUB INC", "city": "INWOOD", "state": "NY", "zip": "11096-1411", "ntee": "N64", "ruling": "201307", "deductibility": "1", "assets": 0, "income": 0, "revenue": 0}, {"ein": "463689061", "name": "RIVERSIDE-INWOOD NEIGHBORHOOD GARDENS", "city": "NEW YORK", "state": "NY", "zip": "10034-0000", "ntee": "C41", "ruling": "201703", "deductibility": "1", "assets": 0, "income": 0, "revenue": 0}, {"ein": "465148568", "name": "CHABAD OF INWOOD INC", "city": "NEW YORK", "state": "NY", "zip": "10034-2039", "ntee": "X30", "ruling": "201509", "deductibility": "1", "assets": 0, "income": 0, "revenue": 0}, {"ein": "465299137", "name": "CENTRO BIBLICO DE INWOOD INC", "city": "INWOOD", "state": "NY", "zip": "11096-1365", "ntee": "X20", "ruling": "201410", "deductibility": "1", "assets": 0, "income": 0, "revenue": 0}, {"ein": "510192497", "name": "INWOOD BAPTIST CHURCH", "city": "NEW YORK", "state": "NY", "zip": "10034-5359", "ntee": "", "ruling": "197607", "deductibility": "1", "assets": 0, "income": 0, "revenue": 0}, {"ein": "814379932", "name": "INWOOD ART WORKS", "city": "NEW YORK", "state": "NY", "zip": "10034-1382", "ntee": "A20", "ruling": "201708", "deductibility": "1", "assets": 515392, "income": 424781, "revenue": 421513}, {"ein": "821870534", "name": "FRIENDS OF INWOOD ACADEMY FOR LEADERSHIP CHARTER SCHOOL INC", "city": "NEW YORK", "state": "NY", "zip": "10034-0000", "ntee": "B90", "ruling": "202305", "deductibility": "1", "assets": 45468470, "income": 3611851, "revenue": 3611851}, {"ein": "833297141", "name": "SOCCER COMMUNITY OF INWOOD INC", "city": "NEW YORK", "state": "NY", "zip": "10034-0705", "ntee": "N64", "ruling": "201908", "deductibility": "1", "assets": 0, "income": 0, "revenue": 0}, {"ein": "843395768", "name": "INWOOD MERCHANT ASSOCIATION INC", "city": "NEW YORK", "state": "NY", "zip": "10033-5012", "ntee": "", "ruling": "202112", "deductibility": "0", "assets": 749038, "income": 985275, "revenue": 985275}, {"ein": "844612678", "name": "INWOOD FOUNDATION", "city": "SCARSDALE", "state": "NY", "zip": "10583-1817", "ntee": "T23", "ruling": "202007", "deductibility": "1", "assets": 1030791, "income": 294842, "revenue": 0}, {"ein": "850614317", "name": "BRC INWOOD I HOUSING DEVELOPMENT FUND CORPORATION", "city": "NEW YORK", "state": "NY", "zip": "10001-7243", "ntee": "L41", "ruling": "202107", "deductibility": "1", "assets": 0, "income": 0, "revenue": 0}, {"ein": "900591952", "name": "JEWISH COMMUNITY CENTER OF INWOOD", "city": "INWOOD", "state": "NY", "zip": "11096-1104", "ntee": "X30", "ruling": "201608", "deductibility": "1", "assets": 0, "income": 0, "revenue": 0}, {"ein": "922161502", "name": "HELP INWOOD HOUSING DEVELOPMENT FUND CORPORATION", "city": "NEW YORK", "state": "NY", "zip": "10003-5305", "ntee": "L21", "ruling": "202501", "deductibility": "1", "assets": 0, "income": 0, "revenue": 0}], "PEEKSKILL": [{"ein": "020717334", "name": "GARDEN CLUB OF PEEKSKILL", "city": "LK PEEKSKILL", "state": "NY", "zip": "10537-1205", "ntee": "C42", "ruling": "202304", "deductibility": "1", "assets": 0, "income": 0, "revenue": 0}, {"ein": "050573375", "name": "COMPREHENSIVE ACTION MODEL FOR PEEKSKILL INC", "city": "NEW WINDSOR", "state": "NY", "zip": "12553-5419", "ntee": "B12", "ruling": "201803", "deductibility": "1", "assets": 52646, "income": 96094, "revenue": 96094}, {"ein": "132885457", "name": "PEEKSKILL MUSEUM", "city": "PEEKSKILL", "state": "NY", "zip": "10566-0084", "ntee": "", "ruling": "197810", "deductibility": "1", "assets": 448839, "income": 22802, "revenue": 22802}, {"ein": "133217543", "name": "PEEKSKILL ASSEMBLY OF GOD", "city": "PEEKSKILL", "state": "NY", "zip": "10566-0249", "ntee": "", "ruling": "196408", "deductibility": "1", "assets": 0, "income": 0, "revenue": 0}, {"ein": "133352053", "name": "THE PRESERVATION COMPANY OF THE PEEKSKILL AREA HEALTH CENTER INC", "city": "PEEKSKILL", "state": "NY", "zip": "10566-2913", "ntee": "", "ruling": "198805", "deductibility": "1", "assets": 3370300, "income": 634539, "revenue": 521684}, {"ein": "133404669", "name": "FAMILY RESOURCE CENTER OF PEEKSKILL INC", "city": "PEEKSKILL", "state": "NY", "zip": "10566-0302", "ntee": "L200", "ruling": "198911", "deductibility": "1", "assets": 5841268, "income": 1484645, "revenue": 1484645}, {"ein": "133437332", "name": "CARING FOR THE HOMELESS OF PEEKSKILL INC", "city": "PEEKSKILL", "state": "NY", "zip": "10566-2062", "ntee": "", "ruling": "199304", "deductibility": "1", "assets": 996351, "income": 3047393, "revenue": 3047393}, {"ein": "133465386", "name": "PEEKSKILL INTERFAITH HOUSING CORPORATION", "city": "ELMSFORD", "state": "NY", "zip": "10523-0000", "ntee": "", "ruling": "198809", "deductibility": "1", "assets": 1, "income": 1, "revenue": 0}, {"ein": "133497515", "name": "REFUGE CHURCH OF CHRIST BIBLEWAY WORLDWIDE INC OF PEEKSKILL NEW YOR", "city": "PEEKSKILL", "state": "NY", "zip": "10566-2015", "ntee": "X20Z", "ruling": "199808", "deductibility": "1", "assets": 0, "income": 0, "revenue": 0}, {"ein": "133500771", "name": "PEEKSKILL SENIOR CITIZENS HOUSING DEVELOPMENT FUND CORPORATION", "city": "ELMSFORD", "state": "NY", "zip": "10523-0000", "ntee": "L210", "ruling": "199307", "deductibility": "1", "assets": 831619, "income": 20333, "revenue": 20333}, {"ein": "133636897", "name": "PEEKSKILL CSD PTO", "city": "PEEKSKILL", "state": "NY", "zip": "10566-3401", "ntee": "B94", "ruling": "199804", "deductibility": "1", "assets": 0, "income": 0, "revenue": 0}, {"ein": "133847941", "name": "ST PATRICKS PARADE COMMITTEE OF PEEKSKILL INC", "city": "PEEKSKILL", "state": "NY", "zip": "10566-0135", "ntee": "A84", "ruling": "202312", "deductibility": "2", "assets": 14345, "income": 38964, "revenue": 38964}, {"ein": "134114570", "name": "PEEKSKILL-CORTLANDT AMATEUR RADIO ASSOCIATION INC", "city": "CROMPOND", "state": "NY", "zip": "10517-0146", "ntee": "M20", "ruling": "201807", "deductibility": "1", "assets": 0, "income": 0, "revenue": 0}, {"ein": "136114242", "name": "AUXILIARY OF THE HUDSON VALLEY HOSPITAL CENTER AT PEEKSKILL-CORTL", "city": "CORTLANDT MNR", "state": "NY", "zip": "10567-4144", "ntee": "", "ruling": "196209", "deductibility": "1", "assets": 88856, "income": 110502, "revenue": 53494}, {"ein": "136163016", "name": "PEEKSKILL ROTARY CLUB INC", "city": "PEEKSKILL", "state": "NY", "zip": "10566-0344", "ntee": "S80", "ruling": "201406", "deductibility": "2", "assets": 36854, "income": 75369, "revenue": 75369}, {"ein": "136272084", "name": "PEEKSKILL COMMUNITY VOLUNTEER AMBULANCE CORP", "city": "PEEKSKILL", "state": "NY", "zip": "10566-0173", "ntee": "", "ruling": "196806", "deductibility": "1", "assets": 2576060, "income": 1762466, "revenue": 1287535}, {"ein": "136737088", "name": "PEEKSKILL EMPLOYEES BENEFIT FUND TR", "city": "PEEKSKILL", "state": "NY", "zip": "10566-3402", "ntee": "", "ruling": "197710", "deductibility": "2", "assets": 605750, "income": 976367, "revenue": 976367}, {"ein": "237424194", "name": "PEEKSKILL POLICE ASSOC INC", "city": "PEEKSKILL", "state": "NY", "zip": "10566-2181", "ntee": "J40", "ruling": "200003", "deductibility": "2", "assets": 226858, "income": 155626, "revenue": 91095}, {"ein": "262718551", "name": "PEEKSKILL ROTARY CLUB FOUNDATION INC", "city": "PEEKSKILL", "state": "NY", "zip": "10566-0344", "ntee": "T99", "ruling": "201409", "deductibility": "1", "assets": 571706, "income": 161583, "revenue": 161583}, {"ein": "273217238", "name": "LINCOLN SOCIETY IN PEEKSKILL", "city": "PEEKSKILL", "state": "NY", "zip": "10566-8497", "ntee": "A80", "ruling": "201409", "deductibility": "1", "assets": 0, "income": 0, "revenue": 0}, {"ein": "331715836", "name": "CORTLANDT-PEEKSKILL RPS INC", "city": "CORTLANDT MNR", "state": "NY", "zip": "10567-2626", "ntee": "E62", "ruling": "202505", "deductibility": "1", "assets": 0, "income": 0, "revenue": 0}, {"ein": "383920096", "name": "BIRTHRIGHT OF PEEKSKILL INC", "city": "PEEKSKILL", "state": "NY", "zip": "10566-0468", "ntee": "P30", "ruling": "201409", "deductibility": "1", "assets": 102902, "income": 127049, "revenue": 124308}, {"ein": "432007574", "name": "PEEKSKILL CHRISTIAN CENTER", "city": "PEEKSKILL", "state": "NY", "zip": "10566-2303", "ntee": "X21", "ruling": "200804", "deductibility": "1", "assets": 0, "income": 0, "revenue": 0}, {"ein": "462645662", "name": "PEEKSKILL ARTS ALLIANCE INC", "city": "PEEKSKILL", "state": "NY", "zip": "10566-0840", "ntee": "A20", "ruling": "201410", "deductibility": "1", "assets": 0, "income": 0, "revenue": 0}, {"ein": "474449409", "name": "BY GODS GRACE MINISTRIES - PEEKSKILL", "city": "PEEKSKILL", "state": "NY", "zip": "10566-3312", "ntee": "X20", "ruling": "201903", "deductibility": "1", "assets": 0, "income": 0, "revenue": 0}, {"ein": "562619435", "name": "THE PEEKSKILL HIGH SCHOOL SCHOLARSHIP FUND INC", "city": "PEEKSKILL", "state": "NY", "zip": "10566-0827", "ntee": "B82", "ruling": "200805", "deductibility": "1", "assets": 187098, "income": 23792, "revenue": 0}, {"ein": "813299580", "name": "PEEKSKILL HISPANIC COMMUNITY CORP", "city": "PEEKSKILL", "state": "NY", "zip": "10566-0296", "ntee": "P01", "ruling": "202203", "deductibility": "1", "assets": 623, "income": 71999, "revenue": 71999}, {"ein": "820566733", "name": "PEEKSKILL EDUCATION FOUNDATION", "city": "PEEKSKILL", "state": "NY", "zip": "10566-0489", "ntee": "B112", "ruling": "200306", "deductibility": "1", "assets": 0, "income": 0, "revenue": 0}, {"ein": "834384255", "name": "PEEKSKILL PRIDE INC", "city": "PEEKSKILL", "state": "NY", "zip": "10566-2058", "ntee": "P80", "ruling": "201904", "deductibility": "1", "assets": 0, "income": 0, "revenue": 0}, {"ein": "871864588", "name": "PEEKSKILL HERALD INC", "city": "PEEKSKILL", "state": "NY", "zip": "10566-3484", "ntee": "A30", "ruling": "202112", "deductibility": "1", "assets": 34888, "income": 96450, "revenue": 96450}, {"ein": "872682040", "name": "PEEKSKILL COMMUNITY GARDEN INC", "city": "PEEKSKILL", "state": "NY", "zip": "10566-2451", "ntee": "N50", "ruling": "202206", "deductibility": "2", "assets": 0, "income": 0, "revenue": 0}, {"ein": "873353637", "name": "FRIENDS OF THE PEEKSKILL DOG PARK INC", "city": "CORTLANDT MANOR", "state": "NY", "zip": "10567-7274", "ntee": "D20", "ruling": "202201", "deductibility": "1", "assets": 0, "income": 0, "revenue": 0}, {"ein": "920849685", "name": "PEEKSKILL FIRE DEPARTMENT", "city": "PEEKSKILL", "state": "NY", "zip": "10566-2907", "ntee": "M24", "ruling": "202211", "deductibility": "1", "assets": 135853, "income": 113618, "revenue": 113618}, {"ein": "994099489", "name": "PEEKSKILL CTA INC", "city": "PEEKSKILL", "state": "NY", "zip": "10566-2332", "ntee": "N66", "ruling": "202408", "deductibility": "1", "assets": 0, "income": 0, "revenue": 0}], "RICH": [{"ein": "030385929", "name": "GORDON A RICH MEMORIAL FOUNDATION", "city": "NEW YORK", "state": "NY", "zip": "10128-1733", "ntee": "B82", "ruling": "200208", "deductibility": "1", "assets": 4710244, "income": 1278583, "revenue": 450375}, {"ein": "161515001", "name": "WALTER RICH CHARITABLE FOUNDATION", "city": "FRANKLIN", "state": "NY", "zip": "13775-0022", "ntee": "T50I", "ruling": "199709", "deductibility": "1", "assets": 1269038, "income": 226383, "revenue": 0}, {"ein": "166026199", "name": "RICH FAMILY FOUNDATION", "city": "BUFFALO", "state": "NY", "zip": "14240-0245", "ntee": "", "ruling": "196210", "deductibility": "1", "assets": 10526631, "income": 5404754, "revenue": 0}, {"ein": "470871605", "name": "RICH SPRING CHRISTIAN CHURCH", "city": "FLUSHING", "state": "NY", "zip": "11354-3939", "ntee": "X21", "ruling": "200302", "deductibility": "1", "assets": 0, "income": 0, "revenue": 0}, {"ein": "822224586", "name": "WALTER RICH CHARITABLE FOUNDATION ENDOWMENT FUND", "city": "DELHI", "state": "NY", "zip": "13753-1213", "ntee": "A50", "ruling": "201712", "deductibility": "1", "assets": 519125, "income": 84084, "revenue": 27691}, {"ein": "830464855", "name": "RICH IN LOVE CHARITY INC", "city": "DIX HILLS", "state": "NY", "zip": "11746-5710", "ntee": "H12", "ruling": "200612", "deductibility": "1", "assets": 0, "income": 0, "revenue": 0}, {"ein": "852983331", "name": "LIVE RICH FOUNDATION INC", "city": "STATEN ISLAND", "state": "NY", "zip": "10306-1721", "ntee": "P99", "ruling": "202204", "deductibility": "1", "assets": 0, "income": 0, "revenue": 0}, {"ein": "921869608", "name": "SO RICH IN COMMUNITY INC", "city": "NORTH BALDWIN", "state": "NY", "zip": "11510-2643", "ntee": "O01", "ruling": "202408", "deductibility": "1", "assets": 0, "income": 0, "revenue": 0}, {"ein": "991287069", "name": "RICH AUNTIES SOCIETY", "city": "BRONX", "state": "NY", "zip": "10473-4738", "ntee": "S20", "ruling": "202412", "deductibility": "1", "assets": 0, "income": 0, "revenue": 0}], "FAIGA": [{"ein": "030450404", "name": "CONGREGATION KEREN YAAKOV HERSH AND FAIGA INC", "city": "MONSEY", "state": "NY", "zip": "10952-3601", "ntee": "X30", "ruling": "200207", "deductibility": "1", "assets": 0, "income": 0, "revenue": 0}, {"ein": "842262701", "name": "OHEL FAIGA INC", "city": "BROOKLYN", "state": "NY", "zip": "11249-7806", "ntee": "X30", "ruling": "201911", "deductibility": "1", "assets": 151980, "income": 315470, "revenue": 315470}, {"ein": "854397003", "name": "CONGREGATION CHASDEI HAICHEL FAIGA", "city": "BROOKLYN", "state": "NY", "zip": "11211-8919", "ntee": "X30", "ruling": "202101", "deductibility": "1", "assets": 0, "income": 0, "revenue": 0}], "COMPLETION": [{"ein": "043586036", "name": "HOUSE OF COMPLETION COMMUNITY DEVELOPMENT CORPORATION INC", "city": "S FLORAL PARK", "state": "NY", "zip": "11001-3803", "ntee": "K31", "ruling": "201411", "deductibility": "1", "assets": 0, "income": 0, "revenue": 0}], "RACHMISTRIVKA": [{"ein": "043759823", "name": "CONGREGATION KOLEL CHASIDEI RACHMISTRIVKA INC", "city": "SUFFERN", "state": "NY", "zip": "10901-4004", "ntee": "X21", "ruling": "200307", "deductibility": "1", "assets": 0, "income": 0, "revenue": 0}, {"ein": "112604058", "name": "CONGREGATION RACHMISTRIVKA INC", "city": "BROOKLYN", "state": "NY", "zip": "11219-2028", "ntee": "", "ruling": "198207", "deductibility": "1", "assets": 0, "income": 0, "revenue": 0}, {"ein": "133705895", "name": "CONG KHAL RACHMISTRIVKA", "city": "BROOKLYN", "state": "NY", "zip": "11210-3714", "ntee": "", "ruling": "199306", "deductibility": "1", "assets": 0, "income": 0, "revenue": 0}, {"ein": "822047067", "name": "KOLEL RACHMISTRIVKA MONSEY", "city": "MONSEY", "state": "NY", "zip": "10952-7813", "ntee": "X30", "ruling": "201802", "deductibility": "1", "assets": 0, "income": 0, "revenue": 0}, {"ein": "933646092", "name": "CONGREGATION BAIS RACHMISTRIVKA", "city": "MONSEY", "state": "NY", "zip": "10952-2550", "ntee": "X30", "ruling": "202312", "deductibility": "1", "assets": 0, "income": 0, "revenue": 0}, {"ein": "994237828", "name": "CONGREGATION YESHIVA RACHMISTRIVKA", "city": "SPRING VALLEY", "state": "NY", "zip": "10977-8936", "ntee": "X30", "ruling": "202501", "deductibility": "1", "assets": 0, "income": 0, "revenue": 0}], "COMPREHENSIVE": [{"ein": "050573375", "name": "COMPREHENSIVE ACTION MODEL FOR PEEKSKILL INC", "city": "NEW WINDSOR", "state": "NY", "zip": "12553-5419", "ntee": "B12", "ruling": "201803", "deductibility": "1", "assets": 52646, "income": 96094, "revenue": 96094}, {"ein": "112870422", "name": "QUEENS COMPREHENSIVE PERINATAL COUNCIL", "city": "JAMAICA", "state": "NY", "zip": "11434-1019", "ntee": "E46Z", "ruling": "198812", "deductibility": "1", "assets": 9009, "income": 166280, "revenue": 166280}, {"ein": "133484329", "name": "CENTER FOR COMPREHENSIVE HEALTH PRACTICE INC", "city": "NEW YORK", "state": "NY", "zip": "10029-0354", "ntee": "F220", "ruling": "198902", "deductibility": "1", "assets": 10440945, "income": 8378475, "revenue": 8378475}, {"ein": "133861648", "name": "COMPREHENSIVE YOUTH DEVELOPMENT INC", "city": "NEW YORK", "state": "NY", "zip": "10003-2704", "ntee": "P012", "ruling": "199605", "deductibility": "1", "assets": 3962193, "income": 4300787, "revenue": 4099848}, {"ein": "134068545", "name": "COMPREHENSIVE EDUCATION PROGRAM INC", "city": "BRONX", "state": "NY", "zip": "10451-1113", "ntee": "B99", "ruling": "202004", "deductibility": "1", "assets": 0, "income": 0, "revenue": 0}, {"ein": "160996008", "name": "COMPREHENSIVE INTERDISCIPLINARY DEVELOPMENTAL SERVICES", "city": "ELMIRA", "state": "NY", "zip": "14901-1255", "ntee": "P34Z", "ruling": "197306", "deductibility": "1", "assets": 1764705, "income": 1819516, "revenue": 1819516}, {"ein": "204820598", "name": "COMPREHENSIVE TUTORING TEAM INC", "city": "WILLIAMSVILLE", "state": "NY", "zip": "14221-3573", "ntee": "B90", "ruling": "200608", "deductibility": "1", "assets": 0, "income": 0, "revenue": 0}, {"ein": "271395375", "name": "COMPREHENSIVE ACADEMICS TUTORING SERVICE INC", "city": "BROOKLYN", "state": "NY", "zip": "11212-4440", "ntee": "B99", "ruling": "201007", "deductibility": "1", "assets": 0, "income": 0, "revenue": 0}, {"ein": "352893748", "name": "COMPREHENSIVE CARE SOLUTIONS LTD", "city": "BROOKLYN", "state": "NY", "zip": "11219-0416", "ntee": "E60", "ruling": "202506", "deductibility": "1", "assets": 0, "income": 0, "revenue": 0}, {"ein": "473733576", "name": "FELLOWSHIP FOR ADVANCED COMPREHENSIVE TALMUDICS INC", "city": "MOUNTAINDALE", "state": "NY", "zip": "12763-5233", "ntee": "X30", "ruling": "201506", "deductibility": "1", "assets": 0, "income": 0, "revenue": 0}, {"ein": "842350890", "name": "COMPREHENSIVE EDUCATION CORP", "city": "BROOKLYN", "state": "NY", "zip": "11249-7902", "ntee": "B90", "ruling": "201912", "deductibility": "1", "assets": 222698, "income": 271495, "revenue": 271495}, {"ein": "870985912", "name": "COMPREHENSIVE THERAPEUTIC SERVICES INC", "city": "NEW YORK", "state": "NY", "zip": "10035-4084", "ntee": "P20", "ruling": "202203", "deductibility": "1", "assets": 3737, "income": 140547, "revenue": 140547}, {"ein": "934369110", "name": "EASTERN CONSORTIUM FOR THE COMPREHENSIVE MIDWIFERY EXAM", "city": "BROOKLYN", "state": "NY", "zip": "11203-2012", "ntee": "B60", "ruling": "202404", "deductibility": "1", "assets": 0, "income": 0, "revenue": 0}], "OTISVILLES": [{"ein": "061397261", "name": "FCI OTISVILLES EMPLOYEES CLUB INC", "city": "OTISVILLE", "state": "NY", "zip": "10963-0000", "ntee": "", "ruling": "199507", "deductibility": "2", "assets": 0, "income": 0, "revenue": 0}], "SMACH": [{"ein": "061450122", "name": "SMACH ZEVILIN OF NY INC", "city": "SPRING VALLEY", "state": "NY", "zip": "10977-3339", "ntee": "T70", "ruling": "202103", "deductibility": "1", "assets": 179075, "income": 467614, "revenue": 467614}], "SHUL": [{"ein": "061538090", "name": "THE NEW SHUL", "city": "NEW YORK", "state": "NY", "zip": "10011-8604", "ntee": "X21", "ruling": "200002", "deductibility": "1", "assets": 0, "income": 0, "revenue": 0}, {"ein": "113170558", "name": "DISCOVERY SHUL", "city": "NEW YORK", "state": "NY", "zip": "10018-6625", "ntee": "", "ruling": "199308", "deductibility": "1", "assets": 0, "income": 0, "revenue": 0}, {"ein": "131985569", "name": "THE CARLEBACH SHUL CONGREGATION KEHILATH JACOB", "city": "NEW YORK", "state": "NY", "zip": "10024-6151", "ntee": "", "ruling": "197210", "deductibility": "1", "assets": 0, "income": 0, "revenue": 0}, {"ein": "134159095", "name": "SHUL OF NEW YORK-A SYNAGOGUE FOR SPIRITUAL JUDISM INC", "city": "NEW YORK", "state": "NY", "zip": "10003-6215", "ntee": "X30", "ruling": "200108", "deductibility": "1", "assets": 0, "income": 0, "revenue": 0}, {"ein": "264817705", "name": "AIRMONT SHUL", "city": "AIRMONT", "state": "NY", "zip": "10952-3817", "ntee": "X30", "ruling": "201007", "deductibility": "1", "assets": 0, "income": 0, "revenue": 0}, {"ein": "272757058", "name": "NOSSONS SHUL INC", "city": "BROOKLYN", "state": "NY", "zip": "11225-0000", "ntee": "X30", "ruling": "201108", "deductibility": "1", "assets": 0, "income": 0, "revenue": 0}, {"ein": "463877785", "name": "STORAHTELLING LAB SHUL INC", "city": "NEW YORK", "state": "NY", "zip": "10013-1418", "ntee": "X99", "ruling": "201405", "deductibility": "1", "assets": 144416, "income": 1773408, "revenue": 1661917}, {"ein": "465725204", "name": "VILLAGE GREEN SHUL", "city": "MONSEY", "state": "NY", "zip": "10952-1656", "ntee": "X30", "ruling": "201610", "deductibility": "1", "assets": 0, "income": 0, "revenue": 0}, {"ein": "800750046", "name": "PROSPECT HEIGHTS SHUL", "city": "BROOKLYN", "state": "NY", "zip": "11238-3206", "ntee": "X30", "ruling": "201910", "deductibility": "1", "assets": 0, "income": 0, "revenue": 0}, {"ein": "813335942", "name": "CONG YETEV LEV SHUL INC", "city": "MONROE", "state": "NY", "zip": "10950-7495", "ntee": "X30", "ruling": "201705", "deductibility": "1", "assets": 0, "income": 0, "revenue": 0}, {"ein": "813828854", "name": "CAMBRIDGE HEIGHTS SHUL", "city": "POMONA", "state": "NY", "zip": "10970-4510", "ntee": "X20", "ruling": "201602", "deductibility": "1", "assets": 0, "income": 0, "revenue": 0}, {"ein": "814837979", "name": "CONGREGATION LEISURE LAKE SHUL", "city": "BROOKLYN", "state": "NY", "zip": "11206-2946", "ntee": "X30", "ruling": "201706", "deductibility": "1", "assets": 0, "income": 0, "revenue": 0}, {"ein": "824227024", "name": "SUMMIT PARK SHUL", "city": "SPRING VALLEY", "state": "NY", "zip": "10977-1508", "ntee": "X30", "ruling": "201809", "deductibility": "1", "assets": 0, "income": 0, "revenue": 0}, {"ein": "824562767", "name": "MILL BASIN SHUL", "city": "BROOKLYN", "state": "NY", "zip": "11234-6823", "ntee": "X30", "ruling": "201812", "deductibility": "1", "assets": 0, "income": 0, "revenue": 0}, {"ein": "853165902", "name": "BEACH SHUL", "city": "LAWRENCE", "state": "NY", "zip": "11559-2904", "ntee": "X30", "ruling": "202105", "deductibility": "1", "assets": 0, "income": 0, "revenue": 0}, {"ein": "853595185", "name": "PERSIAN SHUL OF MARINE PARK", "city": "BROOKLYN", "state": "NY", "zip": "11234-2605", "ntee": "X30", "ruling": "202104", "deductibility": "1", "assets": 0, "income": 0, "revenue": 0}, {"ein": "863561692", "name": "NOSSONS SHUL INC", "city": "BROOKLYN", "state": "NY", "zip": "11225-3132", "ntee": "X30", "ruling": "202201", "deductibility": "1", "assets": 0, "income": 0, "revenue": 0}, {"ein": "871621321", "name": "SUNFLOWER SHUL", "city": "BROOKLYN", "state": "NY", "zip": "11249-7874", "ntee": "X30", "ruling": "202202", "deductibility": "1", "assets": 0, "income": 0, "revenue": 0}, {"ein": "872278980", "name": "BARN SHUL", "city": "MONTEBELLO", "state": "NY", "zip": "10901-2909", "ntee": "X30", "ruling": "202212", "deductibility": "1", "assets": 0, "income": 0, "revenue": 0}, {"ein": "880609699", "name": "CONGREGATION CHESTNUT RIDGE SHUL", "city": "MONSEY", "state": "NY", "zip": "10952-4925", "ntee": "X30", "ruling": "202211", "deductibility": "1", "assets": 0, "income": 0, "revenue": 0}, {"ein": "882166924", "name": "MEOR HATORAH BP SHUL", "city": "BROOKLYN", "state": "NY", "zip": "11204-1166", "ntee": "X30", "ruling": "202206", "deductibility": "1", "assets": 0, "income": 0, "revenue": 0}, {"ein": "883974263", "name": "CONGREGATION MISHNAS YCHASKEL SHUL", "city": "BROOKLYN", "state": "NY", "zip": "11204-1767", "ntee": "X30", "ruling": "202303", "deductibility": "1", "assets": 0, "income": 0, "revenue": 0}, {"ein": "884044283", "name": "MAPLEWOOD SHUL", "city": "WOODRIDGE", "state": "NY", "zip": "12789-0000", "ntee": "X30", "ruling": "202211", "deductibility": "1", "assets": 0, "income": 0, "revenue": 0}, {"ein": "920272009", "name": "534 EMPIRE SHUL", "city": "BROOKLYN", "state": "NY", "zip": "11225-3132", "ntee": "X30", "ruling": "202507", "deductibility": "1", "assets": 0, "income": 0, "revenue": 0}, {"ein": "921898514", "name": "CONG KAH - RABBI TAUBS SHUL", "city": "BEDFORD HILLS", "state": "NY", "zip": "10507-1201", "ntee": "X30", "ruling": "202312", "deductibility": "1", "assets": 0, "income": 0, "revenue": 0}, {"ein": "995144625", "name": "MEI MENUCHOS SHUL INC", "city": "S FALLSBURG", "state": "NY", "zip": "12779-5501", "ntee": "X30", "ruling": "202505", "deductibility": "1", "assets": 0, "income": 0, "revenue": 0}], "WOLINSKY": [{"ein": "061577191", "name": "WOLINSKY FAMILY FOUNDATION INC", "city": "ELWOOD", "state": "NY", "zip": "11731-4832", "ntee": "T22", "ruling": "200005", "deductibility": "1", "assets": 227463, "income": 8723, "revenue": 0}], "CAT": [{"ein": "061688749", "name": "CENTRAL NEW YORK CAT COALITION INCORPORATED", "city": "SYRACUSE", "state": "NY", "zip": "13217-6182", "ntee": "D20", "ruling": "200307", "deductibility": "1", "assets": 257900, "income": 442073, "revenue": 442073}, {"ein": "113486834", "name": "CAT LOVERS ASSOCIATION & WELFARE SOCIETY INC", "city": "BOHEMIA", "state": "NY", "zip": "11716-0247", "ntee": "D20", "ruling": "200305", "deductibility": "1", "assets": 0, "income": 0, "revenue": 0}, {"ein": "113617160", "name": "COMPASSIONATE CAT RESCUE ASSOCIATES", "city": "BELLEROSE VLG", "state": "NY", "zip": "11001-4125", "ntee": "D20", "ruling": "200109", "deductibility": "1", "assets": 0, "income": 0, "revenue": 0}, {"ein": "133144256", "name": "NEW YORK CITY CAT COALITION INC", "city": "BRONX", "state": "NY", "zip": "10475-2016", "ntee": "D20", "ruling": "200906", "deductibility": "1", "assets": 24944, "income": 52961, "revenue": 52961}, {"ein": "133959068", "name": "BLACK CAT FOUNDATION", "city": "NEW YORK", "state": "NY", "zip": "10003-2517", "ntee": "C12", "ruling": "200006", "deductibility": "1", "assets": 1216488, "income": 551274, "revenue": 0}, {"ein": "134031153", "name": "CAT ASSISTANCE INC", "city": "HARTSDALE", "state": "NY", "zip": "10530-1350", "ntee": "D200", "ruling": "199909", "deductibility": "1", "assets": 48701, "income": 95070, "revenue": 95070}, {"ein": "136162686", "name": "SNO-CAT SKI CLUB OF EASTERN WESTCHESTER INC", "city": "PLEASANTVILLE", "state": "NY", "zip": "10570-2429", "ntee": "", "ruling": "196008", "deductibility": "2", "assets": 106127, "income": 42278, "revenue": 42278}, {"ein": "161601163", "name": "ALLEY CAT RESCUE OF ALEXANDRIA BAY", "city": "ALEX BAY", "state": "NY", "zip": "13607-0706", "ntee": "D20", "ruling": "200205", "deductibility": "1", "assets": 0, "income": 0, "revenue": 0}, {"ein": "161681978", "name": "HUBCATS-FERAL CAT FUND OF BOSTON INCORPORATED", "city": "WEBSTER", "state": "NY", "zip": "14580-1038", "ntee": "D20", "ruling": "200310", "deductibility": "1", "assets": 0, "income": 0, "revenue": 0}, {"ein": "166052942", "name": "GENESEE CAT FANCIERS CLUB INC", "city": "ROCHESTER", "state": "NY", "zip": "14626-4702", "ntee": "", "ruling": "195306", "deductibility": "2", "assets": 0, "income": 0, "revenue": 0}, {"ein": "201961229", "name": "LINDA S FERAL CAT ASSISTANCE", "city": "WOODSIDE", "state": "NY", "zip": "11377-0272", "ntee": "D20", "ruling": "200606", "deductibility": "1", "assets": 0, "income": 0, "revenue": 0}, {"ein": "203093427", "name": "FERAL CAT FOCUS INC", "city": "ORCHARD PARK", "state": "NY", "zip": "14127-2826", "ntee": "D20", "ruling": "200608", "deductibility": "1", "assets": 81783, "income": 117410, "revenue": 117410}, {"ein": "205622538", "name": "WILD CAT ATHLETICS FOUNDATION INCOF EWUFSD", "city": "OLD WESTBURY", "state": "NY", "zip": "11568-0000", "ntee": "N60", "ruling": "200803", "deductibility": "1", "assets": 0, "income": 0, "revenue": 0}, {"ein": "208433971", "name": "CAT COTTAGE INC", "city": "SAUGERTIES", "state": "NY", "zip": "12477-0000", "ntee": "D20", "ruling": "200708", "deductibility": "1", "assets": 280, "income": 7000, "revenue": 7000}, {"ein": "261137831", "name": "WESTFIELD STRAY CAT RESCUE", "city": "WESTFIELD", "state": "NY", "zip": "14787-0000", "ntee": "D20", "ruling": "200809", "deductibility": "1", "assets": 245844, "income": 226039, "revenue": 224668}, {"ein": "261765459", "name": "WASHINGTON HEIGHTS CAT COLONY", "city": "NEW YORK", "state": "NY", "zip": "10033-6707", "ntee": "D20", "ruling": "200808", "deductibility": "1", "assets": 0, "income": 0, "revenue": 0}, {"ein": "262639122", "name": "BRIDGE CAT FOUNDATION INC", "city": "BRIDGEHAMPTON", "state": "NY", "zip": "11932-0000", "ntee": "D20", "ruling": "200902", "deductibility": "1", "assets": 5509, "income": 13000, "revenue": 0}, {"ein": "263480586", "name": "MANHATTAN VALLEY CAT RESCUE", "city": "PINE CITY", "state": "NY", "zip": "14871-9575", "ntee": "D20", "ruling": "201406", "deductibility": "1", "assets": 0, "income": 0, "revenue": 0}, {"ein": "264122577", "name": "SECOND CHANCE CAT RESCUE INC", "city": "ST JOHNSVILLE", "state": "NY", "zip": "13452-4210", "ntee": "D20", "ruling": "200906", "deductibility": "1", "assets": 22226, "income": 9835, "revenue": 9835}, {"ein": "272146479", "name": "NO CAT LEFT BEHIND ANIMAL RESCUE ASSOCIATION", "city": "CAMILLUS", "state": "NY", "zip": "13031-2400", "ntee": "Z99", "ruling": "201407", "deductibility": "1", "assets": 0, "income": 0, "revenue": 0}, {"ein": "272353029", "name": "PURRS AND PAWS CAT AND KITTEN RESCUE INC", "city": "TUPPER LAKE", "state": "NY", "zip": "12986-1214", "ntee": "D20", "ruling": "201102", "deductibility": "1", "assets": 0, "income": 0, "revenue": 0}, {"ein": "334125751", "name": "PURRING PAWS WNY CAT RESCUE AND ADOPTION TEAM INC", "city": "HAMBURG", "state": "NY", "zip": "14075-3643", "ntee": "D20", "ruling": "202505", "deductibility": "1", "assets": 0, "income": 0, "revenue": 0}, {"ein": "371720024", "name": "ROME CAT ASSISTANCE TLC SOCIETY INC", "city": "ROME", "state": "NY", "zip": "13442-0341", "ntee": "D20", "ruling": "201411", "deductibility": "1", "assets": 0, "income": 0, "revenue": 0}, {"ein": "452456214", "name": "GHOST CAT HABITAT INC", "city": "MAHOPAC", "state": "NY", "zip": "10541-3619", "ntee": "D30", "ruling": "201112", "deductibility": "1", "assets": 0, "income": 0, "revenue": 0}, {"ein": "453746477", "name": "DESTINYS HOPE CAT RESCUE INC", "city": "HOLBROOK", "state": "NY", "zip": "11741-1805", "ntee": "D20", "ruling": "201303", "deductibility": "1", "assets": 0, "income": 0, "revenue": 0}, {"ein": "453995649", "name": "CAT WRANGLERS OF CLAVERACK", "city": "CLAVERACK", "state": "NY", "zip": "12513-0557", "ntee": "D20", "ruling": "201202", "deductibility": "1", "assets": 1302, "income": 34800, "revenue": 34800}, {"ein": "454378788", "name": "BARN CAT OUTREACH INC", "city": "SPRINGWATER", "state": "NY", "zip": "14560-0011", "ntee": "D20", "ruling": "201305", "deductibility": "1", "assets": 0, "income": 0, "revenue": 0}, {"ein": "461233188", "name": "NORTHPORT CAT RESCUE ASSOCIATION INC", "city": "NORTHPORT", "state": "NY", "zip": "11768-3144", "ntee": "D20", "ruling": "201401", "deductibility": "1", "assets": 284823, "income": 130814, "revenue": 130814}, {"ein": "463019710", "name": "CRAZY CAT LADY ANIMAL ADOPTION RESCUE & FERAL FOOD CENTER INC", "city": "HALESITE", "state": "NY", "zip": "11743-2142", "ntee": "D20", "ruling": "202102", "deductibility": "1", "assets": 0, "income": 0, "revenue": 0}, {"ein": "471700559", "name": "WOODSTOCK FERAL CAT PROJECT INC", "city": "WEST HURLEY", "state": "NY", "zip": "12491-0235", "ntee": "D20", "ruling": "201409", "deductibility": "1", "assets": 0, "income": 0, "revenue": 0}, {"ein": "472163466", "name": "ASTORIA CAT RESCUE INC", "city": "ASTORIA", "state": "NY", "zip": "11103-2701", "ntee": "D20", "ruling": "201411", "deductibility": "1", "assets": 0, "income": 0, "revenue": 0}, {"ein": "472226068", "name": "THE CAT SANCTUARY IN BROADABIN INC", "city": "BROADALBIN", "state": "NY", "zip": "12025-3116", "ntee": "D20", "ruling": "202207", "deductibility": "1", "assets": 0, "income": 0, "revenue": 0}, {"ein": "473796719", "name": "CONFLUENCE CAT RESCUE INC", "city": "VESTAL", "state": "NY", "zip": "13850-2882", "ntee": "D20", "ruling": "201505", "deductibility": "1", "assets": 0, "income": 0, "revenue": 0}, {"ein": "473821507", "name": "FALLS CAT PALACE AND RESCUE", "city": "ST REGIS FALLS", "state": "NY", "zip": "12980-0000", "ntee": "D20", "ruling": "202004", "deductibility": "1", "assets": 0, "income": 0, "revenue": 0}, {"ein": "474627069", "name": "ANGELS CAT SANCTUARY INC", "city": "GRAHAMSVILLE", "state": "NY", "zip": "12740-5701", "ntee": "D20", "ruling": "201509", "deductibility": "1", "assets": 0, "income": 0, "revenue": 0}, {"ein": "475128902", "name": "ARBOR HILL CAT RESCUE INC", "city": "ALBANY", "state": "NY", "zip": "12210-2525", "ntee": "D20", "ruling": "201509", "deductibility": "1", "assets": 0, "income": 0, "revenue": 0}, {"ein": "475307114", "name": "AMERICAN CAT PROJECT INC", "city": "WAVERLY", "state": "NY", "zip": "14892-0909", "ntee": "D20", "ruling": "201804", "deductibility": "1", "assets": 0, "income": 0, "revenue": 0}, {"ein": "593766259", "name": "CAT HAVEN OF W N Y INC", "city": "DEPEW", "state": "NY", "zip": "14043-3313", "ntee": "D20", "ruling": "200601", "deductibility": "1", "assets": 0, "income": 0, "revenue": 0}, {"ein": "800338711", "name": "NEW BEGINNINGS CAT AND KITTEN ADOPTIONS INC", "city": "NORTH BALDWIN", "state": "NY", "zip": "11510-1423", "ntee": "D20", "ruling": "201408", "deductibility": "1", "assets": 0, "income": 0, "revenue": 0}, {"ein": "814379122", "name": "PAUL THE CAT GUY INC", "city": "ASTORIA", "state": "NY", "zip": "11105-1803", "ntee": "D20", "ruling": "201611", "deductibility": "1", "assets": 39812, "income": 277732, "revenue": 277732}, {"ein": "814905324", "name": "NIRVANA CAT SANCTUARY", "city": "KINGSTON", "state": "NY", "zip": "12401-6959", "ntee": "D20", "ruling": "201703", "deductibility": "1", "assets": 0, "income": 0, "revenue": 0}, {"ein": "820538094", "name": "PROJECT CAT INC", "city": "ACCORD", "state": "NY", "zip": "12404-5254", "ntee": "D20", "ruling": "200303", "deductibility": "1", "assets": 0, "income": 0, "revenue": 0}, {"ein": "821268235", "name": "CAT CARE INC", "city": "PRT JEFFERSON", "state": "NY", "zip": "11777-1919", "ntee": "D20", "ruling": "201705", "deductibility": "1", "assets": 0, "income": 0, "revenue": 0}, {"ein": "822880856", "name": "CAT REPUBLIC INC", "city": "BROOKLYN", "state": "NY", "zip": "11230-0000", "ntee": "D20", "ruling": "201710", "deductibility": "1", "assets": 0, "income": 0, "revenue": 0}, {"ein": "823207731", "name": "CATT COUNTY CAT NIPPERS INC", "city": "CHEEKTOWAGA", "state": "NY", "zip": "14225-1144", "ntee": "D20", "ruling": "202203", "deductibility": "1", "assets": 0, "income": 0, "revenue": 0}, {"ein": "823811541", "name": "FRIENDLY CAT RESCUE INC", "city": "NEW YORK", "state": "NY", "zip": "10001-4867", "ntee": "D20", "ruling": "201801", "deductibility": "1", "assets": 0, "income": 0, "revenue": 0}, {"ein": "832085770", "name": "RIKERS ISLAND CAT RESCUE INC", "city": "NEW HYDE PARK", "state": "NY", "zip": "11040-3824", "ntee": "D20", "ruling": "201902", "deductibility": "1", "assets": 0, "income": 0, "revenue": 0}, {"ein": "832155468", "name": "CAT PROTECTION COUNCIL OF WESTCHESTER INC", "city": "MARYKNOLL", "state": "NY", "zip": "10545-0073", "ntee": "D20", "ruling": "202009", "deductibility": "1", "assets": 0, "income": 0, "revenue": 0}, {"ein": "832732638", "name": "CAT WRANGLER RESCUE INC", "city": "GLENWOOD LNDG", "state": "NY", "zip": "11547-0837", "ntee": "D20", "ruling": "201902", "deductibility": "1", "assets": 0, "income": 0, "revenue": 0}, {"ein": "843319393", "name": "TWO BY TWO CAT RESCUE BOARDING & ADOPTION", "city": "EAST MEADOW", "state": "NY", "zip": "11554-0119", "ntee": "D20", "ruling": "201911", "deductibility": "1", "assets": 0, "income": 0, "revenue": 0}, {"ein": "850997003", "name": "MY CAT JEOFFRY BOOKSTORE AND CAT LOUNGE", "city": "ROCHESTER", "state": "NY", "zip": "14607-2943", "ntee": "D99", "ruling": "202012", "deductibility": "1", "assets": 0, "income": 0, "revenue": 0}, {"ein": "851255966", "name": "WEST SIDE CAT RESCUE INC", "city": "BUFFALO", "state": "NY", "zip": "14213-7087", "ntee": "D20", "ruling": "202007", "deductibility": "1", "assets": 0, "income": 0, "revenue": 0}, {"ein": "851411493", "name": "JUST 4 PAWS CAT RESCUE TRAP NEUTER RETURN INC", "city": "RONKONKOMA", "state": "NY", "zip": "11779-4208", "ntee": "D20", "ruling": "202009", "deductibility": "1", "assets": 0, "income": 0, "revenue": 0}, {"ein": "851919201", "name": "SAINTSPIRO CAT RESCUE INC", "city": "FRESH MEADOWS", "state": "NY", "zip": "11365-1826", "ntee": "D20", "ruling": "202009", "deductibility": "1", "assets": 0, "income": 0, "revenue": 0}, {"ein": "853547036", "name": "CAT BY CAT INC", "city": "EAST AMHERST", "state": "NY", "zip": "14051-1321", "ntee": "D20", "ruling": "202101", "deductibility": "1", "assets": 40014, "income": 194554, "revenue": 189634}, {"ein": "853755645", "name": "STRAY CAT NETWORK INC", "city": "RED HOOK", "state": "NY", "zip": "12571-1220", "ntee": "", "ruling": "202107", "deductibility": "1", "assets": 0, "income": 0, "revenue": 0}, {"ein": "854258275", "name": "EASTCHESTER BAY STRAY CAT PROJECT INC", "city": "BRONX", "state": "NY", "zip": "10464-1482", "ntee": "D20", "ruling": "202202", "deductibility": "1", "assets": 0, "income": 0, "revenue": 0}, {"ein": "862555795", "name": "RALLY CAT INC", "city": "NEW YORK", "state": "NY", "zip": "10034-0000", "ntee": "A20", "ruling": "202307", "deductibility": "1", "assets": 5821, "income": 16056, "revenue": 16056}, {"ein": "862603650", "name": "PURRFECT PITTERS CAT RESCUE", "city": "LAKE KATRINE", "state": "NY", "zip": "12449-5102", "ntee": "D20", "ruling": "202205", "deductibility": "1", "assets": 0, "income": 0, "revenue": 0}, {"ein": "874296220", "name": "KITTEN AROUND CAT RESCUE", "city": "EAST AURORA", "state": "NY", "zip": "14052-2149", "ntee": "D20", "ruling": "202202", "deductibility": "1", "assets": 2514, "income": 45810, "revenue": 0}, {"ein": "874536916", "name": "VP SNIP AND TIP CAT RESCUE INC", "city": "BEACON", "state": "NY", "zip": "12508-3024", "ntee": "D20", "ruling": "202203", "deductibility": "1", "assets": 19, "income": 44781, "revenue": 44781}, {"ein": "874700528", "name": "FULL HEARTS CAT RESCUE INC", "city": "ROCHESTER", "state": "NY", "zip": "14619-1919", "ntee": "D20", "ruling": "202204", "deductibility": "1", "assets": 0, "income": 0, "revenue": 0}, {"ein": "880924725", "name": "SUSANS CAT SANCTUARY OF THE SOUTHERN TIER INC", "city": "GREENWOOD", "state": "NY", "zip": "14839-0992", "ntee": "D20", "ruling": "202203", "deductibility": "1", "assets": 0, "income": 0, "revenue": 0}, {"ein": "881000000", "name": "FINGER LAKES CAT TALES INC", "city": "PENFIELD", "state": "NY", "zip": "14526-0773", "ntee": "D20", "ruling": "202205", "deductibility": "1", "assets": 0, "income": 0, "revenue": 0}, {"ein": "882306321", "name": "NY CAT WARRIORS INC", "city": "NEW YORK", "state": "NY", "zip": "10011-7200", "ntee": "D20", "ruling": "202206", "deductibility": "1", "assets": 0, "income": 0, "revenue": 0}, {"ein": "883606891", "name": "BLACK CAT SOCIETY INC", "city": "STATEN ISLAND", "state": "NY", "zip": "10314-6925", "ntee": "D20", "ruling": "202209", "deductibility": "1", "assets": 2772, "income": 1242, "revenue": 1242}, {"ein": "900576904", "name": "HAPPY CAT INC", "city": "MEDFORD", "state": "NY", "zip": "11763-1623", "ntee": "D20", "ruling": "201206", "deductibility": "1", "assets": 1073222, "income": 1624964, "revenue": 1624964}, {"ein": "900848327", "name": "GUARDIAN ANGEL CAT RESCUE INC", "city": "POUGHKEEPSIE", "state": "NY", "zip": "12603-6408", "ntee": "D20", "ruling": "201302", "deductibility": "1", "assets": 0, "income": 0, "revenue": 0}, {"ein": "912037952", "name": "VALLEY STREAM CAT RESCUE INC", "city": "VALLEY STREAM", "state": "NY", "zip": "11581-1610", "ntee": "D20", "ruling": "200608", "deductibility": "1", "assets": 0, "income": 0, "revenue": 0}, {"ein": "912185105", "name": "URBAN CAT LEAGUE INC", "city": "NEW YORK", "state": "NY", "zip": "10036-6319", "ntee": "D20", "ruling": "200305", "deductibility": "1", "assets": 0, "income": 0, "revenue": 0}, {"ein": "921794477", "name": "QUENTIN CAT INC", "city": "WARWICK", "state": "NY", "zip": "10990-2431", "ntee": "D20", "ruling": "202301", "deductibility": "1", "assets": 0, "income": 0, "revenue": 0}, {"ein": "922450808", "name": "HEARTS OF LOVE CAT RESCUE & ADOPTION INC", "city": "MANORVILLE", "state": "NY", "zip": "11949-9673", "ntee": "D20", "ruling": "202304", "deductibility": "1", "assets": 10965, "income": 45219, "revenue": 45219}, {"ein": "922593031", "name": "LIC FERAL FEEDERS AND CAT RESCUE CORP", "city": "LONG IS CITY", "state": "NY", "zip": "11101-5613", "ntee": "D20", "ruling": "202310", "deductibility": "1", "assets": 2879, "income": 7412, "revenue": 0}, {"ein": "922795566", "name": "CATSTORIA CAT RESCUE INC", "city": "QUEENS", "state": "NY", "zip": "11103-4567", "ntee": "D20", "ruling": "202304", "deductibility": "1", "assets": 0, "income": 0, "revenue": 0}, {"ein": "922868725", "name": "CRAZY CAT LADY THERAPY FOR VETERANS", "city": "WEST POINT", "state": "NY", "zip": "10996-0135", "ntee": "W30", "ruling": "202305", "deductibility": "1", "assets": 0, "income": 0, "revenue": 0}, {"ein": "923271142", "name": "REMEDIOS CAT RESCUE INC", "city": "GHENT", "state": "NY", "zip": "12075-0624", "ntee": "D20", "ruling": "202304", "deductibility": "1", "assets": 2530, "income": 73527, "revenue": 73527}, {"ein": "923468107", "name": "CAT SPACE INC", "city": "CUTCHOGUE", "state": "NY", "zip": "11935-1802", "ntee": "P20", "ruling": "202304", "deductibility": "1", "assets": 0, "income": 0, "revenue": 0}, {"ein": "923560668", "name": "FRIENDS OF THE FORGOTTEN CAT RESCUE", "city": "JOHNSTOWN", "state": "NY", "zip": "12095-2507", "ntee": "D20", "ruling": "202305", "deductibility": "1", "assets": 0, "income": 0, "revenue": 0}, {"ein": "923666650", "name": "TINY PAWS CAT RESCUE INC", "city": "SYRACUSE", "state": "NY", "zip": "13208-2302", "ntee": "D20", "ruling": "202305", "deductibility": "1", "assets": 0, "income": 0, "revenue": 0}, {"ein": "932975398", "name": "ALL PAWS MATTER CAT RESCUE", "city": "LIBERTY", "state": "NY", "zip": "12754-8322", "ntee": "D99", "ruling": "202401", "deductibility": "1", "assets": 0, "income": 0, "revenue": 0}, {"ein": "933752128", "name": "CAT SCRATCH INC", "city": "BALDWIN", "state": "NY", "zip": "11510-3704", "ntee": "D20", "ruling": "202310", "deductibility": "1", "assets": 0, "income": 0, "revenue": 0}, {"ein": "934263255", "name": "CAT MAFIA RESCUE INC", "city": "LAKE RONKONKOMA", "state": "NY", "zip": "11779-0000", "ntee": "D99", "ruling": "202311", "deductibility": "1", "assets": 0, "income": 0, "revenue": 0}, {"ein": "990773849", "name": "HOT CAT RANCH INC", "city": "ONEONTA", "state": "NY", "zip": "13820-1113", "ntee": "D20", "ruling": "202401", "deductibility": "1", "assets": 0, "income": 0, "revenue": 0}, {"ein": "992820693", "name": "PRETTY FACE CAT RESCUE", "city": "WANTAGH", "state": "NY", "zip": "11793-1236", "ntee": "D20", "ruling": "202405", "deductibility": "1", "assets": 0, "income": 0, "revenue": 0}, {"ein": "994194111", "name": "DENISE S CAT & DOG RESCUE & SANCTUARY INC", "city": "NEW YORK", "state": "NY", "zip": "10040-4650", "ntee": "D20", "ruling": "202408", "deductibility": "1", "assets": 0, "income": 0, "revenue": 0}, {"ein": "994343404", "name": "ARCHIES LOVE BLOSSOMS CAT RESCUE LTD", "city": "BROOKLYN", "state": "NY", "zip": "11215-3708", "ntee": "D20", "ruling": "202501", "deductibility": "1", "assets": 0, "income": 0, "revenue": 0}, {"ein": "994425858", "name": "PAWSITIVE CAT RESCUE", "city": "ROCHESTER", "state": "NY", "zip": "14622-2619", "ntee": "D01", "ruling": "202408", "deductibility": "1", "assets": 0, "income": 0, "revenue": 0}, {"ein": "995034627", "name": "UP MANHATTAN CAT RESCUE INC", "city": "WOODSTOCK", "state": "NY", "zip": "12498-2409", "ntee": "D20", "ruling": "202410", "deductibility": "1", "assets": 10758, "income": 11974, "revenue": 11974}], "RDWA": [{"ein": "111653210", "name": "RDWA 8", "city": "LONG IS CITY", "state": "NY", "zip": "11101-6816", "ntee": "", "ruling": "195112", "deductibility": "2", "assets": 43599182, "income": 36451839, "revenue": 36451839}], "WESLEYAN": [{"ein": "111797164", "name": "AFRICAN WESLEYAN METHODIST EPISCOPAL CHURCH", "city": "BROOKLYN", "state": "NY", "zip": "11221-1623", "ntee": "", "ruling": "198912", "deductibility": "1", "assets": 0, "income": 0, "revenue": 0}, {"ein": "112676895", "name": "EBENEZER WESLEYAN METHODIST CHURCH", "city": "BROOKLYN", "state": "NY", "zip": "11216-3340", "ntee": "", "ruling": "199303", "deductibility": "1", "assets": 0, "income": 0, "revenue": 0}, {"ein": "112758410", "name": "THE BRONX WESLEYAN CHURCH", "city": "BRONX", "state": "NY", "zip": "10457-6737", "ntee": "", "ruling": "197005", "deductibility": "1", "assets": 0, "income": 0, "revenue": 0}, {"ein": "112981283", "name": "PILGRIM WESLEYAN CHURCH OF BROOKLYN", "city": "BROOKLYN", "state": "NY", "zip": "11226-0620", "ntee": "", "ruling": "197005", "deductibility": "2", "assets": 0, "income": 0, "revenue": 0}, {"ein": "112981859", "name": "JAMAICA QUEENS WESLEYAN CHURCH", "city": "LAURELTON", "state": "NY", "zip": "11413-2442", "ntee": "", "ruling": "197005", "deductibility": "2", "assets": 0, "income": 0, "revenue": 0}, {"ein": "113142446", "name": "EVANGELICAL HOLINESS CHURCH WESLEYAN INC", "city": "FAR ROCKAWAY", "state": "NY", "zip": "11691-2402", "ntee": "X20", "ruling": "199908", "deductibility": "1", "assets": 0, "income": 0, "revenue": 0}, {"ein": "113444412", "name": "CANARSIE WESLEYAN CHURCH", "city": "JAMAICA", "state": "NY", "zip": "11433-3026", "ntee": "", "ruling": "197005", "deductibility": "1", "assets": 0, "income": 0, "revenue": 0}, {"ein": "116201112", "name": "FIRST WESLEYAN CHURCH", "city": "BROOKLYN", "state": "NY", "zip": "11210-2329", "ntee": "", "ruling": "197005", "deductibility": "1", "assets": 0, "income": 0, "revenue": 0}, {"ein": "133071946", "name": "THOMAS MEMORIAL WESLEYAN METHODIST CHURCH INC", "city": "NEW YORK", "state": "NY", "zip": "10027-4429", "ntee": "", "ruling": "198105", "deductibility": "1", "assets": 0, "income": 0, "revenue": 0}, {"ein": "133536529", "name": "FATHERS HEART WESLEYAN WORSHIP CENTER", "city": "BRONX", "state": "NY", "zip": "10467-6635", "ntee": "", "ruling": "197005", "deductibility": "1", "assets": 0, "income": 0, "revenue": 0}, {"ein": "133979529", "name": "PILGRIM WESLEYAN CHURCH", "city": "SPRING VALLEY", "state": "NY", "zip": "10977-4846", "ntee": "", "ruling": "197005", "deductibility": "1", "assets": 0, "income": 0, "revenue": 0}, {"ein": "141497537", "name": "MOOERS WESLEYAN CHURCH", "city": "MOOERS", "state": "NY", "zip": "12958-0221", "ntee": "", "ruling": "197005", "deductibility": "1", "assets": 0, "income": 0, "revenue": 0}, {"ein": "141511239", "name": "CORINTH WESLEYAN CHURCH", "city": "CORINTH", "state": "NY", "zip": "12822-1044", "ntee": "", "ruling": "197005", "deductibility": "1", "assets": 0, "income": 0, "revenue": 0}, {"ein": "141614662", "name": "HADLEY-LUZERNE WESLEYAN CHURCH", "city": "LAKE LUZERNE", "state": "NY", "zip": "12846-0314", "ntee": "", "ruling": "197005", "deductibility": "1", "assets": 0, "income": 0, "revenue": 0}, {"ein": "141614988", "name": "KINGSBURY WESLEYAN CHURCH", "city": "HUDSON FALLS", "state": "NY", "zip": "12839-4005", "ntee": "", "ruling": "197005", "deductibility": "1", "assets": 0, "income": 0, "revenue": 0}, {"ein": "141617065", "name": "UNITED WESLEYAN CHURCH", "city": "SANDY CREEK", "state": "NY", "zip": "13145-0298", "ntee": "", "ruling": "197005", "deductibility": "1", "assets": 0, "income": 0, "revenue": 0}, {"ein": "141626069", "name": "BRANT LAKE WESLEYAN CHURCH", "city": "BRANT LAKE", "state": "NY", "zip": "12815-1902", "ntee": "", "ruling": "197005", "deductibility": "1", "assets": 0, "income": 0, "revenue": 0}, {"ein": "141632106", "name": "MALONE WESLEYAN CHURCH", "city": "MALONE", "state": "NY", "zip": "12953-1065", "ntee": "", "ruling": "197005", "deductibility": "1", "assets": 0, "income": 0, "revenue": 0}, {"ein": "141664557", "name": "PHOENICIA WESLEYAN CHURCH", "city": "PHOENICIA", "state": "NY", "zip": "12464-0554", "ntee": "", "ruling": "197005", "deductibility": "1", "assets": 0, "income": 0, "revenue": 0}, {"ein": "141678992", "name": "GLOVERSVILLE WESLEYAN CHURCH", "city": "GLOVERSVILLE", "state": "NY", "zip": "12078-2338", "ntee": "", "ruling": "197005", "deductibility": "1", "assets": 0, "income": 0, "revenue": 0}, {"ein": "141685359", "name": "LONG LAKE WESLEYAN CHURCH", "city": "LONG LAKE", "state": "NY", "zip": "12847-0322", "ntee": "", "ruling": "197005", "deductibility": "1", "assets": 0, "income": 0, "revenue": 0}, {"ein": "141723045", "name": "WESLEYAN COMMUNITY CHURCH", "city": "SHOKAN", "state": "NY", "zip": "12481-5105", "ntee": "", "ruling": "197005", "deductibility": "1", "assets": 0, "income": 0, "revenue": 0}, {"ein": "141723579", "name": "WATERFORD WESLEYAN CHURCH", "city": "WATERFORD", "state": "NY", "zip": "12188-0146", "ntee": "", "ruling": "197005", "deductibility": "1", "assets": 0, "income": 0, "revenue": 0}, {"ein": "141739655", "name": "WELLS WESLEYAN CHURCH", "city": "WELLS", "state": "NY", "zip": "12190-0329", "ntee": "", "ruling": "197005", "deductibility": "1", "assets": 0, "income": 0, "revenue": 0}, {"ein": "141806531", "name": "BRANDON CENTER WESLEYAN CHURCH", "city": "NORTH BANGOR", "state": "NY", "zip": "12966-3503", "ntee": "", "ruling": "197005", "deductibility": "1", "assets": 0, "income": 0, "revenue": 0}, {"ein": "146037911", "name": "WESLEYAN CHURCH OF MORLEY", "city": "CANTON", "state": "NY", "zip": "13617-3358", "ntee": "", "ruling": "197005", "deductibility": "1", "assets": 0, "income": 0, "revenue": 0}, {"ein": "156025693", "name": "BROOKDALE WESLEYAN CHURCH", "city": "NORWOOD", "state": "NY", "zip": "13668-0000", "ntee": "", "ruling": "197005", "deductibility": "1", "assets": 0, "income": 0, "revenue": 0}, {"ein": "160743126", "name": "ROBERTS WESLEYAN UNIVERSITY", "city": "ROCHESTER", "state": "NY", "zip": "14624-1933", "ntee": "B430", "ruling": "195111", "deductibility": "1", "assets": 122422313, "income": 70164868, "revenue": 54537055}, {"ein": "160774049", "name": "HOUGHTON WESLEYAN CHURCH", "city": "HOUGHTON", "state": "NY", "zip": "14744-0127", "ntee": "", "ruling": "197005", "deductibility": "1", "assets": 0, "income": 0, "revenue": 0}, {"ein": "160970909", "name": "WESLEYAN CHURCH OF ORCHARD PARK", "city": "ORCHARD PARK", "state": "NY", "zip": "14127-3441", "ntee": "", "ruling": "197005", "deductibility": "1", "assets": 0, "income": 0, "revenue": 0}, {"ein": "161009721", "name": "WESLEYAN CHURCH OF HAMBURG", "city": "HAMBURG", "state": "NY", "zip": "14075-1027", "ntee": "", "ruling": "197005", "deductibility": "1", "assets": 0, "income": 0, "revenue": 0}, {"ein": "161023064", "name": "ALIVE WESLEYAN CHURCH", "city": "KIRKVILLE", "state": "NY", "zip": "13082-9448", "ntee": "", "ruling": "197005", "deductibility": "1", "assets": 0, "income": 0, "revenue": 0}, {"ein": "161071255", "name": "EAST LEON WESLEYAN CHURCH", "city": "CATTARAUGUS", "state": "NY", "zip": "14719-9496", "ntee": "", "ruling": "197005", "deductibility": "1", "assets": 0, "income": 0, "revenue": 0}, {"ein": "161076689", "name": "PATHWAY WESLEYAN CHURCH", "city": "PENFIELD", "state": "NY", "zip": "14526-9790", "ntee": "", "ruling": "197005", "deductibility": "1", "assets": 0, "income": 0, "revenue": 0}, {"ein": "161076897", "name": "ROME WESLEYAN CHURCH", "city": "ROME", "state": "NY", "zip": "13440-5035", "ntee": "", "ruling": "197005", "deductibility": "1", "assets": 0, "income": 0, "revenue": 0}, {"ein": "161085058", "name": "HASKINVILLE WESLEYAN CHURCH", "city": "COHOCTON", "state": "NY", "zip": "14826-9779", "ntee": "", "ruling": "197005", "deductibility": "1", "assets": 0, "income": 0, "revenue": 0}, {"ein": "161085957", "name": "CANISTEO WESLEYAN CHURCH", "city": "CANISTEO", "state": "NY", "zip": "14823-1214", "ntee": "", "ruling": "197005", "deductibility": "1", "assets": 0, "income": 0, "revenue": 0}, {"ein": "161101618", "name": "PEACE WESLEYAN CHURCH", "city": "FALCONER", "state": "NY", "zip": "14733-1537", "ntee": "", "ruling": "197005", "deductibility": "1", "assets": 0, "income": 0, "revenue": 0}, {"ein": "161102088", "name": "PULASKI WESLEYAN CHURCH", "city": "PULASKI", "state": "NY", "zip": "13142-2189", "ntee": "", "ruling": "197005", "deductibility": "1", "assets": 0, "income": 0, "revenue": 0}, {"ein": "161111588", "name": "PENN YORK DISTRICT OF THE WESLEYAN CHURCH", "city": "HORSEHEADS", "state": "NY", "zip": "14845-2708", "ntee": "", "ruling": "197005", "deductibility": "2", "assets": 0, "income": 0, "revenue": 0}, {"ein": "161112537", "name": "ELMIRA WESLEYAN CHURCH", "city": "ELMIRA", "state": "NY", "zip": "14904-2735", "ntee": "", "ruling": "197005", "deductibility": "1", "assets": 0, "income": 0, "revenue": 0}, {"ein": "161119449", "name": "BUENA VISTA WESLEYAN CHURCH", "city": "CANISTEO", "state": "NY", "zip": "14823-9683", "ntee": "", "ruling": "197005", "deductibility": "1", "assets": 0, "income": 0, "revenue": 0}, {"ein": "161123943", "name": "VICTORY HIGHWAY WESLEYAN CHURCH", "city": "PAINTED POST", "state": "NY", "zip": "14870-9020", "ntee": "", "ruling": "197005", "deductibility": "1", "assets": 0, "income": 0, "revenue": 0}, {"ein": "161128876", "name": "EAST AURORA WESLEYAN CHURCH", "city": "EAST AURORA", "state": "NY", "zip": "14052-1639", "ntee": "", "ruling": "197005", "deductibility": "1", "assets": 0, "income": 0, "revenue": 0}, {"ein": "161132651", "name": "CITYHOPE - A WESLEYAN CHURCH", "city": "ROCHESTER", "state": "NY", "zip": "14606-0319", "ntee": "", "ruling": "197005", "deductibility": "1", "assets": 0, "income": 0, "revenue": 0}, {"ein": "161134622", "name": "THE BRIDGE WESLEYAN CHURCH", "city": "BIG FLATS", "state": "NY", "zip": "14814-9707", "ntee": "", "ruling": "197005", "deductibility": "1", "assets": 0, "income": 0, "revenue": 0}, {"ein": "161137080", "name": "CANANDAIGUA WESLEYAN CHURCH", "city": "CANANDAIGUA", "state": "NY", "zip": "14424-2412", "ntee": "", "ruling": "197005", "deductibility": "1", "assets": 0, "income": 0, "revenue": 0}, {"ein": "161137327", "name": "FELLOWSHIP WESLEYAN CHURCH", "city": "BUFFALO", "state": "NY", "zip": "14224-4490", "ntee": "", "ruling": "197005", "deductibility": "1", "assets": 0, "income": 0, "revenue": 0}, {"ein": "161137452", "name": "BROOKSIDE WESLEYAN CHURCH", "city": "WELLSVILLE", "state": "NY", "zip": "14895-9525", "ntee": "", "ruling": "197005", "deductibility": "1", "assets": 0, "income": 0, "revenue": 0}, {"ein": "161137457", "name": "OAKLAND WESLEYAN CHURCH", "city": "NUNDA", "state": "NY", "zip": "14517-9769", "ntee": "", "ruling": "197005", "deductibility": "1", "assets": 0, "income": 0, "revenue": 0}, {"ein": "161143512", "name": "HESS ROAD WESLEYAN CHURCH", "city": "APPLETON", "state": "NY", "zip": "14008-9654", "ntee": "", "ruling": "197005", "deductibility": "1", "assets": 0, "income": 0, "revenue": 0}, {"ein": "161154798", "name": "LYNCOURT WESLEYAN CHURCH", "city": "SYRACUSE", "state": "NY", "zip": "13208-3232", "ntee": "", "ruling": "197005", "deductibility": "1", "assets": 0, "income": 0, "revenue": 0}, {"ein": "161158077", "name": "EASTERN HILLS WESLEYAN CHURCH", "city": "WILLIAMSVILLE", "state": "NY", "zip": "14221-2828", "ntee": "", "ruling": "197005", "deductibility": "1", "assets": 0, "income": 0, "revenue": 0}, {"ein": "161161487", "name": "LISBON WESLEYAN CHURCH", "city": "LISBON", "state": "NY", "zip": "13658-3299", "ntee": "", "ruling": "197005", "deductibility": "1", "assets": 0, "income": 0, "revenue": 0}, {"ein": "161166707", "name": "NORFOLK WESLEYAN CHURCH", "city": "NORFOLK", "state": "NY", "zip": "13667-0506", "ntee": "", "ruling": "197005", "deductibility": "1", "assets": 0, "income": 0, "revenue": 0}, {"ein": "161211215", "name": "SHADY GROVE WESLEYAN CHURCH", "city": "CORNING", "state": "NY", "zip": "14830-9429", "ntee": "", "ruling": "197005", "deductibility": "1", "assets": 0, "income": 0, "revenue": 0}, {"ein": "161223603", "name": "LITTLE VALLEY WESLEYAN CHURCH", "city": "LITTLE VALLEY", "state": "NY", "zip": "14755-1031", "ntee": "", "ruling": "197005", "deductibility": "1", "assets": 0, "income": 0, "revenue": 0}, {"ein": "161228139", "name": "LEVANT WESLEYAN CHURCH", "city": "FALCONER", "state": "NY", "zip": "14733-9714", "ntee": "", "ruling": "197005", "deductibility": "1", "assets": 0, "income": 0, "revenue": 0}, {"ein": "161228224", "name": "GRACE LEE MEMORIAL WESLEYAN CHURCH", "city": "BEAVER DAMS", "state": "NY", "zip": "14812-9386", "ntee": "", "ruling": "197005", "deductibility": "1", "assets": 0, "income": 0, "revenue": 0}, {"ein": "161277692", "name": "ANGOLA WESLEYAN CHURCH", "city": "ANGOLA", "state": "NY", "zip": "14006-9267", "ntee": "", "ruling": "197005", "deductibility": "1", "assets": 0, "income": 0, "revenue": 0}, {"ein": "161280091", "name": "SUNSHINE VALLEY WESLEYAN CHURCH", "city": "WINDSOR", "state": "NY", "zip": "13865-3313", "ntee": "", "ruling": "197005", "deductibility": "1", "assets": 0, "income": 0, "revenue": 0}, {"ein": "161300969", "name": "WEST JASPER WESLEYAN CHURCH", "city": "GREENWOOD", "state": "NY", "zip": "14839-9751", "ntee": "", "ruling": "197005", "deductibility": "1", "assets": 0, "income": 0, "revenue": 0}, {"ein": "161303898", "name": "COLTON WESLEYAN CHURCH", "city": "COLTON", "state": "NY", "zip": "13625-3149", "ntee": "", "ruling": "197005", "deductibility": "1", "assets": 0, "income": 0, "revenue": 0}, {"ein": "161318488", "name": "ODESSA WESLEYAN CHURCH", "city": "ODESSA", "state": "NY", "zip": "14869-9789", "ntee": "", "ruling": "197005", "deductibility": "1", "assets": 0, "income": 0, "revenue": 0}, {"ein": "161320214", "name": "CATTARAUGUS WESLEYAN INDIAN CHAPEL", "city": "IRVING", "state": "NY", "zip": "14081-9329", "ntee": "", "ruling": "197005", "deductibility": "1", "assets": 0, "income": 0, "revenue": 0}, {"ein": "161326324", "name": "TAYLOR WESLEYAN CHURCH", "city": "CINCINNATUS", "state": "NY", "zip": "13040-0000", "ntee": "", "ruling": "197005", "deductibility": "2", "assets": 0, "income": 0, "revenue": 0}, {"ein": "161330841", "name": "CALVARY COMMUNITY WESLEYAN CHURCH", "city": "JOHNSON CITY", "state": "NY", "zip": "13790-1036", "ntee": "", "ruling": "197005", "deductibility": "2", "assets": 0, "income": 0, "revenue": 0}, {"ein": "161337538", "name": "HIGGINS WESLEYAN CHURCH", "city": "FREEDOM", "state": "NY", "zip": "14065-9527", "ntee": "", "ruling": "197005", "deductibility": "1", "assets": 0, "income": 0, "revenue": 0}, {"ein": "161357103", "name": "VALLEY WESLEYAN CHURCH", "city": "CANASERAGA", "state": "NY", "zip": "14822-9708", "ntee": "", "ruling": "197005", "deductibility": "1", "assets": 0, "income": 0, "revenue": 0}, {"ein": "161362027", "name": "MALLORY WESLEYAN CHURCH", "city": "MALLORY", "state": "NY", "zip": "13103-0000", "ntee": "", "ruling": "197005", "deductibility": "1", "assets": 0, "income": 0, "revenue": 0}, {"ein": "161362151", "name": "NEDRO WESLEYAN CHURCH", "city": "SYRACUSE", "state": "NY", "zip": "13208-3232", "ntee": "", "ruling": "197005", "deductibility": "1", "assets": 0, "income": 0, "revenue": 0}, {"ein": "161555482", "name": "NORTH COLLINS WESLEYAN CHURCH", "city": "NORTH COLLINS", "state": "NY", "zip": "14111-9781", "ntee": "", "ruling": "197005", "deductibility": "1", "assets": 0, "income": 0, "revenue": 0}, {"ein": "166036820", "name": "WESTERN NEW YORK DISTRICT WESLEYAN CHURCH", "city": "EDEN", "state": "NY", "zip": "14057-9757", "ntee": "", "ruling": "197005", "deductibility": "2", "assets": 0, "income": 0, "revenue": 0}, {"ein": "166088715", "name": "COMMUNITY WESLEYAN CHURCH", "city": "BALDWINSVILLE", "state": "NY", "zip": "13027-2812", "ntee": "", "ruling": "197005", "deductibility": "1", "assets": 0, "income": 0, "revenue": 0}, {"ein": "201895021", "name": "THE VINE WESLEYAN CHURCH", "city": "DEPEW", "state": "NY", "zip": "14043-3721", "ntee": "", "ruling": "197005", "deductibility": "1", "assets": 0, "income": 0, "revenue": 0}, {"ein": "222487138", "name": "LIFE STONE WESLEYAN CHURCH", "city": "HENRIETTA", "state": "NY", "zip": "14467-0539", "ntee": "", "ruling": "197005", "deductibility": "1", "assets": 0, "income": 0, "revenue": 0}, {"ein": "222489857", "name": "MIDLER AVENUE WESLEYAN CHURCH", "city": "SYRACUSE", "state": "NY", "zip": "13206-2923", "ntee": "", "ruling": "197005", "deductibility": "1", "assets": 0, "income": 0, "revenue": 0}, {"ein": "222507228", "name": "ELIZABETH ST WESLEYAN CHURCH", "city": "PLATTSBURGH", "state": "NY", "zip": "12901-3519", "ntee": "", "ruling": "197005", "deductibility": "1", "assets": 0, "income": 0, "revenue": 0}, {"ein": "222507507", "name": "COOKS CORNERS WESLEYAN CHURCH", "city": "BRUSHTON", "state": "NY", "zip": "12916-3400", "ntee": "", "ruling": "197005", "deductibility": "1", "assets": 0, "income": 0, "revenue": 0}, {"ein": "222509190", "name": "SPENCEPORT WESLEYAN CHURCH", "city": "SPENCERPORT", "state": "NY", "zip": "14559-1972", "ntee": "", "ruling": "197005", "deductibility": "1", "assets": 0, "income": 0, "revenue": 0}, {"ein": "222509353", "name": "SOUTHSIDE WESLEYAN CHURCH", "city": "ONEONTA", "state": "NY", "zip": "13820-3563", "ntee": "", "ruling": "197005", "deductibility": "1", "assets": 0, "income": 0, "revenue": 0}, {"ein": "222512532", "name": "COMMUNITY WESLEYAN CHURCH", "city": "HORSEHEADS", "state": "NY", "zip": "14845-2892", "ntee": "", "ruling": "197005", "deductibility": "1", "assets": 0, "income": 0, "revenue": 0}, {"ein": "222512588", "name": "AVON WESLEYAN CHURCH", "city": "AVON", "state": "NY", "zip": "14414-1357", "ntee": "", "ruling": "197005", "deductibility": "1", "assets": 0, "income": 0, "revenue": 0}, {"ein": "222512763", "name": "FILLMORE WESLEYAN CHURCH", "city": "FILLMORE", "state": "NY", "zip": "14735-8690", "ntee": "", "ruling": "197005", "deductibility": "1", "assets": 0, "income": 0, "revenue": 0}, {"ein": "222515035", "name": "TURNPIKE WESLEYAN CHURCH", "city": "PLATTSBURGH", "state": "NY", "zip": "12901-7381", "ntee": "", "ruling": "197005", "deductibility": "2", "assets": 0, "income": 0, "revenue": 0}, {"ein": "222993945", "name": "BIG TREE WESLEYAN CHURCH", "city": "BUFFALO", "state": "NY", "zip": "14219-2438", "ntee": "", "ruling": "197005", "deductibility": "1", "assets": 0, "income": 0, "revenue": 0}, {"ein": "222995777", "name": "LOCKPORT WESLEYAN CHURCH", "city": "LOCKPORT", "state": "NY", "zip": "14094-3505", "ntee": "", "ruling": "197005", "deductibility": "1", "assets": 0, "income": 0, "revenue": 0}, {"ein": "223069781", "name": "FALCONER IMMANUEL ALLEGHENY WESLEYAN METHODIST CHURCH INC", "city": "FALCONER", "state": "NY", "zip": "14733-9707", "ntee": "", "ruling": "197604", "deductibility": "1", "assets": 0, "income": 0, "revenue": 0}, {"ein": "237312742", "name": "EAST PICTCAIRN WESLEYAN CHURCH", "city": "HARRISVILLE", "state": "NY", "zip": "13648-3287", "ntee": "", "ruling": "197005", "deductibility": "1", "assets": 0, "income": 0, "revenue": 0}, {"ein": "311278758", "name": "ALBANY WESLEYAN CHURCH", "city": "ALBANY", "state": "NY", "zip": "12208-2124", "ntee": "", "ruling": "197005", "deductibility": "1", "assets": 0, "income": 0, "revenue": 0}, {"ein": "320270986", "name": "CHRIST CHAPEL WESLEYAN CHURCH HAMLIN", "city": "HAMLIN", "state": "NY", "zip": "14464-0322", "ntee": "", "ruling": "197005", "deductibility": "1", "assets": 0, "income": 0, "revenue": 0}, {"ein": "320406067", "name": "FORESTVILLE WESLEYAN CHURCH", "city": "FORESTVILLE", "state": "NY", "zip": "14062-0000", "ntee": "", "ruling": "197005", "deductibility": "1", "assets": 0, "income": 0, "revenue": 0}, {"ein": "364914945", "name": "ASHWOOD WESLEYAN CHURCH", "city": "LYNDONVILLE", "state": "NY", "zip": "14098-9616", "ntee": "", "ruling": "197005", "deductibility": "1", "assets": 0, "income": 0, "revenue": 0}, {"ein": "421590548", "name": "CORNERSTONE WESLEYAN TABERNACLE", "city": "SYRACUSE", "state": "NY", "zip": "13205-0704", "ntee": "", "ruling": "197005", "deductibility": "1", "assets": 0, "income": 0, "revenue": 0}, {"ein": "456691957", "name": "GEORGE LEE TR UW BO GRACE LEE MEM WESLEYAN CHURCH OF CHAMBERS", "city": "ELMIRA", "state": "NY", "zip": "14902-1522", "ntee": "", "ruling": "000000", "deductibility": "0", "assets": 443001, "income": 231644, "revenue": 0}, {"ein": "460713824", "name": "MATU CHRISTIAN WESLEYAN CHURCH", "city": "SYRACUSE", "state": "NY", "zip": "13206-2923", "ntee": "", "ruling": "197005", "deductibility": "1", "assets": 0, "income": 0, "revenue": 0}, {"ein": "462295157", "name": "HOUSE OF PRAYER WESLEYAN COMMUNITY CHURCH", "city": "S OZONE PARK", "state": "NY", "zip": "11420-1928", "ntee": "", "ruling": "197005", "deductibility": "1", "assets": 16818, "income": 96988, "revenue": 96988}, {"ein": "462370153", "name": "SOUTH OZONE PARK WESLEYAN CHURCH", "city": "ELMONT", "state": "NY", "zip": "11003-2203", "ntee": "", "ruling": "197005", "deductibility": "1", "assets": 0, "income": 0, "revenue": 0}, {"ein": "473889458", "name": "ANCHOR WESLEYAN CHURCH", "city": "BUFFALO", "state": "NY", "zip": "14216-2504", "ntee": "", "ruling": "197005", "deductibility": "1", "assets": 0, "income": 0, "revenue": 0}, {"ein": "542120027", "name": "GRACE WESLEYAN CHURCH", "city": "WATERTOWN", "state": "NY", "zip": "13601-2446", "ntee": "", "ruling": "197005", "deductibility": "1", "assets": 0, "income": 0, "revenue": 0}, {"ein": "550848205", "name": "LIGHTHOUSE WESLEYAN CHURCH", "city": "SPRINGWATER", "state": "NY", "zip": "14560-0052", "ntee": "", "ruling": "197005", "deductibility": "1", "assets": 0, "income": 0, "revenue": 0}, {"ein": "611574040", "name": "UTICA KAREN CHURCH-A WESLEYAN CONGREGATION", "city": "UTICA", "state": "NY", "zip": "13501-0000", "ntee": "", "ruling": "197005", "deductibility": "1", "assets": 0, "income": 0, "revenue": 0}, {"ein": "760840418", "name": "ASHVILLE WESLEYAN METHODIST CHURCH INC", "city": "ASHVILLE", "state": "NY", "zip": "14710-0104", "ntee": "", "ruling": "197604", "deductibility": "1", "assets": 0, "income": 0, "revenue": 0}, {"ein": "800638680", "name": "EBENEZER WESLEYAN CHURCH", "city": "GREENLAWN", "state": "NY", "zip": "11740-3120", "ntee": "", "ruling": "197005", "deductibility": "1", "assets": 0, "income": 0, "revenue": 0}, {"ein": "800804841", "name": "HOME CITY WESLEYAN CHURCH", "city": "DEPEW", "state": "NY", "zip": "14043-2542", "ntee": "", "ruling": "197005", "deductibility": "1", "assets": 0, "income": 0, "revenue": 0}, {"ein": "800961353", "name": "WESLEYAN JERUSALEM CHURCH", "city": "CORONA", "state": "NY", "zip": "11368-1035", "ntee": "", "ruling": "197005", "deductibility": "1", "assets": 0, "income": 0, "revenue": 0}, {"ein": "821940154", "name": "MISSION OF CHRIST WESLEYAN CHURCH", "city": "BUFFALO", "state": "NY", "zip": "14213-1150", "ntee": "", "ruling": "197005", "deductibility": "1", "assets": 0, "income": 0, "revenue": 0}, {"ein": "822409240", "name": "WESLEYAN ASSOCIATION FOR SANCTIFICATION INC", "city": "FLUSHING", "state": "NY", "zip": "11358-2057", "ntee": "X20", "ruling": "201905", "deductibility": "1", "assets": 0, "income": 0, "revenue": 0}, {"ein": "861466530", "name": "INSPIRE WESLEYAN CHURCH", "city": "BIG FLATS", "state": "NY", "zip": "14814-7950", "ntee": "", "ruling": "197005", "deductibility": "1", "assets": 0, "income": 0, "revenue": 0}, {"ein": "900841363", "name": "NEW HOPE WESLEYAN CHURCH", "city": "HORNELL", "state": "NY", "zip": "14843-2157", "ntee": "", "ruling": "197005", "deductibility": "1", "assets": 0, "income": 0, "revenue": 0}, {"ein": "933650045", "name": "NEW HEART WESLEYAN CHURCH", "city": "BURDETT", "state": "NY", "zip": "14818-9764", "ntee": "", "ruling": "197005", "deductibility": "1", "assets": 0, "income": 0, "revenue": 0}], "FENICHEL": [{"ein": "112423630", "name": "CARL FENICHEL REAL PROPERTIES INC C O LEAGUE SCHOOL", "city": "BROOKLYN", "state": "NY", "zip": "11238-2253", "ntee": "", "ruling": "197707", "deductibility": "2", "assets": 403364, "income": 0, "revenue": 0}, {"ein": "112449485", "name": "CARL FENICHEL COMMUNITY SERVICES INC", "city": "BROOKLYN", "state": "NY", "zip": "11238-2253", "ntee": "Z99", "ruling": "197702", "deductibility": "1", "assets": 39131155, "income": 11754810, "revenue": 11754810}], "68TH": [{"ein": "112478910", "name": "68TH PRECINCT YOUTH COUNCIL INC", "city": "BROOKLYN", "state": "NY", "zip": "11220-4927", "ntee": "", "ruling": "197902", "deductibility": "1", "assets": 0, "income": 0, "revenue": 0}], "SARANG": [{"ein": "112498537", "name": "THE SARANG PRESBYTERIAN CHURCH INC", "city": "PALISADES", "state": "NY", "zip": "10964-1331", "ntee": "", "ruling": "198106", "deductibility": "1", "assets": 0, "income": 0, "revenue": 0}, {"ein": "270604174", "name": "ALBANY SARANG FELLOWSHIP CHURCH", "city": "WATERVLIET", "state": "NY", "zip": "12189-0000", "ntee": "X20", "ruling": "201008", "deductibility": "1", "assets": 0, "income": 0, "revenue": 0}, {"ein": "333089502", "name": "HANGEUL SARANG INC", "city": "ALBERTSON", "state": "NY", "zip": "11507-1007", "ntee": "A70", "ruling": "202502", "deductibility": "1", "assets": 0, "income": 0, "revenue": 0}, {"ein": "874266842", "name": "SARANG MOUNTAIN FOUNDATION INC", "city": "MONROE", "state": "NY", "zip": "10950-6808", "ntee": "A26", "ruling": "202202", "deductibility": "1", "assets": 0, "income": 0, "revenue": 0}], "HATZLACHA": [{"ein": "112508744", "name": "RAV HATZLACHA", "city": "BROOKLYN", "state": "NY", "zip": "11206-4803", "ntee": "", "ruling": "198905", "deductibility": "1", "assets": 0, "income": 0, "revenue": 0}, {"ein": "112611291", "name": "GREATER BETH HATZLACHA INC", "city": "BROOKLYN", "state": "NY", "zip": "11204-1742", "ntee": "", "ruling": "198208", "deductibility": "1", "assets": 0, "income": 0, "revenue": 0}, {"ein": "113405704", "name": "SHAAREI HATZLACHA FOUNDATION", "city": "SPRING VALLEY", "state": "NY", "zip": "10977-1908", "ntee": "T20Z", "ruling": "199801", "deductibility": "1", "assets": 823711, "income": 388482, "revenue": 0}, {"ein": "113415194", "name": "HATZLACHA FOUNDATION", "city": "BROOKLYN", "state": "NY", "zip": "11219-3252", "ntee": "T30Z", "ruling": "199804", "deductibility": "1", "assets": 650605, "income": 110120, "revenue": 0}, {"ein": "113530987", "name": "BAIS HATZLACHA", "city": "BROOKLYN", "state": "NY", "zip": "11211-7889", "ntee": "X30", "ruling": "200005", "deductibility": "1", "assets": 0, "income": 0, "revenue": 0}], "RADIN": [{"ein": "112592854", "name": "KOLLEL RADIN INC", "city": "BROOKLYN", "state": "NY", "zip": "11229-1902", "ntee": "", "ruling": "198204", "deductibility": "1", "assets": 0, "income": 0, "revenue": 0}, {"ein": "113503686", "name": "RADIN INSTITUTE FOR FAMILY HEALTH EDUCATION & PROMOTION RIFHEP INC", "city": "NEW YORK", "state": "NY", "zip": "10017-0000", "ntee": "E70", "ruling": "200108", "deductibility": "1", "assets": 0, "income": 0, "revenue": 0}, {"ein": "841984895", "name": "CONGREGATION RADIN DEVELOPMENT INC", "city": "SPRING VALLEY", "state": "NY", "zip": "10977-1331", "ntee": "X20", "ruling": "201910", "deductibility": "1", "assets": 0, "income": 0, "revenue": 0}], "REM": [{"ein": "112623538", "name": "BAIS MEDRASH REM", "city": "FLUSHING", "state": "NY", "zip": "11367-3129", "ntee": "", "ruling": "199011", "deductibility": "1", "assets": 0, "income": 0, "revenue": 0}, {"ein": "251341907", "name": "CHARLES C GLAZER CHARITABLE REM UNITRUST", "city": "BUFFALO", "state": "NY", "zip": "14240-1504", "ntee": "T20", "ruling": "201501", "deductibility": "1", "assets": 2768971, "income": 680524, "revenue": 0}, {"ein": "873939856", "name": "REM CENTER", "city": "BROOKLYN", "state": "NY", "zip": "11201-7171", "ntee": "P20", "ruling": "202202", "deductibility": "1", "assets": 0, "income": 0, "revenue": 0}], "PAMOJA": [{"ein": "112675974", "name": "PAMOJA INTERNATIONAL CULTURAL EXCHANGE INC", "city": "BRASHER FALLS", "state": "NY", "zip": "13613-3242", "ntee": "", "ruling": "198411", "deductibility": "1", "assets": 0, "income": 0, "revenue": 0}, {"ein": "922190658", "name": "PAMOJA INITIATIVE CORP", "city": "NEW YORK", "state": "NY", "zip": "10040-3680", "ntee": "X12", "ruling": "202302", "deductibility": "1", "assets": 0, "income": 0, "revenue": 0}], "SWEC": [{"ein": "112743889", "name": "SWEC MINISTRIES", "city": "BROOKLYN", "state": "NY", "zip": "11213-4105", "ntee": "", "ruling": "198909", "deductibility": "1", "assets": 0, "income": 0, "revenue": 0}, {"ein": "223279557", "name": "SWEC ASSOCIATION INC", "city": "LAURENS", "state": "NY", "zip": "13796-1193", "ntee": "J03", "ruling": "201309", "deductibility": "2", "assets": 49711, "income": 3480, "revenue": 3480}], "ERETZ": [{"ein": "112844828", "name": "CONGREGATION BIKUR CHOLIM LEANIYEE ERETZ YISROEL", "city": "BROOKLYN", "state": "NY", "zip": "11211-7916", "ntee": "", "ruling": "198706", "deductibility": "1", "assets": 0, "income": 0, "revenue": 0}, {"ein": "113421705", "name": "ACHUZAT AVOT IN ERETZ HACHAIM", "city": "BROOKLYN", "state": "NY", "zip": "11218-3610", "ntee": "X30Z", "ruling": "199805", "deductibility": "1", "assets": 0, "income": 0, "revenue": 0}, {"ein": "113446927", "name": "YETEZ LEV IN ERETZ YISROAL", "city": "BROOKLYN", "state": "NY", "zip": "11205-4328", "ntee": "X30Z", "ruling": "199809", "deductibility": "1", "assets": 0, "income": 0, "revenue": 0}, {"ein": "113561111", "name": "MERCAZ BETH JACOB IN ERETZ YISROEL", "city": "BROOKLYN", "state": "NY", "zip": "11204-1465", "ntee": "X30", "ruling": "200011", "deductibility": "1", "assets": 15281, "income": 198573, "revenue": 198573}, {"ein": "134199320", "name": "ERETZ ISRAEL MOVEMENT", "city": "NEW YORK", "state": "NY", "zip": "10001-2024", "ntee": "X30", "ruling": "200208", "deductibility": "1", "assets": 198765, "income": 904429, "revenue": 904429}, {"ein": "237309992", "name": "NEVE ERETZ", "city": "BROOKLYN", "state": "NY", "zip": "11229-1518", "ntee": "", "ruling": "197309", "deductibility": "1", "assets": 0, "income": 0, "revenue": 0}, {"ein": "270452121", "name": "TZIDKAS ERETZ HAKODESH", "city": "BROOKLYN", "state": "NY", "zip": "11219-2603", "ntee": "X21", "ruling": "201809", "deductibility": "1", "assets": 0, "income": 0, "revenue": 0}, {"ein": "300218727", "name": "ERETZ HACHAIM US INC", "city": "BROOKLYN", "state": "NY", "zip": "11218-3610", "ntee": "X12", "ruling": "200404", "deductibility": "1", "assets": 9861906, "income": 0, "revenue": 0}, {"ein": "460929080", "name": "KUPAS MAOS ERETZ YISROEL MEIR BAAL HANES RIZHIN BOYAN INC", "city": "BROOKLYN", "state": "NY", "zip": "11219-4043", "ntee": "Q33", "ruling": "201402", "deductibility": "1", "assets": 4084, "income": 82440, "revenue": 82440}, {"ein": "854208209", "name": "KIPAS EZRAH LENIYEI ERETZ YISROEL INC", "city": "BROOKLYN", "state": "NY", "zip": "11205-1503", "ntee": "X30", "ruling": "202105", "deductibility": "1", "assets": 0, "income": 0, "revenue": 0}, {"ein": "861607129", "name": "KEREN LEV AHARON D ERETZ YISROEL", "city": "MONSEY", "state": "NY", "zip": "10952-3063", "ntee": "X30", "ruling": "202112", "deductibility": "1", "assets": 0, "income": 0, "revenue": 0}, {"ein": "994163294", "name": "ERETZ TOVA BRIDAL FUND INC", "city": "BROOKLYN", "state": "NY", "zip": "11249-7813", "ntee": "X30", "ruling": "202504", "deductibility": "1", "assets": 0, "income": 0, "revenue": 0}], "NUESTRO": [{"ein": "112894550", "name": "CASA DE ORACION DE NUESTRO SENOR JESUS CRISTO INC", "city": "BROOKLYN", "state": "NY", "zip": "11221-3143", "ntee": "", "ruling": "199005", "deductibility": "1", "assets": 0, "income": 0, "revenue": 0}, {"ein": "465070148", "name": "NUESTRO IDEAL INC", "city": "REGO PARK", "state": "NY", "zip": "11374-1031", "ntee": "A23", "ruling": "201701", "deductibility": "1", "assets": 0, "income": 0, "revenue": 0}, {"ein": "471631425", "name": "IGLESIA JESUCRISTO ES NUESTRO REY JESUS CHRIST IS OUR KING CHURCH IN", "city": "MANORVILLE", "state": "NY", "zip": "11949-0017", "ntee": "X20", "ruling": "201502", "deductibility": "1", "assets": 0, "income": 0, "revenue": 0}], "WALKER": [{"ein": "112988666", "name": "PALMER WALKER FOUNDATION", "city": "ROCKVILLE CENTRE", "state": "NY", "zip": "11570-0000", "ntee": "", "ruling": "199007", "deductibility": "1", "assets": 744668, "income": 199026, "revenue": 0}, {"ein": "113157874", "name": "CHARLES AND ETHEL WALKER FOUNDATION INC", "city": "PRT WASHINGTN", "state": "NY", "zip": "11050-4443", "ntee": "", "ruling": "199308", "deductibility": "1", "assets": 32036, "income": 1946, "revenue": 0}, {"ein": "113341395", "name": "THE GEORGE WALKER JR COMMUNITY COALITION INC", "city": "BROOKLYN", "state": "NY", "zip": "11207-2428", "ntee": "S20", "ruling": "199701", "deductibility": "1", "assets": 39, "income": 85313, "revenue": 85313}, {"ein": "133275044", "name": "WALKER STREET CHUNG PAK LOCAL DEVELOPMENT", "city": "NEW YORK", "state": "NY", "zip": "10013-4482", "ntee": "L20", "ruling": "200709", "deductibility": "1", "assets": 12255893, "income": 2021618, "revenue": 2021618}, {"ein": "134023553", "name": "ANNE WALKER SCHOLARSHIP FUND", "city": "NEW YORK", "state": "NY", "zip": "10036-1308", "ntee": "B82Z", "ruling": "199810", "deductibility": "1", "assets": 77950, "income": 6170, "revenue": 0}, {"ein": "134092798", "name": "NANCY AND GEORGE WALKER FOUNDATION", "city": "NEW YORK", "state": "NY", "zip": "10274-0073", "ntee": "T20", "ruling": "200105", "deductibility": "1", "assets": 6123223, "income": 1390423, "revenue": 0}, {"ein": "136084806", "name": "GEORGE HERBERT WALKER FOUNDATION", "city": "NEW YORK", "state": "NY", "zip": "10008-2239", "ntee": "", "ruling": "195710", "deductibility": "1", "assets": 887499, "income": 321987, "revenue": 0}, {"ein": "161320090", "name": "WALKER FIRE DEPARTMENT", "city": "HILTON", "state": "NY", "zip": "14468-9154", "ntee": "M24Z", "ruling": "199403", "deductibility": "1", "assets": 128556, "income": 64413, "revenue": 38684}, {"ein": "161585841", "name": "RACHEL WALKER CHARITABLE FOUNDATION", "city": "COOPERSTOWN", "state": "NY", "zip": "13326-0431", "ntee": "T23", "ruling": "200103", "deductibility": "1", "assets": 444723, "income": 301821, "revenue": 0}, {"ein": "166026405", "name": "GEORGE WALKER UW FBO CLIFTON SPRINGS HOSPITAL 1000844", "city": "PITTSFORD", "state": "NY", "zip": "14534-3838", "ntee": "", "ruling": "000000", "deductibility": "0", "assets": 736907, "income": 155637, "revenue": 0}, {"ein": "166185002", "name": "TRUST UWO MURRAY WALKER PAR 4 FBO IRA DAVENPORT HOSPITAL", "city": "PITTSFORD", "state": "NY", "zip": "14534-3838", "ntee": "T22", "ruling": "200909", "deductibility": "1", "assets": 141200, "income": 16554, "revenue": 0}, {"ein": "166185004", "name": "TRUST UWO MURRAY WALKER PAR 3 FBO CENTENARY UNITED CHURCH", "city": "PITTSFORD", "state": "NY", "zip": "14534-3838", "ntee": "T22", "ruling": "200907", "deductibility": "1", "assets": 153066, "income": 18649, "revenue": 0}, {"ein": "205656675", "name": "WALKER VALLEY SPORTSMEN SASSOCIATION INC", "city": "WALKER VALLEY", "state": "NY", "zip": "12588-0021", "ntee": "N50", "ruling": "200704", "deductibility": "2", "assets": 244394, "income": 29216, "revenue": 26149}, {"ein": "256187787", "name": "FRANK & EDNA WALKER TR", "city": "BUFFALO", "state": "NY", "zip": "14240-1504", "ntee": "A20Z", "ruling": "199605", "deductibility": "1", "assets": 1571725, "income": 147158, "revenue": 0}, {"ein": "256241739", "name": "EDNA & FRANK WALKER RESIDUARY TR", "city": "BUFFALO", "state": "NY", "zip": "14240-1504", "ntee": "T20Z", "ruling": "199605", "deductibility": "1", "assets": 2225887, "income": 190929, "revenue": 0}, {"ein": "333278079", "name": "LISA J WALKER MINISTRIES INC", "city": "SPRING VALLEY", "state": "NY", "zip": "10977-3972", "ntee": "X20", "ruling": "202503", "deductibility": "1", "assets": 0, "income": 0, "revenue": 0}, {"ein": "334023281", "name": "WALKER GENESIS PROJECT", "city": "JAMAICA", "state": "NY", "zip": "11433-3718", "ntee": "O50", "ruling": "202505", "deductibility": "1", "assets": 0, "income": 0, "revenue": 0}, {"ein": "352829065", "name": "U J WALKER FOUNDATION CORPORATION", "city": "SPRNGFLD GDNS", "state": "NY", "zip": "11413-1321", "ntee": "T50", "ruling": "202407", "deductibility": "1", "assets": 0, "income": 0, "revenue": 0}, {"ein": "510180480", "name": "MANIATTY & WALKER FAMILY FOUNDATION INC", "city": "NEW YORK", "state": "NY", "zip": "10018-5366", "ntee": "", "ruling": "197602", "deductibility": "1", "assets": 210706, "income": 10791, "revenue": 0}, {"ein": "815214218", "name": "HEZEKIAH X WALKER COMMUNITY DEVELOPMENT CORPORATION", "city": "BROOKLYN", "state": "NY", "zip": "11207-3102", "ntee": "L80", "ruling": "202308", "deductibility": "1", "assets": 0, "income": 0, "revenue": 0}, {"ein": "830896909", "name": "MADAM CJ WALKER INSTITUTE FOR WOMEN ENTREPRENEURS OF COLOR", "city": "NEW YORK", "state": "NY", "zip": "10019-0000", "ntee": "T11", "ruling": "201907", "deductibility": "1", "assets": 5467695, "income": 1269829, "revenue": 1269829}, {"ein": "852437160", "name": "WALKER LEARNING CENTER", "city": "NEW ROCHELLE", "state": "NY", "zip": "10801-7008", "ntee": "O50", "ruling": "202009", "deductibility": "1", "assets": 1, "income": 1, "revenue": 0}], "DAROMA": [{"ein": "113090064", "name": "YESHIVA DAROMA", "city": "BROOKLYN", "state": "NY", "zip": "11210-3714", "ntee": "", "ruling": "199209", "deductibility": "1", "assets": 0, "income": 0, "revenue": 0}], "SEOUL": [{"ein": "113097845", "name": "SEOUL KOREAN BAPTIST CHURCH OF NEW YORK", "city": "ELMHURST", "state": "NY", "zip": "11373-3845", "ntee": "", "ruling": "199303", "deductibility": "1", "assets": 0, "income": 0, "revenue": 0}, {"ein": "113229661", "name": "SEOUL PRESBYTERIAN CHURCH OF NEW YORK", "city": "FLUSHING", "state": "NY", "zip": "11354-2925", "ntee": "X20Z", "ruling": "199804", "deductibility": "1", "assets": 249599, "income": 97158, "revenue": 97158}], "SEAPORT": [{"ein": "113109151", "name": "EAST END SEAPORT MUSEUM AND MARINE", "city": "GREENPORT", "state": "NY", "zip": "11944-0624", "ntee": "S31I", "ruling": "199209", "deductibility": "1", "assets": 346552, "income": 307125, "revenue": 307125}, {"ein": "113215778", "name": "LONG ISLAND SEAPORT & ECOCENTER INC", "city": "PRT JEFFERSON", "state": "NY", "zip": "11777-1258", "ntee": "A80", "ruling": "201504", "deductibility": "1", "assets": 76358, "income": 55323, "revenue": 45657}, {"ein": "132596500", "name": "SEAPORT MUSEUM NEW YORK", "city": "NEW YORK", "state": "NY", "zip": "10038-2101", "ntee": "A500", "ruling": "198903", "deductibility": "1", "assets": 26894548, "income": 6612049, "revenue": 6471516}, {"ein": "133798941", "name": "SEAPORT COMMUNITY COALITION", "city": "NEW YORK", "state": "NY", "zip": "10272-0435", "ntee": "S21", "ruling": "199704", "deductibility": "1", "assets": 0, "income": 0, "revenue": 0}, {"ein": "311584606", "name": "SOUTH STREET SEAPORT MUSEUM FOUNDATION", "city": "NEW YORK", "state": "NY", "zip": "10038-2101", "ntee": "T31Z", "ruling": "199802", "deductibility": "1", "assets": 4489977, "income": 0, "revenue": 0}, {"ein": "463790675", "name": "OLD SEAPORT ALLIANCE", "city": "NEW YORK", "state": "NY", "zip": "10038-0000", "ntee": "S30", "ruling": "201604", "deductibility": "1", "assets": 1862, "income": 0, "revenue": 0}, {"ein": "471396921", "name": "TASTE OF THE SEAPORT", "city": "NEW YORK", "state": "NY", "zip": "10038-1523", "ntee": "B12", "ruling": "201412", "deductibility": "1", "assets": 260329, "income": 258656, "revenue": 258656}, {"ein": "852522079", "name": "SOUTH STREET SEAPORT COALITION INC", "city": "NEW YORK", "state": "NY", "zip": "10009-5025", "ntee": "S21", "ruling": "202010", "deductibility": "1", "assets": 0, "income": 0, "revenue": 0}], "POWERED": [{"ein": "113141246", "name": "POWERED BY CHRIST CHURCH", "city": "MASSAPEQUA", "state": "NY", "zip": "11758-2625", "ntee": "", "ruling": "199408", "deductibility": "1", "assets": 0, "income": 0, "revenue": 0}, {"ein": "461988762", "name": "POWERED TO THRIVE BY LUNA INC", "city": "MIDDLE ISLAND", "state": "NY", "zip": "11953-1924", "ntee": "O99", "ruling": "201405", "deductibility": "1", "assets": 1598, "income": 8870, "revenue": 8870}, {"ein": "834639916", "name": "PLANT POWERED METRO NEW YORK INC", "city": "NEW YORK", "state": "NY", "zip": "10025-1516", "ntee": "K40", "ruling": "202107", "deductibility": "1", "assets": 134772, "income": 885232, "revenue": 885232}, {"ein": "853664003", "name": "PEOPLE POWERED - GLOBAL HUB FOR PARTICIPATORY DEMOCRACY INC", "city": "BROOKLYN", "state": "NY", "zip": "11215-4702", "ntee": "S01", "ruling": "202106", "deductibility": "1", "assets": 1076875, "income": 954953, "revenue": 954953}, {"ein": "854244638", "name": "POWERED BY INCLUSION INC", "city": "BROOKLYN", "state": "NY", "zip": "11201-7903", "ntee": "P80", "ruling": "202103", "deductibility": "1", "assets": 8866, "income": 5000, "revenue": 5000}], "PREVOYANCE": [{"ein": "113178373", "name": "EGLISE EVANGELIQUE FRANTERNEL DE PREVOYANCE", "city": "WYANDANCH", "state": "NY", "zip": "11798-0983", "ntee": "X20Z", "ruling": "199706", "deductibility": "1", "assets": 0, "income": 0, "revenue": 0}], "YUN": [{"ein": "113201331", "name": "LIN YUN MONASTERY", "city": "OLD WESTBURY", "state": "NY", "zip": "11568-1315", "ntee": "", "ruling": "199506", "deductibility": "1", "assets": 0, "income": 0, "revenue": 0}, {"ein": "208812402", "name": "SHEN YUN PERFORMING ARTS INC", "city": "CUDDEBACKVLLE", "state": "NY", "zip": "12729-5225", "ntee": "A60", "ruling": "200706", "deductibility": "1", "assets": 266174496, "income": 51516963, "revenue": 51515988}, {"ein": "463845346", "name": "SHEN YUN FOUNDATION INC", "city": "MIDDLETOWN", "state": "NY", "zip": "10940-7338", "ntee": "X81", "ruling": "201408", "deductibility": "1", "assets": 19433094, "income": 524796, "revenue": 524796}, {"ein": "922703210", "name": "SHEN YUN PERFORMING ARTS CENTER INC", "city": "MIDDLETOWN", "state": "NY", "zip": "10940-1909", "ntee": "A61", "ruling": "202303", "deductibility": "1", "assets": 0, "income": 0, "revenue": 0}], "X": [{"ein": "113202566", "name": "L I D X ASSOCIATION INC", "city": "W HEMPSTEAD", "state": "NY", "zip": "11552-1613", "ntee": "M20Z", "ruling": "199811", "deductibility": "1", "assets": 0, "income": 0, "revenue": 0}, {"ein": "133862213", "name": "X-QUEST INC", "city": "SCHENECTADY", "state": "NY", "zip": "12309-5925", "ntee": "A250", "ruling": "199905", "deductibility": "1", "assets": 325721, "income": 115864, "revenue": 115864}, {"ein": "134118724", "name": "MALCOLM X APARTMENTS INC", "city": "NEW YORK", "state": "NY", "zip": "10039-3917", "ntee": "L21", "ruling": "200205", "deductibility": "1", "assets": 2312498, "income": 1722841, "revenue": -139868}, {"ein": "134138154", "name": "SOCIETY OF SAINT PIUS X NEW YORK NEW YORK", "city": "NEW YORK", "state": "NY", "zip": "10009-4812", "ntee": "", "ruling": "198304", "deductibility": "1", "assets": 0, "income": 0, "revenue": 0}, {"ein": "141387288", "name": "ST PIUS X CHURCH", "city": "LOUDONVILLE", "state": "NY", "zip": "12211-2048", "ntee": "", "ruling": "194603", "deductibility": "1", "assets": 0, "income": 0, "revenue": 0}, {"ein": "141798498", "name": "SOCIETY OF SAINT PIUS X POTSDAM NEW YORK INC", "city": "NICHOLVILLE", "state": "NY", "zip": "12965-0000", "ntee": "", "ruling": "198304", "deductibility": "1", "assets": 0, "income": 0, "revenue": 0}, {"ein": "161246714", "name": "SOUTHTOWN B M X INC", "city": "HAMBURG", "state": "NY", "zip": "14075-6010", "ntee": "", "ruling": "198805", "deductibility": "1", "assets": 0, "income": 0, "revenue": 0}, {"ein": "161270726", "name": "SOCIETY OF SAINT PIUS X SOUTH-WEST DISTRICT INC", "city": "SYRACUSE", "state": "NY", "zip": "13208-0322", "ntee": "", "ruling": "198304", "deductibility": "1", "assets": 0, "income": 0, "revenue": 0}, {"ein": "161531152", "name": "SOCIETY OF SAINT PIUS X BINGHAMTON NEW YORK INC", "city": "BINGHAMTON", "state": "NY", "zip": "13901-1536", "ntee": "", "ruling": "198304", "deductibility": "1", "assets": 0, "income": 0, "revenue": 0}, {"ein": "161531895", "name": "SOCIETY OF SAINT PIUS X SYRACUSE NEW YORK INC", "city": "WARNERS", "state": "NY", "zip": "13164-9733", "ntee": "", "ruling": "198304", "deductibility": "1", "assets": 0, "income": 0, "revenue": 0}, {"ein": "166053472", "name": "ST PIUS X R C CHURCH", "city": "GETZVILLE", "state": "NY", "zip": "14068-0162", "ntee": "", "ruling": "194603", "deductibility": "0", "assets": 0, "income": 0, "revenue": 0}, {"ein": "202403979", "name": "MALCOLM X & DR BETTY SHABAZZ MEMORIAL & EDUCATIONAL CENTER INC", "city": "NEW YORK", "state": "NY", "zip": "10032-1534", "ntee": "A80", "ruling": "202108", "deductibility": "1", "assets": 647480, "income": 681591, "revenue": 681591}, {"ein": "204255158", "name": "7 X 24 EXCHANGE INTERNATIONAL", "city": "STATEN ISLAND", "state": "NY", "zip": "10306-7360", "ntee": "S41", "ruling": "201701", "deductibility": "2", "assets": 0, "income": 0, "revenue": 0}, {"ein": "222591809", "name": "SOCIETY OF SAINT PIUS X BUFFALO NEW YORK INC", "city": "BUFFALO", "state": "NY", "zip": "14220-1432", "ntee": "", "ruling": "198304", "deductibility": "1", "assets": 0, "income": 0, "revenue": 0}, {"ein": "223075802", "name": "7 X 24 EXCHANGE INC", "city": "STATEN ISLAND", "state": "NY", "zip": "10306-7360", "ntee": "", "ruling": "201102", "deductibility": "2", "assets": 3815652, "income": 6519078, "revenue": 5970880}, {"ein": "237408549", "name": "NEW YORK FRIENDS OF THE SOCIETY OF ST PIUS X INC", "city": "OYSTER BAY", "state": "NY", "zip": "11771-4010", "ntee": "", "ruling": "197411", "deductibility": "1", "assets": 0, "income": 0, "revenue": 0}, {"ein": "273116965", "name": "7 X 24 EXCHANGE INTERNATIONAL", "city": "STATEN ISLAND", "state": "NY", "zip": "10306-7360", "ntee": "", "ruling": "201102", "deductibility": "2", "assets": 0, "income": 0, "revenue": 0}, {"ein": "452779900", "name": "7 X 24 EXCHANGE INTERNATIONAL", "city": "STATEN ISLAND", "state": "NY", "zip": "10306-7360", "ntee": "", "ruling": "201102", "deductibility": "2", "assets": 0, "income": 0, "revenue": 0}, {"ein": "452780126", "name": "7 X 24 EXCHANGE INTERNATIONAL", "city": "STATEN ISLAND", "state": "NY", "zip": "10306-7360", "ntee": "", "ruling": "201102", "deductibility": "2", "assets": 0, "income": 0, "revenue": 0}, {"ein": "461744738", "name": "X COLLECTIVE INC", "city": "BRONX", "state": "NY", "zip": "10457-7862", "ntee": "A20", "ruling": "201504", "deductibility": "1", "assets": 0, "income": 0, "revenue": 0}, {"ein": "463799050", "name": "B O X E R INC", "city": "NEW YORK", "state": "NY", "zip": "10163-9548", "ntee": "N30", "ruling": "201507", "deductibility": "1", "assets": 45259, "income": 87901, "revenue": 0}, {"ein": "510441477", "name": "SHARE X INC", "city": "MEDFORD", "state": "NY", "zip": "11763-2555", "ntee": "L21", "ruling": "200303", "deductibility": "1", "assets": 1193753, "income": 171366, "revenue": 171366}, {"ein": "593834344", "name": "OCL PROPERTIES X INC", "city": "RONKONKOMA", "state": "NY", "zip": "11779-7206", "ntee": "L21", "ruling": "200609", "deductibility": "1", "assets": 1362836, "income": 156087, "revenue": 156087}, {"ein": "813414332", "name": "7 X 24 EXCHANGE INC", "city": "STATEN ISLAND", "state": "NY", "zip": "10306-7360", "ntee": "", "ruling": "201102", "deductibility": "2", "assets": 0, "income": 0, "revenue": 0}, {"ein": "813431905", "name": "7 X 24 EXCHANGE INC", "city": "STATEN ISLAND", "state": "NY", "zip": "10306-7360", "ntee": "S41", "ruling": "201102", "deductibility": "2", "assets": 0, "income": 0, "revenue": 0}, {"ein": "815214218", "name": "HEZEKIAH X WALKER COMMUNITY DEVELOPMENT CORPORATION", "city": "BROOKLYN", "state": "NY", "zip": "11207-3102", "ntee": "L80", "ruling": "202308", "deductibility": "1", "assets": 0, "income": 0, "revenue": 0}, {"ein": "823033322", "name": "7 X 24 EXCHANGE INC", "city": "STATEN ISLAND", "state": "NY", "zip": "10306-7360", "ntee": "S41", "ruling": "201102", "deductibility": "2", "assets": 0, "income": 0, "revenue": 0}, {"ein": "831687733", "name": "KNIGHTS OF COLUMBUS ST PIUS X COUNCIL 17086", "city": "ROCHESTER", "state": "NY", "zip": "14624-4533", "ntee": "Y41", "ruling": "202412", "deductibility": "1", "assets": 0, "income": 0, "revenue": 0}, {"ein": "851307824", "name": "7 X 24 EXCHANGE INTERNATIONAL LAKE MICHIGAN REGION CHAPTER INC", "city": "STATEN ISLAND", "state": "NY", "zip": "10306-7360", "ntee": "S41", "ruling": "202301", "deductibility": "2", "assets": 0, "income": 0, "revenue": 0}, {"ein": "881360914", "name": "MISSION TWO X INC", "city": "GARDEN CITY", "state": "NY", "zip": "11530-5427", "ntee": "S43", "ruling": "202304", "deductibility": "1", "assets": 0, "income": 0, "revenue": 0}, {"ein": "923180671", "name": "T C H X YOUNG LEGENDS INCORPORATED", "city": "BRONX", "state": "NY", "zip": "10463-4444", "ntee": "P30", "ruling": "202304", "deductibility": "1", "assets": 0, "income": 0, "revenue": 0}, {"ein": "932346846", "name": "BENJAMIN X ROWE PROJECT INC", "city": "ALBANY", "state": "NY", "zip": "12203-4730", "ntee": "A68", "ruling": "202308", "deductibility": "1", "assets": 12453, "income": 5164, "revenue": 0}], "CHRITIAN": [{"ein": "113224636", "name": "UNITED TELUGU CHRITIAN FELLOWSHIP INC", "city": "FOREST HILLS", "state": "NY", "zip": "11375-1427", "ntee": "X99Z", "ruling": "199504", "deductibility": "1", "assets": 0, "income": 0, "revenue": 0}], "ALAN": [{"ein": "113293314", "name": "JOAN AND ALAN ADES-TAUB FAMILY FOUNDATION INC", "city": "ROSLYN HTS", "state": "NY", "zip": "11577-1415", "ntee": "T20J", "ruling": "199511", "deductibility": "1", "assets": 2235470, "income": 444110, "revenue": 0}, {"ein": "113353393", "name": "ALAN & CAROL SCHECHTER CHARITY FUND INC", "city": "NEW YORK", "state": "NY", "zip": "10028-7933", "ntee": "T20", "ruling": "199909", "deductibility": "1", "assets": 192352, "income": 223938, "revenue": 0}, {"ein": "113483455", "name": "LINDA AND ALAN KAHN FOUNDATION INC", "city": "FOREST HILLS", "state": "NY", "zip": "11375-6021", "ntee": "T20", "ruling": "200001", "deductibility": "1", "assets": 1891223, "income": 221809, "revenue": 0}, {"ein": "113635469", "name": "ALAN R MILLER FOUNDATION", "city": "GLEN COVE", "state": "NY", "zip": "11542-3112", "ntee": "T20", "ruling": "200203", "deductibility": "1", "assets": 453939, "income": 14515, "revenue": 0}, {"ein": "116530618", "name": "ALAN & ELAINE LICHTENBERG FOUNDATION", "city": "GREENVALE", "state": "NY", "zip": "11548-0224", "ntee": "T22", "ruling": "200705", "deductibility": "1", "assets": 505456, "income": 1253423, "revenue": 0}, {"ein": "133235209", "name": "ALAN AND LARAINE FISCHER FOUNDATION", "city": "LARCHMONT", "state": "NY", "zip": "10538-4022", "ntee": "", "ruling": "198501", "deductibility": "1", "assets": 2237, "income": 1, "revenue": 0}, {"ein": "133748894", "name": "ALAN AND ELISABETH H DOFT FOUNDATION INC", "city": "NEW YORK", "state": "NY", "zip": "10022-1112", "ntee": "", "ruling": "000000", "deductibility": "1", "assets": 4460454, "income": 231592, "revenue": 0}, {"ein": "136192257", "name": "ALAN B SLIFKA FOUNDATION INC", "city": "NEW YORK", "state": "NY", "zip": "10022-5459", "ntee": "", "ruling": "196510", "deductibility": "1", "assets": 65639780, "income": 330970, "revenue": 0}, {"ein": "136209280", "name": "THE DAVID AND ALAN GREENE FAMILY FOUNDATION INC", "city": "NEW YORK", "state": "NY", "zip": "10104-0000", "ntee": "", "ruling": "196611", "deductibility": "1", "assets": 25056835, "income": 8080608, "revenue": 0}, {"ein": "136928240", "name": "GRACE R AND ALAN D MARCUS FOUNDATION", "city": "NEW YORK", "state": "NY", "zip": "10024-0000", "ntee": "", "ruling": "199005", "deductibility": "1", "assets": 788416, "income": 1647569, "revenue": 0}, {"ein": "222557584", "name": "ALAN DEVOE BIRD CLUB INC", "city": "CHATHAM", "state": "NY", "zip": "12037-0000", "ntee": "D99Z", "ruling": "199501", "deductibility": "1", "assets": 0, "income": 0, "revenue": 0}, {"ein": "222677983", "name": "THE ALAN GOLDBERG CHARITABLE TRUST", "city": "ALBANY", "state": "NY", "zip": "12210-1037", "ntee": "", "ruling": "198603", "deductibility": "1", "assets": 98656, "income": 8002, "revenue": 0}, {"ein": "222817972", "name": "ALAN R WAREHIME CHARITABLE TRUST", "city": "BUFFALO", "state": "NY", "zip": "14240-1504", "ntee": "", "ruling": "198506", "deductibility": "1", "assets": 97209, "income": 15229, "revenue": 0}, {"ein": "237025317", "name": "ALAN D EMIL MEMORIAL FUND LTD", "city": "NEW YORK", "state": "NY", "zip": "10020-1508", "ntee": "", "ruling": "196909", "deductibility": "1", "assets": 14471, "income": 1, "revenue": 0}, {"ein": "237046420", "name": "BETSY & ALAN COHN FOUNDATION INC", "city": "NEW YORK", "state": "NY", "zip": "10006-2756", "ntee": "", "ruling": "197002", "deductibility": "1", "assets": 11720721, "income": 1799503, "revenue": 0}, {"ein": "256818502", "name": "JANE A LEHMAN AND ALAN G LEHMAN FOUNDATION", "city": "NEW YORK", "state": "NY", "zip": "10017-2234", "ntee": "T22", "ruling": "200211", "deductibility": "1", "assets": 6531073, "income": 1251455, "revenue": 0}, {"ein": "263451401", "name": "THE LORI G AND ALAN G@HARRIS FAMILY CHARITABLE TRUST", "city": "NEW YORK", "state": "NY", "zip": "10028-3221", "ntee": "T22", "ruling": "200902", "deductibility": "1", "assets": 6762, "income": 106, "revenue": 0}, {"ein": "274196642", "name": "ALAN AND GISELLE WEISSMAN FAMILY FOUNDATION INC", "city": "HARRISON", "state": "NY", "zip": "10528-2432", "ntee": "T20", "ruling": "201103", "deductibility": "1", "assets": 5573, "income": 188500, "revenue": 0}, {"ein": "332885076", "name": "ALAN OS CAST FOR A CAUSE INC", "city": "FREEPORT", "state": "NY", "zip": "11520-6238", "ntee": "H30", "ruling": "202502", "deductibility": "1", "assets": 0, "income": 0, "revenue": 0}, {"ein": "461520584", "name": "ALAN B@SLIFKA FOUNDATION", "city": "NEW YORK", "state": "NY", "zip": "10022-5459", "ntee": "T22", "ruling": "201302", "deductibility": "1", "assets": 1, "income": 1, "revenue": 0}, {"ein": "463455479", "name": "BRUCE ALAN EBERSOLE SCHOLARSHIP FOUNDATION", "city": "BROOKLYN", "state": "NY", "zip": "11216-2611", "ntee": "B82", "ruling": "201609", "deductibility": "1", "assets": 0, "income": 0, "revenue": 0}, {"ein": "742844699", "name": "ALAN AND TONIA GOULD FAMILY FOUNDATION INC", "city": "FREEPORT", "state": "NY", "zip": "11520-0000", "ntee": "T20Z", "ruling": "199710", "deductibility": "1", "assets": 256985, "income": 125122, "revenue": 0}, {"ein": "822678784", "name": "ALAN H BACHMAN AND JUDY L BACHMAN FOUNDATION", "city": "DOBBS FERRY", "state": "NY", "zip": "10522-3416", "ntee": "T20", "ruling": "201804", "deductibility": "1", "assets": 12421591, "income": 4337720, "revenue": 0}, {"ein": "830747355", "name": "KATHRYN AND ALAN C@GREENBERG CHARITABLE TRUST", "city": "NEW YORK", "state": "NY", "zip": "10065-6548", "ntee": "T20", "ruling": "201811", "deductibility": "1", "assets": 401582, "income": 66101, "revenue": 0}, {"ein": "842221450", "name": "ALAN R PEARLMAN FOUNDATION INC", "city": "KINGSTON", "state": "NY", "zip": "12401-4046", "ntee": "B82", "ruling": "202003", "deductibility": "1", "assets": 0, "income": 0, "revenue": 0}, {"ein": "850807053", "name": "DETECTIVE JEFFERY ALAN FUND INC", "city": "REGO PARK", "state": "NY", "zip": "11374-4726", "ntee": "B82", "ruling": "202103", "deductibility": "1", "assets": 0, "income": 0, "revenue": 0}, {"ein": "921404658", "name": "ALAN AND LI COLBERG FAMILY FOUNDATION", "city": "NEW YORK", "state": "NY", "zip": "10016-8908", "ntee": "T20", "ruling": "202301", "deductibility": "1", "assets": 4859688, "income": 4392521, "revenue": 0}], "IBRAN": [{"ein": "113385123", "name": "CONG KOLEL NISHMAS YISROEL IBRAN", "city": "BROOKLYN", "state": "NY", "zip": "11211-6702", "ntee": "X99Z", "ruling": "199708", "deductibility": "1", "assets": 0, "income": 0, "revenue": 0}, {"ein": "201888413", "name": "CONGREGATION IBRAN", "city": "BROOKLYN", "state": "NY", "zip": "11211-7115", "ntee": "X30", "ruling": "200507", "deductibility": "1", "assets": 0, "income": 0, "revenue": 0}], "FAVOR": [{"ein": "113418153", "name": "FAVOR OF GOD CHURCH INC", "city": "RICHMOND HILL", "state": "NY", "zip": "11419-3232", "ntee": "X20", "ruling": "200106", "deductibility": "1", "assets": 0, "income": 0, "revenue": 0}, {"ein": "203976253", "name": "DIVINE FAVOR ASSEMBLY OF GOD", "city": "BRONX", "state": "NY", "zip": "10459-1660", "ntee": "", "ruling": "196408", "deductibility": "1", "assets": 0, "income": 0, "revenue": 0}, {"ein": "263006465", "name": "DIVINE FAVOR ASSEMBLY OF GOD", "city": "BRONX", "state": "NY", "zip": "10459-1660", "ntee": "X20", "ruling": "196408", "deductibility": "1", "assets": 0, "income": 0, "revenue": 0}, {"ein": "460569557", "name": "FAVOR OF GOD INTERNATIONAL CHURCH INC", "city": "LAURELTON", "state": "NY", "zip": "11413-2926", "ntee": "X20", "ruling": "201305", "deductibility": "1", "assets": 0, "income": 0, "revenue": 0}, {"ein": "821089537", "name": "FAVOR CHAPEL INCORPORATED", "city": "BRONX", "state": "NY", "zip": "10466-2229", "ntee": "X20", "ruling": "201806", "deductibility": "1", "assets": 0, "income": 0, "revenue": 0}], "CAFFREY": [{"ein": "113434328", "name": "CAFFREY-CONROY LEARNING CENTER INC", "city": "ROCKAWAY PT", "state": "NY", "zip": "11697-1102", "ntee": "B90", "ruling": "199809", "deductibility": "1", "assets": 90289, "income": 79670, "revenue": 79670}], "DBONHAD": [{"ein": "113459858", "name": "BIRCHOS YITZCHOK DBONHAD", "city": "BROOKLYN", "state": "NY", "zip": "11218-3504", "ntee": "X30Z", "ruling": "199812", "deductibility": "1", "assets": 0, "income": 0, "revenue": 0}], "EINAYIM": [{"ein": "113491496", "name": "CONG MEOR EINAYIM", "city": "LAWRENCE", "state": "NY", "zip": "11559-1318", "ntee": "X30", "ruling": "199907", "deductibility": "1", "assets": 0, "income": 0, "revenue": 0}, {"ein": "871979566", "name": "EINAYIM INC", "city": "BROOKLYN", "state": "NY", "zip": "11206-5201", "ntee": "X30", "ruling": "202111", "deductibility": "1", "assets": 0, "income": 0, "revenue": 0}, {"ein": "922493058", "name": "EINAYIM", "city": "BROOKLYN", "state": "NY", "zip": "11206-5201", "ntee": "X30", "ruling": "202504", "deductibility": "1", "assets": 0, "income": 0, "revenue": 0}], "VOELKER": [{"ein": "113498583", "name": "VOELKER-ORTH MUSEUM", "city": "FLUSHING", "state": "NY", "zip": "11354-4839", "ntee": "T22", "ruling": "200006", "deductibility": "1", "assets": 6998722, "income": 785294, "revenue": 0}], "AADHEENAM": [{"ein": "113526920", "name": "KOVILOOR AADHEENAM VEDANTA INC", "city": "JAMAICA", "state": "NY", "zip": "11432-2163", "ntee": "X70", "ruling": "200010", "deductibility": "1", "assets": 0, "income": 0, "revenue": 0}], "KULANU": [{"ein": "113539334", "name": "KULANU ACADEMY", "city": "CEDARHURST", "state": "NY", "zip": "11516-0305", "ntee": "P30", "ruling": "200009", "deductibility": "1", "assets": 13643497, "income": 7856515, "revenue": 7747952}, {"ein": "521919094", "name": "KULANU INC", "city": "NEW YORK", "state": "NY", "zip": "10038-3703", "ntee": "Q710", "ruling": "199506", "deductibility": "1", "assets": 677577, "income": 459378, "revenue": 459378}], "TYTEL": [{"ein": "113551535", "name": "SANDRA AND HOWARD TYTEL FAMILY CHARITABLE FOUNDATION INC", "city": "MILL NECK", "state": "NY", "zip": "11765-1310", "ntee": "T22", "ruling": "200011", "deductibility": "1", "assets": 50272, "income": 39504, "revenue": 0}], "TOWNLINE": [{"ein": "113555489", "name": "TOWNLINE ASSOCIATION INC", "city": "COMMACK", "state": "NY", "zip": "11725-0119", "ntee": "C11", "ruling": "202302", "deductibility": "1", "assets": 0, "income": 0, "revenue": 0}], "CHS": [{"ein": "113555766", "name": "CHS SERVICES INC", "city": "ROCKVILLE CTR", "state": "NY", "zip": "11570-1002", "ntee": "", "ruling": "194603", "deductibility": "1", "assets": 475768551, "income": 334291809, "revenue": 334291809}, {"ein": "113613997", "name": "CHS PHYSICIAN PARTNERS PC", "city": "ROSLYN", "state": "NY", "zip": "11576-1347", "ntee": "E31", "ruling": "201112", "deductibility": "1", "assets": 132153805, "income": 262642008, "revenue": 262642008}, {"ein": "141801961", "name": "CHS AMBULANCE SERVICES INC", "city": "ROCKVILLE", "state": "NY", "zip": "11570-1002", "ntee": "", "ruling": "194603", "deductibility": "1", "assets": 0, "income": 0, "revenue": 0}, {"ein": "166050390", "name": "CHS MOBILE INTEGRATED HEALTH CARE INC", "city": "ROCHESTER", "state": "NY", "zip": "14623-4210", "ntee": "E62Z", "ruling": "196411", "deductibility": "1", "assets": 9143899, "income": 8932104, "revenue": 8682272}, {"ein": "463884039", "name": "CHS CHEERLEADING BOOSTER CLUB", "city": "ALBANY", "state": "NY", "zip": "12205-2784", "ntee": "B11", "ruling": "201805", "deductibility": "1", "assets": 0, "income": 0, "revenue": 0}, {"ein": "821000677", "name": "CHS TRACK AND FIELD CLUB INC", "city": "COHOES", "state": "NY", "zip": "12047-2399", "ntee": "N12", "ruling": "201704", "deductibility": "1", "assets": 0, "income": 0, "revenue": 0}, {"ein": "862556987", "name": "CHS PERFORMING ARTS BOOSTER CLUB", "city": "CARMEL", "state": "NY", "zip": "10512-1006", "ntee": "A6C", "ruling": "202106", "deductibility": "1", "assets": 0, "income": 0, "revenue": 0}, {"ein": "990742042", "name": "BRONX CHS SUPPORT CORPORATION", "city": "NEW YORK", "state": "NY", "zip": "10018-5151", "ntee": "B11", "ruling": "202403", "deductibility": "1", "assets": 0, "income": 0, "revenue": 0}], "TIKVAS": [{"ein": "113565315", "name": "TIKVAS EFRAIM INC", "city": "BROOKLYN", "state": "NY", "zip": "11218-3503", "ntee": "P82", "ruling": "200101", "deductibility": "1", "assets": 0, "income": 0, "revenue": 0}], "1199SEIU": [{"ein": "131510821", "name": "1199SEIU UNITED HEALTHCARE WORKERS EAST", "city": "NEW YORK", "state": "NY", "zip": "10018-6798", "ntee": "", "ruling": "193203", "deductibility": "2", "assets": 522298027, "income": 203792716, "revenue": 203792716}, {"ein": "133800331", "name": "1199SEIU LABOR MANAGEMENT INITIATIVES INC", "city": "NEW YORK", "state": "NY", "zip": "10108-0840", "ntee": "", "ruling": "199709", "deductibility": "2", "assets": 20020007, "income": 42313621, "revenue": 42313621}, {"ein": "711028611", "name": "1199SEIU HOME CARE INDUSTRY EDUCATION FUND", "city": "NEWYORK", "state": "NY", "zip": "10036-6902", "ntee": "B99", "ruling": "200904", "deductibility": "1", "assets": 6841062, "income": 4370052, "revenue": 4306835}, {"ein": "810817995", "name": "1199SEIU CITY OF NEW YORK EDUCATION CHILD AND ELDERCARE FUND", "city": "NEW YORK", "state": "NY", "zip": "10036-6902", "ntee": "Y44", "ruling": "201704", "deductibility": "2", "assets": 5490934, "income": 1788001, "revenue": 1788001}], "AILEY": [{"ein": "132584273", "name": "ALVIN AILEY DANCE FOUNDATION INC", "city": "NEW YORK", "state": "NY", "zip": "10019-4402", "ntee": "A620", "ruling": "196803", "deductibility": "1", "assets": 260776404, "income": 82648000, "revenue": 48075183}], "DALTON": [{"ein": "132751872", "name": "DALTON SCHOOLS INC", "city": "NEW YORK", "state": "NY", "zip": "10128-1502", "ntee": "B200", "ruling": "197311", "deductibility": "1", "assets": 289382113, "income": 140739221, "revenue": 107368051}, {"ein": "161135418", "name": "DALTON ASSEMBLY OF GOD CHURCH", "city": "DALTON", "state": "NY", "zip": "14836-0045", "ntee": "", "ruling": "196408", "deductibility": "1", "assets": 0, "income": 0, "revenue": 0}, {"ein": "161219679", "name": "DALTON GANG SPORTSMAN CLUB INC", "city": "HUNT", "state": "NY", "zip": "14846-9777", "ntee": "", "ruling": "198907", "deductibility": "2", "assets": 0, "income": 0, "revenue": 0}, {"ein": "300133600", "name": "DALTON FAMILY FOUNDATION", "city": "SCARSDALE", "state": "NY", "zip": "10583-2019", "ntee": "T21", "ruling": "200301", "deductibility": "1", "assets": 107597, "income": 798975, "revenue": 0}], "CIITY": [{"ein": "132912993", "name": "CO-OP CIITY BAPTIST CHURCH", "city": "BRONX", "state": "NY", "zip": "10475-4974", "ntee": "X21", "ruling": "200509", "deductibility": "1", "assets": 0, "income": 0, "revenue": 0}], "PRODUCER": [{"ein": "132946883", "name": "DGA-PRODUCER ASSISTANT DIRECTOR TRAINING PROGRAM TRUST FUND", "city": "NEW YORK", "state": "NY", "zip": "10019-5909", "ntee": "", "ruling": "197004", "deductibility": "1", "assets": 3944399, "income": 1281661, "revenue": 0}], "PORTUGAL": [{"ein": "132957205", "name": "PORTUGAL US CHAMBER OF COMMERCE INC", "city": "NEW YORK", "state": "NY", "zip": "10009-5986", "ntee": "", "ruling": "197903", "deductibility": "2", "assets": 216154, "income": 119732, "revenue": 119732}, {"ein": "994970198", "name": "FRIENDS OF CHABAD OF SOUTHERN PORTUGAL INC", "city": "ROSLYN HTS", "state": "NY", "zip": "11577-2028", "ntee": "X30", "ruling": "202505", "deductibility": "1", "assets": 0, "income": 0, "revenue": 0}], "COLUMN": [{"ein": "133060667", "name": "COLUMN FOUNDATION INC", "city": "NEW YORK", "state": "NY", "zip": "10001-6263", "ntee": "T70Z", "ruling": "198103", "deductibility": "1", "assets": 0, "income": 0, "revenue": 0}], "ILLNESS": [{"ein": "133077692", "name": "NATIONAL ALLIANCE ON MENTAL ILLNESS OF NEW YORK CITY METRO", "city": "NEW YORK", "state": "NY", "zip": "10018-2938", "ntee": "", "ruling": "198209", "deductibility": "1", "assets": 9587449, "income": 4079181, "revenue": 3872619}, {"ein": "133099544", "name": "NATIONAL ALLIANCE ON MENTAL ILLNESS OF WESTCHESTER INC", "city": "TARRYTOWN", "state": "NY", "zip": "10591-5894", "ntee": "F00A", "ruling": "198306", "deductibility": "1", "assets": 481580, "income": 354916, "revenue": 354916}, {"ein": "133196573", "name": "NATIONAL ALLIANCE ON MENTAL ILLNESS OF ROCKLAND COUNTY INC", "city": "ORANGEBURG", "state": "NY", "zip": "10962-0635", "ntee": "F80", "ruling": "200208", "deductibility": "1", "assets": 324827, "income": 322662, "revenue": 313406}, {"ein": "222573563", "name": "NATIONAL ALLIANCE ON MENTAL ILLNESS NAMI IN BUFFALO & ERIE COUNTY", "city": "BUFFALO", "state": "NY", "zip": "14209-2260", "ntee": "F80Z", "ruling": "198506", "deductibility": "1", "assets": 1023506, "income": 326382, "revenue": 254989}, {"ein": "465529998", "name": "TEAM DANIEL RUNNING FOR RECOVERY FROM MENTAL ILLNESS INC", "city": "BEDFORD", "state": "NY", "zip": "10506-1732", "ntee": "F12", "ruling": "201407", "deductibility": "1", "assets": 77992, "income": 135686, "revenue": 135686}, {"ein": "863778007", "name": "MENTAL ILLNESS RECOVERY INC", "city": "KINGSTON", "state": "NY", "zip": "12401-7702", "ntee": "F19", "ruling": "202108", "deductibility": "1", "assets": 0, "income": 0, "revenue": 0}, {"ein": "882849205", "name": "FOUNDATION FOR MENTAL ILLNESS INC", "city": "JAMAICA", "state": "NY", "zip": "11433-2100", "ntee": "F70", "ruling": "202209", "deductibility": "1", "assets": 1, "income": 4, "revenue": 4}], "ZHONG": [{"ein": "133387111", "name": "WU ZHONG-YI SCHOLARSHIPS FOUNDATION INC", "city": "FOREST HILLS", "state": "NY", "zip": "11375-0000", "ntee": "", "ruling": "198709", "deductibility": "1", "assets": 388376, "income": 22834, "revenue": 0}, {"ein": "843819023", "name": "ZHONG DE TEMPLE CORPORATION", "city": "BROOKLYN", "state": "NY", "zip": "11219-1904", "ntee": "X50", "ruling": "202305", "deductibility": "1", "assets": 0, "income": 0, "revenue": 0}, {"ein": "920955858", "name": "SHARON ZHONG FOUNDATION INC", "city": "PRT WASHINGTN", "state": "NY", "zip": "11050-1142", "ntee": "G99", "ruling": "202211", "deductibility": "1", "assets": 279999, "income": 0, "revenue": 0}, {"ein": "922451428", "name": "FJ LIAN JIANG ER ZHONG ASSOCIATION INC", "city": "NEW YORK", "state": "NY", "zip": "10005-4301", "ntee": "R01", "ruling": "202306", "deductibility": "1", "assets": 159410, "income": 144170, "revenue": 144170}], "MARSDEN": [{"ein": "133440549", "name": "GERALD AND LINDA MARSDEN FOUNDATION", "city": "NEW YORK", "state": "NY", "zip": "10018-3496", "ntee": "", "ruling": "198803", "deductibility": "1", "assets": 387521, "income": 344700, "revenue": 0}], "WAYEN": [{"ein": "133466312", "name": "WAYEN CHARITABLE FOUNDATION", "city": "FOREST HILLS", "state": "NY", "zip": "11375-0000", "ntee": "", "ruling": "198805", "deductibility": "1", "assets": 4016116, "income": 591117, "revenue": 0}], "EKITI": [{"ein": "133587245", "name": "IPOTI EKITI UNITY CLUB OF NEW YORK INC", "city": "BRONX", "state": "NY", "zip": "10452-0015", "ntee": "Q33", "ruling": "201302", "deductibility": "1", "assets": 0, "income": 0, "revenue": 0}, {"ein": "201503655", "name": "IJERO EKITI PROGRESSIVE UNION", "city": "JAMAICA", "state": "NY", "zip": "11430-0849", "ntee": "A01", "ruling": "202504", "deductibility": "1", "assets": 0, "income": 0, "revenue": 0}, {"ein": "472224641", "name": "ILUPEJU EKITI DEVELOPMENT ASSOCIATION NORTH AMERICA INC", "city": "BROOKLYN", "state": "NY", "zip": "11233-2931", "ntee": "Q33", "ruling": "201503", "deductibility": "1", "assets": 0, "income": 0, "revenue": 0}], "ANYONE": [{"ein": "133599589", "name": "ANYONE CORPORATION", "city": "NEW YORK", "state": "NY", "zip": "10010-8187", "ntee": "A33Z", "ruling": "199106", "deductibility": "1", "assets": 103900, "income": 239192, "revenue": 239192}, {"ein": "825492466", "name": "AI FOR ANYONE INC", "city": "BROOKLYN", "state": "NY", "zip": "11201-7586", "ntee": "U20", "ruling": "201805", "deductibility": "1", "assets": 0, "income": 0, "revenue": 0}], "DENDUR": [{"ein": "133771901", "name": "DENDUR GENESIS II HOUSING DEVELOPMENT FUND CORPORATION", "city": "NEW YORK", "state": "NY", "zip": "10027-2429", "ntee": "L21", "ruling": "201308", "deductibility": "1", "assets": 504018, "income": 219957, "revenue": 219957}], "KARENS": [{"ein": "133789601", "name": "KARENS PERFORMING ARTS INC", "city": "NEW YORK", "state": "NY", "zip": "10001-4846", "ntee": "O99", "ruling": "199503", "deductibility": "1", "assets": 0, "income": 0, "revenue": 0}, {"ein": "465582630", "name": "KARENS HOPE INC", "city": "SEAFORD", "state": "NY", "zip": "11783-2720", "ntee": "W99", "ruling": "201407", "deductibility": "1", "assets": 759491, "income": 125073, "revenue": 87968}], "ROFE": [{"ein": "133798583", "name": "ROFE FAMILY FOUNDATION", "city": "WANTAGH", "state": "NY", "zip": "11793-3712", "ntee": "", "ruling": "199603", "deductibility": "1", "assets": 67135, "income": 40381, "revenue": 0}], "SHARP": [{"ein": "133864243", "name": "SHARP-CURTIS FOUNDATION INC", "city": "NEW YORK", "state": "NY", "zip": "10020-0000", "ntee": "", "ruling": "199701", "deductibility": "1", "assets": 242519, "income": 4913, "revenue": 0}, {"ein": "136119532", "name": "EVELYN SHARP FOUNDATION", "city": "NEW YORK", "state": "NY", "zip": "10017-4100", "ntee": "", "ruling": "195306", "deductibility": "1", "assets": 4091861, "income": 278096, "revenue": 0}, {"ein": "352379493", "name": "B SHARP MUSICAL CLUB INC", "city": "SAUQUOIT", "state": "NY", "zip": "13456-3004", "ntee": "A68", "ruling": "201209", "deductibility": "1", "assets": 134205, "income": 83449, "revenue": 83449}, {"ein": "352381718", "name": "RAZOR SHARP FOCUS FOUNDATION INC", "city": "WILLIAMSVILLE", "state": "NY", "zip": "14221-7322", "ntee": "P20", "ruling": "202501", "deductibility": "1", "assets": 0, "income": 0, "revenue": 0}, {"ein": "454223463", "name": "SHARP AGAIN NATURALLY INC", "city": "NEW ROCHELLE", "state": "NY", "zip": "10804-1944", "ntee": "B60", "ruling": "201303", "deductibility": "1", "assets": 59970, "income": 132690, "revenue": 103786}, {"ein": "821881666", "name": "AMERICAN FRIENDS OF THE JUDY SHARP FOUNDATION INC", "city": "BROOKLYN", "state": "NY", "zip": "11218-3401", "ntee": "Q12", "ruling": "201710", "deductibility": "1", "assets": 1473, "income": 2500, "revenue": 2500}, {"ein": "851131638", "name": "SHARP VISION USA", "city": "YONKERS", "state": "NY", "zip": "10710-0000", "ntee": "G41", "ruling": "202006", "deductibility": "1", "assets": 0, "income": 0, "revenue": 0}, {"ein": "863164137", "name": "LURA M SHARP PARENT TEACHER GROUP INC", "city": "PULASKI", "state": "NY", "zip": "13142-2200", "ntee": "B94", "ruling": "202111", "deductibility": "1", "assets": 0, "income": 0, "revenue": 0}, {"ein": "876900488", "name": "RICHARD T SHARP FOUNDATION", "city": "CHATHAM", "state": "NY", "zip": "12037-9793", "ntee": "A20", "ruling": "202301", "deductibility": "1", "assets": 1341262, "income": 537904, "revenue": 0}], "VOLCKER": [{"ein": "133917327", "name": "VOLCKER FAMILY FOUNDATION INC", "city": "NEW YORK", "state": "NY", "zip": "10165-0035", "ntee": "T20Z", "ruling": "199802", "deductibility": "1", "assets": 27176805, "income": 16272697, "revenue": 0}, {"ein": "454585989", "name": "VOLCKER ALLIANCE INC", "city": "NEW YORK", "state": "NY", "zip": "10006-3153", "ntee": "W20", "ruling": "201211", "deductibility": "1", "assets": 22606082, "income": 21232615, "revenue": 5262215}], "ORANGETWON": [{"ein": "134010123", "name": "ORANGETWON POLICE BENEVOLENT ASSOCIATION", "city": "ORANGEBURG", "state": "NY", "zip": "10962-0424", "ntee": "J40", "ruling": "200001", "deductibility": "2", "assets": 203738, "income": 97257, "revenue": 0}], "PENDENNIS": [{"ein": "134015355", "name": "PENDENNIS INC", "city": "KATONAH", "state": "NY", "zip": "10536-2138", "ntee": "P820", "ruling": "200005", "deductibility": "1", "assets": 186370, "income": 56377, "revenue": 11914}], "CAPPELLI": [{"ein": "134048754", "name": "LOUIS R CAPPELLI FOUNDATION INC", "city": "WHITE PLAINS", "state": "NY", "zip": "10601-3015", "ntee": "T22", "ruling": "199907", "deductibility": "1", "assets": 672, "income": 750000, "revenue": 0}], "KAYE": [{"ein": "134092284", "name": "KAYE FAMILY FOUNDATION", "city": "ALBANY", "state": "NY", "zip": "12212-5201", "ntee": "T20", "ruling": "200003", "deductibility": "1", "assets": 9950874, "income": 18690958, "revenue": 0}, {"ein": "273659370", "name": "HEDY DAVIS KAYE ZANKEL CHARITABLE TRUST", "city": "NEW YORK", "state": "NY", "zip": "10023-5973", "ntee": "P99", "ruling": "201405", "deductibility": "1", "assets": 948528, "income": 71889, "revenue": 0}, {"ein": "841283914", "name": "DANNY & SYLVIA FINE KAYE FOUNDATION", "city": "GARDEN CITY", "state": "NY", "zip": "11530-0000", "ntee": "", "ruling": "199412", "deductibility": "1", "assets": 1814934, "income": 953225, "revenue": 0}, {"ein": "861936223", "name": "KAYE PRESERVATION FOUNDATION", "city": "BROOKLYN", "state": "NY", "zip": "11210-5110", "ntee": "T12", "ruling": "202110", "deductibility": "1", "assets": 34113, "income": 37213, "revenue": 0}], "HAJE": [{"ein": "134112185", "name": "PETER AND HELEN HAJE FOUNDATION", "city": "NEW YORK", "state": "NY", "zip": "10024-5150", "ntee": "T22", "ruling": "200005", "deductibility": "1", "assets": 3642239, "income": 1055519, "revenue": 0}], "DEBRAH": [{"ein": "134126715", "name": "DEBRAH LEE CHARATAN HOLM FOUNDATION", "city": "NEW YORK", "state": "NY", "zip": "10065-5861", "ntee": "T21", "ruling": "200010", "deductibility": "1", "assets": 151004, "income": 150000, "revenue": 0}], "ROCHLIS": [{"ein": "134200739", "name": "ROCHLIS FAMILY FOUNDATION INC", "city": "NEW YORK", "state": "NY", "zip": "10024-4822", "ntee": "T22", "ruling": "200203", "deductibility": "1", "assets": 711458, "income": 250406, "revenue": 0}], "DCCT": [{"ein": "134251459", "name": "DC COMPETITION COMPANY FUNDRAISING TEAM DCCT", "city": "EAST ISLIP", "state": "NY", "zip": "11730-1000", "ntee": "A62", "ruling": "200403", "deductibility": "1", "assets": 0, "income": 0, "revenue": 0}], "LITHOGRAPHERS": [{"ein": "135563432", "name": "SICKNESS & ACCIDENT FUND OF -1 AMALGAMATED LITHOGRAPHERS OF AMERI", "city": "NEW YORK", "state": "NY", "zip": "10003-4527", "ntee": "", "ruling": "195006", "deductibility": "2", "assets": 1412288, "income": 2355105, "revenue": 2355105}], "RESIDUARY": [{"ein": "136327952", "name": "HELEN GOLUB RESIDUARY TRUST FBO HELEN GOLUB", "city": "NEW YORK", "state": "NY", "zip": "10013-2362", "ntee": "T90Z", "ruling": "199804", "deductibility": "1", "assets": 4987972, "income": 1528729, "revenue": 0}, {"ein": "156015718", "name": "JOHN T SHEA TR UW RESIDUARY TR K-A JOHN T & MINA SHEA MEMRL FUND", "city": "NORWICH", "state": "NY", "zip": "13815-0000", "ntee": "", "ruling": "197012", "deductibility": "1", "assets": 496203, "income": 49958, "revenue": 0}, {"ein": "236958411", "name": "W EMERSON GENTZLER RESIDUARY TRUST", "city": "BUFFALO", "state": "NY", "zip": "14240-1504", "ntee": "", "ruling": "199010", "deductibility": "1", "assets": 2325639, "income": 726763, "revenue": 0}, {"ein": "256241739", "name": "EDNA & FRANK WALKER RESIDUARY TR", "city": "BUFFALO", "state": "NY", "zip": "14240-1504", "ntee": "T20Z", "ruling": "199605", "deductibility": "1", "assets": 2225887, "income": 190929, "revenue": 0}, {"ein": "566594822", "name": "MILDRED P WARK RESIDUARY TR UW", "city": "OLD FORGE", "state": "NY", "zip": "13420-0276", "ntee": "", "ruling": "000000", "deductibility": "0", "assets": 1081364, "income": 134319, "revenue": 0}], "MIKE": [{"ein": "137553716", "name": "MIKE & JANET SLOSBERG FAMILY FOUNDATION TRUST", "city": "NEW YORK", "state": "NY", "zip": "10023-6226", "ntee": "T90", "ruling": "200706", "deductibility": "1", "assets": 1992047, "income": 1515558, "revenue": 0}, {"ein": "207395108", "name": "MIKE & SOFIA SEGAL FOUNDATION", "city": "NEW YORK", "state": "NY", "zip": "10019-5933", "ntee": "T22", "ruling": "200907", "deductibility": "1", "assets": 9652375, "income": 10327170, "revenue": 0}, {"ein": "208971008", "name": "MIKE AND STEVE FOUNDATION", "city": "NEW YORK", "state": "NY", "zip": "10017-7111", "ntee": "T22", "ruling": "200709", "deductibility": "1", "assets": 1, "income": 1, "revenue": 0}, {"ein": "260595302", "name": "MIKE GREENE GREAT GUY FOUNDATION", "city": "BABYLON", "state": "NY", "zip": "11702-4313", "ntee": "P20", "ruling": "202203", "deductibility": "1", "assets": 0, "income": 0, "revenue": 0}, {"ein": "311693023", "name": "MIKE AND SYLVIA CHASE FAMILY FOUNDATION", "city": "NEW YORK", "state": "NY", "zip": "10022-3613", "ntee": "T90", "ruling": "200003", "deductibility": "1", "assets": 61540, "income": 72161, "revenue": 0}, {"ein": "462224686", "name": "MIKE SCHULTE MEMORIAL FUND", "city": "GRAHAMSVILLE", "state": "NY", "zip": "12740-5524", "ntee": "O99", "ruling": "201409", "deductibility": "1", "assets": 0, "income": 0, "revenue": 0}, {"ein": "814789689", "name": "NINA AND MIKE PATTERSON FOUNDATION", "city": "NEW YORK", "state": "NY", "zip": "10119-0000", "ntee": "T90", "ruling": "201909", "deductibility": "1", "assets": 6989188, "income": 7508859, "revenue": 0}, {"ein": "842777357", "name": "MIKE MCHUGH MEMORIAL FUND INC", "city": "SEAFORD", "state": "NY", "zip": "11783-1913", "ntee": "B82", "ruling": "202312", "deductibility": "1", "assets": 0, "income": 0, "revenue": 0}, {"ein": "853204131", "name": "MIKE SIGNORELLI MINISTRIES INC", "city": "RIDGEWOOD", "state": "NY", "zip": "11386-0091", "ntee": "X20", "ruling": "202110", "deductibility": "1", "assets": 441145, "income": 947046, "revenue": 947046}, {"ein": "871916850", "name": "MIKE CAMPBELL MEMORIAL SCHOLARSHIP INC", "city": "STATEN ISLAND", "state": "NY", "zip": "10312-5606", "ntee": "T12", "ruling": "202110", "deductibility": "1", "assets": 0, "income": 0, "revenue": 0}, {"ein": "872225267", "name": "SUNNY MIKE FOUNDATION INC", "city": "FAIRPORT", "state": "NY", "zip": "14450-9768", "ntee": "T12", "ruling": "202303", "deductibility": "1", "assets": 29820, "income": 61110, "revenue": 48345}, {"ein": "921537888", "name": "MIKE RUSSANO SCHOLARSHIP INC", "city": "NORTHPORT", "state": "NY", "zip": "11768-2029", "ntee": "B82", "ruling": "202305", "deductibility": "1", "assets": 28563, "income": 52478, "revenue": 52478}, {"ein": "934637567", "name": "IRON MIKE SPORTS FOUNDATION INC", "city": "NEW YORK", "state": "NY", "zip": "10023-8106", "ntee": "T99", "ruling": "202402", "deductibility": "1", "assets": 0, "income": 0, "revenue": 0}], "DUANESBURG": [{"ein": "141669936", "name": "DUANESBURG VOLUNTEER AMBULANCE CORPS INC", "city": "DELANSON", "state": "NY", "zip": "12053-3120", "ntee": "E62Z", "ruling": "199107", "deductibility": "1", "assets": 701610, "income": 876252, "revenue": 872433}, {"ein": "141808261", "name": "DUANESBURG FIRE COMPANY", "city": "DUANESBURG", "state": "NY", "zip": "12056-0115", "ntee": "M24", "ruling": "202002", "deductibility": "1", "assets": 0, "income": 0, "revenue": 0}, {"ein": "141815138", "name": "DUANESBURG EDUCATION FOUNDATION INC", "city": "DUANESBURG", "state": "NY", "zip": "12056-0311", "ntee": "B82", "ruling": "199909", "deductibility": "1", "assets": 0, "income": 0, "revenue": 0}, {"ein": "146034105", "name": "DUANESBURG REFORMED PRESBYTERIAN CHURCH", "city": "DUANESBURG", "state": "NY", "zip": "12056-0218", "ntee": "", "ruling": "197404", "deductibility": "1", "assets": 0, "income": 0, "revenue": 0}, {"ein": "521287346", "name": "DUANESBURG LITTLE LEAGUE", "city": "DUANESBURG", "state": "NY", "zip": "12056-0184", "ntee": "N63", "ruling": "202505", "deductibility": "1", "assets": 0, "income": 0, "revenue": 0}, {"ein": "823359325", "name": "DUANESBURG YOUTH BASKETBALL LEAGUE INC", "city": "DUANESBURG", "state": "NY", "zip": "12056-0194", "ntee": "O50", "ruling": "201805", "deductibility": "1", "assets": 0, "income": 0, "revenue": 0}, {"ein": "934475576", "name": "DUANESBURG BASKETBALL ASSOCIATION", "city": "DELANSON", "state": "NY", "zip": "12053-2105", "ntee": "N99", "ruling": "202312", "deductibility": "1", "assets": 0, "income": 0, "revenue": 0}], "LANSING": [{"ein": "161078240", "name": "LANSING COMMUNITY COUNCIL INC", "city": "LANSING", "state": "NY", "zip": "14882-0255", "ntee": "S20", "ruling": "201305", "deductibility": "1", "assets": 0, "income": 0, "revenue": 0}, {"ein": "161490907", "name": "LANSING THEATER AND PERFORMING ARTS BOOSTER CLUB", "city": "GROTON", "state": "NY", "zip": "13073-9613", "ntee": "Z99", "ruling": "199701", "deductibility": "1", "assets": 0, "income": 0, "revenue": 0}, {"ein": "161599749", "name": "FRIENDS OF LANSING COMMUNITY LIBRARY CENTER", "city": "LANSING", "state": "NY", "zip": "14882-9093", "ntee": "B117", "ruling": "200104", "deductibility": "1", "assets": 0, "income": 0, "revenue": 0}, {"ein": "205999371", "name": "LANSING FIRE DEPARTMENT INC", "city": "LANSING", "state": "NY", "zip": "14882-9012", "ntee": "M24", "ruling": "201610", "deductibility": "1", "assets": 0, "income": 0, "revenue": 0}, {"ein": "222699883", "name": "LANSING HOME SCHOOL ORGANIZATION", "city": "LANSING", "state": "NY", "zip": "14882-8930", "ntee": "", "ruling": "198803", "deductibility": "1", "assets": 0, "income": 0, "revenue": 0}, {"ein": "453732427", "name": "LANSING BOBCAT BOOSTER CLUB INC", "city": "LANSING", "state": "NY", "zip": "14882-8915", "ntee": "T30", "ruling": "201305", "deductibility": "1", "assets": 0, "income": 0, "revenue": 0}, {"ein": "611594529", "name": "LANSING ROD & GUN CLUB", "city": "LANSING", "state": "NY", "zip": "14882-9052", "ntee": "", "ruling": "201801", "deductibility": "0", "assets": 359884, "income": 181165, "revenue": 181165}, {"ein": "800179278", "name": "LANSING COMMUNITY LIBRARY", "city": "LANSING", "state": "NY", "zip": "14882-9093", "ntee": "B70", "ruling": "201610", "deductibility": "1", "assets": 947492, "income": 320105, "revenue": 320105}, {"ein": "821834020", "name": "FRIENDS OF LANSING CENTER TRAIL LIMITED", "city": "LANSING", "state": "NY", "zip": "14882-9093", "ntee": "N32", "ruling": "201803", "deductibility": "1", "assets": 0, "income": 0, "revenue": 0}, {"ein": "825072660", "name": "LANSING EVENTS COMMITTEE", "city": "LANSING", "state": "NY", "zip": "14882-0265", "ntee": "T50", "ruling": "201808", "deductibility": "1", "assets": 0, "income": 0, "revenue": 0}, {"ein": "862958723", "name": "LANSING FOOD PANTRY INC", "city": "LANSING", "state": "NY", "zip": "14882-0021", "ntee": "K31", "ruling": "202108", "deductibility": "1", "assets": 238016, "income": 34006, "revenue": 34006}, {"ein": "882501290", "name": "LANSING LUNCHBOX INC", "city": "ITHACA", "state": "NY", "zip": "14850-9754", "ntee": "K30", "ruling": "202207", "deductibility": "1", "assets": 34334, "income": 44851, "revenue": 44851}, {"ein": "933606534", "name": "LANSING WATER CATS SWIM CLUB", "city": "LANSING", "state": "NY", "zip": "14882-8931", "ntee": "N67", "ruling": "202405", "deductibility": "1", "assets": 0, "income": 0, "revenue": 0}], "WARFIELD": [{"ein": "161084299", "name": "WILLIAM WARFIELD SCHOLARSHIP FUND INC", "city": "ROCHESTER", "state": "NY", "zip": "14603-1992", "ntee": "", "ruling": "197706", "deductibility": "1", "assets": 0, "income": 0, "revenue": 0}], "COMISSION": [{"ein": "161102084", "name": "INTER-LUTHERAN COMISSION FOR CAMPUS MINISTRY IN THE NIAGARA", "city": "BUFFALO", "state": "NY", "zip": "14226-3406", "ntee": "", "ruling": "198804", "deductibility": "1", "assets": 0, "income": 0, "revenue": 0}], "COUNTI": [{"ein": "161140488", "name": "WORKFORCE DEVELOPMENT BOARD OF HERKIMER MADISON AND ONEIDA COUNTI", "city": "UTICA", "state": "NY", "zip": "13501-2230", "ntee": "J20Z", "ruling": "198104", "deductibility": "1", "assets": 3654901, "income": 5721524, "revenue": 5721524}], "FLICKINGER": [{"ein": "161265415", "name": "THE ROBERT D FLICKINGER FOUNDATION", "city": "EAST AURORA", "state": "NY", "zip": "14052-2181", "ntee": "", "ruling": "198604", "deductibility": "1", "assets": 1, "income": 51020, "revenue": 0}], "ABBE": [{"ein": "161304931", "name": "ABBE FREELAND ANIMAL SANCTUARY INC", "city": "ANGELICA", "state": "NY", "zip": "14709-8711", "ntee": "D20", "ruling": "200207", "deductibility": "1", "assets": 115783, "income": 102421, "revenue": 102421}], "JAI": [{"ein": "161439548", "name": "THE JAI AND SATYA AHLUWAHLIA FOUNDATION", "city": "LITTLE FALLS", "state": "NY", "zip": "13365-1725", "ntee": "B99Z", "ruling": "199507", "deductibility": "1", "assets": 326911, "income": 10121, "revenue": 0}], "CHARNEY": [{"ein": "161449220", "name": "JEROME AND PHYLLIS CHARNEY FOUNDATION", "city": "EAST SYRACUSE", "state": "NY", "zip": "13057-9215", "ntee": "", "ruling": "199312", "deductibility": "1", "assets": 225941, "income": 133494, "revenue": 0}, {"ein": "201981444", "name": "THE LEON H CHARNEY FOUNDATION INC", "city": "NEW YORK", "state": "NY", "zip": "10018-1882", "ntee": "T20", "ruling": "200604", "deductibility": "1", "assets": 34704, "income": 10008, "revenue": 0}, {"ein": "454158343", "name": "LEON H CHARNEY MEDIA FOUNDATION INC", "city": "NEW YORK", "state": "NY", "zip": "10018-1851", "ntee": "T22", "ruling": "201407", "deductibility": "1", "assets": 20510, "income": 120000, "revenue": 0}], "PARAGIGM": [{"ein": "161457929", "name": "LEARNING PARAGIGM", "city": "HAMLIN", "state": "NY", "zip": "14464-0457", "ntee": "W50", "ruling": "201504", "deductibility": "1", "assets": 2976320, "income": 289748, "revenue": 289748}], "INTERDENOMINATIONA": [{"ein": "161551411", "name": "GODS WAY OF LIFE INTERDENOMINATIONA CHURCH", "city": "BUFFALO", "state": "NY", "zip": "14208-1602", "ntee": "X21", "ruling": "200002", "deductibility": "1", "assets": 0, "income": 0, "revenue": 0}], "TREAT": [{"ein": "200912750", "name": "TREAT ME RIGHT INC", "city": "NEW YORK", "state": "NY", "zip": "10029-2652", "ntee": "B99", "ruling": "202408", "deductibility": "1", "assets": 0, "income": 0, "revenue": 0}], "SAATHI": [{"ein": "201419215", "name": "SAATHI-OF-ROCHESTER-INC", "city": "ROCHESTER", "state": "NY", "zip": "14692-3392", "ntee": "Q33", "ruling": "200504", "deductibility": "1", "assets": 159480, "income": 218562, "revenue": 218562}], "GUYDA": [{"ein": "202876047", "name": "GUYANA UNITED YOUTH DEVELOPMENT ASSOCIATION OF NY INC - GUYDA", "city": "FAR ROCKAWAY", "state": "NY", "zip": "11691-5192", "ntee": "O50", "ruling": "201003", "deductibility": "1", "assets": 78428, "income": 85142, "revenue": 36158}], "BRENNA": [{"ein": "203616474", "name": "BRENNA ENGLE FOUNDATION", "city": "HYDE PARK", "state": "NY", "zip": "12538-1853", "ntee": "Q30", "ruling": "200601", "deductibility": "1", "assets": 0, "income": 0, "revenue": 0}], "NABET": [{"ein": "205083963", "name": "NABET LOCAL 11 SCHOLARSHIP FUND", "city": "NEW YORK", "state": "NY", "zip": "10001-4030", "ntee": "B82", "ruling": "201409", "deductibility": "1", "assets": 0, "income": 0, "revenue": 0}], "ENOB": [{"ein": "205746098", "name": "ENOB INC", "city": "LONG IS CITY", "state": "NY", "zip": "11101-5043", "ntee": "A25", "ruling": "200807", "deductibility": "1", "assets": 31214, "income": 156267, "revenue": 128273}], "DRAESEL": [{"ein": "206009857", "name": "DRAESEL FUND FOR CHILDREN", "city": "NEW YORK", "state": "NY", "zip": "10128-4909", "ntee": "T30", "ruling": "200503", "deductibility": "1", "assets": 0, "income": 0, "revenue": 0}], "ROCKCH": [{"ein": "207371624", "name": "MINNIE HETRICK TUW FBO BLACK ROCKCH", "city": "BUFFALO", "state": "NY", "zip": "14240-1504", "ntee": "T20", "ruling": "200902", "deductibility": "1", "assets": 129878, "income": 42121, "revenue": 0}], "BECHTLEFOUNDATION": [{"ein": "208007210", "name": "NANCY AND JOACHIM BECHTLEFOUNDATION", "city": "NEW YORK", "state": "NY", "zip": "10016-0000", "ntee": "T20", "ruling": "200704", "deductibility": "1", "assets": 2014581, "income": 123163, "revenue": 0}], "SPRINGPORT": [{"ein": "222501692", "name": "SPRINGPORT FREE LIBRARY", "city": "UNION SPRINGS", "state": "NY", "zip": "13160-0501", "ntee": "", "ruling": "199108", "deductibility": "1", "assets": 289348, "income": 133165, "revenue": 133165}, {"ein": "334976412", "name": "UNION CEMETERY ASSOCIATION OF SPRINGPORT NY", "city": "SCIPIO CENTER", "state": "NY", "zip": "13147-4100", "ntee": "A80", "ruling": "202506", "deductibility": "1", "assets": 0, "income": 0, "revenue": 0}, {"ein": "452621406", "name": "FRIENDS OF SPRINGPORT FREE LIBRARY INC", "city": "UNION SPRINGS", "state": "NY", "zip": "13160-0501", "ntee": "B11", "ruling": "201501", "deductibility": "1", "assets": 0, "income": 0, "revenue": 0}], "MESA": [{"ein": "222714094", "name": "MESA OF N Y INC", "city": "SYRACUSE", "state": "NY", "zip": "13203-2730", "ntee": "L190", "ruling": "199106", "deductibility": "1", "assets": 16745858, "income": 2703385, "revenue": 2703385}, {"ein": "923118835", "name": "MESA LINKS INC", "city": "BROOKLYN", "state": "NY", "zip": "11221-4712", "ntee": "B02", "ruling": "202401", "deductibility": "1", "assets": 531627, "income": 371627, "revenue": 371627}], "BRISCO": [{"ein": "222768730", "name": "BRISCO EVANGELISTIC ASSOCIATION INC", "city": "CAMPBELL", "state": "NY", "zip": "14821-0000", "ntee": "", "ruling": "198702", "deductibility": "1", "assets": 0, "income": 0, "revenue": 0}], "STIEFEL": [{"ein": "223639034", "name": "DR JOSEPH B-LILLIAN STIEFEL FOUNDATION INC", "city": "BRONX", "state": "NY", "zip": "10463-6106", "ntee": "T20", "ruling": "199906", "deductibility": "1", "assets": 555313, "income": 165441, "revenue": 0}], "GODFREY": [{"ein": "223769119", "name": "GODFREY CEMETERY ASSOCIATION INC", "city": "GUILFORD", "state": "NY", "zip": "13780-3177", "ntee": "Y50", "ruling": "201802", "deductibility": "1", "assets": 0, "income": 0, "revenue": 0}, {"ein": "391562846", "name": "DUDLEY AND CONSTANCE GODFREY FOUNDATION INC", "city": "NEW YORK", "state": "NY", "zip": "10022-6981", "ntee": "", "ruling": "198701", "deductibility": "1", "assets": 16955814, "income": 10526653, "revenue": 0}, {"ein": "475408498", "name": "GODFREY STEWART HIGH SCHOOL ALUMNI ASSOC INTERNATIONAL INC", "city": "ROSEDALE", "state": "NY", "zip": "11422-2726", "ntee": "O50", "ruling": "201802", "deductibility": "1", "assets": 0, "income": 0, "revenue": 0}], "EMIG": [{"ein": "236638926", "name": "CHARLES H EMIG TRUST", "city": "BUFFALO", "state": "NY", "zip": "14240-1504", "ntee": "", "ruling": "198202", "deductibility": "1", "assets": 147660, "income": 51472, "revenue": 0}, {"ein": "236651072", "name": "VERBIE C EMIG FBO YORK HOSPITAL TR UW", "city": "BUFFALO", "state": "NY", "zip": "14240-1504", "ntee": "", "ruling": "197805", "deductibility": "1", "assets": 965758, "income": 307572, "revenue": 0}], "NEOT": [{"ein": "237149282", "name": "AMERICAN FRIENDS OF NEOT KEDUMIM", "city": "NEW YORK", "state": "NY", "zip": "10021-5003", "ntee": "C11", "ruling": "202402", "deductibility": "1", "assets": 0, "income": 0, "revenue": 0}, {"ein": "522295635", "name": "BEIT YAACOV GEULA NEOT SIMCHA", "city": "BROOKLYN", "state": "NY", "zip": "11219-2202", "ntee": "X30", "ruling": "200307", "deductibility": "1", "assets": 0, "income": 0, "revenue": 0}], "BEACHWAY": [{"ein": "237294588", "name": "BEACHWAY ESTATES ASSOCIATION INC", "city": "PRT WASHINGTN", "state": "NY", "zip": "11050-0083", "ntee": "N50", "ruling": "201001", "deductibility": "2", "assets": 0, "income": 0, "revenue": 0}], "CANDREVA": [{"ein": "237389751", "name": "GEORGE CANDREVA ENVIROMNEMTAL CENTER INC", "city": "HIGHLAND", "state": "NY", "zip": "12528-1300", "ntee": "C30Z", "ruling": "197407", "deductibility": "1", "assets": 33604, "income": 2789, "revenue": 2789}], "AVANT": [{"ein": "260082959", "name": "AVANT MEDIA PERFORMANCE INC", "city": "GARRISON", "state": "NY", "zip": "10524-0196", "ntee": "A90", "ruling": "200507", "deductibility": "1", "assets": 0, "income": 0, "revenue": 0}, {"ein": "842588061", "name": "MIREBALAIS AVANT TOUT INC", "city": "NEW CITY", "state": "NY", "zip": "10956-7152", "ntee": "S21", "ruling": "202004", "deductibility": "1", "assets": 23531, "income": 63290, "revenue": 43171}, {"ein": "861728385", "name": "AVANT-GARDE NETWORK FOUNDATION INC", "city": "NEW YORK", "state": "NY", "zip": "10026-1574", "ntee": "B90", "ruling": "202304", "deductibility": "1", "assets": 0, "income": 0, "revenue": 0}, {"ein": "933552596", "name": "SOUTH ASIAN AVANT-GARDE INCORPORATED", "city": "BROOKLYN", "state": "NY", "zip": "11213-1450", "ntee": "A33", "ruling": "202310", "deductibility": "1", "assets": 0, "income": 0, "revenue": 0}], "SHUANG": [{"ein": "260110077", "name": "DR SHUANG XIN TSAO PRIVATE FOUNDATION", "city": "BROOKLYN", "state": "NY", "zip": "11209-7101", "ntee": "T20", "ruling": "200607", "deductibility": "1", "assets": 1454798, "income": 27496269, "revenue": 0}, {"ein": "311587377", "name": "SHUANG WEN ACADEMY NETWORK", "city": "NEW YORK", "state": "NY", "zip": "10013-4727", "ntee": "B99", "ruling": "199805", "deductibility": "1", "assets": 2434244, "income": 1678957, "revenue": 1678957}, {"ein": "815283837", "name": "PS 184M SHUANG WEN SCHOOL PARENT ASSOCIATION INC", "city": "NEW YORK", "state": "NY", "zip": "10002-6560", "ntee": "B94", "ruling": "201705", "deductibility": "1", "assets": 185093, "income": 66690, "revenue": 64938}], "EXEMPTFIREMENS": [{"ein": "260598568", "name": "BRIDGEHAMPTON VOLUNTEER EXEMPTFIREMENS BENEVOLENT ASSOC INC", "city": "BRIDGEHAMPTON", "state": "NY", "zip": "11932-1932", "ntee": "M192", "ruling": "200712", "deductibility": "2", "assets": 2453036, "income": 1325135, "revenue": 323309}], "HOFFEN": [{"ein": "261598880", "name": "HOFFEN FAMILY FOUNDATION", "city": "NEW YORK", "state": "NY", "zip": "10023-1489", "ntee": "T22", "ruling": "200804", "deductibility": "1", "assets": 12649342, "income": 15049846, "revenue": 0}], "GOV": [{"ein": "262928500", "name": "COMMITTEE FOR GOV PATAKI LEADERSHIP & LEARNING CENTER", "city": "SCHENECTADY", "state": "NY", "zip": "12309-5224", "ntee": "B990", "ruling": "200904", "deductibility": "1", "assets": 124771, "income": 976589, "revenue": 976589}], "SHEERIT": [{"ein": "270516619", "name": "SHEERIT DAVID INC", "city": "BROOKLYN", "state": "NY", "zip": "11223-2731", "ntee": "X30", "ruling": "201205", "deductibility": "1", "assets": 0, "income": 0, "revenue": 0}], "ELEGANCE": [{"ein": "272519508", "name": "ISABAHLIA LADIES OF ELEGANCE FOUNDATION", "city": "BROOKLYN", "state": "NY", "zip": "11212-5047", "ntee": "O50", "ruling": "201009", "deductibility": "1", "assets": 258, "income": 59402, "revenue": 59402}, {"ein": "821993680", "name": "NOBLESSE DIGNITE ELEGANCE OF NEW YORK INC", "city": "BRONX", "state": "NY", "zip": "10473-3029", "ntee": "A23", "ruling": "201904", "deductibility": "1", "assets": 0, "income": 0, "revenue": 0}], "YALKET": [{"ein": "274314708", "name": "YALKET ELAZER FUND", "city": "MONROE", "state": "NY", "zip": "10950-6064", "ntee": "T22", "ruling": "201307", "deductibility": "1", "assets": 2574500, "income": 825000, "revenue": 0}], "EVNY": [{"ein": "300877242", "name": "EVNY INC", "city": "MOUNT KISCO", "state": "NY", "zip": "10549-0003", "ntee": "G84", "ruling": "201306", "deductibility": "1", "assets": 0, "income": 0, "revenue": 0}], "DPAKSHEINC": [{"ein": "320072042", "name": "CONGREGATION YADVAIZER DPAKSHEINC", "city": "BROOKLYN", "state": "NY", "zip": "11219-4349", "ntee": "X30", "ruling": "200307", "deductibility": "1", "assets": 0, "income": 0, "revenue": 0}], "IPA": [{"ein": "320583125", "name": "PEER SERVICES OF NEW YORK IPA INC", "city": "ALBANY", "state": "NY", "zip": "12210-1511", "ntee": "P01", "ruling": "201906", "deductibility": "1", "assets": 376961, "income": 105000, "revenue": 105000}, {"ein": "364841069", "name": "NYU LANGONE IPA INC", "city": "NEW YORK", "state": "NY", "zip": "10016-6402", "ntee": "E20", "ruling": "201705", "deductibility": "1", "assets": 1585339, "income": 0, "revenue": 0}, {"ein": "474548410", "name": "MOSAIC IPA INC", "city": "MORRISVILLE", "state": "NY", "zip": "13408-2106", "ntee": "E11", "ruling": "201512", "deductibility": "1", "assets": 33145, "income": 0, "revenue": 0}, {"ein": "474718431", "name": "UPSTATE COMMUNITY HEALTH COLLABORATIVE IPA INC", "city": "PULASKI", "state": "NY", "zip": "13142-1400", "ntee": "E11", "ruling": "201801", "deductibility": "1", "assets": 128559, "income": 0, "revenue": 0}, {"ein": "822588423", "name": "INCLUSIVE ALLIANCE IPA INC", "city": "ROCHESTER", "state": "NY", "zip": "14604-2711", "ntee": "E12", "ruling": "202007", "deductibility": "1", "assets": 147331, "income": 316452, "revenue": 316452}, {"ein": "824271469", "name": "FINGER LAKES IPA INC", "city": "SYRACUSE", "state": "NY", "zip": "13215-0644", "ntee": "", "ruling": "202008", "deductibility": "1", "assets": 7496276, "income": 4602819, "revenue": 4602819}, {"ein": "824484637", "name": "PARTNERSHIP FOR WELLNESS AND RECOVERY IPA INC", "city": "MIDDLETOWN", "state": "NY", "zip": "10940-1901", "ntee": "F01", "ruling": "202504", "deductibility": "1", "assets": 0, "income": 0, "revenue": 0}, {"ein": "832118374", "name": "INTEGRITY PARTNERS FOR BEHAVIORAL HEALTH IPA INC", "city": "BATAVIA", "state": "NY", "zip": "14020-0000", "ntee": "F30", "ruling": "202005", "deductibility": "1", "assets": 2088109, "income": 783306, "revenue": 783306}, {"ein": "834123043", "name": "NORTHWINDS INTEGRATED HEALTH NETWORK IPA INC", "city": "PLATTSBURGH", "state": "NY", "zip": "12903-5902", "ntee": "E31", "ruling": "202005", "deductibility": "1", "assets": 1662957, "income": 114876, "revenue": 114876}, {"ein": "844297212", "name": "MOHAWK VALLEY BEHAVIORAL HEALTH IPA INC", "city": "UTICA", "state": "NY", "zip": "13501-2413", "ntee": "E02", "ruling": "202502", "deductibility": "1", "assets": 1, "income": 0, "revenue": 0}, {"ein": "934671450", "name": "GOE IPA INC", "city": "GLOVERSVILLE", "state": "NY", "zip": "12078-4617", "ntee": "E21", "ruling": "202406", "deductibility": "1", "assets": 0, "income": 0, "revenue": 0}], "LEGADO": [{"ein": "331375140", "name": "LEGADO LATINO OF WESTCHESTER CORP", "city": "MOUNT KISCO", "state": "NY", "zip": "10549-2907", "ntee": "S99", "ruling": "202506", "deductibility": "1", "assets": 0, "income": 0, "revenue": 0}], "WPHS": [{"ein": "331608041", "name": "WPHS HOCKEY PARENTS ASSOCIATION INC", "city": "WHITE PLAINS", "state": "NY", "zip": "10604-3536", "ntee": "N68", "ruling": "202501", "deductibility": "1", "assets": 0, "income": 0, "revenue": 0}], "CONNECTING": [{"ein": "332210061", "name": "CULTURALLY CONNECTING ROOTS TO RISE INC", "city": "MIDDLE ISLAND", "state": "NY", "zip": "11953-2505", "ntee": "P40", "ruling": "202412", "deductibility": "1", "assets": 0, "income": 0, "revenue": 0}, {"ein": "473485893", "name": "CONNECTING FOR PURPOSE INC", "city": "BELLPORT", "state": "NY", "zip": "11713-1653", "ntee": "P20", "ruling": "202501", "deductibility": "1", "assets": 0, "income": 0, "revenue": 0}, {"ein": "822390045", "name": "LAKE PLACID WILMINGTON CONNECTING YOUTH AND COMMUNITIES COALITION IN", "city": "VERMONTVILLE", "state": "NY", "zip": "12989-3520", "ntee": "O20", "ruling": "201801", "deductibility": "1", "assets": 0, "income": 0, "revenue": 0}, {"ein": "825128844", "name": "SHENENDEHOWA NEIGHBORS CONNECTING INC", "city": "HALFMOON", "state": "NY", "zip": "12065-0818", "ntee": "P80", "ruling": "201808", "deductibility": "1", "assets": 4882, "income": 2882, "revenue": 2882}, {"ein": "844598836", "name": "TOP LINCOLN CONNECTING COMMUNITIES INC", "city": "BRONX", "state": "NY", "zip": "10475-4431", "ntee": "P99", "ruling": "202004", "deductibility": "1", "assets": 0, "income": 0, "revenue": 0}, {"ein": "861806008", "name": "CONNECTING THE DOTS TO JUSTICE INC", "city": "NEW YORK", "state": "NY", "zip": "10009-1618", "ntee": "R99", "ruling": "202202", "deductibility": "1", "assets": 0, "income": 0, "revenue": 0}], "KINSHOKU": [{"ein": "332507908", "name": "KINSHOKU PRODUCTIONS INC", "city": "WILLIAMSVILLE", "state": "NY", "zip": "14221-5644", "ntee": "A20", "ruling": "202506", "deductibility": "1", "assets": 0, "income": 0, "revenue": 0}], "BACINPOWER": [{"ein": "333193469", "name": "BACINPOWER CORP", "city": "NEW YORK", "state": "NY", "zip": "10031-2729", "ntee": "A12", "ruling": "202502", "deductibility": "1", "assets": 0, "income": 0, "revenue": 0}], "RIKLIS": [{"ein": "356942545", "name": "MARCIA RIKLIS FAMILY FOUNDATION", "city": "EAST HAMPTON", "state": "NY", "zip": "11937-2323", "ntee": "T22", "ruling": "201409", "deductibility": "1", "assets": 691, "income": 47, "revenue": 0}], "ZIEGELMAN": [{"ein": "382831525", "name": "ERWIN & ISABELLE ZIEGELMAN FOUNDATION", "city": "PELHAM", "state": "NY", "zip": "10803-2426", "ntee": "T21", "ruling": "198911", "deductibility": "1", "assets": 2134888, "income": 509419, "revenue": 0}], "VALLIERE": [{"ein": "383385006", "name": "VALLIERE FOUNDATION", "city": "GARDEN CITY", "state": "NY", "zip": "11530-1650", "ntee": "T20J", "ruling": "199811", "deductibility": "1", "assets": 1717095, "income": 378624, "revenue": 0}], "FSC": [{"ein": "455594948", "name": "AVIATOR FSC INC", "city": "BROOKLYN", "state": "NY", "zip": "11234-0000", "ntee": "N68", "ruling": "201409", "deductibility": "1", "assets": 0, "income": 0, "revenue": 0}], "BOOTH": [{"ein": "461039908", "name": "BOOTH MEMORIAL CORPORATION", "city": "CANISTEO", "state": "NY", "zip": "14823-1213", "ntee": "B82", "ruling": "201211", "deductibility": "1", "assets": 0, "income": 0, "revenue": 0}], "VITA": [{"ein": "461663077", "name": "VITA NOVA INC", "city": "PERRY", "state": "NY", "zip": "14530-0316", "ntee": "L40", "ruling": "201502", "deductibility": "1", "assets": 0, "income": 0, "revenue": 0}, {"ein": "474756360", "name": "VITA CENTER INC", "city": "BRONX", "state": "NY", "zip": "10463-0000", "ntee": "", "ruling": "202101", "deductibility": "1", "assets": 0, "income": 0, "revenue": 0}, {"ein": "811591849", "name": "VITA USA INC", "city": "NEW YORK", "state": "NY", "zip": "10005-1400", "ntee": "Q11", "ruling": "201607", "deductibility": "1", "assets": 0, "income": 0, "revenue": 0}, {"ein": "843785951", "name": "VITA VALENS FOUNDATION INC", "city": "BROOKLYN", "state": "NY", "zip": "11232-2212", "ntee": "P81", "ruling": "201907", "deductibility": "1", "assets": 391265, "income": 200031, "revenue": 200031}, {"ein": "990668549", "name": "VITA COCO COMMUNITY FOUNDATION", "city": "NEW YORK", "state": "NY", "zip": "10003-1402", "ntee": "T21", "ruling": "202408", "deductibility": "1", "assets": 0, "income": 0, "revenue": 0}], "CHAZAQ": [{"ein": "462148352", "name": "CHAZAQ ORGANIZATION USA INC", "city": "FLUSHING", "state": "NY", "zip": "11367-1618", "ntee": "X30", "ruling": "201408", "deductibility": "1", "assets": 1184784, "income": 2448982, "revenue": 2448982}], "HELIX": [{"ein": "463374843", "name": "HELIX CENTER INC", "city": "NEW YORK", "state": "NY", "zip": "10128-1350", "ntee": "B99", "ruling": "201402", "deductibility": "1", "assets": 196591, "income": 50072, "revenue": 50072}, {"ein": "841758130", "name": "HELIX STRATEGY CENTER", "city": "NANUET", "state": "NY", "zip": "10954-5239", "ntee": "W02", "ruling": "201909", "deductibility": "1", "assets": 3030, "income": 0, "revenue": 0}, {"ein": "883849296", "name": "TRIPLE HELIX INSTITUTE FOR AGRICULTURE CLIMATE AND SOCIETY", "city": "NEW YORK", "state": "NY", "zip": "10023-0021", "ntee": "K01", "ruling": "202212", "deductibility": "1", "assets": 402247, "income": 413541, "revenue": 413541}, {"ein": "934387446", "name": "HELIX IMPACT", "city": "NEW YORK", "state": "NY", "zip": "10013-2562", "ntee": "S02", "ruling": "202312", "deductibility": "1", "assets": 0, "income": 0, "revenue": 0}], "JSW": [{"ein": "464378426", "name": "JSW FOUNDATION", "city": "BROOKLYN", "state": "NY", "zip": "11210-4626", "ntee": "T22", "ruling": "201409", "deductibility": "1", "assets": 299576, "income": 100259, "revenue": 0}, {"ein": "822102826", "name": "JSW BHUTAN LEGAL EDUCATION FOUNDATION", "city": "NEW YORK", "state": "NY", "zip": "10020-0000", "ntee": "B90", "ruling": "201906", "deductibility": "1", "assets": 15199, "income": 433788, "revenue": 0}], "CUSHNER": [{"ein": "465485264", "name": "SCUDERI CUSHNER ORTHOPEDIC RESEARCH AND EDUCATION FOUNDATION", "city": "NEW YORK", "state": "NY", "zip": "10065-7471", "ntee": "T30", "ruling": "201411", "deductibility": "1", "assets": 10660, "income": 27841, "revenue": 27841}], "SINCERITE": [{"ein": "466647061", "name": "LA SINCERITE NO 373 F A M CHARITABLE TR", "city": "JACKSON HEIGHTS", "state": "NY", "zip": "11372-2210", "ntee": "T30", "ruling": "201408", "deductibility": "1", "assets": 0, "income": 0, "revenue": 0}], "PROSCHOLARS": [{"ein": "471749915", "name": "PROSCHOLARS ATHLETICS", "city": "BRONX", "state": "NY", "zip": "10451-0073", "ntee": "N62", "ruling": "201501", "deductibility": "1", "assets": 254822, "income": 186388, "revenue": 186388}], "ALIYAH": [{"ein": "473159280", "name": "ALIYAH GIRLS INC", "city": "BROOKLYN", "state": "NY", "zip": "11225-3121", "ntee": "X30", "ruling": "201606", "deductibility": "1", "assets": 0, "income": 0, "revenue": 0}, {"ein": "842871203", "name": "ALIYAH CHILDRENS HOUSE", "city": "NORTHPORT", "state": "NY", "zip": "11768-1330", "ntee": "P32", "ruling": "202006", "deductibility": "1", "assets": 1654, "income": 1, "revenue": 0}], "SDSN": [{"ein": "473511012", "name": "SDSN ASSOCIATION INC", "city": "NEW YORK", "state": "NY", "zip": "10115-0100", "ntee": "P12", "ruling": "201509", "deductibility": "1", "assets": 9449843, "income": 9559886, "revenue": 9559886}], "MARNAG": [{"ein": "473700680", "name": "KARMAPA SHA MARNAG", "city": "JACKSON HTS", "state": "NY", "zip": "11372-5520", "ntee": "P99", "ruling": "201504", "deductibility": "1", "assets": 0, "income": 0, "revenue": 0}], "KYLES": [{"ein": "474309057", "name": "KYLES HEART HELPERS INCORPORATED", "city": "MONROE", "state": "NY", "zip": "10950-1301", "ntee": "E12", "ruling": "201805", "deductibility": "1", "assets": 0, "income": 0, "revenue": 0}, {"ein": "823261195", "name": "KYLES GIFTS FROM HEAVEN", "city": "BUFFALO", "state": "NY", "zip": "14202-1321", "ntee": "O50", "ruling": "201801", "deductibility": "1", "assets": 0, "income": 0, "revenue": 0}, {"ein": "883717873", "name": "KYLES COZY CORNER REHAB AND RESCUE INC", "city": "ROCHESTER", "state": "NY", "zip": "14624-1632", "ntee": "D20", "ruling": "202406", "deductibility": "1", "assets": 0, "income": 0, "revenue": 0}], "STICK": [{"ein": "474632812", "name": "DIP A STICK FOR DIABETES CORPORATION", "city": "SETAUKET", "state": "NY", "zip": "11733-3002", "ntee": "E01", "ruling": "201508", "deductibility": "1", "assets": 0, "income": 0, "revenue": 0}], "NHF": [{"ein": "474817633", "name": "NHF USA INC", "city": "JAMAICA", "state": "NY", "zip": "11435-3123", "ntee": "P60", "ruling": "201611", "deductibility": "1", "assets": 66538, "income": 14224, "revenue": 14224}], "HAGIVA": [{"ein": "475474360", "name": "MOSDOT ROSH HAGIVA FUND INC", "city": "BROOKLYN", "state": "NY", "zip": "11218-4966", "ntee": "B11", "ruling": "201511", "deductibility": "1", "assets": 0, "income": 0, "revenue": 0}], "SICHERMAN": [{"ein": "510365530", "name": "SICHERMAN FAMILY FOUNDATION INC", "city": "BROOKLYN", "state": "NY", "zip": "11219-3965", "ntee": "P60Z", "ruling": "199505", "deductibility": "1", "assets": 1864577, "income": 350498, "revenue": 0}], "SAMOURKAS": [{"ein": "521386946", "name": "SAMOURKAS FOUNDATION OF NEW YORK", "city": "NEW YORK", "state": "NY", "zip": "10022-8606", "ntee": "", "ruling": "198602", "deductibility": "1", "assets": 5054813, "income": 154919, "revenue": 0}], "PRYOR": [{"ein": "736332512", "name": "THE ANNA PRYOR TUW CHARITY", "city": "BUFFALO", "state": "NY", "zip": "14240-1504", "ntee": "T20", "ruling": "200504", "deductibility": "1", "assets": 710775, "income": 191945, "revenue": 0}], "TRUNGRAM": [{"ein": "810558259", "name": "UNITED TRUNGRAM BUDDHIST FELLOWSHIP INC", "city": "COCHECTON", "state": "NY", "zip": "12726-5531", "ntee": "X50", "ruling": "200302", "deductibility": "1", "assets": 308344, "income": 37000, "revenue": 37000}], "MANDL": [{"ein": "810812254", "name": "INES MANDL RESEARCH FOUNDATION INC", "city": "NEW YORK", "state": "NY", "zip": "10128-1758", "ntee": "E05", "ruling": "201604", "deductibility": "1", "assets": 7598543, "income": 8156924, "revenue": 0}], "YESHIVES": [{"ein": "811666181", "name": "CONGREGATION SHAREI YESHIVES", "city": "BROOKLYN", "state": "NY", "zip": "11205-1403", "ntee": "X30", "ruling": "201707", "deductibility": "1", "assets": 0, "income": 0, "revenue": 0}], "POCKET": [{"ein": "814391946", "name": "OUT OF POCKET INC", "city": "ROCHESTER", "state": "NY", "zip": "14617-4527", "ntee": "A65", "ruling": "201707", "deductibility": "1", "assets": 0, "income": 0, "revenue": 0}], "MARCHIGIANI": [{"ein": "821865232", "name": "MIA - MARCHIGIANI IN AMERICA", "city": "NEW YORK", "state": "NY", "zip": "10012-3766", "ntee": "A20", "ruling": "201712", "deductibility": "1", "assets": 0, "income": 0, "revenue": 0}], "TARTE": [{"ein": "822988270", "name": "HEART TO TARTE FOUNDATION", "city": "NEW YORK", "state": "NY", "zip": "10018-7001", "ntee": "T30", "ruling": "201803", "deductibility": "1", "assets": 24947, "income": 49802, "revenue": 49802}], "SCION": [{"ein": "830596128", "name": "PENTECOSTAL CHURCH SCION OF HOUSE OF GOD", "city": "BRONX", "state": "NY", "zip": "10458-3510", "ntee": "X99", "ruling": "202308", "deductibility": "1", "assets": 0, "income": 0, "revenue": 0}], "KITESONG": [{"ein": "830729369", "name": "KITESONG GLOBAL", "city": "HORSEHEADS", "state": "NY", "zip": "14845-3022", "ntee": "P20", "ruling": "201905", "deductibility": "1", "assets": 0, "income": 0, "revenue": 0}], "FOSTERED": [{"ein": "831929951", "name": "A PLACE TO BEAD ME - CREATIVITY FOSTERED INC", "city": "NEW YORK", "state": "NY", "zip": "10021-2665", "ntee": "O50", "ruling": "201904", "deductibility": "1", "assets": 0, "income": 0, "revenue": 0}], "MOVIDA": [{"ein": "832500425", "name": "IGLESIA VISION MISIONERA MOVIDA A MISERICORDIA INC", "city": "BRONX", "state": "NY", "zip": "10457-2306", "ntee": "X20", "ruling": "201907", "deductibility": "1", "assets": 0, "income": 0, "revenue": 0}], "WHITEHAL": [{"ein": "833154273", "name": "VOLUNTEER EXEMPT FIREFIGHTERS BENEVOLENT ASSOCIATION OF WHITEHAL", "city": "WHITEHALL", "state": "NY", "zip": "12887-1300", "ntee": "M60", "ruling": "202107", "deductibility": "1", "assets": 0, "income": 0, "revenue": 0}], "COMMUNITYS": [{"ein": "833236548", "name": "QUANTUM COMMUNITYS SOCIETY INC", "city": "BROADALBIN", "state": "NY", "zip": "12025-2118", "ntee": "A20", "ruling": "201903", "deductibility": "1", "assets": 0, "income": 0, "revenue": 0}], "WOOFS": [{"ein": "833598651", "name": "WOOFS FOR WARRIORS INC", "city": "GLENS FALLS", "state": "NY", "zip": "12801-6466", "ntee": "P99", "ruling": "201908", "deductibility": "1", "assets": 0, "income": 0, "revenue": 0}], "VEGANO": [{"ein": "842501191", "name": "CARNAVAL VEGANO INC", "city": "NEW YORK", "state": "NY", "zip": "10032-1342", "ntee": "A03", "ruling": "202301", "deductibility": "1", "assets": 0, "income": 0, "revenue": 0}], "IFIOK": [{"ein": "842913140", "name": "IBAN IFIOK INC", "city": "ROSEDALE", "state": "NY", "zip": "11422-2145", "ntee": "P20", "ruling": "202006", "deductibility": "1", "assets": 0, "income": 0, "revenue": 0}], "RBH": [{"ein": "843505652", "name": "RBH CENTER INC", "city": "BROOKLYN", "state": "NY", "zip": "11220-2989", "ntee": "A23", "ruling": "202001", "deductibility": "1", "assets": 49397, "income": 374453, "revenue": 374453}], "UDDIN": [{"ein": "851349621", "name": "AMIL UDDIN FAMILY FOUNDATION", "city": "WOODHAVEN", "state": "NY", "zip": "11421-1136", "ntee": "X40", "ruling": "202202", "deductibility": "1", "assets": 0, "income": 0, "revenue": 0}], "HRX8": [{"ein": "852076859", "name": "CLASSACT HRX8 INC", "city": "GLEN COVE", "state": "NY", "zip": "11542-3112", "ntee": "T50", "ruling": "202009", "deductibility": "1", "assets": 0, "income": 0, "revenue": 0}], "TEMPERANCE": [{"ein": "852743638", "name": "POUGHKEEPSIE WOMEN CHRISTIAN TEMPERANCE MINISTRY INC", "city": "POUGHKEEPSIE", "state": "NY", "zip": "12602-4760", "ntee": "F20", "ruling": "202011", "deductibility": "1", "assets": 0, "income": 0, "revenue": 0}], "BENCIVENGA": [{"ein": "853950166", "name": "LAURA BENCIVENGA FOUNDATION INC", "city": "LONG BEACH", "state": "NY", "zip": "11561-4419", "ntee": "T20", "ruling": "202204", "deductibility": "1", "assets": 218334, "income": 819440, "revenue": 0}], "POSEY": [{"ein": "861659476", "name": "POSEY DANCE COMPANY OF NORTHPORT INC", "city": "NORTHPORT", "state": "NY", "zip": "11768-1742", "ntee": "A65", "ruling": "202107", "deductibility": "1", "assets": 0, "income": 0, "revenue": 0}], "SADIGURA": [{"ein": "862195393", "name": "CONG RUZIN SADIGURA", "city": "BROOKLYN", "state": "NY", "zip": "11219-3556", "ntee": "X30", "ruling": "202504", "deductibility": "1", "assets": 0, "income": 0, "revenue": 0}], "AQ": [{"ein": "863690571", "name": "AQ HOCKEY BOOSTER CLUB INC", "city": "ROCHESTER", "state": "NY", "zip": "14612-1266", "ntee": "P99", "ruling": "202108", "deductibility": "1", "assets": 0, "income": 0, "revenue": 0}], "PARAGEN": [{"ein": "873467931", "name": "PARAGEN ELECTRONIC CORPORATION", "city": "BELLMORE", "state": "NY", "zip": "11710-3550", "ntee": "A80", "ruling": "202201", "deductibility": "1", "assets": 0, "income": 0, "revenue": 0}], "CHELKAINY": [{"ein": "882510020", "name": "CHELKAINY INC", "city": "SPRING VALLEY", "state": "NY", "zip": "10977-8974", "ntee": "P50", "ruling": "202206", "deductibility": "1", "assets": 829214, "income": 1124600, "revenue": 1124600}], "BODS": [{"ein": "883726252", "name": "BROADWAY BODS INC", "city": "NEW YORK", "state": "NY", "zip": "10035-1374", "ntee": "A60", "ruling": "202210", "deductibility": "1", "assets": 0, "income": 0, "revenue": 0}], "OTC": [{"ein": "884014457", "name": "CALHOUN OTC BOOSTERS CORP", "city": "MERRICK", "state": "NY", "zip": "11566-2973", "ntee": "O12", "ruling": "202211", "deductibility": "1", "assets": 10467, "income": 51583, "revenue": 51583}], "EQUIPPING": [{"ein": "884263451", "name": "EQUIPPING OUR COMMUNITY INC", "city": "CATTARAUGUS", "state": "NY", "zip": "14719-1016", "ntee": "P28", "ruling": "202307", "deductibility": "1", "assets": 0, "income": 0, "revenue": 0}, {"ein": "923459307", "name": "EQUIPPING WOMEN WORLDWIDE INC", "city": "CONGERS", "state": "NY", "zip": "10920-0000", "ntee": "", "ruling": "202310", "deductibility": "1", "assets": 0, "income": 0, "revenue": 0}, {"ein": "932331561", "name": "EMPOWERING AND EQUIPPING THE CHOSEN", "city": "NYACK", "state": "NY", "zip": "10960-1734", "ntee": "P42", "ruling": "202405", "deductibility": "1", "assets": 0, "income": 0, "revenue": 0}], "PRIVACY": [{"ein": "921608570", "name": "IAB PRIVACY INC", "city": "NEW YORK", "state": "NY", "zip": "10016-8942", "ntee": "S40", "ruling": "202306", "deductibility": "2", "assets": 11286, "income": 115000, "revenue": 115000}], "COMHRAIC": [{"ein": "922160037", "name": "COMHRAIC 180 INC", "city": "COHOES", "state": "NY", "zip": "12047-1459", "ntee": "S20", "ruling": "202309", "deductibility": "1", "assets": 131192, "income": 175164, "revenue": 175164}], "JABAD": [{"ein": "922971778", "name": "FRIENDS OF JABAD URUGUAY INC", "city": "MONSEY", "state": "NY", "zip": "10952-1600", "ntee": "X30", "ruling": "202304", "deductibility": "1", "assets": 77315, "income": 280146, "revenue": 280146}], "FIRED": [{"ein": "932452861", "name": "FIRED UP FOR YOUTH INC", "city": "SYRACUSE", "state": "NY", "zip": "13202-2404", "ntee": "O01", "ruling": "202308", "deductibility": "1", "assets": 17198, "income": 113040, "revenue": 113040}], "COMMANDO": [{"ein": "932888958", "name": "COMMANDO LODGE 1105", "city": "ALBANY", "state": "NY", "zip": "12211-2141", "ntee": "", "ruling": "202401", "deductibility": "1", "assets": 0, "income": 0, "revenue": 0}], "PINCH": [{"ein": "991294986", "name": "PINCH HITTERS USA INC", "city": "HUNTINGTN STA", "state": "NY", "zip": "11746-0072", "ntee": "N63", "ruling": "202407", "deductibility": "1", "assets": 0, "income": 0, "revenue": 0}], "DIAMONDZ": [{"ein": "991433076", "name": "PURPLE DIAMONDZ DANCE INC", "city": "ROCHESTER", "state": "NY", "zip": "14608-1866", "ntee": "A62", "ruling": "202402", "deductibility": "1", "assets": 0, "income": 0, "revenue": 0}], "FRASIER": [{"ein": "992260681", "name": "FRASIER FOUNDATION INC", "city": "ISLIP", "state": "NY", "zip": "11751-3806", "ntee": "C12", "ruling": "202406", "deductibility": "1", "assets": 0, "income": 0, "revenue": 0}], "ESCC": [{"ein": "993661798", "name": "ESCC-R FOUNDATION CORPORATION", "city": "BROOKLYN", "state": "NY", "zip": "11212-4944", "ntee": "B90", "ruling": "202408", "deductibility": "1", "assets": 0, "income": 0, "revenue": 0}]}