{"PRAISE": [{"ein": "020588459", "name": "GATES OF PRAISE INC", "city": "SUFFERN", "state": "NY", "zip": "10901-0388", "ntee": "X21", "ruling": "200206", "deductibility": "1", "assets": 0, "income": 0, "revenue": 0}, {"ein": "030436338", "name": "TRUE PRAISE & WORSHIP C O G I C INC", "city": "BUFFALO", "state": "NY", "zip": "14211-2439", "ntee": "X20", "ruling": "200506", "deductibility": "1", "assets": 0, "income": 0, "revenue": 0}, {"ein": "030483102", "name": "PRAISE INTERNATIONAL WORSHIP AND DELIVERANCE CENTER", "city": "BROOKLYN", "state": "NY", "zip": "11207-4023", "ntee": "X21", "ruling": "200407", "deductibility": "1", "assets": 0, "income": 0, "revenue": 0}, {"ein": "061800495", "name": "PRISON TO PRAISE INTERNATIONAL", "city": "BUFFALO", "state": "NY", "zip": "14231-1032", "ntee": "I43", "ruling": "200703", "deductibility": "1", "assets": 0, "income": 0, "revenue": 0}, {"ein": "100000968", "name": "INSPIRED WORD MINISTRIES SANCTUARY OF PRAISE INC", "city": "BRONX", "state": "NY", "zip": "10467-5330", "ntee": "X21", "ruling": "200209", "deductibility": "1", "assets": 0, "income": 0, "revenue": 0}, {"ein": "112560069", "name": "SHEKINAH TEMPLE OF PRAISE INC", "city": "BROOKLYN", "state": "NY", "zip": "11203-1309", "ntee": "", "ruling": "198204", "deductibility": "1", "assets": 37014, "income": 87368, "revenue": 87368}, {"ein": "112656564", "name": "PRAISE TABERNACLE INC", "city": "JAMAICA", "state": "NY", "zip": "11435-5432", "ntee": "", "ruling": "199308", "deductibility": "1", "assets": 0, "income": 0, "revenue": 0}, {"ein": "113002559", "name": "WALLS OF SALVATION AND THE GATES OF PRAISE", "city": "BROOKLYN", "state": "NY", "zip": "11226-1252", "ntee": "", "ruling": "199010", "deductibility": "1", "assets": 0, "income": 0, "revenue": 0}, {"ein": "113004354", "name": "LIBERTY HALL CATHEDRAL OF PRAISE INC", "city": "BROOKLYN", "state": "NY", "zip": "11236-4814", "ntee": "", "ruling": "197412", "deductibility": "1", "assets": 0, "income": 0, "revenue": 0}, {"ein": "113036565", "name": "HOUSE OF PRAISE CHRISTIAN REVIVAL CENTER INC", "city": "RIVERHEAD", "state": "NY", "zip": "11901-0105", "ntee": "", "ruling": "199203", "deductibility": "1", "assets": 0, "income": 0, "revenue": 0}, {"ein": "113063214", "name": "PRAISE TEMPLE INC", "city": "BALDWIN", "state": "NY", "zip": "11510-0048", "ntee": "X21", "ruling": "200007", "deductibility": "1", "assets": 0, "income": 0, "revenue": 0}, {"ein": "113101970", "name": "HOUSE OF WORSHIP AND PRAISE", "city": "BROOKLYN", "state": "NY", "zip": "11212-3853", "ntee": "", "ruling": "199601", "deductibility": "0", "assets": 0, "income": 0, "revenue": 0}, {"ein": "113104491", "name": "SACRIFICE OF PRAISE MINISTRIES", "city": "ROOSEVELT", "state": "NY", "zip": "11575-1120", "ntee": "X20", "ruling": "201412", "deductibility": "1", "assets": 0, "income": 0, "revenue": 0}, {"ein": "113133825", "name": "TABERNACLE OF PRAISE", "city": "BROOKLYN", "state": "NY", "zip": "11203-5912", "ntee": "X99Z", "ruling": "199410", "deductibility": "1", "assets": 0, "income": 0, "revenue": 0}, {"ein": "113187593", "name": "MOUNT CALVARY HOLINESS CHURCH HOUSE OF PRAISE", "city": "WYANDANCH", "state": "NY", "zip": "11798-4322", "ntee": "X99Z", "ruling": "199605", "deductibility": "1", "assets": 0, "income": 0, "revenue": 0}, {"ein": "113205589", "name": "PRAISE INTERNATIONAL FELLOWSHIP CHURCH", "city": "ST ALBANS", "state": "NY", "zip": "11413-2600", "ntee": "X21Z", "ruling": "199512", "deductibility": "1", "assets": 0, "income": 0, "revenue": 0}, {"ein": "113255905", "name": "THE PRAISE TABERNACLE OF DELIVERANCE", "city": "BROOKLYN", "state": "NY", "zip": "11212-4349", "ntee": "X21", "ruling": "202010", "deductibility": "1", "assets": 0, "income": 0, "revenue": 0}, {"ein": "113274553", "name": "CITADEL OF PRAISE AND WORSHIP INC", "city": "BROOKLYN", "state": "NY", "zip": "11233-2011", "ntee": "X21Z", "ruling": "199608", "deductibility": "1", "assets": 0, "income": 271372, "revenue": 271372}, {"ein": "113313141", "name": "AGAPE HOUSE OF PRAYER AND PRAISE INC", "city": "BROOKLYN", "state": "NY", "zip": "11221-2707", "ntee": "X20Z", "ruling": "199805", "deductibility": "1", "assets": 0, "income": 0, "revenue": 0}, {"ein": "113472885", "name": "MT CARMEL COURTS OF PRAISE MINISTRY", "city": "ROSEDALE", "state": "NY", "zip": "11422-2914", "ntee": "X21", "ruling": "200003", "deductibility": "1", "assets": 0, "income": 0, "revenue": 0}, {"ein": "113473341", "name": "BETHEL OF PRAISE MINISTRIES INCORPORATED", "city": "BROOKLYN", "state": "NY", "zip": "11203-1508", "ntee": "X21", "ruling": "199908", "deductibility": "1", "assets": 0, "income": 0, "revenue": 0}, {"ein": "113497852", "name": "TABERNACLE OF PRAISE INTERNATIONAL MINISTRIES INC", "city": "ROSEDALE", "state": "NY", "zip": "11422-2740", "ntee": "X20", "ruling": "200201", "deductibility": "1", "assets": 0, "income": 0, "revenue": 0}, {"ein": "113533478", "name": "GREATER TEMPLE OF PRAISE INC", "city": "BROOKLYN", "state": "NY", "zip": "11207-3303", "ntee": "X21", "ruling": "200008", "deductibility": "1", "assets": 143372, "income": 194605, "revenue": 194605}, {"ein": "113558430", "name": "PERPETUAL PRAISE TABERNACLE INC", "city": "SAINT ALBANS", "state": "NY", "zip": "11412-2359", "ntee": "X21", "ruling": "200107", "deductibility": "1", "assets": 0, "income": 0, "revenue": 0}, {"ein": "113563017", "name": "GLORIOUS PRAISE BAPTIST CHURCH INC", "city": "BROOKLYN", "state": "NY", "zip": "11233-2602", "ntee": "X21", "ruling": "200404", "deductibility": "1", "assets": 0, "income": 0, "revenue": 0}, {"ein": "113573204", "name": "TRINITY TABERNACLE OF PRAISE INC", "city": "BROOKLYN", "state": "NY", "zip": "11203-5818", "ntee": "X20", "ruling": "200409", "deductibility": "1", "assets": 0, "income": 0, "revenue": 0}, {"ein": "113575640", "name": "MUSTARD SEED TABERNACLE OF PRAISE MINISTRIES", "city": "BROOKLYN", "state": "NY", "zip": "11203-4505", "ntee": "X20", "ruling": "200106", "deductibility": "1", "assets": 1, "income": 20839, "revenue": 20839}, {"ein": "113594529", "name": "CHAPEL OF PRAISE INC", "city": "ARVERNE", "state": "NY", "zip": "11692-1417", "ntee": "X20", "ruling": "200701", "deductibility": "1", "assets": 0, "income": 0, "revenue": 0}, {"ein": "113615093", "name": "NEW MILLENIUM TABERNACLE OF PRAISE INC", "city": "BROOKLYN", "state": "NY", "zip": "11236-3017", "ntee": "X21", "ruling": "200409", "deductibility": "1", "assets": 0, "income": 0, "revenue": 0}, {"ein": "113622584", "name": "CALVARY CATHEDRAL OF PRAISE WORLD OUTREACH CENTER INC", "city": "BROOKLYN", "state": "NY", "zip": "11218-1805", "ntee": "X21", "ruling": "200706", "deductibility": "1", "assets": 0, "income": 0, "revenue": 0}, {"ein": "113623733", "name": "NASSAU TABERNACLE OF PRAISE", "city": "ISLIP TERRACE", "state": "NY", "zip": "11752-1907", "ntee": "X20", "ruling": "196408", "deductibility": "1", "assets": 0, "income": 0, "revenue": 0}, {"ein": "133176410", "name": "LIVING PRAISE MINISTRIES INC", "city": "MOUNT VERNON", "state": "NY", "zip": "10552-2231", "ntee": "", "ruling": "198504", "deductibility": "1", "assets": 0, "income": 0, "revenue": 0}, {"ein": "133351837", "name": "TRUE PRAISE CHURCH OF GOD INC", "city": "JAMAICA", "state": "NY", "zip": "11434-2944", "ntee": "", "ruling": "198907", "deductibility": "1", "assets": 0, "income": 0, "revenue": 0}, {"ein": "133411572", "name": "MAJESTIC PRAISE TABERNACLE", "city": "STATEN ISLAND", "state": "NY", "zip": "10301-0015", "ntee": "X99", "ruling": "199905", "deductibility": "1", "assets": 0, "income": 0, "revenue": 0}, {"ein": "133818240", "name": "TEMPLE OF JOY SOUNDS OF PRAISE PENTECOSTAL FELLOWSHIP MINISTRIES", "city": "BRONX", "state": "NY", "zip": "10462-4512", "ntee": "X21", "ruling": "201011", "deductibility": "1", "assets": 0, "income": 0, "revenue": 0}, {"ein": "133847950", "name": "BETHEL CHURCH OF GOD SOUNDS OF PRAISE PENTECOSTAL FELLOWHIP MINIS", "city": "PORT CHESTER", "state": "NY", "zip": "10573-0707", "ntee": "X20", "ruling": "200008", "deductibility": "1", "assets": 0, "income": 0, "revenue": 0}, {"ein": "133861058", "name": "HIGHEST PRAISE", "city": "BRONX", "state": "NY", "zip": "10466-0000", "ntee": "", "ruling": "197210", "deductibility": "1", "assets": 0, "income": 0, "revenue": 0}, {"ein": "133952773", "name": "PRAISE TEMPLE PENTECOSTAL ASSEMBLY OF JESUS CHRIST APOSTOLIC INC", "city": "BRONX", "state": "NY", "zip": "10469-0760", "ntee": "X20Z", "ruling": "199802", "deductibility": "1", "assets": 0, "income": 0, "revenue": 0}, {"ein": "134012039", "name": "TRUE PRAISE DELIVERANCE MINISTERIES INC", "city": "BRONX", "state": "NY", "zip": "10467-5103", "ntee": "X21", "ruling": "200010", "deductibility": "1", "assets": 0, "income": 0, "revenue": 0}, {"ein": "134120180", "name": "PRAISE CHURCH INC", "city": "WHITE PLAINS", "state": "NY", "zip": "10605-1205", "ntee": "X21", "ruling": "200102", "deductibility": "1", "assets": 0, "income": 0, "revenue": 0}, {"ein": "134179354", "name": "USA JESUS CHRIST PRAISE CHURCH", "city": "BRONX", "state": "NY", "zip": "10465-3747", "ntee": "X20", "ruling": "200111", "deductibility": "1", "assets": 0, "income": 0, "revenue": 0}, {"ein": "141658303", "name": "HOUSE OF PRAISE MINISTRIES", "city": "CASTLETON", "state": "NY", "zip": "12033-9669", "ntee": "", "ruling": "198507", "deductibility": "1", "assets": 0, "income": 0, "revenue": 0}, {"ein": "141771921", "name": "PRAISE BAPTIST CHURCH", "city": "BALLSTON SPA", "state": "NY", "zip": "12020-4106", "ntee": "X99Z", "ruling": "199504", "deductibility": "1", "assets": 0, "income": 0, "revenue": 0}, {"ein": "141773686", "name": "TABERNACLE OF PRAISE", "city": "COBLESKILL", "state": "NY", "zip": "12043-0556", "ntee": "X99Z", "ruling": "199509", "deductibility": "1", "assets": 0, "income": 0, "revenue": 0}, {"ein": "141825175", "name": "PRAISE DOMINION FAMILY WORSHIP CENTER", "city": "KINGSTON", "state": "NY", "zip": "12401-5846", "ntee": "X21", "ruling": "200203", "deductibility": "1", "assets": 0, "income": 0, "revenue": 0}, {"ein": "141833368", "name": "OUR LORD IS ONE BLESSED PRAISE MINISTRIES", "city": "GUILDERLAND CENTER", "state": "NY", "zip": "12085-0000", "ntee": "X21", "ruling": "200209", "deductibility": "1", "assets": 0, "income": 0, "revenue": 0}, {"ein": "161243294", "name": "COURTS OF PRAISE CHURCH", "city": "ITHACA", "state": "NY", "zip": "14850-1313", "ntee": "", "ruling": "198903", "deductibility": "1", "assets": 0, "income": 0, "revenue": 0}, {"ein": "161265598", "name": "PEOPLE OF PRAISE OF NEW YORK INC", "city": "WILLIAMSVILLE", "state": "NY", "zip": "14221-4217", "ntee": "S41Z", "ruling": "199301", "deductibility": "1", "assets": 229280, "income": 151103, "revenue": 151103}, {"ein": "161401478", "name": "OPEN PRAISE BAPTIST CHURCH", "city": "BUFFALO", "state": "NY", "zip": "14212-1341", "ntee": "X21", "ruling": "200007", "deductibility": "1", "assets": 0, "income": 0, "revenue": 0}, {"ein": "161469570", "name": "PRAISE TABERNACLE CHURCH", "city": "BUFFALO", "state": "NY", "zip": "14206-1642", "ntee": "X99Z", "ruling": "199510", "deductibility": "1", "assets": 0, "income": 0, "revenue": 0}, {"ein": "161567875", "name": "CATHEDRAL OF PRAISE MINISTRIES", "city": "BUFFALO", "state": "NY", "zip": "14214-2525", "ntee": "X21", "ruling": "200006", "deductibility": "1", "assets": 0, "income": 0, "revenue": 0}, {"ein": "161718955", "name": "REDEEMED CHRISTIAN CHURCH OF GOD HOUSE OF PRAISE", "city": "JAMAICA", "state": "NY", "zip": "11433-4141", "ntee": "X21", "ruling": "200806", "deductibility": "1", "assets": 0, "income": 0, "revenue": 0}, {"ein": "200960915", "name": "LIVING PRAISE TABERNACLE", "city": "SAINT ALBANS", "state": "NY", "zip": "11412-3001", "ntee": "X21", "ruling": "200706", "deductibility": "1", "assets": 0, "income": 0, "revenue": 0}, {"ein": "202822763", "name": "BETHEL TEMPLE OF PRAISE", "city": "YONKERS", "state": "NY", "zip": "10701-2604", "ntee": "X20", "ruling": "200608", "deductibility": "1", "assets": 0, "income": 0, "revenue": 0}, {"ein": "203282111", "name": "RIVER OF PRAISE TABERNACLE", "city": "STATEN ISLAND", "state": "NY", "zip": "10314-1404", "ntee": "", "ruling": "196408", "deductibility": "1", "assets": 0, "income": 0, "revenue": 0}, {"ein": "204812928", "name": "TABERNACLE OF PRAISE AND WORSHIPINC", "city": "CATSKILL", "state": "NY", "zip": "12414-0522", "ntee": "", "ruling": "199908", "deductibility": "1", "assets": 0, "income": 0, "revenue": 0}, {"ein": "208601595", "name": "REDEEMED CHRISTIAN CHURCH OF GOD -PRAISE ASSEMBLY", "city": "SPRINGFIELD", "state": "NY", "zip": "11413-1714", "ntee": "X21", "ruling": "200811", "deductibility": "1", "assets": 0, "income": 0, "revenue": 0}, {"ein": "208640208", "name": "NEW LIFE WORSHIP AND PRAISE CATHEDRAL INC", "city": "BRONX", "state": "NY", "zip": "10462-4107", "ntee": "X21", "ruling": "200706", "deductibility": "1", "assets": 0, "income": 0, "revenue": 0}, {"ein": "208890731", "name": "LIGHTHOUSE PRAISE & WORSHIP INC", "city": "MINEOLA", "state": "NY", "zip": "11501-3422", "ntee": "A6C", "ruling": "201301", "deductibility": "1", "assets": 0, "income": 0, "revenue": 0}, {"ein": "222514976", "name": "PRAYER AND PRAISE FELLOWSHIPS INC", "city": "BUFFALO", "state": "NY", "zip": "14209-2307", "ntee": "", "ruling": "199104", "deductibility": "1", "assets": 0, "income": 0, "revenue": 0}, {"ein": "222778837", "name": "GOD TEMPLE OF HOLY PRAISE INC", "city": "ROCHESTER", "state": "NY", "zip": "14609-6442", "ntee": "", "ruling": "198706", "deductibility": "1", "assets": 0, "income": 0, "revenue": 0}, {"ein": "223118006", "name": "TABERNACLE OF PRAISE", "city": "BUFFALO", "state": "NY", "zip": "14240-6986", "ntee": "", "ruling": "199203", "deductibility": "1", "assets": 0, "income": 0, "revenue": 0}, {"ein": "260029253", "name": "RHEMA SANCTUARY OF PRAISE INC", "city": "BRONX", "state": "NY", "zip": "10473-1613", "ntee": "X20", "ruling": "200409", "deductibility": "1", "assets": 0, "income": 0, "revenue": 0}, {"ein": "260115377", "name": "REHOBOTH HOUSE OF PRAISE CHURCH OF GOD", "city": "ST ALBANS", "state": "NY", "zip": "11412-3222", "ntee": "", "ruling": "197210", "deductibility": "1", "assets": 0, "income": 0, "revenue": 0}, {"ein": "260238062", "name": "CHURCH OF PRAISE", "city": "DIX HILLS", "state": "NY", "zip": "11746-7102", "ntee": "X21", "ruling": "200707", "deductibility": "1", "assets": 0, "income": 0, "revenue": 0}, {"ein": "261773278", "name": "LITTLE JERSALEUM HOUSE OF PRAISE TRUINE SPIRTUAL BAPTIST CHURCH", "city": "BROOKLYN", "state": "NY", "zip": "11207-6001", "ntee": "X21", "ruling": "200807", "deductibility": "1", "assets": 0, "income": 0, "revenue": 0}, {"ein": "262098042", "name": "PRAISE AND WORSHIP DELIVERANCE CHURCH", "city": "BRONX", "state": "NY", "zip": "10469-1018", "ntee": "X21", "ruling": "200812", "deductibility": "1", "assets": 0, "income": 0, "revenue": 0}, {"ein": "270518382", "name": "FAITH WORSHIP AND PRAISE DELIVERANCE TABERNACLE", "city": "BROOKLYN", "state": "NY", "zip": "11216-1607", "ntee": "X20", "ruling": "201006", "deductibility": "1", "assets": 0, "income": 0, "revenue": 0}, {"ein": "270969544", "name": "ALL NATIONS PRAISE CHURCH AND MINISTRIES", "city": "WOODHAVEN", "state": "NY", "zip": "11421-1207", "ntee": "X21", "ruling": "201109", "deductibility": "1", "assets": 0, "income": 0, "revenue": 0}, {"ein": "272591392", "name": "GREATER MISSION TABERNACLE -THE PLACE OF PRAISE", "city": "BROOKLYN", "state": "NY", "zip": "11211-1668", "ntee": "X20", "ruling": "201103", "deductibility": "1", "assets": 0, "income": 0, "revenue": 0}, {"ein": "273089107", "name": "TABERNACLE OF PRAISE MINISTRIES CHURCH OF THE LIVING GOD INC", "city": "ROME", "state": "NY", "zip": "13440-0000", "ntee": "X20", "ruling": "201101", "deductibility": "1", "assets": 0, "income": 0, "revenue": 0}, {"ein": "273136327", "name": "CHURCH OF PRAISE AND WORSHIP GOD IN CHRIST INC", "city": "BROOKLYN", "state": "NY", "zip": "11233-4902", "ntee": "X20", "ruling": "201312", "deductibility": "1", "assets": 0, "income": 0, "revenue": 0}, {"ein": "274718562", "name": "REVELATION PRAISE PRAYER TOWER", "city": "DEER PARK", "state": "NY", "zip": "11729-5748", "ntee": "X21", "ruling": "201108", "deductibility": "1", "assets": 1, "income": 54408, "revenue": 54408}, {"ein": "300591986", "name": "VICTORY THROUGH PRAISE MINISTRIES", "city": "BRONX", "state": "NY", "zip": "10473-3021", "ntee": "X20", "ruling": "201107", "deductibility": "1", "assets": 0, "income": 0, "revenue": 0}, {"ein": "320284111", "name": "UNITED CHURCH OF PRAISE INTERNATIONAL MINISTRIES INC", "city": "STATEN ISLAND", "state": "NY", "zip": "10304-3520", "ntee": "X20", "ruling": "201004", "deductibility": "1", "assets": 22815, "income": 185319, "revenue": 185319}, {"ein": "320285674", "name": "AGAPE PRAISE AND WORSHIP TABERNACLE", "city": "BROOKLYN", "state": "NY", "zip": "11236-4012", "ntee": "X20", "ruling": "201603", "deductibility": "1", "assets": 0, "income": 0, "revenue": 0}, {"ein": "331099279", "name": "TABERNACLE OF PRAISE AND DELIVERANCE OUTREACH CENTER", "city": "ST ALBANS", "state": "NY", "zip": "11434-1900", "ntee": "X21", "ruling": "200611", "deductibility": "1", "assets": 0, "income": 0, "revenue": 0}, {"ein": "371593257", "name": "SANCTUARY OF PRAISE & WORSHIP CENTER", "city": "JAMAICA", "state": "NY", "zip": "11435-5154", "ntee": "X20", "ruling": "202210", "deductibility": "1", "assets": 0, "income": 0, "revenue": 0}, {"ein": "453191500", "name": "RIVER JORDAN HOLY TEMPLE OF PRAISE AND WORSHIP INC", "city": "BRONX", "state": "NY", "zip": "10469-3252", "ntee": "X21", "ruling": "201206", "deductibility": "1", "assets": 0, "income": 0, "revenue": 0}, {"ein": "453684959", "name": "PERFECTING PRAISE INTERNATIONAL INC", "city": "BROOKLYN", "state": "NY", "zip": "11236-0604", "ntee": "X21", "ruling": "201308", "deductibility": "1", "assets": 0, "income": 0, "revenue": 0}, {"ein": "454008670", "name": "CHURCH OF GOD TABERNACLE OF PRAISE INC", "city": "BROOKLYN", "state": "NY", "zip": "11226-2103", "ntee": "X20", "ruling": "201405", "deductibility": "1", "assets": 0, "income": 0, "revenue": 0}, {"ein": "454466192", "name": "FAITH LOVE AND PRAISE", "city": "ELMONT", "state": "NY", "zip": "11003-2514", "ntee": "", "ruling": "197210", "deductibility": "1", "assets": 0, "income": 0, "revenue": 0}, {"ein": "454593219", "name": "JUDAH TABERNACLE OF PRAISE", "city": "CAMBRIA HTS", "state": "NY", "zip": "11411-1210", "ntee": "X99", "ruling": "201409", "deductibility": "1", "assets": 0, "income": 0, "revenue": 0}, {"ein": "455452415", "name": "VICTORY HOUSE OF PRAISE INC", "city": "SCHENECTADY", "state": "NY", "zip": "12304-0020", "ntee": "X20", "ruling": "201309", "deductibility": "1", "assets": 0, "income": 0, "revenue": 0}, {"ein": "461221952", "name": "NEW YORK VICTORY & PRAISE CHURCH", "city": "MELVILLE", "state": "NY", "zip": "11747-1402", "ntee": "X20", "ruling": "201504", "deductibility": "1", "assets": 0, "income": 0, "revenue": 0}, {"ein": "463319601", "name": "GATE OF PRAISE GOSPEL OUTREACH MINISTRY", "city": "QUEENS VLG", "state": "NY", "zip": "11428-0029", "ntee": "X99", "ruling": "201411", "deductibility": "1", "assets": 0, "income": 0, "revenue": 0}, {"ein": "463324774", "name": "CHRISTIAN CATHEDRAL OF PRAISE CHURCH OF GOD INC", "city": "MAMARONECK", "state": "NY", "zip": "10543-4152", "ntee": "X20", "ruling": "202502", "deductibility": "1", "assets": 0, "income": 0, "revenue": 0}, {"ein": "463340280", "name": "PRAISE SANCTUARY MINISTRIES INTERNATIONAL APOSTOLIC INC", "city": "ROCHESTER", "state": "NY", "zip": "14608-1945", "ntee": "X20", "ruling": "201410", "deductibility": "1", "assets": 0, "income": 0, "revenue": 0}, {"ein": "463736812", "name": "FIRSTBORN CATHEDRAL OF PRAISE INC", "city": "W HEMPSTEAD", "state": "NY", "zip": "11552-4022", "ntee": "X20", "ruling": "201409", "deductibility": "1", "assets": 0, "income": 0, "revenue": 0}, {"ein": "464420183", "name": "PROPHETIC PRAISE MINISTRIES INTL INC", "city": "W HEMPSTEAD", "state": "NY", "zip": "11552-3634", "ntee": "", "ruling": "199112", "deductibility": "1", "assets": 0, "income": 0, "revenue": 0}, {"ein": "464577036", "name": "REDEMPTION PRAISE TEMPLE INC", "city": "SAINT ALBANS", "state": "NY", "zip": "11412-2417", "ntee": "", "ruling": "201601", "deductibility": "1", "assets": 0, "income": 0, "revenue": 0}, {"ein": "470926145", "name": "NEW HOPE FELLOWSHIP HOUSE OF PRAISE", "city": "WEBSTER", "state": "NY", "zip": "14580-4317", "ntee": "X21", "ruling": "200610", "deductibility": "1", "assets": 0, "income": 0, "revenue": 0}, {"ein": "471032918", "name": "HOUSE OF PRAYER AND PRAISE", "city": "BROOKLYN", "state": "NY", "zip": "11236-4425", "ntee": "X21", "ruling": "201703", "deductibility": "1", "assets": 0, "income": 0, "revenue": 0}, {"ein": "473649960", "name": "FELLOWSHIP OF PRAISE SEVENTH DAY ADVENTIST WORSHIP CENTER", "city": "WHITE PLAINS", "state": "NY", "zip": "10606-2004", "ntee": "X20", "ruling": "201609", "deductibility": "1", "assets": 0, "income": 0, "revenue": 0}, {"ein": "474289592", "name": "HOUSE OF PRAISE MINISTRY", "city": "KINGSTON", "state": "NY", "zip": "12401-5009", "ntee": "X20", "ruling": "201511", "deductibility": "1", "assets": 0, "income": 0, "revenue": 0}, {"ein": "475399747", "name": "HARMONY OF PRAISE CHRISTIAN MINISTRIES", "city": "NEW ROCHELLE", "state": "NY", "zip": "10801-5711", "ntee": "P20", "ruling": "201705", "deductibility": "1", "assets": 0, "income": 0, "revenue": 0}, {"ein": "550787848", "name": "EL BETHEL PRAYER PRAISE AND WORSHIP TABERNACLE", "city": "BROOKLYN", "state": "NY", "zip": "11207-1609", "ntee": "X21", "ruling": "200304", "deductibility": "1", "assets": 0, "income": 0, "revenue": 0}, {"ein": "550896458", "name": "THE REDEEMED CHRISTIAN CHURCH OF GOD PRAISE COURT PARISH", "city": "LAWRENCE", "state": "NY", "zip": "11559-0479", "ntee": "X20", "ruling": "200811", "deductibility": "1", "assets": 0, "income": 0, "revenue": 0}, {"ein": "593787816", "name": "PRAISE BLESSING DELIVERANCE AND THANKSGIVING MINISTRY", "city": "BROOKLYN", "state": "NY", "zip": "11212-4406", "ntee": "X20", "ruling": "200504", "deductibility": "1", "assets": 0, "income": 0, "revenue": 0}, {"ein": "611449559", "name": "ANOINTED PRAISE & WORSHIP CENTER", "city": "JAMAICA", "state": "NY", "zip": "11433-1810", "ntee": "X20", "ruling": "200412", "deductibility": "1", "assets": 0, "income": 0, "revenue": 0}, {"ein": "611623145", "name": "INNER COURT SANCTUARY PRAISE PALACE", "city": "BRONX", "state": "NY", "zip": "10469-6028", "ntee": "X21", "ruling": "201307", "deductibility": "1", "assets": 0, "income": 0, "revenue": 0}, {"ein": "640963364", "name": "PRAISE D LORD DAYCARE INC", "city": "BROOKLYN", "state": "NY", "zip": "11203-2570", "ntee": "B21", "ruling": "200807", "deductibility": "1", "assets": 0, "income": 0, "revenue": 0}, {"ein": "753056882", "name": "BROOKLYN CATHEDRAL OF PRAISE CHUCH OF GOD INC", "city": "BROOKLYN", "state": "NY", "zip": "11226-6114", "ntee": "X20", "ruling": "201905", "deductibility": "1", "assets": 0, "income": 0, "revenue": 0}, {"ein": "800457523", "name": "TRINITY UPPER ROOM TABERNACLE OF PRAISE", "city": "BROOKLYN", "state": "NY", "zip": "11207-4813", "ntee": "", "ruling": "195902", "deductibility": "1", "assets": 0, "income": 0, "revenue": 0}, {"ein": "800531774", "name": "SALVATION PRAYER & PRAISE MINISTRY", "city": "BRONX", "state": "NY", "zip": "10467-4704", "ntee": "X21", "ruling": "201408", "deductibility": "1", "assets": 0, "income": 0, "revenue": 0}, {"ein": "810592118", "name": "NEW LIFE CHRISTIAN WORSHIP AND PRAISE CENTER MINISTRIES INC", "city": "ROCHESTER", "state": "NY", "zip": "14623-3651", "ntee": "X20", "ruling": "200308", "deductibility": "1", "assets": 0, "income": 0, "revenue": 0}, {"ein": "813345844", "name": "ABG LIBERTY UNITED GRACE HOUSE OF PRAISE INC", "city": "JAMAICA", "state": "NY", "zip": "11434-5854", "ntee": "X20", "ruling": "201710", "deductibility": "1", "assets": 0, "income": 0, "revenue": 0}, {"ein": "814303209", "name": "PRAISE FELLOWSHIP MINISTRIES", "city": "BUFFALO", "state": "NY", "zip": "14204-1932", "ntee": "X21", "ruling": "201711", "deductibility": "1", "assets": 0, "income": 0, "revenue": 0}, {"ein": "814924922", "name": "HOPE IN JESUS CHRIST TABERNACLE OF PRAISE", "city": "BRONX", "state": "NY", "zip": "10469-3805", "ntee": "X21", "ruling": "202006", "deductibility": "1", "assets": 0, "income": 0, "revenue": 0}, {"ein": "821630785", "name": "UNITED IN PRAISE AND WORSHIP INC", "city": "STATEN ISLAND", "state": "NY", "zip": "10314-5944", "ntee": "X20", "ruling": "202309", "deductibility": "1", "assets": 0, "income": 0, "revenue": 0}, {"ein": "822065000", "name": "PRAISE HIMGLOBALACADEMYCORP", "city": "JAMAICA", "state": "NY", "zip": "11433-1927", "ntee": "B90", "ruling": "201802", "deductibility": "1", "assets": 0, "income": 0, "revenue": 0}, {"ein": "831936925", "name": "PRAISE WORSHIP & PRAYER MINISTRIES INC", "city": "LINDENHURST", "state": "NY", "zip": "11757-1320", "ntee": "X20", "ruling": "202110", "deductibility": "1", "assets": 0, "income": 0, "revenue": 0}, {"ein": "832608209", "name": "APOSTOLIC CHURCH OF GOD 7TH DAY TEMPLE OF PRAISE NEW YORK", "city": "UNIONDALE", "state": "NY", "zip": "11553-3427", "ntee": "X20", "ruling": "201908", "deductibility": "1", "assets": 0, "income": 0, "revenue": 0}, {"ein": "832674831", "name": "LIGHT OF THE WORLD TABERNACLE OF PRAISE INC", "city": "ALBANY", "state": "NY", "zip": "12202-2012", "ntee": "X20", "ruling": "201908", "deductibility": "1", "assets": 0, "income": 0, "revenue": 0}, {"ein": "833418281", "name": "SANCTUARY OF PRAISE TO ELOHIM", "city": "BROOKLYN", "state": "NY", "zip": "11230-7465", "ntee": "X20", "ruling": "202105", "deductibility": "1", "assets": 0, "income": 0, "revenue": 0}, {"ein": "841650246", "name": "POWER PRAISE AND DELIVERANCE INC", "city": "BRONX", "state": "NY", "zip": "10453-5212", "ntee": "X21", "ruling": "200704", "deductibility": "1", "assets": 0, "income": 0, "revenue": 0}, {"ein": "842105076", "name": "FELLOWSHIP PRAISE MINISTRY INC", "city": "JAMAICA", "state": "NY", "zip": "11433-0000", "ntee": "P12", "ruling": "201907", "deductibility": "1", "assets": 0, "income": 0, "revenue": 0}, {"ein": "861125206", "name": "SAINT PAUL PENTECOSTAL JOY PRAISE TABERNACLE MINISTRY", "city": "BROOKLYN", "state": "NY", "zip": "11233-2001", "ntee": "X20", "ruling": "201005", "deductibility": "1", "assets": 0, "income": 0, "revenue": 0}, {"ein": "862245844", "name": "SOLID ROCK SANCTUARY OF PRAISE INTERNATIONAL", "city": "BRONX", "state": "NY", "zip": "10466-2483", "ntee": "X20", "ruling": "202203", "deductibility": "1", "assets": 0, "income": 0, "revenue": 0}, {"ein": "863796118", "name": "FAITH HOUSE OF PRAISE EVANGELISM AND WORSHIP MINISTRIES INC", "city": "BROOKLYN", "state": "NY", "zip": "11210-4953", "ntee": "S20", "ruling": "202301", "deductibility": "1", "assets": 0, "income": 0, "revenue": 0}, {"ein": "871774103", "name": "TRUE LIFE HOUSE OF PRAISE INTERNATIONAL MINISTRY", "city": "BROOKLYN", "state": "NY", "zip": "11236-3916", "ntee": "X21", "ruling": "202404", "deductibility": "1", "assets": 0, "income": 0, "revenue": 0}, {"ein": "900602072", "name": "TEMPLE OF PRAISE CHURCH OF GOD INC", "city": "NEWBURGH", "state": "NY", "zip": "12551-0364", "ntee": "X21", "ruling": "201105", "deductibility": "1", "assets": 0, "income": 0, "revenue": 0}, {"ein": "900669043", "name": "POWERFUL PRAISE TABERNACLE", "city": "BROOKLYN", "state": "NY", "zip": "11233-4335", "ntee": "X21", "ruling": "201304", "deductibility": "1", "assets": 0, "income": 0, "revenue": 0}, {"ein": "920192649", "name": "GLOBAL PRAISE AND DELIVERANCE MINISTRIES INC", "city": "BROOKLYN", "state": "NY", "zip": "11238-4504", "ntee": "X20", "ruling": "200902", "deductibility": "1", "assets": 0, "income": 0, "revenue": 0}, {"ein": "920825722", "name": "EFFECTUAL HOUSE OF PRAISE INTERNATIONAL MINISTRIES INC", "city": "BRONX", "state": "NY", "zip": "10467-5710", "ntee": "X20", "ruling": "202301", "deductibility": "1", "assets": 0, "income": 0, "revenue": 0}, {"ein": "932551547", "name": "SHILOH HOUSE OF WORSHIP AND PRAISE", "city": "WHITE PLAINS", "state": "NY", "zip": "10603-3031", "ntee": "X20", "ruling": "202406", "deductibility": "1", "assets": 0, "income": 0, "revenue": 0}, {"ein": "932906575", "name": "PRAISE AND BREAKTHROUGH INC", "city": "BRONX", "state": "NY", "zip": "10466-3344", "ntee": "X20", "ruling": "202505", "deductibility": "1", "assets": 0, "income": 0, "revenue": 0}], "PLAYERS": [{"ein": "020768957", "name": "SYBARITE CHAMBER PLAYERS LTD", "city": "BRONX", "state": "NY", "zip": "10463-3641", "ntee": "X20", "ruling": "200610", "deductibility": "1", "assets": 14463, "income": 135979, "revenue": 135979}, {"ein": "043622083", "name": "WITS END PLAYERS INC", "city": "JAMESVILLE", "state": "NY", "zip": "13078-9716", "ntee": "A65", "ruling": "200210", "deductibility": "1", "assets": 0, "income": 0, "revenue": 0}, {"ein": "050545360", "name": "SEBASTIAN CHAMBER PLAYERS", "city": "NEW YORK", "state": "NY", "zip": "10026-1216", "ntee": "A68", "ruling": "200411", "deductibility": "1", "assets": 45070, "income": 209437, "revenue": 209437}, {"ein": "050595122", "name": "WOMENS NATIONAL BASKETBALL PLAYERS ASSOCIATION FOUNDATION", "city": "NEW YORK", "state": "NY", "zip": "10036-6710", "ntee": "T20", "ruling": "201611", "deductibility": "1", "assets": 78427, "income": 21775, "revenue": 0}, {"ein": "112346771", "name": "SEA CLIFF CHAMBER PLAYERS INC", "city": "WOODBURY", "state": "NY", "zip": "11797-2008", "ntee": "A68", "ruling": "201311", "deductibility": "1", "assets": 55664, "income": 153358, "revenue": 153358}, {"ein": "112632890", "name": "NEW EMPIRE PLAYERS CORP", "city": "EAGLE BAY", "state": "NY", "zip": "13331-0071", "ntee": "A650", "ruling": "198306", "deductibility": "1", "assets": 0, "income": 0, "revenue": 0}, {"ein": "112938457", "name": "PLAZA PLAYERS LTD", "city": "EAST ROCKAWAY", "state": "NY", "zip": "11518-0325", "ntee": "Z99", "ruling": "198903", "deductibility": "1", "assets": 0, "income": 0, "revenue": 0}, {"ein": "113048109", "name": "EAST END SPECIAL PLAYERS INC", "city": "WATER MILL", "state": "NY", "zip": "11976-2632", "ntee": "N99Z", "ruling": "199503", "deductibility": "1", "assets": 133126, "income": 116138, "revenue": 116138}, {"ein": "113301640", "name": "LOCRIAN CHAMBER PLAYERS INC", "city": "OSSINING", "state": "NY", "zip": "10562-1998", "ntee": "A99", "ruling": "201406", "deductibility": "1", "assets": 0, "income": 0, "revenue": 0}, {"ein": "116035649", "name": "HEIGHTS PLAYERS INC", "city": "BROOKLYN", "state": "NY", "zip": "11201-4513", "ntee": "A650", "ruling": "196010", "deductibility": "1", "assets": 269631, "income": 196900, "revenue": 187855}, {"ein": "131972960", "name": "THE PAPER BAG PLAYERS INC", "city": "NEW YORK", "state": "NY", "zip": "10036-6700", "ntee": "A650", "ruling": "196207", "deductibility": "1", "assets": 37528, "income": 336631, "revenue": 336631}, {"ein": "132576732", "name": "MAJOR LEAGUE BASEBALL PLAYERS ASSN", "city": "NEW YORK", "state": "NY", "zip": "10019-6026", "ntee": "", "ruling": "196106", "deductibility": "2", "assets": 205795529, "income": 182321602, "revenue": 182321602}, {"ein": "132862043", "name": "NEW YORK GILBERT & SULLIVAN PLAYERS INC", "city": "NEW YORK", "state": "NY", "zip": "10025-5014", "ntee": "A650", "ruling": "197711", "deductibility": "1", "assets": 849120, "income": 1395319, "revenue": 1395319}, {"ein": "132906921", "name": "ANTRIM PLAYERS INC", "city": "TAPPAN", "state": "NY", "zip": "10983-2432", "ntee": "", "ruling": "197711", "deductibility": "1", "assets": 617157, "income": 33152, "revenue": 33152}, {"ein": "132961164", "name": "MOZARTEAN PLAYERS INC", "city": "BRONX", "state": "NY", "zip": "10471-2612", "ntee": "A20", "ruling": "201410", "deductibility": "1", "assets": 0, "income": 0, "revenue": 0}, {"ein": "132967644", "name": "CLOCKTOWER PLAYERS INC", "city": "IRVINGTON", "state": "NY", "zip": "10533-0292", "ntee": "A650", "ruling": "197902", "deductibility": "1", "assets": 95007, "income": 141241, "revenue": 121758}, {"ein": "133014697", "name": "PENGUIN PLAYERS LTD", "city": "STONY POINT", "state": "NY", "zip": "10980-0091", "ntee": "", "ruling": "198003", "deductibility": "1", "assets": 426421, "income": 738911, "revenue": 738911}, {"ein": "133014699", "name": "A COMPANY OF PLAYERS REPERTORY THEATRE INC", "city": "BROOKLYN", "state": "NY", "zip": "11223-2162", "ntee": "", "ruling": "198003", "deductibility": "1", "assets": 0, "income": 0, "revenue": 0}, {"ein": "133060068", "name": "HAND-TO-MOUTH PLAYERS INC", "city": "MONTROSE", "state": "NY", "zip": "10548-0163", "ntee": "A65", "ruling": "201610", "deductibility": "1", "assets": 0, "income": 0, "revenue": 0}, {"ein": "133077470", "name": "PROFESSIONAL FOOTBALL PLAYERS INSURANCE TRUST", "city": "NEW YORK", "state": "NY", "zip": "10154-0023", "ntee": "", "ruling": "197406", "deductibility": "2", "assets": 63635675, "income": 124946571, "revenue": 124946571}, {"ein": "133307719", "name": "NBA PLAYERS LEGACY FUND INC", "city": "NEW YORK", "state": "NY", "zip": "10022-5910", "ntee": "N120", "ruling": "198604", "deductibility": "1", "assets": 1175340, "income": 1084650, "revenue": 1084650}, {"ein": "133316951", "name": "THE MORNINGSIDE PLAYERS INC", "city": "NEW YORK", "state": "NY", "zip": "10027-0001", "ntee": "", "ruling": "198606", "deductibility": "1", "assets": 14351, "income": 36813, "revenue": 36813}, {"ein": "133598703", "name": "AVIVA PLAYERS COMPANY INC", "city": "NEW YORK", "state": "NY", "zip": "10011-8859", "ntee": "A99", "ruling": "201406", "deductibility": "1", "assets": 7411, "income": 0, "revenue": 0}, {"ein": "133603632", "name": "FOUR SEAS PLAYERS INC", "city": "NEW YORK", "state": "NY", "zip": "10013-0880", "ntee": "", "ruling": "199112", "deductibility": "1", "assets": 0, "income": 0, "revenue": 0}, {"ein": "133843389", "name": "MAJOR LEAGUE BASEBALL PLAYERS TR", "city": "NEW YORK", "state": "NY", "zip": "10017-8207", "ntee": "N60", "ruling": "199604", "deductibility": "1", "assets": 5292548, "income": 2114079, "revenue": 1850429}, {"ein": "133894132", "name": "NATIONAL BASKETBALL PLAYERS ASSOC FOUNDATION", "city": "NEW YORK", "state": "NY", "zip": "10036-0000", "ntee": "P60", "ruling": "199707", "deductibility": "1", "assets": 42706431, "income": 17451654, "revenue": 11017161}, {"ein": "134061242", "name": "LIGHTHOUSE CHAMBER PLAYERS INC", "city": "NEW YORK", "state": "NY", "zip": "10040-3723", "ntee": "A6C", "ruling": "199910", "deductibility": "1", "assets": 0, "income": 0, "revenue": 0}, {"ein": "134075948", "name": "WOMENS NATIONAL BASKETBALL PLAYERS ASSOCIATION", "city": "NEW YORK", "state": "NY", "zip": "10036-6710", "ntee": "J40", "ruling": "199911", "deductibility": "2", "assets": 5365655, "income": 2119321, "revenue": 2119321}, {"ein": "134087832", "name": "NEW YORK CITY PLAYERS INCORPORATED", "city": "BROOKLYN", "state": "NY", "zip": "11217-1695", "ntee": "A65", "ruling": "200005", "deductibility": "1", "assets": 115982, "income": 296648, "revenue": 296648}, {"ein": "135319650", "name": "THE PLAYERS", "city": "NEW YORK", "state": "NY", "zip": "10003-1705", "ntee": "", "ruling": "193412", "deductibility": "2", "assets": 1704090, "income": 4882349, "revenue": 4464633}, {"ein": "136163573", "name": "HARRISON PLAYERS INC", "city": "HARRISON", "state": "NY", "zip": "10528-0493", "ntee": "", "ruling": "196408", "deductibility": "1", "assets": 0, "income": 0, "revenue": 0}, {"ein": "141376003", "name": "SCHENECTADY CIVIC PLAYERS INC", "city": "SCHENECTADY", "state": "NY", "zip": "12305-1734", "ntee": "A65Z", "ruling": "197006", "deductibility": "1", "assets": 1111073, "income": 185228, "revenue": 185228}, {"ein": "141743571", "name": "COMMUNITY THEATRE PLAYERS INC", "city": "RAY BROOK", "state": "NY", "zip": "12977-0069", "ntee": "A65", "ruling": "199603", "deductibility": "1", "assets": 0, "income": 0, "revenue": 0}, {"ein": "141752907", "name": "GREENE ROOM PLAYERS LTD", "city": "HUNTER", "state": "NY", "zip": "12442-0535", "ntee": "A65Z", "ruling": "199504", "deductibility": "1", "assets": 0, "income": 0, "revenue": 0}, {"ein": "146024895", "name": "COACH HOUSE PLAYERS INC", "city": "KINGSTON", "state": "NY", "zip": "12402-3481", "ntee": "A65", "ruling": "201407", "deductibility": "1", "assets": 0, "income": 0, "revenue": 0}, {"ein": "146030877", "name": "COUNTY PLAYERS INC", "city": "WAPPINGERS FL", "state": "NY", "zip": "12590-1945", "ntee": "A650", "ruling": "196411", "deductibility": "1", "assets": 1294542, "income": 254877, "revenue": 254877}, {"ein": "146050789", "name": "GALWAY PLAYERS", "city": "GALWAY", "state": "NY", "zip": "12074-0092", "ntee": "", "ruling": "196908", "deductibility": "1", "assets": 15014, "income": 16734, "revenue": 16734}, {"ein": "160763527", "name": "ROCHESTER COMMUNITY PLAYERS INC", "city": "FAIRPORT", "state": "NY", "zip": "14450-4120", "ntee": "A650", "ruling": "195804", "deductibility": "1", "assets": 0, "income": 0, "revenue": 0}, {"ein": "161063504", "name": "AUBURN PLAYERS COMMUNITY THEATRE INC", "city": "AUBURN", "state": "NY", "zip": "13021-0543", "ntee": "A650", "ruling": "199003", "deductibility": "1", "assets": 0, "income": 0, "revenue": 0}, {"ein": "161185416", "name": "GENESEO COMMUNITY PLAYERS INC", "city": "GENESEO", "state": "NY", "zip": "14454-0344", "ntee": "", "ruling": "198408", "deductibility": "1", "assets": 0, "income": 0, "revenue": 0}, {"ein": "161280853", "name": "KEUKA LAKE PLAYERS INC", "city": "HAMMONDSPORT", "state": "NY", "zip": "14840-0631", "ntee": "A65Z", "ruling": "198907", "deductibility": "1", "assets": 0, "income": 0, "revenue": 0}, {"ein": "161299921", "name": "THE LAKE COUNTRY PLAYERS INC", "city": "MONTOUR FALLS", "state": "NY", "zip": "14865-0910", "ntee": "A65", "ruling": "201912", "deductibility": "1", "assets": 0, "income": 0, "revenue": 0}, {"ein": "161307464", "name": "OSWEGO PLAYERS", "city": "OSWEGO", "state": "NY", "zip": "13126-0183", "ntee": "", "ruling": "199107", "deductibility": "1", "assets": 0, "income": 0, "revenue": 0}, {"ein": "161392534", "name": "OUT OF THE WOODWORK PLAYERS INC", "city": "BAINBRIDGE", "state": "NY", "zip": "13733-1210", "ntee": "A65", "ruling": "201905", "deductibility": "1", "assets": 0, "income": 0, "revenue": 0}, {"ein": "161480164", "name": "FRANCISCAN MYSTERY PLAYERS INC", "city": "LIVERPOOL", "state": "NY", "zip": "13088-6216", "ntee": "A650", "ruling": "199908", "deductibility": "1", "assets": 0, "income": 0, "revenue": 0}, {"ein": "161481960", "name": "LIVONIA COMMUNITY PLAYERS", "city": "LIVONIA", "state": "NY", "zip": "14487-0240", "ntee": "A65", "ruling": "199609", "deductibility": "1", "assets": 0, "income": 0, "revenue": 0}, {"ein": "166031626", "name": "BATAVIA PLAYERS INC", "city": "BATAVIA", "state": "NY", "zip": "14021-0256", "ntee": "", "ruling": "195508", "deductibility": "1", "assets": 1285007, "income": 627109, "revenue": 626142}, {"ein": "166052466", "name": "AURORA PLAYERS INC HAMLIN PARK", "city": "EAST AURORA", "state": "NY", "zip": "14052-0206", "ntee": "", "ruling": "195207", "deductibility": "1", "assets": 482405, "income": 387278, "revenue": 115840}, {"ein": "166054334", "name": "PLAYERS OF UTICA INC", "city": "NEW HARTFORD", "state": "NY", "zip": "13413-0029", "ntee": "A65", "ruling": "198105", "deductibility": "1", "assets": 1075719, "income": 64227, "revenue": 64227}, {"ein": "166177307", "name": "GRASSE RIVER COMMUNITY PLAYERS INC", "city": "CANTON", "state": "NY", "zip": "13617-4401", "ntee": "", "ruling": "197506", "deductibility": "1", "assets": 0, "income": 0, "revenue": 0}, {"ein": "201869647", "name": "WAY-OFF BROADWAY PLAYERS INC", "city": "LACKAWANNA", "state": "NY", "zip": "14218-3639", "ntee": "A65", "ruling": "200501", "deductibility": "1", "assets": 3049, "income": 4620, "revenue": 4620}, {"ein": "222143008", "name": "THE PIED PIPER PLAYERS WHITE POND ARTS & CULTURAL ASSOCIATION LTD", "city": "STORMVILLE", "state": "NY", "zip": "12582-5725", "ntee": "A61", "ruling": "202503", "deductibility": "1", "assets": 126176, "income": 26833, "revenue": 26285}, {"ein": "222364159", "name": "TI-AHWAGA COMMUNITY PLAYERS INC", "city": "OWEGO", "state": "NY", "zip": "13827-1010", "ntee": "A650", "ruling": "198109", "deductibility": "1", "assets": 332963, "income": 145532, "revenue": 136193}, {"ein": "222443001", "name": "HILLTOWNS PLAYERS INC", "city": "BERNE", "state": "NY", "zip": "12023-0208", "ntee": "A65", "ruling": "201704", "deductibility": "1", "assets": 0, "income": 0, "revenue": 0}, {"ein": "222543118", "name": "FOUR SEASONS PLAYERS INC", "city": "LOCKPORT", "state": "NY", "zip": "14094-1228", "ntee": "A65", "ruling": "200110", "deductibility": "1", "assets": 0, "income": 0, "revenue": 0}, {"ein": "222861211", "name": "OFF-MONROE PLAYERS INC", "city": "ROCHESTER", "state": "NY", "zip": "14618-0722", "ntee": "", "ruling": "198902", "deductibility": "1", "assets": 0, "income": 0, "revenue": 0}, {"ein": "222883074", "name": "SARATOGA CHAMBER PLAYERS INC", "city": "SARATOGA SPGS", "state": "NY", "zip": "12866-0060", "ntee": "", "ruling": "198804", "deductibility": "1", "assets": 56828, "income": 56755, "revenue": 56755}, {"ein": "222930358", "name": "SAND LAKE CENTER FOR THE ARTS CIRCLE THEATRE PLAYERS INC", "city": "AVERILL PARK", "state": "NY", "zip": "12018-0000", "ntee": "", "ruling": "199308", "deductibility": "1", "assets": 425937, "income": 237683, "revenue": 229305}, {"ein": "223177643", "name": "TOWNE PLAYERS OF KENMORE TONAWANDA", "city": "TONAWANDA", "state": "NY", "zip": "14151-0112", "ntee": "", "ruling": "199209", "deductibility": "1", "assets": 0, "income": 0, "revenue": 0}, {"ein": "223240241", "name": "MONROE WOODBURY MUDDY WATER PLAYERS FOUNDATION INC", "city": "MONROE", "state": "NY", "zip": "10949-0410", "ntee": "", "ruling": "199403", "deductibility": "1", "assets": 0, "income": 0, "revenue": 0}, {"ein": "237038813", "name": "NATIONAL BASKETBALL PLAYERS ASSOCIATION", "city": "NEW YORK", "state": "NY", "zip": "10036-0000", "ntee": "", "ruling": "197011", "deductibility": "2", "assets": 370225069, "income": 843405677, "revenue": 311286181}, {"ein": "237092617", "name": "ACMP - ASSOCIATED CHAMBER MUSIC PLAYERS INC", "city": "NEW YORK", "state": "NY", "zip": "10010-8046", "ntee": "", "ruling": "197101", "deductibility": "1", "assets": 100138, "income": 161111, "revenue": 161111}, {"ein": "237174065", "name": "YORKTOWN COMMUNITY PLAYERS", "city": "SHRUB OAK", "state": "NY", "zip": "10588-0085", "ntee": "", "ruling": "197205", "deductibility": "1", "assets": 0, "income": 0, "revenue": 0}, {"ein": "237185843", "name": "DACAPO CHAMBER PLAYERS INC", "city": "NEW YORK", "state": "NY", "zip": "10024-1223", "ntee": "", "ruling": "197208", "deductibility": "1", "assets": 71945, "income": 121532, "revenue": 121532}, {"ein": "237286736", "name": "GALLERY PLAYERS INC", "city": "BROOKLYN", "state": "NY", "zip": "11215-8035", "ntee": "", "ruling": "198101", "deductibility": "1", "assets": 279349, "income": 206825, "revenue": 206825}, {"ein": "237434088", "name": "NATIONAL FOOTBALL LEAGUE NON-PLAYERS INSURANCE TRUST", "city": "NEW YORK", "state": "NY", "zip": "10154-0004", "ntee": "", "ruling": "197409", "deductibility": "2", "assets": 4592497, "income": 2121967, "revenue": 2121967}, {"ein": "237443051", "name": "AEOLIAN CHAMBER PLAYERS INC", "city": "NEW YORK", "state": "NY", "zip": "10024-1615", "ntee": "A68Z", "ruling": "197504", "deductibility": "1", "assets": 700126, "income": 125560, "revenue": 125560}, {"ein": "262200571", "name": "RHAPSODY PLAYERS", "city": "BROOKLYN", "state": "NY", "zip": "11209-7618", "ntee": "A68", "ruling": "200903", "deductibility": "1", "assets": 0, "income": 0, "revenue": 0}, {"ein": "262772109", "name": "PLAYERS FOUNDATION FOR THEATRE EDUCATION", "city": "NEW YORK", "state": "NY", "zip": "10003-1705", "ntee": "A65", "ruling": "200808", "deductibility": "1", "assets": 765815, "income": 271557, "revenue": 267168}, {"ein": "264360797", "name": "BUFFALO CHAMBER PLAYERS INC", "city": "BUFFALO", "state": "NY", "zip": "14202-1871", "ntee": "A68", "ruling": "201103", "deductibility": "1", "assets": 69634, "income": 98910, "revenue": 98910}, {"ein": "270783873", "name": "NOT SO COMMON PLAYERS INC", "city": "CLIFTON PARK", "state": "NY", "zip": "12065-0296", "ntee": "A65", "ruling": "200912", "deductibility": "1", "assets": 52942, "income": 88712, "revenue": 88712}, {"ein": "272235189", "name": "NEW YORK CLASSICAL PLAYERS INC", "city": "NEW YORK", "state": "NY", "zip": "10036-4762", "ntee": "A69", "ruling": "201402", "deductibility": "1", "assets": 24281, "income": 182729, "revenue": 182729}, {"ein": "372029441", "name": "GHOSTLIGHT PLAYERS INC", "city": "STATEN ISLAND", "state": "NY", "zip": "10310-1629", "ntee": "A65", "ruling": "202311", "deductibility": "1", "assets": 20760, "income": 48843, "revenue": 48843}, {"ein": "412063165", "name": "LONG ISLAND CHAMBER PLAYERS INC", "city": "E NORTHPORT", "state": "NY", "zip": "11731-2612", "ntee": "A68", "ruling": "200212", "deductibility": "1", "assets": 0, "income": 0, "revenue": 0}, {"ein": "452160781", "name": "THE HARLEM CHAMBER PLAYERS INC", "city": "NEW YORK", "state": "NY", "zip": "10026-2109", "ntee": "A68", "ruling": "201112", "deductibility": "1", "assets": 444925, "income": 534579, "revenue": 534579}, {"ein": "461327060", "name": "FRIENDS OF QUIRKS PLAYERS", "city": "FULTON", "state": "NY", "zip": "13069-2731", "ntee": "A65", "ruling": "201505", "deductibility": "1", "assets": 0, "income": 0, "revenue": 0}, {"ein": "463924643", "name": "PLAYERS 16 GRAMERCY PARK SOUTH PRESERVATION FUND INC", "city": "NEW YORK", "state": "NY", "zip": "10003-1705", "ntee": "A82", "ruling": "201406", "deductibility": "1", "assets": 0, "income": 0, "revenue": 0}, {"ein": "464888945", "name": "ENCORE PLAYERS COMMUNITY THEATRE", "city": "TRUMANSBURG", "state": "NY", "zip": "14886-9570", "ntee": "A65", "ruling": "201505", "deductibility": "1", "assets": 0, "income": 0, "revenue": 0}, {"ein": "464911203", "name": "HOMECOMING PLAYERS", "city": "ITHACA", "state": "NY", "zip": "14850-1459", "ntee": "A65", "ruling": "201510", "deductibility": "1", "assets": 0, "income": 0, "revenue": 0}, {"ein": "472530931", "name": "BACKYARD PLAYERS & FRIENDS INC", "city": "ROCKVILLE CTR", "state": "NY", "zip": "11570-3146", "ntee": "P20", "ruling": "201503", "deductibility": "1", "assets": 308421, "income": 491435, "revenue": 491435}, {"ein": "510672180", "name": "NEW YORK CHAMBER PLAYERS", "city": "NEW YORK", "state": "NY", "zip": "10013-2712", "ntee": "A69", "ruling": "200808", "deductibility": "1", "assets": 0, "income": 0, "revenue": 0}, {"ein": "611905305", "name": "KYMARS DEMITASSE PLAYERS", "city": "PORT CHESTER", "state": "NY", "zip": "10573-0000", "ntee": "A65", "ruling": "201903", "deductibility": "1", "assets": 509, "income": 3775, "revenue": 3775}, {"ein": "800595013", "name": "LAKE PLAINS PLAYERS", "city": "LOCKPORT", "state": "NY", "zip": "14094-5001", "ntee": "A60", "ruling": "201609", "deductibility": "1", "assets": 0, "income": 0, "revenue": 0}, {"ein": "800834516", "name": "PRO PLAYERS ENTERPRISES INC", "city": "NEW YORK", "state": "NY", "zip": "10035-2235", "ntee": "A99", "ruling": "201405", "deductibility": "1", "assets": 0, "income": 0, "revenue": 0}, {"ein": "813445310", "name": "FRONT ROW PLAYERS", "city": "MANLIUS", "state": "NY", "zip": "13104-2444", "ntee": "A65", "ruling": "201612", "deductibility": "1", "assets": 19152, "income": 85434, "revenue": 81484}, {"ein": "813772510", "name": "EPIC PLAYERS INC", "city": "BROOKLYN", "state": "NY", "zip": "11217-1694", "ntee": "A65", "ruling": "201709", "deductibility": "1", "assets": 626468, "income": 1111322, "revenue": 1098891}, {"ein": "814516164", "name": "SEMPLICE PLAYERS LTD", "city": "NEW YORK", "state": "NY", "zip": "10023-2350", "ntee": "A60", "ruling": "201612", "deductibility": "1", "assets": 0, "income": 0, "revenue": 0}, {"ein": "821947233", "name": "EASTLINE PLAYERS CORP", "city": "BABYLON", "state": "NY", "zip": "11702-0495", "ntee": "A65", "ruling": "201809", "deductibility": "1", "assets": 27554, "income": 72898, "revenue": 72898}, {"ein": "832522550", "name": "13 PLAYERS INC", "city": "LEWISTON", "state": "NY", "zip": "14092-1641", "ntee": "A65", "ruling": "202005", "deductibility": "1", "assets": 0, "income": 0, "revenue": 0}, {"ein": "832898947", "name": "REAL HARLEM BASKETBALL PLAYERS INC", "city": "NEW YORK", "state": "NY", "zip": "10039-4303", "ntee": "N99", "ruling": "202105", "deductibility": "1", "assets": 0, "income": 0, "revenue": 0}, {"ein": "844149675", "name": "SOUTH JERSEY PLAYERS INC", "city": "NEW YORK", "state": "NY", "zip": "10033-1131", "ntee": "A65", "ruling": "202002", "deductibility": "1", "assets": 3763, "income": 31221, "revenue": 0}, {"ein": "862855481", "name": "BASKETBALL PLAYERS UNION", "city": "NEW YORK", "state": "NY", "zip": "10036-6751", "ntee": "J40", "ruling": "202203", "deductibility": "2", "assets": 174660, "income": 119768, "revenue": 119768}, {"ein": "872170903", "name": "PARISH PLAYERS INC", "city": "GRAND ISLAND", "state": "NY", "zip": "14072-3516", "ntee": "A65", "ruling": "202203", "deductibility": "1", "assets": 0, "income": 0, "revenue": 0}, {"ein": "881541194", "name": "NATIONAL LACROSSE LEAGUE PLAYERS ASSOCIATION INC", "city": "WILLIAMSVILLE", "state": "NY", "zip": "14221-6060", "ntee": "J40", "ruling": "202309", "deductibility": "2", "assets": 618124, "income": 323934, "revenue": 323934}, {"ein": "921215290", "name": "NEW PLACE PLAYERS NEW YORK INC", "city": "NEW YORK", "state": "NY", "zip": "10025-0000", "ntee": "A65", "ruling": "202308", "deductibility": "1", "assets": 0, "income": 0, "revenue": 0}, {"ein": "923748539", "name": "MIDDLE VILLAGE PLAYERS ROLLER HOCKEY LEAGUE", "city": "MIDDLE VLG", "state": "NY", "zip": "11379-2331", "ntee": "N60", "ruling": "202401", "deductibility": "1", "assets": 1700, "income": 30130, "revenue": 30130}, {"ein": "934748302", "name": "PENFIELD PLAYERS ASSOCIATION INC", "city": "PENFIELD", "state": "NY", "zip": "14526-0021", "ntee": "A20", "ruling": "202401", "deductibility": "1", "assets": 0, "income": 0, "revenue": 0}, {"ein": "994405389", "name": "COLUMBIA COUNTY PLAYERS THEATRE INC", "city": "CRARYVILLE", "state": "NY", "zip": "12521-5441", "ntee": "A65", "ruling": "202408", "deductibility": "1", "assets": 0, "income": 0, "revenue": 0}], "CLANN": [{"ein": "020806300", "name": "CLANN NA CARA PARENT ORGANIZATION INC", "city": "AKRON", "state": "NY", "zip": "14001-1108", "ntee": "A23", "ruling": "201301", "deductibility": "1", "assets": 32871, "income": 75178, "revenue": 75178}], "BARTHOLOMEW": [{"ein": "030565037", "name": "LEMMA BARTHOLOMEW CEMETERY RESTORATION PROJECT INC", "city": "WHITEHALL", "state": "NY", "zip": "12887-3605", "ntee": "Y50", "ruling": "200701", "deductibility": "1", "assets": 0, "income": 0, "revenue": 0}, {"ein": "113296823", "name": "MEL BARTHOLOMEW FOUNDATION LTD", "city": "HUNTINGTON", "state": "NY", "zip": "11743-2227", "ntee": "B99Z", "ruling": "199604", "deductibility": "1", "assets": 2395320, "income": 2417746, "revenue": 0}, {"ein": "133791769", "name": "ST BARTHOLOMEW COMMUNITY PRESCHOOL FOUNDATION", "city": "NEW YORK", "state": "NY", "zip": "10022-6814", "ntee": "B112", "ruling": "199412", "deductibility": "1", "assets": 0, "income": 0, "revenue": 0}, {"ein": "200130110", "name": "BARTHOLOMEW J LAWSON FOUNDATION FOR CHILDREN", "city": "SHELTER ISLAND HEIGHTS", "state": "NY", "zip": "11965-0000", "ntee": "T30", "ruling": "200404", "deductibility": "1", "assets": 212200, "income": 110633, "revenue": 110633}, {"ein": "320310934", "name": "BARTHOLOMEW JOSEPH RECAME SR FOUNDATION LTD", "city": "SAYVILLE", "state": "NY", "zip": "11782-3224", "ntee": "T30", "ruling": "201109", "deductibility": "1", "assets": 8517, "income": 16359, "revenue": 16359}, {"ein": "833599880", "name": "ECUMENICAL PATRIARCH BARTHOLOMEW FOUNDATION INC", "city": "NEW YORK", "state": "NY", "zip": "10075-0192", "ntee": "X99", "ruling": "202008", "deductibility": "1", "assets": 20074423, "income": 4459964, "revenue": 2169128}], "ALS": [{"ein": "030572944", "name": "NORM M PHILLIPS CHARITY FOR ALS", "city": "CANANDAIGUA", "state": "NY", "zip": "14424-8015", "ntee": "H11", "ruling": "201207", "deductibility": "1", "assets": 0, "income": 0, "revenue": 0}, {"ein": "113629891", "name": "FATHER ALS MISSION FOR CHILDREN IN SRI LANKA INC", "city": "COPIAGUE", "state": "NY", "zip": "11726-2122", "ntee": "P12", "ruling": "200211", "deductibility": "1", "assets": 0, "income": 0, "revenue": 0}, {"ein": "133616680", "name": "ALS UNITED GREATER NEW YORK INC", "city": "NEW YORK", "state": "NY", "zip": "10004-3873", "ntee": "", "ruling": "202403", "deductibility": "1", "assets": 6951115, "income": 6638521, "revenue": 4847061}, {"ein": "262704769", "name": "OUTREACH ALS OF WESTCHESTER INC", "city": "MOUNT KISCO", "state": "NY", "zip": "10549-0593", "ntee": "G125", "ruling": "200810", "deductibility": "1", "assets": 0, "income": 0, "revenue": 0}, {"ein": "273050953", "name": "ALS TEAM TOWN INC", "city": "SCHAGHTICOKE", "state": "NY", "zip": "12154-0235", "ntee": "H50", "ruling": "201410", "deductibility": "1", "assets": 0, "income": 0, "revenue": 0}, {"ein": "412096774", "name": "ALS OF UTICA", "city": "MARCY", "state": "NY", "zip": "13403-2065", "ntee": "P20", "ruling": "200306", "deductibility": "1", "assets": 321775, "income": 134210, "revenue": 29912}, {"ein": "463503521", "name": "ANTHONY SENERCHIA JR ALS CHARITABLE FOUNDATION INC", "city": "PELHAM", "state": "NY", "zip": "10803-1340", "ntee": "G99", "ruling": "201407", "deductibility": "1", "assets": 81609, "income": 713, "revenue": 0}, {"ein": "473654847", "name": "DAPPER MCDONALD ALS CHARITABLE TRUST", "city": "WHITE PLAINS", "state": "NY", "zip": "10603-2221", "ntee": "G80", "ruling": "201508", "deductibility": "1", "assets": 0, "income": 0, "revenue": 0}, {"ein": "562399744", "name": "HEARTS FOR ALS NY INC", "city": "ROCHESTER", "state": "NY", "zip": "14610-0593", "ntee": "G50", "ruling": "201202", "deductibility": "1", "assets": 14460, "income": 17183, "revenue": 13298}, {"ein": "810756743", "name": "TARGET ALS FOUNDATION INC", "city": "NEW YORK", "state": "NY", "zip": "10016-2817", "ntee": "B82", "ruling": "202006", "deductibility": "1", "assets": 128911762, "income": 83085539, "revenue": 0}, {"ein": "861339664", "name": "FIGHTIN ALS BENEFIT GOLF TOURNAMENT", "city": "BINGHAMTON", "state": "NY", "zip": "13903-2735", "ntee": "G80", "ruling": "202203", "deductibility": "1", "assets": 0, "income": 0, "revenue": 0}, {"ein": "873554914", "name": "WATCHDAWGS ALS FOUNDATION INC", "city": "STATEN ISLAND", "state": "NY", "zip": "10314-2222", "ntee": "G12", "ruling": "202202", "deductibility": "1", "assets": 0, "income": 0, "revenue": 0}, {"ein": "993983897", "name": "WEBSTER ROCKS ALS", "city": "WEBSTER", "state": "NY", "zip": "14580-9303", "ntee": "A12", "ruling": "202407", "deductibility": "1", "assets": 0, "income": 0, "revenue": 0}, {"ein": "994144747", "name": "EMPIRE STATE ALS ALLIANCE INC", "city": "NEW YORK", "state": "NY", "zip": "10032-3725", "ntee": "H80", "ruling": "202504", "deductibility": "1", "assets": 0, "income": 0, "revenue": 0}], "CASSIDY": [{"ein": "036071893", "name": "WILLIAM W CASSIDY & MILDRED C ARMSTRONG TUW", "city": "BUFFALO", "state": "NY", "zip": "14240-1504", "ntee": "T20", "ruling": "201908", "deductibility": "1", "assets": 1589535, "income": 252164, "revenue": 0}, {"ein": "260830166", "name": "CASSIDY FAMILY FOUNDATION INC", "city": "BAY SHORE", "state": "NY", "zip": "11706-8338", "ntee": "T20", "ruling": "202410", "deductibility": "1", "assets": 0, "income": 0, "revenue": 0}, {"ein": "611715303", "name": "KATE W CASSIDY FOUNDATION", "city": "PURCHASE", "state": "NY", "zip": "10577-0000", "ntee": "", "ruling": "201309", "deductibility": "1", "assets": 85082326, "income": 47988392, "revenue": 0}, {"ein": "844880366", "name": "CUDDLES FROM CASSIDY PEDIATRIC CANCER FOUNDATION CORPORATION", "city": "LARCHMONT", "state": "NY", "zip": "10538-1814", "ntee": "P58", "ruling": "202008", "deductibility": "1", "assets": 0, "income": 0, "revenue": 0}], "FISHERS": [{"ein": "060955180", "name": "FISHERS ISLAND FIRE DEPT", "city": "FISHERS ISLE", "state": "NY", "zip": "06390-0123", "ntee": "M24Z", "ruling": "197705", "deductibility": "1", "assets": 1454111, "income": 262701, "revenue": 262701}, {"ein": "112751434", "name": "FISHERS ISLAND CONSERVANCY INC", "city": "FISHERS ISLE", "state": "NY", "zip": "06390-0553", "ntee": "C013", "ruling": "198509", "deductibility": "1", "assets": 1464996, "income": 303760, "revenue": 273425}, {"ein": "113009426", "name": "IDLE HOUR FLY FISHERS INC", "city": "OAKDALE", "state": "NY", "zip": "11769-0582", "ntee": "", "ruling": "199105", "deductibility": "2", "assets": 0, "income": 0, "revenue": 0}, {"ein": "113588899", "name": "FISHERS ISLAND RECREATIONAL PATH FOUNDATION", "city": "FISHERS ISLE", "state": "NY", "zip": "06390-0619", "ntee": "N32", "ruling": "200202", "deductibility": "1", "assets": 2394383, "income": 120193, "revenue": 120193}, {"ein": "116003369", "name": "FISHERS ISLAND LIBRARY ASSOC", "city": "FISHERS ISLE", "state": "NY", "zip": "06390-0366", "ntee": "B70Z", "ruling": "195902", "deductibility": "1", "assets": 1634722, "income": 772821, "revenue": 436725}, {"ein": "161243814", "name": "FISHERS VOLUNTEER FIRE ASSOCIATION INC", "city": "FISHERS", "state": "NY", "zip": "14453-0397", "ntee": "M24", "ruling": "200512", "deductibility": "1", "assets": 327048, "income": 58475, "revenue": 58475}, {"ein": "161580809", "name": "FLY FISHERS INTERNATIONAL INC", "city": "BIG FLATS", "state": "NY", "zip": "14814-0004", "ntee": "", "ruling": "196909", "deductibility": "1", "assets": 0, "income": 0, "revenue": 0}, {"ein": "203941546", "name": "FISHERS ISLAND COMMUNITY CENTER INC", "city": "FISHERS ISLE", "state": "NY", "zip": "06390-0464", "ntee": "P28", "ruling": "200605", "deductibility": "1", "assets": 7051352, "income": 1013814, "revenue": 820266}, {"ein": "222384948", "name": "BLC FLY FISHERS INC", "city": "LIVINGSTN MNR", "state": "NY", "zip": "12758-6028", "ntee": "", "ruling": "198210", "deductibility": "2", "assets": 528340, "income": 373326, "revenue": 346642}, {"ein": "261084352", "name": "MAKING FISHERS OF MEN AND WOMEN INCORPORATED", "city": "BUFFALO", "state": "NY", "zip": "14213-2324", "ntee": "O99", "ruling": "200901", "deductibility": "1", "assets": 0, "income": 0, "revenue": 0}, {"ein": "262732176", "name": "FISHERS OF MEN NEW YORK MINISTRIES INC", "city": "SHIRLEY", "state": "NY", "zip": "11967-1759", "ntee": "P20", "ruling": "201009", "deductibility": "1", "assets": 0, "income": 0, "revenue": 0}, {"ein": "275496742", "name": "FLY FISHERS INTERNATIONAL INC", "city": "CUDDEBACKVLLE", "state": "NY", "zip": "12729-5012", "ntee": "N612", "ruling": "196909", "deductibility": "1", "assets": 0, "income": 0, "revenue": 0}, {"ein": "465504713", "name": "FLY FISHERS INTERNATIONAL INC", "city": "ENDICOTT", "state": "NY", "zip": "13760-3907", "ntee": "N612", "ruling": "196909", "deductibility": "1", "assets": 0, "income": 0, "revenue": 0}, {"ein": "471772437", "name": "FLY FISHERS INTERNATIONAL INC", "city": "CUDDEBACKVLLE", "state": "NY", "zip": "12729-5012", "ntee": "", "ruling": "196909", "deductibility": "1", "assets": 0, "income": 0, "revenue": 0}, {"ein": "510062187", "name": "FISHERS ISLAND YACHT CLUB INC", "city": "FISHERS ISLE", "state": "NY", "zip": "06390-0141", "ntee": "", "ruling": "194802", "deductibility": "2", "assets": 1234919, "income": 734203, "revenue": 663827}, {"ein": "821503127", "name": "FRIENDS OF FISHERS ISLAND THEATER", "city": "FISHERS ISLE", "state": "NY", "zip": "06390-0101", "ntee": "T30", "ruling": "201811", "deductibility": "1", "assets": 0, "income": 0, "revenue": 0}, {"ein": "824111118", "name": "FISHERS ISLAND SPORTSMENS CLUB", "city": "FISHERS ISLE", "state": "NY", "zip": "06390-0708", "ntee": "N50", "ruling": "201902", "deductibility": "2", "assets": 36273, "income": 97765, "revenue": 97765}, {"ein": "830479067", "name": "FLY FISHERS INTERNATIONAL INC", "city": "WEST SENECA", "state": "NY", "zip": "14224-4726", "ntee": "", "ruling": "196909", "deductibility": "1", "assets": 0, "income": 0, "revenue": 0}, {"ein": "834626545", "name": "TAY FISHERS COMMUNITY CORNERSTONE", "city": "KINGSTON", "state": "NY", "zip": "12402-3553", "ntee": "N12", "ruling": "202212", "deductibility": "1", "assets": 0, "income": 0, "revenue": 0}, {"ein": "921230547", "name": "FISHERS ISLAND FUND INC", "city": "FISHERS ISLE", "state": "NY", "zip": "06390-0714", "ntee": "C50", "ruling": "202304", "deductibility": "1", "assets": 0, "income": 0, "revenue": 0}], "SDA": [{"ein": "061291251", "name": "MIDDLETOWN CHRISTIAN SCHOOL OF SDA", "city": "MIDDLETOWN", "state": "NY", "zip": "10940-5531", "ntee": "", "ruling": "194704", "deductibility": "1", "assets": 0, "income": 0, "revenue": 0}, {"ein": "061291252", "name": "POUGHKEEPSIE COMMUNITY SDA SCHOOL", "city": "POUGHKEEPSIE", "state": "NY", "zip": "12601-0548", "ntee": "", "ruling": "194704", "deductibility": "1", "assets": 0, "income": 0, "revenue": 0}, {"ein": "113004824", "name": "JACKSON HEIGHTS SDA SCHOOL", "city": "WOODSIDE", "state": "NY", "zip": "11377-3998", "ntee": "", "ruling": "194704", "deductibility": "1", "assets": 0, "income": 0, "revenue": 0}, {"ein": "113004828", "name": "BRONX-MANHATTAN SDA SCHOOL", "city": "BRONX", "state": "NY", "zip": "10452-1711", "ntee": "", "ruling": "194704", "deductibility": "1", "assets": 0, "income": 0, "revenue": 0}, {"ein": "113004839", "name": "WHISPERING PINES SDA SCHOOL", "city": "OLD WESTBURY", "state": "NY", "zip": "11568-1612", "ntee": "", "ruling": "194704", "deductibility": "1", "assets": 0, "income": 0, "revenue": 0}, {"ein": "113078617", "name": "LINDEN SDA SCHOOL", "city": "LAURELTON", "state": "NY", "zip": "11413-2446", "ntee": "", "ruling": "194704", "deductibility": "1", "assets": 0, "income": 0, "revenue": 0}, {"ein": "113190479", "name": "EBENEZER SDA CHURCH", "city": "BROOKLYN", "state": "NY", "zip": "11233-4907", "ntee": "", "ruling": "194704", "deductibility": "1", "assets": 0, "income": 0, "revenue": 0}, {"ein": "113228064", "name": "HANSON PLACE SDA SCHOOL", "city": "BROOKLYN", "state": "NY", "zip": "11217-1430", "ntee": "", "ruling": "194704", "deductibility": "1", "assets": 0, "income": 0, "revenue": 0}, {"ein": "133595409", "name": "WESTCHESTER SDA AREA SCHOOL", "city": "NEW ROCHELLE", "state": "NY", "zip": "10801-3226", "ntee": "", "ruling": "194704", "deductibility": "1", "assets": 0, "income": 0, "revenue": 0}, {"ein": "137235530", "name": "SDA FOUNDATION", "city": "NEW YORK", "state": "NY", "zip": "10111-0204", "ntee": "T22", "ruling": "200011", "deductibility": "1", "assets": 5053169, "income": 60276, "revenue": 0}, {"ein": "204490036", "name": "SOUTH BAY JUNIOR ACADEMY OF SDA", "city": "BABYLON", "state": "NY", "zip": "11702-3902", "ntee": "", "ruling": "194704", "deductibility": "1", "assets": 0, "income": 0, "revenue": 0}, {"ein": "300112041", "name": "FLATBUSH SDA SCHOOL", "city": "BROOKLYN", "state": "NY", "zip": "11203-4816", "ntee": "", "ruling": "194704", "deductibility": "1", "assets": 0, "income": 0, "revenue": 0}, {"ein": "364503630", "name": "BETHESDA SDA JUNIOR ACADEMY", "city": "AMITYVILLE", "state": "NY", "zip": "11701-1312", "ntee": "", "ruling": "194704", "deductibility": "1", "assets": 0, "income": 0, "revenue": 0}, {"ein": "776272412", "name": "SDA FOUNDATION", "city": "GREAT NECK", "state": "NY", "zip": "11021-1934", "ntee": "P122", "ruling": "201012", "deductibility": "1", "assets": 2149, "income": 1, "revenue": 0}, {"ein": "841701476", "name": "OJI SDA SUSTAINABLE INDIGENOUS FUTURES", "city": "SPENCER", "state": "NY", "zip": "14883-9622", "ntee": "P30", "ruling": "200803", "deductibility": "1", "assets": 109132, "income": 112965, "revenue": 112965}, {"ein": "852004763", "name": "NEW GUILGAL SDA CHURCH", "city": "BROOKLYN", "state": "NY", "zip": "11234-2517", "ntee": "X20", "ruling": "202104", "deductibility": "1", "assets": 0, "income": 0, "revenue": 0}, {"ein": "862602613", "name": "SDA COLLEGE FUND INC", "city": "WESTBURY", "state": "NY", "zip": "11590-1134", "ntee": "B82", "ruling": "202106", "deductibility": "1", "assets": 0, "income": 0, "revenue": 0}, {"ein": "901028648", "name": "KINGSBURY SDA SCHOOL", "city": "HUDSON FALLS", "state": "NY", "zip": "12839-3713", "ntee": "", "ruling": "194704", "deductibility": "1", "assets": 0, "income": 0, "revenue": 0}, {"ein": "934257091", "name": "L ETANG DEBAT SDA INC", "city": "BROOKLYN", "state": "NY", "zip": "11212-1644", "ntee": "", "ruling": "202312", "deductibility": "1", "assets": 0, "income": 0, "revenue": 0}], "ORAL": [{"ein": "061531077", "name": "THE AUDITORY ORAL SCHOOL OF NEW YORK", "city": "BROOKLYN", "state": "NY", "zip": "11210-5421", "ntee": "B28", "ruling": "199904", "deductibility": "1", "assets": 13549098, "income": 9771878, "revenue": 9771878}, {"ein": "113136013", "name": "SUPPORT FOR PEOPLE WITH ORAL AND HEAD AND NECK CANCER INC", "city": "LOCUST VALLEY", "state": "NY", "zip": "11560-1736", "ntee": "E600", "ruling": "199303", "deductibility": "1", "assets": 2499186, "income": 898191, "revenue": 898191}, {"ein": "113561657", "name": "INTERNATIONAL FOUNDATION FOR ORAL DESIGN LTD", "city": "NEW YORK", "state": "NY", "zip": "10101-2158", "ntee": "B60", "ruling": "201503", "deductibility": "1", "assets": 0, "income": 0, "revenue": 0}, {"ein": "134097599", "name": "THE GLOBAL ORAL HISTORY PROJECT INC", "city": "SALISBURY MLS", "state": "NY", "zip": "12577-5320", "ntee": "A31", "ruling": "200004", "deductibility": "1", "assets": 31090, "income": 3, "revenue": 0}, {"ein": "200367350", "name": "AUDITORY ORAL FOUNDATION", "city": "BROOKLYN", "state": "NY", "zip": "11210-4828", "ntee": "B99", "ruling": "200405", "deductibility": "1", "assets": 2978703, "income": 124732, "revenue": 124732}, {"ein": "203224510", "name": "FOUNDATION FOR DESIGN AND ANALYSIS OF DENTAL & ORAL RESEARCH INC", "city": "BUFFALO", "state": "NY", "zip": "14214-3001", "ntee": "E12", "ruling": "200606", "deductibility": "1", "assets": 989681, "income": 237656, "revenue": 69783}, {"ein": "237294888", "name": "NEW YORK STATE SOCIETY OF ORAL AND MAXILLOFACIAL SURGEONS INC", "city": "ALBANY", "state": "NY", "zip": "12211-2396", "ntee": "", "ruling": "197408", "deductibility": "2", "assets": 1137907, "income": 293512, "revenue": 293512}, {"ein": "263928285", "name": "ORAL CANCER AWARENESS FOUNDATION", "city": "POUGHKEEPSIE", "state": "NY", "zip": "12603-6712", "ntee": "E70", "ruling": "200906", "deductibility": "1", "assets": 58920, "income": 13979, "revenue": 5405}, {"ein": "300634052", "name": "UB ORAL & MAXILLOFACIAL SURGERY INC", "city": "BUFFALO", "state": "NY", "zip": "14214-0000", "ntee": "B11", "ruling": "201106", "deductibility": "1", "assets": 582025, "income": 2386593, "revenue": 2386593}, {"ein": "452496153", "name": "ALLIANCE FOR ORAL HEALTH ACROSS BORDERS INC", "city": "SYOSSET", "state": "NY", "zip": "11791-4507", "ntee": "Q33", "ruling": "201301", "deductibility": "1", "assets": 65554, "income": 87403, "revenue": 87403}, {"ein": "452861531", "name": "INTERNATIONAL ASSOCIATION OF ORAL ONCOLOGY", "city": "NEW YORK", "state": "NY", "zip": "10065-6007", "ntee": "Z99", "ruling": "201406", "deductibility": "2", "assets": 331672, "income": 10446, "revenue": 7263}, {"ein": "832135357", "name": "THE BUHITE-DIMINO CORRIDOR FOR ORAL AND MAXILLOFACIAL HEALTH INC", "city": "ROCHESTER", "state": "NY", "zip": "14621-1233", "ntee": "B40", "ruling": "201902", "deductibility": "1", "assets": 918388, "income": 19997, "revenue": 19997}, {"ein": "841884675", "name": "NEW YORK INSTITUTE FOR ORAL AND CRANIOFACIAL HEALTH", "city": "BROOKLYN", "state": "NY", "zip": "11201-1404", "ntee": "H99", "ruling": "201912", "deductibility": "1", "assets": 0, "income": 0, "revenue": 0}], "CHAYIL": [{"ein": "061572059", "name": "AISHES CHAYIL DKIRYAS JOEL MOTHERS RELIEF CENTER INC", "city": "MONROE", "state": "NY", "zip": "10949-0625", "ntee": "L99", "ruling": "200011", "deductibility": "1", "assets": 16905655, "income": 10360696, "revenue": 10360696}, {"ein": "112568978", "name": "SHAAREY BNOS CHAYIL INST INC", "city": "FLUSHING", "state": "NY", "zip": "11367-2420", "ntee": "", "ruling": "198212", "deductibility": "0", "assets": 0, "income": 0, "revenue": 0}, {"ein": "113092818", "name": "BNOS CHAYIL", "city": "BROOKLYN", "state": "NY", "zip": "11211-7436", "ntee": "", "ruling": "199209", "deductibility": "1", "assets": 0, "income": 0, "revenue": 0}, {"ein": "113420145", "name": "AMERICAN FRIENDS OF OSEH CHAYIL", "city": "NEW YORK", "state": "NY", "zip": "10017-0000", "ntee": "X113", "ruling": "200509", "deductibility": "1", "assets": 520660, "income": 164002, "revenue": 164002}, {"ein": "133417302", "name": "AMERICAN FRIENDS OF BNOT CHAYIL COLLEGE INC", "city": "MONTEBELLO", "state": "NY", "zip": "10901-4249", "ntee": "Q122", "ruling": "198801", "deductibility": "1", "assets": 81241, "income": 81515, "revenue": 81515}, {"ein": "260304956", "name": "CONGREGATION TIFERES CHAYIL", "city": "BROOKLYN", "state": "NY", "zip": "11219-3632", "ntee": "X30", "ruling": "200905", "deductibility": "1", "assets": 0, "income": 0, "revenue": 0}, {"ein": "262347466", "name": "CONG SASOV BNEI CHAYIL TAMAR", "city": "MONSEY", "state": "NY", "zip": "10952-4023", "ntee": "X30", "ruling": "202110", "deductibility": "1", "assets": 0, "income": 0, "revenue": 0}], "WILSON": [{"ein": "061788966", "name": "WILSON ALL SPORTS BOOSTER CLUB", "city": "WILSON", "state": "NY", "zip": "14172-0274", "ntee": "B82", "ruling": "200611", "deductibility": "1", "assets": 86866, "income": 46396, "revenue": 46396}, {"ein": "112109773", "name": "ROMMEL WILSON MEMORIAL FUND INC", "city": "SETAUKET", "state": "NY", "zip": "11733-0745", "ntee": "", "ruling": "000000", "deductibility": "1", "assets": 3730679, "income": 214947, "revenue": 0}, {"ein": "113015593", "name": "DAVID & DOVETTA WILSON SCHOLARSHIP FUND", "city": "ELMONT", "state": "NY", "zip": "11003-3926", "ntee": "B82Z", "ruling": "199202", "deductibility": "1", "assets": 220832, "income": 68658, "revenue": 68658}, {"ein": "113198278", "name": "PLAZA DE LOS ANCIANOS DE WILSON HOUSING DEVELOPMENT FUND CO INC", "city": "BROOKLYN", "state": "NY", "zip": "11206-4628", "ntee": "L20Z", "ruling": "199505", "deductibility": "1", "assets": 2829377, "income": 1252443, "revenue": 1252443}, {"ein": "133140373", "name": "MANNY L WILSON HOUSING DEVELOPMENT FUND CORPORATION", "city": "NEW YORK", "state": "NY", "zip": "10031-0000", "ntee": "L22Z", "ruling": "198305", "deductibility": "1", "assets": 5041029, "income": 235930, "revenue": 235930}, {"ein": "133273604", "name": "WILSON MAJOR MORRIS COMMUNITY CENTER INC", "city": "NEW YORK", "state": "NY", "zip": "10031-1814", "ntee": "L80", "ruling": "198008", "deductibility": "1", "assets": 18218, "income": 133187, "revenue": 133187}, {"ein": "133804661", "name": "WHEELER WILSON AND JOHNSON COMMUNITY PROJECTS INC", "city": "BRONX", "state": "NY", "zip": "10469-0296", "ntee": "J22", "ruling": "199605", "deductibility": "1", "assets": 0, "income": 0, "revenue": 0}, {"ein": "134092426", "name": "SOLOMON WILSON FAMILY FOUNDATION INC", "city": "NEW YORK", "state": "NY", "zip": "10014-1894", "ntee": "T21", "ruling": "200008", "deductibility": "1", "assets": 1758452, "income": 314880, "revenue": 0}, {"ein": "161154397", "name": "WILSON DISEASE ASSOCIATION", "city": "NEW YORK", "state": "NY", "zip": "10001-2538", "ntee": "", "ruling": "198501", "deductibility": "1", "assets": 547968, "income": 236056, "revenue": 236056}, {"ein": "161203264", "name": "JUNIOR WILSON SPORTSMENS CLUB INC", "city": "MEDINA", "state": "NY", "zip": "14103-9702", "ntee": "", "ruling": "198401", "deductibility": "2", "assets": 376505, "income": 1034573, "revenue": 304135}, {"ein": "161526203", "name": "WILSON YOUTH SOCCER LEAGUE LTD", "city": "WILSON", "state": "NY", "zip": "14172-0144", "ntee": "N64", "ruling": "201506", "deductibility": "1", "assets": 27283, "income": 63174, "revenue": 63174}, {"ein": "161562701", "name": "FRIENDS OF WILSON FREE LIBRARY INC", "city": "WILSON", "state": "NY", "zip": "14172-0302", "ntee": "B117", "ruling": "200108", "deductibility": "1", "assets": 0, "income": 0, "revenue": 0}, {"ein": "161578693", "name": "WILSON COMMUNITY ENHANCE CHARITY INC", "city": "WILSON", "state": "NY", "zip": "14172-0919", "ntee": "S99", "ruling": "200004", "deductibility": "1", "assets": 338009, "income": 137, "revenue": 137}, {"ein": "166026236", "name": "SOUTH WILSON FIRE COMPANY", "city": "WILSON", "state": "NY", "zip": "14172-9617", "ntee": "P99", "ruling": "201312", "deductibility": "1", "assets": 3880944, "income": 556273, "revenue": 526544}, {"ein": "166038671", "name": "WILSON COMMUNITY LIBRARY", "city": "WILSON", "state": "NY", "zip": "14172-9500", "ntee": "B71Z", "ruling": "198603", "deductibility": "1", "assets": 155930, "income": 255427, "revenue": 255427}, {"ein": "166042023", "name": "ELAINE P & RICHARD U WILSON FND NO", "city": "VICTOR", "state": "NY", "zip": "14564-1054", "ntee": "", "ruling": "196407", "deductibility": "1", "assets": 2434214, "income": 286391, "revenue": 0}, {"ein": "166052482", "name": "WILSON YACHT CLUB INC", "city": "WILSON", "state": "NY", "zip": "14172-0428", "ntee": "", "ruling": "195603", "deductibility": "2", "assets": 0, "income": 0, "revenue": 0}, {"ein": "166253879", "name": "JESSIC C WILSON MEMORIAL TRUST FUND", "city": "WESTFIELD", "state": "NY", "zip": "14787-1616", "ntee": "", "ruling": "198303", "deductibility": "1", "assets": 147112, "income": 15300, "revenue": 0}, {"ein": "222443099", "name": "WILSON HOSPITAL AUXILIARY", "city": "JOHNSON CITY", "state": "NY", "zip": "13790-2107", "ntee": "E11", "ruling": "201907", "deductibility": "1", "assets": 47243, "income": 90137, "revenue": -3268}, {"ein": "222667299", "name": "WILSON COMMENCEMENT PARK", "city": "ROCHESTER", "state": "NY", "zip": "14607-1910", "ntee": "P400", "ruling": "198606", "deductibility": "1", "assets": 971603, "income": 425933, "revenue": 425933}, {"ein": "223090471", "name": "WILSON COMMENCEMENT PARK HOUSING DEVELOPMENT FUND CORPORATION", "city": "ROCHESTER", "state": "NY", "zip": "14607-1910", "ntee": "L20Z", "ruling": "199105", "deductibility": "1", "assets": 962604, "income": 552319, "revenue": 552319}, {"ein": "236847658", "name": "WILLIAM B B WILSON LIFE INSURANCE TRUST", "city": "BUFFALO", "state": "NY", "zip": "14240-1504", "ntee": "T22", "ruling": "200406", "deductibility": "1", "assets": 540310, "income": 143995, "revenue": 0}, {"ein": "237083523", "name": "WILSON FIRE VOLUNTEER CO NO 1 INC", "city": "WILSON", "state": "NY", "zip": "14172-0000", "ntee": "", "ruling": "197010", "deductibility": "1", "assets": 3484553, "income": 554801, "revenue": 466588}, {"ein": "237304471", "name": "VETERANS FOREIGN WARS UNITED STATES DEPT NY 666 PVT WILLIAM B WILSON", "city": "BEACON", "state": "NY", "zip": "12508-3303", "ntee": "", "ruling": "197210", "deductibility": "1", "assets": 0, "income": 0, "revenue": 0}, {"ein": "237418062", "name": "H W WILSON FOUNDATION INC", "city": "SEAFORD", "state": "NY", "zip": "11783-5040", "ntee": "", "ruling": "195412", "deductibility": "1", "assets": 27144170, "income": 7351796, "revenue": 0}, {"ein": "237889770", "name": "THE@S WILSON AND GRACE M POLLOCK FOUNDATION", "city": "AMHERST", "state": "NY", "zip": "14228-2307", "ntee": "T30Z", "ruling": "199710", "deductibility": "1", "assets": 9539704, "income": 1597199, "revenue": 0}, {"ein": "256426756", "name": "MARY KING TEST TR UW FBO WILSON COLLEGE 090393", "city": "BUFFALO", "state": "NY", "zip": "14240-1504", "ntee": "T20", "ruling": "200506", "deductibility": "1", "assets": 2639084, "income": 483603, "revenue": 0}, {"ein": "256448909", "name": "ERIL E WILSON TW FBO HOMELAND", "city": "BUFFALO", "state": "NY", "zip": "14240-1504", "ntee": "T22", "ruling": "200112", "deductibility": "1", "assets": 590252, "income": 193055, "revenue": 0}, {"ein": "261428040", "name": "WILSON YOUTH FOOTBALL PARENTS ASSOCIATION", "city": "WILSON", "state": "NY", "zip": "14172-0673", "ntee": "N65", "ruling": "201507", "deductibility": "1", "assets": 0, "income": 0, "revenue": 0}, {"ein": "263966227", "name": "WILSON CENTER INC", "city": "CLARENCE", "state": "NY", "zip": "14031-2244", "ntee": "B99", "ruling": "200903", "deductibility": "1", "assets": 0, "income": 0, "revenue": 0}, {"ein": "306609372", "name": "WILSON & RUTH NEAR MEML CHAR TR UW", "city": "PITTSFORD", "state": "NY", "zip": "14534-3838", "ntee": "X12", "ruling": "202002", "deductibility": "1", "assets": 5634770, "income": 3374724, "revenue": 0}, {"ein": "461211979", "name": "WILSON CONSERVATION CLUB INC", "city": "WILSON", "state": "NY", "zip": "14172-9611", "ntee": "N50", "ruling": "202205", "deductibility": "2", "assets": 87970, "income": 115040, "revenue": 115040}, {"ein": "462058742", "name": "SSG WILLIAM R WILSON III MEMORIAL FOUNDATION", "city": "GETZVILLE", "state": "NY", "zip": "14068-1310", "ntee": "T30", "ruling": "201311", "deductibility": "1", "assets": 0, "income": 0, "revenue": 0}, {"ein": "464104553", "name": "TAYLOR WILSON THOMPSON FAMILY FOUNDATION", "city": "ALBANY", "state": "NY", "zip": "12212-5201", "ntee": "T20", "ruling": "201509", "deductibility": "1", "assets": 1986037, "income": 1598866, "revenue": 0}, {"ein": "465136625", "name": "ROBBY WILSON SMS CLASS OF 1984 MEMORIAL SCHOLARSHIP FOUN INC", "city": "PEARL RIVER", "state": "NY", "zip": "10965-1401", "ntee": "B82", "ruling": "201601", "deductibility": "1", "assets": 0, "income": 0, "revenue": 0}, {"ein": "471197625", "name": "WILSON COMMUNITY FOOD PANTRY INC", "city": "WILSON", "state": "NY", "zip": "14172-0000", "ntee": "K31", "ruling": "201409", "deductibility": "1", "assets": 0, "income": 0, "revenue": 0}, {"ein": "472606040", "name": "WILSON GARLING FOUNDATION NFP", "city": "ALBANY", "state": "NY", "zip": "12212-5201", "ntee": "T22", "ruling": "201601", "deductibility": "1", "assets": 20444388, "income": 9320204, "revenue": 0}, {"ein": "475506303", "name": "WILSON YOUTH BASEBALL LEAGUE", "city": "WILSON", "state": "NY", "zip": "14172-0854", "ntee": "N63", "ruling": "201511", "deductibility": "1", "assets": 0, "income": 0, "revenue": 0}, {"ein": "510141836", "name": "WILSON HISTORICAL SOCIETY", "city": "WILSON", "state": "NY", "zip": "14172-0537", "ntee": "A82Z", "ruling": "197506", "deductibility": "1", "assets": 0, "income": 0, "revenue": 0}, {"ein": "516536168", "name": "ROBERT W WILSON CHARITABLE TR", "city": "NEW YORK", "state": "NY", "zip": "10036-0000", "ntee": "T22", "ruling": "200303", "deductibility": "1", "assets": 199455244, "income": 123022967, "revenue": 0}, {"ein": "542096873", "name": "BETTIE B WILSON LEARNING CENTER INC", "city": "NEW YORK", "state": "NY", "zip": "10031-5209", "ntee": "B60", "ruling": "200309", "deductibility": "1", "assets": 0, "income": 0, "revenue": 0}, {"ein": "812742145", "name": "WILSON ADVANCEMENT FOUNDATION INC", "city": "WILSON", "state": "NY", "zip": "14172-9507", "ntee": "B02", "ruling": "201912", "deductibility": "1", "assets": 0, "income": 0, "revenue": 0}, {"ein": "814239453", "name": "ROBERT WILSON ARTS FOUNDATION", "city": "NEW YORK", "state": "NY", "zip": "10001-5067", "ntee": "T30", "ruling": "201805", "deductibility": "1", "assets": 2554737, "income": 1190918, "revenue": 1190918}, {"ein": "832655116", "name": "CELEBRATE WILSON", "city": "WILSON", "state": "NY", "zip": "14172-0416", "ntee": "C50", "ruling": "202208", "deductibility": "1", "assets": 0, "income": 0, "revenue": 0}, {"ein": "834265554", "name": "MICHAEL J WILSON FOUNDATION", "city": "ROCHESTER", "state": "NY", "zip": "14610-1916", "ntee": "G99", "ruling": "201904", "deductibility": "1", "assets": 0, "income": 0, "revenue": 0}, {"ein": "843582646", "name": "MARIE C AND JOSEPH C WILSON FOUNDATION INC", "city": "ROCHESTER", "state": "NY", "zip": "14620-1327", "ntee": "T20", "ruling": "202005", "deductibility": "1", "assets": 18674628, "income": 8392315, "revenue": 0}, {"ein": "861541384", "name": "RALPH WILSON PARK CONSERVANCY INC", "city": "BUFFALO", "state": "NY", "zip": "14213-7310", "ntee": "N32", "ruling": "202112", "deductibility": "1", "assets": 742729, "income": 1115145, "revenue": 1115145}, {"ein": "862753081", "name": "WILSON CENTRAL SCHOOL ALUMNI ASSOCIATION", "city": "WILSON", "state": "NY", "zip": "14172-0648", "ntee": "B84", "ruling": "202205", "deductibility": "1", "assets": 0, "income": 0, "revenue": 0}, {"ein": "872183750", "name": "WILSON CONNECT CORP", "city": "NEW YORK", "state": "NY", "zip": "10001-5666", "ntee": "", "ruling": "202204", "deductibility": "1", "assets": 0, "income": 0, "revenue": 0}, {"ein": "900913065", "name": "TAKS IN LOVING MEMORY OF ELIZABETH WILSON", "city": "BROOKLYN", "state": "NY", "zip": "11226-1406", "ntee": "W12", "ruling": "202409", "deductibility": "1", "assets": 0, "income": 0, "revenue": 0}, {"ein": "993997457", "name": "WILSON MUSIC PARENTS ASSOCIATION INC", "city": "WILSON", "state": "NY", "zip": "14172-0002", "ntee": "B94", "ruling": "202407", "deductibility": "1", "assets": 0, "income": 0, "revenue": 0}, {"ein": "994745335", "name": "AUSTIN WILSON MEMORIAL FUND INC", "city": "WILSON", "state": "NY", "zip": "14172-9519", "ntee": "W12", "ruling": "202411", "deductibility": "1", "assets": 0, "income": 0, "revenue": 0}], "HOREB": [{"ein": "112074467", "name": "MOUNT HOREB BAPTIST CHURCH", "city": "CORONA", "state": "NY", "zip": "11368-1332", "ntee": "X20Z", "ruling": "199808", "deductibility": "1", "assets": 0, "income": 0, "revenue": 0}, {"ein": "112415167", "name": "MT HOREB CHRISTIAN CHURCH INC C O J C REMBERT", "city": "BROOKLYN", "state": "NY", "zip": "11221-4409", "ntee": "", "ruling": "197704", "deductibility": "1", "assets": 0, "income": 0, "revenue": 0}, {"ein": "112738045", "name": "IGLESIA PENA DE HOREB", "city": "BROOKLYN", "state": "NY", "zip": "11237-1605", "ntee": "X21", "ruling": "196408", "deductibility": "1", "assets": 0, "income": 0, "revenue": 0}, {"ein": "112980931", "name": "PENTECOSTAL CHURCH ROCK OF HOREB", "city": "BROOKLYN", "state": "NY", "zip": "11205-2804", "ntee": "", "ruling": "198910", "deductibility": "1", "assets": 0, "income": 0, "revenue": 0}, {"ein": "113040685", "name": "HOREB HAITIAN ALLIANCE CHURCH", "city": "W HEMPSTEAD", "state": "NY", "zip": "11552-2141", "ntee": "X20", "ruling": "197205", "deductibility": "1", "assets": 0, "income": 0, "revenue": 0}, {"ein": "113248904", "name": "HOREB DAY CARE CENTER", "city": "BROOKLYN", "state": "NY", "zip": "11225-4646", "ntee": "", "ruling": "194704", "deductibility": "1", "assets": 0, "income": 0, "revenue": 0}, {"ein": "113264074", "name": "MOUNT HOREB SPIRITUAL BAPTIST CHURCH", "city": "BROOKLYN", "state": "NY", "zip": "11212-2729", "ntee": "X20Z", "ruling": "199707", "deductibility": "1", "assets": 0, "income": 0, "revenue": 0}, {"ein": "113391303", "name": "MT HOREB SPIRITUAL BAPTIST HEALING SCHOOL INC", "city": "JAMAICA", "state": "NY", "zip": "11433-2416", "ntee": "X21", "ruling": "200004", "deductibility": "1", "assets": 0, "income": 0, "revenue": 0}, {"ein": "133979138", "name": "IGLESIA PENTECOSTAL PENA DE HOREB INC", "city": "BRONX", "state": "NY", "zip": "10458-3103", "ntee": "X20", "ruling": "200004", "deductibility": "1", "assets": 0, "income": 0, "revenue": 0}, {"ein": "204735874", "name": "IGLESIA CRISTIANA HOREB MONTE DE DIOS", "city": "BRONX", "state": "NY", "zip": "10457-2509", "ntee": "X20", "ruling": "201601", "deductibility": "1", "assets": 0, "income": 0, "revenue": 0}, {"ein": "311659992", "name": "MOUNT HOREB HOLINESS CHURCH OF GOD INC", "city": "NEW YORK", "state": "NY", "zip": "10035-1004", "ntee": "X20", "ruling": "200002", "deductibility": "1", "assets": 0, "income": 0, "revenue": 0}, {"ein": "811628206", "name": "IGLESIA EVANGELICA PENA DE HOREB", "city": "BRENTWOOD", "state": "NY", "zip": "11717-4527", "ntee": "X20", "ruling": "202308", "deductibility": "1", "assets": 7697, "income": 56704, "revenue": 56704}, {"ein": "825015660", "name": "IGLESIA EVANGELICA JESUCRISTO ES LA PENA DE HOREB", "city": "RIVERHEAD", "state": "NY", "zip": "11901-2843", "ntee": "X21", "ruling": "202203", "deductibility": "1", "assets": 0, "income": 0, "revenue": 0}], "SHIRLEY": [{"ein": "112305568", "name": "SHIRLEY CHISHOLM DAY CARE CENTER 2", "city": "BROOKLYN", "state": "NY", "zip": "11233-3903", "ntee": "", "ruling": "197606", "deductibility": "1", "assets": 1065363, "income": 2538185, "revenue": 2538185}, {"ein": "112468521", "name": "SHIRLEY COMMUNITY AMBULANCE CORP", "city": "SHIRLEY", "state": "NY", "zip": "11967-0072", "ntee": "", "ruling": "197809", "deductibility": "1", "assets": 625783, "income": 1273001, "revenue": 1273001}, {"ein": "112483733", "name": "SHIRLEY CHISHOLM CULTURAL INSTITUTE", "city": "BROOKLYN", "state": "NY", "zip": "11216-1539", "ntee": "O50", "ruling": "202002", "deductibility": "1", "assets": 0, "income": 0, "revenue": 0}, {"ein": "112593870", "name": "SHIRLEY-MASTICS COMMUNITY SERVICE PROJECT INC", "city": "MASTIC BEACH", "state": "NY", "zip": "11951-0081", "ntee": "P11", "ruling": "201702", "deductibility": "1", "assets": 0, "income": 0, "revenue": 0}, {"ein": "113665178", "name": "ISLAAMIC CENTER OF MASTIC-SHIRLEY", "city": "SHIRLEY", "state": "NY", "zip": "11967-3416", "ntee": "X40", "ruling": "200311", "deductibility": "1", "assets": 0, "income": 0, "revenue": 0}, {"ein": "116048777", "name": "SHIRLEY & WILLIAM R FLEISCHER FOUNDATION INC", "city": "NEW YORK", "state": "NY", "zip": "10001-0011", "ntee": "", "ruling": "196705", "deductibility": "1", "assets": 6099829, "income": 1259294, "revenue": 0}, {"ein": "131928824", "name": "CHAMBER OF COMMERCE OF THE MASTICS AND SHIRLEY", "city": "MASTIC", "state": "NY", "zip": "11950-0004", "ntee": "S41", "ruling": "200902", "deductibility": "2", "assets": 35538, "income": 41161, "revenue": 41161}, {"ein": "133754244", "name": "MILTON AND SHIRLEY GLASER FOUNDATION INC", "city": "BROOKLYN", "state": "NY", "zip": "11201-0000", "ntee": "", "ruling": "199410", "deductibility": "1", "assets": 980, "income": 1, "revenue": 0}, {"ein": "134031176", "name": "SHIRLEY G BENEROFE FOUNDATION INC", "city": "WHITE PLAINS", "state": "NY", "zip": "10604-1211", "ntee": "T122", "ruling": "199912", "deductibility": "1", "assets": 6333, "income": 1033, "revenue": 0}, {"ein": "134109353", "name": "MICHAEL AND SHIRLEY CAYRE FOUNDATION INC", "city": "NEW YORK", "state": "NY", "zip": "10010-7105", "ntee": "T22", "ruling": "200008", "deductibility": "1", "assets": 564243, "income": 1930698, "revenue": 0}, {"ein": "141828249", "name": "GEORGE AND SHIRLEY MOORE FOUNDATION INC", "city": "KEESEVILLE", "state": "NY", "zip": "12944-0385", "ntee": "T20", "ruling": "200112", "deductibility": "1", "assets": 898296, "income": 365502, "revenue": 0}, {"ein": "223082447", "name": "SHIRLEY WALDBAUM WITKIN FOUNDATION INC", "city": "GLEN HEAD", "state": "NY", "zip": "11545-0000", "ntee": "", "ruling": "199108", "deductibility": "1", "assets": 144874, "income": 7157, "revenue": 0}, {"ein": "223819532", "name": "EDWIN & SHIRLEY WOLDAR FAMILY FOUNDATION INC", "city": "ROSLYN", "state": "NY", "zip": "11576-3060", "ntee": "T20", "ruling": "200108", "deductibility": "1", "assets": 1684110, "income": 269036, "revenue": 0}, {"ein": "237046427", "name": "JERROLD R AND SHIRLEY GOLDING FOUNDATION INC", "city": "PURCHASE", "state": "NY", "zip": "10577-2544", "ntee": "", "ruling": "197002", "deductibility": "1", "assets": 10978, "income": 81, "revenue": 0}, {"ein": "454660281", "name": "SHIRLEY RAINBOW INTERNATIONAL INC", "city": "JERICHO", "state": "NY", "zip": "11753-1817", "ntee": "Q21", "ruling": "201311", "deductibility": "1", "assets": 0, "income": 0, "revenue": 0}, {"ein": "454775983", "name": "JIM AND SHIRLEY YOUNG FAMILY FOUNDATION", "city": "GARDEN CITY", "state": "NY", "zip": "11530-0000", "ntee": "T22", "ruling": "201210", "deductibility": "1", "assets": 17101527, "income": 14096927, "revenue": 0}, {"ein": "461150248", "name": "FRIENDS OF SHIRLEY CHISHOLM STATE PARK INC", "city": "BROOKLYN", "state": "NY", "zip": "11208-3501", "ntee": "N32", "ruling": "202105", "deductibility": "1", "assets": 0, "income": 0, "revenue": 0}, {"ein": "464360771", "name": "SHIRLEY GORELICK FOUNDATION INC", "city": "ALBANY", "state": "NY", "zip": "12212-5201", "ntee": "A51", "ruling": "201408", "deductibility": "1", "assets": 159564, "income": 39476, "revenue": 0}, {"ein": "472345821", "name": "RABBI NATHANIAL AND SHIRLEY POLLACK MEMORIAL FOUNDATION", "city": "FRESH MEADOWS", "state": "NY", "zip": "11365-3314", "ntee": "T23", "ruling": "201507", "deductibility": "1", "assets": 79058, "income": 107408, "revenue": 0}, {"ein": "474595385", "name": "SHIRLEY M ARBESFELD FOUNDATION", "city": "KEW GARDENS", "state": "NY", "zip": "11415-1313", "ntee": "T20", "ruling": "201610", "deductibility": "1", "assets": 2894737, "income": 68630, "revenue": 0}, {"ein": "800163700", "name": "MASTICS AND SHIRLEY COMMUNITY EMER FOOD CENTER FOUNDATION INC", "city": "SHIRLEY", "state": "NY", "zip": "11967-2006", "ntee": "K31", "ruling": "201903", "deductibility": "1", "assets": 0, "income": 0, "revenue": 0}], "BOTANIC": [{"ein": "112417338", "name": "BROOKLYN BOTANIC GARDEN CORPORATION", "city": "BROOKLYN", "state": "NY", "zip": "11225-1008", "ntee": "C410", "ruling": "197705", "deductibility": "1", "assets": 137144984, "income": 80659711, "revenue": 30503693}, {"ein": "136128729", "name": "BROOKLYN BOTANIC GARDEN CORP TRUST U/W ELLA REUSSNER", "city": "NEW YORK", "state": "NY", "zip": "10010-0000", "ntee": "C114", "ruling": "193902", "deductibility": "1", "assets": 1522144, "income": 384440, "revenue": 0}], "OHEV": [{"ein": "112457980", "name": "AMERICAN FRIENDS OF OHEV YISRAEL", "city": "BROOKLYN", "state": "NY", "zip": "11204-1425", "ntee": "X30", "ruling": "202204", "deductibility": "1", "assets": 109286, "income": 341284, "revenue": 341284}, {"ein": "112532827", "name": "CONGREGATION OHEV SHALOM OF DIX HILLS INC", "city": "DIX HILLS", "state": "NY", "zip": "11746-8208", "ntee": "", "ruling": "198301", "deductibility": "1", "assets": 0, "income": 0, "revenue": 0}, {"ein": "113241442", "name": "OHEV SHALOM COMMUNITY CENTER INC", "city": "MONROE", "state": "NY", "zip": "10949-0416", "ntee": "X30", "ruling": "202002", "deductibility": "1", "assets": 426383, "income": 201843, "revenue": 201843}, {"ein": "113327617", "name": "CONGREGATION OHEV YISROEL", "city": "BROOKLYN", "state": "NY", "zip": "11218-4004", "ntee": "", "ruling": "199701", "deductibility": "1", "assets": 0, "income": 0, "revenue": 0}, {"ein": "261417957", "name": "CONGREGATION OHEV YISROEL OF APTA", "city": "BROOKLYN", "state": "NY", "zip": "11206-5402", "ntee": "X30", "ruling": "200908", "deductibility": "1", "assets": 0, "income": 0, "revenue": 0}, {"ein": "862030319", "name": "AMERICAN FRIENDS OF OHEV YISRAEL KAPISHNYTZ", "city": "BROOKLYN", "state": "NY", "zip": "11204-1531", "ntee": "P12", "ruling": "202202", "deductibility": "1", "assets": 28701, "income": 167093, "revenue": 167093}, {"ein": "874145705", "name": "OHEV SHALOM TZEDEK INC", "city": "MONSEY", "state": "NY", "zip": "10952-3056", "ntee": "X30", "ruling": "202302", "deductibility": "1", "assets": 1, "income": 907846, "revenue": 0}], "LATTER": [{"ein": "112502223", "name": "FIRST CHURCH OF LATTER RAIN", "city": "BROOKLYN", "state": "NY", "zip": "11225-5954", "ntee": "", "ruling": "197909", "deductibility": "1", "assets": 0, "income": 0, "revenue": 0}, {"ein": "113190849", "name": "LATTER RAIN CHRISTIAN FELLOWSHIP INC", "city": "QUEENS VLG", "state": "NY", "zip": "11429-2721", "ntee": "X99Z", "ruling": "199504", "deductibility": "1", "assets": 0, "income": 0, "revenue": 0}, {"ein": "161602095", "name": "LATTER RAIN CATHEDRAL AT LOCKPORT", "city": "LOCKPORT", "state": "NY", "zip": "14094-2618", "ntee": "X20", "ruling": "200107", "deductibility": "1", "assets": 0, "income": 0, "revenue": 0}, {"ein": "232402085", "name": "LATTER RAIN CHURCH OF JESUS CHRIST APOSTOLIC INC", "city": "BROOKLYN", "state": "NY", "zip": "11233-2304", "ntee": "", "ruling": "199207", "deductibility": "1", "assets": 0, "income": 0, "revenue": 0}, {"ein": "331761175", "name": "LATTER RAIN COMMUNITY SERVICES", "city": "POUGHKEEPSIE", "state": "NY", "zip": "12601-4021", "ntee": "P20", "ruling": "202412", "deductibility": "1", "assets": 0, "income": 0, "revenue": 0}, {"ein": "820917393", "name": "CENTER FOR LATTER-DAY SAINT ARTS INC", "city": "NEW YORK", "state": "NY", "zip": "10027-6810", "ntee": "A20", "ruling": "201801", "deductibility": "1", "assets": 1111730, "income": 360335, "revenue": 360335}, {"ein": "833602424", "name": "LATTER RAIN OF THE HOLY GHOST CHURCH INC", "city": "BRONX", "state": "NY", "zip": "10453-4260", "ntee": "X20", "ruling": "201909", "deductibility": "1", "assets": 0, "income": 0, "revenue": 0}], "BENEVOLENCE": [{"ein": "112510097", "name": "HAITIAN OVERSEAS ORGAN OF SPIRITUAL BENEVOLENCE AND EVANGELIZATION INC", "city": "BROOKLYN", "state": "NY", "zip": "11225-5418", "ntee": "", "ruling": "198001", "deductibility": "1", "assets": 0, "income": 0, "revenue": 0}, {"ein": "137144163", "name": "FRANCISCANS OF HOLY NAME PROVINCE BENEVOLENCE TR", "city": "NEW YORK", "state": "NY", "zip": "10001-3403", "ntee": "", "ruling": "194603", "deductibility": "0", "assets": 0, "income": 0, "revenue": 0}, {"ein": "455540241", "name": "BENEVOLENCE OUTREACH INC", "city": "BEDFORD HILLS", "state": "NY", "zip": "10507-1612", "ntee": "Q33", "ruling": "201402", "deductibility": "1", "assets": 0, "income": 0, "revenue": 0}, {"ein": "812929271", "name": "ALBANY COUNTY SHERIFFS BENEVOLENCE FUND INC", "city": "ALBANY", "state": "NY", "zip": "12201-5683", "ntee": "P60", "ruling": "201904", "deductibility": "1", "assets": 257549, "income": 149563, "revenue": 149563}, {"ein": "822636426", "name": "FAMILY BENEVOLENCE SERVICES", "city": "TROY", "state": "NY", "zip": "12182-2031", "ntee": "P99", "ruling": "202201", "deductibility": "1", "assets": 0, "income": 0, "revenue": 0}], "MYSTICAL": [{"ein": "112515521", "name": "THE APOSTOLIC MYSTICAL ORDER OF ST PETER", "city": "BROOKLYN", "state": "NY", "zip": "11226-1501", "ntee": "", "ruling": "198910", "deductibility": "1", "assets": 0, "income": 0, "revenue": 0}, {"ein": "112627791", "name": "ANCIENT MYSTICAL ORDER OF ROSAE CRUCIS", "city": "RONKONKOMA", "state": "NY", "zip": "11779-0078", "ntee": "", "ruling": "196404", "deductibility": "1", "assets": 0, "income": 0, "revenue": 0}, {"ein": "113084803", "name": "TRIUNE MYSTICAL ORDER OF ST GABRIEL SPRITITUAL CHURCH INC", "city": "BROOKLYN", "state": "NY", "zip": "11226-5427", "ntee": "X21", "ruling": "200012", "deductibility": "1", "assets": 0, "income": 0, "revenue": 0}, {"ein": "113193278", "name": "ST MICHAELS FAITH & HOPE MYSTICAL ORDER OF THE WORLD", "city": "BROOKLYN", "state": "NY", "zip": "11226-7514", "ntee": "X20I", "ruling": "199605", "deductibility": "1", "assets": 0, "income": 0, "revenue": 0}, {"ein": "133959119", "name": "ANCIENT MYSTICAL ORDER OF ROSAE CRUCIS", "city": "NEW YORK", "state": "NY", "zip": "10022-5201", "ntee": "", "ruling": "196404", "deductibility": "1", "assets": 0, "income": 0, "revenue": 0}, {"ein": "136120539", "name": "ANCIENT MYSTICAL ORDER OF ROSAE CRUCIS", "city": "NEW YORK", "state": "NY", "zip": "10022-5201", "ntee": "", "ruling": "196404", "deductibility": "1", "assets": 0, "income": 0, "revenue": 0}, {"ein": "464675367", "name": "MYSTICAL ROSE OF SOLOMON SPIRITUAL CHURCH", "city": "BROOKLYN", "state": "NY", "zip": "11212-4439", "ntee": "X20", "ruling": "201507", "deductibility": "1", "assets": 0, "income": 0, "revenue": 0}], "MISHNA": [{"ein": "112586342", "name": "MISHNA RISHONA INC", "city": "BROOKLYN", "state": "NY", "zip": "11207-8327", "ntee": "", "ruling": "198112", "deductibility": "1", "assets": 0, "income": 0, "revenue": 0}, {"ein": "811897348", "name": "MAGID MISHNA INC", "city": "BROOKLYN", "state": "NY", "zip": "11219-3502", "ntee": "X30", "ruling": "201705", "deductibility": "1", "assets": 7571129, "income": 432037, "revenue": 432037}, {"ein": "834007986", "name": "MISHNA BALPAH INC", "city": "BROOKLYN", "state": "NY", "zip": "11204-1244", "ntee": "X30", "ruling": "201905", "deductibility": "1", "assets": 0, "income": 0, "revenue": 0}], "MACHON": [{"ein": "112683949", "name": "MACHON ALTE INC", "city": "BROOKLYN", "state": "NY", "zip": "11219-2725", "ntee": "", "ruling": "198606", "deductibility": "1", "assets": 0, "income": 0, "revenue": 0}, {"ein": "112731445", "name": "MACHON CHEMDO GENUZA", "city": "BROOKLYN", "state": "NY", "zip": "11210-3739", "ntee": "", "ruling": "198506", "deductibility": "1", "assets": 0, "income": 0, "revenue": 0}, {"ein": "112819214", "name": "MACHON BAIS YAAKOV", "city": "BROOKLYN", "state": "NY", "zip": "11204-1027", "ntee": "", "ruling": "198703", "deductibility": "1", "assets": 0, "income": 0, "revenue": 0}, {"ein": "112956158", "name": "MACHON HARABONIM INC", "city": "BROOKLYN", "state": "NY", "zip": "11230-1112", "ntee": "", "ruling": "198907", "deductibility": "1", "assets": 0, "income": 0, "revenue": 0}, {"ein": "113307109", "name": "MACHON CHANA WOMENS INSTITUTE INC", "city": "BROOKLYN", "state": "NY", "zip": "11213-5154", "ntee": "X30P", "ruling": "199608", "deductibility": "1", "assets": 4075307, "income": 638055, "revenue": 489619}, {"ein": "113452190", "name": "MACHON HAHALACHA COMMUNITY KOLLEL INC", "city": "FLUSHING", "state": "NY", "zip": "11367-2827", "ntee": "X30", "ruling": "199905", "deductibility": "1", "assets": 92243, "income": 81870, "revenue": 81870}, {"ein": "133758199", "name": "MACHON YISRAEL TRUST", "city": "BROOKLYN", "state": "NY", "zip": "11230-7001", "ntee": "T30", "ruling": "199405", "deductibility": "1", "assets": 0, "income": 0, "revenue": 0}, {"ein": "133774841", "name": "AMERICAN FRIENDS OF MAARAVA MACHON RUBIN INC", "city": "LAWRENCE", "state": "NY", "zip": "11559-1909", "ntee": "Z99", "ruling": "199411", "deductibility": "1", "assets": 50748, "income": 144384, "revenue": 144384}, {"ein": "137061683", "name": "MACHON AHAVAT EMES TR", "city": "NEW YORK", "state": "NY", "zip": "10006-0000", "ntee": "F12", "ruling": "199607", "deductibility": "1", "assets": 17916, "income": 8407, "revenue": 8407}, {"ein": "237212672", "name": "MACHON BETH-ARYEH INC", "city": "FOREST HILLS", "state": "NY", "zip": "11375-5817", "ntee": "", "ruling": "197205", "deductibility": "1", "assets": 0, "income": 0, "revenue": 0}, {"ein": "261086445", "name": "MACHON TIFERES LMOSHE INC", "city": "BROOKLYN", "state": "NY", "zip": "11218-1911", "ntee": "X30", "ruling": "201008", "deductibility": "1", "assets": 0, "income": 0, "revenue": 0}, {"ein": "261995974", "name": "MACHON LCHOSON MISHPAT INC", "city": "BROOKLYN", "state": "NY", "zip": "11210-4744", "ntee": "X30", "ruling": "201005", "deductibility": "1", "assets": 84415, "income": 785303, "revenue": 785303}, {"ein": "263667895", "name": "MACHON PIRCHEI ELIEZER INC", "city": "LAWRENCE", "state": "NY", "zip": "11559-1727", "ntee": "X30", "ruling": "201005", "deductibility": "1", "assets": 0, "income": 0, "revenue": 0}, {"ein": "270730504", "name": "MACHON BETH MEIR", "city": "INWOOD", "state": "NY", "zip": "11096-1012", "ntee": "T30", "ruling": "201004", "deductibility": "1", "assets": 157938, "income": 1160639, "revenue": 1160639}, {"ein": "311670106", "name": "CONGREGATION MACHON TIFERES BACHURIM", "city": "MONSEY", "state": "NY", "zip": "10952-2512", "ntee": "X30", "ruling": "199912", "deductibility": "1", "assets": 0, "income": 0, "revenue": 0}, {"ein": "311714723", "name": "MACHON MORESHES ASHKENAZ", "city": "YONKERS", "state": "NY", "zip": "10705-6203", "ntee": "X30", "ruling": "200007", "deductibility": "1", "assets": 107803, "income": 125131, "revenue": 125131}, {"ein": "331194559", "name": "MACHON MASHE ROCKEACH INC", "city": "BROOKLYN", "state": "NY", "zip": "11219-3249", "ntee": "A33", "ruling": "201004", "deductibility": "1", "assets": 2250696, "income": 8687756, "revenue": 8687756}, {"ein": "454599421", "name": "AMERICAN FRIENDS OF MACHON MAYIM CHAIM INC", "city": "AIRMONT", "state": "NY", "zip": "10952-4424", "ntee": "T22", "ruling": "202211", "deductibility": "1", "assets": 0, "income": 0, "revenue": 0}, {"ein": "465641531", "name": "MACHON HARAV SHACH INC", "city": "BROOKLYN", "state": "NY", "zip": "11234-2619", "ntee": "X30", "ruling": "202110", "deductibility": "1", "assets": 4882999, "income": 737163, "revenue": 737163}, {"ein": "542145585", "name": "CONGREGATION MACHON LKASHRUS", "city": "SPRING VALLEY", "state": "NY", "zip": "10977-1921", "ntee": "X21", "ruling": "200406", "deductibility": "1", "assets": 0, "income": 0, "revenue": 0}, {"ein": "611618610", "name": "MACHON BASYA ROCHEL INC", "city": "LAWRENCE", "state": "NY", "zip": "11559-1446", "ntee": "X30", "ruling": "201104", "deductibility": "1", "assets": 1501270, "income": 0, "revenue": 0}, {"ein": "743077712", "name": "MACHON SHALMEI SIMCHA INC", "city": "BROOKLYN", "state": "NY", "zip": "11230-4901", "ntee": "X30", "ruling": "200501", "deductibility": "1", "assets": 0, "income": 0, "revenue": 0}, {"ein": "822636867", "name": "MACHON SHIUREI RAV RAFAEL INC", "city": "FAR ROCKAWAY", "state": "NY", "zip": "11691-5151", "ntee": "X83", "ruling": "201709", "deductibility": "1", "assets": 0, "income": 0, "revenue": 0}, {"ein": "841736736", "name": "MACHON PEER YISROEL CORP", "city": "NEW CITY", "state": "NY", "zip": "10956-1900", "ntee": "K12", "ruling": "202001", "deductibility": "1", "assets": 55382, "income": 69664, "revenue": 69664}, {"ein": "863137021", "name": "MACHON BY CHARITABLE TRUST", "city": "BROOKLYN", "state": "NY", "zip": "11204-1049", "ntee": "T90", "ruling": "202205", "deductibility": "1", "assets": 4587158, "income": 54591, "revenue": 54591}, {"ein": "863152384", "name": "MACHON MAGGID HARAKIAH INC", "city": "CEDARHURST", "state": "NY", "zip": "11516-1035", "ntee": "X30", "ruling": "202205", "deductibility": "1", "assets": 0, "income": 0, "revenue": 0}, {"ein": "993003457", "name": "MACHON DOROT", "city": "BROOKLYN", "state": "NY", "zip": "11210-4616", "ntee": "X30", "ruling": "202405", "deductibility": "1", "assets": 0, "income": 0, "revenue": 0}], "DRABBI": [{"ein": "112734607", "name": "CONGREGATION TORAH VCHESED DRABBI HIYYA", "city": "BROOKLYN", "state": "NY", "zip": "11211-0000", "ntee": "", "ruling": "198509", "deductibility": "1", "assets": 0, "income": 0, "revenue": 0}], "ES": [{"ein": "112778293", "name": "CRISTO ES LA LUZ INCORPORATED", "city": "ELMHURST", "state": "NY", "zip": "11373-0000", "ntee": "", "ruling": "198608", "deductibility": "1", "assets": 0, "income": 0, "revenue": 0}, {"ein": "112968756", "name": "IGLESIA PENTECOSTAL JESUS ES LUZ", "city": "EAST MEADOW", "state": "NY", "zip": "11554-2436", "ntee": "", "ruling": "199304", "deductibility": "1", "assets": 2094221, "income": 598107, "revenue": 598107}, {"ein": "113206970", "name": "MISION CARISMATICA INTERNACIONAL CRISTO ES LA RESPUESTA INC", "city": "WOODSIDE", "state": "NY", "zip": "11377-4239", "ntee": "X21H", "ruling": "199512", "deductibility": "1", "assets": 0, "income": 0, "revenue": 0}, {"ein": "113468707", "name": "CRISTO ES TU SALVADOR-CHRIST IS YOUR SAVIOR INC", "city": "BROOKLYN", "state": "NY", "zip": "11208-1518", "ntee": "X200", "ruling": "199908", "deductibility": "1", "assets": 0, "income": 0, "revenue": 0}, {"ein": "113592081", "name": "CENTER FOR BEHAVORIAL HEALTH SERVIC ES INC", "city": "FAR ROCKAWAY", "state": "NY", "zip": "11691-4100", "ntee": "F30", "ruling": "200105", "deductibility": "1", "assets": 922098, "income": 1507766, "revenue": 1507766}, {"ein": "113617511", "name": "IGLESIA PENTECOSTAL DIOS ES AMOR MISION EVANGELICA CRISTIANA", "city": "BROOKLYN", "state": "NY", "zip": "11205-4808", "ntee": "X20", "ruling": "200210", "deductibility": "1", "assets": 0, "income": 0, "revenue": 0}, {"ein": "133649723", "name": "INGLESIA CRISTO ES LA RESPUESTA", "city": "NEW YORK", "state": "NY", "zip": "10035-4103", "ntee": "", "ruling": "199306", "deductibility": "1", "assets": 0, "income": 0, "revenue": 0}, {"ein": "263022536", "name": "IGLESIA EVANGELICA JESUCRISTO ES EL SENOR", "city": "BRONX", "state": "NY", "zip": "10457-1242", "ntee": "X21", "ruling": "200901", "deductibility": "1", "assets": 0, "income": 0, "revenue": 0}, {"ein": "331406665", "name": "MINISTERIOS JESUS ES LA PUERTA", "city": "NANUET", "state": "NY", "zip": "10954-2331", "ntee": "X20", "ruling": "202506", "deductibility": "1", "assets": 0, "income": 0, "revenue": 0}, {"ein": "471091399", "name": "RADIO LA GLORIA ES DE DIOS", "city": "BROOKLYN", "state": "NY", "zip": "11220-1117", "ntee": "X84", "ruling": "201505", "deductibility": "1", "assets": 0, "income": 0, "revenue": 0}, {"ein": "471631425", "name": "IGLESIA JESUCRISTO ES NUESTRO REY JESUS CHRIST IS OUR KING CHURCH IN", "city": "MANORVILLE", "state": "NY", "zip": "11949-0017", "ntee": "X20", "ruling": "201502", "deductibility": "1", "assets": 0, "income": 0, "revenue": 0}, {"ein": "471713837", "name": "AMERICAN FRIENDS OF POSAY-ACH ES YO DECHO INC", "city": "MONROE", "state": "NY", "zip": "10950-5413", "ntee": "Q33", "ruling": "201804", "deductibility": "1", "assets": 455, "income": 87549, "revenue": 87549}, {"ein": "611801297", "name": "IGLESIA PENTECOSTAL CRISTO ES LA ROCA INC", "city": "BRENTWOOD", "state": "NY", "zip": "11717-2627", "ntee": "X20", "ruling": "201912", "deductibility": "1", "assets": 958537, "income": 171582, "revenue": 171582}, {"ein": "810651422", "name": "COM IT ES DI NEW YORK E CONNECTICUT INC", "city": "BROOKLYN", "state": "NY", "zip": "11214-3735", "ntee": "A23", "ruling": "202404", "deductibility": "1", "assets": 0, "income": 0, "revenue": 0}, {"ein": "810859603", "name": "CASA DE ADORACION ORACION Y RESTAURACION JESUCRISTO ES EL SENO", "city": "NEW YORK", "state": "NY", "zip": "10039-1314", "ntee": "X20", "ruling": "201605", "deductibility": "1", "assets": 15859, "income": 15859, "revenue": 15859}, {"ein": "813766492", "name": "IGLESIA CRISTIANA JESUS ES EL SENOR INC", "city": "BROOKLYN", "state": "NY", "zip": "11221-3740", "ntee": "X20", "ruling": "201909", "deductibility": "1", "assets": 0, "income": 0, "revenue": 0}, {"ein": "814762455", "name": "IGLESIA CRISTIANA DIOS ES FIEL INC", "city": "BRONX", "state": "NY", "zip": "10460-1314", "ntee": "X20", "ruling": "201711", "deductibility": "1", "assets": 0, "income": 0, "revenue": 0}, {"ein": "820615542", "name": "IGLESIA PENTECOSTAL JESUCRISTO ES EL SENOR", "city": "BRONX", "state": "NY", "zip": "10452-3636", "ntee": "X20", "ruling": "201707", "deductibility": "1", "assets": 276092, "income": 82521, "revenue": 82521}, {"ein": "825015660", "name": "IGLESIA EVANGELICA JESUCRISTO ES LA PENA DE HOREB", "city": "RIVERHEAD", "state": "NY", "zip": "11901-2843", "ntee": "X21", "ruling": "202203", "deductibility": "1", "assets": 0, "income": 0, "revenue": 0}, {"ein": "830402581", "name": "IGLESIA PENTECOSTAL JESUS ES REFUGIO Y SALVACION INC", "city": "WESTBURY", "state": "NY", "zip": "11590-3239", "ntee": "X20", "ruling": "202503", "deductibility": "1", "assets": 0, "income": 0, "revenue": 0}, {"ein": "830884190", "name": "IGLESIA PENTECOSTAL TIEMPO DE AVIVAMIENTO JESUS ES LUZ INC", "city": "PRT WASHINGTN", "state": "NY", "zip": "11050-7108", "ntee": "X20", "ruling": "202209", "deductibility": "1", "assets": 465458, "income": 229818, "revenue": 229818}, {"ein": "833677424", "name": "LONG ISLAND ES DE CRISTO", "city": "ROOSEVELT", "state": "NY", "zip": "11575-1510", "ntee": "X20", "ruling": "202007", "deductibility": "1", "assets": 0, "income": 0, "revenue": 0}, {"ein": "871510054", "name": "IGLESIA CRISTIANA DE JEHOVA ES LA MISERICORDIA", "city": "SCHENECTADY", "state": "NY", "zip": "12303-1341", "ntee": "X20", "ruling": "202312", "deductibility": "1", "assets": 0, "income": 0, "revenue": 0}, {"ein": "873828219", "name": "QUISQUEYA ES MODA INC", "city": "NEW YORK", "state": "NY", "zip": "10031-6709", "ntee": "A20", "ruling": "202404", "deductibility": "1", "assets": 0, "income": 0, "revenue": 0}, {"ein": "880981591", "name": "IGLESIA PENTECOSTAL JESUS ES EL CAMINO A LA VIDA ETERNA INC", "city": "HUNTINGTN STA", "state": "NY", "zip": "11746-3120", "ntee": "X99", "ruling": "202404", "deductibility": "1", "assets": 0, "income": 0, "revenue": 0}, {"ein": "932106681", "name": "IGLESIA DE CRISTO JEHOVA JIREH DIOS ES AMOR MINISTERIOS EBENEZER INC", "city": "BRENTWOOD", "state": "NY", "zip": "11717-6910", "ntee": "X20", "ruling": "202405", "deductibility": "1", "assets": 0, "income": 0, "revenue": 0}], "BORGETTO": [{"ein": "112803536", "name": "BORGETTO CULTURAL ASSOC M S S ADDOLORATA DEL ROMITELLO INC", "city": "ASTORIA", "state": "NY", "zip": "11103-1264", "ntee": "", "ruling": "198707", "deductibility": "2", "assets": 229620, "income": 133835, "revenue": 103129}, {"ein": "830800879", "name": "BORGETTO CULTURAL SCHOLARSHIP FUND", "city": "ASTORIA", "state": "NY", "zip": "11103-1264", "ntee": "B82", "ruling": "201809", "deductibility": "1", "assets": 0, "income": 0, "revenue": 0}, {"ein": "842404482", "name": "BORGETTO FC INC", "city": "WHITESTONE", "state": "NY", "zip": "11357-0000", "ntee": "A20", "ruling": "202212", "deductibility": "1", "assets": 872, "income": 24379, "revenue": 0}], "DEGREE": [{"ein": "112989633", "name": "GREAT COUNCIL OF NEW YORK DEGREE OF POCAHONTAS", "city": "ROCHESTER", "state": "NY", "zip": "14622-1358", "ntee": "", "ruling": "197911", "deductibility": "1", "assets": 0, "income": 0, "revenue": 0}, {"ein": "237547101", "name": "BISHOP CONROY ASSEMBLY NO 699 FOURTH DEGREE KNIGHTS OF COLUMBUS", "city": "CARTHAGE", "state": "NY", "zip": "13619-6068", "ntee": "Y40", "ruling": "202405", "deductibility": "1", "assets": 0, "income": 0, "revenue": 0}, {"ein": "273685578", "name": "KNIGHTS OF COLUMBUS LOCKPORT 4TH DEGREE ASSEMBLY 754", "city": "ORCHARD PARK", "state": "NY", "zip": "14127-3324", "ntee": "X03", "ruling": "201204", "deductibility": "1", "assets": 0, "income": 0, "revenue": 0}], "JUANITA": [{"ein": "113039025", "name": "JUANITA JAMES MEMORIAL SCHOLARSHIP FUND INC", "city": "NEW YORK", "state": "NY", "zip": "10128-1005", "ntee": "", "ruling": "199109", "deductibility": "1", "assets": 0, "income": 0, "revenue": 0}, {"ein": "116569310", "name": "EDWARD P AND JUANITA J HENSON FOUNDATION", "city": "GARDEN CITY", "state": "NY", "zip": "11530-1630", "ntee": "T30", "ruling": "200308", "deductibility": "1", "assets": 553383, "income": 82209, "revenue": 0}], "PROOF": [{"ein": "113039384", "name": "LIVING PROOF CHURCH OF GOD IN CHRIST INC", "city": "BAYSHORE", "state": "NY", "zip": "11706-6607", "ntee": "", "ruling": "196901", "deductibility": "1", "assets": 0, "income": 0, "revenue": 0}, {"ein": "450951026", "name": "LIVING PROOF INC", "city": "NEW YORK", "state": "NY", "zip": "10037-3810", "ntee": "B60", "ruling": "201507", "deductibility": "1", "assets": 0, "income": 0, "revenue": 0}, {"ein": "841860628", "name": "PROOF OF STAKE ALLIANCE", "city": "MINEOLA", "state": "NY", "zip": "11501-4410", "ntee": "U01", "ruling": "201910", "deductibility": "2", "assets": 255217, "income": 1004790, "revenue": 1004790}], "ABRAAM": [{"ein": "113090640", "name": "ST GEORGE AND ST ABRAAM COPTIC RELIEF ORGANIZATION", "city": "ALBERTSON", "state": "NY", "zip": "11507-1505", "ntee": "Q123", "ruling": "199210", "deductibility": "1", "assets": 1509279, "income": 867633, "revenue": 867633}, {"ein": "990730974", "name": "ST ABRAAM COPTIC COMMUNITY CENTER CORP", "city": "STATEN ISLAND", "state": "NY", "zip": "10308-2425", "ntee": "L21", "ruling": "202412", "deductibility": "1", "assets": 0, "income": 0, "revenue": 0}], "HAQ": [{"ein": "113168340", "name": "SAUT-UL-HAQ CENTER INC", "city": "BROOKLYN", "state": "NY", "zip": "11218-4334", "ntee": "X99Z", "ruling": "199503", "deductibility": "1", "assets": 0, "income": 0, "revenue": 0}, {"ein": "843242511", "name": "INAM & FAKHRA HAQ FAMILY FOUNDATION INC", "city": "STATEN ISLAND", "state": "NY", "zip": "10308-2814", "ntee": "T20", "ruling": "202007", "deductibility": "1", "assets": 1371057, "income": 120930, "revenue": 0}], "CONCILIO": [{"ein": "113179500", "name": "CONCILIO PENTECOSTAL EBENEZER INC", "city": "NEW YORK", "state": "NY", "zip": "10001-0000", "ntee": "X99", "ruling": "199906", "deductibility": "1", "assets": 0, "income": 0, "revenue": 0}, {"ein": "133179349", "name": "CONCILIO DE IGLESIAS DE CRISTO MISIONERA INC MI", "city": "BRONX", "state": "NY", "zip": "10461-4609", "ntee": "", "ruling": "198510", "deductibility": "1", "assets": 0, "income": 0, "revenue": 0}, {"ein": "133408297", "name": "CONCILIO ESTRELLA DE JACOB INC", "city": "BRONX", "state": "NY", "zip": "10468-6501", "ntee": "X20Z", "ruling": "199511", "deductibility": "1", "assets": 0, "income": 0, "revenue": 0}, {"ein": "208459127", "name": "CONCILIO DE IGLESIAS PENTECOSTALESUNIDAS BETHEL", "city": "ELMHURST", "state": "NY", "zip": "11373-4055", "ntee": "X20", "ruling": "201202", "deductibility": "1", "assets": 0, "income": 0, "revenue": 0}, {"ein": "223304375", "name": "CONCILIO DE IGLESIAS MANA EN EL DESIERTO", "city": "CATSKILL", "state": "NY", "zip": "12414-1445", "ntee": "", "ruling": "199408", "deductibility": "1", "assets": 0, "income": 0, "revenue": 0}, {"ein": "232367086", "name": "CONCILIO DE IGLESIAS PENTECOSTALES VISION PARA HOY INC", "city": "BRONX", "state": "NY", "zip": "10456-6505", "ntee": "", "ruling": "199403", "deductibility": "1", "assets": 0, "income": 0, "revenue": 0}, {"ein": "352666774", "name": "CONCILIO EVANGELICO PENTECOSTES LEON DE JUDA INC", "city": "BROOKLYN", "state": "NY", "zip": "11204-5266", "ntee": "X99", "ruling": "202505", "deductibility": "1", "assets": 0, "income": 0, "revenue": 0}, {"ein": "452498047", "name": "CONCILIO BETEL DE IGLESIAS INDEPENDIENTES PENTECOSTALES INC", "city": "BUFFALO", "state": "NY", "zip": "14213-2619", "ntee": "X20", "ruling": "201209", "deductibility": "1", "assets": 0, "income": 0, "revenue": 0}, {"ein": "453198761", "name": "CONCILIO INTERNACIONAL DE IGLESIAS JESUS EL CAMINO", "city": "WOODHAVEN", "state": "NY", "zip": "11421-1912", "ntee": "X20", "ruling": "201211", "deductibility": "1", "assets": 0, "income": 0, "revenue": 0}, {"ein": "453198786", "name": "CONCILIO INTERNACIONAL DE IGLESIAS PENTECOSTALES FUENTE DE PAZ", "city": "FAR ROCKAWAY", "state": "NY", "zip": "11691-3812", "ntee": "X21", "ruling": "201208", "deductibility": "1", "assets": 0, "income": 0, "revenue": 0}, {"ein": "464573802", "name": "CONCILIO INTERNACIONAL HACIENDO DISCIPULOS", "city": "JAMAICA", "state": "NY", "zip": "11436-1115", "ntee": "X99", "ruling": "201509", "deductibility": "1", "assets": 85176, "income": 42047, "revenue": 42047}, {"ein": "464995380", "name": "CONCILIO DE IGLESIAS LUZ Y ESPERANZA INTERNACIONAL", "city": "GLENDALE", "state": "NY", "zip": "11385-6662", "ntee": "X21", "ruling": "201408", "deductibility": "1", "assets": 0, "income": 0, "revenue": 0}, {"ein": "465069391", "name": "CONCILIO INTERNACIONAL CIUDAD DE REFUGIO", "city": "BRONX", "state": "NY", "zip": "10456-3867", "ntee": "X20", "ruling": "201504", "deductibility": "1", "assets": 0, "income": 0, "revenue": 0}, {"ein": "571208397", "name": "CONCILIO DE IGLESIA PENTECOSTAL UY", "city": "RENSSELAER", "state": "NY", "zip": "12144-1822", "ntee": "X20", "ruling": "201308", "deductibility": "1", "assets": 0, "income": 0, "revenue": 0}, {"ein": "812777232", "name": "CONCILIO EVANGELICO LA SALVACION INC", "city": "BRONX", "state": "NY", "zip": "10472-3019", "ntee": "X20", "ruling": "201611", "deductibility": "1", "assets": 0, "income": 0, "revenue": 0}, {"ein": "861218413", "name": "CONCILIO DE IGLESIAS EVANGELISTICAS LA UNCION TRANSFORMADORA INC", "city": "YONKERS", "state": "NY", "zip": "10701-5620", "ntee": "X20", "ruling": "202112", "deductibility": "1", "assets": 0, "income": 0, "revenue": 0}, {"ein": "862001883", "name": "CONCILIO INTERNACIONAL JOYAS DE ISRAEL INC", "city": "BRONX", "state": "NY", "zip": "10459-2945", "ntee": "X20", "ruling": "202206", "deductibility": "1", "assets": 0, "income": 0, "revenue": 0}, {"ein": "873150802", "name": "CONCILIO EVANGELICO PENTECOSTAL ARCA DE SALVACION INC", "city": "BROOKLYN", "state": "NY", "zip": "11208-1726", "ntee": "X21", "ruling": "202206", "deductibility": "1", "assets": 0, "income": 0, "revenue": 0}, {"ein": "884098249", "name": "CONCILIO PENTECOSTAL LA SENDA ANTIGUA INC", "city": "BRONX", "state": "NY", "zip": "10455-1401", "ntee": "X20", "ruling": "202303", "deductibility": "1", "assets": 0, "income": 0, "revenue": 0}, {"ein": "911979032", "name": "CONCILIO DE IGLESIAS DE CRISTO MISIONERA INC", "city": "ROCHESTER", "state": "NY", "zip": "14605-2224", "ntee": "", "ruling": "198510", "deductibility": "1", "assets": 0, "income": 0, "revenue": 0}, {"ein": "923728094", "name": "CONCILIO INTERNACIONAL PENTECOSTAL EL REY YA VIENE INC", "city": "NEW YORK", "state": "NY", "zip": "10032-2401", "ntee": "X99", "ruling": "202404", "deductibility": "1", "assets": 0, "income": 0, "revenue": 0}, {"ein": "933305228", "name": "CONCILIO DE IGLESIA CRISTIANA MI FAMILIA INC", "city": "NEW YORK", "state": "NY", "zip": "10037-1302", "ntee": "X20", "ruling": "202408", "deductibility": "1", "assets": 0, "income": 0, "revenue": 0}, {"ein": "991058258", "name": "CONCILIO DE IGLESIAS CRISTIANAS JESUCRISTO RESTAURA INC", "city": "NEW YORK", "state": "NY", "zip": "10040-1159", "ntee": "X20", "ruling": "202404", "deductibility": "1", "assets": 0, "income": 0, "revenue": 0}], "CHESLER": [{"ein": "113259920", "name": "PHYLLIS CHESLER ORGANIZATION INC", "city": "NEW YORK", "state": "NY", "zip": "10128-0374", "ntee": "A33Z", "ruling": "199612", "deductibility": "1", "assets": 2347, "income": 79528, "revenue": 79528}], "BOYOM": [{"ein": "113263311", "name": "CONGREGATION OHOLEY YAKOV OF BOYOM INC", "city": "BROOKLYN", "state": "NY", "zip": "11204-1421", "ntee": "X20Z", "ruling": "199707", "deductibility": "1", "assets": 0, "income": 0, "revenue": 0}], "HISCHADES": [{"ein": "113271096", "name": "HISCHADES AVREICHIM OF VIEN INC", "city": "BROOKLYN", "state": "NY", "zip": "11219-3502", "ntee": "X99Z", "ruling": "199707", "deductibility": "1", "assets": 0, "income": 0, "revenue": 0}], "MEGARIAN": [{"ein": "113326589", "name": "PAN-MEGARIAN SOCIETY OF AMERICA BYZAS INC", "city": "BROOKLYN", "state": "NY", "zip": "11214-5328", "ntee": "A99", "ruling": "199609", "deductibility": "1", "assets": 68312, "income": 13949, "revenue": 12727}], "MODERATES": [{"ein": "113367067", "name": "GLOBAL MODERATES FORUM INC", "city": "NEW YORK", "state": "NY", "zip": "10005-2205", "ntee": "R99", "ruling": "202306", "deductibility": "1", "assets": 0, "income": 0, "revenue": 0}], "HERSTORY": [{"ein": "113377741", "name": "HERSTORY WRITERS WORKSHOP INC", "city": "CENTEREACH", "state": "NY", "zip": "11720-3597", "ntee": "A70", "ruling": "199708", "deductibility": "1", "assets": 217792, "income": 592126, "revenue": 592126}, {"ein": "132991538", "name": "LESBIAN HERSTORY EDUCATIONAL FOUNDATION INC", "city": "BROOKLYN", "state": "NY", "zip": "11215-5702", "ntee": "R26Z", "ruling": "198002", "deductibility": "1", "assets": 1188785, "income": 302399, "revenue": 302399}, {"ein": "331621648", "name": "CHOLPORI HERSTORY FOUNDATION USA", "city": "BROOKLYN", "state": "NY", "zip": "11201-1054", "ntee": "Q33", "ruling": "202411", "deductibility": "1", "assets": 0, "income": 0, "revenue": 0}], "MACHNIFKA": [{"ein": "113394228", "name": "LOMDEI TORAH DCHASIDI BELZ MACHNIFKA", "city": "BROOKLYN", "state": "NY", "zip": "11211-7311", "ntee": "X30Z", "ruling": "199712", "deductibility": "1", "assets": 0, "income": 0, "revenue": 0}], "GEDOLEH": [{"ein": "113437213", "name": "YESHIVA GEDOLEH OHR YISROEL", "city": "BROOKLYN", "state": "NY", "zip": "11236-5141", "ntee": "X30Z", "ruling": "199809", "deductibility": "1", "assets": 0, "income": 0, "revenue": 0}], "OJO": [{"ein": "113458694", "name": "YINKA AND DEOLA OJO MINISTRIES", "city": "BROOKLYN", "state": "NY", "zip": "11210-4426", "ntee": "X20", "ruling": "199906", "deductibility": "1", "assets": 0, "income": 0, "revenue": 0}, {"ein": "833168129", "name": "DR & DR MRS ADESANMI OJO FOUNDATION", "city": "STATEN ISLAND", "state": "NY", "zip": "10301-3536", "ntee": "X20", "ruling": "201903", "deductibility": "1", "assets": 0, "income": 0, "revenue": 0}], "ZMIGROD": [{"ein": "113505915", "name": "CONGREGATION GMACH DIVREI CHAIM ZMIGROD", "city": "BROOKLYN", "state": "NY", "zip": "11219-1300", "ntee": "X30", "ruling": "199911", "deductibility": "1", "assets": 0, "income": 0, "revenue": 0}], "HUOLOM": [{"ein": "113533071", "name": "SADER HUOLOM", "city": "BROOKLYN", "state": "NY", "zip": "11211-6818", "ntee": "X30", "ruling": "200004", "deductibility": "1", "assets": 0, "income": 0, "revenue": 0}], "TILONIA": [{"ein": "113569536", "name": "FRIENDS OF TILONIA INC", "city": "BROOKLYN", "state": "NY", "zip": "11217-3600", "ntee": "Q32", "ruling": "200312", "deductibility": "1", "assets": 199445, "income": 383598, "revenue": 187910}], "SONTAG": [{"ein": "113580136", "name": "SONTAG FAMILY FOUNDATION", "city": "PORT WASHINGTON", "state": "NY", "zip": "11050-0000", "ntee": "T23", "ruling": "200311", "deductibility": "1", "assets": 32531, "income": 119502, "revenue": 0}, {"ein": "208834456", "name": "SUSAN SONTAG FOUNDATION", "city": "NEW YORK", "state": "NY", "zip": "10013-3444", "ntee": "B82", "ruling": "201601", "deductibility": "1", "assets": 0, "income": 0, "revenue": 0}], "DIPAMKARA": [{"ein": "113591211", "name": "DIPAMKARA MEDITATION CENTER INC", "city": "HUNTINGTON", "state": "NY", "zip": "11743-3562", "ntee": "X50", "ruling": "200509", "deductibility": "1", "assets": 0, "income": 0, "revenue": 0}], "PALLI": [{"ein": "113773000", "name": "DAKSHINA PALLI", "city": "NEW YORK", "state": "NY", "zip": "10026-3146", "ntee": "A62", "ruling": "200605", "deductibility": "1", "assets": 0, "income": 0, "revenue": 0}], "LIBBY": [{"ein": "116579799", "name": "HERTZ AND LIBBY HASENFELD CHARITABLE FOUNDATION TR", "city": "BROOKLYN", "state": "NY", "zip": "11219-4228", "ntee": "T22", "ruling": "200305", "deductibility": "1", "assets": 181733, "income": 494413, "revenue": 0}, {"ein": "136127142", "name": "SIDNEY A & LIBBY FINE FOUNDATION INC", "city": "CHAPPAQUA", "state": "NY", "zip": "10514-1617", "ntee": "", "ruling": "195811", "deductibility": "1", "assets": 5687, "income": 9286, "revenue": 0}], "NURSEY": [{"ein": "131820194", "name": "TARRYTOWN NURSEY SCHOOL", "city": "TARRYTOWN", "state": "NY", "zip": "10591-0000", "ntee": "B21Z", "ruling": "198311", "deductibility": "1", "assets": 462375, "income": 681906, "revenue": 681906}, {"ein": "141511512", "name": "HIGHLAND VILLAGE NURSEY SCHOOL", "city": "HIGHLAND", "state": "NY", "zip": "12528-0713", "ntee": "", "ruling": "197006", "deductibility": "1", "assets": 30765, "income": 71112, "revenue": 71112}, {"ein": "900129826", "name": "FIRST PRESBYTERIAN CHURCH NURSEY SCHOOL", "city": "NEW YORK", "state": "NY", "zip": "10011-8604", "ntee": "", "ruling": "196401", "deductibility": "1", "assets": 0, "income": 0, "revenue": 0}], "AKIBA": [{"ein": "132646185", "name": "SALANTER AKIBA RIVERDALE ACADEMY", "city": "RIVERDALE", "state": "NY", "zip": "10471-1247", "ntee": "B20", "ruling": "197203", "deductibility": "1", "assets": 0, "income": 0, "revenue": 0}], "SEARCH": [{"ein": "132776149", "name": "ASSOCIATION OF EXECUTIVE SEARCH CONSULTANTS INC", "city": "NEW YORK", "state": "NY", "zip": "10017-5455", "ntee": "", "ruling": "196703", "deductibility": "2", "assets": 1699528, "income": 6742153, "revenue": 4816289}, {"ein": "132893548", "name": "SEARCH FOR CHANGE INC", "city": "VALHALLA", "state": "NY", "zip": "10595-1366", "ntee": "P73Z", "ruling": "197608", "deductibility": "1", "assets": 14974133, "income": 11413821, "revenue": 11413821}, {"ein": "133032461", "name": "SEARCH FOR CHANGE COMMUNITY RESIDENCE CO I INC", "city": "VALHALLA", "state": "NY", "zip": "10595-1359", "ntee": "F33Z", "ruling": "198209", "deductibility": "1", "assets": 1047943, "income": 180316, "revenue": 168070}, {"ein": "133117119", "name": "SEARCH FOR CHANGE COMUNITY RESIDENCE CO III INC", "city": "VALHALLA", "state": "NY", "zip": "10595-1359", "ntee": "F33Z", "ruling": "198207", "deductibility": "1", "assets": 246683, "income": 10271, "revenue": 10271}, {"ein": "133168078", "name": "SEARCH FOR CHANGE COMMUNITY RESIDENCE COMPANY II INC", "city": "VALHALLA", "state": "NY", "zip": "10595-1359", "ntee": "F34Z", "ruling": "198310", "deductibility": "1", "assets": 2248904, "income": 278636, "revenue": 278636}, {"ein": "141597992", "name": "RENSSELAER COUNTY SEARCH AND RESCUE INC", "city": "E GREENBUSH", "state": "NY", "zip": "12061-0149", "ntee": "M230", "ruling": "198702", "deductibility": "1", "assets": 0, "income": 0, "revenue": 0}, {"ein": "141639743", "name": "DEER SEARCH INCORPORATED", "city": "PLEASANT VLY", "state": "NY", "zip": "12569-0853", "ntee": "", "ruling": "198907", "deductibility": "1", "assets": 0, "income": 0, "revenue": 0}, {"ein": "141759407", "name": "NORTHEAST MOBILE SEARCH & RESCUE INC", "city": "BURNT HILLS", "state": "NY", "zip": "12027-0123", "ntee": "M230", "ruling": "199310", "deductibility": "1", "assets": 0, "income": 0, "revenue": 0}, {"ein": "141777604", "name": "NEW YORK STATE FEDERATION OF SEARCH AND RESCUE TEAMS INC", "city": "SYRACUSE", "state": "NY", "zip": "13206-2840", "ntee": "E62Z", "ruling": "199511", "deductibility": "1", "assets": 0, "income": 0, "revenue": 0}, {"ein": "141794993", "name": "SEARCH AND RESCUE OF THE NORTHERN ADIRONDACKS INC", "city": "SARANAC LAKE", "state": "NY", "zip": "12983-7116", "ntee": "M23", "ruling": "199610", "deductibility": "1", "assets": 0, "income": 0, "revenue": 0}, {"ein": "141830611", "name": "SEARCH TEAM 5-1 INC", "city": "JOHNSTOWN", "state": "NY", "zip": "12095-0382", "ntee": "M23", "ruling": "200107", "deductibility": "1", "assets": 0, "income": 0, "revenue": 0}, {"ein": "161404791", "name": "WILDERNESS SEARCH AND RESCUE TEAM INC", "city": "SYRACUSE", "state": "NY", "zip": "13220-5543", "ntee": "M23", "ruling": "199804", "deductibility": "1", "assets": 0, "income": 0, "revenue": 0}, {"ein": "161440245", "name": "AMIGO SEARCH AND RESCUE DOGS INC", "city": "VESTAL", "state": "NY", "zip": "13850-2397", "ntee": "D20", "ruling": "200810", "deductibility": "1", "assets": 0, "income": 0, "revenue": 0}, {"ein": "161473274", "name": "WESTERN NEW YORK SEARCH DOGS INC", "city": "SPRINGWATER", "state": "NY", "zip": "14560-9627", "ntee": "E63Z", "ruling": "199509", "deductibility": "1", "assets": 0, "income": 0, "revenue": 0}, {"ein": "161562933", "name": "CAYUGA COUNTY HIGHLAND SEARCH AND RESCUE INCORPORATED", "city": "AUBURN", "state": "NY", "zip": "13021-1043", "ntee": "M23", "ruling": "199904", "deductibility": "1", "assets": 0, "income": 0, "revenue": 0}, {"ein": "161564437", "name": "OSWEGO COUNTY PIONEER SEARCH AND RESCUE TEAM INC", "city": "PARISH", "state": "NY", "zip": "13131-0229", "ntee": "M23", "ruling": "200701", "deductibility": "1", "assets": 0, "income": 0, "revenue": 0}, {"ein": "201985904", "name": "TRI STATE SEARCH & RESCUE CORP", "city": "BROOKLYN", "state": "NY", "zip": "11249-0000", "ntee": "M41", "ruling": "200601", "deductibility": "1", "assets": 0, "income": 0, "revenue": 0}, {"ein": "205908611", "name": "EAGLE VALLEY SEARCH RESCUE ANDRECOVERY TEAM INC", "city": "HIGH FALLS", "state": "NY", "zip": "12440-5437", "ntee": "M23", "ruling": "200705", "deductibility": "1", "assets": 48483, "income": 23592, "revenue": 23592}, {"ein": "223174687", "name": "LOWER ADIRONDACK SEARCH AND RESCUE INC", "city": "BALLSTON SPA", "state": "NY", "zip": "12020-6027", "ntee": "M23Z", "ruling": "199208", "deductibility": "1", "assets": 0, "income": 0, "revenue": 0}, {"ein": "223966192", "name": "NIAGARA FRONTIER SEARCH AND RESCUE TEAM INC", "city": "N TONAWANDA", "state": "NY", "zip": "14120-1502", "ntee": "M23", "ruling": "200907", "deductibility": "1", "assets": 0, "income": 0, "revenue": 0}, {"ein": "237320528", "name": "LEWIS COUNTY SEARCH AND RESCUE INC", "city": "LOWVILLE", "state": "NY", "zip": "13367-0247", "ntee": "", "ruling": "198508", "deductibility": "2", "assets": 2377403, "income": 2120970, "revenue": 2120826}, {"ein": "237444790", "name": "SEARCH AND CARE INC", "city": "NEW YORK", "state": "NY", "zip": "10128-3705", "ntee": "P81Z", "ruling": "197504", "deductibility": "1", "assets": 7136621, "income": 2290969, "revenue": 2045331}, {"ein": "264426470", "name": "SEARCH OF LIFE CHURCH OF GOD INC", "city": "MOUNT VERNON", "state": "NY", "zip": "10550-8512", "ntee": "X21", "ruling": "201411", "deductibility": "1", "assets": 0, "income": 0, "revenue": 0}, {"ein": "270063263", "name": "CENTRAL ADIRONDACK SEARCH AND RESCUE TEAM INC", "city": "CLINTON", "state": "NY", "zip": "13323-0000", "ntee": "M23", "ruling": "200401", "deductibility": "1", "assets": 0, "income": 0, "revenue": 0}, {"ein": "270573340", "name": "SEARCH AND RESTORE", "city": "BROOKLYN", "state": "NY", "zip": "11201-7161", "ntee": "P20", "ruling": "200911", "deductibility": "1", "assets": 0, "income": 0, "revenue": 0}, {"ein": "273435962", "name": "UNITED SEARCH AND RESCUE INC", "city": "BROOKLYN", "state": "NY", "zip": "11204-2933", "ntee": "M23", "ruling": "201101", "deductibility": "1", "assets": 0, "income": 0, "revenue": 0}, {"ein": "331270817", "name": "DEER SEARCH CNY INC", "city": "LIVERPOOL", "state": "NY", "zip": "13088-5938", "ntee": "D20", "ruling": "202410", "deductibility": "1", "assets": 0, "income": 0, "revenue": 0}, {"ein": "371607323", "name": "DEER SEARCH OF WNY INCORPORATED", "city": "LANCASTER", "state": "NY", "zip": "14086-0251", "ntee": "W99", "ruling": "201405", "deductibility": "1", "assets": 0, "income": 0, "revenue": 0}, {"ein": "453029330", "name": "HUDSON-MOHAWK SEARCH AND RESCUE INC", "city": "WATERFORD", "state": "NY", "zip": "12188-1216", "ntee": "M23", "ruling": "201201", "deductibility": "1", "assets": 0, "income": 0, "revenue": 0}, {"ein": "453735770", "name": "ULTIMATE SEARCH INITIATIVE INC", "city": "WILLOW", "state": "NY", "zip": "12495-5110", "ntee": "U30", "ruling": "201212", "deductibility": "1", "assets": 0, "income": 0, "revenue": 0}, {"ein": "460851824", "name": "SAMS POINT SEARCH AND RESCUE INC", "city": "CRAGSMOOR", "state": "NY", "zip": "12420-0463", "ntee": "M23", "ruling": "201308", "deductibility": "1", "assets": 0, "income": 0, "revenue": 0}, {"ein": "471306470", "name": "COMMUNITY SEARCH AND RESCUE INC", "city": "MONTEBELLO", "state": "NY", "zip": "10901-8117", "ntee": "W99", "ruling": "202005", "deductibility": "1", "assets": 0, "income": 0, "revenue": 0}, {"ein": "510137509", "name": "MASSASAUGA SEARCH & RESCUE TEAM", "city": "ROCHESTER", "state": "NY", "zip": "14624-0751", "ntee": "M23", "ruling": "200009", "deductibility": "1", "assets": 0, "income": 0, "revenue": 0}, {"ein": "550840853", "name": "LIVINGSTON COUNTY SEARCH AND RESCUE TEAM INC", "city": "GROVELAND", "state": "NY", "zip": "14462-9551", "ntee": "M23", "ruling": "200406", "deductibility": "1", "assets": 0, "income": 0, "revenue": 0}, {"ein": "770609705", "name": "THE INNER SEARCH NOT-FOR-PROFIT FOUNDATION", "city": "BROOKLYN", "state": "NY", "zip": "11218-1110", "ntee": "X20", "ruling": "200410", "deductibility": "1", "assets": 0, "income": 0, "revenue": 0}, {"ein": "814933298", "name": "SEARCH AND RESCUE RESPONSE TEAM INC", "city": "CATSKILL", "state": "NY", "zip": "12414-5506", "ntee": "M23", "ruling": "201701", "deductibility": "1", "assets": 0, "income": 0, "revenue": 0}, {"ein": "825255373", "name": "SISTERS - SISTERS IN SEARCH TOWARDS EXERCISE RUBRIC & STABILITY", "city": "JAMAICA", "state": "NY", "zip": "11432-1820", "ntee": "P99", "ruling": "201805", "deductibility": "1", "assets": 0, "income": 0, "revenue": 0}, {"ein": "844749307", "name": "ODINS ANGELS SEARCH RESCUE AND RECOVERY GROUP INC", "city": "EDEN", "state": "NY", "zip": "14057-9787", "ntee": "D99", "ruling": "202004", "deductibility": "1", "assets": 0, "income": 0, "revenue": 0}, {"ein": "852650776", "name": "IN SEARCH OF ROOT FOUNDATION INC", "city": "ELMHURST", "state": "NY", "zip": "11373-1149", "ntee": "S99", "ruling": "202412", "deductibility": "1", "assets": 0, "income": 0, "revenue": 0}, {"ein": "853281541", "name": "ELSEE S SEARCH & RESCUE FOUNDATION", "city": "NAPLES", "state": "NY", "zip": "14512-9102", "ntee": "D20", "ruling": "202102", "deductibility": "1", "assets": 0, "income": 0, "revenue": 0}, {"ein": "862274531", "name": "LI LOST DOG SEARCH AND RESCUE INC", "city": "MASSAPEQUA", "state": "NY", "zip": "11758-2025", "ntee": "D20", "ruling": "202107", "deductibility": "1", "assets": 0, "income": 0, "revenue": 0}, {"ein": "872536340", "name": "KIDNEY SEARCH FOUNDATION INC", "city": "HUNTINGTN STA", "state": "NY", "zip": "11746-2638", "ntee": "G40", "ruling": "202201", "deductibility": "1", "assets": 1325, "income": 5873, "revenue": 5873}, {"ein": "874339071", "name": "MATZIL SEARCH AND RESCUE INC", "city": "AIRMONT", "state": "NY", "zip": "10901-7533", "ntee": "M23", "ruling": "202202", "deductibility": "1", "assets": 5976, "income": 109462, "revenue": 109462}, {"ein": "993692146", "name": "SUNLIGHT SEARCH INC", "city": "NEW YORK", "state": "NY", "zip": "10011-8856", "ntee": "W99", "ruling": "202408", "deductibility": "1", "assets": 0, "income": 0, "revenue": 0}, {"ein": "994691287", "name": "ISAR THE ISRAELI SEARCH AND RESCUE TEAM INC", "city": "BROOKLYN", "state": "NY", "zip": "11225-1605", "ntee": "M23", "ruling": "202410", "deductibility": "1", "assets": 0, "income": 0, "revenue": 0}], "KARDAMYLIANS": [{"ein": "132932563", "name": "METROPOLITIAN SOCIETY OF KARDAMYLIANS INC", "city": "BROOKLYN", "state": "NY", "zip": "11209-3658", "ntee": "", "ruling": "197805", "deductibility": "2", "assets": 104716, "income": 77410, "revenue": 77410}], "PUNTO": [{"ein": "133020607", "name": "PUNTO DE CONTACTO", "city": "SYRACUSE", "state": "NY", "zip": "13202-1543", "ntee": "", "ruling": "198106", "deductibility": "1", "assets": 0, "income": 0, "revenue": 0}], "OFMONSEY": [{"ein": "133045217", "name": "CONGREGATION SANZ KLAUSENBORG OFMONSEY INC", "city": "MONSEY", "state": "NY", "zip": "10952-3011", "ntee": "X30", "ruling": "202205", "deductibility": "1", "assets": 0, "income": 0, "revenue": 0}, {"ein": "204984751", "name": "CONGREGATION CHASIDEI BOBOV OFMONSEY", "city": "MONSEY", "state": "NY", "zip": "10952-2619", "ntee": "X30", "ruling": "200801", "deductibility": "1", "assets": 0, "income": 0, "revenue": 0}, {"ein": "205235607", "name": "CONGREGATION BOBOVER YESHIVA OFMONSEY", "city": "MONSEY", "state": "NY", "zip": "10952-1731", "ntee": "X30", "ruling": "201801", "deductibility": "1", "assets": 0, "income": 0, "revenue": 0}], "DOROT": [{"ein": "133264005", "name": "DOROT INC", "city": "NEW YORK", "state": "NY", "zip": "10024-4400", "ntee": "P81Z", "ruling": "198808", "deductibility": "1", "assets": 31488586, "income": 25890632, "revenue": 13489864}, {"ein": "993003457", "name": "MACHON DOROT", "city": "BROOKLYN", "state": "NY", "zip": "11210-4616", "ntee": "X30", "ruling": "202405", "deductibility": "1", "assets": 0, "income": 0, "revenue": 0}], "LISHMAH": [{"ein": "133323392", "name": "TORAH LISHMAH INSTITUTE INC", "city": "YONKERS", "state": "NY", "zip": "10705-3622", "ntee": "A33Z", "ruling": "198607", "deductibility": "1", "assets": 1943475, "income": 449227, "revenue": 109422}], "COMMUNTIES": [{"ein": "133388782", "name": "DEPAUL ADULT CARE COMMUNTIES INC", "city": "ROCHESTER", "state": "NY", "zip": "14624-1535", "ntee": "E99", "ruling": "199508", "deductibility": "1", "assets": 6519250, "income": 20328384, "revenue": 18695436}], "POMONA": [{"ein": "133536939", "name": "BAIS YAAKOV CHOFETZ CHAIM OF POMONA", "city": "POMONA", "state": "NY", "zip": "10970-3213", "ntee": "", "ruling": "199109", "deductibility": "1", "assets": 0, "income": 0, "revenue": 0}, {"ein": "261646629", "name": "CONGREGATION ZICHRON MEIR OF POMONA", "city": "POMONA", "state": "NY", "zip": "10970-3204", "ntee": "X30", "ruling": "201602", "deductibility": "1", "assets": 0, "income": 0, "revenue": 0}, {"ein": "473934514", "name": "CONGREGATION POMONA HEIGHTS", "city": "POMONA", "state": "NY", "zip": "10970-2102", "ntee": "X30", "ruling": "202007", "deductibility": "1", "assets": 0, "income": 0, "revenue": 0}, {"ein": "820694923", "name": "CHABAD OF POMONA HEIGHTS", "city": "POMONA", "state": "NY", "zip": "10970-2111", "ntee": "X30", "ruling": "201903", "deductibility": "1", "assets": 0, "income": 0, "revenue": 0}, {"ein": "832942803", "name": "KHAL AVREICHEM OF POMONA", "city": "POMONA", "state": "NY", "zip": "10970-2816", "ntee": "X30", "ruling": "202407", "deductibility": "1", "assets": 0, "income": 0, "revenue": 0}, {"ein": "873002669", "name": "POMONA PUBLIC SAFETY INC", "city": "POMONA", "state": "NY", "zip": "10970-7500", "ntee": "S20", "ruling": "202112", "deductibility": "1", "assets": 109719, "income": 136489, "revenue": 136489}, {"ein": "881345751", "name": "KEHILLAT SEPHARDIM OF POMONA INC", "city": "POMONA", "state": "NY", "zip": "10970-2829", "ntee": "X30", "ruling": "202208", "deductibility": "1", "assets": 0, "income": 0, "revenue": 0}, {"ein": "883863286", "name": "BAIS YAAKOV OF POMONA INC", "city": "SUFFERN", "state": "NY", "zip": "10901-4156", "ntee": "X30", "ruling": "202212", "deductibility": "1", "assets": 0, "income": 0, "revenue": 0}], "125TH": [{"ein": "133740434", "name": "125TH STREET DISTRICT MANAGEMENT ASSOCIATION INC", "city": "NEW YORK", "state": "NY", "zip": "10027-4801", "ntee": "S210", "ruling": "199605", "deductibility": "1", "assets": 802908, "income": 1435949, "revenue": 1435949}, {"ein": "141744698", "name": "THE 125TH NEW YORK REGIMENTAL ASSOCIATION", "city": "RENSSELAER", "state": "NY", "zip": "12144-0611", "ntee": "A80Z", "ruling": "199710", "deductibility": "1", "assets": 0, "income": 0, "revenue": 0}, {"ein": "994375845", "name": "HARLEM HELPS 125TH ST INC", "city": "NEW YORK", "state": "NY", "zip": "10035-1688", "ntee": "E60", "ruling": "202503", "deductibility": "1", "assets": 0, "income": 0, "revenue": 0}], "COLMOR": [{"ein": "133827782", "name": "COLMOR HOUSING DEVELOPMENT FUND CORPORATION", "city": "BRONX", "state": "NY", "zip": "10451-2746", "ntee": "L21", "ruling": "200102", "deductibility": "1", "assets": 0, "income": 0, "revenue": 0}], "DANIELLA": [{"ein": "133915004", "name": "DANIELLA MARIA ARTURI FOUNDATION INC", "city": "NEW YORK", "state": "NY", "zip": "10017-0000", "ntee": "T99J", "ruling": "199612", "deductibility": "1", "assets": 6720, "income": 7006, "revenue": 0}, {"ein": "814377041", "name": "DANIELLA MOFFSON FOUNDATION INC", "city": "NEW YORK", "state": "NY", "zip": "10075-0277", "ntee": "T50", "ruling": "201704", "deductibility": "1", "assets": 741051, "income": 209027, "revenue": 190397}], "ANTONIA": [{"ein": "133969141", "name": "ANTONIA ARTS INC", "city": "PEEKSKILL", "state": "NY", "zip": "10566-3426", "ntee": "A20", "ruling": "200006", "deductibility": "1", "assets": 0, "income": 0, "revenue": 0}, {"ein": "830866334", "name": "ANTONIA S ANGELS INC", "city": "FAR ROCKAWAY", "state": "NY", "zip": "11691-5161", "ntee": "P40", "ruling": "201806", "deductibility": "1", "assets": 0, "income": 0, "revenue": 0}], "VARSITY": [{"ein": "133993270", "name": "VARSITY CLUB OF STATEN ISLAND INC", "city": "STATEN ISLAND", "state": "NY", "zip": "10305-2235", "ntee": "O99", "ruling": "200111", "deductibility": "1", "assets": 341785, "income": 11746, "revenue": 11746}, {"ein": "141798519", "name": "SHENENDEHOWA GIRLS VARSITY SOCCER BOOSTER CLUB", "city": "CLIFTON PARK", "state": "NY", "zip": "12065-0000", "ntee": "N64", "ruling": "201708", "deductibility": "1", "assets": 0, "income": 0, "revenue": 0}, {"ein": "161256229", "name": "BALDWINSVILLE VARSITY HOCKEY BOOSTER CLUB INC", "city": "BALDWINSVILLE", "state": "NY", "zip": "13027-0862", "ntee": "", "ruling": "198805", "deductibility": "1", "assets": 0, "income": 0, "revenue": 0}, {"ein": "332016115", "name": "PHS VARSITY FLAG FOOTBALL", "city": "MASSAPEQUA", "state": "NY", "zip": "11758-3325", "ntee": "N65", "ruling": "202412", "deductibility": "1", "assets": 0, "income": 0, "revenue": 0}, {"ein": "332511348", "name": "NORTH TONAWANDA VARSITY BOWLING BOOSTER INC", "city": "N TONAWANDA", "state": "NY", "zip": "14120-4026", "ntee": "N60", "ruling": "202501", "deductibility": "1", "assets": 0, "income": 0, "revenue": 0}, {"ein": "333021757", "name": "ISLAND TREES VARSITY KICKLINE BOOSTER CLUB", "city": "LEVITTOWN", "state": "NY", "zip": "11756-5745", "ntee": "N70", "ruling": "202502", "deductibility": "1", "assets": 0, "income": 0, "revenue": 0}, {"ein": "334150919", "name": "FRIENDS OF HARRISON GIRLS VARSITY VOLLEYBALL BOOSTER CLUB INC", "city": "WEST HARRISON", "state": "NY", "zip": "10604-2146", "ntee": "N11", "ruling": "202505", "deductibility": "1", "assets": 0, "income": 0, "revenue": 0}, {"ein": "460860859", "name": "WARD MELVILLE VARSITY CHEERLEADING BOOSTER CLUB INC", "city": "SETAUKET", "state": "NY", "zip": "11733-1924", "ntee": "N12", "ruling": "202403", "deductibility": "1", "assets": 0, "income": 0, "revenue": 0}, {"ein": "474458873", "name": "FRIENDS OF HARRISON VARSITY CHEERLEADERS INC", "city": "HARRISON", "state": "NY", "zip": "10528-0000", "ntee": "N99", "ruling": "201507", "deductibility": "1", "assets": 16165, "income": 48884, "revenue": 16231}, {"ein": "814874935", "name": "BALDWINSVILLE VARSITY BOWLING BOOSTERS", "city": "SYRACUSE", "state": "NY", "zip": "13209-1805", "ntee": "N12", "ruling": "201705", "deductibility": "1", "assets": 0, "income": 0, "revenue": 0}, {"ein": "820771755", "name": "NIAGARA FRONTIER JUNIOR VARSITY HOCKEY CORP", "city": "EAST AMHERST", "state": "NY", "zip": "14051-2141", "ntee": "N60", "ruling": "201902", "deductibility": "2", "assets": 18752, "income": 102100, "revenue": 102100}, {"ein": "822274753", "name": "FDR GIRLS VARSITY LACROSSE BOOSTER CLUB", "city": "SALT POINT", "state": "NY", "zip": "12578-2110", "ntee": "N50", "ruling": "202312", "deductibility": "1", "assets": 0, "income": 0, "revenue": 0}, {"ein": "842410023", "name": "HORSEHEADS GIRLS VARSITY SWIM AND DIVE BOOSTER CLUB", "city": "HORSEHEADS", "state": "NY", "zip": "14845-2121", "ntee": "N12", "ruling": "201908", "deductibility": "1", "assets": 0, "income": 0, "revenue": 0}, {"ein": "852599353", "name": "HHS GIRLS VARSITY SOCCER", "city": "HARRISON", "state": "NY", "zip": "10528-2016", "ntee": "N12", "ruling": "202010", "deductibility": "1", "assets": 0, "income": 0, "revenue": 0}, {"ein": "934694038", "name": "HIGHLAND VARSITY SOFTBALL BOOSTER CLUB", "city": "HIGHLAND", "state": "NY", "zip": "12528-1819", "ntee": "N63", "ruling": "202404", "deductibility": "1", "assets": 0, "income": 0, "revenue": 0}, {"ein": "934789244", "name": "WAPPINGERS VARSITY SWIM BOOSTER CLUB", "city": "FISHKILL", "state": "NY", "zip": "12524-1137", "ntee": "N67", "ruling": "202401", "deductibility": "1", "assets": 0, "income": 0, "revenue": 0}, {"ein": "993222903", "name": "LISBON VARSITY CHEER BOOSTER CLUB", "city": "LISBON", "state": "NY", "zip": "13658-0132", "ntee": "N12", "ruling": "202411", "deductibility": "1", "assets": 0, "income": 0, "revenue": 0}], "CANTONESE": [{"ein": "134007378", "name": "CHUNG YING CANTONESE OPERA ASSOCIATION INC", "city": "BROOKLYN", "state": "NY", "zip": "11228-3120", "ntee": "A20", "ruling": "200009", "deductibility": "1", "assets": 13657, "income": 0, "revenue": 0}, {"ein": "201327526", "name": "ART OF CANTONESE OPERA ASSOCIATION INC", "city": "NEW YORK", "state": "NY", "zip": "10013-4537", "ntee": "A6A", "ruling": "200412", "deductibility": "1", "assets": 4070, "income": 4500, "revenue": 4500}, {"ein": "920912092", "name": "NORTH AMERICA CANTONESE ARTS FOUNDATION INC", "city": "NEW YORK", "state": "NY", "zip": "10007-2337", "ntee": "A20", "ruling": "202404", "deductibility": "1", "assets": 5148, "income": 50000, "revenue": 50000}], "PUBLICS": [{"ein": "134073990", "name": "COMMISSION ON THE PUBLICS HEALTH SYSTEM INC", "city": "NEW YORK", "state": "NY", "zip": "10004-0000", "ntee": "E70", "ruling": "199911", "deductibility": "1", "assets": 116230, "income": 4174, "revenue": 4174}], "FRIED": [{"ein": "134126144", "name": "THE M & P FRIED FOUNDATION", "city": "NEW YORK", "state": "NY", "zip": "10022-5360", "ntee": "", "ruling": "194909", "deductibility": "1", "assets": 2196338, "income": 76335, "revenue": 0}, {"ein": "136197403", "name": "FRIED FOUNDATION INC", "city": "NEW YORK", "state": "NY", "zip": "10168-0000", "ntee": "", "ruling": "196605", "deductibility": "1", "assets": 29579456, "income": 26384542, "revenue": 0}, {"ein": "200230064", "name": "CONGREGATION ZICHRON REB SHLOMA FRIED", "city": "BROOKLYN", "state": "NY", "zip": "11230-0414", "ntee": "X30", "ruling": "200311", "deductibility": "1", "assets": 0, "income": 0, "revenue": 0}, {"ein": "274327143", "name": "ARNO AND MINDY FRIED FAMILY FOUNDATION INC", "city": "CHAPPAQUA", "state": "NY", "zip": "10514-1016", "ntee": "T30", "ruling": "201105", "deductibility": "1", "assets": 30920, "income": 74151, "revenue": 0}, {"ein": "452711691", "name": "JACOB & SANDY FRIED FOUNDATION INC", "city": "TANNERSVILLE", "state": "NY", "zip": "12485-7726", "ntee": "T22", "ruling": "201109", "deductibility": "1", "assets": 1, "income": 1, "revenue": 0}, {"ein": "464404218", "name": "FAMILY FRIED FOUNDATION INC", "city": "BROOKLYN", "state": "NY", "zip": "11219-0147", "ntee": "Z99", "ruling": "201407", "deductibility": "1", "assets": 38525, "income": 55000, "revenue": 0}], "PINCUS": [{"ein": "134148834", "name": "WARBURG PINCUS FOUNDATION", "city": "NEW YORK", "state": "NY", "zip": "10017-3914", "ntee": "T22", "ruling": "200102", "deductibility": "1", "assets": 113027, "income": 5839210, "revenue": 0}, {"ein": "136089184", "name": "PINCUS FAMILY FUND", "city": "NEW YORK", "state": "NY", "zip": "10012-2719", "ntee": "", "ruling": "196212", "deductibility": "1", "assets": 217351, "income": 24, "revenue": 0}, {"ein": "882889226", "name": "ERICA PINCUS ARABESQUE FOUNDATION INC", "city": "BAYVILLE", "state": "NY", "zip": "11709-1209", "ntee": "T23", "ruling": "202304", "deductibility": "1", "assets": 206148, "income": 115638, "revenue": 0}], "GRUNEBAUM": [{"ein": "136089084", "name": "GRUNEBAUM FOUNDATION", "city": "NEW YORK", "state": "NY", "zip": "10075-1909", "ntee": "", "ruling": "195202", "deductibility": "1", "assets": 184590, "income": 22214, "revenue": 0}], "RICHENTHAL": [{"ein": "136113616", "name": "RICHENTHAL FOUNDATION", "city": "NEW YORK", "state": "NY", "zip": "10004-1564", "ntee": "", "ruling": "196307", "deductibility": "1", "assets": 8272797, "income": 4179482, "revenue": 0}], "BEASON": [{"ein": "136156596", "name": "ROSS BEASON TR FOR CULVER EDUCATIONAL FOUNDATION", "city": "NEW YORK", "state": "NY", "zip": "10008-1297", "ntee": "", "ruling": "199102", "deductibility": "1", "assets": 1328628, "income": 212788, "revenue": 0}], "CERES": [{"ein": "136197762", "name": "CERES GARDEN CLUB OF RYE", "city": "RYE", "state": "NY", "zip": "10580-2406", "ntee": "", "ruling": "196603", "deductibility": "2", "assets": 0, "income": 0, "revenue": 0}], "SOSENKO": [{"ein": "137252069", "name": "ANNA SOSENKO ASSIST TRUST", "city": "NEW YORK", "state": "NY", "zip": "10038-3749", "ntee": "A12", "ruling": "200205", "deductibility": "1", "assets": 473267, "income": 103357, "revenue": 0}], "DELORD": [{"ein": "141368176", "name": "KENT-DELORD HOUSE CORPORATION", "city": "PLATTSBURGH", "state": "NY", "zip": "12901-1849", "ntee": "", "ruling": "194606", "deductibility": "1", "assets": 368434, "income": 320279, "revenue": 0}], "KERHONKSON": [{"ein": "141733163", "name": "THE KERHONKSON FIRE COMPANY INC", "city": "KERHONKSON", "state": "NY", "zip": "12446-3680", "ntee": "M24", "ruling": "201505", "deductibility": "1", "assets": 0, "income": 0, "revenue": 0}, {"ein": "146019168", "name": "FEDERATED CHURCH OF KERHONKSON", "city": "KERHOKSON", "state": "NY", "zip": "12446-0000", "ntee": "", "ruling": "198601", "deductibility": "1", "assets": 0, "income": 0, "revenue": 0}, {"ein": "237262545", "name": "KERHONKSON ACCORD FIRST AID SQUAD INC", "city": "KERHONKSON", "state": "NY", "zip": "12446-0000", "ntee": "E62Z", "ruling": "197302", "deductibility": "1", "assets": 1056704, "income": 615679, "revenue": 615679}], "ELBA": [{"ein": "146032009", "name": "LAKE PLACID NORTH ELBA HISTORICAL SOCIETY", "city": "LAKE PLACID", "state": "NY", "zip": "12946-0189", "ntee": "A23", "ruling": "198608", "deductibility": "1", "assets": 252199, "income": 169937, "revenue": 168721}, {"ein": "161092508", "name": "ELBA FIRE DEPARTMENT INC", "city": "ELBA", "state": "NY", "zip": "14058-9749", "ntee": "Q35", "ruling": "201405", "deductibility": "2", "assets": 364432, "income": 205294, "revenue": 105856}, {"ein": "203415897", "name": "ELBA SPORTS BOOSTERS CLUB INC", "city": "ELBA", "state": "NY", "zip": "14058-0363", "ntee": "B112", "ruling": "200512", "deductibility": "1", "assets": 0, "income": 0, "revenue": 0}, {"ein": "311703436", "name": "HISTORICAL SOCIETY OF ELBA", "city": "ELBA", "state": "NY", "zip": "14058-0024", "ntee": "A80", "ruling": "200007", "deductibility": "1", "assets": 0, "income": 0, "revenue": 0}, {"ein": "994188087", "name": "ELBA HOPE FOUNDATION INC", "city": "NEW YORK", "state": "NY", "zip": "10016-2817", "ntee": "B82", "ruling": "202412", "deductibility": "1", "assets": 0, "income": 0, "revenue": 0}], "FRANSEEN": [{"ein": "146306788", "name": "BETTY JANE FRANSEEN TR UW FBO HUMANE ASSN OF SCHUYLER COUNTY", "city": "ELMIRA", "state": "NY", "zip": "14902-1522", "ntee": "T11", "ruling": "200709", "deductibility": "1", "assets": 428418, "income": 178379, "revenue": 39071}], "PHILOMATHEAN": [{"ein": "150592876", "name": "BELLEVILLE PHILOMATHEAN FREE LIBRARY", "city": "BELLEVILLE", "state": "NY", "zip": "13611-0027", "ntee": "B70", "ruling": "202406", "deductibility": "1", "assets": 0, "income": 0, "revenue": 0}], "BUNCH": [{"ein": "161038611", "name": "NAPLES LITTLE BUNCH INC", "city": "NAPLES", "state": "NY", "zip": "14512-0627", "ntee": "", "ruling": "197610", "deductibility": "1", "assets": 0, "income": 0, "revenue": 0}, {"ein": "873010811", "name": "DI BELIZEAN BUNCH", "city": "BROOKLYN", "state": "NY", "zip": "11213-1321", "ntee": "A01", "ruling": "202203", "deductibility": "1", "assets": 0, "income": 0, "revenue": 0}], "SPEAK": [{"ein": "161159692", "name": "SPEAK SOCIETY FOR THE PROMOTION OF EDUCATION IN ANIMAL KINDNESS", "city": "APALACHIN", "state": "NY", "zip": "13732-4140", "ntee": "D200", "ruling": "197712", "deductibility": "1", "assets": 1127594, "income": 73335, "revenue": 73335}, {"ein": "161614791", "name": "SPEAK ANIMAL HOSPITAL PC", "city": "BINGHAMTON", "state": "NY", "zip": "13905-5713", "ntee": "D40", "ruling": "200302", "deductibility": "1", "assets": 858072, "income": 2830203, "revenue": 2830203}, {"ein": "272327189", "name": "HEARTS SPEAK INC", "city": "POUGHKEEPSIE", "state": "NY", "zip": "12601-6528", "ntee": "D20", "ruling": "201203", "deductibility": "1", "assets": 30930, "income": 48082, "revenue": 48082}, {"ein": "463611387", "name": "SPEAK UP AFRICA", "city": "NEW YORK", "state": "NY", "zip": "10003-1621", "ntee": "Q30", "ruling": "201406", "deductibility": "1", "assets": 205313, "income": 542232, "revenue": 542232}, {"ein": "830995771", "name": "SPEAK ENTERTAINMENT INC", "city": "BROOKLYN", "state": "NY", "zip": "11225-5839", "ntee": "O50", "ruling": "201807", "deductibility": "1", "assets": 0, "income": 0, "revenue": 0}, {"ein": "831548560", "name": "RACE TO SPEAK UP INCORPORATED", "city": "NORTH BABYLON", "state": "NY", "zip": "11703-1208", "ntee": "B01", "ruling": "202112", "deductibility": "1", "assets": 0, "income": 0, "revenue": 0}, {"ein": "832480543", "name": "THUMBS DOWN SPEAK UP CORPORATION", "city": "NEW YORK", "state": "NY", "zip": "10024-4502", "ntee": "O01", "ruling": "201909", "deductibility": "1", "assets": 0, "income": 0, "revenue": 0}, {"ein": "833016289", "name": "SPEAK & PRACTICE ENGLISH INC", "city": "BROOKLYN", "state": "NY", "zip": "11229-3921", "ntee": "B80", "ruling": "202107", "deductibility": "1", "assets": 0, "income": 0, "revenue": 0}, {"ein": "843994172", "name": "SPEAK GLOBALLY", "city": "NEW YORK", "state": "NY", "zip": "10004-1703", "ntee": "P62", "ruling": "202310", "deductibility": "1", "assets": 0, "income": 0, "revenue": 0}, {"ein": "873458722", "name": "SPEAK HOPE FOUNDATION INC", "city": "ROCKVILLE CENTRE", "state": "NY", "zip": "11570-4610", "ntee": "F30", "ruling": "202202", "deductibility": "1", "assets": 13691, "income": 39565, "revenue": 8076}, {"ein": "881744769", "name": "SPEAK INITIATIVE INC", "city": "BRONX", "state": "NY", "zip": "10456-5738", "ntee": "P20", "ruling": "202204", "deductibility": "1", "assets": 0, "income": 0, "revenue": 0}, {"ein": "900661531", "name": "LET THE BIBLE SPEAK MINSTERY INC", "city": "BRONX", "state": "NY", "zip": "10467-0800", "ntee": "X21", "ruling": "201106", "deductibility": "1", "assets": 0, "income": 0, "revenue": 0}, {"ein": "991383454", "name": "SPEAK A SUPPORTIVE PLACE FOR EMPOWERING ASIAN AMERICANS AND KIN", "city": "MOUNT KISCO", "state": "NY", "zip": "10549-7248", "ntee": "F05", "ruling": "202408", "deductibility": "1", "assets": 47727, "income": 88309, "revenue": 88309}, {"ein": "992887131", "name": "SPEAK ENGLISH TOGETHER", "city": "NEW YORK", "state": "NY", "zip": "10028-0808", "ntee": "B99", "ruling": "202405", "deductibility": "1", "assets": 0, "income": 0, "revenue": 0}, {"ein": "993451652", "name": "SPEAK TO LEAD INC", "city": "ALBANY", "state": "NY", "zip": "12207-2922", "ntee": "S81", "ruling": "202407", "deductibility": "1", "assets": 0, "income": 0, "revenue": 0}], "SAHARO": [{"ein": "161329051", "name": "SAHARO", "city": "SPENCERPORT", "state": "NY", "zip": "14559-1444", "ntee": "P81", "ruling": "200808", "deductibility": "1", "assets": 0, "income": 0, "revenue": 0}], "REENACTMENT": [{"ein": "161535922", "name": "155TH NEW YORK VOLUNTEER INFANTRY REENACTMENT REGIMENT", "city": "EAST AURORA", "state": "NY", "zip": "14052-9510", "ntee": "A80", "ruling": "199711", "deductibility": "1", "assets": 0, "income": 0, "revenue": 0}], "ITC": [{"ein": "161571080", "name": "LEWISTON ITC ELDERLY HOUSING DEVEOLPEMENT FUND CORPORATION", "city": "LEWISTON", "state": "NY", "zip": "14092-2232", "ntee": "L22", "ruling": "199911", "deductibility": "1", "assets": 962731, "income": 150073, "revenue": 150073}], "DIMITRI": [{"ein": "161587868", "name": "DIMITRI HOUSE INC", "city": "ROCHESTER", "state": "NY", "zip": "14607-1317", "ntee": "K30", "ruling": "200007", "deductibility": "1", "assets": 2044353, "income": 456879, "revenue": 454829}], "BROTHERHD": [{"ein": "166051497", "name": "INTERNATIONAL BROTHERHD - BOILRMKRS IR SHP BLDRS BLCKSMTH FRGRS & HLPR", "city": "EAST AURORA", "state": "NY", "zip": "14052-9555", "ntee": "", "ruling": "194010", "deductibility": "2", "assets": 0, "income": 0, "revenue": 0}], "BOUDIA": [{"ein": "166231450", "name": "ALEXANDER J BOUDIA MARITAL TESTA TRUST 2-2393-0", "city": "NORWICH", "state": "NY", "zip": "13815-0000", "ntee": "", "ruling": "199304", "deductibility": "1", "assets": 468419, "income": 59576, "revenue": 0}], "WONBUDDHISM": [{"ein": "204812937", "name": "WONBUDDHISM OF USA INC", "city": "CLAVERRACK", "state": "NY", "zip": "12513-5134", "ntee": "X50", "ruling": "200607", "deductibility": "1", "assets": 0, "income": 0, "revenue": 0}], "SANDERS": [{"ein": "206038266", "name": "SANDERS FAMILY FOUNDATION 316C6100", "city": "NEW YORK", "state": "NY", "zip": "10012-3957", "ntee": "T22", "ruling": "200602", "deductibility": "1", "assets": 5644077, "income": 3914139, "revenue": 0}, {"ein": "463673346", "name": "SANDERS TRI-INSTITUTIONAL THERAPEUT DISCOVERY INSTITUTE INC CO WEILL C", "city": "NEW YORK", "state": "NY", "zip": "10065-4805", "ntee": "H99", "ruling": "202307", "deductibility": "1", "assets": 7953486, "income": 18703204, "revenue": 18703204}, {"ein": "814656546", "name": "MARTIN & SUSAN SANDERS FAMILY FOUNDATION", "city": "NEW YORK", "state": "NY", "zip": "10022-3172", "ntee": "T90", "ruling": "201704", "deductibility": "1", "assets": 426456, "income": 20016, "revenue": 0}], "BLADDER": [{"ein": "223614365", "name": "INSTITUTE FOR BLADDER AND PROSTATE RESEARCH INC", "city": "NEW YORK", "state": "NY", "zip": "10021-4753", "ntee": "H80", "ruling": "200004", "deductibility": "1", "assets": 416768, "income": 64209, "revenue": 64209}], "SAYRE": [{"ein": "237070994", "name": "SAYRE UNICO FOUNDATION", "city": "WAVERLY", "state": "NY", "zip": "14892-9746", "ntee": "B82", "ruling": "202011", "deductibility": "1", "assets": 0, "income": 0, "revenue": 0}], "PVH": [{"ein": "237104639", "name": "PVH FOUNDATION INC", "city": "NEW YORK", "state": "NY", "zip": "10017-6401", "ntee": "", "ruling": "197109", "deductibility": "1", "assets": 7077203, "income": 4779748, "revenue": 0}], "ROTICA": [{"ein": "237632242", "name": "CRYPTIC MASONS OF THE STATE OF NEW YORK INC 12 ROTICA", "city": "NEW HARTFORD", "state": "NY", "zip": "13413-2020", "ntee": "", "ruling": "194009", "deductibility": "1", "assets": 0, "income": 0, "revenue": 0}], "JABECA": [{"ein": "260766934", "name": "JABECA W FOUNDATION", "city": "NEW YORK", "state": "NY", "zip": "10023-8106", "ntee": "T21", "ruling": "200803", "deductibility": "1", "assets": 4060, "income": 136, "revenue": 0}], "CHARITACBLE": [{"ein": "261650743", "name": "LODZ CHARITACBLE TRUST", "city": "SPRING VALLEY", "state": "NY", "zip": "10977-5214", "ntee": "P58", "ruling": "201007", "deductibility": "1", "assets": 2, "income": 150000, "revenue": 0}], "NACION": [{"ein": "263081618", "name": "IGLESIA CRISTIANA NACION SANTA", "city": "FLUSHING", "state": "NY", "zip": "11354-2925", "ntee": "X20", "ruling": "200902", "deductibility": "1", "assets": 0, "income": 0, "revenue": 0}, {"ein": "815418325", "name": "IGLESIA NACION SANTA INC", "city": "BROOKLYN", "state": "NY", "zip": "11215-5389", "ntee": "X99", "ruling": "202401", "deductibility": "1", "assets": 0, "income": 0, "revenue": 0}, {"ein": "900535831", "name": "CENTRO CRISTIANO ALUMBRANDO LAS NACION", "city": "BAY SHORE", "state": "NY", "zip": "11706-4214", "ntee": "", "ruling": "197210", "deductibility": "1", "assets": 0, "income": 0, "revenue": 0}], "PICKET": [{"ein": "263870611", "name": "PICKET FAMILY FOUNDATION INC", "city": "NEW YORK", "state": "NY", "zip": "10003-1005", "ntee": "T22", "ruling": "200902", "deductibility": "1", "assets": 5321209, "income": 6196011, "revenue": 0}], "KASOWITZ": [{"ein": "264807628", "name": "KASOWITZ FAMILY FOUNDATION INC", "city": "NEW YORK", "state": "NY", "zip": "10012-2497", "ntee": "T22", "ruling": "201107", "deductibility": "1", "assets": 2, "income": 360988, "revenue": 0}], "SANTORA": [{"ein": "266094914", "name": "BERT SANTORA CHARITABLE TR UW", "city": "ONEONTA", "state": "NY", "zip": "13820-0430", "ntee": "T20", "ruling": "200802", "deductibility": "1", "assets": 1565102, "income": 434851, "revenue": 0}, {"ein": "300076759", "name": "CHRISTOPHER SANTORA EDUCATIONAL SCHOLARSHIP FUND INC", "city": "LONG ISLAND CITY", "state": "NY", "zip": "11106-4351", "ntee": "T30", "ruling": "200206", "deductibility": "1", "assets": 33554, "income": 5519, "revenue": 5519}], "CABRERA": [{"ein": "270257340", "name": "FRIENDS OF CABRERA INC", "city": "ITHACA", "state": "NY", "zip": "14850-3232", "ntee": "T12", "ruling": "200908", "deductibility": "1", "assets": 52765, "income": 58643, "revenue": 58643}, {"ein": "333044077", "name": "CABRERA SCIENCE FOUNDATION", "city": "ITHACA", "state": "NY", "zip": "14850-9435", "ntee": "B90", "ruling": "202504", "deductibility": "1", "assets": 0, "income": 0, "revenue": 0}, {"ein": "823593896", "name": "MIOSOTIS CABRERA FOUNDATION", "city": "IRVINGTON", "state": "NY", "zip": "10533-1116", "ntee": "O50", "ruling": "201809", "deductibility": "1", "assets": 0, "income": 0, "revenue": 0}], "STHBRA": [{"ein": "270344604", "name": "STHBRA FOUNDATION INC", "city": "ENDICOTT", "state": "NY", "zip": "13760-0000", "ntee": "B30", "ruling": "201810", "deductibility": "1", "assets": 0, "income": 0, "revenue": 0}], "CROCI": [{"ein": "270669051", "name": "THE TOM AND JO-ANN CROCI FOUNDATION INC", "city": "BOHEMIA", "state": "NY", "zip": "11716-1905", "ntee": "", "ruling": "201007", "deductibility": "1", "assets": 0, "income": 0, "revenue": 0}], "PLATEAU": [{"ein": "272362159", "name": "RENSSELAER PLATEAU NORDIC INC", "city": "WYNANTSKILL", "state": "NY", "zip": "12198-7816", "ntee": "N68", "ruling": "201008", "deductibility": "1", "assets": 0, "income": 0, "revenue": 0}, {"ein": "874166271", "name": "TACONIC PLATEAU FOUNDATION INC", "city": "PITTSFORD", "state": "NY", "zip": "14534-0000", "ntee": "C34", "ruling": "202204", "deductibility": "1", "assets": 0, "income": 0, "revenue": 0}], "BOQUET": [{"ein": "272507735", "name": "BOQUET LAND TRUST", "city": "WESTPORT", "state": "NY", "zip": "12993-3217", "ntee": "C34", "ruling": "201009", "deductibility": "1", "assets": 0, "income": 0, "revenue": 0}, {"ein": "460871707", "name": "BOQUET II HOUSING DEVELOPMENT FUND COMPANY INC", "city": "ELIZABETHTOWN", "state": "NY", "zip": "12932-2208", "ntee": "L20", "ruling": "202004", "deductibility": "1", "assets": 0, "income": 0, "revenue": 0}], "CUMSEWOGUE": [{"ein": "273744577", "name": "CUMSEWOGUE HISTORICAL SOCIETY", "city": "TERRYVILLE", "state": "NY", "zip": "11776-4333", "ntee": "A80", "ruling": "201305", "deductibility": "1", "assets": 0, "income": 0, "revenue": 0}], "IMRIE": [{"ein": "273857153", "name": "CONGREGATION IMRIE CHINE DELATYN", "city": "SPRING VALLEY", "state": "NY", "zip": "10977-3826", "ntee": "X30", "ruling": "201304", "deductibility": "1", "assets": 0, "income": 0, "revenue": 0}], "MARRIAGE": [{"ein": "300338842", "name": "MARRIAGE EQUALITY USA INC", "city": "NEW YORK", "state": "NY", "zip": "10032-5356", "ntee": "R26", "ruling": "200901", "deductibility": "1", "assets": 0, "income": 0, "revenue": 0}, {"ein": "454943684", "name": "MARRIAGE TO CHARITY INC", "city": "LOCKPORT", "state": "NY", "zip": "14094-8854", "ntee": "G84", "ruling": "201304", "deductibility": "1", "assets": 0, "income": 0, "revenue": 0}, {"ein": "822950013", "name": "CATHOLIC FAMILY AND MARRIAGE INC", "city": "CONSTANTIA", "state": "NY", "zip": "13044-3731", "ntee": "X22", "ruling": "201801", "deductibility": "1", "assets": 0, "income": 0, "revenue": 0}, {"ein": "870786565", "name": "MARRIAGE AND FAMILY SAVERS MINISTRIES INC", "city": "NEWBURGH", "state": "NY", "zip": "12550-3341", "ntee": "P46", "ruling": "200703", "deductibility": "1", "assets": 9692, "income": 57818, "revenue": 55966}, {"ein": "922270973", "name": "MARRIAGE INITIATIVE", "city": "FAR ROCKAWAY", "state": "NY", "zip": "11691-1707", "ntee": "X30", "ruling": "202309", "deductibility": "1", "assets": 0, "income": 0, "revenue": 0}], "MAGIKAL": [{"ein": "300649926", "name": "MAGIKAL CHARM 22 INC", "city": "NEW YORK", "state": "NY", "zip": "10001-7917", "ntee": "A20", "ruling": "201102", "deductibility": "1", "assets": 0, "income": 0, "revenue": 0}], "BHAIRAVI": [{"ein": "330994606", "name": "BHAIRAVI FINE ARTS INC", "city": "GETZVILLE", "state": "NY", "zip": "14068-1177", "ntee": "A60", "ruling": "202502", "deductibility": "1", "assets": 0, "income": 0, "revenue": 0}], "DSNY": [{"ein": "331700556", "name": "DSNY MUSLIM SOCIETY INC", "city": "STATEN ISLAND", "state": "NY", "zip": "10303-1710", "ntee": "P20", "ruling": "202411", "deductibility": "1", "assets": 0, "income": 0, "revenue": 0}, {"ein": "993383645", "name": "DSNY BOXING TEAM CORP", "city": "STATEN ISLAND", "state": "NY", "zip": "10309-2855", "ntee": "P20", "ruling": "202409", "deductibility": "1", "assets": 0, "income": 6000, "revenue": 6000}], "FLOURISH": [{"ein": "332111787", "name": "NOURISH & FLOURISH INC", "city": "NEW YORK", "state": "NY", "zip": "10023-9672", "ntee": "B80", "ruling": "202506", "deductibility": "1", "assets": 0, "income": 0, "revenue": 0}, {"ein": "842214398", "name": "FLOURISH ALWAYS INC", "city": "BROOKLYN", "state": "NY", "zip": "11209-5513", "ntee": "E80", "ruling": "201907", "deductibility": "1", "assets": 0, "income": 0, "revenue": 0}], "IFEMINIST": [{"ein": "332542174", "name": "IFEMINIST", "city": "SYOSSET", "state": "NY", "zip": "11791-3050", "ntee": "A80", "ruling": "202502", "deductibility": "1", "assets": 0, "income": 0, "revenue": 0}], "VOLVAMONOS": [{"ein": "333160786", "name": "MINISTERIO VOLVAMONOS A DIOS INC", "city": "BRONX", "state": "NY", "zip": "10467-3828", "ntee": "X20", "ruling": "202506", "deductibility": "1", "assets": 0, "income": 0, "revenue": 0}], "SSIM": [{"ein": "372131895", "name": "SSIM INC", "city": "BRONX", "state": "NY", "zip": "10463-7047", "ntee": "S20", "ruling": "202404", "deductibility": "1", "assets": 0, "income": 0, "revenue": 0}], "SIFF": [{"ein": "421612887", "name": "THE SIFF EXKORN FAMILY FOUNDATION", "city": "NEW YORK", "state": "NY", "zip": "10036-4241", "ntee": "L50", "ruling": "200408", "deductibility": "1", "assets": 173788, "income": 36601, "revenue": 0}], "JINLAN": [{"ein": "452935437", "name": "HAN ZHANG AND JINLAN LIU FOUNDATION", "city": "ROSLYN", "state": "NY", "zip": "11576-1805", "ntee": "T22", "ruling": "201110", "deductibility": "1", "assets": 2619577, "income": 420672, "revenue": 0}], "STEREOTACTIC": [{"ein": "454065198", "name": "AMERICAN SOCIETY FOR STEREOTACTIC AND FUNCTIONAL NEUROSURGERY", "city": "MERRICK", "state": "NY", "zip": "11566-0000", "ntee": "B90", "ruling": "201301", "deductibility": "1", "assets": 2343038, "income": 454134, "revenue": 144232}], "DRACHMISTRIVKA": [{"ein": "454065282", "name": "EISEK HATORAH DRACHMISTRIVKA", "city": "BROOKLYN", "state": "NY", "zip": "11236-4203", "ntee": "X30", "ruling": "201308", "deductibility": "1", "assets": 0, "income": 0, "revenue": 0}], "GENOMIC": [{"ein": "454553680", "name": "GENOMIC OBSERVATORY INC", "city": "STATEN ISLAND", "state": "NY", "zip": "10314-6930", "ntee": "B60", "ruling": "201612", "deductibility": "1", "assets": 15833, "income": 150000, "revenue": 150000}], "OBRA": [{"ein": "460766604", "name": "TODO OBRA PARA BIEN ROMANOS 8 28 MINISTERIOS CORP", "city": "BAY SHORE", "state": "NY", "zip": "11706-4535", "ntee": "X21", "ruling": "201407", "deductibility": "1", "assets": 0, "income": 0, "revenue": 0}], "HASHIVEINU": [{"ein": "461136695", "name": "HASHIVEINU ELECHA ISRAEL INC", "city": "FAR ROCKAWAY", "state": "NY", "zip": "11691-4625", "ntee": "X80", "ruling": "201708", "deductibility": "1", "assets": 1185611, "income": 68868, "revenue": 68868}], "OUTBACKRIDERS": [{"ein": "461716122", "name": "OUTBACKRIDERS INC", "city": "MORRISONVILLE", "state": "NY", "zip": "12962-3920", "ntee": "N99", "ruling": "201408", "deductibility": "2", "assets": 0, "income": 0, "revenue": 0}], "YMH": [{"ein": "462915414", "name": "CONGREGATION YMH", "city": "BROOKLYN", "state": "NY", "zip": "11218-3616", "ntee": "X30", "ruling": "201408", "deductibility": "1", "assets": 0, "income": 0, "revenue": 0}], "DOTS": [{"ein": "463412001", "name": "WE CONNECT THE DOTS INC", "city": "HUNTINGTON", "state": "NY", "zip": "11743-8207", "ntee": "B99", "ruling": "201405", "deductibility": "1", "assets": 98664, "income": 107015, "revenue": 107015}, {"ein": "833028147", "name": "DOTS COMMUNITY FUND", "city": "COPENHAGEN", "state": "NY", "zip": "13626-3527", "ntee": "G30", "ruling": "201903", "deductibility": "1", "assets": 0, "income": 0, "revenue": 0}, {"ein": "833541185", "name": "DOTS RPG PROJECT FOUNDATION", "city": "E NORTHPORT", "state": "NY", "zip": "11731-0504", "ntee": "B01", "ruling": "201906", "deductibility": "1", "assets": 0, "income": 0, "revenue": 0}, {"ein": "853128231", "name": "CONNECT THE DOTS FOUNDATION", "city": "BUFFALO", "state": "NY", "zip": "14210-1007", "ntee": "O50", "ruling": "202102", "deductibility": "1", "assets": 0, "income": 0, "revenue": 0}, {"ein": "861735075", "name": "BRIDGING DOTS", "city": "SCARSDALE", "state": "NY", "zip": "10583-1231", "ntee": "P60", "ruling": "202105", "deductibility": "1", "assets": 0, "income": 0, "revenue": 0}, {"ein": "861806008", "name": "CONNECTING THE DOTS TO JUSTICE INC", "city": "NEW YORK", "state": "NY", "zip": "10009-1618", "ntee": "R99", "ruling": "202202", "deductibility": "1", "assets": 0, "income": 0, "revenue": 0}], "GRYL": [{"ein": "465217218", "name": "KELLIE GRYL INC", "city": "NESCONSET", "state": "NY", "zip": "11767-3137", "ntee": "A20", "ruling": "201711", "deductibility": "1", "assets": 0, "income": 0, "revenue": 0}], "BEDSTUY": [{"ein": "465241276", "name": "BEDSTUY SLUGGERS BASEBALL LEAGUE INC", "city": "BROOKLYN", "state": "NY", "zip": "11206-6409", "ntee": "N63", "ruling": "202502", "deductibility": "1", "assets": 0, "income": 0, "revenue": 0}, {"ein": "934738182", "name": "BEDSTUY SLUGGERS BASEBALL ORGANIZATION INC", "city": "BROOKLYN", "state": "NY", "zip": "11238-8201", "ntee": "N63", "ruling": "202401", "deductibility": "1", "assets": 0, "income": 0, "revenue": 0}], "SLATTERY": [{"ein": "472568911", "name": "SLATTERY FAMILY FOUNDATION INC", "city": "RYE", "state": "NY", "zip": "10580-3717", "ntee": "T20", "ruling": "201512", "deductibility": "1", "assets": 8605256, "income": 517454, "revenue": 0}], "YESODEY": [{"ein": "472828574", "name": "CONGREGATION YESODEY HATALMUD", "city": "BROOKLYN", "state": "NY", "zip": "11206-4349", "ntee": "X30", "ruling": "201503", "deductibility": "1", "assets": 0, "income": 0, "revenue": 0}], "BAUMGARTNER": [{"ein": "474043262", "name": "BAUMGARTNER FOUNDATION INC", "city": "ALBANY", "state": "NY", "zip": "12207-3002", "ntee": "", "ruling": "201509", "deductibility": "1", "assets": 13412, "income": 1109, "revenue": 0}], "GULLOTTA": [{"ein": "474132500", "name": "GULLOTTA HOUSE", "city": "BRIARCLIFF MANOR", "state": "NY", "zip": "10510-1414", "ntee": "W99", "ruling": "201506", "deductibility": "1", "assets": 69665, "income": 313614, "revenue": 245494}], "ONYMA": [{"ein": "474520516", "name": "ORGANIZATION OF NEW YORK MANDINGO ASSOCIATION ONYMA", "city": "BRONX", "state": "NY", "zip": "10456-4855", "ntee": "A23", "ruling": "201601", "deductibility": "1", "assets": 0, "income": 0, "revenue": 0}], "HOLYGROUNDS": [{"ein": "474621576", "name": "HOLYGROUNDS INC", "city": "MONTGOMERY", "state": "NY", "zip": "12549-0669", "ntee": "X22", "ruling": "201508", "deductibility": "1", "assets": 0, "income": 0, "revenue": 0}], "LAYPERSONS": [{"ein": "475349590", "name": "PHYSICIANS AND LAYPERSONS EDUCATIONAL ASSOCIATES OF GREATER", "city": "PITTSFORD", "state": "NY", "zip": "14534-1811", "ntee": "B60", "ruling": "201602", "deductibility": "1", "assets": 0, "income": 0, "revenue": 0}], "FEEDWELL": [{"ein": "521370162", "name": "RANCHO FEEDWELL FOUNDATION", "city": "MELVILLE", "state": "NY", "zip": "11747-4511", "ntee": "", "ruling": "198612", "deductibility": "1", "assets": 966841, "income": 51412, "revenue": 0}], "ENDOSCOPY": [{"ein": "521590336", "name": "INTERNATIONAL SOCIETY FOR GYNECOLOGIC ENDOSCOPY INC", "city": "NEW YORK", "state": "NY", "zip": "10065-0000", "ntee": "", "ruling": "198811", "deductibility": "1", "assets": 0, "income": 0, "revenue": 0}], "FERRON": [{"ein": "522185459", "name": "LITTLE ROSE FERRON FOUNDATION", "city": "YONKERS", "state": "NY", "zip": "10705-1420", "ntee": "N52", "ruling": "200110", "deductibility": "1", "assets": 0, "income": 0, "revenue": 0}], "NOIZ": [{"ein": "522330471", "name": "NOIZ IVY INC", "city": "MANORVILLE", "state": "NY", "zip": "11949-3443", "ntee": "B99", "ruling": "200301", "deductibility": "1", "assets": 5342991, "income": 2527986, "revenue": 2527986}], "OBSERVANT": [{"ein": "562430678", "name": "OBSERVANT ARTIST COMMUNITY CIRCLE", "city": "HEWLETT", "state": "NY", "zip": "11557-1520", "ntee": "X30", "ruling": "200403", "deductibility": "1", "assets": 307427, "income": 1009, "revenue": 1009}], "DIPPIKILL": [{"ein": "562443538", "name": "DIPPIKILL INC", "city": "WARRENSBURG", "state": "NY", "zip": "12885-5508", "ntee": "B900", "ruling": "200702", "deductibility": "1", "assets": 1559364, "income": 423418, "revenue": 423418}], "SCHOLA": [{"ein": "562477031", "name": "SCHOLA CANTORUM OF SYRACUSE", "city": "MANLIUS", "state": "NY", "zip": "13104-1920", "ntee": "A68", "ruling": "200503", "deductibility": "1", "assets": 0, "income": 0, "revenue": 0}], "CHALLENGING": [{"ein": "680479473", "name": "INSTITUTE FOR CHALLENGING DISORGANIZATION", "city": "LARCHMONT", "state": "NY", "zip": "10538-2437", "ntee": "H03", "ruling": "200303", "deductibility": "1", "assets": 603886, "income": 290468, "revenue": 290468}], "STACKHOUSE": [{"ein": "680620346", "name": "VINCENT E STACKHOUSE SCHOLARSHIP FOUNDATION INC", "city": "BROOKLYN", "state": "NY", "zip": "11233-2408", "ntee": "B82", "ruling": "201111", "deductibility": "1", "assets": 0, "income": 0, "revenue": 0}], "GIMPEL": [{"ein": "810727150", "name": "BEIS GIMPEL CHAIM - NEMES HALL", "city": "BROOKLYN", "state": "NY", "zip": "11225-3224", "ntee": "X30", "ruling": "201605", "deductibility": "1", "assets": 0, "income": 0, "revenue": 0}], "ABY": [{"ein": "810925239", "name": "SAMANTHA AND ABY ROSEN FOUNDATION INC", "city": "NEW YORK", "state": "NY", "zip": "10152-1005", "ntee": "T20", "ruling": "201701", "deductibility": "1", "assets": 1, "income": 421525, "revenue": 0}], "RAMP": [{"ein": "811110133", "name": "RAMP GLOBAL MISSIONS", "city": "BUFFALO", "state": "NY", "zip": "14214-2606", "ntee": "Q33", "ruling": "202004", "deductibility": "1", "assets": 1106, "income": 239457, "revenue": 239457}, {"ein": "933661752", "name": "MINI RAMP FOUNDATION INCORPORATED", "city": "LINDENHURST", "state": "NY", "zip": "11757-6436", "ntee": "N40", "ruling": "202403", "deductibility": "1", "assets": 0, "income": 0, "revenue": 0}], "MANOS": [{"ein": "812417849", "name": "DE MANOS CON AMOR CORP", "city": "JACKSON HTS", "state": "NY", "zip": "11372-3116", "ntee": "Q33", "ruling": "201605", "deductibility": "1", "assets": 0, "income": 0, "revenue": 0}, {"ein": "813944787", "name": "FUNDACION MANOS AMIGAS INC", "city": "CORONA", "state": "NY", "zip": "11368-2650", "ntee": "T30", "ruling": "202405", "deductibility": "1", "assets": 0, "income": 0, "revenue": 0}, {"ein": "882126894", "name": "FUNDACION MANOS SOLIDARIAS INC", "city": "HEMPSTEAD", "state": "NY", "zip": "11550-3718", "ntee": "L12", "ruling": "202209", "deductibility": "1", "assets": 0, "income": 0, "revenue": 0}, {"ein": "923086319", "name": "MANOS ABIERTAS INC", "city": "NANUET", "state": "NY", "zip": "10954-1932", "ntee": "O12", "ruling": "202307", "deductibility": "1", "assets": 1, "income": 28367, "revenue": 0}, {"ein": "994620173", "name": "MANOS AYUDA", "city": "LINDENHURST", "state": "NY", "zip": "11757-6702", "ntee": "P20", "ruling": "202409", "deductibility": "1", "assets": 0, "income": 0, "revenue": 0}], "UGUS": [{"ein": "814133536", "name": "ABUNDANT LIFE MINISTRIES OF CATTARA UGUS COUNTY INC", "city": "WESTONS MILLS", "state": "NY", "zip": "14788-0196", "ntee": "X20", "ruling": "201704", "deductibility": "1", "assets": 0, "income": 0, "revenue": 0}], "SAYS": [{"ein": "814703212", "name": "NETTIE SAYS INC", "city": "LIDO BEACH", "state": "NY", "zip": "11561-4806", "ntee": "O12", "ruling": "201702", "deductibility": "1", "assets": 0, "income": 0, "revenue": 0}], "CUMMING": [{"ein": "817140245", "name": "BARBARA BELL CUMMING CHARITABLE TR", "city": "NEW YORK", "state": "NY", "zip": "10016-5675", "ntee": "T22", "ruling": "201705", "deductibility": "1", "assets": 1970873, "income": 1710974, "revenue": 0}], "MEMUVES": [{"ein": "821276610", "name": "TZIDOKA TATZIL MEMUVES INC", "city": "BROOKLYN", "state": "NY", "zip": "11218-3710", "ntee": "Q33", "ruling": "201801", "deductibility": "1", "assets": 0, "income": 0, "revenue": 0}], "CASSATA": [{"ein": "821512340", "name": "CASSATA FOUNDATION INC", "city": "FARMINGDALE", "state": "NY", "zip": "11735-4800", "ntee": "T20", "ruling": "201808", "deductibility": "1", "assets": 16703, "income": 65500, "revenue": 0}, {"ein": "934127795", "name": "ROSARIO AND MICHELE CASSATA FAMILY FOUNDATION LTD", "city": "SAYVILLE", "state": "NY", "zip": "11782-2540", "ntee": "P30", "ruling": "202501", "deductibility": "1", "assets": 817, "income": 9681, "revenue": 9681}], "SENTIENCE": [{"ein": "822537926", "name": "SENTIENCE INSTITUTE INC", "city": "NEW YORK", "state": "NY", "zip": "10006-1452", "ntee": "D99", "ruling": "201902", "deductibility": "1", "assets": 378582, "income": 53363, "revenue": 53363}], "ALFIERI": [{"ein": "830489124", "name": "GIACOMO JACK ALFIERI FOUNDATION", "city": "GLEN COVE", "state": "NY", "zip": "11542-3104", "ntee": "B82", "ruling": "200903", "deductibility": "1", "assets": 45898, "income": 4260, "revenue": 0}], "IRESEARCH": [{"ein": "831553659", "name": "IRESEARCH FOUNDATION INC", "city": "GLEN COVE", "state": "NY", "zip": "11542-3107", "ntee": "B82", "ruling": "201808", "deductibility": "1", "assets": 32316, "income": 90, "revenue": 90}], "ZOEYS": [{"ein": "832219541", "name": "ZOEYS LIGHT INC", "city": "FAIRPORT", "state": "NY", "zip": "14450-8769", "ntee": "P20", "ruling": "201902", "deductibility": "1", "assets": 0, "income": 0, "revenue": 0}, {"ein": "882219693", "name": "ZOEYS ZONE INC", "city": "CADYVILLE", "state": "NY", "zip": "12918-0000", "ntee": "P99", "ruling": "202208", "deductibility": "1", "assets": 0, "income": 0, "revenue": 0}], "NEWORK": [{"ein": "832292291", "name": "LEGAL ACTION NEWORK FOR ANIMALS INC", "city": "GREAT NECK", "state": "NY", "zip": "11023-2434", "ntee": "D99", "ruling": "202103", "deductibility": "1", "assets": 0, "income": 0, "revenue": 0}], "TINKHAM": [{"ein": "834037087", "name": "RICHARD C TINKHAM FOUNDATION INC", "city": "HOOSICK FALLS", "state": "NY", "zip": "12090-1122", "ntee": "B82", "ruling": "202208", "deductibility": "1", "assets": 0, "income": 0, "revenue": 0}], "TECHIEEE": [{"ein": "834602076", "name": "TECHIEEE TECHNOLOGY LEAGUE INC", "city": "NEW YORK", "state": "NY", "zip": "10017-4761", "ntee": "O50", "ruling": "202301", "deductibility": "1", "assets": 0, "income": 0, "revenue": 0}], "KY": [{"ein": "841997377", "name": "CONG ACHIEZER KY", "city": "MONROE", "state": "NY", "zip": "10950-6047", "ntee": "X30", "ruling": "202004", "deductibility": "1", "assets": 0, "income": 0, "revenue": 0}, {"ein": "923958183", "name": "TORA UTFILA KY INC", "city": "MONROE", "state": "NY", "zip": "10950-3876", "ntee": "X30", "ruling": "202309", "deductibility": "1", "assets": 0, "income": 0, "revenue": 0}], "REPS": [{"ein": "842313070", "name": "PRO REPS OUTREACH INC", "city": "QUEENS VLG", "state": "NY", "zip": "11428-1230", "ntee": "N62", "ruling": "201908", "deductibility": "1", "assets": 0, "income": 0, "revenue": 0}, {"ein": "843818177", "name": "REPS FOR RESPONDERS", "city": "CONGERS", "state": "NY", "zip": "10920-1421", "ntee": "F99", "ruling": "201912", "deductibility": "1", "assets": 9045, "income": 60543, "revenue": 44330}], "IKODHI": [{"ein": "842688886", "name": "IKODHI INC", "city": "NEW YORK", "state": "NY", "zip": "10006-1646", "ntee": "", "ruling": "202209", "deductibility": "1", "assets": 11866, "income": 58352, "revenue": 58352}], "BOSANSKI": [{"ein": "843408534", "name": "BOSANSKI BEHAR INC", "city": "UTICA", "state": "NY", "zip": "13501-4659", "ntee": "A23", "ruling": "202003", "deductibility": "1", "assets": 0, "income": 0, "revenue": 0}], "ETOSHA": [{"ein": "843431142", "name": "ETOSHA LION FOUNDATION", "city": "BROOKLYN", "state": "NY", "zip": "11231-3774", "ntee": "D30", "ruling": "202004", "deductibility": "1", "assets": 0, "income": 0, "revenue": 0}], "PINKMARKED": [{"ein": "843941061", "name": "PINKMARKED FOUNDATION INC", "city": "GREAT NECK", "state": "NY", "zip": "11021-2357", "ntee": "P60", "ruling": "202001", "deductibility": "1", "assets": 0, "income": 0, "revenue": 0}], "URANCE": [{"ein": "844853105", "name": "URANCE INC", "city": "WASHINGTONVLE", "state": "NY", "zip": "10992-1268", "ntee": "B12", "ruling": "202103", "deductibility": "1", "assets": 0, "income": 0, "revenue": 0}], "DAMEABLAZE": [{"ein": "844999845", "name": "DAMEABLAZE INC", "city": "NEW YORK", "state": "NY", "zip": "10003-1502", "ntee": "O50", "ruling": "202004", "deductibility": "1", "assets": 0, "income": 0, "revenue": 0}], "CUNEO": [{"ein": "853851007", "name": "CUNEO FOUNDATION INC", "city": "DOBBS FERRY", "state": "NY", "zip": "10522-3003", "ntee": "T20", "ruling": "202104", "deductibility": "1", "assets": 295957, "income": 323012, "revenue": 0}], "RECONCILED": [{"ein": "854058555", "name": "RECONCILED CHURCH", "city": "FLUSHING", "state": "NY", "zip": "11358-0413", "ntee": "X20", "ruling": "202111", "deductibility": "1", "assets": 0, "income": 0, "revenue": 0}], "INGRAM": [{"ein": "854125205", "name": "INGRAM CASTLE FOUNDATION INC", "city": "SYRACUSE", "state": "NY", "zip": "13215-1331", "ntee": "S20", "ruling": "202108", "deductibility": "1", "assets": 82277, "income": 97520, "revenue": 82277}], "HADAYUNIM": [{"ein": "854283970", "name": "KIPAS HADAYUNIM OF ROCKLAND COUNTY INC", "city": "SPRING VALLEY", "state": "NY", "zip": "10977-5647", "ntee": "X30", "ruling": "202108", "deductibility": "1", "assets": 0, "income": 0, "revenue": 0}], "LMCP": [{"ein": "861813642", "name": "LMCP FUND CORP", "city": "SAYVILLE", "state": "NY", "zip": "11782-1926", "ntee": "B12", "ruling": "202111", "deductibility": "1", "assets": 1, "income": 0, "revenue": 0}], "MOKOBODSKI": [{"ein": "862651351", "name": "MOKOBODSKI FOUNDATION INC", "city": "MONSEY", "state": "NY", "zip": "10952-2112", "ntee": "T50", "ruling": "202111", "deductibility": "1", "assets": 217660, "income": 19923, "revenue": 0}], "COT": [{"ein": "871561208", "name": "COT NEIGHBORS UNITED", "city": "TONAWANDA", "state": "NY", "zip": "14150-5292", "ntee": "N99", "ruling": "202206", "deductibility": "1", "assets": 0, "income": 0, "revenue": 0}], "MINDZ": [{"ein": "882534735", "name": "MINORITY MINDZ INC", "city": "BROOKLYN", "state": "NY", "zip": "11205-3558", "ntee": "S31", "ruling": "202210", "deductibility": "1", "assets": 0, "income": 0, "revenue": 0}, {"ein": "920803385", "name": "FRESH-MINDZ FRESH-LIVEZ INC", "city": "NEW YORK", "state": "NY", "zip": "10032-4412", "ntee": "I21", "ruling": "202301", "deductibility": "1", "assets": 0, "income": 0, "revenue": 0}, {"ein": "922929254", "name": "STEMULATE YOUNG MINDZ", "city": "BROOKLYN", "state": "NY", "zip": "11207-3215", "ntee": "O50", "ruling": "202305", "deductibility": "1", "assets": 0, "income": 0, "revenue": 0}, {"ein": "993417160", "name": "BERRS INFINITE MINDZ LEARNING PODS INC", "city": "ROCHESTER", "state": "NY", "zip": "14608-2353", "ntee": "O50", "ruling": "202502", "deductibility": "1", "assets": 0, "income": 0, "revenue": 0}], "DADREAM": [{"ein": "883106526", "name": "DADREAM MISSION CHURCH INC", "city": "BAYSIDE", "state": "NY", "zip": "11361-3580", "ntee": "X20", "ruling": "202211", "deductibility": "1", "assets": 0, "income": 0, "revenue": 0}], "REBELYA": [{"ein": "884225932", "name": "HOLISTIC REBELYA INC", "city": "FRESH MEADOWS", "state": "NY", "zip": "11366-1609", "ntee": "P20", "ruling": "202305", "deductibility": "1", "assets": 0, "income": 0, "revenue": 0}], "SASSEE": [{"ein": "920945600", "name": "SASSEE CATS INC", "city": "BROOKLYN", "state": "NY", "zip": "11236-2234", "ntee": "D20", "ruling": "202211", "deductibility": "1", "assets": 0, "income": 0, "revenue": 0}], "FEED716": [{"ein": "923793868", "name": "FEED716", "city": "BUFFALO", "state": "NY", "zip": "14201-1709", "ntee": "K31", "ruling": "202306", "deductibility": "1", "assets": 34399, "income": 147337, "revenue": 147337}], "MOONS": [{"ein": "923866609", "name": "THREE THOUSAND MOONS INC", "city": "BROOKLYN", "state": "NY", "zip": "11221-5164", "ntee": "A20", "ruling": "202305", "deductibility": "1", "assets": 0, "income": 0, "revenue": 0}], "JIMSDOLL": [{"ein": "932727507", "name": "JIMSDOLL FOUNDATION INC", "city": "MASSAPEQUA", "state": "NY", "zip": "11758-2398", "ntee": "T30", "ruling": "202308", "deductibility": "1", "assets": 0, "income": 0, "revenue": 0}], "YG": [{"ein": "933257131", "name": "CONGREGATION YG OHR TORAH", "city": "MONSEY", "state": "NY", "zip": "10952-1442", "ntee": "X30", "ruling": "202406", "deductibility": "1", "assets": 0, "income": 0, "revenue": 0}], "GJW": [{"ein": "933322370", "name": "FD-GJW FOUNDATION INC", "city": "MIDDLETOWN", "state": "NY", "zip": "10940-6265", "ntee": "W11", "ruling": "202402", "deductibility": "1", "assets": 0, "income": 0, "revenue": 0}], "AIWAH": [{"ein": "981815308", "name": "AIWAH FOUNDATION INC", "city": "NEW YORK", "state": "NY", "zip": "10003-1502", "ntee": "B90", "ruling": "202411", "deductibility": "1", "assets": 0, "income": 0, "revenue": 0}], "BREAKBEATCODE": [{"ein": "990627907", "name": "BREAKBEATCODE INC", "city": "NEW YORK", "state": "NY", "zip": "10003-0000", "ntee": "B90", "ruling": "202410", "deductibility": "1", "assets": 0, "income": 0, "revenue": 0}], "ISF": [{"ein": "993737943", "name": "ISF 6-24 FOUNDATION", "city": "BROOKLYN", "state": "NY", "zip": "11219-4227", "ntee": "T20", "ruling": "202407", "deductibility": "1", "assets": 0, "income": 0, "revenue": 0}], "JASEON": [{"ein": "994687027", "name": "JASEON", "city": "NEW YORK", "state": "NY", "zip": "10021-3617", "ntee": "E80", "ruling": "202412", "deductibility": "1", "assets": 0, "income": 0, "revenue": 0}], "EPIPHANNY": [{"ein": "995006155", "name": "EPIPHANNY PRINCE FAMILY FOUNDATION", "city": "BROOKLYN", "state": "NY", "zip": "11217-1525", "ntee": "P30", "ruling": "202409", "deductibility": "1", "assets": 0, "income": 0, "revenue": 0}]}