{"EVERGREEN": [{"ein": "010772925", "name": "ASHNER FAMILY EVERGREEN FOUNDATION", "city": "JERICHO", "state": "NY", "zip": "11753-1681", "ntee": "T90", "ruling": "200304", "deductibility": "1", "assets": 2113687, "income": 2610426, "revenue": 0}, {"ein": "112028412", "name": "EVERGREEN BAPTIST CHURCH INC", "city": "BROOKLYN", "state": "NY", "zip": "11221-4917", "ntee": "", "ruling": "199311", "deductibility": "1", "assets": 0, "income": 0, "revenue": 0}, {"ein": "112647339", "name": "EVERGREEN INC-YOUR NORTH BROOKLYN BUSINESS EXCHANGE", "city": "BROOKLYN", "state": "NY", "zip": "11211-1695", "ntee": "S400", "ruling": "198308", "deductibility": "1", "assets": 12499878, "income": 1389475, "revenue": 1372487}, {"ein": "112852138", "name": "EVERGREEN PRESBYTERIAN CHURCH INC", "city": "HICKSVILLE", "state": "NY", "zip": "11801-1702", "ntee": "X21Z", "ruling": "199410", "deductibility": "1", "assets": 0, "income": 0, "revenue": 0}, {"ein": "113008085", "name": "EVERGREEN PRESBYTERIAN CHURCH OF NEW YORK", "city": "FLUSHING", "state": "NY", "zip": "11354-3137", "ntee": "", "ruling": "199111", "deductibility": "1", "assets": 0, "income": 0, "revenue": 0}, {"ein": "113192146", "name": "NEW YORK TAIWANESE EVERGREEN SENIOR CITIZENS ASSOCIATION INC", "city": "NEW YORK", "state": "NY", "zip": "10013-4554", "ntee": "A23", "ruling": "201512", "deductibility": "1", "assets": 1412, "income": 8626, "revenue": 3678}, {"ein": "113413164", "name": "NEW YORK EVERGREEN PRESBYTERIAN CHURCH", "city": "MERRICK", "state": "NY", "zip": "11566-4744", "ntee": "X99Z", "ruling": "199805", "deductibility": "1", "assets": 0, "income": 0, "revenue": 0}, {"ein": "113534156", "name": "TROUTMAN-EVERGREEN HOUSING DEVELOPMENT FUND COMPANY INC", "city": "BROOKLYN", "state": "NY", "zip": "11206-4628", "ntee": "L21", "ruling": "200006", "deductibility": "1", "assets": 6680636, "income": 1255134, "revenue": 1255134}, {"ein": "113615328", "name": "EVERGREEN CHURCH OF NEW YORK", "city": "FLUSHING", "state": "NY", "zip": "11358-1205", "ntee": "X20", "ruling": "200109", "deductibility": "1", "assets": 0, "income": 0, "revenue": 0}, {"ein": "132720769", "name": "EVERGREEN ESTATES HOUSING DEVELOPMENT FUND COMPANY INC", "city": "NEW YORK", "state": "NY", "zip": "10001-2519", "ntee": "L20", "ruling": "201503", "deductibility": "1", "assets": 8364568, "income": 4902829, "revenue": 4902829}, {"ein": "133301413", "name": "THE EVERGREEN ASSOCIATION INC", "city": "YONKERS", "state": "NY", "zip": "10705-2525", "ntee": "", "ruling": "198608", "deductibility": "1", "assets": 298329, "income": 730003, "revenue": 730003}, {"ein": "133981873", "name": "THE EVERGREEN REVIEW", "city": "LONG IS CITY", "state": "NY", "zip": "11101-3801", "ntee": "A33", "ruling": "202308", "deductibility": "1", "assets": 7285, "income": 104907, "revenue": 104907}, {"ein": "140646726", "name": "EVERGREEN CEMETERY ASSOC", "city": "FONDA", "state": "NY", "zip": "12068-0057", "ntee": "", "ruling": "198106", "deductibility": "1", "assets": 283993, "income": 54687, "revenue": 54687}, {"ein": "140646727", "name": "EVERGREEN CEMETERY ASSOCIATION", "city": "SALEM", "state": "NY", "zip": "12865-0103", "ntee": "", "ruling": "194406", "deductibility": "1", "assets": 0, "income": 0, "revenue": 0}, {"ein": "141396416", "name": "EVERGREEN CEMETERY INC", "city": "PINE PLAINS", "state": "NY", "zip": "12567-0296", "ntee": "", "ruling": "196203", "deductibility": "1", "assets": 1926513, "income": 84317, "revenue": 82280}, {"ein": "141433568", "name": "EVERGREEN MEMORIAL PARK ASSOCIATION INC", "city": "SCHENECTADY", "state": "NY", "zip": "12304-4480", "ntee": "", "ruling": "195009", "deductibility": "1", "assets": 606116, "income": 311594, "revenue": 248115}, {"ein": "141439570", "name": "EVERGREEN CEMETERY ASSOC", "city": "LAKE GEORGE", "state": "NY", "zip": "12845-0572", "ntee": "Y50", "ruling": "200605", "deductibility": "1", "assets": 0, "income": 0, "revenue": 0}, {"ein": "146023037", "name": "EVERGREEN CEMETERY ASSOC INC", "city": "COCHECTON", "state": "NY", "zip": "12726-5032", "ntee": "", "ruling": "196809", "deductibility": "1", "assets": 0, "income": 0, "revenue": 0}, {"ein": "150530845", "name": "TRENTON EVERGREEN CEMETERY ASSOCIATION INC", "city": "BARNEVELD", "state": "NY", "zip": "13304-0155", "ntee": "", "ruling": "197004", "deductibility": "1", "assets": 0, "income": 0, "revenue": 0}, {"ein": "150568010", "name": "EVERGREEN CEMETRY ASSOC", "city": "ADAMS", "state": "NY", "zip": "13605-2181", "ntee": "Y50", "ruling": "202411", "deductibility": "1", "assets": 0, "income": 0, "revenue": 0}, {"ein": "150572699", "name": "EVERGREEN CEMETERY ASSOC INC", "city": "NORWICH", "state": "NY", "zip": "13815-0000", "ntee": "Y50", "ruling": "202308", "deductibility": "1", "assets": 0, "income": 0, "revenue": 0}, {"ein": "150579947", "name": "HURON EVERGREEN CEMETERY INC", "city": "HURON", "state": "NY", "zip": "14590-0000", "ntee": "Y50", "ruling": "201209", "deductibility": "1", "assets": 173135, "income": 39657, "revenue": 39657}, {"ein": "150614033", "name": "ORWELL EVERGREEN CEMETERY ASSOCIATION INC", "city": "ORWELL", "state": "NY", "zip": "13426-0355", "ntee": "", "ruling": "200307", "deductibility": "0", "assets": 0, "income": 0, "revenue": 0}, {"ein": "160723112", "name": "EVERGREEN HILL CEMETERY ASSOCIATION INC", "city": "CORFU", "state": "NY", "zip": "14036-9609", "ntee": "Y50", "ruling": "201709", "deductibility": "1", "assets": 0, "income": 0, "revenue": 0}, {"ein": "160793752", "name": "EVERGREEN CEMETERY ASSOCIATION", "city": "BLOOMFIELD", "state": "NY", "zip": "14469-9761", "ntee": "Y50", "ruling": "201605", "deductibility": "1", "assets": 0, "income": 0, "revenue": 0}, {"ein": "160875381", "name": "EVERGREEN CEMETERY ASSOCIATION", "city": "EAST AURORA", "state": "NY", "zip": "14052-9692", "ntee": "W03", "ruling": "201905", "deductibility": "2", "assets": 0, "income": 0, "revenue": 0}, {"ein": "160927466", "name": "FABIUS EVERGREEN CEMETARY ASSOCIATION", "city": "FABIUS", "state": "NY", "zip": "13063-0089", "ntee": "", "ruling": "196805", "deductibility": "1", "assets": 0, "income": 0, "revenue": 0}, {"ein": "161472048", "name": "THE EVERGREEN FOUNDATION", "city": "BUFFALO", "state": "NY", "zip": "14201-2398", "ntee": "T30Z", "ruling": "199505", "deductibility": "1", "assets": 19941800, "income": 2472661, "revenue": 2126182}, {"ein": "166054795", "name": "EVERGREEN HILL CEMETERY ASSOCIATION", "city": "UNADILLA", "state": "NY", "zip": "13849-0764", "ntee": "", "ruling": "194506", "deductibility": "1", "assets": 489601, "income": 97623, "revenue": 65851}, {"ein": "222417273", "name": "EVERGREEN ADULT DAY CARE INC", "city": "SARATOGA SPGS", "state": "NY", "zip": "12866-1346", "ntee": "P700", "ruling": "198210", "deductibility": "1", "assets": 1742, "income": 1, "revenue": 0}, {"ein": "264652712", "name": "EVERGREEN CHARTER SCHOOL", "city": "HEMPSTEAD", "state": "NY", "zip": "11550-5424", "ntee": "B29", "ruling": "201005", "deductibility": "1", "assets": 125186068, "income": 31214181, "revenue": 31214181}, {"ein": "300988174", "name": "EVERGREEN GOSPEL CHAPEL", "city": "BROOKLYN", "state": "NY", "zip": "11221-2608", "ntee": "X20", "ruling": "201911", "deductibility": "1", "assets": 0, "income": 0, "revenue": 0}, {"ein": "814677658", "name": "THE EVERGREEN CHURCH OF GOD IN CHRIST WORSHIP CENTER INC", "city": "BROOKLYN", "state": "NY", "zip": "11233-0000", "ntee": "X21", "ruling": "201811", "deductibility": "1", "assets": 0, "income": 0, "revenue": 0}, {"ein": "843407110", "name": "MINISTRY FIT FOR LIFE EVERGREEN INTERNATIONAL INC", "city": "GASPORT", "state": "NY", "zip": "14067-9347", "ntee": "P20", "ruling": "201911", "deductibility": "1", "assets": 0, "income": 0, "revenue": 0}, {"ein": "843467740", "name": "FRIENDS OF OWEGO EVERGREEN CEMETERY INC", "city": "OWEGO", "state": "NY", "zip": "13827-0065", "ntee": "S12", "ruling": "202003", "deductibility": "1", "assets": 0, "income": 0, "revenue": 0}, {"ein": "843730957", "name": "TANNERSVILLE EVERGREEN CEMETERY", "city": "TANNERSVILLE", "state": "NY", "zip": "12485-0686", "ntee": "Y50", "ruling": "202006", "deductibility": "1", "assets": 0, "income": 0, "revenue": 0}, {"ein": "850748178", "name": "EVERGREEN MINDS INC", "city": "FISHKILL", "state": "NY", "zip": "12524-2518", "ntee": "", "ruling": "202006", "deductibility": "1", "assets": 0, "income": 0, "revenue": 0}, {"ein": "851738874", "name": "BEIS MENACHEM EVERGREEN INC", "city": "BROOKLYN", "state": "NY", "zip": "11225-3223", "ntee": "X30", "ruling": "202105", "deductibility": "1", "assets": 0, "income": 0, "revenue": 0}, {"ein": "863679005", "name": "FRIENDS OF EVERGREEN MEADOW ACADEMY", "city": "COCHECTON", "state": "NY", "zip": "12726-0064", "ntee": "F12", "ruling": "202203", "deductibility": "1", "assets": 96564, "income": 187331, "revenue": 187331}, {"ein": "871149520", "name": "EVERGREEN MEADOW SERVICES INC", "city": "COCHECTON", "state": "NY", "zip": "12726-0064", "ntee": "F30", "ruling": "202112", "deductibility": "1", "assets": 194777, "income": 528111, "revenue": 528111}], "HAMEDROSH": [{"ein": "060995984", "name": "CONGREGATION BETH HAMEDROSH OF CROWN STREET", "city": "BKLYN", "state": "NY", "zip": "11225-3120", "ntee": "", "ruling": "198002", "deductibility": "1", "assets": 0, "income": 0, "revenue": 0}, {"ein": "237215271", "name": "BAIS HAMEDROSH CHEIV YISROEL CHASIDEI ZIDICHOIV", "city": "BROOKLYN", "state": "NY", "zip": "11219-2932", "ntee": "", "ruling": "197206", "deductibility": "1", "assets": 0, "income": 0, "revenue": 0}, {"ein": "237440876", "name": "BETH HAMEDROSH RIBNITZ", "city": "BROOKLYN", "state": "NY", "zip": "11219-3578", "ntee": "", "ruling": "197504", "deductibility": "1", "assets": 0, "income": 0, "revenue": 0}], "UNCONSCIOUS": [{"ein": "061577437", "name": "COLLECTIVE UNCONSCIOUS CORPORATION", "city": "NEW YORK", "state": "NY", "zip": "10026-0000", "ntee": "A650", "ruling": "200206", "deductibility": "1", "assets": 0, "income": 0, "revenue": 0}], "KNOWN": [{"ein": "061585154", "name": "CHURCH OF LETTING JESUS BE KNOWN", "city": "FLUSHING", "state": "NY", "zip": "11358-3651", "ntee": "X21", "ruling": "200302", "deductibility": "1", "assets": 0, "income": 0, "revenue": 0}, {"ein": "133920333", "name": "ALSO KNOWN AS INC", "city": "NEW YORK", "state": "NY", "zip": "10150-6037", "ntee": "P80", "ruling": "202202", "deductibility": "1", "assets": 0, "income": 0, "revenue": 0}, {"ein": "134007122", "name": "EVANGELIGAL CHURCH LETTING CHRIST BE KNOWN INC", "city": "BRONX", "state": "NY", "zip": "10469-0000", "ntee": "X20", "ruling": "199908", "deductibility": "1", "assets": 0, "income": 0, "revenue": 0}, {"ein": "331566921", "name": "KNOW THE KNOWN INC", "city": "ALBANY", "state": "NY", "zip": "12207-2922", "ntee": "P20", "ruling": "202410", "deductibility": "1", "assets": 0, "income": 0, "revenue": 0}, {"ein": "352693529", "name": "HIDDEN TREASURE MADE KNOWN INC", "city": "GARDEN CITY", "state": "NY", "zip": "11530-5423", "ntee": "X99", "ruling": "202103", "deductibility": "1", "assets": 0, "income": 0, "revenue": 0}, {"ein": "475660177", "name": "BANGLADESHI AMERICAN FOUNDATION OF ALBANY INC - KNOWN AS BAFA", "city": "COHOES", "state": "NY", "zip": "12047-2868", "ntee": "T50", "ruling": "201604", "deductibility": "1", "assets": 0, "income": 0, "revenue": 0}, {"ein": "994113662", "name": "VIV IEVANGILE MINISTRIES INC ALSO KNOWN AS GLORY MINISTRIES INC", "city": "BALDWIN", "state": "NY", "zip": "11510-0203", "ntee": "X20", "ruling": "202504", "deductibility": "1", "assets": 0, "income": 0, "revenue": 0}], "AVOW": [{"ein": "061808371", "name": "AVOW INTERNATIONAL CENTER INC", "city": "CAZENOVIA", "state": "NY", "zip": "13035-9380", "ntee": "X21", "ruling": "200902", "deductibility": "1", "assets": 0, "income": 0, "revenue": 0}], "COMMUTERS": [{"ein": "110642111", "name": "COMMUTERS CLUB INC", "city": "EAST ROCKAWAY", "state": "NY", "zip": "11518-1226", "ntee": "", "ruling": "195305", "deductibility": "2", "assets": 139832, "income": 161572, "revenue": 111512}], "KNICKERBOCKER": [{"ein": "110962310", "name": "KNICKERBOCKER FIELD CLUB", "city": "BROOKLYN", "state": "NY", "zip": "11215-1783", "ntee": "", "ruling": "194306", "deductibility": "2", "assets": 513458, "income": 331862, "revenue": 331862}, {"ein": "130923655", "name": "KNICKERBOCKER CLUB INC", "city": "NEW YORK", "state": "NY", "zip": "10065-0018", "ntee": "", "ruling": "194207", "deductibility": "2", "assets": 10732156, "income": 13986337, "revenue": 9841599}, {"ein": "131871550", "name": "KNICKERBOCKER YACHT CLUB", "city": "NORTH MERRICK", "state": "NY", "zip": "11566-1332", "ntee": "", "ruling": "196906", "deductibility": "2", "assets": 0, "income": 0, "revenue": 0}, {"ein": "133856954", "name": "KNICKERBOCKER PROPERTIES INC XX", "city": "NEW YORK", "state": "NY", "zip": "10020-1104", "ntee": "X99", "ruling": "199806", "deductibility": "2", "assets": 221285679, "income": 19644666, "revenue": 7490747}, {"ein": "134198844", "name": "KNICKERBOCKER PROPERTIES INC XXXVIII", "city": "NEW YORK", "state": "NY", "zip": "10020-1104", "ntee": "S47", "ruling": "200404", "deductibility": "2", "assets": 120404651, "income": 11399359, "revenue": 4718161}, {"ein": "136001172", "name": "KNICKERBOCKER GREYS", "city": "NEW YORK", "state": "NY", "zip": "10065-6122", "ntee": "O50", "ruling": "201605", "deductibility": "1", "assets": 0, "income": 0, "revenue": 0}, {"ein": "136123324", "name": "KNICKERBOCKER TRIANGLE ASSOCIATION INC", "city": "NEW YORK", "state": "NY", "zip": "10162-0007", "ntee": "", "ruling": "197308", "deductibility": "2", "assets": 1562935, "income": 894911, "revenue": 664806}, {"ein": "146030319", "name": "KNICKERBOCKER HISTORICAL SOCIETY INC", "city": "SCHAGHTICOKE", "state": "NY", "zip": "12154-0029", "ntee": "A82Z", "ruling": "195908", "deductibility": "1", "assets": 457620, "income": 64823, "revenue": 53543}, {"ein": "222341065", "name": "ALBANY KNICKERBOCKER RUGBY FOOTBALL CLUB INC", "city": "ALBANY", "state": "NY", "zip": "12201-1654", "ntee": "N70", "ruling": "201505", "deductibility": "1", "assets": 0, "income": 0, "revenue": 0}, {"ein": "223791633", "name": "KNICKERBOCKER PROPERTIES INC XXXVI", "city": "NEW YORK", "state": "NY", "zip": "10020-1104", "ntee": "S470", "ruling": "200310", "deductibility": "2", "assets": 124822604, "income": 11261897, "revenue": 4785582}, {"ein": "237579300", "name": "KNICKERBOCKER LODGE 182", "city": "WHITESTONE", "state": "NY", "zip": "11357-1720", "ntee": "Y42", "ruling": "201902", "deductibility": "1", "assets": 59074, "income": 47625, "revenue": 47625}, {"ein": "261342962", "name": "KNICKERBOCKER LONGWOOD LLC", "city": "NEW YORK", "state": "NY", "zip": "10169-0009", "ntee": "S47", "ruling": "202103", "deductibility": "2", "assets": 434570591, "income": 28359397, "revenue": 11227709}, {"ein": "262556569", "name": "KNICKERBOCKER CHAMBER ORCHESTRA", "city": "NEW YORK", "state": "NY", "zip": "10272-0838", "ntee": "A69", "ruling": "200809", "deductibility": "1", "assets": 57350, "income": 84873, "revenue": 84873}, {"ein": "421551325", "name": "KNICKERBOCKER PROPERTIES INC XXXIX", "city": "NEW YORK", "state": "NY", "zip": "10020-1104", "ntee": "S47", "ruling": "200607", "deductibility": "2", "assets": 46254865, "income": 4390996, "revenue": 2751823}, {"ein": "453831531", "name": "KNICKERBOCKER PTO", "city": "WATERTOWN", "state": "NY", "zip": "13601-0000", "ntee": "B94", "ruling": "201707", "deductibility": "1", "assets": 0, "income": 0, "revenue": 0}, {"ein": "455210489", "name": "KNICKERBOCKER TENNIS FOUNDATION", "city": "BROOKLYN", "state": "NY", "zip": "11215-1783", "ntee": "N66", "ruling": "201304", "deductibility": "1", "assets": 66464, "income": 38914, "revenue": 38914}, {"ein": "461433492", "name": "KNICKERBOCKER FIGURE SKATING CLUB INC", "city": "CORONA", "state": "NY", "zip": "11368-4146", "ntee": "N60", "ruling": "202212", "deductibility": "1", "assets": 0, "income": 0, "revenue": 0}, {"ein": "464299865", "name": "KNICKERBOCKER EDENS LLC", "city": "NEW YORK", "state": "NY", "zip": "10163-5005", "ntee": "Y30", "ruling": "201505", "deductibility": "2", "assets": 1444871492, "income": 16504562, "revenue": 16504562}, {"ein": "471842024", "name": "KNICKERBOCKER BARRINGTON PLACE LLC", "city": "NEW YORK", "state": "NY", "zip": "10163-5005", "ntee": "S47", "ruling": "201601", "deductibility": "2", "assets": 152422000, "income": 11773000, "revenue": 7108000}, {"ein": "680367474", "name": "KNICKERBOCKER PROPERTIES INC XIX", "city": "NEW YORK", "state": "NY", "zip": "10020-1104", "ntee": "", "ruling": "199706", "deductibility": "2", "assets": 64377033, "income": 5363705, "revenue": 2158969}, {"ein": "743101324", "name": "KNICKERBOCKER PROPERTIES INC XLII", "city": "NEW YORK", "state": "NY", "zip": "10020-1104", "ntee": "S47", "ruling": "200702", "deductibility": "2", "assets": 44846316, "income": 5234077, "revenue": 2180232}, {"ein": "760738190", "name": "KNICKERBOCKER PROPERTIES INC XLI", "city": "NEW YORK", "state": "NY", "zip": "10020-1104", "ntee": "S47", "ruling": "200702", "deductibility": "2", "assets": 80853319, "income": 6506571, "revenue": 3153838}, {"ein": "832640879", "name": "KNICKERBOCKER EDGE LLC", "city": "NEW YORK", "state": "NY", "zip": "10004-1405", "ntee": "B02", "ruling": "202007", "deductibility": "2", "assets": 178460014, "income": 11735159, "revenue": 7502135}, {"ein": "841622619", "name": "KNICKERBOCKER PROPERTIES INC XL", "city": "NEW YORK", "state": "NY", "zip": "10020-1104", "ntee": "S47", "ruling": "200607", "deductibility": "2", "assets": 114350890, "income": 9556479, "revenue": 4354064}, {"ein": "862673658", "name": "KNICKERBOCKER CENTENNIAL LLC", "city": "NEW YORK", "state": "NY", "zip": "10020-0083", "ntee": "S47", "ruling": "202207", "deductibility": "2", "assets": 100593617, "income": 7546228, "revenue": 3724188}, {"ein": "862788853", "name": "KNICKERBOCKER TN ESTATES LLC", "city": "NEW YORK", "state": "NY", "zip": "10020-1104", "ntee": "", "ruling": "202103", "deductibility": "0", "assets": 86781540, "income": 7078618, "revenue": 3581070}, {"ein": "863098623", "name": "KNICKERBOCKER BULL TERRIER CLUB INC", "city": "BROOKLYN", "state": "NY", "zip": "11217-3704", "ntee": "D60", "ruling": "202201", "deductibility": "1", "assets": 0, "income": 0, "revenue": 0}, {"ein": "933902608", "name": "KNICKERBOCKER 4TH & MADISON LLC", "city": "ALBANY", "state": "NY", "zip": "12211-2349", "ntee": "S47", "ruling": "202409", "deductibility": "2", "assets": 225727428, "income": 834887, "revenue": 361209}], "CHIDUSHE": [{"ein": "112431187", "name": "CONGREGATION CHASIDEI GUR CHIDUSHE HARIM", "city": "BROOKLYN", "state": "NY", "zip": "11230-6401", "ntee": "", "ruling": "198102", "deductibility": "1", "assets": 0, "income": 0, "revenue": 0}], "BIKOR": [{"ein": "112461918", "name": "BIKOR CHOLIM C O BENJAMIN ISAACS", "city": "BKLYN", "state": "NY", "zip": "11211-7108", "ntee": "", "ruling": "197807", "deductibility": "1", "assets": 0, "income": 0, "revenue": 0}, {"ein": "112534071", "name": "BIKOR CHOLIM GEMILAS CHESSED INC", "city": "BKOOKLYN", "state": "NY", "zip": "11229-2631", "ntee": "", "ruling": "198006", "deductibility": "1", "assets": 0, "income": 0, "revenue": 0}, {"ein": "133406848", "name": "CONGREGATION BIKOR CHOLIM DKHAL MACHZEKEI HADAS", "city": "MONSEY", "state": "NY", "zip": "10952-2603", "ntee": "", "ruling": "198706", "deductibility": "1", "assets": 0, "income": 0, "revenue": 0}], "RAFAEL": [{"ein": "112473126", "name": "KEREN RAFAEL ZEV HACOHEN GEMILAS CHESSED FUND INC", "city": "FAR ROCKAWAY", "state": "NY", "zip": "11691-5111", "ntee": "", "ruling": "197901", "deductibility": "1", "assets": 0, "income": 0, "revenue": 0}, {"ein": "112643057", "name": "GEMACH CHAIM RAFAEL INC", "city": "BROOKLYN", "state": "NY", "zip": "11216-0000", "ntee": "", "ruling": "198307", "deductibility": "1", "assets": 0, "income": 0, "revenue": 0}, {"ein": "112676612", "name": "RAFAEL SOLOVEICHIK INC", "city": "BROOKLYN", "state": "NY", "zip": "11210-4840", "ntee": "", "ruling": "198404", "deductibility": "1", "assets": 0, "income": 0, "revenue": 0}, {"ein": "137061685", "name": "YESHIVA BEIT RAFAEL", "city": "FLUSHING", "state": "NY", "zip": "11367-2841", "ntee": "T30", "ruling": "199608", "deductibility": "1", "assets": 163892, "income": 53102, "revenue": 53102}, {"ein": "201365509", "name": "RAFAEL BRENNER ASHE FOUNDATION", "city": "HALESITE", "state": "NY", "zip": "11743-1208", "ntee": "T22", "ruling": "200410", "deductibility": "1", "assets": 331256, "income": 25591, "revenue": 0}, {"ein": "475466069", "name": "DETECTIVE RAFAEL RAMOS FOUNDATION INC", "city": "HOWARD BEACH", "state": "NY", "zip": "11414-0354", "ntee": "P40", "ruling": "201702", "deductibility": "1", "assets": 43542, "income": 77783, "revenue": 77783}, {"ein": "822636867", "name": "MACHON SHIUREI RAV RAFAEL INC", "city": "FAR ROCKAWAY", "state": "NY", "zip": "11691-5151", "ntee": "X83", "ruling": "201709", "deductibility": "1", "assets": 0, "income": 0, "revenue": 0}, {"ein": "932025242", "name": "FRIENDS OF YAD RAFAEL INC", "city": "POMONA", "state": "NY", "zip": "10970-2001", "ntee": "X30", "ruling": "202307", "deductibility": "1", "assets": 0, "income": 0, "revenue": 0}], "DIEU": [{"ein": "112613683", "name": "EGLISE EVANGELIQUE DE DIEU EN CHRIST", "city": "BROOKLYN", "state": "NY", "zip": "11203-3911", "ntee": "X20", "ruling": "200001", "deductibility": "1", "assets": 0, "income": 0, "revenue": 0}, {"ein": "113476270", "name": "EGLISE DE DIEU DU BON SAMARITAIN DE MIDDLE ISLAND INC", "city": "CORAM", "state": "NY", "zip": "11727-3359", "ntee": "X21", "ruling": "200910", "deductibility": "1", "assets": 0, "income": 0, "revenue": 0}, {"ein": "113637316", "name": "EGLISE DE DIEU DE LA NOUVELLE JERUSALEM", "city": "HOLLIS", "state": "NY", "zip": "11412-1802", "ntee": "X21", "ruling": "200201", "deductibility": "1", "assets": 0, "income": 0, "revenue": 0}, {"ein": "222814886", "name": "DIEU DONNE PAPER MILL INC", "city": "BROOKLYN", "state": "NY", "zip": "11205-1069", "ntee": "A400", "ruling": "198803", "deductibility": "1", "assets": 2351929, "income": 1735462, "revenue": 1735462}, {"ein": "371606416", "name": "LASSEMBLE DES FIDELES DE DIEU", "city": "CAMBRIA HTS", "state": "NY", "zip": "11411-1846", "ntee": "X21", "ruling": "201102", "deductibility": "1", "assets": 1, "income": 74339, "revenue": 74339}, {"ein": "412027180", "name": "EGLISE DE DIEU DES SENTINELLES", "city": "QUEENS VLG", "state": "NY", "zip": "11429-2162", "ntee": "X20", "ruling": "200303", "deductibility": "1", "assets": 0, "income": 0, "revenue": 0}, {"ein": "465548985", "name": "EGLISE ASSEMBLEE DE DIEU TABERNACLE DE LA GRACE INC", "city": "BROOKLYN", "state": "NY", "zip": "11203-2215", "ntee": "X20", "ruling": "201612", "deductibility": "1", "assets": 0, "income": 0, "revenue": 0}, {"ein": "475570276", "name": "EGLISE DE DIEU LA GRANDE COMMISSION MT 2819 INC", "city": "BROOKLYN", "state": "NY", "zip": "11203-5906", "ntee": "X20", "ruling": "202201", "deductibility": "1", "assets": 0, "income": 0, "revenue": 0}, {"ein": "562344781", "name": "EGLISE DE DIEU DE BEREE INC", "city": "BROOKLYN", "state": "NY", "zip": "11236-4132", "ntee": "X20", "ruling": "200307", "deductibility": "1", "assets": 0, "income": 0, "revenue": 0}, {"ein": "611594862", "name": "EGLISE DE DIEU PRINCE DE LA PAIX", "city": "BROOKLYN", "state": "NY", "zip": "11226-7107", "ntee": "X20", "ruling": "201003", "deductibility": "1", "assets": 0, "income": 0, "revenue": 0}, {"ein": "812638534", "name": "EGLISE DE DIEU DU FLAMBEAU CELESTE CHURCH OF GOD HEAVENLY TORCH", "city": "BROOKLYN", "state": "NY", "zip": "11210-2330", "ntee": "X20", "ruling": "201705", "deductibility": "1", "assets": 0, "income": 0, "revenue": 0}, {"ein": "853298160", "name": "LAM A DIEU CENTRE FOR HUMANITY", "city": "VALLEY STREAM", "state": "NY", "zip": "11580-1528", "ntee": "P20", "ruling": "202201", "deductibility": "1", "assets": 0, "income": 0, "revenue": 0}, {"ein": "884247237", "name": "EGLISE DE DIEU BETHEL INTERNATIONAL", "city": "CORAM", "state": "NY", "zip": "11727-1113", "ntee": "X20", "ruling": "202505", "deductibility": "1", "assets": 0, "income": 0, "revenue": 0}, {"ein": "990393645", "name": "MISSION DE L EGLISE DE DIEU DE LA FAVEUR", "city": "ROCHESTER", "state": "NY", "zip": "14613-2309", "ntee": "X20", "ruling": "202407", "deductibility": "1", "assets": 0, "income": 0, "revenue": 0}, {"ein": "992736235", "name": "VISION DE DIEU INC", "city": "BROOKLYN", "state": "NY", "zip": "11238-1122", "ntee": "P12", "ruling": "202404", "deductibility": "1", "assets": 0, "income": 0, "revenue": 0}], "CRUCIS": [{"ein": "112627791", "name": "ANCIENT MYSTICAL ORDER OF ROSAE CRUCIS", "city": "RONKONKOMA", "state": "NY", "zip": "11779-0078", "ntee": "", "ruling": "196404", "deductibility": "1", "assets": 0, "income": 0, "revenue": 0}, {"ein": "133959119", "name": "ANCIENT MYSTICAL ORDER OF ROSAE CRUCIS", "city": "NEW YORK", "state": "NY", "zip": "10022-5201", "ntee": "", "ruling": "196404", "deductibility": "1", "assets": 0, "income": 0, "revenue": 0}, {"ein": "136120539", "name": "ANCIENT MYSTICAL ORDER OF ROSAE CRUCIS", "city": "NEW YORK", "state": "NY", "zip": "10022-5201", "ntee": "", "ruling": "196404", "deductibility": "1", "assets": 0, "income": 0, "revenue": 0}], "ITALIANO": [{"ein": "112709009", "name": "CENTRO CULTURALE ITALIANO INC", "city": "WEST BABYLON", "state": "NY", "zip": "11704-6011", "ntee": "", "ruling": "198509", "deductibility": "2", "assets": 188818, "income": 71550, "revenue": 37359}, {"ein": "452509354", "name": "CENTRO CULTURALE ITALIANO DI BUFFALO INC", "city": "BUFFALO", "state": "NY", "zip": "14216-2396", "ntee": "A23", "ruling": "201906", "deductibility": "1", "assets": 2144666, "income": 997408, "revenue": 997408}, {"ein": "832537305", "name": "IN ITALIANO INC", "city": "NEW YORK", "state": "NY", "zip": "10027-7967", "ntee": "B90", "ruling": "202402", "deductibility": "1", "assets": 0, "income": 0, "revenue": 0}], "JAYS": [{"ein": "112730039", "name": "LONG ISLAND BLUE JAYS JR DRUM AND BUGLE CORPS INC", "city": "SMITHTOWN", "state": "NY", "zip": "11787-2324", "ntee": "", "ruling": "198706", "deductibility": "1", "assets": 0, "income": 0, "revenue": 0}, {"ein": "881281767", "name": "SCHENECTADY BLUE JAYS INC", "city": "SCHENECTADY", "state": "NY", "zip": "12308-2133", "ntee": "N63", "ruling": "202204", "deductibility": "1", "assets": 1, "income": 174219, "revenue": 174219}], "GILBERT": [{"ein": "112745438", "name": "GILBERT AND SULLIVAN LIGHT OPERA COMPANY OF LONG ISLAND INC", "city": "HICKSVILLE", "state": "NY", "zip": "11802-7415", "ntee": "A65", "ruling": "200509", "deductibility": "1", "assets": 0, "income": 0, "revenue": 0}, {"ein": "113149799", "name": "FRIENDS OF GILBERT & SULLIVAN INC", "city": "ROSLYN HTS", "state": "NY", "zip": "11577-1991", "ntee": "", "ruling": "199306", "deductibility": "1", "assets": 0, "income": 0, "revenue": 0}, {"ein": "132862043", "name": "NEW YORK GILBERT & SULLIVAN PLAYERS INC", "city": "NEW YORK", "state": "NY", "zip": "10025-5014", "ntee": "A650", "ruling": "197711", "deductibility": "1", "assets": 849120, "income": 1395319, "revenue": 1395319}, {"ein": "133872305", "name": "THE GILBERT HEMSLEY LIGHTING PROGRAMS INC", "city": "NEW YORK", "state": "NY", "zip": "10025-0000", "ntee": "Z99", "ruling": "199612", "deductibility": "1", "assets": 524548, "income": 76345, "revenue": 76345}, {"ein": "133961524", "name": "GILBERT L AND LINDA A SNYDER CHARITABLE FOUNDATION INC", "city": "NEW YORK", "state": "NY", "zip": "10128-0102", "ntee": "", "ruling": "199902", "deductibility": "1", "assets": 990754, "income": 1041725, "revenue": 0}, {"ein": "134003382", "name": "ELMA AND MILTON A GILBERT FDN", "city": "WESTHAMPTON", "state": "NY", "zip": "11977-1209", "ntee": "T20Z", "ruling": "199807", "deductibility": "1", "assets": 366872, "income": 89749, "revenue": 0}, {"ein": "136259926", "name": "GILBERT MACKAY FOUNDATION", "city": "NEW YORK", "state": "NY", "zip": "10011-8251", "ntee": "", "ruling": "196809", "deductibility": "1", "assets": 508537, "income": 207965, "revenue": 0}, {"ein": "156012139", "name": "SYRACUSE HEBREW DAY SCHOOL MAX GILBERT HEBREW ACADEMY", "city": "DEWITT", "state": "NY", "zip": "13214-1234", "ntee": "B24Z", "ruling": "196206", "deductibility": "1", "assets": 1368114, "income": 1217536, "revenue": 1180928}, {"ein": "204098518", "name": "GILBERT FAMILY FOUNDATION INC", "city": "AMHERST", "state": "NY", "zip": "14228-1486", "ntee": "T30", "ruling": "200712", "deductibility": "1", "assets": 39302, "income": 0, "revenue": 0}, {"ein": "270141384", "name": "THE GILBERT AND ILDIKO BUTLER FAMILY FOUNDATION", "city": "GREAT NECK", "state": "NY", "zip": "11021-3104", "ntee": "T20", "ruling": "200605", "deductibility": "1", "assets": 9833782, "income": 7301352, "revenue": 0}, {"ein": "521711329", "name": "JULIA AND GILBERT MERRILL FOUNDATION INC", "city": "NEW YORK", "state": "NY", "zip": "10075-1857", "ntee": "", "ruling": "199104", "deductibility": "1", "assets": 3087939, "income": 784011, "revenue": 0}, {"ein": "770700480", "name": "GILBERT RIVERA CHARITABLE FOUNDATION", "city": "BROOKLYN", "state": "NY", "zip": "11233-3162", "ntee": "P12", "ruling": "200811", "deductibility": "1", "assets": 222212, "income": 171865, "revenue": 171865}, {"ein": "843774546", "name": "GILBERT BAKER FOUNDATION LTD", "city": "NEW YORK", "state": "NY", "zip": "10014-1885", "ntee": "A23", "ruling": "202005", "deductibility": "1", "assets": 48760, "income": 71839, "revenue": 71839}], "MESHEDI": [{"ein": "112767822", "name": "MESHEDI JEWISH COMMUNITY OF GREAT NECK", "city": "GREAT NECK", "state": "NY", "zip": "11023-4081", "ntee": "", "ruling": "198604", "deductibility": "1", "assets": 0, "income": 0, "revenue": 0}], "HOPSON": [{"ein": "112910678", "name": "PROCTOR HOPSON POST MEMORIAL ASSOCIATION INCORPORATED", "city": "JAMAICA", "state": "NY", "zip": "11433-3441", "ntee": "W30", "ruling": "202301", "deductibility": "2", "assets": 0, "income": 0, "revenue": 0}], "GIRLSTOWN": [{"ein": "112926894", "name": "GIRLSTOWN BEIT CHANA SAFED ISRAEL", "city": "BROOKLYN", "state": "NY", "zip": "11213-3403", "ntee": "", "ruling": "198811", "deductibility": "0", "assets": 0, "income": 0, "revenue": 0}], "BHAKTI": [{"ein": "112961601", "name": "PREM BHAKTI MANDIR INC", "city": "JAMAICA", "state": "NY", "zip": "11433-1218", "ntee": "", "ruling": "199201", "deductibility": "1", "assets": 19851, "income": 54858, "revenue": 54858}, {"ein": "263405580", "name": "BHAKTI PRADASHINI MANDIR", "city": "ELMONT", "state": "NY", "zip": "11003-0000", "ntee": "X70", "ruling": "201803", "deductibility": "1", "assets": 87902, "income": 26657, "revenue": 26657}, {"ein": "301325886", "name": "BHAKTI MARGA AMERICA", "city": "ELMIRA", "state": "NY", "zip": "14905-2142", "ntee": "X70", "ruling": "202406", "deductibility": "1", "assets": 0, "income": 0, "revenue": 0}], "ELIZER": [{"ein": "113055370", "name": "ELIZER BRUCHA", "city": "BROOKLYN", "state": "NY", "zip": "11218-5512", "ntee": "", "ruling": "199104", "deductibility": "1", "assets": 0, "income": 0, "revenue": 0}, {"ein": "752992950", "name": "CONGREGATION GOMLEI CHESED CHASDEIYOSEF ELIZER OF BOYAN", "city": "SPRING VALLEY", "state": "NY", "zip": "10977-2507", "ntee": "X30", "ruling": "200203", "deductibility": "1", "assets": 0, "income": 0, "revenue": 0}], "GUSINJE": [{"ein": "113084537", "name": "ISLAMIC UNITY & CULTURE CENTER OF PLAV-GUSINJE INC", "city": "RICHMOND HILL", "state": "NY", "zip": "11418-3123", "ntee": "", "ruling": "199306", "deductibility": "1", "assets": 0, "income": 0, "revenue": 0}, {"ein": "205937979", "name": "GUSINJE FOUNDATION INC", "city": "LONG ISLAND CITY", "state": "NY", "zip": "11106-4528", "ntee": "T12", "ruling": "200807", "deductibility": "1", "assets": 282812, "income": 91783, "revenue": 65132}, {"ein": "333233050", "name": "FRIENDS OF GUSINJE AND PLAV INC", "city": "WESTBURY", "state": "NY", "zip": "11590-5935", "ntee": "J20", "ruling": "202504", "deductibility": "1", "assets": 0, "income": 0, "revenue": 0}], "BREAST": [{"ein": "113144555", "name": "WEST ISLIP BREAST CANCER COALITION FOR LONG ISLAND INC", "city": "WEST ISLIP", "state": "NY", "zip": "11795-0247", "ntee": "", "ruling": "199304", "deductibility": "1", "assets": 128956, "income": 141511, "revenue": 141511}, {"ein": "113159224", "name": "HUNTINGTON BREAST CANCER ACTION COALITION", "city": "MELVILLE", "state": "NY", "zip": "11747-2226", "ntee": "H99Z", "ruling": "199309", "deductibility": "1", "assets": 143618, "income": 71893, "revenue": 71893}, {"ein": "113190057", "name": "LONG BEACH BREAST CANCER COALITION INC", "city": "LONG BEACH", "state": "NY", "zip": "11561-0844", "ntee": "G30Z", "ruling": "199604", "deductibility": "1", "assets": 20151, "income": 3464, "revenue": 3464}, {"ein": "113191035", "name": "BABYLON BREAST CANCER COALITION INC", "city": "LINDENHURST", "state": "NY", "zip": "11757-3704", "ntee": "B99Z", "ruling": "199410", "deductibility": "1", "assets": 492105, "income": 327345, "revenue": 315375}, {"ein": "113195645", "name": "1 IN 9 THE LONG ISLAND BREAST CANCER ACTION COALITION", "city": "HEWLETT", "state": "NY", "zip": "11557-1736", "ntee": "G30Z", "ruling": "199402", "deductibility": "1", "assets": 0, "income": 0, "revenue": 0}, {"ein": "113198611", "name": "GREAT NECK BREAST CANCER COALITION", "city": "GREAT NECK", "state": "NY", "zip": "11020-1821", "ntee": "E20Z", "ruling": "199509", "deductibility": "1", "assets": 0, "income": 0, "revenue": 0}, {"ein": "113253292", "name": "MAURER FOUNDATION FOR BREAST HEALTH EDUCATION INC", "city": "MELVILLE", "state": "NY", "zip": "11747-3644", "ntee": "E30Z", "ruling": "199505", "deductibility": "1", "assets": 954193, "income": 832847, "revenue": 606285}, {"ein": "113322647", "name": "ISLIP BREAST CANCER COALITION INC", "city": "ISLIP", "state": "NY", "zip": "11751-3449", "ntee": "U00E", "ruling": "199706", "deductibility": "1", "assets": 72556, "income": 113443, "revenue": 102399}, {"ein": "113342286", "name": "CAROL M BALDWIN BREAST CANCER RESEARCH FUND INC", "city": "STONY BROOK", "state": "NY", "zip": "11790-0600", "ntee": "H30", "ruling": "199612", "deductibility": "1", "assets": 732400, "income": 205619, "revenue": 90528}, {"ein": "113428858", "name": "MANHASSET WOMENS COALITION AGAINST BREAST CANCER INC", "city": "MANHASSET", "state": "NY", "zip": "11030-8007", "ntee": "E60", "ruling": "199807", "deductibility": "1", "assets": 631731, "income": 482780, "revenue": 383942}, {"ein": "113443720", "name": "NORTH FORK BREAST HEALTH COALITION INC", "city": "RIVERHEAD", "state": "NY", "zip": "11901-2121", "ntee": "A99", "ruling": "199812", "deductibility": "1", "assets": 359161, "income": 318192, "revenue": 204572}, {"ein": "113557895", "name": "LEAN ON ME BREAST CANCER NETWORK INC", "city": "GREAT NECK", "state": "NY", "zip": "11021-5342", "ntee": "F60", "ruling": "200106", "deductibility": "1", "assets": 207184, "income": 62119, "revenue": 62119}, {"ein": "113559687", "name": "CURE MOMMYS BREAST CANCER", "city": "GARDEN CITY", "state": "NY", "zip": "11530-6748", "ntee": "G12", "ruling": "200201", "deductibility": "1", "assets": 0, "income": 0, "revenue": 0}, {"ein": "113571208", "name": "UNITED BREAST CANCER FOUNDATION INC", "city": "HUNTINGTON", "state": "NY", "zip": "11743-2060", "ntee": "E126", "ruling": "200107", "deductibility": "1", "assets": 23803392, "income": 28473103, "revenue": 28473103}, {"ein": "116572349", "name": "JONI E GLADOWSKY BREAST CANCER FOUNDATION TR 07252002", "city": "SMITHTOWN", "state": "NY", "zip": "11787-2715", "ntee": "H30", "ruling": "200411", "deductibility": "1", "assets": 19824, "income": 2697, "revenue": 0}, {"ein": "133131914", "name": "SHARE SELF-HELP FOR WOMEN WITH BREAST OR OVARIAN CANCER INC", "city": "NEW YORK", "state": "NY", "zip": "10018-1491", "ntee": "F600", "ruling": "198301", "deductibility": "1", "assets": 2240489, "income": 4768491, "revenue": 4470366}, {"ein": "133376279", "name": "NATIONAL ALLIANCE OF BREAST CANCER ORGANIZATIONS INC 2ND FLOOR", "city": "NEW YORK", "state": "NY", "zip": "10121-0000", "ntee": "G30Z", "ruling": "198702", "deductibility": "1", "assets": 0, "income": 0, "revenue": 0}, {"ein": "133679981", "name": "JUDGES AND LAWYERS BREAST CANCER ALERT INC", "city": "GARDEN CITY", "state": "NY", "zip": "11530-5766", "ntee": "", "ruling": "199312", "deductibility": "1", "assets": 1259136, "income": 1100101, "revenue": 968701}, {"ein": "133727250", "name": "BREAST CANCER RESEARCH FOUNDATION INC", "city": "NEW YORK", "state": "NY", "zip": "10036-7422", "ntee": "M20Z", "ruling": "199308", "deductibility": "1", "assets": 199068927, "income": 195619100, "revenue": 117378452}, {"ein": "134281796", "name": "MILES OF HOPE BREAST CANCER FOUNDATION INC", "city": "LAGRANGEVILLE", "state": "NY", "zip": "12540-0405", "ntee": "G12", "ruling": "200507", "deductibility": "1", "assets": 2296166, "income": 584614, "revenue": 543574}, {"ein": "141827002", "name": "BREAST CANCER OPTIONS INC", "city": "KINGSTON", "state": "NY", "zip": "12401-2800", "ntee": "G30", "ruling": "200106", "deductibility": "1", "assets": 61496, "income": 141611, "revenue": 141611}, {"ein": "161463430", "name": "BREAST CANCER NETWORK OF WNY INC", "city": "BUFFALO", "state": "NY", "zip": "14209-2202", "ntee": "G30", "ruling": "199509", "deductibility": "1", "assets": 141102, "income": 174964, "revenue": 135987}, {"ein": "161541293", "name": "BREAST CANCER COALITION OF ROCHESTER INC", "city": "ROCHESTER", "state": "NY", "zip": "14607-1745", "ntee": "G30", "ruling": "199807", "deductibility": "1", "assets": 4868769, "income": 4990161, "revenue": 1584778}, {"ein": "205545238", "name": "METASTATIC BREAST CANCER NETWORK INC", "city": "NEW YORK", "state": "NY", "zip": "10036-0000", "ntee": "G30", "ruling": "200703", "deductibility": "1", "assets": 27601, "income": 15552, "revenue": 15552}, {"ein": "223967254", "name": "NEW YORK BREAST IMAGING SOCIETY INC", "city": "NEW YORK", "state": "NY", "zip": "10019-3953", "ntee": "S41", "ruling": "200812", "deductibility": "2", "assets": 23412, "income": 10001, "revenue": 10001}, {"ein": "263459472", "name": "NO SURRENDER BREAST CANCER FOUNDATION INC", "city": "LOCUST VALLEY", "state": "NY", "zip": "11560-0084", "ntee": "G32", "ruling": "200904", "deductibility": "1", "assets": 0, "income": 0, "revenue": 0}, {"ein": "270380167", "name": "JANET ORELLI FOUNDATION FOR BREAST CANCER RESEARCH", "city": "SEAFORD", "state": "NY", "zip": "11783-1548", "ntee": "H12", "ruling": "201005", "deductibility": "1", "assets": 0, "income": 0, "revenue": 0}, {"ein": "334940352", "name": "BREAST CANCER RESEARCH ASSOCIATION INC", "city": "NEW YORK", "state": "NY", "zip": "10023-4364", "ntee": "P99", "ruling": "202507", "deductibility": "1", "assets": 0, "income": 0, "revenue": 0}, {"ein": "412026012", "name": "CAROL M BALDWIN BREAST CANCER RESEARCH FUND OF CENTRAL N Y INC", "city": "SYRACUSE", "state": "NY", "zip": "13211-2006", "ntee": "H30", "ruling": "200210", "deductibility": "1", "assets": 323973, "income": 676628, "revenue": 286034}, {"ein": "453341030", "name": "HANDS OF HOPE FOUNDATION FOR BREAST CANCER", "city": "NEW YORK", "state": "NY", "zip": "10036-5601", "ntee": "E99", "ruling": "201407", "deductibility": "1", "assets": 0, "income": 0, "revenue": 0}, {"ein": "453676705", "name": "MECHANICVILLE STILLWATER BREAST CANCER WALK INC", "city": "MECHANICVILLE", "state": "NY", "zip": "12118-0005", "ntee": "G12", "ruling": "201801", "deductibility": "1", "assets": 0, "income": 0, "revenue": 0}, {"ein": "471054184", "name": "INTERNATIONAL BREAST AND MEDICAL MISSIONS INC", "city": "NEW YORK", "state": "NY", "zip": "10026-2998", "ntee": "G01", "ruling": "201504", "deductibility": "1", "assets": 0, "income": 0, "revenue": 0}, {"ein": "472782120", "name": "BREAST CANCER COMFORT FOUNDATION INC", "city": "HICKSVILLE", "state": "NY", "zip": "11801-3957", "ntee": "G32", "ruling": "201505", "deductibility": "1", "assets": 14602, "income": 15483, "revenue": 15483}, {"ein": "815013293", "name": "ROCKVILLE CENTRE BREAST CANCER COALITION INC", "city": "ROCKVILLE CTR", "state": "NY", "zip": "11570-2915", "ntee": "E86", "ruling": "201701", "deductibility": "1", "assets": 377317, "income": 233040, "revenue": 233040}, {"ein": "822803043", "name": "FRIENDS WHO THINK PINK BREAST CANCE R AWARENESS ORGANIZATION", "city": "STATEN ISLAND", "state": "NY", "zip": "10310-1400", "ntee": "G99", "ruling": "201806", "deductibility": "1", "assets": 0, "income": 0, "revenue": 0}, {"ein": "830806060", "name": "BRIELLE GRACE BREAST CANCER FOUNDATION INC", "city": "FISHKILL", "state": "NY", "zip": "12524-1456", "ntee": "G40", "ruling": "201903", "deductibility": "1", "assets": 88212, "income": 85994, "revenue": 85994}, {"ein": "843701728", "name": "BREAST CARE INTERNATIONAL AMERICA INC", "city": "NEW ROCHELLE", "state": "NY", "zip": "10802-1184", "ntee": "T99", "ruling": "202001", "deductibility": "1", "assets": 0, "income": 0, "revenue": 0}, {"ein": "844137358", "name": "GITTY FOUNDATION FOR METASTATIC BREAST CANCER RESEARCH", "city": "SCARSDALE", "state": "NY", "zip": "10583-4314", "ntee": "E12", "ruling": "202206", "deductibility": "1", "assets": 0, "income": 0, "revenue": 0}, {"ein": "844414442", "name": "BREAST RECONSTRUCTION ORG INC", "city": "GREAT NECK", "state": "NY", "zip": "11021-5324", "ntee": "T30", "ruling": "202008", "deductibility": "1", "assets": 25147, "income": 79316, "revenue": 79316}, {"ein": "844423240", "name": "CARRIE - ON BREAST CANCER FOUNDATION", "city": "BERKSHIRE", "state": "NY", "zip": "13736-2424", "ntee": "E12", "ruling": "202108", "deductibility": "1", "assets": 0, "income": 0, "revenue": 0}, {"ein": "845100621", "name": "T2K BREAST CANCER COALITION INC", "city": "MANHASSET", "state": "NY", "zip": "11030-3202", "ntee": "G32", "ruling": "202012", "deductibility": "1", "assets": 0, "income": 0, "revenue": 0}, {"ein": "852878928", "name": "UNITING AGAINST BREAST CANCER INC", "city": "EASTCHESTER", "state": "NY", "zip": "10709-3616", "ntee": "G30", "ruling": "202101", "deductibility": "1", "assets": 0, "income": 0, "revenue": 0}, {"ein": "862303052", "name": "INTERNATIONAL BREAST CANCER SURGICAL MISSION", "city": "SOUTHAMPTON", "state": "NY", "zip": "11968-5009", "ntee": "", "ruling": "202110", "deductibility": "1", "assets": 0, "income": 0, "revenue": 0}, {"ein": "862583621", "name": "BETTYS BREAST CANCER FOUNDATION CORP", "city": "MINEOLA", "state": "NY", "zip": "11501-0574", "ntee": "G32", "ruling": "202110", "deductibility": "1", "assets": 11462, "income": 14925, "revenue": 14925}, {"ein": "884117293", "name": "BREAST CANCER CONFIDENCE PROJECT", "city": "PENN YAN", "state": "NY", "zip": "14527-0333", "ntee": "E86", "ruling": "202305", "deductibility": "1", "assets": 0, "income": 0, "revenue": 0}, {"ein": "922276026", "name": "BREAST CANCER FOR LIFE FUNDRAISING CORPORATION", "city": "LONG BEACH", "state": "NY", "zip": "11561-0961", "ntee": "E12", "ruling": "202401", "deductibility": "1", "assets": 0, "income": 0, "revenue": 0}, {"ein": "932468371", "name": "WELL BEYOND BREAST CANCER INC", "city": "NEW YORK CITY", "state": "NY", "zip": "10017-6374", "ntee": "E60", "ruling": "202310", "deductibility": "1", "assets": 0, "income": 0, "revenue": 0}, {"ein": "992488977", "name": "DRIVE OUT BREAST CANCER", "city": "NEW YORK", "state": "NY", "zip": "10019-5818", "ntee": "H11", "ruling": "202412", "deductibility": "1", "assets": 0, "income": 0, "revenue": 0}], "GILDA": [{"ein": "113187562", "name": "FRED I AND GILDA NOBEL FOUNDATION INC", "city": "OYSTER BAY", "state": "NY", "zip": "11771-1101", "ntee": "", "ruling": "199404", "deductibility": "1", "assets": 11130379, "income": 4350115, "revenue": 0}], "MUTTS": [{"ein": "113260202", "name": "MIGHTY MUTTS INC", "city": "NEW YORK", "state": "NY", "zip": "10276-1147", "ntee": "D200", "ruling": "199604", "deductibility": "1", "assets": 2763467, "income": 380962, "revenue": 380962}, {"ein": "814221692", "name": "HAMBURG MUTTS FOR FREEDOM INC", "city": "ORCHARD PARK", "state": "NY", "zip": "14127-4310", "ntee": "D20", "ruling": "201611", "deductibility": "1", "assets": 15182, "income": 154825, "revenue": 154825}], "TEHILO": [{"ein": "113276910", "name": "CONG TEHILO LEDOVID", "city": "BROOKLYN", "state": "NY", "zip": "11211-0616", "ntee": "X30Z", "ruling": "199509", "deductibility": "1", "assets": 0, "income": 0, "revenue": 0}, {"ein": "113461822", "name": "CONGREGATION & YESIHVA TEHILO LEDUVID", "city": "BROOKLYN", "state": "NY", "zip": "11211-7812", "ntee": "X30", "ruling": "199902", "deductibility": "1", "assets": 0, "income": 0, "revenue": 0}, {"ein": "113528028", "name": "KAREN HABINYON TEHILO LDUVID", "city": "BROOKLYN", "state": "NY", "zip": "11211-6131", "ntee": "X30", "ruling": "200002", "deductibility": "1", "assets": 0, "income": 0, "revenue": 0}], "CUED": [{"ein": "113315274", "name": "NATIONAL CUED SPEECH ASSOCIATION INC", "city": "BROOKLYN", "state": "NY", "zip": "11234-4203", "ntee": "", "ruling": "198904", "deductibility": "1", "assets": 0, "income": 0, "revenue": 0}], "MADREIGAS": [{"ein": "113459656", "name": "CONGREGATION YESHIVA MADREIGAS HAADOM INC", "city": "FLUSHING", "state": "NY", "zip": "11365-3319", "ntee": "X30", "ruling": "199902", "deductibility": "1", "assets": 0, "income": 0, "revenue": 0}], "RAYBIN": [{"ein": "113472626", "name": "RAYBIN Q WONG FOUNDATION", "city": "WHITE PLAINS", "state": "NY", "zip": "10601-3341", "ntee": "T20", "ruling": "199908", "deductibility": "1", "assets": 6450941, "income": 2700855, "revenue": 0}], "225TH": [{"ein": "113496435", "name": "224TH-225TH STREET BLOCK ASSOCIATION OF LAURELTON", "city": "LAURELTON", "state": "NY", "zip": "11413-1727", "ntee": "S22", "ruling": "199909", "deductibility": "2", "assets": 0, "income": 0, "revenue": 0}], "NATH": [{"ein": "113496726", "name": "SHRI SIDH YOGI BABA BALAKH NATH INC", "city": "LONG IS CITY", "state": "NY", "zip": "11106-3920", "ntee": "X21", "ruling": "200003", "deductibility": "1", "assets": 0, "income": 0, "revenue": 0}], "ACHOSYNEI": [{"ein": "113599643", "name": "MYN HAMITZAR KERUSICHU ACHOSYNEI", "city": "BROOKLYN", "state": "NY", "zip": "11205-0226", "ntee": "X30", "ruling": "200112", "deductibility": "1", "assets": 0, "income": 0, "revenue": 0}], "PICKMAN": [{"ein": "116036666", "name": "PICKMAN FOUNDATION INC", "city": "FOREST HILLS", "state": "NY", "zip": "11375-7209", "ntee": "", "ruling": "195909", "deductibility": "1", "assets": 3917863, "income": 1828774, "revenue": 0}, {"ein": "824447352", "name": "FRIENDS OF PICKMAN-REMMER WETLANDS INC", "city": "OAKDALE", "state": "NY", "zip": "11769-0000", "ntee": "C32", "ruling": "201808", "deductibility": "1", "assets": 0, "income": 0, "revenue": 0}], "FUCHS": [{"ein": "116559097", "name": "JOHN J FUCHS CHARITABLE TR", "city": "DIX HILLS", "state": "NY", "zip": "11746-8114", "ntee": "T30", "ruling": "200202", "deductibility": "1", "assets": 30624, "income": 14691, "revenue": -8480}, {"ein": "137068909", "name": "MICHAEL FUCHS CHARITABLE FOUNDATION C/O MICHAEL FUCHS", "city": "NEW YORK", "state": "NY", "zip": "10007-2715", "ntee": "T70I", "ruling": "199703", "deductibility": "1", "assets": 170304, "income": 6059, "revenue": 0}, {"ein": "206754883", "name": "FUCHS FAMILY FOUNDATION", "city": "BROOKLYN", "state": "NY", "zip": "11210-3622", "ntee": "T20", "ruling": "200602", "deductibility": "1", "assets": 958891, "income": 4252767, "revenue": 0}, {"ein": "450581746", "name": "THE SHMUEL AND SERENA FUCHS FOUNDATION", "city": "LAWRENCE", "state": "NY", "zip": "11559-1426", "ntee": "T20", "ruling": "200902", "deductibility": "1", "assets": 6384, "income": 1, "revenue": 0}, {"ein": "834099238", "name": "SHMUEL & SERENA FUCHS FOUNDATION INC", "city": "BROOKLYN", "state": "NY", "zip": "11210-3619", "ntee": "T22", "ruling": "201908", "deductibility": "1", "assets": 28296, "income": 140000, "revenue": 0}], "TRADEMARK": [{"ein": "131427696", "name": "INTERNATIONAL TRADEMARK ASSOCIATION INC", "city": "NEW YORK", "state": "NY", "zip": "10017-5704", "ntee": "", "ruling": "193806", "deductibility": "2", "assets": 37085842, "income": 27615803, "revenue": 27133842}], "WELLWOOD": [{"ein": "131462845", "name": "WELLWOOD CEMETERY ASSOCIATION INC", "city": "FARMINGDALE", "state": "NY", "zip": "11735-0340", "ntee": "", "ruling": "194011", "deductibility": "1", "assets": 73480530, "income": 13070922, "revenue": 8724188}, {"ein": "760757422", "name": "WELLWOOD MIDDLE SCHOOL HOME & SCHOOL ASSOCIATION", "city": "FAYETTEVILLE", "state": "NY", "zip": "13066-2559", "ntee": "B11", "ruling": "200501", "deductibility": "1", "assets": 0, "income": 0, "revenue": 0}], "HS": [{"ein": "131881478", "name": "MISSIONARY SISTERS OF THE SACRED HEART FOR GIRLS MOTHER CABRINI HS", "city": "NEW YORK", "state": "NY", "zip": "10040-3702", "ntee": "", "ruling": "194603", "deductibility": "0", "assets": 0, "income": 0, "revenue": 0}, {"ein": "132721090", "name": "BETH JACOB PAROCHIAL SCHOOL OF EAST SIDE AND ESTHER SCHOENFELD HS INC", "city": "NEW YORK", "state": "NY", "zip": "10002-4002", "ntee": "", "ruling": "195005", "deductibility": "1", "assets": 0, "income": 0, "revenue": 0}, {"ein": "136053352", "name": "TR HOSP FOR JOINT DISEASES UW HS", "city": "NEW YORK", "state": "NY", "zip": "10013-2362", "ntee": "", "ruling": "198209", "deductibility": "0", "assets": 605229, "income": 186716, "revenue": 0}, {"ein": "136053353", "name": "EDUCATIONAL ALLIANCE UW HS", "city": "NEW YORK", "state": "NY", "zip": "10013-2362", "ntee": "", "ruling": "198210", "deductibility": "0", "assets": 991598, "income": 570292, "revenue": 0}, {"ein": "342033502", "name": "EDWARD C PICKEN TROY HS ATHLETIC HALL OF FAME SCHOLARSHIP FUND INC", "city": "TROY", "state": "NY", "zip": "12182-0138", "ntee": "B82", "ruling": "200506", "deductibility": "1", "assets": 0, "income": 0, "revenue": 0}, {"ein": "471502921", "name": "RYE HS SKI TEAM PARENT ORGANIZATION INC", "city": "RYE", "state": "NY", "zip": "10580-3536", "ntee": "N11", "ruling": "201804", "deductibility": "1", "assets": 0, "income": 0, "revenue": 0}, {"ein": "475600913", "name": "WELLSVILLE HS ALL SPORTS BOOSTER", "city": "WELLSVILLE", "state": "NY", "zip": "14895-0423", "ntee": "N32", "ruling": "201601", "deductibility": "1", "assets": 0, "income": 0, "revenue": 0}, {"ein": "800508089", "name": "SAUNDERS HS ALUMNI ASSOCIATION", "city": "YONKERS", "state": "NY", "zip": "10701-5655", "ntee": "B84", "ruling": "202208", "deductibility": "1", "assets": 0, "income": 0, "revenue": 0}, {"ein": "800755877", "name": "CLARENCE HS GIRLS VOLLEYBALL BOOSTERS", "city": "CLARENCE", "state": "NY", "zip": "14031-0000", "ntee": "N11", "ruling": "201801", "deductibility": "1", "assets": 0, "income": 0, "revenue": 0}, {"ein": "922893122", "name": "SHERBURNE-EARLVILLE MS HS PTO", "city": "SHERBURNE", "state": "NY", "zip": "13460-9505", "ntee": "B94", "ruling": "202312", "deductibility": "1", "assets": 0, "income": 0, "revenue": 0}], "HERMOSA": [{"ein": "131969480", "name": "IGLESIA CRISTIANA LA HERMOSA", "city": "NEW YORK", "state": "NY", "zip": "10026-4314", "ntee": "", "ruling": "195105", "deductibility": "1", "assets": 0, "income": 0, "revenue": 0}, {"ein": "133501749", "name": "MELROSE VILLA HERMOSA HOUSING DEVELOPMENT FUND COMPANY INC", "city": "BROOKLYN", "state": "NY", "zip": "11232-0000", "ntee": "", "ruling": "199102", "deductibility": "1", "assets": 6377154, "income": 1036108, "revenue": 1036108}, {"ein": "133796241", "name": "IGLESIA NUEVO AMANECER LA HERMOSA", "city": "BRONX", "state": "NY", "zip": "10455-0000", "ntee": "X21", "ruling": "201402", "deductibility": "1", "assets": 0, "income": 0, "revenue": 0}], "DOSORIS": [{"ein": "132627179", "name": "DOSORIS CEMETERY TRUST", "city": "NEW YORK", "state": "NY", "zip": "10017-9026", "ntee": "", "ruling": "196612", "deductibility": "1", "assets": 3418743, "income": 334885, "revenue": 152824}], "CV": [{"ein": "132879769", "name": "CV STARR RESEARCH FOUNDATION AT THE COOPER UNION FOR THE ADVANCEMENT", "city": "NEW YORK", "state": "NY", "zip": "10003-7120", "ntee": "", "ruling": "197707", "deductibility": "1", "assets": 0, "income": 17911, "revenue": 17911}, {"ein": "812770432", "name": "CV TOUCHDOWN INC", "city": "BINGHAMTON", "state": "NY", "zip": "13901-1212", "ntee": "O20", "ruling": "201606", "deductibility": "1", "assets": 0, "income": 0, "revenue": 0}, {"ein": "814728239", "name": "CV STARR DISASTER RELIEF FUND INC", "city": "NEW YORK", "state": "NY", "zip": "10022-4614", "ntee": "T20", "ruling": "201703", "deductibility": "1", "assets": 1, "income": 1, "revenue": 0}, {"ein": "842257413", "name": "CV BUSH SCHOOL PTO", "city": "JAMESTOWN", "state": "NY", "zip": "14701-7106", "ntee": "B94", "ruling": "202107", "deductibility": "1", "assets": 0, "income": 0, "revenue": 0}, {"ein": "921924607", "name": "CV YOUTH WRESTLING CLUB INC", "city": "BINGHAMTON", "state": "NY", "zip": "13901-1347", "ntee": "N60", "ruling": "202404", "deductibility": "1", "assets": 0, "income": 0, "revenue": 0}], "GRUEN": [{"ein": "133338743", "name": "JASON F GRUEN RESEARCH FOUNDATION INC", "city": "EAST MEADOW", "state": "NY", "zip": "11554-5607", "ntee": "", "ruling": "198702", "deductibility": "1", "assets": 0, "income": 0, "revenue": 0}], "JOURNALIST": [{"ein": "133358147", "name": "THE NEW YORK ASSOCIATION OF BLACK JOURNALIST INC", "city": "NEW YORK", "state": "NY", "zip": "10026-1123", "ntee": "Y03", "ruling": "201406", "deductibility": "1", "assets": 0, "income": 0, "revenue": 0}, {"ein": "161577279", "name": "BUFFALO ASSOCIATION OF BLACK JOURNALIST INC", "city": "BUFFALO", "state": "NY", "zip": "14205-0736", "ntee": "B84", "ruling": "200006", "deductibility": "1", "assets": 0, "income": 0, "revenue": 0}], "RUSTIN": [{"ein": "133462097", "name": "BAYARD RUSTIN FUND INCORPORATED", "city": "NEW YORK", "state": "NY", "zip": "10001-4741", "ntee": "", "ruling": "198808", "deductibility": "1", "assets": 10829, "income": 3297, "revenue": 0}, {"ein": "474365484", "name": "RUSTIN FUND FOR GLOBAL EQUALITY INC", "city": "BROOKLYN", "state": "NY", "zip": "11233-1802", "ntee": "R26", "ruling": "201702", "deductibility": "1", "assets": 42504, "income": 16424, "revenue": 16424}], "SANKIRTAN": [{"ein": "133473881", "name": "PRABHUPADA SANKIRTAN CENTER INC", "city": "NEW YORK", "state": "NY", "zip": "10003-8775", "ntee": "", "ruling": "198908", "deductibility": "0", "assets": 0, "income": 0, "revenue": 0}], "ESPIRITU": [{"ein": "133546504", "name": "IGLESIAS ESPIRITU DE HERMANDAD INC", "city": "BROOKLYN", "state": "NY", "zip": "11211-4212", "ntee": "", "ruling": "199301", "deductibility": "1", "assets": 0, "income": 0, "revenue": 0}, {"ein": "273577261", "name": "IGLESIA EVANGELICA DEL ESPIRITU SANTO", "city": "BROOKLYN", "state": "NY", "zip": "11232-0000", "ntee": "X20", "ruling": "201301", "deductibility": "1", "assets": 0, "income": 0, "revenue": 0}, {"ein": "462381847", "name": "NOCHES DEL ESPIRITU SANTO INC", "city": "SAINT ALBANS", "state": "NY", "zip": "11412-2011", "ntee": "X99", "ruling": "201401", "deductibility": "1", "assets": 0, "income": 0, "revenue": 0}, {"ein": "475122500", "name": "IGLESIA ESPIRITU DE HERMANDAD BX", "city": "BRONX", "state": "NY", "zip": "10454-0000", "ntee": "X20", "ruling": "201708", "deductibility": "1", "assets": 0, "income": 0, "revenue": 0}, {"ein": "562310185", "name": "PADRE HIJO Y ESPIRITU SANTO CHURCH", "city": "NEW YORK", "state": "NY", "zip": "10032-0502", "ntee": "X21", "ruling": "200308", "deductibility": "1", "assets": 0, "income": 0, "revenue": 0}], "SUSIE": [{"ein": "133742616", "name": "LIN AND SUSIE CHEN FOUNDATION INC", "city": "NEW YORK", "state": "NY", "zip": "10013-4186", "ntee": "", "ruling": "199406", "deductibility": "1", "assets": 3826991, "income": 2762309, "revenue": 0}, {"ein": "141836352", "name": "SUSIE REIZOD FOUNDATION", "city": "NEW PALTZ", "state": "NY", "zip": "12561-0816", "ntee": "P60", "ruling": "200204", "deductibility": "1", "assets": 10436, "income": 94494, "revenue": 94494}, {"ein": "166203833", "name": "SUSIE GUNGLACH SCHOLARSHIP FUND", "city": "BUFFALO", "state": "NY", "zip": "14240-1504", "ntee": "T20", "ruling": "200805", "deductibility": "1", "assets": 161254, "income": 54378, "revenue": 0}, {"ein": "260552012", "name": "KEVIN AND SUSIE DAVIS FOUNDATION", "city": "NEW YORK", "state": "NY", "zip": "10024-3020", "ntee": "T20", "ruling": "200802", "deductibility": "1", "assets": 35702, "income": 4973, "revenue": 0}, {"ein": "834645510", "name": "FRANK AND SUSIE LIN FOUNDATION", "city": "NEW YORK", "state": "NY", "zip": "10023-7868", "ntee": "S30", "ruling": "201908", "deductibility": "1", "assets": 3104, "income": 200, "revenue": 0}, {"ein": "871687242", "name": "SUSIE S WAGON INC", "city": "NEW YORK", "state": "NY", "zip": "10018-4017", "ntee": "B80", "ruling": "202401", "deductibility": "1", "assets": 0, "income": 0, "revenue": 0}], "CUBA": [{"ein": "133787075", "name": "US-CUBA TRADE AND ECONOMIC COUNCIL INC", "city": "CHEEKTOWAGA", "state": "NY", "zip": "14225-5110", "ntee": "", "ruling": "199505", "deductibility": "2", "assets": 0, "income": 0, "revenue": 0}, {"ein": "134100310", "name": "AMERICAN FRIENDS OF THE LUDWIG FOUNDATION OF CUBA", "city": "NEW YORK", "state": "NY", "zip": "10036-7416", "ntee": "A23", "ruling": "200004", "deductibility": "1", "assets": 853238, "income": 316518, "revenue": -199670}, {"ein": "160725139", "name": "CUBA CEMETERY ASSOCIATION", "city": "CUBA", "state": "NY", "zip": "14727-1124", "ntee": "", "ruling": "194506", "deductibility": "1", "assets": 0, "income": 0, "revenue": 0}, {"ein": "160755761", "name": "CUBA MEMORIAL HOSPITAL INC", "city": "CUBA", "state": "NY", "zip": "14727-1317", "ntee": "E22Z", "ruling": "194205", "deductibility": "1", "assets": 11773233, "income": 9532946, "revenue": 9526956}, {"ein": "160769643", "name": "CUBA CIRCULATING LIBRARY ASSOC", "city": "CUBA", "state": "NY", "zip": "14727-1207", "ntee": "B71Z", "ruling": "194505", "deductibility": "1", "assets": 1737679, "income": 565800, "revenue": 565800}, {"ein": "160864195", "name": "CUBA LAKE COTTAGE OWNERS ASSOCIATION INC", "city": "CUBA", "state": "NY", "zip": "14727-0103", "ntee": "", "ruling": "000000", "deductibility": "2", "assets": 0, "income": 0, "revenue": 0}, {"ein": "166037594", "name": "CUBA FIRE DEPARTMENT", "city": "CUBA", "state": "NY", "zip": "14727-0084", "ntee": "M24", "ruling": "201205", "deductibility": "1", "assets": 500880, "income": 67833, "revenue": 54361}, {"ein": "166038501", "name": "CUBA CHAMBER OF COMMERCE INC", "city": "CUBA", "state": "NY", "zip": "14727-1205", "ntee": "", "ruling": "194505", "deductibility": "2", "assets": 543016, "income": 187586, "revenue": 112267}, {"ein": "166052287", "name": "CUBA ROD & GUN CLUB INC", "city": "CUBA", "state": "NY", "zip": "14727-0122", "ntee": "", "ruling": "194906", "deductibility": "2", "assets": 0, "income": 0, "revenue": 0}, {"ein": "300956249", "name": "FRIENDS OF THE CUBA LIBRARY INC", "city": "CUBA", "state": "NY", "zip": "14727-1207", "ntee": "B11", "ruling": "201611", "deductibility": "1", "assets": 0, "income": 0, "revenue": 0}, {"ein": "810652653", "name": "CUBA FRIENDS OF ARCHITECTURE INC", "city": "CUBA", "state": "NY", "zip": "14727-1404", "ntee": "A80", "ruling": "200412", "deductibility": "1", "assets": 1111336, "income": 145405, "revenue": 133662}, {"ein": "810995565", "name": "CUBA MEMORIAL HOSPITAL FOUNDATION INC", "city": "CUBA", "state": "NY", "zip": "14727-1317", "ntee": "T50", "ruling": "201603", "deductibility": "1", "assets": 0, "income": 0, "revenue": 0}, {"ein": "853850511", "name": "CUBA YOUTH SPORTS CENTER INC", "city": "CUBA", "state": "NY", "zip": "14727-0132", "ntee": "N40", "ruling": "202106", "deductibility": "1", "assets": 0, "income": 0, "revenue": 0}], "COMPETITIVE": [{"ein": "133863399", "name": "COMPETITIVE CONSTRUCTION COUNCIL INC", "city": "HARRIMAN", "state": "NY", "zip": "10926-3100", "ntee": "", "ruling": "199707", "deductibility": "2", "assets": 0, "income": 0, "revenue": 0}, {"ein": "204207474", "name": "LEADERSHIP & COMPETITIVE EXCELLANCEFOUNDATION", "city": "NEW YORK", "state": "NY", "zip": "10022-0000", "ntee": "N11", "ruling": "200701", "deductibility": "1", "assets": 67347, "income": 123594, "revenue": 101858}, {"ein": "222568677", "name": "EASTERN COMPETITIVE TRAIL RIDE ASSOCIATION INC", "city": "CORINTH", "state": "NY", "zip": "12822-2907", "ntee": "", "ruling": "199409", "deductibility": "1", "assets": 0, "income": 0, "revenue": 0}, {"ein": "991955904", "name": "FLYING STARS PARENTS PARTNERING FOR COMPETITIVE GYMNASTICS INC", "city": "ELMONT", "state": "NY", "zip": "11003-4108", "ntee": "O50", "ruling": "202405", "deductibility": "1", "assets": 0, "income": 0, "revenue": 0}], "PORTCHESTER": [{"ein": "133925974", "name": "IGLESIA PENTECOSTAL UNIDA HISPANA DE PORTCHESTER INC", "city": "PORT CHESTER", "state": "NY", "zip": "10573-4312", "ntee": "X20", "ruling": "200306", "deductibility": "1", "assets": 0, "income": 0, "revenue": 0}], "TEHILLA": [{"ein": "133962957", "name": "CONGREGATION TEHILLA LDOVID INC", "city": "SPRING VALLEY", "state": "NY", "zip": "10977-3823", "ntee": "X30Z", "ruling": "199802", "deductibility": "1", "assets": 0, "income": 0, "revenue": 0}, {"ein": "932268292", "name": "CONG TEHILLA L DOVID", "city": "BROOKLYN", "state": "NY", "zip": "11204-1032", "ntee": "X30", "ruling": "202403", "deductibility": "1", "assets": 0, "income": 0, "revenue": 0}], "SCHENKER": [{"ein": "133992998", "name": "THE SCHENKER FAMILY FOUNDATION", "city": "NEW YORK", "state": "NY", "zip": "10128-1211", "ntee": "T90Z", "ruling": "199804", "deductibility": "1", "assets": 577504, "income": 1093237, "revenue": 0}], "LIPPMANN": [{"ein": "134009287", "name": "KENNETH AND LOIS LIPPMANN CHARITABLE FOUNDATION INC", "city": "NORTH SALEM", "state": "NY", "zip": "10560-0000", "ntee": "T20", "ruling": "199907", "deductibility": "1", "assets": 1775935, "income": 1374484, "revenue": 0}], "REIMBURSTMENT": [{"ein": "134071468", "name": "COMMITTEE OF INTERNS AND RESIDENTS EDUCATIONAL EXPENSES REIMBURSTMENT", "city": "LONG ISLAND CITY", "state": "NY", "zip": "11101-5245", "ntee": "Y43", "ruling": "200007", "deductibility": "2", "assets": 7428182, "income": 3576581, "revenue": 2824348}], "RYDERS": [{"ein": "134098420", "name": "RUFF RYDERS TO THE RESCUE FOUNDATION", "city": "YONKERS", "state": "NY", "zip": "10701-3771", "ntee": "W99", "ruling": "201901", "deductibility": "1", "assets": 17529, "income": 89455, "revenue": 89455}, {"ein": "843902926", "name": "RYDERS ROOM INC", "city": "NEW YORK", "state": "NY", "zip": "10018-3617", "ntee": "B28", "ruling": "202210", "deductibility": "1", "assets": 0, "income": 0, "revenue": 0}], "PARPATI": [{"ein": "134126170", "name": "MULCHAND & PARPATI THADMANI FOUNDATION INC", "city": "OSSINING", "state": "NY", "zip": "10562-2126", "ntee": "T22", "ruling": "202108", "deductibility": "1", "assets": 7535061, "income": 5568129, "revenue": 0}], "PARES": [{"ein": "134138180", "name": "PARES CHANDRA AND SIVANICHAKRAVORTY MEMORIAL RURAL EDUCATION PROJECT I", "city": "NEW YORK", "state": "NY", "zip": "10032-5490", "ntee": "B92", "ruling": "200307", "deductibility": "1", "assets": 831265, "income": 97070, "revenue": 0}], "KESWIN": [{"ein": "134193962", "name": "THE@JEFF AND ERICA KESWIN FAMILY FOUNDATION", "city": "NEW YORK", "state": "NY", "zip": "10019-9710", "ntee": "T22", "ruling": "200201", "deductibility": "1", "assets": 2844829, "income": 2300098, "revenue": 0}], "ISEDORE": [{"ein": "137049803", "name": "ISEDORE E REICHUCK REVOCABLE TRUST", "city": "BROOKLYN", "state": "NY", "zip": "11215-0114", "ntee": "T20", "ruling": "202505", "deductibility": "1", "assets": 0, "income": 0, "revenue": 0}], "KOVEN": [{"ein": "137193520", "name": "ESTHER KOVEN FOUNDATION INC", "city": "NEW YORK", "state": "NY", "zip": "10014-0000", "ntee": "B122", "ruling": "200004", "deductibility": "1", "assets": 1898260, "income": 1340504, "revenue": 0}], "CANAJOHARIE": [{"ein": "140545350", "name": "CANAJOHARIE FALLS CEMETERY", "city": "CANAJOHARIE", "state": "NY", "zip": "13317-0214", "ntee": "", "ruling": "197301", "deductibility": "2", "assets": 15866606, "income": 6121467, "revenue": 1821483}, {"ein": "141398373", "name": "CANAJOHARIE LIBRARY & ART GALLERY", "city": "CANAJOHARIE", "state": "NY", "zip": "13317-1138", "ntee": "", "ruling": "202108", "deductibility": "1", "assets": 13537722, "income": 2092841, "revenue": 878955}, {"ein": "141581346", "name": "CANAJOHARIE-FORT PLAIN GARDEN CLUB INC", "city": "FORT PLAIN", "state": "NY", "zip": "13339-1462", "ntee": "C42", "ruling": "199911", "deductibility": "1", "assets": 0, "income": 0, "revenue": 0}, {"ein": "146031383", "name": "SENIOR CITIZENS OF CANAJOHARIE", "city": "CANAJOHARIE", "state": "NY", "zip": "13317-0000", "ntee": "", "ruling": "196210", "deductibility": "1", "assets": 0, "income": 0, "revenue": 0}, {"ein": "146036167", "name": "REFORMED CHURCH OF CANAJOHARIE", "city": "CANAJOHARIE", "state": "NY", "zip": "13317-1202", "ntee": "", "ruling": "198601", "deductibility": "1", "assets": 0, "income": 0, "revenue": 0}, {"ein": "146074743", "name": "CANAJOHARIE LODGE NO 853 LOYAL ORDER OF MOOSE", "city": "CANAJOHARIE", "state": "NY", "zip": "13317-0000", "ntee": "", "ruling": "193508", "deductibility": "1", "assets": 311544, "income": 214308, "revenue": 63176}, {"ein": "161407367", "name": "CANAJOHARIE VOLUNTEER FIREFIGHTERS INC", "city": "CANAJOHARIE", "state": "NY", "zip": "13317-0028", "ntee": "M24", "ruling": "202206", "deductibility": "1", "assets": 533824, "income": 292710, "revenue": 281037}, {"ein": "161607635", "name": "CANAJOHARIE CLASS OF 1981", "city": "FRANKFORT", "state": "NY", "zip": "13340-1139", "ntee": "B82", "ruling": "201703", "deductibility": "1", "assets": 0, "income": 0, "revenue": 0}, {"ein": "166222234", "name": "CHAUNCEY H WINTERS TRUST UW CENTRAL NATL BK CANAJOHARIE", "city": "NORWICH", "state": "NY", "zip": "13815-0000", "ntee": "", "ruling": "197812", "deductibility": "1", "assets": 8199332, "income": 1858616, "revenue": 0}, {"ein": "274541333", "name": "CANAJOHARIE AREA LITTLE LEAGUE INC", "city": "CANAJOHARIE", "state": "NY", "zip": "13317-0091", "ntee": "N63", "ruling": "201105", "deductibility": "1", "assets": 0, "income": 0, "revenue": 0}, {"ein": "834491650", "name": "JUNIOR YOUTH PROGRAM OF CANAJOHARIE", "city": "CANAJOHARIE", "state": "NY", "zip": "13317-0395", "ntee": "P30", "ruling": "202305", "deductibility": "1", "assets": 0, "income": 0, "revenue": 0}], "MINER": [{"ein": "141405827", "name": "ALICE T MINER COLONIAL COLLECTION", "city": "CHAZY", "state": "NY", "zip": "12921-0090", "ntee": "", "ruling": "193111", "deductibility": "1", "assets": 7191824, "income": 1194893, "revenue": 0}, {"ein": "141414736", "name": "THE WILLIAM H MINER AGRICULTURAL RESEARCH INSTITUTE", "city": "CHAZY", "state": "NY", "zip": "12921-0090", "ntee": "K20E", "ruling": "195812", "deductibility": "1", "assets": 27614442, "income": 14694369, "revenue": 12504015}], "SEMBRICH": [{"ein": "141468258", "name": "MARCELLA SEMBRICH MEMORIAL ASSOCIATION INC", "city": "BOLTON LNDG", "state": "NY", "zip": "12814-0417", "ntee": "", "ruling": "196401", "deductibility": "1", "assets": 4784620, "income": 1261038, "revenue": 0}], "SKENESBOROUGH": [{"ein": "141510533", "name": "SKENESBOROUGH EMERGENCY SQUAD INC", "city": "WHITEHALL", "state": "NY", "zip": "12887-0000", "ntee": "", "ruling": "197312", "deductibility": "1", "assets": 255140, "income": 346370, "revenue": 338663}], "ASSAULT": [{"ein": "141700765", "name": "NEW YORK STATE COALITION AGAINST SEXUAL ASSAULT INC", "city": "TROY", "state": "NY", "zip": "12180-8327", "ntee": "", "ruling": "199410", "deductibility": "1", "assets": 1337024, "income": 2216005, "revenue": 2216005}, {"ein": "311702032", "name": "NEW YORK CITY ALLIANCE AGAINST SEXUAL ASSAULT", "city": "NEW YORK", "state": "NY", "zip": "10008-2379", "ntee": "P50", "ruling": "200005", "deductibility": "1", "assets": 1245867, "income": 1697958, "revenue": 1697958}, {"ein": "833432849", "name": "FOUNDATION FOR THE STUDY OF MALE RAPE AND SEXUAL ASSAULT INC", "city": "HAMILTON", "state": "NY", "zip": "13346-0000", "ntee": "B01", "ruling": "201905", "deductibility": "1", "assets": 0, "income": 0, "revenue": 0}], "WATERVILLE": [{"ein": "150486250", "name": "WATERVILLE CEMETERY ASSOCIATION ONEIDA COUNTY", "city": "WATERVILLE", "state": "NY", "zip": "13480-0305", "ntee": "", "ruling": "194204", "deductibility": "1", "assets": 1034416, "income": 878627, "revenue": 878627}, {"ein": "161595669", "name": "WATERVILLE CENTRAL SCHOOL DISTRICT FOUNDATION INC", "city": "WATERVILLE", "state": "NY", "zip": "13480-0043", "ntee": "T11", "ruling": "200104", "deductibility": "1", "assets": 75633, "income": 19201, "revenue": 8657}, {"ein": "232253593", "name": "WATERVILLE WATER ASSOCIATION", "city": "WELLSBURG", "state": "NY", "zip": "14894-9728", "ntee": "W80", "ruling": "201109", "deductibility": "2", "assets": 0, "income": 0, "revenue": 0}, {"ein": "237156982", "name": "WATERVILLE HISTORICAL SOCIETY", "city": "WATERVILLE", "state": "NY", "zip": "13480-1110", "ntee": "A50", "ruling": "201608", "deductibility": "1", "assets": 0, "income": 0, "revenue": 0}, {"ein": "320248553", "name": "WATERVILLE FIRE DEPARTMENT INC", "city": "WATERVILLE", "state": "NY", "zip": "13480-1110", "ntee": "M24", "ruling": "201010", "deductibility": "1", "assets": 142813, "income": 100074, "revenue": 83689}, {"ein": "460804048", "name": "WATERVILLE POP WARNER", "city": "WATERVILLE", "state": "NY", "zip": "13480-0335", "ntee": "N60", "ruling": "202412", "deductibility": "1", "assets": 0, "income": 0, "revenue": 0}, {"ein": "464771098", "name": "WATERVILLE ECONOMIC DEVELOPMENT CORPORATION", "city": "WATERVILLE", "state": "NY", "zip": "13480-0303", "ntee": "S20", "ruling": "201410", "deductibility": "1", "assets": 0, "income": 0, "revenue": 0}, {"ein": "475546457", "name": "WATERVILLE FOOD PANTRY", "city": "WATERVILLE", "state": "NY", "zip": "13480-0022", "ntee": "K31", "ruling": "201812", "deductibility": "1", "assets": 110955, "income": 67769, "revenue": 67769}], "HULTQUIST": [{"ein": "160907729", "name": "HULTQUIST FOUNDATION INC", "city": "JAMESTOWN", "state": "NY", "zip": "14701-2750", "ntee": "", "ruling": "196512", "deductibility": "1", "assets": 15093081, "income": 3958242, "revenue": 0}, {"ein": "166108445", "name": "TRUST U/W MARGUERITE HULTQUIST F/B/O HULTQUIST INFIRMARY T-496 NE", "city": "NEW YORK", "state": "NY", "zip": "10001-2189", "ntee": "", "ruling": "197302", "deductibility": "0", "assets": 800669, "income": 330359, "revenue": 0}, {"ein": "222420804", "name": "CARL A HULTQUIST TRUST FBO", "city": "NEW YORK", "state": "NY", "zip": "10001-2189", "ntee": "", "ruling": "000000", "deductibility": "0", "assets": 359571, "income": 58874, "revenue": 42432}], "MCGRAW": [{"ein": "160976528", "name": "MCGRAW HOUSING COMPANY INC", "city": "ITHACA", "state": "NY", "zip": "14850-5468", "ntee": "L20Z", "ruling": "197111", "deductibility": "1", "assets": 5313899, "income": 984055, "revenue": 984055}], "DANCEMAKER": [{"ein": "161120869", "name": "ITHACA DANCEMAKER INC", "city": "ITHACA", "state": "NY", "zip": "14850-3555", "ntee": "", "ruling": "197909", "deductibility": "1", "assets": 0, "income": 0, "revenue": 0}], "FOLGER": [{"ein": "166062494", "name": "CHARLES J FOLGER HOOK & LADDER COMPANY NO 1 INC", "city": "GENEVA", "state": "NY", "zip": "14456-0081", "ntee": "", "ruling": "196604", "deductibility": "1", "assets": 0, "income": 0, "revenue": 0}], "IRONGATE": [{"ein": "166200161", "name": "IRONGATE ASSOCIATION INC", "city": "LIVERPOOL", "state": "NY", "zip": "13090-2309", "ntee": "", "ruling": "197607", "deductibility": "2", "assets": 0, "income": 0, "revenue": 0}, {"ein": "273525214", "name": "IRONGATE CARES FOUNDATION", "city": "WESTBURY", "state": "NY", "zip": "11590-0803", "ntee": "P20", "ruling": "201011", "deductibility": "1", "assets": 0, "income": 0, "revenue": 0}], "TESTA": [{"ein": "166227692", "name": "H B PURCELL TESTA TRUST 2-2361-0 FBO CAPE VINCENT LIBRARY", "city": "NORWICH", "state": "NY", "zip": "13815-0000", "ntee": "", "ruling": "199102", "deductibility": "1", "assets": 277817, "income": 24788, "revenue": 0}, {"ein": "166231450", "name": "ALEXANDER J BOUDIA MARITAL TESTA TRUST 2-2393-0", "city": "NORWICH", "state": "NY", "zip": "13815-0000", "ntee": "", "ruling": "199304", "deductibility": "1", "assets": 468419, "income": 59576, "revenue": 0}], "BORIS": [{"ein": "200406557", "name": "BORIS FAM CHARITABLE TR", "city": "GREAT NECK", "state": "NY", "zip": "11020-1232", "ntee": "T22", "ruling": "200404", "deductibility": "1", "assets": 289, "income": 1, "revenue": 0}, {"ein": "266235285", "name": "BORIS AND MARCIA VORONOVSKY EDUCATION FUND", "city": "NEW YORK", "state": "NY", "zip": "10118-0000", "ntee": "T20", "ruling": "200808", "deductibility": "1", "assets": 2230387, "income": 492865, "revenue": 0}, {"ein": "311501502", "name": "AUTOCEPHALOUS ORTHODOX CHURCH OF N AND S AMERICA STS BORIS AND GIEB", "city": "BUCHANAN", "state": "NY", "zip": "10511-1651", "ntee": "X20", "ruling": "199903", "deductibility": "0", "assets": 0, "income": 0, "revenue": 0}, {"ein": "470859811", "name": "JANET & PETER BORIS FOUNDATION", "city": "NEW YORK", "state": "NY", "zip": "10021-2617", "ntee": "T22", "ruling": "200206", "deductibility": "1", "assets": 1, "income": 1, "revenue": 0}, {"ein": "980590515", "name": "BORIS LURIE ART FOUNDATION", "city": "NEW YORK", "state": "NY", "zip": "10023-6006", "ntee": "A20", "ruling": "200905", "deductibility": "1", "assets": 86935458, "income": 21105697, "revenue": 0}], "MANAGER": [{"ein": "201289396", "name": "MSMC RESIDENTIAL REALTY MANAGER INC", "city": "NEW YORK", "state": "NY", "zip": "10029-6504", "ntee": "E19", "ruling": "200502", "deductibility": "1", "assets": 1, "income": 0, "revenue": 0}, {"ein": "811609651", "name": "ENVIRONMENTAL AND EMERGING CLAIM MANAGER ASSOCIATION", "city": "NEW YORK", "state": "NY", "zip": "10185-0047", "ntee": "B03", "ruling": "202104", "deductibility": "1", "assets": 81731, "income": 132795, "revenue": 132795}], "HALLIE": [{"ein": "201494138", "name": "LOVE HALLIE FOUNDATION", "city": "SUNNYSIDE", "state": "NY", "zip": "11104-1851", "ntee": "T30", "ruling": "200506", "deductibility": "1", "assets": 0, "income": 0, "revenue": 0}], "MZB": [{"ein": "201755003", "name": "MZB CENTER FOR CANCER RESEARCH INC", "city": "NEW YORK", "state": "NY", "zip": "10023-6555", "ntee": "", "ruling": "200511", "deductibility": "1", "assets": 5686, "income": 1995, "revenue": 1995}], "MASBIA": [{"ein": "201923521", "name": "MASBIA", "city": "BROOKLYN", "state": "NY", "zip": "11219-7181", "ntee": "K34", "ruling": "200503", "deductibility": "1", "assets": 228280, "income": 2587620, "revenue": 2587620}, {"ein": "263851559", "name": "MASBIA OF BORO PARK", "city": "BROOKLYN", "state": "NY", "zip": "11219-7181", "ntee": "K35", "ruling": "201301", "deductibility": "1", "assets": 157279, "income": 2710398, "revenue": 2710398}, {"ein": "263867777", "name": "MASBIA OF WILLIAMSBURG", "city": "BROOKLYN", "state": "NY", "zip": "11219-7181", "ntee": "K34", "ruling": "201107", "deductibility": "1", "assets": 201, "income": 126645, "revenue": 126645}, {"ein": "270363356", "name": "MASBIA OF QUEENS", "city": "BROOKLYN", "state": "NY", "zip": "11219-7181", "ntee": "K31", "ruling": "201011", "deductibility": "1", "assets": 221155, "income": 2761628, "revenue": 2761628}, {"ein": "271209610", "name": "MASBIA OF FLATBUSH", "city": "BROOKLYN", "state": "NY", "zip": "11219-7181", "ntee": "K35", "ruling": "201301", "deductibility": "1", "assets": 59160, "income": 1974932, "revenue": 1974932}, {"ein": "814065631", "name": "CONG MASBIA LECHOL CHAI INC", "city": "AIRMONT", "state": "NY", "zip": "10952-4147", "ntee": "X30", "ruling": "202005", "deductibility": "1", "assets": 3183, "income": 779248, "revenue": 779248}], "PSYART": [{"ein": "202104046", "name": "PSYART FOUNDATION", "city": "REXFORD", "state": "NY", "zip": "12148-1315", "ntee": "V23", "ruling": "200606", "deductibility": "1", "assets": 0, "income": 0, "revenue": 0}], "VAJRAVARAHI": [{"ein": "202204609", "name": "VAJRAVARAHI MEDITATION CENTER INC", "city": "WATER MILL", "state": "NY", "zip": "11976-1083", "ntee": "X80", "ruling": "201203", "deductibility": "1", "assets": 72302, "income": 55721, "revenue": 55721}], "ENGLE": [{"ein": "203616474", "name": "BRENNA ENGLE FOUNDATION", "city": "HYDE PARK", "state": "NY", "zip": "12538-1853", "ntee": "Q30", "ruling": "200601", "deductibility": "1", "assets": 0, "income": 0, "revenue": 0}], "MEHARAM": [{"ein": "203974493", "name": "MOSDOS MEHARAM BRISK OF TASHNAD", "city": "SPRING VALLEY", "state": "NY", "zip": "10977-3806", "ntee": "X30", "ruling": "200801", "deductibility": "1", "assets": 0, "income": 0, "revenue": 0}], "SHIPPY": [{"ein": "204083744", "name": "SHIPPY FOUNDATION", "city": "NEW YORK", "state": "NY", "zip": "10020-2003", "ntee": "T20", "ruling": "200701", "deductibility": "1", "assets": 29293628, "income": 2474571, "revenue": 0}], "MENDONHISTORICAL": [{"ein": "204502970", "name": "HONEOYE FALLS - TOWN OF MENDONHISTORICAL SOCIETY", "city": "HONEOYE FALLS", "state": "NY", "zip": "14472-0026", "ntee": "B11", "ruling": "201605", "deductibility": "1", "assets": 0, "income": 0, "revenue": 0}], "DEEPWELLS": [{"ein": "204952036", "name": "DEEPWELLS FARM HISTORICAL SOCIETY", "city": "ST JAMES", "state": "NY", "zip": "11780-0123", "ntee": "A80", "ruling": "200711", "deductibility": "1", "assets": 62847, "income": 0, "revenue": 0}], "FORTH": [{"ein": "205369388", "name": "FORTH FOUNDATION", "city": "NEW YORK", "state": "NY", "zip": "10065-7076", "ntee": "T20", "ruling": "200703", "deductibility": "1", "assets": 3632874, "income": 2351594, "revenue": 0}, {"ein": "820786165", "name": "EUPHEMA VERA RONALD FORTH-PARKS ORGANIZATION INC", "city": "BROOKLYN", "state": "NY", "zip": "11203-1287", "ntee": "B19", "ruling": "201703", "deductibility": "1", "assets": 0, "income": 0, "revenue": 0}, {"ein": "852050709", "name": "MARCH FORTH FOUNDATION", "city": "NEW YORK", "state": "NY", "zip": "10022-3613", "ntee": "T20", "ruling": "202009", "deductibility": "1", "assets": 25652, "income": 915902, "revenue": 0}, {"ein": "871132808", "name": "JOSEPH P MCKENNA MARCH FORTH FOUNDATION INC", "city": "SMITHTOWN", "state": "NY", "zip": "11787-4843", "ntee": "P20", "ruling": "202109", "deductibility": "1", "assets": 10227, "income": 61234, "revenue": 20249}], "DEALERSASSOCIATION": [{"ein": "205395094", "name": "VERMONT RETAIL LUMER DEALERSASSOCIATION INC", "city": "RENSSELAER", "state": "NY", "zip": "12144-8419", "ntee": "S41", "ruling": "200704", "deductibility": "2", "assets": 0, "income": 0, "revenue": 0}, {"ein": "205395132", "name": "EASTERN NEW YORK LUMBER DEALERSASSOCIATION INC", "city": "RENSSELAER", "state": "NY", "zip": "12144-8419", "ntee": "Y03", "ruling": "200706", "deductibility": "2", "assets": 0, "income": 0, "revenue": 0}, {"ein": "205395154", "name": "NORTHERN NEW YORK LUMBER DEALERSASSOCIATION INC", "city": "RENSSELAER", "state": "NY", "zip": "12144-8419", "ntee": "S46", "ruling": "200705", "deductibility": "2", "assets": 172527, "income": 57120, "revenue": 34043}, {"ein": "205395167", "name": "WESTERN NEW YORK LUMBER DEALERSASSOCIATION INC", "city": "RENSSELAER", "state": "NY", "zip": "12144-8419", "ntee": "S46", "ruling": "200704", "deductibility": "2", "assets": 0, "income": 0, "revenue": 0}], "COYOTE": [{"ein": "208032535", "name": "COYOTE REP THEATRE COMPANY", "city": "NEW YORK", "state": "NY", "zip": "10013-1481", "ntee": "A65", "ruling": "200708", "deductibility": "1", "assets": 0, "income": 0, "revenue": 0}], "PODHALE": [{"ein": "222294064", "name": "PODHALE PARENTS AND YOUTH ASSOCIATION INC", "city": "BUFFALO", "state": "NY", "zip": "14240-1433", "ntee": "", "ruling": "198112", "deductibility": "1", "assets": 164131, "income": 15244, "revenue": 13421}], "76ERS": [{"ein": "222325452", "name": "SINCLAIRVILLE 76ERS ASSOCIATION FOR BETTER LIVING INC", "city": "SINCLAIRVILLE", "state": "NY", "zip": "14782-0426", "ntee": "P81Z", "ruling": "198504", "deductibility": "1", "assets": 26313, "income": 111346, "revenue": 111346}], "DYMPHNA": [{"ein": "222325835", "name": "TRANSITIONAL SERVICES DYMPHNA PROJECT INC", "city": "BUFFALO", "state": "NY", "zip": "14222-2209", "ntee": "P73Z", "ruling": "198105", "deductibility": "1", "assets": 66315, "income": 69892, "revenue": 69892}], "LAGRANGEVILLE": [{"ein": "222484349", "name": "TRINITY UNITED METHODIST CHURCH OF LAGRANGEVILLE NY", "city": "LAGRANGEVILLE", "state": "NY", "zip": "12540-5702", "ntee": "", "ruling": "197410", "deductibility": "1", "assets": 0, "income": 0, "revenue": 0}, {"ein": "812590696", "name": "LAGRANGEVILLE CEMETERY", "city": "LAGRANGEVILLE", "state": "NY", "zip": "12540-5702", "ntee": "Y50", "ruling": "201606", "deductibility": "1", "assets": 0, "income": 0, "revenue": 0}, {"ein": "922515544", "name": "YOUTH ATHLETIC LEAGUE OF LAGRANGEVILLE NY INC", "city": "LAGRANGEVILLE", "state": "NY", "zip": "12540-0375", "ntee": "O20", "ruling": "202304", "deductibility": "1", "assets": 6742, "income": 54573, "revenue": 54573}], "COLLIN": [{"ein": "222509378", "name": "AMERICAN LEGION POST 1640 NORTH COLLIN", "city": "NORTH COLLINS", "state": "NY", "zip": "14111-0520", "ntee": "", "ruling": "194603", "deductibility": "1", "assets": 0, "income": 0, "revenue": 0}, {"ein": "356802900", "name": "COLLIN E HAIGHT CHARITABLE FOUNDATION", "city": "DELHI", "state": "NY", "zip": "13753-0003", "ntee": "B82", "ruling": "200903", "deductibility": "1", "assets": 214850, "income": 69070, "revenue": 0}], "GBH": [{"ein": "232966565", "name": "GBH FOUNDATION", "city": "NEW YORK", "state": "NY", "zip": "10005-1101", "ntee": "T30", "ruling": "199903", "deductibility": "1", "assets": 1416458, "income": 238852, "revenue": 0}], "TODD": [{"ein": "236608535", "name": "GLENN E TODD TR FBO UNITED CHURCH OF CHRIST", "city": "BUFFALO", "state": "NY", "zip": "14240-1504", "ntee": "T20", "ruling": "200611", "deductibility": "1", "assets": 1098027, "income": 330718, "revenue": 0}, {"ein": "236608537", "name": "GLENN E TODD TUW", "city": "BUFFALO", "state": "NY", "zip": "14240-1504", "ntee": "T20", "ruling": "200506", "deductibility": "1", "assets": 775811, "income": 204324, "revenue": 0}, {"ein": "256630150", "name": "ROGER K TODD TRUST UA", "city": "BUFFALO", "state": "NY", "zip": "14240-1504", "ntee": "", "ruling": "000000", "deductibility": "0", "assets": 4919071, "income": 1312706, "revenue": 0}, {"ein": "474052154", "name": "LT COL TODD J CLARK MEMORIAL GOLF TOURNAMENT", "city": "SCHENECTADY", "state": "NY", "zip": "12303-5640", "ntee": "P12", "ruling": "201506", "deductibility": "1", "assets": 18582, "income": 69251, "revenue": 69251}, {"ein": "830746011", "name": "TEAM TODD FOUNDATION", "city": "ROSLYN", "state": "NY", "zip": "11576-1704", "ntee": "T30", "ruling": "201908", "deductibility": "1", "assets": 28084, "income": 23080, "revenue": 4054}, {"ein": "881195311", "name": "TODD UPTON MEMORIAL CORPORATION", "city": "MASSAPEQUA PK", "state": "NY", "zip": "11762-2327", "ntee": "T50", "ruling": "202204", "deductibility": "1", "assets": 0, "income": 0, "revenue": 0}], "BETSY": [{"ein": "237046420", "name": "BETSY & ALAN COHN FOUNDATION INC", "city": "NEW YORK", "state": "NY", "zip": "10006-2756", "ntee": "", "ruling": "197002", "deductibility": "1", "assets": 11720721, "income": 1799503, "revenue": 0}], "SSG": [{"ein": "237170065", "name": "SSG MICHAEL OLLIS POST 9587", "city": "STATEN ISLAND", "state": "NY", "zip": "10306-5504", "ntee": "", "ruling": "197202", "deductibility": "1", "assets": 155246, "income": 69017, "revenue": 69017}, {"ein": "462058742", "name": "SSG WILLIAM R WILSON III MEMORIAL FOUNDATION", "city": "GETZVILLE", "state": "NY", "zip": "14068-1310", "ntee": "T30", "ruling": "201311", "deductibility": "1", "assets": 0, "income": 0, "revenue": 0}], "ROXANNE": [{"ein": "237389149", "name": "ROXANNE DANCE FOUNDATION INC", "city": "NEW YORK", "state": "NY", "zip": "10012-3930", "ntee": "A62Z", "ruling": "198002", "deductibility": "1", "assets": 45824, "income": 41982, "revenue": 0}, {"ein": "472512172", "name": "ROXANNE AND HENRY BRANDT FOUNDATION", "city": "NEW YORK", "state": "NY", "zip": "10111-0228", "ntee": "T22", "ruling": "201505", "deductibility": "1", "assets": 5515704, "income": 1862077, "revenue": 0}], "US43": [{"ein": "237619106", "name": "KNIGHTS TEMPLAR OF THE US43 POUGHKEEPSIE IN SAUGERTIES", "city": "SAUGERTIES", "state": "NY", "zip": "12477-1521", "ntee": "", "ruling": "196401", "deductibility": "1", "assets": 0, "income": 0, "revenue": 0}], "GREENEAND": [{"ein": "260453245", "name": "CHABAD JEWISH CENTER OF FORT GREENEAND CLINTON HILL INC", "city": "BROOKLYN", "state": "NY", "zip": "11238-1946", "ntee": "X30", "ruling": "200810", "deductibility": "1", "assets": 0, "income": 0, "revenue": 0}], "FURLONG": [{"ein": "261856812", "name": "FURLONG FOUNDATION", "city": "TUCKAHOE", "state": "NY", "zip": "10707-1807", "ntee": "T22", "ruling": "200908", "deductibility": "1", "assets": 6590, "income": 30, "revenue": 0}], "TOUGH": [{"ein": "263078352", "name": "TOUGH MAN INC", "city": "RYE BROOK", "state": "NY", "zip": "10573-2810", "ntee": "T30", "ruling": "200811", "deductibility": "1", "assets": 452, "income": 11713, "revenue": 11713}], "ALUNMAE": [{"ein": "264752866", "name": "SOUTH GEORGETOWN SECONDARY SCHOOL ALUNMAE ASSOCIATION INC", "city": "BROOKLYN", "state": "NY", "zip": "11236-3931", "ntee": "B28", "ruling": "201309", "deductibility": "1", "assets": 0, "income": 0, "revenue": 0}], "POWERRAIN": [{"ein": "270474892", "name": "POWERRAIN PENTECOSTAL INTERNATIONAL MINISTRIES", "city": "BRONX", "state": "NY", "zip": "10457-4406", "ntee": "X21", "ruling": "201202", "deductibility": "1", "assets": 0, "income": 0, "revenue": 0}], "RECLAIM": [{"ein": "272047238", "name": "RECLAIM HOUSING DEVELOPMENT FUND CORPORATION", "city": "BRONX", "state": "NY", "zip": "10468-3001", "ntee": "L20", "ruling": "201407", "deductibility": "1", "assets": 17008688, "income": 3930095, "revenue": 3930095}, {"ein": "274869299", "name": "RECLAIM ROUND II HOUSING DEVELOPMENT FUND CORPORATION", "city": "BRONX", "state": "NY", "zip": "10468-3001", "ntee": "L21", "ruling": "201408", "deductibility": "1", "assets": 14247817, "income": 2204308, "revenue": 2204308}, {"ein": "463982730", "name": "RECLAIM NEW YORK INC", "city": "NEW YORK", "state": "NY", "zip": "10017-8260", "ntee": "R60", "ruling": "201407", "deductibility": "1", "assets": 1713827, "income": 200019, "revenue": 200019}], "BIRTHDAY": [{"ein": "272416150", "name": "BIRTHDAY SQUAD OF BUFFALO INC", "city": "EAST AMHERST", "state": "NY", "zip": "14051-0805", "ntee": "O50", "ruling": "201012", "deductibility": "1", "assets": 60956, "income": 59059, "revenue": 59059}, {"ein": "460761691", "name": "BIRTHDAY FAIRIES INC", "city": "MERRICK", "state": "NY", "zip": "11566-5304", "ntee": "P20", "ruling": "201210", "deductibility": "1", "assets": 0, "income": 0, "revenue": 0}, {"ein": "813058694", "name": "OPERATION BIRTHDAY PARTY", "city": "BROOKLYN", "state": "NY", "zip": "11204-5826", "ntee": "O50", "ruling": "201609", "deductibility": "1", "assets": 0, "income": 0, "revenue": 0}, {"ein": "815255132", "name": "HAPPY BIRTHDAY CHA CHA CHA", "city": "PITTSFORD", "state": "NY", "zip": "14534-1119", "ntee": "W99", "ruling": "201711", "deductibility": "1", "assets": 6696, "income": 119833, "revenue": 119833}, {"ein": "842684476", "name": "NYC MARINE CORPS BIRTHDAY GALA INC", "city": "NEW YORK", "state": "NY", "zip": "10010-6701", "ntee": "W30", "ruling": "202306", "deductibility": "1", "assets": 12071, "income": 201000, "revenue": 0}, {"ein": "842759519", "name": "BIRTHDAY BUDDIES OF WESTERN NEW YORK INC", "city": "AMHERST", "state": "NY", "zip": "14228-2836", "ntee": "P30", "ruling": "201909", "deductibility": "1", "assets": 0, "income": 0, "revenue": 0}], "PERISHING": [{"ein": "272458026", "name": "RESCUE THE PERISHING DELIVERANCE MINISTRIES INTERNATIONAL", "city": "BROOKLYN", "state": "NY", "zip": "11226-7621", "ntee": "", "ruling": "201201", "deductibility": "1", "assets": 0, "income": 0, "revenue": 0}], "JMT": [{"ein": "274240043", "name": "JMT CHARITABLE FOUNDATION", "city": "NEW YORK", "state": "NY", "zip": "10022-4433", "ntee": "T22", "ruling": "201206", "deductibility": "1", "assets": 200968631, "income": 93, "revenue": 0}], "BUCKETS": [{"ein": "274804998", "name": "TEAM STEADY BUCKETS", "city": "NEW YORK", "state": "NY", "zip": "10003-3305", "ntee": "", "ruling": "201511", "deductibility": "1", "assets": 1291925, "income": 657817, "revenue": 657817}, {"ein": "870881085", "name": "TEAM BUCKETS INC", "city": "NEW YORK", "state": "NY", "zip": "10025-4457", "ntee": "N62", "ruling": "202109", "deductibility": "1", "assets": 0, "income": 0, "revenue": 0}, {"ein": "932477671", "name": "SHE GOT BUCKETS INC", "city": "LONG IS CITY", "state": "NY", "zip": "11101-3294", "ntee": "P20", "ruling": "202308", "deductibility": "1", "assets": 0, "income": 0, "revenue": 0}], "BRENDALYN": [{"ein": "306015902", "name": "BRENDALYN AND ERNEST STEMPEL FOUNDATION", "city": "NEW YORK", "state": "NY", "zip": "10119-0000", "ntee": "T20", "ruling": "200204", "deductibility": "1", "assets": 2304111, "income": 758632, "revenue": 0}], "TRICOUNTY": [{"ein": "331029434", "name": "TRICOUNTY INDOOR TRACK LEAGUE", "city": "TROY", "state": "NY", "zip": "12180-7602", "ntee": "N99", "ruling": "201407", "deductibility": "1", "assets": 42932, "income": 73724, "revenue": 73724}], "SHAREHOUSE": [{"ein": "331137455", "name": "FURNITURE SHAREHOUSE INC", "city": "LARCHMONT", "state": "NY", "zip": "10538-0702", "ntee": "P60", "ruling": "200606", "deductibility": "1", "assets": 620425, "income": 1196289, "revenue": 685440}], "WORDSHIPER": [{"ein": "331561112", "name": "WORDSHIPER MINISTRY INC", "city": "NEW YORK", "state": "NY", "zip": "10003-0060", "ntee": "X20", "ruling": "202411", "deductibility": "1", "assets": 0, "income": 0, "revenue": 0}], "REHEART": [{"ein": "332195043", "name": "REHEART RESCUE INC", "city": "SALISBURY MLS", "state": "NY", "zip": "12577-5113", "ntee": "D20", "ruling": "202412", "deductibility": "1", "assets": 0, "income": 0, "revenue": 0}], "QEDI": [{"ein": "332664954", "name": "QEDI GEORGIA USA INC", "city": "NEW YORK", "state": "NY", "zip": "10027-4020", "ntee": "A23", "ruling": "202501", "deductibility": "1", "assets": 0, "income": 0, "revenue": 0}], "TERRITORIAL": [{"ein": "371965249", "name": "INTERCONTINENTAL CHAPLAINCY AND CHRISTIAN TERRITORIAL PLATFORM OPE", "city": "FREEPORT", "state": "NY", "zip": "11520-5217", "ntee": "X20", "ruling": "202303", "deductibility": "1", "assets": 0, "income": 0, "revenue": 0}, {"ein": "834145242", "name": "TERRITORIAL EMPATHY INC", "city": "BROOKLYN", "state": "NY", "zip": "11211-6009", "ntee": "V34", "ruling": "201904", "deductibility": "1", "assets": 99210, "income": 109950, "revenue": 109950}], "ASSEMBLEE": [{"ein": "372048353", "name": "ASSEMBLEE DU CHRIST DE LONG ISLAND", "city": "HAUPPAUGE", "state": "NY", "zip": "11788-5204", "ntee": "X20", "ruling": "202408", "deductibility": "1", "assets": 0, "income": 0, "revenue": 0}, {"ein": "462470695", "name": "ASSEMBLEE DE LA PROMESSE NYACK NEW YORK", "city": "NYACK", "state": "NY", "zip": "10960-4405", "ntee": "", "ruling": "195504", "deductibility": "1", "assets": 0, "income": 0, "revenue": 0}, {"ein": "465548985", "name": "EGLISE ASSEMBLEE DE DIEU TABERNACLE DE LA GRACE INC", "city": "BROOKLYN", "state": "NY", "zip": "11203-2215", "ntee": "X20", "ruling": "201612", "deductibility": "1", "assets": 0, "income": 0, "revenue": 0}], "NUPIC": [{"ein": "452213187", "name": "NUCLEAR PROCUREMENT ISSUES COMMITTEE NUPIC", "city": "PITTSFORD", "state": "NY", "zip": "14534-1943", "ntee": "S41", "ruling": "201307", "deductibility": "2", "assets": 233543, "income": 414483, "revenue": 414483}], "SCROLL": [{"ein": "453462391", "name": "7TH SCROLL INC", "city": "BROOKLYN", "state": "NY", "zip": "11217-1504", "ntee": "P20", "ruling": "201205", "deductibility": "1", "assets": 0, "income": 0, "revenue": 0}, {"ein": "462288007", "name": "PEN & SCROLL ORGANIZATION INC", "city": "NEW YORK", "state": "NY", "zip": "10032-7801", "ntee": "O99", "ruling": "201409", "deductibility": "1", "assets": 0, "income": 0, "revenue": 0}], "NJCAA": [{"ein": "461671263", "name": "REGION XIX NJCAA INC", "city": "HOMER", "state": "NY", "zip": "13077-8402", "ntee": "N60", "ruling": "201305", "deductibility": "1", "assets": 0, "income": 0, "revenue": 0}], "STERNE": [{"ein": "461812072", "name": "HEDDA STERNE FOUNDATION INC", "city": "BROOKLYN", "state": "NY", "zip": "11205-1338", "ntee": "A20", "ruling": "201305", "deductibility": "1", "assets": 6663310, "income": 1696670, "revenue": 0}], "PROFOUND": [{"ein": "461957635", "name": "PROFOUND TREASURY DHARMA FOUNDATION INC", "city": "SLEEPY HOLLOW", "state": "NY", "zip": "10591-1614", "ntee": "X99", "ruling": "201406", "deductibility": "1", "assets": 131809, "income": 198750, "revenue": 198750}, {"ein": "994587961", "name": "PROFOUND MASTERMIND INC", "city": "SKANEATELES", "state": "NY", "zip": "13152-9034", "ntee": "B90", "ruling": "202410", "deductibility": "1", "assets": 0, "income": 0, "revenue": 0}], "TAKE2": [{"ein": "462312886", "name": "TAKE2 SECOND CAREER THOROUGHBRED PROGRAM INC", "city": "FLORAL PARK", "state": "NY", "zip": "11002-1028", "ntee": "D20", "ruling": "201407", "deductibility": "1", "assets": 1072552, "income": 939305, "revenue": 939305}], "MARIPOSAS": [{"ein": "463094057", "name": "MARIPOSAS MUJERES CAMBIANDO EL MUNDO INC", "city": "KINDERHOOK", "state": "NY", "zip": "12106-0429", "ntee": "B82", "ruling": "201408", "deductibility": "1", "assets": 0, "income": 0, "revenue": 0}], "LEAU": [{"ein": "463941020", "name": "CENTRE DE LEAU VIVE MINISTRY", "city": "UNIONDALE", "state": "NY", "zip": "11553-3016", "ntee": "X21", "ruling": "201805", "deductibility": "1", "assets": 0, "income": 0, "revenue": 0}], "SEFARIA": [{"ein": "464406454", "name": "SEFARIA INC", "city": "NEW YORK", "state": "NY", "zip": "10003-1502", "ntee": "B99", "ruling": "201407", "deductibility": "1", "assets": 10838623, "income": 12582145, "revenue": 12558545}], "BSF": [{"ein": "467424622", "name": "BSF FOUNDATION", "city": "BROOKLYN", "state": "NY", "zip": "11204-3819", "ntee": "T22", "ruling": "201410", "deductibility": "1", "assets": 3527, "income": 1, "revenue": 0}], "NEX": [{"ein": "471471575", "name": "NEX-TO-NEW INC", "city": "SIDNEY", "state": "NY", "zip": "13838-1139", "ntee": "W12", "ruling": "201409", "deductibility": "1", "assets": 0, "income": 0, "revenue": 0}, {"ein": "800805399", "name": "GENERATION NEX INC", "city": "CHEEKTOWAGA", "state": "NY", "zip": "14215-1935", "ntee": "X20", "ruling": "201609", "deductibility": "1", "assets": 0, "income": 0, "revenue": 0}], "SILENCE": [{"ein": "472056770", "name": "KEYS TO UNLOCK YOUR SILENCE INC", "city": "JAMAICA", "state": "NY", "zip": "11434-3805", "ntee": "F40", "ruling": "201602", "deductibility": "1", "assets": 0, "income": 0, "revenue": 0}, {"ein": "931718770", "name": "FILL THE SILENCE STUDIO", "city": "TRUMANSBURG", "state": "NY", "zip": "14886-9703", "ntee": "A31", "ruling": "202404", "deductibility": "1", "assets": 0, "income": 0, "revenue": 0}], "HAYASHAR": [{"ein": "472647641", "name": "HAYASHAR VEHATOV INC", "city": "BROOKLYN", "state": "NY", "zip": "11204-1733", "ntee": "X30", "ruling": "201501", "deductibility": "1", "assets": 1445642, "income": 1987492, "revenue": 1987492}], "DCT": [{"ein": "472663403", "name": "THE DCT FOUNDATION", "city": "MONSEY", "state": "NY", "zip": "10952-2843", "ntee": "T20", "ruling": "201512", "deductibility": "1", "assets": 7542191, "income": 3043548, "revenue": 0}], "WERE": [{"ein": "472874314", "name": "WERE NOT GONNA TAKE IT INC", "city": "HUDSON", "state": "NY", "zip": "12534-8912", "ntee": "L40", "ruling": "201505", "deductibility": "1", "assets": 0, "income": 0, "revenue": 0}, {"ein": "473980592", "name": "WHILE WERE STILL HERE", "city": "NEW YORK", "state": "NY", "zip": "10032-4410", "ntee": "A20", "ruling": "201612", "deductibility": "1", "assets": 309253, "income": 99527, "revenue": 99527}, {"ein": "851660283", "name": "WHERE WERE FROM INC", "city": "BROOKLYN", "state": "NY", "zip": "11212-6027", "ntee": "B90", "ruling": "202308", "deductibility": "1", "assets": 0, "income": 0, "revenue": 0}, {"ein": "862295207", "name": "WERE HERE FOR FAMILY INC", "city": "NEW YORK", "state": "NY", "zip": "10044-0169", "ntee": "P20", "ruling": "202107", "deductibility": "1", "assets": 0, "income": 0, "revenue": 0}, {"ein": "872721610", "name": "WE WERE THERE INC", "city": "NEW YORK", "state": "NY", "zip": "10036-4762", "ntee": "B99", "ruling": "202210", "deductibility": "1", "assets": 0, "income": 0, "revenue": 0}, {"ein": "933062466", "name": "WERE ALL ABOUT IT INC", "city": "BROOKLYN", "state": "NY", "zip": "11201-5995", "ntee": "O50", "ruling": "202312", "deductibility": "1", "assets": 0, "income": 0, "revenue": 0}, {"ein": "993456998", "name": "WERE DONE DYING INC", "city": "FREEPORT", "state": "NY", "zip": "11520-3341", "ntee": "P20", "ruling": "202501", "deductibility": "1", "assets": 0, "income": 0, "revenue": 0}], "ROSTOV": [{"ein": "473973036", "name": "ROSTOV MEDIA FOUNDATION", "city": "NEW YORK", "state": "NY", "zip": "10009-7865", "ntee": "T99", "ruling": "201509", "deductibility": "1", "assets": 4926, "income": 215072, "revenue": 215072}], "USCJ": [{"ein": "474426737", "name": "USCJ SUPPORTING FOUNDATION INC", "city": "NEW YORK", "state": "NY", "zip": "10017-4542", "ntee": "Y11", "ruling": "201511", "deductibility": "1", "assets": 0, "income": 0, "revenue": 0}], "CORRUPTION": [{"ein": "474583979", "name": "CORPORATION FOR THE MUSEUM OF POLITICAL CORRUPTION", "city": "ALBANY", "state": "NY", "zip": "12208-1827", "ntee": "A50", "ruling": "201510", "deductibility": "1", "assets": 0, "income": 0, "revenue": 0}, {"ein": "850774334", "name": "ANTI-CORRUPTION FOUNDATION INC", "city": "NEW YORK", "state": "NY", "zip": "10004-2783", "ntee": "Q12", "ruling": "202210", "deductibility": "1", "assets": 79181, "income": 1700980, "revenue": 1700980}], "FASNY": [{"ein": "510419332", "name": "FASNY MUSEUM OF FIREFIGHTING", "city": "HUDSON", "state": "NY", "zip": "12534-1601", "ntee": "A50", "ruling": "200301", "deductibility": "1", "assets": 8676492, "income": 1658820, "revenue": 763037}], "SPRINGING": [{"ein": "510578757", "name": "WELL SPRINGING WATER LIFE MINISTRIES INTERNATIONAL INC", "city": "BRONX", "state": "NY", "zip": "10469-1007", "ntee": "X21", "ruling": "201502", "deductibility": "1", "assets": 0, "income": 0, "revenue": 0}], "CLIMBERY": [{"ein": "760720855", "name": "THE CLIMBERY FOUNDATION INC", "city": "GERMANTOWN", "state": "NY", "zip": "12526-5503", "ntee": "C41", "ruling": "200304", "deductibility": "1", "assets": 16273, "income": 78111, "revenue": 0}], "EMER": [{"ein": "800163700", "name": "MASTICS AND SHIRLEY COMMUNITY EMER FOOD CENTER FOUNDATION INC", "city": "SHIRLEY", "state": "NY", "zip": "11967-2006", "ntee": "K31", "ruling": "201903", "deductibility": "1", "assets": 0, "income": 0, "revenue": 0}], "ZACA": [{"ein": "800211453", "name": "ZACA LAKE FOUNDATION INC", "city": "MELVILLE", "state": "NY", "zip": "11747-3722", "ntee": "D30", "ruling": "201007", "deductibility": "1", "assets": 682414, "income": 0, "revenue": 0}], "SCHULKE": [{"ein": "810836484", "name": "SCHULKE INN FAMILY FOUNDATION", "city": "NEW YORK", "state": "NY", "zip": "10004-3059", "ntee": "T22", "ruling": "201604", "deductibility": "1", "assets": 1504273, "income": 260632, "revenue": 0}], "MIKUS": [{"ein": "810997907", "name": "HANNAH MIKUS SCHOLARSHIP FUND INC", "city": "MAHOPAC", "state": "NY", "zip": "10541-2020", "ntee": "B82", "ruling": "201601", "deductibility": "1", "assets": 0, "income": 0, "revenue": 0}], "BATALA": [{"ein": "813969722", "name": "BATALA NEW YORK INC", "city": "BROOKLYN", "state": "NY", "zip": "11215-2718", "ntee": "A60", "ruling": "202201", "deductibility": "1", "assets": 122472, "income": 132972, "revenue": 129257}], "GRAFTED": [{"ein": "814220512", "name": "GRAFTED IN BRANCH 7TH DAY APOSTOLIC ASSEMBLY INC", "city": "SAINT ALBANS", "state": "NY", "zip": "11412-0322", "ntee": "X21", "ruling": "201702", "deductibility": "1", "assets": 0, "income": 0, "revenue": 0}], "MAREN": [{"ein": "814295288", "name": "MAREN FOUNDATION", "city": "EAST HAMPTON", "state": "NY", "zip": "11937-2439", "ntee": "H80", "ruling": "201611", "deductibility": "1", "assets": 296193, "income": 209920, "revenue": 0}], "CENRID": [{"ein": "823090040", "name": "CENRID INC", "city": "ALBANY", "state": "NY", "zip": "12207-1704", "ntee": "S20", "ruling": "201801", "deductibility": "1", "assets": 0, "income": 0, "revenue": 0}], "AGUAS": [{"ein": "824522750", "name": "IGLESIA DE DIOS AGUAS EN EL DESIERTO", "city": "FREEPORT", "state": "NY", "zip": "11520-3609", "ntee": "X20", "ruling": "202403", "deductibility": "1", "assets": 258930, "income": 89312, "revenue": 89312}], "MAMMY": [{"ein": "830903510", "name": "ANNETTA MAMMY MAY LACRETTE FOUNDATION", "city": "WHEATLEY HTS", "state": "NY", "zip": "11798-1026", "ntee": "P40", "ruling": "202002", "deductibility": "1", "assets": 0, "income": 0, "revenue": 0}], "GURLS": [{"ein": "831374281", "name": "GURLS TALK INC", "city": "NEW YORK", "state": "NY", "zip": "10022-5702", "ntee": "O22", "ruling": "201905", "deductibility": "1", "assets": 328050, "income": 335567, "revenue": 335567}, {"ein": "991166251", "name": "STRONG GURLS CLUB", "city": "NEW YORK", "state": "NY", "zip": "10035-1901", "ntee": "N40", "ruling": "202403", "deductibility": "1", "assets": 2661, "income": 3471, "revenue": 3471}], "EHRENFELD": [{"ein": "832098198", "name": "EHRENFELD KIDS INC", "city": "BROOKLYN", "state": "NY", "zip": "11219-4526", "ntee": "X30", "ruling": "201905", "deductibility": "1", "assets": 0, "income": 0, "revenue": 0}], "KLOSSY": [{"ein": "833160675", "name": "KODE WITH KLOSSY INC", "city": "NEW YORK", "state": "NY", "zip": "10012-2614", "ntee": "B12", "ruling": "202104", "deductibility": "1", "assets": 3867480, "income": 4792042, "revenue": 4792042}], "ELOQUENT": [{"ein": "833218656", "name": "ELOQUENT ESSENTIALS YOUTH SCHOLARSHIP PROGRAM", "city": "BROOKLYN", "state": "NY", "zip": "11221-1204", "ntee": "P20", "ruling": "201903", "deductibility": "1", "assets": 0, "income": 0, "revenue": 0}], "LEACHIM": [{"ein": "834189761", "name": "HATZOLAH LEACHIM INC", "city": "BROOKLYN", "state": "NY", "zip": "11206-7444", "ntee": "X30", "ruling": "201911", "deductibility": "1", "assets": 0, "income": 0, "revenue": 0}], "NOVOCOGNIA": [{"ein": "834481008", "name": "NOVOCOGNIA INCORPORATED", "city": "NEW YORK", "state": "NY", "zip": "10002-1388", "ntee": "E31", "ruling": "201911", "deductibility": "1", "assets": 0, "income": 0, "revenue": 0}], "KCNMA1": [{"ein": "834532605", "name": "KCNMA1 CHANNELOPATHY INTERNATIONAL ADVOCACY FOUNDATION", "city": "NEW YORK", "state": "NY", "zip": "10065-7852", "ntee": "G80", "ruling": "201906", "deductibility": "1", "assets": 1174, "income": 0, "revenue": 0}], "CUBED": [{"ein": "843037647", "name": "GRATUS-CUBED INC", "city": "JERICHO", "state": "NY", "zip": "11753-1133", "ntee": "A20", "ruling": "201909", "deductibility": "1", "assets": 0, "income": 0, "revenue": 0}, {"ein": "863110888", "name": "HEALTH CUBED INC", "city": "BROOKLYN", "state": "NY", "zip": "11204-1101", "ntee": "S02", "ruling": "202112", "deductibility": "1", "assets": 579238, "income": 2283750, "revenue": 2283750}], "DAFT": [{"ein": "843842097", "name": "DAFT YOUTH SERVICES INC", "city": "NEWBURGH", "state": "NY", "zip": "12550-5318", "ntee": "P30", "ruling": "202003", "deductibility": "1", "assets": 8085, "income": 80582, "revenue": 80582}], "1LT": [{"ein": "844525537", "name": "1LT DANIEL HYDE MEMORIAL FUND INC", "city": "CENTRAL VLY", "state": "NY", "zip": "10917-3404", "ntee": "W30", "ruling": "202002", "deductibility": "1", "assets": 0, "income": 0, "revenue": 0}], "JITSU": [{"ein": "845098232", "name": "LOTUS JIU JITSU PROJECT INC", "city": "NEW YORK", "state": "NY", "zip": "10032-4536", "ntee": "O22", "ruling": "202007", "deductibility": "1", "assets": 0, "income": 0, "revenue": 0}, {"ein": "882419246", "name": "HAVEN JIU JITSU INITIATIVE INC", "city": "BALDWINSVILLE", "state": "NY", "zip": "13027-2370", "ntee": "N99", "ruling": "202207", "deductibility": "1", "assets": 0, "income": 0, "revenue": 0}, {"ein": "993901729", "name": "LIGHT WORK JIU JITSU INC", "city": "POUGHKEEPSIE", "state": "NY", "zip": "12601-3317", "ntee": "P20", "ruling": "202410", "deductibility": "1", "assets": 0, "income": 0, "revenue": 0}, {"ein": "994132967", "name": "MIDTOWN SCHOOL OF JIU JITSU", "city": "STONE RIDGE", "state": "NY", "zip": "12484-5508", "ntee": "N30", "ruling": "202408", "deductibility": "1", "assets": 0, "income": 0, "revenue": 0}], "KINDSOUL": [{"ein": "850737163", "name": "KINDSOUL", "city": "WEBSTER", "state": "NY", "zip": "14580-4048", "ntee": "P20", "ruling": "202306", "deductibility": "1", "assets": 0, "income": 0, "revenue": 0}], "DIVERSEVOICES": [{"ein": "850839333", "name": "DIVERSEVOICES", "city": "NEW YORK", "state": "NY", "zip": "10003-1502", "ntee": "A03", "ruling": "202012", "deductibility": "1", "assets": 0, "income": 0, "revenue": 0}], "EUTOPIA": [{"ein": "851836337", "name": "EUTOPIA RISING INC", "city": "WOODSIDE", "state": "NY", "zip": "11377-5704", "ntee": "A01", "ruling": "202305", "deductibility": "1", "assets": 0, "income": 0, "revenue": 0}], "JOLOLI": [{"ein": "852332466", "name": "JOLOLI KIDNEY FOUNDATION INC", "city": "BROOKLYN", "state": "NY", "zip": "11212-8034", "ntee": "E70", "ruling": "202009", "deductibility": "1", "assets": 1, "income": 0, "revenue": 0}], "LAICOS": [{"ein": "861329922", "name": "INSTITUTO DE FORMACION PARA LAICOS SAN MATEO INC", "city": "REMSENBURG", "state": "NY", "zip": "11960-0019", "ntee": "X12", "ruling": "202201", "deductibility": "1", "assets": 4505, "income": 41994, "revenue": 0}], "HEARTBEATS": [{"ein": "862681346", "name": "BEAUTIFUL HEARTBEATS INC", "city": "STATEN ISLAND", "state": "NY", "zip": "10301-2825", "ntee": "Z99", "ruling": "202107", "deductibility": "1", "assets": 0, "income": 0, "revenue": 0}], "BREATHEDEEP": [{"ein": "862855774", "name": "BREATHEDEEP", "city": "HENRIETTA", "state": "NY", "zip": "14467-9209", "ntee": "E70", "ruling": "202107", "deductibility": "1", "assets": 0, "income": 492991, "revenue": 492991}], "DORZILOR": [{"ein": "863673063", "name": "DORZILOR FAMILY COMMUNITY SERVICES INC", "city": "NEW YORK", "state": "NY", "zip": "10026-2919", "ntee": "P20", "ruling": "202310", "deductibility": "1", "assets": 0, "income": 0, "revenue": 0}], "BEGGEDIN": [{"ein": "863722255", "name": "BEGGEDIN CORPORATION", "city": "CORNING", "state": "NY", "zip": "14830-2642", "ntee": "T02", "ruling": "202111", "deductibility": "1", "assets": 298249, "income": 100894, "revenue": 100894}], "HAMECHAND": [{"ein": "872460277", "name": "HAMECHAND MANNI MEANINGFUL HELP CHARITIES INC", "city": "RICHMOND HILL", "state": "NY", "zip": "11418-1267", "ntee": "P80", "ruling": "202206", "deductibility": "1", "assets": 0, "income": 0, "revenue": 0}], "AABHA": [{"ein": "872733886", "name": "AABHA CHARITABLE TRUST INC", "city": "WILLIAMSVILLE", "state": "NY", "zip": "14221-1775", "ntee": "A23", "ruling": "202202", "deductibility": "1", "assets": 0, "income": 0, "revenue": 0}], "PRIMA": [{"ein": "873811303", "name": "PRIMA MUSIC FOUNDATION", "city": "NEW YORK", "state": "NY", "zip": "10033-4487", "ntee": "A60", "ruling": "202205", "deductibility": "1", "assets": 0, "income": 0, "revenue": 0}], "ATRIA": [{"ein": "873989161", "name": "ATRIA HEALTH COLLABORATIVE INC", "city": "NEW YORK", "state": "NY", "zip": "10022-2500", "ntee": "T12", "ruling": "202301", "deductibility": "1", "assets": 0, "income": 0, "revenue": 0}, {"ein": "923114080", "name": "ATRIA ACADEMY OF SCIENCE AND MEDICINE INC", "city": "NEW YORK", "state": "NY", "zip": "10019-4001", "ntee": "H99", "ruling": "202401", "deductibility": "1", "assets": 0, "income": 0, "revenue": 0}], "MERTON": [{"ein": "874334157", "name": "THOMAS MERTON INSTITUTE FOR CATHOLIC LIFE", "city": "NEW YORK", "state": "NY", "zip": "10024-6049", "ntee": "X22", "ruling": "194603", "deductibility": "1", "assets": 1175078, "income": 981136, "revenue": 981136}], "ZC4H2": [{"ein": "874577599", "name": "ZC4H2 RESEARCH FOUNDATION INC", "city": "ALBANY", "state": "NY", "zip": "12211-2512", "ntee": "H12", "ruling": "202203", "deductibility": "1", "assets": 0, "income": 0, "revenue": 0}], "BECHATZROS": [{"ein": "882566943", "name": "BECHATZROS KODSHENI OF CYL", "city": "MONROE", "state": "NY", "zip": "10950-6169", "ntee": "X30", "ruling": "202208", "deductibility": "1", "assets": 0, "income": 0, "revenue": 0}], "MOSHIA": [{"ein": "882776082", "name": "MOSHIA ISRAEL", "city": "BROOKLYN", "state": "NY", "zip": "11204-2304", "ntee": "P12", "ruling": "202308", "deductibility": "1", "assets": 16613, "income": 747658, "revenue": 747658}], "UNIFY": [{"ein": "882831206", "name": "UNIFY USA INC", "city": "NEW YORK", "state": "NY", "zip": "10065-5812", "ntee": "Q42", "ruling": "202207", "deductibility": "1", "assets": 0, "income": 0, "revenue": 0}], "SKETCHBOOK": [{"ein": "920553853", "name": "SKETCHBOOK THEATRE INC", "city": "FOREST HILLS", "state": "NY", "zip": "11375-6307", "ntee": "A65", "ruling": "202212", "deductibility": "1", "assets": 49665, "income": 111005, "revenue": 111005}], "MORED": [{"ein": "922923633", "name": "MORED INC", "city": "NEW YORK", "state": "NY", "zip": "10037-0625", "ntee": "B90", "ruling": "202401", "deductibility": "1", "assets": 0, "income": 0, "revenue": 0}], "ROSC": [{"ein": "923213580", "name": "ROSC NEW YORK INC", "city": "WHITESTONE", "state": "NY", "zip": "11357-1607", "ntee": "X20", "ruling": "202404", "deductibility": "1", "assets": 0, "income": 0, "revenue": 0}], "UTH": [{"ein": "923924375", "name": "RESCUE MISSION FOR THE NEEDY YO UTH OF HAITI INC", "city": "NEW YORK", "state": "NY", "zip": "10040-3590", "ntee": "P30", "ruling": "202305", "deductibility": "1", "assets": 0, "income": 0, "revenue": 0}], "BLACKBIRDS": [{"ein": "931544767", "name": "BLACKBIRDS GOLF BOOSTER CLUB INC", "city": "VOORHEESVILLE", "state": "NY", "zip": "12186-4853", "ntee": "N12", "ruling": "202309", "deductibility": "1", "assets": 0, "income": 0, "revenue": 0}], "YESSENIA": [{"ein": "931547567", "name": "YESSENIA TORRES FOUNDATION INC", "city": "NEW YORK", "state": "NY", "zip": "10029-6801", "ntee": "B90", "ruling": "202403", "deductibility": "1", "assets": 0, "income": 0, "revenue": 0}], "ENVOYES": [{"ein": "931621137", "name": "LES ENVOYES POUR CHRIST MINISTRY INCORPORATED", "city": "BROOKLYN", "state": "NY", "zip": "11203-1341", "ntee": "X99", "ruling": "202309", "deductibility": "1", "assets": 0, "income": 0, "revenue": 0}], "ROSARIO": [{"ein": "933680937", "name": "ROSARIO DEVELOPMENT CORP", "city": "NEW YORK", "state": "NY", "zip": "10031-8465", "ntee": "P20", "ruling": "202310", "deductibility": "1", "assets": 0, "income": 0, "revenue": 0}, {"ein": "934127795", "name": "ROSARIO AND MICHELE CASSATA FAMILY FOUNDATION LTD", "city": "SAYVILLE", "state": "NY", "zip": "11782-2540", "ntee": "P30", "ruling": "202501", "deductibility": "1", "assets": 817, "income": 9681, "revenue": 9681}], "RELIC": [{"ein": "934079920", "name": "NEW RELIC THEATRE INC", "city": "BROOKLYN", "state": "NY", "zip": "11221-6474", "ntee": "A65", "ruling": "202401", "deductibility": "1", "assets": 0, "income": 0, "revenue": 0}], "MARLA": [{"ein": "934281450", "name": "MARLA SUE GOLDEN PHILANTHROPIC FOUNDATION INC", "city": "HEWLETT", "state": "NY", "zip": "11557-2609", "ntee": "T20", "ruling": "202401", "deductibility": "1", "assets": 34177, "income": 106083, "revenue": 106083}], "ARTADK": [{"ein": "934331462", "name": "ARTADK INC", "city": "GLENS FALLS", "state": "NY", "zip": "12804-2195", "ntee": "A20", "ruling": "202311", "deductibility": "1", "assets": 0, "income": 0, "revenue": 0}], "SHEYESH": [{"ein": "934965616", "name": "CONGREGATION CHAIM SHEYESH BAHEM", "city": "MONROE", "state": "NY", "zip": "10950-1165", "ntee": "X30", "ruling": "202408", "deductibility": "1", "assets": 0, "income": 0, "revenue": 0}], "INTTEGRATED": [{"ein": "990387832", "name": "CHARIS INTTEGRATED FAMILY SERVICES INC", "city": "BRONX", "state": "NY", "zip": "10469-2652", "ntee": "L22", "ruling": "202401", "deductibility": "1", "assets": 0, "income": 0, "revenue": 0}], "SWIMELITE": [{"ein": "990647762", "name": "SWIMELITE CORP", "city": "BROOKLYN", "state": "NY", "zip": "11230-2834", "ntee": "B90", "ruling": "202403", "deductibility": "1", "assets": 0, "income": 0, "revenue": 0}], "MOTHE": [{"ein": "992136571", "name": "DESTINY HOUSE OF MOTHE FOR THE NEEDY INC", "city": "STATEN ISLAND", "state": "NY", "zip": "10303-2009", "ntee": "L41", "ruling": "202404", "deductibility": "1", "assets": 0, "income": 0, "revenue": 0}], "ILMAN": [{"ein": "993972517", "name": "ILMAN NAFIYA USA INC", "city": "BUFFALO", "state": "NY", "zip": "14212-2335", "ntee": "P20", "ruling": "202408", "deductibility": "1", "assets": 0, "income": 0, "revenue": 0}], "CAMPCOURAGEWORLD": [{"ein": "994261479", "name": "CAMPCOURAGEWORLD FOUNDATION", "city": "NEW YORK", "state": "NY", "zip": "10022-0000", "ntee": "O50", "ruling": "202409", "deductibility": "1", "assets": 0, "income": 0, "revenue": 0}], "SZABO": [{"ein": "994301771", "name": "SZABO CHAMBER MUSIC SOCIETY", "city": "YONKERS", "state": "NY", "zip": "10705-1616", "ntee": "A68", "ruling": "202408", "deductibility": "1", "assets": 0, "income": 0, "revenue": 0}], "CYBERSECURITY": [{"ein": "994835568", "name": "CYBERSECURITY REACH FOUNDATION INC", "city": "NEW YORK", "state": "NY", "zip": "10016-6390", "ntee": "U41", "ruling": "202411", "deductibility": "1", "assets": 1, "income": 9, "revenue": 9}], "PIGEONS": [{"ein": "994839612", "name": "PIGEONS FOR MILES SANCTUARY AND RESCUE", "city": "BREWSTER", "state": "NY", "zip": "10509-6402", "ntee": "D32", "ruling": "202412", "deductibility": "1", "assets": 0, "income": 0, "revenue": 0}]}