{"ESTHER": [{"ein": "010635330", "name": "HOUSE OF ESTHER DIVINE MINISTRIES INC", "city": "QUEENS VILLAGE", "state": "NY", "zip": "11429-0000", "ntee": "X21", "ruling": "200407", "deductibility": "1", "assets": 0, "income": 0, "revenue": 0}, {"ein": "061611089", "name": "CHASDEI MOSHE V ELIEZER V ESTHER", "city": "BROOKLYN", "state": "NY", "zip": "11211-8139", "ntee": "X21", "ruling": "200205", "deductibility": "1", "assets": 0, "income": 0, "revenue": 0}, {"ein": "112633106", "name": "GMACH YITZCHOK BORUCH & ESTHER INC", "city": "BROOKLYN", "state": "NY", "zip": "11211-6702", "ntee": "", "ruling": "198305", "deductibility": "1", "assets": 0, "income": 0, "revenue": 0}, {"ein": "112690412", "name": "ESTHER AND LOUIS WERTENTEIL FOUNDATION", "city": "BROOKLYN", "state": "NY", "zip": "11204-0000", "ntee": "", "ruling": "198508", "deductibility": "1", "assets": 42647, "income": 309, "revenue": 0}, {"ein": "112972395", "name": "KEREN ESTHER MALKA INC", "city": "SUFFERN", "state": "NY", "zip": "10901-2603", "ntee": "", "ruling": "198909", "deductibility": "1", "assets": 0, "income": 0, "revenue": 0}, {"ein": "113188332", "name": "ABRAHAM AND ESTHER HERSH FOUNDATION INC", "city": "NEW YORK", "state": "NY", "zip": "10176-2600", "ntee": "", "ruling": "199409", "deductibility": "1", "assets": 4065196, "income": 1098608, "revenue": 0}, {"ein": "113277725", "name": "BNOS ESTHER PAPA AL SHEM ESTHER BAS DOVED INC", "city": "BROOKLYN", "state": "NY", "zip": "11211-0166", "ntee": "X30Z", "ruling": "199509", "deductibility": "1", "assets": 0, "income": 0, "revenue": 0}, {"ein": "113409892", "name": "BAIS CHAYA ESTHER", "city": "BROOKLYN", "state": "NY", "zip": "11229-2803", "ntee": "X30Z", "ruling": "199804", "deductibility": "1", "assets": 0, "income": 0, "revenue": 0}, {"ein": "113459020", "name": "AARON & ESTHER FOGEL FOUNDATION INC", "city": "BROOKLYN", "state": "NY", "zip": "11207-7609", "ntee": "T20", "ruling": "199901", "deductibility": "1", "assets": 2475588, "income": 813371, "revenue": 0}, {"ein": "113459055", "name": "ZICHRON SHALOM ESTHER", "city": "BROOKLYN", "state": "NY", "zip": "11223-2328", "ntee": "X30Z", "ruling": "199812", "deductibility": "1", "assets": 0, "income": 0, "revenue": 0}, {"ein": "113525125", "name": "HAICHAL ESTHER", "city": "BROOKLYN", "state": "NY", "zip": "11206-5442", "ntee": "X30", "ruling": "200003", "deductibility": "1", "assets": 0, "income": 0, "revenue": 0}, {"ein": "116519669", "name": "DAVID AND ESTHER GOLDSTEIN CHARITABLE FNDTN TR UA 05181999", "city": "BROOKLYN", "state": "NY", "zip": "11204-1416", "ntee": "T22", "ruling": "200004", "deductibility": "1", "assets": 1791987, "income": 625519, "revenue": 0}, {"ein": "132721090", "name": "BETH JACOB PAROCHIAL SCHOOL OF EAST SIDE AND ESTHER SCHOENFELD HS INC", "city": "NEW YORK", "state": "NY", "zip": "10002-4002", "ntee": "", "ruling": "195005", "deductibility": "1", "assets": 0, "income": 0, "revenue": 0}, {"ein": "132853957", "name": "ADOLPH & ESTHER GOTTLIEB FOUNDATION", "city": "NEW YORK", "state": "NY", "zip": "10012-5115", "ntee": "", "ruling": "197606", "deductibility": "1", "assets": 32346187, "income": 7935376, "revenue": 0}, {"ein": "133797585", "name": "V ESTHER & ROBERT BORN FOUNDATION INC", "city": "NEW YORK", "state": "NY", "zip": "10022-1642", "ntee": "", "ruling": "199502", "deductibility": "1", "assets": 1446320, "income": 1224447, "revenue": 0}, {"ein": "133963408", "name": "ATERES ESTHER INC", "city": "MONSEY", "state": "NY", "zip": "10952-1801", "ntee": "X99", "ruling": "199710", "deductibility": "1", "assets": 17268, "income": 26035, "revenue": 26035}, {"ein": "136028788", "name": "THE ESTHER A AND JOSEPH KLINGENSTEIN FUND INC", "city": "NEW YORK", "state": "NY", "zip": "10011-7159", "ntee": "", "ruling": "194611", "deductibility": "1", "assets": 123254867, "income": 9499667, "revenue": 0}, {"ein": "136086849", "name": "ESTHER & MORTON WOHLGEMUTH", "city": "BROOKLYN", "state": "NY", "zip": "11215-0000", "ntee": "", "ruling": "196102", "deductibility": "1", "assets": 2427275, "income": 882087, "revenue": 0}, {"ein": "136161966", "name": "ALBERT N & ESTHER B CORY FOUNDATION INC", "city": "NEW YORK", "state": "NY", "zip": "10024-7144", "ntee": "", "ruling": "195703", "deductibility": "1", "assets": 493157, "income": 215547, "revenue": 0}, {"ein": "137193520", "name": "ESTHER KOVEN FOUNDATION INC", "city": "NEW YORK", "state": "NY", "zip": "10014-0000", "ntee": "B122", "ruling": "200004", "deductibility": "1", "assets": 1898260, "income": 1340504, "revenue": 0}, {"ein": "166043564", "name": "THOMAS M & ESTHER C FLANAGAN CHARITABLE FOUNDATION", "city": "NORWICH", "state": "NY", "zip": "13815-0000", "ntee": "", "ruling": "196007", "deductibility": "1", "assets": 2078309, "income": 167173, "revenue": 0}, {"ein": "200103549", "name": "CHASDEI ESTHER", "city": "BROOKLYN", "state": "NY", "zip": "11211-6203", "ntee": "X30", "ruling": "200310", "deductibility": "1", "assets": 0, "income": 0, "revenue": 0}, {"ein": "203265317", "name": "ESTHER GITLOW TOWERS II HOUSING DEVELOPMENT FUND CORP", "city": "SUFFERN", "state": "NY", "zip": "10901-4725", "ntee": "L21", "ruling": "200511", "deductibility": "1", "assets": 9717096, "income": 768974, "revenue": 768974}, {"ein": "204853390", "name": "KEREN ESTHER MALKA FOUNDATION", "city": "BROOKLYN", "state": "NY", "zip": "11204-0000", "ntee": "T20", "ruling": "200801", "deductibility": "1", "assets": 575601, "income": 28528, "revenue": 0}, {"ein": "205007495", "name": "ZICHRON ESTHER MALKA INC", "city": "POMONA", "state": "NY", "zip": "10970-2829", "ntee": "X30", "ruling": "200706", "deductibility": "1", "assets": 0, "income": 0, "revenue": 0}, {"ein": "205793010", "name": "THE LESTER AND ESTHER KLAUS FAMILY FOUNDATION", "city": "CEDARHURST", "state": "NY", "zip": "11516-2247", "ntee": "T22", "ruling": "200702", "deductibility": "1", "assets": 599549, "income": 386244, "revenue": 0}, {"ein": "208102420", "name": "MIRIAM & ESTHER FOUNDATION", "city": "BROOKLYN", "state": "NY", "zip": "11219-5028", "ntee": "T20", "ruling": "200809", "deductibility": "1", "assets": 1476504, "income": 116038, "revenue": 0}, {"ein": "223216484", "name": "MORRIS AND ESTHER ADES FOUNDATION INC", "city": "NEW YORK", "state": "NY", "zip": "10123-0701", "ntee": "", "ruling": "199311", "deductibility": "1", "assets": 43260, "income": 82723, "revenue": 0}, {"ein": "236767018", "name": "LILLIAN ESTHER LOUCKS TA THE YORK BANK & TRUST CO", "city": "BUFFALO", "state": "NY", "zip": "14240-1504", "ntee": "T22", "ruling": "200210", "deductibility": "1", "assets": 569768, "income": 188403, "revenue": 0}, {"ein": "237355741", "name": "ESTHER BEN-DAVID MEMORIAL FUND", "city": "SPRING VALLEY", "state": "NY", "zip": "10977-1741", "ntee": "T30", "ruling": "197408", "deductibility": "1", "assets": 0, "income": 0, "revenue": 0}, {"ein": "237752348", "name": "ESTHER B HERMAN TUW 122393 FBO CHARITIES", "city": "BUFFALO", "state": "NY", "zip": "14240-1504", "ntee": "T20", "ruling": "200207", "deductibility": "1", "assets": 284727, "income": 100287, "revenue": 0}, {"ein": "256379976", "name": "ESTHER R MENTZER TR UA FBO", "city": "BUFFALO", "state": "NY", "zip": "14240-1504", "ntee": "", "ruling": "199303", "deductibility": "1", "assets": 230024, "income": 66579, "revenue": 0}, {"ein": "256787119", "name": "ESTHER T YEAGLEY T W SPCA 78198", "city": "AMHERST", "state": "NY", "zip": "14228-2307", "ntee": "T20", "ruling": "200210", "deductibility": "1", "assets": 465020, "income": 119334, "revenue": 0}, {"ein": "271463112", "name": "ESTHER COMMUNITY OUTREACH CENTER INC", "city": "BROOKLYN", "state": "NY", "zip": "11236-4230", "ntee": "P40", "ruling": "202009", "deductibility": "1", "assets": 1, "income": 500, "revenue": 500}, {"ein": "300951775", "name": "FRIENDS OF@HAPPILY EVER ESTHER FARM SANCTUARY", "city": "YOUNGSTOWN", "state": "NY", "zip": "14174-9603", "ntee": "T30", "ruling": "201703", "deductibility": "1", "assets": 39567, "income": 344744, "revenue": 69953}, {"ein": "320044060", "name": "THE@VICTOR AND ESTHER ROZEN FOUNDATION INC", "city": "JOHNSON CITY", "state": "NY", "zip": "13790-0000", "ntee": "T22", "ruling": "200401", "deductibility": "1", "assets": 1297743, "income": 212548, "revenue": 0}, {"ein": "431972447", "name": "KEREN ESTHER FOUNDATION", "city": "SPRING VALLEY", "state": "NY", "zip": "10977-1012", "ntee": "B82", "ruling": "200410", "deductibility": "1", "assets": 178322, "income": 465547, "revenue": 465547}, {"ein": "464730200", "name": "ESTHER HA FOUNDATION INC", "city": "BAYSIDE", "state": "NY", "zip": "11361-3577", "ntee": "F40", "ruling": "201502", "deductibility": "1", "assets": 226881, "income": 414802, "revenue": 414802}, {"ein": "472336250", "name": "ARI AND ESTHER MUNK FAMILYFOUNDATION", "city": "LAWRENCE", "state": "NY", "zip": "11559-1519", "ntee": "T22", "ruling": "201503", "deductibility": "1", "assets": 2184, "income": 129000, "revenue": 0}, {"ein": "510243931", "name": "SAM & ESTHER MINSKOFF CULTURAL CENTER PARK EAST DAY SCHOOL INC", "city": "NEW YORK", "state": "NY", "zip": "10065-5956", "ntee": "", "ruling": "197312", "deductibility": "1", "assets": 9273299, "income": 6759502, "revenue": 6720202}, {"ein": "510477063", "name": "GMACH HINDA ESTHER BAS REB AKIVA", "city": "BROOKLYN", "state": "NY", "zip": "11230-1112", "ntee": "X30", "ruling": "200911", "deductibility": "1", "assets": 0, "income": 0, "revenue": 0}, {"ein": "810916779", "name": "SHLOMIE & ESTHER HOFFMAN FOUNDATION INC", "city": "BROOKLYN", "state": "NY", "zip": "11219-5198", "ntee": "T20", "ruling": "201706", "deductibility": "1", "assets": 1, "income": 1, "revenue": 0}, {"ein": "814644443", "name": "ESTHER FEIGENBAUM FAMILY FOUNDATION", "city": "CUTCHOGUE", "state": "NY", "zip": "11935-1032", "ntee": "G80", "ruling": "201903", "deductibility": "1", "assets": 418093, "income": 30385, "revenue": 0}, {"ein": "822042167", "name": "ESTHER - EMPOWERING SISTERS TO HAVE ENRICHING RELATIONSHIPS - PROJECT", "city": "AMHERST", "state": "NY", "zip": "14226-4169", "ntee": "P80", "ruling": "201801", "deductibility": "1", "assets": 0, "income": 0, "revenue": 0}, {"ein": "833192915", "name": "AMERICAN FRIENDS OF KOLLEL ZICHRON ESTHER INC", "city": "CHESTNUT RDG", "state": "NY", "zip": "10977-6404", "ntee": "T30", "ruling": "202310", "deductibility": "1", "assets": 0, "income": 0, "revenue": 0}, {"ein": "836154611", "name": "ESTHER W SPAULDING CHARITABLE TR", "city": "BUFFALO", "state": "NY", "zip": "14203-0000", "ntee": "T20", "ruling": "201902", "deductibility": "1", "assets": 3556917, "income": 815883, "revenue": 0}, {"ein": "861741329", "name": "ESTHER PROJECT INC", "city": "ROCHESTER", "state": "NY", "zip": "14624-2401", "ntee": "P20", "ruling": "202104", "deductibility": "1", "assets": 0, "income": 0, "revenue": 0}, {"ein": "874133642", "name": "ZICHRON ESTHER CHAYA INC", "city": "BROOKLYN", "state": "NY", "zip": "11204-1607", "ntee": "X30", "ruling": "202204", "deductibility": "1", "assets": 458912, "income": 384000, "revenue": 0}, {"ein": "884096652", "name": "CONGREGATION OHEL ESTHER", "city": "BROOKLYN", "state": "NY", "zip": "11205-3494", "ntee": "X30", "ruling": "202304", "deductibility": "1", "assets": 0, "income": 0, "revenue": 0}, {"ein": "921060483", "name": "LIBA ESTHER CHARITABLE FOUNDATION", "city": "BROOKLYN", "state": "NY", "zip": "11230-6402", "ntee": "T20", "ruling": "202212", "deductibility": "1", "assets": 1094540, "income": 286354, "revenue": 0}, {"ein": "921102229", "name": "HERSCHEL AND ESTHER WAXMAN CHARITY TRUST", "city": "BROOKLYN", "state": "NY", "zip": "11230-6402", "ntee": "T12", "ruling": "202309", "deductibility": "1", "assets": 3000500, "income": 3000000, "revenue": 3000000}, {"ein": "922673017", "name": "CONGREGATION ZICHRON DEVORAH ESTHER", "city": "CEDARHURST", "state": "NY", "zip": "11516-1638", "ntee": "X30", "ruling": "202410", "deductibility": "1", "assets": 0, "income": 0, "revenue": 0}, {"ein": "924022251", "name": "ESTHER C FOUNDATION LTD", "city": "BUFFALO", "state": "NY", "zip": "14208-1451", "ntee": "Q22", "ruling": "202309", "deductibility": "1", "assets": 0, "income": 0, "revenue": 0}, {"ein": "990746221", "name": "JOHN & ESTHER EARLE FOUNDATION INC", "city": "KEUKA PARK", "state": "NY", "zip": "14478-0067", "ntee": "K31", "ruling": "202402", "deductibility": "1", "assets": 3305, "income": 13676, "revenue": 0}, {"ein": "993923227", "name": "ZECHER ESTHER MALKA INC", "city": "SUFFERN", "state": "NY", "zip": "10901-2603", "ntee": "X30", "ruling": "202502", "deductibility": "1", "assets": 0, "income": 0, "revenue": 0}], "RETIREES": [{"ein": "010677804", "name": "RETIREES OF DREISER LOOP INC", "city": "BRONX", "state": "NY", "zip": "10475-2705", "ntee": "T990", "ruling": "200809", "deductibility": "1", "assets": 7333, "income": 131702, "revenue": 131702}, {"ein": "112628783", "name": "QUEENS COLLEGE RETIREES ASSOCIATION", "city": "FLUSHING", "state": "NY", "zip": "11367-1575", "ntee": "B99", "ruling": "201403", "deductibility": "1", "assets": 0, "income": 0, "revenue": 0}, {"ein": "113311185", "name": "ASSOCIATION OF BELLTEL RETIREES INC", "city": "COLD SPRING HARBOR", "state": "NY", "zip": "11724-1418", "ntee": "B20Z", "ruling": "199705", "deductibility": "1", "assets": 310687, "income": 495011, "revenue": 495011}, {"ein": "132854090", "name": "LOCAL 444 SANITATION OFFICERS RETIREES WELFARE FUND", "city": "OZONE PARK", "state": "NY", "zip": "11417-2520", "ntee": "", "ruling": "197603", "deductibility": "2", "assets": 10253793, "income": 9262379, "revenue": 2227232}, {"ein": "132864287", "name": "NEW YORK CITY LOCAL 246 S E I U RETIREES WELFARE BENEFITS FUND", "city": "NEW YORK", "state": "NY", "zip": "10007-2929", "ntee": "", "ruling": "199603", "deductibility": "2", "assets": 6172596, "income": 23406950, "revenue": 2624876}, {"ein": "132937758", "name": "WESTCHESTER CON EDISON RETIREES INC", "city": "RYE", "state": "NY", "zip": "10580-1432", "ntee": "", "ruling": "198308", "deductibility": "2", "assets": 0, "income": 0, "revenue": 0}, {"ein": "132995132", "name": "NEW YORK POLICE & FIRE RETIREES ASSOCIATION INC", "city": "MAHOPAC", "state": "NY", "zip": "10541-1722", "ntee": "", "ruling": "198410", "deductibility": "2", "assets": 22183, "income": 55177, "revenue": 49023}, {"ein": "133000532", "name": "DETECTIVES ENDOWMENT ASSOCIATION RETIREES HEALTH BENEFITS FUND", "city": "NEW YORK", "state": "NY", "zip": "10007-1107", "ntee": "", "ruling": "198001", "deductibility": "2", "assets": 6688101, "income": 30987256, "revenue": 30987256}, {"ein": "133293068", "name": "THE RETIREES ASSOCIATION OF DISTRICT COUNCIL 37 CHAPTER 37", "city": "NEW YORK", "state": "NY", "zip": "10038-4870", "ntee": "", "ruling": "202502", "deductibility": "2", "assets": 2258092, "income": 956885, "revenue": 956885}, {"ein": "133324980", "name": "DOCTORS COUNCIL RETIREES WELFARE FUND", "city": "NEW YORK", "state": "NY", "zip": "10004-1607", "ntee": "", "ruling": "198704", "deductibility": "2", "assets": 2053144, "income": 2052578, "revenue": 1197105}, {"ein": "161413895", "name": "ASSOCIATION OF ROCHESTER POLICE & AREA LAW ENFORCEMENT RETIREES INC", "city": "ROCHESTER", "state": "NY", "zip": "14606-3133", "ntee": "B82", "ruling": "200210", "deductibility": "1", "assets": 224853, "income": 80389, "revenue": 80389}, {"ein": "204093788", "name": "SUFFOLK COUNTY COURT EMPLOYEE RETIREES ASSOCIATION INC", "city": "BELLPORT", "state": "NY", "zip": "11713-1102", "ntee": "J40", "ruling": "200901", "deductibility": "2", "assets": 0, "income": 0, "revenue": 0}, {"ein": "262063801", "name": "NYC DEPARTMENT OF SANITATION RETIREES INC", "city": "STATEN ISLAND", "state": "NY", "zip": "10312-0139", "ntee": "N50", "ruling": "200809", "deductibility": "2", "assets": 5361, "income": 7610, "revenue": 7610}, {"ein": "320341684", "name": "WESTCHESTER CORRECTION RETIREES ASSOCIATION CORP", "city": "HOPEWELL JCT", "state": "NY", "zip": "12533-5925", "ntee": "Y99", "ruling": "201407", "deductibility": "2", "assets": 0, "income": 0, "revenue": 0}, {"ein": "455566482", "name": "FDNY RETIREES STATEN ISLAND", "city": "STATEN ISLAND", "state": "NY", "zip": "10308-1919", "ntee": "N50", "ruling": "201404", "deductibility": "2", "assets": 106992, "income": 54915, "revenue": 54915}, {"ein": "462115495", "name": "ERIE COUNTY HOSPITAL RETIREES ASSOCIATION", "city": "WEST SENECA", "state": "NY", "zip": "14224-1224", "ntee": "S40", "ruling": "201412", "deductibility": "2", "assets": 0, "income": 0, "revenue": 0}, {"ein": "475380200", "name": "SHERIFFS OFFICE ASSOCIATION OF RETIREES INC", "city": "HENRIETTA", "state": "NY", "zip": "14467-9772", "ntee": "N50", "ruling": "201702", "deductibility": "2", "assets": 0, "income": 0, "revenue": 0}, {"ein": "475600662", "name": "PLATTSBURGH CITY RETIREES ASSOCIATION", "city": "PLATTSBURGH", "state": "NY", "zip": "12901-5471", "ntee": "W01", "ruling": "201702", "deductibility": "2", "assets": 0, "income": 0, "revenue": 0}, {"ein": "510146783", "name": "NEW YORK CITY RETIREES HEALTH & WELFARE FUND", "city": "LYNBROOK", "state": "NY", "zip": "11563-0000", "ntee": "", "ruling": "198401", "deductibility": "2", "assets": 44089309, "income": 47920824, "revenue": 11635698}, {"ein": "510161856", "name": "UNIFORMED SANITATIONMENS ASSOCIATION RETIREES WELFARE FUND", "city": "NEW YORK", "state": "NY", "zip": "10038-2820", "ntee": "", "ruling": "197509", "deductibility": "2", "assets": 40698556, "income": 37086124, "revenue": 12895897}, {"ein": "510183172", "name": "CORRECTION OFFICERS BENEVOLENT ASSC SECURITY BENEFITS FUND-RETIREES", "city": "EAST ELMHURST", "state": "NY", "zip": "11370-1219", "ntee": "", "ruling": "197603", "deductibility": "2", "assets": 11718604, "income": 20119347, "revenue": 20119347}, {"ein": "510195150", "name": "CORRECTION CAPTAINS ASSOCIATION SECURITY BENEFITS FUND-RETIREES", "city": "FLUSHING", "state": "NY", "zip": "11354-1995", "ntee": "", "ruling": "197607", "deductibility": "2", "assets": 5964885, "income": 6220223, "revenue": 3549438}, {"ein": "510195188", "name": "NEW YORK CITY DEPUTY SHERIFFS ASSOCIATION BENEFITS FUND-RETIREES", "city": "BRONX", "state": "NY", "zip": "10465-1717", "ntee": "", "ruling": "197607", "deductibility": "2", "assets": 323584, "income": 149039, "revenue": 149039}, {"ein": "800371746", "name": "UBC RETIREES CLUB NO 114", "city": "NEW WINDSOR", "state": "NY", "zip": "12553-8855", "ntee": "Y99", "ruling": "201408", "deductibility": "2", "assets": 0, "income": 0, "revenue": 0}, {"ein": "812501276", "name": "NEW YORK DISTRICT COUNCIL RETIREES CARPENTER GUILD FUND INC", "city": "BROOKLYN", "state": "NY", "zip": "11228-3328", "ntee": "T50", "ruling": "201606", "deductibility": "1", "assets": 0, "income": 0, "revenue": 0}, {"ein": "900421851", "name": "NIMO RETIREES PENSION CLUB", "city": "SYRACUSE", "state": "NY", "zip": "13219-2832", "ntee": "N50", "ruling": "201507", "deductibility": "2", "assets": 0, "income": 0, "revenue": 0}, {"ein": "911959926", "name": "NEW YORK LAW ENFORCEMENT CHAPTER 82 RETIREES", "city": "SCHENECTADY", "state": "NY", "zip": "12306-7008", "ntee": "", "ruling": "195708", "deductibility": "2", "assets": 44885, "income": 185321, "revenue": 185321}], "ATROPHY": [{"ein": "010759380", "name": "SPINAL MUSCULAR ATROPHY FOUNDATION", "city": "NEW YORK", "state": "NY", "zip": "10106-0401", "ntee": "B99", "ruling": "200305", "deductibility": "1", "assets": 33691989, "income": 12507750, "revenue": 0}, {"ein": "320284955", "name": "SPINAL MUSCULAR ATROPHY RESEARCH TEAM", "city": "LACKAWANNA", "state": "NY", "zip": "14218-1718", "ntee": "H125", "ruling": "201006", "deductibility": "1", "assets": 19403, "income": 103635, "revenue": 103635}], "ELIM": [{"ein": "010772852", "name": "ELIM COMMUNITY CORPORATION", "city": "BUFFALO", "state": "NY", "zip": "14214-0000", "ntee": "P28", "ruling": "200307", "deductibility": "1", "assets": 0, "income": 0, "revenue": 0}, {"ein": "030475669", "name": "ELIM CHRISTIAN FELLOWSHIP OF ROCHESTER NEW YORK INC", "city": "BUFFALO", "state": "NY", "zip": "14215-6498", "ntee": "X20", "ruling": "200308", "deductibility": "1", "assets": 0, "income": 0, "revenue": 0}, {"ein": "112543510", "name": "ELIM FULL GOSPEL ASSEMBLY", "city": "GLEN COVE", "state": "NY", "zip": "11542-2106", "ntee": "", "ruling": "198103", "deductibility": "1", "assets": 0, "income": 0, "revenue": 0}, {"ein": "112614331", "name": "ELIM GOSPEL TABERNACLE", "city": "BROOKLYN", "state": "NY", "zip": "11238-2614", "ntee": "", "ruling": "198210", "deductibility": "1", "assets": 0, "income": 0, "revenue": 0}, {"ein": "113050650", "name": "PENTECOSTAL CHURCH ELIM ASSEMBLIES OF GOD", "city": "RIDGEWOOD", "state": "NY", "zip": "11385-5455", "ntee": "X21", "ruling": "196408", "deductibility": "1", "assets": 0, "income": 0, "revenue": 0}, {"ein": "113121224", "name": "ELIM FULL GOSPEL CHURCH OF N Y", "city": "FLUSHING", "state": "NY", "zip": "11354-4400", "ntee": "", "ruling": "199301", "deductibility": "1", "assets": 0, "income": 0, "revenue": 0}, {"ein": "113124471", "name": "THE ELIM PRESBYTERIAN CHURCH OF NEW YORK INC", "city": "BAYSIDE", "state": "NY", "zip": "11361-0000", "ntee": "", "ruling": "199307", "deductibility": "1", "assets": 0, "income": 0, "revenue": 0}, {"ein": "113129726", "name": "THE ELIM KOREAN METHODIST CHURCH OF NEW YORK INC", "city": "WESTBURY", "state": "NY", "zip": "11590-1309", "ntee": "", "ruling": "199302", "deductibility": "1", "assets": 0, "income": 0, "revenue": 0}, {"ein": "113304468", "name": "ELIM HOUSE OF PRAYER AND WORSHIP INC", "city": "BROOKLYN", "state": "NY", "zip": "11219-2413", "ntee": "X21I", "ruling": "199801", "deductibility": "1", "assets": 0, "income": 0, "revenue": 0}, {"ein": "113370275", "name": "ELIM FELLOWSHIP INTERNATIONAL INC", "city": "QUEENS VLG", "state": "NY", "zip": "11429-1101", "ntee": "X21", "ruling": "199904", "deductibility": "1", "assets": 0, "income": 0, "revenue": 0}, {"ein": "113504247", "name": "IGLESIA DE CRISTO PENIEL MINISTERIO ELIM", "city": "JAMAICA", "state": "NY", "zip": "11435-4301", "ntee": "X21", "ruling": "200010", "deductibility": "1", "assets": 0, "income": 0, "revenue": 0}, {"ein": "113512267", "name": "IGLESIA CONSILIO DE RESTAURACION EVANGELICO ELIM", "city": "UNIONDALE", "state": "NY", "zip": "11553-2929", "ntee": "X21", "ruling": "200509", "deductibility": "1", "assets": 0, "income": 0, "revenue": 0}, {"ein": "133254764", "name": "ELIM CHRISTIAN ASSEMBLY", "city": "STATEN ISLAND", "state": "NY", "zip": "10314-2954", "ntee": "", "ruling": "196506", "deductibility": "1", "assets": 0, "income": 0, "revenue": 0}, {"ein": "133265252", "name": "ELIM TABERNACLE CORPORATION", "city": "BAYSIDE", "state": "NY", "zip": "11361-1731", "ntee": "", "ruling": "198607", "deductibility": "1", "assets": 0, "income": 0, "revenue": 0}, {"ein": "133759741", "name": "IGLESIA DE RESTAURACION ELIM INC", "city": "YONKERS", "state": "NY", "zip": "10703-0997", "ntee": "X20", "ruling": "200604", "deductibility": "1", "assets": 0, "income": 0, "revenue": 0}, {"ein": "160965115", "name": "ELIM BIBLE INSTITUTE INC", "city": "LIMA", "state": "NY", "zip": "14485-9704", "ntee": "", "ruling": "196003", "deductibility": "1", "assets": 0, "income": 0, "revenue": 0}, {"ein": "161366057", "name": "ELIM LIFE CHURCH", "city": "LIMA", "state": "NY", "zip": "14485-9589", "ntee": "", "ruling": "199203", "deductibility": "1", "assets": 0, "income": 0, "revenue": 0}, {"ein": "166042260", "name": "ELIM FELLOWSHIP INC", "city": "LIMA", "state": "NY", "zip": "14485-9516", "ntee": "", "ruling": "195909", "deductibility": "1", "assets": 0, "income": 0, "revenue": 0}, {"ein": "222143009", "name": "ELIM TABERNACLE", "city": "ENDWELL", "state": "NY", "zip": "13760-5753", "ntee": "", "ruling": "197703", "deductibility": "1", "assets": 0, "income": 0, "revenue": 0}, {"ein": "222238088", "name": "ELIM GRACE CHRISTIAN CHURCH", "city": "OSWEGO", "state": "NY", "zip": "13126-0337", "ntee": "", "ruling": "197903", "deductibility": "1", "assets": 0, "income": 0, "revenue": 0}, {"ein": "223680868", "name": "ELIM CHRISTIAN FELLOWSHIP INC", "city": "BUFFALO", "state": "NY", "zip": "14215-0145", "ntee": "X21", "ruling": "199912", "deductibility": "1", "assets": 0, "income": 0, "revenue": 0}, {"ein": "352554652", "name": "ELIM INTERNATIONAL WORSHIP CENTER CONGREGATION EMMANUEL", "city": "BROOKLYN", "state": "NY", "zip": "11207-4705", "ntee": "X20", "ruling": "201711", "deductibility": "1", "assets": 0, "income": 0, "revenue": 0}, {"ein": "461803794", "name": "ELIM CENTER INTERNATIONAL", "city": "KIRKWOOD", "state": "NY", "zip": "13795-1508", "ntee": "X20", "ruling": "201410", "deductibility": "1", "assets": 0, "income": 0, "revenue": 0}, {"ein": "462338120", "name": "ELIM BIBLE INSTITUTE AND COLLEGE", "city": "LIMA", "state": "NY", "zip": "14485-9704", "ntee": "B43", "ruling": "201407", "deductibility": "1", "assets": 0, "income": 0, "revenue": 0}, {"ein": "462757926", "name": "ELIM SENIOR DAY INC", "city": "QUEENS VLG", "state": "NY", "zip": "11427-2150", "ntee": "P81", "ruling": "201405", "deductibility": "1", "assets": 0, "income": 0, "revenue": 0}, {"ein": "463589771", "name": "ELIM ADULT DAYCARE CENTER INC", "city": "QUEENS VLG", "state": "NY", "zip": "11427-2150", "ntee": "P81", "ruling": "201405", "deductibility": "1", "assets": 0, "income": 0, "revenue": 0}, {"ein": "464930636", "name": "IGLESIA EVANGELICA ELIM INC", "city": "HEMPSTEAD", "state": "NY", "zip": "11550-4807", "ntee": "X20", "ruling": "201909", "deductibility": "1", "assets": 0, "income": 0, "revenue": 0}, {"ein": "510170348", "name": "ELIM TABERNACLE CHURCH OF CHRISTIAN AND MISSIONARY ALLIANCE INC", "city": "VLY COTTAGE", "state": "NY", "zip": "10989-2360", "ntee": "", "ruling": "000000", "deductibility": "1", "assets": 0, "income": 0, "revenue": 0}, {"ein": "510554433", "name": "ELIM HOUSE OF WORSHIP ELIM CASA DE ADORACION INC", "city": "NEW YORK", "state": "NY", "zip": "10009-3601", "ntee": "X20", "ruling": "201904", "deductibility": "1", "assets": 0, "income": 0, "revenue": 0}, {"ein": "800074150", "name": "ELIM RESTORATION CHURCH OF GOD", "city": "BROOKLYN", "state": "NY", "zip": "11203-3602", "ntee": "X20", "ruling": "200405", "deductibility": "1", "assets": 0, "income": 0, "revenue": 0}, {"ein": "814412546", "name": "ELIM HEALING WATERS MINISTRIES INC", "city": "HEMPSTEAD", "state": "NY", "zip": "11550-1206", "ntee": "X20", "ruling": "201704", "deductibility": "1", "assets": 0, "income": 0, "revenue": 0}, {"ein": "822161815", "name": "MISION CRISTIANA ELIM INTERNACIONAL SUFFOLK NY INC", "city": "FREEPORT", "state": "NY", "zip": "11520-1218", "ntee": "X21", "ruling": "201802", "deductibility": "1", "assets": 0, "income": 0, "revenue": 0}, {"ein": "852295398", "name": "IGLESIA RESTAURACION ELIM LONG ISLAND", "city": "BRENTWOOD", "state": "NY", "zip": "11717-0000", "ntee": "X20", "ruling": "202009", "deductibility": "1", "assets": 0, "income": 0, "revenue": 0}, {"ein": "861158954", "name": "ELIM", "city": "NEW ROCHELLE", "state": "NY", "zip": "10805-1405", "ntee": "", "ruling": "197211", "deductibility": "1", "assets": 0, "income": 0, "revenue": 0}, {"ein": "900403526", "name": "LI ELIM CHINESE BAPTIST CHURCH", "city": "ST JAMES", "state": "NY", "zip": "11780-3100", "ntee": "X21", "ruling": "201103", "deductibility": "1", "assets": 0, "income": 0, "revenue": 0}, {"ein": "933527598", "name": "ELIM PENTECOSTAL FELLOWSHIP INC", "city": "STATEN ISLAND", "state": "NY", "zip": "10312-1359", "ntee": "X20", "ruling": "202310", "deductibility": "1", "assets": 0, "income": 0, "revenue": 0}, {"ein": "993990349", "name": "MISION CRISTIANA ELIM NEW YORK INC", "city": "WEST NYACK", "state": "NY", "zip": "10994-1500", "ntee": "X20", "ruling": "202505", "deductibility": "1", "assets": 0, "income": 0, "revenue": 0}], "MINDS": [{"ein": "020720786", "name": "CREATIVE MINDS NYC INC", "city": "NEW YORK", "state": "NY", "zip": "10001-2205", "ntee": "A65", "ruling": "200604", "deductibility": "1", "assets": 713687, "income": 994687, "revenue": 994687}, {"ein": "133688434", "name": "MINDS MATTER NATIONAL INC", "city": "NEW YORK", "state": "NY", "zip": "10036-6700", "ntee": "O50", "ruling": "200411", "deductibility": "1", "assets": 2028589, "income": 906147, "revenue": 906147}, {"ein": "260549207", "name": "FRIENDS OF BRIGHT MINDS COMMUNITYPREP INC", "city": "BROOKLYN", "state": "NY", "zip": "11247-2332", "ntee": "P40", "ruling": "201501", "deductibility": "1", "assets": 0, "income": 0, "revenue": 0}, {"ein": "270659568", "name": "INSPIRING YOUNG MINDS INC", "city": "BROOKLYN", "state": "NY", "zip": "11236-5023", "ntee": "B90", "ruling": "201008", "deductibility": "1", "assets": 37546, "income": 180276, "revenue": 180276}, {"ein": "273733512", "name": "ARTS & MINDS INC", "city": "NEW YORK", "state": "NY", "zip": "10025-1531", "ntee": "G018", "ruling": "201105", "deductibility": "1", "assets": 208573, "income": 336227, "revenue": 336227}, {"ein": "320191502", "name": "MINDS MATTER", "city": "NEW YORK", "state": "NY", "zip": "10036-6700", "ntee": "O50", "ruling": "200411", "deductibility": "1", "assets": 2913164, "income": 2417492, "revenue": 2278412}, {"ein": "331275417", "name": "BRIGHT MINDS OF THE FUTURE", "city": "NEW YORK", "state": "NY", "zip": "10029-0334", "ntee": "R99", "ruling": "202410", "deductibility": "1", "assets": 0, "income": 0, "revenue": 0}, {"ein": "332752737", "name": "YOUNG MINDS MATTER", "city": "NEW YORK", "state": "NY", "zip": "10128-7771", "ntee": "B80", "ruling": "202505", "deductibility": "1", "assets": 0, "income": 0, "revenue": 0}, {"ein": "352646735", "name": "INSPIRING MINDS OF NEW YORK CITY INC", "city": "BROOKLYN", "state": "NY", "zip": "11216-1303", "ntee": "O50", "ruling": "202002", "deductibility": "1", "assets": 1364185, "income": 1762861, "revenue": 1762861}, {"ein": "364659286", "name": "BUILDING MINDS IN SUDAN INC", "city": "ROCHESTER", "state": "NY", "zip": "14618-4339", "ntee": "Q33", "ruling": "201004", "deductibility": "1", "assets": 63966, "income": 208827, "revenue": 204070}, {"ein": "461626044", "name": "CREATIVE MINDS MONTESSORI", "city": "AUBURN", "state": "NY", "zip": "13021-3534", "ntee": "B20", "ruling": "201607", "deductibility": "1", "assets": 62903, "income": 102535, "revenue": 102535}, {"ein": "474285870", "name": "MINDS OVER MATTER FOUNDATION", "city": "BROOKLYN", "state": "NY", "zip": "11238-3807", "ntee": "E19", "ruling": "201602", "deductibility": "1", "assets": 0, "income": 0, "revenue": 0}, {"ein": "811154478", "name": "YOUNG MINDS FOR GENDER EQUALITY FOUNDATION", "city": "NEW YORK", "state": "NY", "zip": "10003-4283", "ntee": "O50", "ruling": "201605", "deductibility": "1", "assets": 0, "income": 0, "revenue": 0}, {"ein": "811433460", "name": "MACRO MINDS FOUNDATION LLC", "city": "RYE", "state": "NY", "zip": "10580-0000", "ntee": "T30", "ruling": "201906", "deductibility": "1", "assets": 293606, "income": 311994, "revenue": 0}, {"ein": "815427057", "name": "EMPOWERING YOUNG MINDS WITHIN INC", "city": "MILLER PLACE", "state": "NY", "zip": "11764-3045", "ntee": "P20", "ruling": "201707", "deductibility": "1", "assets": 0, "income": 0, "revenue": 0}, {"ein": "821048036", "name": "COLLEGIATE MINDS", "city": "CAMBRIA HTS", "state": "NY", "zip": "11411-1907", "ntee": "B80", "ruling": "201708", "deductibility": "1", "assets": 0, "income": 0, "revenue": 0}, {"ein": "821526282", "name": "SAGACIOUS MINDS", "city": "BROOKLYN", "state": "NY", "zip": "11234-4437", "ntee": "P99", "ruling": "201705", "deductibility": "1", "assets": 306806, "income": 0, "revenue": 0}, {"ein": "822323772", "name": "RESILIENT YOUNG MINDS INC", "city": "BROOKLYN", "state": "NY", "zip": "11233-4576", "ntee": "O50", "ruling": "201802", "deductibility": "1", "assets": 0, "income": 0, "revenue": 0}, {"ein": "823616589", "name": "PROJECT HEALTHY MINDS CORPORATION", "city": "NEW YORK", "state": "NY", "zip": "10116-8073", "ntee": "A20", "ruling": "201805", "deductibility": "1", "assets": 4272350, "income": 3845447, "revenue": 2612624}, {"ein": "823636328", "name": "INQUIRING MINDS INSTITUTE INC", "city": "BROOKLYN", "state": "NY", "zip": "11205-4602", "ntee": "O54", "ruling": "201801", "deductibility": "1", "assets": 16049, "income": 37856, "revenue": 37856}, {"ein": "825101192", "name": "STIMULATING MINDS THROUGH ENTREPRENEURSHIP & LEADERSHIP", "city": "SAINT ALBANS", "state": "NY", "zip": "11412-2713", "ntee": "P20", "ruling": "201804", "deductibility": "1", "assets": 61904, "income": 225571, "revenue": 225571}, {"ein": "832636413", "name": "BRIGHT MINDS ACADEMY INC", "city": "STATEN ISLAND", "state": "NY", "zip": "10304-4832", "ntee": "B90", "ruling": "202005", "deductibility": "1", "assets": 200877, "income": 1279082, "revenue": 1279082}, {"ein": "833263576", "name": "GLOBAL MINDS INSTITUTE INC", "city": "RHINEBECK", "state": "NY", "zip": "12572-1730", "ntee": "B12", "ruling": "201906", "deductibility": "1", "assets": 0, "income": 0, "revenue": 0}, {"ein": "833294984", "name": "MINDS BEYOND MEASURE INC", "city": "NEW YORK", "state": "NY", "zip": "10036-2014", "ntee": "B20", "ruling": "202104", "deductibility": "1", "assets": 0, "income": 0, "revenue": 0}, {"ein": "834097200", "name": "DIRTY MINDS THEATRE COMPANY INC", "city": "NEW YORK", "state": "NY", "zip": "10033-4650", "ntee": "A20", "ruling": "201904", "deductibility": "1", "assets": 0, "income": 0, "revenue": 0}, {"ein": "843223481", "name": "BILLION MINDS INSTITUTE INC", "city": "NEW YORK", "state": "NY", "zip": "10011-8856", "ntee": "F05", "ruling": "202011", "deductibility": "1", "assets": 86306, "income": 65495, "revenue": 65495}, {"ein": "843634079", "name": "HELPING MINDS INTERNATIONAL CHARITABLE FOUNDATION INC", "city": "NEW YORK", "state": "NY", "zip": "10036-0020", "ntee": "F01", "ruling": "202004", "deductibility": "1", "assets": 0, "income": 0, "revenue": 0}, {"ein": "844625466", "name": "HELPING MINDS FOUNDATION INC", "city": "CENTEREACH", "state": "NY", "zip": "11720-5001", "ntee": "B90", "ruling": "202008", "deductibility": "1", "assets": 0, "income": 0, "revenue": 0}, {"ein": "850748178", "name": "EVERGREEN MINDS INC", "city": "FISHKILL", "state": "NY", "zip": "12524-2518", "ntee": "", "ruling": "202006", "deductibility": "1", "assets": 0, "income": 0, "revenue": 0}, {"ein": "852538453", "name": "LITTLE MINDS BRIGHT FUTURES DYNASTY INC", "city": "BROOKLYN", "state": "NY", "zip": "11236-1456", "ntee": "E12", "ruling": "202010", "deductibility": "1", "assets": 1, "income": 0, "revenue": 0}, {"ein": "853312753", "name": "SAVING GREAT MINDS INC", "city": "JAMAICA", "state": "NY", "zip": "11435-5419", "ntee": "", "ruling": "202103", "deductibility": "1", "assets": 0, "income": 0, "revenue": 0}, {"ein": "873978876", "name": "BRILLIANT MINDS COLLECTIVE INC", "city": "NEW YORK", "state": "NY", "zip": "10024-5805", "ntee": "W05", "ruling": "202202", "deductibility": "1", "assets": 0, "income": 0, "revenue": 0}, {"ein": "881349651", "name": "PEER MINDS INC", "city": "STATEN ISLAND", "state": "NY", "zip": "10304-2902", "ntee": "F80", "ruling": "202205", "deductibility": "1", "assets": 0, "income": 0, "revenue": 0}, {"ein": "884056704", "name": "INTELLIGENT CREATIVE MINDS INC", "city": "BROOKLYN", "state": "NY", "zip": "11217-2560", "ntee": "A20", "ruling": "202505", "deductibility": "1", "assets": 0, "income": 0, "revenue": 0}, {"ein": "900515769", "name": "BUILDING YOUNG MINDS INC", "city": "NEW YORK", "state": "NY", "zip": "10030-0556", "ntee": "B80", "ruling": "202409", "deductibility": "1", "assets": 0, "income": 0, "revenue": 0}, {"ein": "920772188", "name": "UPLIFTING HANDS AND MINDS FOUNDATION CORP", "city": "ROSEDALE", "state": "NY", "zip": "11422-2838", "ntee": "P20", "ruling": "202301", "deductibility": "1", "assets": 0, "income": 0, "revenue": 0}, {"ein": "922873759", "name": "BUILDING MINDS BUILDING COMMUNITIES", "city": "BROOKLYN", "state": "NY", "zip": "11216-1611", "ntee": "S20", "ruling": "202501", "deductibility": "1", "assets": 0, "income": 0, "revenue": 0}, {"ein": "923041626", "name": "HEIGHTS AND MINDS FOUNDATION", "city": "BROOKLYN", "state": "NY", "zip": "11201-3213", "ntee": "P40", "ruling": "202312", "deductibility": "2", "assets": 66267, "income": 185245, "revenue": 185245}, {"ein": "923100456", "name": "MELILLO INSTITUTE FOR DEVELOPING MINDS INC", "city": "ROCKVILLE CTR", "state": "NY", "zip": "11570-1908", "ntee": "H84", "ruling": "202401", "deductibility": "1", "assets": 0, "income": 0, "revenue": 0}, {"ein": "923748856", "name": "LIFTING THEIR MINDS INC", "city": "AKWESASNE", "state": "NY", "zip": "13655-2111", "ntee": "F60", "ruling": "202305", "deductibility": "1", "assets": 0, "income": 0, "revenue": 0}, {"ein": "931591576", "name": "BRIGHTEST MINDS TUTORING", "city": "WOODBURY", "state": "NY", "zip": "11797-2408", "ntee": "B90", "ruling": "202306", "deductibility": "1", "assets": 1, "income": 1, "revenue": 0}, {"ein": "932120824", "name": "KIND MINDS FOUNDATION INC", "city": "NEW YORK", "state": "NY", "zip": "10002-6424", "ntee": "P70", "ruling": "202308", "deductibility": "1", "assets": 1119, "income": 7125, "revenue": 7125}, {"ein": "990914425", "name": "MINDS N HEARTS", "city": "MELVILLE", "state": "NY", "zip": "11747-3718", "ntee": "R30", "ruling": "202404", "deductibility": "1", "assets": 0, "income": 0, "revenue": 0}, {"ein": "994035583", "name": "TRANSFORMING MINDS AND FUTURES INC", "city": "NEW YORK", "state": "NY", "zip": "10018-8473", "ntee": "B99", "ruling": "202409", "deductibility": "1", "assets": 0, "income": 0, "revenue": 0}, {"ein": "994878581", "name": "MEETING OF THE MINDS COLLABORATIVE INC", "city": "NORTH GREECE", "state": "NY", "zip": "14515-0105", "ntee": "S41", "ruling": "202506", "deductibility": "2", "assets": 0, "income": 0, "revenue": 0}], "MINORITY": [{"ein": "030543924", "name": "MINORITY BAR FOUNDATION INC", "city": "BUFFALO", "state": "NY", "zip": "14201-0393", "ntee": "B82", "ruling": "200410", "deductibility": "1", "assets": 0, "income": 0, "revenue": 0}, {"ein": "133407599", "name": "NATIONAL MINORITY SUPPLIER DEVELOPMENT COUNCIL BUSINESS CONSO", "city": "NEW YORK", "state": "NY", "zip": "10019-4702", "ntee": "", "ruling": "198605", "deductibility": "1", "assets": 8066076, "income": 2022788, "revenue": 2022788}, {"ein": "161561283", "name": "WESTERN NEW YORK MINORITY MEDIA PROFESSIONALS", "city": "BUFFALO", "state": "NY", "zip": "14203-2412", "ntee": "B60", "ruling": "200007", "deductibility": "1", "assets": 135717, "income": 78370, "revenue": 78370}, {"ein": "222635292", "name": "FOUNDATION FOR MINORITY INTERESTS IN MEDIA INC", "city": "KATONAH", "state": "NY", "zip": "10536-0000", "ntee": "A30K", "ruling": "198509", "deductibility": "1", "assets": 3744249, "income": 2217138, "revenue": 2009092}, {"ein": "223315057", "name": "THE MINORITY BAR ASSOCIATION OF WESTERN NEW YORK", "city": "BUFFALO", "state": "NY", "zip": "14201-0211", "ntee": "S41", "ruling": "201702", "deductibility": "2", "assets": 0, "income": 0, "revenue": 0}, {"ein": "237185852", "name": "MINORITY PHOTOGRAPHERS INC", "city": "NEW YORK", "state": "NY", "zip": "10003-8925", "ntee": "", "ruling": "197207", "deductibility": "1", "assets": 0, "income": 0, "revenue": 0}, {"ein": "237348220", "name": "NATIONAL MINORITY SUPPLIER DEVELOPMENT COUNCIL INC", "city": "NEW YORK", "state": "NY", "zip": "10018-8018", "ntee": "A99Z", "ruling": "197401", "deductibility": "1", "assets": 13223060, "income": 31209506, "revenue": 31209506}, {"ein": "237417672", "name": "NATIONAL MINORITY BUSINESS COUNCIL INC", "city": "NEW YORK", "state": "NY", "zip": "10036-6708", "ntee": "", "ruling": "202011", "deductibility": "1", "assets": 0, "income": 0, "revenue": 0}, {"ein": "237439373", "name": "NEW YORK & NEW JERSEY MINORITY SUPPLIER DEVELOPMENT COUNCIL INC", "city": "NEW YORK", "state": "NY", "zip": "10018-7902", "ntee": "", "ruling": "197503", "deductibility": "1", "assets": 3929527, "income": 3134839, "revenue": 2859326}, {"ein": "270861591", "name": "AMERICAN COUNCIL OF MINORITY WOMEN INC", "city": "BROOKLYN", "state": "NY", "zip": "11230-2376", "ntee": "P84", "ruling": "202302", "deductibility": "1", "assets": 0, "income": 0, "revenue": 0}, {"ein": "332992349", "name": "MINORITY WOMEN FOUNDATION INC", "city": "LONG BEACH", "state": "NY", "zip": "11561-2239", "ntee": "W12", "ruling": "202502", "deductibility": "1", "assets": 0, "income": 0, "revenue": 0}, {"ein": "460588261", "name": "EMPIRE STATE ASSOCIATION OF MINORITY CONTRACTORS INC", "city": "SYRACUSE", "state": "NY", "zip": "13205-1557", "ntee": "B03", "ruling": "201408", "deductibility": "1", "assets": 15123, "income": 23600, "revenue": 23600}, {"ein": "474178194", "name": "RICHMOND COUNTY BLACK & MINORITY CHAMBER OF COMMERCE INC", "city": "STATEN ISLAND", "state": "NY", "zip": "10314-3418", "ntee": "S41", "ruling": "201604", "deductibility": "1", "assets": 0, "income": 0, "revenue": 0}, {"ein": "475024814", "name": "DAORONG WOMEN AND MINORITY FOUNDATION", "city": "NEW YORK", "state": "NY", "zip": "10022-6445", "ntee": "P20", "ruling": "201603", "deductibility": "1", "assets": 0, "income": 0, "revenue": 0}, {"ein": "800005407", "name": "MINORITY ORGAN DONATION EDUCATION PROGRAM INC", "city": "LACKAWANNA", "state": "NY", "zip": "14218-3348", "ntee": "B11", "ruling": "201204", "deductibility": "1", "assets": 0, "income": 0, "revenue": 0}, {"ein": "811046358", "name": "UPSTATE MINORITY ECONOMIC ALLIANCE INC", "city": "SYRACUSE", "state": "NY", "zip": "13202-1305", "ntee": "S40", "ruling": "201711", "deductibility": "2", "assets": 134321, "income": 205867, "revenue": 198924}, {"ein": "812671417", "name": "CAPITAL REGION CHAPTER OF THE ASSOCIATION OF MINORITY ENTERPRISE", "city": "TROY", "state": "NY", "zip": "12180-1313", "ntee": "B01", "ruling": "202004", "deductibility": "1", "assets": 0, "income": 0, "revenue": 0}, {"ein": "822405569", "name": "NY TRI-STATE CHAPTER OF NATIONAL ASSOCIATION OF MINORITY CONTRACTOR", "city": "WOODSIDE", "state": "NY", "zip": "11377-7831", "ntee": "S400", "ruling": "201708", "deductibility": "1", "assets": 886664, "income": 619000, "revenue": 232768}, {"ein": "824536110", "name": "MINORITY MILLENNIALS", "city": "AMITYVILLE", "state": "NY", "zip": "11701-2123", "ntee": "P20", "ruling": "201807", "deductibility": "1", "assets": 49618, "income": 401233, "revenue": 401233}, {"ein": "844518315", "name": "MINORITY EMPOWERMENT NETWORK INC", "city": "JACKSON HEIGHTS", "state": "NY", "zip": "11372-6538", "ntee": "A01", "ruling": "202111", "deductibility": "1", "assets": 0, "income": 0, "revenue": 0}, {"ein": "851375765", "name": "NATIONAL ORGANIZATION FOR MINORITY OPPORTUNITY AND REAL EQUALITY", "city": "JAMAICA", "state": "NY", "zip": "11433-3918", "ntee": "P99", "ruling": "202011", "deductibility": "1", "assets": 0, "income": 0, "revenue": 0}, {"ein": "851906421", "name": "MINORITY INVESTOR INC", "city": "SYRACUSE", "state": "NY", "zip": "13210-3615", "ntee": "B80", "ruling": "202105", "deductibility": "1", "assets": 0, "income": 0, "revenue": 0}, {"ein": "852675275", "name": "MINORITY VOICES PROSPER INC", "city": "BROOKLYN", "state": "NY", "zip": "11225-4424", "ntee": "O99", "ruling": "202011", "deductibility": "1", "assets": 0, "income": 0, "revenue": 0}, {"ein": "862226745", "name": "MINORITY ASSISTANCE CENTER INCORPORATED", "city": "JAMAICA", "state": "NY", "zip": "11434-3814", "ntee": "A20", "ruling": "202505", "deductibility": "1", "assets": 0, "income": 0, "revenue": 0}, {"ein": "882156338", "name": "NY REGION CHAPTER ELECTRICAL WORKERS MINORITY CAUCUS", "city": "HAUPPAUGE", "state": "NY", "zip": "11788-5181", "ntee": "J40", "ruling": "202205", "deductibility": "1", "assets": 0, "income": 0, "revenue": 0}, {"ein": "882440788", "name": "FOUNDATION FOR MINORITY AND HOMELESS INC", "city": "NEW YORK", "state": "NY", "zip": "10002-5201", "ntee": "A20", "ruling": "202207", "deductibility": "1", "assets": 0, "income": 0, "revenue": 0}, {"ein": "882534735", "name": "MINORITY MINDZ INC", "city": "BROOKLYN", "state": "NY", "zip": "11205-3558", "ntee": "S31", "ruling": "202210", "deductibility": "1", "assets": 0, "income": 0, "revenue": 0}, {"ein": "921075086", "name": "MINORITY PROFESSIONAL ASSOCIATION INC", "city": "AUBURN", "state": "NY", "zip": "13021-4091", "ntee": "R03", "ruling": "202305", "deductibility": "1", "assets": 0, "income": 0, "revenue": 0}, {"ein": "922982358", "name": "MINORITY WOMEN IN BUSINESS SUPPORT ASSOCIATION INC", "city": "MASTIC BEACH", "state": "NY", "zip": "11951-0001", "ntee": "A01", "ruling": "202305", "deductibility": "1", "assets": 0, "income": 0, "revenue": 0}, {"ein": "931974426", "name": "MINORITY CIVIL RIGHTS FOUNDATION INC", "city": "WOODSIDE", "state": "NY", "zip": "11377-6345", "ntee": "W20", "ruling": "202307", "deductibility": "1", "assets": 0, "income": 0, "revenue": 0}, {"ein": "933274136", "name": "NEW LIFE MINORITY HUMAN RIGHT COUNCIL INC", "city": "BROOKLYN", "state": "NY", "zip": "11230-2310", "ntee": "B01", "ruling": "202407", "deductibility": "1", "assets": 5717, "income": 10492, "revenue": 10492}, {"ein": "933814962", "name": "MINORITY ARTS & MEDIA FOUNDATION CORP", "city": "EAST ELMHURST", "state": "NY", "zip": "11369-1416", "ntee": "", "ruling": "202310", "deductibility": "1", "assets": 0, "income": 0, "revenue": 0}, {"ein": "934819110", "name": "CENTRAL NEW YORK ASSOCIATION FOR MINORITY POLICE", "city": "SYRACUSE", "state": "NY", "zip": "13206-2338", "ntee": "I01", "ruling": "202402", "deductibility": "1", "assets": 0, "income": 0, "revenue": 0}, {"ein": "991007610", "name": "MINORITY MAJORITY OF AMERICA", "city": "AMITYVILLE", "state": "NY", "zip": "11701-2123", "ntee": "P20", "ruling": "202503", "deductibility": "2", "assets": 0, "income": 0, "revenue": 0}, {"ein": "992820844", "name": "KOREAN MINORITY ORGANIZATION INC", "city": "LONG IS CITY", "state": "NY", "zip": "11101-4856", "ntee": "S20", "ruling": "202405", "deductibility": "1", "assets": 0, "income": 0, "revenue": 0}], "FLETCHER": [{"ein": "036005050", "name": "FLETCHER D PROCTOR FUND FOR DESTITUTE CHILDREN NECT", "city": "BUFFALO", "state": "NY", "zip": "14240-1504", "ntee": "T20", "ruling": "201906", "deductibility": "1", "assets": 244612, "income": 25996, "revenue": 0}, {"ein": "651033029", "name": "FLETCHER FOUNDATION INC", "city": "SKANEATELES", "state": "NY", "zip": "13152-9109", "ntee": "T20", "ruling": "200009", "deductibility": "1", "assets": 1147715, "income": 293322, "revenue": 0}, {"ein": "834488201", "name": "FLETCHER CHARITIES INC", "city": "BROOKLYN", "state": "NY", "zip": "11235-4625", "ntee": "P82", "ruling": "202407", "deductibility": "1", "assets": 0, "income": 0, "revenue": 0}, {"ein": "853075403", "name": "FLETCHER FAMILY FOUNDATION", "city": "ROSEDALE", "state": "NY", "zip": "11422-1038", "ntee": "T20", "ruling": "202111", "deductibility": "1", "assets": 19019, "income": 32000, "revenue": 0}, {"ein": "883998958", "name": "FLETCHER MEMORIAL FOUNDATION", "city": "NEW YORK", "state": "NY", "zip": "10020-2082", "ntee": "T22", "ruling": "202301", "deductibility": "1", "assets": 1, "income": 1, "revenue": 0}], "PHILOLEXIAN": [{"ein": "061599779", "name": "PHILOLEXIAN FOUNDATION", "city": "NEW YORK", "state": "NY", "zip": "10025-1508", "ntee": "B11", "ruling": "200111", "deductibility": "1", "assets": 0, "income": 0, "revenue": 0}], "MESIVA": [{"ein": "112127174", "name": "YESHIVA AND MESIVA TORAH TEMIMAH INCORPORATED", "city": "BROOKLYN", "state": "NY", "zip": "11218-5913", "ntee": "", "ruling": "199005", "deductibility": "1", "assets": 0, "income": 0, "revenue": 0}], "SCHENIRER": [{"ein": "112279217", "name": "BEIS SEFER GOVOHA LEBANOS SARA SCHENIRER", "city": "BROOKLYN", "state": "NY", "zip": "11219-2676", "ntee": "", "ruling": "197205", "deductibility": "1", "assets": 12825409, "income": 8764273, "revenue": 8764273}], "BOWNE": [{"ein": "112335928", "name": "BOWNE STREET COMMUNITY CHURCH", "city": "FLUSHING", "state": "NY", "zip": "11354-6139", "ntee": "", "ruling": "196406", "deductibility": "1", "assets": 0, "income": 0, "revenue": 0}, {"ein": "116111192", "name": "THE BOWNE HOUSE HISTORICAL SOCIETY INC", "city": "FLUSHING", "state": "NY", "zip": "11354-5628", "ntee": "", "ruling": "196804", "deductibility": "1", "assets": 602794, "income": 256458, "revenue": 125875}, {"ein": "205096429", "name": "JOHN BOWNE CHRISTIAN MINISTRY INC", "city": "NEW HYDE PARK", "state": "NY", "zip": "11040-1834", "ntee": "X20", "ruling": "200805", "deductibility": "1", "assets": 0, "income": 0, "revenue": 0}], "REFOEL": [{"ein": "112393594", "name": "CONGREGATION OHEL REFOEL AHARON C O OSCAR ABRAHAM", "city": "BROOKLYN", "state": "NY", "zip": "11219-4344", "ntee": "", "ruling": "197705", "deductibility": "1", "assets": 0, "income": 0, "revenue": 0}, {"ein": "112998770", "name": "CONGREGATION TIFERETH REFOEL INC", "city": "BROOKLYN", "state": "NY", "zip": "11218-5717", "ntee": "", "ruling": "199002", "deductibility": "1", "assets": 0, "income": 0, "revenue": 0}, {"ein": "133847928", "name": "MERKAZ REFOEL", "city": "MONSEY", "state": "NY", "zip": "10952-2109", "ntee": "X30Z", "ruling": "199508", "deductibility": "1", "assets": 0, "income": 0, "revenue": 0}], "HADAS": [{"ein": "112405356", "name": "CONGREGATION CHIZUK HADAS C O LOUIS FRIEDMAN", "city": "BROOKLYN", "state": "NY", "zip": "11230-6617", "ntee": "", "ruling": "197710", "deductibility": "1", "assets": 0, "income": 0, "revenue": 0}, {"ein": "112434820", "name": "YESHIVA MACHZIKEI HADAS", "city": "BROOKLYN", "state": "NY", "zip": "11204-1027", "ntee": "X30", "ruling": "201509", "deductibility": "1", "assets": 0, "income": 0, "revenue": 0}, {"ein": "112470134", "name": "KEDISHAS AHARON D HADAS C O BENJAMIN ISAACS", "city": "BROOKLYN", "state": "NY", "zip": "11211-8019", "ntee": "", "ruling": "197810", "deductibility": "1", "assets": 0, "income": 0, "revenue": 0}, {"ein": "112524537", "name": "CONGREGATION & YESHIVA MACHZIKEI HADAS INC", "city": "BROOKLYN", "state": "NY", "zip": "11204-1027", "ntee": "", "ruling": "198006", "deductibility": "1", "assets": 0, "income": 0, "revenue": 0}, {"ein": "112822831", "name": "BETH AHARON D HADAS", "city": "BROOKLYN", "state": "NY", "zip": "11211-8019", "ntee": "", "ruling": "198610", "deductibility": "1", "assets": 0, "income": 0, "revenue": 0}, {"ein": "113517108", "name": "GEMACH MEI HADAS", "city": "BROOKLYN", "state": "NY", "zip": "11211-7103", "ntee": "X30", "ruling": "200001", "deductibility": "1", "assets": 0, "income": 0, "revenue": 0}, {"ein": "113549392", "name": "VAAD LCHIZUK HADAS", "city": "BROOKLYN", "state": "NY", "zip": "11211-7603", "ntee": "X30", "ruling": "200008", "deductibility": "1", "assets": 0, "income": 0, "revenue": 0}, {"ein": "133059545", "name": "CONGREGATION AGUDAS SHOMREI HADAS", "city": "STATEN ISLAND", "state": "NY", "zip": "10314-5036", "ntee": "", "ruling": "197904", "deductibility": "1", "assets": 0, "income": 0, "revenue": 0}, {"ein": "133158602", "name": "CONGREGATION MACHZEKEI HADAS OF BELZ", "city": "SPRING VALLEY", "state": "NY", "zip": "10977-4736", "ntee": "", "ruling": "198312", "deductibility": "1", "assets": 0, "income": 0, "revenue": 0}, {"ein": "133406848", "name": "CONGREGATION BIKOR CHOLIM DKHAL MACHZEKEI HADAS", "city": "MONSEY", "state": "NY", "zip": "10952-2603", "ntee": "", "ruling": "198706", "deductibility": "1", "assets": 0, "income": 0, "revenue": 0}, {"ein": "201190799", "name": "CONGREGATION KEHILLA KEDOSHA MACHZIKEI HADAS INC", "city": "BROOKLYN", "state": "NY", "zip": "11219-1408", "ntee": "X30", "ruling": "200506", "deductibility": "1", "assets": 0, "income": 0, "revenue": 0}, {"ein": "202570942", "name": "YESHIVA OF MACHZIKAI HADAS INC", "city": "BROOKLYN", "state": "NY", "zip": "11219-2674", "ntee": "X30", "ruling": "200801", "deductibility": "1", "assets": 13687554, "income": 6130684, "revenue": 6130684}, {"ein": "237344360", "name": "CONGREGATION MACHZEKEI HADAS", "city": "BROOKLYN", "state": "NY", "zip": "11210-4532", "ntee": "", "ruling": "197401", "deductibility": "1", "assets": 0, "income": 0, "revenue": 0}], "ZETIM": [{"ein": "112449995", "name": "AMERICAN FRIENDS OF AGUDAT SHETILE ZETIM INC C O JOSEPH HAMAOUYUI", "city": "BROOKLYN", "state": "NY", "zip": "11223-0000", "ntee": "Q99Z", "ruling": "197804", "deductibility": "1", "assets": 8585, "income": 174995, "revenue": 174995}], "DLTA": [{"ein": "112501517", "name": "NATL SORORITY PHI DLTA KPPA BTA OMC RN CHPT BIG SISTER ED ACTN SRV CT", "city": "JAMAICA", "state": "NY", "zip": "11434-2236", "ntee": "B83Z", "ruling": "202312", "deductibility": "1", "assets": 0, "income": 29426, "revenue": 29426}], "HOMMES": [{"ein": "112530569", "name": "LA SOCIETE DES 40 HOMMES ET 8 CHEVAUX VOITURE 713 SUFFOLK COUNTY", "city": "BAY SHORE", "state": "NY", "zip": "11706-8120", "ntee": "", "ruling": "193904", "deductibility": "2", "assets": 0, "income": 0, "revenue": 0}, {"ein": "113573018", "name": "EGLISE PENTECOTISTE DES PECHEURS D HOMMES", "city": "MERRICK", "state": "NY", "zip": "11566-0445", "ntee": "X21", "ruling": "195105", "deductibility": "1", "assets": 2080330, "income": 124451, "revenue": 124451}, {"ein": "116080510", "name": "VOITURE NATIONALE LA SOCIETE DES 40 HOMMES ET 8 CHEVAUX", "city": "MALVERNE", "state": "NY", "zip": "11565-0000", "ntee": "", "ruling": "196701", "deductibility": "1", "assets": 0, "income": 0, "revenue": 0}, {"ein": "161104334", "name": "VOITURE NATIONALE LA SOCIETE DES 40 HOMMES ET 8 CHEVAUX", "city": "ROCHESTER", "state": "NY", "zip": "14607-4801", "ntee": "", "ruling": "194012", "deductibility": "1", "assets": 0, "income": 0, "revenue": 0}, {"ein": "161395511", "name": "VOITURE NATIONALE LA SOCIETE DES 40 HOMMES ET 8 CHEVAUX", "city": "ADAMS", "state": "NY", "zip": "13605-2168", "ntee": "W30", "ruling": "201202", "deductibility": "2", "assets": 0, "income": 0, "revenue": 0}, {"ein": "166072981", "name": "VOITURE NATIONALE LA SOCIETE DES 40 HOMMES ET 8 CHEVAUX", "city": "MATTYDALE", "state": "NY", "zip": "13211-1729", "ntee": "", "ruling": "196701", "deductibility": "1", "assets": 0, "income": 0, "revenue": 0}, {"ein": "454388004", "name": "VOITURE NATIONALE LA SOCIETE DES 40 HOMMES ET 8 CHEVAUX", "city": "FLY CREEK", "state": "NY", "zip": "13337-2107", "ntee": "W30", "ruling": "193904", "deductibility": "1", "assets": 0, "income": 0, "revenue": 0}, {"ein": "651240179", "name": "VOITURE NATIONALE LA SOCIETE DES 4O HOMMES ET 8 CHEVAUX", "city": "WEEDSPORT", "state": "NY", "zip": "13166-0767", "ntee": "", "ruling": "000000", "deductibility": "0", "assets": 0, "income": 0, "revenue": 0}], "RADOMSK": [{"ein": "112574369", "name": "CONGREGATION CHASIDEI RADOMSK OF BORO PARK", "city": "BROOKLYN", "state": "NY", "zip": "11219-1415", "ntee": "", "ruling": "200701", "deductibility": "1", "assets": 0, "income": 0, "revenue": 0}, {"ein": "113223121", "name": "YESHIVA KESER TORAH RADOMSK", "city": "BROOKLYN", "state": "NY", "zip": "11204-0000", "ntee": "", "ruling": "199409", "deductibility": "1", "assets": 0, "income": 0, "revenue": 0}], "MAFITZAI": [{"ein": "112605894", "name": "CHEVRA MAFITZAI SEFORIM", "city": "BROOKLYN", "state": "NY", "zip": "11211-6981", "ntee": "", "ruling": "198402", "deductibility": "1", "assets": 0, "income": 0, "revenue": 0}], "KLEIN": [{"ein": "112663371", "name": "NATIONAL THEOLOGICAL CENTER C/O TOVIA KLEIN", "city": "BROOKLYN", "state": "NY", "zip": "11219-3202", "ntee": "", "ruling": "198608", "deductibility": "1", "assets": 0, "income": 0, "revenue": 0}, {"ein": "113185247", "name": "KLEIN-KAUFMAN FAMILY FOUNDATION", "city": "HUNTINGTN STA", "state": "NY", "zip": "11746-3140", "ntee": "", "ruling": "199405", "deductibility": "1", "assets": 20709, "income": 95766, "revenue": 0}, {"ein": "113455167", "name": "JASON CHRISTOPHER KLEIN FOUNDATION", "city": "NEW YORK", "state": "NY", "zip": "10017-6853", "ntee": "B82Z", "ruling": "199812", "deductibility": "1", "assets": 91976, "income": 9334, "revenue": 0}, {"ein": "134092608", "name": "KLEIN FAMILY FOUNDATION", "city": "BROOKLYN", "state": "NY", "zip": "11230-3504", "ntee": "T22", "ruling": "200002", "deductibility": "1", "assets": 44326111, "income": 21770702, "revenue": 0}, {"ein": "134097745", "name": "SUNRISE KLEIN FOUNDATION INC", "city": "MONSEY", "state": "NY", "zip": "10952-0000", "ntee": "T20", "ruling": "200003", "deductibility": "1", "assets": 582273, "income": 50017, "revenue": 0}, {"ein": "136114763", "name": "RUTH & SEYMOUR KLEIN FOUNDATION INC", "city": "WHITE PLAINS", "state": "NY", "zip": "10601-3342", "ntee": "", "ruling": "194708", "deductibility": "1", "assets": 4036133, "income": 1704790, "revenue": 0}, {"ein": "136279924", "name": "GEORGE AND ADELE KLEIN FOUNDATION", "city": "NEW YORK", "state": "NY", "zip": "10022-4212", "ntee": "", "ruling": "196812", "deductibility": "1", "assets": 2265026, "income": 1, "revenue": 0}, {"ein": "161497511", "name": "ELIZABETH KLEIN FOUNDATION INC", "city": "SYRACUSE", "state": "NY", "zip": "13205-0805", "ntee": "T22Z", "ruling": "199804", "deductibility": "1", "assets": 581440, "income": 13902, "revenue": 0}, {"ein": "204828991", "name": "CHARLES AND JANE KLEIN FAMILY FUND", "city": "MOUNT KISCO", "state": "NY", "zip": "10549-2553", "ntee": "T22", "ruling": "200606", "deductibility": "1", "assets": 3434273, "income": 204712, "revenue": 0}, {"ein": "205217920", "name": "MENDEL & TOBY KLEIN FAMILY FOUNDATION", "city": "BROOKLYN", "state": "NY", "zip": "11204-0000", "ntee": "T22", "ruling": "200801", "deductibility": "1", "assets": 235853, "income": 18763, "revenue": 0}, {"ein": "205921939", "name": "MENDY AND HEDDY KLEIN FOUNDATION", "city": "VALLEY STREAM", "state": "NY", "zip": "11580-6105", "ntee": "T20", "ruling": "200611", "deductibility": "1", "assets": 3511823, "income": 232643, "revenue": 0}, {"ein": "223000780", "name": "REB EPHRAIM CHAIM AND MIRIAM ROCHEL KLEIN CHARITABLE FOUNDATION", "city": "BROOKLYN", "state": "NY", "zip": "11230-3504", "ntee": "", "ruling": "199003", "deductibility": "1", "assets": 48642039, "income": 27172364, "revenue": 0}, {"ein": "261097572", "name": "BERNARD KLEIN CHARITY FUND CORP", "city": "EAST ROCKAWAY", "state": "NY", "zip": "11518-1616", "ntee": "T30", "ruling": "200903", "deductibility": "1", "assets": 5329, "income": 150, "revenue": 150}, {"ein": "262807978", "name": "TAMMY AND SAMUEL KLEIN CHARITABLE FOUNDATION", "city": "BROOKLYN", "state": "NY", "zip": "11204-1417", "ntee": "T20", "ruling": "200905", "deductibility": "1", "assets": 1000, "income": 1, "revenue": 0}, {"ein": "262947643", "name": "BEVERLY AND ELIAS KLEIN FAMILY FOUNDATION INC", "city": "NEW YORK", "state": "NY", "zip": "10029-3424", "ntee": "T22", "ruling": "200903", "deductibility": "1", "assets": 490106, "income": 5000, "revenue": 0}, {"ein": "461520338", "name": "BETH AND MICHAEL KLEIN CHARITABLE FOUNDATION", "city": "NYC", "state": "NY", "zip": "10022-2493", "ntee": "T20", "ruling": "201308", "deductibility": "1", "assets": 11885, "income": 282, "revenue": 0}, {"ein": "474667695", "name": "ZVI AND CHAYA KLEIN FAMILY FOUNDATION", "city": "BROOKLYN", "state": "NY", "zip": "11204-1830", "ntee": "T20", "ruling": "201603", "deductibility": "1", "assets": 987, "income": 1650, "revenue": 0}, {"ein": "474905892", "name": "EE KLEIN FOUNDATION INC", "city": "BROOKLYN", "state": "NY", "zip": "11219-3823", "ntee": "T12", "ruling": "201511", "deductibility": "1", "assets": 46026, "income": 5830, "revenue": 0}, {"ein": "816889929", "name": "GEORGE AND ADELE KLEIN FAMILY FOUNDATION", "city": "NEW YORK", "state": "NY", "zip": "10022-4212", "ntee": "T20", "ruling": "201803", "deductibility": "1", "assets": 1115272, "income": 56611, "revenue": 0}, {"ein": "823813513", "name": "S & M KLEIN FAMILY FOUNDATION INC", "city": "BROOKLYN", "state": "NY", "zip": "11204-1735", "ntee": "T20", "ruling": "201902", "deductibility": "1", "assets": 2318, "income": 2000, "revenue": 0}, {"ein": "832198584", "name": "ALTER & YITU KLEIN SIMCHA FUND INC", "city": "NEW CITY", "state": "NY", "zip": "10956-1328", "ntee": "K11", "ruling": "201905", "deductibility": "1", "assets": 0, "income": 0, "revenue": 0}, {"ein": "883058563", "name": "TIMOTHY P KLEIN MEMORIAL FOUNDATION INC", "city": "BELLE HARBOR", "state": "NY", "zip": "11694-1351", "ntee": "T12", "ruling": "202304", "deductibility": "1", "assets": 580568, "income": 284931, "revenue": 207880}, {"ein": "921554595", "name": "DAVID AND YEHUDIS KLEIN FOUNDATION INC", "city": "BROOKLYN", "state": "NY", "zip": "11204-1419", "ntee": "T20", "ruling": "202301", "deductibility": "1", "assets": 1, "income": 1, "revenue": 0}, {"ein": "922300868", "name": "DEVINE-KLEIN FOUNDATION", "city": "NEW YORK", "state": "NY", "zip": "10007-0002", "ntee": "T20", "ruling": "202305", "deductibility": "1", "assets": 1, "income": 243839, "revenue": 0}], "DKARLIN": [{"ein": "112713176", "name": "BAIS BROCHO DKARLIN STOLIN", "city": "BROOKLYN", "state": "NY", "zip": "11219-1853", "ntee": "", "ruling": "198505", "deductibility": "1", "assets": 0, "income": 0, "revenue": 0}, {"ein": "134116566", "name": "CONGREGATION BETH ARON DKARLIN STOLIN OF MONSEY", "city": "MONSEY", "state": "NY", "zip": "10952-3602", "ntee": "X30", "ruling": "200006", "deductibility": "1", "assets": 0, "income": 0, "revenue": 0}], "GENEALOGY": [{"ein": "112767495", "name": "JEWISH GENEALOGY SOCIETY OF LONG ISLAND INC", "city": "DIX HILLS", "state": "NY", "zip": "11746-5627", "ntee": "A83Z", "ruling": "199309", "deductibility": "1", "assets": 0, "income": 0, "revenue": 0}, {"ein": "113515557", "name": "GERMAN GENEALOGY GROUP INC", "city": "KINGS PARK", "state": "NY", "zip": "11754-0337", "ntee": "A80", "ruling": "200003", "deductibility": "1", "assets": 0, "income": 0, "revenue": 0}, {"ein": "271420664", "name": "GENEALOGY FEDERATION OF LONG ISLAND", "city": "PLAINVIEW", "state": "NY", "zip": "11803-4020", "ntee": "A80", "ruling": "201003", "deductibility": "1", "assets": 0, "income": 0, "revenue": 0}], "PU": [{"ein": "112994996", "name": "PU TUO GUAN-YIN TEMPLE INC", "city": "FLUSHING", "state": "NY", "zip": "11354-6253", "ntee": "", "ruling": "199107", "deductibility": "1", "assets": 0, "income": 0, "revenue": 0}, {"ein": "113577400", "name": "PU TI BUDDHIST ASSOCIATION OF AMERICA INC", "city": "FLUSHING", "state": "NY", "zip": "11355-1301", "ntee": "X50", "ruling": "200103", "deductibility": "1", "assets": 2092477, "income": 197388, "revenue": -2140}, {"ein": "201762865", "name": "WORLD UNITED BUDDHIST ASSOCIATION PU XIAN TEMPLE INC", "city": "NEW YORK", "state": "NY", "zip": "10002-5258", "ntee": "X50", "ruling": "200503", "deductibility": "1", "assets": 0, "income": 0, "revenue": 0}, {"ein": "275131775", "name": "AMERICAN BUDDHIST ASSOCIATION PU TUO TEMPLE INC", "city": "BROOKLYN", "state": "NY", "zip": "11220-2910", "ntee": "X50", "ruling": "201410", "deductibility": "1", "assets": 135522, "income": 31575, "revenue": 31575}, {"ein": "460792391", "name": "BUDDHIST ASSOCIATION OF NEW YORK PU JUE TEMPLE INC", "city": "BROOKLYN", "state": "NY", "zip": "11204-4001", "ntee": "X50", "ruling": "201309", "deductibility": "1", "assets": 2239388, "income": 688927, "revenue": 688927}, {"ein": "462598725", "name": "AMERICAN PU XIAN ASSOCIATION INC", "city": "NEW YORK", "state": "NY", "zip": "10002-6994", "ntee": "P84", "ruling": "201412", "deductibility": "1", "assets": 3750, "income": 0, "revenue": 0}], "BELLMORES": [{"ein": "113023415", "name": "CHAMBER OF COMMERCE OF THE BELLMORES INC", "city": "BELLMORE", "state": "NY", "zip": "11710-3629", "ntee": "", "ruling": "199203", "deductibility": "2", "assets": 357684, "income": 200124, "revenue": 200124}, {"ein": "272979395", "name": "KIWANIS CLUB OF THE BELLMORES CHARITABLE FOUNDATION INC", "city": "BELLMORE", "state": "NY", "zip": "11710-0011", "ntee": "T12", "ruling": "201608", "deductibility": "1", "assets": 0, "income": 0, "revenue": 0}], "JOSE": [{"ein": "113052585", "name": "JOSE MOREIRA MINISTRIES INC", "city": "BROOKLYN", "state": "NY", "zip": "11220-0271", "ntee": "", "ruling": "199406", "deductibility": "1", "assets": 0, "income": 0, "revenue": 0}, {"ein": "113119551", "name": "JOSE LOPEZ MEMORIAL SCHOLARSHIP FUND INC", "city": "DEER PARK", "state": "NY", "zip": "11729-3905", "ntee": "B82", "ruling": "201408", "deductibility": "1", "assets": 194974, "income": 22890, "revenue": 22890}, {"ein": "134036645", "name": "SAN JOSE FOUNDATION INC", "city": "NEW YORK", "state": "NY", "zip": "10023-6055", "ntee": "T22", "ruling": "199905", "deductibility": "1", "assets": 47664, "income": 1, "revenue": 0}, {"ein": "135671501", "name": "SAN JOSE DAY NURSERY MOTHERS OF THE HELPLESS", "city": "NEW YORK", "state": "NY", "zip": "10011-2902", "ntee": "", "ruling": "194603", "deductibility": "0", "assets": 31244, "income": 517108, "revenue": 517108}, {"ein": "141942917", "name": "DR JOSE ANTONIO MIJANGOS JR FOUNDATION", "city": "PITTSFORD", "state": "NY", "zip": "14534-1913", "ntee": "B82", "ruling": "200606", "deductibility": "1", "assets": 356120, "income": 71584, "revenue": 0}, {"ein": "141964260", "name": "PARENT TEACHER ASSOCIATION OF P S 84 THE JOSE DE DIEGO SCHOOL INC", "city": "BROOKLYN", "state": "NY", "zip": "11249-4106", "ntee": "B94", "ruling": "201410", "deductibility": "1", "assets": 106743, "income": 151743, "revenue": 106743}, {"ein": "237012069", "name": "JOSE LIMON DANCE FOUNDATION", "city": "NEW YORK", "state": "NY", "zip": "10031-1814", "ntee": "A116", "ruling": "198610", "deductibility": "1", "assets": 1104741, "income": 1759513, "revenue": 1631144}, {"ein": "272071626", "name": "JOSE L SARAVIA LEGAL SERVICES INC", "city": "LIBERTY", "state": "NY", "zip": "12754-0127", "ntee": "I80", "ruling": "201109", "deductibility": "1", "assets": 0, "income": 0, "revenue": 0}, {"ein": "475033315", "name": "JOSE MARTI ALUMNI ASSOCIATION NEW YORK INC", "city": "WESTBURY", "state": "NY", "zip": "11590-3314", "ntee": "T12", "ruling": "201809", "deductibility": "1", "assets": 0, "income": 0, "revenue": 0}, {"ein": "920283032", "name": "YOLANDA & JOSE PINZON FOUNDATION INC", "city": "MIDDLE VLG", "state": "NY", "zip": "11379-2013", "ntee": "P60", "ruling": "202210", "deductibility": "1", "assets": 1, "income": 8574, "revenue": 0}, {"ein": "993289389", "name": "SAN JOSE PARTNERS INC", "city": "WEBSTER", "state": "NY", "zip": "14580-9613", "ntee": "S99", "ruling": "202407", "deductibility": "1", "assets": 0, "income": 0, "revenue": 0}], "LAHORE": [{"ein": "113097658", "name": "AHMADIYYA ANJUMAN ISHAAT ISLAM LAHORE INC USA NEW YORK BRANCH", "city": "JAMAICA", "state": "NY", "zip": "11428-1201", "ntee": "", "ruling": "199206", "deductibility": "1", "assets": 0, "income": 0, "revenue": 0}, {"ein": "844857925", "name": "FRIENDS OF AITCHISON COLLEGE LAHORE INC", "city": "NEW YORK", "state": "NY", "zip": "10011-5901", "ntee": "B90", "ruling": "202108", "deductibility": "1", "assets": 0, "income": 0, "revenue": 0}], "ESMIRNA": [{"ein": "113320138", "name": "IGLESIA PENTECOSTAL ESMIRNA INC", "city": "BROOKLYN", "state": "NY", "zip": "11208-3724", "ntee": "X20", "ruling": "201208", "deductibility": "1", "assets": 0, "income": 0, "revenue": 0}], "JOUVERT": [{"ein": "113362754", "name": "JOUVERT CITY INTERNATIONAL INC", "city": "BROOKLYN", "state": "NY", "zip": "11217-1623", "ntee": "A20", "ruling": "201210", "deductibility": "1", "assets": 0, "income": 0, "revenue": 0}], "MILAN": [{"ein": "113404425", "name": "NEW YORK HINDU MILAN MANDIR", "city": "S RICHMOND HILL QUEENS", "state": "NY", "zip": "11419-2711", "ntee": "X20Z", "ruling": "199806", "deductibility": "1", "assets": 0, "income": 0, "revenue": 0}, {"ein": "141587103", "name": "MILAN VOLUNTEER FIRE DEPARTMENT INC", "city": "MILAN", "state": "NY", "zip": "12571-4730", "ntee": "M24", "ruling": "201604", "deductibility": "1", "assets": 3764890, "income": 727155, "revenue": 709102}, {"ein": "146024358", "name": "MILAN UNION CEMETERY ASSOCIATION", "city": "RHINEBECK", "state": "NY", "zip": "12572-0000", "ntee": "Y50", "ruling": "201907", "deductibility": "2", "assets": 0, "income": 0, "revenue": 0}, {"ein": "146109603", "name": "IRENE K WILCOX ESTATE FBO TOWN OF MILAN TR", "city": "MILLBROOK", "state": "NY", "zip": "12545-1447", "ntee": "", "ruling": "198001", "deductibility": "1", "assets": 572425, "income": 76059, "revenue": 0}, {"ein": "166041585", "name": "MILAN BAPTIST CHURCH", "city": "LOCKE", "state": "NY", "zip": "13092-0000", "ntee": "", "ruling": "198511", "deductibility": "1", "assets": 0, "income": 0, "revenue": 0}, {"ein": "823392397", "name": "MILAN SENIORS FOUNDATION INC", "city": "NEW HYDE PARK", "state": "NY", "zip": "11040-2208", "ntee": "L22", "ruling": "201805", "deductibility": "1", "assets": 25831, "income": 6084, "revenue": 6084}, {"ein": "863565823", "name": "FELLOWS OF POLITECNICO DI MILAN US INC", "city": "NEW YORK", "state": "NY", "zip": "10017-0000", "ntee": "B11", "ruling": "202202", "deductibility": "1", "assets": 82808, "income": 384486, "revenue": 384486}, {"ein": "923085072", "name": "GURU SEVA HINDU MILAN MANDIR CULTURAL GROUP INC", "city": "BRONX", "state": "NY", "zip": "10465-3703", "ntee": "K31", "ruling": "202305", "deductibility": "1", "assets": 0, "income": 1500, "revenue": 1500}], "ITZKOWITZ": [{"ein": "113410920", "name": "ITZKOWITZ FAMILY FOUNDATION", "city": "BROOKLYN", "state": "NY", "zip": "11219-3201", "ntee": "T20Z", "ruling": "199804", "deductibility": "1", "assets": 444702, "income": 12921, "revenue": 0}, {"ein": "472520179", "name": "ITZKOWITZ FAMILY CHARITABLE FOUNDATION", "city": "BROOKLYN", "state": "NY", "zip": "11210-4521", "ntee": "T22", "ruling": "201506", "deductibility": "1", "assets": 1475, "income": 48200, "revenue": 0}], "SERGIOUS": [{"ein": "113443374", "name": "ST SERGIOUS RUSSIAN ORTHODOX CHURCH INC", "city": "BROOKLYN", "state": "NY", "zip": "11209-3528", "ntee": "X20", "ruling": "199901", "deductibility": "1", "assets": 0, "income": 0, "revenue": 0}], "BILQUIS": [{"ein": "113454067", "name": "BILQUIS EDHI RELIEF FOUNDATION INC", "city": "CORONA", "state": "NY", "zip": "11368-2741", "ntee": "T23", "ruling": "200611", "deductibility": "1", "assets": 32757446, "income": 4033318, "revenue": 0}], "FANCIERS": [{"ein": "113458655", "name": "PARROT FANCIERS CLUB INC", "city": "LINDENHURST", "state": "NY", "zip": "11757-1614", "ntee": "D20", "ruling": "200002", "deductibility": "1", "assets": 0, "income": 0, "revenue": 0}, {"ein": "166052942", "name": "GENESEE CAT FANCIERS CLUB INC", "city": "ROCHESTER", "state": "NY", "zip": "14626-4702", "ntee": "", "ruling": "195306", "deductibility": "2", "assets": 0, "income": 0, "revenue": 0}, {"ein": "222931324", "name": "NATIONAL BIRMAN FANCIERS NBF", "city": "CENTEREACH", "state": "NY", "zip": "11720-4030", "ntee": "", "ruling": "199007", "deductibility": "2", "assets": 54157, "income": 1479, "revenue": 1479}], "DASE": [{"ein": "113464292", "name": "CONGREGATION LMANN DASE", "city": "BROOKLYN", "state": "NY", "zip": "11221-0000", "ntee": "X30", "ruling": "199902", "deductibility": "1", "assets": 0, "income": 0, "revenue": 0}], "VANIK": [{"ein": "113514458", "name": "MODH VANIK MANDAL OF NORTH AMERICA INC", "city": "ALBERTSON", "state": "NY", "zip": "11507-1011", "ntee": "P20", "ruling": "201408", "deductibility": "1", "assets": 0, "income": 0, "revenue": 0}], "SALVA": [{"ein": "113563321", "name": "IGLESIA EVANGELICA CRISTO SALVA INC", "city": "RICHMOND HILLS", "state": "NY", "zip": "11418-2619", "ntee": "X21", "ruling": "200201", "deductibility": "1", "assets": 0, "income": 0, "revenue": 0}, {"ein": "454653982", "name": "IGLESIA PENTECOSTAL JESUS SALVA INC", "city": "BROOKLYN", "state": "NY", "zip": "11235-5307", "ntee": "X20", "ruling": "201409", "deductibility": "1", "assets": 0, "income": 0, "revenue": 0}], "LACROSS": [{"ein": "113600737", "name": "HARBORFIELDS LACROSS CLUB INC", "city": "GREENLAWN", "state": "NY", "zip": "11740-1203", "ntee": "N60", "ruling": "200202", "deductibility": "1", "assets": 88490, "income": 109267, "revenue": 109267}, {"ein": "201663786", "name": "COMSEWOGUE YOUTH LACROSS", "city": "PORT JEFF STA", "state": "NY", "zip": "11776-3133", "ntee": "N60", "ruling": "200702", "deductibility": "1", "assets": 0, "income": 0, "revenue": 0}], "MIKVAK": [{"ein": "113638162", "name": "MIKVAK THARAH", "city": "BROOKLYN", "state": "NY", "zip": "11211-8036", "ntee": "X30", "ruling": "200205", "deductibility": "1", "assets": 0, "income": 0, "revenue": 0}], "HUMANIST": [{"ein": "116006530", "name": "HUMANIST TRUST", "city": "NEW YORK", "state": "NY", "zip": "10010-0000", "ntee": "", "ruling": "195304", "deductibility": "1", "assets": 335624, "income": 115252, "revenue": 0}, {"ein": "133664518", "name": "SECULAR HUMANIST SOCIETY OF NEW YORK INC", "city": "NEW YORK", "state": "NY", "zip": "10150-7661", "ntee": "B64Z", "ruling": "199909", "deductibility": "1", "assets": 0, "income": 0, "revenue": 0}, {"ein": "141732925", "name": "CAPITAL DISTRICT HUMANIST SOCIETY INC", "city": "LOUDONVILLE", "state": "NY", "zip": "12211-0209", "ntee": "", "ruling": "199305", "deductibility": "1", "assets": 0, "income": 0, "revenue": 0}, {"ein": "465527775", "name": "CENTRAL NEW YORK HUMANIST ASSOCIATION", "city": "SYRACUSE", "state": "NY", "zip": "13224-2147", "ntee": "R99", "ruling": "202206", "deductibility": "1", "assets": 0, "income": 0, "revenue": 0}, {"ein": "843492820", "name": "HUMANIST ACTION PROJECT INC", "city": "BROOKLYN", "state": "NY", "zip": "11215-3917", "ntee": "W99", "ruling": "201911", "deductibility": "1", "assets": 0, "income": 0, "revenue": 0}, {"ein": "853711030", "name": "AMERICAN HUMANIST ASSOCIATION", "city": "ROCHESTER", "state": "NY", "zip": "14618-1717", "ntee": "", "ruling": "198010", "deductibility": "1", "assets": 0, "income": 0, "revenue": 0}], "COGNATE": [{"ein": "116104966", "name": "ROMEMAH INSTITUTE OF RABBINICS & COGNATE STUDIES", "city": "BROOKLYN", "state": "NY", "zip": "11229-1106", "ntee": "", "ruling": "196801", "deductibility": "1", "assets": 0, "income": 0, "revenue": 0}], "KORNFELD": [{"ein": "116214706", "name": "KORNFELD FOUNDATION", "city": "UNIONDALE", "state": "NY", "zip": "11556-4200", "ntee": "", "ruling": "197407", "deductibility": "1", "assets": 4190, "income": 15001, "revenue": 0}, {"ein": "133042360", "name": "EMILY DAVIE AND JOSEPH S KORNFELD FOUNDATION", "city": "NEW YORK", "state": "NY", "zip": "10036-6710", "ntee": "T20Z", "ruling": "198112", "deductibility": "1", "assets": 26051978, "income": 4754557, "revenue": 0}], "HTC": [{"ein": "131672406", "name": "HTC REALTY CORP", "city": "NEW YORK", "state": "NY", "zip": "10036-7102", "ntee": "", "ruling": "195808", "deductibility": "2", "assets": 0, "income": 0, "revenue": 0}], "IVES": [{"ein": "132751129", "name": "CHARLES IVES SOCIETY INC", "city": "NEW YORK", "state": "NY", "zip": "10017-3204", "ntee": "", "ruling": "197309", "deductibility": "1", "assets": 903622, "income": 216818, "revenue": 0}, {"ein": "161529379", "name": "IVES HILL RETIREMENT COMMUNITY INC", "city": "WATERTOWN", "state": "NY", "zip": "13601-4247", "ntee": "L22", "ruling": "199709", "deductibility": "1", "assets": 12375114, "income": 2596854, "revenue": 2596854}, {"ein": "274249244", "name": "LODGE AT IVES HILL INC", "city": "WATERTOWN", "state": "NY", "zip": "13601-4247", "ntee": "L22", "ruling": "201108", "deductibility": "1", "assets": 2424964, "income": 1093048, "revenue": 1093048}, {"ein": "464041965", "name": "IVES WELLNESS GROUP INC", "city": "BEDFORD HILLS", "state": "NY", "zip": "10507-1800", "ntee": "F30", "ruling": "201501", "deductibility": "1", "assets": 0, "income": 0, "revenue": 0}], "HAKEREM": [{"ein": "133047558", "name": "AMERICAN FRIENDS OF MOSDOS HAKEREM INC", "city": "NEW CITY", "state": "NY", "zip": "10956-1343", "ntee": "", "ruling": "000000", "deductibility": "1", "assets": 12094, "income": 176141, "revenue": 0}], "CHELSEA": [{"ein": "133081013", "name": "CHELSEA DAY SCHOOL INC", "city": "NEW YORK", "state": "NY", "zip": "10016-5056", "ntee": "B21Z", "ruling": "198311", "deductibility": "1", "assets": 4366289, "income": 5774087, "revenue": 4279571}, {"ein": "133547520", "name": "CHELSEA FUND FOR EDUCATION INC", "city": "NEW YORK", "state": "NY", "zip": "10011-2302", "ntee": "A99Z", "ruling": "199003", "deductibility": "1", "assets": 2074560, "income": 939136, "revenue": 164206}, {"ein": "133558107", "name": "CHELSEA COMMUNITY CHURCH", "city": "NEW YORK", "state": "NY", "zip": "10011-3302", "ntee": "", "ruling": "199102", "deductibility": "1", "assets": 0, "income": 0, "revenue": 0}, {"ein": "133911827", "name": "RYAN-CHELSEA CLINTON COMMUNITY HEALTH CENTER", "city": "NEW YORK", "state": "NY", "zip": "10036-2904", "ntee": "E32", "ruling": "199611", "deductibility": "1", "assets": 17036836, "income": 25495937, "revenue": 25429774}, {"ein": "133991838", "name": "CHELSEA PIERS FOUNDATION", "city": "NEW YORK", "state": "NY", "zip": "10011-1015", "ntee": "P82", "ruling": "199804", "deductibility": "1", "assets": 3680673, "income": 916074, "revenue": 824979}, {"ein": "140561195", "name": "CHELSEA YACHT CLUB", "city": "CHELSEA", "state": "NY", "zip": "12512-0180", "ntee": "", "ruling": "194112", "deductibility": "2", "assets": 396298, "income": 292491, "revenue": 282391}, {"ein": "201965815", "name": "CHELSEA OPERA INC", "city": "NEW YORK", "state": "NY", "zip": "10113-0277", "ntee": "A6A", "ruling": "200506", "deductibility": "1", "assets": 19628, "income": 51196, "revenue": 51196}, {"ein": "205689445", "name": "CHELSEA SYMPHONY INC", "city": "NEW YORK", "state": "NY", "zip": "10011-1607", "ntee": "A69", "ruling": "200801", "deductibility": "1", "assets": 141243, "income": 105319, "revenue": 95236}, {"ein": "237097235", "name": "CHELSEA GUN CLUB OF NEW YORK CITY INC", "city": "NEW YORK", "state": "NY", "zip": "10009-1901", "ntee": "", "ruling": "197106", "deductibility": "2", "assets": 196441, "income": 19739, "revenue": 11723}, {"ein": "320676960", "name": "CHELSEA APTS HOUSING DEVELOPMENT FUND CORPORATION", "city": "NEW YORK", "state": "NY", "zip": "10002-3313", "ntee": "L21", "ruling": "202505", "deductibility": "1", "assets": 0, "income": 0, "revenue": 0}, {"ein": "452473321", "name": "CHELSEA MUSIC FESTIVAL CORPORATION", "city": "NEW YORK", "state": "NY", "zip": "10025-1520", "ntee": "A60", "ruling": "201209", "deductibility": "1", "assets": 433477, "income": 178864, "revenue": 171515}, {"ein": "454612752", "name": "COUNCIL OF CHELSEA BLOCK ASSOCIATIONS", "city": "NEW YORK", "state": "NY", "zip": "10113-1398", "ntee": "T31", "ruling": "202301", "deductibility": "1", "assets": 0, "income": 0, "revenue": 0}, {"ein": "456715799", "name": "CHELSEA TENANTS ASSOCIATION HISTORIC PRESERVATION CHARITABLE T", "city": "NEW YORK", "state": "NY", "zip": "10011-0000", "ntee": "C99", "ruling": "201309", "deductibility": "1", "assets": 0, "income": 0, "revenue": 0}, {"ein": "461807381", "name": "PS033M CHELSEA PREP PTA INC", "city": "NEW YORK", "state": "NY", "zip": "10001-5701", "ntee": "B11", "ruling": "201401", "deductibility": "1", "assets": 435148, "income": 367510, "revenue": 367510}, {"ein": "464082997", "name": "CHELSEA FILM FESTIVAL", "city": "NEW YORK", "state": "NY", "zip": "10002-4370", "ntee": "A99", "ruling": "201407", "deductibility": "1", "assets": 231616, "income": 144351, "revenue": 144351}, {"ein": "472812918", "name": "CHELSEA LEAF SOUTH HOUSING DEVELOPMENT FUND CORPORATION", "city": "NEW YORK", "state": "NY", "zip": "10010-2921", "ntee": "L20", "ruling": "202207", "deductibility": "2", "assets": 5746438, "income": 1427267, "revenue": 1427267}, {"ein": "510152330", "name": "CHELSEA SCHOOL OF FINE ART", "city": "BETHEL", "state": "NY", "zip": "12720-5515", "ntee": "A25", "ruling": "201201", "deductibility": "1", "assets": 0, "income": 0, "revenue": 0}, {"ein": "611712514", "name": "CHELSEA LEAF NORTH HOUSING DEVELOPMENT FUND CORPORATION", "city": "NEW YORK", "state": "NY", "zip": "10010-2921", "ntee": "L20", "ruling": "201409", "deductibility": "2", "assets": 3064905, "income": 1211737, "revenue": 1211737}, {"ein": "810738066", "name": "CHELSEA FAMILY FOUNDATION INC", "city": "NEW YORK", "state": "NY", "zip": "10024-3409", "ntee": "E01", "ruling": "201604", "deductibility": "1", "assets": 0, "income": 0, "revenue": 0}, {"ein": "823256143", "name": "TRINITY GRACE CHURCH CHELSEA", "city": "NEW YORK", "state": "NY", "zip": "10003-4277", "ntee": "X20", "ruling": "201906", "deductibility": "1", "assets": 0, "income": 0, "revenue": 0}, {"ein": "844350083", "name": "CHELSEA FIRE COMPANY", "city": "CHELSEA", "state": "NY", "zip": "12512-0061", "ntee": "M24", "ruling": "202407", "deductibility": "1", "assets": 0, "income": 0, "revenue": 0}, {"ein": "862026695", "name": "THE CHELSEA FACTORY INC", "city": "NEW YORK", "state": "NY", "zip": "10001-5503", "ntee": "A20", "ruling": "202203", "deductibility": "1", "assets": 7035924, "income": 4971642, "revenue": 4954408}, {"ein": "873197935", "name": "CHELSEA POLICY INSTITUTE", "city": "NEW YORK", "state": "NY", "zip": "10001-5902", "ntee": "A05", "ruling": "202201", "deductibility": "1", "assets": 0, "income": 0, "revenue": 0}], "HANINA": [{"ein": "133229188", "name": "ALFRED A & HANINA Z SHASHA FOUNDATION INC", "city": "HARRISON", "state": "NY", "zip": "10528-1609", "ntee": "", "ruling": "198802", "deductibility": "1", "assets": 3763701, "income": 144129, "revenue": 0}, {"ein": "473914414", "name": "BEIT HANINA CULTURAL CENTER INC", "city": "BROOKLYN", "state": "NY", "zip": "11209-4910", "ntee": "P20", "ruling": "201607", "deductibility": "1", "assets": 295222, "income": 252138, "revenue": 252138}], "PANAGIA": [{"ein": "133261180", "name": "PANAGIA SOUMELA PONTION AMERIKIS", "city": "ASTORIA", "state": "NY", "zip": "11105-5232", "ntee": "", "ruling": "198706", "deductibility": "2", "assets": 0, "income": 0, "revenue": 0}], "SOM": [{"ein": "133319142", "name": "HELP SOM-CHILD FOUNDATION INC", "city": "STATEN ISLAND", "state": "NY", "zip": "10308-3334", "ntee": "", "ruling": "198610", "deductibility": "1", "assets": 899118, "income": 215782, "revenue": 0}], "BONAYICH": [{"ein": "133329377", "name": "SHLOM BONAYICH GRADUATE INSTITUTE INC", "city": "BROOKLYN", "state": "NY", "zip": "11230-6044", "ntee": "", "ruling": "198611", "deductibility": "1", "assets": 0, "income": 0, "revenue": 0}, {"ein": "474740895", "name": "BANAYICH BONAYICH", "city": "NEW YORK", "state": "NY", "zip": "10065-8333", "ntee": "T50", "ruling": "202311", "deductibility": "1", "assets": 0, "income": 0, "revenue": 0}], "HORT": [{"ein": "133452771", "name": "METRO-HORT GROUP INC", "city": "NEW YORK", "state": "NY", "zip": "10185-1113", "ntee": "", "ruling": "199606", "deductibility": "2", "assets": 72039, "income": 42483, "revenue": 42483}, {"ein": "133879538", "name": "REMA HORT MANN FOUNDATION INC", "city": "NEW YORK", "state": "NY", "zip": "10013-2104", "ntee": "T99", "ruling": "199607", "deductibility": "1", "assets": 6246300, "income": 1144026, "revenue": 793324}], "REIGN": [{"ein": "133533992", "name": "REIGN OF CHRIST GOSPEL MINISTRIES- ASSEMBLY", "city": "STATEN ISLAND", "state": "NY", "zip": "10305-0050", "ntee": "", "ruling": "199302", "deductibility": "1", "assets": 0, "income": 0, "revenue": 0}, {"ein": "273555506", "name": "KINGDOM REIGN INTERNATIONAL", "city": "HAMLIN", "state": "NY", "zip": "14464-0145", "ntee": "X20", "ruling": "201601", "deductibility": "1", "assets": 0, "income": 0, "revenue": 0}, {"ein": "473472622", "name": "CAPITAL REGION REIGN SOFTBALL INC", "city": "ALBANY", "state": "NY", "zip": "12205-2530", "ntee": "N60", "ruling": "202406", "deductibility": "1", "assets": 0, "income": 0, "revenue": 0}, {"ein": "821069313", "name": "KINGDOM REIGN CHURCH OF BUFFALO", "city": "LACKAWANNA", "state": "NY", "zip": "14218-3514", "ntee": "X20", "ruling": "202112", "deductibility": "1", "assets": 0, "income": 0, "revenue": 0}, {"ein": "824186734", "name": "REIGN 4 LIFE", "city": "LEVITTOWN", "state": "NY", "zip": "11756-1551", "ntee": "B01", "ruling": "202309", "deductibility": "1", "assets": 26698, "income": 94741, "revenue": 0}], "PROGRAMMING": [{"ein": "133545233", "name": "BRONX COMMUNITY CABLE PROGRAMMING CORPORATION", "city": "BRONX", "state": "NY", "zip": "10468-1527", "ntee": "B90", "ruling": "199101", "deductibility": "1", "assets": 17826570, "income": 11816711, "revenue": 4585264}, {"ein": "300630329", "name": "NEW PARADIGM PROGRAMMING INC", "city": "NEW YORK", "state": "NY", "zip": "10013-1702", "ntee": "B99", "ruling": "201106", "deductibility": "1", "assets": 0, "income": 0, "revenue": 0}, {"ein": "880838737", "name": "LONELY WORM FARM ARTS AND AGRICULTURE PROGRAMMING INC", "city": "HYDE PARK", "state": "NY", "zip": "12538-3015", "ntee": "P82", "ruling": "202310", "deductibility": "1", "assets": 19347, "income": 96790, "revenue": 96790}], "INTERGENERATIONAL": [{"ein": "133632055", "name": "NEW YORK STATE INTERGENERATIONAL NETWORK", "city": "NEWYORK", "state": "NY", "zip": "10026-0000", "ntee": "P20Z", "ruling": "199303", "deductibility": "1", "assets": 0, "income": 0, "revenue": 0}, {"ein": "270132017", "name": "CO-OP CITY INTERGENERATIONAL OUTREACH CENTER INC", "city": "BRONX", "state": "NY", "zip": "10475-4975", "ntee": "W99", "ruling": "201407", "deductibility": "1", "assets": 0, "income": 0, "revenue": 0}, {"ein": "475068331", "name": "DRYDEN AREA INTERGENERATIONAL BAND AND CHORUS INCORPORATED", "city": "FREEVILLE", "state": "NY", "zip": "13068-0189", "ntee": "A6C", "ruling": "202204", "deductibility": "1", "assets": 0, "income": 0, "revenue": 0}, {"ein": "522373494", "name": "INTERGENERATIONAL STRATEGIES INC", "city": "GREAT NECK", "state": "NY", "zip": "11023-1742", "ntee": "B05", "ruling": "200211", "deductibility": "1", "assets": 0, "income": 0, "revenue": 0}, {"ein": "822602700", "name": "LEAD INTERGENERATIONAL SOLUTIONS INC", "city": "NEW YORK", "state": "NY", "zip": "10025-4358", "ntee": "W70", "ruling": "202008", "deductibility": "1", "assets": 1, "income": 68046, "revenue": 62410}, {"ein": "824444876", "name": "NEW YORK INTERGENERATIONAL ORCHESTRA INC", "city": "YONKERS", "state": "NY", "zip": "10705-4728", "ntee": "A69", "ruling": "201905", "deductibility": "1", "assets": 0, "income": 0, "revenue": 0}, {"ein": "831961938", "name": "WISDOM TO YOUTH INTERGENERATIONAL CENTERS FOR DEVELOPMENT & SUPPORT", "city": "CAMILLUS", "state": "NY", "zip": "13031-8704", "ntee": "P20", "ruling": "202103", "deductibility": "1", "assets": 0, "income": 0, "revenue": 0}, {"ein": "850788921", "name": "EBBETS FIELD INTERGENERATIONAL 21ST CENTURY INC", "city": "BROOKLYN", "state": "NY", "zip": "11225-2628", "ntee": "S20", "ruling": "202101", "deductibility": "1", "assets": 923, "income": 30000, "revenue": 30000}, {"ein": "862448516", "name": "INTERGENERATIONAL RESCUE FOUNDATION INC", "city": "STATEN ISLAND", "state": "NY", "zip": "10303-2110", "ntee": "A25", "ruling": "202106", "deductibility": "1", "assets": 0, "income": 0, "revenue": 0}, {"ein": "863218235", "name": "BELLE VOCI INTERGENERATIONAL CHORAL SOCIETY INC", "city": "HUNTINGTON", "state": "NY", "zip": "11743-3528", "ntee": "A68", "ruling": "202108", "deductibility": "1", "assets": 0, "income": 0, "revenue": 0}], "FINISHING": [{"ein": "133724146", "name": "FINISHING TRADES INSTITUTE OF NEW YORK", "city": "NEW YORK", "state": "NY", "zip": "10011-7419", "ntee": "B30", "ruling": "200507", "deductibility": "1", "assets": 25341879, "income": 6708515, "revenue": 4750748}, {"ein": "166070540", "name": "FINISHING TRADES INSTITUTE OF WESTERN AND CENTRAL NEW YORK", "city": "CHEEKTOWAGA", "state": "NY", "zip": "14225-1442", "ntee": "B30", "ruling": "197303", "deductibility": "1", "assets": 1555034, "income": 1523249, "revenue": 1440837}, {"ein": "311656942", "name": "DEVELOPMENT AND FINISHING INSTITUTE INC", "city": "NEW YORK", "state": "NY", "zip": "10029-3328", "ntee": "J20", "ruling": "199909", "deductibility": "1", "assets": 0, "income": 0, "revenue": 0}], "VINIAR": [{"ein": "133748089", "name": "VINIAR FAMILY FOUNDATION", "city": "NEW YORK", "state": "NY", "zip": "10274-0073", "ntee": "T31J", "ruling": "199412", "deductibility": "1", "assets": 7962603, "income": 5409125, "revenue": 0}], "SELASSIE": [{"ein": "133756410", "name": "THE CHURCH OF HAILE SELASSIE INC", "city": "BROOKLYN", "state": "NY", "zip": "11216-1506", "ntee": "X20", "ruling": "201702", "deductibility": "1", "assets": 0, "income": 0, "revenue": 0}, {"ein": "832245290", "name": "JAH RAS TAFARI EMPEROR HAILE SELASSIE I T R I O N INC", "city": "NEW YORK", "state": "NY", "zip": "10002-1370", "ntee": "S20", "ruling": "201902", "deductibility": "1", "assets": 0, "income": 0, "revenue": 0}], "RESTRUCTURING": [{"ein": "133908373", "name": "INTERNATIONAL WOMENS INSOLVENCY & RESTRUCTURING CONFEDERATION INC", "city": "NEW YORK", "state": "NY", "zip": "10036-0000", "ntee": "S41", "ruling": "200006", "deductibility": "0", "assets": 198889, "income": 85407, "revenue": 85407}], "GATTO": [{"ein": "133921102", "name": "JOSEPH AND SUSAN GATTO FOUNDATION", "city": "MELVILLE", "state": "NY", "zip": "11747-3146", "ntee": "T20Z", "ruling": "199802", "deductibility": "1", "assets": 7236097, "income": 329318, "revenue": 0}, {"ein": "934172908", "name": "GATTO VELOCE FOUNDATION INC", "city": "SARATOGA SPRINGS", "state": "NY", "zip": "12866-4362", "ntee": "O99", "ruling": "202312", "deductibility": "1", "assets": 0, "income": 0, "revenue": 0}], "FONDAZIONE": [{"ein": "133963603", "name": "FONDAZIONE BALDI DELLORDINE DI MALTA INC", "city": "NEW YORK", "state": "NY", "zip": "10017-2185", "ntee": "P99", "ruling": "199807", "deductibility": "1", "assets": 847619, "income": 0, "revenue": 0}], "DONMAR": [{"ein": "133971186", "name": "AMERICAN FRIENDS OF THE DONMAR THEATRE INC", "city": "HARRISON", "state": "NY", "zip": "10528-0000", "ntee": "T70", "ruling": "199804", "deductibility": "1", "assets": 890024, "income": 150342, "revenue": 150342}], "FAGENSON": [{"ein": "133980456", "name": "THE FAMILY FAGENSON FOUNDATION", "city": "NEW YORK", "state": "NY", "zip": "10022-4505", "ntee": "T20Z", "ruling": "199802", "deductibility": "1", "assets": 131664, "income": 47082, "revenue": 0}], "NEBELON": [{"ein": "134079776", "name": "ARMAGH THE REGISTRY OF ARCHDIOCESE OF NEBELON", "city": "NEW YORK", "state": "NY", "zip": "10163-3022", "ntee": "", "ruling": "194603", "deductibility": "1", "assets": 0, "income": 0, "revenue": 0}], "NOVOTNY": [{"ein": "134198911", "name": "BRIAN C NOVOTNY MEMORIAL SCHOLARSHIP FUND INC", "city": "NEW CITY", "state": "NY", "zip": "10956-5951", "ntee": "B82", "ruling": "200802", "deductibility": "1", "assets": 0, "income": 0, "revenue": 0}], "BIFIDA": [{"ein": "136015737", "name": "GREATER ROCHESTER NY SPINA BIFIDA ASSOCIATION", "city": "FAIRPORT", "state": "NY", "zip": "14450-0003", "ntee": "G20", "ruling": "202207", "deductibility": "1", "assets": 0, "income": 0, "revenue": 0}, {"ein": "141755885", "name": "SPINA BIFIDA ASSOCIATION OF NEW YORK STATE", "city": "SCOTIA", "state": "NY", "zip": "12302-0000", "ntee": "", "ruling": "199305", "deductibility": "1", "assets": 233722, "income": 261311, "revenue": 207426}, {"ein": "222417590", "name": "SPINA BIFIDA OF WESTERN NEW YORK INC", "city": "MIDDLEPORT", "state": "NY", "zip": "14105-9742", "ntee": "", "ruling": "198212", "deductibility": "1", "assets": 420211, "income": 319610, "revenue": 110467}], "MCCADDIN": [{"ein": "136134444", "name": "MCCADDIN-MCQUIRK FOUNDATION INC", "city": "HARRISON", "state": "NY", "zip": "10528-0000", "ntee": "", "ruling": "194604", "deductibility": "1", "assets": 4468294, "income": 1416435, "revenue": 0}], "JER": [{"ein": "136258134", "name": "AMERICAN COUNCIL OF REL & VOCATNL SCH SYS OF BETH JACOB OF JER INC", "city": "BROOKLYN", "state": "NY", "zip": "11230-0369", "ntee": "B58I", "ruling": "196803", "deductibility": "1", "assets": 1587324, "income": 4218917, "revenue": 4218917}], "ISLA": [{"ein": "136628436", "name": "VOLUNTEER HEART RESUSCITATION UNIT AND AMBULANCE CORPS OF STATEN ISLA", "city": "STATEN ISLAND", "state": "NY", "zip": "10306-0252", "ntee": "", "ruling": "197407", "deductibility": "1", "assets": 996182, "income": 85466, "revenue": 85466}, {"ein": "161063363", "name": "ISLA HOUSING AND DEVELOPMENT CORPORATION", "city": "ROCHESTER", "state": "NY", "zip": "14621-3339", "ntee": "L200", "ruling": "198203", "deductibility": "1", "assets": 740643, "income": 439397, "revenue": 439397}, {"ein": "863446048", "name": "NUESTRA ISLA INC", "city": "BLOOMINGDALE", "state": "NY", "zip": "12913-0187", "ntee": "Z99", "ruling": "202201", "deductibility": "1", "assets": 0, "income": 0, "revenue": 0}, {"ein": "994749546", "name": "ISLA JADE FOUNDATION INC", "city": "SOUND BEACH", "state": "NY", "zip": "11789-1214", "ntee": "E86", "ruling": "202409", "deductibility": "1", "assets": 0, "income": 0, "revenue": 0}], "KNICKERBACKER": [{"ein": "141338444", "name": "KNICKERBACKER & KNICKERBACKER", "city": "TROY", "state": "NY", "zip": "12180-0000", "ntee": "N32", "ruling": "202210", "deductibility": "1", "assets": 1567942, "income": 138405, "revenue": 138405}, {"ein": "146018562", "name": "TRUST UW JOHN KNICKERBACKER", "city": "BUFFALO", "state": "NY", "zip": "14240-4203", "ntee": "", "ruling": "190012", "deductibility": "0", "assets": 0, "income": 0, "revenue": 0}], "VECHTEN": [{"ein": "141469024", "name": "VAN VECHTEN CEMETERY ASSOCIATION", "city": "AMSTERDAM", "state": "NY", "zip": "12010-8712", "ntee": "Y50", "ruling": "201405", "deductibility": "1", "assets": 0, "income": 0, "revenue": 0}], "CATTLE": [{"ein": "146027037", "name": "NEW YORK STATE JERSEY CATTLE CLUB INC", "city": "COBLESKILL", "state": "NY", "zip": "12043-5131", "ntee": "", "ruling": "196310", "deductibility": "2", "assets": 40964, "income": 15068, "revenue": 15068}, {"ein": "300396293", "name": "AUSTRALIAN CATTLE DOG CLUB OF AMERICA INC", "city": "WINDSOR", "state": "NY", "zip": "13865-2438", "ntee": "D20", "ruling": "200703", "deductibility": "2", "assets": 91214, "income": 78546, "revenue": 78546}], "SEDGWICK": [{"ein": "156006748", "name": "SEDGWICK FARM TENNIS CLUB INC", "city": "SYRACUSE", "state": "NY", "zip": "13217-6668", "ntee": "N66", "ruling": "200710", "deductibility": "2", "assets": 42655, "income": 39148, "revenue": 39148}, {"ein": "272676056", "name": "SEDGWICK HOUSING DEVELOPMENT FUND COMPANY INC", "city": "NEW YORK", "state": "NY", "zip": "10018-8977", "ntee": "L21", "ruling": "201910", "deductibility": "1", "assets": 0, "income": 0, "revenue": 0}, {"ein": "814790104", "name": "EVE KOSOFSKY SEDGWICK FOUNDATION INC", "city": "NEW YORK", "state": "NY", "zip": "10011-0399", "ntee": "T22", "ruling": "201807", "deductibility": "1", "assets": 287269, "income": 50000, "revenue": 0}], "CASTORLAND": [{"ein": "156022440", "name": "CASTORLAND FIRE COMPANY INC", "city": "CASTORLAND", "state": "NY", "zip": "13620-0116", "ntee": "M24", "ruling": "201812", "deductibility": "1", "assets": 2651979, "income": 277896, "revenue": 264417}, {"ein": "161291082", "name": "CASTORLAND ASSOCIATES", "city": "CASTORLAND", "state": "NY", "zip": "13620-2332", "ntee": "L210", "ruling": "198902", "deductibility": "1", "assets": 578362, "income": 200935, "revenue": 200935}], "CIRCULATING": [{"ein": "160769643", "name": "CUBA CIRCULATING LIBRARY ASSOC", "city": "CUBA", "state": "NY", "zip": "14727-1207", "ntee": "B71Z", "ruling": "194505", "deductibility": "1", "assets": 1737679, "income": 565800, "revenue": 565800}, {"ein": "166041418", "name": "WYOMING FREE CIRCULATING LIBRARY ASSOCIATION", "city": "WYOMING", "state": "NY", "zip": "14591-9728", "ntee": "B70J", "ruling": "199610", "deductibility": "1", "assets": 161565, "income": 78165, "revenue": 78165}], "CENTENARY": [{"ein": "160805152", "name": "CENTENARY UNITED METHODIST CHURCH", "city": "BATH", "state": "NY", "zip": "14810-1529", "ntee": "", "ruling": "197410", "deductibility": "1", "assets": 0, "income": 0, "revenue": 0}, {"ein": "166185004", "name": "TRUST UWO MURRAY WALKER PAR 3 FBO CENTENARY UNITED CHURCH", "city": "PITTSFORD", "state": "NY", "zip": "14534-3838", "ntee": "T22", "ruling": "200907", "deductibility": "1", "assets": 153066, "income": 18649, "revenue": 0}], "CORDELIA": [{"ein": "160821834", "name": "CORDELIA A GREENE LIBRARY", "city": "CASTILE", "state": "NY", "zip": "14427-0000", "ntee": "", "ruling": "199311", "deductibility": "1", "assets": 625346, "income": 134274, "revenue": 134274}, {"ein": "881659567", "name": "FRED AND CORDELIA BANNY FOUNDATION INC", "city": "WEST BABYLON", "state": "NY", "zip": "11704-7304", "ntee": "O53", "ruling": "202211", "deductibility": "1", "assets": 0, "income": 0, "revenue": 0}], "CONSUMERS": [{"ein": "160972260", "name": "CONSUMERS CREDIT COUNSELING SERVICE OF ROCHESTER INC", "city": "ROCHESTER", "state": "NY", "zip": "14607-1744", "ntee": "P51", "ruling": "202007", "deductibility": "1", "assets": 7763279, "income": 3929593, "revenue": 3377744}, {"ein": "237281065", "name": "FUNERAL CONSUMERS ALLIANCE OF THE HUDSON VALLEY INC", "city": "WAPPINGERS FL", "state": "NY", "zip": "12590-4619", "ntee": "", "ruling": "198905", "deductibility": "1", "assets": 0, "income": 0, "revenue": 0}, {"ein": "510147294", "name": "FUNERAL CONSUMERS ALLIANCE OF GREATER ROCHESTER INC", "city": "ROCHESTER", "state": "NY", "zip": "14617-8162", "ntee": "B99", "ruling": "200611", "deductibility": "1", "assets": 0, "income": 0, "revenue": 0}, {"ein": "800121347", "name": "NEW YORK ENERGY CONSUMERS COUNCIL INC", "city": "NEW YORK", "state": "NY", "zip": "10119-2214", "ntee": "S41", "ruling": "200412", "deductibility": "2", "assets": 462209, "income": 447890, "revenue": 447890}], "LINDAU": [{"ein": "161020704", "name": "LINDAU FOUNDATION INC", "city": "ELMIRA", "state": "NY", "zip": "14905-1416", "ntee": "", "ruling": "197402", "deductibility": "1", "assets": 988753, "income": 484847, "revenue": 0}], "BITLEY": [{"ein": "161122204", "name": "BITLEY CEMETERY ASSOCIATION", "city": "PENN YAN", "state": "NY", "zip": "14527-8822", "ntee": "Y50", "ruling": "201510", "deductibility": "1", "assets": 0, "income": 0, "revenue": 0}], "MACOMB": [{"ein": "161242163", "name": "MACOMB HISTORICAL ASSOCIATION", "city": "HAMMOND", "state": "NY", "zip": "13646-4161", "ntee": "A50", "ruling": "201807", "deductibility": "1", "assets": 0, "income": 0, "revenue": 0}], "MATUTINA": [{"ein": "161399369", "name": "STELLA MATUTINA FOUNDATION INC", "city": "ROCHESTER", "state": "NY", "zip": "14604-0000", "ntee": "", "ruling": "199111", "deductibility": "1", "assets": 3221085, "income": 1495615, "revenue": 0}], "ELIBOMWONS": [{"ein": "161414644", "name": "ELIBOMWONS INC", "city": "RANDOLPH", "state": "NY", "zip": "14772-9429", "ntee": "N32", "ruling": "200903", "deductibility": "1", "assets": 210478, "income": 39547, "revenue": 39547}], "SUPPLY": [{"ein": "161438191", "name": "NATIONAL FUEL GAS CO HLTH & WELFARE TRUST FOR SUPPLY CORP & PENN YORK", "city": "WILLIAMSVILLE", "state": "NY", "zip": "14221-5855", "ntee": "Y43", "ruling": "200506", "deductibility": "2", "assets": 29892154, "income": 1847963, "revenue": 1847963}, {"ein": "161440168", "name": "NATIONAL FUEL GAS SUPPLY CORP & PENN YORK ENERGY CORP VOL EMP BENE", "city": "WILLIAMSVILLE", "state": "NY", "zip": "14221-5855", "ntee": "", "ruling": "199309", "deductibility": "2", "assets": 56798956, "income": 3626965, "revenue": 3626965}, {"ein": "161535408", "name": "WESTERN DISTRICT MISSIONARY BAPTIST RELIGIOUS SUPPLY HOUSE INC", "city": "BUFFALO", "state": "NY", "zip": "14211-1206", "ntee": "X20Z", "ruling": "199808", "deductibility": "1", "assets": 0, "income": 0, "revenue": 0}, {"ein": "270911651", "name": "FRIENDS OF THE FISHKILL SUPPLY DEPOT INC", "city": "FISHKILL", "state": "NY", "zip": "12524-0311", "ntee": "A84", "ruling": "201101", "deductibility": "1", "assets": 4604, "income": 3129, "revenue": 3129}, {"ein": "472042965", "name": "INTERNATIONAL MEDICAL SUPPLY AND SOCIAL DEVELOPMENT INC", "city": "BRONX", "state": "NY", "zip": "10463-5598", "ntee": "A23", "ruling": "201805", "deductibility": "1", "assets": 0, "income": 0, "revenue": 0}, {"ein": "562489318", "name": "ABUNDANT SUPPLY MINISTRIES INC", "city": "BRONX", "state": "NY", "zip": "10466-2101", "ntee": "X21", "ruling": "201605", "deductibility": "1", "assets": 99708, "income": 30, "revenue": 30}, {"ein": "810732459", "name": "RIVERHEAD BUILDING SUPPLY CHARITABLE FOUNDATION INC", "city": "CALVERTON", "state": "NY", "zip": "11933-3052", "ntee": "T50", "ruling": "201604", "deductibility": "1", "assets": 1441356, "income": 248401, "revenue": 0}, {"ein": "845010884", "name": "OPEN SUPPLY HUB INC", "city": "HUDSON", "state": "NY", "zip": "12534-1201", "ntee": "Q70", "ruling": "202206", "deductibility": "1", "assets": 3500328, "income": 3333366, "revenue": 3333366}, {"ein": "872449873", "name": "DONATION SUPPLY INC", "city": "EAST MEADOW", "state": "NY", "zip": "11554-1558", "ntee": "T12", "ruling": "202311", "deductibility": "1", "assets": 0, "income": 0, "revenue": 0}], "BALBACH": [{"ein": "161542054", "name": "BALBACH FAMILY FOUNDATION", "city": "ORCHARD PARK", "state": "NY", "zip": "14127-0423", "ntee": "T20Z", "ruling": "199808", "deductibility": "1", "assets": 2226070, "income": 167657, "revenue": 0}], "INQUIRY": [{"ein": "161553194", "name": "CENTER FOR INQUIRY DEVELOPMENT FUND", "city": "AMHERST", "state": "NY", "zip": "14228-2743", "ntee": "T20Z", "ruling": "199812", "deductibility": "1", "assets": 32460035, "income": 943698, "revenue": 863976}, {"ein": "222306795", "name": "CENTER FOR INQUIRY INC", "city": "AMHERST", "state": "NY", "zip": "14228-2743", "ntee": "A70", "ruling": "200104", "deductibility": "1", "assets": 5588342, "income": 5911755, "revenue": 5443648}, {"ein": "271299073", "name": "BROOKLYN SCHOOL OF INQUIRY PTO", "city": "BROOKLYN", "state": "NY", "zip": "11204-6105", "ntee": "B94", "ruling": "201004", "deductibility": "1", "assets": 348913, "income": 323001, "revenue": 323001}, {"ein": "332138091", "name": "FOUNDATION FOR INQUIRY KNOWLEDGE AND REVIVAL INC", "city": "JAMAICA", "state": "NY", "zip": "11436-1217", "ntee": "A70", "ruling": "202503", "deductibility": "1", "assets": 0, "income": 0, "revenue": 0}, {"ein": "452414215", "name": "INSTITUTE ON DESCRIPTIVE INQUIRY INC", "city": "BROOKLYN", "state": "NY", "zip": "11216-4108", "ntee": "B03", "ruling": "201411", "deductibility": "1", "assets": 30434, "income": 34459, "revenue": 0}, {"ein": "471284283", "name": "CHARTER SCHOOL OF INQUIRY", "city": "BUFFALO", "state": "NY", "zip": "14215-2936", "ntee": "B24", "ruling": "201504", "deductibility": "1", "assets": 5269362, "income": 5337703, "revenue": 5337703}, {"ein": "813406914", "name": "FRIENDS OF WORLD OF INQUIRY INC", "city": "ROCHESTER", "state": "NY", "zip": "14618-1431", "ntee": "B12", "ruling": "202408", "deductibility": "1", "assets": 0, "income": 0, "revenue": 0}, {"ein": "822244722", "name": "SOCIAL INQUIRY INC", "city": "BROOKLYN", "state": "NY", "zip": "11201-4410", "ntee": "Q32", "ruling": "201907", "deductibility": "1", "assets": 25330, "income": 135894, "revenue": 135894}, {"ein": "933190092", "name": "NEW YORK CITY SELF-INQUIRY CIRCLE INC", "city": "NEW YORK", "state": "NY", "zip": "10027-4704", "ntee": "P99", "ruling": "202309", "deductibility": "1", "assets": 0, "income": 0, "revenue": 0}], "TOURISTEN": [{"ein": "166051878", "name": "ROCHESTER TOURISTEN VEREIN INC", "city": "LIMA", "state": "NY", "zip": "14485-9615", "ntee": "N50", "ruling": "201103", "deductibility": "2", "assets": 210502, "income": 92091, "revenue": 11440}], "HEMLOCK": [{"ein": "166052922", "name": "HEMLOCK LAKE UNION AGRICULTURAL SOCIETY", "city": "HEMLOCK", "state": "NY", "zip": "14466-0263", "ntee": "N52", "ruling": "200011", "deductibility": "1", "assets": 1053350, "income": 790884, "revenue": 790884}, {"ein": "510637863", "name": "HEMLOCK VOLUNTEER FIRE DEPARTMENT", "city": "HEMLOCK", "state": "NY", "zip": "14466-0396", "ntee": "M24", "ruling": "201412", "deductibility": "1", "assets": 0, "income": 0, "revenue": 0}], "SAVER": [{"ein": "201274640", "name": "LIFE SAVER MINISTRIES INC", "city": "GLOVERSVILLE", "state": "NY", "zip": "12078-4339", "ntee": "P30", "ruling": "200502", "deductibility": "1", "assets": 270937, "income": 175442, "revenue": 175442}], "THEOSOPHY": [{"ein": "201339254", "name": "THEOSOPHY COMPANY-NEW YORK INC", "city": "NEW YORK", "state": "NY", "zip": "10021-4602", "ntee": "X19", "ruling": "201712", "deductibility": "1", "assets": 0, "income": 0, "revenue": 0}], "GUATAMALA": [{"ein": "203218506", "name": "CHURCH OF GOD IN CHRIST GUATAMALA JURISDICTION", "city": "MEDFORD LANE", "state": "NY", "zip": "11763-1371", "ntee": "X20", "ruling": "200611", "deductibility": "1", "assets": 0, "income": 0, "revenue": 0}, {"ein": "845001123", "name": "CHABAD PEDRO GUATAMALA INC", "city": "BROOKLYN", "state": "NY", "zip": "11213-2617", "ntee": "X30", "ruling": "202004", "deductibility": "1", "assets": 5308, "income": 228011, "revenue": 228011}], "CHURCHINTERNATIONAL": [{"ein": "204289014", "name": "RESURRECTION DELIVERANCE CHURCHINTERNATIONAL INC", "city": "YONKERS", "state": "NY", "zip": "10705-0272", "ntee": "X21", "ruling": "201709", "deductibility": "1", "assets": 0, "income": 0, "revenue": 0}], "ATRIVERDALE": [{"ein": "204352212", "name": "HEBREW HOME FOR THE AGED ATRIVERDALE FOUNDATION INC", "city": "BRONX", "state": "NY", "zip": "10471-1205", "ntee": "I122", "ruling": "200606", "deductibility": "1", "assets": 67039928, "income": 19723026, "revenue": 8541307}], "BEGONIA": [{"ein": "204732813", "name": "ALEXANDER BEGONIA FOUNDATION", "city": "FLORAL PARK", "state": "NY", "zip": "11001-2201", "ntee": "P12", "ruling": "201907", "deductibility": "1", "assets": 0, "income": 0, "revenue": 0}, {"ein": "831257337", "name": "AMERICAN BEGONIA SOCIETY", "city": "NEW YORK", "state": "NY", "zip": "10113-2034", "ntee": "", "ruling": "197706", "deductibility": "0", "assets": 0, "income": 0, "revenue": 0}], "SINAGOGE": [{"ein": "205034746", "name": "FRESH MEADOWS BUKHARIAN SINAGOGE", "city": "FRESH MEADOWS", "state": "NY", "zip": "11365-3342", "ntee": "X30", "ruling": "200711", "deductibility": "1", "assets": 0, "income": 0, "revenue": 0}], "METASTATIC": [{"ein": "205545238", "name": "METASTATIC BREAST CANCER NETWORK INC", "city": "NEW YORK", "state": "NY", "zip": "10036-0000", "ntee": "G30", "ruling": "200703", "deductibility": "1", "assets": 27601, "income": 15552, "revenue": 15552}, {"ein": "844137358", "name": "GITTY FOUNDATION FOR METASTATIC BREAST CANCER RESEARCH", "city": "SCARSDALE", "state": "NY", "zip": "10583-4314", "ntee": "E12", "ruling": "202206", "deductibility": "1", "assets": 0, "income": 0, "revenue": 0}], "ENDWELLINC": [{"ein": "205580506", "name": "GOOD SHEPHERD VILLAGE AT ENDWELLINC", "city": "ENDWELL", "state": "NY", "zip": "13760-1062", "ntee": "L22", "ruling": "200707", "deductibility": "1", "assets": 75934147, "income": 18329995, "revenue": 18329995}], "CONSORTI": [{"ein": "205988744", "name": "WASHINGTON SARATOGA WARREN HAMILTONESSEX COUNTIES HEALTH INS CONSORTI", "city": "HUDSON FALLS", "state": "NY", "zip": "12839-1435", "ntee": "Y44", "ruling": "200710", "deductibility": "2", "assets": 47902786, "income": 157220568, "revenue": 157220568}], "YMA": [{"ein": "208513748", "name": "YMA FASHION SCHOLARSHIP FUND", "city": "NEW YORK", "state": "NY", "zip": "10001-2538", "ntee": "B82", "ruling": "200706", "deductibility": "1", "assets": 26155903, "income": 51792507, "revenue": 3364215}], "ARISTROCRATS": [{"ein": "222581855", "name": "FRANKLINVILLE ARISTROCRATS INC CHAPTER 1517 100B", "city": "FRANKLINVILLE", "state": "NY", "zip": "14737-1124", "ntee": "", "ruling": "199807", "deductibility": "2", "assets": 347503, "income": 817605, "revenue": 180125}], "COMMUN": [{"ein": "237436147", "name": "ALPHA PHI ALPHA SENIOR CITIZENS CENTER INC CAMBRIA HEIGHTS COMMUN", "city": "CAMBRIA HTS", "state": "NY", "zip": "11411-1620", "ntee": "", "ruling": "197506", "deductibility": "1", "assets": 1299752, "income": 1169623, "revenue": 1169623}], "FLUKE": [{"ein": "256523497", "name": "FLORENCE H FLUKE TW FBO BETHANY VILLAGE CARE ASSURANCE FUND TR", "city": "BUFFALO", "state": "NY", "zip": "14240-1504", "ntee": "T112", "ruling": "200106", "deductibility": "1", "assets": 374219, "income": 117919, "revenue": 0}, {"ein": "256523498", "name": "FLORENCE H FLUKE TW FBO GRACE UNITED METHODIST CHURCH TRUST", "city": "BUFFALO", "state": "NY", "zip": "14240-1504", "ntee": "T112", "ruling": "200106", "deductibility": "1", "assets": 354332, "income": 109734, "revenue": 0}], "TRAVELLED": [{"ein": "260547399", "name": "TRAVELLED RHODES INTERNATIONALSCULPTOR ARTS GARDEN INC", "city": "BROOKLYN", "state": "NY", "zip": "11216-1586", "ntee": "A40", "ruling": "200807", "deductibility": "1", "assets": 0, "income": 0, "revenue": 0}], "RESISTOR": [{"ein": "261344782", "name": "NYC RESISTOR", "city": "BROOKLYN", "state": "NY", "zip": "11217-2315", "ntee": "", "ruling": "202210", "deductibility": "1", "assets": 1938, "income": 91462, "revenue": 0}], "REALIZING": [{"ein": "261874247", "name": "REALIZING THE CHANGE FOUNDATION", "city": "WAPPINGERS FL", "state": "NY", "zip": "12590-2750", "ntee": "S20", "ruling": "201504", "deductibility": "1", "assets": 0, "income": 0, "revenue": 0}], "BENAZIR": [{"ein": "263365217", "name": "BENAZIR BHUTTO FOUNDATION INC", "city": "NEW YORK", "state": "NY", "zip": "10016-2912", "ntee": "T20", "ruling": "201001", "deductibility": "1", "assets": 0, "income": 0, "revenue": 0}], "CRAWFISH": [{"ein": "264819150", "name": "CRAWFISH FOR CANCER INC", "city": "NEW YORK", "state": "NY", "zip": "10128-2019", "ntee": "H12", "ruling": "201101", "deductibility": "1", "assets": 0, "income": 0, "revenue": 0}], "RELEASED": [{"ein": "270745919", "name": "RELIGIOUS RELEASED TIME EDUCATION INC", "city": "MONROE", "state": "NY", "zip": "10950-2604", "ntee": "Z99", "ruling": "201407", "deductibility": "1", "assets": 0, "income": 0, "revenue": 0}, {"ein": "830879561", "name": "NEWLY RELEASED INC", "city": "BROOKLYN", "state": "NY", "zip": "11215-1783", "ntee": "X99", "ruling": "201811", "deductibility": "1", "assets": 0, "income": 0, "revenue": 0}], "TANNENBAUM": [{"ein": "271503689", "name": "MILLS TANNENBAUM FOUNDATION INC", "city": "NEW YORK", "state": "NY", "zip": "10001-6809", "ntee": "T20", "ruling": "201311", "deductibility": "1", "assets": 4882747, "income": 512681, "revenue": 0}, {"ein": "611633647", "name": "TANNENBAUM FAMILY FOUNDATION", "city": "W HEMPSTEAD", "state": "NY", "zip": "11552-2436", "ntee": "T22", "ruling": "201606", "deductibility": "1", "assets": 179025, "income": 188549, "revenue": 0}], "ERLICH": [{"ein": "272206232", "name": "JAMI ERLICH SUNSHINE MEMORIAL FUND INC", "city": "NEW CITY", "state": "NY", "zip": "10956-2903", "ntee": "B82", "ruling": "201105", "deductibility": "1", "assets": 5131, "income": 73, "revenue": 0}], "HOAMOKIM": [{"ein": "272975964", "name": "SHOSHANAS HOAMOKIM", "city": "VALLEY STREAM", "state": "NY", "zip": "11580-5341", "ntee": "Q33", "ruling": "201207", "deductibility": "1", "assets": 23280, "income": 919114, "revenue": 919114}], "NYSIR": [{"ein": "273300142", "name": "NYSIR FOUNDATION INC", "city": "UNIONDALE", "state": "NY", "zip": "11553-3609", "ntee": "B82", "ruling": "201102", "deductibility": "1", "assets": 47206, "income": 74950, "revenue": 74950}], "JAHN": [{"ein": "273696238", "name": "JAHN AND SABRINA LEVIN CHARITABLE FOUNDATION", "city": "OLD WESTBURY", "state": "NY", "zip": "11568-1150", "ntee": "T21", "ruling": "201101", "deductibility": "1", "assets": 3991309, "income": 5830901, "revenue": 0}], "PANELIAKOS": [{"ein": "274718656", "name": "PANELIAKOS SOCIETY CHARITIES INC", "city": "MERRICK", "state": "NY", "zip": "11566-4613", "ntee": "P60", "ruling": "201407", "deductibility": "1", "assets": 56723, "income": 3794, "revenue": 3794}], "SADILKA": [{"ein": "275013812", "name": "SADILKA FOUNDATION INC", "city": "LARCHMONT", "state": "NY", "zip": "10538-1037", "ntee": "E99", "ruling": "201209", "deductibility": "1", "assets": 0, "income": 0, "revenue": 0}], "SUSSEX": [{"ein": "311506862", "name": "FRIENDS OF THE UNIVERSITY OF SUSSEX", "city": "NEW YORK", "state": "NY", "zip": "10019-4703", "ntee": "Q113", "ruling": "199708", "deductibility": "1", "assets": 618847, "income": 3847435, "revenue": 3833628}], "FELICIA": [{"ein": "331236301", "name": "FELICIA CHILDRENS CENTER FOUNDATION", "city": "NEW YORK", "state": "NY", "zip": "10011-8271", "ntee": "T50", "ruling": "202506", "deductibility": "1", "assets": 0, "income": 0, "revenue": 0}, {"ein": "453477492", "name": "FELICIA ABOAGYE EMPOWERMENT SERVICES INC", "city": "BRONX", "state": "NY", "zip": "10456-4019", "ntee": "Q33", "ruling": "201312", "deductibility": "1", "assets": 1500, "income": 0, "revenue": 0}, {"ein": "823268898", "name": "JEREMIAH & FELICIA ADEROJU FOUNDATION INC", "city": "BROOKLYN", "state": "NY", "zip": "11236-4915", "ntee": "P20", "ruling": "202009", "deductibility": "1", "assets": 0, "income": 0, "revenue": 0}, {"ein": "845065986", "name": "FELICIA ONYEZIE SOCIAL SERVICES", "city": "QUEENS VLG", "state": "NY", "zip": "11429-1047", "ntee": "F60", "ruling": "202410", "deductibility": "1", "assets": 0, "income": 0, "revenue": 0}], "PAMSULA": [{"ein": "331687331", "name": "PAMSULA ZEN CENTER INC", "city": "NEW YORK", "state": "NY", "zip": "10032-4674", "ntee": "B99", "ruling": "202505", "deductibility": "1", "assets": 0, "income": 0, "revenue": 0}], "WEDEFINED": [{"ein": "331980675", "name": "WEDEFINED HOUSING FOUNDATION INC", "city": "NEW YORK", "state": "NY", "zip": "10003-1502", "ntee": "S31", "ruling": "202411", "deductibility": "1", "assets": 0, "income": 0, "revenue": 0}], "PVA": [{"ein": "334576930", "name": "EMPIRE STATE PVA INC", "city": "NEW YORK", "state": "NY", "zip": "10029-0390", "ntee": "P12", "ruling": "202506", "deductibility": "1", "assets": 0, "income": 0, "revenue": 0}], "ROOFTOP": [{"ein": "352323897", "name": "ROOFTOP FILMS INC", "city": "BROOKLYN", "state": "NY", "zip": "11215-2700", "ntee": "A31", "ruling": "200906", "deductibility": "1", "assets": 634590, "income": 1795806, "revenue": 1852528}], "CARDIAC": [{"ein": "431542375", "name": "CARDIAC ELECTROPHYSIOLOGY SOCIETY", "city": "UTICA", "state": "NY", "zip": "13501-6535", "ntee": "", "ruling": "199101", "deductibility": "1", "assets": 142984, "income": 7800, "revenue": 7800}], "300TH": [{"ein": "450789745", "name": "MIDDLEBURGH 300TH ANNIVERSARY INC", "city": "SCHOHARIE", "state": "NY", "zip": "12157-3717", "ntee": "A84", "ruling": "201108", "deductibility": "1", "assets": 0, "income": 0, "revenue": 0}], "TBI": [{"ein": "453027739", "name": "ALLIANCE OF TBI & NHTD WAIVER PROVIDERS INC", "city": "ALBANY", "state": "NY", "zip": "12207-0000", "ntee": "S41", "ruling": "201211", "deductibility": "2", "assets": 56878, "income": 260770, "revenue": 260770}, {"ein": "811806266", "name": "MIND OVER MATTER SPORTS RELATED TBI AWARENESS INC", "city": "WOODBURY", "state": "NY", "zip": "11797-1015", "ntee": "P20", "ruling": "202408", "deductibility": "1", "assets": 0, "income": 0, "revenue": 0}], "LIVELIHOOD": [{"ein": "453456204", "name": "INTERNATIONAL SUSTAINABLE LIVELIHOOD FOUNDATION INCORPORATED", "city": "GETZVILLE", "state": "NY", "zip": "14068-1415", "ntee": "Q33", "ruling": "201301", "deductibility": "1", "assets": 0, "income": 0, "revenue": 0}, {"ein": "455005942", "name": "LIVELIHOOD BASIX INC", "city": "ITHACA", "state": "NY", "zip": "14850-2236", "ntee": "Q30", "ruling": "202004", "deductibility": "1", "assets": 306199, "income": 118, "revenue": 0}, {"ein": "814782072", "name": "SUSTAINABILITY AND LIVELIHOOD RESEARCH ORGANIZATION INSTITUTE", "city": "MOUNT VERNON", "state": "NY", "zip": "10550-2017", "ntee": "S19", "ruling": "201905", "deductibility": "1", "assets": 0, "income": 0, "revenue": 0}], "KAK": [{"ein": "455089916", "name": "KAK HWANG ZEN CENTER", "city": "FLUSHING", "state": "NY", "zip": "11358-3651", "ntee": "X50", "ruling": "201306", "deductibility": "1", "assets": 220889, "income": 735431, "revenue": 735431}], "HAUNTED": [{"ein": "455240789", "name": "ANDOVER HAUNTED HOUSE FOUNDATION INC", "city": "ANDOVER", "state": "NY", "zip": "14806-0415", "ntee": "N99", "ruling": "201704", "deductibility": "1", "assets": 243129, "income": 107792, "revenue": 107792}, {"ein": "993171011", "name": "MEDFORD HAUNTED HOUSE INC", "city": "MIDDLE ISLAND", "state": "NY", "zip": "11953-1411", "ntee": "W99", "ruling": "202406", "deductibility": "1", "assets": 0, "income": 0, "revenue": 0}], "THRANGU": [{"ein": "460630635", "name": "THRANGU LHAKSAM TSOKPA INC", "city": "JACKSON HTS", "state": "NY", "zip": "11372-1837", "ntee": "X50", "ruling": "202501", "deductibility": "1", "assets": 6130, "income": 6130, "revenue": 6130}], "BACK2GENESIS": [{"ein": "461921680", "name": "BACK2GENESIS INC", "city": "MINOA", "state": "NY", "zip": "13116-1135", "ntee": "X81", "ruling": "201311", "deductibility": "1", "assets": 46059, "income": 31427, "revenue": 31427}], "SCOGS": [{"ein": "463278330", "name": "TOMMY SCOGS FOUNDATION INC", "city": "ORANGEBURG", "state": "NY", "zip": "10962-1015", "ntee": "T90", "ruling": "201405", "deductibility": "1", "assets": 0, "income": 0, "revenue": 0}], "SUNGHWA": [{"ein": "464661406", "name": "SUNGHWA KOREAN METHODIST CHURCH OF NEW YORK", "city": "FLUSHING", "state": "NY", "zip": "11354-3108", "ntee": "X21", "ruling": "201409", "deductibility": "1", "assets": 0, "income": 0, "revenue": 0}], "VERTULLO": [{"ein": "465283249", "name": "FRANK & MICHAEL VERTULLO FAITH & HOPE FOUNDATION INC", "city": "COMMACK", "state": "NY", "zip": "11725-1927", "ntee": "B82", "ruling": "201612", "deductibility": "1", "assets": 29000, "income": 58742, "revenue": 33198}], "TLG": [{"ein": "472586309", "name": "TLG FAMILY FOUNDATION INC", "city": "NEW ROCHELLE", "state": "NY", "zip": "10804-4406", "ntee": "T20", "ruling": "201504", "deductibility": "1", "assets": 829194, "income": 3445778, "revenue": 0}], "WARRIN": [{"ein": "473144250", "name": "WARRIN WRECKING DOLLS", "city": "JAMESTOWN", "state": "NY", "zip": "14701-3961", "ntee": "N60", "ruling": "201603", "deductibility": "1", "assets": 0, "income": 0, "revenue": 0}], "CTZNWELL": [{"ein": "473286184", "name": "CTZNWELL INSTITUTE", "city": "NEW YORK", "state": "NY", "zip": "10011-0002", "ntee": "E70", "ruling": "201603", "deductibility": "1", "assets": 27225, "income": 15028, "revenue": 15028}], "AFLOAT": [{"ein": "473461026", "name": "CLASS AFLOAT FOUNDATION - USA INC", "city": "GLENVILLE", "state": "NY", "zip": "12302-4706", "ntee": "T30", "ruling": "201506", "deductibility": "1", "assets": 545, "income": 465, "revenue": 465}], "ROT": [{"ein": "473925112", "name": "BK ROT INC", "city": "BROOKLYN", "state": "NY", "zip": "11237-0538", "ntee": "C27", "ruling": "201508", "deductibility": "1", "assets": 465590, "income": 608259, "revenue": 608259}, {"ein": "832614900", "name": "JOSEPH M ROT FOUNDATION INC", "city": "HAUPPAUGE", "state": "NY", "zip": "11788-3101", "ntee": "P50", "ruling": "201812", "deductibility": "1", "assets": 0, "income": 0, "revenue": 0}], "HEARTY": [{"ein": "474037429", "name": "HEARTY START INC", "city": "NEW YORK", "state": "NY", "zip": "10001-5703", "ntee": "K30", "ruling": "201506", "deductibility": "1", "assets": 6531, "income": 20287, "revenue": 20287}, {"ein": "921895666", "name": "HEARTY HELPINGS INC", "city": "BUFFALO", "state": "NY", "zip": "14206-2368", "ntee": "K30", "ruling": "202307", "deductibility": "1", "assets": 3159823, "income": 5677102, "revenue": 5677102}], "BALLGAME": [{"ein": "475601145", "name": "TAKE ME OUT TO THE BALLGAME FOUNDATION INC", "city": "SEAFORD", "state": "NY", "zip": "11783-2007", "ntee": "O12", "ruling": "201512", "deductibility": "1", "assets": 0, "income": 0, "revenue": 0}], "ALTOS": [{"ein": "521281651", "name": "ALTOS DE CHAVON CULTURAL CENTER FOUNDATION", "city": "NEW YORK", "state": "NY", "zip": "10019-3311", "ntee": "A20I", "ruling": "198303", "deductibility": "1", "assets": 179834, "income": 2267804, "revenue": 2267804}], "CUYAHOGA": [{"ein": "531331295", "name": "DIV NO 5-10 LADIES ANCIENT ORDER OF HIBERNIANS INC OF CUYAHOGA", "city": "BROOKLYN", "state": "NY", "zip": "11229-4111", "ntee": "Y42", "ruling": "201611", "deductibility": "1", "assets": 0, "income": 0, "revenue": 0}], "ENHANCES": [{"ein": "562517623", "name": "JEFFERSONVILLE ENHANCES MORE OF SULLIVAN INC", "city": "JEFFERSONVLLE", "state": "NY", "zip": "12748-0445", "ntee": "C30", "ruling": "200704", "deductibility": "1", "assets": 0, "income": 0, "revenue": 0}], "AMPLIFIED": [{"ein": "612211154", "name": "LIVES AMPLIFIED FOUNDATION INC", "city": "NEW YORK", "state": "NY", "zip": "10111-3193", "ntee": "B90", "ruling": "202410", "deductibility": "1", "assets": 0, "income": 0, "revenue": 0}, {"ein": "812108395", "name": "GENDER AMPLIFIED", "city": "NEW YORK", "state": "NY", "zip": "10019-7590", "ntee": "A68", "ruling": "201801", "deductibility": "1", "assets": 64829, "income": 100000, "revenue": 100000}], "SALADINO": [{"ein": "770614347", "name": "ANGELA SALADINO-HEIL MINISTRIES INC", "city": "CORAM", "state": "NY", "zip": "11727-3121", "ntee": "X20", "ruling": "200409", "deductibility": "1", "assets": 0, "income": 0, "revenue": 0}], "EDIFICASA": [{"ein": "810714537", "name": "EDIFICASA INC", "city": "FOREST HILLS", "state": "NY", "zip": "11375-5607", "ntee": "Q70", "ruling": "201703", "deductibility": "1", "assets": 0, "income": 0, "revenue": 0}], "FUTSC": [{"ein": "811353247", "name": "FUTSC INC", "city": "MAYFIELD", "state": "NY", "zip": "12117-0692", "ntee": "N64", "ruling": "201608", "deductibility": "1", "assets": 0, "income": 0, "revenue": 0}], "MGW": [{"ein": "812957405", "name": "MGW FOUNDATION INC", "city": "BROOKLYN", "state": "NY", "zip": "11210-3619", "ntee": "T20", "ruling": "201703", "deductibility": "1", "assets": 94322, "income": 275000, "revenue": 0}], "ENGAGE": [{"ein": "813611658", "name": "SOCIALIZE EMPOWER ENGAGE NETWORK INC S E E N", "city": "BROOKLYN", "state": "NY", "zip": "11216-3772", "ntee": "S80", "ruling": "201609", "deductibility": "1", "assets": 0, "income": 0, "revenue": 0}, {"ein": "814081304", "name": "ENGAGE IN KINDNESS INC", "city": "BAY SHORE", "state": "NY", "zip": "11706-4535", "ntee": "P60", "ruling": "201709", "deductibility": "1", "assets": 0, "income": 0, "revenue": 0}, {"ein": "830812675", "name": "ENGAGE CHURCH ALBANY", "city": "LATHAM", "state": "NY", "zip": "12110-1181", "ntee": "X21", "ruling": "202202", "deductibility": "1", "assets": 0, "income": 0, "revenue": 0}, {"ein": "920526974", "name": "ENGAGE RESPONSIBLY INC", "city": "NEW YORK", "state": "NY", "zip": "10017-4100", "ntee": "S01", "ruling": "202301", "deductibility": "1", "assets": 450622, "income": 987069, "revenue": 987069}, {"ein": "920634162", "name": "OPERATION ENGAGE INC", "city": "VLY COTTAGE", "state": "NY", "zip": "10989-2438", "ntee": "F30", "ruling": "202306", "deductibility": "1", "assets": 0, "income": 0, "revenue": 0}, {"ein": "920949116", "name": "ENGAGE CANASTOTA EDUCATION FOUNDATION INC", "city": "CANASTOTA", "state": "NY", "zip": "13032-4614", "ntee": "B20", "ruling": "202212", "deductibility": "1", "assets": 32000, "income": 3954, "revenue": 3954}, {"ein": "934887474", "name": "ENGAGE THAILAND", "city": "ACCORD", "state": "NY", "zip": "12404-0003", "ntee": "Q70", "ruling": "202312", "deductibility": "1", "assets": 0, "income": 0, "revenue": 0}], "WEBMAAYS": [{"ein": "814903230", "name": "WEBMAAYS USA INC", "city": "BROOKLYN", "state": "NY", "zip": "11234-2124", "ntee": "O12", "ruling": "201701", "deductibility": "1", "assets": 0, "income": 0, "revenue": 0}], "THEKLA": [{"ein": "814933263", "name": "SAINT THEKLA MALANKARA ORTHODOX CHURCH", "city": "YORKTOWN HTS", "state": "NY", "zip": "10598-6343", "ntee": "X21", "ruling": "201705", "deductibility": "1", "assets": 0, "income": 0, "revenue": 0}], "ISO": [{"ein": "821582479", "name": "OMEN ARTS ISO INC", "city": "ALBANY", "state": "NY", "zip": "12210-2508", "ntee": "X01", "ruling": "202010", "deductibility": "1", "assets": 216912, "income": 1, "revenue": 0}], "HABAAL": [{"ein": "822028510", "name": "HEICHAL HABAAL SHEM TOV INC", "city": "BROOKLYN", "state": "NY", "zip": "11203-1804", "ntee": "X30", "ruling": "201709", "deductibility": "1", "assets": 0, "income": 0, "revenue": 0}], "RUSS": [{"ein": "822898383", "name": "HODGSON RUSS CHARITABLE FOUNDATION INC", "city": "BUFFALO", "state": "NY", "zip": "14202-4040", "ntee": "T20", "ruling": "201806", "deductibility": "1", "assets": 29275, "income": 1, "revenue": 0}, {"ein": "873959729", "name": "RUSS KRIVOR FAMILY FOUNDATION INC", "city": "NEW YORK", "state": "NY", "zip": "10022-6249", "ntee": "T20", "ruling": "202211", "deductibility": "1", "assets": 647, "income": 1800, "revenue": 0}], "ELANGOVAN": [{"ein": "824273645", "name": "SHASHI ELANGOVAN FOUNDATION OF AMERICA INC", "city": "STATEN ISLAND", "state": "NY", "zip": "10304-1230", "ntee": "T22", "ruling": "201809", "deductibility": "1", "assets": 248508, "income": 120, "revenue": 0}], "KP": [{"ein": "824736970", "name": "KP ALL SPORTS INC", "city": "NEW YORK", "state": "NY", "zip": "10010-7612", "ntee": "N40", "ruling": "201806", "deductibility": "1", "assets": 0, "income": 0, "revenue": 0}, {"ein": "992724851", "name": "KP 18 NURSING CORP", "city": "NEW YORK", "state": "NY", "zip": "10016-0000", "ntee": "F01", "ruling": "202405", "deductibility": "1", "assets": 0, "income": 0, "revenue": 0}], "STRATTON": [{"ein": "825352616", "name": "CHARLIE STRATTON MEMORIAL SCHOLARSHIP FUND INC", "city": "NORWICH", "state": "NY", "zip": "13815-0000", "ntee": "B82", "ruling": "201811", "deductibility": "1", "assets": 24913, "income": 7137, "revenue": 3290}, {"ein": "844813183", "name": "BRYANT & STRATTON INC", "city": "ORCHARD PARK", "state": "NY", "zip": "14127-0000", "ntee": "B40", "ruling": "202005", "deductibility": "1", "assets": 194531985, "income": 266829022, "revenue": 263742115}], "UNHEARD": [{"ein": "831553038", "name": "A VOICE 4 THE UNHEARD INC", "city": "BROOKLYN", "state": "NY", "zip": "11225-1272", "ntee": "T50", "ruling": "201809", "deductibility": "1", "assets": 0, "income": 0, "revenue": 0}, {"ein": "844271578", "name": "UNHEARD-OF ENSEMBLE", "city": "BROOKLYN", "state": "NY", "zip": "11226-2208", "ntee": "A6C", "ruling": "202003", "deductibility": "1", "assets": 25658, "income": 101639, "revenue": 101639}], "CHILDHHOD": [{"ein": "831709689", "name": "JEWISH EARLY CHILDHHOD CENTER OF THE HUDSON VALLEY INC", "city": "POUGHKEEPSIE", "state": "NY", "zip": "12601-4935", "ntee": "B21", "ruling": "201910", "deductibility": "1", "assets": 8236, "income": 0, "revenue": 0}], "EVANGELIONUSA": [{"ein": "832037826", "name": "EVANGELIONUSA INC", "city": "MIDDLE VLG", "state": "NY", "zip": "11379-1405", "ntee": "X20", "ruling": "201811", "deductibility": "1", "assets": 0, "income": 0, "revenue": 0}], "AMVE": [{"ein": "832086586", "name": "AMVE", "city": "HOLTSVILLE", "state": "NY", "zip": "11742-1904", "ntee": "", "ruling": "194505", "deductibility": "1", "assets": 0, "income": 0, "revenue": 0}], "PURRIFICHOME": [{"ein": "832239879", "name": "PURRIFICHOME INC", "city": "COLLEGE POINT", "state": "NY", "zip": "11356-2619", "ntee": "D20", "ruling": "201903", "deductibility": "1", "assets": 0, "income": 0, "revenue": 0}], "GILLENSON": [{"ein": "833692419", "name": "JIM FORNARI AND AMY GILLENSON FAMILY FOUNDATION INC", "city": "NEW YORK", "state": "NY", "zip": "10023-7210", "ntee": "P11", "ruling": "201906", "deductibility": "1", "assets": 977752, "income": 13647, "revenue": 0}], "SHBCHESED": [{"ein": "833724512", "name": "CHESED SHBCHESED INC", "city": "MONSEY", "state": "NY", "zip": "10952-8132", "ntee": "T50", "ruling": "202209", "deductibility": "1", "assets": 0, "income": 560912, "revenue": 560912}], "VEHARANEI": [{"ein": "842126752", "name": "VEHARANEI BEVINYUNOI INC", "city": "SPRING VALLEY", "state": "NY", "zip": "10977-1930", "ntee": "B99", "ruling": "201907", "deductibility": "1", "assets": 7155, "income": 70346, "revenue": 70346}], "RELOOP": [{"ein": "842466096", "name": "RELOOP AMERICAS RESEARCH INSTITUTE", "city": "NEW YORK", "state": "NY", "zip": "10018-7311", "ntee": "U11", "ruling": "202006", "deductibility": "1", "assets": 642355, "income": 798255, "revenue": 798255}], "BUDDAKUNARAM": [{"ein": "843260519", "name": "WAT BUDDAKUNARAM BUDDHIST TEMPLE OF BUFFALO", "city": "BUFFALO", "state": "NY", "zip": "14213-2214", "ntee": "X50", "ruling": "202010", "deductibility": "1", "assets": 0, "income": 0, "revenue": 0}], "WEXCTF": [{"ein": "843798389", "name": "WEXCTF BOOSTERS LTD", "city": "EAST AMHERST", "state": "NY", "zip": "14051-2516", "ntee": "N11", "ruling": "202209", "deductibility": "1", "assets": 0, "income": 0, "revenue": 0}], "BURROS": [{"ein": "844528627", "name": "MARA BURROS-SANDLER FOUNDATION", "city": "NEW YORK", "state": "NY", "zip": "10013-1719", "ntee": "T20", "ruling": "202203", "deductibility": "1", "assets": 1871170, "income": -27663, "revenue": 0}], "MENTRASTI": [{"ein": "852803340", "name": "ROBERT A MENTRASTI FOUNDATION", "city": "HARTSDALE", "state": "NY", "zip": "10530-1341", "ntee": "P30", "ruling": "202101", "deductibility": "1", "assets": 45032, "income": 54263, "revenue": 0}], "BNK": [{"ein": "852944747", "name": "WARRIOR WOMEN BNK INC", "city": "LONG IS CITY", "state": "NY", "zip": "11101-7232", "ntee": "P20", "ruling": "202107", "deductibility": "1", "assets": 0, "income": 0, "revenue": 0}], "CHAYIE": [{"ein": "853962908", "name": "CHAYIE OLEM INC", "city": "BROOKLYN", "state": "NY", "zip": "11211-7578", "ntee": "X30", "ruling": "202111", "deductibility": "1", "assets": 0, "income": 0, "revenue": 0}], "SUPPER": [{"ein": "854130173", "name": "SUPPER COLLECTIVE INC", "city": "BROOKLYN", "state": "NY", "zip": "11225-6148", "ntee": "K31", "ruling": "202109", "deductibility": "1", "assets": 0, "income": 0, "revenue": 0}], "MISHKEN": [{"ein": "862090598", "name": "MISHKEN CHAIM RIVNITS", "city": "MONROE", "state": "NY", "zip": "10950-0000", "ntee": "X30", "ruling": "202207", "deductibility": "1", "assets": 1, "income": 0, "revenue": 0}], "BARCELONA": [{"ein": "862095541", "name": "FORMATIVAS BARCELONA SC INC", "city": "RICHMOND HILL", "state": "NY", "zip": "11418-1131", "ntee": "N64", "ruling": "202502", "deductibility": "1", "assets": 0, "income": 0, "revenue": 0}], "ACER": [{"ein": "863603353", "name": "ACER-K-T INC", "city": "BRONX", "state": "NY", "zip": "10456-4467", "ntee": "K99", "ruling": "202108", "deductibility": "1", "assets": 0, "income": 0, "revenue": 0}], "PROHEALTH": [{"ein": "863726476", "name": "PROHEALTH COMMUNITY RESOURCES INC", "city": "MIDDLETOWN", "state": "NY", "zip": "10940-0000", "ntee": "E70", "ruling": "202108", "deductibility": "1", "assets": 0, "income": 0, "revenue": 0}], "VISHAL": [{"ein": "874090366", "name": "SARITA JAMES AND VISHAL GARG FOUNDATION INC", "city": "NEW YORK", "state": "NY", "zip": "10007-0042", "ntee": "T20", "ruling": "202206", "deductibility": "1", "assets": 149925, "income": 125000, "revenue": 0}], "SHALI": [{"ein": "882375278", "name": "CONG SHALI SHALOME INC", "city": "BROOKLYN", "state": "NY", "zip": "11206-8036", "ntee": "X30", "ruling": "202301", "deductibility": "1", "assets": 0, "income": 0, "revenue": 0}], "PLIMPTON": [{"ein": "883201829", "name": "THE PLIMPTON FOUNDATION INC", "city": "ROCHESTER", "state": "NY", "zip": "14610-0000", "ntee": "A26", "ruling": "202208", "deductibility": "1", "assets": 0, "income": 0, "revenue": 0}], "LAURENT": [{"ein": "883478119", "name": "VIRGINIA LUNA LAURENT - WOLFE INC", "city": "MOUNT VERNON", "state": "NY", "zip": "10552-3436", "ntee": "P20", "ruling": "202208", "deductibility": "1", "assets": 0, "income": 0, "revenue": 0}], "EFFECTUAL": [{"ein": "920825722", "name": "EFFECTUAL HOUSE OF PRAISE INTERNATIONAL MINISTRIES INC", "city": "BRONX", "state": "NY", "zip": "10467-5710", "ntee": "X20", "ruling": "202301", "deductibility": "1", "assets": 0, "income": 0, "revenue": 0}], "MKHOUTDOORS": [{"ein": "922850779", "name": "MKHOUTDOORS", "city": "AIRMONT", "state": "NY", "zip": "10952-4600", "ntee": "X30", "ruling": "202309", "deductibility": "1", "assets": 0, "income": 0, "revenue": 0}], "GEISEN": [{"ein": "923955345", "name": "GEISEN SICK BENEVOLENT SOCIETY", "city": "PLAINVIEW", "state": "NY", "zip": "11803-4713", "ntee": "X30", "ruling": "202412", "deductibility": "1", "assets": 0, "income": 0, "revenue": 0}], "SHOWDEM": [{"ein": "931356711", "name": "SHOWDEM MOVEMENT FOUNDATION CORP", "city": "BRONX", "state": "NY", "zip": "10473-4518", "ntee": "N99", "ruling": "202308", "deductibility": "1", "assets": 0, "income": 0, "revenue": 0}], "EPICENTER": [{"ein": "932377007", "name": "EPICENTER FOUNDATION INC", "city": "JACKSON HTS", "state": "NY", "zip": "11372-3351", "ntee": "A30", "ruling": "202404", "deductibility": "1", "assets": 0, "income": 0, "revenue": 0}], "POLYPLEXUS": [{"ein": "934177222", "name": "POLYPLEXUS EDUCATION INC", "city": "SOUTH SALEM", "state": "NY", "zip": "10590-1317", "ntee": "P20", "ruling": "202311", "deductibility": "1", "assets": 0, "income": 0, "revenue": 0}], "RARELY": [{"ein": "934318914", "name": "SUNFLOWERS RARELY BREAK FOUNDATION INC", "city": "NEW YORK", "state": "NY", "zip": "10016-9202", "ntee": "Q30", "ruling": "202312", "deductibility": "1", "assets": 0, "income": 0, "revenue": 0}], "OTTERS": [{"ein": "991514718", "name": "CATO-MERIDIAN OTTERS SWIM CLUB INC", "city": "CATO", "state": "NY", "zip": "13033-3384", "ntee": "O12", "ruling": "202505", "deductibility": "1", "assets": 0, "income": 0, "revenue": 0}], "WILDSIDE": [{"ein": "993310024", "name": "LIFE ON THE WILDSIDE INC", "city": "BELMONT", "state": "NY", "zip": "14813-1029", "ntee": "D01", "ruling": "202407", "deductibility": "1", "assets": 0, "income": 0, "revenue": 0}]}