{"DANCING": [{"ein": "010553351", "name": "DANCING TIDES FOUNDATION INC", "city": "GARDEN CITY", "state": "NY", "zip": "11530-1662", "ntee": "T22", "ruling": "200209", "deductibility": "1", "assets": 20266982, "income": 5097484, "revenue": 0}, {"ein": "061575768", "name": "DANCING CRANE INC", "city": "BROOKLYN", "state": "NY", "zip": "11223-1349", "ntee": "A62", "ruling": "200012", "deductibility": "1", "assets": 673391, "income": 287907, "revenue": 287907}, {"ein": "112507185", "name": "SPOKE THE HUB DANCING INC", "city": "BROOKLYN", "state": "NY", "zip": "11215-1209", "ntee": "", "ruling": "198003", "deductibility": "1", "assets": 47401, "income": 122976, "revenue": 122976}, {"ein": "112706055", "name": "DANCING IN THE STREET INC", "city": "BRONX", "state": "NY", "zip": "10455-4068", "ntee": "A600", "ruling": "198604", "deductibility": "1", "assets": 458457, "income": 554442, "revenue": 554442}, {"ein": "112819751", "name": "THREE HARBORS INVITATIONAL DANCING CLASS INC", "city": "OYSTER BAY", "state": "NY", "zip": "11771-2494", "ntee": "", "ruling": "198609", "deductibility": "1", "assets": 20014, "income": 12219, "revenue": 12219}, {"ein": "113340215", "name": "PETRI SCHOOL OF IRISH DANCING FOUNDATION", "city": "HOLBROOK", "state": "NY", "zip": "11741-2336", "ntee": "B28", "ruling": "200101", "deductibility": "1", "assets": 5026, "income": 53206, "revenue": 34352}, {"ein": "132997956", "name": "CHANGING TIMES TAP DANCING CO", "city": "NEW YORK", "state": "NY", "zip": "10013-2740", "ntee": "", "ruling": "197912", "deductibility": "1", "assets": 115896, "income": 60501, "revenue": 60501}, {"ein": "133348620", "name": "KEEP THE COUNTRY DANCING INC", "city": "SLOATSBURG", "state": "NY", "zip": "10974-1100", "ntee": "A200", "ruling": "199109", "deductibility": "1", "assets": 0, "income": 0, "revenue": 0}, {"ein": "134168743", "name": "BORN DANCING INC", "city": "NEW YORK", "state": "NY", "zip": "10033-4555", "ntee": "A62", "ruling": "201411", "deductibility": "1", "assets": 1567, "income": 65053, "revenue": 64338}, {"ein": "205177071", "name": "DANCING FOR ANIMALS INC", "city": "CORTLANDT MNR", "state": "NY", "zip": "10567-6613", "ntee": "D20", "ruling": "200805", "deductibility": "1", "assets": 0, "income": 0, "revenue": 0}, {"ein": "222542960", "name": "DANCING CLASSROOMS INC", "city": "NEW YORK", "state": "NY", "zip": "10019-4703", "ntee": "A62Z", "ruling": "198510", "deductibility": "1", "assets": 1839855, "income": 2330443, "revenue": 1630733}, {"ein": "260797411", "name": "DANCING DREAMS", "city": "BAYSIDE", "state": "NY", "zip": "11360-4285", "ntee": "A62", "ruling": "200803", "deductibility": "1", "assets": 985590, "income": 524733, "revenue": 524733}, {"ein": "331809748", "name": "DANCING FOR CANCER", "city": "GLEN HEAD", "state": "NY", "zip": "11545-1301", "ntee": "A62", "ruling": "202411", "deductibility": "1", "assets": 0, "income": 0, "revenue": 0}, {"ein": "383782445", "name": "ROCHESTER BALLROOM DANCING INC", "city": "FAIRPORT", "state": "NY", "zip": "14450-9431", "ntee": "N50", "ruling": "200908", "deductibility": "2", "assets": 0, "income": 0, "revenue": 0}, {"ein": "822888723", "name": "DANCING WITH THE BRIGHTEST STARS INC", "city": "MOUNT VERNON", "state": "NY", "zip": "10552-1514", "ntee": "A62", "ruling": "201807", "deductibility": "1", "assets": 0, "income": 0, "revenue": 0}, {"ein": "841630768", "name": "IRISH DANCING TEACHERS ASSOCIATION OF NORTH AMERICA", "city": "BREWSTER", "state": "NY", "zip": "10509-2537", "ntee": "A60", "ruling": "200404", "deductibility": "1", "assets": 361573, "income": 522442, "revenue": 522442}, {"ein": "863224228", "name": "DANCING TURTLE RESCUE AND EDUCATION PROGRAM INC", "city": "SCHROON LAKE", "state": "NY", "zip": "12870-2441", "ntee": "D30", "ruling": "202111", "deductibility": "1", "assets": 0, "income": 0, "revenue": 0}, {"ein": "872511160", "name": "PAQUITAS DANCING HEARTS INC", "city": "BROOKLYN", "state": "NY", "zip": "11220-2713", "ntee": "P99", "ruling": "202202", "deductibility": "1", "assets": 0, "income": 0, "revenue": 0}], "MUSCULAR": [{"ein": "010759380", "name": "SPINAL MUSCULAR ATROPHY FOUNDATION", "city": "NEW YORK", "state": "NY", "zip": "10106-0401", "ntee": "B99", "ruling": "200305", "deductibility": "1", "assets": 33691989, "income": 12507750, "revenue": 0}, {"ein": "113843592", "name": "FRIENDS AND FAMILIES MUSCULAR DISORDERS FOUNDATION INC", "city": "CLIFTON PARK", "state": "NY", "zip": "12065-0045", "ntee": "G50", "ruling": "201707", "deductibility": "1", "assets": 0, "income": 0, "revenue": 0}, {"ein": "320284955", "name": "SPINAL MUSCULAR ATROPHY RESEARCH TEAM", "city": "LACKAWANNA", "state": "NY", "zip": "14218-1718", "ntee": "H125", "ruling": "201006", "deductibility": "1", "assets": 19403, "income": 103635, "revenue": 103635}, {"ein": "334561593", "name": "DUCHENNE MUSCULAR DYSTROPHY FOUNDATION INC", "city": "NEW YORK", "state": "NY", "zip": "10013-2237", "ntee": "H80", "ruling": "202506", "deductibility": "1", "assets": 0, "income": 0, "revenue": 0}], "BATSHEVA": [{"ein": "030434419", "name": "AMERICAN FRIENDS OF BATSHEVA DANCE COMPANY INC", "city": "FOREST HILLS", "state": "NY", "zip": "11375-0974", "ntee": "T30", "ruling": "200208", "deductibility": "1", "assets": 1041740, "income": 1097108, "revenue": 951074}, {"ein": "333421594", "name": "BATSHEVA WOMENS COLLECTIVE INC", "city": "NEW YORK", "state": "NY", "zip": "10011-4126", "ntee": "X30", "ruling": "202503", "deductibility": "1", "assets": 0, "income": 0, "revenue": 0}], "BLOCH": [{"ein": "030445718", "name": "HAROLD L BLOCH CANCER RESOURCE", "city": "ALBANY", "state": "NY", "zip": "12210-0000", "ntee": "H30", "ruling": "200301", "deductibility": "1", "assets": 0, "income": 0, "revenue": 0}], "NORM": [{"ein": "030572944", "name": "NORM M PHILLIPS CHARITY FOR ALS", "city": "CANANDAIGUA", "state": "NY", "zip": "14424-8015", "ntee": "H11", "ruling": "201207", "deductibility": "1", "assets": 0, "income": 0, "revenue": 0}], "BUCKS": [{"ein": "043743804", "name": "PA BUCKS DIV 1 OF LAOH INC", "city": "BROOKLYN", "state": "NY", "zip": "11229-4111", "ntee": "Y40", "ruling": "201611", "deductibility": "1", "assets": 0, "income": 0, "revenue": 0}, {"ein": "133773559", "name": "STATEN ISLAND BUCKS INC", "city": "STATEN ISLAND", "state": "NY", "zip": "10309-2520", "ntee": "S41", "ruling": "199908", "deductibility": "2", "assets": 75230, "income": 99848, "revenue": 99848}, {"ein": "134192202", "name": "FRIENDS OF BUCKS ROCK INC", "city": "NEW YORK", "state": "NY", "zip": "10003-9030", "ntee": "O99", "ruling": "200205", "deductibility": "1", "assets": 0, "income": 0, "revenue": 0}, {"ein": "263152015", "name": "YOUNG BUCKS INC", "city": "NEW YORK", "state": "NY", "zip": "10035-3528", "ntee": "O30", "ruling": "201401", "deductibility": "1", "assets": 0, "income": 0, "revenue": 0}, {"ein": "920279851", "name": "SHELTER ISLAND BUCKS BOOSTER CLUB", "city": "SHELTER IS HT", "state": "NY", "zip": "11965-1355", "ntee": "R01", "ruling": "202305", "deductibility": "1", "assets": 945, "income": 1, "revenue": 0}], "HAKEMACH": [{"ein": "043745911", "name": "CONGREGATION LEKET HAKEMACH", "city": "BROOKLYN", "state": "NY", "zip": "11211-8019", "ntee": "X30", "ruling": "200304", "deductibility": "1", "assets": 0, "income": 0, "revenue": 0}], "VALLE": [{"ein": "061480901", "name": "VALLE DE CEDRON INTERNATIONAL COUNCIL OF CHURCHES INC", "city": "NEW YORK", "state": "NY", "zip": "10002-0224", "ntee": "X20Z", "ruling": "199805", "deductibility": "1", "assets": 0, "income": 0, "revenue": 0}, {"ein": "112916138", "name": "IGLESIA BAUTISTA DE EL VALLE", "city": "BRENTWOOD", "state": "NY", "zip": "11717-3409", "ntee": "X99Z", "ruling": "199708", "deductibility": "1", "assets": 125264, "income": 41795, "revenue": 41795}, {"ein": "112939609", "name": "IGLESIA CRISTIANA VALLE DE JESUS INC", "city": "BROOKLYN", "state": "NY", "zip": "11206-3190", "ntee": "X20Z", "ruling": "199506", "deductibility": "1", "assets": 0, "income": 0, "revenue": 0}, {"ein": "112949714", "name": "IGLESIA CRISTIANA PENTECOSTAL LIRIO DE LOS VALLE FLUSHING NY", "city": "BAYSIDE", "state": "NY", "zip": "11361-2950", "ntee": "", "ruling": "199009", "deductibility": "1", "assets": 0, "income": 0, "revenue": 0}, {"ein": "113213166", "name": "IGLESIA DE DIOS PENTECOSTAL VALLE DE CEDRON", "city": "BROOKLYN", "state": "NY", "zip": "11211-4406", "ntee": "", "ruling": "199410", "deductibility": "1", "assets": 0, "income": 0, "revenue": 0}, {"ein": "113383557", "name": "IGLESIA PENTECOSTES VALLE DE BERACA INC", "city": "BROOKLYN", "state": "NY", "zip": "11221-1403", "ntee": "X21", "ruling": "200304", "deductibility": "1", "assets": 0, "income": 0, "revenue": 0}, {"ein": "133225000", "name": "THE SANFORD AND DINA ROSENBLUM FOUNDATION KAREN MARTINO VALLE ESQ", "city": "ALBANY", "state": "NY", "zip": "12208-1813", "ntee": "", "ruling": "198412", "deductibility": "1", "assets": 132, "income": 30000, "revenue": 0}, {"ein": "141619174", "name": "REGIONAL EMERGENCY MEDICAL SERVICES COUNCIL OF THE HUDSON MOHAWK VALLE", "city": "ALBANY", "state": "NY", "zip": "12205-3864", "ntee": "E62Z", "ruling": "198108", "deductibility": "1", "assets": 770928, "income": 721822, "revenue": 618965}, {"ein": "383878112", "name": "CENTRO DE AVIVAMIENTO VALLE DE SITIM", "city": "WHITE PLAINS", "state": "NY", "zip": "10601-3401", "ntee": "", "ruling": "196307", "deductibility": "1", "assets": 0, "income": 0, "revenue": 0}, {"ein": "463957600", "name": "TEAM VALLE INC", "city": "ROCHESTER", "state": "NY", "zip": "14616-3043", "ntee": "N60", "ruling": "201501", "deductibility": "1", "assets": 6388, "income": 151142, "revenue": 151142}], "LANE": [{"ein": "061501640", "name": "APPLE LANE FOUNDATION INC", "city": "NEW YORK", "state": "NY", "zip": "10010-0000", "ntee": "T22Z", "ruling": "199801", "deductibility": "1", "assets": 8841605, "income": 4053279, "revenue": 0}, {"ein": "112461834", "name": "OAK NECK LANE ASSOCIATION INC", "city": "WEST ISLIP", "state": "NY", "zip": "11795-0000", "ntee": "S99", "ruling": "201402", "deductibility": "2", "assets": 655998, "income": 101691, "revenue": 101691}, {"ein": "112842376", "name": "JEFFREY AND NANCY LANE FOUNDATION", "city": "ALBANY", "state": "NY", "zip": "12212-5201", "ntee": "", "ruling": "198703", "deductibility": "1", "assets": 11248, "income": 145111, "revenue": 0}, {"ein": "113573668", "name": "BRIDGE LANE FOUNDATION", "city": "BROOKLYN", "state": "NY", "zip": "11204-0331", "ntee": "T20", "ruling": "200101", "deductibility": "1", "assets": 649, "income": 23700, "revenue": 0}, {"ein": "113635985", "name": "RANDI AND CLIFFORD LANE FOUNDATION", "city": "HOLBROOK", "state": "NY", "zip": "11741-5417", "ntee": "T21", "ruling": "200201", "deductibility": "1", "assets": 22780463, "income": 11779878, "revenue": 0}, {"ein": "116039850", "name": "VILLAGE LANE BIBLE CHAPEL", "city": "HAUPPAUGE", "state": "NY", "zip": "11787-0000", "ntee": "", "ruling": "196309", "deductibility": "1", "assets": 0, "income": 0, "revenue": 0}, {"ein": "132925845", "name": "FOX LANE MIDDLE SCHOOL ASSOCIATION INC", "city": "BEDFORD", "state": "NY", "zip": "10506-0000", "ntee": "T30Z", "ruling": "199804", "deductibility": "1", "assets": 130965, "income": 74930, "revenue": 74930}, {"ein": "133091825", "name": "OAK LANE CHILD CARE CENTER OF PLEASANTVILLE INC", "city": "CHAPPAQUA", "state": "NY", "zip": "10514-3528", "ntee": "", "ruling": "198209", "deductibility": "1", "assets": 1083862, "income": 1618458, "revenue": 1606197}, {"ein": "133520368", "name": "VALENTINE LANE FAMILY PRACTICE CENTER INC", "city": "YONKERS", "state": "NY", "zip": "10703-3402", "ntee": "G81Z", "ruling": "198905", "deductibility": "1", "assets": 0, "income": 0, "revenue": 0}, {"ein": "133969173", "name": "CHERRY LANE ALTERNATIVE INC", "city": "NEW YORK", "state": "NY", "zip": "10128-1507", "ntee": "A650", "ruling": "199811", "deductibility": "1", "assets": 356901, "income": 37054, "revenue": -55734}, {"ein": "141678094", "name": "H D LANE VOLUNTEER FIRE CO INC", "city": "LANESVILLE", "state": "NY", "zip": "12450-0026", "ntee": "", "ruling": "202108", "deductibility": "1", "assets": 544190, "income": 87214, "revenue": 87214}, {"ein": "203274524", "name": "JODIE S LANE PUBLIC SAFETY FOUNDATION INC", "city": "NEW YORK", "state": "NY", "zip": "10033-1755", "ntee": "M40", "ruling": "200603", "deductibility": "1", "assets": 0, "income": 0, "revenue": 0}, {"ein": "206244220", "name": "THE CARL LANE METZLER MEMORIAL FUND", "city": "ROCHESTER", "state": "NY", "zip": "14618-3806", "ntee": "B82", "ruling": "200608", "deductibility": "1", "assets": 0, "income": 0, "revenue": 0}, {"ein": "208853938", "name": "MEETING HOUSE LANE MEDICAL PRACTICE PC", "city": "HAMPTON BAYS", "state": "NY", "zip": "11946-2290", "ntee": "E300", "ruling": "201210", "deductibility": "1", "assets": 5285728, "income": 19500198, "revenue": 19500198}, {"ein": "237233722", "name": "MAPLE LANE ASSEMBLY OF GOD CHURCH", "city": "DEPOSIT", "state": "NY", "zip": "13754-1211", "ntee": "", "ruling": "196408", "deductibility": "1", "assets": 0, "income": 0, "revenue": 0}, {"ein": "237242400", "name": "WILCOX LANE SENIOR CITIZENS HOUSING CO INC", "city": "ROCHESTER", "state": "NY", "zip": "14609-2457", "ntee": "L22Z", "ruling": "197408", "deductibility": "1", "assets": 4400375, "income": 962389, "revenue": 962389}, {"ein": "261885179", "name": "FOX LANE BASEBALL BOOSTERS CLUB", "city": "BEDFORD", "state": "NY", "zip": "10506-0000", "ntee": "B11", "ruling": "201412", "deductibility": "1", "assets": 55235, "income": 124411, "revenue": 124411}, {"ein": "264307457", "name": "ABBY LANE HOUSING CORPORATION", "city": "SYRACUSE", "state": "NY", "zip": "13217-6486", "ntee": "B11", "ruling": "201003", "deductibility": "1", "assets": 31635079, "income": 6131086, "revenue": 5839189}, {"ein": "264603127", "name": "FOX LANE SPORTS BOOSTERS CLUB", "city": "BEDFORD", "state": "NY", "zip": "10506-0247", "ntee": "B12", "ruling": "201609", "deductibility": "1", "assets": 138116, "income": 91006, "revenue": 91006}, {"ein": "273626291", "name": "MINETTA LANE-STREET ASSOCIATION INC", "city": "NEW YORK", "state": "NY", "zip": "10012-0000", "ntee": "S22", "ruling": "201710", "deductibility": "1", "assets": 0, "income": 0, "revenue": 0}, {"ein": "274109274", "name": "FOX LANE HIGH SCHOOL ASSOCIATION", "city": "BEDFORD", "state": "NY", "zip": "10506-0000", "ntee": "B82", "ruling": "201210", "deductibility": "1", "assets": 62745, "income": 26759, "revenue": 26759}, {"ein": "300625567", "name": "FOX LANE YOUTH LACROSSE INC", "city": "BEDFORD", "state": "NY", "zip": "10506-0192", "ntee": "O50", "ruling": "201011", "deductibility": "1", "assets": 98893, "income": 148668, "revenue": 148668}, {"ein": "306681859", "name": "ERIC AND SARAH LANE FAMILY FOUNDATION", "city": "NEW YORK", "state": "NY", "zip": "10274-0073", "ntee": "T20", "ruling": "202202", "deductibility": "1", "assets": 621957, "income": 2885004, "revenue": 0}, {"ein": "463825709", "name": "MEADOW LANE HOUSING DEVELOPMENT FUND COMPANY INC", "city": "NEW ROCHELLE", "state": "NY", "zip": "10805-2225", "ntee": "L22", "ruling": "201407", "deductibility": "1", "assets": 7162703, "income": 569622, "revenue": 569622}, {"ein": "465393243", "name": "MORTON LANE CHARITABLE FOUNDATION", "city": "BUFFALO", "state": "NY", "zip": "14223-2812", "ntee": "T30", "ruling": "201504", "deductibility": "1", "assets": 0, "income": 0, "revenue": 0}, {"ein": "474423726", "name": "LANE MEMORIAL FOUNDATION", "city": "NEW HYDE PARK", "state": "NY", "zip": "11040-0000", "ntee": "T22", "ruling": "201510", "deductibility": "1", "assets": 8953341, "income": 4872732, "revenue": 0}, {"ein": "600000719", "name": "STEWART F LANE & BONNIE COMLEY FOUNDATION", "city": "NEW YORK", "state": "NY", "zip": "10036-8107", "ntee": "T20", "ruling": "200204", "deductibility": "1", "assets": 3740655, "income": 661955, "revenue": 0}, {"ein": "821404844", "name": "FOX LANE HALL OF FAME INC", "city": "BEDFORD", "state": "NY", "zip": "10506-0000", "ntee": "N11", "ruling": "201707", "deductibility": "1", "assets": 11585, "income": 3025, "revenue": 3025}, {"ein": "833323252", "name": "OFF THE LANE INC", "city": "NEW YORK", "state": "NY", "zip": "10001-6116", "ntee": "A90", "ruling": "201905", "deductibility": "1", "assets": 81953, "income": 48858, "revenue": 48858}, {"ein": "844188213", "name": "CARLO MARIA MARIANI AND CAROL LANE MARIANI FOUNDATION", "city": "NEW YORK", "state": "NY", "zip": "10023-3801", "ntee": "A25", "ruling": "202008", "deductibility": "1", "assets": 110585, "income": 110885, "revenue": 0}, {"ein": "853089612", "name": "JCC PARK LANE", "city": "BROOKLYN", "state": "NY", "zip": "11234-4927", "ntee": "X30", "ruling": "202011", "deductibility": "1", "assets": 0, "income": 0, "revenue": 0}, {"ein": "912061842", "name": "100 TREETOPS LANE INVESTMENT GROUP LLC", "city": "NEW YORK", "state": "NY", "zip": "10020-1104", "ntee": "S47", "ruling": "200112", "deductibility": "0", "assets": 57513390, "income": 4388736, "revenue": 4388736}, {"ein": "933268330", "name": "MILDREDS LANE INC", "city": "NARROWSBURG", "state": "NY", "zip": "12764-6415", "ntee": "A20", "ruling": "202410", "deductibility": "1", "assets": 0, "income": 0, "revenue": 0}, {"ein": "992319208", "name": "CHERRY LANE SISTERHOOD INC", "city": "GREAT NECK", "state": "NY", "zip": "11024-1209", "ntee": "P99", "ruling": "202405", "deductibility": "1", "assets": 0, "income": 0, "revenue": 0}, {"ein": "994995618", "name": "275 CHERRY LANE INC", "city": "BROOKLYN", "state": "NY", "zip": "11205-2859", "ntee": "T12", "ruling": "202412", "deductibility": "1", "assets": 0, "income": 0, "revenue": 0}], "DIAH": [{"ein": "061577588", "name": "SHAREI DIAH VCHESED", "city": "BROOKLYN", "state": "NY", "zip": "11211-8069", "ntee": "X30", "ruling": "200007", "deductibility": "1", "assets": 0, "income": 0, "revenue": 0}], "MUSICA": [{"ein": "061590996", "name": "PRO MUSICA CORP", "city": "STATEN ISLAND", "state": "NY", "zip": "10301-1114", "ntee": "A68", "ruling": "200102", "deductibility": "1", "assets": 0, "income": 0, "revenue": 0}, {"ein": "112495939", "name": "L AMORE DELLA MUSICA INC", "city": "NEW YORK", "state": "NY", "zip": "10033-1209", "ntee": "", "ruling": "198003", "deductibility": "1", "assets": 0, "income": 0, "revenue": 0}, {"ein": "113535891", "name": "MUSICA REGINAE PRODUCTIONS LTD", "city": "MASPETH", "state": "NY", "zip": "11378-2702", "ntee": "A68", "ruling": "200011", "deductibility": "1", "assets": 40310, "income": 66803, "revenue": 66803}, {"ein": "132764154", "name": "MUSICA SACRA INC", "city": "BROOKLYN", "state": "NY", "zip": "11201-1909", "ntee": "", "ruling": "197403", "deductibility": "1", "assets": 82221, "income": 497032, "revenue": 490325}, {"ein": "133677082", "name": "MUSICA VIVA INC", "city": "NEW YORK", "state": "NY", "zip": "10075-0440", "ntee": "P00Z", "ruling": "199210", "deductibility": "1", "assets": 143214, "income": 240642, "revenue": 235946}, {"ein": "141800396", "name": "SAUGERTIES PRO MUSICA", "city": "SAUGERTIES", "state": "NY", "zip": "12477-0276", "ntee": "A68", "ruling": "200205", "deductibility": "1", "assets": 46045, "income": 13469, "revenue": 13469}, {"ein": "161590210", "name": "MUSICA SPEI INC", "city": "ROCHESTER", "state": "NY", "zip": "14607-2121", "ntee": "A6B", "ruling": "201811", "deductibility": "1", "assets": 0, "income": 0, "revenue": 0}, {"ein": "200691217", "name": "MUSICA BELLA ORCHESTRA OF NEW YORK INC", "city": "BROOKLYN", "state": "NY", "zip": "11215-0000", "ntee": "", "ruling": "200410", "deductibility": "1", "assets": 0, "income": 0, "revenue": 0}, {"ein": "222428967", "name": "ALBANY PRO MUSICA INC", "city": "TROY", "state": "NY", "zip": "12180-3292", "ntee": "A6BZ", "ruling": "198301", "deductibility": "1", "assets": 1021409, "income": 1567407, "revenue": 988890}, {"ein": "842883180", "name": "JUVENTUS PROC MUSICA INC", "city": "EAST HAMPTON", "state": "NY", "zip": "11937-2091", "ntee": "A68", "ruling": "201909", "deductibility": "1", "assets": 0, "income": 0, "revenue": 0}], "HEC": [{"ein": "061696047", "name": "HEC ALUMNI ASSOCIATION OF NEW YORK INC", "city": "NEW YORK", "state": "NY", "zip": "10023-4250", "ntee": "S41", "ruling": "201304", "deductibility": "2", "assets": 0, "income": 0, "revenue": 0}, {"ein": "208152139", "name": "FRIENDS OF HEC INC", "city": "NEW YORK", "state": "NY", "zip": "10018-9394", "ntee": "B82", "ruling": "200703", "deductibility": "1", "assets": 359536, "income": 1312083, "revenue": 1312083}, {"ein": "853516995", "name": "HEC LONG ISLAND INC", "city": "FARMINGDALE", "state": "NY", "zip": "11735-5717", "ntee": "P82", "ruling": "202108", "deductibility": "1", "assets": 35084, "income": 16171, "revenue": 5073}], "ROSWELL": [{"ein": "100003438", "name": "ROSWELL P FLOWER MEMORIAL LIBRARY", "city": "WATERTOWN", "state": "NY", "zip": "13601-3324", "ntee": "B70", "ruling": "200207", "deductibility": "1", "assets": 448612, "income": 200029, "revenue": 200029}, {"ein": "161391608", "name": "ROSWELL PARK ALLIANCE FOUNDATION", "city": "BUFFALO", "state": "NY", "zip": "14263-0001", "ntee": "T30", "ruling": "199608", "deductibility": "1", "assets": 160576058, "income": 33691634, "revenue": 26035394}, {"ein": "383799890", "name": "FRIENDS OF THE ROSWELL P FLOWER MEMORIAL LIBRARY", "city": "WATERTOWN", "state": "NY", "zip": "13601-3324", "ntee": "B117", "ruling": "200910", "deductibility": "1", "assets": 0, "income": 0, "revenue": 0}, {"ein": "811516574", "name": "ROSWELL PARK PHARMACY CORPORATION", "city": "BUFFALO", "state": "NY", "zip": "14263-0001", "ntee": "E11", "ruling": "201810", "deductibility": "1", "assets": 1, "income": 0, "revenue": 0}, {"ein": "832112880", "name": "ONEIDA HEALTH ROSWELL PARK ONCOLOGY LLC", "city": "ONEIDA", "state": "NY", "zip": "13421-2627", "ntee": "", "ruling": "202112", "deductibility": "1", "assets": 6287813, "income": 1527981, "revenue": 1527981}], "ASSO": [{"ein": "110702640", "name": "EAST HILLSIDE CEMETERY ASSO INC", "city": "SEA CLIFF", "state": "NY", "zip": "11579-0421", "ntee": "Y52Z", "ruling": "197903", "deductibility": "1", "assets": 1731038, "income": 316616, "revenue": 316616}, {"ein": "111618029", "name": "LAWRENCE CEDARHURST VOLUNTEER AND EXEMPT FIREMEN BENEVOLENT ASSO INC", "city": "LAWRENCE", "state": "NY", "zip": "11559-0000", "ntee": "", "ruling": "198601", "deductibility": "2", "assets": 1650811, "income": 300808, "revenue": 260960}, {"ein": "112001043", "name": "NASSAU POINT PROPERTY OWNERS ASSO INC", "city": "CUTCHOGUE", "state": "NY", "zip": "11935-0346", "ntee": "", "ruling": "195510", "deductibility": "2", "assets": 62927, "income": 90385, "revenue": 90385}, {"ein": "112377803", "name": "VOLUNTEER AND EXEMPT FIREMANS BENEVOLENT ASSO OF CARLE NASSAU", "city": "CARLE PLACE", "state": "NY", "zip": "11514-0017", "ntee": "E62I", "ruling": "199803", "deductibility": "1", "assets": 338434, "income": 311027, "revenue": 310895}, {"ein": "112469012", "name": "HOLIDAY BEACH PROPERTY OWNERS ASSO", "city": "CTR MORICHES", "state": "NY", "zip": "11934-0299", "ntee": "", "ruling": "197809", "deductibility": "2", "assets": 417385, "income": 247556, "revenue": 247556}, {"ein": "112591046", "name": "RETIRED LIEUTENANTS ASSO OF THE NEW YORK CITY POLICE DEPT INC", "city": "FLORAL PARK", "state": "NY", "zip": "11004-1741", "ntee": "", "ruling": "199109", "deductibility": "2", "assets": 142015, "income": 66076, "revenue": 62676}, {"ein": "112635601", "name": "OLD BROOKVILLE POLICEMENS BEN ASSO", "city": "GLEN HEAD", "state": "NY", "zip": "11545-0344", "ntee": "", "ruling": "199306", "deductibility": "2", "assets": 673543, "income": 180772, "revenue": 126663}, {"ein": "116017810", "name": "ALUMNI FUND ALUMNI ASSO COLLEGE OF MEDICINE SUNY HEALTH SCIENCE CTR", "city": "BROOKLYN", "state": "NY", "zip": "11203-2012", "ntee": "B82", "ruling": "201311", "deductibility": "1", "assets": 19398869, "income": 4602820, "revenue": 1315285}, {"ein": "116102055", "name": "SHEET METAL & AIR CONDITIONING CONTRACTORS NATIONAL ASSO NYC CHAP", "city": "BROOKLYN", "state": "NY", "zip": "11241-1021", "ntee": "", "ruling": "196712", "deductibility": "2", "assets": 1492, "income": 608973, "revenue": 608973}, {"ein": "133900953", "name": "NEW YORK CITY RECRUITMENT ASSO", "city": "NEW YORK", "state": "NY", "zip": "10153-0023", "ntee": "J03", "ruling": "201506", "deductibility": "2", "assets": 0, "income": 0, "revenue": 0}, {"ein": "141137715", "name": "UNION CEMETERY ASSO OF LLOYD", "city": "HIGHLAND", "state": "NY", "zip": "12528-2820", "ntee": "", "ruling": "194206", "deductibility": "1", "assets": 706442, "income": 135665, "revenue": 87778}, {"ein": "141773337", "name": "POUGHKEEPSIE PUBLIC SCHOOL TEACHERS ASSO TRUST FUND", "city": "POUGHKEEPSIE", "state": "NY", "zip": "12601-3131", "ntee": "", "ruling": "199511", "deductibility": "2", "assets": 16463093, "income": 15765025, "revenue": 15765025}, {"ein": "150500124", "name": "CLAYTON CEMETERY ASSO", "city": "CLAYTON", "state": "NY", "zip": "13624-0221", "ntee": "", "ruling": "194312", "deductibility": "1", "assets": 0, "income": 0, "revenue": 0}, {"ein": "150504004", "name": "SULPHUR SPRINGS CEMETERY ASSO", "city": "WATERTOWN", "state": "NY", "zip": "13601-5538", "ntee": "Y50", "ruling": "201512", "deductibility": "1", "assets": 0, "income": 0, "revenue": 0}, {"ein": "150505986", "name": "RIVERSIDE CEMETERY ASSO", "city": "WINDSOR", "state": "NY", "zip": "13865-0294", "ntee": "Y50", "ruling": "201203", "deductibility": "1", "assets": 0, "income": 0, "revenue": 0}, {"ein": "160765476", "name": "BATH CEMETERY ASSO", "city": "BATH", "state": "NY", "zip": "14810-0000", "ntee": "Y50", "ruling": "201201", "deductibility": "1", "assets": 211989, "income": 31717, "revenue": 31717}, {"ein": "521167496", "name": "VETERAN WIRELESS OPERATORS ASSO INC", "city": "NEW YORK", "state": "NY", "zip": "10272-1003", "ntee": "", "ruling": "198005", "deductibility": "1", "assets": 0, "income": 0, "revenue": 0}, {"ein": "527224367", "name": "MOHRSVILLE ATHLETIC PLAYGROUNG ASSO", "city": "BUFFALO", "state": "NY", "zip": "14240-1504", "ntee": "T22", "ruling": "200212", "deductibility": "1", "assets": 356721, "income": 109485, "revenue": 0}], "NORTHPORT": [{"ein": "111513092", "name": "NORTHPORT RURAL CEMETERY ASSOCIATION", "city": "NORTHPORT", "state": "NY", "zip": "11768-3445", "ntee": "", "ruling": "197307", "deductibility": "1", "assets": 5221912, "income": 780815, "revenue": 780815}, {"ein": "111580388", "name": "NORTHPORT YACHT CLUB INC", "city": "NORTHPORT", "state": "NY", "zip": "11768-0029", "ntee": "", "ruling": "194212", "deductibility": "2", "assets": 2449037, "income": 3175108, "revenue": 3175108}, {"ein": "111700969", "name": "NORTHPORT NURSERY SCHOOL", "city": "NORTHPORT", "state": "NY", "zip": "11768-3462", "ntee": "", "ruling": "195211", "deductibility": "1", "assets": 364544, "income": 400908, "revenue": 383512}, {"ein": "112028091", "name": "NORTHPORT BAPTIST CHURCH", "city": "E NORTHPORT", "state": "NY", "zip": "11731-4003", "ntee": "", "ruling": "199108", "deductibility": "1", "assets": 0, "income": 0, "revenue": 0}, {"ein": "112302672", "name": "EVANGELICAL COVENANT CHURCH-EAST NORTHPORT NY", "city": "E NORTHPORT", "state": "NY", "zip": "11731-4702", "ntee": "", "ruling": "197507", "deductibility": "1", "assets": 0, "income": 0, "revenue": 0}, {"ein": "112428537", "name": "NORTHPORT COW HARBOR UNITED SOCCER CLUB", "city": "NORTHPORT", "state": "NY", "zip": "11768-0007", "ntee": "N64", "ruling": "200411", "deductibility": "1", "assets": 464846, "income": 710979, "revenue": 710979}, {"ein": "112572139", "name": "NORTHPORT GALLERIES INC", "city": "HUNTINGTON", "state": "NY", "zip": "11743-6901", "ntee": "A20", "ruling": "199904", "deductibility": "1", "assets": 15118, "income": 61981, "revenue": 55307}, {"ein": "112685740", "name": "EAST NORTHPORT CHRISTIAN CHURCH", "city": "E NORTHPORT", "state": "NY", "zip": "11731-0517", "ntee": "", "ruling": "199110", "deductibility": "1", "assets": 0, "income": 0, "revenue": 0}, {"ein": "112706433", "name": "NORTHPORT YOUTH CENTER SOCCER LEAGUE", "city": "NORTHPORT", "state": "NY", "zip": "11768-0167", "ntee": "", "ruling": "198507", "deductibility": "1", "assets": 469316, "income": 166596, "revenue": 166596}, {"ein": "112711376", "name": "NORTHPORT CHORALE INC", "city": "NORTHPORT", "state": "NY", "zip": "11768-0055", "ntee": "A68", "ruling": "201509", "deductibility": "1", "assets": 0, "income": 0, "revenue": 0}, {"ein": "112733249", "name": "NORTHPORT EMPLOYEES DAY CARE INC", "city": "NORTHPORT", "state": "NY", "zip": "11768-3363", "ntee": "", "ruling": "198607", "deductibility": "1", "assets": 43930, "income": 502905, "revenue": 502905}, {"ein": "113128599", "name": "ECUMENICAL LAY COUNCIL OF NORTHPORT-EAST NORTHPORT INC", "city": "NORTHPORT", "state": "NY", "zip": "11768-1701", "ntee": "P99", "ruling": "201507", "deductibility": "1", "assets": 108346, "income": 126778, "revenue": 126778}, {"ein": "113148912", "name": "EAST NORTHPORT VOLUNTEER FIRE DEPARTMENT INC", "city": "E NORTHPORT", "state": "NY", "zip": "11731-1822", "ntee": "M24", "ruling": "201810", "deductibility": "1", "assets": 5228718, "income": 470714, "revenue": 406884}, {"ein": "113219064", "name": "EAST NORTHPORT CHAMBER OF COMMERCE INCORPORATED", "city": "EAST NORTHPORT", "state": "NY", "zip": "11731-4211", "ntee": "", "ruling": "199603", "deductibility": "2", "assets": 97124, "income": 128517, "revenue": 128517}, {"ein": "113451309", "name": "NORTHPORT POLICE BENEVOLENT ASSOCIATION INC", "city": "NORTHPORT", "state": "NY", "zip": "11768-1726", "ntee": "J40", "ruling": "200702", "deductibility": "2", "assets": 0, "income": 132557, "revenue": 132557}, {"ein": "113454480", "name": "ROTARY CLUB OF NORTHPORT NEW YORK CHARITY FD INC", "city": "NORTHPORT", "state": "NY", "zip": "11768-0000", "ntee": "S82", "ruling": "199912", "deductibility": "1", "assets": 164652, "income": 141101, "revenue": 76224}, {"ein": "113531948", "name": "NORTHPORT ARTS COALITION INC", "city": "NORTHPORT", "state": "NY", "zip": "11768-0508", "ntee": "A60", "ruling": "200401", "deductibility": "1", "assets": 0, "income": 0, "revenue": 0}, {"ein": "205003915", "name": "NORTHPORT VOLUNTEER FIRE DEPARTMENT BENEVOLENT FUND CORPORATION", "city": "NORTHPORT", "state": "NY", "zip": "11768-1726", "ntee": "M12", "ruling": "202306", "deductibility": "1", "assets": 1886485, "income": 483076, "revenue": 48982}, {"ein": "205469681", "name": "NORTHPORT VOLUNTEER FIRE DEPARTMENTTRANSPORTATION EQUIPMENT AND ACTIV", "city": "NORTHPORT", "state": "NY", "zip": "11768-1726", "ntee": "M24", "ruling": "202307", "deductibility": "1", "assets": 2546297, "income": 908724, "revenue": 598415}, {"ein": "205873519", "name": "FRIENNDS OF NORTHPORT INC", "city": "NORTHPORT", "state": "NY", "zip": "11768-0393", "ntee": "B12", "ruling": "201503", "deductibility": "1", "assets": 378016, "income": 320745, "revenue": 219441}, {"ein": "222333652", "name": "NORTHPORT TENNIS CLUB INC", "city": "NORTHPORT", "state": "NY", "zip": "11768-0512", "ntee": "", "ruling": "198103", "deductibility": "2", "assets": 59972, "income": 110017, "revenue": 110017}, {"ein": "237344371", "name": "NORTHPORT HISTORICAL SOCIETY", "city": "NORTHPORT", "state": "NY", "zip": "11768-1730", "ntee": "A82Z", "ruling": "197401", "deductibility": "1", "assets": 3235351, "income": 354727, "revenue": 333387}, {"ein": "261333496", "name": "FRIENDS OF THE FARM NORTHPORT INC", "city": "NORTHPORT", "state": "NY", "zip": "11768-0000", "ntee": "K25", "ruling": "200908", "deductibility": "1", "assets": 76969, "income": 93840, "revenue": 93840}, {"ein": "263864864", "name": "NORTHPORT PIPE AND DRUM BAND INC", "city": "SMITHTOWN", "state": "NY", "zip": "11787-3140", "ntee": "A68", "ruling": "201210", "deductibility": "1", "assets": 0, "income": 0, "revenue": 0}, {"ein": "320012174", "name": "NORTHPORT HUNTINGTON ICE HOCKEY CLUB INC", "city": "E NORTHPORT", "state": "NY", "zip": "11731-6417", "ntee": "N60", "ruling": "200211", "deductibility": "1", "assets": 0, "income": 173766, "revenue": 173766}, {"ein": "320252659", "name": "NORTHPORT SYMPHONY ORCHESTRA INC", "city": "E NORTHPORT", "state": "NY", "zip": "11731-0482", "ntee": "A69", "ruling": "200901", "deductibility": "1", "assets": 0, "income": 0, "revenue": 0}, {"ein": "352198459", "name": "NORTHPORT TIGER FOOTBALL BOOSTER CLUB INC", "city": "E NORTHPORT", "state": "NY", "zip": "11731-0240", "ntee": "B11", "ruling": "200602", "deductibility": "1", "assets": 34598, "income": 53362, "revenue": 53362}, {"ein": "451833087", "name": "NORTHPORT TIGERS BASKETBALL CAMP CORP", "city": "NORTHPORT", "state": "NY", "zip": "11768-3103", "ntee": "O30", "ruling": "201209", "deductibility": "1", "assets": 0, "income": 0, "revenue": 0}, {"ein": "453614617", "name": "DINE NORTHPORT INC", "city": "NORTHPORT", "state": "NY", "zip": "11768-1722", "ntee": "W99", "ruling": "201404", "deductibility": "2", "assets": 0, "income": 0, "revenue": 0}, {"ein": "461233188", "name": "NORTHPORT CAT RESCUE ASSOCIATION INC", "city": "NORTHPORT", "state": "NY", "zip": "11768-3144", "ntee": "D20", "ruling": "201401", "deductibility": "1", "assets": 284823, "income": 130814, "revenue": 130814}, {"ein": "464784211", "name": "NORTHPORT MARCHING BAND BOOSTER CLUB INC", "city": "NORTHPORT", "state": "NY", "zip": "11768-3512", "ntee": "A6C", "ruling": "201411", "deductibility": "1", "assets": 23939, "income": 157353, "revenue": 157353}, {"ein": "471662942", "name": "NORTHPORT-EAST NORTHPORT ATHLETIC HALL OF FAME INCORPORATED", "city": "E NORTHPORT", "state": "NY", "zip": "11731-1336", "ntee": "N60", "ruling": "201411", "deductibility": "1", "assets": 0, "income": 0, "revenue": 0}, {"ein": "471828020", "name": "NORTHPORT STUDENTS MEAN BUSINESS INC", "city": "BRIGHTWATERS", "state": "NY", "zip": "11718-1304", "ntee": "O53", "ruling": "201409", "deductibility": "1", "assets": 0, "income": 0, "revenue": 0}, {"ein": "562327391", "name": "NORTHPORT COMMUNITY BAND", "city": "E NORTHPORT", "state": "NY", "zip": "11731-1231", "ntee": "A6C", "ruling": "200606", "deductibility": "1", "assets": 0, "income": 0, "revenue": 0}, {"ein": "800024616", "name": "NORTHPORT LACROSE CLUB INC", "city": "NORTHPORT", "state": "NY", "zip": "11768-0366", "ntee": "N60", "ruling": "200904", "deductibility": "1", "assets": 40604, "income": 112597, "revenue": 112597}, {"ein": "811056164", "name": "EAST NORTHPORT ROTARY FOUNDATION INC", "city": "E NORTHPORT", "state": "NY", "zip": "11731-0546", "ntee": "T99", "ruling": "201702", "deductibility": "1", "assets": 0, "income": 0, "revenue": 0}, {"ein": "823591396", "name": "NORTHPORT BOYS LACROSSE BOOSTER CLUB", "city": "NORTHPORT", "state": "NY", "zip": "11768-3346", "ntee": "N11", "ruling": "201906", "deductibility": "1", "assets": 0, "income": 0, "revenue": 0}, {"ein": "833787368", "name": "NORTHPORT BASEBALL BOOSTER CLUB INC", "city": "E NORTHPORT", "state": "NY", "zip": "11731-2016", "ntee": "N11", "ruling": "201904", "deductibility": "1", "assets": 0, "income": 0, "revenue": 0}, {"ein": "842950756", "name": "NORTHPORT - EAST NORTHPORT KIWANIS CHARITABLE FOUNDATION", "city": "NORTHPORT", "state": "NY", "zip": "11768-1501", "ntee": "S80", "ruling": "202210", "deductibility": "1", "assets": 26495, "income": 81334, "revenue": 81334}, {"ein": "843388042", "name": "NORTHPORT CHEER BOOSTER CLUB", "city": "NORTHPORT", "state": "NY", "zip": "11768-1512", "ntee": "B11", "ruling": "202210", "deductibility": "1", "assets": 1, "income": 11496, "revenue": 0}, {"ein": "861659476", "name": "POSEY DANCE COMPANY OF NORTHPORT INC", "city": "NORTHPORT", "state": "NY", "zip": "11768-1742", "ntee": "A65", "ruling": "202107", "deductibility": "1", "assets": 0, "income": 0, "revenue": 0}, {"ein": "862199165", "name": "NORTHPORT NATIVE GARDEN INITIATIVE INC", "city": "NORTHPORT", "state": "NY", "zip": "11768-2844", "ntee": "C99", "ruling": "202106", "deductibility": "1", "assets": 27767, "income": 45835, "revenue": 25891}, {"ein": "881206381", "name": "COMMUNITY PLAYHOUSE OF NORTHPORT INC", "city": "GREENLAWN", "state": "NY", "zip": "11740-1923", "ntee": "A65", "ruling": "202207", "deductibility": "1", "assets": 53926, "income": 170791, "revenue": 167701}, {"ein": "884247795", "name": "NORTHPORT FOOTBALL CLUB INC", "city": "NORTHPORT", "state": "NY", "zip": "11768-1921", "ntee": "N65", "ruling": "202302", "deductibility": "1", "assets": 98444, "income": 112500, "revenue": 112500}, {"ein": "911987717", "name": "NORTHPORT CHAMBER OF COMMERCE INC", "city": "NORTHPORT", "state": "NY", "zip": "11768-0033", "ntee": "S41", "ruling": "202207", "deductibility": "2", "assets": 72042, "income": 115172, "revenue": 115172}, {"ein": "991646441", "name": "NORTHPORT-EAST NORTHPORT COMMUNITY DRUG & ALCOHOL TASK FORCE INC", "city": "NORTHPORT", "state": "NY", "zip": "11768-2270", "ntee": "F21", "ruling": "202405", "deductibility": "1", "assets": 0, "income": 0, "revenue": 0}], "FIREMEN": [{"ein": "111618029", "name": "LAWRENCE CEDARHURST VOLUNTEER AND EXEMPT FIREMEN BENEVOLENT ASSO INC", "city": "LAWRENCE", "state": "NY", "zip": "11559-0000", "ntee": "", "ruling": "198601", "deductibility": "2", "assets": 1650811, "income": 300808, "revenue": 260960}, {"ein": "111785135", "name": "VOLUNTEER AND EXEMPT FIREMEN BEN ASSOC UNIONDALE", "city": "UNIONDALE", "state": "NY", "zip": "11553-2234", "ntee": "", "ruling": "199203", "deductibility": "2", "assets": 1937804, "income": 347370, "revenue": 347370}, {"ein": "141594863", "name": "CONSTABLE VOLUNTEER FIREMEN INC", "city": "CONSTABLE", "state": "NY", "zip": "12926-7700", "ntee": "", "ruling": "198005", "deductibility": "1", "assets": 1134576, "income": 189273, "revenue": 178627}, {"ein": "141662293", "name": "VOLUNTEER AND EXEMPT FIREMEN BENEEVALENT ASSOCIATION OF SALISBU", "city": "SALISBURY MLS", "state": "NY", "zip": "12577-0279", "ntee": "I60", "ruling": "201112", "deductibility": "2", "assets": 0, "income": 0, "revenue": 0}, {"ein": "160916892", "name": "BOWMANSVILLE VOL FIREMEN ASSN INC", "city": "BOWMANSVILLE", "state": "NY", "zip": "14026-1023", "ntee": "M240", "ruling": "199908", "deductibility": "1", "assets": 6274203, "income": 1340487, "revenue": 1322939}, {"ein": "161143083", "name": "ONONDAGA COUNTY VOLUNTEER FIREMEN", "city": "SOLVAY", "state": "NY", "zip": "13209-0323", "ntee": "", "ruling": "199408", "deductibility": "1", "assets": 184709, "income": 49957, "revenue": 49957}, {"ein": "161332046", "name": "VOLUNTEER FIREMEN EXEMPTS OF THE WEBSTER AREA INC", "city": "WEBSTER", "state": "NY", "zip": "14580-0141", "ntee": "M24", "ruling": "202305", "deductibility": "2", "assets": 0, "income": 0, "revenue": 0}, {"ein": "166028286", "name": "SOUTHPORT VOLUNTEER FIREMEN INC", "city": "ELMIRA", "state": "NY", "zip": "14904-2601", "ntee": "M24", "ruling": "201410", "deductibility": "1", "assets": 1903012, "income": 388770, "revenue": 375837}, {"ein": "237054773", "name": "PITTSFORD EXEMPT FIREMEN INC", "city": "PITTSFORD", "state": "NY", "zip": "14534-9736", "ntee": "M60", "ruling": "201401", "deductibility": "2", "assets": 0, "income": 0, "revenue": 0}, {"ein": "813100039", "name": "FIREMEN OF ENGINE 96 LADDER 54", "city": "BRONX", "state": "NY", "zip": "10473-4038", "ntee": "N50", "ruling": "201702", "deductibility": "2", "assets": 0, "income": 0, "revenue": 0}], "PRECIOUS": [{"ein": "111630833", "name": "SISTERS ADORERS OF THE PRECIOUS BLOOD", "city": "BROOKLYN", "state": "NY", "zip": "11219-0000", "ntee": "", "ruling": "194603", "deductibility": "1", "assets": 0, "income": 0, "revenue": 0}, {"ein": "113517586", "name": "PRECIOUS STONE INTERNATIONAL INC", "city": "BROOKLYN", "state": "NY", "zip": "11207-4806", "ntee": "P84", "ruling": "201501", "deductibility": "1", "assets": 0, "income": 0, "revenue": 0}, {"ein": "113577404", "name": "HAPPY BUDDHA PRECIOUS TEMPLE INC", "city": "FLUSHING", "state": "NY", "zip": "11354-6601", "ntee": "X50", "ruling": "200104", "deductibility": "1", "assets": 3457024, "income": 347704, "revenue": 347704}, {"ein": "133608686", "name": "HELPERS OF GODS PRECIOUS INFANTS INC", "city": "BROOKLYN", "state": "NY", "zip": "11219-0000", "ntee": "R62Z", "ruling": "199109", "deductibility": "1", "assets": 0, "income": 0, "revenue": 0}, {"ein": "133729574", "name": "PRECIOUS PAWS", "city": "VAILS GATE", "state": "NY", "zip": "12584-0454", "ntee": "D20Z", "ruling": "199309", "deductibility": "1", "assets": 0, "income": 0, "revenue": 0}, {"ein": "135562415", "name": "CHURCH OF THE MOST PRECIOUS BLOOD", "city": "NEW YORK", "state": "NY", "zip": "10012-3305", "ntee": "", "ruling": "194603", "deductibility": "1", "assets": 0, "income": 0, "revenue": 0}, {"ein": "161388632", "name": "PRECIOUS JEWELS DAY CARE CENTER INC", "city": "BUFFALO", "state": "NY", "zip": "14203-1711", "ntee": "P33Z", "ruling": "199201", "deductibility": "1", "assets": 0, "income": 0, "revenue": 0}, {"ein": "161447703", "name": "PRECIOUS OIL MINISTRIES INC", "city": "OTEGO", "state": "NY", "zip": "13825-0511", "ntee": "P20", "ruling": "201807", "deductibility": "1", "assets": 0, "income": 0, "revenue": 0}, {"ein": "263307057", "name": "PRECIOUS JEM MINISTRIES INC", "city": "POMONA", "state": "NY", "zip": "10970-2922", "ntee": "P20", "ruling": "201707", "deductibility": "1", "assets": 0, "income": 0, "revenue": 0}, {"ein": "263890776", "name": "PRECIOUS PAWS RESCUE INC", "city": "N TONAWANDA", "state": "NY", "zip": "14120-9023", "ntee": "D20", "ruling": "201002", "deductibility": "1", "assets": 0, "income": 0, "revenue": 0}, {"ein": "273835053", "name": "PRECIOUS GEMS OF GOD INC", "city": "BROOKLYN", "state": "NY", "zip": "11237-1906", "ntee": "P82", "ruling": "201111", "deductibility": "1", "assets": 0, "income": 0, "revenue": 0}, {"ein": "332363729", "name": "PRECIOUS SEED MINISTRIES LTD", "city": "CHATHAM", "state": "NY", "zip": "12037-0000", "ntee": "A12", "ruling": "202501", "deductibility": "1", "assets": 0, "income": 0, "revenue": 0}, {"ein": "450676855", "name": "PRECIOUS FIRST STEP CHILD DEVELOPMENT CENTER INC", "city": "JAMAICA", "state": "NY", "zip": "11436-1720", "ntee": "E60", "ruling": "202010", "deductibility": "1", "assets": 0, "income": 0, "revenue": 0}, {"ein": "455456961", "name": "PRECIOUS DREAMS FOUNDATION", "city": "INWOOD", "state": "NY", "zip": "11096-2211", "ntee": "T30", "ruling": "201402", "deductibility": "1", "assets": 305360, "income": 474568, "revenue": 474568}, {"ein": "462829401", "name": "PRECIOUS SISTERS INC", "city": "NORTH BALDWIN", "state": "NY", "zip": "11510-1927", "ntee": "P40", "ruling": "202101", "deductibility": "1", "assets": 0, "income": 0, "revenue": 0}, {"ein": "812391633", "name": "PRECIOUS HEARTS SISTERHOOD INC", "city": "BROOKLYN", "state": "NY", "zip": "11208-4801", "ntee": "P20", "ruling": "201702", "deductibility": "1", "assets": 16845, "income": 518825, "revenue": 518825}, {"ein": "822556821", "name": "WILD AND PRECIOUS LIFE INC", "city": "HUNTINGTON", "state": "NY", "zip": "11743-3504", "ntee": "W99", "ruling": "201709", "deductibility": "1", "assets": 0, "income": 0, "revenue": 0}, {"ein": "823799019", "name": "PRECIOUS CHILDREN INC", "city": "MONSEY", "state": "NY", "zip": "10952-3613", "ntee": "P58", "ruling": "201803", "deductibility": "1", "assets": 0, "income": 0, "revenue": 0}, {"ein": "832379229", "name": "PRECIOUS SCHOOL FRIENDS INC", "city": "DIX HILLS", "state": "NY", "zip": "11746-5315", "ntee": "T50", "ruling": "201907", "deductibility": "1", "assets": 0, "income": 0, "revenue": 0}, {"ein": "842463073", "name": "PRECIOUS POUND PUPS INC", "city": "HILLSDALE", "state": "NY", "zip": "12529-4006", "ntee": "D11", "ruling": "201909", "deductibility": "1", "assets": 56756, "income": 52411, "revenue": 52411}, {"ein": "854209062", "name": "PRECIOUS GIFT INC", "city": "JAMAICA", "state": "NY", "zip": "11433-0000", "ntee": "L41", "ruling": "202505", "deductibility": "1", "assets": 0, "income": 0, "revenue": 0}, {"ein": "922296182", "name": "PRECIOUS NETWORK INC", "city": "HASTINGS HDSN", "state": "NY", "zip": "10706-1043", "ntee": "P20", "ruling": "202302", "deductibility": "1", "assets": 0, "income": 0, "revenue": 0}, {"ein": "991887364", "name": "PRECIOUS SOULS USA INC", "city": "ALBANY", "state": "NY", "zip": "12207-2834", "ntee": "P12", "ruling": "202403", "deductibility": "1", "assets": 0, "income": 0, "revenue": 0}], "POPE": [{"ein": "111633530", "name": "ST CLEMENT POPE CHURCH", "city": "S OZONE PARK", "state": "NY", "zip": "11436-1437", "ntee": "", "ruling": "194603", "deductibility": "1", "assets": 0, "income": 0, "revenue": 0}, {"ein": "133605053", "name": "FRANCES POPE MEMORIAL FOUNDATION INC", "city": "NEW YORK", "state": "NY", "zip": "10028-5829", "ntee": "T00Z", "ruling": "199303", "deductibility": "1", "assets": 184466, "income": 415997, "revenue": 202930}, {"ein": "136096193", "name": "GENEROSO POPE FOUNDATION", "city": "TUCKAHOE", "state": "NY", "zip": "10707-0000", "ntee": "", "ruling": "194906", "deductibility": "1", "assets": 3099819, "income": 1, "revenue": 0}, {"ein": "264719888", "name": "POPE JOHN PAUL II FAMILY ACADEMY", "city": "NEW YORK", "state": "NY", "zip": "10022-1010", "ntee": "B24", "ruling": "201003", "deductibility": "1", "assets": 0, "income": 0, "revenue": 0}, {"ein": "842448207", "name": "HOPE THROUGH POPE INC", "city": "LAGRANGEVILLE", "state": "NY", "zip": "12540-6233", "ntee": "P12", "ruling": "202005", "deductibility": "1", "assets": 5205, "income": 904, "revenue": 904}], "EZRA": [{"ein": "112222173", "name": "EZRA ACADEMY OF QUEENS", "city": "FOREST HILLS", "state": "NY", "zip": "11375-6144", "ntee": "", "ruling": "197310", "deductibility": "1", "assets": 335133, "income": 2034943, "revenue": 1945087}, {"ein": "112436605", "name": "HACHNUSAS KALA V EZRA C O BENJAMIN ISAACS", "city": "BROOKLYN", "state": "NY", "zip": "11218-3574", "ntee": "", "ruling": "197711", "deductibility": "1", "assets": 0, "income": 0, "revenue": 0}, {"ein": "112506776", "name": "MIFAL EZRA V CHESED", "city": "BROOKLYN", "state": "NY", "zip": "11219-1609", "ntee": "", "ruling": "198002", "deductibility": "1", "assets": 0, "income": 0, "revenue": 0}, {"ein": "112670698", "name": "EZRA LEMARPEH", "city": "BROOKLYN", "state": "NY", "zip": "11218-4414", "ntee": "", "ruling": "198509", "deductibility": "1", "assets": 0, "income": 0, "revenue": 0}, {"ein": "112718590", "name": "EZRA LANITZRACHIM AL SHEM BORUCH PINCHOS", "city": "BROOKLYN", "state": "NY", "zip": "11204-1824", "ntee": "", "ruling": "198503", "deductibility": "1", "assets": 0, "income": 0, "revenue": 0}, {"ein": "113330711", "name": "CONGREGATION EZRA SHOLOM", "city": "BROOKLYN", "state": "NY", "zip": "11223-3242", "ntee": "X20Z", "ruling": "199612", "deductibility": "1", "assets": 0, "income": 0, "revenue": 0}, {"ein": "113547559", "name": "AMERICAN FRIENDS OF EZRA LMARPEH INC", "city": "BROOKLYN", "state": "NY", "zip": "11219-1833", "ntee": "Q33", "ruling": "200011", "deductibility": "1", "assets": 72743, "income": 99668, "revenue": 99668}, {"ein": "113563681", "name": "CONG EZRA VCHESED MISHNAS YAKOV", "city": "BROOKLYN", "state": "NY", "zip": "11220-2324", "ntee": "X30", "ruling": "200105", "deductibility": "1", "assets": 0, "income": 0, "revenue": 0}, {"ein": "116487876", "name": "EZRA CHARITABLE TR", "city": "LAWRENCE", "state": "NY", "zip": "11559-1522", "ntee": "T20Z", "ruling": "199710", "deductibility": "1", "assets": 7618646, "income": 562615, "revenue": 0}, {"ein": "132739211", "name": "PROJECT EZRA", "city": "NEWYORK", "state": "NY", "zip": "10002-3969", "ntee": "P810", "ruling": "197503", "deductibility": "1", "assets": 1026984, "income": 446616, "revenue": 361441}, {"ein": "133410527", "name": "EZRA & SHARYN ASHKENAZI FOUNDATION INC", "city": "BROOKLYN", "state": "NY", "zip": "11223-3057", "ntee": "", "ruling": "198801", "deductibility": "1", "assets": 161104, "income": 134545, "revenue": 0}, {"ein": "133781387", "name": "AMERICAN FRIENDS OF YESHIVAT HECHAL EZRA", "city": "BROOKLYN", "state": "NY", "zip": "11210-3714", "ntee": "", "ruling": "199409", "deductibility": "1", "assets": 0, "income": 0, "revenue": 0}, {"ein": "133980258", "name": "MAGEN EZRA FOUNDATION", "city": "NEW YORK", "state": "NY", "zip": "10018-0000", "ntee": "T20Z", "ruling": "199802", "deductibility": "1", "assets": 56662, "income": 5787, "revenue": 0}, {"ein": "133986707", "name": "EZRA & RENEE DABAH CHARITABLE FOUNDATION INC", "city": "NEW YORK", "state": "NY", "zip": "10111-2497", "ntee": "T21", "ruling": "199902", "deductibility": "1", "assets": 1254, "income": 6552, "revenue": 0}, {"ein": "134155266", "name": "CONG SHAREI EZRA INC", "city": "MONROE", "state": "NY", "zip": "10950-8462", "ntee": "X30", "ruling": "200112", "deductibility": "1", "assets": 0, "income": 0, "revenue": 0}, {"ein": "205767525", "name": "EZRA - USA", "city": "BROOKLYN", "state": "NY", "zip": "11223-6240", "ntee": "X30", "ruling": "200712", "deductibility": "1", "assets": 0, "income": 0, "revenue": 0}, {"ein": "237003092", "name": "RUTH & EZRA CHESKY FOUNDATION", "city": "NEW YORK", "state": "NY", "zip": "10016-0000", "ntee": "", "ruling": "196811", "deductibility": "1", "assets": 295104, "income": 226228, "revenue": 0}, {"ein": "237072750", "name": "EZRA JACK KEATS FOUNDATION INC", "city": "BROOKLYN", "state": "NY", "zip": "11215-5702", "ntee": "", "ruling": "197008", "deductibility": "1", "assets": 4550292, "income": 804358, "revenue": 0}, {"ein": "331695716", "name": "KAHAL YAD EZRA", "city": "BROOKLYN", "state": "NY", "zip": "11230-6710", "ntee": "X30", "ruling": "202501", "deductibility": "1", "assets": 0, "income": 0, "revenue": 0}, {"ein": "332293948", "name": "YAD EZRA DBOBOV-45", "city": "BROOKLYN", "state": "NY", "zip": "11219-1608", "ntee": "X30", "ruling": "202506", "deductibility": "1", "assets": 0, "income": 0, "revenue": 0}, {"ein": "352169580", "name": "EZRA LISOMIM INC", "city": "BROOKLYN", "state": "NY", "zip": "11219-2931", "ntee": "T31", "ruling": "200303", "deductibility": "1", "assets": 220256, "income": 122714, "revenue": 122714}, {"ein": "352192137", "name": "MIFAL EZRA ZICHRON YEHIDE", "city": "BROOKLYN", "state": "NY", "zip": "11205-1673", "ntee": "X30", "ruling": "200309", "deductibility": "1", "assets": 0, "income": 0, "revenue": 0}, {"ein": "384256589", "name": "BAIS EZRA", "city": "HARRIMAN", "state": "NY", "zip": "10926-0351", "ntee": "X30", "ruling": "202307", "deductibility": "1", "assets": 0, "income": 0, "revenue": 0}, {"ein": "455106354", "name": "LEV EZRA", "city": "BROOKLYN", "state": "NY", "zip": "11229-0000", "ntee": "T30", "ruling": "201407", "deductibility": "1", "assets": 5654, "income": 104612, "revenue": 104612}, {"ein": "455187540", "name": "EZRA-HELP", "city": "BROOKLYN", "state": "NY", "zip": "11219-1604", "ntee": "P20", "ruling": "201207", "deductibility": "1", "assets": 6780, "income": 32387, "revenue": 32387}, {"ein": "461884440", "name": "EZRA CORNMAN BAR MITZVAH FOUNDATION INC", "city": "BROOKLYN", "state": "NY", "zip": "11223-0686", "ntee": "Z99", "ruling": "201406", "deductibility": "1", "assets": 53388, "income": 8563, "revenue": 0}, {"ein": "462668025", "name": "EZRA LEYISRAEL FOUNDATION INC", "city": "BROOKLYN", "state": "NY", "zip": "11223-4040", "ntee": "T22", "ruling": "201508", "deductibility": "1", "assets": 1435, "income": 78, "revenue": 0}, {"ein": "510188299", "name": "HECHAL EZRA TALMUD TORAK", "city": "BROOKLYN", "state": "NY", "zip": "11223-4045", "ntee": "", "ruling": "197605", "deductibility": "1", "assets": 0, "income": 0, "revenue": 0}, {"ein": "522331924", "name": "OHR SHALOM VECHESED EZRA LSHABBOS", "city": "BROOKLYN", "state": "NY", "zip": "11211-7257", "ntee": "X30", "ruling": "200608", "deductibility": "1", "assets": 0, "income": 0, "revenue": 0}, {"ein": "861646284", "name": "KIPAS EZRA INC", "city": "BROOKLYN", "state": "NY", "zip": "11249-0000", "ntee": "X30", "ruling": "202107", "deductibility": "1", "assets": 0, "income": 0, "revenue": 0}, {"ein": "862144586", "name": "KEREN EZRA MEMITZUKA INC", "city": "BROOKLYN", "state": "NY", "zip": "11219-5198", "ntee": "T12", "ruling": "202109", "deductibility": "1", "assets": 340473, "income": 2577235, "revenue": 2577235}, {"ein": "874340531", "name": "SHAARE EZRA", "city": "BROOKLYN", "state": "NY", "zip": "11229-3509", "ntee": "X30", "ruling": "202208", "deductibility": "1", "assets": 0, "income": 0, "revenue": 0}, {"ein": "922022341", "name": "YAD EZRA INC", "city": "BROOKLYN", "state": "NY", "zip": "11211-7578", "ntee": "E86", "ruling": "202401", "deductibility": "1", "assets": 0, "income": 0, "revenue": 0}, {"ein": "931588232", "name": "SHAAREI EZRA INC", "city": "STATEN ISLAND", "state": "NY", "zip": "10309-0173", "ntee": "P20", "ruling": "202401", "deductibility": "1", "assets": 0, "income": 0, "revenue": 0}, {"ein": "932969479", "name": "CONGREGATION EZRA VCHESED", "city": "BROOKLYN", "state": "NY", "zip": "11204-2380", "ntee": "X30", "ruling": "202404", "deductibility": "1", "assets": 0, "income": 0, "revenue": 0}, {"ein": "933328642", "name": "EZRA WORLD OF CHAZANUT", "city": "FOREST HILLS", "state": "NY", "zip": "11375-2937", "ntee": "O55", "ruling": "202311", "deductibility": "1", "assets": 0, "income": 0, "revenue": 0}], "STRACHAN": [{"ein": "112420730", "name": "UNITED PENTECOSTAL ASSEMBLY INC C O REV JOEL STRACHAN", "city": "JAMAICA", "state": "NY", "zip": "11435-5424", "ntee": "", "ruling": "197705", "deductibility": "1", "assets": 0, "income": 0, "revenue": 0}, {"ein": "510395555", "name": "JOHN AND FRANCES STRACHAN CHARITABLE FOUNDATION", "city": "LATHAM", "state": "NY", "zip": "12110-2902", "ntee": "T22", "ruling": "200002", "deductibility": "1", "assets": 885779, "income": 124695, "revenue": 0}], "FARMHOUSE": [{"ein": "112508369", "name": "COLONIAL FARMHOUSE RESTORATION SOCIETY OF BELLEROSE INC", "city": "FLORAL PARK", "state": "NY", "zip": "11004-1129", "ntee": "", "ruling": "197911", "deductibility": "1", "assets": 3562779, "income": 3239048, "revenue": 3115884}, {"ein": "320035632", "name": "DYCKMAN FARMHOUSE MUSEUM", "city": "NEW YORK", "state": "NY", "zip": "10034-3101", "ntee": "A54", "ruling": "201209", "deductibility": "1", "assets": 566543, "income": 347975, "revenue": 347975}, {"ein": "990500665", "name": "FREEDOM FARMHOUSE INC", "city": "MACEDON", "state": "NY", "zip": "14502-8913", "ntee": "D20", "ruling": "202410", "deductibility": "1", "assets": 0, "income": 0, "revenue": 0}], "OVERSEAS": [{"ein": "112510097", "name": "HAITIAN OVERSEAS ORGAN OF SPIRITUAL BENEVOLENCE AND EVANGELIZATION INC", "city": "BROOKLYN", "state": "NY", "zip": "11225-5418", "ntee": "", "ruling": "198001", "deductibility": "1", "assets": 0, "income": 0, "revenue": 0}, {"ein": "112995986", "name": "STUMP OVERSEAS MISSION INC", "city": "BREWSTER", "state": "NY", "zip": "10509-2110", "ntee": "X99", "ruling": "202004", "deductibility": "1", "assets": 14384, "income": 7025, "revenue": 7025}, {"ein": "113012393", "name": "OVERSEAS MISSION OF NEW YORK INC", "city": "WOODSIDE", "state": "NY", "zip": "11377-2538", "ntee": "", "ruling": "199209", "deductibility": "1", "assets": 0, "income": 0, "revenue": 0}, {"ein": "113012576", "name": "OVERSEAS SINDHU SABHA", "city": "LITTLE NECK", "state": "NY", "zip": "11363-1647", "ntee": "", "ruling": "199203", "deductibility": "1", "assets": 0, "income": 0, "revenue": 0}, {"ein": "113505815", "name": "MACLIN OVERSEAS NURSES ALLIANCE", "city": "BROOKLYN", "state": "NY", "zip": "11233-1253", "ntee": "E70", "ruling": "200512", "deductibility": "1", "assets": 0, "income": 0, "revenue": 0}, {"ein": "116038041", "name": "EAST MEADOW OVERSEAS VETERANS MEMORIAL ASSN INC", "city": "OCEANSIDE", "state": "NY", "zip": "11572-4716", "ntee": "", "ruling": "199201", "deductibility": "1", "assets": 0, "income": 0, "revenue": 0}, {"ein": "131140459", "name": "OVERSEAS PRESS CLUB OF AMERICA INC", "city": "NEW YORK", "state": "NY", "zip": "10036-4261", "ntee": "", "ruling": "195402", "deductibility": "2", "assets": 145366, "income": 144509, "revenue": 144509}, {"ein": "136117706", "name": "OVERSEAS PRESS CLUB FOUNDATION", "city": "NEW YORK", "state": "NY", "zip": "10036-4261", "ntee": "", "ruling": "196409", "deductibility": "1", "assets": 2247901, "income": 258545, "revenue": 247753}, {"ein": "150504730", "name": "CORTLAND OVERSEAS VETERANS CLUB INC", "city": "CORTLAND", "state": "NY", "zip": "13045-0704", "ntee": "", "ruling": "194807", "deductibility": "2", "assets": 0, "income": 0, "revenue": 0}, {"ein": "160724892", "name": "SILVER CREEK OVERSEAS VETERANS ASSOCIATION INC", "city": "SILVER CREEK", "state": "NY", "zip": "14136-1050", "ntee": "", "ruling": "195006", "deductibility": "2", "assets": 240894, "income": 97420, "revenue": 44101}, {"ein": "161056815", "name": "HAMBURG LAKESHORE OVERSEAS VET INC", "city": "HAMBURG", "state": "NY", "zip": "14075-6009", "ntee": "", "ruling": "198011", "deductibility": "1", "assets": 1201472, "income": 1316403, "revenue": 263219}, {"ein": "161537989", "name": "PERINTON OVERSEAS VET INC", "city": "FAIRPORT", "state": "NY", "zip": "14450-0092", "ntee": "N50", "ruling": "200904", "deductibility": "2", "assets": 189061, "income": 153964, "revenue": 91830}, {"ein": "201033710", "name": "PILGRIM OVERSEAS MISSIONARY SOCIETY CORP", "city": "ST ALBANS", "state": "NY", "zip": "11412-2319", "ntee": "X20", "ruling": "202311", "deductibility": "1", "assets": 0, "income": 0, "revenue": 0}, {"ein": "203532383", "name": "COUNCIL OF OVERSEAS CHINESE SERVICES INC", "city": "NEW YORK", "state": "NY", "zip": "10009-7326", "ntee": "P84", "ruling": "200702", "deductibility": "1", "assets": 0, "income": 0, "revenue": 0}, {"ein": "223158001", "name": "CANASTOTA OVERSEAS VETERANS ASSOCIATION INC", "city": "CANASTOTA", "state": "NY", "zip": "13032-0104", "ntee": "", "ruling": "199211", "deductibility": "2", "assets": 0, "income": 0, "revenue": 0}, {"ein": "237172141", "name": "CAMDEN OVERSEAS VET ADMIN", "city": "CAMDEN", "state": "NY", "zip": "13316-1339", "ntee": "", "ruling": "197210", "deductibility": "1", "assets": 0, "income": 0, "revenue": 0}, {"ein": "313814010", "name": "OVERSEAS CHINESE PHYSICS", "city": "NEW YORK", "state": "NY", "zip": "10031-9101", "ntee": "", "ruling": "199008", "deductibility": "1", "assets": 463153, "income": 13033, "revenue": 13033}, {"ein": "452384298", "name": "AMERICAN OVERSEAS MEMORIAL DAY ASSOCIATION FOUNDATION", "city": "JEFFERSON VALLEY", "state": "NY", "zip": "10535-0000", "ntee": "W30", "ruling": "201203", "deductibility": "1", "assets": 504052, "income": 233090, "revenue": 233090}, {"ein": "473858444", "name": "OVERSEAS NEPALI FORUM USA INC", "city": "JAMAICA", "state": "NY", "zip": "11436-2044", "ntee": "Q33", "ruling": "201511", "deductibility": "1", "assets": 0, "income": 0, "revenue": 0}, {"ein": "521294852", "name": "KASHMIRI OVERSEAS ASSOCIATION INC", "city": "NEW YORK", "state": "NY", "zip": "10016-6601", "ntee": "Q710", "ruling": "198309", "deductibility": "1", "assets": 811535, "income": 525943, "revenue": 525943}, {"ein": "811181506", "name": "OVERSEAS AID INC", "city": "BROOKLYN", "state": "NY", "zip": "11228-2634", "ntee": "P20", "ruling": "202406", "deductibility": "1", "assets": 0, "income": 0, "revenue": 0}, {"ein": "814242876", "name": "OVERSEAS ALUMNI ASSOCIATION OF SHANGHAI SECOND MEDICAL UNIVERSITY", "city": "BAYSIDE", "state": "NY", "zip": "11361-3121", "ntee": "B84", "ruling": "201703", "deductibility": "1", "assets": 0, "income": 0, "revenue": 0}, {"ein": "814968503", "name": "CHINESE OVERSEAS ARTISTS ASSOCIATION INC", "city": "FOREST HILLS", "state": "NY", "zip": "11375-7208", "ntee": "Q21", "ruling": "201701", "deductibility": "1", "assets": 0, "income": 0, "revenue": 0}, {"ein": "844337855", "name": "AMERICAN OVERSEAS ARTIST THEATRE INC", "city": "FLUSHING", "state": "NY", "zip": "11354-2827", "ntee": "A20", "ruling": "202106", "deductibility": "1", "assets": 0, "income": 0, "revenue": 0}, {"ein": "861497029", "name": "OVERSEAS FRIENDS OF ANJUMAN INC", "city": "JAMAICA", "state": "NY", "zip": "11432-3628", "ntee": "X40", "ruling": "202205", "deductibility": "1", "assets": 20078, "income": 7148, "revenue": 7148}, {"ein": "873745639", "name": "FEDERATION OF HAITIAN PROTESTANT CHURCHES OVERSEAS CORP", "city": "UNIONDALE", "state": "NY", "zip": "11553-2525", "ntee": "X02", "ruling": "202202", "deductibility": "1", "assets": 1, "income": 1, "revenue": 0}, {"ein": "883758604", "name": "US-CHINA OVERSEAS STUDENTS AND SCHOLARS ALLIANCE", "city": "NEW YORK", "state": "NY", "zip": "10001-0000", "ntee": "A01", "ruling": "202210", "deductibility": "1", "assets": 2531, "income": 4515, "revenue": 0}, {"ein": "980058485", "name": "FEDERATION OF AMERICAN WOMENS CLUBS OVERSEAS INC", "city": "NEW YORK", "state": "NY", "zip": "10005-4301", "ntee": "", "ruling": "198804", "deductibility": "1", "assets": 305154, "income": 131747, "revenue": 131747}], "KAALEV": [{"ein": "112513143", "name": "YESHIVA OHEL SHAIM D KAALEV INC", "city": "BROOKLYN", "state": "NY", "zip": "11211-8519", "ntee": "", "ruling": "197912", "deductibility": "1", "assets": 0, "income": 0, "revenue": 0}, {"ein": "112514870", "name": "CONGREGATION BAIS MOISHE D KAALEV INC", "city": "BROOKLYN", "state": "NY", "zip": "11211-8101", "ntee": "", "ruling": "198001", "deductibility": "1", "assets": 0, "income": 0, "revenue": 0}], "PUPPET": [{"ein": "112525303", "name": "ROD AND THE ROSE PUPPET THEATRE THE", "city": "MOUNT VERNON", "state": "NY", "zip": "10550-1506", "ntee": "", "ruling": "198208", "deductibility": "1", "assets": 0, "income": 0, "revenue": 0}, {"ein": "133095890", "name": "EARLY CHILDHOOD PUPPET", "city": "NEW YORK", "state": "NY", "zip": "10014-2010", "ntee": "", "ruling": "198201", "deductibility": "1", "assets": 0, "income": 0, "revenue": 0}, {"ein": "208757189", "name": "SMALL WONDER PUPPET THEATRE INC", "city": "BROOKLYN", "state": "NY", "zip": "11213-4208", "ntee": "A60", "ruling": "200811", "deductibility": "1", "assets": 21937, "income": 97235, "revenue": 97235}, {"ein": "264664745", "name": "LOCO7 DANCE PUPPET THEATRE COMPANY INCORPORATED", "city": "NEW YORK", "state": "NY", "zip": "10003-8997", "ntee": "A61", "ruling": "200911", "deductibility": "1", "assets": 19026, "income": 119959, "revenue": 119959}, {"ein": "271477585", "name": "FLEXITOON PUPPET THEATRE INC", "city": "THORNWOOD", "state": "NY", "zip": "10594-1004", "ntee": "A65", "ruling": "201004", "deductibility": "1", "assets": 0, "income": 0, "revenue": 0}, {"ein": "824919790", "name": "LILYPAD PUPPET THEATRE INC", "city": "FREEVILLE", "state": "NY", "zip": "13068-5733", "ntee": "A65", "ruling": "201804", "deductibility": "1", "assets": 0, "income": 0, "revenue": 0}, {"ein": "825192283", "name": "MUSIC ART PUPPET SOUND INC", "city": "NEW YORK", "state": "NY", "zip": "10012-4333", "ntee": "A20", "ruling": "201805", "deductibility": "1", "assets": 67252, "income": 188626, "revenue": 188626}], "BAPTISTCHURCH": [{"ein": "112551477", "name": "FAITH GOSPEL ASSEMBLY BAPTISTCHURCH INC", "city": "BROOKLYN", "state": "NY", "zip": "11203-1800", "ntee": "", "ruling": "198102", "deductibility": "1", "assets": 0, "income": 0, "revenue": 0}, {"ein": "133036356", "name": "THE FIRST BAPTISTCHURCH OF CENTRAL HARLEM INC", "city": "NEW YORK", "state": "NY", "zip": "10027-5534", "ntee": "", "ruling": "198112", "deductibility": "1", "assets": 0, "income": 0, "revenue": 0}], "TOWNSEND": [{"ein": "112593334", "name": "TOWNSEND HARRIS ALUMNI ASSOCIATION INC", "city": "NEW YORK", "state": "NY", "zip": "10011-5470", "ntee": "", "ruling": "199410", "deductibility": "1", "assets": 2515783, "income": 254268, "revenue": 254268}, {"ein": "132627228", "name": "PARENT TEACHER ASSOCIATION OF TOWNSEND HARRIS HIGH SCHOOL", "city": "FLUSHING", "state": "NY", "zip": "11367-1306", "ntee": "", "ruling": "199306", "deductibility": "1", "assets": 72616, "income": 89481, "revenue": 71772}, {"ein": "133748079", "name": "TOWNSEND FAMILY FOUNDATION", "city": "ALBANY", "state": "NY", "zip": "12212-5201", "ntee": "T31J", "ruling": "199412", "deductibility": "1", "assets": 3688001, "income": 4862633, "revenue": 0}, {"ein": "136040999", "name": "HENRY TOWNSEND ESTATE COMMUNITY SERVICE SOCIETY OF NEW YORK TRUST", "city": "NEW YORK", "state": "NY", "zip": "10008-1297", "ntee": "", "ruling": "197107", "deductibility": "1", "assets": 943604, "income": 261302, "revenue": 0}, {"ein": "136085379", "name": "FRANCES & TOWNSEND BURDEN FOUNDATION", "city": "NEW YORK", "state": "NY", "zip": "10010-0000", "ntee": "", "ruling": "196306", "deductibility": "1", "assets": 140418, "income": 68781, "revenue": 0}, {"ein": "166464977", "name": "MARGUERITE D STEWART TOWNSEND CHARITABLE TRUST", "city": "BATAVIA", "state": "NY", "zip": "14020-0000", "ntee": "T20", "ruling": "200110", "deductibility": "1", "assets": 4298789, "income": 1326270, "revenue": 0}, {"ein": "472619608", "name": "TOWNSEND HOME HOUSING DEVELOPMENT FUND COMPANY INC", "city": "SYRACUSE", "state": "NY", "zip": "13203-2879", "ntee": "L20", "ruling": "201604", "deductibility": "1", "assets": 4515112, "income": 455976, "revenue": 455976}, {"ein": "611727252", "name": "TOWNSEND CEMETERY ASSOCIATION", "city": "HOLLAND PATNT", "state": "NY", "zip": "13354-3656", "ntee": "Y50", "ruling": "201703", "deductibility": "1", "assets": 0, "income": 0, "revenue": 0}], "LITIGATION": [{"ein": "112604935", "name": "EASTERN DISTRICT CIVIL LITIGATION FUND INC", "city": "NEW YORK", "state": "NY", "zip": "10004-0000", "ntee": "I83Z", "ruling": "199806", "deductibility": "1", "assets": 228139, "income": 23903, "revenue": 23903}, {"ein": "113360488", "name": "CENTER FOR APPELLATE LITIGATION", "city": "NEW YORK", "state": "NY", "zip": "10005-0000", "ntee": "I80", "ruling": "199805", "deductibility": "1", "assets": 6660862, "income": 13202689, "revenue": 13202689}, {"ein": "883029662", "name": "FREE AND FAIR LITIGATION GROUP INC", "city": "NEW YORK", "state": "NY", "zip": "10018-6648", "ntee": "", "ruling": "202209", "deductibility": "1", "assets": 1581569, "income": 1789355, "revenue": 1789355}], "TOMCHE": [{"ein": "112674159", "name": "TOMCHE YESOMIM", "city": "BROOKLYN", "state": "NY", "zip": "11204-1806", "ntee": "", "ruling": "198405", "deductibility": "1", "assets": 0, "income": 0, "revenue": 0}, {"ein": "112739073", "name": "CHEVRA TOMCHE DALIM", "city": "BROOKLYN", "state": "NY", "zip": "11211-7216", "ntee": "", "ruling": "198507", "deductibility": "1", "assets": 0, "income": 0, "revenue": 0}, {"ein": "113518348", "name": "TOMCHE SHABBOS OF BORO PARK AND FLATBUSH INC", "city": "BROOKLYN", "state": "NY", "zip": "11219-2926", "ntee": "K30", "ruling": "200201", "deductibility": "1", "assets": 0, "income": 0, "revenue": 0}, {"ein": "133694712", "name": "TOMCHE SHABBOS OF ROCKLAND COUNTY", "city": "SUFFERN", "state": "NY", "zip": "10901-5319", "ntee": "K300", "ruling": "199405", "deductibility": "1", "assets": 3709086, "income": 11486090, "revenue": 11486090}, {"ein": "133751481", "name": "BETH TOMCHE TORAH HOME OF THE SAGES OF ISRAEL INC", "city": "NEW YORK", "state": "NY", "zip": "10002-4008", "ntee": "X30H", "ruling": "199506", "deductibility": "1", "assets": 0, "income": 0, "revenue": 0}, {"ein": "133931058", "name": "TOMCHE MISHPACOS", "city": "MONROE", "state": "NY", "zip": "10950-6303", "ntee": "X30I", "ruling": "199709", "deductibility": "1", "assets": 0, "income": 0, "revenue": 0}, {"ein": "270046414", "name": "TOMCHE CHOLIM OF WILLIAMSBURG", "city": "BROOKLYN", "state": "NY", "zip": "11211-8726", "ntee": "X30", "ruling": "200309", "deductibility": "1", "assets": 0, "income": 0, "revenue": 0}, {"ein": "823496342", "name": "TOMCHE SHABBOS OF BORO PARK FLATBUSH AND MIDWOOD INC", "city": "BROOKLYN", "state": "NY", "zip": "11219-5423", "ntee": "X30", "ruling": "201805", "deductibility": "1", "assets": 0, "income": 0, "revenue": 0}], "TUTORIAL": [{"ein": "112715180", "name": "LIFE-SKILLS HOME TRAINING TUTORIAL PROGRAM FOR PRE-SCHOOLERS INC", "city": "FLUSHING", "state": "NY", "zip": "11357-3444", "ntee": "E50Z", "ruling": "198509", "deductibility": "1", "assets": 3504488, "income": 13186368, "revenue": 13185714}, {"ein": "202468819", "name": "NEW YORK TUTORIAL SUPPORT GROUP INC", "city": "NEW YORK", "state": "NY", "zip": "10014-0511", "ntee": "B11", "ruling": "200712", "deductibility": "1", "assets": 0, "income": 0, "revenue": 0}, {"ein": "237439789", "name": "EAST HARLEM TUTORIAL PROGRAM INC", "city": "NEW YORK", "state": "NY", "zip": "10029-4708", "ntee": "", "ruling": "197503", "deductibility": "1", "assets": 135579887, "income": 11895506, "revenue": 11811751}, {"ein": "464393865", "name": "LEARNING TREE TUTORIAL & ENRICHMENT PROGRAM INC", "city": "CORONA", "state": "NY", "zip": "11368-1137", "ntee": "B90", "ruling": "201411", "deductibility": "1", "assets": 0, "income": 0, "revenue": 0}, {"ein": "510189393", "name": "FELLOWSHIP AFTER SCHOOL TUTORIAL PROGRAM", "city": "STATEN ISLAND", "state": "NY", "zip": "10303-1302", "ntee": "", "ruling": "197606", "deductibility": "1", "assets": 0, "income": 0, "revenue": 0}], "TIEGERMAN": [{"ein": "112739039", "name": "TIEGERMAN SCHOOL", "city": "GLEN COVE", "state": "NY", "zip": "11542-2818", "ntee": "", "ruling": "198507", "deductibility": "1", "assets": 38040072, "income": 50025733, "revenue": 49954588}, {"ein": "461094626", "name": "TIEGERMAN COMMUNITY SERVICES INC", "city": "GLEN COVE", "state": "NY", "zip": "11542-2818", "ntee": "P82", "ruling": "201302", "deductibility": "1", "assets": 7934731, "income": 6279834, "revenue": 6279834}], "ILAN": [{"ein": "112750770", "name": "AMERICAN FRIENDS OF ILAN INC", "city": "WHITE PLAINS", "state": "NY", "zip": "10605-0000", "ntee": "Q113", "ruling": "198509", "deductibility": "1", "assets": 6521, "income": 117563, "revenue": 117563}, {"ein": "136192275", "name": "BAR ILAN UNIVERSITY IN ISRAEL", "city": "NEW YORK", "state": "NY", "zip": "10022-3609", "ntee": "", "ruling": "196509", "deductibility": "1", "assets": 528622241, "income": 478485822, "revenue": 478485822}, {"ein": "263541989", "name": "HARON DAHON FUND FOR BAR ILAN UNIVERSITY IN ISRAEL INC", "city": "NEW YORK", "state": "NY", "zip": "10022-3609", "ntee": "B112", "ruling": "200905", "deductibility": "1", "assets": 43255240, "income": 17497273, "revenue": 2331158}, {"ein": "464198975", "name": "AMERICAN FRIENDS OF BAR-ILAN UNIVERSITY INC", "city": "NEW YORK", "state": "NY", "zip": "10022-3609", "ntee": "B194", "ruling": "201409", "deductibility": "1", "assets": 246537522, "income": 280167286, "revenue": 277228798}], "YAHAVAH": [{"ein": "112806832", "name": "THE TEMPLE OF YAHAVAH INC", "city": "BROOKLYN", "state": "NY", "zip": "11213-3618", "ntee": "", "ruling": "198805", "deductibility": "1", "assets": 0, "income": 0, "revenue": 0}], "MORTGAGE": [{"ein": "112897636", "name": "NEW YORK ASSOCIATION OF MORTGAGE BROKERS INC", "city": "MAMARONECK", "state": "NY", "zip": "10543-3709", "ntee": "", "ruling": "198811", "deductibility": "0", "assets": 214543, "income": 229190, "revenue": 229190}, {"ein": "141716610", "name": "MID-HUDSON VALLEY MORTGAGE BANKERS ASSOCIATION INC", "city": "POUGHKEEPSIE", "state": "NY", "zip": "12601-0667", "ntee": "S41", "ruling": "202410", "deductibility": "2", "assets": 0, "income": 0, "revenue": 0}, {"ein": "141742548", "name": "NATIONAL ASSOCIATION OF PROFESSIONAL MORTGAGE WOMEN", "city": "BEACON", "state": "NY", "zip": "12508-8124", "ntee": "", "ruling": "198504", "deductibility": "2", "assets": 0, "income": 0, "revenue": 0}, {"ein": "201634445", "name": "CENTRAL NEW YORK MORTGAGE BANKERS ASSOCIATION INC", "city": "SYRACUSE", "state": "NY", "zip": "13202-1259", "ntee": "S41", "ruling": "200803", "deductibility": "2", "assets": 0, "income": 0, "revenue": 0}, {"ein": "222570379", "name": "MORTGAGE BANKERS ASSOCIATION OF NORTHEASTERN NEW YORK", "city": "LATHAM", "state": "NY", "zip": "12110-0059", "ntee": "", "ruling": "199205", "deductibility": "2", "assets": 21233, "income": 37957, "revenue": 17568}, {"ein": "300021150", "name": "NEW YORK MORTGAGE COALITION INC", "city": "NEW YORK", "state": "NY", "zip": "10005-2123", "ntee": "L30", "ruling": "200207", "deductibility": "1", "assets": 2695946, "income": 3598867, "revenue": 1581033}, {"ein": "461215236", "name": "COMMUNITY BANKERS MORTGAGE FORUM INC", "city": "GLEN COVE", "state": "NY", "zip": "11542-3070", "ntee": "S40", "ruling": "201408", "deductibility": "2", "assets": 40198, "income": 107007, "revenue": 107007}, {"ein": "471887125", "name": "NEW YORK MORTGAGE BANKERS ASSOCIATION INC", "city": "ALBANY", "state": "NY", "zip": "12203-0242", "ntee": "S41", "ruling": "201510", "deductibility": "2", "assets": 156723, "income": 222014, "revenue": 222014}], "PURA": [{"ein": "112946059", "name": "ST ANNES SHRINE C/O ARCHBISHOP PURA V TAYLOR", "city": "BAY SHORE", "state": "NY", "zip": "11706-2438", "ntee": "", "ruling": "199407", "deductibility": "1", "assets": 0, "income": 0, "revenue": 0}, {"ein": "844672085", "name": "PURA MARIA FOUNDATION INC", "city": "NEW YORK", "state": "NY", "zip": "10004-3604", "ntee": "I11", "ruling": "202003", "deductibility": "1", "assets": 0, "income": 0, "revenue": 0}], "KETANE": [{"ein": "113052997", "name": "YESHIVA KETANE TOLDOS YAKOV YOSEF", "city": "BROOKLYN", "state": "NY", "zip": "11210-3714", "ntee": "", "ruling": "199105", "deductibility": "1", "assets": 0, "income": 0, "revenue": 0}, {"ein": "331820258", "name": "YESHIVA KETANE FLUSHING INC", "city": "BROOKLYN", "state": "NY", "zip": "11211-7703", "ntee": "B99", "ruling": "202502", "deductibility": "1", "assets": 0, "income": 0, "revenue": 0}, {"ein": "461722439", "name": "MACHNE YESHIVE KETANE", "city": "BROOKLYN", "state": "NY", "zip": "11211-8005", "ntee": "X30", "ruling": "201704", "deductibility": "1", "assets": 0, "income": 0, "revenue": 0}], "HARAV": [{"ein": "113201774", "name": "OHEL HARAV YEHOSHUA BORUCH FOUNDATION", "city": "BROOKLYN", "state": "NY", "zip": "11230-5915", "ntee": "", "ruling": "199408", "deductibility": "1", "assets": 32052818, "income": 6016851, "revenue": 0}, {"ein": "133133770", "name": "FRIENDS OF YESHIVAT HARAV AMIEL INC", "city": "NEW YORK", "state": "NY", "zip": "10025-5204", "ntee": "", "ruling": "198408", "deductibility": "1", "assets": 3242, "income": 30267, "revenue": 30267}, {"ein": "135562373", "name": "AMERICAN FRIENDS OF MERCAZ HARAV KOOK", "city": "BROOKLYN", "state": "NY", "zip": "11210-2842", "ntee": "X300", "ruling": "194212", "deductibility": "1", "assets": 3781100, "income": 1548966, "revenue": 107986}, {"ein": "237207679", "name": "BETH HAMIDRASH HARAV MSOSNOWITZ", "city": "BROOKLYN", "state": "NY", "zip": "11213-5127", "ntee": "", "ruling": "196902", "deductibility": "1", "assets": 0, "income": 0, "revenue": 0}, {"ein": "300137021", "name": "AMERICAN FRIENDS OF MOSDOS HARAV KOPPEL REICH BUDAPEST", "city": "BROOKLYN", "state": "NY", "zip": "11219-2101", "ntee": "T30", "ruling": "200712", "deductibility": "1", "assets": 21724, "income": 23000, "revenue": 23000}, {"ein": "465641531", "name": "MACHON HARAV SHACH INC", "city": "BROOKLYN", "state": "NY", "zip": "11234-2619", "ntee": "X30", "ruling": "202110", "deductibility": "1", "assets": 4882999, "income": 737163, "revenue": 737163}, {"ein": "834027649", "name": "CONG HARAV HAMALACH", "city": "BROOKLYN", "state": "NY", "zip": "11249-7566", "ntee": "X30", "ruling": "202203", "deductibility": "1", "assets": 0, "income": 0, "revenue": 0}, {"ein": "841764331", "name": "FRIENDS OF INSTITUTIONS OF HARAV CHAIM INC", "city": "SUFFERN", "state": "NY", "zip": "10901-3203", "ntee": "X30", "ruling": "202002", "deductibility": "1", "assets": 0, "income": 0, "revenue": 0}], "OLUMI": [{"ein": "113221521", "name": "CONG MERKAS OLUMI", "city": "BROOKLYN", "state": "NY", "zip": "11210-3714", "ntee": "", "ruling": "199409", "deductibility": "1", "assets": 0, "income": 0, "revenue": 0}, {"ein": "113344328", "name": "VAAD HACHINUCH OLUMI", "city": "BROOKLYN", "state": "NY", "zip": "11219-3927", "ntee": "X30", "ruling": "199802", "deductibility": "1", "assets": 0, "income": 0, "revenue": 0}, {"ein": "810902918", "name": "TEHILLIM OLUMI INC", "city": "BROOKLYN", "state": "NY", "zip": "11219-2107", "ntee": "X30", "ruling": "201606", "deductibility": "1", "assets": 40166, "income": 32187, "revenue": 32187}], "ASCENDUS": [{"ein": "113317234", "name": "ASCENDUS INC", "city": "NEW YORK", "state": "NY", "zip": "10004-1082", "ntee": "S400", "ruling": "199704", "deductibility": "1", "assets": 61543017, "income": 12212970, "revenue": 12212970}], "REDEEMERS": [{"ein": "113330474", "name": "PENTECOSTAL REDEEMERS TEMPLE", "city": "BROOKLYN", "state": "NY", "zip": "11213-1704", "ntee": "X20Z", "ruling": "199811", "deductibility": "1", "assets": 0, "income": 0, "revenue": 0}, {"ein": "815383230", "name": "BUSINESS REDEEMERS CORP", "city": "NEW YORK", "state": "NY", "zip": "10001-3814", "ntee": "X20", "ruling": "201705", "deductibility": "1", "assets": 0, "income": 0, "revenue": 0}], "TACKLE": [{"ein": "113403509", "name": "NEW YORK FISHING TACKLE ASSOCIATION INC", "city": "CUTCHOGUE", "state": "NY", "zip": "11935-0345", "ntee": "R99", "ruling": "199902", "deductibility": "2", "assets": 3685, "income": 5000, "revenue": 5000}, {"ein": "161598366", "name": "WESTERN NEW YORK YOUTH TACKLE FOOTBALL FEDERATION INC", "city": "HAMBURG", "state": "NY", "zip": "14075-2726", "ntee": "N65", "ruling": "200106", "deductibility": "1", "assets": 0, "income": 0, "revenue": 0}, {"ein": "842115799", "name": "TACKLE OBESITY FOUNDATION INC", "city": "ORCHARD PARK", "state": "NY", "zip": "14127-4857", "ntee": "G80", "ruling": "201907", "deductibility": "1", "assets": 0, "income": 0, "revenue": 0}], "AFK": [{"ein": "113416763", "name": "AFK FOUNDATION INC", "city": "JERICHO", "state": "NY", "zip": "11753-1306", "ntee": "T20Z", "ruling": "199811", "deductibility": "1", "assets": 560237, "income": 322228, "revenue": 0}], "EDELMAN": [{"ein": "113455820", "name": "EDELMAN FAMILY FOUNDATION INC", "city": "LAWRENCE", "state": "NY", "zip": "11559-1446", "ntee": "T20", "ruling": "199812", "deductibility": "1", "assets": 475807, "income": 300000, "revenue": 0}, {"ein": "132907889", "name": "ASHER B EDELMAN FOUNDATION INC", "city": "NEW YORK", "state": "NY", "zip": "10065-6531", "ntee": "", "ruling": "197710", "deductibility": "1", "assets": 1, "income": 1, "revenue": 0}, {"ein": "133762804", "name": "THE THOMAS J EDELMAN FOUNDATION", "city": "NEW YORK", "state": "NY", "zip": "10022-1708", "ntee": "T31Z", "ruling": "199502", "deductibility": "1", "assets": 20776529, "income": 9291374, "revenue": 0}, {"ein": "136936290", "name": "ASHER B EDELMAN TR FBO EDELMAN FOUNDATION", "city": "NEW YORK", "state": "NY", "zip": "10065-6531", "ntee": "", "ruling": "199005", "deductibility": "1", "assets": 1, "income": 1, "revenue": 0}, {"ein": "137109390", "name": "WILLIAM & DEWEY EDELMAN CHARITABLE TRUST", "city": "EAST MARION", "state": "NY", "zip": "11939-0306", "ntee": "T20", "ruling": "200907", "deductibility": "1", "assets": 13188899, "income": 1226637, "revenue": 0}, {"ein": "161194166", "name": "THE SALLY EDELMAN AND HARRY GARDNER CANCER RESEARCH FOUNDATION INC", "city": "HILTON", "state": "NY", "zip": "14468-0097", "ntee": "", "ruling": "198508", "deductibility": "1", "assets": 1396409, "income": 527672, "revenue": 178887}, {"ein": "237082997", "name": "EDELMAN FOUNDATION", "city": "NEW YORK", "state": "NY", "zip": "10022-3109", "ntee": "", "ruling": "197202", "deductibility": "1", "assets": 1466208, "income": 194198, "revenue": 0}, {"ein": "376624335", "name": "EDELMAN FAM FOUNDATION", "city": "NEW YORK", "state": "NY", "zip": "10036-4015", "ntee": "T20", "ruling": "201703", "deductibility": "1", "assets": 85325789, "income": 27149025, "revenue": 0}, {"ein": "474628854", "name": "RICHARD AND NINA EDELMAN FOUNDATION FOR ARTS AND EDUCATION INC", "city": "NEW YORK", "state": "NY", "zip": "10021-3530", "ntee": "A19", "ruling": "201510", "deductibility": "1", "assets": 45582, "income": 163998, "revenue": 0}], "ZEHAV": [{"ein": "113457937", "name": "CONG ZEHAV SHEVU INC", "city": "BROOKLYN", "state": "NY", "zip": "11211-8036", "ntee": "X30", "ruling": "200303", "deductibility": "1", "assets": 0, "income": 0, "revenue": 0}], "PYTHAGORAS": [{"ein": "113487542", "name": "PANSAMIAN BROTHERHOOD PYTHAGORAS OF NEW YORK INC", "city": "ASTORIA", "state": "NY", "zip": "11106-1484", "ntee": "A23", "ruling": "200901", "deductibility": "1", "assets": 707124, "income": 107280, "revenue": 36332}], "TZEDUKOUS": [{"ein": "113537231", "name": "KIPAS TZEDUKOUS MORDECHAI V ESTNER", "city": "BROOKLYN", "state": "NY", "zip": "11223-2328", "ntee": "X30", "ruling": "200007", "deductibility": "1", "assets": 0, "income": 0, "revenue": 0}], "WHAT": [{"ein": "113540939", "name": "WHAT SHALL I RENDER MINISTRIES INC", "city": "CENTRAL ISLIP", "state": "NY", "zip": "11722-2635", "ntee": "X21", "ruling": "200010", "deductibility": "1", "assets": 0, "income": 0, "revenue": 0}, {"ein": "161600437", "name": "WHAT A RAQUETTE MUSIC AND DANCE INC", "city": "POTSDAM", "state": "NY", "zip": "13676-2101", "ntee": "A68", "ruling": "200204", "deductibility": "1", "assets": 1590, "income": 0, "revenue": 0}, {"ein": "300175296", "name": "WHAT IS MISSING FOUNDATION", "city": "NEW YORK", "state": "NY", "zip": "10012-2469", "ntee": "T23", "ruling": "200307", "deductibility": "1", "assets": 1370981, "income": 454537, "revenue": 0}, {"ein": "301109651", "name": "GIVE BY GRACE WHAT BY GRACE YOU HAVE RECEIVED INC", "city": "BRONX", "state": "NY", "zip": "10458-4266", "ntee": "Q33", "ruling": "201905", "deductibility": "1", "assets": 63, "income": 4740, "revenue": 4740}, {"ein": "371608814", "name": "WHAT BETTER LOOKS LIKE INC", "city": "DIX HILLS", "state": "NY", "zip": "11746-5134", "ntee": "Q30", "ruling": "201108", "deductibility": "1", "assets": 0, "income": 0, "revenue": 0}, {"ein": "454857783", "name": "WHAT WOMEN AUTO KNOW INC", "city": "FLUSHING", "state": "NY", "zip": "11358-2642", "ntee": "M24", "ruling": "202303", "deductibility": "1", "assets": 33962, "income": 24209, "revenue": 0}, {"ein": "815011110", "name": "WHAT WILL THE NEIGHBORS SAY", "city": "BROOKLYN", "state": "NY", "zip": "11221-5296", "ntee": "A65", "ruling": "201804", "deductibility": "1", "assets": 13081, "income": 56908, "revenue": 56908}, {"ein": "833668521", "name": "WHAT ABOUT US INC", "city": "BROOKLYN", "state": "NY", "zip": "11213-6009", "ntee": "O99", "ruling": "201903", "deductibility": "1", "assets": 0, "income": 0, "revenue": 0}, {"ein": "842983768", "name": "WHAT IF FUND", "city": "NEW YORK", "state": "NY", "zip": "10019-6018", "ntee": "P12", "ruling": "202009", "deductibility": "1", "assets": 0, "income": 0, "revenue": 0}, {"ein": "853576528", "name": "WHAT NOW FOUNDATION INC", "city": "DEER PARK", "state": "NY", "zip": "11729-5518", "ntee": "O01", "ruling": "202401", "deductibility": "1", "assets": 0, "income": 0, "revenue": 0}, {"ein": "862897509", "name": "SEW WHAT OF CNY INC", "city": "AUBURN", "state": "NY", "zip": "13021-2608", "ntee": "P29", "ruling": "202107", "deductibility": "1", "assets": 101554, "income": 98229, "revenue": 98229}, {"ein": "870925350", "name": "WHAT IF UP CLUB", "city": "LAKE CLEAR", "state": "NY", "zip": "12945-0176", "ntee": "B60", "ruling": "202110", "deductibility": "1", "assets": 0, "income": 0, "revenue": 0}, {"ein": "883514462", "name": "WHAT IS YOUR WHY WIYY INC", "city": "BRONX", "state": "NY", "zip": "10466-1213", "ntee": "O50", "ruling": "202210", "deductibility": "1", "assets": 0, "income": 0, "revenue": 0}, {"ein": "931727408", "name": "ALL FOR ONE NO MATTER WHAT", "city": "ROCKAWAY PARK", "state": "NY", "zip": "11694-1825", "ntee": "F22", "ruling": "202308", "deductibility": "1", "assets": 0, "income": 0, "revenue": 0}, {"ein": "934693628", "name": "NO MATTER WHAT FOUNDATION INC", "city": "PLAINVIEW", "state": "NY", "zip": "11803-3108", "ntee": "F30", "ruling": "202403", "deductibility": "1", "assets": 52004, "income": 157413, "revenue": 101708}], "BUTCH": [{"ein": "113619347", "name": "BUTCH DELLECAVE FOUNDATION INC", "city": "LAKE GROVE", "state": "NY", "zip": "11755-2239", "ntee": "N70", "ruling": "200204", "deductibility": "1", "assets": 500, "income": 0, "revenue": 0}], "BOLIVIAN": [{"ein": "113650879", "name": "BOLIVIAN QUAKER EDUCATION FUND INC", "city": "ITHACA", "state": "NY", "zip": "14851-6847", "ntee": "B82", "ruling": "200310", "deductibility": "1", "assets": 59302, "income": 104191, "revenue": 104191}, {"ein": "760098496", "name": "BOLIVIAN CHARITY FOUNDATION", "city": "NEW YORK", "state": "NY", "zip": "10011-2844", "ntee": "Q12", "ruling": "202310", "deductibility": "1", "assets": 0, "income": 0, "revenue": 0}, {"ein": "923883076", "name": "FOUNDATION FOR BOLIVIAN ARTISTS INC", "city": "NEW YORK", "state": "NY", "zip": "10025-1856", "ntee": "A68", "ruling": "202309", "deductibility": "1", "assets": 0, "income": 0, "revenue": 0}], "PLAST": [{"ein": "116111484", "name": "PLAST UKRAINIAN SCOUTING ORGANIZATION USA", "city": "OLD BETHPAGE", "state": "NY", "zip": "11804-1748", "ntee": "", "ruling": "196712", "deductibility": "1", "assets": 0, "income": 0, "revenue": 0}, {"ein": "136272487", "name": "PLAST UKRAINIAN SCOUTING ORGANIZATION USA", "city": "NEW YORK", "state": "NY", "zip": "10003-8305", "ntee": "", "ruling": "196712", "deductibility": "1", "assets": 0, "income": 0, "revenue": 0}, {"ein": "146048735", "name": "PLAST UKRAINIAN SCOUTING ORGANIZATION USA", "city": "WATERVLIET", "state": "NY", "zip": "12189-0000", "ntee": "", "ruling": "196712", "deductibility": "1", "assets": 0, "income": 0, "revenue": 0}, {"ein": "166098140", "name": "PLAST UKRAINIAN SCOUTING ORGANIZATION USA", "city": "ELMA", "state": "NY", "zip": "14059-9316", "ntee": "", "ruling": "196712", "deductibility": "1", "assets": 0, "income": 0, "revenue": 0}, {"ein": "166098174", "name": "PLAST UKRAINIAN SCOUTING ORGANIZATION USA", "city": "FAIRPORT", "state": "NY", "zip": "14450-9700", "ntee": "", "ruling": "196712", "deductibility": "1", "assets": 0, "income": 0, "revenue": 0}, {"ein": "166098175", "name": "PLAST UKRAINIAN SCOUTING ORGANIZATION USA", "city": "SYRACUSE", "state": "NY", "zip": "13215-3201", "ntee": "", "ruling": "196712", "deductibility": "1", "assets": 0, "income": 0, "revenue": 0}], "ROCHELLE": [{"ein": "116478782", "name": "MELLY AND ROCHELLE LIFSHITZ CHARITABLE TR", "city": "INWOOD", "state": "NY", "zip": "11096-1221", "ntee": "T60J", "ruling": "199702", "deductibility": "1", "assets": 5741712, "income": 549029, "revenue": 0}, {"ein": "131701637", "name": "CHAMBER OF COMMERCE OF NEW ROCHELLE", "city": "NEW ROCHELLE", "state": "NY", "zip": "10801-4104", "ntee": "", "ruling": "194002", "deductibility": "2", "assets": 25201, "income": 91182, "revenue": 91182}, {"ein": "131737747", "name": "WOMANS CLUB OF NEW ROCHELLE INC", "city": "NEW ROCHELLE", "state": "NY", "zip": "10804-3206", "ntee": "S81Z", "ruling": "195310", "deductibility": "1", "assets": 0, "income": 0, "revenue": 0}, {"ein": "131739783", "name": "NEW ROCHELLE POST 8 AMERICAN LEGION INC", "city": "NEW ROCHELLE", "state": "NY", "zip": "10801-7404", "ntee": "W30", "ruling": "202107", "deductibility": "1", "assets": 101959, "income": 171575, "revenue": 103629}, {"ein": "131740410", "name": "TEMPLE ISRAEL OF NEW ROCHELLE", "city": "NEW ROCHELLE", "state": "NY", "zip": "10804-1806", "ntee": "X30", "ruling": "200811", "deductibility": "1", "assets": 0, "income": 0, "revenue": 0}, {"ein": "131740495", "name": "URSULINE SCHOOL OF NEW ROCHELLE", "city": "NEW ROCHELLE", "state": "NY", "zip": "10804-2121", "ntee": "", "ruling": "194603", "deductibility": "1", "assets": 0, "income": 0, "revenue": 0}, {"ein": "131943644", "name": "BOYS AND GIRLS CLUB OF NEW ROCHELLE INC", "city": "NEW ROCHELLE", "state": "NY", "zip": "10801-4859", "ntee": "O23Z", "ruling": "196306", "deductibility": "1", "assets": 20285500, "income": 6061369, "revenue": 5994007}, {"ein": "132791958", "name": "PRESBYTERIAN CHURCH OF NEW ROCHELLE", "city": "NEW ROCHELLE", "state": "NY", "zip": "10801-7148", "ntee": "", "ruling": "196401", "deductibility": "1", "assets": 0, "income": 0, "revenue": 0}, {"ein": "132839042", "name": "INTER RELIGIOUS COUNCIL OF NEW ROCHELLE INC", "city": "NEW ROCHELLE", "state": "NY", "zip": "10804-0256", "ntee": "", "ruling": "199201", "deductibility": "1", "assets": 0, "income": 0, "revenue": 0}, {"ein": "132848686", "name": "NEW ROCHELLE COUNCIL OF COMMUNITY SERVICES", "city": "NEW ROCHELLE", "state": "NY", "zip": "10801-6410", "ntee": "T015", "ruling": "200606", "deductibility": "1", "assets": 0, "income": 0, "revenue": 0}, {"ein": "132885299", "name": "NEW ROCHELLE COUNCIL ON THE ARTS INC", "city": "NEW ROCHELLE", "state": "NY", "zip": "10801-3405", "ntee": "", "ruling": "197704", "deductibility": "1", "assets": 80442, "income": 144476, "revenue": 136245}, {"ein": "132954395", "name": "FRIENDS OF THE NEW ROCHELLE PUBLIC LIBRARY INC", "city": "NEW ROCHELLE", "state": "NY", "zip": "10801-6346", "ntee": "", "ruling": "197810", "deductibility": "1", "assets": 116709, "income": 95597, "revenue": 95597}, {"ein": "133060084", "name": "BAYBERRY ASSN OF NEW ROCHELLE INC", "city": "LARCHMONT", "state": "NY", "zip": "10538-2437", "ntee": "", "ruling": "195608", "deductibility": "2", "assets": 303091, "income": 516587, "revenue": 516587}, {"ein": "133106828", "name": "SOUND SHORE CHORALE OF NEW ROCHELLE INC", "city": "LARCHMONT", "state": "NY", "zip": "10538-1649", "ntee": "A6B", "ruling": "202208", "deductibility": "1", "assets": 0, "income": 0, "revenue": 0}, {"ein": "133175579", "name": "SEPHARDIC COMMUNITY OF NEW ROCHELLE SCARSDALE", "city": "SCARSDALE", "state": "NY", "zip": "10583-0129", "ntee": "", "ruling": "198402", "deductibility": "1", "assets": 0, "income": 0, "revenue": 0}, {"ein": "133186919", "name": "MEALS-ON-WHEELS OF NEW ROCHELLE INC", "city": "NEW ROCHELLE", "state": "NY", "zip": "10801-7148", "ntee": "K36Z", "ruling": "198501", "deductibility": "1", "assets": 539066, "income": 356042, "revenue": 353510}, {"ein": "133315471", "name": "NEW ROCHELLE BAR ASSOCIATION INC", "city": "NEW ROCHELLE", "state": "NY", "zip": "10801-0000", "ntee": "P20", "ruling": "201309", "deductibility": "1", "assets": 114926, "income": 59815, "revenue": 59815}, {"ein": "133428214", "name": "NEW ROCHELLE ROTARY CLUB FOUNDATION INC", "city": "NEW ROCHELLE", "state": "NY", "zip": "10802-0785", "ntee": "", "ruling": "198811", "deductibility": "1", "assets": 24561, "income": 20567, "revenue": 20567}, {"ein": "133470888", "name": "EVANGELICAL COVENANT CHURCH OF NEW ROCHELLE-NEW ROCHELLE NY", "city": "NEW ROCHELLE", "state": "NY", "zip": "10801-1597", "ntee": "", "ruling": "197507", "deductibility": "1", "assets": 0, "income": 0, "revenue": 0}, {"ein": "133712927", "name": "NEW ROCHELLE PUBLIC LIBRARY FOUNDATION INC", "city": "NEW ROCHELLE", "state": "NY", "zip": "10801-6346", "ntee": "", "ruling": "199310", "deductibility": "1", "assets": 4277981, "income": 603332, "revenue": 535888}, {"ein": "133735311", "name": "NEW ROCHELLE COMMUNITY HOUSING DEVELOPMENT CORP", "city": "NEW ROCHELLE", "state": "NY", "zip": "10801-6010", "ntee": "L20Z", "ruling": "199312", "deductibility": "1", "assets": 1501443, "income": 275250, "revenue": 275250}, {"ein": "133748272", "name": "NEW ROCHELLE LIGHTNING HOCKEY INC", "city": "NEW ROCHELLE", "state": "NY", "zip": "10804-0063", "ntee": "", "ruling": "199405", "deductibility": "1", "assets": 245985, "income": 262952, "revenue": 262952}, {"ein": "133774839", "name": "NEW ROCHELLE-WINTHROP HOUSING DEVELOPMENT FUND CORPORATION", "city": "ELMSFORD", "state": "NY", "zip": "10523-1607", "ntee": "L20", "ruling": "199712", "deductibility": "1", "assets": 845698, "income": 84058, "revenue": 84058}, {"ein": "133828528", "name": "CHOICE OF NEW ROCHELLE INC", "city": "WHITE PLAINS", "state": "NY", "zip": "10601-4959", "ntee": "P80Z", "ruling": "199601", "deductibility": "1", "assets": 5502334, "income": 10757527, "revenue": 10757527}, {"ein": "133892991", "name": "SPIRITUAL ASSEMBLY OF THE BAHAIS OF NEW ROCHELLE", "city": "NEW ROCHELLE", "state": "NY", "zip": "10804-2302", "ntee": "", "ruling": "199505", "deductibility": "1", "assets": 0, "income": 0, "revenue": 0}, {"ein": "133944017", "name": "NEW ROCHELLE FUND FOR EDUCATIONAL EXCELLENCE INC", "city": "NEW ROCHELLE", "state": "NY", "zip": "10801-1200", "ntee": "B99", "ruling": "202202", "deductibility": "1", "assets": 600673, "income": 206195, "revenue": 206195}, {"ein": "134024768", "name": "NEW YORK COVENANT CHURCH-NEW ROCHELLE NY", "city": "NEW ROCHELLE", "state": "NY", "zip": "10801-6304", "ntee": "X20", "ruling": "197507", "deductibility": "1", "assets": 0, "income": 0, "revenue": 0}, {"ein": "134056915", "name": "NEW ROCHELLE POLICE FOUNDATION INC", "city": "NEW ROCHELLE", "state": "NY", "zip": "10804-0096", "ntee": "I600", "ruling": "200003", "deductibility": "1", "assets": 365388, "income": 257679, "revenue": 257679}, {"ein": "134089489", "name": "DOWNTOWN NEW ROCHELLE BUSINESS IMPROVEMENT DIST MGMT ASSOC INC", "city": "NEW ROCHELLE", "state": "NY", "zip": "10801-3405", "ntee": "S30", "ruling": "200007", "deductibility": "2", "assets": 462687, "income": 693283, "revenue": 693283}, {"ein": "136003385", "name": "NEW ROCHELLE ROD & GUN CLUB INC", "city": "NEW ROCHELLE", "state": "NY", "zip": "10802-0723", "ntee": "", "ruling": "196610", "deductibility": "2", "assets": 0, "income": 0, "revenue": 0}, {"ein": "136161117", "name": "NEW ROCHELLE HIGH SCHOOL SCHOLARSHIP FUND CORP", "city": "YORKTOWN HTS", "state": "NY", "zip": "10598-3303", "ntee": "", "ruling": "194311", "deductibility": "1", "assets": 721885, "income": 83383, "revenue": 0}, {"ein": "136213135", "name": "HUGUENOT HISTORICAL ASSOCIATION OF NEW ROCHELLE FOUNDATION", "city": "NEW ROCHELLE", "state": "NY", "zip": "10804-4131", "ntee": "", "ruling": "196701", "deductibility": "1", "assets": 128283, "income": 19656, "revenue": 0}, {"ein": "136216905", "name": "NEW ROCHELLE-CAMPERSHIP FUND", "city": "NEW ROCHELLE", "state": "NY", "zip": "10804-0255", "ntee": "", "ruling": "196703", "deductibility": "1", "assets": 319657, "income": 98571, "revenue": 98571}, {"ein": "237088024", "name": "NEW ROCHELLE DAY NURSERY", "city": "NEW ROCHELLE", "state": "NY", "zip": "10804-1510", "ntee": "", "ruling": "197011", "deductibility": "1", "assets": 418531, "income": 878941, "revenue": 878941}, {"ein": "237126811", "name": "NEW ROCHELLE FEDERATION OF UNITED SCHOOL EMPLOYEES WELFARE FUND", "city": "NEW ROCHELLE", "state": "NY", "zip": "10801-5105", "ntee": "", "ruling": "197109", "deductibility": "2", "assets": 5296122, "income": 4659573, "revenue": 3641512}, {"ein": "237287546", "name": "NEW ROCHELLE SYNAGOGUE", "city": "NEW ROCHELLE", "state": "NY", "zip": "10804-3720", "ntee": "", "ruling": "197401", "deductibility": "1", "assets": 0, "income": 0, "revenue": 0}, {"ein": "237398696", "name": "POLICE ASSOCIATION OF NEW ROCHELLE INC", "city": "NEW ROCHELLE", "state": "NY", "zip": "10802-0051", "ntee": "Y40", "ruling": "200308", "deductibility": "2", "assets": 0, "income": 0, "revenue": 0}, {"ein": "260105474", "name": "NEW ROCHELLE BRAZILIAN FOURSQUARE CHURCH", "city": "MOUNT VERNON", "state": "NY", "zip": "10552-3312", "ntee": "", "ruling": "194910", "deductibility": "1", "assets": 0, "income": 0, "revenue": 0}, {"ein": "261721427", "name": "NEW ROCHELLE LACROSSE INC", "city": "PURCHASE", "state": "NY", "zip": "10577-2515", "ntee": "N66", "ruling": "200907", "deductibility": "1", "assets": 12421, "income": 78393, "revenue": 78393}, {"ein": "262916558", "name": "WESTHAB IN NEW ROCHELLE", "city": "ELMSFORD", "state": "NY", "zip": "10523-1326", "ntee": "S20", "ruling": "201807", "deductibility": "1", "assets": 0, "income": 0, "revenue": 0}, {"ein": "273735201", "name": "HERMANDAD DEL SENOR DE LOS MILAGROS DE NEW ROCHELLE INC", "city": "NEW ROCHELLE", "state": "NY", "zip": "10802-1806", "ntee": "A20", "ruling": "201409", "deductibility": "1", "assets": 992, "income": 6588, "revenue": 6588}, {"ein": "341994510", "name": "ROCHELLE AND JEFF SITT FAMILY FOUNDATION", "city": "BROOKLYN", "state": "NY", "zip": "11205-1341", "ntee": "T99", "ruling": "200411", "deductibility": "1", "assets": 24490, "income": 914, "revenue": 0}, {"ein": "451534091", "name": "NEW ROCHELLE BASKETBALL ASSOCIATION INC", "city": "NEW ROCHELLE", "state": "NY", "zip": "10804-1422", "ntee": "N62", "ruling": "201202", "deductibility": "1", "assets": 67945, "income": 179574, "revenue": 179574}, {"ein": "452186046", "name": "LUTHERAN CHURCH OF NEW ROCHELLE", "city": "NEW ROCHELLE", "state": "NY", "zip": "10801-5232", "ntee": "X21", "ruling": "201202", "deductibility": "1", "assets": 0, "income": 0, "revenue": 0}, {"ein": "456917922", "name": "GWENDOLEN APPLEYARD TR FUND FOR NEW ROCHELLE HUMANE SOCIETY", "city": "NEW YORK", "state": "NY", "zip": "10019-0000", "ntee": "T20", "ruling": "201301", "deductibility": "1", "assets": 1904437, "income": 243862, "revenue": 0}, {"ein": "456917974", "name": "GWENDOLEN APPLEYARD TR FUND FOR THE NEW ROCHELLE HUMANE SOCIETY", "city": "NEW YORK", "state": "NY", "zip": "10019-0000", "ntee": "T20", "ruling": "201208", "deductibility": "1", "assets": 1258884, "income": 147734, "revenue": 0}, {"ein": "461350949", "name": "MINISTERIOS FRATERNIDAD CRISTIANA NEW ROCHELLE INC", "city": "NEW ROCHELLE", "state": "NY", "zip": "10805-2511", "ntee": "X99", "ruling": "201407", "deductibility": "1", "assets": 76413, "income": 163383, "revenue": 163383}, {"ein": "462855872", "name": "GATHERING OF MEN OF NEW ROCHELLE INC", "city": "NEW ROCHELLE", "state": "NY", "zip": "10801-2802", "ntee": "R22", "ruling": "201511", "deductibility": "1", "assets": 2827, "income": 6195, "revenue": 6195}, {"ein": "462931956", "name": "MONTEFIORE NEW ROCHELLE HOSPITAL", "city": "NEW ROCHELLE", "state": "NY", "zip": "10801-5502", "ntee": "E22", "ruling": "201409", "deductibility": "1", "assets": 120367220, "income": 168060644, "revenue": 167940214}, {"ein": "464312396", "name": "UNITED HEBREW OF NEW ROCHELLE CERTIFIED HOME HEALTH AGENCY INC", "city": "NEW ROCHELLE", "state": "NY", "zip": "10805-2225", "ntee": "E92", "ruling": "201409", "deductibility": "1", "assets": 177282, "income": 600116, "revenue": 600116}, {"ein": "510201836", "name": "SHILOH BAPTIST CHURCH OF NEW ROCHELLE NEW YORK", "city": "NEW ROCHELLE", "state": "NY", "zip": "10801-3916", "ntee": "", "ruling": "197610", "deductibility": "1", "assets": 0, "income": 0, "revenue": 0}, {"ein": "550809138", "name": "ROCHELLE AND DAVID A HIRSCH FOUNDATION INC", "city": "NEW YORK", "state": "NY", "zip": "10021-4155", "ntee": "T20", "ruling": "200301", "deductibility": "1", "assets": 29716484, "income": 10576853, "revenue": 0}, {"ein": "811426864", "name": "ISLAMIC CENTER OF NEW ROCHELLE", "city": "NEW ROCHELLE", "state": "NY", "zip": "10801-3411", "ntee": "P60", "ruling": "201612", "deductibility": "1", "assets": 764340, "income": 177706, "revenue": 177706}, {"ein": "825047886", "name": "THOMAS ADDIS EMMET AOH DIVISION 17 OF PELHAM & NEW ROCHELLE INC", "city": "YONKERS", "state": "NY", "zip": "10704-4232", "ntee": "Y40", "ruling": "202304", "deductibility": "1", "assets": 0, "income": 0, "revenue": 0}, {"ein": "832238778", "name": "FOUNDATION FOR SCIENCE RESEARCH IN NEW ROCHELLE INC", "city": "NEW ROCHELLE", "state": "NY", "zip": "10804-3832", "ntee": "B11", "ruling": "201812", "deductibility": "1", "assets": 0, "income": 0, "revenue": 0}, {"ein": "832973068", "name": "NEW ROCHELLE TORAH CENTER INC", "city": "NEW ROCHELLE", "state": "NY", "zip": "10804-3324", "ntee": "X30", "ruling": "201908", "deductibility": "1", "assets": 0, "income": 0, "revenue": 0}, {"ein": "900918877", "name": "SEVENTH DAY ADVENTIST REFORM MOVEMENT NEW ROCHELLE CHURCH", "city": "NEW ROCHELLE", "state": "NY", "zip": "10801-3250", "ntee": "", "ruling": "200608", "deductibility": "1", "assets": 0, "income": 0, "revenue": 0}, {"ein": "991553080", "name": "MADISON ROCHELLE ALFANO FOUNDATION INC", "city": "STATEN ISLAND", "state": "NY", "zip": "10306-3737", "ntee": "S12", "ruling": "202403", "deductibility": "1", "assets": 11746, "income": 38303, "revenue": 38303}], "ORIENTA": [{"ein": "131723696", "name": "ORIENTA BEACH CLUB INC", "city": "MAMARONECK", "state": "NY", "zip": "10543-4536", "ntee": "", "ruling": "194303", "deductibility": "2", "assets": 12012589, "income": 9237264, "revenue": 8228628}, {"ein": "131723698", "name": "ORIENTA YACHT CLUB OF MAMARONECK", "city": "MAMARONECK", "state": "NY", "zip": "10543-0242", "ntee": "", "ruling": "197402", "deductibility": "2", "assets": 1188497, "income": 421041, "revenue": 379966}], "SPUYTEN": [{"ein": "131858180", "name": "SPUYTEN DUYVIL PRE SCHOOL INC", "city": "BRONX", "state": "NY", "zip": "10463-5139", "ntee": "P33", "ruling": "201305", "deductibility": "1", "assets": 1129033, "income": 847041, "revenue": 847041}, {"ein": "134162167", "name": "SPUYTEN DUYVIL CONGREGATION INC", "city": "BRONX", "state": "NY", "zip": "10463-3501", "ntee": "X30", "ruling": "200107", "deductibility": "1", "assets": 0, "income": 0, "revenue": 0}], "PARKINSONS": [{"ein": "131866796", "name": "PARKINSONS FOUNDATION INC", "city": "NEW YORK", "state": "NY", "zip": "10018-7867", "ntee": "H800", "ruling": "195902", "deductibility": "1", "assets": 62045139, "income": 70108403, "revenue": 55962188}, {"ein": "134141945", "name": "MICHAEL J FOX FOUNDATION FOR PARKINSONS RESEARCH", "city": "NEW YORK", "state": "NY", "zip": "10163-4777", "ntee": "H48", "ruling": "200012", "deductibility": "1", "assets": 439010892, "income": 1471853058, "revenue": 505288760}, {"ein": "161586286", "name": "PLWP INC PEOPLE LIVING WITH PARKINSONS", "city": "ROCHESTER", "state": "NY", "zip": "14625-1240", "ntee": "G80", "ruling": "200001", "deductibility": "1", "assets": 0, "income": 0, "revenue": 0}, {"ein": "223448410", "name": "CENTRAL NEW YORK PARKINSONS SUPPORT GROUP INC", "city": "NEW HARTFORD", "state": "NY", "zip": "13413-3002", "ntee": "Z99Z", "ruling": "199609", "deductibility": "1", "assets": 0, "income": 0, "revenue": 0}, {"ein": "260346133", "name": "SOCIETY TO END PARKINSONS DISEASE", "city": "PORT JEFF STA", "state": "NY", "zip": "11776-3206", "ntee": "T300", "ruling": "200804", "deductibility": "1", "assets": 11835, "income": 0, "revenue": 0}, {"ein": "274061223", "name": "PARKINSONS DISEASE SUPPPORT GROUP OF THE MID-HUDSON VALLEY INC", "city": "LAGRANGEVILLE", "state": "NY", "zip": "12540-0304", "ntee": "E86", "ruling": "201102", "deductibility": "1", "assets": 0, "income": 0, "revenue": 0}, {"ein": "475673445", "name": "DANCE PARTY FOR PARKINSONS INC", "city": "OLD WESTBURY", "state": "NY", "zip": "11568-1130", "ntee": "H12", "ruling": "201512", "deductibility": "1", "assets": 0, "income": 0, "revenue": 0}, {"ein": "812352776", "name": "SEAWAY PARKINSONS COALITION", "city": "MASSENA", "state": "NY", "zip": "13662-1820", "ntee": "G50", "ruling": "201904", "deductibility": "1", "assets": 0, "income": 0, "revenue": 0}, {"ein": "832040510", "name": "PUNCH OUT PARKINSONS", "city": "BINGHAMTON", "state": "NY", "zip": "13903-2766", "ntee": "G80", "ruling": "201811", "deductibility": "1", "assets": 20100, "income": 72466, "revenue": 70136}, {"ein": "833941261", "name": "STAND UP TO PARKINSONS INC", "city": "CLIFTON PARK", "state": "NY", "zip": "12065-0137", "ntee": "G12", "ruling": "201905", "deductibility": "1", "assets": 27659, "income": 163064, "revenue": 123903}, {"ein": "842819605", "name": "PARKINSONS WELLNESS PROJECT INC", "city": "SUFFERN", "state": "NY", "zip": "10901-1919", "ntee": "", "ruling": "202105", "deductibility": "1", "assets": 40848, "income": 114709, "revenue": 114709}, {"ein": "862491550", "name": "MAKE A MARK ON PARKINSONS", "city": "THORNWOOD", "state": "NY", "zip": "10594-2210", "ntee": "G80", "ruling": "202203", "deductibility": "1", "assets": 0, "income": 0, "revenue": 0}, {"ein": "991890260", "name": "PARKINSONS WELLNESS INITIATIVE FOUNDATION", "city": "NEW YORK", "state": "NY", "zip": "10028-1049", "ntee": "G80", "ruling": "202406", "deductibility": "1", "assets": 0, "income": 0, "revenue": 0}], "PIERMONT": [{"ein": "132587595", "name": "PIERMONT PUBLIC LIBRARY", "city": "PIERMONT", "state": "NY", "zip": "10968-3021", "ntee": "B70", "ruling": "197405", "deductibility": "1", "assets": 3497871, "income": 508305, "revenue": 508305}, {"ein": "133259885", "name": "EMPIRE HOSE COMPANY NO 1 OF PIERMONT NEW YORK INC", "city": "PIERMONT", "state": "NY", "zip": "10968-1035", "ntee": "M24", "ruling": "200201", "deductibility": "1", "assets": 6526735, "income": 6041262, "revenue": 6012079}, {"ein": "133550594", "name": "VETERANS MEMORIAL ASSOCIATION OF PIERMONT INC", "city": "PIERMONT", "state": "NY", "zip": "10968-0375", "ntee": "", "ruling": "199212", "deductibility": "2", "assets": 822822, "income": 7678, "revenue": 7678}, {"ein": "136121070", "name": "PIERMONT REFORMED CHURCH INC", "city": "PIERMONT", "state": "NY", "zip": "10968-1203", "ntee": "", "ruling": "198601", "deductibility": "1", "assets": 0, "income": 0, "revenue": 0}, {"ein": "264391503", "name": "PIERMONT POLICE ATHLETIC LEAGUE INC", "city": "PIERMONT", "state": "NY", "zip": "10968-1266", "ntee": "N60", "ruling": "202301", "deductibility": "1", "assets": 0, "income": 0, "revenue": 0}, {"ein": "460670704", "name": "PIERMONT CHAMBER OF COMMERCE", "city": "PIERMONT", "state": "NY", "zip": "10968-0194", "ntee": "S41", "ruling": "201308", "deductibility": "2", "assets": 0, "income": 0, "revenue": 0}, {"ein": "562597821", "name": "PIERMONT HISTORICAL SOCIETY", "city": "PIERMONT", "state": "NY", "zip": "10968-0362", "ntee": "A50", "ruling": "200703", "deductibility": "1", "assets": 106370, "income": 68178, "revenue": 47120}, {"ein": "800916072", "name": "PIERMONT CIVIC ASSOCIATION", "city": "PIERMONT", "state": "NY", "zip": "10968-0454", "ntee": "S12", "ruling": "201408", "deductibility": "1", "assets": 0, "income": 0, "revenue": 0}, {"ein": "832387989", "name": "KNIGHTS OF COLUMBUS HOME ASSOCIATION PIERMONT NEW YORK INC", "city": "PIERMONT", "state": "NY", "zip": "10968-0001", "ntee": "Y11", "ruling": "202001", "deductibility": "2", "assets": 860956, "income": 28675, "revenue": 28675}], "SOCIALISTS": [{"ein": "132893010", "name": "DEMOCRATIC SOCIALISTS OF AMERICA FUND INC", "city": "HARTSDALE", "state": "NY", "zip": "10530-0057", "ntee": "V24Z", "ruling": "197705", "deductibility": "1", "assets": 717700, "income": 412359, "revenue": 412359}, {"ein": "133109557", "name": "DEMOCRATIC SOCIALISTS OF AMERICA INC", "city": "NEW YORK", "state": "NY", "zip": "10038-4810", "ntee": "V24", "ruling": "198807", "deductibility": "2", "assets": 3914972, "income": 6287543, "revenue": 6161514}, {"ein": "843589987", "name": "BLACK SOCIALISTS OF AMERICA", "city": "BROOKLYN", "state": "NY", "zip": "11221-6274", "ntee": "R01", "ruling": "202001", "deductibility": "1", "assets": 228679, "income": 63862, "revenue": 63862}, {"ein": "843827505", "name": "SYRACUSE NY DEMOCRATIC SOCIALISTS OF AMERICA", "city": "SYRACUSE", "state": "NY", "zip": "13261-7135", "ntee": "W24", "ruling": "202301", "deductibility": "2", "assets": 0, "income": 0, "revenue": 0}, {"ein": "881794215", "name": "LOWER HUDSON VALLEY DEMOCRATIC SOCIALISTS OF AMERICA", "city": "WHITE PLAINS", "state": "NY", "zip": "10606-3434", "ntee": "R99", "ruling": "202401", "deductibility": "2", "assets": 0, "income": 0, "revenue": 0}], "ESTUDIOS": [{"ein": "133059518", "name": "LA ASOCIACION AMERICANA DE ESTUDIOS INC", "city": "NEW YORK", "state": "NY", "zip": "10034-0603", "ntee": "A20", "ruling": "199202", "deductibility": "1", "assets": 447923, "income": 198893, "revenue": 192089}, {"ein": "134173711", "name": "EL CENTRO DE ESTUDIOS JUDIOS TORAT EMET", "city": "YONKERS", "state": "NY", "zip": "10704-2907", "ntee": "X30", "ruling": "200205", "deductibility": "1", "assets": 0, "income": 0, "revenue": 0}, {"ein": "742019804", "name": "ASOCIACION DE ESTUDIOS DE GENERO Y SEXUALIDADES", "city": "HAMILTON", "state": "NY", "zip": "13346-9574", "ntee": "", "ruling": "197908", "deductibility": "1", "assets": 0, "income": 0, "revenue": 0}, {"ein": "862731106", "name": "CENTRO DE ESTUDIOS TEOLOGICOS PODER DEL ALFARERO INC", "city": "BROOKLYN", "state": "NY", "zip": "11232-3610", "ntee": "X21", "ruling": "202410", "deductibility": "1", "assets": 0, "income": 0, "revenue": 0}], "ROHIT": [{"ein": "133260252", "name": "ROHIT AND KATHARINE DESAI FOUNDATION", "city": "BETHPAGE", "state": "NY", "zip": "11714-0519", "ntee": "", "ruling": "198504", "deductibility": "1", "assets": 5044120, "income": 1331203, "revenue": 0}], "PITCHING": [{"ein": "133414936", "name": "CONCORD HORSESHOE PITCHING ASSOCIATION INC", "city": "SPRINGVILLE", "state": "NY", "zip": "14141-9651", "ntee": "", "ruling": "198707", "deductibility": "2", "assets": 0, "income": 0, "revenue": 0}], "POWERS": [{"ein": "133637704", "name": "POWERS FAMILY FOUNDATION", "city": "MELVILLE", "state": "NY", "zip": "11747-4909", "ntee": "", "ruling": "199212", "deductibility": "1", "assets": 13100846, "income": 1441610, "revenue": 0}, {"ein": "141797644", "name": "FRIENDS OF BEATTIE-POWERS PLACE INC", "city": "CATSKILL", "state": "NY", "zip": "12414-0453", "ntee": "A80", "ruling": "200804", "deductibility": "1", "assets": 79360, "income": 134691, "revenue": 134691}, {"ein": "150564082", "name": "POWERS LIBRARY", "city": "MORAVIA", "state": "NY", "zip": "13118-0071", "ntee": "B71Z", "ruling": "197804", "deductibility": "1", "assets": 1084103, "income": 120110, "revenue": 120110}, {"ein": "161423175", "name": "POWERS INN CLUB INC", "city": "DANSVILLE", "state": "NY", "zip": "14437-0254", "ntee": "N50", "ruling": "200403", "deductibility": "2", "assets": 109755, "income": 55009, "revenue": 27413}, {"ein": "874069602", "name": "POWERS SUPPORTIVE HOUSING DEVELOPMENT FUND CORPORATION", "city": "NEW YORK", "state": "NY", "zip": "10004-1787", "ntee": "P83", "ruling": "202503", "deductibility": "2", "assets": 1, "income": 0, "revenue": 0}, {"ein": "922860830", "name": "GARY POWERS FOUNDATION INC", "city": "DEPEW", "state": "NY", "zip": "14043-1210", "ntee": "A12", "ruling": "202308", "deductibility": "1", "assets": 0, "income": 0, "revenue": 0}], "HONDURANS": [{"ein": "133727805", "name": "HONDURANS AGAINST AIDS INC", "city": "BRONX", "state": "NY", "zip": "10451-5104", "ntee": "G81", "ruling": "200006", "deductibility": "1", "assets": 72105, "income": 199792, "revenue": 199792}], "CRETELLA": [{"ein": "133798973", "name": "VIRGINIA CRETELLA MARS FOUNDATION", "city": "NEW YORK", "state": "NY", "zip": "10005-0000", "ntee": "T60Z", "ruling": "199505", "deductibility": "1", "assets": 16426401, "income": 4341376, "revenue": 0}], "BERLIND": [{"ein": "133800078", "name": "BERLIND FOUNDATION", "city": "NEW YORK", "state": "NY", "zip": "10028-7552", "ntee": "T20Z", "ruling": "199503", "deductibility": "1", "assets": 726178, "income": 701461, "revenue": 0}], "HIGHEST": [{"ein": "133861058", "name": "HIGHEST PRAISE", "city": "BRONX", "state": "NY", "zip": "10466-0000", "ntee": "", "ruling": "197210", "deductibility": "1", "assets": 0, "income": 0, "revenue": 0}], "ZIKNEI": [{"ein": "133872126", "name": "BAIS ZIKNEI YISROEL INC", "city": "MONROE", "state": "NY", "zip": "10950-3881", "ntee": "X21", "ruling": "200109", "deductibility": "1", "assets": 0, "income": 0, "revenue": 0}], "STUNTZ": [{"ein": "133979253", "name": "STUNTZ FAMILY FOUNDATION", "city": "NEW YORK", "state": "NY", "zip": "10017-0000", "ntee": "T90Z", "ruling": "199804", "deductibility": "1", "assets": 6456981, "income": 1565133, "revenue": 0}], "61ST": [{"ein": "134041459", "name": "351 EAST 61ST STREET H D F C", "city": "NEW YORK", "state": "NY", "zip": "10004-1561", "ntee": "L20", "ruling": "199905", "deductibility": "1", "assets": 8230387, "income": 1045540, "revenue": 1045540}], "ARAZIM": [{"ein": "134092834", "name": "SHAAREI ARAZIM OF MONSEY", "city": "MONSEY", "state": "NY", "zip": "10952-0523", "ntee": "B25", "ruling": "200106", "deductibility": "1", "assets": 12628, "income": 149, "revenue": 149}, {"ein": "465259454", "name": "YESHIVA SHAAREI ARAZIM", "city": "MONSEY", "state": "NY", "zip": "10952-0523", "ntee": "B25", "ruling": "201411", "deductibility": "1", "assets": 436514, "income": 1617793, "revenue": 1617793}], "EFFORT": [{"ein": "134095507", "name": "VIETNAMESE-AMERICAN RELIEF EFFORT", "city": "NEW YORK", "state": "NY", "zip": "10017-3539", "ntee": "B12", "ruling": "202411", "deductibility": "1", "assets": 0, "income": 0, "revenue": 0}, {"ein": "166095039", "name": "PEOPLES EQUAL ACTION AND COMMUNITY EFFORT INC", "city": "SYRACUSE", "state": "NY", "zip": "13202-1370", "ntee": "P200", "ruling": "197112", "deductibility": "1", "assets": 10495767, "income": 25178196, "revenue": 25147339}, {"ein": "222270536", "name": "CONCERTED EFFORT INC", "city": "NORTH CHATHAM", "state": "NY", "zip": "12132-0000", "ntee": "A60Z", "ruling": "197910", "deductibility": "1", "assets": 0, "income": 0, "revenue": 0}, {"ein": "263338017", "name": "SHANDAKEN ANIMAL VOLUNTEER EFFORT", "city": "SHANDAKEN", "state": "NY", "zip": "12480-0187", "ntee": "D20", "ruling": "201209", "deductibility": "1", "assets": 0, "income": 0, "revenue": 0}, {"ein": "271820509", "name": "HAITI RELIEF EFFORT", "city": "CAMBRIA HTS", "state": "NY", "zip": "11411-1622", "ntee": "B24", "ruling": "201709", "deductibility": "1", "assets": 1, "income": 29497, "revenue": 0}, {"ein": "273401558", "name": "PEDIATRIC UNIVERSAL LIFE-SAVING EFFORT INC", "city": "NEW YORK", "state": "NY", "zip": "10009-8949", "ntee": "P20", "ruling": "201110", "deductibility": "1", "assets": 0, "income": 0, "revenue": 0}, {"ein": "453534804", "name": "RURAL AREA REVITALIZATION EFFORT", "city": "N BLENHEIM", "state": "NY", "zip": "12131-0128", "ntee": "T12", "ruling": "201202", "deductibility": "1", "assets": 0, "income": 0, "revenue": 0}, {"ein": "920306827", "name": "RESCUE EFFORT CORP", "city": "BROOKLYN", "state": "NY", "zip": "11226-4182", "ntee": "A12", "ruling": "202212", "deductibility": "1", "assets": 0, "income": 0, "revenue": 0}], "GUTTMANN": [{"ein": "134198749", "name": "GUTTMANN-SCHWAB FAMILY FOUNDATION", "city": "MONSEY", "state": "NY", "zip": "10952-2427", "ntee": "T12", "ruling": "200201", "deductibility": "1", "assets": 31823, "income": 42098, "revenue": 0}], "NETIV": [{"ein": "134258585", "name": "AMERICAN FRIENDS OF NETIV ARYEH INC", "city": "MONSEY", "state": "NY", "zip": "10952-1507", "ntee": "X21", "ruling": "200312", "deductibility": "1", "assets": 817012, "income": 3094839, "revenue": 3094839}, {"ein": "202923277", "name": "AMERICAN FRIENDS OF NETIV OHR", "city": "BROOKLYN", "state": "NY", "zip": "11204-1482", "ntee": "X11", "ruling": "201012", "deductibility": "1", "assets": 0, "income": 0, "revenue": 0}, {"ein": "273631987", "name": "AMERICAN FRIENDS OF RABBINICAL COLLEGE NETIV HADAAT INC", "city": "BROOKLYN", "state": "NY", "zip": "11219-0000", "ntee": "B122", "ruling": "201110", "deductibility": "1", "assets": 714357, "income": 3290047, "revenue": 3290047}], "WAHRSAGER": [{"ein": "136034241", "name": "WAHRSAGER FOUNDATION", "city": "NEW YORK", "state": "NY", "zip": "10021-0104", "ntee": "", "ruling": "196304", "deductibility": "1", "assets": 346005, "income": 106910, "revenue": 0}], "KOPLIK": [{"ein": "136161653", "name": "KOPLIK FOUNDATION", "city": "NEW YORK", "state": "NY", "zip": "10065-5724", "ntee": "", "ruling": "196405", "deductibility": "1", "assets": 9230, "income": 18175, "revenue": 0}], "TIETZ": [{"ein": "136266115", "name": "MARGARET TIETZ CENTER FOR NURSING CARE", "city": "FLUSHING", "state": "NY", "zip": "11354-4110", "ntee": "E91", "ruling": "196806", "deductibility": "1", "assets": 2583112, "income": 1357, "revenue": 1357}], "FULTONVILLE": [{"ein": "141593418", "name": "FULTONVILLE REFORMED CHURCH", "city": "ROXBURY", "state": "NY", "zip": "12474-0000", "ntee": "", "ruling": "198601", "deductibility": "1", "assets": 0, "income": 0, "revenue": 0}, {"ein": "141832349", "name": "FONDA FULTONVILLE ALUMNI ASSOCIATION", "city": "FONDA", "state": "NY", "zip": "12068-5410", "ntee": "B84", "ruling": "200608", "deductibility": "1", "assets": 0, "income": 0, "revenue": 0}, {"ein": "455586227", "name": "FONDA FULTONVILLE ALL SPORTS BOOSTER CLUB INC", "city": "FONDA", "state": "NY", "zip": "12068-5410", "ntee": "B11", "ruling": "201805", "deductibility": "1", "assets": 0, "income": 0, "revenue": 0}, {"ein": "813576269", "name": "FONDA-FULTONVILLE YOUTH FOOTBALL INC", "city": "FONDA", "state": "NY", "zip": "12068-0153", "ntee": "N65", "ruling": "201608", "deductibility": "1", "assets": 0, "income": 0, "revenue": 0}, {"ein": "814191732", "name": "FONDA-FULTONVILLE COMMUNITY FOUNDATION INC", "city": "FONDA", "state": "NY", "zip": "12068-0814", "ntee": "B11", "ruling": "201704", "deductibility": "1", "assets": 0, "income": 0, "revenue": 0}], "QUARTE": [{"ein": "141745831", "name": "SOCIETY FOR PRESERVATION & ENCOURAGEMENT OF BARBERSHOP QUARTE", "city": "BALLSTON LAKE", "state": "NY", "zip": "12019-1823", "ntee": "A6B", "ruling": "201807", "deductibility": "1", "assets": 0, "income": 0, "revenue": 0}], "SCREENING": [{"ein": "141752623", "name": "PRESCHOOL EARLY DEVELOPMENT AND SCREENING COMMITTEE OF ALBANY INC", "city": "ALBANY", "state": "NY", "zip": "12205-4972", "ntee": "", "ruling": "199307", "deductibility": "2", "assets": 39468, "income": 199341, "revenue": 199341}, {"ein": "204916719", "name": "CANCER SCREENING CENTERS INC", "city": "ROCKVILLE CTR", "state": "NY", "zip": "11570-3604", "ntee": "H30", "ruling": "200610", "deductibility": "1", "assets": 0, "income": 0, "revenue": 0}, {"ein": "473436880", "name": "HSS SCREENING AND EARLY DETECTION INC", "city": "NEW HYDE PARK", "state": "NY", "zip": "11040-1052", "ntee": "G30", "ruling": "201504", "deductibility": "1", "assets": 28303, "income": 73750, "revenue": 73750}, {"ein": "994074582", "name": "CANCER SCREENING ADVOCATES INC", "city": "NEW YORK", "state": "NY", "zip": "10023-9672", "ntee": "E70", "ruling": "202408", "deductibility": "1", "assets": 0, "income": 0, "revenue": 0}], "LYON": [{"ein": "141818286", "name": "FRIENDS OF LYON MOUNTAIN INC", "city": "LYON MOUNTAIN", "state": "NY", "zip": "12952-0230", "ntee": "C30", "ruling": "200005", "deductibility": "1", "assets": 0, "income": 0, "revenue": 0}, {"ein": "770614581", "name": "SAVE THE LYON COMMISSION", "city": "BATH", "state": "NY", "zip": "14810-0083", "ntee": "A80", "ruling": "200701", "deductibility": "1", "assets": 453537, "income": 310896, "revenue": 26680}, {"ein": "823284634", "name": "LYON MOUNTAIN AMBULANCE SERVICES INC", "city": "LYON MOUNTAIN", "state": "NY", "zip": "12952-0208", "ntee": "M41", "ruling": "201811", "deductibility": "1", "assets": 82360, "income": 0, "revenue": 0}], "NAMES": [{"ein": "141835187", "name": "ANGEL NAMES ASSOCIATION", "city": "SARATOGA SPGS", "state": "NY", "zip": "12866-0423", "ntee": "P30", "ruling": "200110", "deductibility": "1", "assets": 417821, "income": 57694, "revenue": 57694}, {"ein": "474719936", "name": "NAMES NOT NUMBERS INC", "city": "NEW YORK", "state": "NY", "zip": "10033-1619", "ntee": "B90", "ruling": "201908", "deductibility": "1", "assets": 2084687, "income": 891852, "revenue": 891852}], "MONAHAN": [{"ein": "146022154", "name": "MARGARET B MONAHAN AND ALBERTA W LAIGHTON MEMORIAL FUND", "city": "PAWLING", "state": "NY", "zip": "12564-0668", "ntee": "", "ruling": "198509", "deductibility": "0", "assets": 422812, "income": 149677, "revenue": 0}, {"ein": "826166454", "name": "FRANCOIS WALLACE MONAHAN FUND", "city": "NEW YORK", "state": "NY", "zip": "10016-0000", "ntee": "T22", "ruling": "201706", "deductibility": "1", "assets": 4284320, "income": 991594, "revenue": 0}], "WILCOX": [{"ein": "146109603", "name": "IRENE K WILCOX ESTATE FBO TOWN OF MILAN TR", "city": "MILLBROOK", "state": "NY", "zip": "12545-1447", "ntee": "", "ruling": "198001", "deductibility": "1", "assets": 572425, "income": 76059, "revenue": 0}, {"ein": "166468660", "name": "SWART-WILCOX TR UW R T APPLEBAUGH", "city": "ONEONTA", "state": "NY", "zip": "13820-0000", "ntee": "T20", "ruling": "199911", "deductibility": "1", "assets": 249000, "income": 130204, "revenue": 0}, {"ein": "237242400", "name": "WILCOX LANE SENIOR CITIZENS HOUSING CO INC", "city": "ROCHESTER", "state": "NY", "zip": "14609-2457", "ntee": "L22Z", "ruling": "197408", "deductibility": "1", "assets": 4400375, "income": 962389, "revenue": 962389}, {"ein": "562482948", "name": "SWART-WILCOX HOUSE MUSEUM", "city": "ONEONTA", "state": "NY", "zip": "13820-1832", "ntee": "A54", "ruling": "202406", "deductibility": "1", "assets": 0, "income": 0, "revenue": 0}, {"ein": "843197668", "name": "FRIENDS OF THE MARY WILCOX MEMORIAL LIBRARY", "city": "WHITNEY POINT", "state": "NY", "zip": "13862-0748", "ntee": "B01", "ruling": "201911", "deductibility": "1", "assets": 0, "income": 0, "revenue": 0}], "GILBERTSVILLE": [{"ein": "150500406", "name": "VILLAGE IMPROVEMENT SOCIETY OF GILBERTSVILLE N Y", "city": "GILBERTSVILLE", "state": "NY", "zip": "13776-0061", "ntee": "O20", "ruling": "201104", "deductibility": "1", "assets": 680512, "income": 50182, "revenue": 50122}, {"ein": "150559689", "name": "GILBERTSVILLE FREE LIBRARY", "city": "GILBERTSVILLE", "state": "NY", "zip": "13776-0332", "ntee": "", "ruling": "194306", "deductibility": "1", "assets": 0, "income": 0, "revenue": 0}, {"ein": "156021607", "name": "GILBERTSVILLE BAPTIST CHURCH", "city": "GILBERTSVILLE", "state": "NY", "zip": "13776-0352", "ntee": "", "ruling": "195504", "deductibility": "1", "assets": 0, "income": 0, "revenue": 0}, {"ein": "510189336", "name": "GILBERTSVILLE MOUNT UPTON CSD BOOSTER CLUB", "city": "MOUNT UPTON", "state": "NY", "zip": "13809-4225", "ntee": "B20", "ruling": "202203", "deductibility": "1", "assets": 0, "income": 0, "revenue": 0}, {"ein": "814666292", "name": "GILBERTSVILLE EXPRESSIVE MOVEMENT INC", "city": "GILBERTSVILLE", "state": "NY", "zip": "13776-0046", "ntee": "A90", "ruling": "201612", "deductibility": "1", "assets": 49745, "income": 51536, "revenue": 0}], "KIRKLAND": [{"ein": "150543588", "name": "KIRKLAND TOWN LIBRARY", "city": "CLINTON", "state": "NY", "zip": "13323-1633", "ntee": "B71Z", "ruling": "195106", "deductibility": "1", "assets": 2914419, "income": 550251, "revenue": 546428}, {"ein": "150618473", "name": "KIRKLAND ART CENTER INC", "city": "CLINTON", "state": "NY", "zip": "13323-1544", "ntee": "A200", "ruling": "196605", "deductibility": "1", "assets": 683449, "income": 284179, "revenue": 275892}, {"ein": "161458659", "name": "KIRKLAND LIFE CHURCH", "city": "CLINTON", "state": "NY", "zip": "13323-0256", "ntee": "", "ruling": "196408", "deductibility": "1", "assets": 0, "income": 0, "revenue": 0}, {"ein": "834422761", "name": "KIRKLAND TRAILS INC", "city": "CLINTON", "state": "NY", "zip": "13323-0086", "ntee": "N30", "ruling": "202005", "deductibility": "1", "assets": 219323, "income": 157349, "revenue": 157349}, {"ein": "880646709", "name": "CLINTON KIRKLAND IMPROVEMENT CORPORATION", "city": "CLINTON", "state": "NY", "zip": "13323-0045", "ntee": "S20", "ruling": "202203", "deductibility": "1", "assets": 83189, "income": 82215, "revenue": 82215}], "COLUMBAS": [{"ein": "160743274", "name": "ST COLUMBAS CHURCH", "city": "CALEDONIA", "state": "NY", "zip": "14423-1035", "ntee": "", "ruling": "194603", "deductibility": "1", "assets": 0, "income": 0, "revenue": 0}], "CENTURIES": [{"ein": "161334803", "name": "TAPESTRY-THE ALL-CENTURIES SINGERS", "city": "HAMILTON", "state": "NY", "zip": "13346-1222", "ntee": "A6B", "ruling": "202310", "deductibility": "1", "assets": 0, "income": 0, "revenue": 0}], "STORYTELLERS": [{"ein": "161396070", "name": "GENESEE STORYTELLERS INC", "city": "ROCHESTER", "state": "NY", "zip": "14625-2175", "ntee": "A99Z", "ruling": "199112", "deductibility": "1", "assets": 0, "income": 0, "revenue": 0}, {"ein": "472093589", "name": "STORYTELLERS EXPRESS INC", "city": "OGDENSBURG", "state": "NY", "zip": "13669-1036", "ntee": "D20", "ruling": "201508", "deductibility": "1", "assets": 185548, "income": 28083, "revenue": 28083}, {"ein": "824497674", "name": "TRADITION KEEPERS BLACK STORYTELLERS OF WESTERN NEW YORK", "city": "BUFFALO", "state": "NY", "zip": "14208-1827", "ntee": "A23", "ruling": "202404", "deductibility": "1", "assets": 0, "income": 0, "revenue": 0}], "CYLINDER": [{"ein": "161470212", "name": "NEW YORK STATE TWO CYLINDER EXPO ASSOCIATION INC", "city": "PULTENEY", "state": "NY", "zip": "14874-9607", "ntee": "N50", "ruling": "199902", "deductibility": "2", "assets": 55854, "income": 1529, "revenue": 1529}, {"ein": "161507646", "name": "SOUTHERN TIER TWO CYLINDER CLUB INC", "city": "BATH", "state": "NY", "zip": "14810-8227", "ntee": "A80Z", "ruling": "199704", "deductibility": "1", "assets": 0, "income": 0, "revenue": 0}], "SENIORLIFE": [{"ein": "161509425", "name": "EPISCOPAL SENIORLIFE COMMUNITIES", "city": "ROCHESTER", "state": "NY", "zip": "14620-2251", "ntee": "P81Z", "ruling": "199704", "deductibility": "1", "assets": 18807941, "income": 7228894, "revenue": 7228894}], "SWAMP": [{"ein": "161526251", "name": "FRIENDS OF THE GREAT SWAMP", "city": "PAWLING", "state": "NY", "zip": "12564-0373", "ntee": "C32", "ruling": "199712", "deductibility": "1", "assets": 975478, "income": 80489, "revenue": 73567}, {"ein": "161529688", "name": "GREAT SWAMP CONSERVANCY INC", "city": "CANASTOTA", "state": "NY", "zip": "13032-3243", "ntee": "C300", "ruling": "199804", "deductibility": "1", "assets": 1089705, "income": 241634, "revenue": 222858}, {"ein": "166051389", "name": "BERGEN SWAMP PRESERVATION SOCIETY INCORPORATED", "city": "BERGEN", "state": "NY", "zip": "14416-0460", "ntee": "C320", "ruling": "194906", "deductibility": "1", "assets": 0, "income": 0, "revenue": 0}, {"ein": "452856786", "name": "SHAKER SWAMP CONSERVANCY", "city": "NEW LEBANON", "state": "NY", "zip": "12125-0833", "ntee": "C32", "ruling": "201201", "deductibility": "1", "assets": 0, "income": 0, "revenue": 0}, {"ein": "883568266", "name": "SWAMP IN THE CITY INC", "city": "BROOKLYN", "state": "NY", "zip": "11231-1055", "ntee": "A20", "ruling": "202208", "deductibility": "1", "assets": 58597, "income": 87967, "revenue": 87967}], "BARNSTORMERS": [{"ein": "161581095", "name": "INLET BARNSTORMERS SNOWMOBILE CLUB INC", "city": "INLET", "state": "NY", "zip": "13360-0144", "ntee": "N50", "ruling": "200005", "deductibility": "2", "assets": 413375, "income": 67700, "revenue": 67700}], "NEUROSCIENCES": [{"ein": "161583617", "name": "DENT NEUROSCIENCES RESEARCH CENTER INC", "city": "AMHERST", "state": "NY", "zip": "14226-1727", "ntee": "H96", "ruling": "200101", "deductibility": "1", "assets": 4559033, "income": 3072810, "revenue": 2796179}, {"ein": "263714950", "name": "WESTCHESTER NEUROSCIENCES FOUNDATION INC", "city": "VALHALLA", "state": "NY", "zip": "10595-1524", "ntee": "G48", "ruling": "200902", "deductibility": "1", "assets": 0, "income": 0, "revenue": 0}, {"ein": "562020907", "name": "CINGULUM NEUROSCIENCES INSTITUTE INC", "city": "CICERO", "state": "NY", "zip": "13039-8311", "ntee": "H48", "ruling": "199707", "deductibility": "1", "assets": 0, "income": 0, "revenue": 0}], "PITLICK": [{"ein": "166383847", "name": "JOHN EDWARD LOVENHEIM AND BARBARA PITLICK LOVENHEIM CHARITABLE TRUST", "city": "ITHACA", "state": "NY", "zip": "14850-1675", "ntee": "", "ruling": "199304", "deductibility": "1", "assets": 858689, "income": 250337, "revenue": 0}], "HASHAIN": [{"ein": "201796208", "name": "CONGREGATION MIGDAL HASHAIN OF LIBICHOIV", "city": "MONSEY", "state": "NY", "zip": "10952-0000", "ntee": "X30", "ruling": "200507", "deductibility": "1", "assets": 0, "income": 0, "revenue": 0}], "MASHE": [{"ein": "202004696", "name": "KOLLEL TIFERES YAKOV VZICHRON MASHE", "city": "BROOKLYN", "state": "NY", "zip": "11210-4752", "ntee": "T30", "ruling": "200803", "deductibility": "1", "assets": 1075, "income": 102708, "revenue": 102708}, {"ein": "331194559", "name": "MACHON MASHE ROCKEACH INC", "city": "BROOKLYN", "state": "NY", "zip": "11219-3249", "ntee": "A33", "ruling": "201004", "deductibility": "1", "assets": 2250696, "income": 8687756, "revenue": 8687756}], "GREATCARE": [{"ein": "202310333", "name": "GREATCARE INC", "city": "NEW YORK", "state": "NY", "zip": "10016-8416", "ntee": "P80", "ruling": "200506", "deductibility": "1", "assets": 7498033, "income": 54709132, "revenue": 54709132}], "MCNEICE": [{"ein": "222914681", "name": "WILLIAM R MCNEICE III FOUNDATION", "city": "CANASTOTA", "state": "NY", "zip": "13032-5007", "ntee": "", "ruling": "198810", "deductibility": "1", "assets": 832258, "income": 241385, "revenue": 0}], "INSULATION": [{"ein": "236297364", "name": "EASTERN ATLANTIC STATES INSULATION CONTRACTORS ASSOCIATION INC", "city": "MELVILLE", "state": "NY", "zip": "11747-3665", "ntee": "", "ruling": "196105", "deductibility": "2", "assets": 310126, "income": 391953, "revenue": 380202}, {"ein": "237304981", "name": "INSULATION INDUSTRY PROMOTIONAL FUND OF NEW YORK", "city": "MELVILLE", "state": "NY", "zip": "11747-3665", "ntee": "", "ruling": "197307", "deductibility": "2", "assets": 866122, "income": 687371, "revenue": 582911}, {"ein": "271485253", "name": "INDUSTRIAL INSULATION CONTRACTORS ASSOCIATION OF SOUTHERN NEW YORK", "city": "MELVILLE", "state": "NY", "zip": "11747-3665", "ntee": "S41", "ruling": "201703", "deductibility": "2", "assets": 370675, "income": 151495, "revenue": 67117}], "B08567": [{"ein": "236708045", "name": "GEORGE B RUDY JR TRUST B08567 THE YORK BANK & TRUST CO TRUSTEE", "city": "BUFFALO", "state": "NY", "zip": "14240-1504", "ntee": "", "ruling": "198612", "deductibility": "1", "assets": 6683718, "income": 1553850, "revenue": 0}], "RIOT": [{"ein": "237036545", "name": "TRUSTEES OF RIOT RELIEF FUND", "city": "NEW YORK", "state": "NY", "zip": "10016-0000", "ntee": "", "ruling": "196911", "deductibility": "2", "assets": 3216158, "income": 621262, "revenue": 176568}, {"ein": "923098027", "name": "DIVINE RIOT INC", "city": "NEW YORK", "state": "NY", "zip": "11206-2880", "ntee": "A20", "ruling": "202311", "deductibility": "1", "assets": 0, "income": 0, "revenue": 0}], "JOZEF": [{"ein": "237164776", "name": "JOZEF PILSUDSKI INSTITUTE OF AMERIC A FOR RESEARCH IN THE MODERN HISTO", "city": "BROOKLYN", "state": "NY", "zip": "11222-2202", "ntee": "", "ruling": "195003", "deductibility": "1", "assets": 1598603, "income": 1003044, "revenue": 245873}], "OLOTH": [{"ein": "237213514", "name": "BETH OLOTH", "city": "MONSEY", "state": "NY", "zip": "10952-0000", "ntee": "P70I", "ruling": "197208", "deductibility": "1", "assets": 3218, "income": 575070, "revenue": 575070}], "VALMIK": [{"ein": "261586617", "name": "TEMPLE TIRKALDARSHI BHAGWAN VALMIK", "city": "RICHMOND HILL", "state": "NY", "zip": "11418-2335", "ntee": "X70", "ruling": "201001", "deductibility": "1", "assets": 0, "income": 0, "revenue": 0}], "MARTIALARTS": [{"ein": "263452378", "name": "INTERNATIONAL MARTIALARTS ASSOCIATION NY INC", "city": "ELMHURST", "state": "NY", "zip": "11373-1880", "ntee": "N99", "ruling": "201512", "deductibility": "1", "assets": 0, "income": 0, "revenue": 0}], "VENET": [{"ein": "263651953", "name": "VENET FAMILY FOUNDATION", "city": "NEW YORK", "state": "NY", "zip": "10018-0000", "ntee": "T22", "ruling": "201104", "deductibility": "1", "assets": 53341, "income": 1, "revenue": 0}], "TIKKUN": [{"ein": "263723332", "name": "TIKKUN OLAM FAMILY FOUNDATION INC", "city": "NEW HYDE PARK", "state": "NY", "zip": "11040-1708", "ntee": "T22", "ruling": "200905", "deductibility": "1", "assets": 1166443, "income": 407231, "revenue": 0}, {"ein": "462614678", "name": "TIKKUN LONG ISLAND PC", "city": "COMMACK", "state": "NY", "zip": "11725-6021", "ntee": "P20", "ruling": "201407", "deductibility": "1", "assets": 0, "income": 0, "revenue": 0}, {"ein": "464286227", "name": "TIKKUN OLAM FOUNDATION INC", "city": "NEW YORK", "state": "NY", "zip": "10271-3401", "ntee": "T20", "ruling": "201501", "deductibility": "1", "assets": 44539839, "income": 30221053, "revenue": 0}, {"ein": "812002742", "name": "TIKKUN KLALI OLAMI INC", "city": "BROOKLYN", "state": "NY", "zip": "11230-6318", "ntee": "X30", "ruling": "201608", "deductibility": "1", "assets": 108749, "income": 94778, "revenue": 94778}, {"ein": "990679343", "name": "TIKKUN PROJECT INC", "city": "NEW YORK", "state": "NY", "zip": "10021-4026", "ntee": "M20", "ruling": "202408", "deductibility": "1", "assets": 0, "income": 0, "revenue": 0}], "LIAMADOS": [{"ein": "264548045", "name": "CONFRATERNIDAD CRISTIANA LIAMADOS A SERVIR", "city": "FISHKILL", "state": "NY", "zip": "12524-0000", "ntee": "", "ruling": "196408", "deductibility": "1", "assets": 0, "income": 0, "revenue": 0}], "HELACO": [{"ein": "270575748", "name": "HELACO INC", "city": "ROSLYN HTS", "state": "NY", "zip": "11577-0435", "ntee": "G81", "ruling": "201007", "deductibility": "1", "assets": 0, "income": 0, "revenue": 0}], "BONDI": [{"ein": "273214381", "name": "DR NATE BONDI NYU-HJD ORTHOPAEDIC EDUCATIONAL FOUNDATION", "city": "NEW YORK", "state": "NY", "zip": "10016-6055", "ntee": "B82", "ruling": "201101", "deductibility": "1", "assets": 87320, "income": 17211, "revenue": 4379}], "ROSENZVEIG": [{"ein": "274374242", "name": "ELY & CHANI ROSENZVEIG CHARITABLE FOUNDATION", "city": "ELMSFORD", "state": "NY", "zip": "10523-2378", "ntee": "T22", "ruling": "201205", "deductibility": "1", "assets": 10002, "income": 1, "revenue": 0}, {"ein": "274374427", "name": "RABBI CHARLES H ROSENZVEIG MEMORIAL FOUNDATION", "city": "ELMSFORD", "state": "NY", "zip": "10523-2337", "ntee": "A80", "ruling": "201205", "deductibility": "1", "assets": 0, "income": 0, "revenue": 0}], "OPERATIONS": [{"ein": "274836354", "name": "NYSAIS OPERATIONS INC", "city": "ALBANY", "state": "NY", "zip": "12207-1035", "ntee": "S41", "ruling": "201202", "deductibility": "2", "assets": 397041, "income": 760083, "revenue": 760083}, {"ein": "421719019", "name": "U S ORT OPERATIONS INC", "city": "FOREST HILLS", "state": "NY", "zip": "11375-4231", "ntee": "B023", "ruling": "200910", "deductibility": "1", "assets": 830024, "income": 200429, "revenue": 200429}, {"ein": "474853506", "name": "MONTEFIORE CERC OPERATIONS INC", "city": "TARRYTOWN", "state": "NY", "zip": "10591-6301", "ntee": "E30", "ruling": "201804", "deductibility": "1", "assets": 14141159, "income": 4852193, "revenue": 4852193}, {"ein": "830773314", "name": "NATIONAL CENTER FOR URBAN OPERATIONS INC", "city": "NEW YORK", "state": "NY", "zip": "10019-1562", "ntee": "M40", "ruling": "202003", "deductibility": "1", "assets": 3493, "income": 330379, "revenue": 330379}], "AFRIKA": [{"ein": "300074870", "name": "SOIL AFRIKA GLOBAL", "city": "NEW YORK", "state": "NY", "zip": "10003-8665", "ntee": "G81", "ruling": "201803", "deductibility": "1", "assets": 0, "income": 0, "revenue": 0}, {"ein": "884299527", "name": "COCONUT AFRIKA WORLD FOUNDATION INC", "city": "ROOSEVELT", "state": "NY", "zip": "11575-2153", "ntee": "O52", "ruling": "202212", "deductibility": "1", "assets": 37, "income": 3527, "revenue": 3527}], "MUTAKABBIR": [{"ein": "300258287", "name": "MASJID MUTAKABBIR INC", "city": "POUGHKEEPSIE", "state": "NY", "zip": "12601-3312", "ntee": "X21", "ruling": "200502", "deductibility": "1", "assets": 0, "income": 0, "revenue": 0}], "DYNASTY": [{"ein": "300937353", "name": "DANIELS DYNASTY INC", "city": "NEW YORK", "state": "NY", "zip": "10027-0762", "ntee": "G84", "ruling": "201608", "deductibility": "1", "assets": 0, "income": 0, "revenue": 0}, {"ein": "332122347", "name": "DYNASTY", "city": "BROOKLYN", "state": "NY", "zip": "11211-8031", "ntee": "T30", "ruling": "202501", "deductibility": "1", "assets": 0, "income": 0, "revenue": 0}, {"ein": "852538453", "name": "LITTLE MINDS BRIGHT FUTURES DYNASTY INC", "city": "BROOKLYN", "state": "NY", "zip": "11236-1456", "ntee": "E12", "ruling": "202010", "deductibility": "1", "assets": 1, "income": 0, "revenue": 0}, {"ein": "920810940", "name": "IFEDIORA-HOUSE OF DIORA DYNASTY INC", "city": "ROCHESTER", "state": "NY", "zip": "14608-1509", "ntee": "P20", "ruling": "202212", "deductibility": "1", "assets": 0, "income": 0, "revenue": 0}, {"ein": "922457568", "name": "ROCKLAND DYNASTY FOOTBALL INC", "city": "CONGERS", "state": "NY", "zip": "10920-2412", "ntee": "N65", "ruling": "202308", "deductibility": "1", "assets": 0, "income": 0, "revenue": 0}], "RESEA": [{"ein": "311432981", "name": "SURGICAL INFECTION SOCIETY FOUNDATION FOR EDUCATION AND RESEA", "city": "E NORTHPORT", "state": "NY", "zip": "11731-4641", "ntee": "G90", "ruling": "199512", "deductibility": "1", "assets": 2853371, "income": 189684, "revenue": 189684}], "COLYER": [{"ein": "332031679", "name": "BEHNCKE COLYER FAMILY FOUNDATION INC", "city": "BROOKLYN", "state": "NY", "zip": "11217-0000", "ntee": "P12", "ruling": "202507", "deductibility": "1", "assets": 0, "income": 0, "revenue": 0}, {"ein": "826779757", "name": "MARGARET COLYER CHARITABLE TR", "city": "ONEONTA", "state": "NY", "zip": "13820-0430", "ntee": "T20", "ruling": "201903", "deductibility": "1", "assets": 2299922, "income": 631081, "revenue": 0}], "LUKAS": [{"ein": "334233631", "name": "LUKAS LIGHTNING LEAP", "city": "BUFFALO", "state": "NY", "zip": "14210-2637", "ntee": "H12", "ruling": "202505", "deductibility": "1", "assets": 0, "income": 0, "revenue": 0}], "XTENDED": [{"ein": "352370572", "name": "XTENDED GRACE MINISTRIES INC", "city": "BROOKLYN", "state": "NY", "zip": "11238-3611", "ntee": "X20", "ruling": "201809", "deductibility": "1", "assets": 0, "income": 0, "revenue": 0}], "CITYLIGHTS": [{"ein": "352532749", "name": "CITYLIGHTS COMMUNITY INC", "city": "NEW YORK", "state": "NY", "zip": "10026-0239", "ntee": "T30", "ruling": "201602", "deductibility": "1", "assets": 73633, "income": 41018, "revenue": 41018}], "CULTUREIST": [{"ein": "352638011", "name": "CULTUREIST FOUNDATION", "city": "NEW YORK", "state": "NY", "zip": "10002-1214", "ntee": "A25", "ruling": "201909", "deductibility": "1", "assets": 0, "income": 0, "revenue": 0}], "WANT": [{"ein": "371498582", "name": "WASTE-NOT-WANT-NOT INC", "city": "NEW YORK", "state": "NY", "zip": "10023-3278", "ntee": "P29", "ruling": "200509", "deductibility": "1", "assets": 71985, "income": 92064, "revenue": 92064}, {"ein": "473846125", "name": "SO YOU WANT TO CHANGE THE WORLD", "city": "BROOKLYN", "state": "NY", "zip": "11211-5073", "ntee": "B01", "ruling": "201506", "deductibility": "1", "assets": 7319, "income": 86175, "revenue": 86175}, {"ein": "814280858", "name": "IF YOU WANT IT LTD", "city": "BROOKLYN", "state": "NY", "zip": "11222-7572", "ntee": "R22", "ruling": "201703", "deductibility": "1", "assets": 0, "income": 0, "revenue": 0}, {"ein": "842810832", "name": "GIRLS JUST WANT TO HAVE FUN INC", "city": "BROOKLYN", "state": "NY", "zip": "11233-4008", "ntee": "R24", "ruling": "202003", "deductibility": "1", "assets": 0, "income": 0, "revenue": 0}, {"ein": "853980721", "name": "CREATIVES WANT CHANGE INC", "city": "BROOKLYN", "state": "NY", "zip": "11249-8651", "ntee": "T12", "ruling": "202104", "deductibility": "1", "assets": 292103, "income": 234771, "revenue": 234771}, {"ein": "861217720", "name": "THEY ALL WANT TO LIVE INC", "city": "NEW YORK", "state": "NY", "zip": "10026-2793", "ntee": "D20", "ruling": "202107", "deductibility": "1", "assets": 0, "income": 0, "revenue": 0}], "ADISHAKTI": [{"ein": "451138899", "name": "MAHA ADISHAKTI ASHRAM INC", "city": "BROOKLYN", "state": "NY", "zip": "11208-1424", "ntee": "X70", "ruling": "201105", "deductibility": "1", "assets": 0, "income": 0, "revenue": 0}], "SKIS": [{"ein": "454596482", "name": "SKIS OPEN HEART FOUNDATION", "city": "E PATCHOGUE", "state": "NY", "zip": "11772-4949", "ntee": "P12", "ruling": "201304", "deductibility": "1", "assets": 0, "income": 0, "revenue": 0}], "LESPMHA": [{"ein": "455567885", "name": "LESPMHA HOUSING DEVELOPMENT FUND CORPORATION", "city": "NEW YORK", "state": "NY", "zip": "10009-7584", "ntee": "L20", "ruling": "201409", "deductibility": "4", "assets": 24057198, "income": 2974739, "revenue": 2974739}], "SCARY": [{"ein": "455580558", "name": "SCARY LEG RUNNERS", "city": "SCHOHARIE", "state": "NY", "zip": "12157-5520", "ntee": "N99", "ruling": "201406", "deductibility": "1", "assets": 3537, "income": 12035, "revenue": 0}], "HOST": [{"ein": "460473636", "name": "CHEMICAL ENGINE AND HOST NO 2 INC", "city": "VALLEY STREAM", "state": "NY", "zip": "11582-0342", "ntee": "M24", "ruling": "201202", "deductibility": "1", "assets": 0, "income": 0, "revenue": 0}], "OVODAS": [{"ein": "463028714", "name": "CONGREGATION OVODAS HALEV", "city": "BROOKLYN", "state": "NY", "zip": "11218-5884", "ntee": "X30", "ruling": "201407", "deductibility": "1", "assets": 0, "income": 0, "revenue": 0}], "MALVETTI": [{"ein": "463049375", "name": "CHRISTOPHER J MALVETTI MEMORIAL FUND INC", "city": "PRT JEFFERSON", "state": "NY", "zip": "11777-0141", "ntee": "B82", "ruling": "201412", "deductibility": "1", "assets": 0, "income": 0, "revenue": 0}], "NANNEN": [{"ein": "464731072", "name": "NANNEN ARBORETUM SOCIETY", "city": "ELLICOTTVILLE", "state": "NY", "zip": "14731-1016", "ntee": "C41", "ruling": "201503", "deductibility": "1", "assets": 0, "income": 0, "revenue": 0}], "LIMNOS": [{"ein": "465117937", "name": "THANOS ASSOCIATION OF LIMNOS", "city": "BROOKLYN", "state": "NY", "zip": "11209-4002", "ntee": "", "ruling": "201412", "deductibility": "1", "assets": 22257, "income": 10604, "revenue": 0}], "CONNORS": [{"ein": "467151300", "name": "CONNORS FAMILY CHARITABLE TR", "city": "PITTSFORD", "state": "NY", "zip": "14534-9424", "ntee": "T20", "ruling": "201704", "deductibility": "1", "assets": 423828, "income": 10832, "revenue": 0}, {"ein": "844595156", "name": "CONNORS WAY INC", "city": "HINCKLEY", "state": "NY", "zip": "13352-0049", "ntee": "B82", "ruling": "202005", "deductibility": "1", "assets": 28741, "income": 59779, "revenue": 59779}], "LATET": [{"ein": "472069028", "name": "AMERICAN FRIENDS OF LATET HUMANITARIAN AID INC", "city": "WHITE PLAINS", "state": "NY", "zip": "10604-2910", "ntee": "Q33", "ruling": "201501", "deductibility": "1", "assets": 910248, "income": 3381101, "revenue": 3381101}, {"ein": "813197771", "name": "TOV LATET INC", "city": "BROOKLYN", "state": "NY", "zip": "11219-1030", "ntee": "P12", "ruling": "201611", "deductibility": "1", "assets": 27539, "income": 727395, "revenue": 0}], "FOSTERS": [{"ein": "473188605", "name": "FOSTERS COMMUNITY DEVELOPMENT CENTER INC", "city": "NORTH BALDWIN", "state": "NY", "zip": "11510-1616", "ntee": "P12", "ruling": "201510", "deductibility": "1", "assets": 25745, "income": 95284, "revenue": 95284}, {"ein": "844421632", "name": "FINNLANDS FOSTERS CORPORATION", "city": "SHERRILL", "state": "NY", "zip": "13461-1134", "ntee": "D11", "ruling": "202003", "deductibility": "1", "assets": 0, "income": 0, "revenue": 0}], "ARROWS": [{"ein": "473445136", "name": "ALLEGANY ARROWS MINOR LACROSSE ASSOCIATION", "city": "SALAMANCA", "state": "NY", "zip": "14779-0615", "ntee": "N60", "ruling": "202003", "deductibility": "1", "assets": 0, "income": 0, "revenue": 0}, {"ein": "821523693", "name": "BUNDLED ARROWS INC", "city": "NIAGARA FALLS", "state": "NY", "zip": "14303-2158", "ntee": "A23", "ruling": "201802", "deductibility": "1", "assets": 159292, "income": 403615, "revenue": 403615}], "REFEREE": [{"ein": "474354454", "name": "EASTERN NEW YORK SOCCER REFEREE ASSOCIATION INC ENYSRA", "city": "FLUSHING", "state": "NY", "zip": "11358-3826", "ntee": "P12", "ruling": "201602", "deductibility": "1", "assets": 682202, "income": 323666, "revenue": 323666}], "KANFEI": [{"ein": "474689769", "name": "KANFEI CHAYIM", "city": "MONROE", "state": "NY", "zip": "10950-7108", "ntee": "X99", "ruling": "201512", "deductibility": "1", "assets": 0, "income": 0, "revenue": 0}, {"ein": "813368636", "name": "KANFEI YONEH FOUNDATION", "city": "BROOKLYN", "state": "NY", "zip": "11211-8144", "ntee": "T20", "ruling": "201611", "deductibility": "1", "assets": 275590, "income": 150000, "revenue": 0}, {"ein": "821853361", "name": "AL KANFEI NISHARIM INC", "city": "LAWRENCE", "state": "NY", "zip": "11559-1271", "ntee": "P20", "ruling": "202011", "deductibility": "1", "assets": 127465, "income": 798762, "revenue": 798762}, {"ein": "873969917", "name": "AL KANFEI NISHARIM INC", "city": "CEDARHURST", "state": "NY", "zip": "11516-2158", "ntee": "T12", "ruling": "202204", "deductibility": "1", "assets": 1, "income": 195360, "revenue": 195360}, {"ein": "990462174", "name": "KUPAS KANFEI YONAH INC", "city": "BROOKLYN", "state": "NY", "zip": "11204-2182", "ntee": "P30", "ruling": "202401", "deductibility": "1", "assets": 0, "income": 0, "revenue": 0}], "SAIPAF": [{"ein": "474992210", "name": "SAIPAF INC", "city": "NEW YORK", "state": "NY", "zip": "10013-2993", "ntee": "A60", "ruling": "201512", "deductibility": "1", "assets": 0, "income": 0, "revenue": 0}], "PROJECTIVITY": [{"ein": "475358971", "name": "PROJECTIVITY GROUP INC", "city": "STATEN ISLAND", "state": "NY", "zip": "10310-1811", "ntee": "O99", "ruling": "201511", "deductibility": "1", "assets": 95887, "income": 440425, "revenue": 440425}], "MAGESE": [{"ein": "477057763", "name": "MILLEN MAGESE FOUNDATION", "city": "NEW YORK", "state": "NY", "zip": "10011-1291", "ntee": "T20", "ruling": "201508", "deductibility": "1", "assets": 1, "income": 1, "revenue": 0}], "SW": [{"ein": "550504522", "name": "SW CHARITABLE FOUNDATION INC", "city": "NEW YORK", "state": "NY", "zip": "10025-5204", "ntee": "T22", "ruling": "200306", "deductibility": "1", "assets": 1, "income": 1, "revenue": 0}, {"ein": "871019661", "name": "SW FOOD PROGRAM INC", "city": "ROCHESTER", "state": "NY", "zip": "14607-2943", "ntee": "K31", "ruling": "202201", "deductibility": "1", "assets": 42182, "income": 226970, "revenue": 226397}], "FL": [{"ein": "562325850", "name": "BROOKLYN QUEENS LONG ISLAND AHEC WEST ONE PIERREPONT PLAZA 12TH FL", "city": "CANTON", "state": "NY", "zip": "13617-1279", "ntee": "E21", "ruling": "200309", "deductibility": "1", "assets": 132927, "income": 257142, "revenue": 257142}, {"ein": "901018160", "name": "ANCIENT ORDER OF HIBERNIANS LADIES FL HERNANDO DIVISION 1", "city": "BROOKLYN", "state": "NY", "zip": "11229-4111", "ntee": "Y42", "ruling": "201612", "deductibility": "1", "assets": 0, "income": 0, "revenue": 0}], "PAWNBROKERS": [{"ein": "650002221", "name": "NATIONAL PAWNBROKERS ASSOCIATION", "city": "VICTOR", "state": "NY", "zip": "14564-0420", "ntee": "", "ruling": "198908", "deductibility": "2", "assets": 3601215, "income": 1865652, "revenue": 1865652}], "FREAR": [{"ein": "810601656", "name": "FREAR PARK CONSERVANCY INC", "city": "TROY", "state": "NY", "zip": "12180-8964", "ntee": "N32", "ruling": "200304", "deductibility": "1", "assets": 0, "income": 0, "revenue": 0}], "TAGLICH": [{"ein": "810696789", "name": "ROBERT TAGLICH FAMILY FOUNDATION INC", "city": "COLD SPG HBR", "state": "NY", "zip": "11724-1825", "ntee": "T20", "ruling": "201604", "deductibility": "1", "assets": 68973, "income": 22332, "revenue": 0}], "FOSSE": [{"ein": "810779686", "name": "ACFN- COMMUNITY ASSOCIATION OF FOSSE NABOTTE", "city": "N MASSAPEQUA", "state": "NY", "zip": "11758-6944", "ntee": "Q99", "ruling": "201603", "deductibility": "1", "assets": 0, "income": 0, "revenue": 0}], "DGI": [{"ein": "811920964", "name": "DGI PAWS INCORPORATED", "city": "MANLIUS", "state": "NY", "zip": "13104-1628", "ntee": "D60", "ruling": "201604", "deductibility": "1", "assets": 0, "income": 0, "revenue": 0}], "LIVENF": [{"ein": "815201165", "name": "LIVENF INC", "city": "NIAGARA FALLS", "state": "NY", "zip": "14305-1821", "ntee": "S20", "ruling": "201806", "deductibility": "1", "assets": 0, "income": 0, "revenue": 0}], "OK": [{"ein": "815219469", "name": "KIDS R OK INC", "city": "REGO PARK", "state": "NY", "zip": "11374-3650", "ntee": "O20", "ruling": "201702", "deductibility": "1", "assets": 0, "income": 0, "revenue": 0}, {"ein": "874236163", "name": "ITS OK TO CRY INCORPORATED", "city": "BROOKLYN", "state": "NY", "zip": "11206-3643", "ntee": "F60", "ruling": "202207", "deductibility": "1", "assets": 0, "income": 0, "revenue": 0}, {"ein": "923082804", "name": "YOULL BE OK TOO", "city": "BETHPAGE", "state": "NY", "zip": "11714-4103", "ntee": "S19", "ruling": "202303", "deductibility": "1", "assets": 0, "income": 0, "revenue": 0}], "DAYANUT": [{"ein": "821888676", "name": "SEPHARDIC COMMUNITY DAYANUT PROGRAM INC", "city": "BROOKLYN", "state": "NY", "zip": "11230-3502", "ntee": "X30", "ruling": "201803", "deductibility": "1", "assets": 149420, "income": 447374, "revenue": 447374}], "TOWBOAT": [{"ein": "824486640", "name": "TOWBOAT AND HARBOR CARRIERS ASSOCIATION OF NY NJ", "city": "STATEN ISLAND", "state": "NY", "zip": "10301-0986", "ntee": "S41", "ruling": "202206", "deductibility": "2", "assets": 64995, "income": 63350, "revenue": 63350}], "CHENGCHENG": [{"ein": "825306184", "name": "USA CHENGCHENG LIFE SCIENCE TECHNOLOGY INSTITUTE INC", "city": "FAYETTEVILLE", "state": "NY", "zip": "13066-8700", "ntee": "G11", "ruling": "201903", "deductibility": "1", "assets": 0, "income": 0, "revenue": 0}], "SANDCASTLE": [{"ein": "825423420", "name": "SANDCASTLE NEW MUSIC COLLECTIVE INC", "city": "NEW YORK", "state": "NY", "zip": "10128-7870", "ntee": "A60", "ruling": "201810", "deductibility": "1", "assets": 0, "income": 0, "revenue": 0}], "OBA": [{"ein": "830447616", "name": "OBA IROKO CHURCH OF GOD INC", "city": "BROOKLYN", "state": "NY", "zip": "11215-8144", "ntee": "X21", "ruling": "200609", "deductibility": "1", "assets": 0, "income": 0, "revenue": 0}], "TZOHAR": [{"ein": "831291255", "name": "TZOHAR HALEV INC", "city": "BROOKLYN", "state": "NY", "zip": "11204-1507", "ntee": "B12", "ruling": "201907", "deductibility": "1", "assets": 66661, "income": 548196, "revenue": 548196}, {"ein": "882429876", "name": "TZOHAR ISRAEL FOUNDATION", "city": "WOODMERE", "state": "NY", "zip": "11598-2645", "ntee": "X30", "ruling": "202212", "deductibility": "1", "assets": 222358, "income": 3579397, "revenue": 3579397}], "HOIF": [{"ein": "833384908", "name": "CONGREGATION SKVIRA HOIF BEIS DUVID", "city": "SPRING VALLEY", "state": "NY", "zip": "10977-8969", "ntee": "X30", "ruling": "201908", "deductibility": "1", "assets": 0, "income": 0, "revenue": 0}], "ZOS": [{"ein": "844082590", "name": "ZOS LEYEHUDA CHARITABLE FOUNDATION", "city": "MONSEY", "state": "NY", "zip": "10952-1616", "ntee": "T50", "ruling": "202001", "deductibility": "1", "assets": 516763, "income": 599938, "revenue": 0}], "FRISSON": [{"ein": "844189434", "name": "FRISSON FILMS INC", "city": "WOODSIDE", "state": "NY", "zip": "11377-4538", "ntee": "", "ruling": "202009", "deductibility": "1", "assets": 0, "income": 0, "revenue": 0}], "LCM": [{"ein": "846452261", "name": "LCM FOUNDATION", "city": "BROOKLYN", "state": "NY", "zip": "11219-4119", "ntee": "T22", "ruling": "202006", "deductibility": "1", "assets": 642038, "income": 26344, "revenue": 0}, {"ein": "882369599", "name": "ALIGN ME GOD LCM", "city": "MASTIC BEACH", "state": "NY", "zip": "11951-3417", "ntee": "P99", "ruling": "202301", "deductibility": "1", "assets": 0, "income": 0, "revenue": 0}], "SAIL250": [{"ein": "850777734", "name": "SAIL250 NEW YORK INC", "city": "NEW YORK", "state": "NY", "zip": "10028-7541", "ntee": "A27", "ruling": "202110", "deductibility": "1", "assets": 2631, "income": 8350, "revenue": 8350}], "CLIFFHANGERS": [{"ein": "852159976", "name": "PARA-CLIFFHANGERS INC", "city": "BROOKLYN", "state": "NY", "zip": "11249-3935", "ntee": "N99", "ruling": "202009", "deductibility": "1", "assets": 103461, "income": 114462, "revenue": 113969}], "OJEYEMI": [{"ein": "853005626", "name": "TOSIN OJEYEMI FOUNDATION", "city": "CENTRAL ISLIP", "state": "NY", "zip": "11722-3546", "ntee": "F03", "ruling": "202011", "deductibility": "1", "assets": 0, "income": 0, "revenue": 0}], "ELSEE": [{"ein": "853281541", "name": "ELSEE S SEARCH & RESCUE FOUNDATION", "city": "NAPLES", "state": "NY", "zip": "14512-9102", "ntee": "D20", "ruling": "202102", "deductibility": "1", "assets": 0, "income": 0, "revenue": 0}], "INTERGOVERNMENTAL": [{"ein": "862189436", "name": "SPECIALIZED CONSULTATIVE UNION FOR INTERGOVERNMENTAL ORGANIZATIONS IN", "city": "NEW YORK", "state": "NY", "zip": "10017-3558", "ntee": "C05", "ruling": "202107", "deductibility": "1", "assets": 0, "income": 0, "revenue": 0}], "SGMC": [{"ein": "862886099", "name": "SGMC NATIONAL INC", "city": "BOHEMIA", "state": "NY", "zip": "11716-1917", "ntee": "T12", "ruling": "202304", "deductibility": "1", "assets": 0, "income": 0, "revenue": 0}], "WAGON": [{"ein": "871687242", "name": "SUSIE S WAGON INC", "city": "NEW YORK", "state": "NY", "zip": "10018-4017", "ntee": "B80", "ruling": "202401", "deductibility": "1", "assets": 0, "income": 0, "revenue": 0}, {"ein": "991615501", "name": "WAGON TRAIN WARRIORS INC", "city": "WINDSOR", "state": "NY", "zip": "13865-1034", "ntee": "P99", "ruling": "202403", "deductibility": "1", "assets": 0, "income": 0, "revenue": 0}, {"ein": "993350043", "name": "DRAGON WAGON BOOKS INC", "city": "EAST HAMPTON", "state": "NY", "zip": "11937-1712", "ntee": "P30", "ruling": "202505", "deductibility": "1", "assets": 0, "income": 0, "revenue": 0}], "HIGHLINE": [{"ein": "871731545", "name": "HUDSON VALLEY HIGHLINE INC", "city": "POUGHKEEPSIE", "state": "NY", "zip": "12601-1849", "ntee": "W99", "ruling": "202203", "deductibility": "1", "assets": 0, "income": 0, "revenue": 0}], "NUTTALL": [{"ein": "872808116", "name": "NUTTALL PHILANTHROPIES INC", "city": "ALBANY", "state": "NY", "zip": "12212-5201", "ntee": "T22", "ruling": "202303", "deductibility": "1", "assets": 57591935, "income": 2329066, "revenue": 0}], "GERANDO": [{"ein": "880617971", "name": "GERANDO FALCOES INTERNATIONAL INC", "city": "NEW YORK", "state": "NY", "zip": "10036-4277", "ntee": "Q11", "ruling": "202305", "deductibility": "1", "assets": 501017, "income": 673152, "revenue": 531405}], "WESTHOFF": [{"ein": "882993661", "name": "GREG WESTHOFF FOUNDATION INC", "city": "WANTAGH", "state": "NY", "zip": "11793-0209", "ntee": "W12", "ruling": "202208", "deductibility": "1", "assets": 0, "income": 0, "revenue": 0}], "CRIMINALLY": [{"ein": "883173042", "name": "ADVOCATES FOR THE CRIMINALLY ACCUSED INC", "city": "SALT POINT", "state": "NY", "zip": "12578-2110", "ntee": "I01", "ruling": "202211", "deductibility": "1", "assets": 0, "income": 0, "revenue": 0}], "ROCKIES": [{"ein": "883851330", "name": "ROCKLAND ROCKIES HOCKEY INC", "city": "NEW CITY", "state": "NY", "zip": "10956-0000", "ntee": "N12", "ruling": "202210", "deductibility": "1", "assets": 0, "income": 0, "revenue": 0}], "LIFECYCLE": [{"ein": "884158118", "name": "LIFECYCLE ECO-FARMING INTERNATIONAL INC", "city": "KERHONKSON", "state": "NY", "zip": "12446-1518", "ntee": "K20", "ruling": "202305", "deductibility": "1", "assets": 0, "income": 0, "revenue": 0}], "RAGOZIN": [{"ein": "901036809", "name": "LEN RAGOZIN FOUNDATION INC", "city": "BROOKLYN", "state": "NY", "zip": "11201-0000", "ntee": "Z99", "ruling": "201407", "deductibility": "1", "assets": 1376920, "income": 316461, "revenue": 316461}], "ARAT": [{"ein": "921567942", "name": "ARAT LARO FOUNDATION", "city": "MAMARONECK", "state": "NY", "zip": "10543-2836", "ntee": "O12", "ruling": "202306", "deductibility": "1", "assets": 0, "income": 0, "revenue": 0}], "SKATEBOARD": [{"ein": "923616599", "name": "NYC SKATEBOARD COALITION INC", "city": "NEW YORK", "state": "NY", "zip": "10027-3722", "ntee": "N99", "ruling": "202308", "deductibility": "1", "assets": 0, "income": 0, "revenue": 0}], "NAVARETTA": [{"ein": "923921808", "name": "SABRINA NAVARETTA MEMORIAL FOUNDATION INC", "city": "SYOSSET", "state": "NY", "zip": "11791-2627", "ntee": "P12", "ruling": "202305", "deductibility": "1", "assets": 102784, "income": 110421, "revenue": 110421}], "HASEFORIM": [{"ein": "932048835", "name": "MERKAZ HASEFORIM INC", "city": "BROOKLYN", "state": "NY", "zip": "11234-3433", "ntee": "X30", "ruling": "202307", "deductibility": "1", "assets": 0, "income": 0, "revenue": 0}], "FALTISHAN": [{"ein": "932947634", "name": "BEIS FALTISHAN INC", "city": "BROOKLYN", "state": "NY", "zip": "11219-3202", "ntee": "X30", "ruling": "202403", "deductibility": "1", "assets": 0, "income": 0, "revenue": 0}], "CHABURAH": [{"ein": "934368336", "name": "CONGREGATION WEST HEMPSTEAD CHABURAH INC", "city": "W HEMPSTEAD", "state": "NY", "zip": "11552-3133", "ntee": "X30", "ruling": "202405", "deductibility": "1", "assets": 0, "income": 0, "revenue": 0}, {"ein": "995055727", "name": "CHABURAH INC", "city": "NEW YORK", "state": "NY", "zip": "10010-3638", "ntee": "X30", "ruling": "202410", "deductibility": "1", "assets": 0, "income": 0, "revenue": 0}], "JUHARTANC": [{"ein": "990831490", "name": "JUHARTANC DANCEWORKS INC", "city": "BROCKPORT", "state": "NY", "zip": "14420-2005", "ntee": "A62", "ruling": "202409", "deductibility": "1", "assets": 0, "income": 0, "revenue": 0}], "IUV": [{"ein": "991640855", "name": "IUV PHASE 1A HOUSING DEVELOPMENT FUND CORPORATION", "city": "BROOKLYN", "state": "NY", "zip": "11207-8203", "ntee": "L80", "ruling": "202409", "deductibility": "2", "assets": 0, "income": 0, "revenue": 0}, {"ein": "994997998", "name": "IUV PHASE 1B HOUSING DEVELOPMENT FUND CORPORATION", "city": "BROOKLYN", "state": "NY", "zip": "11207-8203", "ntee": "S99", "ruling": "202505", "deductibility": "2", "assets": 0, "income": 0, "revenue": 0}], "STEAMGEN": [{"ein": "992816033", "name": "STEAMGEN INC", "city": "HORSEHEADS", "state": "NY", "zip": "14845-1383", "ntee": "O99", "ruling": "202411", "deductibility": "1", "assets": 0, "income": 0, "revenue": 0}], "SHINOVA": [{"ein": "992954075", "name": "CONGREGATION MECHON IMREI MENACHEM SHINOVA", "city": "MONSEY", "state": "NY", "zip": "10952-3356", "ntee": "X30", "ruling": "202411", "deductibility": "1", "assets": 0, "income": 0, "revenue": 0}], "BLOSSOMS": [{"ein": "994343404", "name": "ARCHIES LOVE BLOSSOMS CAT RESCUE LTD", "city": "BROOKLYN", "state": "NY", "zip": "11215-3708", "ntee": "D20", "ruling": "202501", "deductibility": "1", "assets": 0, "income": 0, "revenue": 0}], "EDOHEART": [{"ein": "994865914", "name": "EDOHEART INC", "city": "BROOKLYN", "state": "NY", "zip": "11225-5032", "ntee": "A20", "ruling": "202410", "deductibility": "1", "assets": 0, "income": 0, "revenue": 0}], "ECSTATIC": [{"ein": "995059082", "name": "ECSTATIC DANCE NYACK", "city": "NYACK", "state": "NY", "zip": "10960-4657", "ntee": "X99", "ruling": "202412", "deductibility": "1", "assets": 0, "income": 0, "revenue": 0}]}