{"COVE": [{"ein": "010553426", "name": "INTERAGENCY COUNCIL GLEN COVE LTD", "city": "GLEN COVE", "state": "NY", "zip": "11542-0532", "ntee": "P99", "ruling": "200305", "deductibility": "1", "assets": 0, "income": 0, "revenue": 0}, {"ein": "111195690", "name": "POLISH NATIONAL HOME OF GLEN COVE & VICINITY INC", "city": "GLEN COVE", "state": "NY", "zip": "11542-2953", "ntee": "", "ruling": "193808", "deductibility": "2", "assets": 579023, "income": 194968, "revenue": 181758}, {"ein": "111633487", "name": "GLEN COVE HOSPITAL", "city": "WESTBURY", "state": "NY", "zip": "11590-1740", "ntee": "E20", "ruling": "195604", "deductibility": "1", "assets": 163529627, "income": 275108412, "revenue": 239768993}, {"ein": "111633510", "name": "GLEN COVE NEIGHBORHOOD ASSOCIATION INC", "city": "LOCUST VALLEY", "state": "NY", "zip": "11560-2123", "ntee": "", "ruling": "194707", "deductibility": "1", "assets": 322166, "income": 92786, "revenue": 92786}, {"ein": "111673938", "name": "GLEN COVE BOYS AND GIRLS CLUB AT LINCOLN HOUSE INC", "city": "GLEN COVE", "state": "NY", "zip": "11542-3438", "ntee": "O23Z", "ruling": "195302", "deductibility": "1", "assets": 7053438, "income": 1642572, "revenue": 1470329}, {"ein": "111769696", "name": "OLD COVE YACHT CLUB INC", "city": "NEW SUFFOLK", "state": "NY", "zip": "11956-0673", "ntee": "", "ruling": "195611", "deductibility": "2", "assets": 210251, "income": 199253, "revenue": 189227}, {"ein": "112015841", "name": "WHALERS COVE YACHT CLUB INC", "city": "COLD SPG HBR", "state": "NY", "zip": "11724-0293", "ntee": "N99", "ruling": "201408", "deductibility": "2", "assets": 770849, "income": 585613, "revenue": 585613}, {"ein": "112320074", "name": "GLEN COVE CHAMBER OF COMMERCE", "city": "GLEN COVE", "state": "NY", "zip": "11542-2651", "ntee": "", "ruling": "197611", "deductibility": "2", "assets": 54660, "income": 146903, "revenue": 65761}, {"ein": "112546430", "name": "GLEN COVE STRIKERS INC", "city": "GLEN COVE", "state": "NY", "zip": "11542-2549", "ntee": "", "ruling": "198201", "deductibility": "1", "assets": 58697, "income": 193035, "revenue": 193035}, {"ein": "112595472", "name": "GLEN COVE CHRISTIAN CHURCH", "city": "GLEN COVE", "state": "NY", "zip": "11542-2616", "ntee": "", "ruling": "199202", "deductibility": "1", "assets": 0, "income": 0, "revenue": 0}, {"ein": "112827267", "name": "GLEN COVE V E M S ASSOCIATION INC", "city": "GLEN COVE", "state": "NY", "zip": "11542-0391", "ntee": "", "ruling": "198804", "deductibility": "1", "assets": 83663, "income": 35335, "revenue": 23391}, {"ein": "112959103", "name": "GLEN COVE DAY CARE BUILDING FUND CORPORATION", "city": "GLEN COVE", "state": "NY", "zip": "11542-0191", "ntee": "B22I", "ruling": "199008", "deductibility": "1", "assets": 487237, "income": 36000, "revenue": 36000}, {"ein": "113027504", "name": "FIRST BAPTIST CHURCH OF GLEN COVE", "city": "GLEN COVE", "state": "NY", "zip": "11542-2963", "ntee": "", "ruling": "199101", "deductibility": "1", "assets": 0, "income": 0, "revenue": 0}, {"ein": "113357637", "name": "GLEN COVE DOWNTOWN DISTRICT MGMT ASSN INC", "city": "GLEN COVE", "state": "NY", "zip": "11542-5006", "ntee": "S21Z", "ruling": "199802", "deductibility": "1", "assets": 100831, "income": 187258, "revenue": 187258}, {"ein": "113358875", "name": "GLEN COVE C A R E S", "city": "JERICHO", "state": "NY", "zip": "11753-1318", "ntee": "G30", "ruling": "200202", "deductibility": "1", "assets": 173129, "income": 38552, "revenue": 16301}, {"ein": "113376125", "name": "VOLUNTEER & EXEMPT FIREMENS BENE ASSOC OF THE CITY OF GLEN COVE INC", "city": "GLEN COVE", "state": "NY", "zip": "11542-1633", "ntee": "", "ruling": "199710", "deductibility": "2", "assets": 3626297, "income": 485243, "revenue": 270243}, {"ein": "113556790", "name": "CHABAD OF GLEN COVE", "city": "GLEN HEAD", "state": "NY", "zip": "11545-2619", "ntee": "X30", "ruling": "200307", "deductibility": "1", "assets": 0, "income": 0, "revenue": 0}, {"ein": "113582255", "name": "STUYVESANT COVE PARK ASSOCIATION INC", "city": "NEW YORK", "state": "NY", "zip": "10022-3045", "ntee": "N32", "ruling": "200112", "deductibility": "1", "assets": 0, "income": 0, "revenue": 0}, {"ein": "113615834", "name": "GLEN COVE EDUCATION FOUNDATION INC", "city": "GLEN COVE", "state": "NY", "zip": "11542-1527", "ntee": "B12", "ruling": "202409", "deductibility": "1", "assets": 0, "income": 0, "revenue": 0}, {"ein": "116015133", "name": "BAYBERRY COVE ASSOC INC", "city": "SETAUKET", "state": "NY", "zip": "11733-3212", "ntee": "", "ruling": "196212", "deductibility": "2", "assets": 0, "income": 0, "revenue": 0}, {"ein": "116037976", "name": "ROTARY CLUB OF GLEN COVE", "city": "GLEN COVE", "state": "NY", "zip": "11542-0469", "ntee": "", "ruling": "202302", "deductibility": "2", "assets": 0, "income": 0, "revenue": 0}, {"ein": "116046932", "name": "GLEN COVE CHILD DAY CARE CENTER INC", "city": "GLEN COVE", "state": "NY", "zip": "11542-0191", "ntee": "", "ruling": "196607", "deductibility": "1", "assets": 924986, "income": 2698740, "revenue": 2698740}, {"ein": "116081875", "name": "CHRISTIAN CHURCH OF GLEN COVE", "city": "GLEN COVE", "state": "NY", "zip": "11542-3911", "ntee": "", "ruling": "196712", "deductibility": "1", "assets": 0, "income": 0, "revenue": 0}, {"ein": "133017060", "name": "PILOT COVE MANOR HOUSING DEVELOPMENT COMPANY INC", "city": "BRONX", "state": "NY", "zip": "10464-1645", "ntee": "L22Z", "ruling": "198104", "deductibility": "1", "assets": 3074496, "income": 2051289, "revenue": 2051289}, {"ein": "202445078", "name": "MUSIC PERFORMING ART PARENTS ASSOCIATION OF GLEN COVE INC", "city": "GLEN COVE", "state": "NY", "zip": "11542-0000", "ntee": "A68", "ruling": "201110", "deductibility": "1", "assets": 0, "income": 0, "revenue": 0}, {"ein": "203545252", "name": "GLEN COVE SAGE FOUNDATION", "city": "GLEN COVE", "state": "NY", "zip": "11542-3363", "ntee": "B82", "ruling": "200512", "deductibility": "1", "assets": 222484, "income": 111816, "revenue": 110866}, {"ein": "203651001", "name": "FRIENDS OF THE GLEN COVE YOUTH BOARD", "city": "GLEN COVE", "state": "NY", "zip": "11542-2737", "ntee": "P123", "ruling": "200812", "deductibility": "1", "assets": 124040, "income": 209378, "revenue": 209378}, {"ein": "237010468", "name": "NORTH SHORE UNIVERSITY HOSPITAL AT GLEN COVE HOUSING INC", "city": "WESTBURY", "state": "NY", "zip": "11590-1740", "ntee": "", "ruling": "196902", "deductibility": "2", "assets": 293978, "income": 374569, "revenue": 374569}, {"ein": "237032658", "name": "GLEN COVE CITY PATROLMENS BENEVOLENT ASSOCIATION INC", "city": "GLEN COVE", "state": "NY", "zip": "11542-0285", "ntee": "", "ruling": "197006", "deductibility": "2", "assets": 0, "income": 0, "revenue": 0}, {"ein": "237221788", "name": "GLEN COVE PUBLIC LIBRARY", "city": "GLEN COVE", "state": "NY", "zip": "11542-2840", "ntee": "", "ruling": "197207", "deductibility": "1", "assets": 0, "income": 0, "revenue": 0}, {"ein": "237326389", "name": "FRIENDS OF THE GLEN COVE PUBLIC LIBRARY INC", "city": "GLEN COVE", "state": "NY", "zip": "11542-1802", "ntee": "B12", "ruling": "202408", "deductibility": "1", "assets": 0, "income": 0, "revenue": 0}, {"ein": "263493729", "name": "OLD COVE YOUTH SAILING FOUNDATION INC", "city": "NEW SUFFOLK", "state": "NY", "zip": "11956-2101", "ntee": "N67", "ruling": "200902", "deductibility": "1", "assets": 0, "income": 0, "revenue": 0}, {"ein": "273143599", "name": "SIDNEY CANARICK FOUNDATION FOR GLEN COVE LTD", "city": "GLEN COVE", "state": "NY", "zip": "11542-1933", "ntee": "B11", "ruling": "201012", "deductibility": "1", "assets": 0, "income": 0, "revenue": 0}, {"ein": "274947719", "name": "GLEN COVE MENS GOLF CLUB INC", "city": "GLEN COVE", "state": "NY", "zip": "11542-4033", "ntee": "N60", "ruling": "201202", "deductibility": "2", "assets": 0, "income": 0, "revenue": 0}, {"ein": "300281251", "name": "GLEN COVE JUNIOR FOOTBALL & CHEERLEADING INC", "city": "GLEN COVE", "state": "NY", "zip": "11542-1533", "ntee": "N65", "ruling": "202306", "deductibility": "1", "assets": 0, "income": 0, "revenue": 0}, {"ein": "320331297", "name": "GLEN COVE CLUB INC", "city": "GLEN COVE", "state": "NY", "zip": "11542-2107", "ntee": "N50", "ruling": "201305", "deductibility": "2", "assets": 0, "income": 0, "revenue": 0}, {"ein": "320335599", "name": "WOMANS CLUB OF GLEN COVE", "city": "BAYVILLE", "state": "NY", "zip": "11709-2116", "ntee": "T11", "ruling": "202405", "deductibility": "1", "assets": 0, "income": 0, "revenue": 0}, {"ein": "412217896", "name": "LONG COVE FOUNDATION INC", "city": "PITTSFORD", "state": "NY", "zip": "14534-1334", "ntee": "T22", "ruling": "200612", "deductibility": "1", "assets": 7060756, "income": 1135266, "revenue": 0}, {"ein": "452574228", "name": "HALLETS COVE URBAN HOUSING DEVELOPMENT FUND CORPORATION", "city": "NEW YORK", "state": "NY", "zip": "10018-3055", "ntee": "L21", "ruling": "201302", "deductibility": "1", "assets": 7886559, "income": 912678, "revenue": 912678}, {"ein": "461476586", "name": "GLEN COVE 9 HOLE GOLF", "city": "GLEN COVE", "state": "NY", "zip": "11542-1200", "ntee": "N6A", "ruling": "201405", "deductibility": "2", "assets": 0, "income": 0, "revenue": 0}, {"ein": "462403577", "name": "GLEN COVE PRIDE FOUNDATION INC", "city": "GLEN COVE", "state": "NY", "zip": "11542-2798", "ntee": "P99", "ruling": "201406", "deductibility": "1", "assets": 0, "income": 0, "revenue": 0}, {"ein": "472487205", "name": "COVE ANIMAL RESCUE CORPORATION", "city": "GLEN COVE", "state": "NY", "zip": "11542-3432", "ntee": "D20", "ruling": "201501", "deductibility": "1", "assets": 155444, "income": 517958, "revenue": 478797}, {"ein": "472620532", "name": "CRABAPPLE COVE FOUNDATION", "city": "BROOKLYN", "state": "NY", "zip": "11231-3703", "ntee": "T22", "ruling": "201505", "deductibility": "1", "assets": 798036, "income": 44909, "revenue": 0}, {"ein": "510192496", "name": "COMMUNITY SCHOLARSHIP FUND OF GLEN COVE INC", "city": "GLEN COVE", "state": "NY", "zip": "11542-0691", "ntee": "B820", "ruling": "195706", "deductibility": "1", "assets": 1939145, "income": 301563, "revenue": 142087}, {"ein": "521949584", "name": "C-HP COVE INC", "city": "NEW YORK", "state": "NY", "zip": "10168-0002", "ntee": "L200", "ruling": "199604", "deductibility": "1", "assets": 7423973, "income": 5923256, "revenue": 5923256}, {"ein": "522438294", "name": "UDALLS COVE PRESERVATION COMMITTEE INC", "city": "LITTLE NECK", "state": "NY", "zip": "11363-1743", "ntee": "C32", "ruling": "200409", "deductibility": "1", "assets": 200515, "income": 94217, "revenue": 94217}, {"ein": "522440116", "name": "CEC STUYVESANT COVE INC", "city": "LONG ISLAND CITY", "state": "NY", "zip": "11101-7020", "ntee": "C30", "ruling": "200406", "deductibility": "1", "assets": 7829756, "income": 5663502, "revenue": 5626684}, {"ein": "811031738", "name": "LOGGIA GLEN COVE FOUNDATION CORP", "city": "GLEN COVE", "state": "NY", "zip": "11542-0347", "ntee": "Y40", "ruling": "201603", "deductibility": "2", "assets": 18158, "income": 13530, "revenue": 13530}, {"ein": "832028554", "name": "GLEN COVE PARADE COMMITTEE", "city": "BAYVILLE", "state": "NY", "zip": "11709-1902", "ntee": "N52", "ruling": "201903", "deductibility": "1", "assets": 0, "income": 0, "revenue": 0}, {"ein": "833128757", "name": "OYSTER BAY COVE POLICEMENS BENEVOLENT ASSOCIATION INC", "city": "EAST NORWICH", "state": "NY", "zip": "11732-0283", "ntee": "I03", "ruling": "202005", "deductibility": "2", "assets": 153797, "income": 71817, "revenue": 71817}, {"ein": "852665719", "name": "GLEN COVE WOMENS GOLF CLUB INC", "city": "GLEN COVE", "state": "NY", "zip": "11542-1024", "ntee": "N50", "ruling": "202104", "deductibility": "2", "assets": 0, "income": 0, "revenue": 0}, {"ein": "861760158", "name": "GLEN COVE BASEBALL & SOFTBALL ASSOCIATION INC", "city": "GLEN COVE", "state": "NY", "zip": "11542-1632", "ntee": "N63", "ruling": "202105", "deductibility": "1", "assets": 8269, "income": 76607, "revenue": 76607}, {"ein": "872454513", "name": "GLEN COVE FACULTY MEDICAL AFFILIATES UNIVERSITY FACULTY PRAC", "city": "WESTBURY", "state": "NY", "zip": "11590-1740", "ntee": "E30", "ruling": "202209", "deductibility": "1", "assets": 1, "income": 0, "revenue": 0}, {"ein": "934438890", "name": "GLEN COVE FIRE ASSOCIATION INC", "city": "GLEN COVE", "state": "NY", "zip": "11542-0000", "ntee": "M24", "ruling": "202505", "deductibility": "1", "assets": 0, "income": 0, "revenue": 0}, {"ein": "934532151", "name": "LEVEL UP GLEN COVE CARES", "city": "GLEN COVE", "state": "NY", "zip": "11542-3551", "ntee": "P20", "ruling": "202312", "deductibility": "1", "assets": 2578, "income": 4187, "revenue": 4187}, {"ein": "934637406", "name": "SEATUCK COVE HUMANITARIAN FOUNDATION LTD", "city": "ALBANY", "state": "NY", "zip": "12207-2834", "ntee": "P12", "ruling": "202401", "deductibility": "1", "assets": 0, "income": 0, "revenue": 0}, {"ein": "991854020", "name": "OSDIA GLEN COVE 1016 FOUNDATION INC", "city": "GLEN COVE", "state": "NY", "zip": "11542-0347", "ntee": "T12", "ruling": "202404", "deductibility": "1", "assets": 0, "income": 0, "revenue": 0}], "AUBURN": [{"ein": "010863403", "name": "AUBURN ROTARY COMMUNITY FOUNDATION", "city": "AUBURN", "state": "NY", "zip": "13021-0446", "ntee": "T31", "ruling": "201603", "deductibility": "1", "assets": 0, "income": 0, "revenue": 0}, {"ein": "150532053", "name": "AUBURN THEOLOGICAL SEMINARY", "city": "NEW YORK", "state": "NY", "zip": "10115-0121", "ntee": "B50", "ruling": "197106", "deductibility": "1", "assets": 19412136, "income": 8619820, "revenue": 2933949}, {"ein": "150532054", "name": "AUBURN COMMUNITY HOSPITAL", "city": "AUBURN", "state": "NY", "zip": "13021-1983", "ntee": "E220", "ruling": "194211", "deductibility": "1", "assets": 157870644, "income": 183058569, "revenue": 183058569}, {"ein": "150532091", "name": "FIRST PRESBYTERIAN CHURCH OF AUBURN", "city": "AUBURN", "state": "NY", "zip": "13021-4838", "ntee": "", "ruling": "000000", "deductibility": "1", "assets": 0, "income": 0, "revenue": 0}, {"ein": "150533540", "name": "BOOKER T WASHINGTON COMMUNITY CENTER OF AUBURN NEW YORK INC", "city": "AUBURN", "state": "NY", "zip": "13021-4722", "ntee": "", "ruling": "195110", "deductibility": "1", "assets": 1433826, "income": 1956781, "revenue": 1943488}, {"ein": "161063504", "name": "AUBURN PLAYERS COMMUNITY THEATRE INC", "city": "AUBURN", "state": "NY", "zip": "13021-0543", "ntee": "A650", "ruling": "199003", "deductibility": "1", "assets": 0, "income": 0, "revenue": 0}, {"ein": "161097236", "name": "AUBURN HOCKEY CLUB INC", "city": "AUBURN", "state": "NY", "zip": "13021-1052", "ntee": "N60", "ruling": "201511", "deductibility": "1", "assets": 141678, "income": 161795, "revenue": 152617}, {"ein": "161098678", "name": "ROOSEVELT MEMORIAL BAPTIST CHURCH OF AUBURN", "city": "AUBURN", "state": "NY", "zip": "13021-0000", "ntee": "", "ruling": "195504", "deductibility": "1", "assets": 0, "income": 0, "revenue": 0}, {"ein": "161123107", "name": "PFI HOUSING COMPANY OF AUBURN INC C", "city": "AUBURN", "state": "NY", "zip": "13021-4171", "ntee": "", "ruling": "197912", "deductibility": "1", "assets": 3818070, "income": 1434371, "revenue": 1434371}, {"ein": "161183093", "name": "UNITED CHURCH OF AUBURN", "city": "AUBURN", "state": "NY", "zip": "13021-4956", "ntee": "", "ruling": "195504", "deductibility": "1", "assets": 0, "income": 0, "revenue": 0}, {"ein": "161287806", "name": "AUBURN CHURCH OF THE NAZARENE", "city": "AUBURN", "state": "NY", "zip": "13021-8844", "ntee": "", "ruling": "196307", "deductibility": "1", "assets": 0, "income": 0, "revenue": 0}, {"ein": "161289763", "name": "AUBURN CHAMBER ORCHESTRA INC", "city": "AUBURN", "state": "NY", "zip": "13021-3503", "ntee": "", "ruling": "198803", "deductibility": "1", "assets": 0, "income": 0, "revenue": 0}, {"ein": "161363466", "name": "AUBURN HIGH SCHOOL MUSIC BOOSTERS", "city": "AUBURN", "state": "NY", "zip": "13021-1057", "ntee": "B11", "ruling": "201904", "deductibility": "1", "assets": 0, "income": 0, "revenue": 0}, {"ein": "161430024", "name": "AUBURN COMMUNITY COLLEGE-CAYUGA COMMUNITY COLLEGE ALUMNI ASSOC INC", "city": "AUBURN", "state": "NY", "zip": "13021-3011", "ntee": "", "ruling": "199307", "deductibility": "2", "assets": 0, "income": 0, "revenue": 0}, {"ein": "161446426", "name": "AUBURN DOWNTOWN PARTNERSHIP INC", "city": "AUBURN", "state": "NY", "zip": "13021-3929", "ntee": "S80Z", "ruling": "199410", "deductibility": "1", "assets": 292302, "income": 674841, "revenue": 671690}, {"ein": "161520625", "name": "AUBURN LACROSSE BOOSTERS INCORPORATED", "city": "AUBURN", "state": "NY", "zip": "13021-4941", "ntee": "N60", "ruling": "200202", "deductibility": "1", "assets": 29600, "income": 68030, "revenue": 55830}, {"ein": "161577619", "name": "AUBURN CINEFILE SOCIETY INC", "city": "AUBURN", "state": "NY", "zip": "13021-4868", "ntee": "A31", "ruling": "200007", "deductibility": "1", "assets": 0, "income": 0, "revenue": 0}, {"ein": "161589183", "name": "CALVARY CHAPEL OF AUBURN", "city": "AUBURN", "state": "NY", "zip": "13021-9500", "ntee": "X21", "ruling": "200102", "deductibility": "1", "assets": 0, "income": 0, "revenue": 0}, {"ein": "161599892", "name": "AUBURN COMMUNITY HOSPITAL FOUNDATION INC", "city": "AUBURN", "state": "NY", "zip": "13021-0918", "ntee": "E22", "ruling": "200105", "deductibility": "1", "assets": 5329909, "income": 1906817, "revenue": 1223483}, {"ein": "161600673", "name": "AUBURN KIWANIS CLUB FOUNDATION INC", "city": "AUBURN", "state": "NY", "zip": "13021-0791", "ntee": "P122", "ruling": "200204", "deductibility": "1", "assets": 0, "income": 0, "revenue": 0}, {"ein": "200172535", "name": "AUBURN EDUCATION FOUNDATION INC", "city": "AUBURN", "state": "NY", "zip": "13021-0592", "ntee": "B122", "ruling": "200402", "deductibility": "1", "assets": 1023475, "income": 476937, "revenue": 105927}, {"ein": "203577149", "name": "AUBURN PUBLIC THEATER INC", "city": "AUBURN", "state": "NY", "zip": "13021-7080", "ntee": "A61", "ruling": "200607", "deductibility": "1", "assets": 3283490, "income": 2052153, "revenue": 1518678}, {"ein": "223271881", "name": "AUBURN COMMUNITY COMPANIES INC", "city": "AUBURN", "state": "NY", "zip": "13021-1983", "ntee": "", "ruling": "199403", "deductibility": "1", "assets": 1642650, "income": 106718, "revenue": 106718}, {"ein": "237192071", "name": "CHRISTIAN AND MISSIONARY ALLIANCE CHURCH OF AUBURN NY", "city": "AUBURN", "state": "NY", "zip": "13021-2108", "ntee": "", "ruling": "197205", "deductibility": "1", "assets": 0, "income": 0, "revenue": 0}, {"ein": "237361359", "name": "SECOND BAPTIST CHURCH IN AUBURN NY", "city": "AUBURN", "state": "NY", "zip": "13021-2944", "ntee": "", "ruling": "197401", "deductibility": "1", "assets": 0, "income": 0, "revenue": 0}, {"ein": "261193842", "name": "AUBURN MEMORIAL MEDICAL SERVICES PC", "city": "AUBURN", "state": "NY", "zip": "13021-1983", "ntee": "E21", "ruling": "201103", "deductibility": "1", "assets": 4991095, "income": 31017647, "revenue": 31017647}, {"ein": "261690462", "name": "AUBURN BEAUTIFICATION COMMISSION INC", "city": "AUBURN", "state": "NY", "zip": "13021-8321", "ntee": "C50", "ruling": "200806", "deductibility": "1", "assets": 0, "income": 0, "revenue": 0}, {"ein": "272095705", "name": "AUBURN CIVIC BAND INC", "city": "AUBURN", "state": "NY", "zip": "13021-0482", "ntee": "A60", "ruling": "201009", "deductibility": "1", "assets": 0, "income": 0, "revenue": 0}, {"ein": "273987902", "name": "AUBURN COMMUNITY TENNIS INC", "city": "AUBURN", "state": "NY", "zip": "13021-8247", "ntee": "N66", "ruling": "201112", "deductibility": "1", "assets": 1548, "income": 16376, "revenue": 16376}, {"ein": "311581492", "name": "AUBURN SPORTS BOOSTERS INC", "city": "AUBURN", "state": "NY", "zip": "13021-0123", "ntee": "B112", "ruling": "199806", "deductibility": "1", "assets": 277772, "income": 194681, "revenue": 150859}, {"ein": "383909693", "name": "ST JOHN PAUL II ACADEMY OF AUBURN INC", "city": "AUBURN", "state": "NY", "zip": "13021-8815", "ntee": "B20", "ruling": "201606", "deductibility": "1", "assets": 105200, "income": 170847, "revenue": 170847}, {"ein": "455596866", "name": "AUBURN REGIONAL MEDIA ACCESS INC", "city": "AUBURN", "state": "NY", "zip": "13021-0733", "ntee": "A32", "ruling": "201402", "deductibility": "1", "assets": 54822, "income": 48056, "revenue": 48056}, {"ein": "463900740", "name": "AUBURN SENIOR SERVICES INC", "city": "AUBURN", "state": "NY", "zip": "13021-4525", "ntee": "E91", "ruling": "201312", "deductibility": "1", "assets": 27702754, "income": 31722959, "revenue": 31722959}, {"ein": "521255967", "name": "L T MARSHALL TRUST UW FBO AUBURN THEO SEM", "city": "NORWICH", "state": "NY", "zip": "13815-0000", "ntee": "", "ruling": "000000", "deductibility": "0", "assets": 71274, "income": 3857, "revenue": 0}, {"ein": "743228311", "name": "PURPLE LANCERS DRUM & BUGLE CORPS OF AUBURN NY INC", "city": "AUBURN", "state": "NY", "zip": "13021-1082", "ntee": "A20", "ruling": "200805", "deductibility": "1", "assets": 135629, "income": 244897, "revenue": 142880}, {"ein": "822124440", "name": "LADDERMEN MC AUBURN NY INC", "city": "AUBURN", "state": "NY", "zip": "13021-1041", "ntee": "N50", "ruling": "201801", "deductibility": "1", "assets": 0, "income": 0, "revenue": 0}, {"ein": "824820287", "name": "AUBURN PRIDE INC", "city": "AUBURN", "state": "NY", "zip": "13021-4954", "ntee": "N65", "ruling": "201905", "deductibility": "1", "assets": 0, "income": 0, "revenue": 0}, {"ein": "991639574", "name": "CPC OF THE WMM-AUBURN NY-ONE INC", "city": "AUBURN", "state": "NY", "zip": "13021-3629", "ntee": "X20", "ruling": "201503", "deductibility": "0", "assets": 0, "income": 0, "revenue": 0}, {"ein": "994355590", "name": "AUBURN JUNIOR BASEBALL INC", "city": "AUBURN", "state": "NY", "zip": "13021-3636", "ntee": "N60", "ruling": "202408", "deductibility": "1", "assets": 0, "income": 0, "revenue": 0}], "WALLS": [{"ein": "030433989", "name": "FAITH WITH OUT WALLS INTERNATIONAL MINISTRIES", "city": "QUEEN VILLAGE", "state": "NY", "zip": "11427-2229", "ntee": "X20", "ruling": "200411", "deductibility": "1", "assets": 0, "income": 0, "revenue": 0}, {"ein": "113002559", "name": "WALLS OF SALVATION AND THE GATES OF PRAISE", "city": "BROOKLYN", "state": "NY", "zip": "11226-1252", "ntee": "", "ruling": "199010", "deductibility": "1", "assets": 0, "income": 0, "revenue": 0}, {"ein": "201616130", "name": "FRANKLIN OUTREACH MINISTRIES THE CHURCH WITHOUT WALLS INC", "city": "STATEN ISLAND", "state": "NY", "zip": "10301-2207", "ntee": "X21", "ruling": "200702", "deductibility": "1", "assets": 0, "income": 0, "revenue": 0}, {"ein": "237344352", "name": "ART WITHOUT WALLS FREE SPACE INC", "city": "YONKERS", "state": "NY", "zip": "10701-2313", "ntee": "A99", "ruling": "201702", "deductibility": "1", "assets": 0, "income": 0, "revenue": 0}, {"ein": "261890153", "name": "WITHOUT WALLS GENERATION CHURCH INC", "city": "COLLEGE POINT", "state": "NY", "zip": "11356-2224", "ntee": "X20", "ruling": "201303", "deductibility": "1", "assets": 0, "income": 0, "revenue": 0}, {"ein": "271551707", "name": "JERUSALEM A CHURCH WITHOUT WALLS INC", "city": "NEW WINDSOR", "state": "NY", "zip": "12553-6908", "ntee": "X20", "ruling": "201409", "deductibility": "1", "assets": 0, "income": 0, "revenue": 0}, {"ein": "460489387", "name": "HOUSE OF PRAYER MINISTRIES CHURCH WITHOUT WALLS", "city": "ROCHESTER", "state": "NY", "zip": "14609-5160", "ntee": "X20", "ruling": "201012", "deductibility": "1", "assets": 0, "income": 0, "revenue": 0}, {"ein": "460790837", "name": "BREAKING WALLS INC", "city": "NEW YORK", "state": "NY", "zip": "10014-1608", "ntee": "A60", "ruling": "201310", "deductibility": "1", "assets": 29, "income": 62315, "revenue": 62315}, {"ein": "472206501", "name": "LOVE WITHOUT WALLS", "city": "HICKSVILLE", "state": "NY", "zip": "11802-7677", "ntee": "T50", "ruling": "201411", "deductibility": "1", "assets": 33820, "income": 7252, "revenue": 7252}, {"ein": "473753984", "name": "REPAIRERS OF BROKEN WALLS INTERNATIONAL MINISTRIES INC", "city": "BROOKLYN", "state": "NY", "zip": "11236-5412", "ntee": "X21", "ruling": "201608", "deductibility": "1", "assets": 0, "income": 0, "revenue": 0}, {"ein": "832158521", "name": "BEYOND THE 4 WALLS OUTREACH PROGRAM", "city": "KINGSTON", "state": "NY", "zip": "12401-5010", "ntee": "P20", "ruling": "201905", "deductibility": "1", "assets": 0, "income": 0, "revenue": 0}, {"ein": "833165623", "name": "OUT OF THE WALLS MINISTRIES INC", "city": "BROOKLYN", "state": "NY", "zip": "11208-5314", "ntee": "X20", "ruling": "202207", "deductibility": "1", "assets": 8523, "income": 56018, "revenue": 56018}, {"ein": "852140500", "name": "BEYOND THE WALLS CHRISTIAN CENTER CORP", "city": "WESTBURY", "state": "NY", "zip": "11590-3409", "ntee": "X21", "ruling": "202403", "deductibility": "1", "assets": 0, "income": 300, "revenue": 200}, {"ein": "854026665", "name": "COMMUNITY CENTER WITHOUT WALLS", "city": "WHITE PLAINS", "state": "NY", "zip": "10603-2687", "ntee": "O50", "ruling": "202503", "deductibility": "1", "assets": 0, "income": 0, "revenue": 0}, {"ein": "862940711", "name": "A VISION OF FREEDOM BEYOND THE WALLS CORPORATION", "city": "BRONX", "state": "NY", "zip": "10473-2502", "ntee": "P20", "ruling": "202108", "deductibility": "1", "assets": 1, "income": 0, "revenue": 0}, {"ein": "934075619", "name": "BEYOND THE 4 WALLS INC", "city": "BRONX", "state": "NY", "zip": "10469-6112", "ntee": "S20", "ruling": "202405", "deductibility": "1", "assets": 0, "income": 0, "revenue": 0}], "DRYING": [{"ein": "042664068", "name": "NEW ENGLAND KILN DRYING ASSOCIATION INC", "city": "SYRACUSE", "state": "NY", "zip": "13210-2712", "ntee": "S46", "ruling": "200206", "deductibility": "2", "assets": 0, "income": 0, "revenue": 0}], "ERIK": [{"ein": "043187215", "name": "ERIK DANIEL MILES FOUNDATION FOR CHILDHOOD CANCER", "city": "VICTOR", "state": "NY", "zip": "14564-1045", "ntee": "G30Z", "ruling": "199308", "deductibility": "1", "assets": 0, "income": 0, "revenue": 0}], "SMART": [{"ein": "043795646", "name": "PUTNAM SMART GROWTH ALLIANCE INC", "city": "BREWSTER", "state": "NY", "zip": "10509-2125", "ntee": "S21", "ruling": "200611", "deductibility": "2", "assets": 0, "income": 0, "revenue": 0}, {"ein": "132728844", "name": "SMART LOCAL 137 APPRENTICE TRAINING FUND", "city": "LONG ISLAND CITY", "state": "NY", "zip": "11101-6164", "ntee": "J22Z", "ruling": "197305", "deductibility": "1", "assets": 3504462, "income": 1269119, "revenue": 939031}, {"ein": "135388240", "name": "SMART LOCAL UNION NO 28", "city": "NEW YORK", "state": "NY", "zip": "10013-0521", "ntee": "", "ruling": "201502", "deductibility": "2", "assets": 12466842, "income": 11512224, "revenue": 11512224}, {"ein": "135520944", "name": "SMART LOCAL 137 INSURANCE FUND", "city": "LONG ISLAND CITY", "state": "NY", "zip": "11101-6164", "ntee": "", "ruling": "195812", "deductibility": "2", "assets": 16455111, "income": 7485282, "revenue": 6785606}, {"ein": "204051556", "name": "LETS BE SMART INC", "city": "NEW YORK", "state": "NY", "zip": "10022-2623", "ntee": "D20", "ruling": "201708", "deductibility": "1", "assets": 7214, "income": 126617, "revenue": 126617}, {"ein": "263977451", "name": "TEC-SMART FACILITY CORPORATION", "city": "TROY", "state": "NY", "zip": "12180-6037", "ntee": "B124", "ruling": "201006", "deductibility": "1", "assets": 0, "income": 0, "revenue": 0}, {"ein": "352644152", "name": "PLATFORM FOR AFRICAN WOMEN IN SMART CLIMATE AGRICULTURE FOUNDATION I", "city": "NEW YORK", "state": "NY", "zip": "10009-6911", "ntee": "K99", "ruling": "201905", "deductibility": "1", "assets": 0, "income": 0, "revenue": 0}, {"ein": "372056679", "name": "SMART STEPS NYC INC", "city": "BRONX", "state": "NY", "zip": "10463-1747", "ntee": "B90", "ruling": "202311", "deductibility": "1", "assets": 1, "income": 1, "revenue": 0}, {"ein": "463867464", "name": "SMART FIT FAM INC", "city": "BROOKLYN", "state": "NY", "zip": "11210-3232", "ntee": "G84", "ruling": "201703", "deductibility": "1", "assets": 8146, "income": 0, "revenue": 0}, {"ein": "731709716", "name": "SMART VOLUNTEER INC", "city": "NEW YORK", "state": "NY", "zip": "10025-5500", "ntee": "P99", "ruling": "200510", "deductibility": "1", "assets": 0, "income": 0, "revenue": 0}, {"ein": "770719583", "name": "SMART RECOVERY NYC INC", "city": "NEW YORK", "state": "NY", "zip": "10001-7604", "ntee": "F21", "ruling": "200909", "deductibility": "1", "assets": 0, "income": 0, "revenue": 0}, {"ein": "800194411", "name": "YONKERS COMMITTEE FOR SMART DEVELOPMENT", "city": "YONKERS", "state": "NY", "zip": "10705-1620", "ntee": "S30", "ruling": "200909", "deductibility": "1", "assets": 0, "income": 0, "revenue": 0}, {"ein": "822260856", "name": "SMART KIDS NYC INC", "city": "SOUTH OZONE PARK", "state": "NY", "zip": "11420-0000", "ntee": "P20", "ruling": "202311", "deductibility": "1", "assets": 0, "income": 0, "revenue": 0}, {"ein": "824143603", "name": "SMART & SUSTAINABLE ACTION ASSOCIATION", "city": "CONKLIN", "state": "NY", "zip": "13748-1506", "ntee": "Y99", "ruling": "201905", "deductibility": "2", "assets": 0, "income": 0, "revenue": 0}, {"ein": "831231670", "name": "SMART COMMUNITY DEVELOPMENT CORPORATION", "city": "EAST ELMHURST", "state": "NY", "zip": "11370-1656", "ntee": "P20", "ruling": "201808", "deductibility": "1", "assets": 250, "income": 250, "revenue": 250}, {"ein": "831578764", "name": "SMART WISDOM CENTER INC", "city": "NEW YORK", "state": "NY", "zip": "10002-6204", "ntee": "P33", "ruling": "201811", "deductibility": "1", "assets": 0, "income": 0, "revenue": 0}, {"ein": "843917385", "name": "ITS KOOL 2 B SMART INCORPORATED", "city": "BRONX", "state": "NY", "zip": "10475-5046", "ntee": "", "ruling": "202008", "deductibility": "1", "assets": 0, "income": 0, "revenue": 0}, {"ein": "850902328", "name": "SMART COMMUNITY INITIATIVE INC", "city": "NEW ROCHELLE", "state": "NY", "zip": "10801-5711", "ntee": "W02", "ruling": "202006", "deductibility": "1", "assets": 0, "income": 0, "revenue": 0}, {"ein": "872834336", "name": "SMART ELECTIONS INC", "city": "BROOKLYN", "state": "NY", "zip": "11226-5116", "ntee": "R40", "ruling": "202412", "deductibility": "1", "assets": 0, "income": 0, "revenue": 0}, {"ein": "884178632", "name": "B-SMART TO WORKSMART INC", "city": "BROOKLYN", "state": "NY", "zip": "11216-2201", "ntee": "B90", "ruling": "202211", "deductibility": "1", "assets": 0, "income": 0, "revenue": 0}, {"ein": "932857739", "name": "SMART PEER TO PEER", "city": "HOWES CAVE", "state": "NY", "zip": "12092-0175", "ntee": "F40", "ruling": "202310", "deductibility": "1", "assets": 0, "income": 0, "revenue": 0}, {"ein": "994948344", "name": "SMART CITY EXPO USA CORP", "city": "NEW YORK", "state": "NY", "zip": "10010-5315", "ntee": "W99", "ruling": "202410", "deductibility": "1", "assets": 0, "income": 0, "revenue": 0}], "IRONDEQUOIT": [{"ein": "050597879", "name": "SPIRITUAL ASSEMBLY OF THE BAHAIS OF IRONDEQUOIT TOWN", "city": "ROCHESTER", "state": "NY", "zip": "14617-8071", "ntee": "", "ruling": "199505", "deductibility": "1", "assets": 0, "income": 0, "revenue": 0}, {"ein": "160493500", "name": "IRONDEQUOIT COUNTRY CLUB INC", "city": "ROCHESTER", "state": "NY", "zip": "14618-3732", "ntee": "", "ruling": "194503", "deductibility": "2", "assets": 9517909, "income": 6676803, "revenue": 5976299}, {"ein": "160868656", "name": "IRONDEQUOIT NURSERY SCHOOL", "city": "ROCHESTER", "state": "NY", "zip": "14617-3939", "ntee": "", "ruling": "196005", "deductibility": "1", "assets": 0, "income": 0, "revenue": 0}, {"ein": "160872481", "name": "IRONDEQUOIT BAY FISH-GAME CLUB INC", "city": "ROCHESTER", "state": "NY", "zip": "14609-7937", "ntee": "", "ruling": "000000", "deductibility": "2", "assets": 509071, "income": 398987, "revenue": 244503}, {"ein": "161167877", "name": "IRONDEQUOIT HEBREW STUDIES", "city": "ROCHESTER", "state": "NY", "zip": "14617-3435", "ntee": "", "ruling": "198305", "deductibility": "1", "assets": 0, "income": 0, "revenue": 0}, {"ein": "161179476", "name": "IRONDEQUOIT AMBULANCE INC", "city": "ROCHESTER", "state": "NY", "zip": "14609-0360", "ntee": "E62Z", "ruling": "198807", "deductibility": "1", "assets": 2066045, "income": 3526387, "revenue": 3521431}, {"ein": "161316910", "name": "WEST IRONDEQUOIT CENTRAL SCHOOL DISTRICT FOUNDATION", "city": "ROCHESTER", "state": "NY", "zip": "14617-3125", "ntee": "", "ruling": "199405", "deductibility": "1", "assets": 924727, "income": 56616, "revenue": 55226}, {"ein": "161434840", "name": "INTERNATIONAL SISTER CITIES COUNCIL OF IRONDEQUOIT NEW YORK INC", "city": "ROCHESTER", "state": "NY", "zip": "14617-7134", "ntee": "Q200", "ruling": "199407", "deductibility": "1", "assets": 0, "income": 0, "revenue": 0}, {"ein": "161464253", "name": "IRONDEQUOIT CHORALE", "city": "ROCHESTER", "state": "NY", "zip": "14617-3723", "ntee": "A6B", "ruling": "202403", "deductibility": "1", "assets": 0, "income": 0, "revenue": 0}, {"ein": "161524425", "name": "IRONDEQUOIT KIWANIS CHARITABLE FOUNDATION INC", "city": "ROCHESTER", "state": "NY", "zip": "14617-0000", "ntee": "T22", "ruling": "199710", "deductibility": "1", "assets": 3923, "income": 0, "revenue": 0}, {"ein": "161599815", "name": "TRAVELING CABARET OF IRONDEQUOIT INC", "city": "PENFIELD", "state": "NY", "zip": "14526-2859", "ntee": "A60", "ruling": "200106", "deductibility": "1", "assets": 0, "income": 0, "revenue": 0}, {"ein": "166032667", "name": "IRONDEQUOIT NIGHTSTICK CLUB INC", "city": "ROCHESTER", "state": "NY", "zip": "14617-4128", "ntee": "", "ruling": "199101", "deductibility": "2", "assets": 502966, "income": 178965, "revenue": 139368}, {"ein": "203280319", "name": "IRONDEQUOIT PUBLIC LIBRARY FOUNDATION INC", "city": "ROCHESTER", "state": "NY", "zip": "14617-4125", "ntee": "B11", "ruling": "201303", "deductibility": "1", "assets": 584700, "income": 70107, "revenue": 70107}, {"ein": "203761086", "name": "IRONDEQUOIT CHAMBER OF COMMERCE INC", "city": "ROCHESTER", "state": "NY", "zip": "14617-7931", "ntee": "S41", "ruling": "201207", "deductibility": "2", "assets": 0, "income": 0, "revenue": 0}, {"ein": "222142662", "name": "IRONDEQUOIT COMMUNITY BAND ASSOCIATION LTD", "city": "ROCHESTER", "state": "NY", "zip": "14617-7008", "ntee": "A68", "ruling": "201010", "deductibility": "1", "assets": 0, "income": 0, "revenue": 0}, {"ein": "222393483", "name": "IRONDEQUOIT HISTORICAL SOCIETY", "city": "ROCHESTER", "state": "NY", "zip": "14617-7130", "ntee": "", "ruling": "198205", "deductibility": "1", "assets": 0, "income": 0, "revenue": 0}, {"ein": "237197570", "name": "FRIENDS OF THE IRONDEQUOIT PUBLIC LIBRARY INC", "city": "ROCHESTER", "state": "NY", "zip": "14617-4125", "ntee": "", "ruling": "197302", "deductibility": "1", "assets": 0, "income": 0, "revenue": 0}, {"ein": "300648075", "name": "HELPING IRONDEQUOIT PLAN FOR PROGESS INC", "city": "ROCHESTER", "state": "NY", "zip": "14617-2209", "ntee": "S20", "ruling": "201104", "deductibility": "1", "assets": 0, "income": 0, "revenue": 0}, {"ein": "332103068", "name": "IRONDEQUOIT JR LANCERS", "city": "ROCHESTER", "state": "NY", "zip": "14622-2961", "ntee": "N65", "ruling": "202412", "deductibility": "1", "assets": 0, "income": 0, "revenue": 0}, {"ein": "562367283", "name": "IRONDEQUOIT COMMUNITY CUPBOARD INC", "city": "ROCHESTER", "state": "NY", "zip": "14617-0834", "ntee": "K31", "ruling": "200311", "deductibility": "1", "assets": 1233593, "income": 241974, "revenue": 241974}, {"ein": "743059735", "name": "IRONDEQUOIT YOUTH FOOTBALL ASSOCIATION INC", "city": "ROCHESTER", "state": "NY", "zip": "14617-6572", "ntee": "N65", "ruling": "201808", "deductibility": "1", "assets": 13815, "income": 72571, "revenue": 72571}, {"ein": "821137837", "name": "IRONDEQUOIT ROTARY FOUNDATION INC", "city": "ROCHESTER", "state": "NY", "zip": "14622-1747", "ntee": "T50", "ruling": "202105", "deductibility": "1", "assets": 0, "income": 0, "revenue": 0}, {"ein": "822978847", "name": "D-FI DRUG-FREE IRONDEQUOIT TOGETHER INC", "city": "ROCHESTER", "state": "NY", "zip": "14617-3230", "ntee": "F20", "ruling": "201805", "deductibility": "1", "assets": 36185, "income": 305170, "revenue": 305170}, {"ein": "823944329", "name": "EAST IRONDEQUOIT EDUCATIONAL FOUNDATION", "city": "IRONDEQUOIT", "state": "NY", "zip": "14609-1902", "ntee": "B12", "ruling": "202107", "deductibility": "1", "assets": 0, "income": 0, "revenue": 0}, {"ein": "850556884", "name": "IRONDEQUOIT COMMUNITY ORCHESTRA", "city": "ROCHESTER", "state": "NY", "zip": "14622-1857", "ntee": "A69", "ruling": "202007", "deductibility": "1", "assets": 0, "income": 0, "revenue": 0}, {"ein": "852661025", "name": "IRONDEQUOIT ERASE ELIMINATING RACISM AND SEEKING EQUITY", "city": "ROCHESTER", "state": "NY", "zip": "14621-3014", "ntee": "R20", "ruling": "202012", "deductibility": "1", "assets": 0, "income": 0, "revenue": 0}, {"ein": "934396626", "name": "EAST IRONDEQUOIT YOUTH LACROSSE INCORPORATED", "city": "ROCHESTER", "state": "NY", "zip": "14617-1943", "ntee": "N60", "ruling": "202311", "deductibility": "1", "assets": 0, "income": 0, "revenue": 0}, {"ein": "991859101", "name": "IRONDEQUOIT GARDEN WALKS", "city": "ROCHESTER", "state": "NY", "zip": "14617-3332", "ntee": "C42", "ruling": "202411", "deductibility": "1", "assets": 0, "income": 0, "revenue": 0}], "YETEV": [{"ein": "061157626", "name": "MOSDOS YETEV LEV OF ANTWERP INC", "city": "BROOKLYN", "state": "NY", "zip": "11211-8919", "ntee": "", "ruling": "198604", "deductibility": "1", "assets": 0, "income": 0, "revenue": 0}, {"ein": "061618841", "name": "YETEV LUNI INC", "city": "BROOKLYN", "state": "NY", "zip": "11211-7257", "ntee": "X30", "ruling": "200110", "deductibility": "1", "assets": 0, "income": 0, "revenue": 0}, {"ein": "112112225", "name": "CONGREGATION YETEV LEV DSATMAR INC", "city": "BROOKLYN", "state": "NY", "zip": "11211-0506", "ntee": "", "ruling": "197202", "deductibility": "1", "assets": 0, "income": 0, "revenue": 0}, {"ein": "112734666", "name": "KOLLEL YETEV-LEV OF JERUSALEM", "city": "BROOKLYN", "state": "NY", "zip": "11211-7859", "ntee": "", "ruling": "198506", "deductibility": "1", "assets": 0, "income": 0, "revenue": 0}, {"ein": "112767605", "name": "YETEV-LEV D JERUSALEM INC", "city": "BROOKLYN", "state": "NY", "zip": "11211-0000", "ntee": "", "ruling": "198511", "deductibility": "1", "assets": 0, "income": 0, "revenue": 0}, {"ein": "113328503", "name": "KOLEL YETEV LEV DJERUSALEM", "city": "BROOKLYN", "state": "NY", "zip": "11211-8511", "ntee": "X30Z", "ruling": "199608", "deductibility": "1", "assets": 0, "income": 0, "revenue": 0}, {"ein": "113523223", "name": "CONGREGATION AGUDAS YETEV LEV", "city": "BROOKLYN", "state": "NY", "zip": "11219-0520", "ntee": "X30", "ruling": "200006", "deductibility": "1", "assets": 0, "income": 0, "revenue": 0}, {"ein": "113585529", "name": "MIKVAH TAHARAH OF CONG YETEV LEV", "city": "BROOKLYN", "state": "NY", "zip": "11211-7578", "ntee": "X30", "ruling": "200104", "deductibility": "1", "assets": 0, "income": 0, "revenue": 0}, {"ein": "113617571", "name": "CENTRAL CONGREGATIONS OF YETEV LEV DSATMAR", "city": "BROOKLYN", "state": "NY", "zip": "11211-7216", "ntee": "X30", "ruling": "200202", "deductibility": "1", "assets": 0, "income": 0, "revenue": 0}, {"ein": "141630033", "name": "CONGREGATION YETEV LEV DSATMAR OF KIRYAS JOEL INC", "city": "MONROE", "state": "NY", "zip": "10950-6027", "ntee": "", "ruling": "198706", "deductibility": "1", "assets": 0, "income": 0, "revenue": 0}, {"ein": "201355379", "name": "HISACHDUS AVREICHEM OF YETEV LEV", "city": "BROOKLYN", "state": "NY", "zip": "11211-7703", "ntee": "X30", "ruling": "200607", "deductibility": "1", "assets": 0, "income": 0, "revenue": 0}, {"ein": "208101954", "name": "CONGREGATION YETEV LEV OF MONSEY", "city": "AIRMONT", "state": "NY", "zip": "10952-3801", "ntee": "X30", "ruling": "200809", "deductibility": "1", "assets": 0, "income": 0, "revenue": 0}, {"ein": "261501547", "name": "CONGREGATION BIAS BUROCH OF YETEV LEV", "city": "MONROE", "state": "NY", "zip": "10950-5913", "ntee": "X30", "ruling": "200910", "deductibility": "1", "assets": 0, "income": 0, "revenue": 0}, {"ein": "273940476", "name": "CONGREGATION YETEV LEV OF 18TH AVE", "city": "BROOKLYN", "state": "NY", "zip": "11204-1425", "ntee": "X30", "ruling": "201207", "deductibility": "1", "assets": 0, "income": 0, "revenue": 0}, {"ein": "274499147", "name": "CONGREGATION MIKVAH TAHARA OF YETEV LEV INC", "city": "BROOKLYN", "state": "NY", "zip": "11205-1607", "ntee": "X30", "ruling": "201208", "deductibility": "1", "assets": 0, "income": 0, "revenue": 0}, {"ein": "332042466", "name": "CONGREGATION YETEV LEV WINCHESTER", "city": "MONROE", "state": "NY", "zip": "10950-4010", "ntee": "X30", "ruling": "202506", "deductibility": "1", "assets": 0, "income": 0, "revenue": 0}, {"ein": "332553622", "name": "CONGREGATION YETEV LEV DZUPNICK", "city": "BROOKLYN", "state": "NY", "zip": "11211-7578", "ntee": "X30", "ruling": "202503", "deductibility": "1", "assets": 0, "income": 0, "revenue": 0}, {"ein": "334488792", "name": "CONG YETEV LEV FOREST INC", "city": "BROOKLYN", "state": "NY", "zip": "11205-1223", "ntee": "X30", "ruling": "202505", "deductibility": "1", "assets": 0, "income": 0, "revenue": 0}, {"ein": "451341397", "name": "CONGREGATION YETEV LEV 52 STREET", "city": "BROOKLYN", "state": "NY", "zip": "11219-0000", "ntee": "X20", "ruling": "201311", "deductibility": "1", "assets": 0, "income": 0, "revenue": 0}, {"ein": "453990769", "name": "CONGREGATION YETEV LEV SATMAR DAHILL INC", "city": "BROOKLYN", "state": "NY", "zip": "11218-5513", "ntee": "X30", "ruling": "201203", "deductibility": "1", "assets": 0, "income": 0, "revenue": 0}, {"ein": "455152894", "name": "CONG YETEV LEV D SATMAR CYL INC", "city": "BROOKLYN", "state": "NY", "zip": "11205-3958", "ntee": "X30", "ruling": "201308", "deductibility": "1", "assets": 0, "income": 0, "revenue": 0}, {"ein": "464282492", "name": "HELP THE NEEDY YETEV LEV", "city": "BROOKLYN", "state": "NY", "zip": "11211-8919", "ntee": "T30", "ruling": "202206", "deductibility": "1", "assets": 0, "income": 0, "revenue": 0}, {"ein": "475320872", "name": "KHAL YETEV LEV DSATMAR INC", "city": "BROOKLYN", "state": "NY", "zip": "11211-8005", "ntee": "X30", "ruling": "201607", "deductibility": "1", "assets": 0, "income": 0, "revenue": 0}, {"ein": "743027299", "name": "CONGREGATION YETEV LEV D SATMAR OF 15TH AVE", "city": "BROOKLYN", "state": "NY", "zip": "11219-2701", "ntee": "", "ruling": "197406", "deductibility": "1", "assets": 0, "income": 0, "revenue": 0}, {"ein": "753044949", "name": "KOLEL YETEV LEV YERUSHLAYIM", "city": "BROOKLYN", "state": "NY", "zip": "11211-8036", "ntee": "X30", "ruling": "200207", "deductibility": "1", "assets": 0, "income": 0, "revenue": 0}, {"ein": "811495353", "name": "FRIENDS OF@CONGREGATION YETEV LEV ANTWERP INC", "city": "MONROE", "state": "NY", "zip": "10950-2935", "ntee": "Q33", "ruling": "201610", "deductibility": "1", "assets": 18057, "income": 2197320, "revenue": 2197320}, {"ein": "813335942", "name": "CONG YETEV LEV SHUL INC", "city": "MONROE", "state": "NY", "zip": "10950-7495", "ntee": "X30", "ruling": "201705", "deductibility": "1", "assets": 0, "income": 0, "revenue": 0}, {"ein": "814807600", "name": "MIKVAH HENDEL MIRIAM OF CONG YETEV LEV DSATMAR KJ", "city": "MONROE", "state": "NY", "zip": "10949-0057", "ntee": "X30", "ruling": "201704", "deductibility": "1", "assets": 0, "income": 0, "revenue": 0}, {"ein": "822595699", "name": "CONGREGATION RAV TIV YETEV LEV", "city": "MONROE", "state": "NY", "zip": "10950-0000", "ntee": "X30", "ruling": "201806", "deductibility": "1", "assets": 0, "income": 0, "revenue": 0}, {"ein": "823460062", "name": "CONGREGATION KHAL YETEV LEV OF BLOOMING GROVE", "city": "BROOKLYN", "state": "NY", "zip": "11219-5020", "ntee": "X30", "ruling": "202103", "deductibility": "1", "assets": 0, "income": 0, "revenue": 0}, {"ein": "825217296", "name": "CONGREGATION YETEV LEV WALLABOUT", "city": "BROOKLYN", "state": "NY", "zip": "11206-4907", "ntee": "X30", "ruling": "201902", "deductibility": "1", "assets": 0, "income": 0, "revenue": 0}, {"ein": "831121713", "name": "CONG YETEV LEV VYOEL MOSHE OF KJ", "city": "MONROE", "state": "NY", "zip": "10950-3838", "ntee": "X20", "ruling": "202005", "deductibility": "1", "assets": 0, "income": 0, "revenue": 0}, {"ein": "831455211", "name": "CONG VYOEL MOSHE OF YETEV LEV KJ", "city": "MONROE", "state": "NY", "zip": "10950-2416", "ntee": "X30", "ruling": "201907", "deductibility": "1", "assets": 0, "income": 0, "revenue": 0}, {"ein": "832386326", "name": "CONG YETEV LEV OF BLOOMINGBURG", "city": "BLOOMINGBURG", "state": "NY", "zip": "12721-4003", "ntee": "X30", "ruling": "202012", "deductibility": "1", "assets": 0, "income": 0, "revenue": 0}, {"ein": "834122722", "name": "CONGREGATION YETEV LEV OF BP K H", "city": "BROOKLYN", "state": "NY", "zip": "11219-5198", "ntee": "X30", "ruling": "201910", "deductibility": "1", "assets": 0, "income": 0, "revenue": 0}, {"ein": "841995677", "name": "CONG YETEV LEV KJ", "city": "MONROE", "state": "NY", "zip": "10949-7167", "ntee": "X30", "ruling": "202004", "deductibility": "1", "assets": 0, "income": 0, "revenue": 0}, {"ein": "852387836", "name": "CONG YETEV LEV OF YISMACH MOSHE 20 IZ", "city": "MONROE", "state": "NY", "zip": "10950-6347", "ntee": "X30", "ruling": "202011", "deductibility": "1", "assets": 0, "income": 0, "revenue": 0}, {"ein": "863569856", "name": "CONG KHAL YETEV LEV DSATMAR CLYMER", "city": "BROOKLYN", "state": "NY", "zip": "11211-7103", "ntee": "X30", "ruling": "202202", "deductibility": "1", "assets": 0, "income": 0, "revenue": 0}, {"ein": "874733453", "name": "CONG YETEV LEV MONTICELLO", "city": "MONTICELLO", "state": "NY", "zip": "12701-1704", "ntee": "X30", "ruling": "202310", "deductibility": "1", "assets": 0, "income": 0, "revenue": 0}, {"ein": "880675258", "name": "CONGREGATION YETEV LEV DSATMAR BLOOMING GROVE INC", "city": "MONROE", "state": "NY", "zip": "10950-2215", "ntee": "X30", "ruling": "202205", "deductibility": "1", "assets": 0, "income": 0, "revenue": 0}, {"ein": "883258721", "name": "YETEV LEV INC", "city": "BROOKLYN", "state": "NY", "zip": "11211-7578", "ntee": "T30", "ruling": "202301", "deductibility": "1", "assets": 27599, "income": 751206, "revenue": 751206}, {"ein": "920821494", "name": "CONG YETEV LEV DSATMAR 53RD STREET", "city": "BROOKLYN", "state": "NY", "zip": "11219-0520", "ntee": "X30", "ruling": "202305", "deductibility": "1", "assets": 0, "income": 0, "revenue": 0}, {"ein": "921203699", "name": "CONG YETEV LEV 58TH ST", "city": "BROOKLYN", "state": "NY", "zip": "11204-2233", "ntee": "X30", "ruling": "202408", "deductibility": "1", "assets": 0, "income": 0, "revenue": 0}, {"ein": "922713281", "name": "CONGREGATION YETEV LEV VERNON", "city": "BROOKLYN", "state": "NY", "zip": "11206-7453", "ntee": "X30", "ruling": "202305", "deductibility": "1", "assets": 0, "income": 0, "revenue": 0}, {"ein": "991076292", "name": "CONGREGATION YETEV LEV OF 58TH STREET", "city": "BROOKLYN", "state": "NY", "zip": "11219-4528", "ntee": "X30", "ruling": "202408", "deductibility": "1", "assets": 0, "income": 0, "revenue": 0}, {"ein": "991730666", "name": "MUGEIN EMOSHIA DKAHAL YETEV LEV", "city": "BROOKLYN", "state": "NY", "zip": "11211-7703", "ntee": "X30", "ruling": "202504", "deductibility": "1", "assets": 0, "income": 0, "revenue": 0}, {"ein": "993162118", "name": "CONGREGATION YETEV LEV UNION", "city": "MONSEY", "state": "NY", "zip": "10952-3056", "ntee": "X30", "ruling": "202504", "deductibility": "1", "assets": 0, "income": 0, "revenue": 0}], "MENAGERIE": [{"ein": "061525659", "name": "GLASS MENAGERIE A DOWNTOWN COMMUNITY CHORUS", "city": "NEW YORK", "state": "NY", "zip": "10003-4342", "ntee": "A60", "ruling": "199904", "deductibility": "1", "assets": 17609, "income": 31311, "revenue": 30511}], "COMIS": [{"ein": "061631090", "name": "ELLEN COMIS MINISTRIES INC", "city": "STATEN ISLAND", "state": "NY", "zip": "10314-0354", "ntee": "X20", "ruling": "200501", "deductibility": "1", "assets": 0, "income": 0, "revenue": 0}], "HARVEST": [{"ein": "061800512", "name": "HARVEST HOME FARMERS MARKET INC", "city": "NEW YORK", "state": "NY", "zip": "10027-3811", "ntee": "K40", "ruling": "200811", "deductibility": "1", "assets": 382030, "income": 1093015, "revenue": 1093015}, {"ein": "112597538", "name": "WORLD HARVEST COMMUNITY CENTER", "city": "BROOKLYN", "state": "NY", "zip": "11220-4712", "ntee": "", "ruling": "198206", "deductibility": "1", "assets": 0, "income": 0, "revenue": 0}, {"ein": "112625695", "name": "CHURCH OF THE HARVEST", "city": "RIVERHEAD", "state": "NY", "zip": "11901-0705", "ntee": "", "ruling": "199008", "deductibility": "1", "assets": 0, "income": 0, "revenue": 0}, {"ein": "112825136", "name": "SOUL HARVEST EVANGELISTIC CENTER", "city": "BROOKLYN", "state": "NY", "zip": "11233-2506", "ntee": "", "ruling": "198706", "deductibility": "1", "assets": 0, "income": 0, "revenue": 0}, {"ein": "112849231", "name": "HARVEST ROCK CHURCH", "city": "LAGRANGEVILLE", "state": "NY", "zip": "12540-0277", "ntee": "", "ruling": "198704", "deductibility": "1", "assets": 0, "income": 0, "revenue": 0}, {"ein": "113136350", "name": "ISLAND HARVEST LTD", "city": "MELVILLE", "state": "NY", "zip": "11747-3502", "ntee": "P20Z", "ruling": "199303", "deductibility": "1", "assets": 21153893, "income": 40118906, "revenue": 39726456}, {"ein": "113157998", "name": "ABUNDANT HARVEST CHURCH OF GOD", "city": "FARMINGDALE", "state": "NY", "zip": "11735-2639", "ntee": "", "ruling": "197210", "deductibility": "1", "assets": 0, "income": 0, "revenue": 0}, {"ein": "113160516", "name": "HARVEST TABERNACLE", "city": "PATCHOGUE", "state": "NY", "zip": "11772-0047", "ntee": "", "ruling": "197210", "deductibility": "1", "assets": 0, "income": 0, "revenue": 0}, {"ein": "113266567", "name": "HARVEST TABERNACLE", "city": "PATCHOGUE", "state": "NY", "zip": "11772-0470", "ntee": "", "ruling": "197210", "deductibility": "1", "assets": 0, "income": 0, "revenue": 0}, {"ein": "113275328", "name": "WORLD HARVEST DELIVERANCE CENTER", "city": "FAR ROCKAWAY", "state": "NY", "zip": "11691-4001", "ntee": "X99Z", "ruling": "199706", "deductibility": "1", "assets": 0, "income": 0, "revenue": 0}, {"ein": "113484545", "name": "WISDOM HARVEST INTERNATIONAL MINISTRIES INC", "city": "BROOKLYN", "state": "NY", "zip": "11207-5601", "ntee": "X21", "ruling": "200404", "deductibility": "1", "assets": 0, "income": 0, "revenue": 0}, {"ein": "113518703", "name": "HARVEST REVIVAL FULL GOSPEL BAPTIST CHURCH", "city": "CAMBRIA HTS", "state": "NY", "zip": "11411-1923", "ntee": "X21", "ruling": "200003", "deductibility": "1", "assets": 0, "income": 0, "revenue": 0}, {"ein": "113550440", "name": "HARVEST COMMUNITY CHURCH INTERNATIONAL", "city": "BROOKLYN", "state": "NY", "zip": "11230-2426", "ntee": "X21", "ruling": "200108", "deductibility": "1", "assets": 0, "income": 0, "revenue": 0}, {"ein": "113590864", "name": "CHRIST HARVEST INT MISSIONS", "city": "WOODMERE", "state": "NY", "zip": "11598-0405", "ntee": "X21", "ruling": "200209", "deductibility": "1", "assets": 0, "income": 0, "revenue": 0}, {"ein": "113613621", "name": "KINGDOM HARVEST MINISTRIES OF LONG ISLAND", "city": "SELDEN", "state": "NY", "zip": "11784-0770", "ntee": "X20", "ruling": "200203", "deductibility": "1", "assets": 0, "income": 0, "revenue": 0}, {"ein": "113637191", "name": "HARVEST CHURCH OF NEW YORK", "city": "LITTLE NECK", "state": "NY", "zip": "11362-2242", "ntee": "X20", "ruling": "200205", "deductibility": "1", "assets": 0, "income": 0, "revenue": 0}, {"ein": "132899731", "name": "HARVEST DANCE FOUNDATION LTD", "city": "NEW YORK", "state": "NY", "zip": "10007-1084", "ntee": "", "ruling": "197806", "deductibility": "1", "assets": 0, "income": 0, "revenue": 0}, {"ein": "133170676", "name": "CITY HARVEST INC", "city": "BROOKLYN", "state": "NY", "zip": "11232-4317", "ntee": "K30Z", "ruling": "198311", "deductibility": "1", "assets": 243272216, "income": 223374700, "revenue": 210031724}, {"ein": "133683635", "name": "HARVEST ARMY CHURCH INTERNATIONAL INC", "city": "BRONX", "state": "NY", "zip": "10467-8108", "ntee": "X21Z", "ruling": "199504", "deductibility": "1", "assets": 0, "income": 0, "revenue": 0}, {"ein": "134015930", "name": "CITY HARVEST CHURCH", "city": "LAGRANGEVILLE", "state": "NY", "zip": "12540-6324", "ntee": "", "ruling": "196402", "deductibility": "1", "assets": 0, "income": 0, "revenue": 0}, {"ein": "134044967", "name": "END TIME HARVEST MINISTRIES INC", "city": "BARDONIA", "state": "NY", "zip": "10954-2137", "ntee": "X21", "ruling": "200101", "deductibility": "1", "assets": 0, "income": 0, "revenue": 0}, {"ein": "134125016", "name": "HARVEST FIELDS COMMUNITY CHURCH", "city": "BRONX", "state": "NY", "zip": "10461-2806", "ntee": "X20", "ruling": "196408", "deductibility": "1", "assets": 0, "income": 0, "revenue": 0}, {"ein": "141668345", "name": "HARVEST CHURCH", "city": "HALFMOON", "state": "NY", "zip": "12065-6220", "ntee": "", "ruling": "198704", "deductibility": "1", "assets": 0, "income": 0, "revenue": 0}, {"ein": "161159197", "name": "HARVEST CHAPEL FREE METHODIST CHURCH", "city": "FREDONIA", "state": "NY", "zip": "14063-1009", "ntee": "", "ruling": "195806", "deductibility": "1", "assets": 0, "income": 0, "revenue": 0}, {"ein": "161163426", "name": "BETHESDA WORLD HARVEST INTERNATIONAL CHURCH", "city": "BUFFALO", "state": "NY", "zip": "14209-0852", "ntee": "X99Z", "ruling": "199508", "deductibility": "1", "assets": 0, "income": 0, "revenue": 0}, {"ein": "161336095", "name": "HARVEST FELLOWSHIP ASSEMBLY OF GOD", "city": "WILLIAMSON", "state": "NY", "zip": "14589-9764", "ntee": "", "ruling": "196408", "deductibility": "1", "assets": 0, "income": 0, "revenue": 0}, {"ein": "161384989", "name": "METROPOLITAN HARVEST ASSEMBLY OF GOD", "city": "EAST SYRACUSE", "state": "NY", "zip": "13057-9704", "ntee": "", "ruling": "196408", "deductibility": "2", "assets": 0, "income": 0, "revenue": 0}, {"ein": "161436840", "name": "HARVEST HOUSE OF SOUTH BUFFALO INC", "city": "BUFFALO", "state": "NY", "zip": "14210-1038", "ntee": "O200", "ruling": "199308", "deductibility": "1", "assets": 2759045, "income": 1327865, "revenue": 1327865}, {"ein": "161446155", "name": "FIRST HARVEST CHURCH INC", "city": "ROCHESTER", "state": "NY", "zip": "14609-4703", "ntee": "X20", "ruling": "199907", "deductibility": "1", "assets": 0, "income": 0, "revenue": 0}, {"ein": "161455152", "name": "FAITH HARVEST CENTER CHURCH", "city": "PENFIELD", "state": "NY", "zip": "14526-9523", "ntee": "X20Z", "ruling": "199805", "deductibility": "1", "assets": 0, "income": 0, "revenue": 0}, {"ein": "161460657", "name": "HARVEST FELLOWSHIP", "city": "GENESEO", "state": "NY", "zip": "14454-9760", "ntee": "X20", "ruling": "199910", "deductibility": "0", "assets": 0, "income": 0, "revenue": 0}, {"ein": "161490270", "name": "HARVEST HILL FOUNDATION INC", "city": "BOWMANSVILLE", "state": "NY", "zip": "14026-0273", "ntee": "N60", "ruling": "199610", "deductibility": "1", "assets": 128755, "income": 395316, "revenue": 346261}, {"ein": "161590372", "name": "HARVEST TIME SANCTUARY", "city": "ROCHESTER", "state": "NY", "zip": "14609-4606", "ntee": "X21", "ruling": "200509", "deductibility": "1", "assets": 0, "income": 0, "revenue": 0}, {"ein": "200387769", "name": "HARVEST FOR THE WORLD INC", "city": "ROOSEVELT", "state": "NY", "zip": "11575-2127", "ntee": "P60", "ruling": "200503", "deductibility": "1", "assets": 10040, "income": 23661, "revenue": 23661}, {"ein": "200459564", "name": "NEW LIFE HARVEST WORLD MINISTRIES LOGIC INC", "city": "AMHERST", "state": "NY", "zip": "14226-7570", "ntee": "X20", "ruling": "200908", "deductibility": "1", "assets": 0, "income": 0, "revenue": 0}, {"ein": "202735233", "name": "HARVEST LIFE CENTER INC", "city": "CAMBRIA HTS", "state": "NY", "zip": "11411-1923", "ntee": "P30", "ruling": "200507", "deductibility": "1", "assets": 0, "income": 0, "revenue": 0}, {"ein": "202971432", "name": "HARVEST CHURCH INTL INC", "city": "MEDFORD", "state": "NY", "zip": "11763-1543", "ntee": "X200", "ruling": "200609", "deductibility": "1", "assets": 0, "income": 0, "revenue": 0}, {"ein": "204374153", "name": "LAST DAYS HARVEST CHRISTIAN FELLOWSHIP INC", "city": "ROCHESTER", "state": "NY", "zip": "14623-5315", "ntee": "X20", "ruling": "200712", "deductibility": "1", "assets": 0, "income": 0, "revenue": 0}, {"ein": "222552855", "name": "REAPING THE HARVEST INC", "city": "HIGHLAND", "state": "NY", "zip": "12528-2103", "ntee": "", "ruling": "198410", "deductibility": "1", "assets": 0, "income": 0, "revenue": 0}, {"ein": "222854849", "name": "TRINITY HARVEST CHURCH OF JESUS CHRIST INC", "city": "VERNON", "state": "NY", "zip": "13476-0000", "ntee": "", "ruling": "198712", "deductibility": "1", "assets": 0, "income": 0, "revenue": 0}, {"ein": "237266198", "name": "HARVEST BIBLE FELLOWSHIP", "city": "ROCHESTER", "state": "NY", "zip": "14623-4603", "ntee": "", "ruling": "197401", "deductibility": "1", "assets": 0, "income": 0, "revenue": 0}, {"ein": "262173237", "name": "FAITH INTERNATIONAL HARVEST CHURCH INCORPORATED", "city": "BROOKLYN", "state": "NY", "zip": "11207-7722", "ntee": "X20", "ruling": "201004", "deductibility": "1", "assets": 0, "income": 0, "revenue": 0}, {"ein": "263470792", "name": "HARVEST TIME MISSIONARY MINISTRIES INC", "city": "STATEN ISLAND", "state": "NY", "zip": "10303-1604", "ntee": "X20", "ruling": "201008", "deductibility": "1", "assets": 0, "income": 0, "revenue": 0}, {"ein": "270387825", "name": "FINAL HARVEST INC", "city": "ROCHESTER", "state": "NY", "zip": "14616-3660", "ntee": "X20", "ruling": "201002", "deductibility": "1", "assets": 0, "income": 0, "revenue": 0}, {"ein": "270927842", "name": "KINGDOM HARVEST APOSTOLIC CHURCH", "city": "ROME", "state": "NY", "zip": "13440-4114", "ntee": "X21", "ruling": "201108", "deductibility": "1", "assets": 0, "income": 0, "revenue": 0}, {"ein": "271516270", "name": "COUNTY HARVEST INC", "city": "NEW YORK", "state": "NY", "zip": "10022-2429", "ntee": "T30", "ruling": "201004", "deductibility": "1", "assets": 135992, "income": 25046, "revenue": 25046}, {"ein": "271544667", "name": "WELL SPRING HARVEST GROUP INC", "city": "WINDSOR", "state": "NY", "zip": "13865-1602", "ntee": "P33", "ruling": "201008", "deductibility": "1", "assets": 0, "income": 0, "revenue": 0}, {"ein": "272305641", "name": "SHARE THE HARVEST FARM INC", "city": "EAST HAMPTON", "state": "NY", "zip": "11937-0181", "ntee": "K20", "ruling": "201009", "deductibility": "1", "assets": 263801, "income": 430400, "revenue": 408292}, {"ein": "272996893", "name": "NEW LIFE WORLD HARVEST RESTORATION CENTER COMMUNITY ECONOMIC DEVELOPM", "city": "BUFFALO", "state": "NY", "zip": "14215-1032", "ntee": "N60", "ruling": "201106", "deductibility": "1", "assets": 0, "income": 0, "revenue": 0}, {"ein": "273141613", "name": "SPIRITUAL HARVEST PENTECOSTAL CHURCH INC", "city": "MIDDLETOWN", "state": "NY", "zip": "10941-8756", "ntee": "X21", "ruling": "201101", "deductibility": "1", "assets": 0, "income": 0, "revenue": 0}, {"ein": "320019367", "name": "BROOKLYN RESCUE MISSION URBAN HARVEST CENTER INC", "city": "BROOKLYN", "state": "NY", "zip": "11233-1901", "ntee": "K31", "ruling": "201301", "deductibility": "1", "assets": 144515, "income": 296882, "revenue": 296882}, {"ein": "332182183", "name": "HARVEST FOR ASIA", "city": "LIVERPOOL", "state": "NY", "zip": "13088-0000", "ntee": "R01", "ruling": "202507", "deductibility": "1", "assets": 0, "income": 0, "revenue": 0}, {"ein": "333555468", "name": "MANNA HARVEST MINISTRIES INC", "city": "SPRING VALLEY", "state": "NY", "zip": "10977-5003", "ntee": "X12", "ruling": "202504", "deductibility": "1", "assets": 0, "income": 0, "revenue": 0}, {"ein": "364572744", "name": "THE LAST HARVEST CHURCH MINISTRIES", "city": "ROCKAWAY BCH", "state": "NY", "zip": "11693-2134", "ntee": "X21", "ruling": "200708", "deductibility": "1", "assets": 748769, "income": 20560, "revenue": 20560}, {"ein": "383929902", "name": "GREATER HARVEST CHURCH", "city": "ROCHESTER", "state": "NY", "zip": "14613-2030", "ntee": "X20", "ruling": "201501", "deductibility": "1", "assets": 0, "income": 0, "revenue": 0}, {"ein": "450484325", "name": "FROM HUNGER TO HARVEST INC", "city": "JAMAICA", "state": "NY", "zip": "11432-3982", "ntee": "Q33", "ruling": "200306", "deductibility": "1", "assets": 0, "income": 0, "revenue": 0}, {"ein": "452690482", "name": "HARVEST EAST END INC", "city": "RIVERHEAD", "state": "NY", "zip": "11901-0600", "ntee": "P24", "ruling": "201207", "deductibility": "1", "assets": 26910, "income": 170113, "revenue": 170113}, {"ein": "454042395", "name": "HARVEST REVIVAL CHRISTIAN FELLOWSHIP", "city": "CAMBRIA HTS", "state": "NY", "zip": "11411-1923", "ntee": "X20", "ruling": "201202", "deductibility": "1", "assets": 0, "income": 0, "revenue": 0}, {"ein": "461313718", "name": "MOON HARVEST FOUNDATION", "city": "NEW YORK", "state": "NY", "zip": "10023-2754", "ntee": "Q33", "ruling": "201601", "deductibility": "1", "assets": 0, "income": 0, "revenue": 0}, {"ein": "461356763", "name": "HARVEST COLLEGIATE HIGH SCHOOL PTA", "city": "NEW YORK", "state": "NY", "zip": "10011-7508", "ntee": "B11", "ruling": "201703", "deductibility": "1", "assets": 0, "income": 0, "revenue": 0}, {"ein": "471633353", "name": "HEAVENLY HARVEST", "city": "NEW YORK", "state": "NY", "zip": "10010-1450", "ntee": "K30", "ruling": "201611", "deductibility": "1", "assets": 11708, "income": 95501, "revenue": 95501}, {"ein": "472111784", "name": "NEPALI CALVARY HARVEST CHURCH INTERNATIONAL INC", "city": "UTICA", "state": "NY", "zip": "13501-3726", "ntee": "", "ruling": "201612", "deductibility": "1", "assets": 0, "income": 0, "revenue": 0}, {"ein": "472752396", "name": "HARVEST CARES INC", "city": "WEBSTER", "state": "NY", "zip": "14580-2438", "ntee": "O50", "ruling": "201501", "deductibility": "1", "assets": 0, "income": 0, "revenue": 0}, {"ein": "475580441", "name": "MYANMAR CHRISTIAN FELLOWSHIP - CALVARY HARVEST CHURCH INTERNATION", "city": "UTICA", "state": "NY", "zip": "13501-5102", "ntee": "", "ruling": "201904", "deductibility": "1", "assets": 0, "income": 0, "revenue": 0}, {"ein": "522396472", "name": "HARVEST FOR CHRIST FOUNDATION INC", "city": "FLUSHING", "state": "NY", "zip": "11355-3018", "ntee": "X21", "ruling": "200605", "deductibility": "1", "assets": 0, "income": 0, "revenue": 0}, {"ein": "562621923", "name": "HARVEST RESTORATION MINISTRIES INC", "city": "BRONX", "state": "NY", "zip": "10475-3402", "ntee": "X20", "ruling": "200806", "deductibility": "1", "assets": 0, "income": 0, "revenue": 0}, {"ein": "611684871", "name": "HARVEST FIELDS NEW SEASON INC", "city": "NEW ROCHELLE", "state": "NY", "zip": "10801-2650", "ntee": "X20", "ruling": "201308", "deductibility": "1", "assets": 0, "income": 0, "revenue": 0}, {"ein": "711022060", "name": "ENDTIME HARVEST OUTREACH INTER MI", "city": "BROOKLYN", "state": "NY", "zip": "11208-5501", "ntee": "", "ruling": "199112", "deductibility": "1", "assets": 0, "income": 0, "revenue": 0}, {"ein": "731725585", "name": "HARVEST FIELD OUTREACH CENTER", "city": "OLEAN", "state": "NY", "zip": "14760-2542", "ntee": "", "ruling": "198001", "deductibility": "1", "assets": 0, "income": 0, "revenue": 0}, {"ein": "742929030", "name": "HARVEST HANDS MINISTRIES", "city": "WESTFIELD", "state": "NY", "zip": "14787-9602", "ntee": "Q330", "ruling": "200003", "deductibility": "1", "assets": 162836, "income": 541182, "revenue": 541182}, {"ein": "800380001", "name": "CHURCH OF THE HARVEST", "city": "ELMONT", "state": "NY", "zip": "11003-0294", "ntee": "", "ruling": "196408", "deductibility": "1", "assets": 0, "income": 0, "revenue": 0}, {"ein": "811639071", "name": "SALT CITY HARVEST FARM INC", "city": "KIRKVILLE", "state": "NY", "zip": "13082-9450", "ntee": "P80", "ruling": "201603", "deductibility": "1", "assets": 91271, "income": 197835, "revenue": 197835}, {"ein": "813380082", "name": "NEW LIFE WORLD HARVEST RESTORATION CENTER INC", "city": "BUFFALO", "state": "NY", "zip": "14240-3084", "ntee": "X20", "ruling": "201704", "deductibility": "1", "assets": 2497, "income": 55401, "revenue": 55401}, {"ein": "822013811", "name": "HARVEST MALAWI", "city": "EDEN", "state": "NY", "zip": "14057-9634", "ntee": "Q30", "ruling": "201803", "deductibility": "1", "assets": 0, "income": 0, "revenue": 0}, {"ein": "822392806", "name": "NEW LIFE HARVEST CHURCH OF GOD IN CHRIST", "city": "BUFFALO", "state": "NY", "zip": "14211-0000", "ntee": "X20", "ruling": "202006", "deductibility": "1", "assets": 0, "income": 0, "revenue": 0}, {"ein": "830387456", "name": "HARVEST IS RIPE INTERNATIONAL OUTREACH MNISTRIES", "city": "BRONX", "state": "NY", "zip": "10456-5355", "ntee": "X21", "ruling": "200607", "deductibility": "1", "assets": 0, "income": 0, "revenue": 0}, {"ein": "830476197", "name": "HARVEST HANDS INC", "city": "BRONX", "state": "NY", "zip": "10461-2806", "ntee": "X20", "ruling": "202001", "deductibility": "1", "assets": 0, "income": 0, "revenue": 0}, {"ein": "830954893", "name": "HARVEST CHINESE CHRISTIAN CHURCH", "city": "FLUSHING", "state": "NY", "zip": "11355-4951", "ntee": "X20", "ruling": "201904", "deductibility": "1", "assets": 87560, "income": 137240, "revenue": 137240}, {"ein": "831993078", "name": "RESTORATION HARVEST", "city": "FRESH MEADOWS", "state": "NY", "zip": "11365-2221", "ntee": "S20", "ruling": "201903", "deductibility": "1", "assets": 0, "income": 0, "revenue": 0}, {"ein": "841757053", "name": "HARVEST CHINESE CHRISTIAN CHURCH LONG ISLAND", "city": "JERICHO", "state": "NY", "zip": "11753-2233", "ntee": "X20", "ruling": "201911", "deductibility": "1", "assets": 0, "income": 0, "revenue": 0}, {"ein": "860848427", "name": "HARVEST CHURCH OF THE NAZARENE", "city": "OCEANSIDE", "state": "NY", "zip": "11572-1418", "ntee": "", "ruling": "196307", "deductibility": "1", "assets": 0, "income": 0, "revenue": 0}, {"ein": "861583854", "name": "WILD HARVEST PROVISIONS", "city": "SMITHTOWN", "state": "NY", "zip": "11787-2347", "ntee": "K30", "ruling": "202112", "deductibility": "1", "assets": 0, "income": 0, "revenue": 0}, {"ein": "863631623", "name": "HARVEST BIBLE CHAPEL BUFFALO NEW YORK", "city": "ORCHARD PARK", "state": "NY", "zip": "14127-2399", "ntee": "X21", "ruling": "202301", "deductibility": "1", "assets": 0, "income": 0, "revenue": 0}, {"ein": "873795630", "name": "GREATER HARVEST CHURCH INC", "city": "HEMPSTEAD", "state": "NY", "zip": "11550-4718", "ntee": "X20", "ruling": "202201", "deductibility": "1", "assets": 0, "income": 0, "revenue": 0}, {"ein": "874373509", "name": "ALBANY MYANMAR CHRISTIAN CHURCH-CALVARY HARVEST FAMILY", "city": "ALBANY", "state": "NY", "zip": "12206-2705", "ntee": "X21", "ruling": "202502", "deductibility": "1", "assets": 0, "income": 0, "revenue": 0}, {"ein": "882591035", "name": "HARVEST CHURCH OF BROOKLYN INC", "city": "BROOKLYN", "state": "NY", "zip": "11214-1611", "ntee": "X20", "ruling": "202504", "deductibility": "1", "assets": 0, "income": 0, "revenue": 0}, {"ein": "923846093", "name": "ST PAUL HARVEST HOPE INC", "city": "COMMACK", "state": "NY", "zip": "11725-4104", "ntee": "X21", "ruling": "202402", "deductibility": "1", "assets": 0, "income": 0, "revenue": 0}, {"ein": "923953467", "name": "HORSEMANS HARVEST NEIGHBORHOOD PANTRY INC", "city": "SLEEPY HOLLOW", "state": "NY", "zip": "10591-0770", "ntee": "K31", "ruling": "202307", "deductibility": "1", "assets": 11346, "income": 53112, "revenue": 47212}, {"ein": "933025603", "name": "TAYLORS HARVEST", "city": "BUFFALO", "state": "NY", "zip": "14211-2306", "ntee": "K31", "ruling": "202309", "deductibility": "1", "assets": 0, "income": 0, "revenue": 0}, {"ein": "934859130", "name": "HOMEFRONT HARVEST INC", "city": "COXSACKIE", "state": "NY", "zip": "12051-0000", "ntee": "K20", "ruling": "202404", "deductibility": "1", "assets": 0, "income": 0, "revenue": 0}, {"ein": "934877204", "name": "HARVEST MOON SANCTUARY INC", "city": "OSSINING", "state": "NY", "zip": "10562-1102", "ntee": "D99", "ruling": "202403", "deductibility": "1", "assets": 41140, "income": 50000, "revenue": 50000}, {"ein": "991874204", "name": "WHOLESOME HARVEST FARMERS MARKET CORP", "city": "ISLIP", "state": "NY", "zip": "11751-2700", "ntee": "K35", "ruling": "202505", "deductibility": "1", "assets": 0, "income": 0, "revenue": 0}, {"ein": "992683241", "name": "FLATBUSH COMMUNITY HARVEST CORP", "city": "BROOKLYN", "state": "NY", "zip": "11226-8024", "ntee": "K99", "ruling": "202405", "deductibility": "1", "assets": 0, "income": 0, "revenue": 0}], "MALONEY": [{"ein": "112125611", "name": "DENIS MALONEY INSTITUTE-ST EDMUND PREPARATORY HIGH SCHOOL", "city": "BROOKLYN", "state": "NY", "zip": "11229-3916", "ntee": "", "ruling": "194603", "deductibility": "1", "assets": 0, "income": 0, "revenue": 0}, {"ein": "161453639", "name": "MALONEY MANOR HOUSING DEVELOPMENT FUND COMPANY INC", "city": "EAST SYRACUSE", "state": "NY", "zip": "13057-9787", "ntee": "L200", "ruling": "199510", "deductibility": "1", "assets": 679935, "income": 48502, "revenue": 48502}, {"ein": "611816311", "name": "CHRISTOPHER MALONEY LEGACY FOUNDATION", "city": "GETZVILLE", "state": "NY", "zip": "14068-0391", "ntee": "T12", "ruling": "201706", "deductibility": "1", "assets": 0, "income": 0, "revenue": 0}], "SELDEN": [{"ein": "112299539", "name": "AD-HOC COMMITTEE FOR SELDEN CENTEREACH YOUTH ASSOCIATION INC", "city": "SELDEN", "state": "NY", "zip": "11784-0439", "ntee": "P300", "ruling": "199606", "deductibility": "1", "assets": 0, "income": 0, "revenue": 0}, {"ein": "112665701", "name": "SELDEN VOLUNTEER EXEMPT FIREMENS BENEVOLENT ASSOCIATION INC", "city": "SELDEN", "state": "NY", "zip": "11784-0704", "ntee": "", "ruling": "199512", "deductibility": "2", "assets": 1172527, "income": 145219, "revenue": 145219}, {"ein": "113146250", "name": "SELDEN CIVIC ASSOCIATION INC", "city": "SELDEN", "state": "NY", "zip": "11784-0521", "ntee": "S22", "ruling": "202204", "deductibility": "1", "assets": 0, "income": 0, "revenue": 0}, {"ein": "274981753", "name": "SELDEN FIRE DEPARTMENT EMERGENCY UNIT INC", "city": "SELDEN", "state": "NY", "zip": "11784-3045", "ntee": "Z99", "ruling": "201408", "deductibility": "1", "assets": 309969, "income": 181492, "revenue": 165636}], "CHANTECLAIRE": [{"ein": "112334140", "name": "CHANTECLAIRE AT MUTTONTOWN HOMEOWNERS ASSOCIATION INC", "city": "JERICHO", "state": "NY", "zip": "11753-1309", "ntee": "", "ruling": "197602", "deductibility": "2", "assets": 213538, "income": 35799, "revenue": 35799}], "NAFTALI": [{"ein": "112422680", "name": "KOLLEL NER L AVROHOM C O NAFTALI WEISZ", "city": "BROOKLYN", "state": "NY", "zip": "11219-4617", "ntee": "", "ruling": "197708", "deductibility": "1", "assets": 0, "income": 0, "revenue": 0}, {"ein": "112780528", "name": "CHEVRA ZICHRON NAFTALI HERTZ", "city": "BROOKLYN", "state": "NY", "zip": "11213-5110", "ntee": "P60", "ruling": "200208", "deductibility": "1", "assets": 0, "income": 0, "revenue": 0}, {"ein": "112846833", "name": "MCHON BETH NAFTALI", "city": "BROOKLYN", "state": "NY", "zip": "11211-8337", "ntee": "", "ruling": "198704", "deductibility": "1", "assets": 0, "income": 0, "revenue": 0}, {"ein": "113366043", "name": "TIFERES NAFTALI", "city": "BROOKLYN", "state": "NY", "zip": "11211-7101", "ntee": "X30I", "ruling": "199706", "deductibility": "1", "assets": 0, "income": 0, "revenue": 0}, {"ein": "113442351", "name": "TIFERES NAFTALI INC", "city": "MONROE", "state": "NY", "zip": "10950-8813", "ntee": "X30Z", "ruling": "199810", "deductibility": "1", "assets": 0, "income": 0, "revenue": 0}, {"ein": "113451639", "name": "CONGREGATION TOLDOS NAFTALI INC", "city": "BROOKLYN", "state": "NY", "zip": "11218-3504", "ntee": "X30", "ruling": "199901", "deductibility": "1", "assets": 0, "income": 0, "revenue": 0}, {"ein": "133394520", "name": "NAFTALI ZVI LESHKOWITZ MEMORIAL FOUNDATION", "city": "NEW YORK", "state": "NY", "zip": "10006-3078", "ntee": "", "ruling": "198806", "deductibility": "1", "assets": 5075493, "income": 1538639, "revenue": 0}, {"ein": "204988389", "name": "FRIENDS OF YAD NAFTALI", "city": "BROOKLYN", "state": "NY", "zip": "11204-0000", "ntee": "X30", "ruling": "200808", "deductibility": "1", "assets": 529125, "income": 821529, "revenue": 821529}, {"ein": "237177646", "name": "CONGREGATION BAIS NAFTALI", "city": "BROOKLYN", "state": "NY", "zip": "11211-7705", "ntee": "", "ruling": "196906", "deductibility": "1", "assets": 0, "income": 0, "revenue": 0}, {"ein": "261267667", "name": "RAYMOND AND GLORIA NAFTALI FOUNDATION", "city": "NEW YORK", "state": "NY", "zip": "10158-0000", "ntee": "T22", "ruling": "200802", "deductibility": "1", "assets": 4574112, "income": 3219905, "revenue": 0}, {"ein": "273622675", "name": "CONG ATERES NAFTALI INC", "city": "BROOKLYN", "state": "NY", "zip": "11211-8919", "ntee": "X30", "ruling": "201109", "deductibility": "1", "assets": 0, "income": 0, "revenue": 0}, {"ein": "834295581", "name": "CONG BAIS NAFTALI DRATZFERT", "city": "MONSEY", "state": "NY", "zip": "10952-3906", "ntee": "X30", "ruling": "201910", "deductibility": "1", "assets": 0, "income": 0, "revenue": 0}, {"ein": "846780254", "name": "NAFTALI AND NATALIE ZANZIPER FOUNDATION", "city": "BROOKLYN", "state": "NY", "zip": "11210-5226", "ntee": "T22", "ruling": "202107", "deductibility": "1", "assets": 99149, "income": 2116000, "revenue": 0}, {"ein": "862099865", "name": "ANSHEI ELIYAHU V NAFTALI TOMCHEI RBS", "city": "BROOKLYN", "state": "NY", "zip": "11210-4138", "ntee": "X30", "ruling": "202205", "deductibility": "1", "assets": 0, "income": 0, "revenue": 0}], "EVERS": [{"ein": "112464804", "name": "MEDGAR-EVERS COLLEGE STUDENT FACULTY ASSOCIATION", "city": "BROOKLYN", "state": "NY", "zip": "11225-2010", "ntee": "", "ruling": "197603", "deductibility": "1", "assets": 747062, "income": 412434, "revenue": 412434}, {"ein": "112911407", "name": "MEDGAR EVERS COLLEGE AUXILIARY ENTERPRISES CORP", "city": "BROOKLYN", "state": "NY", "zip": "11225-2201", "ntee": "B99", "ruling": "200305", "deductibility": "1", "assets": 1128805, "income": 230396, "revenue": 230396}, {"ein": "113467650", "name": "ALUMNI ASSOCIATION OF MEDGAR EVERS COLLEGE", "city": "BROOKLYN", "state": "NY", "zip": "11210-1939", "ntee": "B84", "ruling": "200001", "deductibility": "1", "assets": 0, "income": 0, "revenue": 0}, {"ein": "237359004", "name": "COMMUNITY COUNCIL FOR MEDGAR EVERS COLLEGE INC", "city": "BROOKLYN", "state": "NY", "zip": "11225-2010", "ntee": "", "ruling": "197403", "deductibility": "1", "assets": 24171, "income": 27237, "revenue": 27237}], "ESLOV": [{"ein": "112524542", "name": "AMERICAN FRIENDS OF ZVI LATZADIK BR ESLOV RESEARCH INSTITUTE JERUSALEM", "city": "SUFFERN", "state": "NY", "zip": "10901-3426", "ntee": "Q123", "ruling": "198005", "deductibility": "1", "assets": 328244, "income": 1280625, "revenue": 1280625}], "DU": [{"ein": "112673263", "name": "MISSION EVANGELIQUE DU CHRISTIANISME", "city": "BROOKLYN", "state": "NY", "zip": "11203-3140", "ntee": "", "ruling": "198405", "deductibility": "1", "assets": 0, "income": 0, "revenue": 0}, {"ein": "112832429", "name": "EGLISE DU CHRIST DE FLATLANDS", "city": "BROOKLYN", "state": "NY", "zip": "11210-0545", "ntee": "", "ruling": "199409", "deductibility": "1", "assets": 0, "income": 0, "revenue": 0}, {"ein": "112867614", "name": "EGLISE EVANGELIQUE DU REVEIL", "city": "RIDGEWOOD", "state": "NY", "zip": "11385-2234", "ntee": "", "ruling": "199409", "deductibility": "1", "assets": 0, "income": 0, "revenue": 0}, {"ein": "113205432", "name": "LEGLISE DES ASSEMBLEES CHRETIENNES DU PLEIN EVANGILE", "city": "QUEENS", "state": "NY", "zip": "11373-3544", "ntee": "", "ruling": "199407", "deductibility": "1", "assets": 0, "income": 0, "revenue": 0}, {"ein": "113371999", "name": "EGLISE DU RESTE DE NEW YORK INC", "city": "BROOLYN", "state": "NY", "zip": "11225-4073", "ntee": "X99Z", "ruling": "199704", "deductibility": "1", "assets": 0, "income": 0, "revenue": 0}, {"ein": "113476270", "name": "EGLISE DE DIEU DU BON SAMARITAIN DE MIDDLE ISLAND INC", "city": "CORAM", "state": "NY", "zip": "11727-3359", "ntee": "X21", "ruling": "200910", "deductibility": "1", "assets": 0, "income": 0, "revenue": 0}, {"ein": "133381745", "name": "ASSOCIATION DES CONSEILLERS DU COMMERCE EXTERIEUR DE LA FRANCE", "city": "NEW YORK", "state": "NY", "zip": "10022-0000", "ntee": "", "ruling": "198703", "deductibility": "2", "assets": 255021, "income": 165815, "revenue": 165815}, {"ein": "134211082", "name": "EGLISE DE LA PENTECOTE DU DERNIER TEMPS", "city": "QUEENS VILLAGE", "state": "NY", "zip": "11429-0000", "ntee": "X21", "ruling": "201109", "deductibility": "1", "assets": 0, "income": 0, "revenue": 0}, {"ein": "136786343", "name": "MARY LECOMTE DU NOUY TRUST FBO CHARITY DTD 051974 247165", "city": "NEW YORK", "state": "NY", "zip": "10017-0000", "ntee": "", "ruling": "000000", "deductibility": "1", "assets": 1, "income": 1, "revenue": 0}, {"ein": "274642665", "name": "EGLISE EVANGELIQUE DU BON SAMARITAIN INC", "city": "ELMONT", "state": "NY", "zip": "11003-4240", "ntee": "X21", "ruling": "201110", "deductibility": "1", "assets": 0, "income": 0, "revenue": 0}, {"ein": "300249500", "name": "NIORO DU SAHEL ASSOCIATION OF NY", "city": "BRONX", "state": "NY", "zip": "10456-2696", "ntee": "A23", "ruling": "201407", "deductibility": "1", "assets": 0, "income": 0, "revenue": 0}, {"ein": "372048353", "name": "ASSEMBLEE DU CHRIST DE LONG ISLAND", "city": "HAUPPAUGE", "state": "NY", "zip": "11788-5204", "ntee": "X20", "ruling": "202408", "deductibility": "1", "assets": 0, "income": 0, "revenue": 0}, {"ein": "421635320", "name": "COLLEGE CANADO-HAITIEN & FRERES DU SACRE COEUR ALUMNI ASSOCIATION", "city": "WESTBURY", "state": "NY", "zip": "11590-1115", "ntee": "B82", "ruling": "200608", "deductibility": "1", "assets": 47397, "income": 86685, "revenue": 86685}, {"ein": "460639409", "name": "EGLISE LA VOIX DU CHRIST MINISTRIES INTERNATIONAL INC", "city": "BROOKLYN", "state": "NY", "zip": "11236-3623", "ntee": "X99", "ruling": "201409", "deductibility": "1", "assets": 0, "income": 0, "revenue": 0}, {"ein": "463688355", "name": "ASSOCIATION DES NAROIS D AMERIQUE DU NORD INC", "city": "BROOKLYN", "state": "NY", "zip": "11221-7765", "ntee": "W99", "ruling": "201405", "deductibility": "1", "assets": 0, "income": 0, "revenue": 0}, {"ein": "464529729", "name": "TAI SHAN DU HU ASSOCIATION OF AMERICA INC", "city": "BROOKLYN", "state": "NY", "zip": "11220-7721", "ntee": "P81", "ruling": "201507", "deductibility": "1", "assets": 292326, "income": 27895, "revenue": 27895}, {"ein": "470946937", "name": "FEDERATION DES ASSOCIATIONS POUR LE DEVELOPPEMENT DU SUD-EST INC", "city": "BROOKLYN", "state": "NY", "zip": "11218-0400", "ntee": "Q33", "ruling": "201203", "deductibility": "1", "assets": 0, "income": 0, "revenue": 0}, {"ein": "471749667", "name": "CRI DU CHAT RESEARCH FOUNDATION INC", "city": "BROOKLYN", "state": "NY", "zip": "11223-2436", "ntee": "H20", "ruling": "201411", "deductibility": "1", "assets": 163551, "income": 135102, "revenue": 135102}, {"ein": "510452119", "name": "EGLISE EVANGELIQUE AMOUR DU CHRIST OF THE CHRISTIAN MISSION ALLIANCE", "city": "NEW YORK", "state": "NY", "zip": "10065-8506", "ntee": "", "ruling": "197205", "deductibility": "1", "assets": 0, "income": 0, "revenue": 0}, {"ein": "731718825", "name": "EGLISE DU CHRIST DE BROOKLYN INC", "city": "BROOKLYN", "state": "NY", "zip": "11236-4711", "ntee": "X21", "ruling": "200705", "deductibility": "1", "assets": 0, "income": 0, "revenue": 0}, {"ein": "800520640", "name": "EGLISE BAPTISTE ETOILE DU MATIN", "city": "VALLEY STREAM", "state": "NY", "zip": "11580-2223", "ntee": "X21", "ruling": "201109", "deductibility": "1", "assets": 0, "income": 0, "revenue": 0}, {"ein": "812638534", "name": "EGLISE DE DIEU DU FLAMBEAU CELESTE CHURCH OF GOD HEAVENLY TORCH", "city": "BROOKLYN", "state": "NY", "zip": "11210-2330", "ntee": "X20", "ruling": "201705", "deductibility": "1", "assets": 0, "income": 0, "revenue": 0}, {"ein": "842053319", "name": "LA SOURCE DU SENEGAL", "city": "NEW YORK", "state": "NY", "zip": "10026-2508", "ntee": "T30", "ruling": "202402", "deductibility": "1", "assets": 0, "income": 0, "revenue": 0}, {"ein": "844028962", "name": "W E B DU BOIS MUSEUM FOUNDATION", "city": "NEW YORK", "state": "NY", "zip": "10017-1307", "ntee": "A82", "ruling": "202010", "deductibility": "1", "assets": 1847171, "income": 585867, "revenue": 585867}, {"ein": "873522286", "name": "SOCIETE DES AMI DU CHAMPAGNE INC", "city": "EAST HAMPTON", "state": "NY", "zip": "11937-0705", "ntee": "N50", "ruling": "202206", "deductibility": "2", "assets": 65260, "income": 214559, "revenue": 214559}, {"ein": "921381492", "name": "LEON DU PREEZ INTERNATIONAL INC", "city": "AMITYVILLE", "state": "NY", "zip": "11701-3413", "ntee": "X20", "ruling": "202401", "deductibility": "1", "assets": 0, "income": 0, "revenue": 0}, {"ein": "923525778", "name": "LEGLISE DE JESUS CHRIST DES HERITIERS DU ROYAUME", "city": "WESTBURY", "state": "NY", "zip": "11590-3835", "ntee": "X20", "ruling": "202507", "deductibility": "1", "assets": 4150, "income": 7120, "revenue": 7120}, {"ein": "932669116", "name": "LES AMIS DU FOYER DE CHARITE INC", "city": "ALBERTSON", "state": "NY", "zip": "11507-1501", "ntee": "X22", "ruling": "202404", "deductibility": "1", "assets": 0, "income": 0, "revenue": 0}], "SOON": [{"ein": "112674542", "name": "CHURCH OF GOD JESUS IS COMING SOON", "city": "BROOKLYN", "state": "NY", "zip": "11203-2914", "ntee": "", "ruling": "198712", "deductibility": "1", "assets": 0, "income": 0, "revenue": 0}, {"ein": "112967342", "name": "WHITE WAVE RISING-YOUNG SOON KIM DANCE COMPANY INC", "city": "BROOKLYN", "state": "NY", "zip": "11233-2625", "ntee": "A62Z", "ruling": "199511", "deductibility": "1", "assets": 9882, "income": 232860, "revenue": 232860}, {"ein": "992493928", "name": "SOON IS NOW INC", "city": "BEACON", "state": "NY", "zip": "12508-3553", "ntee": "A20", "ruling": "202411", "deductibility": "1", "assets": 0, "income": 0, "revenue": 0}, {"ein": "993048236", "name": "YU GWAN SOON MEMORIAL SOCIETY INC", "city": "ALBERTSON", "state": "NY", "zip": "11507-0000", "ntee": "Q40", "ruling": "202405", "deductibility": "1", "assets": 0, "income": 0, "revenue": 0}], "COLIN": [{"ein": "112676434", "name": "SIMON AND EVE COLIN FOUNDATION", "city": "MANHASSET", "state": "NY", "zip": "11030-3006", "ntee": "", "ruling": "198404", "deductibility": "1", "assets": 5181353, "income": 2652204, "revenue": 0}, {"ein": "161500454", "name": "THE T COLIN CAMPBELL CENTER FOR NUTRITION STUDIES", "city": "WEBSTER", "state": "NY", "zip": "14580-8792", "ntee": "T50Z", "ruling": "199705", "deductibility": "1", "assets": 1599360, "income": 1412279, "revenue": 0}, {"ein": "357290634", "name": "EVE & SIMON COLIN FAM FOUNDATION", "city": "NEW YORK", "state": "NY", "zip": "10022-0000", "ntee": "T20", "ruling": "202107", "deductibility": "1", "assets": 5302111, "income": 1817409, "revenue": 0}, {"ein": "357290635", "name": "SIMON & EVE COLIN FAM FOUNDATION TR", "city": "MANHASSET", "state": "NY", "zip": "11030-3006", "ntee": "T20", "ruling": "202107", "deductibility": "1", "assets": 6296063, "income": 6082106, "revenue": 0}, {"ein": "357290636", "name": "EVE & SIMON COLIN FOUNDATION TR", "city": "NEW YORK", "state": "NY", "zip": "10022-0000", "ntee": "T20", "ruling": "202108", "deductibility": "1", "assets": 5694108, "income": 2244322, "revenue": 0}, {"ein": "812116726", "name": "COLIN F KENNEDY FOUNDATION INC", "city": "ROCHESTER", "state": "NY", "zip": "14610-1225", "ntee": "O50", "ruling": "201605", "deductibility": "1", "assets": 64871, "income": 72947, "revenue": 67632}, {"ein": "873907075", "name": "COLIN FAMILY FOUNDATION", "city": "NEW YORK", "state": "NY", "zip": "10168-0000", "ntee": "T22", "ruling": "202207", "deductibility": "1", "assets": 1803320, "income": 340840, "revenue": 0}, {"ein": "882171392", "name": "ALEXANDRA M AND COLIN J M WINROW FAMILY FOUNDATION", "city": "RYE", "state": "NY", "zip": "10580-3711", "ntee": "T20", "ruling": "202208", "deductibility": "1", "assets": 3248, "income": 1745, "revenue": 0}, {"ein": "990393363", "name": "COLIN ROSSITER FOUNDATION INC", "city": "STATEN ISLAND", "state": "NY", "zip": "10312-2723", "ntee": "T22", "ruling": "202409", "deductibility": "1", "assets": 509171, "income": 25225, "revenue": 0}], "TOSFOT": [{"ein": "112690613", "name": "TOSFOT YOM TOV", "city": "BROOKLYN", "state": "NY", "zip": "11204-1026", "ntee": "", "ruling": "198410", "deductibility": "1", "assets": 0, "income": 0, "revenue": 0}], "TZIDKAT": [{"ein": "112746017", "name": "TZIDKAT JOSEF NAPHTALI", "city": "BROOKLYN", "state": "NY", "zip": "11218-3915", "ntee": "", "ruling": "198509", "deductibility": "1", "assets": 0, "income": 0, "revenue": 0}], "CSENGER": [{"ein": "112796282", "name": "MOSDOS CSENGER", "city": "BROOKLYN", "state": "NY", "zip": "11219-0411", "ntee": "", "ruling": "198607", "deductibility": "1", "assets": 0, "income": 0, "revenue": 0}, {"ein": "612019582", "name": "MOSDOS CSENGER", "city": "BROOKLYN", "state": "NY", "zip": "11219-0000", "ntee": "X30", "ruling": "202205", "deductibility": "1", "assets": 0, "income": 0, "revenue": 0}], "EBONY": [{"ein": "113017908", "name": "ST MARKS EBONY BAPTIST CHURCH", "city": "BROOKLYN", "state": "NY", "zip": "11233-4721", "ntee": "", "ruling": "199106", "deductibility": "1", "assets": 0, "income": 0, "revenue": 0}, {"ein": "510238088", "name": "OPERA EBONY INC", "city": "NEW YORK", "state": "NY", "zip": "10023-9660", "ntee": "A6A", "ruling": "202202", "deductibility": "1", "assets": 0, "income": 0, "revenue": 0}, {"ein": "842627589", "name": "EBONY EYES COMMUNITY SERVICES CENTER", "city": "BRONX", "state": "NY", "zip": "10472-6201", "ntee": "O20", "ruling": "202005", "deductibility": "1", "assets": 0, "income": 0, "revenue": 0}, {"ein": "923716098", "name": "EBONY BUTTERFLIES INC", "city": "NEW ROCHELLE", "state": "NY", "zip": "10801-7101", "ntee": "O50", "ruling": "202306", "deductibility": "1", "assets": 1, "income": 1, "revenue": 0}], "KOLOT": [{"ein": "113223086", "name": "KOLOT CHAYEINU INC", "city": "BROOKLYN", "state": "NY", "zip": "11215-4194", "ntee": "X99Z", "ruling": "199504", "deductibility": "1", "assets": 0, "income": 0, "revenue": 0}, {"ein": "455309330", "name": "AMERICAN FRIENDS OF KOLOT", "city": "NEW YORK", "state": "NY", "zip": "10025-0000", "ntee": "B11", "ruling": "201401", "deductibility": "1", "assets": 60044, "income": 209480, "revenue": 209480}], "RASHI": [{"ein": "113279312", "name": "ETA RASHI SAIT MEMORIAL FUND INC", "city": "BROOKLYN", "state": "NY", "zip": "11229-2910", "ntee": "P20", "ruling": "199604", "deductibility": "1", "assets": 0, "income": 0, "revenue": 0}, {"ein": "841908373", "name": "MOSDOT RASHI INC", "city": "BROOKLYN", "state": "NY", "zip": "11219-1349", "ntee": "T30", "ruling": "202402", "deductibility": "1", "assets": 0, "income": 0, "revenue": 0}, {"ein": "881721251", "name": "BAIS MEDRUSHO SHEL RASHI INC", "city": "BROOKLYN", "state": "NY", "zip": "11204-1424", "ntee": "X99", "ruling": "202406", "deductibility": "1", "assets": 0, "income": 0, "revenue": 0}], "DROR": [{"ein": "113301957", "name": "HABONIM DROR FOUNDATION INC", "city": "HUNTINGTON", "state": "NY", "zip": "11743-6809", "ntee": "O11", "ruling": "202105", "deductibility": "1", "assets": 1304783, "income": 127754, "revenue": 127754}, {"ein": "264528405", "name": "DROR FOR THE WOUNDED FOUNDATION INC", "city": "NEW YORK", "state": "NY", "zip": "10163-9624", "ntee": "", "ruling": "200804", "deductibility": "1", "assets": 98771, "income": 96096, "revenue": 96096}], "CORAL": [{"ein": "113324247", "name": "HAI TIEN CORAL GROUP INC", "city": "JACKSON HTS", "state": "NY", "zip": "11372-4720", "ntee": "A65Z", "ruling": "199706", "deductibility": "1", "assets": 0, "income": 0, "revenue": 0}, {"ein": "741969035", "name": "CORAL REEF FOUNDATION", "city": "NEW YORK", "state": "NY", "zip": "10017-0000", "ntee": "", "ruling": "197805", "deductibility": "1", "assets": 25709, "income": 380019, "revenue": 0}], "KOUZOUJIAN": [{"ein": "113347450", "name": "GARABED & AHAVNI KOUZOUJIAN BENEVOLENT FOUNDATION INC", "city": "HUNTINGTON", "state": "NY", "zip": "11743-4960", "ntee": "J00Z", "ruling": "199705", "deductibility": "1", "assets": 33614, "income": 2731, "revenue": 0}], "IQRA": [{"ein": "113357392", "name": "IQRA MASJID COMMUNITY & TRADITION INC", "city": "BROOKLYN", "state": "NY", "zip": "11204-0000", "ntee": "X40Z", "ruling": "199709", "deductibility": "1", "assets": 42283, "income": 134576, "revenue": 134576}, {"ein": "113575729", "name": "IQRA ISLAMIC CENTER OF NY INC", "city": "JAMAICA", "state": "NY", "zip": "11432-2623", "ntee": "X40", "ruling": "200104", "deductibility": "1", "assets": 0, "income": 0, "revenue": 0}, {"ein": "272863251", "name": "IQRA DARUL EHSAN", "city": "SUFFERN", "state": "NY", "zip": "10901-5506", "ntee": "X99", "ruling": "201407", "deductibility": "1", "assets": 0, "income": 0, "revenue": 0}, {"ein": "463670951", "name": "IQRA CULTURAL CENTER INC", "city": "EAST MEADOW", "state": "NY", "zip": "11554-1431", "ntee": "A23", "ruling": "202005", "deductibility": "1", "assets": 3434648, "income": 637865, "revenue": 637865}], "EWHA": [{"ein": "113384115", "name": "EWHA WOMANS UNIVERSITY ALUMNAE ASSOCIATION OF GREATER NEW YORK IN", "city": "FLUSHING", "state": "NY", "zip": "11358-1656", "ntee": "B40", "ruling": "199807", "deductibility": "1", "assets": 150152, "income": 68002, "revenue": 68002}, {"ein": "136157253", "name": "INTERNATIONAL FOUNDATION FOR EWHA WOMANS UNIV INC", "city": "NEW YORK", "state": "NY", "zip": "10115-0002", "ntee": "Q300", "ruling": "195902", "deductibility": "1", "assets": 18590423, "income": 8818051, "revenue": 2168049}], "WERTHEIM": [{"ein": "113460284", "name": "FRIENDS OF WERTHEIM NATIONAL WILDLIFE REFUGE INC", "city": "BROOKHAVEN", "state": "NY", "zip": "11719-0376", "ntee": "P20", "ruling": "200211", "deductibility": "1", "assets": 0, "income": 0, "revenue": 0}], "GITEL": [{"ein": "113471439", "name": "GEMACH GITEL RAIZEL", "city": "BROOKLYN", "state": "NY", "zip": "11219-1523", "ntee": "X30", "ruling": "199903", "deductibility": "1", "assets": 0, "income": 0, "revenue": 0}], "ELISHEVA": [{"ein": "113510830", "name": "ELISHEVA ELIZABETH SCHWARTZ MEMORIAL FUND-KANFEY SHEMESH INC", "city": "CEDARHURST", "state": "NY", "zip": "11516-0249", "ntee": "T30", "ruling": "200003", "deductibility": "1", "assets": 0, "income": 0, "revenue": 0}], "AFULA": [{"ein": "113550614", "name": "AFULA EDUCATIONAL CENTER INC", "city": "BROOKLYN", "state": "NY", "zip": "11210-4824", "ntee": "X11", "ruling": "200012", "deductibility": "1", "assets": 30493, "income": 395617, "revenue": 395617}], "TREES": [{"ein": "113569410", "name": "SHELTER ISLAND FRIENDS OF TREES INC", "city": "SHELTER IS", "state": "NY", "zip": "11964-1865", "ntee": "C36", "ruling": "200011", "deductibility": "1", "assets": 0, "income": 0, "revenue": 0}, {"ein": "116359002", "name": "UNITED TEACHERS OF ISLAND TREES WELFARE FUND", "city": "LEVITTOWN", "state": "NY", "zip": "11756-5424", "ntee": "", "ruling": "000000", "deductibility": "0", "assets": 110732, "income": 311935, "revenue": 311935}, {"ein": "133131911", "name": "TREES NEW YORK INC", "city": "NEW YORK", "state": "NY", "zip": "10038-1605", "ntee": "C500", "ruling": "198210", "deductibility": "1", "assets": 1165958, "income": 976556, "revenue": 705123}, {"ein": "300483802", "name": "VFW AUXILIARY TO LEVITTOWN-ISLAND TREES POST 9592", "city": "WANTAGH", "state": "NY", "zip": "11793-1206", "ntee": "W30", "ruling": "200909", "deductibility": "2", "assets": 0, "income": 0, "revenue": 0}, {"ein": "320325691", "name": "ISLAND TREES SOCCER CLUB INC", "city": "BETHPAGE", "state": "NY", "zip": "11714-4113", "ntee": "A23", "ruling": "201206", "deductibility": "1", "assets": 106179, "income": 210334, "revenue": 210334}, {"ein": "331941046", "name": "ISLAND TREES TRACK BOOSTER CLUB", "city": "SEAFORD", "state": "NY", "zip": "11783-1113", "ntee": "N12", "ruling": "202411", "deductibility": "1", "assets": 0, "income": 0, "revenue": 0}, {"ein": "333021757", "name": "ISLAND TREES VARSITY KICKLINE BOOSTER CLUB", "city": "LEVITTOWN", "state": "NY", "zip": "11756-5745", "ntee": "N70", "ruling": "202502", "deductibility": "1", "assets": 0, "income": 0, "revenue": 0}, {"ein": "834032552", "name": "TREES 78 FOUNDATION", "city": "NEW YORK", "state": "NY", "zip": "10075-0571", "ntee": "C50", "ruling": "201906", "deductibility": "1", "assets": 64733, "income": 54836, "revenue": 54836}, {"ein": "850510621", "name": "ISLAND TREES BASEBALL AND SOFTBALL INC", "city": "LEVITTOWN", "state": "NY", "zip": "11756-0745", "ntee": "N63", "ruling": "202012", "deductibility": "1", "assets": 54774, "income": 156760, "revenue": 156760}, {"ein": "862167515", "name": "STUDENTS GIVING TREES INC", "city": "BELLMORE", "state": "NY", "zip": "11710-3410", "ntee": "C50", "ruling": "202107", "deductibility": "1", "assets": 0, "income": 0, "revenue": 0}, {"ein": "880786125", "name": "ONE MILLION TREES FOUNDATION INCORPORATED", "city": "ISLAND PARK", "state": "NY", "zip": "11558-1710", "ntee": "B82", "ruling": "202209", "deductibility": "1", "assets": 0, "income": 0, "revenue": 0}, {"ein": "881280001", "name": "ISLAND TREES DIAMOND CLUB INC", "city": "LEVITTOWN", "state": "NY", "zip": "11756-5625", "ntee": "N63", "ruling": "202205", "deductibility": "1", "assets": 39391, "income": 42860, "revenue": 42860}, {"ein": "921391322", "name": "GROW BIG TREES INC", "city": "CAMBRIDGE", "state": "NY", "zip": "12816-2907", "ntee": "", "ruling": "202309", "deductibility": "1", "assets": 20188, "income": 151470, "revenue": 151470}, {"ein": "991937827", "name": "CSEA UNIT 865-760002 ISLAND TREES SD TEACHER AIDES UNIT", "city": "ALBANY", "state": "NY", "zip": "12210-2303", "ntee": "", "ruling": "197007", "deductibility": "0", "assets": 0, "income": 0, "revenue": 0}, {"ein": "994038292", "name": "TREES OF LIGHT EDUCATION AND PERFORMING ARTS CENTER INC", "city": "SLEEPY HOLLOW", "state": "NY", "zip": "10591-2248", "ntee": "O50", "ruling": "202407", "deductibility": "1", "assets": 0, "income": 0, "revenue": 0}], "POTASHNIK": [{"ein": "113593631", "name": "RABBI LEIB AND MINNIE POTASHNIK MEMORIAL FUND", "city": "CEDARHURST", "state": "NY", "zip": "11516-2017", "ntee": "P60", "ruling": "200106", "deductibility": "1", "assets": 1183050, "income": 1000000, "revenue": 0}], "REHOVOT": [{"ein": "113595082", "name": "REHOVOT HANAHAR", "city": "BROOKLYN", "state": "NY", "zip": "11232-2608", "ntee": "X30", "ruling": "200106", "deductibility": "1", "assets": 0, "income": 0, "revenue": 0}], "AMANETER": [{"ein": "113600563", "name": "IGLESIA UN NUEVO AMANETER", "city": "BROOKLYN", "state": "NY", "zip": "11215-6463", "ntee": "X21", "ruling": "200401", "deductibility": "1", "assets": 0, "income": 0, "revenue": 0}], "IGUALDAD": [{"ein": "113604096", "name": "IGLESIA PENTECOSTAL IGUALDAD CRISTIANA 2", "city": "BROOKLYN", "state": "NY", "zip": "11206-7205", "ntee": "X20", "ruling": "200303", "deductibility": "1", "assets": 0, "income": 0, "revenue": 0}], "ROMEMAH": [{"ein": "116104966", "name": "ROMEMAH INSTITUTE OF RABBINICS & COGNATE STUDIES", "city": "BROOKLYN", "state": "NY", "zip": "11229-1106", "ntee": "", "ruling": "196801", "deductibility": "1", "assets": 0, "income": 0, "revenue": 0}], "PLANT": [{"ein": "131739923", "name": "BOYCE THOMPSON INSTITUTE FOR PLANT RESEARCH INC", "city": "ITHACA", "state": "NY", "zip": "14853-7202", "ntee": "U500", "ruling": "193804", "deductibility": "1", "assets": 82750847, "income": 40130697, "revenue": 12819530}, {"ein": "134321969", "name": "UNITED PLANT & PRODUCTION WORKERS LOCAL 175 WELFARE FUND", "city": "ROSLYN HEIGHTS", "state": "NY", "zip": "11577-1269", "ntee": "Y43", "ruling": "200608", "deductibility": "2", "assets": 57620502, "income": 50225784, "revenue": 16427647}, {"ein": "161506220", "name": "ROCHESTER PLANT ENGINEERS INC", "city": "ROCHESTER", "state": "NY", "zip": "14625-2837", "ntee": "A20", "ruling": "199705", "deductibility": "1", "assets": 0, "income": 0, "revenue": 0}, {"ein": "161556026", "name": "THE FINGER LAKES NATIVE PLANT SOCIETY", "city": "ITHACA", "state": "NY", "zip": "14850-1422", "ntee": "C30", "ruling": "201407", "deductibility": "1", "assets": 0, "income": 0, "revenue": 0}, {"ein": "203360448", "name": "STEEL PLANT MUSEUM INC", "city": "BUFFALO", "state": "NY", "zip": "14210-2110", "ntee": "A50", "ruling": "200509", "deductibility": "1", "assets": 133429, "income": 62930, "revenue": 57945}, {"ein": "203369631", "name": "UNITED PLANT & PRODUCTION WORKERS L 175 APPRENTICESHIP SKIL IMPROV F", "city": "ROSLYN HEIGHTS", "state": "NY", "zip": "11577-1269", "ntee": "J22", "ruling": "200708", "deductibility": "1", "assets": 990129, "income": 617159, "revenue": 617159}, {"ein": "452783503", "name": "LONG ISLAND NATIVE PLANT INITIATIVE", "city": "BRENTWOOD", "state": "NY", "zip": "11717-5543", "ntee": "C30", "ruling": "201205", "deductibility": "1", "assets": 288212, "income": 561529, "revenue": 561529}, {"ein": "462355243", "name": "UNITED PLANT AND PRODUCTION WORKERS LOCAL 175-P IUJAT", "city": "ROSLYN HEIGHTS", "state": "NY", "zip": "11577-1269", "ntee": "J40", "ruling": "201505", "deductibility": "2", "assets": 107576, "income": 349807, "revenue": 349807}, {"ein": "473819744", "name": "VISION TO PLANT FOUNDATION", "city": "TROY", "state": "NY", "zip": "12180-8737", "ntee": "X20", "ruling": "201509", "deductibility": "1", "assets": 0, "income": 0, "revenue": 0}, {"ein": "811309349", "name": "PLANT A ROW FOR THE HUNGRY PORT WASHINGTON NEW YORK INC", "city": "MANHASSET", "state": "NY", "zip": "11030-4008", "ntee": "K31", "ruling": "201602", "deductibility": "1", "assets": 22709, "income": 90449, "revenue": 90449}, {"ein": "834639916", "name": "PLANT POWERED METRO NEW YORK INC", "city": "NEW YORK", "state": "NY", "zip": "10025-1516", "ntee": "K40", "ruling": "202107", "deductibility": "1", "assets": 134772, "income": 885232, "revenue": 885232}, {"ein": "841881721", "name": "NATIVE PLANT SOCIETY OF STATEN ISLAND", "city": "STATEN ISLAND", "state": "NY", "zip": "10304-3705", "ntee": "C99", "ruling": "202004", "deductibility": "1", "assets": 0, "income": 0, "revenue": 0}, {"ein": "851047568", "name": "PLANT A FOOT PROJECT INC", "city": "BRONX", "state": "NY", "zip": "10473-1408", "ntee": "Q33", "ruling": "202103", "deductibility": "1", "assets": 0, "income": 0, "revenue": 0}, {"ein": "862050873", "name": "PLANT A SEED MINISTRY INC", "city": "YONKERS", "state": "NY", "zip": "10704-3154", "ntee": "P60", "ruling": "202108", "deductibility": "1", "assets": 0, "income": 0, "revenue": 0}, {"ein": "874610272", "name": "PLANT BASED EQUITY INC", "city": "NEW YORK", "state": "NY", "zip": "10024-5125", "ntee": "K99", "ruling": "202203", "deductibility": "1", "assets": 0, "income": 0, "revenue": 0}, {"ein": "882084287", "name": "BLACK BROWN AND DIVERSE PLANT-BASED PEOPLE FOR EQUITY INC", "city": "ROCHESTER", "state": "NY", "zip": "14616-2605", "ntee": "K30", "ruling": "202304", "deductibility": "1", "assets": 0, "income": 0, "revenue": 0}, {"ein": "921226230", "name": "PLANT TEN SEEDS INC", "city": "STATEN ISLAND", "state": "NY", "zip": "10314-5313", "ntee": "X20", "ruling": "202305", "deductibility": "1", "assets": 0, "income": 0, "revenue": 0}, {"ein": "934024034", "name": "PLANT COMMUNITY INC", "city": "FREEHOLD", "state": "NY", "zip": "12431-0000", "ntee": "C60", "ruling": "202311", "deductibility": "1", "assets": 0, "income": 0, "revenue": 0}, {"ein": "994840277", "name": "WEE PLANT JOY", "city": "ALBANY", "state": "NY", "zip": "12205-1908", "ntee": "C30", "ruling": "202412", "deductibility": "1", "assets": 0, "income": 0, "revenue": 0}], "VIOLET": [{"ein": "131802302", "name": "JEWISH CENTER OF VIOLET PARK INC", "city": "BRONX", "state": "NY", "zip": "10469-2916", "ntee": "", "ruling": "195105", "deductibility": "1", "assets": 0, "income": 0, "revenue": 0}, {"ein": "137560427", "name": "VIOLET JABARA CHARITABLE TR", "city": "NEW YORK", "state": "NY", "zip": "10165-3802", "ntee": "T22", "ruling": "200805", "deductibility": "1", "assets": 639434, "income": 423864, "revenue": 0}, {"ein": "141634968", "name": "VIOLET H SIMMONS SCHOLARSHIP FUND INC", "city": "MILLERTON", "state": "NY", "zip": "12546-0496", "ntee": "", "ruling": "198311", "deductibility": "1", "assets": 148836, "income": 36811, "revenue": 36811}, {"ein": "205321542", "name": "VIOLET FOUNDATION INC", "city": "MIDDLETOWN", "state": "NY", "zip": "10940-3635", "ntee": "T30", "ruling": "200801", "deductibility": "1", "assets": 827, "income": 219804, "revenue": 0}, {"ein": "208411888", "name": "THE BURKE AND VIOLET MARSHALL FOUNDATION", "city": "NEW YORK", "state": "NY", "zip": "10010-0000", "ntee": "T20", "ruling": "200704", "deductibility": "1", "assets": 1904638, "income": 444630, "revenue": 0}, {"ein": "471648734", "name": "MARILYN VIOLET FOUNDATION INC", "city": "NEW YORK", "state": "NY", "zip": "10001-4509", "ntee": "P40", "ruling": "201709", "deductibility": "1", "assets": 0, "income": 0, "revenue": 0}, {"ein": "874545306", "name": "VIOLET QUAKER GROUP INC", "city": "NEW YORK", "state": "NY", "zip": "10018-6806", "ntee": "B90", "ruling": "202310", "deductibility": "1", "assets": 0, "income": 0, "revenue": 0}], "GREENBURGH": [{"ein": "131841136", "name": "GREENBURGH HEBREW CENTER", "city": "DOBBS FERRY", "state": "NY", "zip": "10522-1105", "ntee": "X30", "ruling": "201611", "deductibility": "1", "assets": 0, "income": 0, "revenue": 0}, {"ein": "132996518", "name": "FIRST COMMUNITY BAPTIST CHURCH OF GREENBURGH INC", "city": "WHITE PLAINS", "state": "NY", "zip": "10603-2106", "ntee": "", "ruling": "198001", "deductibility": "1", "assets": 0, "income": 0, "revenue": 0}, {"ein": "133254253", "name": "GREENBURGH POLICE OFFICERS BENEFIT & WELFARE FUND INC", "city": "ELMSFORD", "state": "NY", "zip": "10523-0194", "ntee": "", "ruling": "199202", "deductibility": "2", "assets": 325375, "income": 415969, "revenue": 415969}, {"ein": "134060447", "name": "GREENBURGH LIBRARY GUILD", "city": "ELMSFORD", "state": "NY", "zip": "10523-3416", "ntee": "B127", "ruling": "200006", "deductibility": "1", "assets": 45709, "income": 9597, "revenue": 9597}, {"ein": "136198294", "name": "ARTS & CULTURE COMMITTEE TOWN OF GREENBURGH N Y", "city": "WHITE PLAINS", "state": "NY", "zip": "10607-1409", "ntee": "", "ruling": "196603", "deductibility": "1", "assets": 0, "income": 0, "revenue": 0}, {"ein": "237047543", "name": "POLICE ASSOCIATION INC OF THE TOWN OF GREENBURGH NEW YORK", "city": "ELMSFORD", "state": "NY", "zip": "10523-0194", "ntee": "J40", "ruling": "201304", "deductibility": "2", "assets": 1002703, "income": 351574, "revenue": 286210}, {"ein": "237398267", "name": "FRIENDS OF THE GREENBURGH LIBRARY", "city": "ELMSFORD", "state": "NY", "zip": "10523-3416", "ntee": "", "ruling": "197410", "deductibility": "1", "assets": 44276, "income": 70842, "revenue": 67741}], "YEE": [{"ein": "132558697", "name": "YEE SHAN BENEVOLENT SOCIETY INC", "city": "NEW YORK", "state": "NY", "zip": "10002-6810", "ntee": "S99", "ruling": "202001", "deductibility": "2", "assets": 1627604, "income": 205080, "revenue": 103602}, {"ein": "237442131", "name": "LOONG KONG TIEN YEE ASSOCIATION", "city": "NEW YORK", "state": "NY", "zip": "10002-6707", "ntee": "", "ruling": "197503", "deductibility": "1", "assets": 3071404, "income": 501070, "revenue": 202151}, {"ein": "471829901", "name": "BOK YEE BUDDHIST TEMPLE", "city": "NEW YORK", "state": "NY", "zip": "10002-5328", "ntee": "X50", "ruling": "201501", "deductibility": "1", "assets": 0, "income": 0, "revenue": 0}], "SPADE": [{"ein": "133060673", "name": "KATE SPADE NEW YORK FOUNDATION", "city": "NEW YORK", "state": "NY", "zip": "10001-2157", "ntee": "", "ruling": "198103", "deductibility": "1", "assets": 24373639, "income": 1993132, "revenue": 0}, {"ein": "133987103", "name": "CRANSTON & SPADE THEATER COMPANY INC", "city": "FARMINGDALE", "state": "NY", "zip": "11735-6113", "ntee": "A600", "ruling": "200106", "deductibility": "1", "assets": 0, "income": 0, "revenue": 0}], "TOMEICH": [{"ein": "133064373", "name": "KEREN TOMEICH KEFIFIM INC", "city": "BROOKLYN", "state": "NY", "zip": "11211-8009", "ntee": "", "ruling": "198103", "deductibility": "1", "assets": 0, "income": 0, "revenue": 0}, {"ein": "852360310", "name": "TOMEICH YISROEL INC", "city": "SPRING VALLEY", "state": "NY", "zip": "10977-1939", "ntee": "P20", "ruling": "202104", "deductibility": "1", "assets": 14769, "income": 152486, "revenue": 152486}], "KELLEN": [{"ein": "133173593", "name": "ANNA MARIA AND STEPHEN KELLEN FOUNDATION INC", "city": "NEW YORK", "state": "NY", "zip": "10038-5117", "ntee": "", "ruling": "198310", "deductibility": "1", "assets": 226418946, "income": 61416419, "revenue": 0}, {"ein": "137270721", "name": "MARINA KELLEN FRENCH TR FOUNDATION", "city": "NEW YORK", "state": "NY", "zip": "10021-4985", "ntee": "T22", "ruling": "200201", "deductibility": "1", "assets": 37443512, "income": 672403, "revenue": 0}, {"ein": "473440549", "name": "DENISE AND MICHAEL KELLEN FOUNDATION INC", "city": "NEW YORK", "state": "NY", "zip": "10105-0302", "ntee": "T20", "ruling": "201506", "deductibility": "1", "assets": 592552362, "income": 536444062, "revenue": 0}, {"ein": "922711044", "name": "MARINA KELLEN FRENCH FOUNDATION INC", "city": "NEW YORK", "state": "NY", "zip": "10105-0302", "ntee": "T20", "ruling": "202304", "deductibility": "1", "assets": 513432696, "income": 536229962, "revenue": 0}], "CHOU": [{"ein": "133471690", "name": "JAMES C P AND CHOU-IN WANG ASSOCIATION INCORPORATED", "city": "NEW YORK", "state": "NY", "zip": "10002-7020", "ntee": "", "ruling": "199105", "deductibility": "1", "assets": 186385, "income": 19000, "revenue": 19000}], "PITT": [{"ein": "133523556", "name": "PITT STREET HOUSING DEVELOPMENT FUND CORPORATION", "city": "NEW YORK", "state": "NY", "zip": "10001-7243", "ntee": "", "ruling": "198909", "deductibility": "1", "assets": 3037006, "income": 427130, "revenue": 427130}, {"ein": "161777395", "name": "CG PITT STREET HOUSING DEVELOPMENT FUND CORPORATION", "city": "NEW YORK", "state": "NY", "zip": "10018-6550", "ntee": "L19", "ruling": "201510", "deductibility": "1", "assets": 1, "income": 0, "revenue": 0}], "FILOMENA": [{"ein": "133548660", "name": "FILOMENA M DAGOSTINO FOUNDATION CORP", "city": "NEW YORK", "state": "NY", "zip": "10022-0000", "ntee": "", "ruling": "199004", "deductibility": "1", "assets": 23973355, "income": 5158505, "revenue": 0}, {"ein": "133975116", "name": "FILOMENA GARDENS HOUSING DEVELOPMENT FUND COMPANY INC", "city": "BRONX", "state": "NY", "zip": "10466-3900", "ntee": "P80", "ruling": "199802", "deductibility": "1", "assets": 4185499, "income": 810846, "revenue": 810846}], "WITTEN": [{"ein": "133632751", "name": "RICHARD AND ELIZABETH WITTEN FAM FOUNDATION", "city": "MAMARONECK", "state": "NY", "zip": "10543-4606", "ntee": "", "ruling": "199212", "deductibility": "1", "assets": 8121524, "income": 14439878, "revenue": 0}], "WEISSMAN": [{"ein": "133688122", "name": "WEISSMAN FAMILY FOUNDATION INC", "city": "RYE", "state": "NY", "zip": "10580-4311", "ntee": "", "ruling": "199301", "deductibility": "1", "assets": 16644862, "income": 5545988, "revenue": 0}, {"ein": "136144182", "name": "WEISSMAN FOUNDATION INC", "city": "NEW YORK", "state": "NY", "zip": "10017-9117", "ntee": "", "ruling": "196402", "deductibility": "1", "assets": 46608, "income": 25272, "revenue": 0}, {"ein": "237049744", "name": "PAUL M WEISSMAN FAMILY FOUNDATION INC", "city": "WHITE PLAINS", "state": "NY", "zip": "10605-3603", "ntee": "", "ruling": "196912", "deductibility": "1", "assets": 7826158, "income": 578470, "revenue": 0}, {"ein": "274196642", "name": "ALAN AND GISELLE WEISSMAN FAMILY FOUNDATION INC", "city": "HARRISON", "state": "NY", "zip": "10528-2432", "ntee": "T20", "ruling": "201103", "deductibility": "1", "assets": 5573, "income": 188500, "revenue": 0}, {"ein": "274196756", "name": "ALFRED AND CONSTANCE WEISSMAN FAMILY FOUNDATION INC", "city": "HARRISON", "state": "NY", "zip": "10528-2432", "ntee": "T20", "ruling": "201103", "deductibility": "1", "assets": 20400, "income": 12360, "revenue": 0}, {"ein": "850740465", "name": "WEISSMAN CHILDRENS FOUNDATION", "city": "TARRYTOWN", "state": "NY", "zip": "10591-3415", "ntee": "F70", "ruling": "202309", "deductibility": "1", "assets": 28428, "income": 38168, "revenue": 38168}], "NIEMIC": [{"ein": "133689379", "name": "NIEMIC FAMILY FUND", "city": "NEW YORK", "state": "NY", "zip": "10016-0000", "ntee": "", "ruling": "199309", "deductibility": "1", "assets": 3159819, "income": 574027, "revenue": 0}], "SASSON": [{"ein": "133731350", "name": "SARAH & SASSON SHALAM FOUNDATION INC", "city": "BROOKLYN", "state": "NY", "zip": "11230-6615", "ntee": "", "ruling": "199311", "deductibility": "1", "assets": 12732, "income": 26828, "revenue": 0}, {"ein": "261273107", "name": "ISAAC SASSON CHARITABLE FOUNDATION", "city": "FLUSHING", "state": "NY", "zip": "11355-3732", "ntee": "T20", "ruling": "201101", "deductibility": "1", "assets": 1, "income": 33878, "revenue": 0}, {"ein": "311599286", "name": "SASSON SOFFER FOUNDATION INC", "city": "SAG HARBOR", "state": "NY", "zip": "11963-1041", "ntee": "A51", "ruling": "199903", "deductibility": "1", "assets": 501044, "income": 56368, "revenue": 0}, {"ein": "471913346", "name": "EMET VEMUNAH SAM & SAMANTHA SASSON FAMILY FOUNDATION", "city": "BROOKLYN", "state": "NY", "zip": "11230-4102", "ntee": "T20", "ruling": "201505", "deductibility": "1", "assets": 562568, "income": 2188928, "revenue": 0}], "HAMMARSKJOLD": [{"ein": "133749587", "name": "FRIENDS OF DAG HAMMARSKJOLD PLAZA", "city": "NEW YORK", "state": "NY", "zip": "10017-2102", "ntee": "N32I", "ruling": "199704", "deductibility": "1", "assets": 28569, "income": 55505, "revenue": 55505}], "COBY": [{"ein": "133781874", "name": "COBY FOUNDATION LTD", "city": "NEW YORK", "state": "NY", "zip": "10024-6279", "ntee": "A51Z", "ruling": "199503", "deductibility": "1", "assets": 16785774, "income": 8194521, "revenue": 0}, {"ein": "562362379", "name": "COBY FISH AND GAME CLUB INC", "city": "COBLESKILL", "state": "NY", "zip": "12043-5931", "ntee": "N50", "ruling": "200401", "deductibility": "2", "assets": 0, "income": 0, "revenue": 0}], "GOJU": [{"ein": "133781934", "name": "UNIVERSAL GOJU WAY OF LIFE INC", "city": "WHITE PLAINS", "state": "NY", "zip": "10603-3467", "ntee": "S20I", "ruling": "199605", "deductibility": "1", "assets": 3808, "income": 0, "revenue": 0}, {"ein": "831288870", "name": "HOUSE OF GOJU INC", "city": "BROOKLYN", "state": "NY", "zip": "11235-6260", "ntee": "N60", "ruling": "201808", "deductibility": "1", "assets": 0, "income": 0, "revenue": 0}], "SPRINGVALE": [{"ein": "133844619", "name": "THE BETHEL SPRINGVALE NURSING HOME INC", "city": "CROTON HDSN", "state": "NY", "zip": "10520-1169", "ntee": "E910", "ruling": "199509", "deductibility": "1", "assets": 14331238, "income": 45561586, "revenue": 34965064}], "HABAYIS": [{"ein": "134034298", "name": "CONGREGATION AKERES HABAYIS INC", "city": "MONSEY", "state": "NY", "zip": "10952-3346", "ntee": "X30", "ruling": "199904", "deductibility": "1", "assets": 0, "income": 0, "revenue": 0}, {"ein": "137169042", "name": "KEREN SIMCHAS HABAYIS", "city": "BROOKLYN", "state": "NY", "zip": "11223-2215", "ntee": "X30", "ruling": "199912", "deductibility": "1", "assets": 0, "income": 0, "revenue": 0}, {"ein": "872264921", "name": "YESHUAS HABAYIS INC", "city": "MONSEY", "state": "NY", "zip": "10952-2451", "ntee": "P60", "ruling": "202201", "deductibility": "1", "assets": 699223, "income": 44832, "revenue": 44832}], "OMO": [{"ein": "134103638", "name": "EGBE OMO YORUBA NEW YORK CHAPTER INC", "city": "STATEN ISLAND", "state": "NY", "zip": "10301-2708", "ntee": "A23", "ruling": "202008", "deductibility": "1", "assets": 0, "income": 0, "revenue": 0}, {"ein": "320146096", "name": "EGBE OMO YORUBA GREATER NEW YORK CHAPTER INC", "city": "ELMONT", "state": "NY", "zip": "11003-7038", "ntee": "A01", "ruling": "202410", "deductibility": "1", "assets": 0, "income": 0, "revenue": 0}, {"ein": "920551952", "name": "ISOKAN OMO YORUBA INC", "city": "BROOKLYN", "state": "NY", "zip": "11233-2711", "ntee": "A20", "ruling": "202309", "deductibility": "1", "assets": 0, "income": 0, "revenue": 0}, {"ein": "921367620", "name": "EGBE OMO USI INC", "city": "STATEN ISLAND", "state": "NY", "zip": "10301-1363", "ntee": "S50", "ruling": "202301", "deductibility": "1", "assets": 2104, "income": 1400, "revenue": 0}], "KIRSCHBAUM": [{"ein": "134130880", "name": "KIRSCHBAUM FAMILY FOUNDATION INC", "city": "NEW YORK", "state": "NY", "zip": "10036-0000", "ntee": "T20", "ruling": "200011", "deductibility": "1", "assets": 98462, "income": 40971, "revenue": 0}], "JINDHAG": [{"ein": "134143098", "name": "JINDHAG FOUNDATION", "city": "NEW YORK", "state": "NY", "zip": "10018-0000", "ntee": "A23", "ruling": "200112", "deductibility": "1", "assets": 47996, "income": 50000, "revenue": 0}], "SNOW": [{"ein": "136112704", "name": "JOHN BEN SNOW FOUNDATION INC", "city": "MANLIUS", "state": "NY", "zip": "13104-2444", "ntee": "", "ruling": "195204", "deductibility": "1", "assets": 8920164, "income": 3567891, "revenue": 0}, {"ein": "141779202", "name": "CATSKILL MOUNTAIN SNOW RIDERS INC", "city": "EAST DURHAM", "state": "NY", "zip": "12423-1128", "ntee": "", "ruling": "199510", "deductibility": "2", "assets": 0, "income": 0, "revenue": 0}, {"ein": "150555677", "name": "OUR LADY OF THE SNOW PARISH", "city": "WEEDSPORT", "state": "NY", "zip": "13166-9765", "ntee": "", "ruling": "194603", "deductibility": "1", "assets": 0, "income": 0, "revenue": 0}, {"ein": "161277327", "name": "PENN MOUNTAIN SNOW RIDERS INC", "city": "BARNEVELD", "state": "NY", "zip": "13304-0192", "ntee": "N32", "ruling": "201004", "deductibility": "1", "assets": 454287, "income": 160842, "revenue": 122370}, {"ein": "161468843", "name": "SNOW VALLEY RIDERS INC", "city": "CAZENOVIA", "state": "NY", "zip": "13035-0104", "ntee": "C34", "ruling": "201502", "deductibility": "1", "assets": 66408, "income": 34615, "revenue": 34615}, {"ein": "161517042", "name": "CNY SNOW TRAVELERS INC", "city": "DEANSBORO", "state": "NY", "zip": "13328-0053", "ntee": "N32", "ruling": "200702", "deductibility": "1", "assets": 394431, "income": 84608, "revenue": 84608}, {"ein": "161599263", "name": "SEVEN VALLEY SNOW GOERS INC", "city": "HOMER", "state": "NY", "zip": "13077-0402", "ntee": "N50", "ruling": "200105", "deductibility": "2", "assets": 0, "income": 0, "revenue": 0}, {"ein": "161602080", "name": "SNOW OWLS INC", "city": "CLAY", "state": "NY", "zip": "13041-0278", "ntee": "", "ruling": "201908", "deductibility": "1", "assets": 0, "income": 0, "revenue": 0}, {"ein": "201833298", "name": "LEHIGH VALLEY SNOW RIDERS LIMITED", "city": "CLIFTON SPGS", "state": "NY", "zip": "14432-0152", "ntee": "M99", "ruling": "200811", "deductibility": "1", "assets": 0, "income": 0, "revenue": 0}, {"ein": "205795054", "name": "BOONVILLE SNOW FESTIVAL II INC", "city": "BOONVILLE", "state": "NY", "zip": "13309-0233", "ntee": "N68", "ruling": "200903", "deductibility": "2", "assets": 0, "income": 0, "revenue": 0}, {"ein": "208938663", "name": "SNOW RATS SNOWMOBILE CLUB INC", "city": "CARMEL", "state": "NY", "zip": "10512-8063", "ntee": "", "ruling": "200708", "deductibility": "2", "assets": 0, "income": 0, "revenue": 0}, {"ein": "222391978", "name": "SNOW BELT HOUSING COMPANY INC", "city": "LOWVILLE", "state": "NY", "zip": "13367-1582", "ntee": "L200", "ruling": "198308", "deductibility": "1", "assets": 2875235, "income": 1211403, "revenue": 1211403}, {"ein": "222488379", "name": "VALLEY SNOW TRAVELERS OF LEWIS COUNTY INC", "city": "LOWVILLE", "state": "NY", "zip": "13367-2814", "ntee": "N68", "ruling": "201505", "deductibility": "1", "assets": 278016, "income": 72156, "revenue": 72156}, {"ein": "237052102", "name": "SNOW BOUNDERS INC", "city": "LITTLE VALLEY", "state": "NY", "zip": "14755-0068", "ntee": "N69", "ruling": "200902", "deductibility": "1", "assets": 198629, "income": 52513, "revenue": 52513}, {"ein": "237162947", "name": "TRAILSWEEPERS SNOW AND SPORTS CLUB INC", "city": "KINGSTON", "state": "NY", "zip": "12402-0000", "ntee": "", "ruling": "197505", "deductibility": "2", "assets": 0, "income": 0, "revenue": 0}, {"ein": "260347031", "name": "WILLARD MOUNTAIN SKI & SNOW SPORTSCLUB", "city": "GREENWICH", "state": "NY", "zip": "12834-1209", "ntee": "N99", "ruling": "200810", "deductibility": "1", "assets": 0, "income": 0, "revenue": 0}, {"ein": "270346050", "name": "CHURCH OF OUR LADY OF THE SNOW", "city": "GRAFTON", "state": "NY", "zip": "12082-0000", "ntee": "", "ruling": "194603", "deductibility": "1", "assets": 0, "income": 0, "revenue": 0}, {"ein": "332569630", "name": "SNOW RIDGE SKI CLUB INC", "city": "TURIN", "state": "NY", "zip": "13473-0000", "ntee": "N68", "ruling": "202501", "deductibility": "1", "assets": 0, "income": 0, "revenue": 0}, {"ein": "384296864", "name": "BLEECKER SNOW ROVERS INC", "city": "GLOVERSVILLE", "state": "NY", "zip": "12078-0002", "ntee": "N30", "ruling": "202408", "deductibility": "1", "assets": 0, "income": 0, "revenue": 0}, {"ein": "510243570", "name": "SOCIETY ST MARY OF THE SNOW NEW YORK CITY", "city": "BROOKLYN", "state": "NY", "zip": "11211-2423", "ntee": "T50", "ruling": "201608", "deductibility": "1", "assets": 106217, "income": 55559, "revenue": 55559}, {"ein": "510559437", "name": "DEERFIELD SNOW TRAILS INC", "city": "MARCY", "state": "NY", "zip": "13403-0323", "ntee": "N30", "ruling": "201410", "deductibility": "1", "assets": 0, "income": 0, "revenue": 0}, {"ein": "522379367", "name": "GLENN SNOW FOUNDATION INC", "city": "CEDARHURST", "state": "NY", "zip": "11516-0000", "ntee": "T22", "ruling": "200301", "deductibility": "1", "assets": 608016, "income": 310794, "revenue": 0}, {"ein": "810639194", "name": "UNADILLA VALLEY SNOW DRIFTERS ASSOCIATION", "city": "NEW BERLIN", "state": "NY", "zip": "13411-0423", "ntee": "N32", "ruling": "201602", "deductibility": "1", "assets": 0, "income": 0, "revenue": 0}, {"ein": "812846217", "name": "PARISH OF ST MARY OF THE SNOW ST JO SEPH ST JOHN THE EVANGELIST", "city": "SAUGERTIES", "state": "NY", "zip": "12477-1710", "ntee": "", "ruling": "194603", "deductibility": "1", "assets": 0, "income": 0, "revenue": 0}], "AAWWS": [{"ein": "136119210", "name": "AAWWS WELFARE FUND", "city": "NEW YORK", "state": "NY", "zip": "10004-2614", "ntee": "", "ruling": "195704", "deductibility": "2", "assets": 359212, "income": 157438, "revenue": 157438}], "KARCHES": [{"ein": "137106278", "name": "KARCHES FOUNDATION", "city": "LOCUST VALLEY", "state": "NY", "zip": "11560-2022", "ntee": "J32Z", "ruling": "199706", "deductibility": "1", "assets": 464203, "income": 12180, "revenue": 0}], "MALLAH": [{"ein": "137172805", "name": "THE YVETTE AND JOEL MALLAH FAMILY FOUNDATION", "city": "ROSLYN", "state": "NY", "zip": "11576-3071", "ntee": "T22", "ruling": "200001", "deductibility": "1", "assets": 18666306, "income": 1782488, "revenue": 0}, {"ein": "208075586", "name": "DIANE AND DARRYL MALLAH FAMILYFOUNDATION", "city": "ROSLYN", "state": "NY", "zip": "11576-3071", "ntee": "T22", "ruling": "200705", "deductibility": "1", "assets": 19876090, "income": 1934813, "revenue": 0}], "CROSSWAY": [{"ein": "140709370", "name": "CROSSWAY ASSEMBLY OF GOD", "city": "WOODBOURNE", "state": "NY", "zip": "12788-0480", "ntee": "", "ruling": "196408", "deductibility": "1", "assets": 0, "income": 0, "revenue": 0}, {"ein": "160107924", "name": "CROSSWAY LIFE CENTER", "city": "SYRACUSE", "state": "NY", "zip": "13206-2350", "ntee": "", "ruling": "198908", "deductibility": "1", "assets": 0, "income": 0, "revenue": 0}, {"ein": "830430018", "name": "CROSSWAY ASSEMBLY OF GOD", "city": "WOODBOURNE", "state": "NY", "zip": "12788-0480", "ntee": "", "ruling": "196408", "deductibility": "1", "assets": 0, "income": 0, "revenue": 0}], "GOOLEY": [{"ein": "141325080", "name": "GOOLEY CLUB INC", "city": "QUEENSBURY", "state": "NY", "zip": "12804-1304", "ntee": "", "ruling": "199702", "deductibility": "2", "assets": 0, "income": 0, "revenue": 0}, {"ein": "160836536", "name": "MARY M GOOLEY HEMOPHILIA CENTER INC", "city": "ROCHESTER", "state": "NY", "zip": "14621-3043", "ntee": "", "ruling": "198305", "deductibility": "1", "assets": 28705288, "income": 26425613, "revenue": 25362099}], "TDC": [{"ein": "141463640", "name": "TDC NNY INC", "city": "PLATTSBURGH", "state": "NY", "zip": "12901-1999", "ntee": "", "ruling": "196608", "deductibility": "2", "assets": 40075635, "income": 5385874, "revenue": 5354111}, {"ein": "161336537", "name": "TDC FOUNDATION INC", "city": "BUFFALO", "state": "NY", "zip": "14211-1057", "ntee": "", "ruling": "198908", "deductibility": "1", "assets": 1879299, "income": 202926, "revenue": 85768}], "SPEIGLETOWN": [{"ein": "141671046", "name": "SPEIGLETOWN DISTRICT VOLUNTEER FIRE CO INC", "city": "TROY", "state": "NY", "zip": "12182-1003", "ntee": "M24", "ruling": "201512", "deductibility": "1", "assets": 136898, "income": 97881, "revenue": 62478}], "CRARYVILLE": [{"ein": "141719887", "name": "CRARYVILLE FIRE COMPANY NO 1 INC", "city": "CRARYVILLE", "state": "NY", "zip": "12521-0100", "ntee": "M24", "ruling": "201707", "deductibility": "1", "assets": 197958, "income": 30013, "revenue": 30013}], "USER": [{"ein": "141786407", "name": "MID-HUDSON COMPUTER USER GROUP INC", "city": "KINGSTON", "state": "NY", "zip": "12401-1922", "ntee": "B99", "ruling": "199607", "deductibility": "1", "assets": 0, "income": 0, "revenue": 0}, {"ein": "161516039", "name": "MOHAWK VALLEY PERSONAL COMPUTER USER GROUP", "city": "WESTMORELAND", "state": "NY", "zip": "13490-1203", "ntee": "S41J", "ruling": "199803", "deductibility": "1", "assets": 0, "income": 0, "revenue": 0}, {"ein": "274014914", "name": "SYTELINE USER GROUP", "city": "WILLIAMSVILLE", "state": "NY", "zip": "14221-5781", "ntee": "S46", "ruling": "201407", "deductibility": "2", "assets": 1681072, "income": 1031655, "revenue": 1031655}, {"ein": "473323816", "name": "INFOR XA USER GROUP", "city": "OAKS CORNERS", "state": "NY", "zip": "14518-0000", "ntee": "S41", "ruling": "201511", "deductibility": "2", "assets": 84567, "income": 317503, "revenue": 317503}, {"ein": "812380620", "name": "NEW YORK CITY USER EXPERIENCE PROFESSIONALS ASSOCIATION INC", "city": "JACKSON HTS", "state": "NY", "zip": "11372-2424", "ntee": "S41", "ruling": "201609", "deductibility": "2", "assets": 18304, "income": 1666, "revenue": 1666}, {"ein": "832577885", "name": "SOCAL NETSUITE USER GROUPS INC", "city": "GREAT NECK", "state": "NY", "zip": "11021-3326", "ntee": "S41", "ruling": "201907", "deductibility": "2", "assets": 0, "income": 0, "revenue": 0}, {"ein": "832586104", "name": "NORTHERN CALIFORNIA USER GROUP INC", "city": "GREAT NECK", "state": "NY", "zip": "11021-3326", "ntee": "S41", "ruling": "202009", "deductibility": "2", "assets": 0, "income": 0, "revenue": 0}], "TRUSTS": [{"ein": "156025276", "name": "CRANDALL MELVIN CHAIR FOR WILLS & TRUSTS", "city": "BUFFALO", "state": "NY", "zip": "14240-1504", "ntee": "", "ruling": "196403", "deductibility": "1", "assets": 1196398, "income": 359317, "revenue": 97304}, {"ein": "160778060", "name": "ROCHESTER ROTARY CHARITABLE TRUSTS INC", "city": "ROCHESTER", "state": "NY", "zip": "14625-2837", "ntee": "N20", "ruling": "194209", "deductibility": "1", "assets": 10822764, "income": 2462428, "revenue": 1683894}], "MOONEY": [{"ein": "160667383", "name": "CORPORAL JOSEPH J MOONEY POST 2250 VFW OF US INC", "city": "HORNELL", "state": "NY", "zip": "14843-1816", "ntee": "W30", "ruling": "201712", "deductibility": "1", "assets": 102138, "income": 1006877, "revenue": 170415}, {"ein": "992713281", "name": "MAHOPAC KNIGHTS FATHER MOONEY FOUNDATION INC", "city": "MAHOPAC", "state": "NY", "zip": "10541-1771", "ntee": "T30", "ruling": "202405", "deductibility": "1", "assets": 0, "income": 0, "revenue": 0}], "GHWALEK": [{"ein": "161063680", "name": "OSWEGO COMMUNITY HOUSING COMPANY INC C O JOHN P GHWALEK ESQ", "city": "LIVERPOOL", "state": "NY", "zip": "13088-5146", "ntee": "L22Z", "ruling": "197706", "deductibility": "1", "assets": 3217309, "income": 739057, "revenue": 739057}], "NEWPORT": [{"ein": "161154853", "name": "NEWPORT VOLUNTEER FIRE COMPANY NUMBER 4 INC", "city": "NEWPORT", "state": "NY", "zip": "13416-0261", "ntee": "M24", "ruling": "202303", "deductibility": "1", "assets": 259886, "income": 30397, "revenue": 30397}, {"ein": "166008820", "name": "NEWPORT YACHT CLUB OF ROCHESTER NEW YORK INC", "city": "ROCHESTER", "state": "NY", "zip": "14617-0193", "ntee": "", "ruling": "198705", "deductibility": "2", "assets": 390794, "income": 92830, "revenue": 92830}, {"ein": "166051962", "name": "KUYAHOORA VALLEY NEWPORT ROTARY CLUB", "city": "NEWPORT", "state": "NY", "zip": "13416-0558", "ntee": "S80", "ruling": "201412", "deductibility": "2", "assets": 0, "income": 0, "revenue": 0}, {"ein": "810856080", "name": "NEWPORT SEMINARY INC", "city": "CORNWALL", "state": "NY", "zip": "12518-0241", "ntee": "X19", "ruling": "201602", "deductibility": "1", "assets": 0, "income": 0, "revenue": 0}], "ONEI": [{"ein": "161179914", "name": "CHRISTIAN AND MISSIONARY ALLIANCE ORGANIZATION OF BOONVILLE ONEI", "city": "BOONVILLE", "state": "NY", "zip": "13309-4842", "ntee": "", "ruling": "198206", "deductibility": "1", "assets": 0, "income": 0, "revenue": 0}], "STECZKO": [{"ein": "166043160", "name": "FRANK J STECZKO POST INC", "city": "ROME", "state": "NY", "zip": "13440-6627", "ntee": "", "ruling": "000000", "deductibility": "2", "assets": 279461, "income": 44810, "revenue": 26956}], "WINSPEAR": [{"ein": "166051669", "name": "ROBERT V WINSPEAR UW FBO SALVATION ARMY & BLIND ASSOCIATION", "city": "BUFFALO", "state": "NY", "zip": "14240-1504", "ntee": "", "ruling": "000000", "deductibility": "0", "assets": 2699275, "income": 765574, "revenue": 204887}], "NYSW": [{"ein": "166092497", "name": "CNYPWW CHAPTER OF NYSW INC", "city": "SYRACUSE", "state": "NY", "zip": "13204-2509", "ntee": "", "ruling": "198212", "deductibility": "2", "assets": 0, "income": 0, "revenue": 0}], "TZADAK": [{"ein": "200611792", "name": "CONGREGATION KOLLEL TZEMACH TZADAK", "city": "BROOKLYN", "state": "NY", "zip": "11211-7350", "ntee": "X30", "ruling": "200404", "deductibility": "1", "assets": 0, "income": 0, "revenue": 0}], "TZFAT": [{"ein": "201459670", "name": "TALMUD TORA TZFAT INC", "city": "BROOKLYN", "state": "NY", "zip": "11219-2109", "ntee": "X30", "ruling": "200506", "deductibility": "1", "assets": 480898, "income": 136747, "revenue": 136747}, {"ein": "271034733", "name": "AMERICAN FRIENDS OF YESHIVA CHABAD TZFAT INC", "city": "BROOKLYN", "state": "NY", "zip": "11213-3502", "ntee": "T19", "ruling": "201406", "deductibility": "1", "assets": 6293, "income": 67800, "revenue": 67800}, {"ein": "331366481", "name": "NER TZFAT INC", "city": "BROOKLYN", "state": "NY", "zip": "11206-7544", "ntee": "X30", "ruling": "202506", "deductibility": "1", "assets": 0, "income": 0, "revenue": 0}, {"ein": "922219652", "name": "AMERICAN FRIENDS OF MAMLECHET TORAH VACHESED ABIR YAKOV TZFAT INC", "city": "ALBANY", "state": "NY", "zip": "12207-1717", "ntee": "B19", "ruling": "202306", "deductibility": "1", "assets": 20260, "income": 100970, "revenue": 100970}], "STUPID": [{"ein": "202027782", "name": "STUPID CANCER INC", "city": "NEW YORK", "state": "NY", "zip": "10013-3063", "ntee": "G30", "ruling": "200506", "deductibility": "1", "assets": 2341702, "income": 1433559, "revenue": 1432403}], "SUMITOMO": [{"ein": "202103634", "name": "SUMITOMO CORPORATION OF AMERICA FOUNDATION", "city": "NEW YORK", "state": "NY", "zip": "10017-6232", "ntee": "T31", "ruling": "200503", "deductibility": "1", "assets": 10768644, "income": 541167, "revenue": 0}], "PARNES": [{"ein": "202105944", "name": "ARONI & CHANI PARNES CHARITABLE FOUNDATION INC", "city": "LAWRENCE", "state": "NY", "zip": "11559-1815", "ntee": "T22", "ruling": "200904", "deductibility": "1", "assets": 1, "income": 1, "revenue": 0}, {"ein": "884411665", "name": "ARI AND RUTHY PARNES CHARITABLE FOUNDATION INC", "city": "BROOKLYN", "state": "NY", "zip": "11210-2820", "ntee": "T22", "ruling": "202506", "deductibility": "1", "assets": 795000, "income": 795000, "revenue": 0}], "TCHEREPNINE": [{"ein": "204431741", "name": "TCHEREPNINE FOUNDATION INC", "city": "BROOKLYN", "state": "NY", "zip": "11221-0405", "ntee": "T22", "ruling": "200605", "deductibility": "1", "assets": 65686, "income": 151860, "revenue": 0}], "SKRIBBLERS": [{"ein": "204443574", "name": "SKRIBBLERS MAGAZINE INC", "city": "CLIFTON PARK", "state": "NY", "zip": "12065-0286", "ntee": "O50", "ruling": "200605", "deductibility": "1", "assets": 0, "income": 0, "revenue": 0}], "ROTUNNO": [{"ein": "205075596", "name": "TERESA AND ALBERT ROTUNNO FAMILYFOUNDATION INC", "city": "POUGHKEEPSIE", "state": "NY", "zip": "12601-0999", "ntee": "T20", "ruling": "200609", "deductibility": "1", "assets": 1650535, "income": 526314, "revenue": 0}], "FULANI": [{"ein": "208094786", "name": "WORLD FULANI ORGANIZATION INC", "city": "BRONX", "state": "NY", "zip": "10457-3313", "ntee": "T990", "ruling": "200709", "deductibility": "1", "assets": 0, "income": 0, "revenue": 0}], "PATRONG": [{"ein": "222626028", "name": "CHANA LEAH & HERMAN L LIBERMAN FREE LOAN FUND UNDER PATRONG S LEBERMAN", "city": "BROOKLYN", "state": "NY", "zip": "11234-2620", "ntee": "", "ruling": "198511", "deductibility": "1", "assets": 20176, "income": 8, "revenue": 0}], "STANBACK": [{"ein": "237188213", "name": "MAXWELL LIDE STANBACK FDN INC", "city": "LARCHMONT", "state": "NY", "zip": "10538-1520", "ntee": "", "ruling": "197208", "deductibility": "1", "assets": 1042, "income": 1, "revenue": 0}], "HYSTERIC": [{"ein": "237250654", "name": "ONTOLOGICAL-HYSTERIC THEATRE INC", "city": "NEW YORK", "state": "NY", "zip": "10013-2260", "ntee": "A650", "ruling": "197301", "deductibility": "1", "assets": 9830, "income": 1, "revenue": 0}], "CHUG": [{"ein": "237271072", "name": "YESHIVA CHUG CHASAM SOFER MACHNE AVROHOM", "city": "SPRING VALLEY", "state": "NY", "zip": "10977-1931", "ntee": "", "ruling": "197301", "deductibility": "1", "assets": 0, "income": 0, "revenue": 0}, {"ein": "510190221", "name": "YESHIVA CHUG CHASAM SOFER", "city": "BROOKLYN", "state": "NY", "zip": "11211-8105", "ntee": "", "ruling": "197605", "deductibility": "1", "assets": 0, "income": 0, "revenue": 0}], "WESTKILL": [{"ein": "237361012", "name": "LEXINGTON WESTKILL UNITED METHODIST CHURCH", "city": "LEXINGTON", "state": "NY", "zip": "12452-0183", "ntee": "", "ruling": "197404", "deductibility": "1", "assets": 0, "income": 0, "revenue": 0}], "FARTHEST": [{"ein": "237539617", "name": "ASSOCIATION OF CAMPS FARTHEST OUT INC", "city": "HAMBURG", "state": "NY", "zip": "14075-5259", "ntee": "", "ruling": "197209", "deductibility": "1", "assets": 0, "income": 0, "revenue": 0}, {"ein": "237539629", "name": "ASSOCIATION OF CAMPS FARTHEST OUT INC", "city": "JAMESTOWN", "state": "NY", "zip": "14701-2140", "ntee": "", "ruling": "197209", "deductibility": "1", "assets": 0, "income": 0, "revenue": 0}, {"ein": "363891008", "name": "ASSOCIATION OF CAMPS FARTHEST OUT INC", "city": "GENESEO", "state": "NY", "zip": "14454-9510", "ntee": "", "ruling": "195904", "deductibility": "1", "assets": 0, "income": 0, "revenue": 0}], "DURSO": [{"ein": "260344577", "name": "JOSEPH P DURSO FOUNDATION FOR IMPROVED COMMUNICATION IN MEDICINE", "city": "WANTAGH", "state": "NY", "zip": "11793-2859", "ntee": "E19", "ruling": "200709", "deductibility": "1", "assets": 0, "income": 0, "revenue": 0}, {"ein": "272957151", "name": "THERESA DURSO FOUNDATION", "city": "PATCHOGUE", "state": "NY", "zip": "11772-1730", "ntee": "P12", "ruling": "201201", "deductibility": "1", "assets": 0, "income": 0, "revenue": 0}], "PS235": [{"ein": "261690657", "name": "LENOX-PS235 PTA INC", "city": "BROOKLYN", "state": "NY", "zip": "11203-2021", "ntee": "B94", "ruling": "202211", "deductibility": "1", "assets": 0, "income": 0, "revenue": 0}], "WELLO": [{"ein": "261751484", "name": "WELLO", "city": "COLLEGE POINT", "state": "NY", "zip": "11356-0000", "ntee": "Q30", "ruling": "201403", "deductibility": "1", "assets": 0, "income": 0, "revenue": 0}], "AMERICN": [{"ein": "261981304", "name": "JORDANIAN AMERICN ASSOCIATION OF N Y INC", "city": "BELLMORE", "state": "NY", "zip": "11710-0000", "ntee": "N50", "ruling": "200805", "deductibility": "2", "assets": 0, "income": 0, "revenue": 0}], "BABBIE": [{"ein": "271636851", "name": "BABBIE RURAL & FARM LEARNING MUSEUM", "city": "PERU", "state": "NY", "zip": "12972-4644", "ntee": "A50", "ruling": "201109", "deductibility": "1", "assets": 68531, "income": 44252, "revenue": 44252}], "GRANNY": [{"ein": "272621507", "name": "GRANNY B & P FOUNDATION", "city": "NEW YORK", "state": "NY", "zip": "10019-4739", "ntee": "B82", "ruling": "201009", "deductibility": "1", "assets": 2717556, "income": 1103534, "revenue": 0}], "373R": [{"ein": "300632458", "name": "PS 373R PARENT TEACHER ASSOCIATION", "city": "STATEN ISLAND", "state": "NY", "zip": "10301-2107", "ntee": "B12", "ruling": "201805", "deductibility": "1", "assets": 0, "income": 0, "revenue": 0}], "MACGUIRE": [{"ein": "311627048", "name": "EDITH W MACGUIRE CHARITABLE TRUST", "city": "NEW YORK", "state": "NY", "zip": "10013-2362", "ntee": "T20", "ruling": "199901", "deductibility": "1", "assets": 9510353, "income": 1807038, "revenue": 0}], "MBANO": [{"ein": "311743324", "name": "MBANO NATIONAL ASSEMBLY INC", "city": "NEW ROCHELLE", "state": "NY", "zip": "10801-1611", "ntee": "T30", "ruling": "200203", "deductibility": "1", "assets": 140674, "income": 101607, "revenue": 101607}], "NEWPOWER": [{"ein": "331034200", "name": "MONROE NEWPOWER CORPORATION", "city": "ROCHESTER", "state": "NY", "zip": "14614-0000", "ntee": "C35", "ruling": "200703", "deductibility": "1", "assets": 0, "income": 0, "revenue": 0}], "FEETS": [{"ein": "331275078", "name": "FEETS FOR KIDS INC", "city": "JAMAICA", "state": "NY", "zip": "11435-5606", "ntee": "O99", "ruling": "202501", "deductibility": "1", "assets": 0, "income": 0, "revenue": 0}], "ICEFEST": [{"ein": "332449508", "name": "ADIRONDACK QUEER ICEFEST INC", "city": "DELMAR", "state": "NY", "zip": "12054-2117", "ntee": "N01", "ruling": "202501", "deductibility": "1", "assets": 0, "income": 0, "revenue": 0}], "SENDRA": [{"ein": "332834362", "name": "CONG EITZ EFRAIM SENDRA", "city": "BROOKLYN", "state": "NY", "zip": "11249-7911", "ntee": "X30", "ruling": "202507", "deductibility": "1", "assets": 0, "income": 0, "revenue": 0}], "POLITZER": [{"ein": "362941057", "name": "POLITZER SOCIETY", "city": "NEW YORK", "state": "NY", "zip": "10019-8010", "ntee": "G03", "ruling": "201909", "deductibility": "1", "assets": 0, "income": 0, "revenue": 0}], "NAILS": [{"ein": "364562815", "name": "HARD AS NAILS MINISTRIES INC", "city": "LIVERPOOL", "state": "NY", "zip": "13088-6102", "ntee": "X20", "ruling": "200511", "deductibility": "1", "assets": 942731, "income": 777160, "revenue": 777160}, {"ein": "923874256", "name": "MUSEUM OF NAILS FOUNDATION", "city": "NEW YORK", "state": "NY", "zip": "10022-3726", "ntee": "A25", "ruling": "202507", "deductibility": "1", "assets": 0, "income": 0, "revenue": 0}], "DAP": [{"ein": "371976599", "name": "DAP MEDIA EDUCATION AND MENTORING PROGRAM", "city": "BUFFALO", "state": "NY", "zip": "14211-1127", "ntee": "O51", "ruling": "202102", "deductibility": "1", "assets": 0, "income": 0, "revenue": 0}], "LELT": [{"ein": "453179626", "name": "LELT FOUNDATION INC", "city": "NEW YORK", "state": "NY", "zip": "10025-6188", "ntee": "Q33", "ruling": "201202", "deductibility": "1", "assets": 699400, "income": 390782, "revenue": 390782}], "WADUD": [{"ein": "460936070", "name": "MASJID AL WADUD", "city": "BRONX", "state": "NY", "zip": "10456-5742", "ntee": "X40", "ruling": "201407", "deductibility": "1", "assets": 8708, "income": 0, "revenue": 0}], "WEATHERED": [{"ein": "461350306", "name": "WORN & WEATHERED MOTORCYCLE CLUB INC", "city": "HOBART", "state": "NY", "zip": "13788-0133", "ntee": "P12", "ruling": "201503", "deductibility": "1", "assets": 0, "income": 0, "revenue": 0}], "LOMED": [{"ein": "463579049", "name": "CONGREGATION LOMED", "city": "SUFFERN", "state": "NY", "zip": "10901-2202", "ntee": "X20", "ruling": "201408", "deductibility": "1", "assets": 0, "income": 0, "revenue": 0}], "SURULUNA": [{"ein": "464072158", "name": "SURULUNA ANIMAL RESCUE INC", "city": "MORRIS", "state": "NY", "zip": "13808-2135", "ntee": "D20", "ruling": "201407", "deductibility": "1", "assets": 418124, "income": 144193, "revenue": 143547}], "IHEALTH": [{"ein": "464571592", "name": "IHEALTH INC", "city": "NEW YORK", "state": "NY", "zip": "10001-2201", "ntee": "E80", "ruling": "201507", "deductibility": "1", "assets": 791000, "income": 180709, "revenue": 180709}, {"ein": "931567099", "name": "IHEALTH AND WELLNESS FOUNDATION INC", "city": "STATEN ISLAND", "state": "NY", "zip": "10306-4658", "ntee": "E86", "ruling": "202309", "deductibility": "1", "assets": 0, "income": 0, "revenue": 0}], "RVER": [{"ein": "464709770", "name": "RVER GROUP INC", "city": "HOUGHTON", "state": "NY", "zip": "14744-8714", "ntee": "S20", "ruling": "202402", "deductibility": "1", "assets": 0, "income": 0, "revenue": 0}], "WALLEELAN": [{"ein": "464970811", "name": "WALLEELAN INC", "city": "BRONX", "state": "NY", "zip": "10460-4925", "ntee": "Q33", "ruling": "201606", "deductibility": "1", "assets": 0, "income": 0, "revenue": 0}], "LADYS": [{"ein": "472241652", "name": "LADYS LEGACY EQUINE RESCUE", "city": "POUGHQUAG", "state": "NY", "zip": "12570-5782", "ntee": "D60", "ruling": "201502", "deductibility": "1", "assets": 0, "income": 0, "revenue": 0}], "SHOAVEI": [{"ein": "472438404", "name": "SHOAVEI MAYIM", "city": "SUFFERN", "state": "NY", "zip": "10901-4000", "ntee": "X30", "ruling": "201503", "deductibility": "1", "assets": 0, "income": 0, "revenue": 0}], "HASIDIC": [{"ein": "472603071", "name": "MUSEUM OF HASIDIC LIFE", "city": "BROOKLYN", "state": "NY", "zip": "11205-1817", "ntee": "A50", "ruling": "202202", "deductibility": "1", "assets": 0, "income": 0, "revenue": 0}], "YMATH": [{"ein": "474360803", "name": "YMATH A NJ NONPROFIT CORPORATION", "city": "WARWICK", "state": "NY", "zip": "10990-2261", "ntee": "B90", "ruling": "201809", "deductibility": "1", "assets": 0, "income": 0, "revenue": 0}], "EDUAMISTAD": [{"ein": "474452336", "name": "EDUAMISTAD ECUADOR INC", "city": "ALBERTSON", "state": "NY", "zip": "11507-1405", "ntee": "Q30", "ruling": "202305", "deductibility": "1", "assets": 0, "income": 0, "revenue": 0}], "ODYSSEUS": [{"ein": "475165703", "name": "ODYSSEUS WORLD FEDERATION OF CEPHALONIAN & ITHACIAN SOCIETIES", "city": "GREENPORT", "state": "NY", "zip": "11944-0000", "ntee": "A23", "ruling": "201607", "deductibility": "1", "assets": 0, "income": 0, "revenue": 0}], "CHRISTIE": [{"ein": "510285041", "name": "CHRISTIE MUSKOKA ASSOCIATION", "city": "BUFFALO", "state": "NY", "zip": "14223-1329", "ntee": "", "ruling": "198703", "deductibility": "2", "assets": 84377, "income": 65848, "revenue": 65848}, {"ein": "843281141", "name": "CHRISTIE AND BEN JACOBS FAMILY FOUNDATION INC", "city": "NEW YORK", "state": "NY", "zip": "10167-0000", "ntee": "T22", "ruling": "202003", "deductibility": "1", "assets": 1821825, "income": 504570, "revenue": 0}], "MICROSURGERY": [{"ein": "541632423", "name": "INTERNATIONAL INSTITUTE OF RECONSTRUCTIVE MICROSURGERY LTD", "city": "NEW YORK", "state": "NY", "zip": "10019-1127", "ntee": "H9BZ", "ruling": "199301", "deductibility": "1", "assets": 24772, "income": 20000, "revenue": 20000}], "TRAPCAGE": [{"ein": "562407984", "name": "MADAME BIRDEE TRAPCAGE", "city": "W HEMPSTEAD", "state": "NY", "zip": "11552-0241", "ntee": "D20", "ruling": "200410", "deductibility": "1", "assets": 0, "income": 0, "revenue": 0}], "LAVIE": [{"ein": "651214380", "name": "CHILDREN OF LAVIE", "city": "NEW YORK", "state": "NY", "zip": "10027-3305", "ntee": "B82", "ruling": "200603", "deductibility": "1", "assets": 0, "income": 0, "revenue": 0}, {"ein": "810841301", "name": "LAVIE SHTERNA POPACK FAMILY FOUNDATION", "city": "BROOKLYN", "state": "NY", "zip": "11210-2923", "ntee": "T90", "ruling": "202406", "deductibility": "1", "assets": 243997, "income": 552322, "revenue": 0}], "NANDKUMAR": [{"ein": "800875728", "name": "UMESH NANDKUMAR EMPOWERMENT ASSOCIATION", "city": "RICHMOND HILL", "state": "NY", "zip": "11418-3124", "ntee": "B60", "ruling": "201312", "deductibility": "1", "assets": 0, "income": 0, "revenue": 0}], "AREPA": [{"ein": "800937263", "name": "AREPA INC", "city": "NEW YORK", "state": "NY", "zip": "10065-7705", "ntee": "L99", "ruling": "201407", "deductibility": "2", "assets": 17277, "income": 6385, "revenue": 6385}], "POOLE": [{"ein": "810758479", "name": "POOLE FAMILY FOUNDATION INC", "city": "GARDEN CITY", "state": "NY", "zip": "11530-1551", "ntee": "T22", "ruling": "201605", "deductibility": "1", "assets": 1222204, "income": 308776, "revenue": 0}, {"ein": "854133377", "name": "THOMAS POOLE AND CHARLES SCOTT GRIESA CENTER FOUNDATION", "city": "BEACON", "state": "NY", "zip": "12508-2704", "ntee": "A61", "ruling": "202207", "deductibility": "1", "assets": 2669491, "income": 2424417, "revenue": 0}], "LOUBRADOU": [{"ein": "810900778", "name": "CENTRE LOUBRADOU FOUNDATION", "city": "NEW YORK", "state": "NY", "zip": "10022-2379", "ntee": "A25", "ruling": "202012", "deductibility": "1", "assets": 2468, "income": 0, "revenue": 0}], "BOOKMOBILE": [{"ein": "811451803", "name": "OSWEGO BOOKMOBILE INC", "city": "OSWEGO", "state": "NY", "zip": "13126-5405", "ntee": "O01", "ruling": "201703", "deductibility": "1", "assets": 177009, "income": 31504, "revenue": 31504}], "GOMES": [{"ein": "814595686", "name": "EKLUND GOMES FOUNDATION INC", "city": "NEW YORK", "state": "NY", "zip": "10003-1005", "ntee": "T30", "ruling": "201706", "deductibility": "1", "assets": 0, "income": 0, "revenue": 0}], "SUSTAINABLY": [{"ein": "823381937", "name": "DESIGNING TO LIVE SUSTAINABLY INC", "city": "LANCASTER", "state": "NY", "zip": "14086-0482", "ntee": "C05", "ruling": "201802", "deductibility": "1", "assets": 0, "income": 0, "revenue": 0}], "LEILI": [{"ein": "824184414", "name": "LEILI RASOULI & MARTIN SPIT FAMILY FOUNDATION INC", "city": "NEW YORK", "state": "NY", "zip": "10026-1809", "ntee": "B82", "ruling": "201810", "deductibility": "2", "assets": 827961, "income": 698626, "revenue": 0}], "TEDXDEERPARK": [{"ein": "824699277", "name": "TEDXDEERPARK", "city": "CENTRAL ISLIP", "state": "NY", "zip": "11722-1006", "ntee": "B99", "ruling": "202005", "deductibility": "1", "assets": 0, "income": 0, "revenue": 0}], "KUNDA": [{"ein": "825025681", "name": "BAJAHA KUNDA VILLAGE ASSOCIATION", "city": "BRONX", "state": "NY", "zip": "10456-3127", "ntee": "W12", "ruling": "202412", "deductibility": "1", "assets": 0, "income": 0, "revenue": 0}], "DEPAWSIT": [{"ein": "830807267", "name": "DEPAWSIT DOG PARK GROUP INC", "city": "DEPOSIT", "state": "NY", "zip": "13754-3430", "ntee": "D60", "ruling": "201806", "deductibility": "1", "assets": 0, "income": 0, "revenue": 0}], "ANNETTA": [{"ein": "830903510", "name": "ANNETTA MAMMY MAY LACRETTE FOUNDATION", "city": "WHEATLEY HTS", "state": "NY", "zip": "11798-1026", "ntee": "P40", "ruling": "202002", "deductibility": "1", "assets": 0, "income": 0, "revenue": 0}], "SILVANOS": [{"ein": "832148384", "name": "SILVANOS CHARITABLE SOCIETY INC", "city": "POMONA", "state": "NY", "zip": "10970-2647", "ntee": "P20", "ruling": "201904", "deductibility": "1", "assets": 0, "income": 0, "revenue": 0}], "PULLING": [{"ein": "832559990", "name": "MOHAWK VALLEY PRO PULLING LEAGUE CORP", "city": "SHARON SPGS", "state": "NY", "zip": "13459-2303", "ntee": "N60", "ruling": "201907", "deductibility": "1", "assets": 1685, "income": 58424, "revenue": 58424}], "NICKYS": [{"ein": "832704684", "name": "NICKYS GARDENS OF HOPE INC", "city": "NEW YORK", "state": "NY", "zip": "10021-5198", "ntee": "L24", "ruling": "202004", "deductibility": "1", "assets": 23019, "income": 17040, "revenue": 17040}], "GINO": [{"ein": "833327316", "name": "GINO MACCHIO FOUNDATION INC", "city": "LINDENHURST", "state": "NY", "zip": "11757-1025", "ntee": "F50", "ruling": "201907", "deductibility": "1", "assets": 224744, "income": 372318, "revenue": 344547}], "CES": [{"ein": "843779139", "name": "CES WORSHIP CENTER INC", "city": "MONTICELLO", "state": "NY", "zip": "12701-3663", "ntee": "X20", "ruling": "202109", "deductibility": "1", "assets": 0, "income": 0, "revenue": 0}, {"ein": "882313481", "name": "AMICAL-CES INC", "city": "UNIONDALE", "state": "NY", "zip": "11553-2610", "ntee": "B82", "ruling": "202209", "deductibility": "1", "assets": 0, "income": 0, "revenue": 0}], "BOIS": [{"ein": "844028962", "name": "W E B DU BOIS MUSEUM FOUNDATION", "city": "NEW YORK", "state": "NY", "zip": "10017-1307", "ntee": "A82", "ruling": "202010", "deductibility": "1", "assets": 1847171, "income": 585867, "revenue": 585867}], "PADL": [{"ein": "844333936", "name": "PADL LTD", "city": "NEW YORK", "state": "NY", "zip": "10019-4221", "ntee": "R12", "ruling": "202002", "deductibility": "1", "assets": 9326, "income": 43233, "revenue": 43233}], "BOBOV45": [{"ein": "844396225", "name": "KOLLEL IYUN BOBOV45", "city": "BROOKLYN", "state": "NY", "zip": "11219-3826", "ntee": "X30", "ruling": "202006", "deductibility": "1", "assets": 0, "income": 0, "revenue": 0}], "BURKHARDT": [{"ein": "847035322", "name": "MURPHY BURKHARDT FAMILY CHARITABLE FOUNDATION TR", "city": "BROOKLYN", "state": "NY", "zip": "11231-3708", "ntee": "T20", "ruling": "202106", "deductibility": "1", "assets": 1581451, "income": 1933347, "revenue": 0}], "P3ND3MIC": [{"ein": "853680198", "name": "P3ND3MIC CHALLENGE INC", "city": "BROOKLYN", "state": "NY", "zip": "11239-5725", "ntee": "T50", "ruling": "202102", "deductibility": "1", "assets": 17917, "income": 150, "revenue": 150}], "SKWERE": [{"ein": "861278303", "name": "CONG SKWERE WOODRIDGE", "city": "BROOKLYN", "state": "NY", "zip": "11219-2612", "ntee": "X30", "ruling": "202107", "deductibility": "1", "assets": 0, "income": 0, "revenue": 0}], "SHIVER": [{"ein": "863263038", "name": "SUSPEND THE SHIVER INC", "city": "YONKERS", "state": "NY", "zip": "10703-2101", "ntee": "", "ruling": "202108", "deductibility": "1", "assets": 0, "income": 0, "revenue": 0}], "CARROT": [{"ein": "871240702", "name": "CARROT FOUNDATION INC", "city": "SPRING VALLEY", "state": "NY", "zip": "10977-4744", "ntee": "A12", "ruling": "202201", "deductibility": "1", "assets": 49650, "income": 35800, "revenue": 0}], "LACHMEI": [{"ein": "871279722", "name": "LACHMEI MORDCHAI", "city": "BROOKLYN", "state": "NY", "zip": "11211-8112", "ntee": "X30", "ruling": "202203", "deductibility": "1", "assets": 0, "income": 0, "revenue": 0}], "JOHNSEN": [{"ein": "880570354", "name": "MAYA SPAULL JOHNSEN LEGACY FUND INC", "city": "ROCHESTER", "state": "NY", "zip": "14607-1913", "ntee": "T22", "ruling": "202307", "deductibility": "1", "assets": 68107, "income": 1104, "revenue": 0}], "FLORAPY": [{"ein": "881459454", "name": "FLORAPY INC", "city": "CAZENOVIA", "state": "NY", "zip": "13035-8717", "ntee": "P20", "ruling": "202204", "deductibility": "1", "assets": 0, "income": 0, "revenue": 0}], "RAYNE": [{"ein": "882418671", "name": "RAYNE REPLACING ALL YOUR NEGATIVE ENERGY INC", "city": "NEWBURGH", "state": "NY", "zip": "12550-7011", "ntee": "P99", "ruling": "202206", "deductibility": "1", "assets": 0, "income": 0, "revenue": 0}], "MYFI": [{"ein": "882825385", "name": "MYFI INC", "city": "NEW YORK", "state": "NY", "zip": "10024-3332", "ntee": "S43", "ruling": "202304", "deductibility": "1", "assets": 0, "income": 0, "revenue": 0}], "MAKENNA": [{"ein": "883434622", "name": "RAINBOWS FOR MAKENNA INC", "city": "MEDFORD", "state": "NY", "zip": "11763-4216", "ntee": "P99", "ruling": "202208", "deductibility": "1", "assets": 0, "income": 0, "revenue": 0}], "THERESIAN": [{"ein": "883672219", "name": "THERESIAN SISTERS", "city": "ELMHURST", "state": "NY", "zip": "11373-4639", "ntee": "", "ruling": "194603", "deductibility": "1", "assets": 0, "income": 0, "revenue": 0}], "BACALHAU": [{"ein": "900873900", "name": "ACADEMIA DO BACALHAU DE LONG ISLAND NEW YORK INC", "city": "MINEOLA", "state": "NY", "zip": "11501-3325", "ntee": "B12", "ruling": "201309", "deductibility": "1", "assets": 0, "income": 0, "revenue": 0}], "KDUSHAS": [{"ein": "922025798", "name": "CONGREATION KDUSHAS RATZ", "city": "SPRING VALLEY", "state": "NY", "zip": "10977-3848", "ntee": "X30", "ruling": "202306", "deductibility": "1", "assets": 0, "income": 0, "revenue": 0}], "PETRA180": [{"ein": "931373408", "name": "PETRA180 INC", "city": "SCOTIA", "state": "NY", "zip": "12302-4207", "ntee": "X20", "ruling": "202307", "deductibility": "1", "assets": 0, "income": 0, "revenue": 0}], "SILA": [{"ein": "933725160", "name": "SILA FOUNDATION INC", "city": "BROOKLYN", "state": "NY", "zip": "11203-1860", "ntee": "A25", "ruling": "202312", "deductibility": "1", "assets": 0, "income": 0, "revenue": 0}], "BICHON": [{"ein": "952591850", "name": "BICHON FRISE CLUB OF AMERICA INC", "city": "MASSAPEQUA", "state": "NY", "zip": "11758-7916", "ntee": "D60", "ruling": "200606", "deductibility": "2", "assets": 143210, "income": 50539, "revenue": 46855}], "VANITY": [{"ein": "991298971", "name": "VANITY BEAUTY TRAINING CENTER INC", "city": "BROOKLYN", "state": "NY", "zip": "11210-4215", "ntee": "J20", "ruling": "202402", "deductibility": "1", "assets": 0, "income": 0, "revenue": 0}], "TOSS": [{"ein": "993212819", "name": "TURNIP TOSS INC", "city": "BROOKLYN", "state": "NY", "zip": "11213-2676", "ntee": "N50", "ruling": "202412", "deductibility": "2", "assets": 0, "income": 0, "revenue": 0}], "SCUT": [{"ein": "994054052", "name": "SCUT ALUMNI USA ASSOCIATION INC", "city": "GREAT NECK", "state": "NY", "zip": "11021-4570", "ntee": "A03", "ruling": "202408", "deductibility": "1", "assets": 0, "income": 0, "revenue": 0}], "KLIMB": [{"ein": "994182238", "name": "KLIMB FOR KIDS SPORTS INC", "city": "BALLSTON SPA", "state": "NY", "zip": "12020-2356", "ntee": "N12", "ruling": "202408", "deductibility": "1", "assets": 0, "income": 0, "revenue": 0}], "PS175Q": [{"ein": "994950610", "name": "PARENTS ASSOCIATION OF PS175Q INC", "city": "REGO PARK", "state": "NY", "zip": "11374-3658", "ntee": "B94", "ruling": "202409", "deductibility": "1", "assets": 0, "income": 0, "revenue": 0}], "RST": [{"ein": "995130375", "name": "RST FUND INC", "city": "BROOKLYN", "state": "NY", "zip": "11218-1910", "ntee": "K35", "ruling": "202412", "deductibility": "1", "assets": 0, "income": 0, "revenue": 0}]}