{"MID": [{"ein": "010605816", "name": "NEW HORIZONS COMMUNITY CENTER OF MID-HUDSON VALLEY INC", "city": "WAPPINGERS FALLS", "state": "NY", "zip": "12590-6353", "ntee": "B20", "ruling": "200210", "deductibility": "1", "assets": 0, "income": 0, "revenue": 0}, {"ein": "020604718", "name": "MID-WAY MINISTRIES INCORPORATED", "city": "CANASERAGA", "state": "NY", "zip": "14822-0000", "ntee": "X200", "ruling": "200612", "deductibility": "1", "assets": 503, "income": 1, "revenue": 0}, {"ein": "030484445", "name": "MID-ISLAND BABE RUTH LEAGUE INC", "city": "STATEN ISLAND", "state": "NY", "zip": "10314-0176", "ntee": "N99", "ruling": "201407", "deductibility": "1", "assets": 121318, "income": 55286, "revenue": 55286}, {"ein": "061619893", "name": "MID-HUDSON HORSE TRAILS ASSOCIATION INC", "city": "GOSHEN", "state": "NY", "zip": "10924-5108", "ntee": "N32", "ruling": "201112", "deductibility": "1", "assets": 0, "income": 0, "revenue": 0}, {"ein": "111841899", "name": "MID-ISLAND Y JEWISH COMMUNITY CENTER INC", "city": "PLAINVIEW", "state": "NY", "zip": "11803-1325", "ntee": "P84", "ruling": "196304", "deductibility": "1", "assets": 14549005, "income": 17693148, "revenue": 17566926}, {"ein": "112419258", "name": "MID ISLAND BAPTIST TEMPLE C O REV BOB BADERTSCHER", "city": "ISLIP", "state": "NY", "zip": "11751-1024", "ntee": "", "ruling": "197706", "deductibility": "1", "assets": 0, "income": 0, "revenue": 0}, {"ein": "112622795", "name": "NAMI MID-HUDSON INC", "city": "POUGHKEEPSIE", "state": "NY", "zip": "12602-0787", "ntee": "", "ruling": "198409", "deductibility": "1", "assets": 320356, "income": 249532, "revenue": 249532}, {"ein": "113619820", "name": "MID-ISLAND CLUB NANBPWC INC", "city": "CENTRAL ISLIP", "state": "NY", "zip": "11722-0349", "ntee": "", "ruling": "199809", "deductibility": "0", "assets": 0, "income": 0, "revenue": 0}, {"ein": "131739837", "name": "MID WESTCHESTER ELKS", "city": "WHITE PLAINS", "state": "NY", "zip": "10602-8191", "ntee": "", "ruling": "195110", "deductibility": "1", "assets": 2977799, "income": 292051, "revenue": 140239}, {"ein": "133020597", "name": "MID-BRONX COUNCIL SERVICES INC", "city": "BRONX", "state": "NY", "zip": "10451-2746", "ntee": "P200", "ruling": "198005", "deductibility": "1", "assets": 0, "income": 0, "revenue": 0}, {"ein": "133158691", "name": "MID-HUDSON ASSOCIATION OF CHIEFS OF POLICE INC", "city": "POUGHKEEPSIE", "state": "NY", "zip": "12601-0622", "ntee": "M03", "ruling": "201504", "deductibility": "2", "assets": 0, "income": 0, "revenue": 0}, {"ein": "133585407", "name": "WESTCHESTER-MID-HUDSON CHAPTER THE AMERICAN INST OF SCHOL FUND INC", "city": "KATONAH", "state": "NY", "zip": "10536-0611", "ntee": "", "ruling": "199307", "deductibility": "1", "assets": 36333, "income": 140918, "revenue": 0}, {"ein": "133595703", "name": "MID-ISLAND ROTARY CLUB FOUNDATION INC", "city": "STATEN ISLAND", "state": "NY", "zip": "10306-3004", "ntee": "Z99Z", "ruling": "199108", "deductibility": "1", "assets": 253840, "income": 70397, "revenue": 33999}, {"ein": "133612428", "name": "ISLAMIC SOCIETY OF MID-MANHATTAN", "city": "NEW YORK", "state": "NY", "zip": "10022-4513", "ntee": "", "ruling": "199112", "deductibility": "1", "assets": 0, "income": 0, "revenue": 0}, {"ein": "133617061", "name": "JCC OF MID WESTCHESTER INC", "city": "SCARSDALE", "state": "NY", "zip": "10583-6834", "ntee": "P280", "ruling": "199208", "deductibility": "1", "assets": 13061665, "income": 5577843, "revenue": 5522710}, {"ein": "133648961", "name": "MID-MANHATTAN PERFORMING ARTS FOUNDATION INC", "city": "NEW YORK", "state": "NY", "zip": "10022-6814", "ntee": "A68", "ruling": "201604", "deductibility": "1", "assets": 0, "income": 0, "revenue": 0}, {"ein": "133666347", "name": "JCC OF MID-WESTCHESTER INC", "city": "SCARSDALE", "state": "NY", "zip": "10583-6834", "ntee": "P27Z", "ruling": "199210", "deductibility": "1", "assets": 2053208, "income": 8882738, "revenue": 8856547}, {"ein": "133854137", "name": "MID-BRONX CCRP EARLY CHILDHOOD CENTER INC", "city": "BRONX", "state": "NY", "zip": "10452-9001", "ntee": "P33Z", "ruling": "199810", "deductibility": "1", "assets": 5571285, "income": 12393594, "revenue": 12393594}, {"ein": "134171958", "name": "EAST MID-MANHATTAN DISTRICT MANAGEMENT ASSOCIATION INC", "city": "NEW YORK", "state": "NY", "zip": "10022-6225", "ntee": "W99", "ruling": "200206", "deductibility": "1", "assets": 4376222, "income": 3623897, "revenue": 3623897}, {"ein": "141395427", "name": "MID HUDSON WORKSHOP FOR THE DISABLED INC", "city": "POUGHKEEPSIE", "state": "NY", "zip": "12601-1357", "ntee": "J300", "ruling": "195008", "deductibility": "1", "assets": 1971460, "income": 1221513, "revenue": 897981}, {"ein": "141490487", "name": "MID HUDSON PATTERN FOR PROGRESS INC", "city": "NEWBURGH", "state": "NY", "zip": "12551-0425", "ntee": "", "ruling": "196601", "deductibility": "1", "assets": 940478, "income": 903127, "revenue": 867184}, {"ein": "141578511", "name": "MID-HUDSON CAMERATA CHORALE INC", "city": "POUGHKEEPSIE", "state": "NY", "zip": "12601-4612", "ntee": "", "ruling": "198501", "deductibility": "1", "assets": 0, "income": 0, "revenue": 0}, {"ein": "141579975", "name": "MID HUDSON CHINESE CHRISTIAN FELLOWSHIP", "city": "WAPPINGERS FL", "state": "NY", "zip": "12590-4514", "ntee": "X21", "ruling": "197610", "deductibility": "1", "assets": 0, "income": 0, "revenue": 0}, {"ein": "141611893", "name": "MID HUDSON SIKH CULTURAL SOCIETY NC NY", "city": "FISHKILL", "state": "NY", "zip": "12524-0123", "ntee": "X20", "ruling": "200404", "deductibility": "1", "assets": 0, "income": 0, "revenue": 0}, {"ein": "141627616", "name": "MID HUDSON WOMENS CHORUS", "city": "STONE RIDGE", "state": "NY", "zip": "12484-5115", "ntee": "", "ruling": "198202", "deductibility": "1", "assets": 0, "income": 0, "revenue": 0}, {"ein": "141645523", "name": "MID-HUDSON SCHOOL STUDY COUNCIL", "city": "NEWBURGH", "state": "NY", "zip": "12550-3412", "ntee": "", "ruling": "199801", "deductibility": "2", "assets": 168682, "income": 335702, "revenue": 335702}, {"ein": "141686683", "name": "MID HUDSON VALLEY CHAPTER OF SOCIETY FOR HUMAN RESOURCE", "city": "GOSHEN", "state": "NY", "zip": "10924-0853", "ntee": "", "ruling": "199301", "deductibility": "2", "assets": 0, "income": 0, "revenue": 0}, {"ein": "141702335", "name": "CHABAD LUBAVITCH OF MID-HUDSON VALLEY", "city": "POUGHKEEPSIE", "state": "NY", "zip": "12603-5450", "ntee": "", "ruling": "199106", "deductibility": "1", "assets": 0, "income": 0, "revenue": 0}, {"ein": "141716610", "name": "MID-HUDSON VALLEY MORTGAGE BANKERS ASSOCIATION INC", "city": "POUGHKEEPSIE", "state": "NY", "zip": "12601-0667", "ntee": "S41", "ruling": "202410", "deductibility": "2", "assets": 0, "income": 0, "revenue": 0}, {"ein": "141721977", "name": "THE ARC MID-HUDSON FOUNDATION", "city": "KINGSTON", "state": "NY", "zip": "12401-2138", "ntee": "", "ruling": "198912", "deductibility": "1", "assets": 1524175, "income": 329677, "revenue": 287476}, {"ein": "141785594", "name": "MID HUDSON SOCIAL STUDIES COUNCIL", "city": "WASHINGTONVLE", "state": "NY", "zip": "10992-0563", "ntee": "B03", "ruling": "202311", "deductibility": "1", "assets": 0, "income": 0, "revenue": 0}, {"ein": "141786407", "name": "MID-HUDSON COMPUTER USER GROUP INC", "city": "KINGSTON", "state": "NY", "zip": "12401-1922", "ntee": "B99", "ruling": "199607", "deductibility": "1", "assets": 0, "income": 0, "revenue": 0}, {"ein": "141790169", "name": "MID HUDSON VEGETARIAN SOCIETY INC", "city": "RHINEBECK", "state": "NY", "zip": "12572-1602", "ntee": "E80", "ruling": "199801", "deductibility": "1", "assets": 0, "income": 0, "revenue": 0}, {"ein": "141791535", "name": "MID-HUDSON FAMILY HEALTH FOUNDATION", "city": "NEW YORK", "state": "NY", "zip": "10035-1217", "ntee": "T22I", "ruling": "199704", "deductibility": "1", "assets": 43098, "income": 546, "revenue": 546}, {"ein": "141812018", "name": "MID-COUNTY ROD & GUN CLUB INC", "city": "LAGRANGEVILLE", "state": "NY", "zip": "12540-5330", "ntee": "N50", "ruling": "200002", "deductibility": "2", "assets": 1074457, "income": 286954, "revenue": 97920}, {"ein": "141819754", "name": "MID-HUDSON HUAXIA CHINESE SCHOOL INC", "city": "HOPEWELL JCT", "state": "NY", "zip": "12533-0611", "ntee": "B60", "ruling": "200009", "deductibility": "1", "assets": 47241, "income": 13110, "revenue": 13110}, {"ein": "141822082", "name": "MID-HUDSON CHINESE LANGUAGE CENTER LTD", "city": "WAPPINGERS FL", "state": "NY", "zip": "12590-0023", "ntee": "B28", "ruling": "200304", "deductibility": "1", "assets": 0, "income": 0, "revenue": 0}, {"ein": "146031114", "name": "MID HUDSON SCHOOL BOY ROWING INC", "city": "POUGHKEEPSIE", "state": "NY", "zip": "12602-0683", "ntee": "N40", "ruling": "195410", "deductibility": "1", "assets": 0, "income": 0, "revenue": 0}, {"ein": "146032856", "name": "MID-HUDSON SCHOLARSHIP FUND INC", "city": "GARDINER", "state": "NY", "zip": "12525-5308", "ntee": "", "ruling": "198207", "deductibility": "1", "assets": 0, "income": 0, "revenue": 0}, {"ein": "146035153", "name": "ARTS MID-HUDSON INC", "city": "POUGHKEEPSIE", "state": "NY", "zip": "12603-6445", "ntee": "A25", "ruling": "200407", "deductibility": "1", "assets": 855232, "income": 1210417, "revenue": 1173528}, {"ein": "150578598", "name": "LEGAL AID SOCIETY OF MID NEW YORK INC", "city": "UTICA", "state": "NY", "zip": "13501-2202", "ntee": "I80Z", "ruling": "197504", "deductibility": "1", "assets": 7439955, "income": 13272122, "revenue": 13272122}, {"ein": "150617996", "name": "MID-YORK LIBRARY SYSTEM", "city": "UTICA", "state": "NY", "zip": "13502-5395", "ntee": "", "ruling": "196207", "deductibility": "0", "assets": 5965708, "income": 2908471, "revenue": 2746940}, {"ein": "160998159", "name": "UNITED WAY OF MID RURAL NEW YORK INC", "city": "NORWICH", "state": "NY", "zip": "13815-1362", "ntee": "T70", "ruling": "195602", "deductibility": "1", "assets": 2735360, "income": 812041, "revenue": 654278}, {"ein": "161017709", "name": "MID-ERIE MENTAL HEALTH SERVICES INC", "city": "CHEEKTOWAGA", "state": "NY", "zip": "14225-4985", "ntee": "", "ruling": "197403", "deductibility": "1", "assets": 13128084, "income": 21171354, "revenue": 21171354}, {"ein": "161079834", "name": "MID YORK SENIOR HOMES INC", "city": "HAMILTON", "state": "NY", "zip": "13346-1131", "ntee": "", "ruling": "197706", "deductibility": "1", "assets": 1669535, "income": 688773, "revenue": 688773}, {"ein": "161378925", "name": "MID-YORK FOUNDATION", "city": "HAMILTON", "state": "NY", "zip": "13346-0505", "ntee": "", "ruling": "199209", "deductibility": "1", "assets": 1232135, "income": 306694, "revenue": 0}, {"ein": "201730001", "name": "MID-ISLAND CHURCH OF CHRIST", "city": "RONKONKOMA", "state": "NY", "zip": "11779-6111", "ntee": "X20", "ruling": "200610", "deductibility": "1", "assets": 0, "income": 0, "revenue": 0}, {"ein": "205253760", "name": "CHABAD OF UPPER MID NASSAU INC", "city": "OYSTER BAY", "state": "NY", "zip": "11771-3613", "ntee": "X30", "ruling": "200806", "deductibility": "1", "assets": 0, "income": 0, "revenue": 0}, {"ein": "205395141", "name": "MID-HUDSON LUMBER DEALERS ASSOC INC", "city": "RENSSELAER", "state": "NY", "zip": "12144-8419", "ntee": "S41", "ruling": "200704", "deductibility": "2", "assets": 0, "income": 0, "revenue": 0}, {"ein": "205722558", "name": "MID HUDSON KENNEL ASSOCIATION LTD", "city": "PINE PLAINS", "state": "NY", "zip": "12567-5247", "ntee": "D61", "ruling": "200812", "deductibility": "2", "assets": 41128, "income": 60118, "revenue": 60118}, {"ein": "222171725", "name": "MID WEST EVANGELISTIC ASSOCIATION INC C O ELIZABETH BIXBY", "city": "JAMESTOWN", "state": "NY", "zip": "14701-7052", "ntee": "", "ruling": "197709", "deductibility": "1", "assets": 0, "income": 0, "revenue": 0}, {"ein": "222266010", "name": "MID-UTICA NEIGHBORHOOD PRESERVATION CORPORATION", "city": "UTICA", "state": "NY", "zip": "13501-3919", "ntee": "", "ruling": "197902", "deductibility": "1", "assets": 10754, "income": 21221, "revenue": 21221}, {"ein": "222313195", "name": "MID-ATLANTIC ASSOCIATION OF MUSEUMS", "city": "COOPERSTOWN", "state": "NY", "zip": "13326-0004", "ntee": "", "ruling": "198009", "deductibility": "1", "assets": 139654, "income": 449290, "revenue": 449290}, {"ein": "222350541", "name": "MID HUDSON ANIMAL AID INC", "city": "BEACON", "state": "NY", "zip": "12508-4031", "ntee": "D200", "ruling": "198204", "deductibility": "1", "assets": 255857, "income": 295947, "revenue": 293286}, {"ein": "222351441", "name": "MID-HUDSON IVY FOUNDATION INC", "city": "POUGHKEEPSIE", "state": "NY", "zip": "12601-0848", "ntee": "", "ruling": "198705", "deductibility": "1", "assets": 0, "income": 0, "revenue": 0}, {"ein": "222356159", "name": "MID-HUDSON KOREAN UNITED METHODIST CHURCH", "city": "POUGHKEEPSIE", "state": "NY", "zip": "12603-6037", "ntee": "", "ruling": "198107", "deductibility": "1", "assets": 0, "income": 0, "revenue": 0}, {"ein": "222512355", "name": "MID-HUDSON ROAD RUNNERS CLUB INC", "city": "LAGRANGEVILLE", "state": "NY", "zip": "12540-0157", "ntee": "N20", "ruling": "201606", "deductibility": "1", "assets": 130433, "income": 115689, "revenue": 115689}, {"ein": "222521056", "name": "MID-HUDSON INTERGROUP", "city": "WOODSTOCK", "state": "NY", "zip": "12498-1156", "ntee": "F195", "ruling": "200006", "deductibility": "1", "assets": 0, "income": 0, "revenue": 0}, {"ein": "222526906", "name": "MID-HUDSON HORSESHOE PITCHERS ASSOCIATION", "city": "SALISBURY MLS", "state": "NY", "zip": "12577-5028", "ntee": "", "ruling": "198709", "deductibility": "2", "assets": 0, "income": 0, "revenue": 0}, {"ein": "222549806", "name": "MID-HUDSON HUMAN RESOURCES ASSOC", "city": "POUGHKEEPSIE", "state": "NY", "zip": "12601-5468", "ntee": "", "ruling": "198503", "deductibility": "2", "assets": 0, "income": 0, "revenue": 0}, {"ein": "223021355", "name": "MID-HUDSON CHILDRENS MUSEUM", "city": "POUGHKEEPSIE", "state": "NY", "zip": "12601-1720", "ntee": "A520", "ruling": "199402", "deductibility": "1", "assets": 3765904, "income": 1137504, "revenue": 1137504}, {"ein": "223138772", "name": "MID YORK CONCERT BAND", "city": "NORWICH", "state": "NY", "zip": "13815-3417", "ntee": "", "ruling": "199111", "deductibility": "1", "assets": 0, "income": 0, "revenue": 0}, {"ein": "223477436", "name": "MID-HUDSON PSYCHIATRIC SOCIETY INC", "city": "POUGHKEEPSIE", "state": "NY", "zip": "12603-1341", "ntee": "", "ruling": "199702", "deductibility": "2", "assets": 6156, "income": 7385, "revenue": 7385}, {"ein": "237057530", "name": "MID-HUDSON READING COUNCIL", "city": "FISHKILL", "state": "NY", "zip": "12524-1140", "ntee": "B03", "ruling": "201912", "deductibility": "1", "assets": 0, "income": 0, "revenue": 0}, {"ein": "237354073", "name": "MID-BRONX SENIOR CITIZENS COUNCIL INC", "city": "BRONX", "state": "NY", "zip": "10451-2746", "ntee": "", "ruling": "197305", "deductibility": "1", "assets": 14676624, "income": 7141054, "revenue": 6771909}, {"ein": "237363423", "name": "MID-BRONX HOUSING DEVELOPMENT FUND", "city": "BRONX", "state": "NY", "zip": "10451-2746", "ntee": "", "ruling": "197408", "deductibility": "1", "assets": 6640249, "income": 3611911, "revenue": 3611911}, {"ein": "237390193", "name": "MID-HUDSON BICYCLE CLUB INC", "city": "BILLINGS", "state": "NY", "zip": "12510-0056", "ntee": "N99", "ruling": "201406", "deductibility": "2", "assets": 0, "income": 0, "revenue": 0}, {"ein": "260005667", "name": "SALT CITY MID-WINTER ROUNDUP", "city": "MANLIUS", "state": "NY", "zip": "13104-0007", "ntee": "F22", "ruling": "200806", "deductibility": "1", "assets": 0, "income": 0, "revenue": 0}, {"ein": "260694439", "name": "MID-HUDSON LOVE IN THE NAME OFCHRIST", "city": "POUGHKEEPSIE", "state": "NY", "zip": "12603-6357", "ntee": "X192", "ruling": "200801", "deductibility": "1", "assets": 91361, "income": 111545, "revenue": 110859}, {"ein": "261114284", "name": "WEST POINT SOCIETY OF THE MID HUDSON REGION INC", "city": "HIGHLAND FLS", "state": "NY", "zip": "10928-0050", "ntee": "B84", "ruling": "201003", "deductibility": "1", "assets": 0, "income": 0, "revenue": 0}, {"ein": "261863656", "name": "MID-HUDSON REBELS", "city": "SAUGERTIES", "state": "NY", "zip": "12477-2228", "ntee": "N63", "ruling": "201102", "deductibility": "1", "assets": 86994, "income": 158274, "revenue": 140400}, {"ein": "262353436", "name": "MID-HUDSON AREA RETIRED TEACHERS ASSOCIATION INC", "city": "BLOOMING GRV", "state": "NY", "zip": "10914-0294", "ntee": "S80", "ruling": "201408", "deductibility": "2", "assets": 0, "income": 0, "revenue": 0}, {"ein": "264132474", "name": "POUGHKEEPSIE MID-HUDSON BABE RUTH BASEBALL INC", "city": "POUGHKEEPSIE", "state": "NY", "zip": "12601-0000", "ntee": "N60", "ruling": "201908", "deductibility": "1", "assets": 18133, "income": 140431, "revenue": 140431}, {"ein": "270376080", "name": "MID-NASSAU LEND A HELPING HAND INC", "city": "FREEPORT", "state": "NY", "zip": "11520-4056", "ntee": "P20", "ruling": "201009", "deductibility": "1", "assets": 0, "income": 0, "revenue": 0}, {"ein": "270691876", "name": "MID ATLANTIC REGIONAL CONFERENCE IN OCCUPATIONAL AND ENVIRONMENTAL MED", "city": "NEW YORK", "state": "NY", "zip": "10018-0000", "ntee": "S41", "ruling": "201002", "deductibility": "2", "assets": 66934, "income": 19554, "revenue": 19554}, {"ein": "274061223", "name": "PARKINSONS DISEASE SUPPPORT GROUP OF THE MID-HUDSON VALLEY INC", "city": "LAGRANGEVILLE", "state": "NY", "zip": "12540-0304", "ntee": "E86", "ruling": "201102", "deductibility": "1", "assets": 0, "income": 0, "revenue": 0}, {"ein": "275103225", "name": "COMHALTAS MID ATLANTIC REGION INC", "city": "PEARL RIVER", "state": "NY", "zip": "10965-2833", "ntee": "A23", "ruling": "201302", "deductibility": "1", "assets": 38554, "income": 83989, "revenue": 27369}, {"ein": "300615146", "name": "MID-HUDSON ANTI-SLAVERY HISTORY PROJECT INC", "city": "POUGHKEEPSIE", "state": "NY", "zip": "12603-0647", "ntee": "A80", "ruling": "201603", "deductibility": "1", "assets": 0, "income": 0, "revenue": 0}, {"ein": "311631842", "name": "MID-HUDSON BOARD OF VOLLEYBALL OFFICIALS INC", "city": "COLD SPRING", "state": "NY", "zip": "10516-4041", "ntee": "J20", "ruling": "199901", "deductibility": "1", "assets": 0, "income": 0, "revenue": 0}, {"ein": "320356554", "name": "MID HUDSON VALLEY GEM AND MINERAL SOCIETY INC", "city": "POUGHKEEPSIE", "state": "NY", "zip": "12603-0636", "ntee": "N50", "ruling": "201704", "deductibility": "1", "assets": 88443, "income": 26093, "revenue": 23307}, {"ein": "320489645", "name": "MID HUDSON DENTAL HYGIENISTS ASSOCIATION INC", "city": "PINE BUSH", "state": "NY", "zip": "12566-5571", "ntee": "E03", "ruling": "201611", "deductibility": "1", "assets": 0, "income": 0, "revenue": 0}, {"ein": "320603803", "name": "MID-YORK BEEKEEPERS ASSOCIATION", "city": "CLARK MILLS", "state": "NY", "zip": "13321-0004", "ntee": "B60", "ruling": "202306", "deductibility": "1", "assets": 0, "income": 0, "revenue": 0}, {"ein": "363734862", "name": "NEW APOSTOLIC CHURCH OF NIAGARA FALLS MID CITY NY", "city": "NIAGARA FALLS", "state": "NY", "zip": "14305-2908", "ntee": "", "ruling": "198508", "deductibility": "1", "assets": 0, "income": 0, "revenue": 0}, {"ein": "416498110", "name": "CONSTRUCTION ADVANCEMENT INSTITUTE OF WESTCHESTER & MID-HUDSON", "city": "TARRYTOWN", "state": "NY", "zip": "10591-5027", "ntee": "S41", "ruling": "200208", "deductibility": "2", "assets": 6716702, "income": 2067224, "revenue": 916478}, {"ein": "451059107", "name": "MID-HUDSON VALLEY TENNIS ASSOCIATION INC", "city": "HURLEY", "state": "NY", "zip": "12443-6213", "ntee": "N123", "ruling": "201108", "deductibility": "1", "assets": 0, "income": 0, "revenue": 0}, {"ein": "452487236", "name": "MID-HUDSON HERITAGE CENTER INC", "city": "POUGHKEEPSIE", "state": "NY", "zip": "12601-3438", "ntee": "A23", "ruling": "201407", "deductibility": "1", "assets": 54171, "income": 190461, "revenue": 178998}, {"ein": "452806122", "name": "MID ISLAND GOLFERS FOUNDATION OF NEW YORK INC", "city": "JAMAICA", "state": "NY", "zip": "11434-0956", "ntee": "N70", "ruling": "201206", "deductibility": "1", "assets": 11885, "income": 33623, "revenue": 33623}, {"ein": "460649530", "name": "ISLAMIC COMMUNITY CENTER OF MID-WESTCHESTER", "city": "YONKERS", "state": "NY", "zip": "10710-3002", "ntee": "X40", "ruling": "201312", "deductibility": "1", "assets": 0, "income": 0, "revenue": 0}, {"ein": "461942247", "name": "MID-BEDFORD HEIGHTS LIONS FOUNDATION INC", "city": "BROOKLYN", "state": "NY", "zip": "11225-3901", "ntee": "E70", "ruling": "201307", "deductibility": "1", "assets": 0, "income": 0, "revenue": 0}, {"ein": "462673583", "name": "MID-HUDSON BLOODHOUND REFUGE INC", "city": "STANFORDVILLE", "state": "NY", "zip": "12581-0024", "ntee": "D20", "ruling": "201610", "deductibility": "1", "assets": 0, "income": 0, "revenue": 0}, {"ein": "462766488", "name": "MID HUSDON PERFORMING ARTS GROUP INC", "city": "POUGHKEEPSIE", "state": "NY", "zip": "12601-3206", "ntee": "", "ruling": "201601", "deductibility": "1", "assets": 0, "income": 0, "revenue": 0}, {"ein": "465534882", "name": "MID-HUDSON VALLEY EARLY EDUCATION CENTER", "city": "VALHALLA", "state": "NY", "zip": "10595-1530", "ntee": "B99", "ruling": "201504", "deductibility": "1", "assets": 5926922, "income": 9818246, "revenue": 9818246}, {"ein": "473097347", "name": "MID-HUDSON AQUATICS INC", "city": "POUGHKEEPSIE", "state": "NY", "zip": "12603-5726", "ntee": "N67", "ruling": "201503", "deductibility": "1", "assets": 44281, "income": 234361, "revenue": 234361}, {"ein": "473107642", "name": "CHABAD OF MID WESTCHESTER", "city": "NEW ROCHELLE", "state": "NY", "zip": "10804-2623", "ntee": "X30", "ruling": "201804", "deductibility": "1", "assets": 0, "income": 0, "revenue": 0}, {"ein": "474004724", "name": "CHABAD OF MID-SUFFOLK", "city": "COMMACK", "state": "NY", "zip": "11725-4315", "ntee": "X30", "ruling": "201703", "deductibility": "1", "assets": 0, "income": 0, "revenue": 0}, {"ein": "474549437", "name": "MID STATE EMS COUNCIL OF ONEIDA HERKIMER AND MADISON COUNTIES INC", "city": "UTICA", "state": "NY", "zip": "13501-6236", "ntee": "T30", "ruling": "201509", "deductibility": "1", "assets": 0, "income": 0, "revenue": 0}, {"ein": "510139072", "name": "THE CLASSIS OF MID HUDSON", "city": "HIGH FALLS", "state": "NY", "zip": "12440-0068", "ntee": "", "ruling": "198601", "deductibility": "1", "assets": 0, "income": 0, "revenue": 0}, {"ein": "510151858", "name": "MID-HUDSON CIVIC CENTER INC", "city": "POUGHKEEPSIE", "state": "NY", "zip": "12601-3118", "ntee": "N310", "ruling": "197508", "deductibility": "1", "assets": 16849456, "income": 8033416, "revenue": 4964526}, {"ein": "510214031", "name": "MID FAIRFIELD YOUTH HOCKEY ASSOCIATION INC", "city": "PORT CHESTER", "state": "NY", "zip": "10573-2338", "ntee": "", "ruling": "197802", "deductibility": "1", "assets": 1635505, "income": 4381853, "revenue": 4381853}, {"ein": "520567927", "name": "MID-ATLANTIC DAIRY ASSOCIATION INC", "city": "NORTH SYRACUSE", "state": "NY", "zip": "13212-4312", "ntee": "", "ruling": "197812", "deductibility": "2", "assets": 0, "income": 0, "revenue": 0}, {"ein": "541389099", "name": "MID-ATLANTIC KOI CLUB", "city": "SAUGERTIES", "state": "NY", "zip": "12477-3670", "ntee": "", "ruling": "199302", "deductibility": "2", "assets": 0, "income": 0, "revenue": 0}, {"ein": "651188328", "name": "WORLD AFFAIRS COUNCIL OF THE MID-HUDSON VALLEY INC", "city": "POUGHKEEPSIE", "state": "NY", "zip": "12603-4427", "ntee": "V35", "ruling": "201012", "deductibility": "1", "assets": 0, "income": 0, "revenue": 0}, {"ein": "710875641", "name": "MID-HUDSON JAPANESE COMMUNITY ASSOCIATION INC", "city": "WOODSTOCK", "state": "NY", "zip": "12498-1947", "ntee": "A23", "ruling": "201604", "deductibility": "1", "assets": 0, "income": 0, "revenue": 0}, {"ein": "800541703", "name": "MID-HUDSON RUSSIAN COMMUNITY ASSOC", "city": "POUGHKEEPSIE", "state": "NY", "zip": "12601-0925", "ntee": "A99", "ruling": "201408", "deductibility": "1", "assets": 0, "income": 0, "revenue": 0}, {"ein": "822240377", "name": "MID-ATLANTIC MASTERS SKIING INC", "city": "KINGSTON", "state": "NY", "zip": "12401-8915", "ntee": "W03", "ruling": "201912", "deductibility": "2", "assets": 20563, "income": 91390, "revenue": 91390}, {"ein": "831216293", "name": "MID-NORTHEAST ROTARY MULTI-DISTRICT PETS INC", "city": "COMMACK", "state": "NY", "zip": "11725-1730", "ntee": "B03", "ruling": "201902", "deductibility": "1", "assets": 67764, "income": 152065, "revenue": 152065}, {"ein": "833547337", "name": "MID-NEW YORK ENVIRONMENTAL AND SUSTAINABILTY PROMOTION COMMITTEE", "city": "NEW PALTZ", "state": "NY", "zip": "12561-1758", "ntee": "C02", "ruling": "202004", "deductibility": "1", "assets": 0, "income": 0, "revenue": 0}, {"ein": "853166952", "name": "MID-HUDSON VALLEY DIVINE 9 FOUNDATION INC", "city": "POUGHKEEPSIE", "state": "NY", "zip": "12601-0992", "ntee": "O51", "ruling": "202011", "deductibility": "1", "assets": 0, "income": 0, "revenue": 0}, {"ein": "854173786", "name": "MID-HUDSON QURAN ACADEMY INC", "city": "POUGHKEEPSIE", "state": "NY", "zip": "12601-5427", "ntee": "X40", "ruling": "202309", "deductibility": "1", "assets": 51704, "income": 132529, "revenue": 132529}, {"ein": "872100911", "name": "MID-HUDSON ENERGY TRANSITION INC", "city": "KINGSTON", "state": "NY", "zip": "12401-3866", "ntee": "C35", "ruling": "202207", "deductibility": "1", "assets": 935457, "income": 805852, "revenue": 805852}, {"ein": "872961140", "name": "MID-HUDSON VALLEY DSA", "city": "CORNWALL HDSN", "state": "NY", "zip": "12520-0249", "ntee": "S80", "ruling": "202408", "deductibility": "2", "assets": 0, "income": 0, "revenue": 0}, {"ein": "881008304", "name": "MID-YORK PANTHERS INC", "city": "HAMILTON", "state": "NY", "zip": "13346-0045", "ntee": "N65", "ruling": "202205", "deductibility": "1", "assets": 0, "income": 0, "revenue": 0}, {"ein": "922491378", "name": "MID-HUDSON VALLEY CSTA", "city": "POUGHQUAG", "state": "NY", "zip": "12570-5212", "ntee": "", "ruling": "201705", "deductibility": "1", "assets": 0, "income": 0, "revenue": 0}, {"ein": "931635821", "name": "MID-HUDSON ENERGY EQUITY FUND", "city": "KINGSTON", "state": "NY", "zip": "12401-3866", "ntee": "P11", "ruling": "202501", "deductibility": "1", "assets": 0, "income": 0, "revenue": 0}, {"ein": "933068646", "name": "MID HUDSON SOCCER OFFICIALS CORPORATION", "city": "POUGHKEEPSIE", "state": "NY", "zip": "12603-5314", "ntee": "N64", "ruling": "202310", "deductibility": "1", "assets": 0, "income": 0, "revenue": 0}], "CHAVEIRIM": [{"ein": "010760610", "name": "AGUDAS CHAVEIRIM DARCEL YOSHER", "city": "BROOKLYN", "state": "NY", "zip": "11219-1523", "ntee": "X30", "ruling": "200301", "deductibility": "1", "assets": 0, "income": 0, "revenue": 0}, {"ein": "113492861", "name": "CONGREGATION ACHDUS CHAVEIRIM", "city": "BROOKLYN", "state": "NY", "zip": "11219-4615", "ntee": "X30", "ruling": "200002", "deductibility": "1", "assets": 0, "income": 0, "revenue": 0}, {"ein": "611420609", "name": "CHAVEIRIM OF KJ", "city": "HARRIMAN", "state": "NY", "zip": "10926-0914", "ntee": "X21", "ruling": "200212", "deductibility": "1", "assets": 0, "income": 0, "revenue": 0}, {"ein": "800004578", "name": "CHAVEIRIM OF BORO PARK WILLIAMSBURG", "city": "BROOKLYN", "state": "NY", "zip": "11219-5017", "ntee": "X30", "ruling": "200203", "deductibility": "1", "assets": 0, "income": 0, "revenue": 0}, {"ein": "993388616", "name": "CONGREGATION HISACHDUS CHAVEIRIM", "city": "BROOKLYN", "state": "NY", "zip": "11219-3406", "ntee": "X30", "ruling": "202503", "deductibility": "1", "assets": 0, "income": 0, "revenue": 0}, {"ein": "995139388", "name": "INTERSTATE CHAVEIRIM INC", "city": "BROOKLYN", "state": "NY", "zip": "11219-4615", "ntee": "P60", "ruling": "202410", "deductibility": "1", "assets": 0, "income": 0, "revenue": 0}], "EASTON": [{"ein": "010778873", "name": "EASTON MOUNTAIN INC", "city": "GREENWICH", "state": "NY", "zip": "12834-5809", "ntee": "X99", "ruling": "200503", "deductibility": "1", "assets": 625023, "income": 661258, "revenue": 655165}, {"ein": "133190220", "name": "THE EASTON FOUNDATION INC", "city": "NEW YORK", "state": "NY", "zip": "10014-1049", "ntee": "", "ruling": "198404", "deductibility": "1", "assets": 167988083, "income": 14841597, "revenue": 0}, {"ein": "136103454", "name": "EASTON FAMILY FUND INC", "city": "NEW YORK", "state": "NY", "zip": "10065-7075", "ntee": "", "ruling": "195310", "deductibility": "1", "assets": 781031, "income": 103633, "revenue": 0}, {"ein": "146102254", "name": "EASTON VOLUNTEER FIRE COMPANY INC", "city": "SCHAGHTICOKE", "state": "NY", "zip": "12154-2306", "ntee": "M24", "ruling": "201606", "deductibility": "1", "assets": 222776, "income": 142247, "revenue": 142247}, {"ein": "222516100", "name": "EASTON LIBRARY", "city": "GREENWICH", "state": "NY", "zip": "12834-7616", "ntee": "B70", "ruling": "201102", "deductibility": "1", "assets": 774677, "income": 312933, "revenue": 312933}, {"ein": "237104231", "name": "EASTON-GREENWICH RESCUE SQUAD INC", "city": "GREENWICH", "state": "NY", "zip": "12834-0084", "ntee": "E62Z", "ruling": "197207", "deductibility": "1", "assets": 644921, "income": 354655, "revenue": 354655}], "BRANCH": [{"ein": "010901768", "name": "THE NEW YORK STATE CAPITAL DISTRICT BRANCH OF THE AMERICAN PSYCHIATRI", "city": "E GREENBUSH", "state": "NY", "zip": "12061-3546", "ntee": "S40", "ruling": "201109", "deductibility": "2", "assets": 0, "income": 0, "revenue": 0}, {"ein": "061367524", "name": "FOCOLARE MOVEMENT MENS BRANCH", "city": "WESTCHESTER", "state": "NY", "zip": "10801-1615", "ntee": "", "ruling": "194603", "deductibility": "1", "assets": 0, "income": 0, "revenue": 0}, {"ein": "112474273", "name": "INTERNATIONAL DYSLEXIA ASSOCIATION LONG ISLAND BRANCH INC", "city": "DEER PARK", "state": "NY", "zip": "11729-6609", "ntee": "F80", "ruling": "200803", "deductibility": "1", "assets": 0, "income": 0, "revenue": 0}, {"ein": "112843620", "name": "BRANCH OF FAITH CHURCH", "city": "PT JEFFERSON", "state": "NY", "zip": "11776-2935", "ntee": "", "ruling": "198709", "deductibility": "1", "assets": 0, "income": 0, "revenue": 0}, {"ein": "113097658", "name": "AHMADIYYA ANJUMAN ISHAAT ISLAM LAHORE INC USA NEW YORK BRANCH", "city": "JAMAICA", "state": "NY", "zip": "11428-1201", "ntee": "", "ruling": "199206", "deductibility": "1", "assets": 0, "income": 0, "revenue": 0}, {"ein": "113314864", "name": "ALL PEOPLES CHURCH OF THE APOSTOLIC FAITH BRANCH NO 2 INC", "city": "BROOKLYN", "state": "NY", "zip": "11233-2709", "ntee": "X21Z", "ruling": "199804", "deductibility": "1", "assets": 0, "income": 0, "revenue": 0}, {"ein": "113315069", "name": "ALL PEOPLES CHURCH OF THE APOSTOLIC FAITH BRANCH NO 1 INC", "city": "BROOKLYN", "state": "NY", "zip": "11206-6808", "ntee": "X20", "ruling": "199910", "deductibility": "1", "assets": 0, "income": 0, "revenue": 0}, {"ein": "113363647", "name": "FRIENDS OF THE BROOKLYN HEIGHTS BRANCH LIBRARY INC", "city": "BROOKLYN", "state": "NY", "zip": "11201-2701", "ntee": "B117", "ruling": "199707", "deductibility": "1", "assets": 0, "income": 0, "revenue": 0}, {"ein": "116036908", "name": "AMERICAN ASSOCIATION OF UNIVERSITY WOMAN NASSAU COUNTY BRANCH NY", "city": "UNIONDALE", "state": "NY", "zip": "11553-2305", "ntee": "B82O", "ruling": "201902", "deductibility": "2", "assets": 0, "income": 0, "revenue": 0}, {"ein": "132506338", "name": "NEW YORK COUNTY DISTRICT BRANCH AMERICAN PSYCHIATRIC ASSOC", "city": "NEW YORK", "state": "NY", "zip": "10018-3612", "ntee": "", "ruling": "196710", "deductibility": "2", "assets": 530128, "income": 316123, "revenue": 316123}, {"ein": "132868761", "name": "WEST BRANCH CONSERVATION ASSOCIATION INC", "city": "NEW CITY", "state": "NY", "zip": "10956-4409", "ntee": "", "ruling": "197704", "deductibility": "1", "assets": 0, "income": 0, "revenue": 0}, {"ein": "133133932", "name": "ROYAL SCOTTISH COUNTRY DANCE SOCIETY NEW YORK BRANCH INC", "city": "NEW YORK", "state": "NY", "zip": "10024-4848", "ntee": "", "ruling": "198402", "deductibility": "1", "assets": 53449, "income": 49160, "revenue": 49160}, {"ein": "133207388", "name": "ANTHROPOSOPHICAL SOCIETY IN AMERICA NEW YORK BRANCH INC", "city": "NEW YORK", "state": "NY", "zip": "10011-6885", "ntee": "X99M", "ruling": "198408", "deductibility": "1", "assets": 997306, "income": 51610, "revenue": 37079}, {"ein": "133409360", "name": "CELTIC LEAGUE AMERICAN BRANCH", "city": "BRONX", "state": "NY", "zip": "10458-0000", "ntee": "", "ruling": "198710", "deductibility": "1", "assets": 0, "income": 0, "revenue": 0}, {"ein": "136211854", "name": "METAL TRADES BRANCH LOCAL 638 HOSPITALIZATION & WELFARE FUND", "city": "LONG ISLAND CITY", "state": "NY", "zip": "11101-3725", "ntee": "", "ruling": "196905", "deductibility": "2", "assets": 48760171, "income": 87714667, "revenue": 87714667}, {"ein": "136275145", "name": "FIRST SUPERET BRANCH CHURCH OF NEW YORK", "city": "NEW YORK", "state": "NY", "zip": "10027-3804", "ntee": "", "ruling": "196808", "deductibility": "1", "assets": 0, "income": 0, "revenue": 0}, {"ein": "141787062", "name": "EAST BRANCH FRIENDS OF THE ARTS", "city": "KEENE VALLEY", "state": "NY", "zip": "12943-0768", "ntee": "A20", "ruling": "199902", "deductibility": "1", "assets": 0, "income": 0, "revenue": 0}, {"ein": "141794846", "name": "FOCOLARE MOVEMENT NATIONAL CENTER WOMENS BRANCH", "city": "HYDE PARK", "state": "NY", "zip": "12538-2903", "ntee": "", "ruling": "194603", "deductibility": "1", "assets": 0, "income": 0, "revenue": 0}, {"ein": "141794847", "name": "FOCOLARE MOVEMENT MENS BRANCH", "city": "HYDE PARK", "state": "NY", "zip": "12538-2979", "ntee": "", "ruling": "194603", "deductibility": "1", "assets": 0, "income": 0, "revenue": 0}, {"ein": "160718087", "name": "GREATER ROCHESTER AREA BRANCH AMERICAN ASSOCIATION OF UNIVERSITY", "city": "ROCHESTER", "state": "NY", "zip": "14607-1911", "ntee": "F60", "ruling": "200211", "deductibility": "1", "assets": 119468, "income": 20057, "revenue": 20057}, {"ein": "161310400", "name": "THE UPSTATE NEW YORK BRANCH OF THE AMERICAN ASSOCIATION FOR", "city": "SYRACUSE", "state": "NY", "zip": "13210-0000", "ntee": "U99Z", "ruling": "199507", "deductibility": "1", "assets": 0, "income": 0, "revenue": 0}, {"ein": "161599304", "name": "BRANCH OF THE LORD FELLOWSHIP INC", "city": "NAPLES", "state": "NY", "zip": "14512-9719", "ntee": "X21", "ruling": "200105", "deductibility": "1", "assets": 0, "income": 0, "revenue": 0}, {"ein": "166030197", "name": "CHRISTIAN AND MISSIONARY ALLIANCE BRANCH OF GATES NY", "city": "ROCHESTER", "state": "NY", "zip": "14606-3515", "ntee": "", "ruling": "197205", "deductibility": "1", "assets": 0, "income": 0, "revenue": 0}, {"ein": "166031434", "name": "AMERICAN ASSOCIATION OF UNIVERSITY WOMAN ELMIRA-CORNING BRANCH", "city": "ELMIRA", "state": "NY", "zip": "14904-1045", "ntee": "B82O", "ruling": "201810", "deductibility": "2", "assets": 0, "income": 0, "revenue": 0}, {"ein": "166054344", "name": "NATIONAL ASSOCIATION OF LETTER CARRIERS BRANCH 21", "city": "ELMIRA", "state": "NY", "zip": "14902-0395", "ntee": "J40", "ruling": "201408", "deductibility": "2", "assets": 0, "income": 0, "revenue": 0}, {"ein": "166090284", "name": "1000 ISLANDS REGION BRANCH 302 NALC", "city": "WATERTOWN", "state": "NY", "zip": "13601-6472", "ntee": "J40", "ruling": "201407", "deductibility": "2", "assets": 0, "income": 0, "revenue": 0}, {"ein": "166090290", "name": "NATIONAL ASSOCIATION OF LETTER CARRIERS BRANCH 190", "city": "OSWEGO", "state": "NY", "zip": "13126-6652", "ntee": "J40", "ruling": "201410", "deductibility": "2", "assets": 0, "income": 0, "revenue": 0}, {"ein": "201067246", "name": "DEION BRANCH CHARITABLE FOUNDATION", "city": "NEW YORK", "state": "NY", "zip": "10036-0000", "ntee": "G128", "ruling": "200407", "deductibility": "1", "assets": 0, "income": 0, "revenue": 0}, {"ein": "201094126", "name": "BRONX NY DISTRICT BRANCH OF THE AMERICAN PSYCHIATRIC ASSOC INC", "city": "GARDEN CITY", "state": "NY", "zip": "11530-3336", "ntee": "B03", "ruling": "200411", "deductibility": "1", "assets": 0, "income": 0, "revenue": 0}, {"ein": "201320078", "name": "QUEENS BRANCH OF THE BHUVANESHWAR MANDIR", "city": "OZONE PARK", "state": "NY", "zip": "11416-2109", "ntee": "X70", "ruling": "200502", "deductibility": "1", "assets": 0, "income": 0, "revenue": 0}, {"ein": "202889550", "name": "EASTERN NEW YORK BRANCH OF THE AMERICAN SOCIETY FOR MICROBIOLOGY", "city": "ALBANY", "state": "NY", "zip": "12208-3423", "ntee": "U03", "ruling": "200604", "deductibility": "1", "assets": 0, "income": 0, "revenue": 0}, {"ein": "222521995", "name": "GENESEE VALLEY DISTRICT BRANCH INC", "city": "ROCHESTER", "state": "NY", "zip": "14624-5319", "ntee": "", "ruling": "198408", "deductibility": "2", "assets": 0, "income": 0, "revenue": 0}, {"ein": "226046577", "name": "NEW YORK CITY BRANCH OF THE AMERICAN SOCIETY FOR MICROBIOLOGY", "city": "BROOKLYN", "state": "NY", "zip": "11231-4915", "ntee": "B300", "ruling": "200108", "deductibility": "1", "assets": 113615, "income": 154497, "revenue": 154497}, {"ein": "237027214", "name": "ROCKLAND COUNTY BRANCH OF AAUW INC", "city": "WEST NYACK", "state": "NY", "zip": "10994-0019", "ntee": "B12", "ruling": "201109", "deductibility": "1", "assets": 0, "income": 0, "revenue": 0}, {"ein": "237068849", "name": "USA BRANCH INTERNATIONAL FISCAL ASSOCIATION INC", "city": "ROCHESTER", "state": "NY", "zip": "14618-2295", "ntee": "Q035", "ruling": "197006", "deductibility": "1", "assets": 3042995, "income": 608029, "revenue": 608029}, {"ein": "237083191", "name": "AMERICAN ASSOCIATION OF UNIVERSITY WOMEN FAIRPORT AREA BRANCH", "city": "HONEOYE FALLS", "state": "NY", "zip": "14472-9200", "ntee": "B82O", "ruling": "201907", "deductibility": "2", "assets": 0, "income": 0, "revenue": 0}, {"ein": "237383554", "name": "AAUW SMITHTOWN BRANCH", "city": "HAUPPAUGE", "state": "NY", "zip": "11788-2308", "ntee": "B82", "ruling": "201905", "deductibility": "2", "assets": 0, "income": 0, "revenue": 0}, {"ein": "262988374", "name": "BRANCH BROOK S CHILDRENS FOUNDATION", "city": "NESCONSET", "state": "NY", "zip": "11767-1717", "ntee": "E86", "ruling": "200912", "deductibility": "1", "assets": 133969, "income": 269576, "revenue": 201062}, {"ein": "271068468", "name": "FOCOLARE MOVEMENT WOMENS BRANCH EAST COAST WORK OF MARY", "city": "HYDE PARK", "state": "NY", "zip": "12538-2985", "ntee": "", "ruling": "194603", "deductibility": "1", "assets": 0, "income": 0, "revenue": 0}, {"ein": "364749029", "name": "NAPS ANTHONY LAGRECA BRANCH 330", "city": "POUGHKEEPSIE", "state": "NY", "zip": "12601-2104", "ntee": "Z99", "ruling": "201404", "deductibility": "2", "assets": 0, "income": 0, "revenue": 0}, {"ein": "392070931", "name": "BERKSHIRE TACONIC BRANCH OF THE ANTHROPOSOPHICAL SOCIETY INC", "city": "PHILMONT", "state": "NY", "zip": "12565-0024", "ntee": "P20", "ruling": "202201", "deductibility": "1", "assets": 0, "income": 0, "revenue": 0}, {"ein": "451045347", "name": "MAXMATH TUTORING ONLINE INC NEW YORK BRANCH", "city": "WYANDANCH", "state": "NY", "zip": "11798-3010", "ntee": "B90", "ruling": "201605", "deductibility": "1", "assets": 89929, "income": 89929, "revenue": 89929}, {"ein": "460858263", "name": "MOUNTAIN OF FIRE AND MIRACLES MINISTRIES MERCY LAND BRANCH INC", "city": "BRONX", "state": "NY", "zip": "10457-2748", "ntee": "X21", "ruling": "201407", "deductibility": "1", "assets": 0, "income": 0, "revenue": 0}, {"ein": "463632300", "name": "FLEET RESERVE ASSOCIATION BRANCH 226 INC", "city": "STATEN ISLAND", "state": "NY", "zip": "10312-3338", "ntee": "W30", "ruling": "201309", "deductibility": "2", "assets": 0, "income": 0, "revenue": 0}, {"ein": "471384984", "name": "LONG BRANCH ELEMENTARY PARENT TEACHER CHILDRENS ORGANIZATION INC", "city": "LIVERPOOL", "state": "NY", "zip": "13090-3143", "ntee": "B94", "ruling": "201407", "deductibility": "1", "assets": 0, "income": 0, "revenue": 0}, {"ein": "471888927", "name": "CHARTERED INSTITUTE OF ARBITRATORS NEW YORK BRANCH INC", "city": "NEW YORK", "state": "NY", "zip": "10016-2400", "ntee": "P20", "ruling": "201508", "deductibility": "1", "assets": 133657, "income": 19191, "revenue": 19191}, {"ein": "510204285", "name": "EDUCATIONAL FUND OF ROCHESTER NY BRANCH OF AMER ASSOC OF UNIV WOMEN", "city": "ROCHESTER", "state": "NY", "zip": "14607-1911", "ntee": "", "ruling": "197612", "deductibility": "1", "assets": 182481, "income": 25, "revenue": 0}, {"ein": "541195760", "name": "THE MAC ARTHUR SOCIETY IN UNITED STATES BRANCH OF CLAN ARTHUR INC", "city": "MARCELLUS", "state": "NY", "zip": "13108-8714", "ntee": "", "ruling": "198810", "deductibility": "2", "assets": 0, "income": 0, "revenue": 0}, {"ein": "571157064", "name": "AMERICAN ASSOCIATION OF UNIVERSITY WOMEN BUFFALO BRANCH INC", "city": "N TONAWANDA", "state": "NY", "zip": "14120-1419", "ntee": "B82", "ruling": "200305", "deductibility": "1", "assets": 1397831, "income": 344798, "revenue": 101773}, {"ein": "800311678", "name": "POUGHKEEPSIE BRANCH OF THE AMERICAN ASSN OF UNIVERSITY WOMEN INC", "city": "POUGHKEEPSIE", "state": "NY", "zip": "12601-0908", "ntee": "B99", "ruling": "200902", "deductibility": "1", "assets": 0, "income": 0, "revenue": 0}, {"ein": "814220512", "name": "GRAFTED IN BRANCH 7TH DAY APOSTOLIC ASSEMBLY INC", "city": "SAINT ALBANS", "state": "NY", "zip": "11412-0322", "ntee": "X21", "ruling": "201702", "deductibility": "1", "assets": 0, "income": 0, "revenue": 0}, {"ein": "821097516", "name": "MAXCEN HOUSING SOCIETY INC NEW YORK BRANCH", "city": "WYANDANCH", "state": "NY", "zip": "11798-3010", "ntee": "L40", "ruling": "201704", "deductibility": "1", "assets": 91394, "income": 91394, "revenue": 91394}, {"ein": "821433580", "name": "WOMENS ASSEMBLY BRANCH 1 OUTREACH CENTER OF NEW DAWN BAPTIST CHURCH", "city": "BRONX", "state": "NY", "zip": "10456-6290", "ntee": "X20", "ruling": "201805", "deductibility": "1", "assets": 0, "income": 0, "revenue": 0}, {"ein": "823095284", "name": "THE OLIVE BRANCH INC", "city": "DIX HILLS", "state": "NY", "zip": "11746-7007", "ntee": "X20", "ruling": "202001", "deductibility": "1", "assets": 0, "income": 0, "revenue": 0}, {"ein": "833086377", "name": "OLIVE TREE BRANCH NYC CORP", "city": "STATEN ISLAND", "state": "NY", "zip": "10314-5958", "ntee": "B02", "ruling": "201904", "deductibility": "1", "assets": 0, "income": 0, "revenue": 0}, {"ein": "844734673", "name": "ILORIN EMIRATE DESCENDANTS PROGRESSIVE UNION IEDPU USA BRANCH", "city": "STATEN ISLAND", "state": "NY", "zip": "10303-2486", "ntee": "A99", "ruling": "202009", "deductibility": "1", "assets": 0, "income": 0, "revenue": 0}, {"ein": "853594885", "name": "NATIONAL ASSOCIATION OF POSTAL SUPERVISION BRANCH 164 INC", "city": "FLUSHING", "state": "NY", "zip": "11355-3270", "ntee": "J40", "ruling": "202105", "deductibility": "2", "assets": 1, "income": 65721, "revenue": 65721}, {"ein": "872143986", "name": "NASSAU SUFFOLK DISTRICT BRANCH INC", "city": "GARDEN CITY", "state": "NY", "zip": "11530-3336", "ntee": "S41", "ruling": "202204", "deductibility": "2", "assets": 0, "income": 0, "revenue": 0}, {"ein": "880670561", "name": "VILLAGE OF THE BRANCH SOCCER CLUB INC", "city": "NESCONSET", "state": "NY", "zip": "11767-2710", "ntee": "N64", "ruling": "202212", "deductibility": "1", "assets": 67650, "income": 202507, "revenue": 202507}, {"ein": "943465381", "name": "THE OLIVE BRANCH CONNECTION", "city": "SCHENECTADY", "state": "NY", "zip": "12309-2107", "ntee": "X21", "ruling": "200909", "deductibility": "1", "assets": 0, "income": 0, "revenue": 0}, {"ein": "990570903", "name": "CCE KILLORAN-CLANCY-WHELAN BRANCH INC", "city": "BRONX", "state": "NY", "zip": "10467-3302", "ntee": "A23", "ruling": "202402", "deductibility": "1", "assets": 0, "income": 0, "revenue": 0}, {"ein": "990621522", "name": "FRIENDS OF THE CATSKILL PUBLIC LIBRARY & PALENVILLE BRANCH INC", "city": "CATSKILL", "state": "NY", "zip": "12414-1407", "ntee": "A12", "ruling": "202410", "deductibility": "1", "assets": 0, "income": 0, "revenue": 0}, {"ein": "992863675", "name": "WEST BRANCH COMMONS", "city": "DELANCEY", "state": "NY", "zip": "13752-2193", "ntee": "K20", "ruling": "202503", "deductibility": "1", "assets": 0, "income": 0, "revenue": 0}], "CRESTWOOD": [{"ein": "030442917", "name": "CRESTWOOD HISTORICAL SOCIETY", "city": "YONKERS", "state": "NY", "zip": "10707-0081", "ntee": "A80", "ruling": "200504", "deductibility": "1", "assets": 0, "income": 0, "revenue": 0}, {"ein": "822752694", "name": "AES CRESTWOOD FOUNDATION INC", "city": "YONKERS", "state": "NY", "zip": "10707-1311", "ntee": "P20", "ruling": "201803", "deductibility": "1", "assets": 1152588, "income": 418065, "revenue": 305630}], "PROVINCE": [{"ein": "042273779", "name": "DOMINICAN FATHERS PROVINCE OF ST JOSEPH INC", "city": "NEW YORK", "state": "NY", "zip": "10021-6618", "ntee": "", "ruling": "194601", "deductibility": "1", "assets": 0, "income": 0, "revenue": 0}, {"ein": "056008676", "name": "PROVINCE OF ST MARY OF THE CAPUCHIN ORDER", "city": "WHITE PLAINS", "state": "NY", "zip": "10605-3534", "ntee": "", "ruling": "194603", "deductibility": "1", "assets": 0, "income": 0, "revenue": 0}, {"ein": "061398149", "name": "THIRD ORDER OF THE SOCIETY OF SAINT FRANCIS AMERICAN PROVINCE INC", "city": "HICKSVILLE", "state": "NY", "zip": "11801-4630", "ntee": "", "ruling": "199409", "deductibility": "1", "assets": 0, "income": 0, "revenue": 0}, {"ein": "061509647", "name": "FOUNDATION OF THE ORDER OF THE FRIARS MINOR OF THE PROVINCE", "city": "NEW YORK", "state": "NY", "zip": "10001-3403", "ntee": "", "ruling": "194603", "deductibility": "0", "assets": 0, "income": 0, "revenue": 0}, {"ein": "116024956", "name": "SOCIETY OF ST FRANCIS AMERICAN PROVINCE INC", "city": "MT SINAI", "state": "NY", "zip": "11766-0399", "ntee": "X20", "ruling": "194104", "deductibility": "1", "assets": 0, "income": 0, "revenue": 0}, {"ein": "116082040", "name": "NEW YORK PROVINCE SISTERS OF CHARITY HALIFAX INC", "city": "JAMAICA", "state": "NY", "zip": "11432-2943", "ntee": "", "ruling": "196707", "deductibility": "1", "assets": 0, "income": 0, "revenue": 0}, {"ein": "131873291", "name": "DOMINICAN FATHERS PROVINCE OF ST JOSEPH INCORPORATED", "city": "NEW YORK", "state": "NY", "zip": "10065-0000", "ntee": "X22", "ruling": "194603", "deductibility": "1", "assets": 0, "income": 0, "revenue": 0}, {"ein": "131982783", "name": "PROVINCE OF THE IMMACULATE CONCEPTION", "city": "MT VERNON", "state": "NY", "zip": "10550-2509", "ntee": "", "ruling": "194603", "deductibility": "1", "assets": 0, "income": 0, "revenue": 0}, {"ein": "135606957", "name": "FRANCISCAN MISSIONARY UNION OF PROVINCE OF MOST HOLY NAME INC", "city": "NEW YORK", "state": "NY", "zip": "10001-3403", "ntee": "", "ruling": "000000", "deductibility": "1", "assets": 0, "income": 0, "revenue": 0}, {"ein": "135635795", "name": "NEW YORK PROVINCE OF THE SOCIETY OF JESUS", "city": "NEW YORK", "state": "NY", "zip": "10028-0810", "ntee": "", "ruling": "194411", "deductibility": "1", "assets": 0, "income": 0, "revenue": 0}, {"ein": "137144163", "name": "FRANCISCANS OF HOLY NAME PROVINCE BENEVOLENCE TR", "city": "NEW YORK", "state": "NY", "zip": "10001-3403", "ntee": "", "ruling": "194603", "deductibility": "0", "assets": 0, "income": 0, "revenue": 0}, {"ein": "161009410", "name": "SISTERS OF ST FRANCIS OF HOLY NAME PROVINCE INC", "city": "STELA NIAGARA", "state": "NY", "zip": "14144-1001", "ntee": "", "ruling": "000000", "deductibility": "1", "assets": 0, "income": 0, "revenue": 0}, {"ein": "263273636", "name": "THE DOMINICAN FOUNDATION OF DOMINICAN FRIARS PROVINCE OF ST JO", "city": "NEW YORK", "state": "NY", "zip": "10065-6618", "ntee": "", "ruling": "194603", "deductibility": "1", "assets": 0, "income": 0, "revenue": 0}, {"ein": "275468898", "name": "SPIRITUAL BAPTIST APOSTOLIC PROVINCE OF NEW YORK", "city": "BROOKLYN", "state": "NY", "zip": "11226-1501", "ntee": "X20", "ruling": "201408", "deductibility": "1", "assets": 0, "income": 0, "revenue": 0}, {"ein": "460785430", "name": "ORDER OF FRIARS MINOR PROVINCE OF THE MOST HOLY NAME ST FRANCIS CHAP", "city": "NEW YORK", "state": "NY", "zip": "10001-3403", "ntee": "", "ruling": "194603", "deductibility": "1", "assets": 0, "income": 0, "revenue": 0}, {"ein": "472184310", "name": "USA NORTHEAST PROVINCE OF THE SOCIETY OF JESUS", "city": "NEW YORK", "state": "NY", "zip": "10028-0810", "ntee": "", "ruling": "194603", "deductibility": "1", "assets": 0, "income": 0, "revenue": 0}, {"ein": "852331484", "name": "USA EAST PROVINCE OF THE SOCIETY OF JESUS INC", "city": "NEW YORK", "state": "NY", "zip": "10028-0810", "ntee": "", "ruling": "194603", "deductibility": "1", "assets": 0, "income": 0, "revenue": 0}, {"ein": "900516602", "name": "THE SOCIETY OF ORDAINED SCIENTISTS NORTH AMERICAN PROVINCE", "city": "GRAND ISLAND", "state": "NY", "zip": "14072-1656", "ntee": "X90", "ruling": "201105", "deductibility": "1", "assets": 0, "income": 0, "revenue": 0}], "QUINTET": [{"ein": "043107983", "name": "ATLANTIC BRASS QUINTET INC", "city": "OLEAN", "state": "NY", "zip": "14760-2505", "ntee": "", "ruling": "199410", "deductibility": "1", "assets": 11324, "income": 62900, "revenue": 62900}, {"ein": "133143311", "name": "QUINTET OF THE AMERICAS INC", "city": "DOUGLASTON", "state": "NY", "zip": "11363-1301", "ntee": "", "ruling": "198406", "deductibility": "1", "assets": 25967, "income": 119318, "revenue": 117480}, {"ein": "133378455", "name": "THE VIRTUOSI QUINTET INC", "city": "NEW YORK", "state": "NY", "zip": "10001-6637", "ntee": "A68", "ruling": "201201", "deductibility": "1", "assets": 0, "income": 0, "revenue": 0}], "CITYWIDE": [{"ein": "050535640", "name": "CITYWIDE SUPPORTIVE HOUSING DEVELOPMENT FUND CORPORATION", "city": "NEW YORK", "state": "NY", "zip": "10018-7384", "ntee": "L40", "ruling": "200309", "deductibility": "1", "assets": 1679975, "income": 116100, "revenue": 116100}, {"ein": "112589611", "name": "CITYWIDE ASSOC OF LAW ASSISTANTS OF THE CIVIL CRIMINAL AND FAMILY", "city": "LYNBROOK", "state": "NY", "zip": "11563-2501", "ntee": "", "ruling": "198611", "deductibility": "2", "assets": 2880644, "income": 7465310, "revenue": 830985}, {"ein": "113502051", "name": "SUNNYSIDE CITYWIDE HOME CARE SERVICES INC", "city": "LONG ISLAND CITY", "state": "NY", "zip": "11104-4316", "ntee": "P75", "ruling": "200201", "deductibility": "1", "assets": 8109224, "income": 439010, "revenue": 407406}, {"ein": "161534210", "name": "CITYWIDE COUNCIL OF SYRACUSE LOW INCOME HOUSING RESIDENTS INC", "city": "SYRACUSE", "state": "NY", "zip": "13202-0000", "ntee": "L20Z", "ruling": "199710", "deductibility": "1", "assets": 31200, "income": 108523, "revenue": 108523}, {"ein": "203973208", "name": "CITYWIDE COMMUNITY SERVICES INC", "city": "BROOKLYN", "state": "NY", "zip": "11219-1300", "ntee": "S40", "ruling": "200702", "deductibility": "1", "assets": 0, "income": 0, "revenue": 0}, {"ein": "237455287", "name": "CITYWIDE DISASTER SERVICES INC", "city": "GREAT NECK", "state": "NY", "zip": "11021-2419", "ntee": "", "ruling": "197506", "deductibility": "1", "assets": 17747, "income": 25470, "revenue": 25470}, {"ein": "271784688", "name": "CITYWIDE SENIORCARE INC", "city": "BROOKLYN", "state": "NY", "zip": "11219-1300", "ntee": "P81", "ruling": "201011", "deductibility": "1", "assets": 0, "income": 0, "revenue": 0}, {"ein": "311636230", "name": "CITYWIDE ASSOCIATION OF LAW ASSISTANTS", "city": "ROCKVILLE CTR", "state": "NY", "zip": "11570-6008", "ntee": "J40", "ruling": "199904", "deductibility": "2", "assets": 117750, "income": 73022, "revenue": 73022}, {"ein": "814662092", "name": "CITYWIDE BEHAVIORAL HEALTH COALITION FOR THE BLACK ELDERLY IN", "city": "NEW YORK", "state": "NY", "zip": "10031-2001", "ntee": "T50", "ruling": "202309", "deductibility": "1", "assets": 0, "income": 0, "revenue": 0}, {"ein": "822502541", "name": "CITYWIDE FOUNDATION", "city": "BROOKLYN", "state": "NY", "zip": "11220-4343", "ntee": "P20", "ruling": "201809", "deductibility": "1", "assets": 0, "income": 0, "revenue": 0}], "GUN": [{"ein": "061175497", "name": "FALCON GUN & ROD CLUB INC", "city": "NEW YORK", "state": "NY", "zip": "10025-7871", "ntee": "", "ruling": "199612", "deductibility": "2", "assets": 0, "income": 0, "revenue": 0}, {"ein": "061440555", "name": "WARWICK VALLEY ROD AND GUN CLUB INC", "city": "WARWICK", "state": "NY", "zip": "10990-0376", "ntee": "N61", "ruling": "200809", "deductibility": "2", "assets": 0, "income": 0, "revenue": 0}, {"ein": "112070335", "name": "BAMBI ROD & GUN CLUB INC", "city": "STATEN ISLAND", "state": "NY", "zip": "10307-1225", "ntee": "N50", "ruling": "202207", "deductibility": "2", "assets": 0, "income": 0, "revenue": 0}, {"ein": "112540667", "name": "MATTITUCK GUN CLUB INC", "city": "CUTCHOGUE", "state": "NY", "zip": "11935-1106", "ntee": "", "ruling": "198010", "deductibility": "2", "assets": 437391, "income": 118431, "revenue": 118431}, {"ein": "112592749", "name": "MILL RIVER ROD & GUN CLUB INC", "city": "OYSTER BAY", "state": "NY", "zip": "11771-0547", "ntee": "", "ruling": "198204", "deductibility": "2", "assets": 121788, "income": 72319, "revenue": 72319}, {"ein": "112699169", "name": "MAIDSTONE GUN CLUB INC", "city": "EAST HAMPTON", "state": "NY", "zip": "11937-0713", "ntee": "", "ruling": "198501", "deductibility": "2", "assets": 647361, "income": 275313, "revenue": 275313}, {"ein": "113215368", "name": "CENTENNIAL GUN AND BOW CLUB", "city": "BROOKLYN", "state": "NY", "zip": "11222-1879", "ntee": "N61", "ruling": "201602", "deductibility": "2", "assets": 0, "income": 0, "revenue": 0}, {"ein": "116042963", "name": "GOTTSCHEER ROD & GUN CLUB INC", "city": "RIDGEWOOD", "state": "NY", "zip": "11385-0000", "ntee": "N61Z", "ruling": "198103", "deductibility": "2", "assets": 0, "income": 0, "revenue": 0}, {"ein": "132986155", "name": "METROPOLITAN ROD AND GUN CLUB INCORPORATED", "city": "BROOKLYN", "state": "NY", "zip": "11201-6214", "ntee": "", "ruling": "197909", "deductibility": "2", "assets": 94614, "income": 62222, "revenue": 62222}, {"ein": "133192333", "name": "CITY PARK ROD AND GUN CLUB INC", "city": "JEWETT", "state": "NY", "zip": "12444-0000", "ntee": "N99", "ruling": "201409", "deductibility": "2", "assets": 0, "income": 0, "revenue": 0}, {"ein": "133780848", "name": "NEW YORKERS AGAINST GUN VIOLENCE INC", "city": "NEW YORK", "state": "NY", "zip": "10163-3354", "ntee": "", "ruling": "199410", "deductibility": "2", "assets": 145865, "income": 106372, "revenue": 106372}, {"ein": "133808186", "name": "NEW YORKERS AGAINST GUN VOILENCE EDUCATION FUND INC", "city": "NEW YORK", "state": "NY", "zip": "10017-5714", "ntee": "A99", "ruling": "199505", "deductibility": "1", "assets": 1399451, "income": 926783, "revenue": 867763}, {"ein": "133877808", "name": "MOSHOLU-JEROME EAST GUN HILL ROAD DISTRICT MANAGEMENT ASSOCIATION", "city": "BRONX", "state": "NY", "zip": "10467-3102", "ntee": "S20", "ruling": "199706", "deductibility": "1", "assets": 121043, "income": 343750, "revenue": 343750}, {"ein": "133920475", "name": "PEARL RIVER GUN CLUB INC", "city": "PEARL RIVER", "state": "NY", "zip": "10965-0048", "ntee": "", "ruling": "199703", "deductibility": "2", "assets": 0, "income": 0, "revenue": 0}, {"ein": "134283741", "name": "WELLSVILLE ROD AND GUN CLUB", "city": "WELLSVILLE", "state": "NY", "zip": "14895-0053", "ntee": "N61", "ruling": "202202", "deductibility": "1", "assets": 0, "income": 0, "revenue": 0}, {"ein": "135000507", "name": "CLOVE VALLEY ROD AND GUN CLUB", "city": "LAGRANGEVILLE", "state": "NY", "zip": "12540-6838", "ntee": "", "ruling": "194209", "deductibility": "2", "assets": 11443561, "income": 3790605, "revenue": 2164486}, {"ein": "136003385", "name": "NEW ROCHELLE ROD & GUN CLUB INC", "city": "NEW ROCHELLE", "state": "NY", "zip": "10802-0723", "ntee": "", "ruling": "196610", "deductibility": "2", "assets": 0, "income": 0, "revenue": 0}, {"ein": "136150959", "name": "RICHMOND BORO GUN CLUB INC", "city": "STATEN ISLAND", "state": "NY", "zip": "10314-0142", "ntee": "", "ruling": "197302", "deductibility": "2", "assets": 1988047, "income": 237205, "revenue": 237205}, {"ein": "141536779", "name": "SOUTH SIDE ROD & GUN CLUB INC", "city": "WEST HURLEY", "state": "NY", "zip": "12491-5103", "ntee": "", "ruling": "197112", "deductibility": "2", "assets": 0, "income": 0, "revenue": 0}, {"ein": "141549396", "name": "HUNTERS HOME ROD AND GUN CLUB INC", "city": "MORRISONVILLE", "state": "NY", "zip": "12962-4004", "ntee": "", "ruling": "197502", "deductibility": "2", "assets": 127353, "income": 19565, "revenue": 19565}, {"ein": "141596902", "name": "PHILMONT ROD & GUN CLUB INC", "city": "PHILMONT", "state": "NY", "zip": "12565-0099", "ntee": "", "ruling": "199412", "deductibility": "2", "assets": 628839, "income": 81108, "revenue": 75518}, {"ein": "141639331", "name": "RED HOOK ROD & GUN CLUB", "city": "RED HOOK", "state": "NY", "zip": "12571-0301", "ntee": "", "ruling": "199306", "deductibility": "2", "assets": 0, "income": 0, "revenue": 0}, {"ein": "141653210", "name": "SCOTCH MT GUN CLUB INC", "city": "SAUGERTIES", "state": "NY", "zip": "12477-3669", "ntee": "N61", "ruling": "201703", "deductibility": "2", "assets": 0, "income": 0, "revenue": 0}, {"ein": "141663886", "name": "VOORHEESVILLE ROD & GUN CLUB INC", "city": "VOORHEESVILLE", "state": "NY", "zip": "12186-0000", "ntee": "N61", "ruling": "201906", "deductibility": "2", "assets": 263628, "income": 612580, "revenue": 152260}, {"ein": "141683987", "name": "MIDDLEBURGH ROD & GUN CLUB INC", "city": "MIDDLEBURGH", "state": "NY", "zip": "12122-0024", "ntee": "", "ruling": "199107", "deductibility": "2", "assets": 5716, "income": 70257, "revenue": 60184}, {"ein": "141721924", "name": "WASHINGTON HOLLOW ROD & GUN CLUB INC", "city": "PLEASANT VLY", "state": "NY", "zip": "12569-0283", "ntee": "", "ruling": "199305", "deductibility": "2", "assets": 0, "income": 0, "revenue": 0}, {"ein": "141741194", "name": "110 ROD AND GUN CLUB INC", "city": "VERBANK", "state": "NY", "zip": "12585-0161", "ntee": "", "ruling": "199205", "deductibility": "2", "assets": 141033, "income": 72305, "revenue": 72305}, {"ein": "141755943", "name": "NEW PALTZ ROD & GUN CLUB INC", "city": "NEW PALTZ", "state": "NY", "zip": "12561-0363", "ntee": "", "ruling": "199304", "deductibility": "2", "assets": 0, "income": 0, "revenue": 0}, {"ein": "141767406", "name": "BERLIN ROD & GUN CLUB INC", "city": "BERLIN", "state": "NY", "zip": "12022-0000", "ntee": "N61", "ruling": "202502", "deductibility": "1", "assets": 0, "income": 0, "revenue": 0}, {"ein": "141789574", "name": "NORTH TROY STAG ROD AND GUN CLUB INC", "city": "COHOES", "state": "NY", "zip": "12047-0272", "ntee": "", "ruling": "199607", "deductibility": "2", "assets": 820065, "income": 131503, "revenue": 104315}, {"ein": "141812018", "name": "MID-COUNTY ROD & GUN CLUB INC", "city": "LAGRANGEVILLE", "state": "NY", "zip": "12540-5330", "ntee": "N50", "ruling": "200002", "deductibility": "2", "assets": 1074457, "income": 286954, "revenue": 97920}, {"ein": "141828547", "name": "FISH CREEK ROD & GUN CLUB INC", "city": "VICTORY MILLS", "state": "NY", "zip": "12884-0094", "ntee": "N61", "ruling": "200201", "deductibility": "2", "assets": 388447, "income": 111264, "revenue": 62605}, {"ein": "146030064", "name": "MILLERTON GUN CLUB INC", "city": "MILLERTON", "state": "NY", "zip": "12546-0720", "ntee": "", "ruling": "194508", "deductibility": "2", "assets": 0, "income": 0, "revenue": 0}, {"ein": "146030131", "name": "SPROUT BROOK ROD & GUN CLUB INC", "city": "CANAJOHARIE", "state": "NY", "zip": "13317-3616", "ntee": "N61", "ruling": "201507", "deductibility": "2", "assets": 0, "income": 0, "revenue": 0}, {"ein": "146030266", "name": "BETHLEHEM ROD & GUN CLUB INC", "city": "PLATTEKILL", "state": "NY", "zip": "12568-0583", "ntee": "N50", "ruling": "201412", "deductibility": "2", "assets": 783268, "income": 472547, "revenue": 182239}, {"ein": "146030881", "name": "GLENMERE FISH & GUN CLUB INC", "city": "FLORIDA", "state": "NY", "zip": "10921-3118", "ntee": "", "ruling": "194509", "deductibility": "2", "assets": 0, "income": 0, "revenue": 0}, {"ein": "150304757", "name": "FAYETTEVILLE MANLIUS ROD & GUN CLUB INC", "city": "MANLIUS", "state": "NY", "zip": "13104-2514", "ntee": "", "ruling": "199201", "deductibility": "2", "assets": 142295, "income": 47033, "revenue": 47033}, {"ein": "150593092", "name": "LONG POND ROD & GUN CLUB INC", "city": "SYRACUSE", "state": "NY", "zip": "13215-1935", "ntee": "", "ruling": "197612", "deductibility": "2", "assets": 471650, "income": 102084, "revenue": 102084}, {"ein": "156020866", "name": "HOMER ROD & GUN CLUB INC", "city": "TRUXTON", "state": "NY", "zip": "13158-3134", "ntee": "", "ruling": "196310", "deductibility": "2", "assets": 0, "income": 0, "revenue": 0}, {"ein": "156021116", "name": "GROTON ROD & GUN CLUB INC", "city": "GROTON", "state": "NY", "zip": "13073-0111", "ntee": "", "ruling": "195906", "deductibility": "2", "assets": 112610, "income": 131284, "revenue": 87029}, {"ein": "156022762", "name": "ST REGIS ROD & GUN CLUB INC", "city": "GREAT BEND", "state": "NY", "zip": "13643-0222", "ntee": "N50", "ruling": "201606", "deductibility": "2", "assets": 0, "income": 0, "revenue": 0}, {"ein": "160447147", "name": "GENEVA ROD & GUN CLUB INC", "city": "GENEVA", "state": "NY", "zip": "14456-0000", "ntee": "", "ruling": "197305", "deductibility": "2", "assets": 0, "income": 0, "revenue": 0}, {"ein": "160707297", "name": "LAKEWOOD ROD & GUN CLUB INC", "city": "LAKEWOOD", "state": "NY", "zip": "14750-1526", "ntee": "", "ruling": "196108", "deductibility": "2", "assets": 2767055, "income": 5694891, "revenue": 959602}, {"ein": "160764536", "name": "ROCHESTER BROOKS GUN CLUB INC", "city": "RUSH", "state": "NY", "zip": "14543-9417", "ntee": "", "ruling": "195304", "deductibility": "2", "assets": 1281703, "income": 896831, "revenue": 772308}, {"ein": "160815975", "name": "BISON CITY ROD & GUN CLUB INC", "city": "BUFFALO", "state": "NY", "zip": "14204-2757", "ntee": "N61Z", "ruling": "194707", "deductibility": "2", "assets": 456405, "income": 123804, "revenue": 123804}, {"ein": "160958524", "name": "CATTARAUGUS ROD & GUN CLUB", "city": "CATTARAUGUS", "state": "NY", "zip": "14719-0123", "ntee": "N61", "ruling": "200312", "deductibility": "2", "assets": 0, "income": 0, "revenue": 0}, {"ein": "160995490", "name": "SPRINGWATER ROD & GUN CLUB INC", "city": "SPRINGWATER", "state": "NY", "zip": "14560-0276", "ntee": "", "ruling": "197305", "deductibility": "2", "assets": 76468, "income": 50865, "revenue": 39319}, {"ein": "160999177", "name": "EVANS ROD AND GUN CLUB INC", "city": "ANGOLA", "state": "NY", "zip": "14006-9132", "ntee": "", "ruling": "197402", "deductibility": "2", "assets": 514087, "income": 231527, "revenue": 143746}, {"ein": "161176198", "name": "ELLINGTON ROD & GUN CLUB INC", "city": "ELLINGTON", "state": "NY", "zip": "14732-0481", "ntee": "", "ruling": "198901", "deductibility": "2", "assets": 182587, "income": 959076, "revenue": 269152}, {"ein": "161213635", "name": "NEWARK ROD & GUN CLUB INC", "city": "NEWARK", "state": "NY", "zip": "14513-0000", "ntee": "Y99", "ruling": "199911", "deductibility": "1", "assets": 47798, "income": 44132, "revenue": 43484}, {"ein": "161263209", "name": "BATH ROD & GUN CLUB INC", "city": "BATH", "state": "NY", "zip": "14810-0764", "ntee": "", "ruling": "199103", "deductibility": "2", "assets": 424768, "income": 125225, "revenue": 85956}, {"ein": "161272748", "name": "EPHRATAH ROD & GUN CLUB INC", "city": "FORT PLAIN", "state": "NY", "zip": "13339-2651", "ntee": "", "ruling": "198709", "deductibility": "2", "assets": 121055, "income": 189013, "revenue": 95086}, {"ein": "161312918", "name": "TOP GUN HUNTING CLUB INC", "city": "ITHACA", "state": "NY", "zip": "14850-0000", "ntee": "N50", "ruling": "201206", "deductibility": "2", "assets": 0, "income": 0, "revenue": 0}, {"ein": "161392525", "name": "HOL-FIELD ROD & GUN CLUB INC", "city": "BLOOMFIELD", "state": "NY", "zip": "14469-0000", "ntee": "P20", "ruling": "202001", "deductibility": "2", "assets": 0, "income": 0, "revenue": 0}, {"ein": "161410924", "name": "OLEAN ROD & GUN CLUB INC", "city": "WESTON MILLS", "state": "NY", "zip": "14788-0213", "ntee": "", "ruling": "199303", "deductibility": "2", "assets": 529556, "income": 52866, "revenue": 44186}, {"ein": "161424220", "name": "MOREHOUSE ROD&GUN CLUB INC", "city": "COLD BROOK", "state": "NY", "zip": "13324-1710", "ntee": "N61", "ruling": "202407", "deductibility": "1", "assets": 0, "income": 0, "revenue": 0}, {"ein": "161429054", "name": "NORTH SYRACUSE ROD & GUN CLUB INC", "city": "WEST MONROE", "state": "NY", "zip": "13167-0214", "ntee": "N50", "ruling": "202001", "deductibility": "2", "assets": 0, "income": 0, "revenue": 0}, {"ein": "161554705", "name": "FREWSBURG ROD & GUN CLUB INC", "city": "FREWSBURG", "state": "NY", "zip": "14738-0000", "ntee": "N60", "ruling": "200007", "deductibility": "1", "assets": 240970, "income": 483069, "revenue": 80781}, {"ein": "161594489", "name": "BALDWINSVILLE ROD & GUN CLUB INC", "city": "BALDWINSVILLE", "state": "NY", "zip": "13027-0232", "ntee": "N61", "ruling": "200111", "deductibility": "2", "assets": 0, "income": 0, "revenue": 0}, {"ein": "161601672", "name": "CARTHAGE ROD & GUN CLUB", "city": "CARTHAGE", "state": "NY", "zip": "13619-0442", "ntee": "W01", "ruling": "201610", "deductibility": "1", "assets": 28451, "income": 47714, "revenue": 0}, {"ein": "166051068", "name": "NORTH FOREST ROD & GUN CLUB INC", "city": "LOCKPORT", "state": "NY", "zip": "14095-1161", "ntee": "", "ruling": "196211", "deductibility": "2", "assets": 215782, "income": 142246, "revenue": 142246}, {"ein": "166052287", "name": "CUBA ROD & GUN CLUB INC", "city": "CUBA", "state": "NY", "zip": "14727-0122", "ntee": "", "ruling": "194906", "deductibility": "2", "assets": 0, "income": 0, "revenue": 0}, {"ein": "166091087", "name": "ALDEN ROD & GUN CLUB", "city": "ALDEN", "state": "NY", "zip": "14004-0035", "ntee": "N6XZ", "ruling": "196803", "deductibility": "2", "assets": 143675, "income": 80067, "revenue": 57910}, {"ein": "204530341", "name": "HIDDEN LAKE CONSERVATION & GUN CLUBINC", "city": "HARRISON", "state": "NY", "zip": "10528-0000", "ntee": "C30", "ruling": "200802", "deductibility": "1", "assets": 0, "income": 0, "revenue": 0}, {"ein": "208802884", "name": "EVERYTOWN FOR GUN SAFETY ACTION FUND INC", "city": "NEW YORK", "state": "NY", "zip": "10163-4184", "ntee": "I192", "ruling": "200711", "deductibility": "2", "assets": 23196191, "income": 60673508, "revenue": 60651946}, {"ein": "222336748", "name": "RANDOLPH ROD AND GUN INC", "city": "RANDOLPH", "state": "NY", "zip": "14772-0252", "ntee": "N61", "ruling": "200901", "deductibility": "2", "assets": 63780, "income": 34029, "revenue": 17128}, {"ein": "222521288", "name": "FOUR POINT ROD & GUN CLUB INC", "city": "SCOTTSVILLE", "state": "NY", "zip": "14546-0009", "ntee": "", "ruling": "198608", "deductibility": "2", "assets": 526504, "income": 95201, "revenue": 88203}, {"ein": "222989519", "name": "NORTHERN DUTCHESS ROD & GUN CLUB INC", "city": "RHINEBECK", "state": "NY", "zip": "12572-0728", "ntee": "N50", "ruling": "201907", "deductibility": "2", "assets": 1042663, "income": 166424, "revenue": 166424}, {"ein": "222989520", "name": "NEIGHBORS ROD & GUN CLUB INC", "city": "RHINEBECK", "state": "NY", "zip": "12572-0460", "ntee": "", "ruling": "199307", "deductibility": "2", "assets": 216604, "income": 48646, "revenue": 48646}, {"ein": "223160871", "name": "WILTON ROD AND GUN CLUB INC", "city": "GANSEVOORT", "state": "NY", "zip": "12831-2569", "ntee": "", "ruling": "199205", "deductibility": "2", "assets": 0, "income": 0, "revenue": 0}, {"ein": "223253811", "name": "ELBRIDGE ROD & GUN CLUB INC", "city": "ELBRIDGE", "state": "NY", "zip": "13060-0000", "ntee": "", "ruling": "199502", "deductibility": "2", "assets": 85180, "income": 40277, "revenue": 37619}, {"ein": "223394310", "name": "WEEDSPORT ROD & GUN CLUB", "city": "WEEDSPORT", "state": "NY", "zip": "13166-0012", "ntee": "N61", "ruling": "201408", "deductibility": "2", "assets": 342991, "income": 130450, "revenue": 74028}, {"ein": "223613759", "name": "GLENCADIA ROD & GUN CLUB INC", "city": "STUYVESANT", "state": "NY", "zip": "12173-0013", "ntee": "N50", "ruling": "199901", "deductibility": "2", "assets": 511006, "income": 148152, "revenue": 116805}, {"ein": "237022592", "name": "ROOSEVELT ROD AND GUN CLUB INC", "city": "SEAFORD", "state": "NY", "zip": "11783-0414", "ntee": "N61", "ruling": "201211", "deductibility": "2", "assets": 0, "income": 0, "revenue": 0}, {"ein": "237097235", "name": "CHELSEA GUN CLUB OF NEW YORK CITY INC", "city": "NEW YORK", "state": "NY", "zip": "10009-1901", "ntee": "", "ruling": "197106", "deductibility": "2", "assets": 196441, "income": 19739, "revenue": 11723}, {"ein": "237120553", "name": "CASSETY HOLLOW ROD & GUN INC", "city": "YORKVILLE", "state": "NY", "zip": "13495-0208", "ntee": "", "ruling": "202211", "deductibility": "2", "assets": 0, "income": 0, "revenue": 0}, {"ein": "237151027", "name": "RUBY ROD & GUN CLUB INC", "city": "RUBY", "state": "NY", "zip": "12475-0011", "ntee": "", "ruling": "197111", "deductibility": "2", "assets": 853059, "income": 159314, "revenue": 127218}, {"ein": "237174124", "name": "MASSENA ROD & GUN CLUB INC", "city": "MASSENA", "state": "NY", "zip": "13662-0353", "ntee": "", "ruling": "197204", "deductibility": "2", "assets": 201324, "income": 49981, "revenue": 45864}, {"ein": "237198650", "name": "TUSTEN ROD & GUN CLUB INC", "city": "NARROWSBURG", "state": "NY", "zip": "12764-0000", "ntee": "N61", "ruling": "200107", "deductibility": "2", "assets": 41154, "income": 9330, "revenue": 9330}, {"ein": "237213170", "name": "LAKE KATRINE ROD AND GUN CLUB INC", "city": "ULSTER PARK", "state": "NY", "zip": "12487-5338", "ntee": "", "ruling": "197208", "deductibility": "2", "assets": 508490, "income": 164907, "revenue": 128265}, {"ein": "237243427", "name": "BINGHAMTON GUN CLUB INC", "city": "JOHNSON CITY", "state": "NY", "zip": "13790-0126", "ntee": "", "ruling": "197211", "deductibility": "2", "assets": 325584, "income": 95513, "revenue": 37371}, {"ein": "237452530", "name": "LYONS ROD & GUN CLUB INC", "city": "LYONS", "state": "NY", "zip": "14489-0184", "ntee": "", "ruling": "197708", "deductibility": "2", "assets": 94997, "income": 323204, "revenue": 169865}, {"ein": "260437741", "name": "KENT ROD AND GUN CLUB INCORPORATED", "city": "CARMEL", "state": "NY", "zip": "10512-5731", "ntee": "N61", "ruling": "200710", "deductibility": "2", "assets": 0, "income": 0, "revenue": 0}, {"ein": "261598353", "name": "EVERYTOWN FOR GUN SAFETY SUPPORT FUND INC", "city": "NEW YORK", "state": "NY", "zip": "10163-4184", "ntee": "I20", "ruling": "200807", "deductibility": "1", "assets": 40096027, "income": 33593611, "revenue": 33479284}, {"ein": "273246726", "name": "SHERIDAN TRANSIT ROD AND GUN CLUB INC", "city": "GRAND ISLAND", "state": "NY", "zip": "14072-1467", "ntee": "N50", "ruling": "201009", "deductibility": "2", "assets": 286812, "income": 71336, "revenue": 71336}, {"ein": "273635632", "name": "BEAVER VALLEY ROD AND GUN CLUB INC", "city": "WATERVILLE", "state": "NY", "zip": "13480-0031", "ntee": "N61", "ruling": "201103", "deductibility": "2", "assets": 0, "income": 0, "revenue": 0}, {"ein": "274780704", "name": "CAMDEN ROD AND GUN CLUB INC", "city": "CAMDEN", "state": "NY", "zip": "13316-0297", "ntee": "N61", "ruling": "201108", "deductibility": "2", "assets": 369117, "income": 98248, "revenue": 74003}, {"ein": "332035910", "name": "NODINE ROD AND GUN CLUB OF YONKERS INC", "city": "PLEASANTVILLE", "state": "NY", "zip": "10570-3617", "ntee": "N61", "ruling": "202507", "deductibility": "2", "assets": 0, "income": 0, "revenue": 0}, {"ein": "371567920", "name": "ALMA ROD AND GUN CLUB", "city": "WELLSVILLE", "state": "NY", "zip": "14895-0181", "ntee": "N61", "ruling": "201703", "deductibility": "1", "assets": 0, "income": 0, "revenue": 0}, {"ein": "455307536", "name": "SKYTOP ROD AND GUN CLUB", "city": "LYONS", "state": "NY", "zip": "14489-9769", "ntee": "N61", "ruling": "201303", "deductibility": "2", "assets": 0, "income": 0, "revenue": 0}, {"ein": "462839348", "name": "SHORTSVILLE ROD AND GUN CLUB", "city": "SHORTSVILLE", "state": "NY", "zip": "14548-0000", "ntee": "N61", "ruling": "202210", "deductibility": "1", "assets": 68677, "income": 66163, "revenue": 63504}, {"ein": "464806190", "name": "CARROLL ROD & GUN CLUB INC OF FREWSBURG NEW YORK", "city": "FREWSBURG", "state": "NY", "zip": "14738-0000", "ntee": "N61", "ruling": "201803", "deductibility": "1", "assets": 207859, "income": 109271, "revenue": 66950}, {"ein": "471999495", "name": "GUN HILL CIVIC GROUP INC", "city": "BRONX", "state": "NY", "zip": "10469-3731", "ntee": "S20", "ruling": "201709", "deductibility": "1", "assets": 0, "income": 0, "revenue": 0}, {"ein": "472382460", "name": "INNER CITY GUN VIOLENCE PREVENTION INC", "city": "BRONX", "state": "NY", "zip": "10453-7025", "ntee": "P99", "ruling": "201411", "deductibility": "1", "assets": 0, "income": 0, "revenue": 0}, {"ein": "510204495", "name": "DEPEW ROD & GUN CLUB INC", "city": "DEPEW", "state": "NY", "zip": "14043-0011", "ntee": "", "ruling": "197611", "deductibility": "2", "assets": 78389, "income": 99577, "revenue": 51498}, {"ein": "611594529", "name": "LANSING ROD & GUN CLUB", "city": "LANSING", "state": "NY", "zip": "14882-9052", "ntee": "", "ruling": "201801", "deductibility": "0", "assets": 359884, "income": 181165, "revenue": 181165}, {"ein": "812603185", "name": "SARASPA ROD AND GUN CLUB INC", "city": "GREENFLD CTR", "state": "NY", "zip": "12833-0222", "ntee": "P20", "ruling": "201608", "deductibility": "2", "assets": 1593263, "income": 206708, "revenue": 206708}, {"ein": "814006968", "name": "NO GUN SMOKE SCHOOL TOUR INC", "city": "BROOKLYN", "state": "NY", "zip": "11233-1207", "ntee": "W99", "ruling": "201612", "deductibility": "1", "assets": 0, "income": 0, "revenue": 0}, {"ein": "822182859", "name": "YORKTOWN ROD AND GUN CLUB INC", "city": "POUGHQUAG", "state": "NY", "zip": "12570-5420", "ntee": "N50", "ruling": "201712", "deductibility": "2", "assets": 0, "income": 0, "revenue": 0}, {"ein": "823364230", "name": "STUYVESANT ROD & GUN CLUB", "city": "MIDDLE VLG", "state": "NY", "zip": "11379-2392", "ntee": "N70", "ruling": "202211", "deductibility": "1", "assets": 56969, "income": 102732, "revenue": 102732}, {"ein": "824171768", "name": "VIOLA ROD & GUN CLUB INC", "city": "HYDE PARK", "state": "NY", "zip": "12538-3102", "ntee": "N61", "ruling": "201807", "deductibility": "1", "assets": 0, "income": 0, "revenue": 0}, {"ein": "831671011", "name": "SKANEATELES ROD AND GUN CLUB INC", "city": "SKANEATELES", "state": "NY", "zip": "13152-9352", "ntee": "N61", "ruling": "201812", "deductibility": "1", "assets": 0, "income": 0, "revenue": 0}, {"ein": "832761947", "name": "ANDOVER ROD AND GUN CLUB ASSOCIATION INC", "city": "ANDOVER", "state": "NY", "zip": "14806-0548", "ntee": "N60", "ruling": "201905", "deductibility": "1", "assets": 0, "income": 0, "revenue": 0}, {"ein": "833595752", "name": "DOCTORS 4 GUN SAFETY INC", "city": "MANHASSET", "state": "NY", "zip": "11030-1027", "ntee": "B01", "ruling": "201903", "deductibility": "1", "assets": 0, "income": 0, "revenue": 0}, {"ein": "844132814", "name": "OXFORD ROD AND GUN CLUB INC", "city": "OXFORD", "state": "NY", "zip": "13830-2202", "ntee": "N70", "ruling": "202306", "deductibility": "1", "assets": 0, "income": 0, "revenue": 0}, {"ein": "852020437", "name": "HUDSON VALLEY NUBIAN GUN CLUB", "city": "NEWBURGH", "state": "NY", "zip": "12550-8345", "ntee": "N50", "ruling": "202211", "deductibility": "1", "assets": 0, "income": 0, "revenue": 0}, {"ein": "853151884", "name": "NEWFIELD ROD AND GUN CLUB", "city": "NEWFIELD", "state": "NY", "zip": "14867-0008", "ntee": "N50", "ruling": "202010", "deductibility": "2", "assets": 0, "income": 0, "revenue": 0}, {"ein": "861116144", "name": "GUN HILL RESIDENTS ASSOCIATION", "city": "BRONX", "state": "NY", "zip": "10467-5716", "ntee": "P20", "ruling": "201509", "deductibility": "1", "assets": 0, "income": 0, "revenue": 0}, {"ein": "883856796", "name": "UJGC UNITED JEWISH GUN COALITION INC", "city": "SUFFERN", "state": "NY", "zip": "10901-4256", "ntee": "B99", "ruling": "202209", "deductibility": "1", "assets": 0, "income": 0, "revenue": 0}, {"ein": "900681632", "name": "RAPIDS ROD AND GUN CLUB INC", "city": "LOCKPORT", "state": "NY", "zip": "14094-6629", "ntee": "N50", "ruling": "201706", "deductibility": "1", "assets": 0, "income": 0, "revenue": 0}, {"ein": "900997466", "name": "BLOOMING GROVE ROD AND GUN CLUB IN", "city": "MONROE", "state": "NY", "zip": "10949-0310", "ntee": "N61", "ruling": "201409", "deductibility": "2", "assets": 0, "income": 0, "revenue": 0}, {"ein": "901069683", "name": "COON ROCK ROD & GUN CLUB INC", "city": "LIBERTY", "state": "NY", "zip": "12754-2922", "ntee": "N61", "ruling": "201503", "deductibility": "2", "assets": 0, "income": 0, "revenue": 0}, {"ein": "923432940", "name": "GUN VIOLENCE PROJECT INC", "city": "BROOKLYN", "state": "NY", "zip": "11201-8221", "ntee": "E70", "ruling": "202311", "deductibility": "1", "assets": 0, "income": 0, "revenue": 0}, {"ein": "933652476", "name": "WESTERN ASSOCIATION OF GUN EDUCATION INC", "city": "HAMBURG", "state": "NY", "zip": "14075-0538", "ntee": "M40", "ruling": "202312", "deductibility": "1", "assets": 0, "income": 0, "revenue": 0}], "LAFARGEVILLE": [{"ein": "061218947", "name": "CHURCH OF THE NAZARENE-LAFARGEVILLE", "city": "LAFARGEVILL", "state": "NY", "zip": "13656-0100", "ntee": "", "ruling": "196307", "deductibility": "1", "assets": 0, "income": 0, "revenue": 0}], "SHAARE": [{"ein": "111707599", "name": "FLATBUSH & SHAARE TORAH JEWISH CENTER", "city": "BROOKLYN", "state": "NY", "zip": "11218-3116", "ntee": "X30", "ruling": "201611", "deductibility": "1", "assets": 0, "income": 0, "revenue": 0}, {"ein": "111735956", "name": "SHAARE ZION CONGREGATION", "city": "BROOKLYN", "state": "NY", "zip": "11223-4045", "ntee": "", "ruling": "199402", "deductibility": "1", "assets": 0, "income": 0, "revenue": 0}, {"ein": "112405099", "name": "SHAARE TORAH C O BENJAMIN ISAACS ESQ", "city": "BROOKLYN", "state": "NY", "zip": "11211-7820", "ntee": "", "ruling": "197701", "deductibility": "1", "assets": 0, "income": 0, "revenue": 0}, {"ein": "112478780", "name": "SHAARE TOVA", "city": "KEW GARDENS", "state": "NY", "zip": "11415-2637", "ntee": "", "ruling": "197909", "deductibility": "1", "assets": 0, "income": 0, "revenue": 0}, {"ein": "112579605", "name": "CONGREGATION SHAARE SHALOM OF OCEAN PARKWAY", "city": "BROOKLYN", "state": "NY", "zip": "11219-3227", "ntee": "", "ruling": "198309", "deductibility": "1", "assets": 0, "income": 0, "revenue": 0}, {"ein": "112613334", "name": "YESHIVA SHAARE TORAH INC", "city": "BROOKLYN", "state": "NY", "zip": "11230-5808", "ntee": "B200", "ruling": "198407", "deductibility": "1", "assets": 0, "income": 0, "revenue": 0}, {"ein": "112718180", "name": "SHAARE YOSHER JERUSALEM", "city": "BROOKLYN", "state": "NY", "zip": "11219-2102", "ntee": "", "ruling": "198503", "deductibility": "1", "assets": 0, "income": 0, "revenue": 0}, {"ein": "112806004", "name": "CONGREGATION SHAARE CHAIM", "city": "BROOKLYN", "state": "NY", "zip": "11210-4732", "ntee": "", "ruling": "198702", "deductibility": "1", "assets": 0, "income": 0, "revenue": 0}, {"ein": "112853210", "name": "CONGREGATION SHAARE SHALOM SYNAGOGUE", "city": "BROOKLYN", "state": "NY", "zip": "11210-3616", "ntee": "", "ruling": "198705", "deductibility": "1", "assets": 0, "income": 0, "revenue": 0}, {"ein": "112988142", "name": "CONGREGATION SHAARE TESHUVA", "city": "REGO PARK", "state": "NY", "zip": "11374-3249", "ntee": "", "ruling": "199108", "deductibility": "1", "assets": 0, "income": 0, "revenue": 0}, {"ein": "113033614", "name": "BENE SHAARE ZION", "city": "BROOKLYN", "state": "NY", "zip": "11210-3714", "ntee": "", "ruling": "199103", "deductibility": "1", "assets": 0, "income": 0, "revenue": 0}, {"ein": "113192715", "name": "SHAARE ZION OF GREAT NECK CORP", "city": "GREAT NECK", "state": "NY", "zip": "11021-1102", "ntee": "X30Z", "ruling": "199501", "deductibility": "1", "assets": 0, "income": 0, "revenue": 0}, {"ein": "113389733", "name": "CONGREGATION SHAARE RAHAMIM INC", "city": "BROOKLYN", "state": "NY", "zip": "11230-4004", "ntee": "X30Z", "ruling": "199707", "deductibility": "1", "assets": 0, "income": 0, "revenue": 0}, {"ein": "113429555", "name": "CONGREGATION SHAARE SHALOM INC", "city": "BROOKLYN", "state": "NY", "zip": "11229-3636", "ntee": "X30", "ruling": "199901", "deductibility": "1", "assets": 0, "income": 0, "revenue": 0}, {"ein": "131763802", "name": "CONGREGATION SHAARE HATIKVAH", "city": "NEW YORK", "state": "NY", "zip": "10033-3043", "ntee": "", "ruling": "195504", "deductibility": "1", "assets": 0, "income": 0, "revenue": 0}, {"ein": "132893035", "name": "SEPHARDIC SHAARE RAHAMIM CONGREGATION INC", "city": "BRONX", "state": "NY", "zip": "10475-3832", "ntee": "", "ruling": "197706", "deductibility": "1", "assets": 0, "income": 0, "revenue": 0}, {"ein": "135645878", "name": "AMERICAN COMMITTEE FOR SHAARE ZEDEK", "city": "NEW YORK", "state": "NY", "zip": "10018-3721", "ntee": "Q113", "ruling": "195404", "deductibility": "1", "assets": 29188114, "income": 41888131, "revenue": 30701175}, {"ein": "208837128", "name": "SHAARE SHAMAYIM HEBREW ISRAELITEKNESSET", "city": "JAMAICA", "state": "NY", "zip": "11433-0000", "ntee": "X30", "ruling": "202108", "deductibility": "1", "assets": 0, "income": 0, "revenue": 0}, {"ein": "432034678", "name": "YESHIVAT SHAARE RAHAMIM INC", "city": "BROOKLYN", "state": "NY", "zip": "11230-4004", "ntee": "X30", "ruling": "200403", "deductibility": "1", "assets": 0, "income": 0, "revenue": 0}, {"ein": "453755072", "name": "SHAARE YOSHER YESHIVA INC", "city": "BROOKLYN", "state": "NY", "zip": "11204-1834", "ntee": "X30", "ruling": "201501", "deductibility": "1", "assets": 0, "income": 0, "revenue": 0}, {"ein": "471154866", "name": "CONG SHAARE BETH YOSEF", "city": "MONROE", "state": "NY", "zip": "10950-8707", "ntee": "X30", "ruling": "202401", "deductibility": "1", "assets": 0, "income": 0, "revenue": 0}, {"ein": "472854479", "name": "SHAARE TEVUNA INC", "city": "BROOKLYN", "state": "NY", "zip": "11204-1482", "ntee": "T30", "ruling": "201607", "deductibility": "1", "assets": 37906, "income": 293742, "revenue": 293742}, {"ein": "872289102", "name": "SHAARE SHLOMO", "city": "FRESH MEADOWS", "state": "NY", "zip": "11365-0000", "ntee": "X30", "ruling": "202308", "deductibility": "1", "assets": 0, "income": 0, "revenue": 0}, {"ein": "874340531", "name": "SHAARE EZRA", "city": "BROOKLYN", "state": "NY", "zip": "11229-3509", "ntee": "X30", "ruling": "202208", "deductibility": "1", "assets": 0, "income": 0, "revenue": 0}, {"ein": "932684079", "name": "SHAARE EMUNAH CHARITY FUND INC", "city": "BROOKLYN", "state": "NY", "zip": "11230-4718", "ntee": "P20", "ruling": "202310", "deductibility": "1", "assets": 0, "income": 0, "revenue": 0}, {"ein": "934844661", "name": "KEHILAT SHAARE SHALOM INC", "city": "WOODMERE", "state": "NY", "zip": "11598-1008", "ntee": "X30", "ruling": "202407", "deductibility": "1", "assets": 0, "income": 0, "revenue": 0}], "MANUFACTURING": [{"ein": "111875224", "name": "NEW YORK STATE ASSOCIATION OF MANUFACTURING RETAIL BAKERS INC", "city": "LK RONKONKOMA", "state": "NY", "zip": "11779-1737", "ntee": "", "ruling": "192710", "deductibility": "2", "assets": 352216, "income": 19749, "revenue": 19749}, {"ein": "113132562", "name": "GREENPOINT MANUFACTURING AND DESIGN CENTER LOCAL DEVELOPMENT CORP GMDC", "city": "BROOKLYN", "state": "NY", "zip": "11222-6102", "ntee": "S400", "ruling": "199308", "deductibility": "1", "assets": 68216932, "income": 6472967, "revenue": 6472967}, {"ein": "131035099", "name": "MANUFACTURING WOODWORKERS ASSOCIATION-GREATER NEW YORK", "city": "VALHALLA", "state": "NY", "zip": "10595-1949", "ntee": "", "ruling": "000000", "deductibility": "0", "assets": 379304, "income": 214211, "revenue": 120142}, {"ein": "132706214", "name": "SOCIETY OF MANUFACTURING ENGINEERS", "city": "PUTNAM VALLEY", "state": "NY", "zip": "10579-3423", "ntee": "", "ruling": "196705", "deductibility": "1", "assets": 0, "income": 0, "revenue": 0}, {"ein": "136100908", "name": "HOSPITALIZATION TRUST FUND OF THE ELECTRICAL MANUFACTURING INDUSTRY", "city": "FLUSHING", "state": "NY", "zip": "11365-3085", "ntee": "", "ruling": "195810", "deductibility": "2", "assets": 17969652, "income": 32737388, "revenue": 24951595}, {"ein": "161188811", "name": "SOCIETY OF MANUFACTURING ENGINEERS", "city": "EAST SYRACUSE", "state": "NY", "zip": "13057-1020", "ntee": "", "ruling": "196705", "deductibility": "1", "assets": 0, "income": 0, "revenue": 0}, {"ein": "161292321", "name": "ADVANCED MANUFACTURING TRAINING CENTER INC", "city": "SIDNEY", "state": "NY", "zip": "13838-1715", "ntee": "", "ruling": "198802", "deductibility": "1", "assets": 0, "income": 0, "revenue": 0}, {"ein": "161340290", "name": "ALLIANCE FOR MANUFACTURING & TECHNOLOGY OF SOUTHERN TIER INC", "city": "BINGHAMTON", "state": "NY", "zip": "13905-1345", "ntee": "J20Z", "ruling": "198909", "deductibility": "1", "assets": 2419154, "income": 2997140, "revenue": 2146465}, {"ein": "161438227", "name": "WESTERN NEW YORK MANUFACTURING ENGINEERS EDUCATIONAL TR", "city": "EAST AURORA", "state": "NY", "zip": "14052-0512", "ntee": "B82Z", "ruling": "199807", "deductibility": "1", "assets": 0, "income": 0, "revenue": 0}, {"ein": "222186029", "name": "ROCHESTER TECHNOLOGY AND MANUFACTURING ASSOCIATION INC", "city": "ROCHESTER", "state": "NY", "zip": "14623-1358", "ntee": "", "ruling": "197803", "deductibility": "2", "assets": 2046333, "income": 1059846, "revenue": 842392}, {"ein": "222925363", "name": "MANUFACTURING WOODWORKERS PROMOTIONAL FUND OF NEW YORK", "city": "VALHALLA", "state": "NY", "zip": "10595-1949", "ntee": "", "ruling": "199201", "deductibility": "2", "assets": 106585, "income": 47417, "revenue": 47417}, {"ein": "271356778", "name": "BUFFALO NIAGARA MANUFACTURING ALLIANCE INC", "city": "BUFFALO", "state": "NY", "zip": "14211-1057", "ntee": "S41", "ruling": "201109", "deductibility": "2", "assets": 256260, "income": 383428, "revenue": 320710}, {"ein": "471596366", "name": "MANUFACTURING CONSORTIUM OF LONG ISLAND CORP", "city": "HAUPPAUGE", "state": "NY", "zip": "11788-2021", "ntee": "S41", "ruling": "202004", "deductibility": "2", "assets": 30310, "income": 108962, "revenue": 74542}, {"ein": "472847445", "name": "URBAN MANUFACTURING ALLIANCE", "city": "NEW YORK", "state": "NY", "zip": "10001-4482", "ntee": "S31", "ruling": "201509", "deductibility": "1", "assets": 2067126, "income": 1937138, "revenue": 1937138}, {"ein": "813070192", "name": "SUSTAINABLE MANUFACTURING INNOVATION ALLIANCE CORP", "city": "W HENRIETTA", "state": "NY", "zip": "14586-9687", "ntee": "U05", "ruling": "201802", "deductibility": "1", "assets": 7732649, "income": 9262088, "revenue": 9262088}, {"ein": "825190478", "name": "HUDSON VALLEY MANUFACTURING WORKFORCE CENTER", "city": "NEWBURGH", "state": "NY", "zip": "12550-8345", "ntee": "B99", "ruling": "201811", "deductibility": "1", "assets": 0, "income": 0, "revenue": 0}, {"ein": "843754644", "name": "EDUCATION-MANUFACTURING INTERFACE INC", "city": "FALCONER", "state": "NY", "zip": "14733-1454", "ntee": "J22", "ruling": "201912", "deductibility": "1", "assets": 0, "income": 0, "revenue": 0}, {"ein": "844020441", "name": "AMERICAN CENTER FOR OPTICS MANUFACTURING INC", "city": "ROCHESTER", "state": "NY", "zip": "14623-3190", "ntee": "U20", "ruling": "202003", "deductibility": "1", "assets": 7671943, "income": 4932251, "revenue": 4932251}], "UNIONS": [{"ein": "111896570", "name": "NATIONAL ORGANIZATION OF INDUSTRIAL TRADE UNIONS", "city": "JAMAICA", "state": "NY", "zip": "11435-3331", "ntee": "", "ruling": "196911", "deductibility": "2", "assets": 7928195, "income": 2972052, "revenue": 1712502}, {"ein": "113286388", "name": "LOCAL 713 INTERNATIONAL BROTHERHOOD OF TRADE UNIONS", "city": "CARLE PLACE", "state": "NY", "zip": "11514-1748", "ntee": "", "ruling": "199708", "deductibility": "2", "assets": 10239135, "income": 11790984, "revenue": 5946941}, {"ein": "116490308", "name": "INTERNATIONAL BROTHERHOOD OF TRADE UNIONS HEALTH & WELFARE FD TR", "city": "CARLE PLACE", "state": "NY", "zip": "11514-1748", "ntee": "Y430", "ruling": "199904", "deductibility": "2", "assets": 48514654, "income": 243911891, "revenue": 207214422}, {"ein": "472495307", "name": "NATIONAL ASSOCIATION OF SPECIALTY TRADE UNIONS", "city": "VALHALLA", "state": "NY", "zip": "10595-1372", "ntee": "J40", "ruling": "201503", "deductibility": "2", "assets": 1, "income": 0, "revenue": 0}, {"ein": "562475680", "name": "NATIONAL ORGANIZATION OF INDUSTRIAL TRADE UNIONS", "city": "JAMAICA", "state": "NY", "zip": "11435-3331", "ntee": "O53", "ruling": "200605", "deductibility": "2", "assets": 0, "income": 0, "revenue": 0}, {"ein": "800117778", "name": "NATIONAL ORGANIZATION OF INDUSTRIAL TRADE UNIONS", "city": "JAMAICA", "state": "NY", "zip": "11435-3331", "ntee": "O53", "ruling": "200605", "deductibility": "2", "assets": 0, "income": 0, "revenue": 0}], "UTOPIA": [{"ein": "111949575", "name": "UTOPIA JEWISH CENTER", "city": "FLUSHING", "state": "NY", "zip": "11365-2147", "ntee": "", "ruling": "195212", "deductibility": "1", "assets": 0, "income": 0, "revenue": 0}, {"ein": "112974716", "name": "UTOPIA TORAH CONGREATION", "city": "FRESH MEADOWS", "state": "NY", "zip": "11365-2147", "ntee": "", "ruling": "199101", "deductibility": "1", "assets": 0, "income": 0, "revenue": 0}, {"ein": "131624243", "name": "UTOPIA CHILDRENS CENTER INC", "city": "NEW YORK", "state": "NY", "zip": "10027-1901", "ntee": "B210", "ruling": "194706", "deductibility": "1", "assets": 284256, "income": 640973, "revenue": 640973}, {"ein": "131963929", "name": "UTOPIA FUND", "city": "PLAINVIEW", "state": "NY", "zip": "11803-0331", "ntee": "", "ruling": "195205", "deductibility": "1", "assets": 3086921, "income": 2668641, "revenue": 0}, {"ein": "150477490", "name": "UTOPIA CLUB INC", "city": "AUBURN", "state": "NY", "zip": "13021-4015", "ntee": "", "ruling": "198902", "deductibility": "2", "assets": 184928, "income": 158321, "revenue": 65969}, {"ein": "465555745", "name": "URBAN UTOPIA WILDLIFE REHABILITATION INC", "city": "NEW YORK", "state": "NY", "zip": "10276-0308", "ntee": "D30", "ruling": "201407", "deductibility": "1", "assets": 0, "income": 0, "revenue": 0}, {"ein": "811227880", "name": "UTOPIA OPERA LIMITED", "city": "NEW YORK", "state": "NY", "zip": "10040-1863", "ntee": "A6A", "ruling": "201602", "deductibility": "1", "assets": 9329, "income": 28942, "revenue": 28942}, {"ein": "822975355", "name": "TNR UTOPIA INC", "city": "BAYSIDE", "state": "NY", "zip": "11360-4258", "ntee": "D20", "ruling": "201801", "deductibility": "1", "assets": 6607, "income": 19718, "revenue": 19718}, {"ein": "833737500", "name": "UTOPIA RESOURCE CENTER GREATER NY INC", "city": "BRONX", "state": "NY", "zip": "10456-6860", "ntee": "O50", "ruling": "201908", "deductibility": "1", "assets": 241143, "income": 138021, "revenue": 138021}, {"ein": "851846038", "name": "UTOPIA PAN SOUL INC", "city": "BROOKLYN", "state": "NY", "zip": "11238-3744", "ntee": "A99", "ruling": "202201", "deductibility": "1", "assets": 0, "income": 0, "revenue": 0}], "SCOTLAND": [{"ein": "112139435", "name": "ST MARGARET OF SCOTLAND CHURCH", "city": "FRESH MEADOWS", "state": "NY", "zip": "11365-2334", "ntee": "", "ruling": "197206", "deductibility": "1", "assets": 0, "income": 0, "revenue": 0}, {"ein": "161517022", "name": "TOWN OF NEW SCOTLAND HISTORICAL ASSOCIATION", "city": "VOORHEESVILLE", "state": "NY", "zip": "12186-0541", "ntee": "A80Z", "ruling": "199801", "deductibility": "1", "assets": 0, "income": 0, "revenue": 0}, {"ein": "262247462", "name": "THE ENTREPRENEURIAL SCOTLAND FOUNDATION USA", "city": "NEW YORK", "state": "NY", "zip": "10019-0000", "ntee": "T30", "ruling": "200808", "deductibility": "1", "assets": 117820, "income": 153705, "revenue": 153705}, {"ein": "273498675", "name": "ROYAL CONSERVATOIRE OF SCOTLAND INTERNATIONAL ADVISORY BOARD INC", "city": "NEW YORK", "state": "NY", "zip": "10019-0000", "ntee": "A12", "ruling": "201012", "deductibility": "1", "assets": 98217, "income": 74185, "revenue": 74185}, {"ein": "371744566", "name": "NEW SCOTLAND SOCCER CLUB INC", "city": "VOORHEESVILLE", "state": "NY", "zip": "12186-0044", "ntee": "N64", "ruling": "201502", "deductibility": "1", "assets": 0, "income": 0, "revenue": 0}, {"ein": "510254205", "name": "AMERICAN FOUNDATION FOR THE NATIONAL MUSEUMS SCOTLAND", "city": "NEW YORK", "state": "NY", "zip": "10001-3031", "ntee": "", "ruling": "198012", "deductibility": "1", "assets": 226979, "income": 268136, "revenue": 268136}], "MENAHE": [{"ein": "112411679", "name": "YESHIVA CHIBAS AVROHOM C O MENAHE NEWHOUSE", "city": "RICHMOND HILL", "state": "NY", "zip": "11418-2608", "ntee": "", "ruling": "197704", "deductibility": "1", "assets": 0, "income": 0, "revenue": 0}], "TATAR": [{"ein": "112546045", "name": "AMERICAN TATAR ASSOC INC", "city": "COLLEGE POINT", "state": "NY", "zip": "11356-2222", "ntee": "X40", "ruling": "202111", "deductibility": "1", "assets": 87150, "income": 51750, "revenue": 51750}, {"ein": "933792517", "name": "CRIMEAN TATAR FOUNDATION USA INC", "city": "BROOKLYN", "state": "NY", "zip": "11223-4809", "ntee": "A23", "ruling": "202312", "deductibility": "1", "assets": 0, "income": 0, "revenue": 0}], "BRIGHT": [{"ein": "112553414", "name": "GREATER BRIGHT LIGHT BAPTIST CHURCH INC", "city": "BROOKLYN", "state": "NY", "zip": "11208-3908", "ntee": "", "ruling": "198102", "deductibility": "1", "assets": 0, "income": 0, "revenue": 0}, {"ein": "133141241", "name": "BRIGHT TEMPLE AME CHURCH", "city": "BRONX", "state": "NY", "zip": "10474-5504", "ntee": "X20", "ruling": "202506", "deductibility": "1", "assets": 0, "income": 0, "revenue": 0}, {"ein": "141797822", "name": "BRIGHT BEGINNINGS FAMILY SERVICES INC", "city": "POUGHKEEPSIE", "state": "NY", "zip": "12601-4912", "ntee": "P30", "ruling": "201909", "deductibility": "1", "assets": 0, "income": 0, "revenue": 0}, {"ein": "161551379", "name": "BRIGHT HILL PRESS INC", "city": "TREADWELL", "state": "NY", "zip": "13846-4607", "ntee": "A33", "ruling": "199811", "deductibility": "1", "assets": 234717, "income": 132078, "revenue": 132078}, {"ein": "161768781", "name": "BRIGHT LIGHT FAMILY WORSHIP CENTER CHURCH OF GOD IN CHRIST", "city": "JAMAICA", "state": "NY", "zip": "11434-0396", "ntee": "X20", "ruling": "200801", "deductibility": "1", "assets": 0, "income": 0, "revenue": 0}, {"ein": "200130484", "name": "BRIGHT HOPES", "city": "STONY BROOK", "state": "NY", "zip": "11790-2115", "ntee": "P20", "ruling": "200401", "deductibility": "1", "assets": 0, "income": 0, "revenue": 0}, {"ein": "205858414", "name": "BRIGHT FUTURE CHILDREN CENTER INC", "city": "ELMONT", "state": "NY", "zip": "11003-0196", "ntee": "P33", "ruling": "200809", "deductibility": "1", "assets": 241271, "income": 8990, "revenue": 8990}, {"ein": "260549207", "name": "FRIENDS OF BRIGHT MINDS COMMUNITYPREP INC", "city": "BROOKLYN", "state": "NY", "zip": "11247-2332", "ntee": "P40", "ruling": "201501", "deductibility": "1", "assets": 0, "income": 0, "revenue": 0}, {"ein": "263196839", "name": "BRIGHT STAR ACADEMY INC", "city": "OCEANSIDE", "state": "NY", "zip": "11572-3148", "ntee": "B21", "ruling": "201308", "deductibility": "1", "assets": 739088, "income": 1757548, "revenue": 1757548}, {"ein": "263641385", "name": "JESUS BRIGHT MORNING STAR CHURCH", "city": "FLUSHING", "state": "NY", "zip": "11358-3637", "ntee": "X20", "ruling": "200909", "deductibility": "1", "assets": 0, "income": 0, "revenue": 0}, {"ein": "331275417", "name": "BRIGHT MINDS OF THE FUTURE", "city": "NEW YORK", "state": "NY", "zip": "10029-0334", "ntee": "R99", "ruling": "202410", "deductibility": "1", "assets": 0, "income": 0, "revenue": 0}, {"ein": "331751864", "name": "SHEN FAMILY BRIGHT FUTURE FOUNDATION INC", "city": "MANHASSET", "state": "NY", "zip": "11030-1800", "ntee": "H99", "ruling": "202411", "deductibility": "1", "assets": 45000, "income": 50000, "revenue": 0}, {"ein": "332474419", "name": "BRIGHT CONNECT INC", "city": "BROOKLYN", "state": "NY", "zip": "11211-6959", "ntee": "A12", "ruling": "202501", "deductibility": "1", "assets": 0, "income": 0, "revenue": 0}, {"ein": "332774296", "name": "BRIGHT-BYTE FOUNDATION", "city": "DANSVILLE", "state": "NY", "zip": "14437-1654", "ntee": "E70", "ruling": "202504", "deductibility": "1", "assets": 0, "income": 0, "revenue": 0}, {"ein": "357059216", "name": "BRIGHT TR FBO KNOX COLLEGE", "city": "NEW YORK", "state": "NY", "zip": "10013-2362", "ntee": "T20", "ruling": "201507", "deductibility": "1", "assets": 14410823, "income": 10210761, "revenue": 0}, {"ein": "474383655", "name": "BRIGHT FUTURES GENESEE INC", "city": "BATAVIA", "state": "NY", "zip": "14020-2230", "ntee": "P20", "ruling": "201507", "deductibility": "1", "assets": 8540, "income": 0, "revenue": 0}, {"ein": "601684459", "name": "BRIGHT FUTURES EARLY CHILDHOOD CENTER INC", "city": "BRONX", "state": "NY", "zip": "10467-6019", "ntee": "P33", "ruling": "201602", "deductibility": "1", "assets": 52350, "income": 0, "revenue": 0}, {"ein": "800563203", "name": "PARTNERS FOR A BRIGHT AND HEALTHY HAITI INC", "city": "NEW YORK", "state": "NY", "zip": "10035-5047", "ntee": "B24", "ruling": "201008", "deductibility": "1", "assets": 0, "income": 0, "revenue": 0}, {"ein": "811897984", "name": "BRIGHT HAVEN", "city": "BRONX", "state": "NY", "zip": "10470-1608", "ntee": "P20", "ruling": "201707", "deductibility": "1", "assets": 64788, "income": 132, "revenue": 132}, {"ein": "812127354", "name": "BRIGHT FUTURE COMMUNITY INC", "city": "FAR ROCKAWAY", "state": "NY", "zip": "11691-0000", "ntee": "J22", "ruling": "202107", "deductibility": "1", "assets": 10616, "income": 240000, "revenue": 240000}, {"ein": "812635788", "name": "BRIGHT KIDS FOUNDATION INC", "city": "NEW YORK", "state": "NY", "zip": "10128-2226", "ntee": "B99", "ruling": "201612", "deductibility": "1", "assets": 0, "income": 0, "revenue": 0}, {"ein": "813453289", "name": "BRIGHT HOPE CENTER INC", "city": "SCHENECTADY", "state": "NY", "zip": "12304-2034", "ntee": "", "ruling": "201702", "deductibility": "1", "assets": 0, "income": 0, "revenue": 0}, {"ein": "814806766", "name": "BRIGHT STAR CHAPTER 178 ORDER OF EASTERN STAR", "city": "UTICA", "state": "NY", "zip": "13501-3401", "ntee": "", "ruling": "194007", "deductibility": "1", "assets": 0, "income": 0, "revenue": 0}, {"ein": "824373463", "name": "FUNDING BRIGHT FUTURES", "city": "NEW YORK", "state": "NY", "zip": "10017-3550", "ntee": "B82", "ruling": "201805", "deductibility": "1", "assets": 0, "income": 0, "revenue": 0}, {"ein": "824642084", "name": "BRIGHT LITE CHARITY CORP", "city": "NEW YORK", "state": "NY", "zip": "10019-6262", "ntee": "Q33", "ruling": "201808", "deductibility": "1", "assets": 0, "income": 0, "revenue": 0}, {"ein": "830522176", "name": "BRIGHT LIGHT ANIMAL SANCTUARY INC", "city": "FRANKLIN SQ", "state": "NY", "zip": "11010-2111", "ntee": "D20", "ruling": "201909", "deductibility": "1", "assets": 0, "income": 0, "revenue": 0}, {"ein": "832636413", "name": "BRIGHT MINDS ACADEMY INC", "city": "STATEN ISLAND", "state": "NY", "zip": "10304-4832", "ntee": "B90", "ruling": "202005", "deductibility": "1", "assets": 200877, "income": 1279082, "revenue": 1279082}, {"ein": "851771523", "name": "BEACON OF BRIGHT BEGINNINGS FOUNDATION", "city": "SCARSDALE", "state": "NY", "zip": "10583-1435", "ntee": "B80", "ruling": "202008", "deductibility": "1", "assets": 835145, "income": 250000, "revenue": 0}, {"ein": "852538453", "name": "LITTLE MINDS BRIGHT FUTURES DYNASTY INC", "city": "BROOKLYN", "state": "NY", "zip": "11236-1456", "ntee": "E12", "ruling": "202010", "deductibility": "1", "assets": 1, "income": 0, "revenue": 0}, {"ein": "852565958", "name": "BRIGHT LEADERS FOUNDATION", "city": "BRONX", "state": "NY", "zip": "10452-1962", "ntee": "O50", "ruling": "202010", "deductibility": "1", "assets": 0, "income": 0, "revenue": 0}, {"ein": "872026540", "name": "BRIGHT FUTURE FOR HAITI INC", "city": "VALLEY STREAM", "state": "NY", "zip": "11580-5825", "ntee": "P20", "ruling": "202202", "deductibility": "1", "assets": 0, "income": 0, "revenue": 0}, {"ein": "873213957", "name": "CONGREGATION BRIGHT LIGHT INC", "city": "STATEN ISLAND", "state": "NY", "zip": "10314-5080", "ntee": "X30", "ruling": "202207", "deductibility": "1", "assets": 0, "income": 0, "revenue": 0}, {"ein": "921142062", "name": "BRIGHT SKY FOUNDATION", "city": "SPRING VALLEY", "state": "NY", "zip": "10977-1406", "ntee": "T22", "ruling": "202301", "deductibility": "1", "assets": 43693, "income": 15000, "revenue": 0}, {"ein": "921619361", "name": "BRIGHT HEALTHY SMILES FOUNDATION INC", "city": "NEW YORK", "state": "NY", "zip": "10021-2956", "ntee": "T30", "ruling": "202303", "deductibility": "1", "assets": 0, "income": 0, "revenue": 0}, {"ein": "931660324", "name": "BUILDING BRIGHT FUTURES TOGETHER INC", "city": "BROOKLYN", "state": "NY", "zip": "11230-4703", "ntee": "T99", "ruling": "202311", "deductibility": "1", "assets": 0, "income": 0, "revenue": 0}, {"ein": "934333182", "name": "BRIGHT SPOT COMMUNITY DEVELOPMENT CENTER", "city": "ELMHURST", "state": "NY", "zip": "11373-0000", "ntee": "S20", "ruling": "202407", "deductibility": "1", "assets": 0, "income": 0, "revenue": 0}, {"ein": "990955248", "name": "BRIGHT NEW HORIZONS FOR MY CANARSIE HIGH SCHOOL FAMILY INC", "city": "FREEPORT", "state": "NY", "zip": "11520-1936", "ntee": "P60", "ruling": "202408", "deductibility": "1", "assets": 0, "income": 0, "revenue": 0}, {"ein": "991668650", "name": "BRIGHT FUTURE INITIATIVE LTD", "city": "HUNTINGTON", "state": "NY", "zip": "11743-0000", "ntee": "P12", "ruling": "202403", "deductibility": "1", "assets": 0, "income": 0, "revenue": 0}, {"ein": "991781611", "name": "BRIGHT ERA INCORPORATED", "city": "BRONX", "state": "NY", "zip": "10456-0000", "ntee": "P81", "ruling": "202501", "deductibility": "1", "assets": 0, "income": 0, "revenue": 0}, {"ein": "991792859", "name": "BRAVE BEGINNINGS BRIGHT FUTURES", "city": "WEST POINT", "state": "NY", "zip": "10996-2100", "ntee": "T30", "ruling": "202405", "deductibility": "1", "assets": 0, "income": 0, "revenue": 0}, {"ein": "992024871", "name": "BRIGHT BUDS INC", "city": "BROOKLYN", "state": "NY", "zip": "11212-4388", "ntee": "P33", "ruling": "202410", "deductibility": "1", "assets": 0, "income": 0, "revenue": 0}, {"ein": "992351839", "name": "BRIGHT & BRAVE INDEPENDENT LIVING PROGRAM INC", "city": "NEW YORK", "state": "NY", "zip": "10026-1959", "ntee": "O20", "ruling": "202404", "deductibility": "1", "assets": 0, "income": 0, "revenue": 0}, {"ein": "994165005", "name": "BRIGHT PATHWAYS TO SUCCESS INC", "city": "PORT WASHINGTON", "state": "NY", "zip": "11050-3242", "ntee": "O50", "ruling": "202506", "deductibility": "1", "assets": 0, "income": 0, "revenue": 0}], "CLINIC": [{"ein": "112629532", "name": "HOSPITAL CLINIC HOME CENTER", "city": "BROOKLYN", "state": "NY", "zip": "11221-4202", "ntee": "A05", "ruling": "198308", "deductibility": "1", "assets": 2865146, "income": 2430140, "revenue": 2430140}, {"ein": "113482054", "name": "NEIGHBORHOOD TECHNICAL ASSISTANCE CLINIC", "city": "BROOKLYN", "state": "NY", "zip": "11233-1512", "ntee": "P02", "ruling": "200412", "deductibility": "1", "assets": 14775, "income": 154277, "revenue": 154277}, {"ein": "133607261", "name": "CHOCMAH CLINIC INC", "city": "NEW YORK", "state": "NY", "zip": "10030-2902", "ntee": "", "ruling": "199109", "deductibility": "1", "assets": 0, "income": 0, "revenue": 0}, {"ein": "133808933", "name": "CHINATOWN HEALTH CLINIC FOUNDATION INC", "city": "NEW YORK", "state": "NY", "zip": "10013-3599", "ntee": "T30I", "ruling": "199509", "deductibility": "1", "assets": 40632187, "income": 7806997, "revenue": 3746305}, {"ein": "135638826", "name": "KAREN HORNEY CLINIC INC", "city": "NEW YORK", "state": "NY", "zip": "10065-7769", "ntee": "P820", "ruling": "195701", "deductibility": "1", "assets": 8899314, "income": 2433124, "revenue": 2433124}, {"ein": "161543255", "name": "OPERATION PETS THE SPAY NEUTER CLINIC OF WESTERN NEW YORK INC", "city": "BUFFALO", "state": "NY", "zip": "14219-1059", "ntee": "D30", "ruling": "199901", "deductibility": "1", "assets": 1253427, "income": 1235902, "revenue": 1218420}, {"ein": "161559997", "name": "MASSENA FREE CLINIC FOR ADULTS", "city": "MASSENA", "state": "NY", "zip": "13662-5059", "ntee": "E32", "ruling": "199912", "deductibility": "1", "assets": 67017, "income": 8913, "revenue": 8913}, {"ein": "161560033", "name": "CLIFTON SPRINGS HOSPITAL & CLINIC FOUNDATION INC", "city": "CLIFTON SPGS", "state": "NY", "zip": "14432-1122", "ntee": "E112", "ruling": "200003", "deductibility": "1", "assets": 10485827, "income": 3422704, "revenue": 1244634}, {"ein": "222768870", "name": "DETECTIVES CRIME CLINIC METROPOLITN NEW JERSEY-NEW YORK A NJ NNPFT CRP", "city": "BRONX", "state": "NY", "zip": "10451-1219", "ntee": "", "ruling": "199005", "deductibility": "1", "assets": 0, "income": 0, "revenue": 0}, {"ein": "274859575", "name": "TONAWANDA FOOTBALL CLINIC INC", "city": "TONAWANDA", "state": "NY", "zip": "14150-1217", "ntee": "P20", "ruling": "201111", "deductibility": "2", "assets": 13311, "income": 124213, "revenue": 106930}, {"ein": "331547163", "name": "INEZA CLINIC BURUNDI INC", "city": "NEW YORK", "state": "NY", "zip": "10024-1607", "ntee": "E99", "ruling": "202505", "deductibility": "1", "assets": 0, "income": 0, "revenue": 0}, {"ein": "412129099", "name": "ADOPT-A-PET CLINIC INC", "city": "TROY", "state": "NY", "zip": "12180-8988", "ntee": "D20", "ruling": "200404", "deductibility": "1", "assets": 1738, "income": 1575, "revenue": 1575}, {"ein": "460933000", "name": "RAHMA HEALTH CLINIC INC", "city": "SYRACUSE", "state": "NY", "zip": "13205-1848", "ntee": "E32", "ruling": "201410", "deductibility": "1", "assets": 0, "income": 0, "revenue": 0}, {"ein": "465642390", "name": "HARD TO GUARD BASKETBALL CLINIC INC", "city": "BROOKLYN", "state": "NY", "zip": "11234-2011", "ntee": "N62", "ruling": "201803", "deductibility": "1", "assets": 963, "income": 17924, "revenue": 17924}, {"ein": "473994951", "name": "SOUTH SUDAN VILLAGES CLINIC INC", "city": "BUFFALO", "state": "NY", "zip": "14240-1226", "ntee": "E32", "ruling": "201509", "deductibility": "1", "assets": 72718, "income": 51798, "revenue": 51798}, {"ein": "854320028", "name": "NY LOW INCOME TAX CLINIC INC", "city": "NEW YORK", "state": "NY", "zip": "10039-2601", "ntee": "Q30", "ruling": "202104", "deductibility": "1", "assets": 0, "income": 0, "revenue": 0}], "AMITI": [{"ein": "112639125", "name": "CHESED AMITI CONGREGATION INC", "city": "BROOKLYN", "state": "NY", "zip": "11204-1153", "ntee": "", "ruling": "198305", "deductibility": "1", "assets": 0, "income": 0, "revenue": 0}], "CAPILLA": [{"ein": "112719054", "name": "CAPILLA EVANGELICA", "city": "CORONA", "state": "NY", "zip": "11368-4029", "ntee": "", "ruling": "198510", "deductibility": "1", "assets": 0, "income": 0, "revenue": 0}, {"ein": "132861722", "name": "CAPILLA EVANGELICA INC", "city": "BRONX", "state": "NY", "zip": "10464-0000", "ntee": "", "ruling": "198611", "deductibility": "1", "assets": 0, "income": 0, "revenue": 0}, {"ein": "474215685", "name": "CAPILLA CALVARIO PAN DE VIDA", "city": "POUGHKEEPSIE", "state": "NY", "zip": "12601-1915", "ntee": "X20", "ruling": "201512", "deductibility": "1", "assets": 0, "income": 0, "revenue": 0}], "GRAMERCY": [{"ein": "112873292", "name": "GRAMERCY BRASS OF NEW YORK INC", "city": "NEW YORK", "state": "NY", "zip": "10003-5244", "ntee": "", "ruling": "198801", "deductibility": "1", "assets": 572, "income": 75865, "revenue": 75865}, {"ein": "132507282", "name": "THE GRAMERCY PARK FOUNDATION INC", "city": "NEW YORK", "state": "NY", "zip": "10162-0000", "ntee": "", "ruling": "195703", "deductibility": "1", "assets": 2786232, "income": 977022, "revenue": 0}, {"ein": "133943089", "name": "GRAMERCY PARK BLOCK ASSOCIATION INC", "city": "NEW YORK", "state": "NY", "zip": "10003-1731", "ntee": "A99", "ruling": "200107", "deductibility": "1", "assets": 2302931, "income": 632014, "revenue": 631971}, {"ein": "133969811", "name": "CHABAD OF GRAMERCY PARK", "city": "NEW YORK", "state": "NY", "zip": "10011-4126", "ntee": "X30", "ruling": "201403", "deductibility": "1", "assets": 0, "income": 0, "revenue": 0}, {"ein": "136206616", "name": "GRAMERCY NEIGHBORHOOD ASSOCIATES INC", "city": "NEW YORK", "state": "NY", "zip": "10159-0678", "ntee": "S22Z", "ruling": "196608", "deductibility": "1", "assets": 8197, "income": 3701, "revenue": 3701}, {"ein": "237579337", "name": "FREE & ACCEPTED MASONS OF NEW YORK GRAMERCY LODGE 0537", "city": "NEW YORK", "state": "NY", "zip": "10010-4102", "ntee": "", "ruling": "201711", "deductibility": "1", "assets": 0, "income": 0, "revenue": 0}, {"ein": "463924643", "name": "PLAYERS 16 GRAMERCY PARK SOUTH PRESERVATION FUND INC", "city": "NEW YORK", "state": "NY", "zip": "10003-1705", "ntee": "A82", "ruling": "201406", "deductibility": "1", "assets": 0, "income": 0, "revenue": 0}], "FRENCH": [{"ein": "112884741", "name": "BETHANY FRENCH BAPTIST CHURCH", "city": "ELMONT", "state": "NY", "zip": "11003-3501", "ntee": "", "ruling": "198908", "deductibility": "1", "assets": 0, "income": 0, "revenue": 0}, {"ein": "113022825", "name": "MARANATHA FRENCH SPEAKING ASSEMBLY OF GOD", "city": "INWOOD", "state": "NY", "zip": "11096-1130", "ntee": "", "ruling": "196408", "deductibility": "1", "assets": 0, "income": 0, "revenue": 0}, {"ein": "130434237", "name": "AMERICAN SOCIETY OF THE FRENCH LEGION OF HONOR INC", "city": "GOSHEN", "state": "NY", "zip": "10924-1615", "ntee": "", "ruling": "194905", "deductibility": "1", "assets": 3008795, "income": 368861, "revenue": 0}, {"ein": "130697320", "name": "FEDERATION OF FRENCH WAR VETERANS", "city": "WOODSIDE", "state": "NY", "zip": "11377-3165", "ntee": "", "ruling": "000000", "deductibility": "2", "assets": 32200, "income": 14549, "revenue": 9354}, {"ein": "130744560", "name": "FRENCH CHAMBER OF COMMERCE OF THE UNITED STATES INC", "city": "NEW YORK", "state": "NY", "zip": "10018-7001", "ntee": "", "ruling": "194209", "deductibility": "2", "assets": 0, "income": 0, "revenue": 0}, {"ein": "131616925", "name": "FRENCH-AMERICAN AID FOR CHILDREN INC", "city": "NEW YORK", "state": "NY", "zip": "10155-0002", "ntee": "Q123", "ruling": "194005", "deductibility": "1", "assets": 6414290, "income": 727390, "revenue": 183431}, {"ein": "131624099", "name": "FRENCH INSTITUTE-ALLIANCE FRANCAISE", "city": "NEW YORK", "state": "NY", "zip": "10022-1011", "ntee": "A230", "ruling": "193710", "deductibility": "1", "assets": 27736711, "income": 28733970, "revenue": 13322201}, {"ein": "132847092", "name": "FRENCH AMERICAN FOUNDATION FOR THE DEVEL OF RELATIONS BTWN FRNC & US", "city": "NEW YORK", "state": "NY", "zip": "10036-7414", "ntee": "Q050", "ruling": "197512", "deductibility": "1", "assets": 4087262, "income": 2512354, "revenue": 1346837}, {"ein": "133052502", "name": "FRENCH AMERICAN SCHOOL OF NEW YORK INC", "city": "MAMARONECK", "state": "NY", "zip": "10543-3702", "ntee": "A74Z", "ruling": "198107", "deductibility": "1", "assets": 51269940, "income": 34261981, "revenue": 32294883}, {"ein": "133100091", "name": "FRENCH HERITAGE SOCIETY INC", "city": "NEW YORK", "state": "NY", "zip": "10022-7131", "ntee": "Q210", "ruling": "198204", "deductibility": "1", "assets": 2486752, "income": 2557221, "revenue": 1950371}, {"ein": "133172112", "name": "FRENCH SPEAKING BAPTIST CHURCH OF SPRING VALLEY", "city": "SPRING VALLEY", "state": "NY", "zip": "10977-4812", "ntee": "", "ruling": "198602", "deductibility": "1", "assets": 0, "income": 0, "revenue": 0}, {"ein": "133202137", "name": "AMERICAN SOCIETY OF THE FRENCH ACADEMIC PALMS INC", "city": "NEW YORK", "state": "NY", "zip": "10025-6016", "ntee": "", "ruling": "198602", "deductibility": "1", "assets": 0, "income": 0, "revenue": 0}, {"ein": "133376234", "name": "FRENCH AMERICAN CHAMBER OF COMMERCE IN THE U S INC", "city": "NEW YORK", "state": "NY", "zip": "10036-4103", "ntee": "", "ruling": "198810", "deductibility": "0", "assets": 9562519, "income": 5753838, "revenue": 2584943}, {"ein": "133591439", "name": "FRENCH SPEAKING BAPTIST CHURCH", "city": "NEW ROCHELLE", "state": "NY", "zip": "10802-1866", "ntee": "X20Z", "ruling": "199704", "deductibility": "1", "assets": 0, "income": 0, "revenue": 0}, {"ein": "133835380", "name": "COMMITTEE OF FRENCH SPEAKING SOCIETIES INC", "city": "NEW YORK", "state": "NY", "zip": "10036-4103", "ntee": "", "ruling": "199512", "deductibility": "2", "assets": 52965, "income": 19985, "revenue": 19985}, {"ein": "133909291", "name": "AMERICAN SOCIETY OF THE FRENCH ORDER OF MERIT INC", "city": "NEW YORK", "state": "NY", "zip": "10021-2603", "ntee": "Q21", "ruling": "199707", "deductibility": "1", "assets": 0, "income": 0, "revenue": 0}, {"ein": "133914434", "name": "FRENCH CHILDREN OF THE HOLOCAUST FOUNDATION INC", "city": "NEW YORK", "state": "NY", "zip": "10019-0000", "ntee": "A700", "ruling": "199705", "deductibility": "1", "assets": 74643, "income": 0, "revenue": 0}, {"ein": "134228621", "name": "CHRIST OUR HOPE ROMAN CATHOLIC CHURCH SOCIETY OF FRENCH CREEK", "city": "CLYMER", "state": "NY", "zip": "14724-9660", "ntee": "", "ruling": "194603", "deductibility": "1", "assets": 0, "income": 0, "revenue": 0}, {"ein": "134324663", "name": "EDUCATION FRANCAISE A NEW YORK - FRENCH EDUCATION IN NEW YORK INC", "city": "NEW YORK", "state": "NY", "zip": "10025-1159", "ntee": "B11", "ruling": "201910", "deductibility": "1", "assets": 1184216, "income": 1002699, "revenue": 1002699}, {"ein": "137270721", "name": "MARINA KELLEN FRENCH TR FOUNDATION", "city": "NEW YORK", "state": "NY", "zip": "10021-4985", "ntee": "T22", "ruling": "200201", "deductibility": "1", "assets": 37443512, "income": 672403, "revenue": 0}, {"ein": "160924994", "name": "FRENCH WOODS CEMETERY ASSOCIATION INC", "city": "HANCOCK", "state": "NY", "zip": "13783-1258", "ntee": "Y50", "ruling": "201506", "deductibility": "1", "assets": 0, "income": 0, "revenue": 0}, {"ein": "161268997", "name": "CLYMER-FRENCH CREEK LIBRARY ASSOC", "city": "CLYMER", "state": "NY", "zip": "14724-0068", "ntee": "", "ruling": "199201", "deductibility": "1", "assets": 0, "income": 0, "revenue": 0}, {"ein": "166052246", "name": "D E FRENCH FOUNDATION INC", "city": "AUBURN", "state": "NY", "zip": "13021-3776", "ntee": "", "ruling": "195612", "deductibility": "1", "assets": 4196431, "income": 2918247, "revenue": 0}, {"ein": "201321676", "name": "HANCOCK-FRENCH WOODS ARTS ALLIANCE INC", "city": "HANCOCK", "state": "NY", "zip": "13783-0609", "ntee": "A20", "ruling": "200503", "deductibility": "1", "assets": 285792, "income": 152422, "revenue": 121931}, {"ein": "204388251", "name": "CCF NEW YORK JEWISH FRENCH COMMUNITY CENTER OF NY INC", "city": "BROOKLYN", "state": "NY", "zip": "11213-5634", "ntee": "X30", "ruling": "201711", "deductibility": "1", "assets": 111620, "income": 211729, "revenue": 211729}, {"ein": "260250582", "name": "FRENCH AMERICAN BAR ASSOCIATION INC", "city": "JACKSON HEIGHTS", "state": "NY", "zip": "11372-2222", "ntee": "S03", "ruling": "201002", "deductibility": "2", "assets": 0, "income": 0, "revenue": 0}, {"ein": "274105116", "name": "FRENCH ENTREPRENEURSHIP FRIENDSHIP SOCIETY INC", "city": "NEW YORK", "state": "NY", "zip": "10019-5373", "ntee": "W70", "ruling": "201105", "deductibility": "2", "assets": 33560, "income": 74000, "revenue": 74000}, {"ein": "320126735", "name": "BETHLEHEM SEVENTH DAY ADVENTIST FRENCH CHURCH", "city": "WOODMERE", "state": "NY", "zip": "11598-1013", "ntee": "", "ruling": "195001", "deductibility": "1", "assets": 0, "income": 0, "revenue": 0}, {"ein": "352836964", "name": "FRENCH SPEAKING BAPTIST CHURCH OF SUFFOLK", "city": "FARMINGVILLE", "state": "NY", "zip": "11738-1325", "ntee": "X21", "ruling": "202502", "deductibility": "1", "assets": 0, "income": 0, "revenue": 0}, {"ein": "452463922", "name": "FRENCH ACADEMIE OF BALLET", "city": "NEW YORK", "state": "NY", "zip": "10028-6327", "ntee": "A63", "ruling": "201406", "deductibility": "1", "assets": 0, "income": 0, "revenue": 0}, {"ein": "454295316", "name": "FRENCH-AMERICAN CHAMBER OF COMMERCE FOUNDATION", "city": "NEW YORK", "state": "NY", "zip": "10036-4103", "ntee": "B82", "ruling": "201203", "deductibility": "1", "assets": 1107330, "income": 419610, "revenue": 107669}, {"ein": "464951215", "name": "FRENCH-AMERICAN PIANO INC", "city": "NEW YORK", "state": "NY", "zip": "10036-5601", "ntee": "A68", "ruling": "201504", "deductibility": "1", "assets": 0, "income": 0, "revenue": 0}, {"ein": "521163928", "name": "AMERICAN ASSOCIATION OF FRENCH SPEAKING HEALTH PROFESSIONALS INC", "city": "NEW YORK", "state": "NY", "zip": "10011-6349", "ntee": "E70Z", "ruling": "199807", "deductibility": "1", "assets": 0, "income": 0, "revenue": 0}, {"ein": "522439276", "name": "EGLISE BAPTISTE D EXPRESSION FRANCAISE SHALOM FRENCH", "city": "CAMBRIA HEIGHTS", "state": "NY", "zip": "11411-0000", "ntee": "X21", "ruling": "200902", "deductibility": "1", "assets": 0, "income": 0, "revenue": 0}, {"ein": "760118120", "name": "NATIONAL FRENCH HONOR SOCIETY", "city": "GENESEO", "state": "NY", "zip": "14454-1401", "ntee": "", "ruling": "198909", "deductibility": "1", "assets": 0, "income": 0, "revenue": 0}, {"ein": "800518737", "name": "NEW YORK FRENCH - AMERICAN CHARTER SCHOOL", "city": "NEW YORK", "state": "NY", "zip": "10027-6128", "ntee": "B29", "ruling": "201012", "deductibility": "1", "assets": 17144493, "income": 7699379, "revenue": 7699379}, {"ein": "810689282", "name": "FRIENDS OF FRENCH JEWRY INC", "city": "BROOKLYN", "state": "NY", "zip": "11213-4333", "ntee": "X30", "ruling": "201910", "deductibility": "1", "assets": 0, "income": 0, "revenue": 0}, {"ein": "813801463", "name": "FRENCH IN MOTION INC", "city": "NEW YORK", "state": "NY", "zip": "10018-3471", "ntee": "A31", "ruling": "202112", "deductibility": "1", "assets": 0, "income": 0, "revenue": 0}, {"ein": "830721834", "name": "FRENCH AND INDIAN WAR SOCIETY AT LAKE GEORGE", "city": "LAKE GEORGE", "state": "NY", "zip": "12845-0686", "ntee": "A80", "ruling": "201807", "deductibility": "1", "assets": 0, "income": 0, "revenue": 0}, {"ein": "832506645", "name": "DONALD H EATON & HAROLD FRENCH FOUNDATION INC", "city": "NEW YORK", "state": "NY", "zip": "10037-1765", "ntee": "P20", "ruling": "201908", "deductibility": "1", "assets": 1193635, "income": 17472, "revenue": 17472}, {"ein": "832851558", "name": "EPSTEIN AND FRENCH FOUNDATION INC", "city": "NYACK", "state": "NY", "zip": "10960-4911", "ntee": "T22", "ruling": "202012", "deductibility": "1", "assets": 814793, "income": 39727, "revenue": 0}, {"ein": "922711044", "name": "MARINA KELLEN FRENCH FOUNDATION INC", "city": "NEW YORK", "state": "NY", "zip": "10105-0302", "ntee": "T20", "ruling": "202304", "deductibility": "1", "assets": 513432696, "income": 536229962, "revenue": 0}, {"ein": "933141397", "name": "AMERICAN FRIENDS OF THE FRENCH COMMUNITY CENTER OF RAMAT AVIV INC", "city": "BROOKLYN", "state": "NY", "zip": "11203-3401", "ntee": "X30", "ruling": "202309", "deductibility": "1", "assets": 0, "income": 0, "revenue": 0}, {"ein": "990878325", "name": "FRENCH SPEAKING BETHESDA BAPTIST CHURCH", "city": "LEVITTOWN", "state": "NY", "zip": "11756-4429", "ntee": "X21", "ruling": "202405", "deductibility": "1", "assets": 0, "income": 0, "revenue": 0}, {"ein": "991580540", "name": "APRILES MEMORIAL FRENCH BULLDOGS SPECIAL NEEDS SUPPORT SERVICES", "city": "NEW YORK", "state": "NY", "zip": "10075-0245", "ntee": "D20", "ruling": "202403", "deductibility": "1", "assets": 0, "income": 0, "revenue": 0}], "CHASIDIM": [{"ein": "112970862", "name": "CONGREGATION BAIS HAMEDRASH KHAL CHASIDIM", "city": "BROOKLYN", "state": "NY", "zip": "11213-5330", "ntee": "", "ruling": "199007", "deductibility": "1", "assets": 0, "income": 0, "revenue": 0}, {"ein": "113195697", "name": "BETH HAMEDRASH CHASIDIM", "city": "BROOKLYN", "state": "NY", "zip": "11204-1155", "ntee": "", "ruling": "199403", "deductibility": "1", "assets": 0, "income": 0, "revenue": 0}, {"ein": "113803847", "name": "KHAL ICHUD CHASIDIM", "city": "BROOKLYN", "state": "NY", "zip": "11204-1108", "ntee": "X30", "ruling": "200808", "deductibility": "1", "assets": 0, "income": 0, "revenue": 0}, {"ein": "474627722", "name": "CONGREGATION ADAS CHASIDIM INC", "city": "MONSEY", "state": "NY", "zip": "10952-2894", "ntee": "X30", "ruling": "201510", "deductibility": "1", "assets": 0, "income": 0, "revenue": 0}, {"ein": "611853161", "name": "CONGREGATION KHAL CHASIDIM OF LAWRENCE", "city": "LAWRENCE", "state": "NY", "zip": "11559-2401", "ntee": "X20", "ruling": "201806", "deductibility": "1", "assets": 0, "income": 0, "revenue": 0}, {"ein": "863370143", "name": "KHAL CHASIDIM OF WESLEY HILLS", "city": "SPRING VALLEY", "state": "NY", "zip": "10977-1001", "ntee": "X30", "ruling": "202111", "deductibility": "1", "assets": 0, "income": 0, "revenue": 0}, {"ein": "883519670", "name": "KHAL CHASIDIM", "city": "BROOKLYN", "state": "NY", "zip": "11204-1224", "ntee": "X30", "ruling": "202303", "deductibility": "1", "assets": 0, "income": 0, "revenue": 0}], "KAV": [{"ein": "113080748", "name": "KAV L KAV CENTER FOR JEWISH HERITAGE INC", "city": "BROOKLYN", "state": "NY", "zip": "11219-1501", "ntee": "Z99Z", "ruling": "199212", "deductibility": "1", "assets": 0, "income": 0, "revenue": 0}, {"ein": "133992464", "name": "CONGRAEGATION KAV HAYUSHER", "city": "MONROE", "state": "NY", "zip": "10950-6047", "ntee": "X30Z", "ruling": "199804", "deductibility": "1", "assets": 0, "income": 0, "revenue": 0}, {"ein": "261500204", "name": "KAV HACHESED", "city": "SUFFERN", "state": "NY", "zip": "10901-0000", "ntee": "Q123", "ruling": "201008", "deductibility": "1", "assets": 0, "income": 0, "revenue": 0}, {"ein": "932967775", "name": "MIFAL KAV INC", "city": "MONSEY", "state": "NY", "zip": "10952-7207", "ntee": "X30", "ruling": "202309", "deductibility": "1", "assets": 0, "income": 0, "revenue": 0}, {"ein": "991524193", "name": "CONGREGATION KAV HALACHA", "city": "WOODMERE", "state": "NY", "zip": "11598-1706", "ntee": "X30", "ruling": "202505", "deductibility": "1", "assets": 0, "income": 0, "revenue": 0}], "THAVORNVANARAM": [{"ein": "113240608", "name": "WAT BUDDHA THAI THAVORNVANARAM OF NEW YORK INC", "city": "ELMHURST", "state": "NY", "zip": "11373-2927", "ntee": "X50Z", "ruling": "199503", "deductibility": "1", "assets": 0, "income": 0, "revenue": 0}], "YISEROEL": [{"ein": "113266863", "name": "CONGREGATION YISEROEL CHAIM INC", "city": "BROOKLYN", "state": "NY", "zip": "11219-2840", "ntee": "X30Z", "ruling": "199512", "deductibility": "1", "assets": 0, "income": 0, "revenue": 0}], "MAMUR": [{"ein": "113359563", "name": "BAITUL MAMUR MASJID & COMMUNITY", "city": "BROOKLYN", "state": "NY", "zip": "11208-2836", "ntee": "X40I", "ruling": "199706", "deductibility": "1", "assets": 2527244, "income": 1496057, "revenue": 1496057}], "CEDARMORE": [{"ein": "113383793", "name": "THE CEDARMORE CORPORATION", "city": "FREEPORT", "state": "NY", "zip": "11520-2515", "ntee": "O50", "ruling": "201410", "deductibility": "1", "assets": 57583, "income": 162527, "revenue": 162527}], "DEFENSORES": [{"ein": "113398524", "name": "IGLESIA DE AMOR DE DIOS DEFENSORES DE LA FE PENTECOSTAL", "city": "BROOKLYN", "state": "NY", "zip": "11206-4547", "ntee": "X99Z", "ruling": "199804", "deductibility": "1", "assets": 0, "income": 0, "revenue": 0}, {"ein": "824216519", "name": "IGLESIA CRISTIANA DEFENSORES DEL PODER DE LA FE", "city": "BRONX", "state": "NY", "zip": "10465-3201", "ntee": "X20", "ruling": "202309", "deductibility": "1", "assets": 0, "income": 0, "revenue": 0}], "SYMPHONIC": [{"ein": "113418929", "name": "SYMPHONIC BAND OF BAYSHORE-", "city": "ISLIP", "state": "NY", "zip": "11751-3511", "ntee": "A69", "ruling": "200004", "deductibility": "1", "assets": 0, "income": 0, "revenue": 0}, {"ein": "202784103", "name": "HUDSON VALLEY SYMPHONIC WIND ENSEMBLE INC", "city": "WHITE PLAINS", "state": "NY", "zip": "10601-2320", "ntee": "A69", "ruling": "200701", "deductibility": "1", "assets": 0, "income": 0, "revenue": 0}, {"ein": "237405036", "name": "LONG ISLAND SYMPHONIC CHORAL ASSOC INC", "city": "PRT JEFFERSON", "state": "NY", "zip": "11777-1233", "ntee": "A99", "ruling": "197505", "deductibility": "1", "assets": 0, "income": 0, "revenue": 0}], "MUCHON": [{"ein": "113529084", "name": "CONG BETH BORUCH GEMACH MUCHON SHAI", "city": "BROOKLYN", "state": "NY", "zip": "11205-0000", "ntee": "X30", "ruling": "200003", "deductibility": "1", "assets": 0, "income": 0, "revenue": 0}], "GRECO": [{"ein": "113545414", "name": "STERN GRECO PUBLISHERS", "city": "SANDS POINT", "state": "NY", "zip": "11050-1911", "ntee": "E112", "ruling": "200010", "deductibility": "1", "assets": 0, "income": 0, "revenue": 0}], "MEANS": [{"ein": "113571476", "name": "BY ALL MEANS SAVE SOME CORPORATION", "city": "BROOKLYN", "state": "NY", "zip": "11216-2908", "ntee": "A25", "ruling": "200107", "deductibility": "1", "assets": 0, "income": 0, "revenue": 0}, {"ein": "843709718", "name": "CRYPTO J MEANS BUSINESS", "city": "BALDWIN", "state": "NY", "zip": "11510-0031", "ntee": "O53", "ruling": "202002", "deductibility": "1", "assets": 0, "income": 0, "revenue": 0}, {"ein": "851705799", "name": "BY ALL MEANS LEADERSHIP ALLIANCE INC", "city": "BROOKLYN", "state": "NY", "zip": "11238-1409", "ntee": "O50", "ruling": "202012", "deductibility": "1", "assets": 0, "income": 221107, "revenue": 221107}], "KZYL": [{"ein": "113599235", "name": "KZYL-ORDA FUND INC", "city": "FRESH MEADOWS", "state": "NY", "zip": "11365-3517", "ntee": "X30", "ruling": "201903", "deductibility": "1", "assets": 0, "income": 0, "revenue": 0}], "DVORA": [{"ein": "113637425", "name": "CHAIM AND DVORA OSTREICHER FOUNDATION", "city": "FRESH MEADOWS", "state": "NY", "zip": "11365-3516", "ntee": "T21", "ruling": "200201", "deductibility": "1", "assets": 16506, "income": 590009, "revenue": 0}, {"ein": "134115138", "name": "MORRIS & DVORA SCHARF FOUNDATION INC", "city": "BROOKLYN", "state": "NY", "zip": "11224-1102", "ntee": "T22", "ruling": "200005", "deductibility": "1", "assets": 11534916, "income": 1737831, "revenue": 0}, {"ein": "760711763", "name": "CONGREGATION TIFERETH TOMOR DVORA SFARD INC", "city": "BROOKLYN", "state": "NY", "zip": "11230-0000", "ntee": "X30", "ruling": "200308", "deductibility": "1", "assets": 269821, "income": 70447, "revenue": 70447}], "STEUBEN": [{"ein": "116036971", "name": "STEUBEN SOCIETY OF AMERICA", "city": "PATCHOGUE", "state": "NY", "zip": "11772-3716", "ntee": "", "ruling": "194811", "deductibility": "2", "assets": 0, "income": 0, "revenue": 0}, {"ein": "116077214", "name": "STEUBEN SOCIETY OF AMERICA", "city": "WEST BABYLON", "state": "NY", "zip": "11704-6306", "ntee": "Y40", "ruling": "202411", "deductibility": "2", "assets": 0, "income": 0, "revenue": 0}, {"ein": "116101054", "name": "STEUBEN ASSOCIATION FIRE DEPARTMENT CITY OF NEW YORK INC", "city": "LYNBROOK", "state": "NY", "zip": "11563-2128", "ntee": "", "ruling": "196804", "deductibility": "2", "assets": 0, "income": 0, "revenue": 0}, {"ein": "131347890", "name": "STEUBEN SOCIETY OF AMERICA", "city": "PATCHOGUE", "state": "NY", "zip": "11772-3738", "ntee": "", "ruling": "194811", "deductibility": "2", "assets": 0, "income": 0, "revenue": 0}, {"ein": "136154610", "name": "STEUBEN ENDOWMENT CORPORATION", "city": "PATCHOGUE", "state": "NY", "zip": "11772-3716", "ntee": "", "ruling": "195211", "deductibility": "2", "assets": 0, "income": 0, "revenue": 0}, {"ein": "146048770", "name": "STEUBEN SOCIETY OF AMERICA", "city": "RHINEBECK", "state": "NY", "zip": "12572-3038", "ntee": "", "ruling": "194811", "deductibility": "2", "assets": 0, "income": 0, "revenue": 0}, {"ein": "150628594", "name": "BARON STEUBEN LODGE NO 264 FREE AND ACCEPTED MASONS STATE OF NEW YORK", "city": "LEE CENTER", "state": "NY", "zip": "13363-0000", "ntee": "Y42", "ruling": "202208", "deductibility": "1", "assets": 0, "income": 0, "revenue": 0}, {"ein": "156015734", "name": "STEUBEN SCHOLARSHIP FUND TRUST F288 16208500", "city": "NORWICH", "state": "NY", "zip": "13815-0000", "ntee": "", "ruling": "000000", "deductibility": "0", "assets": 117058, "income": 17247, "revenue": 0}, {"ein": "160650095", "name": "STEUBEN CO AGRICULTURAL SOCIETY", "city": "BATH", "state": "NY", "zip": "14810-0000", "ntee": "N52", "ruling": "201909", "deductibility": "2", "assets": 342846, "income": 231204, "revenue": 231204}, {"ein": "160650108", "name": "STEUBEN RURAL ELECTRIC COOPERATIVE INC", "city": "BATH", "state": "NY", "zip": "14810-1633", "ntee": "", "ruling": "194512", "deductibility": "2", "assets": 45566709, "income": 12813066, "revenue": 12813066}, {"ein": "160866968", "name": "STEUBEN COUNTY MEDICAL SOCIETY INC", "city": "WESTBURY", "state": "NY", "zip": "11590-6901", "ntee": "", "ruling": "196911", "deductibility": "2", "assets": 0, "income": 0, "revenue": 0}, {"ein": "160914512", "name": "PRO ACTION OF STEUBEN AND YATES INC", "city": "BATH", "state": "NY", "zip": "14810-1636", "ntee": "P200", "ruling": "198702", "deductibility": "1", "assets": 8010033, "income": 23711053, "revenue": 23711053}, {"ein": "161162891", "name": "REMSEN STEUBEN HISTORICAL SOCIETY", "city": "REMSEN", "state": "NY", "zip": "13438-0284", "ntee": "", "ruling": "199008", "deductibility": "1", "assets": 0, "income": 0, "revenue": 0}, {"ein": "161166737", "name": "STEUBEN CHURCHPEOPLE AGAINST POVERTY INC", "city": "CORNING", "state": "NY", "zip": "14830-2207", "ntee": "F33Z", "ruling": "197006", "deductibility": "1", "assets": 16202836, "income": 16879893, "revenue": 16879893}, {"ein": "161173150", "name": "ENVIRONMENTAL EMERGENCY SERVICES INC-CHEMUNG AND STEUBEN COUNTIES", "city": "ELMIRA", "state": "NY", "zip": "14902-0000", "ntee": "M200", "ruling": "198205", "deductibility": "1", "assets": 50312, "income": 33715, "revenue": 33715}, {"ein": "161204312", "name": "ALLEGANY STEUBEN HOLSTEIN CLUB INC", "city": "ANDOVER", "state": "NY", "zip": "14806-0000", "ntee": "K20", "ruling": "198404", "deductibility": "2", "assets": 0, "income": 0, "revenue": 0}, {"ein": "161245812", "name": "STEUBEN AREA ECONOMIC DEVELOPMENT", "city": "BATH", "state": "NY", "zip": "14810-9587", "ntee": "S30", "ruling": "199912", "deductibility": "2", "assets": 223974, "income": 4982, "revenue": 4982}, {"ein": "161413527", "name": "STEUBEN TANGLEWOOD LAKE ASSOCIATION INC", "city": "CAMPBELL", "state": "NY", "zip": "14821-9416", "ntee": "", "ruling": "199308", "deductibility": "2", "assets": 0, "income": 0, "revenue": 0}, {"ein": "161464229", "name": "STEUBEN COUNTY CONFERENCE AND VISITORS BUREAU INC", "city": "CORNING", "state": "NY", "zip": "14830-2680", "ntee": "", "ruling": "000000", "deductibility": "2", "assets": 762579, "income": 1204416, "revenue": 1204416}, {"ein": "161539843", "name": "STEUBEN ARC FOUNDATION", "city": "BATH", "state": "NY", "zip": "14810-8341", "ntee": "T30Z", "ruling": "199801", "deductibility": "1", "assets": 1958211, "income": 132249, "revenue": 123251}, {"ein": "161586972", "name": "STEUBEN SENIOR SERVICES FUND INC", "city": "BATH", "state": "NY", "zip": "14810-1557", "ntee": "B99", "ruling": "200103", "deductibility": "1", "assets": 477065, "income": 406732, "revenue": 214447}, {"ein": "161592035", "name": "SOUTHEAST STEUBEN COUNTY LIBRARY", "city": "CORNING", "state": "NY", "zip": "14830-2846", "ntee": "B700", "ruling": "200009", "deductibility": "1", "assets": 10942142, "income": 2661307, "revenue": 2062121}, {"ein": "161599930", "name": "CARDER STEUBEN CLUB INC", "city": "CORNING", "state": "NY", "zip": "14830-2726", "ntee": "N50", "ruling": "200310", "deductibility": "1", "assets": 0, "income": 0, "revenue": 0}, {"ein": "166000837", "name": "STEUBEN COUNTY SOIL & WATER CONSERVATION DISTRICT", "city": "BATH", "state": "NY", "zip": "14810-1038", "ntee": "", "ruling": "197902", "deductibility": "0", "assets": 0, "income": 0, "revenue": 0}, {"ein": "166088208", "name": "STEUBEN COUNTY HISTORICAL SOCIETY DUGALD CAMERON CHAPTER", "city": "BATH", "state": "NY", "zip": "14810-1406", "ntee": "", "ruling": "195111", "deductibility": "1", "assets": 455185, "income": 51902, "revenue": 51902}, {"ein": "202024555", "name": "NYPD STEUBEN ASSOCIATION - SCHOLARSHIP FUND", "city": "PACK SLIP", "state": "NY", "zip": "11530-0000", "ntee": "B82", "ruling": "201509", "deductibility": "1", "assets": 0, "income": 0, "revenue": 0}, {"ein": "222512571", "name": "STEUBEN COMMUNITY PROPERTIES INC", "city": "BATH", "state": "NY", "zip": "14810-8341", "ntee": "Z99J", "ruling": "198701", "deductibility": "1", "assets": 3239758, "income": 420763, "revenue": 420763}, {"ein": "222520370", "name": "CHEMUNG SCHUYLER STEUBEN WORKFORCE DEVELOPMENT INC", "city": "CORNING", "state": "NY", "zip": "14830-2600", "ntee": "", "ruling": "198504", "deductibility": "1", "assets": 347980, "income": 2339500, "revenue": 2339500}, {"ein": "237039132", "name": "STEUBEN ASSOCIATION FIRE DEPARTMENT CHARITIES INC", "city": "LYNBROOK", "state": "NY", "zip": "11563-2128", "ntee": "B82", "ruling": "201005", "deductibility": "1", "assets": 0, "income": 0, "revenue": 0}, {"ein": "237121210", "name": "STEUBEN SOCIETY OF AMERICA", "city": "N BELLMORE", "state": "NY", "zip": "11710-3042", "ntee": "", "ruling": "194811", "deductibility": "2", "assets": 0, "income": 0, "revenue": 0}, {"ein": "237547106", "name": "STEUBEN ASSEMBLY NO 704", "city": "SYRACUSE", "state": "NY", "zip": "13218-1972", "ntee": "Y41", "ruling": "201202", "deductibility": "1", "assets": 0, "income": 0, "revenue": 0}, {"ein": "273050309", "name": "CATHOLIC PARISH OF SAINTS ISIDORE AND MARIA TORRIBIA STEUBEN", "city": "ADDISON", "state": "NY", "zip": "14801-1125", "ntee": "", "ruling": "194603", "deductibility": "1", "assets": 0, "income": 0, "revenue": 0}, {"ein": "300959669", "name": "STEUBEN COUNTY LAND BANK CORPORATION", "city": "BATH", "state": "NY", "zip": "14810-1510", "ntee": "S20", "ruling": "201803", "deductibility": "1", "assets": 0, "income": 0, "revenue": 0}, {"ein": "311599300", "name": "MIDDLETOWN HISTORICAL SOCIETY OF STEUBEN COUNTY", "city": "ADDISON", "state": "NY", "zip": "14801-1226", "ntee": "A80", "ruling": "199808", "deductibility": "1", "assets": 0, "income": 0, "revenue": 0}, {"ein": "464910154", "name": "STEUBEN COUNTY SCOPE", "city": "ADDISON", "state": "NY", "zip": "14801-9535", "ntee": "R05", "ruling": "201809", "deductibility": "2", "assets": 0, "income": 0, "revenue": 0}, {"ein": "473460336", "name": "DAUGHTERS OF ERIN DIVISION NO 1 OF THE LAOH INC OF STEUBEN COUNTY NY", "city": "BROOKLYN", "state": "NY", "zip": "11229-4111", "ntee": "Y42", "ruling": "201808", "deductibility": "1", "assets": 0, "income": 0, "revenue": 0}, {"ein": "474107219", "name": "STEUBEN OLD HOME DAYS", "city": "REMSEN", "state": "NY", "zip": "13438-4660", "ntee": "A99", "ruling": "201507", "deductibility": "1", "assets": 0, "income": 0, "revenue": 0}, {"ein": "521150864", "name": "SENIOR CITIZENS HOUSING DEVELOPMENT FUND CORPORATION OF STEUBEN COUNTY", "city": "BATH", "state": "NY", "zip": "14810-9413", "ntee": "L22", "ruling": "198006", "deductibility": "1", "assets": 3677015, "income": 1692476, "revenue": 1692476}, {"ein": "743048143", "name": "STEUBEN SCHOLARSHIP FUND INC", "city": "HILTON", "state": "NY", "zip": "14468-1005", "ntee": "B82", "ruling": "200305", "deductibility": "1", "assets": 0, "income": 0, "revenue": 0}, {"ein": "820614513", "name": "SUFFOLK COUNTY POLICE STEUBEN ASSCOCIATION INC", "city": "YAPHANK", "state": "NY", "zip": "11980-0447", "ntee": "A23", "ruling": "201705", "deductibility": "1", "assets": 126955, "income": 173572, "revenue": 69058}, {"ein": "823980292", "name": "CHEMUNG SCHUYLER STEUBEN EMS FOUNDATION INC", "city": "ELMIRA", "state": "NY", "zip": "14902-0191", "ntee": "E62", "ruling": "201802", "deductibility": "1", "assets": 0, "income": 0, "revenue": 0}, {"ein": "832203544", "name": "STEUBEN YOUTH SERVICES FUND INC", "city": "BATH", "state": "NY", "zip": "14810-0444", "ntee": "O12", "ruling": "201903", "deductibility": "1", "assets": 0, "income": 0, "revenue": 0}, {"ein": "842848734", "name": "STEUBEN COUNTY SHERIFFS FOUNDATION INC", "city": "HORNELL", "state": "NY", "zip": "14843-0911", "ntee": "M12", "ruling": "201910", "deductibility": "1", "assets": 0, "income": 0, "revenue": 0}, {"ein": "843529767", "name": "GRAND COUNCIL OF STEUBEN ASSOCIATION INCORPORATED", "city": "WANTAGH", "state": "NY", "zip": "11793-3901", "ntee": "N50", "ruling": "202008", "deductibility": "2", "assets": 0, "income": 0, "revenue": 0}, {"ein": "863797421", "name": "STEUBEN VALLEY CEMETERY", "city": "HOLLAND PATNT", "state": "NY", "zip": "13354-0183", "ntee": "Y50", "ruling": "202203", "deductibility": "1", "assets": 0, "income": 0, "revenue": 0}, {"ein": "900965557", "name": "STEUBEN SOCIETY OF AMERICA", "city": "HAMBURG", "state": "NY", "zip": "14075-0000", "ntee": "", "ruling": "194811", "deductibility": "2", "assets": 0, "income": 0, "revenue": 0}, {"ein": "931219174", "name": "STEUBEN SOCIETY OF AMERICA", "city": "N BELLMORE", "state": "NY", "zip": "11710-3042", "ntee": "", "ruling": "194811", "deductibility": "2", "assets": 0, "income": 0, "revenue": 0}], "CAMPS": [{"ein": "131739934", "name": "BRONX HOUSE-EMANUEL CAMPS INC", "city": "COPAKE", "state": "NY", "zip": "12516-0016", "ntee": "N20Z", "ruling": "194212", "deductibility": "1", "assets": 8248315, "income": 5304589, "revenue": 5304589}, {"ein": "131771421", "name": "TRAIL BLAZER CAMPS INC", "city": "BROOKLYN", "state": "NY", "zip": "11225-3783", "ntee": "O500", "ruling": "193704", "deductibility": "1", "assets": 2993975, "income": 3096752, "revenue": 2965113}, {"ein": "136043148", "name": "TRAIL BLAZER CAMPS TRUST", "city": "NEW YORK", "state": "NY", "zip": "10008-1297", "ntee": "N20Z", "ruling": "197112", "deductibility": "1", "assets": 938971, "income": 194971, "revenue": 0}, {"ein": "141772755", "name": "TRI-STATE CHRISTIAN CAMPS INC", "city": "PORT JERVIS", "state": "NY", "zip": "12771-0179", "ntee": "X20Z", "ruling": "199503", "deductibility": "1", "assets": 0, "income": 0, "revenue": 0}, {"ein": "146013006", "name": "WORD OF LIFE CAMPS INC", "city": "SCHROON LAKE", "state": "NY", "zip": "12870-0600", "ntee": "", "ruling": "196103", "deductibility": "1", "assets": 0, "income": 0, "revenue": 0}, {"ein": "146017995", "name": "CHRISTIAN CAMPS INC", "city": "SPECULATOR", "state": "NY", "zip": "12164-0000", "ntee": "", "ruling": "194703", "deductibility": "1", "assets": 21076007, "income": 3885724, "revenue": 3835705}, {"ein": "200814999", "name": "LIFE CAMPS INCORPORATED", "city": "JAMAICA", "state": "NY", "zip": "11435-5839", "ntee": "I21", "ruling": "200608", "deductibility": "1", "assets": 2512241, "income": 8498966, "revenue": 8039636}, {"ein": "201829776", "name": "CAMPS INTERNATIONAL", "city": "CICERO", "state": "NY", "zip": "13039-1006", "ntee": "P30", "ruling": "200609", "deductibility": "1", "assets": 52439, "income": 66873, "revenue": 66873}, {"ein": "237539617", "name": "ASSOCIATION OF CAMPS FARTHEST OUT INC", "city": "HAMBURG", "state": "NY", "zip": "14075-5259", "ntee": "", "ruling": "197209", "deductibility": "1", "assets": 0, "income": 0, "revenue": 0}, {"ein": "237539629", "name": "ASSOCIATION OF CAMPS FARTHEST OUT INC", "city": "JAMESTOWN", "state": "NY", "zip": "14701-2140", "ntee": "", "ruling": "197209", "deductibility": "1", "assets": 0, "income": 0, "revenue": 0}, {"ein": "272500620", "name": "BETHPAGE ATHLETIC CAMPS INC", "city": "BETHPAGE", "state": "NY", "zip": "11714-0029", "ntee": "N60", "ruling": "201306", "deductibility": "1", "assets": 8871, "income": 168280, "revenue": 168280}, {"ein": "363891008", "name": "ASSOCIATION OF CAMPS FARTHEST OUT INC", "city": "GENESEO", "state": "NY", "zip": "14454-9510", "ntee": "", "ruling": "195904", "deductibility": "1", "assets": 0, "income": 0, "revenue": 0}, {"ein": "371862801", "name": "NORTH COUNTRY CAMPS FOUNDATION INC", "city": "KEESEVILLE", "state": "NY", "zip": "12944-2807", "ntee": "N20", "ruling": "201801", "deductibility": "1", "assets": 5146959, "income": 1667984, "revenue": 1666394}, {"ein": "465555854", "name": "SUNRISE DAY CAMPS ASSOCIATION INC", "city": "OCEANSIDE", "state": "NY", "zip": "11572-5815", "ntee": "P33", "ruling": "201504", "deductibility": "1", "assets": 17188255, "income": 13216157, "revenue": 12093840}, {"ein": "842751316", "name": "HAMPTONS YOUTH CAMPS INC", "city": "ISLIP TERRACE", "state": "NY", "zip": "11752-1318", "ntee": "N12", "ruling": "202005", "deductibility": "1", "assets": 0, "income": 0, "revenue": 0}, {"ein": "851014131", "name": "ECOSYSTEM RESTORATION CAMPS USA INC", "city": "BELLPORT", "state": "NY", "zip": "11713-2453", "ntee": "E24", "ruling": "202005", "deductibility": "1", "assets": 0, "income": 0, "revenue": 0}, {"ein": "871616118", "name": "FRIENDS OF JOINT CAMPS INC", "city": "BROOKLYN", "state": "NY", "zip": "11203-1281", "ntee": "X30", "ruling": "202202", "deductibility": "1", "assets": 0, "income": 0, "revenue": 0}], "KINDERLAND": [{"ein": "132857800", "name": "CAMP KINDERLAND INC", "city": "BROOKLYN", "state": "NY", "zip": "11241-1022", "ntee": "N20Z", "ruling": "197704", "deductibility": "1", "assets": 894680, "income": 2031564, "revenue": 1846556}], "TRIYANA": [{"ein": "132956689", "name": "KARMA TRIYANA DHARMACHAKRA INC", "city": "NEW YORK", "state": "NY", "zip": "10108-0176", "ntee": "", "ruling": "197902", "deductibility": "1", "assets": 0, "income": 0, "revenue": 0}, {"ein": "141579633", "name": "KARMA TRIYANA DHARMACHAKRA INC", "city": "WOODSTOCK", "state": "NY", "zip": "12498-1038", "ntee": "", "ruling": "197902", "deductibility": "1", "assets": 0, "income": 0, "revenue": 0}, {"ein": "222317083", "name": "KARMA TRIYANA DHARMACHAKRA INC", "city": "MENANDS", "state": "NY", "zip": "12204-2986", "ntee": "", "ruling": "197902", "deductibility": "1", "assets": 0, "income": 0, "revenue": 0}], "DEEDEE": [{"ein": "132967487", "name": "BARRIE A & DEEDEE WIGMORE FOUNDATION", "city": "NEW YORK", "state": "NY", "zip": "10023-3417", "ntee": "", "ruling": "197907", "deductibility": "1", "assets": 7911287, "income": 2350423, "revenue": 0}], "GENETICS": [{"ein": "133006536", "name": "GENETICS TASK FORCE OF NEW YORK INC", "city": "ALBANY", "state": "NY", "zip": "12207-2922", "ntee": "", "ruling": "198004", "deductibility": "1", "assets": 0, "income": 0, "revenue": 0}, {"ein": "884000565", "name": "BLACK IN GENETICS", "city": "NEW YORK", "state": "NY", "zip": "10025-5466", "ntee": "H11", "ruling": "202404", "deductibility": "1", "assets": 0, "income": 0, "revenue": 0}], "SACHIYO": [{"ein": "133062691", "name": "SACHIYO ITO AND COMPANY INC", "city": "NEW YORK", "state": "NY", "zip": "10011-1400", "ntee": "A230", "ruling": "198104", "deductibility": "1", "assets": 57443, "income": 25457, "revenue": 25457}], "TONY": [{"ein": "133082489", "name": "TONY RANDALL THEATRICAL FUND INC", "city": "NEW YORK", "state": "NY", "zip": "10168-0002", "ntee": "", "ruling": "198210", "deductibility": "1", "assets": 949746, "income": 1661658, "revenue": 0}, {"ein": "263922613", "name": "THE TONY BLAIR FOUNDATION", "city": "NEW YORK", "state": "NY", "zip": "10001-1963", "ntee": "D33", "ruling": "200903", "deductibility": "1", "assets": 20994081, "income": 4852566, "revenue": 4852566}, {"ein": "274519158", "name": "TONY MCFADDEN JR II FOUNDATION INC", "city": "WEST BABYLON", "state": "NY", "zip": "11704-4235", "ntee": "P99", "ruling": "201507", "deductibility": "1", "assets": 0, "income": 0, "revenue": 0}, {"ein": "320518753", "name": "TONY DS T I E TAKE IT EASE CHARITIES INC", "city": "ROCHESTER", "state": "NY", "zip": "14624-4704", "ntee": "T11", "ruling": "201710", "deductibility": "1", "assets": 0, "income": 0, "revenue": 0}, {"ein": "472345128", "name": "TONY SMITH FOUNDATION", "city": "NEW YORK", "state": "NY", "zip": "10001-5540", "ntee": "T20", "ruling": "201503", "deductibility": "1", "assets": 1832229, "income": 404627, "revenue": 0}, {"ein": "841880874", "name": "TONY SNELL FOUNDATION", "city": "NEW YORK", "state": "NY", "zip": "10017-0000", "ntee": "T12", "ruling": "202409", "deductibility": "1", "assets": 2898, "income": 14398, "revenue": 14398}], "ISR": [{"ein": "133275531", "name": "OHR TORAH STONE INSTITUTIONS OF ISR AEL", "city": "NEW YORK", "state": "NY", "zip": "10036-4603", "ntee": "X300", "ruling": "198510", "deductibility": "1", "assets": 3868430, "income": 9557696, "revenue": 9435685}, {"ein": "753049554", "name": "AMERICAN FRIENDS OF THE ASSOCIATION FOR THE ADV OF COM CENTERS IN ISR", "city": "STATEN ISLAND", "state": "NY", "zip": "10314-0000", "ntee": "Q30", "ruling": "200205", "deductibility": "1", "assets": 315847, "income": 762235, "revenue": 762235}], "SMEAL": [{"ein": "133318167", "name": "MARY JEAN AND FRANK P SMEAL FOUNDATION C/O GOLDMAN SACHS & CO", "city": "ALBANY", "state": "NY", "zip": "12212-5201", "ntee": "", "ruling": "198612", "deductibility": "1", "assets": 9724253, "income": 1176107, "revenue": 0}], "TRISP": [{"ein": "133396899", "name": "TRISP FOUNDATION INC", "city": "NEW YORK", "state": "NY", "zip": "10024-6029", "ntee": "", "ruling": "196101", "deductibility": "1", "assets": 79125, "income": 28498, "revenue": 28498}], "FEDKIDS": [{"ein": "133458070", "name": "FEDKIDS INC", "city": "NEW YORK", "state": "NY", "zip": "10278-0004", "ntee": "", "ruling": "199308", "deductibility": "1", "assets": 230924, "income": 22, "revenue": 22}], "BOATHOUSE": [{"ein": "133796327", "name": "DOWNTOWN BOATHOUSE INC", "city": "NEW YORK", "state": "NY", "zip": "10014-0710", "ntee": "N32", "ruling": "199502", "deductibility": "1", "assets": 33457, "income": 28884, "revenue": 28884}, {"ein": "262246567", "name": "VILLAGE COMMUNITY BOATHOUSE", "city": "NEW YORK", "state": "NY", "zip": "10014-0000", "ntee": "N67", "ruling": "200812", "deductibility": "1", "assets": 45877, "income": 36258, "revenue": 36258}, {"ein": "262745119", "name": "GATEWAY BIKE & BOATHOUSE INC", "city": "BELLE HARBOR", "state": "NY", "zip": "11694-1729", "ntee": "C11", "ruling": "200904", "deductibility": "1", "assets": 0, "income": 0, "revenue": 0}, {"ein": "274101859", "name": "THE BROOKLYN BRIDGE PARK BOATHOUSE INC", "city": "BROOKLYN", "state": "NY", "zip": "11202-4021", "ntee": "N99", "ruling": "202209", "deductibility": "1", "assets": 0, "income": 0, "revenue": 0}, {"ein": "464367592", "name": "MANHATTAN COMMUNITY BOATHOUSE INC", "city": "NEW YORK", "state": "NY", "zip": "10019-0032", "ntee": "N32", "ruling": "201411", "deductibility": "1", "assets": 7252, "income": 9462, "revenue": 9462}, {"ein": "465649392", "name": "NORTH BROOKLYN COMMUNITY BOATHOUSE INC", "city": "BROOKLYN", "state": "NY", "zip": "11222-2509", "ntee": "S21", "ruling": "201407", "deductibility": "1", "assets": 111065, "income": 22681, "revenue": 22681}, {"ein": "853852399", "name": "BUFFALO COMMUNITY BOATHOUSE INC", "city": "GRAND ISLAND", "state": "NY", "zip": "14072-1124", "ntee": "N31", "ruling": "202202", "deductibility": "1", "assets": 0, "income": 0, "revenue": 0}], "IFA": [{"ein": "133818556", "name": "IFA TEMPLE OF AFRICAN RELIGION & TRADITIONAL HEALING CENTER", "city": "BROOKLYN", "state": "NY", "zip": "11208-0000", "ntee": "X99Z", "ruling": "199604", "deductibility": "1", "assets": 0, "income": 0, "revenue": 0}, {"ein": "272546240", "name": "ILE OLODUMARE IFE IFA", "city": "BRONX", "state": "NY", "zip": "10475-3842", "ntee": "X99", "ruling": "201902", "deductibility": "1", "assets": 0, "income": 0, "revenue": 0}, {"ein": "550814999", "name": "EGBE IFA ALAFIN", "city": "QUEENS", "state": "NY", "zip": "11429-2168", "ntee": "X90", "ruling": "200510", "deductibility": "1", "assets": 0, "income": 0, "revenue": 0}, {"ein": "921025827", "name": "IFA AKOKO ORILEDE AGBEGBE AIYE-IFAKO", "city": "MOUNT VERNON", "state": "NY", "zip": "10552-3541", "ntee": "X01", "ruling": "202211", "deductibility": "1", "assets": 0, "income": 0, "revenue": 0}, {"ein": "933649125", "name": "IFA OTITO ILE AYE INC", "city": "FAR ROCKAWAY", "state": "NY", "zip": "11691-2308", "ntee": "A20", "ruling": "202403", "deductibility": "1", "assets": 0, "income": 0, "revenue": 0}], "SYNDICATIONS": [{"ein": "133867347", "name": "LOAN SYNDICATIONS AND TRADING ASSOCIATION INC", "city": "NEW YORK", "state": "NY", "zip": "10017-3122", "ntee": "", "ruling": "199701", "deductibility": "2", "assets": 49453793, "income": 28202794, "revenue": 17015938}], "NEDERLANDER": [{"ein": "133934374", "name": "ROBERT E NEDERLANDER FOUNDATION", "city": "NEW YORK", "state": "NY", "zip": "10018-2201", "ntee": "T20J", "ruling": "199704", "deductibility": "1", "assets": 9491, "income": 1, "revenue": 0}, {"ein": "133980285", "name": "JAMES M NEDERLANDER FOUNDATION INC", "city": "NEW YORK", "state": "NY", "zip": "10036-5505", "ntee": "T20Z", "ruling": "199809", "deductibility": "1", "assets": 1851, "income": 1, "revenue": 0}], "FIVER": [{"ein": "133993633", "name": "FIVER CHILDRENS FOUNDATION INC", "city": "NEW YORK", "state": "NY", "zip": "10018-6506", "ntee": "O50", "ruling": "199810", "deductibility": "1", "assets": 6005460, "income": 3018225, "revenue": 2877385}], "EXPO": [{"ein": "134044634", "name": "LATINO COLLEGE EXPO", "city": "NEW YORK", "state": "NY", "zip": "10011-8436", "ntee": "B90", "ruling": "202010", "deductibility": "1", "assets": 7370, "income": 3200, "revenue": 3200}, {"ein": "161470212", "name": "NEW YORK STATE TWO CYLINDER EXPO ASSOCIATION INC", "city": "PULTENEY", "state": "NY", "zip": "14874-9607", "ntee": "N50", "ruling": "199902", "deductibility": "2", "assets": 55854, "income": 1529, "revenue": 1529}, {"ein": "161514169", "name": "SPIEDIE FEST BALLOON RALLY EXPO INC", "city": "BINGHAMTON", "state": "NY", "zip": "13905-0275", "ntee": "P20Z", "ruling": "199808", "deductibility": "1", "assets": 388518, "income": 997760, "revenue": 997760}, {"ein": "273975778", "name": "WESTERN NEW YORK EARTH DAY FAMILY EXPO INC", "city": "BUFFALO", "state": "NY", "zip": "14202-3928", "ntee": "C60", "ruling": "201104", "deductibility": "1", "assets": 0, "income": 0, "revenue": 0}, {"ein": "300109876", "name": "LINUX EXPO OF SOUTHERN CALIFORNIA", "city": "NEW YORK", "state": "NY", "zip": "10024-6747", "ntee": "U99", "ruling": "200404", "deductibility": "1", "assets": 621740, "income": 503763, "revenue": 503763}, {"ein": "813891758", "name": "1 WORLD EXPO INC", "city": "JAMAICA", "state": "NY", "zip": "11434-3841", "ntee": "Q21", "ruling": "202309", "deductibility": "1", "assets": 0, "income": 0, "revenue": 0}, {"ein": "814001931", "name": "NORTHERN CATSKILLS HUNTING & WILDLIFE EXPO", "city": "LEXINGTON", "state": "NY", "zip": "12452-0385", "ntee": "N61", "ruling": "201709", "deductibility": "1", "assets": 0, "income": 0, "revenue": 0}, {"ein": "994948344", "name": "SMART CITY EXPO USA CORP", "city": "NEW YORK", "state": "NY", "zip": "10010-5315", "ntee": "W99", "ruling": "202410", "deductibility": "1", "assets": 0, "income": 0, "revenue": 0}], "DOOLITTLE": [{"ein": "134145966", "name": "HARRY AND MISOOK DOOLITTLE FOUNDATION", "city": "SCARSDALE", "state": "NY", "zip": "10583-4214", "ntee": "T21", "ruling": "200112", "deductibility": "1", "assets": 927198, "income": 304, "revenue": 0}], "DGANITCH": [{"ein": "134154805", "name": "CONGREGATION BAIS YEHUDA DGANITCH INC", "city": "MONSEY", "state": "NY", "zip": "10952-2610", "ntee": "X30", "ruling": "200105", "deductibility": "1", "assets": 0, "income": 0, "revenue": 0}], "PARTS": [{"ein": "135669677", "name": "AUTOMOTIVE PARTS DISTRIBUTORS ASSOCIATION INC", "city": "NEW YORK", "state": "NY", "zip": "10019-6119", "ntee": "", "ruling": "197601", "deductibility": "2", "assets": 20037, "income": 2600, "revenue": 2600}, {"ein": "200232323", "name": "ARCH AUTO PARTS CHILDRENS FOUNDATION", "city": "HOLLIS", "state": "NY", "zip": "11423-2326", "ntee": "T20", "ruling": "200312", "deductibility": "1", "assets": 1, "income": 1, "revenue": 0}], "WHITESIDE": [{"ein": "136018759", "name": "ABBY WHITESIDE FOUNDATION INC", "city": "NEW YORK", "state": "NY", "zip": "10128-7825", "ntee": "", "ruling": "196206", "deductibility": "1", "assets": 181515, "income": 31031, "revenue": -17778}], "CUMMINS": [{"ein": "136057749", "name": "LYRIC FOUNDATION INC UW VIRGINIA K CUMMINS", "city": "NEW YORK", "state": "NY", "zip": "10013-2362", "ntee": "", "ruling": "197012", "deductibility": "0", "assets": 1563767, "income": 1759710, "revenue": 0}, {"ein": "161095842", "name": "CUMMINS JAMESTOWN RECREATION ASSOCIATION INC", "city": "LAKEWOOD", "state": "NY", "zip": "14750-9772", "ntee": "", "ruling": "197908", "deductibility": "2", "assets": 0, "income": 0, "revenue": 0}, {"ein": "222488076", "name": "COLDEN TRAIL RIDERS INC C/O GERALD CUMMINS", "city": "COLDEN", "state": "NY", "zip": "14033-0165", "ntee": "N68", "ruling": "199409", "deductibility": "1", "assets": 0, "income": 0, "revenue": 0}, {"ein": "842855381", "name": "ROBERT J CUMMINS FAMILY FOUNDATION INC", "city": "NEW YORK", "state": "NY", "zip": "10006-2756", "ntee": "T20", "ruling": "202107", "deductibility": "1", "assets": 753462, "income": 72373, "revenue": 0}], "MOHANSIC": [{"ein": "136187890", "name": "MOHANSIC FOUNDATION INC", "city": "FISHKILL", "state": "NY", "zip": "12524-0000", "ntee": "", "ruling": "196601", "deductibility": "1", "assets": 27860, "income": 157, "revenue": 0}], "MORSE": [{"ein": "136220174", "name": "MORSE FAMILY FOUNDATION INC", "city": "NEW YORK", "state": "NY", "zip": "10165-6208", "ntee": "", "ruling": "196707", "deductibility": "1", "assets": 672410, "income": 1427014, "revenue": 0}, {"ein": "141619998", "name": "YOUNG MORSE HISTORIC SITE", "city": "POUGHKEEPSIE", "state": "NY", "zip": "12601-5275", "ntee": "", "ruling": "198007", "deductibility": "1", "assets": 8274004, "income": 1076496, "revenue": 0}, {"ein": "146208616", "name": "MORSE HILL TR", "city": "SARATOGA SPGS", "state": "NY", "zip": "12866-3176", "ntee": "T20", "ruling": "200105", "deductibility": "1", "assets": 2647281, "income": 180964, "revenue": 0}, {"ein": "223083890", "name": "MORSE HILL FOUNDATION INC", "city": "SARATOGA SPGS", "state": "NY", "zip": "12866-2386", "ntee": "", "ruling": "199203", "deductibility": "1", "assets": 11395391, "income": 9397718, "revenue": 0}, {"ein": "832130913", "name": "ANITA HOPE MORSE FOUNDATION INC", "city": "GARDEN CITY", "state": "NY", "zip": "11530-6109", "ntee": "P12", "ruling": "201901", "deductibility": "1", "assets": 0, "income": 0, "revenue": 0}], "MEDICUS": [{"ein": "136271774", "name": "MEDICUS POLISH-AMERICAN MEDICAL SOCIETY INC", "city": "NEW YORK", "state": "NY", "zip": "10016-3101", "ntee": "B90", "ruling": "201512", "deductibility": "1", "assets": 0, "income": 0, "revenue": 0}], "HARWOOD": [{"ein": "136901255", "name": "CHARLES HARWOOD UW FBO CHESHIRE ACADEMY 10-217580", "city": "NEW YORK", "state": "NY", "zip": "10001-2189", "ntee": "", "ruling": "198806", "deductibility": "1", "assets": 2989871, "income": 1273196, "revenue": 377854}], "SHAKER": [{"ein": "141057690", "name": "SHAKER RIDGE COUNTRY CLUB INC", "city": "LOUDONVILLE", "state": "NY", "zip": "12211-1054", "ntee": "N50", "ruling": "194505", "deductibility": "2", "assets": 2278300, "income": 2519758, "revenue": 2519758}, {"ein": "141364601", "name": "SHAKER MUSEUM AND LIBRARY", "city": "OLD CHATHAM", "state": "NY", "zip": "12136-2601", "ntee": "A500", "ruling": "195304", "deductibility": "1", "assets": 10412586, "income": 1234267, "revenue": 1116998}, {"ein": "141805409", "name": "SHAKER ROWING ASSOCIATION INC", "city": "LOUDONVILLE", "state": "NY", "zip": "12211-0212", "ntee": "N67", "ruling": "200012", "deductibility": "1", "assets": 13635, "income": 53157, "revenue": 52560}, {"ein": "222186087", "name": "SHAKER HERITAGE SOCIETY", "city": "ALBANY", "state": "NY", "zip": "12211-1004", "ntee": "", "ruling": "197803", "deductibility": "1", "assets": 1125755, "income": 726780, "revenue": 478145}, {"ein": "222534501", "name": "SHAKER-ROAD LOUDONVILLE FIRE DEPT INC", "city": "LOUDONVILLE", "state": "NY", "zip": "12211-2100", "ntee": "", "ruling": "198708", "deductibility": "1", "assets": 7669986, "income": 1961335, "revenue": 1896375}, {"ein": "260701980", "name": "SHAKER POINTE AT CARONDELET", "city": "WATERVLIET", "state": "NY", "zip": "12189-2333", "ntee": "L22", "ruling": "200803", "deductibility": "1", "assets": 47977330, "income": 7123579, "revenue": 7123579}, {"ein": "272984703", "name": "SHAKER ALL SPORT BOOSTER CLUB INC", "city": "LATHAM", "state": "NY", "zip": "12110-4622", "ntee": "B11", "ruling": "201104", "deductibility": "1", "assets": 243075, "income": 499419, "revenue": 459676}, {"ein": "452856786", "name": "SHAKER SWAMP CONSERVANCY", "city": "NEW LEBANON", "state": "NY", "zip": "12125-0833", "ntee": "C32", "ruling": "201201", "deductibility": "1", "assets": 0, "income": 0, "revenue": 0}, {"ein": "453044002", "name": "FRIENDS OF SHAKER ROBOTICS INCORPORATED", "city": "MENANDS", "state": "NY", "zip": "12204-2312", "ntee": "B11", "ruling": "201112", "deductibility": "1", "assets": 86882, "income": 92847, "revenue": 92847}, {"ein": "800498484", "name": "PARKLAND AT SHAKER POINTE AT CARONDELET INC", "city": "WATERVLIET", "state": "NY", "zip": "12189-2333", "ntee": "L22", "ruling": "201102", "deductibility": "1", "assets": 10736105, "income": 1037833, "revenue": 1037833}], "PATTERSONVILLE": [{"ein": "141401694", "name": "CAMP PATTERSONVILLE INC", "city": "PATTERSONVILLE", "state": "NY", "zip": "12137-0000", "ntee": "N20", "ruling": "196404", "deductibility": "1", "assets": 229965, "income": 17185, "revenue": 17185}, {"ein": "141665878", "name": "MARIAVILLE CIVIC ASSOCIATION INC R D 1 PATTERSONVILLE", "city": "DELANSON", "state": "NY", "zip": "12053-4418", "ntee": "C32", "ruling": "200503", "deductibility": "1", "assets": 73015, "income": 41669, "revenue": 41669}], "SHERRIFFS": [{"ein": "141641649", "name": "SULLIVAN COUNTY DEPUTY SHERRIFFS ASSOCIATION", "city": "MONTICELLO", "state": "NY", "zip": "12701-1304", "ntee": "N50", "ruling": "201208", "deductibility": "2", "assets": 0, "income": 0, "revenue": 0}], "NDH": [{"ein": "141776208", "name": "NDH FOUNDATION", "city": "RHINEBECK", "state": "NY", "zip": "12572-3709", "ntee": "E99", "ruling": "199603", "deductibility": "1", "assets": 7994625, "income": 7893252, "revenue": 4837091}], "STEMPFLE": [{"ein": "146036979", "name": "EVELYN E STEMPFLE FUND", "city": "NORWICH", "state": "NY", "zip": "13815-0000", "ntee": "", "ruling": "196707", "deductibility": "1", "assets": 162110, "income": 25625, "revenue": 0}, {"ein": "146065610", "name": "ELLA STEMPFLE FBO BLEEKER STREET CHURCH", "city": "NORWICH", "state": "NY", "zip": "13815-0000", "ntee": "", "ruling": "000000", "deductibility": "0", "assets": 19768, "income": 1145, "revenue": 0}], "FOUNDERS": [{"ein": "161108878", "name": "NATIONAL SOCIETY DAUGHTERS OF FOUNDERS AND PATRIOTS OF AMERICA", "city": "SCHENEVUS", "state": "NY", "zip": "12155-3906", "ntee": "", "ruling": "194506", "deductibility": "1", "assets": 0, "income": 0, "revenue": 0}, {"ein": "205585902", "name": "WOMEN FOUNDERS COLLECTIVE", "city": "SYRACUSE", "state": "NY", "zip": "13214-2310", "ntee": "J99", "ruling": "200708", "deductibility": "1", "assets": 0, "income": 0, "revenue": 0}, {"ein": "237117961", "name": "THETA DELTA DELTA CHI FOUNDERS CORPORATION", "city": "ITHACA", "state": "NY", "zip": "14850-4830", "ntee": "", "ruling": "194208", "deductibility": "2", "assets": 50327, "income": 4423, "revenue": 4423}, {"ein": "237584673", "name": "NATIONAL SOCIETY DAUGHTERS OF FOUNDERS & PATRIOTS OF AMERICA", "city": "EAST HAMPTON", "state": "NY", "zip": "11937-0600", "ntee": "A80", "ruling": "197211", "deductibility": "1", "assets": 0, "income": 0, "revenue": 0}, {"ein": "371795297", "name": "FOUNDERS PLEDGE INC", "city": "NEW YORK", "state": "NY", "zip": "10003-1502", "ntee": "T20", "ruling": "202006", "deductibility": "1", "assets": 7657489, "income": 35397622, "revenue": 0}, {"ein": "460634088", "name": "CHILSON COMMUNITY FOUNDERS ASSOCIATION", "city": "TICONDEROGA", "state": "NY", "zip": "12883-0000", "ntee": "S20", "ruling": "201702", "deductibility": "1", "assets": 0, "income": 0, "revenue": 0}, {"ein": "465273035", "name": "PUTNAM FOUNDERS FUND", "city": "PUTNAM STA", "state": "NY", "zip": "12861-0039", "ntee": "B82", "ruling": "201409", "deductibility": "1", "assets": 0, "income": 0, "revenue": 0}, {"ein": "824064514", "name": "FOREST FOUNDERS INC", "city": "NEW YORK", "state": "NY", "zip": "10004-1648", "ntee": "C30", "ruling": "201808", "deductibility": "1", "assets": 0, "income": 0, "revenue": 0}, {"ein": "854302409", "name": "FOUNDERS IMPACT NEW ENTERPRISE", "city": "NEW YORK", "state": "NY", "zip": "10001-3411", "ntee": "S30", "ruling": "202108", "deductibility": "1", "assets": 0, "income": 0, "revenue": 0}, {"ein": "883620442", "name": "NATIONAL SOCIETY FOUNDERS OF PLACES OF WORSHIP IN AMERICA", "city": "SARATOGA SPGS", "state": "NY", "zip": "12866-7501", "ntee": "A80", "ruling": "202208", "deductibility": "1", "assets": 0, "income": 0, "revenue": 0}, {"ein": "921956068", "name": "WESTERN ZONE RETIRED TEACHERS FOUNDERS FUND", "city": "WILLIAMSVILLE", "state": "NY", "zip": "14221-2425", "ntee": "W12", "ruling": "202305", "deductibility": "1", "assets": 0, "income": 0, "revenue": 0}, {"ein": "923725118", "name": "GRAND FOUNDERS FOUNDATION INC", "city": "NEW YORK", "state": "NY", "zip": "10004-1501", "ntee": "P20", "ruling": "202312", "deductibility": "1", "assets": 653, "income": 71091, "revenue": 71091}, {"ein": "931814074", "name": "FOUNDERS ARENA INC", "city": "NEW YORK", "state": "NY", "zip": "10016-1924", "ntee": "B28", "ruling": "202306", "deductibility": "1", "assets": 198532, "income": 532155, "revenue": 532155}, {"ein": "993193737", "name": "ST ROSE ART DEPARTMENT FOUNDERS SCHOLARSHIP INC", "city": "MALTA", "state": "NY", "zip": "12020-3636", "ntee": "A12", "ruling": "202406", "deductibility": "1", "assets": 0, "income": 0, "revenue": 0}], "MORRISTOWN": [{"ein": "161304925", "name": "MORRISTOWN AREA DEVELOPMENT CORPORATION", "city": "MORRISTOWN", "state": "NY", "zip": "13664-3220", "ntee": "L22Z", "ruling": "199203", "deductibility": "1", "assets": 312645, "income": 166101, "revenue": 103845}, {"ein": "161465367", "name": "MORRISTOWN GATEWAY MUSEUM", "city": "MORRISTOWN", "state": "NY", "zip": "13664-0231", "ntee": "A500", "ruling": "199412", "deductibility": "1", "assets": 648428, "income": 112699, "revenue": 74888}, {"ein": "222507499", "name": "MORRISTOWN PUBLIC LIBRARY", "city": "MORRISTOWN", "state": "NY", "zip": "13664-0206", "ntee": "B70", "ruling": "201005", "deductibility": "1", "assets": 72753, "income": 101316, "revenue": 101316}], "MUSICALFARE": [{"ein": "161384566", "name": "MUSICALFARE THEATRE COMPANY INC", "city": "BUFFALO", "state": "NY", "zip": "14205-1130", "ntee": "A650", "ruling": "199411", "deductibility": "1", "assets": 669879, "income": 1450934, "revenue": 1414834}], "ALTON": [{"ein": "161483222", "name": "ALTON FREE METHODIST CHURCH", "city": "ALTON", "state": "NY", "zip": "14413-0131", "ntee": "", "ruling": "195806", "deductibility": "1", "assets": 0, "income": 0, "revenue": 0}, {"ein": "222520964", "name": "ALTON GOSPEL TABERNACLE", "city": "SODUS", "state": "NY", "zip": "14551-9521", "ntee": "", "ruling": "199306", "deductibility": "1", "assets": 0, "income": 0, "revenue": 0}, {"ein": "841711446", "name": "ALTON FIRE COMPANY INC", "city": "ALTON", "state": "NY", "zip": "14413-0002", "ntee": "M24", "ruling": "201910", "deductibility": "1", "assets": 0, "income": 0, "revenue": 0}], "COCK": [{"ein": "161534227", "name": "BROTHERHOOD OF THE JUNGLE COCK INC", "city": "HOMER", "state": "NY", "zip": "13077-9423", "ntee": "N61", "ruling": "201104", "deductibility": "1", "assets": 0, "income": 0, "revenue": 0}], "REDDINGTON": [{"ein": "161555796", "name": "JOHN A REDDINGTON SCHOLARSHIP FUND", "city": "PITTSFORD", "state": "NY", "zip": "14534-0000", "ntee": "T22", "ruling": "199902", "deductibility": "1", "assets": 544704, "income": 531468, "revenue": 0}], "PH": [{"ein": "161558576", "name": "PH&S PROPERTY MANAGEMENT INC", "city": "NEW HARTFORD", "state": "NY", "zip": "13413-5314", "ntee": "Z99", "ruling": "199812", "deductibility": "2", "assets": 106522, "income": 31, "revenue": 31}, {"ein": "462529788", "name": "PH HOUSING DEVELOPMENT FUND CORPORATION", "city": "SUFFERN", "state": "NY", "zip": "10901-4176", "ntee": "L99", "ruling": "201408", "deductibility": "1", "assets": 64, "income": 25, "revenue": 25}, {"ein": "465713720", "name": "BRUCHA OF PH PE INC", "city": "BROOKLYN", "state": "NY", "zip": "11204-2341", "ntee": "T22", "ruling": "201408", "deductibility": "1", "assets": 1901291, "income": 684521, "revenue": 0}, {"ein": "475492303", "name": "QUEENS HOPE PH CHURCH", "city": "FLUSHING", "state": "NY", "zip": "11354-4321", "ntee": "X20", "ruling": "201610", "deductibility": "1", "assets": 0, "income": 0, "revenue": 0}, {"ein": "823550963", "name": "PH AFFORDABLE HOUSING FUND INC", "city": "NEW YORK", "state": "NY", "zip": "10010-6033", "ntee": "L21", "ruling": "201903", "deductibility": "1", "assets": 60126170, "income": 395703, "revenue": 395703}, {"ein": "921272510", "name": "PH FILM PRESERVATION LTD", "city": "BROOKLYN", "state": "NY", "zip": "11222-2710", "ntee": "A31", "ruling": "202212", "deductibility": "1", "assets": 23955, "income": 30000, "revenue": 0}], "MUSICALES": [{"ein": "166051443", "name": "THURSDAY MORNING MUSICALES OF ELMIRA INC", "city": "PINE VALLEY", "state": "NY", "zip": "14872-9700", "ntee": "", "ruling": "196305", "deductibility": "1", "assets": 0, "income": 0, "revenue": 0}], "HALLER": [{"ein": "166088537", "name": "GEORGE J HALLER TR FD", "city": "BUFFALO", "state": "NY", "zip": "14240-1504", "ntee": "", "ruling": "000000", "deductibility": "0", "assets": 435732, "income": 62919, "revenue": 20286}, {"ein": "256773374", "name": "PETER J HALLER FAMILY FOUNDATION", "city": "WANTAGH", "state": "NY", "zip": "11793-7634", "ntee": "T21", "ruling": "200203", "deductibility": "1", "assets": 232298, "income": 72853, "revenue": 0}], "HANAHIAH": [{"ein": "202326465", "name": "HANAHIAH LUTHERAN CHURCH", "city": "BUFFALO", "state": "NY", "zip": "14211-3027", "ntee": "", "ruling": "194107", "deductibility": "1", "assets": 0, "income": 0, "revenue": 0}], "LEMLEM": [{"ein": "202843928", "name": "LEMLEM FOUNDATION", "city": "WHITE PLAINS", "state": "NY", "zip": "10601-1828", "ntee": "T20", "ruling": "200707", "deductibility": "1", "assets": 60966, "income": 56913, "revenue": 0}], "HAE": [{"ein": "203139056", "name": "HAE AHM SEA ROCK FOUNDATION", "city": "SCARSDALE", "state": "NY", "zip": "10583-3106", "ntee": "T22", "ruling": "200511", "deductibility": "1", "assets": 463747, "income": 85086, "revenue": 0}], "KWANGMYUNG": [{"ein": "203382622", "name": "NEW YORK KWANGMYUNG PRESBYTERIAN CHURCH", "city": "FLUSHING", "state": "NY", "zip": "11354-4158", "ntee": "X21", "ruling": "200508", "deductibility": "1", "assets": 0, "income": 0, "revenue": 0}], "HABIGONJ": [{"ein": "203461038", "name": "JUKTARASTRA HABIGONJ ZILA SAMITI INC", "city": "BRONX", "state": "NY", "zip": "10472-4302", "ntee": "N30", "ruling": "201806", "deductibility": "1", "assets": 0, "income": 0, "revenue": 0}], "BEAT": [{"ein": "205331144", "name": "SONG AND BEAT INC", "city": "MOHEGAN LAKE", "state": "NY", "zip": "10547-1012", "ntee": "A25", "ruling": "202106", "deductibility": "1", "assets": 0, "income": 0, "revenue": 0}, {"ein": "455453119", "name": "BEAT DIABETES NOW INC", "city": "DIX HILLS", "state": "NY", "zip": "11746-7812", "ntee": "T30", "ruling": "201304", "deductibility": "1", "assets": 0, "income": 0, "revenue": 0}, {"ein": "473097741", "name": "BEAT LIVES ON INC", "city": "LINDENHURST", "state": "NY", "zip": "11757-3302", "ntee": "F20", "ruling": "201505", "deductibility": "1", "assets": 0, "income": 0, "revenue": 0}, {"ein": "811096364", "name": "BEAT BRAIN CANCER INC", "city": "FAIRPORT", "state": "NY", "zip": "14450-8622", "ntee": "", "ruling": "201711", "deductibility": "1", "assets": 0, "income": 0, "revenue": 0}, {"ein": "811136021", "name": "WARRIOR BEAT", "city": "WESTTOWN", "state": "NY", "zip": "10998-3449", "ntee": "F99", "ruling": "201602", "deductibility": "1", "assets": 0, "income": 0, "revenue": 0}, {"ein": "814353523", "name": "BEAT STAGE 3 INC", "city": "NEW YORK", "state": "NY", "zip": "10018-7726", "ntee": "G01", "ruling": "201701", "deductibility": "1", "assets": 0, "income": 0, "revenue": 0}, {"ein": "862713285", "name": "KYOUNGS PACIFIC BEAT INC", "city": "BROOKLYN", "state": "NY", "zip": "11210-0140", "ntee": "A23", "ruling": "202105", "deductibility": "1", "assets": 17676, "income": 81640, "revenue": 81640}, {"ein": "992361661", "name": "BEAT DYSLEXIA STRONG INC", "city": "STATEN ISLAND", "state": "NY", "zip": "10308-3036", "ntee": "B92", "ruling": "202409", "deductibility": "1", "assets": 0, "income": 0, "revenue": 0}, {"ein": "992851244", "name": "BEAT 139 FOUNDATION INC", "city": "NEW YORK", "state": "NY", "zip": "10003-1502", "ntee": "W12", "ruling": "202405", "deductibility": "1", "assets": 0, "income": 0, "revenue": 0}], "PFBL": [{"ein": "205366395", "name": "PFBL SCHOLARSHIP FUND INC", "city": "NEW YORK", "state": "NY", "zip": "10037-2101", "ntee": "B82", "ruling": "200804", "deductibility": "1", "assets": 0, "income": 0, "revenue": 0}], "ALG": [{"ein": "208623369", "name": "ALG FAMILY FOUNDATION", "city": "NEW YORK", "state": "NY", "zip": "10110-5101", "ntee": "T20", "ruling": "200712", "deductibility": "1", "assets": 1064384, "income": 264484, "revenue": 0}], "PALER": [{"ein": "208963125", "name": "PALER FOUNDATION INC", "city": "WAINSCOTT", "state": "NY", "zip": "11975-1158", "ntee": "T20", "ruling": "200710", "deductibility": "1", "assets": 1179926, "income": 231574, "revenue": 0}], "WHISKERS": [{"ein": "222487926", "name": "WHISKERS INC", "city": "ALBANY", "state": "NY", "zip": "12211-0190", "ntee": "D200", "ruling": "198709", "deductibility": "1", "assets": 366918, "income": 403849, "revenue": 381376}, {"ein": "264019445", "name": "WHISKERS & TAILS GUARDIANS INC", "city": "BABYLON", "state": "NY", "zip": "11703-4700", "ntee": "D20", "ruling": "201409", "deductibility": "1", "assets": 0, "income": 0, "revenue": 0}, {"ein": "332039875", "name": "KITTY WHISKERS INC", "city": "SAYVILLE", "state": "NY", "zip": "11782-1812", "ntee": "D99", "ruling": "202411", "deductibility": "1", "assets": 0, "income": 0, "revenue": 0}, {"ein": "471288157", "name": "WHITE WHISKERS INC", "city": "BELLEROSE", "state": "NY", "zip": "11426-0000", "ntee": "D99", "ruling": "201408", "deductibility": "1", "assets": 0, "income": 0, "revenue": 0}, {"ein": "812882799", "name": "WHISKERS-AGOGO INC", "city": "BROOKLYN", "state": "NY", "zip": "11222-1017", "ntee": "D20", "ruling": "201707", "deductibility": "1", "assets": 76323, "income": 128783, "revenue": 128783}, {"ein": "823122124", "name": "ALL FOR THE LOVE OF WHISKERS INC", "city": "KERHONKSON", "state": "NY", "zip": "12446-0125", "ntee": "D20", "ruling": "201711", "deductibility": "1", "assets": 0, "income": 0, "revenue": 0}, {"ein": "843396576", "name": "WHITE WHISKERS SENIOR DOG SANCTUARY", "city": "AKRON", "state": "NY", "zip": "14001-1044", "ntee": "D20", "ruling": "201912", "deductibility": "1", "assets": 655236, "income": 247981, "revenue": 247981}, {"ein": "883158614", "name": "PURRS AND WHISKERS INC", "city": "NEW HARTFORD", "state": "NY", "zip": "13413-1016", "ntee": "D20", "ruling": "202208", "deductibility": "1", "assets": 85207, "income": 100869, "revenue": 98960}, {"ein": "932874093", "name": "WHISKERS AND PURRS RESCUE", "city": "STANLEY", "state": "NY", "zip": "14561-9508", "ntee": "D20", "ruling": "202407", "deductibility": "1", "assets": 0, "income": 0, "revenue": 0}], "TEFFLIAS": [{"ein": "223044314", "name": "CONGREGATION TEFFLIAS YESHARIM INC", "city": "BROOKLYN", "state": "NY", "zip": "11230-6707", "ntee": "", "ruling": "199112", "deductibility": "1", "assets": 0, "income": 0, "revenue": 0}], "ALMAHDI": [{"ein": "223470618", "name": "ALMAHDI FOUNDATION INC", "city": "BROOKLYN", "state": "NY", "zip": "11218-5384", "ntee": "X40Z", "ruling": "199710", "deductibility": "1", "assets": 409897, "income": 232370, "revenue": 232370}], "CHARITABLR": [{"ein": "236823362", "name": "INEZ C FREY TA CHARITABLR CHURCH", "city": "BUFFALO", "state": "NY", "zip": "14240-1504", "ntee": "T20", "ruling": "201404", "deductibility": "1", "assets": 289731, "income": 91562, "revenue": 0}], "PALMINA": [{"ein": "237032083", "name": "P J & PALMINA CASELLA FOUNDATION", "city": "VESTAL", "state": "NY", "zip": "13850-1145", "ntee": "", "ruling": "196910", "deductibility": "1", "assets": 1056684, "income": 207021, "revenue": 0}, {"ein": "474164575", "name": "STEPHEN AND PALMINA PACE FOUNDATION INC", "city": "NEW YORK", "state": "NY", "zip": "10011-1404", "ntee": "", "ruling": "201603", "deductibility": "1", "assets": 11756638, "income": 1747532, "revenue": 0}], "LUDIN": [{"ein": "237102621", "name": "DANCES WE DANCE INC JONES-LUDIN DANCES WE DANCE CO", "city": "NEW YORK", "state": "NY", "zip": "10019-1548", "ntee": "A62Z", "ruling": "198311", "deductibility": "1", "assets": 0, "income": 0, "revenue": 0}], "VIOLENTEND": [{"ein": "260847222", "name": "HARLEM MOTHERS STOP ANOTHER VIOLENTEND INC", "city": "NEW YORK", "state": "NY", "zip": "10027-1933", "ntee": "I20", "ruling": "200812", "deductibility": "1", "assets": 75989, "income": 249001, "revenue": 249001}], "NYSSPE": [{"ein": "263583298", "name": "NEW YORK CHAPTER NYSSPE INC", "city": "KEW GARDENS", "state": "NY", "zip": "11415-1023", "ntee": "U42", "ruling": "201103", "deductibility": "1", "assets": 0, "income": 0, "revenue": 0}, {"ein": "833913389", "name": "QUEENS CHAPTER NYSSPE INC", "city": "BAYSIDE", "state": "NY", "zip": "11361-1411", "ntee": "S46", "ruling": "201910", "deductibility": "2", "assets": 0, "income": 0, "revenue": 0}], "BANDA": [{"ein": "263821877", "name": "BANDA BOLA SPORTS FOUNDATION INC", "city": "GUILDERLAND", "state": "NY", "zip": "12084-0105", "ntee": "N12", "ruling": "201910", "deductibility": "1", "assets": 0, "income": 0, "revenue": 0}], "BAK": [{"ein": "263930966", "name": "ADAM M BAK FOUNDATION INC", "city": "BROOKLYN", "state": "NY", "zip": "11237-1119", "ntee": "T22", "ruling": "200904", "deductibility": "1", "assets": 6709, "income": 50108, "revenue": 0}, {"ein": "475016032", "name": "BAK FAMILY FOUNDATION INC", "city": "NEW ROCHELLE", "state": "NY", "zip": "10804-4139", "ntee": "T20", "ruling": "201511", "deductibility": "1", "assets": 20304, "income": 1, "revenue": 0}], "CDE": [{"ein": "264034492", "name": "A B CDE FOUNDATION", "city": "NEW YORK", "state": "NY", "zip": "10023-3056", "ntee": "B01", "ruling": "201904", "deductibility": "1", "assets": 0, "income": 0, "revenue": 0}], "HIPKINS": [{"ein": "266162152", "name": "HIPKINS FAMILY FOUNDATION", "city": "NEW YORK", "state": "NY", "zip": "10023-3498", "ntee": "T20", "ruling": "200804", "deductibility": "1", "assets": 575534, "income": 632828, "revenue": 0}], "PRAXIIS": [{"ein": "266696798", "name": "PRAXIIS FOUNDATION", "city": "EAST AURORA", "state": "NY", "zip": "14052-9523", "ntee": "T20", "ruling": "201202", "deductibility": "1", "assets": 143374, "income": 3898, "revenue": 0}], "YORKA": [{"ein": "270619954", "name": "JOHN S AND YORKA C LINAKIS SCHOLARSHIPS", "city": "NEW YORK", "state": "NY", "zip": "10016-2565", "ntee": "T12", "ruling": "201010", "deductibility": "1", "assets": 778015, "income": 59420, "revenue": 0}], "VOLTAGE": [{"ein": "271756886", "name": "NEW YORK LOW VOLTAGE CONTRACTORS ASSOCIATION INC", "city": "BROOKLYN", "state": "NY", "zip": "11204-3923", "ntee": "S46", "ruling": "201003", "deductibility": "2", "assets": 1, "income": 0, "revenue": 0}], "BURGOS": [{"ein": "272965950", "name": "STEPHANIE MARIE BURGOS SCHOLARSHIP INC", "city": "BROOKLYN", "state": "NY", "zip": "11237-3403", "ntee": "B82", "ruling": "201101", "deductibility": "1", "assets": 8437, "income": 2066, "revenue": 2066}], "UBUSHOBOZI": [{"ein": "273639892", "name": "UBUSHOBOZI PROJECT", "city": "NORTH BANGOR", "state": "NY", "zip": "12966-0000", "ntee": "Q30", "ruling": "201406", "deductibility": "1", "assets": 0, "income": 0, "revenue": 0}], "RABAINE": [{"ein": "273659421", "name": "BAIS RABAINE CHARITABLE FOUNDATION", "city": "BROOKLYN", "state": "NY", "zip": "11211-8919", "ntee": "T22", "ruling": "201502", "deductibility": "1", "assets": 893797, "income": 369300, "revenue": 0}], "FRIEMANN": [{"ein": "274126227", "name": "ROBERT AND PATRICIA FRIEMANN FOUNDATION", "city": "HUNTINGTON", "state": "NY", "zip": "11743-2548", "ntee": "T20", "ruling": "201105", "deductibility": "1", "assets": 478079, "income": 52757, "revenue": 0}], "GOGUIKIAN": [{"ein": "275034535", "name": "GOGUIKIAN FOUNDATION USA INC", "city": "NEW YORK", "state": "NY", "zip": "10022-1606", "ntee": "T20", "ruling": "201509", "deductibility": "1", "assets": 5177, "income": 1, "revenue": 0}], "CRAUGH": [{"ein": "276603467", "name": "CANANDAIGUA NATIONAL BANK & TRUST CO TRUSTEE OF CRAUGH CHARITABLE", "city": "PITTSFORD", "state": "NY", "zip": "14534-3838", "ntee": "T22", "ruling": "201410", "deductibility": "1", "assets": 2368304, "income": 726087, "revenue": 0}], "AIDSPAN": [{"ein": "320060251", "name": "AIDSPAN", "city": "NEW YORK", "state": "NY", "zip": "10122-0000", "ntee": "G81", "ruling": "200308", "deductibility": "1", "assets": 274358, "income": 1159810, "revenue": 1159810}], "APS": [{"ein": "320241819", "name": "APS TYPE 1 FOUNDATION", "city": "STONY BROOK", "state": "NY", "zip": "11790-0404", "ntee": "G80", "ruling": "201403", "deductibility": "1", "assets": 359039, "income": 161120, "revenue": 161120}], "VITAHEAL": [{"ein": "331547291", "name": "VITAHEAL FOUNDATION INC", "city": "GREAT NECK", "state": "NY", "zip": "11021-3131", "ntee": "E60", "ruling": "202411", "deductibility": "1", "assets": 0, "income": 0, "revenue": 0}], "FAHFUANNYEE": [{"ein": "332381353", "name": "FAHFUANNYEE INC", "city": "QUEENS VLG", "state": "NY", "zip": "11428-1428", "ntee": "P99", "ruling": "202502", "deductibility": "1", "assets": 0, "income": 0, "revenue": 0}], "OCTANE": [{"ein": "332711688", "name": "HIGH OCTANE ATHLETICS INC", "city": "CARMEL", "state": "NY", "zip": "10512-5827", "ntee": "N60", "ruling": "202502", "deductibility": "1", "assets": 0, "income": 0, "revenue": 0}], "STEB": [{"ein": "333170898", "name": "STEB FAMILY FOUNDATION INC", "city": "BROOKLYN", "state": "NY", "zip": "11210-3638", "ntee": "P99", "ruling": "202503", "deductibility": "1", "assets": 0, "income": 0, "revenue": 0}], "TREZZA": [{"ein": "333293866", "name": "BELLA TREZZA FOUNDATION CORP", "city": "BABYLON", "state": "NY", "zip": "11702-2505", "ntee": "W99", "ruling": "202502", "deductibility": "1", "assets": 0, "income": 0, "revenue": 0}], "ZEHRA": [{"ein": "333622813", "name": "RAHMAN ZEHRA AND FAMILY FOUNDATION INC", "city": "BINGHAMTON", "state": "NY", "zip": "13903-1304", "ntee": "B28", "ruling": "202504", "deductibility": "1", "assets": 0, "income": 0, "revenue": 0}], "TWINING": [{"ein": "352332597", "name": "TWINING VINES ZENDO", "city": "PURCHASE", "state": "NY", "zip": "10577-1506", "ntee": "X50", "ruling": "201004", "deductibility": "1", "assets": 0, "income": 0, "revenue": 0}], "SAMESAME": [{"ein": "352723295", "name": "SAMESAME INC", "city": "NEW YORK", "state": "NY", "zip": "10031-2504", "ntee": "P88", "ruling": "202205", "deductibility": "1", "assets": 620171, "income": 265452, "revenue": 265452}], "IFPTE": [{"ein": "363300371", "name": "ASSOCIATION OF ADMINISTRATIVE LAW JUDGES JUDICIAL COUNCIL NO 1 IFPTE", "city": "PURCHASE", "state": "NY", "zip": "10577-7532", "ntee": "J99", "ruling": "202004", "deductibility": "2", "assets": 1468898, "income": 631528, "revenue": 631528}], "DRUPA": [{"ein": "376432313", "name": "LAIMONS E AND SILVIA DRUPA SCHOLARSHIP TRUST FUND", "city": "KIRKWOOD", "state": "NY", "zip": "13795-0405", "ntee": "T20", "ruling": "201004", "deductibility": "1", "assets": 695375, "income": 247159, "revenue": 0}], "LEAGE": [{"ein": "421758547", "name": "MARINE CORPS LEAGE", "city": "OWEGO", "state": "NY", "zip": "13827-0455", "ntee": "W30", "ruling": "194607", "deductibility": "1", "assets": 0, "income": 0, "revenue": 0}], "XCEL": [{"ein": "452903452", "name": "XCEL LEADERSHIP CENTER", "city": "BUFFALO", "state": "NY", "zip": "14207-2316", "ntee": "O50", "ruling": "201202", "deductibility": "1", "assets": 0, "income": 0, "revenue": 0}], "CARKNARD": [{"ein": "455062139", "name": "EDDIE CARKNARD FUND INC", "city": "HOOSICK FALLS", "state": "NY", "zip": "12090-1718", "ntee": "B11", "ruling": "201207", "deductibility": "1", "assets": 0, "income": 0, "revenue": 0}], "INFO": [{"ein": "455484405", "name": "DEMOCRACYATWORK INFO", "city": "NEW YORK", "state": "NY", "zip": "10009-2927", "ntee": "S30", "ruling": "201404", "deductibility": "1", "assets": 522782, "income": 275562, "revenue": 273113}, {"ein": "472512636", "name": "DENSEBREAST-INFO INC", "city": "DEER PARK", "state": "NY", "zip": "11729-7840", "ntee": "G30", "ruling": "201412", "deductibility": "1", "assets": 265192, "income": 179748, "revenue": 179748}], "SCULPTURES": [{"ein": "460855710", "name": "NATIONAL MEMORIAL SCULPTURES & MONUMENTS INC", "city": "YONKERS", "state": "NY", "zip": "10703-1512", "ntee": "A80", "ruling": "201303", "deductibility": "1", "assets": 0, "income": 0, "revenue": 0}], "SNOOPY": [{"ein": "464497046", "name": "BUFFALO COMPANION ANIMAL RESCUE FOR EVAN AND SNOOPY ANIMAL RESCUE", "city": "TONAWANDA", "state": "NY", "zip": "14150-6610", "ntee": "P20", "ruling": "201409", "deductibility": "1", "assets": 313835, "income": 183455, "revenue": 183455}], "CUSE": [{"ein": "465606564", "name": "CUSE CONNECTION INC", "city": "SYRACUSE", "state": "NY", "zip": "13214-0246", "ntee": "B12", "ruling": "201805", "deductibility": "1", "assets": 0, "income": 0, "revenue": 0}, {"ein": "472100739", "name": "CUSE PIT CREW INC", "city": "SYRACUSE", "state": "NY", "zip": "13220-2833", "ntee": "D20", "ruling": "201504", "deductibility": "1", "assets": 0, "income": 0, "revenue": 0}, {"ein": "852926494", "name": "CAUSE FOR THE CUSE INC", "city": "SYRACUSE", "state": "NY", "zip": "13202-9203", "ntee": "P20", "ruling": "202102", "deductibility": "1", "assets": 51957, "income": 35558, "revenue": 0}, {"ein": "884381407", "name": "CUSE UNITED INC", "city": "SYRACUSE", "state": "NY", "zip": "13224-1207", "ntee": "N65", "ruling": "202301", "deductibility": "1", "assets": 222, "income": 88901, "revenue": 83987}], "CICA": [{"ein": "465755393", "name": "CICA-INTERNATIONAL", "city": "VALLEY STREAM", "state": "NY", "zip": "11581-1233", "ntee": "", "ruling": "199112", "deductibility": "1", "assets": 0, "income": 0, "revenue": 0}], "HEALTHIER": [{"ein": "471151617", "name": "CREATE A HEALTHIER NIAGARA FALLS COLLABORATIVE INC", "city": "NIAGARA FALLS", "state": "NY", "zip": "14301-2232", "ntee": "W99", "ruling": "201409", "deductibility": "1", "assets": 0, "income": 0, "revenue": 0}, {"ein": "475172854", "name": "SHK - SMARTER HEALTHIER KID FOUNDATION CORP", "city": "FLORAL PARK", "state": "NY", "zip": "11004-1539", "ntee": "O50", "ruling": "201602", "deductibility": "1", "assets": 3142, "income": 1500, "revenue": 1500}, {"ein": "522303126", "name": "HOPE FOR A HEALTHIER HUMANITY FOUNDATION INC", "city": "STATEN ISLAND", "state": "NY", "zip": "10309-0547", "ntee": "Q30", "ruling": "200111", "deductibility": "1", "assets": 1305396, "income": 8471373, "revenue": 8360428}, {"ein": "814492478", "name": "PROMOTING A HEALTHIER AFRICA INC", "city": "RIDGEWOOD", "state": "NY", "zip": "11358-0000", "ntee": "P20", "ruling": "201803", "deductibility": "1", "assets": 0, "income": 0, "revenue": 0}, {"ein": "854039626", "name": "EAT TO LIVE HEALTHIER INC", "city": "HOLLIS", "state": "NY", "zip": "11423-1909", "ntee": "K40", "ruling": "202202", "deductibility": "1", "assets": 0, "income": 0, "revenue": 0}], "DRAPER": [{"ein": "471706716", "name": "DRAPER HOMES HOUSING DEVELOPMENT FUND CORPORATION", "city": "GREAT NECK", "state": "NY", "zip": "11021-3032", "ntee": "L40", "ruling": "201411", "deductibility": "1", "assets": 0, "income": 0, "revenue": 0}, {"ein": "562342038", "name": "TIMOTHY M DRAPER CENTER FOR DANCE EDUCATION INC", "city": "ROCHESTER", "state": "NY", "zip": "14618-5408", "ntee": "A62", "ruling": "200311", "deductibility": "1", "assets": 1250733, "income": 847668, "revenue": 831345}, {"ein": "800633711", "name": "DRAPER MOHONASEN PTSO", "city": "SCHENECTADY", "state": "NY", "zip": "12303-4400", "ntee": "B94", "ruling": "201411", "deductibility": "1", "assets": 0, "income": 0, "revenue": 0}, {"ein": "811252569", "name": "DRAPER FAMILY HOUSING DEVELOPMENT FUND CORPORATION", "city": "GREAT NECK", "state": "NY", "zip": "11021-3032", "ntee": "L21", "ruling": "201911", "deductibility": "1", "assets": 0, "income": 0, "revenue": 0}, {"ein": "994475011", "name": "DRAPER STARTUP HOUSE AMERICAS INC", "city": "NEW YORK", "state": "NY", "zip": "10001-0074", "ntee": "S43", "ruling": "202503", "deductibility": "1", "assets": 0, "income": 0, "revenue": 0}], "FIDELIS": [{"ein": "471968972", "name": "VIR FIDELIS FUND", "city": "STATEN ISLAND", "state": "NY", "zip": "10306-2005", "ntee": "B90", "ruling": "201502", "deductibility": "1", "assets": 4007981, "income": 1113533, "revenue": 1043814}, {"ein": "814404811", "name": "SEMPER FIDELIS YOUNG ADULT LEADERSHIP ACADEMY INC", "city": "W HAMPTON BCH", "state": "NY", "zip": "11978-2317", "ntee": "B60", "ruling": "201704", "deductibility": "1", "assets": 0, "income": 0, "revenue": 0}, {"ein": "831953520", "name": "NIAGARA SEMPER FIDELIS INC", "city": "NIAGARA FALLS", "state": "NY", "zip": "14303-1231", "ntee": "X22", "ruling": "201902", "deductibility": "1", "assets": 1975479, "income": 85455, "revenue": 85455}], "CAKES4CAUSE": [{"ein": "472542931", "name": "CAKES4CAUSE INC", "city": "SCARSDALE", "state": "NY", "zip": "10583-4401", "ntee": "S80", "ruling": "201412", "deductibility": "1", "assets": 0, "income": 0, "revenue": 0}], "AGELESS": [{"ein": "473640930", "name": "AGELESS MIND PROJECT INC", "city": "MOUNT KISCO", "state": "NY", "zip": "10549-3504", "ntee": "B90", "ruling": "201509", "deductibility": "1", "assets": 0, "income": 0, "revenue": 0}, {"ein": "810956547", "name": "AGELESS JAZZ BAND", "city": "ITHACA", "state": "NY", "zip": "14850-6330", "ntee": "A6C", "ruling": "201803", "deductibility": "1", "assets": 0, "income": 0, "revenue": 0}, {"ein": "863598922", "name": "AGELESS LIVING COLLABORATIVE INC", "city": "RHINEBECK", "state": "NY", "zip": "12572-1716", "ntee": "L03", "ruling": "202202", "deductibility": "1", "assets": 34629, "income": 83615, "revenue": 83615}], "EBOOK": [{"ein": "522229968", "name": "OPEN EBOOK FORUM", "city": "KATONAH", "state": "NY", "zip": "10536-1521", "ntee": "S41", "ruling": "201302", "deductibility": "2", "assets": 11719, "income": 0, "revenue": 0}], "WELLTONE": [{"ein": "562321839", "name": "WELLTONE NEW MUSIC INC", "city": "NEW YORK", "state": "NY", "zip": "10007-2913", "ntee": "A68", "ruling": "200311", "deductibility": "1", "assets": 115111, "income": 83922, "revenue": 83922}], "RERUN": [{"ein": "611336739", "name": "RERUN INC", "city": "EAST GREENBUSH", "state": "NY", "zip": "12061-3821", "ntee": "D200", "ruling": "199903", "deductibility": "1", "assets": 2134499, "income": 570616, "revenue": 570616}], "TATTA": [{"ein": "650883794", "name": "THE@ANNE AND JOHN TATTA FAMILY FOUNDATION INC", "city": "OYSTER BAY", "state": "NY", "zip": "11771-3810", "ntee": "T22", "ruling": "199903", "deductibility": "1", "assets": 1662125, "income": 661088, "revenue": 0}], "ERHUVWU": [{"ein": "800258210", "name": "ERHUVWU RU URHOBO WOMEN ASSOCIATION USA INC", "city": "JAMAICA", "state": "NY", "zip": "11434-5034", "ntee": "P40", "ruling": "202411", "deductibility": "1", "assets": 0, "income": 0, "revenue": 0}], "ACLD": [{"ein": "812018946", "name": "ACLD FOUNDATION INC", "city": "BETHPAGE", "state": "NY", "zip": "11714-1030", "ntee": "Z99", "ruling": "201610", "deductibility": "1", "assets": 2500460, "income": 1258016, "revenue": 1018784}], "WHIN": [{"ein": "812997297", "name": "WHIN MUSIC COMMUNITY CHARTER SCHOOL", "city": "NEW YORK", "state": "NY", "zip": "10032-6001", "ntee": "B29", "ruling": "201703", "deductibility": "1", "assets": 3111873, "income": 11494652, "revenue": 11357666}], "BAURIA": [{"ein": "813400078", "name": "BAURIA JANA KALLYAN SAMITY INC", "city": "BROOKLYN", "state": "NY", "zip": "11218-4535", "ntee": "P20", "ruling": "202403", "deductibility": "1", "assets": 137825, "income": 74542, "revenue": 74542}], "YS": [{"ein": "813585037", "name": "THE Y & YS FOUNDATION INC", "city": "HARRIMAN", "state": "NY", "zip": "10926-3002", "ntee": "T50", "ruling": "201909", "deductibility": "1", "assets": 180043, "income": 1471500, "revenue": 0}], "BRIGANTE": [{"ein": "814417627", "name": "BORBONE BRIGANTE INC", "city": "BROOKLYN", "state": "NY", "zip": "11209-2246", "ntee": "S12", "ruling": "202310", "deductibility": "1", "assets": 0, "income": 0, "revenue": 0}], "CONNELLY": [{"ein": "815121977", "name": "JAMES CONNELLY IRISH AMERICAN LABOR COALITION INC", "city": "MELVILLE", "state": "NY", "zip": "11747-3600", "ntee": "", "ruling": "202103", "deductibility": "0", "assets": 34989, "income": 35986, "revenue": 4383}], "IBAKA": [{"ein": "815215301", "name": "SERGE IBAKA FOUNDATION INC", "city": "NEW YORK", "state": "NY", "zip": "10017-2820", "ntee": "Q33", "ruling": "201711", "deductibility": "1", "assets": 60396, "income": 28532, "revenue": 28532}], "ARIZOU": [{"ein": "815268868", "name": "ARIZOU DBA BASTA", "city": "NEW YORK", "state": "NY", "zip": "10018-4502", "ntee": "B80", "ruling": "201702", "deductibility": "1", "assets": 7827676, "income": 8806559, "revenue": 8806559}], "FARRANT": [{"ein": "816608851", "name": "TRUST U W RITA@FARRANT", "city": "GLENS FALLS", "state": "NY", "zip": "12801-2161", "ntee": "T90", "ruling": "201708", "deductibility": "1", "assets": 1269184, "income": 368631, "revenue": 0}], "HACHESHBONE": [{"ein": "820665768", "name": "HACHESHBONE THE BUDGET INC", "city": "SPRING VALLEY", "state": "NY", "zip": "10977-1301", "ntee": "P40", "ruling": "201703", "deductibility": "1", "assets": 31617, "income": 157785, "revenue": 157785}], "GOMDE": [{"ein": "820871195", "name": "RANGJUNG YESHE GOMDE NEW YORK INC", "city": "NEW YORK", "state": "NY", "zip": "10016-0370", "ntee": "X50", "ruling": "201712", "deductibility": "1", "assets": 0, "income": 0, "revenue": 0}], "ROHAN": [{"ein": "824684217", "name": "ROHAN LEVY FOUNDATION INC", "city": "BROOKLYN", "state": "NY", "zip": "11234-0474", "ntee": "I20", "ruling": "201804", "deductibility": "1", "assets": 0, "income": 0, "revenue": 0}], "BREW": [{"ein": "830553768", "name": "BARK BREW & TATTOO INC", "city": "GLENS FALLS", "state": "NY", "zip": "12801-6442", "ntee": "D12", "ruling": "201904", "deductibility": "1", "assets": 0, "income": 0, "revenue": 0}, {"ein": "841910659", "name": "PITCHES BREW INC", "city": "NEW YORK", "state": "NY", "zip": "10023-7148", "ntee": "A20", "ruling": "201906", "deductibility": "1", "assets": 0, "income": 0, "revenue": 0}, {"ein": "923735924", "name": "LOVE WHERE WE BREW INC", "city": "CHESTER", "state": "NY", "zip": "10918-1233", "ntee": "W12", "ruling": "202308", "deductibility": "1", "assets": 0, "income": 0, "revenue": 0}], "NESHMA": [{"ein": "830992272", "name": "FRIENDS OF NETINA EIM NESHMA INC", "city": "BROOKLYN", "state": "NY", "zip": "11203-3110", "ntee": "X30", "ruling": "201807", "deductibility": "1", "assets": 225, "income": 6932, "revenue": 6932}], "WEISKOPF": [{"ein": "836588178", "name": "WEISKOPF FAMILY FOUNDATION DTD DECEMBER 19 2018", "city": "MONSEY", "state": "NY", "zip": "10952-1428", "ntee": "T20", "ruling": "201908", "deductibility": "1", "assets": 1759141, "income": 2171895, "revenue": 0}], "DABBRACCIO": [{"ein": "843242200", "name": "ANTHONY DABBRACCIO MEMORIAL FOUNDATION INC", "city": "BRONX", "state": "NY", "zip": "10461-6109", "ntee": "W12", "ruling": "201911", "deductibility": "1", "assets": 0, "income": 0, "revenue": 0}], "BALLIN4PEACE": [{"ein": "843360474", "name": "BALLIN4PEACE", "city": "ROSEDALE", "state": "NY", "zip": "11422-2156", "ntee": "N62", "ruling": "202408", "deductibility": "1", "assets": 0, "income": 0, "revenue": 0}], "EXPECTATION": [{"ein": "843408850", "name": "WOMEN OF EXPECTATION", "city": "NEW YORK", "state": "NY", "zip": "10030-1622", "ntee": "W12", "ruling": "201910", "deductibility": "1", "assets": 0, "income": 0, "revenue": 0}, {"ein": "844221139", "name": "GREAT EXPECTATION CENTER", "city": "FAR ROCKAWAY", "state": "NY", "zip": "11691-4425", "ntee": "O50", "ruling": "202304", "deductibility": "1", "assets": 0, "income": 0, "revenue": 0}], "INFIDELS": [{"ein": "843904107", "name": "AMERICAN INFIDELS VMC NEW YORK INC", "city": "GREENFLD CTR", "state": "NY", "zip": "12833-1027", "ntee": "W30", "ruling": "202111", "deductibility": "1", "assets": 0, "income": 0, "revenue": 0}], "APPRECIATED": [{"ein": "844542733", "name": "TEAM EVERY VETERAN APPRECIATED - TEAM EVA INC", "city": "GLEN COVE", "state": "NY", "zip": "11542-1509", "ntee": "T30", "ruling": "202004", "deductibility": "1", "assets": 6654, "income": 23812, "revenue": 0}], "EIBL": [{"ein": "845098255", "name": "LOU EIBL CORRAL INC", "city": "SPRINGVILLE", "state": "NY", "zip": "14141-0336", "ntee": "D60", "ruling": "202105", "deductibility": "2", "assets": 0, "income": 0, "revenue": 0}], "LIZS": [{"ein": "852120887", "name": "LIZS DAY INC", "city": "FLORAL PARK", "state": "NY", "zip": "11001-3430", "ntee": "H30", "ruling": "202204", "deductibility": "1", "assets": 39697, "income": 69779, "revenue": 69779}], "JULYMAR": [{"ein": "861279238", "name": "EMMA JULYMAR FOUNDATION CORP", "city": "NEW YORK", "state": "NY", "zip": "10040-1760", "ntee": "E50", "ruling": "202106", "deductibility": "1", "assets": 0, "income": 0, "revenue": 0}], "MELANIN": [{"ein": "861829165", "name": "MELANIN MISSIONS", "city": "FRESH MEADOWS", "state": "NY", "zip": "11365-3141", "ntee": "T12", "ruling": "202204", "deductibility": "1", "assets": 0, "income": 0, "revenue": 0}], "SONNIER": [{"ein": "863884407", "name": "SAC-O-LAIT KEITH SONNIER FOUNDATION INC", "city": "SAGAPONACK", "state": "NY", "zip": "11962-0086", "ntee": "A40", "ruling": "202202", "deductibility": "1", "assets": 1, "income": 1, "revenue": 0}], "BARDREAU": [{"ein": "872362271", "name": "BARDREAU MENTORING GROUP INC", "city": "ROCHESTER", "state": "NY", "zip": "14609-6737", "ntee": "O50", "ruling": "202205", "deductibility": "1", "assets": 0, "income": 0, "revenue": 0}], "K9AID": [{"ein": "873945955", "name": "K9AID INC", "city": "SAG HARBOR", "state": "NY", "zip": "11963-3442", "ntee": "D20", "ruling": "202207", "deductibility": "1", "assets": 128731, "income": 285662, "revenue": 285662}], "UCN": [{"ein": "881037968", "name": "UNITED COMPETENCIES NETWORK - UCN INC", "city": "BROOKLYN", "state": "NY", "zip": "11204-5686", "ntee": "W99", "ruling": "202204", "deductibility": "1", "assets": 0, "income": 0, "revenue": 0}], "ROCHESTERS": [{"ein": "881255324", "name": "ROCHESTERS LACE INC", "city": "ROCHESTER", "state": "NY", "zip": "14692-3684", "ntee": "P20", "ruling": "202206", "deductibility": "1", "assets": 0, "income": 0, "revenue": 0}], "DINSN": [{"ein": "881519768", "name": "DINSN INC", "city": "ELMSFORD", "state": "NY", "zip": "10523-2713", "ntee": "S99", "ruling": "202211", "deductibility": "1", "assets": 0, "income": 0, "revenue": 0}], "KHALIDA": [{"ein": "920312030", "name": "HANNA & KHALIDA FOUNDATION INC", "city": "BRONX", "state": "NY", "zip": "10471-2109", "ntee": "B01", "ruling": "202209", "deductibility": "1", "assets": 0, "income": 0, "revenue": 0}], "MCCONNELLSVILLE": [{"ein": "921801580", "name": "MCCONNELLSVILLE ELEMENTARY SCHOOL PARENT TEACHER ORGANIZATION", "city": "BLOSSVALE", "state": "NY", "zip": "13308-0000", "ntee": "B94", "ruling": "202301", "deductibility": "1", "assets": 0, "income": 0, "revenue": 0}], "BHOJA": [{"ein": "923272312", "name": "BHOJA INC", "city": "ROCHESTER", "state": "NY", "zip": "14623-1115", "ntee": "K34", "ruling": "202306", "deductibility": "1", "assets": 0, "income": 0, "revenue": 0}], "EG": [{"ein": "923330234", "name": "EG PREP EDUCATION INC", "city": "STATEN ISLAND", "state": "NY", "zip": "10314-4820", "ntee": "B90", "ruling": "202311", "deductibility": "1", "assets": 19991, "income": 83214, "revenue": 83214}], "HAMARBEH": [{"ein": "931628367", "name": "CHANUN HAMARBEH INC", "city": "SPRING VALLEY", "state": "NY", "zip": "10977-3885", "ntee": "X30", "ruling": "202402", "deductibility": "1", "assets": 0, "income": 0, "revenue": 0}], "GWENS": [{"ein": "932313664", "name": "GWENS WILDROCK INC", "city": "GLOVERSVILLE", "state": "NY", "zip": "12078-3820", "ntee": "P20", "ruling": "202308", "deductibility": "1", "assets": 0, "income": 0, "revenue": 0}], "HAYOM": [{"ein": "934238664", "name": "HAYOM YOM", "city": "BROOKLYN", "state": "NY", "zip": "11219-1544", "ntee": "X30", "ruling": "202408", "deductibility": "1", "assets": 0, "income": 0, "revenue": 0}], "PROTEROS": [{"ein": "990837641", "name": "PROTEROS FOUNDATION", "city": "NEW YORK", "state": "NY", "zip": "10016-8442", "ntee": "D20", "ruling": "202401", "deductibility": "1", "assets": 1, "income": 1, "revenue": 0}], "JCLIV": [{"ein": "993478435", "name": "JCLIV FOUNDATION INC", "city": "OAKDALE", "state": "NY", "zip": "11769-2038", "ntee": "G84", "ruling": "202406", "deductibility": "1", "assets": 0, "income": 0, "revenue": 0}]}