{"ROSALIAS": [{"ein": "002022084", "name": "ST ROSALIAS ROMAN CATHOLIC CHURCH", "city": "BROOKLYN", "state": "NY", "zip": "11219-5614", "ntee": "", "ruling": "194603", "deductibility": "1", "assets": 0, "income": 0, "revenue": 0}], "ENGINEERS": [{"ein": "010700955", "name": "SOCIETY OF WOMEN ENGINEERS", "city": "GANSEVOORT", "state": "NY", "zip": "12831-2394", "ntee": "S412", "ruling": "199209", "deductibility": "1", "assets": 0, "income": 0, "revenue": 0}, {"ein": "010812504", "name": "SOCIETY OF PLASTICS ENGINEERS", "city": "ROCHESTER", "state": "NY", "zip": "14620-3330", "ntee": "", "ruling": "194505", "deductibility": "1", "assets": 0, "income": 0, "revenue": 0}, {"ein": "036105552", "name": "ENGINEERS UNION LOCAL 444 BENEFIT TR", "city": "HEMPSTEAD", "state": "NY", "zip": "11550-0000", "ntee": "Y43", "ruling": "200411", "deductibility": "2", "assets": 986564, "income": 24167, "revenue": 24167}, {"ein": "110908470", "name": "INTERNATIONAL UNION OF OPERATING ENGINEERS-LOCAL 138 138A & 138B", "city": "FARMINGDALE", "state": "NY", "zip": "11735-0206", "ntee": "", "ruling": "197304", "deductibility": "2", "assets": 6226963, "income": 5591221, "revenue": 5591221}, {"ein": "111889503", "name": "INTERNATIONAL UNION OF OPERATING ENGINEERS LOCAL 295 295B 295C 295D", "city": "MASPETH", "state": "NY", "zip": "11378-1228", "ntee": "", "ruling": "196010", "deductibility": "2", "assets": 1510792, "income": 1421353, "revenue": 1169543}, {"ein": "111964991", "name": "INTERNATIONAL UNION OF OPERATING ENGINEERS WELFARE FUND LOCAL 295", "city": "MASPETH", "state": "NY", "zip": "11378-1228", "ntee": "", "ruling": "196105", "deductibility": "2", "assets": 14956624, "income": 15609946, "revenue": 11277183}, {"ein": "112392159", "name": "INTERNATIONAL UNION OF OPERATING ENGINEERS LOCAL 14-14B WLFRE FUND", "city": "FLUSHING", "state": "NY", "zip": "11358-1655", "ntee": "", "ruling": "197708", "deductibility": "2", "assets": 34060655, "income": 61721964, "revenue": 29789320}, {"ein": "112744326", "name": "K I D S OF THE LOCAL 14 OPERATING ENGINEERS INC", "city": "FLUSHING", "state": "NY", "zip": "11358-1655", "ntee": "", "ruling": "199405", "deductibility": "1", "assets": 203381, "income": 257563, "revenue": 45501}, {"ein": "112982220", "name": "STATIONARY ENGINEERS INDUSTRY STABILIZATION FUND", "city": "WHITESTONE", "state": "NY", "zip": "11357-3055", "ntee": "", "ruling": "199105", "deductibility": "2", "assets": 776957, "income": 1569175, "revenue": 1569175}, {"ein": "113404020", "name": "AMERICAN ASSOCIATION OF BANGLADESHI ENGINEERS & ARCHITECTS NY NJ CT", "city": "NEW HYDE PARK", "state": "NY", "zip": "11040-5539", "ntee": "B60", "ruling": "199807", "deductibility": "1", "assets": 0, "income": 0, "revenue": 0}, {"ein": "113459892", "name": "INTERNATIONAL UNION OF OPERATING ENGINEERS LOCAL 295-295C JOINT", "city": "MASPETH", "state": "NY", "zip": "11378-1228", "ntee": "J22", "ruling": "199909", "deductibility": "1", "assets": 1380016, "income": 517941, "revenue": 391345}, {"ein": "116000223", "name": "BROTHERHOOD OF LOCOMOTIVE ENGINEERS AND TRAINMEN", "city": "WEST ISLIP", "state": "NY", "zip": "11795-0000", "ntee": "", "ruling": "194008", "deductibility": "2", "assets": 0, "income": 0, "revenue": 0}, {"ein": "116034140", "name": "BROTHERHOOD OF LOCOMOTIVE ENGINEERS AND TRAINMEN", "city": "SELKIRK", "state": "NY", "zip": "12158-1729", "ntee": "", "ruling": "194008", "deductibility": "2", "assets": 0, "income": 0, "revenue": 0}, {"ein": "116035433", "name": "INSTITUTE OF INDUSTRIAL ENGINEERS INC", "city": "W HEMPSTEAD", "state": "NY", "zip": "11552-3226", "ntee": "", "ruling": "196305", "deductibility": "1", "assets": 0, "income": 0, "revenue": 0}, {"ein": "116083523", "name": "NEW YORK STATE ASSOCIATION OF TRANSPORTATION ENGINEERS", "city": "HAUPPAUGE", "state": "NY", "zip": "11788-0165", "ntee": "", "ruling": "197011", "deductibility": "2", "assets": 0, "income": 0, "revenue": 0}, {"ein": "131101548", "name": "THE NEW YORK STATE SOCIETY OF PROFESSIONAL ENGINEERS INC", "city": "ALBANY", "state": "NY", "zip": "12205-1051", "ntee": "", "ruling": "199403", "deductibility": "2", "assets": 610403, "income": 408997, "revenue": 408997}, {"ein": "131109414", "name": "INTERNATIONAL UNION OF OPERATING ENGINEERS LOCAL 94", "city": "NEW YORK", "state": "NY", "zip": "10036-5402", "ntee": "", "ruling": "194409", "deductibility": "2", "assets": 11408049, "income": 9829448, "revenue": 8720299}, {"ein": "131623892", "name": "AMERICAN INSTITUTE OF CHEMICAL ENGINEERS", "city": "NEW YORK", "state": "NY", "zip": "10005-4020", "ntee": "", "ruling": "197502", "deductibility": "1", "assets": 63183291, "income": 60228737, "revenue": 47484302}, {"ein": "131623899", "name": "AMERICAN SOCIETY OF MECHANICAL ENGINEERS", "city": "NEW YORK", "state": "NY", "zip": "10016-5675", "ntee": "U030", "ruling": "199110", "deductibility": "1", "assets": 226598178, "income": 154838128, "revenue": 136701086}, {"ein": "131624188", "name": "SOCIETY OF MOTION PICTURE AND TELEVISION ENGINEERS INC", "city": "WHITE PLAINS", "state": "NY", "zip": "10601-1827", "ntee": "A30C", "ruling": "196311", "deductibility": "1", "assets": 4614804, "income": 4282236, "revenue": 4282236}, {"ein": "131739714", "name": "INTERNATIONAL UNION OF OPERATING ENGINEERS WELFARE FUND", "city": "BRIARCLIFF", "state": "NY", "zip": "10510-1620", "ntee": "", "ruling": "199308", "deductibility": "2", "assets": 37227899, "income": 45559291, "revenue": 25665882}, {"ein": "131739715", "name": "INTERNATIONAL UNION OF OPERATING ENGINEERS LOCAL 137", "city": "BRIARCLIFF", "state": "NY", "zip": "10510-1620", "ntee": "", "ruling": "194502", "deductibility": "2", "assets": 11244393, "income": 5395948, "revenue": 3011315}, {"ein": "132505715", "name": "INTERNATIONAL UNION OF OPERATING ENGINEERS LOCAL 30 APPRENTICE TRA", "city": "WHITESTONE", "state": "NY", "zip": "11357-3055", "ntee": "", "ruling": "199104", "deductibility": "1", "assets": 7252090, "income": 2778725, "revenue": 2778725}, {"ein": "132706214", "name": "SOCIETY OF MANUFACTURING ENGINEERS", "city": "PUTNAM VALLEY", "state": "NY", "zip": "10579-3423", "ntee": "", "ruling": "196705", "deductibility": "1", "assets": 0, "income": 0, "revenue": 0}, {"ein": "132828665", "name": "STATIONARY ENGINEERS FIREMAN MNTNCE & BLDG SRVC UNION LOC 670 WLFR FND", "city": "NEW YORK", "state": "NY", "zip": "10007-1901", "ntee": "E81Z", "ruling": "197804", "deductibility": "2", "assets": 26938525, "income": 38970488, "revenue": 24391413}, {"ein": "132931385", "name": "AMERICAN INSTITUTE OF CHEMICAL ENGINEERS", "city": "PELHAM", "state": "NY", "zip": "10803-3136", "ntee": "", "ruling": "197502", "deductibility": "1", "assets": 0, "income": 0, "revenue": 0}, {"ein": "132956499", "name": "MUNICIPAL ENGINEERS OF THE CITY OF NEW YORK", "city": "NEW YORK", "state": "NY", "zip": "10012-1401", "ntee": "", "ruling": "198107", "deductibility": "1", "assets": 167487, "income": 121598, "revenue": 86715}, {"ein": "133499442", "name": "SOCIETY OF HISPANIC PROFESSIONAL ENGINEERS-NEW YORK CITY CHAPTER IN", "city": "BRONX", "state": "NY", "zip": "10455-1392", "ntee": "", "ruling": "199312", "deductibility": "1", "assets": 0, "income": 0, "revenue": 0}, {"ein": "133854713", "name": "INTERNATIONAL FEDERATION OF PROFESSIONAL & TECHNICAL ENGINEERS", "city": "NEW YORK", "state": "NY", "zip": "10278-0004", "ntee": "", "ruling": "194110", "deductibility": "2", "assets": 0, "income": 0, "revenue": 0}, {"ein": "133943110", "name": "STRUCTURAL ENGINEERS ASSOCIATION OF NEW YORK", "city": "NEW YORK", "state": "NY", "zip": "10018-8403", "ntee": "", "ruling": "200705", "deductibility": "2", "assets": 443319, "income": 186518, "revenue": 186518}, {"ein": "133951732", "name": "AMERICAN SOCIETY OF PLUMBING ENGINEERS", "city": "NEW YORK", "state": "NY", "zip": "10163-0293", "ntee": "", "ruling": "199710", "deductibility": "2", "assets": 108632, "income": 130141, "revenue": 89830}, {"ein": "135159000", "name": "INTERNATIONAL UNION OPERATING ENGINEERS 30", "city": "WHITESTONE", "state": "NY", "zip": "11357-3055", "ntee": "", "ruling": "194409", "deductibility": "2", "assets": 9569887, "income": 10587142, "revenue": 10587142}, {"ein": "135159024", "name": "INTERNATIONAL UNION OF OPERATING ENGINEERS LOCAL 15 15A 15B 15C 15D", "city": "LONG IS CITY", "state": "NY", "zip": "11101-5105", "ntee": "", "ruling": "194408", "deductibility": "2", "assets": 88276140, "income": 61773382, "revenue": 25631489}, {"ein": "135545082", "name": "INTERNATIONAL UNION OF OPERATING ENGINEERS LOCAL 14-14B", "city": "FLUSHING", "state": "NY", "zip": "11358-1655", "ntee": "", "ruling": "194409", "deductibility": "2", "assets": 45493310, "income": 25770916, "revenue": 5613874}, {"ein": "136123328", "name": "SOCIETY OF AMERICAN MILITARY ENGINEERS", "city": "STATEN ISLAND", "state": "NY", "zip": "10312-0000", "ntee": "", "ruling": "195411", "deductibility": "1", "assets": 269998, "income": 424417, "revenue": 424417}, {"ein": "136128507", "name": "AMERICAN SOCIETY OF MECHANICAL ENGINEERS AUXILIARY INC", "city": "NEW YORK", "state": "NY", "zip": "10016-5675", "ntee": "", "ruling": "195712", "deductibility": "1", "assets": 1376168, "income": 130316, "revenue": 63103}, {"ein": "136165509", "name": "INTERNATIONAL UNION OF OPERATING ENGINEERS LOCAL 891", "city": "BROOKLYN", "state": "NY", "zip": "11205-1079", "ntee": "", "ruling": "194010", "deductibility": "2", "assets": 6471509, "income": 2414872, "revenue": 2414872}, {"ein": "136174479", "name": "CHINESE INSTITUTE OF ENGINEERS NEW YORK INC", "city": "MILLWOOD", "state": "NY", "zip": "10546-7512", "ntee": "U40Z", "ruling": "196503", "deductibility": "1", "assets": 541206, "income": 40716, "revenue": 40716}, {"ein": "136174675", "name": "OPERATING ENGINEERS UNION LOCAL 30 30-A 30-B & 30-C", "city": "WHITESTONE", "state": "NY", "zip": "11357-3055", "ntee": "", "ruling": "196507", "deductibility": "2", "assets": 8151442, "income": 2956097, "revenue": 2956097}, {"ein": "136274518", "name": "AMERICAN SOCIETY OF HEATING REFRIGERATING & A-C ENGINEERS", "city": "BETHPAGE", "state": "NY", "zip": "11714-4505", "ntee": "S41Z", "ruling": "197311", "deductibility": "1", "assets": 158261, "income": 195807, "revenue": 195807}, {"ein": "136318522", "name": "OPERATING ENGINEERS LOCAL 14-14B TRAINING FUND", "city": "FLUSHING", "state": "NY", "zip": "11358-1655", "ntee": "J220", "ruling": "199203", "deductibility": "1", "assets": 12477111, "income": 3797554, "revenue": 2444357}, {"ein": "136694320", "name": "INTERNATIONAL UNION OF OPERATING ENGINEERS WELFARE FUND", "city": "LONG ISLAND CITY", "state": "NY", "zip": "11101-0000", "ntee": "", "ruling": "197705", "deductibility": "2", "assets": 108984949, "income": 205441949, "revenue": 123767101}, {"ein": "140768455", "name": "UPSTATE NEW YORK OPERATING ENGINEERS LOCAL 158", "city": "GLENMONT", "state": "NY", "zip": "12077-4807", "ntee": "", "ruling": "194501", "deductibility": "2", "assets": 26678329, "income": 12171683, "revenue": 10566072}, {"ein": "141733313", "name": "SOCIETY OF WOMEN ENGINEERS", "city": "POUGHKEEPSIE", "state": "NY", "zip": "12603-5128", "ntee": "", "ruling": "199209", "deductibility": "1", "assets": 0, "income": 0, "revenue": 0}, {"ein": "141772051", "name": "ALBANY SOCIETY OF ENGINEERS", "city": "VOORHEESVILLE", "state": "NY", "zip": "12186-0155", "ntee": "S46", "ruling": "201407", "deductibility": "2", "assets": 0, "income": 0, "revenue": 0}, {"ein": "146030268", "name": "BROTHERHOOD OF LOCOMOTIVE ENGINEERS AND TRAINMEN", "city": "S WESTERLO", "state": "NY", "zip": "12083-2000", "ntee": "", "ruling": "194008", "deductibility": "2", "assets": 0, "income": 0, "revenue": 0}, {"ein": "146030272", "name": "BROTHERHOOD OF LOCOMOTIVE ENGINEERS AND TRAINMEN DIVISION 0087", "city": "CLIFTON PARK", "state": "NY", "zip": "12065-1658", "ntee": "", "ruling": "194008", "deductibility": "2", "assets": 0, "income": 0, "revenue": 0}, {"ein": "146030885", "name": "BROTHERHOOD OF LOCOMOTIVE ENGINEERS AND TRAINMEN", "city": "TROY", "state": "NY", "zip": "12180-7040", "ntee": "", "ruling": "194008", "deductibility": "2", "assets": 0, "income": 0, "revenue": 0}, {"ein": "146034914", "name": "INTERNATIONAL FEDERATION OF PROFESSIONAL & TECHNICAL ENGINEERS", "city": "GLENVILLE", "state": "NY", "zip": "12302-3506", "ntee": "", "ruling": "196603", "deductibility": "2", "assets": 250195, "income": 107858, "revenue": 107858}, {"ein": "146035932", "name": "NEW YORK STATE ASSOCIATION OF TRANSPORTATION ENGINEERS INC", "city": "CAMILLUS", "state": "NY", "zip": "13031-2085", "ntee": "", "ruling": "197011", "deductibility": "2", "assets": 211975, "income": 323339, "revenue": 323339}, {"ein": "146038337", "name": "NEW YORK STATE ASSOCIATION OF TRANSPORTATION ENGINEERS INC", "city": "ALBANY", "state": "NY", "zip": "12205-2603", "ntee": "", "ruling": "197011", "deductibility": "2", "assets": 0, "income": 0, "revenue": 0}, {"ein": "146038392", "name": "NEW YORK STATE ASSOCIATION OF TRANSPORTATION ENGINEERS INC", "city": "POUGHKEEPSIE", "state": "NY", "zip": "12603-8711", "ntee": "", "ruling": "197011", "deductibility": "2", "assets": 0, "income": 0, "revenue": 0}, {"ein": "150582931", "name": "UPSTATE NEW YORK ENGINEERS HEALTH FUND", "city": "SYRACUSE", "state": "NY", "zip": "13205-2548", "ntee": "", "ruling": "195807", "deductibility": "2", "assets": 120779135, "income": 75023582, "revenue": 53193242}, {"ein": "156025384", "name": "NEW YORK STATE ASSOCIATION OF TRANSPORTATION ENGINEERS", "city": "UTICA", "state": "NY", "zip": "13503-0862", "ntee": "", "ruling": "197011", "deductibility": "2", "assets": 0, "income": 0, "revenue": 0}, {"ein": "160493140", "name": "INTERNATIONAL UNION OF OPERATING ENGINEERS LOCAL 17", "city": "LAKE VIEW", "state": "NY", "zip": "14085-9649", "ntee": "", "ruling": "194409", "deductibility": "2", "assets": 12761776, "income": 14955107, "revenue": 4116524}, {"ein": "160751223", "name": "NEW YORK STATE ASSOCIATION OF TRANSPORTATION ENGINEERS", "city": "SYRACUSE", "state": "NY", "zip": "13218-1358", "ntee": "", "ruling": "197011", "deductibility": "2", "assets": 0, "income": 0, "revenue": 0}, {"ein": "160905061", "name": "UPSTATE NEW YORK ENGINEERS SUB FUND", "city": "SYRACUSE", "state": "NY", "zip": "13205-2548", "ntee": "Y24Z", "ruling": "196508", "deductibility": "2", "assets": 2369788, "income": 2434230, "revenue": 1697395}, {"ein": "161188811", "name": "SOCIETY OF MANUFACTURING ENGINEERS", "city": "EAST SYRACUSE", "state": "NY", "zip": "13057-1020", "ntee": "", "ruling": "196705", "deductibility": "1", "assets": 0, "income": 0, "revenue": 0}, {"ein": "161360907", "name": "SOCIETY OF WOMEN ENGINEERS", "city": "CLAY", "state": "NY", "zip": "13041-9722", "ntee": "", "ruling": "199209", "deductibility": "1", "assets": 0, "income": 0, "revenue": 0}, {"ein": "161363875", "name": "SOCIETY OF WOMEN ENGINEERS", "city": "CORNING", "state": "NY", "zip": "14830-4798", "ntee": "", "ruling": "199209", "deductibility": "1", "assets": 0, "income": 0, "revenue": 0}, {"ein": "161395253", "name": "SOCIETY OF INDUSTRIAL ENGINEERS", "city": "VESTAL", "state": "NY", "zip": "13850-2828", "ntee": "", "ruling": "199307", "deductibility": "2", "assets": 0, "income": 0, "revenue": 0}, {"ein": "161398715", "name": "SOCIETY OF WOMEN ENGINEERS", "city": "CLARENCE CTR", "state": "NY", "zip": "14032-9396", "ntee": "", "ruling": "199209", "deductibility": "1", "assets": 0, "income": 0, "revenue": 0}, {"ein": "161414385", "name": "SOCIETY OF BROADCAST ENGINEERS CHAPTER 22 INC", "city": "SYRACUSE", "state": "NY", "zip": "13214-0000", "ntee": "", "ruling": "199401", "deductibility": "2", "assets": 27717, "income": 14039, "revenue": 13039}, {"ein": "161438227", "name": "WESTERN NEW YORK MANUFACTURING ENGINEERS EDUCATIONAL TR", "city": "EAST AURORA", "state": "NY", "zip": "14052-0512", "ntee": "B82Z", "ruling": "199807", "deductibility": "1", "assets": 0, "income": 0, "revenue": 0}, {"ein": "161463484", "name": "UPSTATE COUNCIL OF OPERATING ENGINEERS", "city": "CICERO", "state": "NY", "zip": "13039-9532", "ntee": "", "ruling": "199412", "deductibility": "2", "assets": 0, "income": 0, "revenue": 0}, {"ein": "161478666", "name": "BROTHERHOOD OF LOCOMOTIVE ENGINEERS AND TRAINMEN", "city": "NORFOLK", "state": "NY", "zip": "13667-4208", "ntee": "", "ruling": "194008", "deductibility": "2", "assets": 0, "income": 0, "revenue": 0}, {"ein": "161501738", "name": "INSTITUTE OF TRANSP ENGINEERS NEW YORK UPSTATE SECTION", "city": "LIVERPOOL", "state": "NY", "zip": "13088-6053", "ntee": "B60Z", "ruling": "199707", "deductibility": "1", "assets": 0, "income": 0, "revenue": 0}, {"ein": "161506220", "name": "ROCHESTER PLANT ENGINEERS INC", "city": "ROCHESTER", "state": "NY", "zip": "14625-2837", "ntee": "A20", "ruling": "199705", "deductibility": "1", "assets": 0, "income": 0, "revenue": 0}, {"ein": "161521515", "name": "AMERICAN SOCIETY OF PLUMBING ENGINEERS", "city": "N TONAWANDA", "state": "NY", "zip": "14120-1280", "ntee": "", "ruling": "199710", "deductibility": "2", "assets": 0, "income": 0, "revenue": 0}, {"ein": "161525861", "name": "AMERICAN SOCIETY OF PLUMBING ENGINEERS", "city": "SYRACUSE", "state": "NY", "zip": "13206-0083", "ntee": "", "ruling": "199710", "deductibility": "2", "assets": 0, "income": 0, "revenue": 0}, {"ein": "161527304", "name": "AMERICAN SOCIETY OF PLUMBING ENGINEERS", "city": "ALBANY", "state": "NY", "zip": "12212-2634", "ntee": "", "ruling": "199710", "deductibility": "2", "assets": 0, "income": 0, "revenue": 0}, {"ein": "166002747", "name": "BROTHERHOOD OF LOCOMOTIVE ENGINEERS AND TRAINMEN", "city": "LANCASTER", "state": "NY", "zip": "14086-1310", "ntee": "", "ruling": "194008", "deductibility": "2", "assets": 0, "income": 0, "revenue": 0}, {"ein": "166010630", "name": "BROTHERHOOD OF LOCOMOTIVE ENGINEERS AND TRAINMEN", "city": "BUFFALO", "state": "NY", "zip": "14224-3909", "ntee": "", "ruling": "194008", "deductibility": "2", "assets": 0, "income": 0, "revenue": 0}, {"ein": "166050821", "name": "BROTHERHOOD OF LOCOMOTIVE ENGINEERS AND TRAINMEN", "city": "PORT CRANE", "state": "NY", "zip": "13833-2230", "ntee": "", "ruling": "194008", "deductibility": "2", "assets": 0, "income": 0, "revenue": 0}, {"ein": "166051911", "name": "SOCIETY OF AMERICAN MILITARY ENGINEERS", "city": "ORCHARD PARK", "state": "NY", "zip": "14127-3914", "ntee": "B82", "ruling": "202207", "deductibility": "1", "assets": 0, "income": 0, "revenue": 0}, {"ein": "166053305", "name": "INTERNATIONAL UNION OF OPERATING ENGINEERS LOCAL 409-409A SCHOOL", "city": "BUFFALO", "state": "NY", "zip": "14201-0000", "ntee": "", "ruling": "194010", "deductibility": "2", "assets": 125709, "income": 122377, "revenue": 122377}, {"ein": "166062524", "name": "INSTITUTE OF INDUSTRIAL ENGINEERS INC", "city": "ROCHESTER", "state": "NY", "zip": "14615-1340", "ntee": "", "ruling": "196610", "deductibility": "1", "assets": 0, "income": 0, "revenue": 0}, {"ein": "166071509", "name": "AMERICAN SOCIETY OF HEATING REFRIGERATING & A-C ENGINEERS", "city": "ROCHESTER", "state": "NY", "zip": "14607-2101", "ntee": "", "ruling": "197311", "deductibility": "1", "assets": 104534, "income": 111379, "revenue": 50942}, {"ein": "166075742", "name": "NEW YORK STATE ASSOCIATION OF TRANSPORTATION ENGINEERS INC", "city": "N TONAWANDA", "state": "NY", "zip": "14120-3445", "ntee": "", "ruling": "197011", "deductibility": "2", "assets": 0, "income": 0, "revenue": 0}, {"ein": "166075764", "name": "NEW YORK STATE ASSOCIATION OF TRANSPORTATION ENGINEERS", "city": "WATERTOWN", "state": "NY", "zip": "13601-3744", "ntee": "", "ruling": "197011", "deductibility": "2", "assets": 0, "income": 0, "revenue": 0}, {"ein": "166076262", "name": "NEW YORK STATE ASSOCIATION OF TRANSPORTATION ENGINEERS INC", "city": "BINGHAMTON", "state": "NY", "zip": "13902-0304", "ntee": "", "ruling": "197011", "deductibility": "2", "assets": 0, "income": 0, "revenue": 0}, {"ein": "166076997", "name": "NEW YORK STATE ASSOCIATION OF TRANSPORTATION ENGINEERS INC", "city": "ROCHESTER", "state": "NY", "zip": "14602-0900", "ntee": "", "ruling": "197011", "deductibility": "2", "assets": 0, "income": 0, "revenue": 0}, {"ein": "166085527", "name": "BROTHERHOOD OF LOCOMOTIVE ENGINEERS AND TRAINMEN", "city": "CENTRAL SQ", "state": "NY", "zip": "13036-2259", "ntee": "", "ruling": "194008", "deductibility": "2", "assets": 0, "income": 0, "revenue": 0}, {"ein": "166092147", "name": "AMERICAN INSTITUTE OF CHEMICAL ENGINEERS", "city": "GRAND ISLAND", "state": "NY", "zip": "14072-2614", "ntee": "", "ruling": "197502", "deductibility": "1", "assets": 0, "income": 0, "revenue": 0}, {"ein": "200547181", "name": "SOCIETY OF WOMEN ENGINEERS", "city": "TROY", "state": "NY", "zip": "12180-0000", "ntee": "", "ruling": "199209", "deductibility": "0", "assets": 0, "income": 0, "revenue": 0}, {"ein": "222182126", "name": "AMERICAN SOCIETY OF HEATING REFRIGERATING & A-C ENGINEERS", "city": "ITHACA", "state": "NY", "zip": "14851-6706", "ntee": "", "ruling": "197311", "deductibility": "1", "assets": 0, "income": 0, "revenue": 0}, {"ein": "222512329", "name": "CATSKILL SOCIETY OF MODEL ENGINEERS", "city": "LIBERTY", "state": "NY", "zip": "12754-1806", "ntee": "A57", "ruling": "199901", "deductibility": "1", "assets": 0, "income": 0, "revenue": 0}, {"ein": "222635699", "name": "MONROE PROFESSIONAL ENGINEERS SOCIETY", "city": "ROCHESTER", "state": "NY", "zip": "14607-2101", "ntee": "S41", "ruling": "200907", "deductibility": "2", "assets": 24079, "income": 2497, "revenue": 2497}, {"ein": "222712716", "name": "OPERATING ENGINEERS LOCAL 17 SCUC FUND", "city": "LAKEVIEW", "state": "NY", "zip": "14085-9649", "ntee": "", "ruling": "198610", "deductibility": "2", "assets": 0, "income": 0, "revenue": 0}, {"ein": "226063686", "name": "BROTHERHOOD OF LOCOMOTIVE ENGINEERS AND TRAINMEN", "city": "CORTLAND", "state": "NY", "zip": "13045-1431", "ntee": "", "ruling": "194008", "deductibility": "2", "assets": 0, "income": 0, "revenue": 0}, {"ein": "231302765", "name": "AMERICAN SOCIETY OF HEATING REFRIGERATING & A-C ENGINEERS", "city": "COMMACK", "state": "NY", "zip": "11725-0079", "ntee": "U42", "ruling": "197311", "deductibility": "1", "assets": 63828, "income": 157135, "revenue": 43684}, {"ein": "232856761", "name": "AMERICAN INSTITUTE OF CHEMICAL ENGINEERS", "city": "CORNING", "state": "NY", "zip": "14831-0001", "ntee": "", "ruling": "197502", "deductibility": "1", "assets": 0, "income": 0, "revenue": 0}, {"ein": "237087500", "name": "OPERATING ENGINEERS LOCAL 17 TRAINING FUND", "city": "LAKE VIEW", "state": "NY", "zip": "14085-9647", "ntee": "", "ruling": "197011", "deductibility": "1", "assets": 4379962, "income": 2091941, "revenue": 1858949}, {"ein": "237104226", "name": "AMERICAN SOCIETY OF HEATING REFRIGERATION & A-C ENGINEERS", "city": "SYRACUSE", "state": "NY", "zip": "13220-3756", "ntee": "S41Z", "ruling": "197311", "deductibility": "1", "assets": 132963, "income": 50562, "revenue": 30525}, {"ein": "237226516", "name": "SOCIETY OF PLASTICS ENGINEERS", "city": "AURORA", "state": "NY", "zip": "13026-9754", "ntee": "U42C", "ruling": "194505", "deductibility": "1", "assets": 0, "income": 0, "revenue": 0}, {"ein": "237283050", "name": "SOCIETY OF PLASTICS ENGINEERS", "city": "ROCHESTER", "state": "NY", "zip": "14620-3330", "ntee": "", "ruling": "194505", "deductibility": "1", "assets": 566032, "income": 166641, "revenue": 140674}, {"ein": "237330862", "name": "BROTHERHOOD OF LOCOMOTIVE ENGINEERS AND TRAINMEN", "city": "WILLIAMSVILLE", "state": "NY", "zip": "14221-8827", "ntee": "", "ruling": "194008", "deductibility": "2", "assets": 0, "income": 0, "revenue": 0}, {"ein": "237366206", "name": "AMERICAN SOCIETY OF HEATING REFRIGERATING & A-C ENGINEERS", "city": "ALBANY", "state": "NY", "zip": "12212-3933", "ntee": "", "ruling": "197311", "deductibility": "1", "assets": 111385, "income": 141539, "revenue": 100744}, {"ein": "237373929", "name": "NASSAU SUFFOLK CIVIL ENGINEERS", "city": "RIVERHEAD", "state": "NY", "zip": "11901-4614", "ntee": "U03", "ruling": "201101", "deductibility": "2", "assets": 0, "income": 0, "revenue": 0}, {"ein": "263497957", "name": "AMERICAN SOCIETY OF HEATING REFRIGERATING & A-C ENGINEERS", "city": "STERLING", "state": "NY", "zip": "13156-4253", "ntee": "", "ruling": "197311", "deductibility": "1", "assets": 0, "income": 0, "revenue": 0}, {"ein": "263581916", "name": "CENTRAL NEW YORK SOCIETY OF HEALTHCARE ENGINEERS", "city": "UTICA", "state": "NY", "zip": "13504-4010", "ntee": "S41", "ruling": "200907", "deductibility": "2", "assets": 196635, "income": 331778, "revenue": 331778}, {"ein": "264778236", "name": "LOCAL 15 OPERATING ENGINEERS SCHOLARSHIP FUND", "city": "LONG IS CITY", "state": "NY", "zip": "11101-5105", "ntee": "B82", "ruling": "201008", "deductibility": "1", "assets": 55131, "income": 145114, "revenue": 145114}, {"ein": "300480358", "name": "INTERNATIONAL UNION OF OPERATING ENGINEERS LOCAL 891 EDUCATION AND", "city": "BROOKLYN", "state": "NY", "zip": "11205-0000", "ntee": "B60", "ruling": "200909", "deductibility": "1", "assets": 609660, "income": 218825, "revenue": 218825}, {"ein": "320210912", "name": "NATIONAL ENGINEERS WEEK FOUNDATION", "city": "LATHAM", "state": "NY", "zip": "12110-0192", "ntee": "B03", "ruling": "200212", "deductibility": "2", "assets": 51019, "income": 34179, "revenue": 34179}, {"ein": "320294234", "name": "SOCIETY OF WOMEN ENGINEERS", "city": "ROCHESTER", "state": "NY", "zip": "14623-5602", "ntee": "", "ruling": "199209", "deductibility": "1", "assets": 0, "income": 0, "revenue": 0}, {"ein": "351079357", "name": "BROTHERHOOD OF LOCOMOTIVE ENGINEERS & TRAINMEN", "city": "WEST SENECA", "state": "NY", "zip": "14224-3454", "ntee": "", "ruling": "194008", "deductibility": "2", "assets": 0, "income": 0, "revenue": 0}, {"ein": "454957969", "name": "STRUCTURAL ENGINEERS ASSOCIATION OF NEW YORK EDUCATION FOUNDATION", "city": "NEW YORK", "state": "NY", "zip": "10018-8403", "ntee": "B82", "ruling": "201301", "deductibility": "1", "assets": 174092, "income": 199998, "revenue": 136380}, {"ein": "464298438", "name": "ALBANY SOCIETY OF ENGINEERS FOUNDATION", "city": "DELMAR", "state": "NY", "zip": "12054-1126", "ntee": "P99", "ruling": "201408", "deductibility": "1", "assets": 0, "income": 0, "revenue": 0}, {"ein": "471728275", "name": "NEW YORK CITY COALITION OF OPERATING ENGINEERS INC", "city": "FLUSHING", "state": "NY", "zip": "11358-1655", "ntee": "J01", "ruling": "201503", "deductibility": "2", "assets": 25918, "income": 21213, "revenue": 21213}, {"ein": "510195497", "name": "AMERICAN SOCIETY OF HEATING REFRIGERATING & A-C ENGINEERS", "city": "TONAWANDA", "state": "NY", "zip": "14150-1210", "ntee": "", "ruling": "197311", "deductibility": "1", "assets": 0, "income": 0, "revenue": 0}, {"ein": "510235977", "name": "AMERICAN INSTITUTE OF CHEMICAL ENGINEERS", "city": "CLIFTON PARK", "state": "NY", "zip": "12065-0784", "ntee": "", "ruling": "197502", "deductibility": "1", "assets": 0, "income": 0, "revenue": 0}, {"ein": "510240127", "name": "LOCAL 409-409A INTL UNION OF OPERATING ENGINEERS SUPP BENE FUND", "city": "BUFFALO", "state": "NY", "zip": "14207-0540", "ntee": "", "ruling": "198203", "deductibility": "0", "assets": 552482, "income": 204091, "revenue": 204091}, {"ein": "510247782", "name": "BROTHERHOOD OF LOCOMOTIVE ENGINEERS LIRR WELFARE FUND", "city": "RONKONKOMA", "state": "NY", "zip": "11779-6079", "ntee": "", "ruling": "000000", "deductibility": "0", "assets": 1291842, "income": 742089, "revenue": 538239}, {"ein": "521828765", "name": "INSTITUTION OF CIVIL ENGINEERS UK", "city": "NEW YORK", "state": "NY", "zip": "10016-6700", "ntee": "", "ruling": "199401", "deductibility": "2", "assets": 0, "income": 0, "revenue": 0}, {"ein": "566664024", "name": "ENGINEERS CHARITABLE TR", "city": "WHITESTONE", "state": "NY", "zip": "11357-3055", "ntee": "T990", "ruling": "200711", "deductibility": "1", "assets": 965792, "income": 561440, "revenue": 304582}, {"ein": "611615482", "name": "SOCIETY OF WOMEN ENGINEERS", "city": "POTSDAM", "state": "NY", "zip": "13699-1401", "ntee": "P20", "ruling": "201410", "deductibility": "1", "assets": 0, "income": 0, "revenue": 0}, {"ein": "651290488", "name": "AMERICAN SOCIETY OF HIGHWAY ENGINEERS", "city": "E SYRACUSE", "state": "NY", "zip": "13057-2973", "ntee": "", "ruling": "196704", "deductibility": "0", "assets": 0, "income": 0, "revenue": 0}, {"ein": "810747367", "name": "GENESEE VALLEY REGIONAL ASSOCIATION FOR HEALTHCARE ENGINEERS INC", "city": "SCOTTSVILLE", "state": "NY", "zip": "14546-0124", "ntee": "E70", "ruling": "201606", "deductibility": "1", "assets": 0, "income": 0, "revenue": 0}, {"ein": "822733517", "name": "SOCIETY OF WOMEN ENGINEERS", "city": "NEW YORK", "state": "NY", "zip": "10031-9101", "ntee": "S412", "ruling": "199209", "deductibility": "1", "assets": 0, "income": 0, "revenue": 0}, {"ein": "823833789", "name": "EASTERN NEW YORK SOCIETY OF HEALTHCARE ENGINEERS", "city": "SARATOGA SPGS", "state": "NY", "zip": "12866-1003", "ntee": "B03", "ruling": "201803", "deductibility": "1", "assets": 0, "income": 0, "revenue": 0}, {"ein": "826654758", "name": "OPERATING ENGINEERS LOCAL 137 LABOR MANAGEMENT COOPERATIVE T", "city": "BRIARCLIFF", "state": "NY", "zip": "10510-1620", "ntee": "J40", "ruling": "202004", "deductibility": "2", "assets": 1320066, "income": 705837, "revenue": 705837}, {"ein": "832346048", "name": "HENRY CHANG ENGINEERS EDUCATION & OPPORTUNITY FOUNDATION INC", "city": "STATEN ISLAND", "state": "NY", "zip": "10309-3612", "ntee": "J20", "ruling": "201902", "deductibility": "1", "assets": 60823, "income": 45654, "revenue": 45654}, {"ein": "844410137", "name": "NATIONAL SOCIETY OF BLACK ENGINEERS", "city": "NEW YORK", "state": "NY", "zip": "10116-7330", "ntee": "U40C", "ruling": "198801", "deductibility": "1", "assets": 1, "income": 0, "revenue": 0}, {"ein": "900208457", "name": "ASSOCIATION OF ENERGY ENGINEERS INC", "city": "CLIFTON PARK", "state": "NY", "zip": "12065-3846", "ntee": "", "ruling": "199806", "deductibility": "2", "assets": 0, "income": 0, "revenue": 0}, {"ein": "900523972", "name": "ASSOCIATION OF ENERGY ENGINEERS INC", "city": "BUFFALO", "state": "NY", "zip": "14220-2309", "ntee": "", "ruling": "199806", "deductibility": "2", "assets": 0, "income": 0, "revenue": 0}, {"ein": "900635885", "name": "NYS SOCIETY OF PROFESSIONAL ENGINEERS SUFFOCK CHAPTER", "city": "WEST HILLS", "state": "NY", "zip": "11743-6616", "ntee": "S41", "ruling": "201109", "deductibility": "2", "assets": 25449, "income": 4000, "revenue": 4000}, {"ein": "911963488", "name": "ASSOCIATION OF ENERGY ENGINEERS INC", "city": "OLD WESTBURY", "state": "NY", "zip": "11568-0000", "ntee": "", "ruling": "199806", "deductibility": "2", "assets": 0, "income": 0, "revenue": 0}, {"ein": "911963492", "name": "ASSOCIATION OF ENERGY ENGINEERS INC", "city": "NEW YORK", "state": "NY", "zip": "10001-6040", "ntee": "", "ruling": "199806", "deductibility": "2", "assets": 0, "income": 0, "revenue": 0}, {"ein": "923122297", "name": "NORTHEASTERN DIST OF THE INSTITUTE OF TRANSPORTATION ENGINEERS", "city": "WEST ISLIP", "state": "NY", "zip": "11795-1901", "ntee": "U03", "ruling": "202304", "deductibility": "1", "assets": 90395, "income": 137095, "revenue": 137095}, {"ein": "934780490", "name": "NATIONAL SOCIETY OF BLACK ENGINEERS", "city": "SYRACUSE", "state": "NY", "zip": "13207-2634", "ntee": "U40C", "ruling": "198801", "deductibility": "1", "assets": 0, "income": 0, "revenue": 0}], "PALMYRA": [{"ein": "010820053", "name": "PALMYRA MACEDON FACULTY ASSOCIATION", "city": "PALMYRA", "state": "NY", "zip": "14522-1235", "ntee": "J40", "ruling": "201404", "deductibility": "2", "assets": 0, "income": 0, "revenue": 0}, {"ein": "150506050", "name": "PALMYRA LODGE 1420 LOYAL ORDER OF MOOSE", "city": "PALMYRA", "state": "NY", "zip": "14522-0265", "ntee": "", "ruling": "193508", "deductibility": "1", "assets": 1178495, "income": 119495, "revenue": 85285}, {"ein": "150551405", "name": "THE UNION AGRICULTURAL SOCIETY AT PALMYRA", "city": "PALMYRA", "state": "NY", "zip": "14522-0085", "ntee": "", "ruling": "199406", "deductibility": "2", "assets": 0, "income": 0, "revenue": 0}, {"ein": "150557996", "name": "EAST PALMYRA CEMETERY ASSOC", "city": "WILLIAMSON", "state": "NY", "zip": "14589-0791", "ntee": "Y50", "ruling": "201502", "deductibility": "1", "assets": 108046, "income": 75228, "revenue": 75228}, {"ein": "150614501", "name": "EAST PALMYRA CHRISTIAN SCHOOL INC", "city": "PALMYRA", "state": "NY", "zip": "14522-9727", "ntee": "", "ruling": "194909", "deductibility": "1", "assets": 1148533, "income": 1000684, "revenue": 964706}, {"ein": "156023192", "name": "PALMYRA CHAPTER 449 WOMEN OF THE MOOSE", "city": "PALMYRA", "state": "NY", "zip": "14522-0131", "ntee": "", "ruling": "193508", "deductibility": "1", "assets": 0, "income": 0, "revenue": 0}, {"ein": "161079060", "name": "EAST PALMYRA CRC", "city": "PALMYRA", "state": "NY", "zip": "14522-9727", "ntee": "", "ruling": "197502", "deductibility": "1", "assets": 0, "income": 0, "revenue": 0}, {"ein": "161098274", "name": "PALMYRA CANALTOWN DAYS INC", "city": "PALMYRA", "state": "NY", "zip": "14522-0064", "ntee": "N52", "ruling": "201508", "deductibility": "1", "assets": 0, "income": 0, "revenue": 0}, {"ein": "161126996", "name": "PALMYRA COMMUNITY CENTER INC", "city": "PALMYRA", "state": "NY", "zip": "14522-0404", "ntee": "P28Z", "ruling": "198103", "deductibility": "1", "assets": 989170, "income": 498266, "revenue": 470975}, {"ein": "161477370", "name": "PALMYRA RACING ASSOC", "city": "PALMYRA", "state": "NY", "zip": "14522-0221", "ntee": "N70", "ruling": "201009", "deductibility": "2", "assets": 597908, "income": 259606, "revenue": 259606}, {"ein": "161569981", "name": "PALMYRA-MACEDON EDUCATIONAL FOUNDATION", "city": "PALMYRA", "state": "NY", "zip": "14522-1235", "ntee": "B80", "ruling": "199910", "deductibility": "1", "assets": 0, "income": 0, "revenue": 0}, {"ein": "222169389", "name": "EAST PALMYRA FIRE DEPARTMENT INC", "city": "PALMYRA", "state": "NY", "zip": "14522-0026", "ntee": "M24", "ruling": "201607", "deductibility": "1", "assets": 476204, "income": 112970, "revenue": 88295}, {"ein": "222695983", "name": "PALMYRA-MACEDON FOOD PANTRY", "city": "PALMYRA", "state": "NY", "zip": "14522-0173", "ntee": "", "ruling": "198607", "deductibility": "1", "assets": 0, "income": 0, "revenue": 0}, {"ein": "222854188", "name": "8133 PALMYRA MACEDON PAL MAC NY", "city": "PALMYRA", "state": "NY", "zip": "14522-0083", "ntee": "P20", "ruling": "202408", "deductibility": "2", "assets": 0, "income": 0, "revenue": 0}, {"ein": "237296789", "name": "PALMYRA MEMORIAL POST", "city": "PALMYRA", "state": "NY", "zip": "14522-9719", "ntee": "W30Z", "ruling": "197210", "deductibility": "1", "assets": 377653, "income": 688731, "revenue": 217952}, {"ein": "237408429", "name": "PALMYRA FIRE COMPANY INC", "city": "PALMYRA", "state": "NY", "zip": "14522-1148", "ntee": "", "ruling": "197410", "deductibility": "1", "assets": 271109, "income": 44853, "revenue": 38855}, {"ein": "237443013", "name": "HISTORIC PALMYRA INC", "city": "PALMYRA", "state": "NY", "zip": "14522-1136", "ntee": "A540", "ruling": "197504", "deductibility": "1", "assets": 858270, "income": 141811, "revenue": 135713}, {"ein": "264560063", "name": "PALMYRA COMMUNITY LIBRARY", "city": "PALMYRA", "state": "NY", "zip": "14522-1105", "ntee": "B70", "ruling": "201106", "deductibility": "1", "assets": 1716775, "income": 357265, "revenue": 357265}, {"ein": "462997053", "name": "PALMYRA-MACEDON ROTARY FOUNDATION INC", "city": "MACEDON", "state": "NY", "zip": "14502-0262", "ntee": "B99", "ruling": "201408", "deductibility": "1", "assets": 0, "income": 0, "revenue": 0}, {"ein": "463854345", "name": "PALMYRA FRIENDS OF THE LIBRARY", "city": "PALMYRA", "state": "NY", "zip": "14522-1003", "ntee": "B70", "ruling": "201711", "deductibility": "1", "assets": 0, "income": 0, "revenue": 0}, {"ein": "464065469", "name": "PALMYRA FIRE AUXILIARY INC", "city": "PALMYRA", "state": "NY", "zip": "14522-1148", "ntee": "M12", "ruling": "201408", "deductibility": "1", "assets": 0, "income": 0, "revenue": 0}, {"ein": "510235729", "name": "PALMYRA KINGS DAUGHTERS INC", "city": "PALMYRA", "state": "NY", "zip": "14522-0172", "ntee": "", "ruling": "197601", "deductibility": "1", "assets": 502971, "income": 40916, "revenue": 0}, {"ein": "920617222", "name": "PALMYRA MACEDON NEW YORK LIONS FOUNDATION", "city": "PALMYRA", "state": "NY", "zip": "14522-0083", "ntee": "S80", "ruling": "202302", "deductibility": "1", "assets": 0, "income": 0, "revenue": 0}], "EQUALITY": [{"ein": "010964803", "name": "EQUALITY CHARTER SCHOOL PTSO", "city": "BRONX", "state": "NY", "zip": "10475-5466", "ntee": "B20", "ruling": "201705", "deductibility": "1", "assets": 0, "income": 0, "revenue": 0}, {"ein": "133187792", "name": "ASIAN AMERICANS FOR EQUALITY INC", "city": "NEW YORK", "state": "NY", "zip": "10002-5302", "ntee": "", "ruling": "198604", "deductibility": "1", "assets": 27979358, "income": 10933585, "revenue": 10895181}, {"ein": "133660566", "name": "EQUALITY NOW INC", "city": "NEW YORK", "state": "NY", "zip": "10021-3542", "ntee": "Q700", "ruling": "199207", "deductibility": "1", "assets": 27356184, "income": 9100545, "revenue": 7616876}, {"ein": "133734579", "name": "AWAKE-ASIAN WOMENS ALLIANCE FOR KINSHIP AND EQUALITY INC", "city": "YONKERS", "state": "NY", "zip": "10710-1857", "ntee": "A99Z", "ruling": "199401", "deductibility": "1", "assets": 133813, "income": 34023, "revenue": 26357}, {"ein": "133802711", "name": "IMMIGRATION EQUALITY", "city": "BROOKLYN", "state": "NY", "zip": "11238-3009", "ntee": "R26", "ruling": "199505", "deductibility": "1", "assets": 2617708, "income": 3686608, "revenue": 3590889}, {"ein": "161165155", "name": "CITIZENS OPPORTUNITY FOR DEVELOPMENT & EQUALITY INC", "city": "JAMESTOWN", "state": "NY", "zip": "14702-3311", "ntee": "S20Z", "ruling": "198304", "deductibility": "1", "assets": 1849386, "income": 502478, "revenue": 502478}, {"ein": "205929309", "name": "EQUALITY - LONG ISLAND INCORPORATED", "city": "HAUPPAUGE", "state": "NY", "zip": "11788-4017", "ntee": "S80", "ruling": "200908", "deductibility": "2", "assets": 0, "income": 0, "revenue": 0}, {"ein": "222382803", "name": "ASSOCIATION FOR EQUALITY AND EXCELLENCE IN EDUCATION INC", "city": "NEW YORK", "state": "NY", "zip": "10101-1515", "ntee": "B030", "ruling": "198201", "deductibility": "1", "assets": 112284, "income": 91834, "revenue": 91834}, {"ein": "223170707", "name": "WAYNE ACTION FOR RACIAL EQUALITY INC", "city": "SODUS", "state": "NY", "zip": "14551-0324", "ntee": "", "ruling": "199301", "deductibility": "1", "assets": 0, "income": 0, "revenue": 0}, {"ein": "270888049", "name": "IMMIGRATION EQUALITY ACTION FUND INC", "city": "BROOKLYN", "state": "NY", "zip": "11238-3009", "ntee": "Q05", "ruling": "200912", "deductibility": "2", "assets": 352407, "income": 18662, "revenue": 18662}, {"ein": "300338842", "name": "MARRIAGE EQUALITY USA INC", "city": "NEW YORK", "state": "NY", "zip": "10032-5356", "ntee": "R26", "ruling": "200901", "deductibility": "1", "assets": 0, "income": 0, "revenue": 0}, {"ein": "301437050", "name": "LONG ISLAND EQUALITY INC", "city": "PATCHOGUE", "state": "NY", "zip": "11772-3702", "ntee": "R12", "ruling": "202505", "deductibility": "1", "assets": 0, "income": 0, "revenue": 0}, {"ein": "371762577", "name": "GLOBAL ACTION FOR TRANS EQUALITY INC", "city": "NEW YORK", "state": "NY", "zip": "10036-4701", "ntee": "R26", "ruling": "201509", "deductibility": "1", "assets": 1643123, "income": 1369594, "revenue": 1369187}, {"ein": "461860104", "name": "TRANS STUDENT EQUALITY RESOURCES", "city": "NEW YORK", "state": "NY", "zip": "10002-0005", "ntee": "R26", "ruling": "201511", "deductibility": "1", "assets": 0, "income": 0, "revenue": 0}, {"ein": "464141757", "name": "GENDER EQUALITY LAW CENTER INC", "city": "BROOKLYN", "state": "NY", "zip": "11215-4702", "ntee": "I83", "ruling": "201505", "deductibility": "1", "assets": 291697, "income": 241176, "revenue": 241176}, {"ein": "472806715", "name": "CARIBBEAN EQUALITY PROJECT", "city": "S OZONE PARK", "state": "NY", "zip": "11420-0248", "ntee": "P80", "ruling": "201707", "deductibility": "1", "assets": 353322, "income": 351131, "revenue": 351131}, {"ein": "474225769", "name": "ROSS INITIATIVE IN SPORTS FOR EQUALITY INC", "city": "NEW YORK", "state": "NY", "zip": "10019-4460", "ntee": "N05", "ruling": "201606", "deductibility": "1", "assets": 4721631, "income": 2674904, "revenue": 0}, {"ein": "474365484", "name": "RUSTIN FUND FOR GLOBAL EQUALITY INC", "city": "BROOKLYN", "state": "NY", "zip": "11233-1802", "ntee": "R26", "ruling": "201702", "deductibility": "1", "assets": 42504, "income": 16424, "revenue": 16424}, {"ein": "521438455", "name": "FAMILY EQUALITY", "city": "NEW YORK", "state": "NY", "zip": "10016-6904", "ntee": "B90", "ruling": "198512", "deductibility": "1", "assets": 1171927, "income": 3844740, "revenue": 3412051}, {"ein": "542074869", "name": "DIGITAL EQUALITY LTD", "city": "NEW YORK", "state": "NY", "zip": "10016-8538", "ntee": "B19", "ruling": "200212", "deductibility": "1", "assets": 1, "income": 0, "revenue": 0}, {"ein": "800338050", "name": "EQUALITY CHARTER SCHOOL", "city": "BRONX", "state": "NY", "zip": "10475-5466", "ntee": "B29", "ruling": "201103", "deductibility": "1", "assets": 14374361, "income": 19325453, "revenue": 19295208}, {"ein": "810869779", "name": "WOMENS ISLAMIC INITIATIVE IN SPIRITUALITY & EQUALITY INC", "city": "NEW YORK", "state": "NY", "zip": "10013-1510", "ntee": "X40", "ruling": "201801", "deductibility": "1", "assets": 0, "income": 0, "revenue": 0}, {"ein": "811154478", "name": "YOUNG MINDS FOR GENDER EQUALITY FOUNDATION", "city": "NEW YORK", "state": "NY", "zip": "10003-4283", "ntee": "O50", "ruling": "201605", "deductibility": "1", "assets": 0, "income": 0, "revenue": 0}, {"ein": "811349740", "name": "THE NEW YORK CITY EQUALITY COALITION INCORPORATED", "city": "NEW YORK", "state": "NY", "zip": "10026-2508", "ntee": "R01", "ruling": "201603", "deductibility": "1", "assets": 0, "income": 0, "revenue": 0}, {"ein": "811387944", "name": "FRIENDS OF EQUALITY CHARTER SCHOOL INC", "city": "BRONX", "state": "NY", "zip": "10473-1752", "ntee": "B11", "ruling": "201605", "deductibility": "1", "assets": 5063365, "income": 2030738, "revenue": 2030738}, {"ein": "822373481", "name": "STRIVING TOWARDS HAPPINESS INDEPEND ENCE NURTURE AND EQUALITY FOR EVE", "city": "STATEN ISLAND", "state": "NY", "zip": "10308-3531", "ntee": "O51", "ruling": "201708", "deductibility": "1", "assets": 0, "income": 0, "revenue": 0}, {"ein": "823660340", "name": "UNITY FOR EQUALITY", "city": "FLUSHING", "state": "NY", "zip": "11355-3915", "ntee": "P01", "ruling": "201905", "deductibility": "1", "assets": 24, "income": 8026, "revenue": 8026}, {"ein": "830823399", "name": "GENDER EQUALITY NEW YORK INC", "city": "HUNTINGTN STA", "state": "NY", "zip": "11746-4508", "ntee": "P80", "ruling": "201903", "deductibility": "1", "assets": 75762, "income": 49435, "revenue": 49435}, {"ein": "834269954", "name": "FAMILY EQUALITY ACTION INC", "city": "NEW YORK", "state": "NY", "zip": "10016-6904", "ntee": "R26", "ruling": "202410", "deductibility": "2", "assets": 0, "income": 0, "revenue": 0}, {"ein": "844573437", "name": "LEGAL EQUALITY ADVOCACY FIRM INC", "city": "DELMAR", "state": "NY", "zip": "12054-5427", "ntee": "A01", "ruling": "202101", "deductibility": "1", "assets": 0, "income": 0, "revenue": 0}, {"ein": "851375765", "name": "NATIONAL ORGANIZATION FOR MINORITY OPPORTUNITY AND REAL EQUALITY", "city": "JAMAICA", "state": "NY", "zip": "11433-3918", "ntee": "P99", "ruling": "202011", "deductibility": "1", "assets": 0, "income": 0, "revenue": 0}, {"ein": "852841585", "name": "RACIAL EQUALITY FOR ARBITRATION LAWYERS INC", "city": "NEW YORK", "state": "NY", "zip": "10010-4705", "ntee": "A03", "ruling": "202011", "deductibility": "1", "assets": 0, "income": 0, "revenue": 0}, {"ein": "852980684", "name": "ONEONTA FOR EQUALITY INC", "city": "ITHACA", "state": "NY", "zip": "14850-9521", "ntee": "R01", "ruling": "202108", "deductibility": "1", "assets": 0, "income": 0, "revenue": 0}, {"ein": "871687867", "name": "EQUALITY FOUNDATION INC", "city": "JERICHO", "state": "NY", "zip": "11753-1208", "ntee": "P20", "ruling": "202208", "deductibility": "1", "assets": 0, "income": 0, "revenue": 0}, {"ein": "883375020", "name": "LEADERSHIP EQUALITY ACADEMY INC", "city": "NEW YORK", "state": "NY", "zip": "10105-0302", "ntee": "W19", "ruling": "202310", "deductibility": "1", "assets": 0, "income": 0, "revenue": 0}, {"ein": "883416748", "name": "GBA EQUALITY FOUNDATION", "city": "NEW YORK", "state": "NY", "zip": "10017-2308", "ntee": "J20", "ruling": "202209", "deductibility": "1", "assets": 3838, "income": 3928, "revenue": 3928}, {"ein": "920964075", "name": "GENDER EQUALITY NETWORK USA", "city": "ITHACA", "state": "NY", "zip": "14850-0000", "ntee": "R24", "ruling": "202307", "deductibility": "1", "assets": 0, "income": 0, "revenue": 0}, {"ein": "934669857", "name": "STUDENTS ALUMNI AND FACULTY FOR EQUALITY ON CAMPUS", "city": "VALLEY STREAM", "state": "NY", "zip": "11581-3049", "ntee": "X30", "ruling": "202405", "deductibility": "1", "assets": 2118, "income": 7369, "revenue": 7369}, {"ein": "991889551", "name": "ARTISTS FOR BLACK LIVES EQUALITY", "city": "FRESH MEADOWS", "state": "NY", "zip": "11366-1716", "ntee": "R30", "ruling": "202403", "deductibility": "1", "assets": 0, "income": 0, "revenue": 0}, {"ein": "991967380", "name": "LIGHTHOUSE EQUALITY ADVOCACY PROJECT INCORPORATED", "city": "BRONX", "state": "NY", "zip": "10468-0416", "ntee": "P88", "ruling": "202404", "deductibility": "1", "assets": 0, "income": 0, "revenue": 0}, {"ein": "992149185", "name": "DIVERSITY EQUALITY AND INCLUSION", "city": "BROOKLYN", "state": "NY", "zip": "11242-1107", "ntee": "R20", "ruling": "202404", "deductibility": "1", "assets": 0, "income": 0, "revenue": 0}], "GYNECOLOGICAL": [{"ein": "011202369", "name": "THE BROOKLYN GYNECOLOGICAL SOCIETY INC", "city": "BROOKLYN", "state": "NY", "zip": "11220-5203", "ntee": "", "ruling": "199410", "deductibility": "2", "assets": 0, "income": 0, "revenue": 0}, {"ein": "237259887", "name": "BELLEVUE OBSTETRICAL & GYNECOLOGICAL SOCIETY", "city": "NEW YORK", "state": "NY", "zip": "10022-4602", "ntee": "", "ruling": "197302", "deductibility": "1", "assets": 5200, "income": 4263, "revenue": 4263}], "KORNEGAY": [{"ein": "020533201", "name": "A KORNEGAY SENIOR HOUSES HOUSING DEVELOPMENT FUND CORPORATION", "city": "BRONX", "state": "NY", "zip": "10461-2334", "ntee": "L21", "ruling": "200204", "deductibility": "1", "assets": 5292271, "income": 1853432, "revenue": 1853432}], "RAYMOND": [{"ein": "030384439", "name": "DEPUTY CHIEF RAYMOND DOWNEY SCHOLARSHIP CHARITY FUND", "city": "COMMACK", "state": "NY", "zip": "11725-5216", "ntee": "T30", "ruling": "200301", "deductibility": "1", "assets": 101076, "income": 97106, "revenue": 97106}, {"ein": "113182244", "name": "RAYMOND BALLARD APARTMENTS HOUSING DEVELOPMENT FUND CORPORATION", "city": "BROOKLYN", "state": "NY", "zip": "11233-1773", "ntee": "S31Z", "ruling": "199403", "deductibility": "1", "assets": 613773, "income": 472324, "revenue": 472324}, {"ein": "134048403", "name": "RAYMOND CRILE QUICK SCHOLARSHIP FOUNDATION", "city": "MILL NECK", "state": "NY", "zip": "11765-1004", "ntee": "T220", "ruling": "200007", "deductibility": "1", "assets": 3485740, "income": 575594, "revenue": 0}, {"ein": "134053653", "name": "RAYMOND DEBBANE FAMILY FOUNDATION", "city": "NEW YORK", "state": "NY", "zip": "10022-0000", "ntee": "T22", "ruling": "200103", "deductibility": "1", "assets": 114077128, "income": 27557652, "revenue": 0}, {"ein": "136178229", "name": "JEAN L & RAYMOND S TROUBH FUND", "city": "NEW YORK", "state": "NY", "zip": "10153-0000", "ntee": "", "ruling": "196407", "deductibility": "1", "assets": 44958, "income": 118261, "revenue": 0}, {"ein": "146174971", "name": "RAYMOND DRATWA CHARITABLE TR UA", "city": "AMHERST", "state": "NY", "zip": "14228-2307", "ntee": "T99Z", "ruling": "199603", "deductibility": "1", "assets": 263821, "income": 56607, "revenue": 0}, {"ein": "160836795", "name": "RAYMOND COMMUNITY CHURCH", "city": "LOCKPORT", "state": "NY", "zip": "14094-9353", "ntee": "X21Z", "ruling": "199506", "deductibility": "1", "assets": 0, "income": 0, "revenue": 0}, {"ein": "166047847", "name": "RAYMOND FOUNDATION", "city": "GREENE", "state": "NY", "zip": "13778-0518", "ntee": "", "ruling": "196408", "deductibility": "1", "assets": 7010510, "income": 551135, "revenue": 0}, {"ein": "166268702", "name": "RAYMOND L & ALMA JOHNSON WILLARD CHARITABLE TR", "city": "NORWICH", "state": "NY", "zip": "13815-0000", "ntee": "", "ruling": "198610", "deductibility": "1", "assets": 2909303, "income": 663100, "revenue": 0}, {"ein": "222773896", "name": "RAYMOND C KENNEDY FOUNDATION INC", "city": "HUDSON", "state": "NY", "zip": "12534-0000", "ntee": "", "ruling": "198703", "deductibility": "1", "assets": 414041, "income": 133885, "revenue": 0}, {"ein": "236724043", "name": "RAYMOND E EVLETH TRUST UW FBO", "city": "BUFFALO", "state": "NY", "zip": "14240-1504", "ntee": "T20Z", "ruling": "199605", "deductibility": "1", "assets": 3329284, "income": 750395, "revenue": 0}, {"ein": "261267667", "name": "RAYMOND AND GLORIA NAFTALI FOUNDATION", "city": "NEW YORK", "state": "NY", "zip": "10158-0000", "ntee": "T22", "ruling": "200802", "deductibility": "1", "assets": 4574112, "income": 3219905, "revenue": 0}, {"ein": "306383353", "name": "THE RAYMOND AND RUTH PERELMAN FOUNDATION", "city": "NEW YORK", "state": "NY", "zip": "10065-8014", "ntee": "T20", "ruling": "201311", "deductibility": "1", "assets": 13279738, "income": 1131, "revenue": 0}, {"ein": "335044101", "name": "RAYMOND PACE & SADIE TM ALEXANDER FOUNDATION", "city": "NEW YORK", "state": "NY", "zip": "10025-7724", "ntee": "R99", "ruling": "202507", "deductibility": "1", "assets": 0, "income": 0, "revenue": 0}, {"ein": "376719427", "name": "RAYMOND WATKIN TR FOR CHARITIES", "city": "SARATOGA SPRINGS", "state": "NY", "zip": "12866-0000", "ntee": "T22", "ruling": "202210", "deductibility": "1", "assets": 1856417, "income": 726110, "revenue": 0}, {"ein": "466810005", "name": "RAYMOND A RIDDEL MEMORIAL TR", "city": "BUFFALO", "state": "NY", "zip": "14240-1504", "ntee": "T22", "ruling": "201905", "deductibility": "1", "assets": 368719, "income": 320629, "revenue": 0}, {"ein": "472387031", "name": "RAYMOND FOUNDATION INC", "city": "CENTRAL SQ", "state": "NY", "zip": "13036-2353", "ntee": "E60", "ruling": "201502", "deductibility": "1", "assets": 0, "income": 0, "revenue": 0}, {"ein": "473749025", "name": "PARISH OF THE VISITATION AND ST RAYMOND", "city": "NORFOLK", "state": "NY", "zip": "13667-0637", "ntee": "", "ruling": "194603", "deductibility": "1", "assets": 0, "income": 0, "revenue": 0}, {"ein": "731393621", "name": "RAYMOND & BESSIE KRAVIS FOUNDATION", "city": "NEW YORK", "state": "NY", "zip": "10105-0000", "ntee": "", "ruling": "199207", "deductibility": "1", "assets": 45170870, "income": 14050309, "revenue": 0}, {"ein": "800002341", "name": "RAYMOND J AND MARY C REISERT FOUNDATION INC", "city": "NEW YORK", "state": "NY", "zip": "10010-0000", "ntee": "T22", "ruling": "200301", "deductibility": "1", "assets": 2262101, "income": 463091, "revenue": 0}, {"ein": "812514483", "name": "RAYMOND ROUSSEL SOCIETY", "city": "NEW YORK", "state": "NY", "zip": "10118-0110", "ntee": "A25", "ruling": "201606", "deductibility": "1", "assets": 0, "income": 0, "revenue": 0}, {"ein": "816636168", "name": "RAYMOND J RAFFERTY MEMORIAL ENDOWMENT TR", "city": "ROCKVILLE CTR", "state": "NY", "zip": "11570-5441", "ntee": "T20", "ruling": "201709", "deductibility": "1", "assets": 199959, "income": 42503, "revenue": 0}, {"ein": "821086976", "name": "WILLIAM RAYMOND MOTZ FAMILY CHARITABLE TRUST", "city": "ONEONTA", "state": "NY", "zip": "13820-3202", "ntee": "T22", "ruling": "201708", "deductibility": "1", "assets": 2564181, "income": 1492933, "revenue": 0}, {"ein": "826588089", "name": "RAYMOND C KELLER AND JANE G KELLER CHARITABLE TRUST FBO RIDER UNIV", "city": "BUFFALO", "state": "NY", "zip": "14240-1504", "ntee": "T22", "ruling": "201809", "deductibility": "1", "assets": 2988156, "income": 596310, "revenue": 0}, {"ein": "826590879", "name": "RAYMOND C KELLER AND JANE G KELLER CHARITABLE TRUST", "city": "BUFFALO", "state": "NY", "zip": "14240-1504", "ntee": "T22", "ruling": "201808", "deductibility": "1", "assets": 1485000, "income": 304854, "revenue": 0}, {"ein": "843786759", "name": "KNIGHTS OF COLUMBUS ST RAYMOND NONNATUS COUNCIL 17151 INC", "city": "BRONX", "state": "NY", "zip": "10462-4231", "ntee": "X12", "ruling": "202002", "deductibility": "1", "assets": 0, "income": 0, "revenue": 0}, {"ein": "844107294", "name": "RAYMOND HOSE COMPANY NO 2 OF WARWICK NEW YORK INC", "city": "WARWICK", "state": "NY", "zip": "10990-3215", "ntee": "M24", "ruling": "202409", "deductibility": "1", "assets": 0, "income": 0, "revenue": 0}, {"ein": "873884283", "name": "RAYMOND J MARTIN MEMORIAL FOUNDATION INC", "city": "TUPPER LAKE", "state": "NY", "zip": "12986-0110", "ntee": "B82", "ruling": "202202", "deductibility": "1", "assets": 81880, "income": 15870, "revenue": 4897}], "YAD": [{"ein": "030385999", "name": "AMERICAN FRIENDS OF TEN-YAD-BRAZIL INC", "city": "BROOKLYN", "state": "NY", "zip": "11225-3009", "ntee": "Q33", "ruling": "200206", "deductibility": "1", "assets": 1695251, "income": 349946, "revenue": 349946}, {"ein": "112568445", "name": "AMERICAN FRIENDS OF KEREN YAD L-CHAIM", "city": "BROOKLYN", "state": "NY", "zip": "11230-5108", "ntee": "Q113", "ruling": "198201", "deductibility": "1", "assets": 0, "income": 0, "revenue": 0}, {"ein": "112596605", "name": "MOSDOS PITTSBURGH YAD ISOMAR INC", "city": "BROOKLYN", "state": "NY", "zip": "11234-3325", "ntee": "", "ruling": "198205", "deductibility": "1", "assets": 0, "income": 0, "revenue": 0}, {"ein": "112676252", "name": "SHUVA YISROEL OF YAD HARASHASH", "city": "BROOKLYN", "state": "NY", "zip": "11223-1941", "ntee": "", "ruling": "198404", "deductibility": "1", "assets": 0, "income": 0, "revenue": 0}, {"ein": "112760065", "name": "BIKUR CHOLIM OF FLATBUSH NEFESH CHAYA TIFERES YOSEF YAD LCHOLIM", "city": "BROOKLYN", "state": "NY", "zip": "11210-2832", "ntee": "E60", "ruling": "201305", "deductibility": "1", "assets": 85533, "income": 102279, "revenue": 102279}, {"ein": "112906878", "name": "YAD BATYA L KALLAH", "city": "BROOKLYN", "state": "NY", "zip": "11210-3714", "ntee": "X30", "ruling": "200107", "deductibility": "1", "assets": 0, "income": 0, "revenue": 0}, {"ein": "112985532", "name": "YESHIVA YAD AHARON INC", "city": "BROOKLYN", "state": "NY", "zip": "11230-6453", "ntee": "", "ruling": "198910", "deductibility": "1", "assets": 0, "income": 0, "revenue": 0}, {"ein": "113015366", "name": "CHEVRAS TZIRIM YAD EFRAIM OSTROWCE OF BOYAN INC", "city": "BROOKLYN", "state": "NY", "zip": "11211-7923", "ntee": "", "ruling": "199006", "deductibility": "1", "assets": 0, "income": 0, "revenue": 0}, {"ein": "113086709", "name": "YAD ABRAHAM", "city": "BROOKLYN", "state": "NY", "zip": "11210-3714", "ntee": "", "ruling": "199203", "deductibility": "1", "assets": 0, "income": 0, "revenue": 0}, {"ein": "113143806", "name": "YAD SHLOIME", "city": "BROOKLYN", "state": "NY", "zip": "11210-3714", "ntee": "", "ruling": "199304", "deductibility": "1", "assets": 0, "income": 0, "revenue": 0}, {"ein": "113150521", "name": "YAD YISROEL INC", "city": "BROOKLYN", "state": "NY", "zip": "11219-1011", "ntee": "", "ruling": "199308", "deductibility": "1", "assets": 211890, "income": 3045701, "revenue": 3045701}, {"ein": "113299083", "name": "AMERICAN FRIENDS OF YAD YEMIN INC", "city": "BROOKLYN", "state": "NY", "zip": "11219-3389", "ntee": "Q300", "ruling": "199605", "deductibility": "1", "assets": 1109698, "income": 5064039, "revenue": 4181297}, {"ein": "113365809", "name": "CONGREGATION YAD YOSEF", "city": "BROOKLYN", "state": "NY", "zip": "11204-1601", "ntee": "X30Z", "ruling": "199805", "deductibility": "1", "assets": 0, "income": 0, "revenue": 0}, {"ein": "113378659", "name": "YAD NATHAN FUND", "city": "BROOKLYN", "state": "NY", "zip": "11210-4515", "ntee": "P20Z", "ruling": "199808", "deductibility": "1", "assets": 0, "income": 0, "revenue": 0}, {"ein": "113384161", "name": "CONGREGATION YESHIVA YAD MOISHE", "city": "BROOKLYN", "state": "NY", "zip": "11218-4414", "ntee": "X30Z", "ruling": "199707", "deductibility": "1", "assets": 0, "income": 0, "revenue": 0}, {"ein": "113466497", "name": "YAD SHLOMO DKRASNA", "city": "BROOKLYN", "state": "NY", "zip": "11211-7836", "ntee": "X30", "ruling": "199902", "deductibility": "1", "assets": 0, "income": 0, "revenue": 0}, {"ein": "113521059", "name": "AMERICAN FRIENDS OF YAD TRUDY", "city": "MONTEBELLO", "state": "NY", "zip": "10901-4249", "ntee": "T30", "ruling": "200009", "deductibility": "1", "assets": 0, "income": 0, "revenue": 0}, {"ein": "113525524", "name": "YAD LACHMU ANYU LENITZRUCHIN CHOQ LYISROEL", "city": "BROOKLYN", "state": "NY", "zip": "11211-7923", "ntee": "X30", "ruling": "200003", "deductibility": "1", "assets": 0, "income": 0, "revenue": 0}, {"ein": "113527924", "name": "YAD DOV YAGEL YAAKOV", "city": "BROOKLYN", "state": "NY", "zip": "11230-6404", "ntee": "X30", "ruling": "200201", "deductibility": "1", "assets": 0, "income": 0, "revenue": 0}, {"ein": "113548647", "name": "GEMACH YAD PINCHAS INC", "city": "BROOKLYN", "state": "NY", "zip": "11211-8036", "ntee": "X30", "ruling": "200102", "deductibility": "1", "assets": 0, "income": 0, "revenue": 0}, {"ein": "113565335", "name": "TOMCHEI SHABBOS-YAD YESHAYA INC", "city": "FAR ROCKAWAY", "state": "NY", "zip": "11691-5413", "ntee": "K31", "ruling": "200010", "deductibility": "1", "assets": 1964329, "income": 1878995, "revenue": 1878995}, {"ein": "113634972", "name": "YAD MENACHEM LETINOK INC", "city": "NEW YORK", "state": "NY", "zip": "10033-2131", "ntee": "P60", "ruling": "200202", "deductibility": "1", "assets": 21501, "income": 133165, "revenue": 133165}, {"ein": "133013945", "name": "YAD BENJAMIN", "city": "BROOKLYN", "state": "NY", "zip": "11210-3842", "ntee": "", "ruling": "196901", "deductibility": "1", "assets": 0, "income": 0, "revenue": 0}, {"ein": "133106175", "name": "FRIENDS OF YAD SARAH INC", "city": "NEW YORK", "state": "NY", "zip": "10022-8621", "ntee": "E22J", "ruling": "198203", "deductibility": "1", "assets": 8862202, "income": 7470188, "revenue": 7470188}, {"ein": "133106768", "name": "AMERICAN SOCIETY FOR YAD VASHEM INC", "city": "NEW YORK", "state": "NY", "zip": "10110-4299", "ntee": "A800", "ruling": "198211", "deductibility": "1", "assets": 101850895, "income": 30358902, "revenue": 13308432}, {"ein": "133411648", "name": "YAD CHAVA INC", "city": "STATEN ISLAND", "state": "NY", "zip": "10309-2831", "ntee": "", "ruling": "198807", "deductibility": "1", "assets": 0, "income": 0, "revenue": 0}, {"ein": "133444054", "name": "YAD YOSEF", "city": "BROOKLYN", "state": "NY", "zip": "11211-8036", "ntee": "", "ruling": "198807", "deductibility": "1", "assets": 0, "income": 0, "revenue": 0}, {"ein": "133563527", "name": "YAD AVRAHAM INC", "city": "NEW YORK", "state": "NY", "zip": "10021-7209", "ntee": "", "ruling": "199008", "deductibility": "1", "assets": 0, "income": 0, "revenue": 0}, {"ein": "133782164", "name": "AGUDAS YAD AVRAHAM", "city": "NEW SQUARE", "state": "NY", "zip": "10977-1930", "ntee": "", "ruling": "199409", "deductibility": "0", "assets": 0, "income": 0, "revenue": 0}, {"ein": "133887075", "name": "U S FRIEND OF YAD EZRAH", "city": "MONSEY", "state": "NY", "zip": "10952-2810", "ntee": "T20", "ruling": "199612", "deductibility": "1", "assets": 56171, "income": 2057740, "revenue": 2057740}, {"ein": "133979704", "name": "YAD MORDECHAI INC", "city": "MONSEY", "state": "NY", "zip": "10952-2608", "ntee": "X30", "ruling": "200101", "deductibility": "1", "assets": 0, "income": 0, "revenue": 0}, {"ein": "134087567", "name": "YAD AVRAHAM OF NEW YORK INC", "city": "NEW YORK", "state": "NY", "zip": "10019-9000", "ntee": "X30", "ruling": "200103", "deductibility": "1", "assets": 0, "income": 0, "revenue": 0}, {"ein": "134147735", "name": "CONGREGATION YAD SHAUL", "city": "NEW YORK", "state": "NY", "zip": "10019-9000", "ntee": "X30", "ruling": "200112", "deductibility": "1", "assets": 0, "income": 0, "revenue": 0}, {"ein": "134180255", "name": "YAD CHAYA INC", "city": "CEDARHURST", "state": "NY", "zip": "11516-2302", "ntee": "P20", "ruling": "200108", "deductibility": "1", "assets": 473547, "income": 3668008, "revenue": 3668008}, {"ein": "137010462", "name": "YAD YOSEF C/O DAVID OZEIREY", "city": "BROOKLYN", "state": "NY", "zip": "11230-4001", "ntee": "", "ruling": "199307", "deductibility": "1", "assets": 0, "income": 0, "revenue": 0}, {"ein": "200470372", "name": "YAD HACHESED", "city": "BROOKLYN", "state": "NY", "zip": "11213-5242", "ntee": "", "ruling": "200503", "deductibility": "1", "assets": 0, "income": 0, "revenue": 0}, {"ein": "201614898", "name": "YAD VEIZER SANZ KLAUSENBERG", "city": "BROOKLYN", "state": "NY", "zip": "11219-3502", "ntee": "X30", "ruling": "200505", "deductibility": "1", "assets": 0, "income": 0, "revenue": 0}, {"ein": "203458715", "name": "YAD EZRAH OF YEHUDA VSHOMRON INC", "city": "BROOKLYN", "state": "NY", "zip": "11219-2299", "ntee": "T123", "ruling": "200607", "deductibility": "1", "assets": 2934, "income": 109600, "revenue": 109600}, {"ein": "203755157", "name": "CONGREGATION YAD HALEVI", "city": "PEARL RIVER", "state": "NY", "zip": "10965-1190", "ntee": "X30", "ruling": "200801", "deductibility": "1", "assets": 0, "income": 0, "revenue": 0}, {"ein": "203931109", "name": "YAD SOFFIN FOUNDATION", "city": "NEW YORK", "state": "NY", "zip": "10024-5308", "ntee": "M20", "ruling": "200611", "deductibility": "1", "assets": 153671, "income": 250354, "revenue": 210410}, {"ein": "203992820", "name": "YAD MIRIAM FOUNDATION INC", "city": "BROOKLYN", "state": "NY", "zip": "11218-3765", "ntee": "T20", "ruling": "200811", "deductibility": "1", "assets": 163749, "income": 589, "revenue": 0}, {"ein": "204309873", "name": "YAD LEAZOR TORAH VOCHESED FUND", "city": "NEW YORK", "state": "NY", "zip": "10017-6270", "ntee": "T20", "ruling": "200608", "deductibility": "1", "assets": 173154, "income": 488416, "revenue": 0}, {"ein": "204988389", "name": "FRIENDS OF YAD NAFTALI", "city": "BROOKLYN", "state": "NY", "zip": "11204-0000", "ntee": "X30", "ruling": "200808", "deductibility": "1", "assets": 529125, "income": 821529, "revenue": 821529}, {"ein": "205564908", "name": "YAD HACHAZAKAH - THE JEWISHDISABILITY EMPOWERMENT CENTER INC", "city": "NEW YORK", "state": "NY", "zip": "10022-7649", "ntee": "E60", "ruling": "200806", "deductibility": "1", "assets": 0, "income": 0, "revenue": 0}, {"ein": "208005103", "name": "AMERICAN FRIENDS OF YAD ELIEZER-BEIT SHEMESH INC", "city": "BROOKLYN", "state": "NY", "zip": "11214-2556", "ntee": "T12", "ruling": "200801", "deductibility": "1", "assets": 1713, "income": 286296, "revenue": 286296}, {"ein": "237126417", "name": "YAD L ACHIM PEYLEI ISRAEL", "city": "BROOKLYN", "state": "NY", "zip": "11218-0000", "ntee": "", "ruling": "197009", "deductibility": "1", "assets": 764795, "income": 3241705, "revenue": 3241705}, {"ein": "237206897", "name": "YAD SHALOMA GAMILATH CHASODEM ASSOCIATION", "city": "BROOKLYN", "state": "NY", "zip": "11219-3310", "ntee": "", "ruling": "197204", "deductibility": "1", "assets": 0, "income": 0, "revenue": 0}, {"ein": "237216168", "name": "KEREN YAD LE-YOSEF FOUNDATION TRUST", "city": "BROOKLYN", "state": "NY", "zip": "11230-6507", "ntee": "", "ruling": "197205", "deductibility": "1", "assets": 10069, "income": 53517, "revenue": 0}, {"ein": "260512851", "name": "THE YAD FOUNDATION", "city": "FLUSHING", "state": "NY", "zip": "11354-1047", "ntee": "T20", "ruling": "200811", "deductibility": "1", "assets": 13157063, "income": 4918566, "revenue": 0}, {"ein": "260759266", "name": "YAD CHAZAKA CORP", "city": "VALLEY STREAM", "state": "NY", "zip": "11581-3638", "ntee": "T99", "ruling": "201501", "deductibility": "1", "assets": 207511, "income": 249175, "revenue": 249175}, {"ein": "263428281", "name": "TEN LI YAD FOUNDATION INC", "city": "HOLLIS HILLS", "state": "NY", "zip": "11427-1328", "ntee": "Q30", "ruling": "201005", "deductibility": "1", "assets": 12300, "income": 117209, "revenue": 52920}, {"ein": "270382421", "name": "TEN YAD KALLAH GEMACH INC", "city": "BROOKLYN", "state": "NY", "zip": "11213-4237", "ntee": "P83", "ruling": "201007", "deductibility": "1", "assets": 1040433, "income": 2922834, "revenue": 1162535}, {"ein": "331695716", "name": "KAHAL YAD EZRA", "city": "BROOKLYN", "state": "NY", "zip": "11230-6710", "ntee": "X30", "ruling": "202501", "deductibility": "1", "assets": 0, "income": 0, "revenue": 0}, {"ein": "332293948", "name": "YAD EZRA DBOBOV-45", "city": "BROOKLYN", "state": "NY", "zip": "11219-1608", "ntee": "X30", "ruling": "202506", "deductibility": "1", "assets": 0, "income": 0, "revenue": 0}, {"ein": "332582972", "name": "YAD LECHAVER CORP", "city": "LAWRENCE", "state": "NY", "zip": "11559-2010", "ntee": "A23", "ruling": "202501", "deductibility": "1", "assets": 0, "income": 0, "revenue": 0}, {"ein": "334098900", "name": "KEREN YAD YISROEL INC", "city": "BROOKLYN", "state": "NY", "zip": "11203-2513", "ntee": "A20", "ruling": "202505", "deductibility": "1", "assets": 0, "income": 0, "revenue": 0}, {"ein": "383670836", "name": "CONGREGATION YAD LSHABBAT", "city": "BROOKLYN", "state": "NY", "zip": "11210-2931", "ntee": "X30", "ruling": "200311", "deductibility": "1", "assets": 0, "income": 0, "revenue": 0}, {"ein": "383972092", "name": "CONG YAD YOSEF INC", "city": "BROOKLYN", "state": "NY", "zip": "11211-8919", "ntee": "X30", "ruling": "201508", "deductibility": "1", "assets": 0, "income": 0, "revenue": 0}, {"ein": "452602254", "name": "YAD LTORAH INC", "city": "SUFFERN", "state": "NY", "zip": "10901-3507", "ntee": "X123", "ruling": "201206", "deductibility": "1", "assets": 133931, "income": 39565, "revenue": 39565}, {"ein": "453117647", "name": "YAD BECHESED WOLBOROSH INC", "city": "BROOKLYN", "state": "NY", "zip": "11204-1395", "ntee": "X30", "ruling": "201507", "deductibility": "1", "assets": 3175, "income": 125889, "revenue": 125889}, {"ein": "454301089", "name": "YAD DAVID INC", "city": "BROOKLYN", "state": "NY", "zip": "11223-2228", "ntee": "Q12", "ruling": "201312", "deductibility": "1", "assets": 1294196, "income": 4716519, "revenue": 4716519}, {"ein": "461365061", "name": "CONGREGATION YAD LINIDACHIM", "city": "MONSEY", "state": "NY", "zip": "10952-1650", "ntee": "X30", "ruling": "201408", "deductibility": "1", "assets": 0, "income": 0, "revenue": 0}, {"ein": "463873462", "name": "YAD MICHAEL CHARITY INC", "city": "BROOKLYN", "state": "NY", "zip": "11223-3053", "ntee": "T99", "ruling": "201407", "deductibility": "1", "assets": 57948, "income": 200190, "revenue": 200190}, {"ein": "464099264", "name": "CONG YAD YOSEF INC", "city": "BROOKLYN", "state": "NY", "zip": "11211-7610", "ntee": "X30", "ruling": "202302", "deductibility": "1", "assets": 0, "income": 0, "revenue": 0}, {"ein": "464920886", "name": "KEHILAS YAD VAEZER", "city": "BROOKLYN", "state": "NY", "zip": "11213-4432", "ntee": "X30", "ruling": "201604", "deductibility": "1", "assets": 0, "income": 0, "revenue": 0}, {"ein": "467090604", "name": "YAD LANIYIM", "city": "POMONA", "state": "NY", "zip": "10970-3565", "ntee": "T22", "ruling": "201408", "deductibility": "1", "assets": 13781, "income": 277956, "revenue": 0}, {"ein": "474841758", "name": "YAD YISROEL", "city": "BROOKLYN", "state": "NY", "zip": "11210-4730", "ntee": "X30", "ruling": "201701", "deductibility": "1", "assets": 0, "income": 0, "revenue": 0}, {"ein": "474892075", "name": "YAD SHIFRA INC", "city": "BROOKLYN", "state": "NY", "zip": "11204-1937", "ntee": "P20", "ruling": "201706", "deductibility": "1", "assets": 4504, "income": 269273, "revenue": 269273}, {"ein": "542196301", "name": "EZRAS CHOLIM YAD EPHRAIM INC", "city": "BROOKLYN", "state": "NY", "zip": "11219-3011", "ntee": "K34", "ruling": "201006", "deductibility": "1", "assets": 2380153, "income": 1411401, "revenue": 1411401}, {"ein": "650337481", "name": "YAD V KIDDUSH HASHEM HOUSE OF MARTYRS INC", "city": "BROOKLYN", "state": "NY", "zip": "11204-0032", "ntee": "", "ruling": "199207", "deductibility": "1", "assets": 0, "income": 0, "revenue": 0}, {"ein": "811418574", "name": "BETH MEDRASH KOVETS AL YAD INC", "city": "BROOKLYN", "state": "NY", "zip": "11210-2843", "ntee": "X30", "ruling": "201609", "deductibility": "1", "assets": 0, "income": 0, "revenue": 0}, {"ein": "811482065", "name": "FRIENDS OF YAD YITZCHOK INC", "city": "BROOKLYN", "state": "NY", "zip": "11230-7053", "ntee": "K30", "ruling": "201602", "deductibility": "1", "assets": 45950, "income": 534598, "revenue": 534598}, {"ein": "814056530", "name": "YAD CHESED INC", "city": "BROOKLYN", "state": "NY", "zip": "11204-1404", "ntee": "X30", "ruling": "201710", "deductibility": "1", "assets": 0, "income": 0, "revenue": 0}, {"ein": "814375863", "name": "YAD LELEV FOUNDATION INC", "city": "MONSEY", "state": "NY", "zip": "10952-3366", "ntee": "T30", "ruling": "201703", "deductibility": "1", "assets": 228629, "income": 2069936, "revenue": 924737}, {"ein": "815016255", "name": "AMERICAN FRIENDS OF YAD YERUSHALAYIM", "city": "BROOKLYN", "state": "NY", "zip": "11230-4718", "ntee": "X30", "ruling": "201710", "deductibility": "1", "assets": 44882, "income": 723752, "revenue": 723752}, {"ein": "821577637", "name": "YAD MOACH VLEV FOUNDATION", "city": "MONSEY", "state": "NY", "zip": "10952-2810", "ntee": "T20", "ruling": "201709", "deductibility": "1", "assets": 615961, "income": 420243, "revenue": 0}, {"ein": "822044994", "name": "YAD LTALMID INC", "city": "SPRING VALLEY", "state": "NY", "zip": "10977-8954", "ntee": "X99", "ruling": "201904", "deductibility": "1", "assets": 58318, "income": 1383479, "revenue": 1383479}, {"ein": "822221108", "name": "YAD MALKA INC", "city": "BROOKLYN", "state": "NY", "zip": "11219-1604", "ntee": "P20", "ruling": "201802", "deductibility": "1", "assets": 0, "income": 0, "revenue": 0}, {"ein": "822769961", "name": "YAD MALKY LEGACY INC", "city": "BROOKLYN", "state": "NY", "zip": "11219-4523", "ntee": "P20", "ruling": "201803", "deductibility": "1", "assets": 202832, "income": 16514, "revenue": 16514}, {"ein": "823162935", "name": "YAD LYISROEL INC", "city": "SPRING VALLEY", "state": "NY", "zip": "10977-8991", "ntee": "K99", "ruling": "201904", "deductibility": "1", "assets": 12812, "income": 68563, "revenue": 68563}, {"ein": "823187887", "name": "YAD OZER INC", "city": "BROOKLYN", "state": "NY", "zip": "11218-6002", "ntee": "T30", "ruling": "201902", "deductibility": "1", "assets": 0, "income": 0, "revenue": 0}, {"ein": "824189044", "name": "CONGREGATION YAD DUVID", "city": "SPRING VALLEY", "state": "NY", "zip": "10977-8953", "ntee": "X30", "ruling": "201902", "deductibility": "1", "assets": 0, "income": 0, "revenue": 0}, {"ein": "852621700", "name": "YAD ELKA INC", "city": "BROOKLYN", "state": "NY", "zip": "11205-3482", "ntee": "K31", "ruling": "202203", "deductibility": "1", "assets": 749596, "income": 26711950, "revenue": 26711950}, {"ein": "852923938", "name": "YAD MISHKAN INC", "city": "BROOKLYN", "state": "NY", "zip": "11223-2202", "ntee": "X30", "ruling": "202011", "deductibility": "1", "assets": 7645, "income": 380410, "revenue": 380410}, {"ein": "853951753", "name": "YAD MENACHEM INC", "city": "BROOKLYN", "state": "NY", "zip": "11213-4439", "ntee": "X30", "ruling": "202102", "deductibility": "1", "assets": 0, "income": 0, "revenue": 0}, {"ein": "861540464", "name": "KEREN YAD SHMUEL VE TAMAR", "city": "GREAT NECK", "state": "NY", "zip": "11024-2121", "ntee": "X30", "ruling": "202104", "deductibility": "1", "assets": 12775, "income": 4425950, "revenue": 4425950}, {"ein": "861741635", "name": "YAD VELEV INC", "city": "BROOKLYN", "state": "NY", "zip": "11219-3445", "ntee": "X12", "ruling": "202104", "deductibility": "1", "assets": 0, "income": 0, "revenue": 0}, {"ein": "871536550", "name": "YAD AHRON INC", "city": "BROOKLYN", "state": "NY", "zip": "11204-1482", "ntee": "P12", "ruling": "202110", "deductibility": "1", "assets": 0, "income": 0, "revenue": 0}, {"ein": "871552923", "name": "CONG YAD HAKOHEN DUSHINSKY", "city": "BROOKLYN", "state": "NY", "zip": "11204-1049", "ntee": "X30", "ruling": "202205", "deductibility": "1", "assets": 0, "income": 0, "revenue": 0}, {"ein": "871646165", "name": "CONGREGATION YAD BYAD INC", "city": "BROOKLYN", "state": "NY", "zip": "11219-2102", "ntee": "X30", "ruling": "202205", "deductibility": "1", "assets": 0, "income": 0, "revenue": 0}, {"ein": "873467861", "name": "YAD ELIEZER USA INC", "city": "BROOKLYN", "state": "NY", "zip": "11219-3157", "ntee": "P12", "ruling": "202207", "deductibility": "1", "assets": 399091, "income": 13055396, "revenue": 13055396}, {"ein": "883196940", "name": "YAD YECHESKEL DVERETZKY FOUNDATION", "city": "BROOKLYN", "state": "NY", "zip": "11230-4735", "ntee": "X30", "ruling": "202303", "deductibility": "1", "assets": 0, "income": 0, "revenue": 0}, {"ein": "921469193", "name": "YAD LAMYUCHAD", "city": "BROOKLYN", "state": "NY", "zip": "11219-1604", "ntee": "T99", "ruling": "202310", "deductibility": "1", "assets": 7915, "income": 133020, "revenue": 133020}, {"ein": "922022341", "name": "YAD EZRA INC", "city": "BROOKLYN", "state": "NY", "zip": "11211-7578", "ntee": "E86", "ruling": "202401", "deductibility": "1", "assets": 0, "income": 0, "revenue": 0}, {"ein": "923334995", "name": "YAD CHAYA FOUNDATION INC", "city": "BROOKLYN", "state": "NY", "zip": "11230-1105", "ntee": "B12", "ruling": "202310", "deductibility": "1", "assets": 7346, "income": 31205, "revenue": 0}, {"ein": "932025242", "name": "FRIENDS OF YAD RAFAEL INC", "city": "POMONA", "state": "NY", "zip": "10970-2001", "ntee": "X30", "ruling": "202307", "deductibility": "1", "assets": 0, "income": 0, "revenue": 0}, {"ein": "934117583", "name": "YAD LECHESED", "city": "SPRING VALLEY", "state": "NY", "zip": "10977-3886", "ntee": "X30", "ruling": "202405", "deductibility": "1", "assets": 0, "income": 0, "revenue": 0}, {"ein": "992574942", "name": "YAD YAAKOV FOUNDATION", "city": "NEW YORK", "state": "NY", "zip": "10075-0323", "ntee": "T50", "ruling": "202405", "deductibility": "1", "assets": 0, "income": 0, "revenue": 0}, {"ein": "994583809", "name": "BEIS HATAVSHIL YAD TOVA USA", "city": "SUFFERN", "state": "NY", "zip": "10901-7217", "ntee": "X30", "ruling": "202506", "deductibility": "1", "assets": 0, "income": 0, "revenue": 0}], "ETAL": [{"ein": "036006252", "name": "FREDERICK COON TUW FBO FAHC ETAL 31C016016", "city": "BUFFALO", "state": "NY", "zip": "14240-1504", "ntee": "T90", "ruling": "201911", "deductibility": "1", "assets": 222415, "income": 51011, "revenue": 15197}, {"ein": "136042010", "name": "DAVID A HAAS ETAL MEMORIAL TR", "city": "NEW YORK", "state": "NY", "zip": "10008-1297", "ntee": "", "ruling": "194404", "deductibility": "1", "assets": 206940, "income": 44950, "revenue": 0}, {"ein": "166052610", "name": "INTERNATIONAL ALLIANCE THEATRICAL STAGE EMP & MOV PICTURS ETAL", "city": "SYRACUSE", "state": "NY", "zip": "13201-0617", "ntee": "", "ruling": "194104", "deductibility": "2", "assets": 109516, "income": 171347, "revenue": 171347}, {"ein": "222329543", "name": "JEFFERSON-LEWIS ETAL SCHOOL EMPLOYEES HEALTH PLAN", "city": "CLAYTON", "state": "NY", "zip": "13624-0456", "ntee": "", "ruling": "198106", "deductibility": "2", "assets": 51319887, "income": 85865173, "revenue": 85865173}, {"ein": "226665506", "name": "PERILLO TOURS FOUNDATION PERILLO MARIO P ETAL TTEE", "city": "SYRACUSE", "state": "NY", "zip": "13211-0000", "ntee": "", "ruling": "199608", "deductibility": "1", "assets": 941749, "income": 1210910, "revenue": 0}, {"ein": "466757077", "name": "KULP & DANNER COMBINED IRTUA FBO ETAL CHARITIES", "city": "BUFFALO", "state": "NY", "zip": "14240-1504", "ntee": "T22", "ruling": "201501", "deductibility": "1", "assets": 478695, "income": 142351, "revenue": 0}, {"ein": "510142893", "name": "JEAN S LANCASTER 1971 TRUST FOR THE FRESH AIR FUND ETAL", "city": "NEW YORK", "state": "NY", "zip": "10008-1297", "ntee": "T22", "ruling": "197506", "deductibility": "1", "assets": 4163963, "income": 434346, "revenue": 0}], "MASS": [{"ein": "046145941", "name": "KAPPA ALPHA SOCIETY OF WILLIAMSTOWN MASS", "city": "NEW YORK", "state": "NY", "zip": "10075-0935", "ntee": "", "ruling": "194212", "deductibility": "2", "assets": 0, "income": 0, "revenue": 0}, {"ein": "136533451", "name": "MASS TRANSIT STREET THEATRE INC", "city": "BRONX", "state": "NY", "zip": "10468-0347", "ntee": "A650", "ruling": "197302", "deductibility": "1", "assets": 17326, "income": 17024, "revenue": 17024}, {"ein": "204714242", "name": "AUSCHWITZ INSTUT FOR THE PREVENTION OF GENOCIDE AND MASS ATROCITIES", "city": "NEW YORK", "state": "NY", "zip": "10036-4230", "ntee": "Q20", "ruling": "200701", "deductibility": "1", "assets": 118496, "income": 2936098, "revenue": 2936098}, {"ein": "237314924", "name": "MASS DELTA ALUMNI CORP OF SIGMA PHI EPSILON FRATERNITY", "city": "NEW YORK", "state": "NY", "zip": "10017-4003", "ntee": "", "ruling": "197606", "deductibility": "2", "assets": 784473, "income": 398372, "revenue": 343389}, {"ein": "461763379", "name": "HOUSING VISIONS UNLIMITED INC MASS AVE COMM HOMES HOUSING DEV FU", "city": "SYRACUSE", "state": "NY", "zip": "13210-1953", "ntee": "", "ruling": "199208", "deductibility": "1", "assets": 0, "income": 0, "revenue": 0}, {"ein": "825460402", "name": "WITNESS TO MASS INCARCERATION INC", "city": "NEW YORK", "state": "NY", "zip": "10023-3813", "ntee": "P80", "ruling": "201904", "deductibility": "1", "assets": 81669, "income": 175505, "revenue": 175505}, {"ein": "832635899", "name": "LATIN MASS SOCIETY OF THE HUDSON VALLEY INC", "city": "POUGHKEEPSIE", "state": "NY", "zip": "12601-5240", "ntee": "N11", "ruling": "201903", "deductibility": "1", "assets": 0, "income": 0, "revenue": 0}, {"ein": "932663261", "name": "MASS FOUNDATION", "city": "PRT WASHINGTN", "state": "NY", "zip": "11050-2923", "ntee": "T50", "ruling": "202309", "deductibility": "1", "assets": 0, "income": 0, "revenue": 0}], "SHULEM": [{"ein": "061508865", "name": "KAREN AVRUHAM MEIR INC DBA OHER SHULEM", "city": "MONROE", "state": "NY", "zip": "10949-8532", "ntee": "X30Z", "ruling": "199805", "deductibility": "1", "assets": 0, "income": 0, "revenue": 0}, {"ein": "112488013", "name": "TIFERES TORAH C/O CONGREGATION PINCHAS SHULEM", "city": "BROOKLYN", "state": "NY", "zip": "11219-4116", "ntee": "", "ruling": "197903", "deductibility": "1", "assets": 0, "income": 0, "revenue": 0}, {"ein": "112959001", "name": "CONGREGATION TIFERES SHULEM D NADVORNA INC", "city": "BROOKLYN", "state": "NY", "zip": "11219-3970", "ntee": "", "ruling": "198905", "deductibility": "1", "assets": 0, "income": 0, "revenue": 0}, {"ein": "113041427", "name": "KEREN YESOMIM NEVEI SHULEM", "city": "BROOKLYN", "state": "NY", "zip": "11210-3714", "ntee": "", "ruling": "199104", "deductibility": "1", "assets": 0, "income": 0, "revenue": 0}, {"ein": "113574149", "name": "CONGREGATION AND YESHIVA TORAS SHULEM", "city": "BROOKLYN", "state": "NY", "zip": "11219-2633", "ntee": "X30", "ruling": "200105", "deductibility": "1", "assets": 0, "income": 0, "revenue": 0}, {"ein": "133998499", "name": "CONGREGATION AHAVAS SHULEM INC", "city": "SPRING VALLEY", "state": "NY", "zip": "10977-2517", "ntee": "X30Z", "ruling": "199805", "deductibility": "1", "assets": 0, "income": 0, "revenue": 0}, {"ein": "134087218", "name": "CONGREGATION MISHMERES SHULEM", "city": "SPRING VALLEY", "state": "NY", "zip": "10977-2501", "ntee": "X30", "ruling": "200011", "deductibility": "1", "assets": 0, "income": 0, "revenue": 0}, {"ein": "141804870", "name": "BAIS SHULEM", "city": "BROOKLYN", "state": "NY", "zip": "11211-6714", "ntee": "X30Z", "ruling": "199806", "deductibility": "1", "assets": 0, "income": 0, "revenue": 0}, {"ein": "200093317", "name": "KIPAS AHAVAS SHULEM", "city": "BROOKLYN", "state": "NY", "zip": "11219-2108", "ntee": "X30", "ruling": "200408", "deductibility": "1", "assets": 0, "income": 0, "revenue": 0}, {"ein": "365053615", "name": "CONG OHR SHULEM", "city": "BROOKLYN", "state": "NY", "zip": "11206-3169", "ntee": "X30", "ruling": "202305", "deductibility": "1", "assets": 0, "income": 0, "revenue": 0}, {"ein": "421555615", "name": "CONGREGATION EZRAS SHULEM", "city": "BROOKLYN", "state": "NY", "zip": "11219-3228", "ntee": "X30", "ruling": "200301", "deductibility": "1", "assets": 0, "income": 0, "revenue": 0}, {"ein": "450489589", "name": "SHULEM AL YISROEL", "city": "BROOKLYN", "state": "NY", "zip": "11206-4802", "ntee": "X30", "ruling": "200212", "deductibility": "1", "assets": 0, "income": 0, "revenue": 0}, {"ein": "470878099", "name": "CONGREGATION AHAVAS SHULEM", "city": "BROOKLYN", "state": "NY", "zip": "11206-4989", "ntee": "", "ruling": "198811", "deductibility": "1", "assets": 0, "income": 0, "revenue": 0}, {"ein": "753205579", "name": "CONG BIRCHAS SHULEM OF SVALYEVA INC", "city": "MONSEY", "state": "NY", "zip": "10952-0701", "ntee": "X30", "ruling": "200602", "deductibility": "1", "assets": 0, "income": 0, "revenue": 0}, {"ein": "810917633", "name": "SHULEM AND CHANY MERMELSTEIN FOUNDATION", "city": "AIRMONT", "state": "NY", "zip": "10952-3535", "ntee": "T22", "ruling": "201611", "deductibility": "1", "assets": 371790, "income": 89876, "revenue": 0}, {"ein": "821077099", "name": "SHULEM WEISS FOUNDATION", "city": "BROOKLYN", "state": "NY", "zip": "11205-2708", "ntee": "T20", "ruling": "201709", "deductibility": "1", "assets": 470256, "income": 113250, "revenue": 0}, {"ein": "844332564", "name": "CONGREGATION AHAVAS SHULEM MONSEY", "city": "MONSEY", "state": "NY", "zip": "10952-0514", "ntee": "X30", "ruling": "202005", "deductibility": "1", "assets": 0, "income": 0, "revenue": 0}, {"ein": "853013758", "name": "CONG SHARAI SHULEM VESHALVA", "city": "HIGHLAND MLS", "state": "NY", "zip": "10930-2702", "ntee": "X30", "ruling": "202401", "deductibility": "1", "assets": 0, "income": 0, "revenue": 0}, {"ein": "873145871", "name": "KHAL ZICHRON SHULEM DORSHAVA", "city": "MONSEY", "state": "NY", "zip": "10952-2622", "ntee": "X30", "ruling": "202210", "deductibility": "1", "assets": 0, "income": 0, "revenue": 0}, {"ein": "874413961", "name": "CONGREGATION CHASDEI SHULEM INC", "city": "BROOKLYN", "state": "NY", "zip": "11219-4138", "ntee": "X30", "ruling": "202204", "deductibility": "1", "assets": 0, "income": 0, "revenue": 0}, {"ein": "874678375", "name": "CONG DARKEI SHULEM INC", "city": "SUFFERN", "state": "NY", "zip": "10901-4014", "ntee": "X30", "ruling": "202303", "deductibility": "1", "assets": 0, "income": 0, "revenue": 0}, {"ein": "880587502", "name": "NER SHULEM INC", "city": "BROOKLYN", "state": "NY", "zip": "11211-8031", "ntee": "X30", "ruling": "202402", "deductibility": "1", "assets": 0, "income": 0, "revenue": 0}, {"ein": "931800533", "name": "CONG DOVER SHULEM RADVIL", "city": "MONSEY", "state": "NY", "zip": "10952-2732", "ntee": "X30", "ruling": "202308", "deductibility": "1", "assets": 0, "income": 0, "revenue": 0}], "VADERECH": [{"ein": "061563534", "name": "IVLECHTECU VADERECH", "city": "MONROE", "state": "NY", "zip": "10950-3874", "ntee": "X30", "ruling": "200002", "deductibility": "1", "assets": 0, "income": 0, "revenue": 0}], "BABA": [{"ein": "066391187", "name": "BABA BHAGAVANDAS PUBLICATION TR", "city": "MONROE", "state": "NY", "zip": "10950-5536", "ntee": "X99Z", "ruling": "199503", "deductibility": "1", "assets": 0, "income": 0, "revenue": 0}, {"ein": "113448953", "name": "GUFA SHIV BHAGAT BABA BALAK NATHJI INC", "city": "JAMAICA", "state": "NY", "zip": "11432-3320", "ntee": "X20", "ruling": "199902", "deductibility": "1", "assets": 0, "income": 0, "revenue": 0}, {"ein": "113455041", "name": "BABA MAKHAN SHAH LOBANA SIKH CENTER INC", "city": "S RICHMOND HL", "state": "NY", "zip": "11419-1141", "ntee": "X70", "ruling": "200006", "deductibility": "1", "assets": 2564783, "income": 1166415, "revenue": 1166415}, {"ein": "113496726", "name": "SHRI SIDH YOGI BABA BALAKH NATH INC", "city": "LONG IS CITY", "state": "NY", "zip": "11106-3920", "ntee": "X21", "ruling": "200003", "deductibility": "1", "assets": 0, "income": 0, "revenue": 0}, {"ein": "113632090", "name": "SHRI SHIRDI SAI BABA TEMPLE INC", "city": "FLUSHING", "state": "NY", "zip": "11355-3445", "ntee": "X70", "ruling": "200203", "deductibility": "1", "assets": 0, "income": 0, "revenue": 0}, {"ein": "134038021", "name": "HAJJI BABA INC", "city": "NEW YORK", "state": "NY", "zip": "10168-0000", "ntee": "A25", "ruling": "199911", "deductibility": "1", "assets": 0, "income": 0, "revenue": 0}, {"ein": "136271605", "name": "SOCIEY FOR AVATAR MEHER BABA", "city": "NEW YORK", "state": "NY", "zip": "10017-1005", "ntee": "", "ruling": "196804", "deductibility": "1", "assets": 0, "income": 0, "revenue": 0}, {"ein": "237112464", "name": "MEHER BABA HOUSE INC", "city": "NEW YORK", "state": "NY", "zip": "10014-2364", "ntee": "", "ruling": "197105", "deductibility": "1", "assets": 0, "income": 0, "revenue": 0}, {"ein": "273779654", "name": "BABA LOKENATH DHAM OF USA INC", "city": "ELMHURST", "state": "NY", "zip": "11373-4097", "ntee": "X70", "ruling": "201801", "deductibility": "1", "assets": 0, "income": 0, "revenue": 0}, {"ein": "333307836", "name": "BENGALI AMERICAN BOLDEST ASSOCIATION BABA INC", "city": "BROOKLYN", "state": "NY", "zip": "11216-1017", "ntee": "A23", "ruling": "202502", "deductibility": "1", "assets": 0, "income": 0, "revenue": 0}, {"ein": "800489896", "name": "BABA LAKKHI SHAH BANJARA CENTER OF NEW YORK", "city": "S RICHMOND HL", "state": "NY", "zip": "11419-1314", "ntee": "X21", "ruling": "201101", "deductibility": "1", "assets": 0, "income": 0, "revenue": 0}, {"ein": "830569931", "name": "SANT BABA PREM SINGH SIKH CULTURAL SOCIETY OF NY USA", "city": "LEVITTOWN", "state": "NY", "zip": "11756-2611", "ntee": "A23", "ruling": "202402", "deductibility": "1", "assets": 0, "income": 0, "revenue": 0}, {"ein": "990523383", "name": "BABA FATEH SINGH FOUNDATION INC", "city": "NEW HYDE PARK", "state": "NY", "zip": "11040-2910", "ntee": "N30", "ruling": "202407", "deductibility": "1", "assets": 0, "income": 0, "revenue": 0}], "ABIDING": [{"ein": "110108063", "name": "ABIDING PRESENCE LUTHERAN CHURCH", "city": "FORT SALONGA", "state": "NY", "zip": "11768-2536", "ntee": "", "ruling": "198804", "deductibility": "1", "assets": 0, "income": 0, "revenue": 0}, {"ein": "113523842", "name": "ABIDING LOVE CHRISTIAN CHURCH INC", "city": "BROOKLYN", "state": "NY", "zip": "11214-5312", "ntee": "X21", "ruling": "200011", "deductibility": "1", "assets": 0, "income": 0, "revenue": 0}, {"ein": "132807255", "name": "CHURCH OF THE ABIDING PRESENCE", "city": "BRONX", "state": "NY", "zip": "10472-2230", "ntee": "", "ruling": "198804", "deductibility": "1", "assets": 0, "income": 0, "revenue": 0}, {"ein": "134041218", "name": "HIS ABIDING PRESENCE EVANGELISTIC MINISTRIES INC", "city": "PELHAM", "state": "NY", "zip": "10803-8413", "ntee": "X20", "ruling": "200002", "deductibility": "1", "assets": 0, "income": 0, "revenue": 0}, {"ein": "141798572", "name": "ABIDING LIFE CHRISTIAN CHURCH", "city": "S GLENS FALLS", "state": "NY", "zip": "12803-4863", "ntee": "X20Z", "ruling": "199801", "deductibility": "1", "assets": 0, "income": 0, "revenue": 0}, {"ein": "272519080", "name": "ABIDING IN THE VINE", "city": "OLD BETHPAGE", "state": "NY", "zip": "11804-1708", "ntee": "P50", "ruling": "201010", "deductibility": "1", "assets": 0, "income": 0, "revenue": 0}, {"ein": "300566105", "name": "ABIDING FAITH MINISTRY INC", "city": "CLIFTON PARK", "state": "NY", "zip": "12065-2706", "ntee": "X20", "ruling": "201306", "deductibility": "1", "assets": 0, "income": 0, "revenue": 0}, {"ein": "320289013", "name": "ABIDING LOVE MINISTRIES SEVENTH DAY BAPTIST CHURCH", "city": "ROME", "state": "NY", "zip": "13442-4702", "ntee": "", "ruling": "200007", "deductibility": "1", "assets": 0, "income": 0, "revenue": 0}, {"ein": "464401933", "name": "ABIDING FAITH CHRISTIAN FELLOWSHIP CHURCH", "city": "ROCHESTER", "state": "NY", "zip": "14611-4214", "ntee": "X20", "ruling": "201412", "deductibility": "1", "assets": 0, "income": 0, "revenue": 0}, {"ein": "562316519", "name": "SOUTHSIDE FELLOWSHIP ABIDING IN CHRIST", "city": "WEST HENRIETTA", "state": "NY", "zip": "14586-9596", "ntee": "X20", "ruling": "200410", "deductibility": "1", "assets": 0, "income": 0, "revenue": 0}], "ISFAEL": [{"ein": "112068120", "name": "YESHIVAS RABBI LEIB KOVNER TIFERETH ISFAEL INC", "city": "JAMAICA", "state": "NY", "zip": "11427-1010", "ntee": "", "ruling": "196902", "deductibility": "1", "assets": 0, "income": 0, "revenue": 0}], "GER": [{"ein": "112417325", "name": "CONGREGATION MACHNE GER C O", "city": "BROOKLYN", "state": "NY", "zip": "11219-0776", "ntee": "", "ruling": "197704", "deductibility": "1", "assets": 0, "income": 0, "revenue": 0}, {"ein": "133272335", "name": "UNITED GER INSTITUTIONS", "city": "BROOKLYN", "state": "NY", "zip": "11204-1514", "ntee": "", "ruling": "198509", "deductibility": "1", "assets": 0, "income": 0, "revenue": 0}, {"ein": "237427664", "name": "CONGERGATION AVREICHEI D CHASIDEI GER", "city": "BKLYN", "state": "NY", "zip": "11219-4270", "ntee": "", "ruling": "197502", "deductibility": "1", "assets": 0, "income": 0, "revenue": 0}, {"ein": "474646610", "name": "CONGREGATION GER-STATEN ISLAND INC", "city": "STATEN ISLAND", "state": "NY", "zip": "10314-5026", "ntee": "X30", "ruling": "201706", "deductibility": "1", "assets": 0, "income": 0, "revenue": 0}, {"ein": "832385211", "name": "ALMANA VE GER CORP", "city": "FLUSHING", "state": "NY", "zip": "11367-3140", "ntee": "T50", "ruling": "202003", "deductibility": "1", "assets": 98373, "income": 269846, "revenue": 269846}, {"ein": "833680240", "name": "CONGREGATION GER 56", "city": "BROOKLYN", "state": "NY", "zip": "11219-3987", "ntee": "X30", "ruling": "202002", "deductibility": "1", "assets": 0, "income": 0, "revenue": 0}], "PATCHOGUE": [{"ein": "112433327", "name": "PATCHOGUE MEDFORD FRIENDS OF THE LIBRARY", "city": "PATCHOGUE", "state": "NY", "zip": "11772-0000", "ntee": "B11", "ruling": "201406", "deductibility": "1", "assets": 0, "income": 0, "revenue": 0}, {"ein": "112640740", "name": "PATCHOGUE-MEDFORD YOUTH SERVICES", "city": "PATCHOGUE", "state": "NY", "zip": "11772-4021", "ntee": "P30Z", "ruling": "198506", "deductibility": "1", "assets": 338628, "income": 350654, "revenue": 321935}, {"ein": "112722220", "name": "PATCHOGUE-MEDFORD YOUTH SOCCER LEAGUE INC", "city": "PATCHOGUE", "state": "NY", "zip": "11772-0454", "ntee": "N64Z", "ruling": "198506", "deductibility": "1", "assets": 119870, "income": 195029, "revenue": 195029}, {"ein": "112724402", "name": "LIONS CLUB OF PATCHOGUE INC", "city": "PATCHOGUE", "state": "NY", "zip": "11772-0611", "ntee": "S82", "ruling": "202008", "deductibility": "1", "assets": 23573, "income": 81263, "revenue": 81263}, {"ein": "112791014", "name": "NORTH PATCHOGUE VOLUNTEER EXEMPT", "city": "PATCHOGUE", "state": "NY", "zip": "11772-0000", "ntee": "T30", "ruling": "201507", "deductibility": "2", "assets": 1505127, "income": 404233, "revenue": 84054}, {"ein": "113037033", "name": "PATCHOGUE F D AMBULANCE COMPANY INC", "city": "PATCHOGUE", "state": "NY", "zip": "11772-3010", "ntee": "E62", "ruling": "200902", "deductibility": "1", "assets": 4469521, "income": 2949052, "revenue": 2928951}, {"ein": "113224632", "name": "GREATER PATCHOGUE HISTORICAL SOCIETY", "city": "PATCHOGUE", "state": "NY", "zip": "11772-0102", "ntee": "", "ruling": "199412", "deductibility": "1", "assets": 0, "income": 0, "revenue": 0}, {"ein": "113474111", "name": "PATCHOGUE COMMUNITY SERVICE FOUNDATION INC", "city": "PATCHOGUE", "state": "NY", "zip": "11772-0821", "ntee": "T31", "ruling": "199910", "deductibility": "1", "assets": 56704, "income": 319741, "revenue": 222056}, {"ein": "113501994", "name": "GREATER PATCHOGUE CHAMBER OF COMMERCE INC", "city": "PATCHOGUE", "state": "NY", "zip": "11772-2001", "ntee": "S41", "ruling": "200708", "deductibility": "2", "assets": 104790, "income": 386830, "revenue": 386830}, {"ein": "113586794", "name": "PATCHOGUE VILLAGE CENTER FOR THE PERFORMING ARTS INC", "city": "PATCHOGUE", "state": "NY", "zip": "11772-0767", "ntee": "A60", "ruling": "200204", "deductibility": "1", "assets": 1837153, "income": 4023769, "revenue": 3937269}, {"ein": "116036664", "name": "PILOT CLUB OF PATCHOGUE INC", "city": "PATCHOGUE", "state": "NY", "zip": "11772-0794", "ntee": "", "ruling": "201501", "deductibility": "2", "assets": 0, "income": 0, "revenue": 0}, {"ein": "116076275", "name": "PATCHOGUE HEBREW CEMETERY ASSOCIATION", "city": "PATCHOGUE", "state": "NY", "zip": "11772-0293", "ntee": "", "ruling": "196811", "deductibility": "1", "assets": 0, "income": 0, "revenue": 0}, {"ein": "261214462", "name": "SAVE PATCHOGUE LAKE COMMITTEE", "city": "PATCHOGUE", "state": "NY", "zip": "11772-2534", "ntee": "C32", "ruling": "200712", "deductibility": "1", "assets": 0, "income": 0, "revenue": 0}, {"ein": "262942036", "name": "PATCHOGUE ARTS COUNCIL INC", "city": "PATCHOGUE", "state": "NY", "zip": "11772-3877", "ntee": "A26", "ruling": "200902", "deductibility": "1", "assets": 189549, "income": 577940, "revenue": 577226}, {"ein": "271126357", "name": "IGLESIA PENTECOSTAL ROCA DE SALVACION DE PATCHOGUE INC", "city": "PATCHOGUE", "state": "NY", "zip": "11772-1336", "ntee": "X21", "ruling": "200410", "deductibility": "2", "assets": 1, "income": 98247, "revenue": 98247}, {"ein": "472112672", "name": "PATCHOGUE LIONESS LIONS FOUNDATION", "city": "PATCHOGUE", "state": "NY", "zip": "11772-0796", "ntee": "T50", "ruling": "201609", "deductibility": "1", "assets": 0, "income": 0, "revenue": 0}, {"ein": "611417255", "name": "GREATER PATCHOGUE FOUNDATION INC", "city": "PATCHOGUE", "state": "NY", "zip": "11772-2001", "ntee": "A80", "ruling": "200307", "deductibility": "1", "assets": 96724, "income": 198276, "revenue": 198276}, {"ein": "823066078", "name": "PATCHOGUE NEIGHBORS SOUP KITCHENS INC", "city": "PATCHOGUE", "state": "NY", "zip": "11772-0727", "ntee": "K30", "ruling": "201711", "deductibility": "1", "assets": 62628, "income": 60289, "revenue": 59739}, {"ein": "872610278", "name": "PATCHOGUE FIRE COMPANY INC", "city": "E PATCHOGUE", "state": "NY", "zip": "11772-5727", "ntee": "M02", "ruling": "202201", "deductibility": "1", "assets": 0, "income": 0, "revenue": 0}, {"ein": "874531968", "name": "PATCHOGUE MEDFORD HIGH SCHOOL BOYS VOLLEYBALL", "city": "MEDFORD", "state": "NY", "zip": "11763-4042", "ntee": "N12", "ruling": "202203", "deductibility": "1", "assets": 0, "income": 0, "revenue": 0}, {"ein": "900157308", "name": "LA IGLESIA EVANGELICA APOSTOLES Y PROFETAS EFE 2 20 OF PATCHOGUE NY", "city": "PATCHOGUE", "state": "NY", "zip": "11772-4119", "ntee": "", "ruling": "200309", "deductibility": "1", "assets": 0, "income": 0, "revenue": 0}, {"ein": "934590300", "name": "PATCHOGUE RIVER CHRISTMAS BOAT PARADE ASSOCIATION", "city": "PATCHOGUE", "state": "NY", "zip": "11772-0978", "ntee": "S80", "ruling": "202406", "deductibility": "1", "assets": 0, "income": 0, "revenue": 0}, {"ein": "992995652", "name": "NORTH PATCHOGUE FIRE DEPARTMENT INC", "city": "PATCHOGUE", "state": "NY", "zip": "11772-0000", "ntee": "M24", "ruling": "202406", "deductibility": "1", "assets": 0, "income": 0, "revenue": 0}], "VIGILAND": [{"ein": "112497558", "name": "VIGILAND VOLUNTEER EXEMPT FIREMANS BENEVOLENT ASSOC OF GREAT NECK NY", "city": "GREAT NECK", "state": "NY", "zip": "11021-3153", "ntee": "", "ruling": "198810", "deductibility": "2", "assets": 1242178, "income": 270411, "revenue": 270411}], "MATHEMATICAL": [{"ein": "112549680", "name": "MATHEMATICAL OLYMPIADS FOR ELEMENTARY SCHOOL INC", "city": "BELLMORE", "state": "NY", "zip": "11710-5645", "ntee": "B90", "ruling": "202109", "deductibility": "1", "assets": 667861, "income": 1186093, "revenue": 0}, {"ein": "520744057", "name": "CONFERENCE BOARD OF THE MATHEMATICAL SCIENCES", "city": "POUGHKEEPSIE", "state": "NY", "zip": "12604-0001", "ntee": "U34C", "ruling": "196202", "deductibility": "1", "assets": 321528, "income": 168499, "revenue": 168499}], "CHASUDIM": [{"ein": "112613669", "name": "GEMILAS CHASUDIM TIFERES CHAIM INC", "city": "BROOKLYN", "state": "NY", "zip": "11204-1404", "ntee": "", "ruling": "198210", "deductibility": "1", "assets": 0, "income": 0, "revenue": 0}, {"ein": "112619674", "name": "GEMILAS CHASUDIM RAV CHESED V EMES INC", "city": "BROOKLYN", "state": "NY", "zip": "11219-3908", "ntee": "", "ruling": "198212", "deductibility": "1", "assets": 0, "income": 0, "revenue": 0}, {"ein": "113083734", "name": "CHEVRA GOMLEI CHASUDIM", "city": "BROOKLYN", "state": "NY", "zip": "11210-3714", "ntee": "", "ruling": "199201", "deductibility": "1", "assets": 0, "income": 0, "revenue": 0}, {"ein": "113283420", "name": "GEMILOS CHASUDIM GEMACH BNEI LEVI INC", "city": "BROOKLYN", "state": "NY", "zip": "11210-3714", "ntee": "X30Z", "ruling": "199510", "deductibility": "1", "assets": 0, "income": 0, "revenue": 0}, {"ein": "133067102", "name": "GEMILAS CHASUDIM KEREN ELUZER INC", "city": "BROOKLYN", "state": "NY", "zip": "11211-8049", "ntee": "", "ruling": "198105", "deductibility": "1", "assets": 0, "income": 0, "revenue": 0}, {"ein": "134201633", "name": "CHASUDIM INC", "city": "BROOKLYN", "state": "NY", "zip": "11211-8036", "ntee": "X30", "ruling": "200203", "deductibility": "1", "assets": 0, "income": 0, "revenue": 0}, {"ein": "200454784", "name": "CHASUDIM RABIM INC", "city": "BROOKLYN", "state": "NY", "zip": "11206-5455", "ntee": "T30", "ruling": "200401", "deductibility": "1", "assets": 314391, "income": 6208, "revenue": 6208}, {"ein": "237357071", "name": "GEMILAS CHASUDIM OF KAHLEV", "city": "BROOKLYN", "state": "NY", "zip": "11211-7912", "ntee": "", "ruling": "197403", "deductibility": "1", "assets": 0, "income": 0, "revenue": 0}, {"ein": "301392738", "name": "CHASUDIM INC", "city": "BROOKLYN", "state": "NY", "zip": "11211-8031", "ntee": "W99", "ruling": "202504", "deductibility": "1", "assets": 0, "income": 0, "revenue": 0}, {"ein": "311725890", "name": "MIFAEL CHASUDIM TOVEM", "city": "MONROE", "state": "NY", "zip": "10950-5403", "ntee": "X30", "ruling": "200102", "deductibility": "1", "assets": 0, "income": 0, "revenue": 0}, {"ein": "332090261", "name": "GEMILAS CHASUDIM OF HATZOLAH", "city": "BROOKLYN", "state": "NY", "zip": "11205-1628", "ntee": "X30", "ruling": "202506", "deductibility": "1", "assets": 0, "income": 0, "revenue": 0}, {"ein": "510152340", "name": "WILLIAMSBURG GEMILAS CHASUDIM INC", "city": "BROOKLYN", "state": "NY", "zip": "11211-7813", "ntee": "", "ruling": "197508", "deductibility": "1", "assets": 0, "income": 0, "revenue": 0}, {"ein": "510172392", "name": "J A M GEMILAS CHASUDIM", "city": "BROOKLYN", "state": "NY", "zip": "11210-3714", "ntee": "", "ruling": "197511", "deductibility": "1", "assets": 0, "income": 0, "revenue": 0}, {"ein": "522221804", "name": "KEREN CHASUDIM", "city": "BEDFORD HILLS", "state": "NY", "zip": "10507-1233", "ntee": "X30", "ruling": "200307", "deductibility": "1", "assets": 0, "income": 0, "revenue": 0}, {"ein": "992955515", "name": "CHASUDIM RABIM FOUNDATION", "city": "SPRING VALLEY", "state": "NY", "zip": "10977-3636", "ntee": "T22", "ruling": "202405", "deductibility": "1", "assets": 0, "income": 0, "revenue": 0}], "HOROWITZ": [{"ein": "112814716", "name": "CONGREGATION & GMILAS CHESED OF DARKEI NOAM C/O HERSHEL HOROWITZ", "city": "BROOKLYN", "state": "NY", "zip": "11219-3605", "ntee": "", "ruling": "198703", "deductibility": "1", "assets": 0, "income": 0, "revenue": 0}, {"ein": "112842809", "name": "THE MELVIN STECHER AND NORMAN HOROWITZ FOUNDATION INC", "city": "NEW YORK", "state": "NY", "zip": "10022-2537", "ntee": "", "ruling": "198704", "deductibility": "1", "assets": 21443, "income": 10000, "revenue": 0}, {"ein": "237101730", "name": "GEDALE B & BARBARA S HOROWITZ FOUNDATION", "city": "NEW YORK", "state": "NY", "zip": "10006-0000", "ntee": "", "ruling": "197105", "deductibility": "1", "assets": 11514597, "income": 11317449, "revenue": 0}, {"ein": "237443019", "name": "STECHER AND HOROWITZ FOUNDATION", "city": "NEW YORK", "state": "NY", "zip": "10019-2400", "ntee": "A6E0", "ruling": "200009", "deductibility": "1", "assets": 1223529, "income": 195370, "revenue": 195370}, {"ein": "475499800", "name": "M & R HOROWITZ FOUNDATION INC", "city": "BROOKLYN", "state": "NY", "zip": "11204-1027", "ntee": "T20", "ruling": "201512", "deductibility": "1", "assets": 229858, "income": 111269, "revenue": 0}, {"ein": "830414279", "name": "SHELLY & LAWRENCE HOROWITZ FAMILY FOUNDATION INC", "city": "LONG BEACH", "state": "NY", "zip": "11561-3525", "ntee": "T22", "ruling": "200501", "deductibility": "1", "assets": 168974, "income": 4384, "revenue": 0}], "CARINESI": [{"ein": "112892429", "name": "CLUB DEI CARINESI DAMERICA INC", "city": "BROOKLYN", "state": "NY", "zip": "11214-1106", "ntee": "X22", "ruling": "201802", "deductibility": "1", "assets": 12956, "income": 56139, "revenue": 0}], "ADVACEMENT": [{"ein": "112945216", "name": "THE NEW YORK INSTITUTE FOR THE ADVACEMENT OF PARTICIPATORY DEMOCR", "city": "STATEN ISLAND", "state": "NY", "zip": "10302-2437", "ntee": "", "ruling": "198904", "deductibility": "1", "assets": 0, "income": 0, "revenue": 0}], "AMERICAINS": [{"ein": "112996714", "name": "ASSOCIATION DES INGENIEURS HAITIENS ET AMERICAINS", "city": "QUEENS VLG", "state": "NY", "zip": "11428-0731", "ntee": "B90", "ruling": "199303", "deductibility": "1", "assets": 0, "income": 0, "revenue": 0}], "GRENADA": [{"ein": "113033139", "name": "GRENADA BOYS SECONDARY SCHOOL ALUMNI ASSOCIATION OF NEW YORK INC", "city": "BROOKLYN", "state": "NY", "zip": "11213-0000", "ntee": "B84Z", "ruling": "199502", "deductibility": "1", "assets": 1, "income": 0, "revenue": 0}, {"ein": "113208448", "name": "GRENADA NEW YORK ADVENTIST", "city": "BROOKLYN", "state": "NY", "zip": "11203-2902", "ntee": "A23", "ruling": "201203", "deductibility": "1", "assets": 6251, "income": 6238, "revenue": 6238}, {"ein": "311799158", "name": "ST PATRICKS R C SCHOOL OF GRENADA EX STUDENTS ASSOCIATION INC", "city": "BROOKLYN", "state": "NY", "zip": "11226-4206", "ntee": "Q193", "ruling": "200202", "deductibility": "1", "assets": 0, "income": 0, "revenue": 0}, {"ein": "453106041", "name": "GRENADA CARRIACOU & PETIT MARTINIQUE NURSES ASSOCIATION OF A", "city": "BROOKLYN", "state": "NY", "zip": "11236-3118", "ntee": "E039", "ruling": "201201", "deductibility": "1", "assets": 0, "income": 0, "revenue": 0}, {"ein": "465333479", "name": "CHABAD JEWISH CENTER OF GRENADA INC", "city": "BROOKLYN", "state": "NY", "zip": "11213-5306", "ntee": "X30", "ruling": "202105", "deductibility": "1", "assets": 0, "income": 0, "revenue": 0}, {"ein": "800404388", "name": "GRENADA HELPING HANDS ORGANIZATION INC", "city": "BROOKLYN", "state": "NY", "zip": "11226-2018", "ntee": "Z99", "ruling": "201408", "deductibility": "1", "assets": 0, "income": 0, "revenue": 0}, {"ein": "832706717", "name": "GRENADA BUILT TO WIN INC", "city": "BRONX", "state": "NY", "zip": "10466-5024", "ntee": "N70", "ruling": "201812", "deductibility": "1", "assets": 0, "income": 0, "revenue": 0}, {"ein": "842357106", "name": "GRENADA CULTURAL FESTIVAL GROUP INC", "city": "BROOKLYN", "state": "NY", "zip": "11234-6089", "ntee": "A20", "ruling": "202208", "deductibility": "1", "assets": 0, "income": 0, "revenue": 0}, {"ein": "992619541", "name": "COUNCIL ON SUSTAINABLE FASHION AND DESIGN OF GRENADA", "city": "BROOKLYN", "state": "NY", "zip": "11236-4322", "ntee": "A25", "ruling": "202409", "deductibility": "1", "assets": 0, "income": 0, "revenue": 0}], "DAVAENO": [{"ein": "113076256", "name": "DAVAENO U S A INC", "city": "STATEN ISLAND", "state": "NY", "zip": "10301-1758", "ntee": "B82", "ruling": "201503", "deductibility": "1", "assets": 0, "income": 0, "revenue": 0}], "BREED": [{"ein": "113082432", "name": "OLD BREED RIFLE AND PISTOL CLUB INC", "city": "LEVITTOWN", "state": "NY", "zip": "11756-0036", "ntee": "", "ruling": "199209", "deductibility": "2", "assets": 0, "income": 0, "revenue": 0}, {"ein": "113516985", "name": "NEW BREED CHURCH OF THE JOSHUA AND CALEB MINISTRIES", "city": "BROOKLYN", "state": "NY", "zip": "11231-2457", "ntee": "X20", "ruling": "200005", "deductibility": "1", "assets": 0, "income": 0, "revenue": 0}, {"ein": "133352574", "name": "THE NEW BREED LIFE ARTS & EDUCATIONAL ASSOCIATION INC", "city": "NEW YORK", "state": "NY", "zip": "10030-2860", "ntee": "B99", "ruling": "201408", "deductibility": "1", "assets": 0, "income": 0, "revenue": 0}, {"ein": "161411965", "name": "HAMBURG ALL BREED OBEDIENCE CLUB INC", "city": "EAST AURORA", "state": "NY", "zip": "14052-9444", "ntee": "D60", "ruling": "201106", "deductibility": "2", "assets": 0, "income": 0, "revenue": 0}, {"ein": "472496385", "name": "RECYCLE A BULL BULLY BREED RESCUE INC", "city": "CLAY", "state": "NY", "zip": "13041-0174", "ntee": "D60", "ruling": "201508", "deductibility": "1", "assets": 0, "income": 0, "revenue": 0}, {"ein": "933763686", "name": "RARE BREED FOUNDATION", "city": "FARMINGDALE", "state": "NY", "zip": "11735-3841", "ntee": "O55", "ruling": "202312", "deductibility": "1", "assets": 0, "income": 0, "revenue": 0}], "PRACTITIONER": [{"ein": "113094464", "name": "NURSE PRACTITIONER ASSOCIATION OF LONG ISLAND INC", "city": "SMITHTOWN", "state": "NY", "zip": "11787-2804", "ntee": "", "ruling": "199212", "deductibility": "1", "assets": 237407, "income": 149449, "revenue": 149449}, {"ein": "132628055", "name": "TRAINING INSTITUTE FOR MENTAL HEALTH PRACTITIONER", "city": "NEW YORK", "state": "NY", "zip": "10016-0825", "ntee": "", "ruling": "197002", "deductibility": "1", "assets": 108027, "income": 510228, "revenue": 411489}, {"ein": "812041160", "name": "FERTILITYCARE CENTER OF ROCHESTERNY PRACTITIONER EDUCATIONPROGRAM INC", "city": "PITTSFORD", "state": "NY", "zip": "14534-2246", "ntee": "B60", "ruling": "201604", "deductibility": "1", "assets": 0, "income": 0, "revenue": 0}, {"ein": "812650750", "name": "NURSE PRACTITIONER ASSOCIATION NEW YORK STATE REGION 1 INC", "city": "CLIFTON PARK", "state": "NY", "zip": "12065-8645", "ntee": "E03", "ruling": "201806", "deductibility": "2", "assets": 0, "income": 0, "revenue": 0}, {"ein": "812668412", "name": "NURSE PRACTITIONER ASSOCIATION NEW YORK STATE REGION 2 INC", "city": "CLIFTON PARK", "state": "NY", "zip": "12065-8645", "ntee": "S41", "ruling": "201806", "deductibility": "2", "assets": 0, "income": 0, "revenue": 0}, {"ein": "812675535", "name": "NURSE PRACTITIONER ASSOCIATION NEW YORK STATE REGION 3 INC", "city": "CLIFTON PARK", "state": "NY", "zip": "12065-8645", "ntee": "E03", "ruling": "201806", "deductibility": "2", "assets": 0, "income": 0, "revenue": 0}, {"ein": "812715452", "name": "NURSE PRACTITIONER ASSOCIATION NEW YORK STATE REGION 4 INC", "city": "CLIFTON PARK", "state": "NY", "zip": "12065-8645", "ntee": "S41", "ruling": "201806", "deductibility": "2", "assets": 0, "income": 0, "revenue": 0}, {"ein": "812732123", "name": "NURSE PRACTITIONER ASSOCIATION NEW YORK STATE REGION 5 INC", "city": "CLIFTON PARK", "state": "NY", "zip": "12065-8645", "ntee": "S21", "ruling": "201806", "deductibility": "2", "assets": 0, "income": 0, "revenue": 0}, {"ein": "812757237", "name": "NURSE PRACTITIONER ASSOCIATION NEW YORK STATE REGION 6 INC", "city": "CLIFTON PARK", "state": "NY", "zip": "12065-8645", "ntee": "S41", "ruling": "201806", "deductibility": "2", "assets": 0, "income": 0, "revenue": 0}, {"ein": "833451590", "name": "CEDAR OF LEBANON FERTILITY CARE CENTER PRACTITIONER PROGRAM INC", "city": "YONKERS", "state": "NY", "zip": "10704-1919", "ntee": "B60", "ruling": "201903", "deductibility": "1", "assets": 0, "income": 0, "revenue": 0}], "HEIGHTEN": [{"ein": "113120961", "name": "COMMUNITIES ACTING TO HEIGHTEN AWARENESS AND LEARNING INC", "city": "W HEMPSTEAD", "state": "NY", "zip": "11552-2920", "ntee": "B28J", "ruling": "199311", "deductibility": "1", "assets": 1026755, "income": 763218, "revenue": 763218}, {"ein": "113155444", "name": "CHUM-COMMITTEE TO HEIGHTEN UPWARD MOBILITY", "city": "POQUOTT", "state": "NY", "zip": "11733-0000", "ntee": "A99", "ruling": "199407", "deductibility": "1", "assets": 0, "income": 0, "revenue": 0}], "BOATERS": [{"ein": "113181919", "name": "PARSONS LANDING BOATERS ASSOCIATION INC", "city": "ISLIP", "state": "NY", "zip": "11751-4131", "ntee": "N67", "ruling": "201804", "deductibility": "2", "assets": 0, "income": 0, "revenue": 0}, {"ein": "813094201", "name": "BOATERS AGAINST CANCER INC", "city": "KENDALL", "state": "NY", "zip": "14476-9621", "ntee": "P12", "ruling": "201701", "deductibility": "1", "assets": 10542, "income": 303, "revenue": 303}], "EINOYIM": [{"ein": "113184958", "name": "MEIRAS EINOYIM", "city": "MONSEY", "state": "NY", "zip": "10952-0010", "ntee": "", "ruling": "199401", "deductibility": "1", "assets": 0, "income": 0, "revenue": 0}], "CHITTAGONG": [{"ein": "113365153", "name": "CHITTAGONG ASSOCIATION OF NORTH AMERICA INC", "city": "BROOKLYN", "state": "NY", "zip": "11218-3884", "ntee": "P99", "ruling": "202105", "deductibility": "1", "assets": 200000, "income": 83276, "revenue": 83276}, {"ein": "472332627", "name": "CHITTAGONG HILL TRACTS FOUNDATION INC", "city": "WOODSIDE", "state": "NY", "zip": "11377-0155", "ntee": "A01", "ruling": "201411", "deductibility": "1", "assets": 0, "income": 0, "revenue": 0}, {"ein": "472625050", "name": "CHITTAGONG MEDICAL COLLEGE ALUMNI OF USA INC", "city": "BROOKLYN", "state": "NY", "zip": "11229-4910", "ntee": "Q33", "ruling": "201510", "deductibility": "1", "assets": 165825, "income": 204308, "revenue": 0}, {"ein": "871812488", "name": "CHITTAGONG UNIVERSITY ALUMNI ASSOCIATION NORTH AMERICA INC", "city": "JAMAICA", "state": "NY", "zip": "11432-1613", "ntee": "Y42", "ruling": "202110", "deductibility": "1", "assets": 0, "income": 0, "revenue": 0}], "RAHMEY": [{"ein": "113391169", "name": "DWECK AND RAHMEY FAMILY FOUNDATION", "city": "NEW YORK", "state": "NY", "zip": "10018-0000", "ntee": "T20Z", "ruling": "199712", "deductibility": "1", "assets": 132595, "income": 234000, "revenue": 0}], "PRAY": [{"ein": "113402870", "name": "UPPER ROOM OF PRAY INC", "city": "MERRICK", "state": "NY", "zip": "11566-0445", "ntee": "X20Z", "ruling": "199809", "deductibility": "1", "assets": 0, "income": 0, "revenue": 0}, {"ein": "113837412", "name": "HOLY GHOST HEADQUATER PRAY BAND MISSION", "city": "FAR ROCKAWAY", "state": "NY", "zip": "11690-0662", "ntee": "X21", "ruling": "201008", "deductibility": "1", "assets": 0, "income": 0, "revenue": 0}, {"ein": "161517651", "name": "CALL TO PRAY MINISTRIES INC", "city": "RENSSELAER", "state": "NY", "zip": "12144-0553", "ntee": "X21", "ruling": "200604", "deductibility": "1", "assets": 0, "income": 0, "revenue": 0}, {"ein": "272551103", "name": "PRAY TO THE LORD FOUNDATION", "city": "NEW YORK", "state": "NY", "zip": "10027-6308", "ntee": "X21", "ruling": "201203", "deductibility": "1", "assets": 316000, "income": 1, "revenue": 0}, {"ein": "861540935", "name": "PRAY IT FORWARD 26 INC", "city": "BROOKLYN", "state": "NY", "zip": "11233-4418", "ntee": "K30", "ruling": "202104", "deductibility": "1", "assets": 0, "income": 0, "revenue": 0}, {"ein": "863944881", "name": "PRAY MARCH ACT INC", "city": "BROOKLYN", "state": "NY", "zip": "11217-3202", "ntee": "X01", "ruling": "202112", "deductibility": "1", "assets": 6446, "income": 122709, "revenue": 116892}, {"ein": "922159350", "name": "PRAY FOR ME MINISTRY CORP", "city": "ROCKAWAY PARK", "state": "NY", "zip": "11694-2662", "ntee": "X21", "ruling": "202304", "deductibility": "1", "assets": 0, "income": 0, "revenue": 0}, {"ein": "933129341", "name": "PRAY FOR ME INC", "city": "FOREST HILLS", "state": "NY", "zip": "11375-4799", "ntee": "S20", "ruling": "202309", "deductibility": "1", "assets": 0, "income": 0, "revenue": 0}, {"ein": "993400463", "name": "DOGS PRAY TOO", "city": "BAYVILLE", "state": "NY", "zip": "11709-1309", "ntee": "W12", "ruling": "202407", "deductibility": "1", "assets": 0, "income": 0, "revenue": 0}], "POETIC": [{"ein": "113425970", "name": "LIFE IN ITS POETIC FORM CHRISTIAN MINISTRIES INC", "city": "BROOKLYN", "state": "NY", "zip": "11202-3503", "ntee": "X21", "ruling": "201308", "deductibility": "1", "assets": 0, "income": 0, "revenue": 0}, {"ein": "333623453", "name": "POETIC PHONOTHEQUE INC", "city": "NEW YORK", "state": "NY", "zip": "10001-5666", "ntee": "A20", "ruling": "202503", "deductibility": "1", "assets": 0, "income": 0, "revenue": 0}, {"ein": "800688254", "name": "THE POETIC FOUNDATION INC", "city": "STATEN ISLAND", "state": "NY", "zip": "10308-2414", "ntee": "H123", "ruling": "201202", "deductibility": "1", "assets": 96683, "income": 177467, "revenue": 177467}, {"ein": "922415482", "name": "SOCIETY FOR POETIC COMPUTATION INC", "city": "BROOKLYN", "state": "NY", "zip": "11233-5543", "ntee": "B60", "ruling": "202403", "deductibility": "1", "assets": 0, "income": 0, "revenue": 0}], "OHEKA": [{"ein": "113426914", "name": "FRIENDS OF OHEKA INC", "city": "LONG BEACH", "state": "NY", "zip": "11561-4051", "ntee": "B99", "ruling": "200203", "deductibility": "1", "assets": 33539, "income": 57757, "revenue": 28275}], "BENEV": [{"ein": "113448754", "name": "METROPOLITAN TRANSPORTATION AUTHORITY POLICE BENEV ASSOC INC", "city": "ROCKVILLE CTR", "state": "NY", "zip": "11570-3701", "ntee": "J40", "ruling": "199912", "deductibility": "2", "assets": 3233803, "income": 2144817, "revenue": 2117479}, {"ein": "222525909", "name": "TROY POLICE BENEV PROTECTIVE ASSOC OF THE CITY OF TROY NY INC", "city": "TROY", "state": "NY", "zip": "12181-1041", "ntee": "", "ruling": "198706", "deductibility": "2", "assets": 177030, "income": 133094, "revenue": 133094}, {"ein": "237325686", "name": "TRIBOROUGH BRIDGE AND TUNNEL AUTHORITY SUPERIOR OFF BENEV ASSN", "city": "FLORAL PARK", "state": "NY", "zip": "11001-1974", "ntee": "", "ruling": "197405", "deductibility": "2", "assets": 610211, "income": 153487, "revenue": 153487}, {"ein": "901179819", "name": "VOLUNTEER & EXEMPT FIREMENS BENEV", "city": "EAST MEADOW", "state": "NY", "zip": "11554-2835", "ntee": "P50", "ruling": "201905", "deductibility": "2", "assets": 2405297, "income": 262986, "revenue": 262986}], "CORRECT": [{"ein": "113453739", "name": "CORRECT HEALTH IN HAITI INC", "city": "QUEENS VLG", "state": "NY", "zip": "11427-1715", "ntee": "Q30", "ruling": "200203", "deductibility": "1", "assets": 0, "income": 0, "revenue": 0}], "JUNIORS": [{"ein": "113525187", "name": "CREOLE JUNIORS BIG APPLE VOLLEYBALL CLUB INC", "city": "JAMAICA", "state": "NY", "zip": "11434-3328", "ntee": "N60", "ruling": "200810", "deductibility": "1", "assets": 46709, "income": 133702, "revenue": 133702}, {"ein": "142008676", "name": "DOWNSTATE JUNIORS VBC INC", "city": "PEEKSKILL", "state": "NY", "zip": "10566-5350", "ntee": "N60", "ruling": "201406", "deductibility": "1", "assets": 105268, "income": 2426336, "revenue": 2426336}, {"ein": "510243562", "name": "INFANTS CHILDRENS AND JUNIORS APPAREL FUND", "city": "SYOSSET", "state": "NY", "zip": "11791-3434", "ntee": "", "ruling": "197402", "deductibility": "2", "assets": 0, "income": 0, "revenue": 0}], "EXECUTIVE": [{"ein": "113528190", "name": "EXECUTIVE WOMENS GOLF ASSOCIATION INC", "city": "MEDFORD", "state": "NY", "zip": "11763-1566", "ntee": "N6A", "ruling": "199705", "deductibility": "2", "assets": 53519, "income": 122097, "revenue": 122097}, {"ein": "132735995", "name": "COSMETIC EXECUTIVE WOMEN INC", "city": "NEW YORK", "state": "NY", "zip": "10107-0999", "ntee": "", "ruling": "197403", "deductibility": "2", "assets": 14050224, "income": 8759271, "revenue": 6669396}, {"ein": "132776149", "name": "ASSOCIATION OF EXECUTIVE SEARCH CONSULTANTS INC", "city": "NEW YORK", "state": "NY", "zip": "10017-5455", "ntee": "", "ruling": "196703", "deductibility": "2", "assets": 1699528, "income": 6742153, "revenue": 4816289}, {"ein": "132910091", "name": "NATIONAL EXECUTIVE SERVICE CORPS", "city": "NEW YORK", "state": "NY", "zip": "10017-2422", "ntee": "S50Z", "ruling": "197711", "deductibility": "1", "assets": 639195, "income": 286920, "revenue": 267345}, {"ein": "133563114", "name": "COSMETIC EXECUTIVE WOMEN FOUNDATION LTD", "city": "NEW YORK", "state": "NY", "zip": "10107-0999", "ntee": "P85Z", "ruling": "199404", "deductibility": "1", "assets": 7386186, "income": 3334437, "revenue": 2811734}, {"ein": "134009503", "name": "EXECUTIVE WOMENS GOLF ASSOCIATION INC", "city": "BRONX", "state": "NY", "zip": "10465-4012", "ntee": "", "ruling": "199705", "deductibility": "2", "assets": 64319, "income": 133749, "revenue": 133749}, {"ein": "134053580", "name": "NGODPI EXECUTIVE COMMITTEE AFFILIATED WITH UNITED NATIONS", "city": "NEW YORK", "state": "NY", "zip": "10017-3521", "ntee": "Q420", "ruling": "199906", "deductibility": "1", "assets": 0, "income": 0, "revenue": 0}, {"ein": "141793091", "name": "EXECUTIVE WOMENS GOLF ASSOCIATION INC", "city": "LATHAM", "state": "NY", "zip": "12110-0208", "ntee": "S41", "ruling": "199705", "deductibility": "2", "assets": 16948, "income": 89237, "revenue": 89237}, {"ein": "141975312", "name": "EXECUTIVE SERVICE CORPS UNITED STATES", "city": "BROOKLYN", "state": "NY", "zip": "11201-3423", "ntee": "S50", "ruling": "200707", "deductibility": "1", "assets": 0, "income": 0, "revenue": 0}, {"ein": "161335995", "name": "LONG TERM CARE EXECUTIVE COUNCIL OF CNY INC", "city": "SYRACUSE", "state": "NY", "zip": "13201-0934", "ntee": "", "ruling": "198903", "deductibility": "2", "assets": 72528, "income": 75230, "revenue": 75230}, {"ein": "161558836", "name": "HEALTHCARE EXECUTIVE FORUM INC", "city": "BUFFALO", "state": "NY", "zip": "14203-1560", "ntee": "E02", "ruling": "199904", "deductibility": "2", "assets": 0, "income": 0, "revenue": 0}, {"ein": "222188507", "name": "HOSPITAL EXECUTIVE COUNCIL RONALD LAGOR EXECUTIVE DIRECTOR", "city": "SYRACUSE", "state": "NY", "zip": "13209-1027", "ntee": "E21Z", "ruling": "197805", "deductibility": "1", "assets": 430130, "income": 393588, "revenue": 393588}, {"ein": "264593002", "name": "NEW YORK MARINE EXECUTIVE ASSOCIATION", "city": "NEW YORK", "state": "NY", "zip": "10036-2711", "ntee": "W30", "ruling": "201005", "deductibility": "1", "assets": 0, "income": 0, "revenue": 0}, {"ein": "271535111", "name": "EXECUTIVE ASSOCIATION OF WESTCHESTER INC", "city": "MT VERNON", "state": "NY", "zip": "10550-4540", "ntee": "T99", "ruling": "201012", "deductibility": "1", "assets": 78671, "income": 38129, "revenue": 38129}, {"ein": "300075905", "name": "EXECUTIVE LEADERSHIP INSTITUTE", "city": "NEW YORK", "state": "NY", "zip": "10006-1729", "ntee": "B19", "ruling": "200210", "deductibility": "1", "assets": 2101925, "income": 1745102, "revenue": 1745102}, {"ein": "364163577", "name": "INTERNATIONAL POLICE EXECUTIVE SYMPOSIUM", "city": "ALBANY", "state": "NY", "zip": "12203-5309", "ntee": "A99Z", "ruling": "199806", "deductibility": "1", "assets": 1741, "income": 36070, "revenue": 12411}, {"ein": "412121732", "name": "EXECUTIVE WOMENS GOLF ASSOCIATION INC", "city": "SYRACUSE", "state": "NY", "zip": "13218-2161", "ntee": "S41", "ruling": "199705", "deductibility": "2", "assets": 0, "income": 0, "revenue": 0}, {"ein": "464248304", "name": "MOUNT SINAI HEALTH SYSTEM EXECUTIVE V P FOR FINANCE", "city": "NEW YORK", "state": "NY", "zip": "10029-6504", "ntee": "P20", "ruling": "201408", "deductibility": "1", "assets": 0, "income": 100342291, "revenue": 100342291}, {"ein": "465255711", "name": "DELTA BETA EXECUTIVE ALUMNI FOUNDATION", "city": "JERICHO", "state": "NY", "zip": "11753-0595", "ntee": "T30", "ruling": "201501", "deductibility": "1", "assets": 11618, "income": 750, "revenue": 750}, {"ein": "472329680", "name": "EXECUTIVE CLUB OF STATEN ISLAND INC", "city": "STATEN ISLAND", "state": "NY", "zip": "10310-2507", "ntee": "N50", "ruling": "202302", "deductibility": "2", "assets": 66190, "income": 42762, "revenue": 42762}, {"ein": "475143527", "name": "EXECUTIVE DIRECTOR NETWORK INC", "city": "GARNERVILLE", "state": "NY", "zip": "10923-1922", "ntee": "T50", "ruling": "201705", "deductibility": "1", "assets": 98863, "income": 354419, "revenue": 354419}, {"ein": "680652458", "name": "EXECUTIVE WOMENS GOLF ASSOCIATION INC", "city": "PITTSFORD", "state": "NY", "zip": "14534-0863", "ntee": "", "ruling": "199705", "deductibility": "2", "assets": 22380, "income": 97261, "revenue": 17469}, {"ein": "825364923", "name": "EXECUTIVE SERVICE NETWORK INC", "city": "BROOKLYN", "state": "NY", "zip": "11217-2180", "ntee": "Q12", "ruling": "201903", "deductibility": "1", "assets": 0, "income": 0, "revenue": 0}, {"ein": "843630243", "name": "YOUTH EXECUTIVE OFFICER INC", "city": "BROOKLYN", "state": "NY", "zip": "11215-3616", "ntee": "O50", "ruling": "202012", "deductibility": "1", "assets": 0, "income": 0, "revenue": 0}, {"ein": "871822456", "name": "EXECUTIVE LEADERSHIP DEVELOPMENT COUNCIL INC", "city": "NEW YORK", "state": "NY", "zip": "10033-3048", "ntee": "B03", "ruling": "202111", "deductibility": "1", "assets": 0, "income": 0, "revenue": 0}, {"ein": "883907976", "name": "BRONX EXECUTIVE PEARLS FUND INC", "city": "WEST HARRISON", "state": "NY", "zip": "10604-2155", "ntee": "B99", "ruling": "202209", "deductibility": "1", "assets": 0, "income": 0, "revenue": 0}], "CTY": [{"ein": "131623859", "name": "RECTOR CHURCH WARDENS & VESTRYMEN OF CHURCH OF EPIPHANY OF CTY OF NY", "city": "NEW YORK", "state": "NY", "zip": "10021-3701", "ntee": "", "ruling": "195006", "deductibility": "1", "assets": 0, "income": 0, "revenue": 0}, {"ein": "132851543", "name": "RECTOR CHURCH WARDENS & VSTRY MMBRS OF THE CHRCH INTRCSSN CTY&CNTY NY", "city": "NEW YORK", "state": "NY", "zip": "10032-7801", "ntee": "", "ruling": "197810", "deductibility": "1", "assets": 0, "income": 0, "revenue": 0}, {"ein": "133199275", "name": "FIRST REFORMED PROTESTANT DUTCH CHURCH IN CLARKSTOWN ROCKLAND CTY", "city": "WEST NYACK", "state": "NY", "zip": "10994-1500", "ntee": "", "ruling": "198601", "deductibility": "1", "assets": 0, "income": 0, "revenue": 0}, {"ein": "133214674", "name": "WESTCHESTER CTY SOCCER REFER SOC INC", "city": "OSSINING", "state": "NY", "zip": "10562-2544", "ntee": "N99", "ruling": "201407", "deductibility": "1", "assets": 0, "income": 0, "revenue": 0}, {"ein": "136183014", "name": "INDUSTRY ADVANCEMENT FUND MASTER PLMBR ASSOC OF ROCKLAND CTY & VIC", "city": "WARWICK", "state": "NY", "zip": "10990-0000", "ntee": "", "ruling": "197109", "deductibility": "2", "assets": 661595, "income": 166976, "revenue": 166976}, {"ein": "161102449", "name": "DELAWARE CTY FIREMENS ASSN STATE OF NEW YORK", "city": "DELHI", "state": "NY", "zip": "13753-3518", "ntee": "M24", "ruling": "202302", "deductibility": "1", "assets": 191852, "income": 47655, "revenue": 47655}, {"ein": "202656477", "name": "MENTAL RETARDATION COMMUNITY SERV OF NASSAU CTY-PROJECT II INC", "city": "BROOKVILLE", "state": "NY", "zip": "11545-2641", "ntee": "L21", "ruling": "200609", "deductibility": "1", "assets": 1183465, "income": 50781, "revenue": 50781}, {"ein": "260686825", "name": "POLISH AMERICAN CREATIVITY SOCIETY FOR CHILDREN OF ROCKLAND CTY NY IN", "city": "NANUET", "state": "NY", "zip": "10954-5108", "ntee": "A23", "ruling": "200906", "deductibility": "1", "assets": 4233, "income": 3463, "revenue": 3463}, {"ein": "800340460", "name": "CSEA UNIT 0870-831603 SUFFOLK CTY EASTPORT SOUTH MANOR CSD CLERICAL", "city": "WEST BABYLON", "state": "NY", "zip": "11704-3930", "ntee": "J40", "ruling": "201410", "deductibility": "2", "assets": 0, "income": 0, "revenue": 0}, {"ein": "815033314", "name": "TOWN AND MUNI HIGHWAY ASSOC OF STEU CTY INC", "city": "CANISTEO", "state": "NY", "zip": "14823-9768", "ntee": "S03", "ruling": "201706", "deductibility": "2", "assets": 0, "income": 0, "revenue": 0}, {"ein": "852226222", "name": "SUFFOLK CTY ASSN MUN EMPLOYEES SUPPLEMENT BENEFITS FD TR", "city": "BOHEMIA", "state": "NY", "zip": "11716-2513", "ntee": "Y43", "ruling": "202104", "deductibility": "2", "assets": 13348500, "income": 3508500, "revenue": 3508500}], "CYCLE": [{"ein": "132840705", "name": "NEW YORK CYCLE CLUB INC", "city": "NEW YORK", "state": "NY", "zip": "10163-4474", "ntee": "N50", "ruling": "202005", "deductibility": "1", "assets": 280071, "income": 167756, "revenue": 167756}, {"ein": "134179409", "name": "WESTCHESTER CYCLE CLUB INC", "city": "WHITE PLAINS", "state": "NY", "zip": "10602-0686", "ntee": "N60", "ruling": "201008", "deductibility": "1", "assets": 76371, "income": 27120, "revenue": 27120}, {"ein": "271175814", "name": "CYCLE CONNECT INC", "city": "NEW YORK", "state": "NY", "zip": "10001-7604", "ntee": "Q33", "ruling": "201301", "deductibility": "1", "assets": 408378, "income": 671360, "revenue": 671360}, {"ein": "306046209", "name": "CYCLE FOUNDATION", "city": "NEW YORK", "state": "NY", "zip": "10021-4954", "ntee": "T22", "ruling": "200302", "deductibility": "1", "assets": 1170211, "income": 1183383, "revenue": 0}, {"ein": "463408963", "name": "ARCTIC CYCLE", "city": "NEW YORK", "state": "NY", "zip": "10012-2410", "ntee": "A65", "ruling": "201503", "deductibility": "1", "assets": 27552, "income": 49372, "revenue": 49372}, {"ein": "472415192", "name": "WE FUTURE CYCLE INC", "city": "NEW ROCHELLE", "state": "NY", "zip": "10804-2238", "ntee": "C27", "ruling": "201501", "deductibility": "1", "assets": 11779, "income": 68596, "revenue": 68596}, {"ein": "472623955", "name": "FINANCIAL LIFE CYCLE EDUCATION CORP", "city": "NEW YORK", "state": "NY", "zip": "10012-2420", "ntee": "B99", "ruling": "201606", "deductibility": "1", "assets": 80942, "income": 798859, "revenue": 0}, {"ein": "824163749", "name": "VIE CYCLE LLC", "city": "ITHACA", "state": "NY", "zip": "14850-6356", "ntee": "P80", "ruling": "202406", "deductibility": "1", "assets": 0, "income": 0, "revenue": 0}, {"ein": "844725831", "name": "CYCLE SCHENECTADY INC", "city": "SCHENECTADY", "state": "NY", "zip": "12309-6114", "ntee": "N01", "ruling": "202004", "deductibility": "1", "assets": 0, "income": 0, "revenue": 0}, {"ein": "863209430", "name": "BREAKING THE CYCLE DROP CORP", "city": "BROOKLYN", "state": "NY", "zip": "11223-5945", "ntee": "P12", "ruling": "202107", "deductibility": "1", "assets": 0, "income": 0, "revenue": 0}, {"ein": "882613482", "name": "BROOKLYN BADBOYZ MOTOR CYCLE CLUB INC", "city": "BROOKLYN", "state": "NY", "zip": "11221-6679", "ntee": "T50", "ruling": "202210", "deductibility": "1", "assets": 0, "income": 0, "revenue": 0}, {"ein": "923378753", "name": "BREAK THE CYCLE TODAY INC", "city": "BROOKLYN", "state": "NY", "zip": "11236-4702", "ntee": "O50", "ruling": "202306", "deductibility": "1", "assets": 0, "income": 0, "revenue": 0}, {"ein": "992833255", "name": "CYCLE INGO USA", "city": "NEW YORK", "state": "NY", "zip": "10032-5357", "ntee": "E99", "ruling": "202406", "deductibility": "1", "assets": 0, "income": 0, "revenue": 0}], "DECORATING": [{"ein": "133037968", "name": "JOINT TRADE COMMITTEE OF THE PAINTING AND DECORATING INDUSTRY", "city": "NEW YORK", "state": "NY", "zip": "10001-3967", "ntee": "", "ruling": "198804", "deductibility": "2", "assets": 258412, "income": 126766, "revenue": 126766}, {"ein": "237355366", "name": "PAINTING & DECORATING CONTRACTORS OF AMERICA", "city": "W HEMPSTEAD", "state": "NY", "zip": "11552-1112", "ntee": "", "ruling": "197401", "deductibility": "2", "assets": 0, "income": 0, "revenue": 0}], "MARQUIS": [{"ein": "133047206", "name": "MARQUIS STUDIOS LTD", "city": "BROOKLYN", "state": "NY", "zip": "11201-8306", "ntee": "A250", "ruling": "198101", "deductibility": "1", "assets": 2533823, "income": 3172380, "revenue": 3142014}, {"ein": "237000227", "name": "DAISY MARQUIS JONES FOUNDATION", "city": "ROCHESTER", "state": "NY", "zip": "14620-3925", "ntee": "", "ruling": "199308", "deductibility": "1", "assets": 46702212, "income": 8932631, "revenue": 0}], "KJK": [{"ein": "133221709", "name": "KJK PRODUCTIONS INC", "city": "JEFFERSON VLY", "state": "NY", "zip": "10535-0827", "ntee": "A250", "ruling": "198501", "deductibility": "1", "assets": 79085, "income": 607726, "revenue": 607257}], "CANTORI": [{"ein": "133235274", "name": "I CANTORI DI NEW YORK INC", "city": "NEW YORK", "state": "NY", "zip": "10185-1376", "ntee": "", "ruling": "198710", "deductibility": "1", "assets": 351923, "income": 221975, "revenue": 215488}], "SVCES": [{"ein": "133255406", "name": "STATEN ISLAND COMMITTEE ON CHILD & ADOLESCENT MENTAL HEALTH SVCES INC", "city": "STATEN ISLAND", "state": "NY", "zip": "10301-2417", "ntee": "F30", "ruling": "200412", "deductibility": "1", "assets": 0, "income": 0, "revenue": 0}], "BRINE": [{"ein": "133549098", "name": "JESSICA E SMITH AND KEVIN R BRINE CHARITABLE TRUST", "city": "SOUTHAMPTON", "state": "NY", "zip": "11968-5129", "ntee": "T20", "ruling": "199008", "deductibility": "1", "assets": 1, "income": 108585, "revenue": 0}], "ARTWATCH": [{"ein": "133664043", "name": "ARTWATCH INTERNATIONAL INCORPORATED", "city": "NEW YORK", "state": "NY", "zip": "10150-1708", "ntee": "A250", "ruling": "199210", "deductibility": "1", "assets": 0, "income": 0, "revenue": 0}], "DEAFVISION": [{"ein": "133667799", "name": "DEAFVISION FILMWORKS INC", "city": "NEWYORK", "state": "NY", "zip": "10026-0000", "ntee": "Z99Z", "ruling": "199506", "deductibility": "1", "assets": 0, "income": 0, "revenue": 0}], "GUSTAV": [{"ein": "133910537", "name": "THE GUSTAV MAHLER SOCIETY OF NEW YORK INC", "city": "JACKSON HTS", "state": "NY", "zip": "11372-8786", "ntee": "A80", "ruling": "201403", "deductibility": "1", "assets": 0, "income": 0, "revenue": 0}, {"ein": "812780479", "name": "GUSTAV STICKLEY HOUSE FOUNDATION INC", "city": "SYRACUSE", "state": "NY", "zip": "13217-1700", "ntee": "A20", "ruling": "201701", "deductibility": "1", "assets": 560888, "income": 84298, "revenue": 84298}], "STOCKHAUSEN": [{"ein": "133913381", "name": "M N EMMERMAN AND P A STOCKHAUSEN FOUNDATION INC", "city": "NEW YORK", "state": "NY", "zip": "10065-7405", "ntee": "T20Z", "ruling": "199710", "deductibility": "1", "assets": 1178706, "income": 480882, "revenue": 0}], "GINAS": [{"ein": "133932651", "name": "CONGREGATION MERKAZ GINAS VERODIM", "city": "FLUSHING", "state": "NY", "zip": "11367-1617", "ntee": "X30Z", "ruling": "199705", "deductibility": "1", "assets": 0, "income": 0, "revenue": 0}], "TWINNING": [{"ein": "133944983", "name": "RAMAPO-ISRAELI TWINNING COMMITTEE INC", "city": "SUFFERN", "state": "NY", "zip": "10901-5312", "ntee": "Q22", "ruling": "200511", "deductibility": "1", "assets": 0, "income": 0, "revenue": 0}, {"ein": "372095381", "name": "TWINNING PROJECT INC", "city": "NEW YORK", "state": "NY", "zip": "10021-5248", "ntee": "I43", "ruling": "202401", "deductibility": "1", "assets": 0, "income": 0, "revenue": 0}], "MARGARITA": [{"ein": "133978602", "name": "THE MARGARITA AND JOHN HENNESSY FAMILY FOUNDATION", "city": "NEW YORK", "state": "NY", "zip": "10036-2714", "ntee": "T30", "ruling": "199906", "deductibility": "1", "assets": 1132070, "income": 90843, "revenue": 0}, {"ein": "204272295", "name": "MARGARITA AND JOHN HENNESSYCHARITABLE FOUNDATION", "city": "NEW YORK", "state": "NY", "zip": "10036-2714", "ntee": "T20", "ruling": "200607", "deductibility": "1", "assets": 107646, "income": 8009, "revenue": 0}], "LAU": [{"ein": "134102501", "name": "LAU WANG SUEY FRATERNITY OF N Y INC", "city": "NEW YORK", "state": "NY", "zip": "10013-5177", "ntee": "P84", "ruling": "200103", "deductibility": "1", "assets": 0, "income": 0, "revenue": 0}, {"ein": "272049290", "name": "LAU HEALTH FOUNDATION INC", "city": "NEW YORK", "state": "NY", "zip": "10017-2912", "ntee": "B114", "ruling": "201007", "deductibility": "1", "assets": 685226, "income": 1013233, "revenue": 1013233}], "VICENTE": [{"ein": "134182614", "name": "HARRIET AND ESTEBAN VICENTE FOUNDATION", "city": "NEW YORK", "state": "NY", "zip": "10018-6527", "ntee": "A20", "ruling": "200111", "deductibility": "1", "assets": 12225928, "income": 1758926, "revenue": 0}], "HEBRA": [{"ein": "136112738", "name": "HEBRA HASED VA-AMET", "city": "NEW YORK", "state": "NY", "zip": "10023-4601", "ntee": "", "ruling": "193505", "deductibility": "1", "assets": 0, "income": 0, "revenue": 0}], "ZIEGFELD": [{"ein": "136132726", "name": "ZIEGFELD CLUB INC", "city": "NEW YORK", "state": "NY", "zip": "10065-7309", "ntee": "", "ruling": "196010", "deductibility": "1", "assets": 65574, "income": 3677, "revenue": 3677}], "ITED": [{"ein": "141319439", "name": "VETERANS OF FOREEIGN WARS OF THE IN ITED STATES DEPARTMENT OF NEW YORK", "city": "ALBANY", "state": "NY", "zip": "12209-1414", "ntee": "", "ruling": "197210", "deductibility": "1", "assets": 0, "income": 0, "revenue": 0}], "HORTONVILLE": [{"ein": "141421197", "name": "HORTONVILLE CEMETERY INC", "city": "CALLICOON", "state": "NY", "zip": "12723-6321", "ntee": "Y50", "ruling": "201805", "deductibility": "1", "assets": 0, "income": 0, "revenue": 0}], "DOVER": [{"ein": "141493720", "name": "DOVER PLAINS LIBRARY ASSOCIATION", "city": "WINGDALE", "state": "NY", "zip": "12594-0534", "ntee": "B70", "ruling": "199911", "deductibility": "1", "assets": 576939, "income": 293944, "revenue": 293944}, {"ein": "141591910", "name": "TOWN OF DOVER HISTORICAL SOCIETY INC", "city": "DOVER PLAINS", "state": "NY", "zip": "12522-0767", "ntee": "A82Z", "ruling": "197806", "deductibility": "1", "assets": 0, "income": 0, "revenue": 0}, {"ein": "146147066", "name": "DOVER WINGDALE TEACHERS ASSOCIATION WELFARE TR FUND", "city": "DOVER PLAINS", "state": "NY", "zip": "12522-5300", "ntee": "", "ruling": "000000", "deductibility": "0", "assets": 229436, "income": 277670, "revenue": 277670}, {"ein": "161532373", "name": "DOVER UNITED YOUTH SOCCER CLUB INC", "city": "WINGDALE", "state": "NY", "zip": "12594-0504", "ntee": "N64Z", "ruling": "199711", "deductibility": "1", "assets": 35487, "income": 72227, "revenue": 72227}, {"ein": "222599288", "name": "THE DOVER PLAINS COMMUNITY CHURCH", "city": "DOVER PLAINS", "state": "NY", "zip": "12522-0068", "ntee": "", "ruling": "198812", "deductibility": "1", "assets": 0, "income": 0, "revenue": 0}, {"ein": "510488020", "name": "DOVER MUSIC BOOSTERS", "city": "WINGDALE", "state": "NY", "zip": "12594-0187", "ntee": "O12", "ruling": "202309", "deductibility": "1", "assets": 0, "income": 0, "revenue": 0}, {"ein": "753254107", "name": "SECOND BAPTIST CHURCH OF DOVER", "city": "DOVER PLAINS", "state": "NY", "zip": "12522-5123", "ntee": "", "ruling": "195504", "deductibility": "0", "assets": 0, "income": 0, "revenue": 0}, {"ein": "811361453", "name": "DOVER TOV", "city": "BROOKLYN", "state": "NY", "zip": "11210-4530", "ntee": "X30", "ruling": "201704", "deductibility": "1", "assets": 0, "income": 0, "revenue": 0}, {"ein": "830537941", "name": "SOLUTIONS FOR A BETTER DOVER INC", "city": "DOVER PLAINS", "state": "NY", "zip": "12522-5124", "ntee": "S20", "ruling": "201805", "deductibility": "1", "assets": 0, "income": 0, "revenue": 0}, {"ein": "874230868", "name": "DOVER LIONS CLUB FOUNDATION INC", "city": "DOVER PLAINS", "state": "NY", "zip": "12522-0441", "ntee": "T50", "ruling": "202203", "deductibility": "1", "assets": 0, "income": 0, "revenue": 0}, {"ein": "922804235", "name": "FRIENDS OF THE DOVER PLAINS LIBRARY INC", "city": "DOVER PLAINS", "state": "NY", "zip": "12522-5745", "ntee": "W11", "ruling": "202303", "deductibility": "1", "assets": 0, "income": 0, "revenue": 0}, {"ein": "931800533", "name": "CONG DOVER SHULEM RADVIL", "city": "MONSEY", "state": "NY", "zip": "10952-2732", "ntee": "X30", "ruling": "202308", "deductibility": "1", "assets": 0, "income": 0, "revenue": 0}], "COURSES": [{"ein": "141580094", "name": "MCCANN CAVEN GOLF COURSES INC", "city": "POUGHKEEPSIE", "state": "NY", "zip": "12603-4919", "ntee": "", "ruling": "197703", "deductibility": "2", "assets": 33470, "income": 1937853, "revenue": 1937853}], "MUSART": [{"ein": "141814959", "name": "MUSART", "city": "BROOKLYN", "state": "NY", "zip": "11216-2105", "ntee": "A25", "ruling": "200003", "deductibility": "1", "assets": 1, "income": 15000, "revenue": 15000}], "BREATHING": [{"ein": "141844410", "name": "BREATHING SPACE INC", "city": "ROCHESTER", "state": "NY", "zip": "14609-2204", "ntee": "I43", "ruling": "201208", "deductibility": "1", "assets": 0, "income": 0, "revenue": 0}, {"ein": "934592355", "name": "BREATHING MUSIC STUDIOS INC", "city": "NEW YORK", "state": "NY", "zip": "10034-2759", "ntee": "A99", "ruling": "202401", "deductibility": "1", "assets": 5610, "income": 10000, "revenue": 10000}], "BENNINGTON": [{"ein": "160996181", "name": "BENNINGTON VOLUNTEER FIRE COMPANY INC", "city": "ATTICA", "state": "NY", "zip": "14011-0000", "ntee": "M24", "ruling": "199912", "deductibility": "1", "assets": 482875, "income": 258310, "revenue": 189560}, {"ein": "824543199", "name": "FRIENDS OF THE BENNINGTON BATTLEFIELD", "city": "HOOSICK FALLS", "state": "NY", "zip": "12090-0251", "ntee": "A80", "ruling": "201804", "deductibility": "1", "assets": 19816, "income": 10013, "revenue": 10013}], "BATAVIA": [{"ein": "161098233", "name": "BATAVIA CHRISTIAN FELLOWSHIP CHURCH INC C O JOHN J EBEL", "city": "BATAVIA", "state": "NY", "zip": "14020-1337", "ntee": "", "ruling": "197803", "deductibility": "1", "assets": 0, "income": 0, "revenue": 0}, {"ein": "161479856", "name": "BATAVIA DEVELOPMENT CORPORATION", "city": "BATAVIA", "state": "NY", "zip": "14020-2050", "ntee": "S20", "ruling": "202001", "deductibility": "1", "assets": 168968, "income": 135763, "revenue": 135763}, {"ein": "161566283", "name": "BATAVIA BUSINESS IMPROVEMENT DISTRICT MANAGEMENT ASSOCIATION IN", "city": "BATAVIA", "state": "NY", "zip": "14021-1697", "ntee": "S20", "ruling": "201307", "deductibility": "1", "assets": 19728, "income": 163889, "revenue": 163889}, {"ein": "166031626", "name": "BATAVIA PLAYERS INC", "city": "BATAVIA", "state": "NY", "zip": "14021-0256", "ntee": "", "ruling": "195508", "deductibility": "1", "assets": 1285007, "income": 627109, "revenue": 626142}, {"ein": "166053621", "name": "LOCAL 896 CITY OF BATAVIA PROFESSIONAL FIREFIGHTERS", "city": "BATAVIA", "state": "NY", "zip": "14020-3111", "ntee": "J40", "ruling": "201811", "deductibility": "2", "assets": 0, "income": 0, "revenue": 0}, {"ein": "166066147", "name": "BATAVIA ROTARY MEMORIAL FUND", "city": "BATAVIA", "state": "NY", "zip": "14021-0229", "ntee": "", "ruling": "196603", "deductibility": "1", "assets": 755584, "income": 162536, "revenue": 104282}, {"ein": "222535456", "name": "BATAVIA POLICE BENEVOLENT ASSOCIATION", "city": "BATAVIA", "state": "NY", "zip": "14020-0000", "ntee": "I60I", "ruling": "198509", "deductibility": "2", "assets": 0, "income": 0, "revenue": 0}, {"ein": "222547176", "name": "TOWN OF BATAVIA FIRE DEPARTMENT INC", "city": "BATAVIA", "state": "NY", "zip": "14020-1243", "ntee": "M20Z", "ruling": "199806", "deductibility": "1", "assets": 9311029, "income": 1334552, "revenue": 1334552}, {"ein": "222783890", "name": "VOLUNTEERS FOR ANIMALS OF BATAVIA", "city": "BATAVIA", "state": "NY", "zip": "14021-1621", "ntee": "D200", "ruling": "199101", "deductibility": "1", "assets": 600538, "income": 260037, "revenue": 231151}, {"ein": "270939000", "name": "BATAVIA CONCERT BAND", "city": "BATAVIA", "state": "NY", "zip": "14020-3715", "ntee": "A6C", "ruling": "201010", "deductibility": "1", "assets": 0, "income": 0, "revenue": 0}, {"ein": "451243463", "name": "BATAVIA CITY SCHOOL DISTRICT PARENT TEACHER COALITION INC", "city": "BATAVIA", "state": "NY", "zip": "14020-1643", "ntee": "B94", "ruling": "201106", "deductibility": "1", "assets": 0, "income": 0, "revenue": 0}, {"ein": "452708256", "name": "BATAVIA LIONS CLUB FOUNDATION", "city": "BATAVIA", "state": "NY", "zip": "14021-0456", "ntee": "T11", "ruling": "201404", "deductibility": "1", "assets": 0, "income": 0, "revenue": 0}, {"ein": "454528984", "name": "BATAVIA BULLDAWGS", "city": "BATAVIA", "state": "NY", "zip": "14021-0254", "ntee": "N60", "ruling": "201410", "deductibility": "1", "assets": 0, "income": 0, "revenue": 0}, {"ein": "455478281", "name": "FRIENDS OF THE BATAVIA PEACE GARDEN INC", "city": "BATAVIA", "state": "NY", "zip": "14020-1264", "ntee": "C41", "ruling": "201308", "deductibility": "1", "assets": 0, "income": 0, "revenue": 0}, {"ein": "472323442", "name": "BATAVIA CITY SCHOOL DISTRICT FOUNDATION INC", "city": "BATAVIA", "state": "NY", "zip": "14020-1041", "ntee": "B11", "ruling": "201507", "deductibility": "1", "assets": 1594342, "income": 249550, "revenue": 249550}, {"ein": "510201919", "name": "NOTRE DAME HIGH SCHOOL OF BATAVIA EDUCATIONAL FOUNDATION INC", "city": "BATAVIA", "state": "NY", "zip": "14020-1328", "ntee": "", "ruling": "197610", "deductibility": "1", "assets": 3675319, "income": 1964023, "revenue": 500159}, {"ein": "815301399", "name": "SPORTSMENS COON HUNTERS ASSOCIATION OF BATAVIA NEW YORK INC", "city": "BATAVIA", "state": "NY", "zip": "14020-9593", "ntee": "N50", "ruling": "201806", "deductibility": "2", "assets": 0, "income": 0, "revenue": 0}, {"ein": "820865189", "name": "BATAVIA GIRLS FASTPITCH SOFTBALL", "city": "BATAVIA", "state": "NY", "zip": "14021-0209", "ntee": "N63", "ruling": "201705", "deductibility": "1", "assets": 0, "income": 0, "revenue": 0}, {"ein": "831269538", "name": "BATAVIA BUSINESS & PROFESSIONAL WOMENS CLUB", "city": "BATAVIA", "state": "NY", "zip": "14021-1778", "ntee": "B82", "ruling": "201807", "deductibility": "1", "assets": 0, "income": 0, "revenue": 0}, {"ein": "845183282", "name": "BATAVIA YOUTH BASEBALL INC", "city": "BATAVIA", "state": "NY", "zip": "14021-1828", "ntee": "N63", "ruling": "202311", "deductibility": "1", "assets": 0, "income": 0, "revenue": 0}, {"ein": "872973655", "name": "BATAVIA YOUTH LACROSSE", "city": "BATAVIA", "state": "NY", "zip": "14020-3422", "ntee": "O50", "ruling": "202201", "deductibility": "1", "assets": 1, "income": 4300, "revenue": 0}, {"ein": "884335288", "name": "BATAVIA AIRSHOW FOUNDATION INC", "city": "BATAVIA", "state": "NY", "zip": "14020-1018", "ntee": "A01", "ruling": "202303", "deductibility": "1", "assets": 55800, "income": 621092, "revenue": 621092}, {"ein": "932916336", "name": "SJRS BATAVIA FOUNDATION INC", "city": "BATAVIA", "state": "NY", "zip": "14020-2208", "ntee": "W11", "ruling": "202311", "deductibility": "1", "assets": 0, "income": 0, "revenue": 0}, {"ein": "934324066", "name": "BATAVIA TECH CLUB", "city": "BATAVIA", "state": "NY", "zip": "14020-1208", "ntee": "B30", "ruling": "202403", "deductibility": "1", "assets": 0, "income": 0, "revenue": 0}], "CAZCARES": [{"ein": "161185489", "name": "CAZCARES INC", "city": "CAZENOVIA", "state": "NY", "zip": "13035-1331", "ntee": "", "ruling": "000000", "deductibility": "1", "assets": 1029628, "income": 378858, "revenue": 295745}], "SCHRIBER": [{"ein": "161406866", "name": "LAURA SCHRIBER GALLIK MEMORIAL SCHOLARSHIP FUND", "city": "ONEONTA", "state": "NY", "zip": "13820-0430", "ntee": "", "ruling": "199208", "deductibility": "1", "assets": 217210, "income": 50743, "revenue": 0}], "TIGERS": [{"ein": "161429401", "name": "AMHERST TIGERS BOOSTER CLUB", "city": "AMHERST", "state": "NY", "zip": "14226-3504", "ntee": "N12", "ruling": "201709", "deductibility": "1", "assets": 0, "income": 0, "revenue": 0}, {"ein": "223214827", "name": "TIGERS ONLY PRESERVATION SOCIETY", "city": "NEW YORK", "state": "NY", "zip": "10185-1443", "ntee": "D310", "ruling": "199909", "deductibility": "1", "assets": 0, "income": 0, "revenue": 0}, {"ein": "237181682", "name": "SOLVAY TIGERS ATHLETIC CLUB INC", "city": "SOLVAY", "state": "NY", "zip": "13209-1545", "ntee": "N31Z", "ruling": "196102", "deductibility": "1", "assets": 370855, "income": 780427, "revenue": 183094}, {"ein": "272344119", "name": "U-E TIGERS YOUTH FOOTBALL INC", "city": "ENDICOTT", "state": "NY", "zip": "13760-2719", "ntee": "N65", "ruling": "201605", "deductibility": "1", "assets": 0, "income": 0, "revenue": 0}, {"ein": "300071903", "name": "NORTH COUNTRY FLYING TIGERS", "city": "FORT EDWARD", "state": "NY", "zip": "12828-0000", "ntee": "N50", "ruling": "200208", "deductibility": "2", "assets": 0, "income": 0, "revenue": 0}, {"ein": "451833087", "name": "NORTHPORT TIGERS BASKETBALL CAMP CORP", "city": "NORTHPORT", "state": "NY", "zip": "11768-3103", "ntee": "O30", "ruling": "201209", "deductibility": "1", "assets": 0, "income": 0, "revenue": 0}, {"ein": "753179873", "name": "WARSAW JR TIGERS YOUTH FOOTBALL", "city": "WARSAW", "state": "NY", "zip": "14569-0174", "ntee": "N11", "ruling": "200805", "deductibility": "1", "assets": 0, "income": 0, "revenue": 0}, {"ein": "800665532", "name": "TENTH WARD TIGERS POP WARNER", "city": "ROCHESTER", "state": "NY", "zip": "14616-1108", "ntee": "N65", "ruling": "201110", "deductibility": "1", "assets": 0, "income": 0, "revenue": 0}, {"ein": "841780120", "name": "PAWLING TIGERS ATHLETIC CLUB INC", "city": "HOLMES", "state": "NY", "zip": "12531-5428", "ntee": "O50", "ruling": "202301", "deductibility": "1", "assets": 0, "income": 0, "revenue": 0}, {"ein": "842363231", "name": "SAVING WILD TIGERS INC", "city": "BROOKLYN", "state": "NY", "zip": "11218-0000", "ntee": "D30", "ruling": "201907", "deductibility": "1", "assets": 0, "income": 0, "revenue": 0}, {"ein": "881115676", "name": "RAINBOW TIGERS FOUNDATION INC", "city": "NEW YORK", "state": "NY", "zip": "10021-3618", "ntee": "A20", "ruling": "202203", "deductibility": "1", "assets": 0, "income": 0, "revenue": 0}, {"ein": "934143642", "name": "TIGERS ELITE", "city": "FORT ANN", "state": "NY", "zip": "12827-2104", "ntee": "N70", "ruling": "202311", "deductibility": "1", "assets": 0, "income": 0, "revenue": 0}], "INTANDEM": [{"ein": "161433024", "name": "THE INTANDEM FOUNDATION INC", "city": "OLEAN", "state": "NY", "zip": "14760-1140", "ntee": "T20Z", "ruling": "199308", "deductibility": "1", "assets": 7189930, "income": 433377, "revenue": 385451}, {"ein": "463557593", "name": "INTANDEM CYCLING INC", "city": "NEW YORK", "state": "NY", "zip": "10021-0013", "ntee": "N99", "ruling": "201407", "deductibility": "1", "assets": 13355, "income": 249566, "revenue": 249566}], "COMPUTERS": [{"ein": "161535203", "name": "COMPUTERS FOR CHILDREN INC", "city": "BUFFALO", "state": "NY", "zip": "14210-1359", "ntee": "B80", "ruling": "199802", "deductibility": "1", "assets": 1012178, "income": 1386982, "revenue": 1386982}, {"ein": "222350888", "name": "ASSOCIATION FOR COMPUTERS & TAXATION", "city": "WARWICK", "state": "NY", "zip": "10990-8093", "ntee": "", "ruling": "198204", "deductibility": "2", "assets": 66846, "income": 268900, "revenue": 268900}, {"ein": "742792972", "name": "COMPUTERS FOR CHRISTIAN MINISTRY INC", "city": "WILLIAMSVILLE", "state": "NY", "zip": "14221-3654", "ntee": "X20", "ruling": "199712", "deductibility": "1", "assets": 0, "income": 0, "revenue": 0}, {"ein": "832343976", "name": "WEST ELMIRA COMPUTERS MUSEUM", "city": "ELMIRA", "state": "NY", "zip": "14904-1723", "ntee": "A57", "ruling": "201811", "deductibility": "1", "assets": 0, "income": 0, "revenue": 0}], "RHYTHM": [{"ein": "161565655", "name": "NEW YORK STATE RHYTHM & BLUES FESTIVAL INC", "city": "SYRACUSE", "state": "NY", "zip": "13201-0384", "ntee": "A68", "ruling": "199908", "deductibility": "1", "assets": 39739, "income": 372096, "revenue": 20592}, {"ein": "272946031", "name": "RHYTHM BREAK CARES", "city": "NEW YORK", "state": "NY", "zip": "10001-3563", "ntee": "P99", "ruling": "201407", "deductibility": "1", "assets": 8098, "income": 4400, "revenue": 4400}, {"ein": "352777368", "name": "RHYTHM METHOD INC", "city": "BROOKLYN", "state": "NY", "zip": "11225-5141", "ntee": "A6C", "ruling": "202301", "deductibility": "1", "assets": 24234, "income": 76234, "revenue": 76234}, {"ein": "454773290", "name": "RHYTHM KNIGHTS DANCE TROUPE INC", "city": "YONKERS", "state": "NY", "zip": "10710-3044", "ntee": "A62", "ruling": "201205", "deductibility": "1", "assets": 0, "income": 0, "revenue": 0}, {"ein": "475283614", "name": "WORLD RHYTHM ACADEMY", "city": "BROOKLYN", "state": "NY", "zip": "11234-4903", "ntee": "A20", "ruling": "201805", "deductibility": "1", "assets": 0, "income": 0, "revenue": 0}, {"ein": "934272327", "name": "716 RHYTHM FOUNDATION", "city": "BUFFALO", "state": "NY", "zip": "14211-0000", "ntee": "O50", "ruling": "202312", "deductibility": "1", "assets": 0, "income": 0, "revenue": 0}, {"ein": "992223002", "name": "BETTY BLUE JAZZ - RHYTHM IN BLUE DRUMMERS", "city": "BROOKLYN", "state": "NY", "zip": "11220-0148", "ntee": "A23", "ruling": "202405", "deductibility": "1", "assets": 0, "income": 0, "revenue": 0}], "KUNCHAB": [{"ein": "161605656", "name": "TSECHEN KUNCHAB LING", "city": "WALDEN", "state": "NY", "zip": "12586-1539", "ntee": "X50", "ruling": "200207", "deductibility": "1", "assets": 0, "income": 0, "revenue": 0}, {"ein": "237449110", "name": "KAGYU DSAMLING KUNCHAB", "city": "NEW YORK", "state": "NY", "zip": "10008-2321", "ntee": "", "ruling": "197907", "deductibility": "1", "assets": 0, "income": 0, "revenue": 0}], "HYDRANT": [{"ein": "166029749", "name": "HYDRANT HOSE CO-1 INC", "city": "GENEVA", "state": "NY", "zip": "14456-2360", "ntee": "", "ruling": "194411", "deductibility": "1", "assets": 1352935, "income": 137991, "revenue": 135039}, {"ein": "883335496", "name": "OPEN HYDRANT THEATER COMPANY INC", "city": "BRONX", "state": "NY", "zip": "10474-5335", "ntee": "A60", "ruling": "202208", "deductibility": "1", "assets": 101, "income": 25425, "revenue": 0}], "EINGERSOLL": [{"ein": "166093838", "name": "THE AMERICAN LEGION GEORGE EINGERSOLL POST NO 658", "city": "FAIR HAVEN", "state": "NY", "zip": "13064-0243", "ntee": "W30", "ruling": "202404", "deductibility": "1", "assets": 0, "income": 0, "revenue": 0}], "DBRISDOVITZ": [{"ein": "200347902", "name": "KOLEL ZICHRON CHAIM YISROEL DBRISDOVITZ", "city": "BROOKLYN", "state": "NY", "zip": "11204-2236", "ntee": "X30", "ruling": "200606", "deductibility": "1", "assets": 0, "income": 0, "revenue": 0}], "UNDERDOG": [{"ein": "200958326", "name": "UNDERDOG RESQ INC", "city": "SOUTH SALEM", "state": "NY", "zip": "10590-1618", "ntee": "D20", "ruling": "200405", "deductibility": "1", "assets": 275974, "income": 77, "revenue": 77}, {"ein": "934623768", "name": "UNDERDOG TOYS", "city": "EASTPORT", "state": "NY", "zip": "11941-1209", "ntee": "P29", "ruling": "202402", "deductibility": "1", "assets": 0, "income": 0, "revenue": 0}], "HAINES": [{"ein": "201818797", "name": "HAINES FAMILY ASSOCIATION INC", "city": "HAINES FALLS", "state": "NY", "zip": "12436-0366", "ntee": "A80", "ruling": "200606", "deductibility": "1", "assets": 0, "income": 0, "revenue": 0}, {"ein": "270357520", "name": "SACRED HEART-IMMACULATE CONCEPTION CHURCH HAINES FALLS", "city": "HAINES FALLS", "state": "NY", "zip": "12436-0379", "ntee": "", "ruling": "194603", "deductibility": "1", "assets": 0, "income": 0, "revenue": 0}, {"ein": "371532952", "name": "HAINES FAMILY FOUNDATION", "city": "NEW YORK", "state": "NY", "zip": "10011-5603", "ntee": "T22", "ruling": "200702", "deductibility": "1", "assets": 1005935, "income": 546684, "revenue": 0}], "BANJO": [{"ein": "202283033", "name": "BANJO BURKE MEMORIAL FUND", "city": "ADDISON", "state": "NY", "zip": "14801-0032", "ntee": "B82", "ruling": "200702", "deductibility": "1", "assets": 0, "income": 0, "revenue": 0}, {"ein": "237060673", "name": "LONG ISLAND BANJO SOCIETY INC", "city": "AMITYVILLE", "state": "NY", "zip": "11701-2702", "ntee": "", "ruling": "197004", "deductibility": "2", "assets": 0, "income": 0, "revenue": 0}], "ANALYST": [{"ein": "202997134", "name": "CONSUMER ANALYST GROUP OF NEW YORK", "city": "NEW YORK", "state": "NY", "zip": "10163-0812", "ntee": "S40", "ruling": "201301", "deductibility": "2", "assets": 1369008, "income": 377155, "revenue": 377155}], "TOBY": [{"ein": "203121796", "name": "TOBY PROJECT INC", "city": "NEW YORK", "state": "NY", "zip": "10023-2837", "ntee": "D20", "ruling": "200511", "deductibility": "1", "assets": 85099, "income": 170237, "revenue": 170237}, {"ein": "205217920", "name": "MENDEL & TOBY KLEIN FAMILY FOUNDATION", "city": "BROOKLYN", "state": "NY", "zip": "11204-0000", "ntee": "T22", "ruling": "200801", "deductibility": "1", "assets": 235853, "income": 18763, "revenue": 0}, {"ein": "206379095", "name": "LEE J STAHL AND TOBY STAHL-MARANGA CHARITABLE FOUNDATION", "city": "NEW YORK", "state": "NY", "zip": "10028-1948", "ntee": "T22", "ruling": "200511", "deductibility": "1", "assets": 768270, "income": 367679, "revenue": 0}, {"ein": "263416748", "name": "NAOMI AND TOBY LUELLA PLOTSKER STAMPFER CHARITABLE FOUNDATION", "city": "BROOKLYN", "state": "NY", "zip": "11210-3714", "ntee": "T22", "ruling": "200903", "deductibility": "1", "assets": 3551199, "income": 857635, "revenue": 0}, {"ein": "562475574", "name": "THE@TOBY AND NATALY RITTER FAMILY FOUNDATION", "city": "TARRYTOWN", "state": "NY", "zip": "10591-0000", "ntee": "T20", "ruling": "200507", "deductibility": "1", "assets": 4501314, "income": 606355, "revenue": 0}, {"ein": "810909332", "name": "MAYER & TOBY HIRSCH FAMILY FOUNDATION INC", "city": "MONROE", "state": "NY", "zip": "10950-3807", "ntee": "T50", "ruling": "201909", "deductibility": "1", "assets": 1651174, "income": 611825, "revenue": 0}, {"ein": "882618889", "name": "TOBY ONUBOGU FOUNDATION INC", "city": "ISLIP", "state": "NY", "zip": "11751-1101", "ntee": "E50", "ruling": "202210", "deductibility": "1", "assets": 206647, "income": 208874, "revenue": 208874}], "JUKTARASTRA": [{"ein": "203461038", "name": "JUKTARASTRA HABIGONJ ZILA SAMITI INC", "city": "BRONX", "state": "NY", "zip": "10472-4302", "ntee": "N30", "ruling": "201806", "deductibility": "1", "assets": 0, "income": 0, "revenue": 0}], "NASR": [{"ein": "203703618", "name": "BRONX ISLAMIC CULTURAL CENTER INC MASJID AL NASR", "city": "BRONX", "state": "NY", "zip": "10453-0881", "ntee": "X40", "ruling": "200707", "deductibility": "1", "assets": 0, "income": 0, "revenue": 0}], "QUATTRO": [{"ein": "203826148", "name": "QUATTRO GATTI THEATRE COMPANY", "city": "BROOKLYN", "state": "NY", "zip": "11201-2432", "ntee": "A65", "ruling": "200602", "deductibility": "1", "assets": 0, "income": 0, "revenue": 0}], "JACOBSONFOUNDATION": [{"ein": "204727938", "name": "BERNICE AND SIDNEY JACOBSONFOUNDATION", "city": "NEW YORK", "state": "NY", "zip": "10036-6600", "ntee": "T20", "ruling": "200705", "deductibility": "1", "assets": 2108401, "income": 7863, "revenue": 0}], "DESPERTAR": [{"ein": "205396976", "name": "IGLESIA DESPERTAR", "city": "FREEPORT", "state": "NY", "zip": "11520-0006", "ntee": "X20", "ruling": "200902", "deductibility": "1", "assets": 0, "income": 0, "revenue": 0}], "DRASTIC": [{"ein": "208085707", "name": "DRASTIC ACTION INC", "city": "NEW YORK", "state": "NY", "zip": "10025-6523", "ntee": "A62", "ruling": "200711", "deductibility": "1", "assets": 0, "income": 0, "revenue": 0}], "ECUATORIANAINC": [{"ein": "208630120", "name": "ORGANIZATION JUVENTUD ECUATORIANAINC", "city": "BRONX", "state": "NY", "zip": "10465-3038", "ntee": "P20", "ruling": "200805", "deductibility": "1", "assets": 0, "income": 0, "revenue": 0}], "RATS": [{"ein": "208938663", "name": "SNOW RATS SNOWMOBILE CLUB INC", "city": "CARMEL", "state": "NY", "zip": "10512-8063", "ntee": "", "ruling": "200708", "deductibility": "2", "assets": 0, "income": 0, "revenue": 0}, {"ein": "261683460", "name": "CREEK RATS", "city": "VARYSBURG", "state": "NY", "zip": "14167-9752", "ntee": "C32", "ruling": "200902", "deductibility": "1", "assets": 0, "income": 0, "revenue": 0}, {"ein": "455162092", "name": "CRYSTAL CITY RIVER RATS", "city": "CORNING", "state": "NY", "zip": "14830-9154", "ntee": "N67", "ruling": "201302", "deductibility": "1", "assets": 0, "income": 0, "revenue": 0}], "PROBE": [{"ein": "222672894", "name": "PROBE INTERNATIONAL FOUNDATION INC", "city": "BUFFALO", "state": "NY", "zip": "14202-2150", "ntee": "C30", "ruling": "200407", "deductibility": "1", "assets": 0, "income": 0, "revenue": 0}], "RHEUMINATIONS": [{"ein": "223723547", "name": "RHEUMINATIONS INC", "city": "GARDEN CITY", "state": "NY", "zip": "11530-0000", "ntee": "T20", "ruling": "200006", "deductibility": "1", "assets": 621313, "income": 974653, "revenue": 0}], "INTERPERSONAL": [{"ein": "237085239", "name": "NEW YORK CENTER FOR INTERPERSONAL DEVELOPMENT INC", "city": "STATEN ISLAND", "state": "NY", "zip": "10301-1949", "ntee": "I51Z", "ruling": "197107", "deductibility": "1", "assets": 8079162, "income": 17511887, "revenue": 17488586}], "SHENKAR": [{"ein": "237090228", "name": "AMERICAN FRIENDS OF SHENKAR", "city": "NEW YORK", "state": "NY", "zip": "10018-6404", "ntee": "Q113", "ruling": "199007", "deductibility": "1", "assets": 141493, "income": 295933, "revenue": 295933}], "LEIR": [{"ein": "237176054", "name": "HENRY J AND ERNA D LEIR FOUNDATION", "city": "NEW YORK", "state": "NY", "zip": "10017-0000", "ntee": "", "ruling": "197210", "deductibility": "1", "assets": 1322420, "income": 78953, "revenue": 0}], "MATALON": [{"ein": "237419408", "name": "MATALON FAMILY FOUNDATION INC", "city": "BROOKLYN", "state": "NY", "zip": "11230-3501", "ntee": "", "ruling": "197503", "deductibility": "1", "assets": 217763, "income": 65088, "revenue": 0}], "RCI": [{"ein": "237901433", "name": "ANNA SNIVELY RCI TR FBO RENFREW MUSEUM", "city": "BUFFALO", "state": "NY", "zip": "14240-1504", "ntee": "T20", "ruling": "200506", "deductibility": "1", "assets": 143177, "income": 41796, "revenue": 0}], "WINTOON": [{"ein": "260850960", "name": "WINTOON FLY FISHING CLUB INC", "city": "ROSENDALE", "state": "NY", "zip": "12472-0443", "ntee": "N61", "ruling": "200803", "deductibility": "2", "assets": 60557, "income": 40330, "revenue": 40330}], "AUSENTES": [{"ein": "261099573", "name": "OCOENOS AUSENTES USA INC", "city": "WHITESTONE", "state": "NY", "zip": "11357-2514", "ntee": "Z99", "ruling": "201408", "deductibility": "2", "assets": 24104, "income": 40210, "revenue": 40210}, {"ein": "461092435", "name": "BARACOENOS AUSENTES INC", "city": "NEW YORK", "state": "NY", "zip": "10032-4215", "ntee": "Q33", "ruling": "201511", "deductibility": "1", "assets": 0, "income": 0, "revenue": 0}, {"ein": "823455120", "name": "SANTIAGUEROS AUSENTES MIEMBROS DE LA DEFENSA CIVIL CORP", "city": "LINDENHURST", "state": "NY", "zip": "11757-5232", "ntee": "I11", "ruling": "201712", "deductibility": "1", "assets": 1, "income": 52400, "revenue": 0}], "CORD": [{"ein": "261356156", "name": "CHILDRENS CORD BLOOD BANK & RESEARCH FOUNDATION", "city": "STATEN ISLAND", "state": "NY", "zip": "10314-1216", "ntee": "E61", "ruling": "200808", "deductibility": "1", "assets": 0, "income": 0, "revenue": 0}, {"ein": "320072812", "name": "GREATER NEW YORK CHAPTER OF THE NATIONAL SPINAL CORD INJURY ASSOC", "city": "COLLEGE POINT", "state": "NY", "zip": "11356-2305", "ntee": "P20", "ruling": "201406", "deductibility": "1", "assets": 48317, "income": 16166, "revenue": 13648}, {"ein": "651182429", "name": "SPINAL CORD FOUNDATION", "city": "FARMINGVILLE", "state": "NY", "zip": "11738-1713", "ntee": "P12", "ruling": "202503", "deductibility": "1", "assets": 0, "income": 0, "revenue": 0}, {"ein": "811150626", "name": "HUDSON VALLEY CHAPTER OF NATIONAL SPINAL CORD INJURY ASSOCIATION", "city": "WEST HAVERSTRAW", "state": "NY", "zip": "10993-0000", "ntee": "E86", "ruling": "201603", "deductibility": "1", "assets": 0, "income": 0, "revenue": 0}, {"ein": "931730569", "name": "ELISABETH CORD FOUNDATION", "city": "MILLBROOK", "state": "NY", "zip": "12545-0519", "ntee": "C50", "ruling": "202311", "deductibility": "1", "assets": 54564, "income": 66103, "revenue": 0}], "AHIVIM": [{"ein": "261488729", "name": "AHIVIM INC", "city": "MONROE", "state": "NY", "zip": "10950-0000", "ntee": "E60", "ruling": "200905", "deductibility": "1", "assets": 15985886, "income": 27103888, "revenue": 27103888}], "DEAFYOGA": [{"ein": "261499809", "name": "DEAFYOGA FOUNDATION INC", "city": "KINGSTON", "state": "NY", "zip": "12401-6674", "ntee": "P01", "ruling": "201610", "deductibility": "1", "assets": 0, "income": 0, "revenue": 0}], "LUISE": [{"ein": "261520186", "name": "LUISE AND MORTON KAISH PRIVATE FAMILY FOUNDATION", "city": "NEW YORK", "state": "NY", "zip": "10024-1647", "ntee": "P58", "ruling": "200907", "deductibility": "1", "assets": 4500, "income": 655, "revenue": 0}], "SIONAL": [{"ein": "263634787", "name": "INTERNATIONAL ASSOCIATION OF PROFES SIONAL ART ADVISORS UNITED STATES", "city": "BROOKLYN", "state": "NY", "zip": "11215-2949", "ntee": "S46", "ruling": "200812", "deductibility": "2", "assets": 25916, "income": 78600, "revenue": 78600}], "HIGHLIGHTING": [{"ein": "264778064", "name": "HIGHLIGHTING SUCCESS INC", "city": "ELMONT", "state": "NY", "zip": "11003-3519", "ntee": "B90", "ruling": "201009", "deductibility": "1", "assets": 0, "income": 0, "revenue": 0}], "CONGO": [{"ein": "272381412", "name": "CONGO LEADERSHIP INITIATIVE", "city": "LANCASTER", "state": "NY", "zip": "14086-4302", "ntee": "Q30", "ruling": "201101", "deductibility": "1", "assets": 19876, "income": 290883, "revenue": 290883}, {"ein": "331871824", "name": "CONGO YOUTH COALITION INC", "city": "NEW YORK", "state": "NY", "zip": "10003-1502", "ntee": "O50", "ruling": "202411", "deductibility": "1", "assets": 0, "income": 0, "revenue": 0}, {"ein": "453588946", "name": "HABITAT TECHNOLOGIES SOLUTIONS FOR THE CONGO INC", "city": "PENN YAN", "state": "NY", "zip": "14527-9724", "ntee": "Q30", "ruling": "201207", "deductibility": "1", "assets": 0, "income": 0, "revenue": 0}, {"ein": "871011056", "name": "CONGO UBUNTU FOUNDATION INC CUF", "city": "FRANKLIN SQ", "state": "NY", "zip": "11010-3535", "ntee": "A01", "ruling": "202204", "deductibility": "1", "assets": 24000, "income": 140000, "revenue": 140000}], "BHAI": [{"ein": "272522615", "name": "SHAHEED BHAI MANI SINGH JI CULTURAL SOCIETY OF NEW YORK INC", "city": "HICKSVILLE", "state": "NY", "zip": "11801-2141", "ntee": "I21", "ruling": "201009", "deductibility": "1", "assets": 0, "income": 0, "revenue": 0}, {"ein": "992429243", "name": "GURUDWARA SRI GURU TEG BAHADUR SAHIB BHAI HIMAT SINGH JI INC", "city": "RANSOMVILLE", "state": "NY", "zip": "14131-9668", "ntee": "X70", "ruling": "202411", "deductibility": "1", "assets": 0, "income": 0, "revenue": 0}], "AIT": [{"ein": "274477954", "name": "AIT NORTH AMERICA INC", "city": "NEW YORK", "state": "NY", "zip": "10011-7782", "ntee": "Q22", "ruling": "201209", "deductibility": "1", "assets": 634257, "income": 2283640, "revenue": 2283640}], "BASES": [{"ein": "300368711", "name": "TOUCHING BASES SOFTBALL LEAGUE OF ERIE COUNTY INC", "city": "DEPEW", "state": "NY", "zip": "14043-1065", "ntee": "P82", "ruling": "200703", "deductibility": "1", "assets": 0, "income": 0, "revenue": 0}, {"ein": "472966233", "name": "PARENT-TEACHER ASSOCIATION OF PS 705 BASES", "city": "BROOKLYN", "state": "NY", "zip": "11238-3707", "ntee": "B94", "ruling": "201912", "deductibility": "1", "assets": 0, "income": 0, "revenue": 0}], "MALAYALI": [{"ein": "320006678", "name": "MALAYALI HINDU MANDALAM INC", "city": "OAKLAND GDNS", "state": "NY", "zip": "11364-3019", "ntee": "X70", "ruling": "200408", "deductibility": "1", "assets": 141934, "income": 52766, "revenue": 52766}], "TSOGPA": [{"ein": "331494031", "name": "OGMIN JANGCHHUP SISHU TSOGPA USA INC", "city": "MIDDLE VLG", "state": "NY", "zip": "11379-2420", "ntee": "X50", "ruling": "202410", "deductibility": "1", "assets": 0, "income": 0, "revenue": 0}], "TH": [{"ein": "331743823", "name": "SDF BRUNSWICK TH HOUSING DEVELOPMENT FUND CORPORATION", "city": "BRIARWOOD", "state": "NY", "zip": "11435-2665", "ntee": "L20", "ruling": "202505", "deductibility": "1", "assets": 0, "income": 0, "revenue": 0}, {"ein": "842593579", "name": "TH KIDS INC", "city": "BROOKLYN", "state": "NY", "zip": "11213-3502", "ntee": "T50", "ruling": "202004", "deductibility": "1", "assets": 676665, "income": 1294248, "revenue": 1294248}, {"ein": "852842877", "name": "GAMMA-THETA HOUSING CORPORATION OF TAU KAPPA EPSILON FRATERNITY AT TH", "city": "FLUSHING", "state": "NY", "zip": "11354-5401", "ntee": "B12", "ruling": "202108", "deductibility": "2", "assets": 4532, "income": 71295, "revenue": 71295}], "DATETREE": [{"ein": "336367026", "name": "DATETREE CHARITABLE TR", "city": "ITHACA", "state": "NY", "zip": "14850-9571", "ntee": "T22", "ruling": "200711", "deductibility": "1", "assets": 559313, "income": 190038, "revenue": 0}], "NIC": [{"ein": "352517211", "name": "PARENT TEACHER ASSOCIATION OF PS 130Q NIC", "city": "BAYSIDE", "state": "NY", "zip": "11361-1872", "ntee": "B94", "ruling": "201502", "deductibility": "1", "assets": 0, "income": 0, "revenue": 0}], "EGN": [{"ein": "364944827", "name": "EGN YOUTH SPORTS & DEVELOPMENT INC", "city": "ELMONT", "state": "NY", "zip": "11003-4035", "ntee": "B90", "ruling": "202211", "deductibility": "1", "assets": 0, "income": 0, "revenue": 0}], "UNLOCAL": [{"ein": "412278265", "name": "UNLOCAL INC", "city": "NEW YORK", "state": "NY", "zip": "10001-4209", "ntee": "P84", "ruling": "201005", "deductibility": "1", "assets": 1941452, "income": 3529246, "revenue": 3524493}], "PRIDEWORKS": [{"ein": "452631795", "name": "PRIDEWORKS", "city": "WHITE PLAINS", "state": "NY", "zip": "10602-0772", "ntee": "R26", "ruling": "201408", "deductibility": "1", "assets": 47712, "income": 73198, "revenue": 71162}], "CROSSBOW": [{"ein": "454840326", "name": "NEW YORK CROSSBOW COALITION INC", "city": "PULASKI", "state": "NY", "zip": "13142-0316", "ntee": "N61", "ruling": "201311", "deductibility": "2", "assets": 13049, "income": 21174, "revenue": 19474}], "ZICHARON": [{"ein": "455383594", "name": "ZICHARON", "city": "BROOKLYN", "state": "NY", "zip": "11230-4501", "ntee": "G83", "ruling": "201303", "deductibility": "1", "assets": 18318, "income": 24518, "revenue": 24518}], "CEBUANOS": [{"ein": "455391461", "name": "CEBUANOS ENGAGING IN BUILDING UNITY INC", "city": "ASTORIA", "state": "NY", "zip": "11105-1803", "ntee": "P84", "ruling": "201609", "deductibility": "1", "assets": 0, "income": 0, "revenue": 0}], "SUNERGOS": [{"ein": "455537143", "name": "SUNERGOS CORPORATION", "city": "NYACK", "state": "NY", "zip": "10960-1703", "ntee": "B01", "ruling": "201704", "deductibility": "1", "assets": 0, "income": 0, "revenue": 0}], "RHOADES": [{"ein": "456633134", "name": "RHOADES-ROBINSON FUND", "city": "NEW YORK", "state": "NY", "zip": "10004-1482", "ntee": "T20", "ruling": "201202", "deductibility": "1", "assets": 1268180, "income": 280996, "revenue": 0}], "SEDEI": [{"ein": "461443168", "name": "KHAL SEDEI LEVIAH", "city": "BROOKLYN", "state": "NY", "zip": "11211-6410", "ntee": "X30", "ruling": "201907", "deductibility": "1", "assets": 0, "income": 0, "revenue": 0}], "AITZ": [{"ein": "461976753", "name": "AITZ CHAIM D BORO PARK INC", "city": "BROOKLYN", "state": "NY", "zip": "11204-1932", "ntee": "X30", "ruling": "201311", "deductibility": "1", "assets": 0, "income": 0, "revenue": 0}], "WAHL": [{"ein": "462659091", "name": "MARY JANE WAHL GEARNS FOUNDATION", "city": "NEW YORK", "state": "NY", "zip": "10023-2012", "ntee": "T20", "ruling": "201311", "deductibility": "1", "assets": 12617851, "income": 1789712, "revenue": 0}], "TRANSGENIC": [{"ein": "463633893", "name": "INTERNATIONAL SOCIETY FOR TRANSGENIC TECHNOLOGIES INC", "city": "EAST AURORA", "state": "NY", "zip": "14052-9403", "ntee": "H03", "ruling": "201409", "deductibility": "1", "assets": 151772, "income": 130140, "revenue": 130140}], "DRESSED": [{"ein": "463691972", "name": "DRESSED WITH DIGNITY INC", "city": "SPRING VALLEY", "state": "NY", "zip": "10977-6112", "ntee": "B90", "ruling": "201412", "deductibility": "1", "assets": 2942914, "income": 5362877, "revenue": 5362877}, {"ein": "994146217", "name": "BLESSED DRESSED INC", "city": "RYE", "state": "NY", "zip": "10580-1856", "ntee": "X20", "ruling": "202408", "deductibility": "1", "assets": 0, "income": 0, "revenue": 0}], "TZP": [{"ein": "464210327", "name": "TZP CARES FOUNDATION", "city": "NEW YORK", "state": "NY", "zip": "10106-2500", "ntee": "T21", "ruling": "201407", "deductibility": "1", "assets": 5721, "income": 123075, "revenue": 0}], "LENGYEL": [{"ein": "471989816", "name": "OLGA LENGYEL INSTITUTE FOR HOLOCAUST STUDIES AND HUMAN RIGHTS", "city": "NEW YORK", "state": "NY", "zip": "10075-0221", "ntee": "B99", "ruling": "201411", "deductibility": "1", "assets": 34946, "income": 787311, "revenue": 787311}], "MENTARI": [{"ein": "472631316", "name": "MENTARI HUMAN TRAFFICKING SURVIVOR EMPOWERMENT PROGRAM INCORPORATED", "city": "EAST ELMHURST", "state": "NY", "zip": "11370-1311", "ntee": "P62", "ruling": "201709", "deductibility": "1", "assets": 0, "income": 0, "revenue": 0}], "YERUSHALIEM": [{"ein": "473511695", "name": "CONG CHASIDEI YERUSHALIEM", "city": "BROOKLYN", "state": "NY", "zip": "11204-1549", "ntee": "X30", "ruling": "201511", "deductibility": "1", "assets": 0, "income": 0, "revenue": 0}], "POMME": [{"ein": "474677871", "name": "OPERA POMME ROUGE INC", "city": "JACKSON HEIGHTS", "state": "NY", "zip": "11372-0000", "ntee": "A6A", "ruling": "201601", "deductibility": "1", "assets": 3846, "income": 1250, "revenue": 1250}], "SMOKING": [{"ein": "474817842", "name": "SMOKING SHIELDS CIGAR CLUB CORP", "city": "FLORAL PARK", "state": "NY", "zip": "11001-0000", "ntee": "W12", "ruling": "201604", "deductibility": "1", "assets": 37294, "income": 28416, "revenue": 28416}, {"ein": "822800838", "name": "GLOBAL ACTION TO END SMOKING INC", "city": "NEW YORK", "state": "NY", "zip": "10170-0399", "ntee": "S05", "ruling": "201907", "deductibility": "1", "assets": 129271030, "income": 65839394, "revenue": 0}], "CUMBE": [{"ein": "475039336", "name": "CUMBE-CENTER FOR AFRICAN AND DIASPORA DANCE INC", "city": "BROOKLYN", "state": "NY", "zip": "11216-5372", "ntee": "A20", "ruling": "201601", "deductibility": "1", "assets": 407881, "income": 986653, "revenue": 986653}], "PROTECTOR": [{"ein": "475097477", "name": "I AM YOUR PROTECTOR INC", "city": "NEW YORK", "state": "NY", "zip": "10128-3622", "ntee": "B01", "ruling": "201510", "deductibility": "1", "assets": 0, "income": 0, "revenue": 0}], "UPKEEP": [{"ein": "475424673", "name": "INNERCITY UPKEEP INC", "city": "ROCHESTER", "state": "NY", "zip": "14619-2224", "ntee": "O50", "ruling": "201512", "deductibility": "1", "assets": 0, "income": 0, "revenue": 0}], "DEEGAN": [{"ein": "522388402", "name": "THE@DEEGAN FOUNDATION", "city": "BROOKLYN", "state": "NY", "zip": "11211-0484", "ntee": "T23", "ruling": "200312", "deductibility": "1", "assets": 7219, "income": 555000, "revenue": 0}, {"ein": "841864478", "name": "DEEGAN TOURNAMENT INC", "city": "BRONX", "state": "NY", "zip": "10453-7134", "ntee": "A23", "ruling": "202305", "deductibility": "1", "assets": 0, "income": 0, "revenue": 0}], "DIVYANAND": [{"ein": "522393551", "name": "DIVYANAND SPIRITUAL FOUNDATION", "city": "STANFORDVILLE", "state": "NY", "zip": "12581-5833", "ntee": "X99", "ruling": "200801", "deductibility": "1", "assets": 0, "income": 0, "revenue": 0}], "RADON": [{"ein": "541909206", "name": "NATIONAL RADON SAFETY BOARD", "city": "ELMSFORD", "state": "NY", "zip": "10523-2502", "ntee": "S40", "ruling": "201111", "deductibility": "2", "assets": 0, "income": 0, "revenue": 0}], "CINGULUM": [{"ein": "562020907", "name": "CINGULUM NEUROSCIENCES INSTITUTE INC", "city": "CICERO", "state": "NY", "zip": "13039-8311", "ntee": "H48", "ruling": "199707", "deductibility": "1", "assets": 0, "income": 0, "revenue": 0}, {"ein": "993280193", "name": "CINGULUM FOUNDATION INC", "city": "OYSTER BAY", "state": "NY", "zip": "11771-1301", "ntee": "H96", "ruling": "202409", "deductibility": "1", "assets": 0, "income": 0, "revenue": 0}], "MPS": [{"ein": "810940084", "name": "MPS FOUNDATION INC", "city": "BROOKLYN", "state": "NY", "zip": "11230-4107", "ntee": "T20", "ruling": "201609", "deductibility": "1", "assets": 16992, "income": 82562, "revenue": 0}], "BIOENERGY": [{"ein": "814497470", "name": "NEW YORK BIOENERGY ASSOCIATION INC", "city": "RENSSELAER", "state": "NY", "zip": "12144-8465", "ntee": "S41", "ruling": "201704", "deductibility": "2", "assets": 0, "income": 0, "revenue": 0}], "7CINEMA": [{"ein": "814591681", "name": "7CINEMA INC", "city": "BROOKLYN", "state": "NY", "zip": "11211-0000", "ntee": "A31", "ruling": "201612", "deductibility": "1", "assets": 0, "income": 0, "revenue": 0}], "ESTIDA": [{"ein": "815381004", "name": "JEANNE ESTIDA OEUVRE CHARITABLE", "city": "BROOKLYN", "state": "NY", "zip": "11236-3312", "ntee": "Q33", "ruling": "201809", "deductibility": "1", "assets": 0, "income": 0, "revenue": 0}], "VAYOKOM": [{"ein": "821766310", "name": "CONGREGATION VAYOKOM PINCHOS", "city": "BROOKLYN", "state": "NY", "zip": "11219-5029", "ntee": "X30", "ruling": "201801", "deductibility": "1", "assets": 0, "income": 0, "revenue": 0}], "FURRED": [{"ein": "822362329", "name": "RESCUERS UNLEASHED FOR FURRED FRIENDS", "city": "OSWEGO", "state": "NY", "zip": "13126-3441", "ntee": "D20", "ruling": "201708", "deductibility": "1", "assets": 0, "income": 0, "revenue": 0}], "KUMBAKONAM": [{"ein": "823476682", "name": "DIOCESE OF KUMBAKONAM INC", "city": "STATEN ISLAND", "state": "NY", "zip": "10310-2033", "ntee": "X22", "ruling": "201801", "deductibility": "1", "assets": 94255, "income": 199480, "revenue": 199480}], "UNREACHABLE": [{"ein": "830815001", "name": "FROM UNREACHABLE TO TANGIBLE", "city": "BRONX", "state": "NY", "zip": "10475-5416", "ntee": "P20", "ruling": "201912", "deductibility": "1", "assets": 0, "income": 0, "revenue": 0}], "MAGGOTTY": [{"ein": "830963414", "name": "MAGGOTTY HIGH ALUMNI ASSOCIATION - UNITED STATES NORTHERN REGION INC", "city": "BRONX", "state": "NY", "zip": "10466-5842", "ntee": "B84", "ruling": "202311", "deductibility": "1", "assets": 11653, "income": 4, "revenue": 4}], "SCOIL": [{"ein": "830969627", "name": "SCOIL RINCE RIORDAN PTA", "city": "NEW YORK", "state": "NY", "zip": "10022-3736", "ntee": "B94", "ruling": "201808", "deductibility": "1", "assets": 0, "income": 0, "revenue": 0}], "BIRDHAUS": [{"ein": "831015340", "name": "BIRDHAUS OF INTERLAKEN FOUNDATION", "city": "NEW YORK", "state": "NY", "zip": "10016-4354", "ntee": "T30", "ruling": "201808", "deductibility": "1", "assets": 0, "income": 0, "revenue": 0}], "REGULATION": [{"ein": "831529643", "name": "CENTER FOR REGULATION FOCUSED PSYCHOTHERAPY", "city": "NYACK", "state": "NY", "zip": "10960-5014", "ntee": "F01", "ruling": "202112", "deductibility": "1", "assets": 0, "income": 0, "revenue": 0}], "SOCAL": [{"ein": "832577885", "name": "SOCAL NETSUITE USER GROUPS INC", "city": "GREAT NECK", "state": "NY", "zip": "11021-3326", "ntee": "S41", "ruling": "201907", "deductibility": "2", "assets": 0, "income": 0, "revenue": 0}], "STACEYS": [{"ein": "832645009", "name": "DAVIDS PLACE & STACEYS WAY INC", "city": "BROOKLYN", "state": "NY", "zip": "11221-1853", "ntee": "P20", "ruling": "201902", "deductibility": "1", "assets": 0, "income": 0, "revenue": 0}], "STRIVEHIGHER": [{"ein": "833405504", "name": "STRIVEHIGHER INC", "city": "BRONX", "state": "NY", "zip": "10467-4323", "ntee": "O50", "ruling": "201906", "deductibility": "1", "assets": 0, "income": 0, "revenue": 0}], "MELIDO": [{"ein": "834160834", "name": "LIGA DE ARBITROS DE BALONCESTO MELIDO-SOBAO INC", "city": "BRONX", "state": "NY", "zip": "10453-6034", "ntee": "N60", "ruling": "202312", "deductibility": "1", "assets": 0, "income": 0, "revenue": 0}], "BOBBYSVALENTINES": [{"ein": "841953896", "name": "BOBBYSVALENTINES ORG", "city": "EAST AMHERST", "state": "NY", "zip": "14051-1267", "ntee": "W30", "ruling": "201911", "deductibility": "1", "assets": 0, "income": 0, "revenue": 0}], "MANTIS": [{"ein": "842359949", "name": "MANTIS FOUNDATION", "city": "ROCHESTER", "state": "NY", "zip": "14623-1603", "ntee": "P99", "ruling": "201908", "deductibility": "1", "assets": 0, "income": 0, "revenue": 0}], "DASKAL": [{"ein": "842635092", "name": "DASKAL FAMILY FOUNDATION INC", "city": "SPRING VALLEY", "state": "NY", "zip": "10977-0000", "ntee": "T20", "ruling": "202003", "deductibility": "1", "assets": 396236, "income": 201500, "revenue": 0}], "SIDEINCAN": [{"ein": "842858521", "name": "SIDEINCAN INC", "city": "ELMONT", "state": "NY", "zip": "11003-2009", "ntee": "P51", "ruling": "201911", "deductibility": "1", "assets": 0, "income": 0, "revenue": 0}], "INPRESENT": [{"ein": "843111846", "name": "INPRESENT FOUNDATION INC", "city": "MANHATTAN", "state": "NY", "zip": "10018-2794", "ntee": "F99", "ruling": "202507", "deductibility": "1", "assets": 261266, "income": 382, "revenue": 382}], "HENNY": [{"ein": "843279150", "name": "JERUSALEM CHESED-CHASDEI HENNY", "city": "BROOKLYN", "state": "NY", "zip": "11210-0000", "ntee": "X30", "ruling": "202001", "deductibility": "1", "assets": 54068, "income": 497466, "revenue": 497466}], "GAYMERS": [{"ein": "844475492", "name": "NYC GAYMERS INC", "city": "BRONX", "state": "NY", "zip": "10466-6188", "ntee": "R26", "ruling": "202202", "deductibility": "1", "assets": 0, "income": 0, "revenue": 0}], "ZIG": [{"ein": "845105214", "name": "ZIG SOFTWARE FOUNDATION INC", "city": "NEW YORK", "state": "NY", "zip": "10128-5177", "ntee": "U41", "ruling": "202004", "deductibility": "1", "assets": 223994, "income": 670673, "revenue": 670673}], "BRIDGE4GOOD": [{"ein": "851724643", "name": "BRIDGE4GOOD INC", "city": "NEW YORK", "state": "NY", "zip": "10128-2394", "ntee": "T50", "ruling": "202103", "deductibility": "1", "assets": 0, "income": 0, "revenue": 0}], "MALAW": [{"ein": "851919154", "name": "MALAW RISE CORP", "city": "NEW YORK", "state": "NY", "zip": "10022-2429", "ntee": "N62", "ruling": "202104", "deductibility": "1", "assets": 5851, "income": 26967, "revenue": 0}], "ROBIYA": [{"ein": "852373989", "name": "ROBIYA FIRST INC", "city": "VALLEY STREAM", "state": "NY", "zip": "11581-3632", "ntee": "S20", "ruling": "202109", "deductibility": "1", "assets": 0, "income": 0, "revenue": 0}], "STITT": [{"ein": "852753005", "name": "STITT FOUNDATION INC", "city": "OLEAN", "state": "NY", "zip": "14760-1746", "ntee": "T20", "ruling": "202103", "deductibility": "1", "assets": 5477534, "income": 2013182, "revenue": 0}], "SCHAENGOLD": [{"ein": "852833640", "name": "LINDA B TALLY AND JEFF SCHAENGOLD FOUNDATION", "city": "EAST HAMPTON", "state": "NY", "zip": "11937-2459", "ntee": "P40", "ruling": "202310", "deductibility": "1", "assets": 175685, "income": 72993, "revenue": 0}], "LIDER": [{"ein": "853748434", "name": "TU LIDER INC", "city": "NEW YORK", "state": "NY", "zip": "10004-1744", "ntee": "P30", "ruling": "202106", "deductibility": "1", "assets": 0, "income": 0, "revenue": 0}], "DROPLET": [{"ein": "861396471", "name": "DROPLET FOUNDATION INC", "city": "NEW YORK", "state": "NY", "zip": "10013-2937", "ntee": "T22", "ruling": "202108", "deductibility": "1", "assets": 8793, "income": 1, "revenue": 0}], "RUZIN": [{"ein": "862195393", "name": "CONG RUZIN SADIGURA", "city": "BROOKLYN", "state": "NY", "zip": "11219-3556", "ntee": "X30", "ruling": "202504", "deductibility": "1", "assets": 0, "income": 0, "revenue": 0}], "TEENTOK": [{"ein": "870832727", "name": "TEENTOK ORGANIZATION INC", "city": "NEW YORK", "state": "NY", "zip": "10002-2005", "ntee": "O50", "ruling": "202109", "deductibility": "1", "assets": 0, "income": 0, "revenue": 0}], "MERESTEAD": [{"ein": "881190908", "name": "MERESTEAD CONSERVANCY INCORPORATED", "city": "MOUNT KISCO", "state": "NY", "zip": "10549-0165", "ntee": "A80", "ruling": "202203", "deductibility": "1", "assets": 0, "income": 0, "revenue": 0}], "LITTER": [{"ein": "882448356", "name": "LITTER LEGION INC", "city": "NEW YORK", "state": "NY", "zip": "10101-0000", "ntee": "P20", "ruling": "202208", "deductibility": "1", "assets": 25821, "income": 4828, "revenue": 4828}], "TAGHEART": [{"ein": "883222570", "name": "TAGHEART FOUNDATION", "city": "VALLEY STREAM", "state": "NY", "zip": "11581-0000", "ntee": "T50", "ruling": "202208", "deductibility": "1", "assets": 0, "income": 0, "revenue": 0}], "JOINERY": [{"ein": "884150571", "name": "SARATOGA JOINERY INC", "city": "SARATOGA SPGS", "state": "NY", "zip": "12866-3202", "ntee": "B60", "ruling": "202311", "deductibility": "1", "assets": 93282, "income": 209340, "revenue": 208749}], "LAWTONS": [{"ein": "901247916", "name": "LAWTONS VOLUNTEER FIRE COMPANY INC", "city": "LAWTONS", "state": "NY", "zip": "14091-0000", "ntee": "M20", "ruling": "202002", "deductibility": "1", "assets": 351773, "income": 90597, "revenue": 82866}], "COLOSSEUM": [{"ein": "921422962", "name": "COLOSSEUM DREAMS INC", "city": "BRONX", "state": "NY", "zip": "10461-5706", "ntee": "S01", "ruling": "202502", "deductibility": "1", "assets": 100, "income": 24086, "revenue": 0}], "REMARKABLE": [{"ein": "921467500", "name": "REMARKABLE WOMEN PROJECT INC", "city": "VERPLANCK", "state": "NY", "zip": "10596-0115", "ntee": "A80", "ruling": "202302", "deductibility": "1", "assets": 0, "income": 0, "revenue": 0}], "ITIPAIKAH": [{"ein": "921507143", "name": "ITIPAIKAH FOUNDATION INC", "city": "DRYDEN", "state": "NY", "zip": "13053-9800", "ntee": "M20", "ruling": "202402", "deductibility": "1", "assets": 1, "income": 1, "revenue": 0}], "GOODYEAR": [{"ein": "931563775", "name": "GOODYEAR LAKE POLAR BEARS INC", "city": "MILFORD", "state": "NY", "zip": "13807-0000", "ntee": "O50", "ruling": "202312", "deductibility": "1", "assets": 0, "income": 0, "revenue": 0}], "CALCULATED": [{"ein": "932768778", "name": "CALCULATED FOR YOU", "city": "FLUSHING", "state": "NY", "zip": "11358-2005", "ntee": "B99", "ruling": "202309", "deductibility": "1", "assets": 0, "income": 0, "revenue": 0}], "PANG": [{"ein": "933472724", "name": "DR HSIN-PANG HP WANG API FOUNDATION", "city": "REXFORD", "state": "NY", "zip": "12148-1341", "ntee": "S21", "ruling": "202502", "deductibility": "1", "assets": 0, "income": 0, "revenue": 0}], "DANCEPROJECT": [{"ein": "933692562", "name": "ZCO DANCEPROJECT", "city": "SAINT ALBANS", "state": "NY", "zip": "11412-0000", "ntee": "A60", "ruling": "202312", "deductibility": "1", "assets": 0, "income": 0, "revenue": 0}], "LOVETT": [{"ein": "933878539", "name": "TAYLOR LOVETT DANCE ACADEMY INC", "city": "BROOKLYN", "state": "NY", "zip": "11203-3459", "ntee": "A62", "ruling": "202312", "deductibility": "1", "assets": 0, "income": 0, "revenue": 0}], "SHOMRON": [{"ein": "934623667", "name": "AMERICAN FRIENDS OF SHOMRON", "city": "FLUSHING", "state": "NY", "zip": "11367-2333", "ntee": "W12", "ruling": "202406", "deductibility": "1", "assets": 0, "income": 0, "revenue": 0}], "UPWARDLY": [{"ein": "943346127", "name": "UPWARDLY GLOBAL", "city": "NEW YORK", "state": "NY", "zip": "10018-4529", "ntee": "J21", "ruling": "200003", "deductibility": "1", "assets": 31782416, "income": 22917582, "revenue": 22391041}], "BIPOLARS": [{"ein": "992336971", "name": "BRILLIANT BIPOLARS INC", "city": "SCARSDALE", "state": "NY", "zip": "10583-2631", "ntee": "F19", "ruling": "202411", "deductibility": "1", "assets": 0, "income": 0, "revenue": 0}], "ROSTOVSKY": [{"ein": "993827034", "name": "FRIDSHCHEPIN-ROSTOVSKY FOUNDATION", "city": "SOUTHAMPTON", "state": "NY", "zip": "11968-3731", "ntee": "B99", "ruling": "202408", "deductibility": "1", "assets": 0, "income": 0, "revenue": 0}], "GRAVESITE": [{"ein": "995141522", "name": "HOUDINI GRAVESITE CORPORATION", "city": "BROOKLYN", "state": "NY", "zip": "11237-5220", "ntee": "T02", "ruling": "202507", "deductibility": "1", "assets": 0, "income": 0, "revenue": 0}]}