{"WASSERMAN": [{"ein": "010621340", "name": "WASSERMAN FAMILY FOUNDATION INC", "city": "FLORAL PARK", "state": "NY", "zip": "11005-1229", "ntee": "T21", "ruling": "200208", "deductibility": "1", "assets": 196151, "income": 51589, "revenue": 0}, {"ein": "010722403", "name": "L P WASSERMAN FAMILY FOUNDATION", "city": "SCARSDALE", "state": "NY", "zip": "10583-7661", "ntee": "T22", "ruling": "200207", "deductibility": "1", "assets": 1498475, "income": 242135, "revenue": 0}, {"ein": "113641752", "name": "THE@B WASSERMAN FAMILY FOUNDATION", "city": "GARDEN CITY", "state": "NY", "zip": "11530-4843", "ntee": "T90", "ruling": "200204", "deductibility": "1", "assets": 78140, "income": 5, "revenue": 0}, {"ein": "133961422", "name": "BERT AND SANDRA WASSERMAN FOUNDATION INC", "city": "NEW YORK", "state": "NY", "zip": "10017-6595", "ntee": "T22Z", "ruling": "199709", "deductibility": "1", "assets": 19567318, "income": 1798592, "revenue": 0}], "MIDDLETOWN": [{"ein": "010834413", "name": "HISTORICAL SOCIETY OF THE TOWN OF MIDDLETOWN DELAWARE COUNTY", "city": "MARGARETVILLE", "state": "NY", "zip": "12455-0734", "ntee": "A80", "ruling": "200508", "deductibility": "1", "assets": 460360, "income": 58445, "revenue": 58445}, {"ein": "061288696", "name": "MIDDLETOWN YOUTH SOCCER CLUB INC", "city": "MIDDLETOWN", "state": "NY", "zip": "10940-4112", "ntee": "O50", "ruling": "202309", "deductibility": "1", "assets": 0, "income": 0, "revenue": 0}, {"ein": "061291251", "name": "MIDDLETOWN CHRISTIAN SCHOOL OF SDA", "city": "MIDDLETOWN", "state": "NY", "zip": "10940-5531", "ntee": "", "ruling": "194704", "deductibility": "1", "assets": 0, "income": 0, "revenue": 0}, {"ein": "061401412", "name": "DOWNTOWN MIDDLETOWN DISTRICT MANAGEMENT ASSOCIATION INC", "city": "MIDDLETOWN", "state": "NY", "zip": "10940-5801", "ntee": "S31", "ruling": "200803", "deductibility": "1", "assets": 27994, "income": 102816, "revenue": 102816}, {"ein": "066409945", "name": "MIDDLETOWN TEACHERS ASSOCIATION BENEFIT FUND", "city": "MIDDLETOWN", "state": "NY", "zip": "10940-0197", "ntee": "", "ruling": "199706", "deductibility": "2", "assets": 257072, "income": 172454, "revenue": 172454}, {"ein": "133504769", "name": "WOMENS UNIVERSITY CLUB OF MIDDLETOWN NY INC", "city": "MIDDLETOWN", "state": "NY", "zip": "10940-3017", "ntee": "", "ruling": "199008", "deductibility": "1", "assets": 0, "income": 0, "revenue": 0}, {"ein": "133790582", "name": "FRIENDS OF MIDDLETOWN THRALL LIBRARY INC", "city": "MIDDLETOWN", "state": "NY", "zip": "10940-0000", "ntee": "I99", "ruling": "199701", "deductibility": "1", "assets": 408889, "income": 44867, "revenue": 44867}, {"ein": "133887176", "name": "FRIENDS OF MUSIC IN MIDDLETOWN INC", "city": "NORTH BAY", "state": "NY", "zip": "13123-0364", "ntee": "A60", "ruling": "199607", "deductibility": "1", "assets": 0, "income": 0, "revenue": 0}, {"ein": "134092879", "name": "MIDDLETOWN ISLAMIC CENTER INC", "city": "NEW HAMPTON", "state": "NY", "zip": "10958-0000", "ntee": "X40", "ruling": "200002", "deductibility": "1", "assets": 0, "income": 0, "revenue": 0}, {"ein": "134188799", "name": "MIDDLETOWN CHURCH OF CHRIST", "city": "MIDDLETOWN", "state": "NY", "zip": "10941-8713", "ntee": "X21", "ruling": "201612", "deductibility": "1", "assets": 0, "income": 0, "revenue": 0}, {"ein": "141340134", "name": "YOUNG MENS CHRISTIAN ASSOCIATION OF MIDDLETOWN NY", "city": "MIDDLETOWN", "state": "NY", "zip": "10940-5413", "ntee": "P27Z", "ruling": "194309", "deductibility": "1", "assets": 18860145, "income": 13317012, "revenue": 12760691}, {"ein": "141364561", "name": "MIDDLETOWN DAY NURSERY ASSOCIATION", "city": "MIDDLETOWN", "state": "NY", "zip": "10940-5013", "ntee": "P330", "ruling": "194107", "deductibility": "1", "assets": 396076, "income": 625056, "revenue": 625056}, {"ein": "141422081", "name": "MIDDLETOWN-GOSHEN CONVALESCENT CHILDRENS HOME INC", "city": "MIDDLETOWN", "state": "NY", "zip": "10940-0288", "ntee": "E91Z", "ruling": "194407", "deductibility": "1", "assets": 115598, "income": 95664, "revenue": 95664}, {"ein": "141440643", "name": "UNITARIAN UNIVERSALIST CHURCH IN MIDDLETOWN NEW YORK", "city": "MIDDLETOWN", "state": "NY", "zip": "10940-0676", "ntee": "", "ruling": "198007", "deductibility": "1", "assets": 0, "income": 0, "revenue": 0}, {"ein": "141470716", "name": "HUMANE SOCIETY OF MIDDLETOWN INC", "city": "MIDDLETOWN", "state": "NY", "zip": "10940-1401", "ntee": "D200", "ruling": "197401", "deductibility": "1", "assets": 1273375, "income": 751477, "revenue": 730894}, {"ein": "141601501", "name": "CHRISTIAN AND MISSIONARY ALLIANCE CHURCH OF MIDDLETOWN NEW YORK", "city": "MIDDLETOWN", "state": "NY", "zip": "10940-6934", "ntee": "", "ruling": "000000", "deductibility": "1", "assets": 0, "income": 0, "revenue": 0}, {"ein": "141686755", "name": "UNITED BROTHERS IN CHRIST CHURCH OF MIDDLETOWN NY INC", "city": "MIDDLETOWN", "state": "NY", "zip": "10940-4903", "ntee": "X21", "ruling": "200306", "deductibility": "1", "assets": 0, "income": 0, "revenue": 0}, {"ein": "141779168", "name": "MIDDLETOWN AND NEW JERSEY RAILWAY HISTORICAL SOCIETY", "city": "NEW HAMPTON", "state": "NY", "zip": "10958-0848", "ntee": "A80", "ruling": "201408", "deductibility": "1", "assets": 0, "income": 0, "revenue": 0}, {"ein": "146017096", "name": "HISTORICAL SOCIETY OF MIDDLETOWN AND THE WALLKILL PRECINCT INC", "city": "MIDDLETOWN", "state": "NY", "zip": "10940-0034", "ntee": "", "ruling": "194106", "deductibility": "1", "assets": 240566, "income": 36219, "revenue": 0}, {"ein": "311599300", "name": "MIDDLETOWN HISTORICAL SOCIETY OF STEUBEN COUNTY", "city": "ADDISON", "state": "NY", "zip": "14801-1226", "ntee": "A80", "ruling": "199808", "deductibility": "1", "assets": 0, "income": 0, "revenue": 0}, {"ein": "421760683", "name": "UNITED PRESBYTERIAN CHURCH OF MIDDLETOWN", "city": "MIDDLETOWN", "state": "NY", "zip": "10940-5004", "ntee": "", "ruling": "196401", "deductibility": "1", "assets": 0, "income": 0, "revenue": 0}, {"ein": "454472566", "name": "CITY OF MIDDLETOWN K9 ASSOCIATION INC", "city": "MIDDLETOWN", "state": "NY", "zip": "10940-5710", "ntee": "I60", "ruling": "201405", "deductibility": "1", "assets": 0, "income": 0, "revenue": 0}, {"ein": "455255334", "name": "MIDDLETOWN MIDDIE BEARS", "city": "MIDDLETOWN", "state": "NY", "zip": "10940-3240", "ntee": "N65", "ruling": "201502", "deductibility": "1", "assets": 0, "income": 0, "revenue": 0}, {"ein": "464330267", "name": "MIDDLETOWN TRACK CLUB", "city": "SPARROWBUSH", "state": "NY", "zip": "12780-5109", "ntee": "N70", "ruling": "202108", "deductibility": "1", "assets": 0, "income": 0, "revenue": 0}, {"ein": "471582189", "name": "MIDDLETOWN LIONS CLUB FOUNDATION", "city": "MIDDLETOWN", "state": "NY", "zip": "10940-0122", "ntee": "T99", "ruling": "201503", "deductibility": "1", "assets": 0, "income": 0, "revenue": 0}, {"ein": "475121266", "name": "BUSINESS AND PROFESSIONAL WOMENS CULB OF MIDDLETOWN INC", "city": "MIDDLETOWN", "state": "NY", "zip": "10940-0940", "ntee": "B82", "ruling": "201510", "deductibility": "1", "assets": 0, "income": 0, "revenue": 0}, {"ein": "811006736", "name": "MIDDLETOWN CONCERT CHORALE INC", "city": "MIDDLETOWN", "state": "NY", "zip": "10940-5004", "ntee": "A6B", "ruling": "201601", "deductibility": "1", "assets": 0, "income": 0, "revenue": 0}, {"ein": "873280900", "name": "MIDDLETOWN YOUTH SPORTS FOUNDATION INC", "city": "MIDDLETOWN", "state": "NY", "zip": "10940-4749", "ntee": "A11", "ruling": "202201", "deductibility": "1", "assets": 0, "income": 0, "revenue": 0}, {"ein": "911882749", "name": "MIDDLETOWN POLICE BENEVOLENT ASSOCIATION INC", "city": "MIDDLETOWN", "state": "NY", "zip": "10940-5710", "ntee": "", "ruling": "201101", "deductibility": "2", "assets": 98805, "income": 138739, "revenue": 98072}], "PS": [{"ein": "010849293", "name": "PS 110M PARENT TEACHERS ASSOCIATION INC", "city": "NEW YORK", "state": "NY", "zip": "10002-3664", "ntee": "B94", "ruling": "202203", "deductibility": "1", "assets": 57329, "income": 35693, "revenue": 13535}, {"ein": "030550097", "name": "PTA PS 26", "city": "STATEN ISLAND", "state": "NY", "zip": "10314-6743", "ntee": "B94", "ruling": "201412", "deductibility": "1", "assets": 0, "income": 0, "revenue": 0}, {"ein": "043798125", "name": "PTA OF PS 184 FLUSHING MANOR SCHOOL", "city": "WHITESTONE", "state": "NY", "zip": "11357-4000", "ntee": "B11", "ruling": "201409", "deductibility": "1", "assets": 22170, "income": 45572, "revenue": -8042}, {"ein": "112747681", "name": "PARENTS AND TEACHERS ASSOCIATION OF PS 127", "city": "BROOKLYN", "state": "NY", "zip": "11228-2601", "ntee": "B94", "ruling": "202206", "deductibility": "1", "assets": 0, "income": 0, "revenue": 0}, {"ein": "113134458", "name": "PTA OF PS 261K", "city": "BROOKLYN", "state": "NY", "zip": "11201-6313", "ntee": "B94Z", "ruling": "199512", "deductibility": "1", "assets": 308754, "income": 1380283, "revenue": 1348876}, {"ein": "113596441", "name": "PS 38 PARENT TEACHER ASSOCIATION", "city": "BROOKLYN", "state": "NY", "zip": "11217-1810", "ntee": "B94", "ruling": "201610", "deductibility": "1", "assets": 59550, "income": 157275, "revenue": 122634}, {"ein": "113633719", "name": "PARENT TEACHER ASSOCIATION OF PS/IS499Q THE QUEENS COLLEGE", "city": "FLUSHING", "state": "NY", "zip": "11367-1269", "ntee": "B94", "ruling": "202005", "deductibility": "1", "assets": 0, "income": 0, "revenue": 0}, {"ein": "113730203", "name": "PTA NEW YORK CONGRESS PS-MS 138", "city": "BROOKLYN", "state": "NY", "zip": "11216-3602", "ntee": "B94", "ruling": "202303", "deductibility": "1", "assets": 0, "income": 0, "revenue": 0}, {"ein": "133218971", "name": "PTA NEW YORK CONGRESS PS 69", "city": "STATEN ISLAND", "state": "NY", "zip": "10314-6145", "ntee": "T1", "ruling": "200904", "deductibility": "1", "assets": 11570, "income": 64297, "revenue": 18972}, {"ein": "133332178", "name": "PARENT-TEACHER ASSOCIATION PS IS 217M INC", "city": "ROOSEVELT ISL", "state": "NY", "zip": "10044-0010", "ntee": "Z99Z", "ruling": "199201", "deductibility": "1", "assets": 163318, "income": 266782, "revenue": 203561}, {"ein": "133343008", "name": "PS 87 PA INC", "city": "NEW YORK", "state": "NY", "zip": "10024-6701", "ntee": "", "ruling": "198708", "deductibility": "1", "assets": 920611, "income": 638402, "revenue": 638402}, {"ein": "133497284", "name": "PS 75 PARENT TEACHERS ASSOCIATION LTD", "city": "NEW YORK", "state": "NY", "zip": "10025-0000", "ntee": "B94Z", "ruling": "199608", "deductibility": "1", "assets": 402022, "income": 632070, "revenue": 632070}, {"ein": "133639266", "name": "THE PARENT TEACHER ASSOCIATION OF PS 41 MANHATTAN", "city": "NEW YORK", "state": "NY", "zip": "10011-8306", "ntee": "B94Z", "ruling": "199401", "deductibility": "1", "assets": 553132, "income": 821534, "revenue": 600967}, {"ein": "133652222", "name": "THE TRIBECA LEARNING CENTER PS 150 PARENT TEACHER ASSOCIATION INC", "city": "NEW YORK", "state": "NY", "zip": "10006-0000", "ntee": "B94", "ruling": "202004", "deductibility": "1", "assets": 272506, "income": 430031, "revenue": 366248}, {"ein": "133786766", "name": "PS 32 RICHMOND", "city": "STATEN ISLAND", "state": "NY", "zip": "10308-1503", "ntee": "B94", "ruling": "200811", "deductibility": "1", "assets": 19748, "income": 76690, "revenue": 31280}, {"ein": "133790193", "name": "PTA OF PS 30 R", "city": "STATEN ISLAND", "state": "NY", "zip": "10314-2248", "ntee": "B24", "ruling": "201812", "deductibility": "1", "assets": 22141, "income": 161252, "revenue": 43831}, {"ein": "133823151", "name": "PARENT AND TEACHERS ASSOCIATION OF PS 116", "city": "NEW YORK", "state": "NY", "zip": "10016-0000", "ntee": "B94", "ruling": "199601", "deductibility": "1", "assets": 434073, "income": 114945, "revenue": 78283}, {"ein": "133897940", "name": "PS 183 PARENTS-TEACHERS ASSOCIATION INC", "city": "NEW YORK", "state": "NY", "zip": "10065-6303", "ntee": "B94", "ruling": "202301", "deductibility": "1", "assets": 405947, "income": 575257, "revenue": 570648}, {"ein": "134029933", "name": "56 PS PTAN", "city": "STATEN ISLAND", "state": "NY", "zip": "10309-4227", "ntee": "", "ruling": "200712", "deductibility": "1", "assets": 58287, "income": 124867, "revenue": 124867}, {"ein": "134106823", "name": "PARENTS OF PS 9 INC", "city": "NEW YORK", "state": "NY", "zip": "10024-4618", "ntee": "B112", "ruling": "200102", "deductibility": "1", "assets": 1033274, "income": 828892, "revenue": 762817}, {"ein": "134287932", "name": "PS IS 111 PARENT TEACHER ASSOCIATION INC", "city": "NEW YORK", "state": "NY", "zip": "10019-5604", "ntee": "B11", "ruling": "201412", "deductibility": "1", "assets": 127065, "income": 62330, "revenue": 41863}, {"ein": "134357052", "name": "PARENT TEACHER ASSOCIATION PS 55R", "city": "STATEN ISLAND", "state": "NY", "zip": "10312-5508", "ntee": "B112", "ruling": "200712", "deductibility": "1", "assets": 31526, "income": 115996, "revenue": 70785}, {"ein": "141818409", "name": "PS 21 INC", "city": "CHATHAM", "state": "NY", "zip": "12037-3613", "ntee": "A60", "ruling": "201601", "deductibility": "1", "assets": 10337737, "income": 1304166, "revenue": 0}, {"ein": "200293847", "name": "PS 191 - HUDSON HONORS PARENT ASSOCIATION", "city": "NEW YORK", "state": "NY", "zip": "10023-1102", "ntee": "B94", "ruling": "201507", "deductibility": "1", "assets": 0, "income": 0, "revenue": 0}, {"ein": "201670261", "name": "FRIENDS OF PS 163 INC", "city": "NEW YORK", "state": "NY", "zip": "10025-6453", "ntee": "B112", "ruling": "200504", "deductibility": "1", "assets": 101661, "income": 55286, "revenue": 48214}, {"ein": "203283654", "name": "PS 226 NADIA J PAGAN GYMNASIUM FUND INC", "city": "NEW YORK", "state": "NY", "zip": "10007-2909", "ntee": "B112", "ruling": "200606", "deductibility": "1", "assets": 136965, "income": 5894, "revenue": 0}, {"ein": "204592889", "name": "PS 11 PARENT TEACHER ASSOCIATION INC", "city": "BROOKLYN", "state": "NY", "zip": "11238-1705", "ntee": "B94", "ruling": "201811", "deductibility": "1", "assets": 680276, "income": 1999689, "revenue": 1909426}, {"ein": "237086633", "name": "PTA NEW YORK CONGRESS PS-54R", "city": "STATEN ISLAND", "state": "NY", "zip": "10314-6518", "ntee": "", "ruling": "197012", "deductibility": "1", "assets": 1649, "income": 87132, "revenue": 87132}, {"ein": "237376057", "name": "PARENT TEACHER ASSOCIATION OF LILLIE DEVEREAUX BLAKE SCHOOL PS 6", "city": "NEW YORK", "state": "NY", "zip": "10028-0263", "ntee": "", "ruling": "197406", "deductibility": "1", "assets": 944627, "income": 950029, "revenue": 852859}, {"ein": "237439770", "name": "PTA NEW YORK CONGRESS PS 60", "city": "STATEN ISLAND", "state": "NY", "zip": "10314-3311", "ntee": "", "ruling": "000000", "deductibility": "1", "assets": 32882, "income": 56566, "revenue": 32553}, {"ein": "260458163", "name": "PS 172", "city": "BROOKLYN", "state": "NY", "zip": "11232-1701", "ntee": "B94", "ruling": "202306", "deductibility": "1", "assets": 31968, "income": 83651, "revenue": 82511}, {"ein": "261316102", "name": "PTA OF PS 53", "city": "STATEN ISLAND", "state": "NY", "zip": "10308-3030", "ntee": "B82", "ruling": "200901", "deductibility": "1", "assets": 128872, "income": 129446, "revenue": 129446}, {"ein": "261539105", "name": "PS 19 BRONX HOME & SCHOOL ASSOCIATION", "city": "BRONX", "state": "NY", "zip": "10470-2016", "ntee": "B94", "ruling": "201412", "deductibility": "1", "assets": 0, "income": 0, "revenue": 0}, {"ein": "263370180", "name": "PS 130 PARKSIDE PTA", "city": "BROOKLYN", "state": "NY", "zip": "11218-1532", "ntee": "B94", "ruling": "201408", "deductibility": "1", "assets": 131002, "income": 310035, "revenue": 264146}, {"ein": "263391196", "name": "PTA OF PS 5 CORP", "city": "STATEN ISLAND", "state": "NY", "zip": "10312-4400", "ntee": "B94", "ruling": "200909", "deductibility": "1", "assets": 67042, "income": 167752, "revenue": 167752}, {"ein": "263482468", "name": "FRIENDS OF PS-IS 187", "city": "NEW YORK", "state": "NY", "zip": "10040-3950", "ntee": "B112", "ruling": "201105", "deductibility": "1", "assets": 58443, "income": 65619, "revenue": 46461}, {"ein": "264153754", "name": "FRIENDS AND FAMILY OF PS 11", "city": "NEW YORK", "state": "NY", "zip": "10011-3303", "ntee": "B94", "ruling": "201011", "deductibility": "1", "assets": 507780, "income": 679331, "revenue": 568646}, {"ein": "270492999", "name": "SPRUCE STREET SCHOOL PS 397 PARENT- TEACHER ASSOCIATION INC", "city": "NEW YORK", "state": "NY", "zip": "10038-1523", "ntee": "T30", "ruling": "201002", "deductibility": "1", "assets": 434654, "income": 280591, "revenue": 261867}, {"ein": "271082596", "name": "YORKVILLE COMMUNITY SCHOOL PS 151 PARENT-TEACHER ASSOCIATION", "city": "NEW YORK", "state": "NY", "zip": "10128-6601", "ntee": "B94", "ruling": "202506", "deductibility": "1", "assets": 214070, "income": 125733, "revenue": 107912}, {"ein": "271161273", "name": "PTA OF THE STATEN ISLAND SCHOOL OF CIVIC LEADERSHIP - PS 861", "city": "STATEN ISLAND", "state": "NY", "zip": "10314-1427", "ntee": "B11", "ruling": "201212", "deductibility": "1", "assets": 0, "income": 0, "revenue": 0}, {"ein": "271580839", "name": "PS 230 PTA", "city": "BROOKLYN", "state": "NY", "zip": "11218-2201", "ntee": "B94", "ruling": "201406", "deductibility": "1", "assets": 79091, "income": 48034, "revenue": 27638}, {"ein": "273588800", "name": "PARENT TEACHER ASSOCIATION OF PS 45 2 INC", "city": "NEW YORK", "state": "NY", "zip": "10023-7803", "ntee": "B94", "ruling": "201111", "deductibility": "1", "assets": 120605, "income": 260970, "revenue": 205040}, {"ein": "273632716", "name": "EASTSIDE ELEMENTARY SCHOOL PS 267 PARENT TEACHER ASSOCIATION", "city": "NEW YORK", "state": "NY", "zip": "10065-7442", "ntee": "B12", "ruling": "201103", "deductibility": "1", "assets": 147885, "income": 361906, "revenue": 235946}, {"ein": "300072634", "name": "PTA PS 95", "city": "BROOKLYN", "state": "NY", "zip": "11223-3830", "ntee": "B20", "ruling": "202205", "deductibility": "1", "assets": 0, "income": 0, "revenue": 0}, {"ein": "300497625", "name": "PS 126 MANHATTEN ACADEMY OF TECHNOLOGY PARENTS ASSOCIATION", "city": "NEW YORK", "state": "NY", "zip": "10038-0000", "ntee": "B94", "ruling": "201711", "deductibility": "1", "assets": 70861, "income": 68113, "revenue": 68113}, {"ein": "300500629", "name": "PS 42 PTA ELTINGVILLE SCHOOL", "city": "STATEN ISLAND", "state": "NY", "zip": "10312-3202", "ntee": "B94", "ruling": "200909", "deductibility": "1", "assets": 83293, "income": 210775, "revenue": 116834}, {"ein": "300632458", "name": "PS 373R PARENT TEACHER ASSOCIATION", "city": "STATEN ISLAND", "state": "NY", "zip": "10301-2107", "ntee": "B12", "ruling": "201805", "deductibility": "1", "assets": 0, "income": 0, "revenue": 0}, {"ein": "300693322", "name": "PS 198M PARENT TEACHER ASSOCIATION INC", "city": "NEW YORK", "state": "NY", "zip": "10128-2627", "ntee": "B94", "ruling": "201205", "deductibility": "1", "assets": 412088, "income": 227102, "revenue": 227102}, {"ein": "300708289", "name": "PTA OF PS 146 QUEENS", "city": "HOWARD BEACH", "state": "NY", "zip": "11414-3543", "ntee": "B94", "ruling": "201206", "deductibility": "1", "assets": 11393, "income": 76716, "revenue": 76716}, {"ein": "300888481", "name": "PS 32 XQ PARENT TEACHER ASSOCIATION", "city": "FLUSHING", "state": "NY", "zip": "11358-0000", "ntee": "B12", "ruling": "201704", "deductibility": "1", "assets": 35482, "income": 63485, "revenue": 51192}, {"ein": "311788301", "name": "PS 3 TIL 6 INC", "city": "NEW YORK", "state": "NY", "zip": "10011-8436", "ntee": "O50", "ruling": "200110", "deductibility": "1", "assets": 394971, "income": 1080478, "revenue": 1080478}, {"ein": "352400667", "name": "PARENT-TEACHER ASSOCIATION OF PS 175", "city": "BRONX", "state": "NY", "zip": "10464-1509", "ntee": "B94", "ruling": "201607", "deductibility": "1", "assets": 0, "income": 0, "revenue": 0}, {"ein": "352517211", "name": "PARENT TEACHER ASSOCIATION OF PS 130Q NIC", "city": "BAYSIDE", "state": "NY", "zip": "11361-1872", "ntee": "B94", "ruling": "201502", "deductibility": "1", "assets": 0, "income": 0, "revenue": 0}, {"ein": "364741556", "name": "PARENT ASSOCIATION OF PS 174Q", "city": "REGO PARK", "state": "NY", "zip": "11374-5029", "ntee": "B94", "ruling": "202405", "deductibility": "1", "assets": 0, "income": 0, "revenue": 0}, {"ein": "371742177", "name": "PARENT TEACHER ASSOCIATION OF PS 9", "city": "STATEN ISLAND", "state": "NY", "zip": "10304-4450", "ntee": "B94", "ruling": "201503", "deductibility": "1", "assets": 33686, "income": 106323, "revenue": 69237}, {"ein": "372004783", "name": "PS 347 THE AMRICAN SIGN LANGUAGE AND ENGLISH LOWER SCHOOL PARENT TE", "city": "NEW YORK", "state": "NY", "zip": "10010-3901", "ntee": "B94", "ruling": "202203", "deductibility": "1", "assets": 0, "income": 0, "revenue": 0}, {"ein": "383708491", "name": "PARENT TEACHER ASSOCIATION PS 180", "city": "NEW YORK", "state": "NY", "zip": "10027-5104", "ntee": "B19", "ruling": "201302", "deductibility": "1", "assets": 0, "income": 0, "revenue": 0}, {"ein": "383954776", "name": "PS 124 BROOKLYN PTA INC", "city": "BROOKLYN", "state": "NY", "zip": "11215-4712", "ntee": "B94", "ruling": "201503", "deductibility": "1", "assets": 0, "income": 0, "revenue": 0}, {"ein": "450576245", "name": "PARENT TEACHER ASSOCIATION OF PS 166 Q INC", "city": "LONG IS CITY", "state": "NY", "zip": "11106-1220", "ntee": "B94", "ruling": "201607", "deductibility": "1", "assets": 25003, "income": 79446, "revenue": 73617}, {"ein": "455399081", "name": "PARENTS ASSOCIATION OF PS 178 INC", "city": "NEW YORK", "state": "NY", "zip": "10040-1905", "ntee": "B94", "ruling": "201511", "deductibility": "1", "assets": 0, "income": 0, "revenue": 0}, {"ein": "463853265", "name": "PTA PS 59 THE HARBOR VIEW SCHOOL", "city": "STATEN ISLAND", "state": "NY", "zip": "10301-1512", "ntee": "B94", "ruling": "201502", "deductibility": "1", "assets": 0, "income": 0, "revenue": 0}, {"ein": "463880183", "name": "PS 150 QUEENS PTA", "city": "SUNNYSIDE", "state": "NY", "zip": "11104-3205", "ntee": "B94", "ruling": "201709", "deductibility": "1", "assets": 0, "income": 0, "revenue": 0}, {"ein": "464156799", "name": "THE PARENT TEACHERS ASSOCIATION OF PS 304", "city": "BRONX", "state": "NY", "zip": "10465-2210", "ntee": "B94", "ruling": "201506", "deductibility": "1", "assets": 0, "income": 0, "revenue": 0}, {"ein": "465238225", "name": "PARENT ASSOCIATION OF PS 139", "city": "BROOKLYN", "state": "NY", "zip": "11226-4552", "ntee": "B11", "ruling": "201508", "deductibility": "1", "assets": 104128, "income": 52045, "revenue": 39784}, {"ein": "472178796", "name": "PS 50R PTA INC", "city": "STATEN ISLAND", "state": "NY", "zip": "10306-3923", "ntee": "B11", "ruling": "201510", "deductibility": "1", "assets": 44614, "income": 0, "revenue": 0}, {"ein": "472271747", "name": "PS 41 CHESS CLUB INC", "city": "NEW YORK", "state": "NY", "zip": "10011-8306", "ntee": "O50", "ruling": "201504", "deductibility": "1", "assets": 0, "income": 0, "revenue": 0}, {"ein": "472290707", "name": "PARENT TEACHER ASSOCIATION OF PS 770 THE NEW AMERICAN ACADEMY INC", "city": "BROOKLYN", "state": "NY", "zip": "11212-2349", "ntee": "B94", "ruling": "201606", "deductibility": "1", "assets": 0, "income": 0, "revenue": 0}, {"ein": "472554567", "name": "PS 21 PTA", "city": "STATEN ISLAND", "state": "NY", "zip": "10302-1639", "ntee": "B94", "ruling": "201501", "deductibility": "1", "assets": 0, "income": 0, "revenue": 0}, {"ein": "472664982", "name": "FRIENDS OF PS 165 ROBERT E SIMON INC", "city": "NEW YORK", "state": "NY", "zip": "10025-2228", "ntee": "B11", "ruling": "201505", "deductibility": "1", "assets": 89318, "income": 71695, "revenue": 71695}, {"ein": "472778934", "name": "PS 340 PARENT TEACHER ASSOCIATION INC", "city": "NEW YORK", "state": "NY", "zip": "10011-5470", "ntee": "B94", "ruling": "201507", "deductibility": "1", "assets": 46738, "income": 228236, "revenue": 192147}, {"ein": "472961415", "name": "PS 110K PTA", "city": "BROOKLYN", "state": "NY", "zip": "11222-4206", "ntee": "B94", "ruling": "201503", "deductibility": "1", "assets": 173436, "income": 213139, "revenue": 203056}, {"ein": "472966233", "name": "PARENT-TEACHER ASSOCIATION OF PS 705 BASES", "city": "BROOKLYN", "state": "NY", "zip": "11238-3707", "ntee": "B94", "ruling": "201912", "deductibility": "1", "assets": 0, "income": 0, "revenue": 0}, {"ein": "475379422", "name": "PARENT ASSOCIATION OF PS 125", "city": "NEW YORK", "state": "NY", "zip": "10027-5002", "ntee": "B94", "ruling": "201608", "deductibility": "1", "assets": 0, "income": 0, "revenue": 0}, {"ein": "542159278", "name": "PS 58 PARENT TEACHER ASSOCIATION", "city": "BROOKLYN", "state": "NY", "zip": "11231-4604", "ntee": "B94", "ruling": "200802", "deductibility": "1", "assets": 749318, "income": 2755154, "revenue": 2755154}, {"ein": "731721398", "name": "PTA OF PS 32", "city": "BROOKLYN", "state": "NY", "zip": "11231-5023", "ntee": "B94", "ruling": "201410", "deductibility": "1", "assets": 250458, "income": 168969, "revenue": 152380}, {"ein": "810973657", "name": "PS 34 OLIVER H PERRY PTA", "city": "BROOKLYN", "state": "NY", "zip": "11222-2941", "ntee": "B94", "ruling": "201602", "deductibility": "1", "assets": 245676, "income": 155285, "revenue": 145208}, {"ein": "811076763", "name": "PS I LOVE YOU DAY INC", "city": "WEST ISLIP", "state": "NY", "zip": "11795-3312", "ntee": "T50", "ruling": "201902", "deductibility": "1", "assets": 148292, "income": 80717, "revenue": 80580}, {"ein": "811713697", "name": "PS 51 PARENT TEACHER ASSOCIATION", "city": "NEW YORK", "state": "NY", "zip": "10036-3434", "ntee": "B94", "ruling": "201611", "deductibility": "1", "assets": 0, "income": 0, "revenue": 0}, {"ein": "812548813", "name": "THE PARENT TEACHER ORGANIZATION OF PS 122 QUEENS INC", "city": "ASTORIA", "state": "NY", "zip": "11105-3416", "ntee": "B11", "ruling": "202003", "deductibility": "1", "assets": 60593, "income": 83091, "revenue": 69166}, {"ein": "812810890", "name": "PS 516 PTA CORP", "city": "BROOKLYN", "state": "NY", "zip": "11220-1104", "ntee": "B94", "ruling": "201907", "deductibility": "1", "assets": 0, "income": 0, "revenue": 0}, {"ein": "815151076", "name": "PS RESCUE ORG A NJ NONPROFIT CORPORATION", "city": "BROOKLYN", "state": "NY", "zip": "11204-1155", "ntee": "P99", "ruling": "202212", "deductibility": "1", "assets": 0, "income": 0, "revenue": 0}, {"ein": "815283837", "name": "PS 184M SHUANG WEN SCHOOL PARENT ASSOCIATION INC", "city": "NEW YORK", "state": "NY", "zip": "10002-6560", "ntee": "B94", "ruling": "201705", "deductibility": "1", "assets": 185093, "income": 66690, "revenue": 64938}, {"ein": "821263077", "name": "PS 31 BROOKLYN PARENT TEACHER ASSOCIATION INC", "city": "BROOKLYN", "state": "NY", "zip": "11222-2634", "ntee": "B94", "ruling": "201807", "deductibility": "1", "assets": 171517, "income": 137626, "revenue": 107702}, {"ein": "821763489", "name": "PS 15 PATRICK F DALY SCHOOL PTA", "city": "BROOKLYN", "state": "NY", "zip": "11231-1600", "ntee": "B94", "ruling": "201708", "deductibility": "1", "assets": 29978, "income": 50150, "revenue": 50150}, {"ein": "821983418", "name": "FRIENDS OF PS 38", "city": "BROOKLYN", "state": "NY", "zip": "11217-0000", "ntee": "T12", "ruling": "201708", "deductibility": "1", "assets": 0, "income": 0, "revenue": 0}, {"ein": "823358919", "name": "PARENT ASSOCIATION OF PS 145 M", "city": "NEW YORK", "state": "NY", "zip": "10025-4021", "ntee": "B94", "ruling": "201801", "deductibility": "1", "assets": 106431, "income": 193562, "revenue": 193562}, {"ein": "824074319", "name": "PTA OF PS-MS 207Q INC", "city": "HOWARD BEACH", "state": "NY", "zip": "11414-3037", "ntee": "B94", "ruling": "201903", "deductibility": "1", "assets": 111386, "income": 142935, "revenue": 142935}, {"ein": "824957237", "name": "PS 147K PTA INC", "city": "BROOKLYN", "state": "NY", "zip": "11206-3404", "ntee": "B94", "ruling": "201805", "deductibility": "1", "assets": 0, "income": 0, "revenue": 0}, {"ein": "832384892", "name": "PS CHARITIES INC", "city": "YONKERS", "state": "NY", "zip": "10704-8831", "ntee": "O50", "ruling": "201903", "deductibility": "1", "assets": 0, "income": 0, "revenue": 0}, {"ein": "832409868", "name": "PTA OF PS IS 113", "city": "GLENDALE", "state": "NY", "zip": "11385-7655", "ntee": "B94", "ruling": "201812", "deductibility": "1", "assets": 0, "income": 0, "revenue": 0}, {"ein": "832565530", "name": "PS 896 PARENT TEACHER ASSOCIATION", "city": "BROOKLYN", "state": "NY", "zip": "11220-2218", "ntee": "B94", "ruling": "202303", "deductibility": "1", "assets": 0, "income": 0, "revenue": 0}, {"ein": "834137029", "name": "PS-IS25R - SOUTH RICHMOND H-", "city": "STATEN ISLAND", "state": "NY", "zip": "10309-3830", "ntee": "B94", "ruling": "202208", "deductibility": "1", "assets": 0, "income": 0, "revenue": 0}, {"ein": "842226667", "name": "PS 527 PTA INC", "city": "NEW YORK", "state": "NY", "zip": "10128-5937", "ntee": "B94", "ruling": "202006", "deductibility": "1", "assets": 142266, "income": 273675, "revenue": 241558}, {"ein": "842419385", "name": "PS 315 PARENT AND TEACHER ASSOCIATION INC", "city": "BROOKLYN", "state": "NY", "zip": "11210-1117", "ntee": "B94", "ruling": "202002", "deductibility": "1", "assets": 0, "income": 0, "revenue": 0}, {"ein": "843417684", "name": "PS IS 104", "city": "BROOKLYN", "state": "NY", "zip": "11209-5909", "ntee": "B03", "ruling": "202001", "deductibility": "1", "assets": 0, "income": 0, "revenue": 0}, {"ein": "843468491", "name": "PS 18K PTA INC", "city": "BROOKLYN", "state": "NY", "zip": "11206-1104", "ntee": "B24", "ruling": "202002", "deductibility": "1", "assets": 0, "income": 0, "revenue": 0}, {"ein": "844207283", "name": "KINGSBRIDGE PARENT ASSOCIATION-PS 7", "city": "BRONX", "state": "NY", "zip": "10463-5517", "ntee": "B94", "ruling": "202209", "deductibility": "1", "assets": 0, "income": 0, "revenue": 0}, {"ein": "844578761", "name": "PTA OF PS 307K INC", "city": "BROOKLYN", "state": "NY", "zip": "11201-1509", "ntee": "B94", "ruling": "202401", "deductibility": "1", "assets": 0, "income": 0, "revenue": 0}, {"ein": "852827216", "name": "PS 41Q PARENT TEACHER ASSOCIATION CORP", "city": "BAYSIDE", "state": "NY", "zip": "11361-1711", "ntee": "B94", "ruling": "202104", "deductibility": "1", "assets": 103366, "income": 130715, "revenue": 127851}, {"ein": "861426127", "name": "PS MS 498 VAN NEST ACADEMY PTA", "city": "BRONX", "state": "NY", "zip": "10462-3302", "ntee": "A12", "ruling": "202105", "deductibility": "1", "assets": 1475, "income": 33013, "revenue": 33013}, {"ein": "861578116", "name": "PS 359 PA", "city": "BRONX", "state": "NY", "zip": "10455-2802", "ntee": "B94", "ruling": "202104", "deductibility": "1", "assets": 0, "income": 0, "revenue": 0}, {"ein": "873256360", "name": "PS 124 YUNG WING SCHOOL PARENT TEACHER ASSOCIATION INC", "city": "NEW YORK", "state": "NY", "zip": "10002-6709", "ntee": "B94", "ruling": "202201", "deductibility": "1", "assets": 82581, "income": 45825, "revenue": 45825}, {"ein": "873592810", "name": "PS M368 PARENT ASSOCIATION INC", "city": "NEW YORK", "state": "NY", "zip": "10031-4612", "ntee": "B94", "ruling": "202201", "deductibility": "1", "assets": 0, "income": 0, "revenue": 0}, {"ein": "920965157", "name": "PS 958 PARENT ASSOCIATION", "city": "BROOKLYN", "state": "NY", "zip": "11232-2348", "ntee": "B94", "ruling": "202306", "deductibility": "1", "assets": 0, "income": 0, "revenue": 0}, {"ein": "934075011", "name": "PARENT-TEACHER ASSOCIATION OF PS 361Q INC", "city": "WOODSIDE", "state": "NY", "zip": "11377-3349", "ntee": "B94", "ruling": "202311", "deductibility": "1", "assets": 0, "income": 0, "revenue": 0}, {"ein": "934467511", "name": "PTA PS 005 DR RONALD MCNAIR", "city": "BROOKLYN", "state": "NY", "zip": "11233-1309", "ntee": "B94", "ruling": "202407", "deductibility": "1", "assets": 0, "income": 0, "revenue": 0}, {"ein": "934894556", "name": "PULSION - THE INTERNATIONAL INSTITU TE OF PSYCHOANALYSIS AND PS", "city": "NEW YORK", "state": "NY", "zip": "10036-5464", "ntee": "B50", "ruling": "202504", "deductibility": "1", "assets": 0, "income": 0, "revenue": 0}, {"ein": "943455180", "name": "PARENT ASSOCIATION OF PS 85Q INC", "city": "ASTORIA", "state": "NY", "zip": "11105-2811", "ntee": "B112", "ruling": "201206", "deductibility": "1", "assets": 42971, "income": 57131, "revenue": 47199}, {"ein": "993511083", "name": "PARENT TEACHER ASSOCIATION OF PS K134 INC", "city": "BROOKLYN", "state": "NY", "zip": "11218-5707", "ntee": "B94", "ruling": "202408", "deductibility": "1", "assets": 0, "income": 0, "revenue": 0}], "SCOTTISH": [{"ein": "010882230", "name": "CAPITAL REGION SCOTTISH RITE CHARITIES INC", "city": "CLIFTON PARK", "state": "NY", "zip": "12065-0089", "ntee": "B99", "ruling": "200708", "deductibility": "1", "assets": 0, "income": 0, "revenue": 0}, {"ein": "042736803", "name": "ANCIENT ACCEPTED SCOTTISH RITE OF FREE MASONRY NMJ", "city": "BINGHAMTON", "state": "NY", "zip": "13903-0025", "ntee": "", "ruling": "194012", "deductibility": "1", "assets": 0, "income": 0, "revenue": 0}, {"ein": "111018996", "name": "ANCIENT ACCEPTED SCOTTISH RITE OF FREE MASONRY NMJ", "city": "ROCKVILLE CTR", "state": "NY", "zip": "11570-5783", "ntee": "", "ruling": "194012", "deductibility": "1", "assets": 1618080, "income": 443062, "revenue": 213690}, {"ein": "133133932", "name": "ROYAL SCOTTISH COUNTRY DANCE SOCIETY NEW YORK BRANCH INC", "city": "NEW YORK", "state": "NY", "zip": "10024-4848", "ntee": "", "ruling": "198402", "deductibility": "1", "assets": 53449, "income": 49160, "revenue": 49160}, {"ein": "150232118", "name": "ANCIENT ACCEPTED SCOTTISH RITE OF FREE MASONRY NMJ", "city": "UTICA", "state": "NY", "zip": "13501-3401", "ntee": "", "ruling": "194012", "deductibility": "1", "assets": 1836649, "income": 597147, "revenue": 188269}, {"ein": "150264995", "name": "ANCIENT ACCEPTED SCOTTISH RITE OF FREE MASONRY NMJ", "city": "N SYRACUSE", "state": "NY", "zip": "13212-2366", "ntee": "", "ruling": "194012", "deductibility": "1", "assets": 1231545, "income": 219992, "revenue": 78423}, {"ein": "160365840", "name": "ANCIENT ACCEPTED SCOTTISH RITE OF FREE MASONRY NMJ", "city": "CHEEKTOWAGA", "state": "NY", "zip": "14227-2234", "ntee": "", "ruling": "194012", "deductibility": "1", "assets": 1000978, "income": 280228, "revenue": 105189}, {"ein": "160495453", "name": "ANCIENT ACCEPTED SCOTTISH RITE OF FREE MASONRY NMJ", "city": "FINDLEY LAKE", "state": "NY", "zip": "14736-0406", "ntee": "", "ruling": "194012", "deductibility": "1", "assets": 617394, "income": 44738, "revenue": 44738}, {"ein": "160611675", "name": "ANCIENT ACCEPTED SCOTTISH RITE OF FREE MASONRY NMJ", "city": "FAIRPORT", "state": "NY", "zip": "14450-8964", "ntee": "", "ruling": "194012", "deductibility": "1", "assets": 4983696, "income": 3806374, "revenue": 1883645}, {"ein": "160863479", "name": "ANCIENT ACCEPTED SCOTTISH RITE OF FREE MASONRY NMJ", "city": "ROCHESTER", "state": "NY", "zip": "14618-1338", "ntee": "", "ruling": "194012", "deductibility": "1", "assets": 577027, "income": 133159, "revenue": 29077}, {"ein": "161189915", "name": "SCOTTISH AMERICAN SOCIETY OF THE SOUTHERN TIER INC", "city": "ALFRED", "state": "NY", "zip": "14802-1135", "ntee": "A23", "ruling": "201112", "deductibility": "1", "assets": 0, "income": 0, "revenue": 0}, {"ein": "161418206", "name": "CENTRAL NEW YORK SCOTTISH GAMES INC", "city": "STERLING", "state": "NY", "zip": "13156-4148", "ntee": "B99", "ruling": "199509", "deductibility": "1", "assets": 82382, "income": 78354, "revenue": 78354}, {"ein": "161420352", "name": "ROCHESTER SCOTTISH PIPE BAND INC", "city": "FISHERS", "state": "NY", "zip": "14453-0677", "ntee": "A68", "ruling": "199508", "deductibility": "1", "assets": 0, "income": 0, "revenue": 0}, {"ein": "161435555", "name": "SYRACUSE SCOTTISH PIPE BAND", "city": "LIVERPOOL", "state": "NY", "zip": "13090-2926", "ntee": "A23", "ruling": "200505", "deductibility": "1", "assets": 44367, "income": 36504, "revenue": 35776}, {"ein": "161536682", "name": "SCOTTISH HERITAGE SOCIETY OF THE ROCHESTER AREA INC", "city": "ROCHESTER", "state": "NY", "zip": "14626-0669", "ntee": "A80", "ruling": "201111", "deductibility": "1", "assets": 0, "income": 0, "revenue": 0}, {"ein": "222488365", "name": "ANCIENT ACCEPTED SCOTTISH RITE OF FREE MASONRY NMJ", "city": "ALBANY", "state": "NY", "zip": "12207-0000", "ntee": "", "ruling": "194012", "deductibility": "1", "assets": 0, "income": 0, "revenue": 0}, {"ein": "237007452", "name": "AMERICAN SCOTTISH FOUNDATION INC", "city": "NEW YORK", "state": "NY", "zip": "10065-6659", "ntee": "", "ruling": "196810", "deductibility": "1", "assets": 194540, "income": 346841, "revenue": 346841}, {"ein": "237021278", "name": "NEW YORK STATE SCOTTISH RITE CHARITIES INC", "city": "FAIRPORT", "state": "NY", "zip": "14450-8964", "ntee": "X20", "ruling": "200710", "deductibility": "2", "assets": 1155724, "income": 930717, "revenue": 49287}, {"ein": "237390956", "name": "ANCIENT ACCEPTED SCOTTISH RITE OF FREE MASONRY NMJ", "city": "CANTON", "state": "NY", "zip": "13617-3732", "ntee": "", "ruling": "194012", "deductibility": "1", "assets": 0, "income": 0, "revenue": 0}, {"ein": "237615692", "name": "ANCIENT ACCEPTED SCOTTISH RITE OF FREE MASONRY NMJ", "city": "PLATTSBURGH", "state": "NY", "zip": "12901-0257", "ntee": "", "ruling": "197211", "deductibility": "1", "assets": 0, "income": 0, "revenue": 0}, {"ein": "464224272", "name": "LONG ISLAND SCOTTISH FESTIVAL AND HIGHLAND GAMES CORPORATION", "city": "HUNTINGTON", "state": "NY", "zip": "11743-4304", "ntee": "A20", "ruling": "201412", "deductibility": "1", "assets": 80750, "income": 16277, "revenue": 16277}, {"ein": "593755380", "name": "SCOTTISH FOLD RESCUE INC", "city": "AUBURN", "state": "NY", "zip": "13021-2402", "ntee": "D20", "ruling": "202007", "deductibility": "1", "assets": 0, "income": 0, "revenue": 0}], "HANOCHOS": [{"ein": "010890941", "name": "LAHAK HANOCHOS INC", "city": "BROOKLYN", "state": "NY", "zip": "11213-4301", "ntee": "X80", "ruling": "201008", "deductibility": "1", "assets": 1384843, "income": 1618935, "revenue": 1618935}, {"ein": "112633052", "name": "VAAD HANOCHOS HATMIMIM INC", "city": "BROOKLYN", "state": "NY", "zip": "11213-3409", "ntee": "", "ruling": "198305", "deductibility": "1", "assets": 0, "income": 0, "revenue": 0}], "MOVE": [{"ein": "020614811", "name": "RIGHT MOVE CHESS FOUNDATION INC", "city": "BROOKLYN", "state": "NY", "zip": "11218-3406", "ntee": "P30", "ruling": "200211", "deductibility": "1", "assets": 8536, "income": 10226, "revenue": 0}, {"ein": "112435565", "name": "WOODSIDE ON THE MOVE INC", "city": "WOODSIDE", "state": "NY", "zip": "11377-4587", "ntee": "", "ruling": "197711", "deductibility": "1", "assets": 2175420, "income": 4359330, "revenue": 4359330}, {"ein": "112845719", "name": "MOVE OF GOD CHURCH", "city": "BROOKLYN", "state": "NY", "zip": "11236-2608", "ntee": "X21", "ruling": "200904", "deductibility": "1", "assets": 0, "income": 0, "revenue": 0}, {"ein": "133211649", "name": "WESTCHESTER DISABLED ON THE MOVE INC", "city": "YONKERS", "state": "NY", "zip": "10701-1308", "ntee": "P8XZ", "ruling": "198805", "deductibility": "1", "assets": 835373, "income": 1352248, "revenue": 1352248}, {"ein": "133574221", "name": "INNER CITY PRESS COMMUNITY ON THE MOVE INC", "city": "NEW YORK CITY", "state": "NY", "zip": "10013-0986", "ntee": "", "ruling": "199007", "deductibility": "1", "assets": 0, "income": 0, "revenue": 0}, {"ein": "133650207", "name": "MISSIONARIES ON THE MOVE CHRISTIAN OUTREACH CENTER", "city": "NEW ROCHELLE", "state": "NY", "zip": "10801-3065", "ntee": "", "ruling": "197001", "deductibility": "1", "assets": 0, "income": 0, "revenue": 0}, {"ein": "134136382", "name": "MIND TO MOVE INC", "city": "BROOKLYN", "state": "NY", "zip": "11225-4760", "ntee": "A62", "ruling": "200011", "deductibility": "1", "assets": 147848, "income": 67360, "revenue": 67360}, {"ein": "202147756", "name": "FAMILIES ON THE MOVE OF NEW YORK CITY", "city": "STATEN ISLAND", "state": "NY", "zip": "10301-2417", "ntee": "B90", "ruling": "200509", "deductibility": "1", "assets": 1177519, "income": 1738652, "revenue": 1738652}, {"ein": "222265949", "name": "MOVE ALONG INC", "city": "BALDWINSVILLE", "state": "NY", "zip": "13027-0083", "ntee": "", "ruling": "197910", "deductibility": "1", "assets": 0, "income": 0, "revenue": 0}, {"ein": "264200477", "name": "VISIONARIES WOMEN ON THE MOVE INC", "city": "QUEENS VLG", "state": "NY", "zip": "11429-2841", "ntee": "P80", "ruling": "201002", "deductibility": "1", "assets": 0, "income": 0, "revenue": 0}, {"ein": "412192239", "name": "YOUTHS ON THE MOVE RECREATIONAL CENTER INC", "city": "BRONX", "state": "NY", "zip": "10470-1022", "ntee": "A62", "ruling": "200708", "deductibility": "1", "assets": 0, "income": 0, "revenue": 0}, {"ein": "432077392", "name": "MASJIDS ON THE MOVE", "city": "BROOKLYN", "state": "NY", "zip": "11216-2361", "ntee": "X40", "ruling": "201408", "deductibility": "1", "assets": 0, "income": 0, "revenue": 0}, {"ein": "452640247", "name": "THE AMERICAN FRIENDS OF MOVE THE", "city": "NEW YORK", "state": "NY", "zip": "10011-8926", "ntee": "A62", "ruling": "201608", "deductibility": "1", "assets": 20073, "income": 101035, "revenue": 101035}, {"ein": "462483911", "name": "DANCE EMPOWERMENT MOVE INC", "city": "FRANKLIN SQ", "state": "NY", "zip": "11010-1010", "ntee": "", "ruling": "202210", "deductibility": "1", "assets": 19408, "income": 170867, "revenue": 170867}, {"ein": "471236891", "name": "NEXT MOVE JAMAICA INTERNATIONAL INC", "city": "BROOKLYN", "state": "NY", "zip": "11226-5376", "ntee": "B82", "ruling": "201408", "deductibility": "1", "assets": 0, "income": 0, "revenue": 0}, {"ein": "474964284", "name": "MOVE AROUND WITH US INC", "city": "LINDENHURST", "state": "NY", "zip": "11757-4927", "ntee": "P80", "ruling": "201606", "deductibility": "1", "assets": 6143, "income": 5354, "revenue": 5354}, {"ein": "813593742", "name": "BRAVEHEARTS MOVE NEW YORK", "city": "NEW WINDSOR", "state": "NY", "zip": "12553-5462", "ntee": "O50", "ruling": "201609", "deductibility": "1", "assets": 0, "income": 0, "revenue": 0}, {"ein": "814388312", "name": "MOVE TO EMPOWER INC", "city": "PUTNAM VALLEY", "state": "NY", "zip": "10579-2603", "ntee": "Q23", "ruling": "201702", "deductibility": "1", "assets": 1197, "income": 52359, "revenue": 52359}, {"ein": "823453108", "name": "MOVE MAY OUR VOICES ENLIGHTEN INC", "city": "CANISTEO", "state": "NY", "zip": "14823-1033", "ntee": "X20", "ruling": "201802", "deductibility": "1", "assets": 0, "income": 0, "revenue": 0}, {"ein": "824359346", "name": "AWESOME WOMEN ON THE MOVE INC", "city": "BRIARWOOD", "state": "NY", "zip": "11435-2052", "ntee": "S50", "ruling": "202409", "deductibility": "1", "assets": 0, "income": 0, "revenue": 0}, {"ein": "834051551", "name": "MOVE NYC FOUNDATION INC", "city": "NEW YORK", "state": "NY", "zip": "10113-9612", "ntee": "W99", "ruling": "201912", "deductibility": "1", "assets": 978823, "income": 1033566, "revenue": 992236}, {"ein": "834213694", "name": "NAJ ON THE MOVE", "city": "BROOKLYN", "state": "NY", "zip": "11212-4349", "ntee": "P20", "ruling": "202210", "deductibility": "1", "assets": 5952, "income": 15932, "revenue": 15932}, {"ein": "842543473", "name": "WATCH ME MOVE NYC INC", "city": "NEW YORK", "state": "NY", "zip": "10032-5210", "ntee": "N30", "ruling": "202303", "deductibility": "1", "assets": 0, "income": 0, "revenue": 0}, {"ein": "843139099", "name": "SENIOR CITIZENS ON THE MOVE INC", "city": "BRONX", "state": "NY", "zip": "10461-4804", "ntee": "P75", "ruling": "202002", "deductibility": "1", "assets": 0, "income": 0, "revenue": 0}, {"ein": "861129543", "name": "NEW MOVE OF GOD PENTECOSTAL CHURCH INC", "city": "BRONX", "state": "NY", "zip": "10473-3027", "ntee": "X21", "ruling": "200604", "deductibility": "1", "assets": 0, "income": 0, "revenue": 0}, {"ein": "883893657", "name": "MENTOR ON THE MOVE 4 LIFE INC", "city": "ASTORIA", "state": "NY", "zip": "11102-4502", "ntee": "O50", "ruling": "202303", "deductibility": "1", "assets": 0, "income": 0, "revenue": 0}, {"ein": "921132044", "name": "NEXT MOVE FOUNDATION", "city": "ORCHARD PARK", "state": "NY", "zip": "14127-6011", "ntee": "O50", "ruling": "202212", "deductibility": "1", "assets": 0, "income": 0, "revenue": 0}, {"ein": "991888451", "name": "TEACHERS ON A MOVE INC", "city": "AMHERST", "state": "NY", "zip": "14228-1862", "ntee": "Q30", "ruling": "202409", "deductibility": "1", "assets": 0, "income": 0, "revenue": 0}], "MICHOEL": [{"ein": "030424738", "name": "FRIENDS OF RABBI MICHOEL", "city": "GREAT NECK", "state": "NY", "zip": "11023-4405", "ntee": "X21", "ruling": "200208", "deductibility": "1", "assets": 0, "income": 0, "revenue": 0}, {"ein": "453797628", "name": "KHAL ZICHRON MICHOEL", "city": "MONSEY", "state": "NY", "zip": "10952-1646", "ntee": "X30", "ruling": "201312", "deductibility": "1", "assets": 0, "income": 0, "revenue": 0}, {"ein": "825450611", "name": "MICHOEL & ROCHEL MEMORIAL FUND INC", "city": "BROOKLYN", "state": "NY", "zip": "11219-1604", "ntee": "T12", "ruling": "201805", "deductibility": "1", "assets": 456027, "income": 1208, "revenue": 1208}, {"ein": "920417639", "name": "ZICHRON MICHOEL FUND INC", "city": "SPRING VALLEY", "state": "NY", "zip": "10977-6120", "ntee": "T12", "ruling": "202304", "deductibility": "1", "assets": 49719, "income": 198943, "revenue": 198943}, {"ein": "921469048", "name": "KEREN MICHOEL FOUNDATION", "city": "SPRING VALLEY", "state": "NY", "zip": "10977-4329", "ntee": "T90", "ruling": "202304", "deductibility": "1", "assets": 172460, "income": 404717, "revenue": 0}, {"ein": "932012592", "name": "KOLLEL ZICHRON MICHOEL", "city": "MONSEY", "state": "NY", "zip": "10952-5201", "ntee": "X30", "ruling": "202402", "deductibility": "1", "assets": 0, "income": 0, "revenue": 0}], "BY": [{"ein": "030609146", "name": "BY KIDS INC", "city": "NEW YORK", "state": "NY", "zip": "10023-8171", "ntee": "B990", "ruling": "200705", "deductibility": "1", "assets": 299780, "income": 519694, "revenue": 514730}, {"ein": "043041985", "name": "DANCES BY ISADORA INC", "city": "NEW YORK", "state": "NY", "zip": "10128-3602", "ntee": "", "ruling": "199401", "deductibility": "1", "assets": 0, "income": 0, "revenue": 0}, {"ein": "111677137", "name": "ST PETERS BY THE SEA CHURCH", "city": "BAYSHORE", "state": "NY", "zip": "11706-8219", "ntee": "", "ruling": "197206", "deductibility": "1", "assets": 0, "income": 0, "revenue": 0}, {"ein": "111794548", "name": "HEBREW ALLIANCE OF BRIGHTON BY THE SEA INC", "city": "BROOKLYN", "state": "NY", "zip": "11235-6848", "ntee": "", "ruling": "194412", "deductibility": "1", "assets": 0, "income": 0, "revenue": 0}, {"ein": "112503764", "name": "SAN SIMEON BY THE SOUND INC", "city": "GREENPORT", "state": "NY", "zip": "11944-2206", "ntee": "X21", "ruling": "198012", "deductibility": "1", "assets": 608935, "income": 81588, "revenue": 81588}, {"ein": "112664913", "name": "SINGLE MOTHERS BY CHOICE INC", "city": "NEW YORK", "state": "NY", "zip": "10028-2906", "ntee": "", "ruling": "198505", "deductibility": "1", "assets": 69089, "income": 68463, "revenue": 68463}, {"ein": "112995473", "name": "TWO BY TWO MINISTRIES CHURCH INC", "city": "LINDENHURST", "state": "NY", "zip": "11757-0415", "ntee": "", "ruling": "199003", "deductibility": "1", "assets": 0, "income": 0, "revenue": 0}, {"ein": "113026441", "name": "CHURCH OF ST JAMES OF JERUSALEM BY THE SEA", "city": "LONG BEACH", "state": "NY", "zip": "11561-3933", "ntee": "", "ruling": "197206", "deductibility": "1", "assets": 0, "income": 0, "revenue": 0}, {"ein": "113026507", "name": "ST ANDREWS BY THE SEA", "city": "NEW YORL", "state": "NY", "zip": "10023-0000", "ntee": "", "ruling": "197206", "deductibility": "1", "assets": 0, "income": 0, "revenue": 0}, {"ein": "113141246", "name": "POWERED BY CHRIST CHURCH", "city": "MASSAPEQUA", "state": "NY", "zip": "11758-2625", "ntee": "", "ruling": "199408", "deductibility": "1", "assets": 0, "income": 0, "revenue": 0}, {"ein": "113304698", "name": "BY-WAYS AND HEDGES YOUTH FOR CHRIST MINISTRY INC", "city": "BROOKLYN", "state": "NY", "zip": "11203-4482", "ntee": "X20", "ruling": "200104", "deductibility": "1", "assets": 0, "income": 0, "revenue": 0}, {"ein": "113347811", "name": "JUST SHALL LIVE BY FAITH CHURCH OF DELIVERANCE INC", "city": "ELMONT", "state": "NY", "zip": "11003-3043", "ntee": "X90Z", "ruling": "199709", "deductibility": "1", "assets": 0, "income": 0, "revenue": 0}, {"ein": "113392877", "name": "INSPIRED BY THE WORD OF GOD INC", "city": "BROOKLYN", "state": "NY", "zip": "11238-3906", "ntee": "X20Z", "ruling": "199710", "deductibility": "1", "assets": 0, "income": 0, "revenue": 0}, {"ein": "113571476", "name": "BY ALL MEANS SAVE SOME CORPORATION", "city": "BROOKLYN", "state": "NY", "zip": "11216-2908", "ntee": "A25", "ruling": "200107", "deductibility": "1", "assets": 0, "income": 0, "revenue": 0}, {"ein": "131966496", "name": "AUTHORS LEAGUE FUND ESTABLISHED BY THE AUTHORS LEAGUE OF AMERICA INC", "city": "BROOKLYN", "state": "NY", "zip": "11201-1016", "ntee": "T23", "ruling": "193603", "deductibility": "1", "assets": 16518230, "income": 1810818, "revenue": 0}, {"ein": "132935218", "name": "STEP BY STEP LAND OF HOPE & HONEY", "city": "NEW YORK", "state": "NY", "zip": "10019-1408", "ntee": "", "ruling": "197804", "deductibility": "1", "assets": 0, "income": 0, "revenue": 0}, {"ein": "133077047", "name": "NEIGHBORHOOD SELF HELP BY OLDER PERSONS PROJECT INC", "city": "BRONX", "state": "NY", "zip": "10459-3457", "ntee": "P81Z", "ruling": "198108", "deductibility": "1", "assets": 4624513, "income": 9459275, "revenue": 9459275}, {"ein": "133491728", "name": "PENTECOSTAL CHURCH FREED BY JESUS CHRIST INC", "city": "BRONX", "state": "NY", "zip": "10458-7729", "ntee": "", "ruling": "199111", "deductibility": "1", "assets": 0, "income": 0, "revenue": 0}, {"ein": "133582509", "name": "PERPETUAL CARE TR FUND ADMINISTERED BY THE KENSICO CEMETERY AS TTEE", "city": "VALHALLA", "state": "NY", "zip": "10595-0007", "ntee": "", "ruling": "199012", "deductibility": "2", "assets": 66339129, "income": 35263333, "revenue": 5150264}, {"ein": "133984162", "name": "INTERNATIONAL COUNCIL OF CHURCHES FREED BY JESUSCHRIST INC", "city": "BRONX", "state": "NY", "zip": "10451-0687", "ntee": "X20", "ruling": "199902", "deductibility": "1", "assets": 0, "income": 0, "revenue": 0}, {"ein": "134063769", "name": "FLY-BY-NIGHT DANCE THEATER INC", "city": "NEW YORK", "state": "NY", "zip": "10011-3443", "ntee": "A62", "ruling": "200004", "deductibility": "1", "assets": 0, "income": 0, "revenue": 0}, {"ein": "134072850", "name": "PROJECT BY PROJECT", "city": "NEW YORK", "state": "NY", "zip": "10116-7093", "ntee": "P12", "ruling": "200102", "deductibility": "1", "assets": 454965, "income": 540036, "revenue": 540036}, {"ein": "136262491", "name": "EPISCOPAL CHURCH OF ST GEORGE BY THE RIVER UW G V C 137362", "city": "NEW YORK", "state": "NY", "zip": "10013-2362", "ntee": "", "ruling": "197301", "deductibility": "0", "assets": 606103, "income": 182454, "revenue": 0}, {"ein": "141825233", "name": "BY GODS GRACE MINISTRIES", "city": "BEACON", "state": "NY", "zip": "12508-2729", "ntee": "X21", "ruling": "200106", "deductibility": "1", "assets": 0, "income": 0, "revenue": 0}, {"ein": "161394659", "name": "FAITH BY LOVE FAMILY WORSHIP CHURCH", "city": "SYRACUSE", "state": "NY", "zip": "13207-2005", "ntee": "", "ruling": "199306", "deductibility": "1", "assets": 0, "income": 0, "revenue": 0}, {"ein": "161529600", "name": "AMERICA BY FAITH", "city": "MARLBORO", "state": "NY", "zip": "12542-0000", "ntee": "X20I", "ruling": "199804", "deductibility": "1", "assets": 0, "income": 0, "revenue": 0}, {"ein": "161560404", "name": "SAVED BY GRACE MINISTRY INC", "city": "EAST AURORA", "state": "NY", "zip": "14052-2233", "ntee": "N20", "ruling": "199905", "deductibility": "1", "assets": 286003, "income": 102423, "revenue": 102423}, {"ein": "161570557", "name": "BRICK BY BRICK FELLOWSHIP", "city": "WILLIAMSVILLE", "state": "NY", "zip": "14221-7158", "ntee": "X21", "ruling": "200108", "deductibility": "1", "assets": 0, "income": 0, "revenue": 0}, {"ein": "161610505", "name": "ARK OF THE COVENANT CHURCH OF GOD BY FAITH", "city": "ROCHESTER", "state": "NY", "zip": "14608-1135", "ntee": "X21", "ruling": "200803", "deductibility": "1", "assets": 0, "income": 0, "revenue": 0}, {"ein": "200009172", "name": "BY FAITH DELIVERANCE WORLDWIDE MINISTRIES", "city": "HOLLIS", "state": "NY", "zip": "11423-2213", "ntee": "X20", "ruling": "201208", "deductibility": "1", "assets": 0, "income": 0, "revenue": 0}, {"ein": "201222517", "name": "SAN SIMEON BY THE SOUND CENTER FOR NURSING AND REHABILITATION", "city": "GREENPORT", "state": "NY", "zip": "11944-2206", "ntee": "E91", "ruling": "200408", "deductibility": "1", "assets": 5454119, "income": 17220166, "revenue": 17209738}, {"ein": "201946812", "name": "STEP BY STEP UNIVERISTY INC", "city": "BROOKLYN", "state": "NY", "zip": "11219-1300", "ntee": "B99", "ruling": "202506", "deductibility": "1", "assets": 0, "income": 0, "revenue": 0}, {"ein": "202471641", "name": "FAMILIES BY GOD", "city": "DERUYTER", "state": "NY", "zip": "13052-1231", "ntee": "X20", "ruling": "201211", "deductibility": "1", "assets": 0, "income": 0, "revenue": 0}, {"ein": "203707797", "name": "STEP BY STEP INFANT DEVELOPMENT CENTER INC", "city": "BROOKLYN", "state": "NY", "zip": "11219-1300", "ntee": "", "ruling": "202012", "deductibility": "1", "assets": 0, "income": 0, "revenue": 0}, {"ein": "203707831", "name": "STEP BY STEP EARLY INTERVENTION CENTER INC", "city": "BROOKLYN", "state": "NY", "zip": "11219-1300", "ntee": "F99", "ruling": "200904", "deductibility": "1", "assets": 0, "income": 0, "revenue": 0}, {"ein": "206435529", "name": "DECLARATION OF TRUST BY AND BETWEEN THE SOCIETY OF SAINT FRANCIS", "city": "MOUNT SINAI", "state": "NY", "zip": "11766-0389", "ntee": "X20", "ruling": "200605", "deductibility": "1", "assets": 0, "income": 0, "revenue": 0}, {"ein": "256820083", "name": "JEAN B AUTHIER TR UW 06251992 AMENDED BY CODICILS", "city": "NEW LEBANON", "state": "NY", "zip": "12125-0718", "ntee": "T20", "ruling": "200302", "deductibility": "1", "assets": 656194, "income": 254169, "revenue": 0}, {"ein": "263138200", "name": "UNITED BY HOPE INC", "city": "MANHATTAN", "state": "NY", "zip": "10033-1210", "ntee": "Q33", "ruling": "200907", "deductibility": "1", "assets": 0, "income": 0, "revenue": 0}, {"ein": "271453959", "name": "HOOPS BY THE RIVER INC", "city": "NEW YORK", "state": "NY", "zip": "10039-1864", "ntee": "O50", "ruling": "201510", "deductibility": "1", "assets": 1, "income": 10430, "revenue": 10430}, {"ein": "300798089", "name": "SPECIAL FIT BY FIVE INC", "city": "PENFIELD", "state": "NY", "zip": "14526-1745", "ntee": "B21", "ruling": "201407", "deductibility": "1", "assets": 0, "income": 0, "revenue": 0}, {"ein": "301109651", "name": "GIVE BY GRACE WHAT BY GRACE YOU HAVE RECEIVED INC", "city": "BRONX", "state": "NY", "zip": "10458-4266", "ntee": "Q33", "ruling": "201905", "deductibility": "1", "assets": 63, "income": 4740, "revenue": 4740}, {"ein": "301232924", "name": "WORKING GROUP ON CHILDREN RECRUITED BY TERRORISTS AND VIOLENT EXTREM", "city": "HARRISON", "state": "NY", "zip": "10528-3013", "ntee": "P30", "ruling": "202103", "deductibility": "1", "assets": 0, "income": 0, "revenue": 0}, {"ein": "311693404", "name": "PIECE BY PIECE PRODUCTIONS INC", "city": "NEW YORK", "state": "NY", "zip": "10036-0000", "ntee": "A20", "ruling": "200006", "deductibility": "1", "assets": 348284, "income": 902885, "revenue": 0}, {"ein": "311731906", "name": "HEALED BY HIS STRIPES MINISTRY", "city": "YONKERS", "state": "NY", "zip": "10704-1725", "ntee": "X212", "ruling": "200101", "deductibility": "1", "assets": 0, "income": 0, "revenue": 0}, {"ein": "332132952", "name": "FORGED BY VALOR INC", "city": "WEBSTER", "state": "NY", "zip": "14580-9040", "ntee": "B30", "ruling": "202501", "deductibility": "1", "assets": 0, "income": 0, "revenue": 0}, {"ein": "332232247", "name": "WE THE PEOPLE 4 THE PEOPLE BY THE PEOPLE", "city": "BROOKLYN", "state": "NY", "zip": "11212-6454", "ntee": "A70", "ruling": "202412", "deductibility": "1", "assets": 0, "income": 0, "revenue": 0}, {"ein": "332736095", "name": "STEM PROGRAMS AND RESOURCES FOR KIDS BY STUDENTS INC", "city": "GREAT NECK", "state": "NY", "zip": "11021-1829", "ntee": "B80", "ruling": "202502", "deductibility": "1", "assets": 0, "income": 0, "revenue": 0}, {"ein": "332971595", "name": "APTITUDE BY CHRYSTAL INC", "city": "NEW YORK", "state": "NY", "zip": "10003-1502", "ntee": "B90", "ruling": "202502", "deductibility": "1", "assets": 0, "income": 0, "revenue": 0}, {"ein": "334219196", "name": "MADE BY ME IN GENESEE INC", "city": "CORFU", "state": "NY", "zip": "14036-9618", "ntee": "S30", "ruling": "202505", "deductibility": "1", "assets": 0, "income": 0, "revenue": 0}, {"ein": "352487761", "name": "BY GOODNESS SAKE INC", "city": "JAMAICA", "state": "NY", "zip": "11434-4502", "ntee": "Z99", "ruling": "201405", "deductibility": "1", "assets": 0, "income": 0, "revenue": 0}, {"ein": "364649204", "name": "PIANO BY NATURE INC", "city": "WESTPORT", "state": "NY", "zip": "12993-4303", "ntee": "A68", "ruling": "201005", "deductibility": "1", "assets": 0, "income": 0, "revenue": 0}, {"ein": "383873551", "name": "DELIVERANCE AND MIRACLES BY FAITH CHURCH INC", "city": "ST ALBANS", "state": "NY", "zip": "11412-1012", "ntee": "X20", "ruling": "201301", "deductibility": "1", "assets": 0, "income": 0, "revenue": 0}, {"ein": "454451091", "name": "BODY BY DENISE - CHOSEN INC", "city": "CAMBRIA HTS", "state": "NY", "zip": "11411-0618", "ntee": "F53", "ruling": "201308", "deductibility": "1", "assets": 0, "income": 0, "revenue": 0}, {"ein": "454874876", "name": "BUTTERFLIES BY BLAQ INCORPORATED", "city": "ST ALBANS", "state": "NY", "zip": "11412-3022", "ntee": "G32", "ruling": "201403", "deductibility": "1", "assets": 0, "income": 0, "revenue": 0}, {"ein": "461733791", "name": "SENT BY RAVENS SBR FOOD PANTRY INC", "city": "LIVONIA", "state": "NY", "zip": "14487-9703", "ntee": "K31", "ruling": "201302", "deductibility": "1", "assets": 0, "income": 0, "revenue": 0}, {"ein": "461988762", "name": "POWERED TO THRIVE BY LUNA INC", "city": "MIDDLE ISLAND", "state": "NY", "zip": "11953-1924", "ntee": "O99", "ruling": "201405", "deductibility": "1", "assets": 1598, "income": 8870, "revenue": 8870}, {"ein": "462570579", "name": "STONE BY STONE MOVING MOUNTAINS IN HAITI INC", "city": "LIVERPOOL", "state": "NY", "zip": "13089-2961", "ntee": "Q33", "ruling": "201407", "deductibility": "1", "assets": 0, "income": 0, "revenue": 0}, {"ein": "472765517", "name": "LEAD BY EXAMPLE AND REVERSE THE TREND", "city": "NEW YORK", "state": "NY", "zip": "10027-3811", "ntee": "O21", "ruling": "201508", "deductibility": "1", "assets": 172505, "income": 625000, "revenue": 625000}, {"ein": "473783569", "name": "HUMAN SKILLS DEVELOPMENT AND EMPOWERING BY OUMOU INC", "city": "NEW YORK", "state": "NY", "zip": "10026-4351", "ntee": "X40", "ruling": "201504", "deductibility": "1", "assets": 0, "income": 0, "revenue": 0}, {"ein": "474449409", "name": "BY GODS GRACE MINISTRIES - PEEKSKILL", "city": "PEEKSKILL", "state": "NY", "zip": "10566-3312", "ntee": "X20", "ruling": "201903", "deductibility": "1", "assets": 0, "income": 0, "revenue": 0}, {"ein": "474646629", "name": "BY HIS SPIRIT MINISTRIES", "city": "LAFAYETTE", "state": "NY", "zip": "13084-0000", "ntee": "O99", "ruling": "201508", "deductibility": "1", "assets": 0, "income": 0, "revenue": 0}, {"ein": "562479530", "name": "WORLDWIDE EVANGELISTIC MINISTRY UNITED BY THE FIRE INC", "city": "BRONX", "state": "NY", "zip": "10473-1513", "ntee": "X21", "ruling": "200509", "deductibility": "0", "assets": 0, "income": 0, "revenue": 0}, {"ein": "571169725", "name": "BY FAITH CHRISTIAN CENTER", "city": "MARCELLUS", "state": "NY", "zip": "13108-9745", "ntee": "X20", "ruling": "200411", "deductibility": "1", "assets": 0, "income": 0, "revenue": 0}, {"ein": "581901487", "name": "NEW HOPE CHURCH OF GOD BY FAITH", "city": "BUFFALO", "state": "NY", "zip": "14208-1730", "ntee": "", "ruling": "199007", "deductibility": "1", "assets": 0, "income": 0, "revenue": 0}, {"ein": "581901488", "name": "CROSSROADS CHURCH OF GOD BY FAITH", "city": "SYRACUSE", "state": "NY", "zip": "13205-1518", "ntee": "", "ruling": "199007", "deductibility": "1", "assets": 0, "income": 0, "revenue": 0}, {"ein": "581901489", "name": "CHURCH OF GOD BY FAITH", "city": "GENEVA", "state": "NY", "zip": "14456-0689", "ntee": "", "ruling": "199007", "deductibility": "1", "assets": 0, "income": 0, "revenue": 0}, {"ein": "581901490", "name": "CHURCH OF GOD BY FAITH", "city": "NEWBURGH", "state": "NY", "zip": "12550-5808", "ntee": "", "ruling": "199007", "deductibility": "1", "assets": 0, "income": 0, "revenue": 0}, {"ein": "581901491", "name": "CHURCH OF GOD BY FAITH 1", "city": "ROCHESTER", "state": "NY", "zip": "14608-2309", "ntee": "", "ruling": "199007", "deductibility": "1", "assets": 0, "income": 0, "revenue": 0}, {"ein": "581901492", "name": "PRAYER HOUSE CHURCH OF GOD BY FAITH", "city": "ROCHESTER", "state": "NY", "zip": "14603-3108", "ntee": "", "ruling": "199007", "deductibility": "1", "assets": 0, "income": 0, "revenue": 0}, {"ein": "581901494", "name": "CHURCH OF GOD BY FAITH", "city": "SODUS CENTER", "state": "NY", "zip": "14551-9537", "ntee": "", "ruling": "199007", "deductibility": "1", "assets": 0, "income": 0, "revenue": 0}, {"ein": "581901495", "name": "CHURCH OF GOD BY FAITH", "city": "SODUS", "state": "NY", "zip": "14551-9537", "ntee": "", "ruling": "199007", "deductibility": "1", "assets": 0, "income": 0, "revenue": 0}, {"ein": "800440008", "name": "ARVERNE BY THE BAY COMMUNITY CENTER INC", "city": "ARVERNE", "state": "NY", "zip": "11692-1026", "ntee": "S43", "ruling": "202310", "deductibility": "1", "assets": 0, "income": 0, "revenue": 0}, {"ein": "810632398", "name": "I AM COVERED BY THE BLOOD OF JESUS CHURCH OF GOD INC", "city": "BRONX", "state": "NY", "zip": "10469-0000", "ntee": "X20", "ruling": "200603", "deductibility": "1", "assets": 0, "income": 0, "revenue": 0}, {"ein": "810850397", "name": "BHMD BY ON CHEVRON INC", "city": "MONROE", "state": "NY", "zip": "10950-3069", "ntee": "X30", "ruling": "201602", "deductibility": "1", "assets": 0, "income": 0, "revenue": 0}, {"ein": "810869239", "name": "DEATH BY AUDIO ARCADE INC", "city": "BROOKLYN", "state": "NY", "zip": "11206-1709", "ntee": "A20", "ruling": "201702", "deductibility": "1", "assets": 0, "income": 0, "revenue": 0}, {"ein": "812402313", "name": "STANDING BY YOUR DREAM INITIATIVE INC", "city": "VALLEY STREAM", "state": "NY", "zip": "11580-3133", "ntee": "T30", "ruling": "202211", "deductibility": "1", "assets": 0, "income": 0, "revenue": 0}, {"ein": "813525941", "name": "PIECE BY PIECE BETHPAGE INC", "city": "BETHPAGE", "state": "NY", "zip": "11714-3107", "ntee": "P40", "ruling": "202103", "deductibility": "1", "assets": 0, "income": 0, "revenue": 0}, {"ein": "823395648", "name": "THE GARDEN BY THE BAY INC", "city": "FAR ROCKAWAY", "state": "NY", "zip": "11691-0000", "ntee": "C42", "ruling": "202112", "deductibility": "1", "assets": 0, "income": 0, "revenue": 0}, {"ein": "824195843", "name": "TWO BY TWO FOUNDATION INC", "city": "PAWLING", "state": "NY", "zip": "12564-2052", "ntee": "D20", "ruling": "201904", "deductibility": "1", "assets": 64282, "income": 68661, "revenue": 68661}, {"ein": "830550125", "name": "SDAND BY INC", "city": "COVE NECK", "state": "NY", "zip": "11771-1806", "ntee": "X99", "ruling": "201809", "deductibility": "1", "assets": 0, "income": 0, "revenue": 0}, {"ein": "830886447", "name": "UNITE BY NIGHT INC", "city": "BUFFALO", "state": "NY", "zip": "14207-0686", "ntee": "R30", "ruling": "201806", "deductibility": "1", "assets": 0, "income": 0, "revenue": 0}, {"ein": "831955763", "name": "TWO BY TWELVE INC", "city": "PRT WASHINGTN", "state": "NY", "zip": "11050-4502", "ntee": "A25", "ruling": "201908", "deductibility": "1", "assets": 0, "income": 0, "revenue": 0}, {"ein": "834530431", "name": "BUILD BROOKLYN BY BOAT INC", "city": "BROOKLYN", "state": "NY", "zip": "11201-3540", "ntee": "O50", "ruling": "201905", "deductibility": "1", "assets": 0, "income": 0, "revenue": 0}, {"ein": "834629054", "name": "LIVING BY FAITH THROUGH JESUS CHRIST MINISTRY INC", "city": "BROOKLYN", "state": "NY", "zip": "11203-4807", "ntee": "X20", "ruling": "201910", "deductibility": "1", "assets": 0, "income": 0, "revenue": 0}, {"ein": "841850653", "name": "FRIENDS OF SIDE BY SIDE INC", "city": "BROOKLYN", "state": "NY", "zip": "11218-4424", "ntee": "T30", "ruling": "202203", "deductibility": "1", "assets": 0, "income": 0, "revenue": 0}, {"ein": "842647595", "name": "REBUILD BY DESIGN INC", "city": "BROOKLYN", "state": "NY", "zip": "11226-7382", "ntee": "P20", "ruling": "202010", "deductibility": "1", "assets": 0, "income": 0, "revenue": 0}, {"ein": "843206537", "name": "NEW BEGINNING BY FAITH MINISTRIES", "city": "NEW YORK CITY", "state": "NY", "zip": "10029-4279", "ntee": "X20", "ruling": "202002", "deductibility": "1", "assets": 0, "income": 0, "revenue": 0}, {"ein": "843319393", "name": "TWO BY TWO CAT RESCUE BOARDING & ADOPTION", "city": "EAST MEADOW", "state": "NY", "zip": "11554-0119", "ntee": "D20", "ruling": "201911", "deductibility": "1", "assets": 0, "income": 0, "revenue": 0}, {"ein": "844127228", "name": "STEP BY STEP SHELTERS INC", "city": "QUEENS VLG", "state": "NY", "zip": "11427-2731", "ntee": "P85", "ruling": "202001", "deductibility": "1", "assets": 0, "income": 0, "revenue": 0}, {"ein": "845137602", "name": "IASNY FOUNDED BY CASTELLAMMARE DEL GOLFO INC", "city": "STATEN ISLAND", "state": "NY", "zip": "10309-1342", "ntee": "A23", "ruling": "202406", "deductibility": "1", "assets": 1, "income": 0, "revenue": 0}, {"ein": "850500300", "name": "WILD BY NURTURE INC", "city": "ITHACA", "state": "NY", "zip": "14850-8921", "ntee": "D30", "ruling": "202103", "deductibility": "1", "assets": 5957, "income": 66923, "revenue": 66923}, {"ein": "850513470", "name": "LED BY FAITH", "city": "BALDWIN", "state": "NY", "zip": "11510-3220", "ntee": "X20", "ruling": "202409", "deductibility": "1", "assets": 0, "income": 0, "revenue": 0}, {"ein": "850680266", "name": "FORMULA BY LABOUT SKILLZ INC", "city": "WHITE PLAINS", "state": "NY", "zip": "10607-2309", "ntee": "N62", "ruling": "202103", "deductibility": "1", "assets": 0, "income": 0, "revenue": 0}, {"ein": "851705799", "name": "BY ALL MEANS LEADERSHIP ALLIANCE INC", "city": "BROOKLYN", "state": "NY", "zip": "11238-1409", "ntee": "O50", "ruling": "202012", "deductibility": "1", "assets": 0, "income": 221107, "revenue": 221107}, {"ein": "853547036", "name": "CAT BY CAT INC", "city": "EAST AMHERST", "state": "NY", "zip": "14051-1321", "ntee": "D20", "ruling": "202101", "deductibility": "1", "assets": 40014, "income": 194554, "revenue": 189634}, {"ein": "853954598", "name": "WALK BY FAITH DELIVERANCE INTERNATIONAL MINISTRY INC", "city": "BROOKLYN", "state": "NY", "zip": "11236-1823", "ntee": "X20", "ruling": "202302", "deductibility": "1", "assets": 0, "income": 0, "revenue": 0}, {"ein": "854244638", "name": "POWERED BY INCLUSION INC", "city": "BROOKLYN", "state": "NY", "zip": "11201-7903", "ntee": "P80", "ruling": "202103", "deductibility": "1", "assets": 8866, "income": 5000, "revenue": 5000}, {"ein": "861466752", "name": "STEP BY STEP TUTORING INC", "city": "GREAT NECK", "state": "NY", "zip": "11022-2010", "ntee": "B90", "ruling": "202105", "deductibility": "1", "assets": 0, "income": 0, "revenue": 0}, {"ein": "861493684", "name": "TWO-BY-TWO ANIMAL HAVEN INC", "city": "PLEASANT VLY", "state": "NY", "zip": "12569-5028", "ntee": "D50", "ruling": "202108", "deductibility": "1", "assets": 24526, "income": 224313, "revenue": 224313}, {"ein": "862221794", "name": "TRANS4MATION BY DESIGN INC", "city": "KINGSTON", "state": "NY", "zip": "12401-4934", "ntee": "P20", "ruling": "202501", "deductibility": "1", "assets": 0, "income": 0, "revenue": 0}, {"ein": "862321942", "name": "BEATS BY KIDS", "city": "NEW ROCHELLE", "state": "NY", "zip": "10801-6387", "ntee": "A20", "ruling": "202106", "deductibility": "1", "assets": 0, "income": 0, "revenue": 0}, {"ein": "863137021", "name": "MACHON BY CHARITABLE TRUST", "city": "BROOKLYN", "state": "NY", "zip": "11204-1049", "ntee": "T90", "ruling": "202205", "deductibility": "1", "assets": 4587158, "income": 54591, "revenue": 54591}, {"ein": "870933772", "name": "MOVED BY LOVE INC", "city": "NEW YORK", "state": "NY", "zip": "10013-2562", "ntee": "P20", "ruling": "202108", "deductibility": "1", "assets": 0, "income": 0, "revenue": 0}, {"ein": "871156061", "name": "BY THE LAKE MINISTRIES INC", "city": "LIVONIA", "state": "NY", "zip": "14487-9526", "ntee": "X20", "ruling": "202203", "deductibility": "1", "assets": 0, "income": 0, "revenue": 0}, {"ein": "872167023", "name": "FOR WOMEN BY WOMEN PERIOD INC", "city": "FOREST HILLS", "state": "NY", "zip": "11375-5354", "ntee": "E60", "ruling": "202310", "deductibility": "1", "assets": 0, "income": 0, "revenue": 0}, {"ein": "873865749", "name": "ONE BY ONE MINISTRIES INC", "city": "CONSTABLEVLE", "state": "NY", "zip": "13325-1841", "ntee": "X20", "ruling": "202201", "deductibility": "1", "assets": 0, "income": 0, "revenue": 0}, {"ein": "883317303", "name": "CAUSE COFFEE BY REVIVAL LTD", "city": "BLOSSVALE", "state": "NY", "zip": "13308-2111", "ntee": "F12", "ruling": "202305", "deductibility": "1", "assets": 1, "income": 558, "revenue": 0}, {"ein": "921392490", "name": "BLUE BRUNCH BY MARIAMS CAFE INC", "city": "FARMINGDALE", "state": "NY", "zip": "11735-0000", "ntee": "P82", "ruling": "202301", "deductibility": "1", "assets": 0, "income": 0, "revenue": 0}, {"ein": "921515120", "name": "DONATE BY MAIL", "city": "NEW YORK", "state": "NY", "zip": "10013-2562", "ntee": "P99", "ruling": "202304", "deductibility": "1", "assets": 0, "income": 0, "revenue": 0}, {"ein": "922032569", "name": "WALKING BY FAITH MINISTRIES", "city": "RIVERHEAD", "state": "NY", "zip": "11901-4345", "ntee": "X20", "ruling": "202309", "deductibility": "1", "assets": 0, "income": 0, "revenue": 0}, {"ein": "922646964", "name": "WE LEAD BY EXAMPLE INC", "city": "PATCHOGUE", "state": "NY", "zip": "11772-1212", "ntee": "P20", "ruling": "202303", "deductibility": "1", "assets": 1, "income": 1, "revenue": 0}, {"ein": "922703984", "name": "HAITI ONE BY ONE INC", "city": "BROOKLYN", "state": "NY", "zip": "11236-3712", "ntee": "A12", "ruling": "202306", "deductibility": "1", "assets": 40843, "income": 87154, "revenue": 87154}, {"ein": "923230666", "name": "GIRLS EMPOWERED BY TRAVEL INC", "city": "ASTORIA", "state": "NY", "zip": "11106-1721", "ntee": "O22", "ruling": "202304", "deductibility": "1", "assets": 0, "income": 0, "revenue": 0}, {"ein": "931481411", "name": "CHANGED BY CHRIST INC", "city": "PLATTSBURGH", "state": "NY", "zip": "12901-3658", "ntee": "P99", "ruling": "202306", "deductibility": "1", "assets": 0, "income": 0, "revenue": 0}, {"ein": "932391938", "name": "ERIC BRESLAU BLESSED BY E FOUNDATION CORP", "city": "ALBANY", "state": "NY", "zip": "12207-2834", "ntee": "P12", "ruling": "202308", "deductibility": "1", "assets": 0, "income": 0, "revenue": 0}, {"ein": "932584785", "name": "MADE BY LENA S LOVE INC", "city": "BROOKLYN", "state": "NY", "zip": "11213-2000", "ntee": "P20", "ruling": "202308", "deductibility": "1", "assets": 0, "income": 0, "revenue": 0}, {"ein": "933472381", "name": "KIN BY CHOICE INC", "city": "SYOSSET", "state": "NY", "zip": "11791-9671", "ntee": "W01", "ruling": "202502", "deductibility": "1", "assets": 1, "income": 0, "revenue": 0}, {"ein": "934019090", "name": "PUSHING THROUGH CHALLENGES BY MENTORING INC", "city": "MOUNT VERNON", "state": "NY", "zip": "10553-1304", "ntee": "G84", "ruling": "202311", "deductibility": "1", "assets": 0, "income": 0, "revenue": 0}, {"ein": "934500143", "name": "EMPOWERED BY KIDS", "city": "ROCHESTER", "state": "NY", "zip": "14624-0000", "ntee": "O50", "ruling": "202408", "deductibility": "1", "assets": 0, "income": 0, "revenue": 0}, {"ein": "991802285", "name": "TECHNOLOGY BY DESIGN INC", "city": "ALBANY", "state": "NY", "zip": "12210-2817", "ntee": "W50", "ruling": "202504", "deductibility": "1", "assets": 1, "income": 0, "revenue": 0}, {"ein": "993795079", "name": "STITCHES BY HUGO", "city": "NEW YORK", "state": "NY", "zip": "10018-0000", "ntee": "A99", "ruling": "202407", "deductibility": "1", "assets": 0, "income": 0, "revenue": 0}, {"ein": "994074017", "name": "CHRISTIAN CHURCH BY GRACE", "city": "OSSINING", "state": "NY", "zip": "10562-4234", "ntee": "X20", "ruling": "202408", "deductibility": "1", "assets": 0, "income": 0, "revenue": 0}, {"ein": "994755622", "name": "CHILDREN AFFECTED BY DOMESTIC VIOLENCE OUTREACH SERVICES INC", "city": "NONE", "state": "NY", "zip": "10003-0000", "ntee": "P43", "ruling": "202410", "deductibility": "1", "assets": 0, "income": 0, "revenue": 0}], "PERCY": [{"ein": "036005018", "name": "PERCY P WOOD TRUST", "city": "BUFFALO", "state": "NY", "zip": "14240-1504", "ntee": "", "ruling": "197503", "deductibility": "1", "assets": 2491571, "income": 593041, "revenue": 0}, {"ein": "132850138", "name": "CARROLL AND PERCY KLINGENSTEIN FOUNDATION INC", "city": "NEW YORK", "state": "NY", "zip": "10036-4031", "ntee": "", "ruling": "197509", "deductibility": "1", "assets": 2401434, "income": 664975, "revenue": 0}, {"ein": "133049629", "name": "INTERNATIONAL PERCY GRAINGER SOCIETY", "city": "WHITE PLAINS", "state": "NY", "zip": "10601-5005", "ntee": "", "ruling": "198106", "deductibility": "1", "assets": 684314, "income": 77132, "revenue": 0}, {"ein": "236662736", "name": "PERCY EDWARD DECKARD TRUST UW", "city": "AMHERST", "state": "NY", "zip": "14228-2307", "ntee": "T20Z", "ruling": "199605", "deductibility": "1", "assets": 760614, "income": 32977, "revenue": 0}, {"ein": "371736195", "name": "PERCY JOBS AND CAREERS CORPORATION", "city": "ORISKANY", "state": "NY", "zip": "13424-5425", "ntee": "B30", "ruling": "201505", "deductibility": "1", "assets": 0, "income": 0, "revenue": 0}, {"ein": "813300405", "name": "PERCY GRAINGER AMERICA INC", "city": "WHITE PLAINS", "state": "NY", "zip": "10601-5005", "ntee": "A54", "ruling": "201607", "deductibility": "1", "assets": 0, "income": 0, "revenue": 0}], "SAFED": [{"ein": "043621836", "name": "EDUCATION FOUNDATION FOR OLD SAFED INC", "city": "N WOODMERE", "state": "NY", "zip": "11581-0000", "ntee": "T12", "ruling": "200207", "deductibility": "1", "assets": 231089, "income": 42011, "revenue": 0}, {"ein": "112926894", "name": "GIRLSTOWN BEIT CHANA SAFED ISRAEL", "city": "BROOKLYN", "state": "NY", "zip": "11213-3403", "ntee": "", "ruling": "198811", "deductibility": "0", "assets": 0, "income": 0, "revenue": 0}, {"ein": "954053782", "name": "SAFED FOUNDATION", "city": "BROOKLYN", "state": "NY", "zip": "11219-2760", "ntee": "", "ruling": "198703", "deductibility": "1", "assets": 0, "income": 0, "revenue": 0}], "HERRICKS": [{"ein": "050534488", "name": "HERRICKS INDO US COMMUNITY INC", "city": "NEW HYDE PARK", "state": "NY", "zip": "11040-2208", "ntee": "P84", "ruling": "200401", "deductibility": "1", "assets": 52911, "income": 0, "revenue": 0}, {"ein": "112850565", "name": "HERRICKS COMMUNITY CENTER FUND INC", "city": "NEW HYDE PARK", "state": "NY", "zip": "11040-1320", "ntee": "T30", "ruling": "198804", "deductibility": "1", "assets": 446703, "income": 444886, "revenue": 380152}, {"ein": "800253605", "name": "HERRICKS ATHLETIC BOOSTERS", "city": "NEW HYDE PARK", "state": "NY", "zip": "11040-1356", "ntee": "B11", "ruling": "201005", "deductibility": "1", "assets": 91924, "income": 123330, "revenue": 74134}, {"ein": "814198833", "name": "HERRICKS MUSIC BOOSTERS ASSOCATION INC", "city": "NEW HYDE PARK", "state": "NY", "zip": "11040-1356", "ntee": "A68", "ruling": "201611", "deductibility": "1", "assets": 0, "income": 0, "revenue": 0}, {"ein": "844775111", "name": "HERRICKS CHINESE ASSOCIATION INCORPORATED", "city": "NEW HYDE PARK", "state": "NY", "zip": "11040-8115", "ntee": "B01", "ruling": "202003", "deductibility": "1", "assets": 0, "income": 0, "revenue": 0}, {"ein": "853115576", "name": "HERRICKS MUSLIM FAMILIES INC", "city": "NEW HYDE PARK", "state": "NY", "zip": "11040-2222", "ntee": "B80", "ruling": "202105", "deductibility": "1", "assets": 8500, "income": 11000, "revenue": 5000}, {"ein": "854204306", "name": "HERRICKS TECHNOLOGY BOOSTERS ASSOCIATION INC", "city": "NEW HYDE PARK", "state": "NY", "zip": "11040-1356", "ntee": "B90", "ruling": "202403", "deductibility": "1", "assets": 608, "income": 891, "revenue": 891}, {"ein": "863594678", "name": "HERRICKS ARTS BOOSTERS INC", "city": "NEW HYDE PARK", "state": "NY", "zip": "11040-1356", "ntee": "B20", "ruling": "202108", "deductibility": "1", "assets": 0, "income": 0, "revenue": 0}], "KOVNER": [{"ein": "112068120", "name": "YESHIVAS RABBI LEIB KOVNER TIFERETH ISFAEL INC", "city": "JAMAICA", "state": "NY", "zip": "11427-1010", "ntee": "", "ruling": "196902", "deductibility": "1", "assets": 0, "income": 0, "revenue": 0}], "GOODWILL": [{"ein": "112224215", "name": "GOODWILL INDUSTRIES HOUSING CO INC", "city": "NEW YORK", "state": "NY", "zip": "10018-5706", "ntee": "P73Z", "ruling": "199202", "deductibility": "1", "assets": 0, "income": 0, "revenue": 0}, {"ein": "131641068", "name": "GOODWILL INDUSTRIES OF GREATER NEW YORK AND NORTHERN NEW JERSEY INC", "city": "BROOKLYN", "state": "NY", "zip": "11201-5826", "ntee": "J320", "ruling": "194207", "deductibility": "1", "assets": 135040171, "income": 154532059, "revenue": 107466170}, {"ein": "133230568", "name": "GOODWILL BAPTIST CHURCH", "city": "BRONX", "state": "NY", "zip": "10456-2222", "ntee": "", "ruling": "199301", "deductibility": "1", "assets": 0, "income": 0, "revenue": 0}, {"ein": "141511888", "name": "GOODWILL PRESBYTERIAN CHURCH", "city": "MONTGOMERY", "state": "NY", "zip": "12549-2616", "ntee": "", "ruling": "198205", "deductibility": "1", "assets": 0, "income": 0, "revenue": 0}, {"ein": "160743906", "name": "GOODWILL VISION ENTERPRISES INC", "city": "ROCHESTER", "state": "NY", "zip": "14620-1103", "ntee": "", "ruling": "195302", "deductibility": "1", "assets": 39127903, "income": 20372541, "revenue": 18413159}, {"ein": "160761225", "name": "GOODWILL INDUSTRIES OF WESTERN NY", "city": "BUFFALO", "state": "NY", "zip": "14206-1804", "ntee": "P80Z", "ruling": "199409", "deductibility": "1", "assets": 33119032, "income": 39953590, "revenue": 24554326}, {"ein": "161612384", "name": "GOODWILL THEATRE INC", "city": "JOHNSON CITY", "state": "NY", "zip": "13790-2190", "ntee": "A65", "ruling": "200205", "deductibility": "1", "assets": 5471007, "income": 1072722, "revenue": 1009887}, {"ein": "166312026", "name": "N RIEFLER GOODWILL INDUSTRIES TR", "city": "NEW YORK", "state": "NY", "zip": "10001-2189", "ntee": "", "ruling": "199106", "deductibility": "1", "assets": 368658, "income": 80717, "revenue": 0}, {"ein": "221487207", "name": "GOODWILL RECSUE MISSION INC", "city": "NEW YORK", "state": "NY", "zip": "10013-4416", "ntee": "P600", "ruling": "194212", "deductibility": "1", "assets": 3164967, "income": 532332, "revenue": 498225}, {"ein": "261335287", "name": "GOODWILL AGENTS INTERNATIONAL INC", "city": "BRONX", "state": "NY", "zip": "10457-8700", "ntee": "P70", "ruling": "200904", "deductibility": "1", "assets": 0, "income": 0, "revenue": 0}, {"ein": "272834381", "name": "CHIROTA ELDERLY NEIGHBORS GOODWILL PROJECT IN ETHIOPIA INC", "city": "VALLEY STREAM", "state": "NY", "zip": "11580-1748", "ntee": "Q33", "ruling": "201405", "deductibility": "1", "assets": 0, "income": 0, "revenue": 0}, {"ein": "274212702", "name": "GOODWILL OF THE FINGER LAKES INC", "city": "ROCHESTER", "state": "NY", "zip": "14620-1103", "ntee": "P11", "ruling": "201109", "deductibility": "1", "assets": 46859126, "income": 60307996, "revenue": 56983253}, {"ein": "332411611", "name": "GOODWILL HOOK AND LADDER COMPANY NO 1 OF WARWICK ORANGE COUNTY NE", "city": "WARWICK", "state": "NY", "zip": "10990-0104", "ntee": "M24", "ruling": "202501", "deductibility": "1", "assets": 0, "income": 0, "revenue": 0}, {"ein": "455111761", "name": "GOODWILL ALLIANCE", "city": "BROOKLYN", "state": "NY", "zip": "11235-7917", "ntee": "T30", "ruling": "201401", "deductibility": "1", "assets": 0, "income": 0, "revenue": 0}, {"ein": "461067524", "name": "ACT OF GOODWILL INC", "city": "JAMAICA", "state": "NY", "zip": "11432-1043", "ntee": "P60", "ruling": "201403", "deductibility": "1", "assets": 17055, "income": 92860, "revenue": 92860}, {"ein": "463297735", "name": "DCDD GOODWILL FOUNDATION INC", "city": "FLUSHING", "state": "NY", "zip": "11354-4263", "ntee": "T30", "ruling": "201409", "deductibility": "1", "assets": 1348885, "income": 1046864, "revenue": 0}, {"ein": "463368740", "name": "UNITED MISSION OF GOODWILL INC", "city": "BROOKLYN", "state": "NY", "zip": "11236-3011", "ntee": "S80", "ruling": "201409", "deductibility": "1", "assets": 15110, "income": 79779, "revenue": 79779}, {"ein": "471782866", "name": "GLOBAL GOODWILL AMBASSADOR INC", "city": "BAYSIDE", "state": "NY", "zip": "11364-1421", "ntee": "Q42", "ruling": "201804", "deductibility": "2", "assets": 0, "income": 0, "revenue": 0}, {"ein": "651168406", "name": "PEACE AND GOODWILL BAPTIST CHURCH", "city": "BROOKLYN", "state": "NY", "zip": "11233-3305", "ntee": "X21", "ruling": "200304", "deductibility": "1", "assets": 0, "income": 0, "revenue": 0}, {"ein": "841997604", "name": "GOODWILL SOCIETY INC", "city": "BRONX", "state": "NY", "zip": "10461-0000", "ntee": "A23", "ruling": "201906", "deductibility": "1", "assets": 1, "income": 0, "revenue": 0}, {"ein": "871131094", "name": "GOODWILL FOR ALL INC", "city": "BROOKLYN", "state": "NY", "zip": "11211-6501", "ntee": "Q33", "ruling": "202204", "deductibility": "1", "assets": 0, "income": 0, "revenue": 0}, {"ein": "934045957", "name": "A M R GOODWILL AYUDA AL INMIGRANTE ORG INC", "city": "CORONA", "state": "NY", "zip": "11368-0000", "ntee": "P84", "ruling": "202311", "deductibility": "1", "assets": 0, "income": 0, "revenue": 0}, {"ein": "990642073", "name": "GOODWILL OF UPSTATE NEW YORK INC", "city": "ROCHESTER", "state": "NY", "zip": "14620-1103", "ntee": "J32", "ruling": "202409", "deductibility": "1", "assets": 0, "income": 0, "revenue": 0}], "SICHOS": [{"ein": "112256939", "name": "VAAD L HAFOTZAS SICHOS INC", "city": "BROOKLYN", "state": "NY", "zip": "11225-3129", "ntee": "X30", "ruling": "202308", "deductibility": "1", "assets": 156351, "income": 220570, "revenue": 193465}], "LEISURE": [{"ein": "112404468", "name": "ARTS & LEISURE/BAY SHORE BRIGHTWATERS PUBLIC LIBRARY", "city": "BRIGHTWATERS", "state": "NY", "zip": "11718-1513", "ntee": "", "ruling": "197706", "deductibility": "1", "assets": 11363, "income": 31302, "revenue": 31302}, {"ein": "113189516", "name": "LEISURE EDUCATION FOR THE ADULT DEVELOPMENTALLY DISABLED L E A D D", "city": "BROOKLYN", "state": "NY", "zip": "11229-3749", "ntee": "E86", "ruling": "201307", "deductibility": "1", "assets": 0, "income": 0, "revenue": 0}, {"ein": "222329966", "name": "LEISURE TIMERS RESIDENTIAL SERVICES INC", "city": "WILLIAMSVILLE", "state": "NY", "zip": "14221-7640", "ntee": "", "ruling": "202405", "deductibility": "1", "assets": 1163921, "income": 198596, "revenue": 198596}, {"ein": "222455788", "name": "EXCALIBUR LEISURE SKILLS CENTER INC", "city": "BUFFALO", "state": "NY", "zip": "14216-2031", "ntee": "P82Z", "ruling": "198805", "deductibility": "1", "assets": 81067, "income": 84375, "revenue": 84375}, {"ein": "814837979", "name": "CONGREGATION LEISURE LAKE SHUL", "city": "BROOKLYN", "state": "NY", "zip": "11206-2946", "ntee": "X30", "ruling": "201706", "deductibility": "1", "assets": 0, "income": 0, "revenue": 0}], "ENOCH": [{"ein": "112412308", "name": "HOLY NAME ASSEMBLY OF YAHSHVA THE MESSIAH C O BISHOP ENOCH", "city": "BROOKLYN", "state": "NY", "zip": "11231-2019", "ntee": "", "ruling": "197704", "deductibility": "1", "assets": 0, "income": 0, "revenue": 0}, {"ein": "112420333", "name": "ENOCH BAPTIST CHURCH C O REV JAMES C SIMMS", "city": "BKLYN", "state": "NY", "zip": "11205-3915", "ntee": "", "ruling": "197707", "deductibility": "1", "assets": 0, "income": 0, "revenue": 0}, {"ein": "465672625", "name": "ENOCH GRAND LODGE TEMPLE AF & AM", "city": "BROOKLYN", "state": "NY", "zip": "11216-0000", "ntee": "Y40", "ruling": "201511", "deductibility": "1", "assets": 1, "income": 0, "revenue": 0}], "MESIVTAH": [{"ein": "112428571", "name": "MESIVTAH EITZ CHAIM OF BOBOV", "city": "BROOKLYN", "state": "NY", "zip": "11219-3250", "ntee": "", "ruling": "197707", "deductibility": "1", "assets": 0, "income": 0, "revenue": 0}, {"ein": "237291798", "name": "CONGREGATION MESIVTAH BETH ALEXANDER RABBINICAL SEMINAY", "city": "BROOKLYN", "state": "NY", "zip": "11230-4003", "ntee": "", "ruling": "198004", "deductibility": "1", "assets": 0, "income": 0, "revenue": 0}], "BOOKERS": [{"ein": "112674357", "name": "MOTION PICTURE BOOKERS CLUB", "city": "NEW YORK", "state": "NY", "zip": "10185-0970", "ntee": "", "ruling": "198702", "deductibility": "1", "assets": 47224, "income": 13710, "revenue": 6842}, {"ein": "112829403", "name": "MOTION PICTURE BOOKERS CLUB FOUNDATION", "city": "NEW YORK", "state": "NY", "zip": "10185-0970", "ntee": "T70Z", "ruling": "198702", "deductibility": "1", "assets": 73312, "income": 123741, "revenue": 70883}], "SWAMINARAYAN": [{"ein": "112804787", "name": "SHREE SWAMINARAYAN MISSION", "city": "MERRICK", "state": "NY", "zip": "11566-2234", "ntee": "", "ruling": "198609", "deductibility": "1", "assets": 0, "income": 0, "revenue": 0}, {"ein": "113411434", "name": "SHREE SWAMINARAYAN SATSANG MANDAL", "city": "BELLEROSE", "state": "NY", "zip": "11426-1618", "ntee": "X99", "ruling": "199907", "deductibility": "1", "assets": 0, "income": 0, "revenue": 0}, {"ein": "237357602", "name": "BOCHASANWAS SWAMINARAYAN SANSTHA", "city": "FLUSHING", "state": "NY", "zip": "11355-3040", "ntee": "", "ruling": "197501", "deductibility": "1", "assets": 0, "income": 0, "revenue": 0}, {"ein": "273181487", "name": "SWAMINARAYAN SHUBH SANSKAR SANSTHA INC", "city": "WOODSIDE", "state": "NY", "zip": "11377-5054", "ntee": "X20", "ruling": "201204", "deductibility": "1", "assets": 6211709, "income": 566884, "revenue": 566884}], "VIKINGS": [{"ein": "112890016", "name": "VIKINGS SPORTS FOUNDATION INC", "city": "PRT WASHINGTN", "state": "NY", "zip": "11050-7555", "ntee": "N60", "ruling": "200505", "deductibility": "1", "assets": 41855, "income": 28898, "revenue": 28898}, {"ein": "453177416", "name": "VC VIKINGS YOUTH LACROSSE", "city": "MONTGOMERY", "state": "NY", "zip": "12549-0234", "ntee": "N99", "ruling": "201904", "deductibility": "1", "assets": 0, "income": 0, "revenue": 0}, {"ein": "471935529", "name": "PW VIKINGS BASEBALL BOOSTER CLUB INC", "city": "PRT WASHINGTN", "state": "NY", "zip": "11050-4222", "ntee": "N63", "ruling": "201410", "deductibility": "1", "assets": 0, "income": 0, "revenue": 0}, {"ein": "821283902", "name": "VALHALLA JUNIOR VIKINGS LACROSSE INC", "city": "VALHALLA", "state": "NY", "zip": "10595-1831", "ntee": "O23", "ruling": "202204", "deductibility": "1", "assets": 0, "income": 0, "revenue": 0}, {"ein": "862657123", "name": "PW VIKINGS SOCCER BOOSTER CLUB INC", "city": "PRT WASHINGTN", "state": "NY", "zip": "11050-0001", "ntee": "B11", "ruling": "202108", "deductibility": "1", "assets": 0, "income": 0, "revenue": 0}, {"ein": "873648827", "name": "SEAFORD VIKINGS BOOSTER CLUB INC", "city": "WANTAGH", "state": "NY", "zip": "11793-4248", "ntee": "N99", "ruling": "202204", "deductibility": "1", "assets": 0, "income": 0, "revenue": 0}, {"ein": "920334389", "name": "DWIP VIKINGS SPORTING CLUB INC", "city": "BROOKLYN", "state": "NY", "zip": "11236-1223", "ntee": "N50", "ruling": "202403", "deductibility": "1", "assets": 0, "income": 0, "revenue": 0}, {"ein": "922158537", "name": "VIKINGS LACROSSE FOUNDATION INC", "city": "WEST NYACK", "state": "NY", "zip": "10994-0133", "ntee": "O12", "ruling": "202404", "deductibility": "1", "assets": 0, "income": 0, "revenue": 0}], "SONG": [{"ein": "112941247", "name": "COUNTRY DANCE & SONG SOCIETY INC", "city": "PLEASANTVILLE", "state": "NY", "zip": "10570-3623", "ntee": "", "ruling": "199305", "deductibility": "1", "assets": 0, "income": 0, "revenue": 0}, {"ein": "132980871", "name": "COUNTRY DANCE & SONG SOCIETY INC", "city": "NEW CITY", "state": "NY", "zip": "10956-1021", "ntee": "", "ruling": "199305", "deductibility": "1", "assets": 0, "income": 0, "revenue": 0}, {"ein": "133408843", "name": "COUNTRY DANCE AND SONG SOCIETY INC", "city": "NEW YORK", "state": "NY", "zip": "10014-0703", "ntee": "A620", "ruling": "199305", "deductibility": "1", "assets": 285946, "income": 54951, "revenue": 54591}, {"ein": "133468487", "name": "COUNTRY DANCE & SONG SOCIETY INC", "city": "SETAUKET", "state": "NY", "zip": "11733-2617", "ntee": "A200", "ruling": "199305", "deductibility": "1", "assets": 227083, "income": 135289, "revenue": 135289}, {"ein": "133570387", "name": "NEW YORK FESTIVAL OF SONG INC", "city": "NEW YORK", "state": "NY", "zip": "10001-5580", "ntee": "", "ruling": "199312", "deductibility": "1", "assets": 344938, "income": 473354, "revenue": 431821}, {"ein": "137211068", "name": "THE JULIAN AUTREY SONG FOUNDATION", "city": "NEW YORK", "state": "NY", "zip": "10025-0000", "ntee": "T20", "ruling": "200108", "deductibility": "1", "assets": 130418, "income": 30297, "revenue": 0}, {"ein": "141703626", "name": "COUNTRY DANCE AND SONG SOCIETY INC", "city": "WEST HURLEY", "state": "NY", "zip": "12491-5106", "ntee": "", "ruling": "199305", "deductibility": "1", "assets": 0, "income": 0, "revenue": 0}, {"ein": "141708744", "name": "COUNTRY DANCE & SONG SOCIETY INC", "city": "ULSTER PARK", "state": "NY", "zip": "12487-5311", "ntee": "", "ruling": "199305", "deductibility": "1", "assets": 0, "income": 0, "revenue": 0}, {"ein": "141724227", "name": "COUNTRY DANCE & SONG SOCIETY INC", "city": "ALBANY", "state": "NY", "zip": "12203-5106", "ntee": "", "ruling": "199305", "deductibility": "1", "assets": 0, "income": 0, "revenue": 0}, {"ein": "161349383", "name": "SONG OF ZION FELLOWSHIP", "city": "LA FARGEVILLE", "state": "NY", "zip": "13656-3113", "ntee": "", "ruling": "199110", "deductibility": "1", "assets": 0, "income": 0, "revenue": 0}, {"ein": "161368151", "name": "COUNTRY DANCE & SONG SOCIETY INC", "city": "MANLIUS", "state": "NY", "zip": "13104-0522", "ntee": "", "ruling": "199305", "deductibility": "1", "assets": 0, "income": 0, "revenue": 0}, {"ein": "161492675", "name": "SONG MOUNTAIN RACE CLUB INC", "city": "MARIETTA", "state": "NY", "zip": "13110-0058", "ntee": "O20", "ruling": "199706", "deductibility": "1", "assets": 75045, "income": 41074, "revenue": 41074}, {"ein": "205331144", "name": "SONG AND BEAT INC", "city": "MOHEGAN LAKE", "state": "NY", "zip": "10547-1012", "ntee": "A25", "ruling": "202106", "deductibility": "1", "assets": 0, "income": 0, "revenue": 0}, {"ein": "208711934", "name": "HERE AT HOME SONG FOUNDATION INC", "city": "WHITE PLAINS", "state": "NY", "zip": "10605-0000", "ntee": "T12", "ruling": "200709", "deductibility": "1", "assets": 4328, "income": 0, "revenue": 0}, {"ein": "222570260", "name": "COUNTRY DANCE AND SONG SOCIETY INC", "city": "ROCHESTER", "state": "NY", "zip": "14625-2041", "ntee": "", "ruling": "199305", "deductibility": "1", "assets": 26427, "income": 58750, "revenue": 57866}, {"ein": "260364795", "name": "COUNTRY DANCE & SONG SOCIETY INC", "city": "BUFFALO", "state": "NY", "zip": "14216-3591", "ntee": "", "ruling": "199305", "deductibility": "1", "assets": 0, "income": 0, "revenue": 0}, {"ein": "271863742", "name": "REDEEMED CHRISTIAN CHURCH OF GOD CHAPEL OF NEW SONG", "city": "HUNTINGTON STATION", "state": "NY", "zip": "11746-2471", "ntee": "X20", "ruling": "201306", "deductibility": "1", "assets": 0, "income": 0, "revenue": 0}, {"ein": "320305966", "name": "ART SONG PRESERVATION SOCIETY OF NEW YORK INC", "city": "NEW YORK", "state": "NY", "zip": "10026-0984", "ntee": "A68", "ruling": "201101", "deductibility": "1", "assets": 0, "income": 0, "revenue": 0}, {"ein": "460634141", "name": "BROOKLYN ART SONG SOCIETY INC", "city": "NEW YORK", "state": "NY", "zip": "10003-6514", "ntee": "A20", "ruling": "201408", "deductibility": "1", "assets": 19388, "income": 101385, "revenue": 101385}, {"ein": "471648043", "name": "ART SONG MAGAZINE INC", "city": "RHINEBECK", "state": "NY", "zip": "12572-1504", "ntee": "A20", "ruling": "202202", "deductibility": "1", "assets": 12461, "income": 102208, "revenue": 102208}, {"ein": "473517636", "name": "RED ROBIN SONG ANIMAL SANCTUARY INC", "city": "EAST CHATHAM", "state": "NY", "zip": "12060-2214", "ntee": "D20", "ruling": "201706", "deductibility": "1", "assets": 19849, "income": 64699, "revenue": 64699}, {"ein": "510449263", "name": "COUNTRY DANCE & SONG SOCIETY INC", "city": "ITHACA", "state": "NY", "zip": "14851-0176", "ntee": "", "ruling": "199305", "deductibility": "1", "assets": 0, "income": 0, "revenue": 0}, {"ein": "510630322", "name": "SONG OF SONGS WORSHIP MINISTRY INC", "city": "NEW YORK", "state": "NY", "zip": "10033-6607", "ntee": "X20", "ruling": "201411", "deductibility": "1", "assets": 0, "income": 0, "revenue": 0}, {"ein": "542154717", "name": "SEED SONG CENTER INCORPORATED", "city": "KINGSTON", "state": "NY", "zip": "12401-5643", "ntee": "B05", "ruling": "200504", "deductibility": "1", "assets": 37187, "income": 330908, "revenue": 330908}, {"ein": "814035939", "name": "FOLK&FAMOUS SONG ASSOCIATION OF ARTS INC", "city": "COLLEGE POINT", "state": "NY", "zip": "11356-1613", "ntee": "A20", "ruling": "201705", "deductibility": "1", "assets": 0, "income": 0, "revenue": 0}, {"ein": "822839934", "name": "POWER OF SONG INC", "city": "WEST FALLS", "state": "NY", "zip": "14170-9998", "ntee": "W12", "ruling": "201711", "deductibility": "1", "assets": 0, "income": 0, "revenue": 0}, {"ein": "841823151", "name": "NEW YORK SONG OF SONGS PUBLICATIONS INC", "city": "ISLAND PARK", "state": "NY", "zip": "11558-1106", "ntee": "X83", "ruling": "202001", "deductibility": "1", "assets": 15344, "income": 16948, "revenue": 16948}, {"ein": "842092398", "name": "SONG-SMITH", "city": "BEACON", "state": "NY", "zip": "12508-2858", "ntee": "A68", "ruling": "201909", "deductibility": "1", "assets": 0, "income": 0, "revenue": 0}, {"ein": "852049604", "name": "A NEW SONG INC", "city": "MONSEY", "state": "NY", "zip": "10952-7800", "ntee": "A60", "ruling": "202309", "deductibility": "1", "assets": 0, "income": 0, "revenue": 0}, {"ein": "853483842", "name": "HEAR YOUR SONG INC", "city": "NEW YORK", "state": "NY", "zip": "10022-3625", "ntee": "E86", "ruling": "202104", "deductibility": "1", "assets": 158387, "income": 193032, "revenue": 193032}, {"ein": "862761755", "name": "SONG OF SONGS CHURCH", "city": "SYOSSET", "state": "NY", "zip": "11791-6717", "ntee": "X21", "ruling": "202203", "deductibility": "1", "assets": 0, "income": 0, "revenue": 0}, {"ein": "882532182", "name": "A SONG FOR YOU INCORPORATED", "city": "NYC", "state": "NY", "zip": "10022-1527", "ntee": "E86", "ruling": "202308", "deductibility": "1", "assets": 0, "income": 0, "revenue": 0}, {"ein": "882895131", "name": "AMERICAN POPULAR SONG SOCIETY", "city": "NEW YORK", "state": "NY", "zip": "10128-7737", "ntee": "A68", "ruling": "202208", "deductibility": "1", "assets": 0, "income": 0, "revenue": 0}, {"ein": "921536415", "name": "SAG HARBOR SONG FESTIVAL INC", "city": "NEW YORK", "state": "NY", "zip": "10028-0917", "ntee": "A68", "ruling": "202306", "deductibility": "1", "assets": 123729, "income": 247687, "revenue": 0}, {"ein": "990864420", "name": "COUNTRY DANCE & SONG SOCIETY INC", "city": "KINGSTON", "state": "NY", "zip": "12401-0000", "ntee": "A242", "ruling": "199305", "deductibility": "1", "assets": 863754, "income": 915022, "revenue": 915022}], "MILAH": [{"ein": "113047483", "name": "INTERNATIONAL BRIT MILAH ASSOCIATION INC", "city": "BROOKLYN", "state": "NY", "zip": "11203-6703", "ntee": "", "ruling": "199201", "deductibility": "1", "assets": 9588, "income": 31000, "revenue": 0}], "KAM": [{"ein": "113051044", "name": "PAT-KAM TRANSPORTATION & ENRICHMENT SERVICES INC", "city": "NORTH BALDWIN", "state": "NY", "zip": "11510-1134", "ntee": "S40Z", "ruling": "199110", "deductibility": "1", "assets": 0, "income": 0, "revenue": 0}], "CHSAN": [{"ein": "113096973", "name": "YESHIVAS RABBI SOLOMON KLUGER-CHSAN SOFER INC", "city": "BROOKLYN", "state": "NY", "zip": "11204-1252", "ntee": "", "ruling": "199301", "deductibility": "1", "assets": 0, "income": 0, "revenue": 0}, {"ein": "135616535", "name": "YESHIVAS CHSAN SOFER INC", "city": "BROOKLYN", "state": "NY", "zip": "11204-1252", "ntee": "", "ruling": "195002", "deductibility": "1", "assets": 0, "income": 0, "revenue": 0}, {"ein": "510457632", "name": "CHSAN SOFER DMATTERSDORF", "city": "BROOKLYN", "state": "NY", "zip": "11204-1257", "ntee": "X30", "ruling": "200406", "deductibility": "1", "assets": 0, "income": 0, "revenue": 0}], "CHADASHA": [{"ein": "113173356", "name": "CONGREGATION SHIRA CHADASHA", "city": "BROOKLYN", "state": "NY", "zip": "11210-3714", "ntee": "", "ruling": "199309", "deductibility": "1", "assets": 0, "income": 0, "revenue": 0}], "CRISTIANAS": [{"ein": "113293498", "name": "HERMANDAD DE IGLESIAS CRISTIANAS CARISMATICAS INC", "city": "BROOKLYN", "state": "NY", "zip": "11208-1728", "ntee": "X30I", "ruling": "199701", "deductibility": "1", "assets": 0, "income": 0, "revenue": 0}, {"ein": "133833450", "name": "ASAMBLEA DE IGLESISIS CRISTIANAS UNIDAS INC", "city": "BRONX", "state": "NY", "zip": "10468-0705", "ntee": "X20C", "ruling": "199506", "deductibility": "1", "assets": 0, "income": 0, "revenue": 0}, {"ein": "991058258", "name": "CONCILIO DE IGLESIAS CRISTIANAS JESUCRISTO RESTAURA INC", "city": "NEW YORK", "state": "NY", "zip": "10040-1159", "ntee": "X20", "ruling": "202404", "deductibility": "1", "assets": 0, "income": 0, "revenue": 0}], "MSJID": [{"ein": "113362668", "name": "AL-AMIN JAME MSJID", "city": "ASTORIA", "state": "NY", "zip": "11106-1331", "ntee": "X40Z", "ruling": "199804", "deductibility": "1", "assets": 0, "income": 0, "revenue": 0}], "LARGE": [{"ein": "113382951", "name": "JAMES M LARGE JR FAMILY FOUNDATION", "city": "LOCUST VALLEY", "state": "NY", "zip": "11560-2216", "ntee": "T20J", "ruling": "199706", "deductibility": "1", "assets": 368, "income": 4008, "revenue": 0}, {"ein": "222258981", "name": "ROYCROFTERS-AT-LARGE-ASSOCIATION", "city": "EAST AURORA", "state": "NY", "zip": "14052-9738", "ntee": "A99Z", "ruling": "199606", "deductibility": "1", "assets": 78784, "income": 96788, "revenue": 96583}, {"ein": "841745582", "name": "MICHAEL J CLEARY LIVE LARGE FOUNDATION INC", "city": "BAY SHORE", "state": "NY", "zip": "11706-8623", "ntee": "P12", "ruling": "201907", "deductibility": "1", "assets": 40363, "income": 10000, "revenue": 7778}], "HORAAH": [{"ein": "113404952", "name": "AMERICAN FRIENDS OF NETIVOT HORAAH", "city": "BROOKLYN", "state": "NY", "zip": "11219-1604", "ntee": "B82", "ruling": "199806", "deductibility": "1", "assets": 24080, "income": 175076, "revenue": 175076}, {"ein": "823027660", "name": "VAAD HADIN V HORAAH INC", "city": "MONSEY", "state": "NY", "zip": "10952-1516", "ntee": "X30", "ruling": "201806", "deductibility": "1", "assets": 0, "income": 0, "revenue": 0}, {"ein": "996529284", "name": "AMERICAN FRIENDS OF DARCHEI HORAAH LERABBANIM FOUNDATION TR", "city": "NEW YORK", "state": "NY", "zip": "10017-0000", "ntee": "T50", "ruling": "202504", "deductibility": "1", "assets": 0, "income": 0, "revenue": 0}], "SATSANG": [{"ein": "113411434", "name": "SHREE SWAMINARAYAN SATSANG MANDAL", "city": "BELLEROSE", "state": "NY", "zip": "11426-1618", "ntee": "X99", "ruling": "199907", "deductibility": "1", "assets": 0, "income": 0, "revenue": 0}, {"ein": "133541692", "name": "NEW YORK SATSANG SOCIETY INC", "city": "NEW YORK", "state": "NY", "zip": "10036-7408", "ntee": "", "ruling": "197501", "deductibility": "1", "assets": 0, "income": 0, "revenue": 0}, {"ein": "237301434", "name": "SATSANG", "city": "KEW GARDENS", "state": "NY", "zip": "11415-1100", "ntee": "", "ruling": "197501", "deductibility": "1", "assets": 0, "income": 0, "revenue": 0}, {"ein": "273225785", "name": "RADHASOAMI SATSANG INC", "city": "NEW CITY", "state": "NY", "zip": "10956-4231", "ntee": "X40", "ruling": "201105", "deductibility": "1", "assets": 0, "income": 0, "revenue": 0}, {"ein": "461179156", "name": "SRI SRI THAKUR ANUKULCHANDRA SATSANG USA INC", "city": "ELMHURST", "state": "NY", "zip": "11373-3057", "ntee": "X70", "ruling": "201504", "deductibility": "1", "assets": 262243, "income": 28998, "revenue": 28998}, {"ein": "874039259", "name": "SATSANG WITH A SMILE", "city": "SYOSSET", "state": "NY", "zip": "11791-1103", "ntee": "X70", "ruling": "202207", "deductibility": "1", "assets": 0, "income": 0, "revenue": 0}], "LABORATORIES": [{"ein": "113412370", "name": "NORTHWELL HEALTH LABORATORIES", "city": "WESTBURY", "state": "NY", "zip": "11590-1740", "ntee": "E60", "ruling": "199909", "deductibility": "1", "assets": 178402540, "income": 743529825, "revenue": 743529825}, {"ein": "461782222", "name": "HOMETOWN SECURITY LABORATORIES FOR ENHANCEMENTS IN QUALITY OF LIFE AN", "city": "BRONX", "state": "NY", "zip": "10474-5418", "ntee": "B60", "ruling": "202407", "deductibility": "1", "assets": 1, "income": 16456, "revenue": 16456}], "EFFECT": [{"ein": "113439984", "name": "FULL EFFECT GOSPEL CRUSADE", "city": "BROOKLYN", "state": "NY", "zip": "11208-3623", "ntee": "X20", "ruling": "199908", "deductibility": "1", "assets": 0, "income": 0, "revenue": 0}, {"ein": "132834016", "name": "CONGREGATIONS LINKED IN URBAN STRATEGY TO EFFECT RENEWAL INC", "city": "YONKERS", "state": "NY", "zip": "10701-7045", "ntee": "P800", "ruling": "197609", "deductibility": "1", "assets": 5500426, "income": 7402332, "revenue": 7402332}, {"ein": "161562178", "name": "LAKE EFFECT STITCHERS", "city": "JAMESVILLE", "state": "NY", "zip": "13078-9583", "ntee": "B80", "ruling": "200406", "deductibility": "1", "assets": 0, "income": 0, "revenue": 0}, {"ein": "222538177", "name": "THE ART EFFECT OF THE HUDSON VALLEY INC", "city": "POUGHKEEPSIE", "state": "NY", "zip": "12601-2729", "ntee": "A200", "ruling": "198502", "deductibility": "1", "assets": 2151362, "income": 2385202, "revenue": 2370815}, {"ein": "223837175", "name": "LAKE EFFECT TRAILBREAKERS", "city": "SINCLAIRVILLE", "state": "NY", "zip": "14782-0842", "ntee": "N32", "ruling": "201303", "deductibility": "1", "assets": 127324, "income": 74615, "revenue": 57032}, {"ein": "261394147", "name": "LAKE EFFECT TRACK AND FIELD CLUB", "city": "LAKE VIEW", "state": "NY", "zip": "14085-9464", "ntee": "N60", "ruling": "202205", "deductibility": "1", "assets": 7185, "income": 4331, "revenue": 0}, {"ein": "263036723", "name": "FULL EFFECT GROUP INC", "city": "BROOKLYN", "state": "NY", "zip": "11212-1301", "ntee": "W99", "ruling": "201508", "deductibility": "1", "assets": 0, "income": 0, "revenue": 0}, {"ein": "272416123", "name": "OPERATION FIRING FOR EFFECT", "city": "WALWORTH", "state": "NY", "zip": "14568-9423", "ntee": "W01", "ruling": "201811", "deductibility": "1", "assets": 315828, "income": 145132, "revenue": 145132}, {"ein": "462885736", "name": "RIPPLE EFFECT ARTISTS INC", "city": "NEW YORK", "state": "NY", "zip": "10001-1141", "ntee": "P20", "ruling": "201412", "deductibility": "1", "assets": 439, "income": 54372, "revenue": 54372}, {"ein": "471993500", "name": "BUTTERFLY EFFECT PROJECT INC", "city": "RIVERHEAD", "state": "NY", "zip": "11901-5728", "ntee": "O50", "ruling": "201511", "deductibility": "1", "assets": 32673, "income": 419599, "revenue": 401860}, {"ein": "821186123", "name": "POSITIVE EFFECT YOUTH DEVELOPMENT INC", "city": "BROOKLYN", "state": "NY", "zip": "11213-1219", "ntee": "B01", "ruling": "201705", "deductibility": "1", "assets": 0, "income": 0, "revenue": 0}, {"ein": "821655623", "name": "FULL EFFECT GOSPEL MINISTRIES OF NEW JERSEY", "city": "BROOKLYN", "state": "NY", "zip": "11208-3623", "ntee": "X20", "ruling": "201912", "deductibility": "1", "assets": 0, "income": 0, "revenue": 0}, {"ein": "841984938", "name": "IZZY EFFECT FOUNDATION INCORPORATED", "city": "GLENDALE", "state": "NY", "zip": "11385-7932", "ntee": "T22", "ruling": "202001", "deductibility": "1", "assets": 0, "income": 0, "revenue": 0}, {"ein": "843629323", "name": "GIRL EFFECT INC", "city": "NEW YORK", "state": "NY", "zip": "10011-3191", "ntee": "O11", "ruling": "202009", "deductibility": "1", "assets": 13110778, "income": 3053403, "revenue": 3053403}, {"ein": "852845629", "name": "BUTTERFLY EFFECT COLLABORATIVE INC", "city": "OLD WESTBURY", "state": "NY", "zip": "11568-1221", "ntee": "Q70", "ruling": "202011", "deductibility": "1", "assets": 0, "income": 0, "revenue": 0}, {"ein": "853590574", "name": "RISING TIDE EFFECT", "city": "BROOKLYN", "state": "NY", "zip": "11201-4345", "ntee": "N12", "ruling": "202101", "deductibility": "1", "assets": 135477, "income": 320694, "revenue": 320694}, {"ein": "872695259", "name": "GIANNA EFFECT FOUNDATION CORP", "city": "BROOKLYN", "state": "NY", "zip": "11234-5011", "ntee": "E86", "ruling": "202203", "deductibility": "1", "assets": 32451, "income": 45454, "revenue": 45454}, {"ein": "922235735", "name": "LAKE EFFECT CAR MEET INC", "city": "POUGHKEEPSIE", "state": "NY", "zip": "12601-6535", "ntee": "G32", "ruling": "202302", "deductibility": "1", "assets": 0, "income": 0, "revenue": 0}, {"ein": "932420716", "name": "CAUSE N EFFECT EDUCATIONAL CONSULTANTS INC", "city": "BROOKLYN", "state": "NY", "zip": "11205-2566", "ntee": "P20", "ruling": "202404", "deductibility": "1", "assets": 0, "income": 0, "revenue": 0}, {"ein": "993923878", "name": "ADK RIPPLE EFFECT INC", "city": "LAKE PLACID", "state": "NY", "zip": "12946-3629", "ntee": "N61", "ruling": "202504", "deductibility": "1", "assets": 0, "income": 0, "revenue": 0}], "SUNNAH": [{"ein": "113471892", "name": "MAJID AHLUL QURAAN WA-SUNNAH INC", "city": "S OZONE PARK", "state": "NY", "zip": "11420-3701", "ntee": "X40", "ruling": "199907", "deductibility": "1", "assets": 0, "income": 0, "revenue": 0}, {"ein": "113508708", "name": "ISHAAT-O-TAUHEED AL SUNNAH", "city": "BROOKLYN", "state": "NY", "zip": "11209-5035", "ntee": "X40", "ruling": "200106", "deductibility": "1", "assets": 0, "income": 0, "revenue": 0}, {"ein": "161689774", "name": "MASJID AS-SUNNAH", "city": "ROCHESTER", "state": "NY", "zip": "14609-6135", "ntee": "X40", "ruling": "200408", "deductibility": "1", "assets": 0, "income": 0, "revenue": 0}, {"ein": "300639050", "name": "MASJID AS-SUNNAH", "city": "SCHENECTADY", "state": "NY", "zip": "12304-3132", "ntee": "X40", "ruling": "201304", "deductibility": "1", "assets": 0, "income": 0, "revenue": 0}, {"ein": "460874818", "name": "JAMIAH DARUS SUNNAH AMERICA", "city": "BROOKLYN", "state": "NY", "zip": "11218-5213", "ntee": "X40", "ruling": "201509", "deductibility": "1", "assets": 1423437, "income": 727552, "revenue": 716397}, {"ein": "821519080", "name": "GAWSIAH DARUS-SUNNAH ACADEMY INC", "city": "SAINT ALBANS", "state": "NY", "zip": "11412-2358", "ntee": "X40", "ruling": "202206", "deductibility": "1", "assets": 0, "income": 0, "revenue": 0}, {"ein": "882395043", "name": "SUNNAH HELPING FUND INC", "city": "BRONX", "state": "NY", "zip": "10462-7952", "ntee": "S99", "ruling": "202210", "deductibility": "1", "assets": 42178, "income": 15616, "revenue": 15616}, {"ein": "921056634", "name": "DAAR AT TAWHEED WA SUNNAH INC", "city": "CHEEKTOWAGA", "state": "NY", "zip": "14225-1517", "ntee": "X40", "ruling": "202506", "deductibility": "1", "assets": 0, "income": 0, "revenue": 0}, {"ein": "923814658", "name": "DARUS SUNNAH NEW YORK INC", "city": "BRONX", "state": "NY", "zip": "10462-3601", "ntee": "X40", "ruling": "202406", "deductibility": "1", "assets": 0, "income": 0, "revenue": 0}, {"ein": "991553446", "name": "IHYA AS-SUNNAH ACADEMY INCORPORATED", "city": "COLLEGE POINT", "state": "NY", "zip": "11356-1947", "ntee": "X40", "ruling": "202406", "deductibility": "1", "assets": 0, "income": 0, "revenue": 0}, {"ein": "994989291", "name": "MUSLIM YOUTH SUNNAH ASSOCIATION INC", "city": "GLEN OAKS", "state": "NY", "zip": "11004-1231", "ntee": "X40", "ruling": "202501", "deductibility": "1", "assets": 1, "income": 3060, "revenue": 3060}], "KITTIES": [{"ein": "113842857", "name": "LI KITTIES INC", "city": "SPEONK", "state": "NY", "zip": "11972-0754", "ntee": "D20", "ruling": "200811", "deductibility": "1", "assets": 0, "income": 0, "revenue": 0}, {"ein": "332742610", "name": "ITTY BITTY CITY KITTIES RESCUE & WELFARE INCORPORATED", "city": "ARVERNE", "state": "NY", "zip": "11692-2019", "ntee": "D20", "ruling": "202501", "deductibility": "1", "assets": 0, "income": 0, "revenue": 0}, {"ein": "334336648", "name": "JOYOUS KITTIES RESCUE SANCTUARY", "city": "CUBA", "state": "NY", "zip": "14727-9208", "ntee": "D20", "ruling": "202505", "deductibility": "1", "assets": 0, "income": 0, "revenue": 0}, {"ein": "854284614", "name": "ITTY BITTY CITY KITTIES INC", "city": "ARVERNE", "state": "NY", "zip": "11692-2019", "ntee": "D20", "ruling": "202102", "deductibility": "1", "assets": 4277, "income": 81396, "revenue": 0}], "EKM": [{"ein": "116005674", "name": "THE EKM DAVIDSON FOUNDATION INC", "city": "NEW YORK", "state": "NY", "zip": "10021-4382", "ntee": "", "ruling": "195708", "deductibility": "1", "assets": 621356, "income": 228273, "revenue": 0}], "MAINT": [{"ein": "116036258", "name": "COMMACK METHODIST-1789-CHURCH & CEM ETERY PRESERVATION & MAINT FUND", "city": "COMMACK", "state": "NY", "zip": "11725-0000", "ntee": "", "ruling": "196408", "deductibility": "1", "assets": 0, "income": 0, "revenue": 0}, {"ein": "821821173", "name": "DIOCESE OF ROCKVILLE CENTRE CATHOLIC CEMETERY PERM MAINT TRUST", "city": "WESTBURY", "state": "NY", "zip": "11590-4357", "ntee": "Y50", "ruling": "201708", "deductibility": "1", "assets": 102123050, "income": 46024979, "revenue": 8550076}], "LABOUTIQUE": [{"ein": "116037109", "name": "SALON NATIONAL LABOUTIQUE DES HUIT CHAPEAUX ET QUARANTE FEMMES", "city": "MANHASSET", "state": "NY", "zip": "11030-1965", "ntee": "", "ruling": "195006", "deductibility": "1", "assets": 0, "income": 0, "revenue": 0}, {"ein": "222511569", "name": "SALON NATIONAL LABOUTIQUE DES HUIT", "city": "DERUYTER", "state": "NY", "zip": "13052-0000", "ntee": "", "ruling": "195006", "deductibility": "1", "assets": 0, "income": 0, "revenue": 0}], "PRINTSHOP": [{"ein": "132812419", "name": "LOWER EAST SIDE PRINTSHOP INC", "city": "NEW YORK", "state": "NY", "zip": "10018-4605", "ntee": "", "ruling": "197610", "deductibility": "1", "assets": 720116, "income": 554769, "revenue": 554769}], "CITIHOPE": [{"ein": "132907656", "name": "CITIHOPE INTERNATIONAL INC", "city": "MARGARETVILLE", "state": "NY", "zip": "12455-0626", "ntee": "Q300", "ruling": "197902", "deductibility": "1", "assets": 185996, "income": 79519432, "revenue": 79519432}], "DESIGNS": [{"ein": "132952614", "name": "FRIENDS OF BEZALEL ACADEMY OF ARTS AND DESIGNS INC", "city": "NEW YORK", "state": "NY", "zip": "10001-7604", "ntee": "A110", "ruling": "197811", "deductibility": "1", "assets": 1202329, "income": 4947479, "revenue": 4947479}, {"ein": "275020830", "name": "SPECTRUM DESIGNS FOUNDATION LTD", "city": "PRT WASHINGTN", "state": "NY", "zip": "11050-3120", "ntee": "J33", "ruling": "201107", "deductibility": "1", "assets": 6498852, "income": 7477989, "revenue": 7464700}, {"ein": "332673137", "name": "ANOINTED BI DESIGNS", "city": "BROOKLYN", "state": "NY", "zip": "11233-4605", "ntee": "P99", "ruling": "202505", "deductibility": "1", "assets": 0, "income": 0, "revenue": 0}, {"ein": "333696119", "name": "ECONOMIC COMMUNITIES OF TOMORROW DESIGNS CORP", "city": "CAMBRIDGE", "state": "NY", "zip": "12816-0000", "ntee": "S30", "ruling": "202505", "deductibility": "1", "assets": 0, "income": 0, "revenue": 0}, {"ein": "821725525", "name": "DIVINE DESIGNS GENERAL CONTRACTORS INC", "city": "SAINT ALBANS", "state": "NY", "zip": "11412-0494", "ntee": "L20", "ruling": "202101", "deductibility": "1", "assets": 0, "income": 0, "revenue": 0}, {"ein": "872927459", "name": "ELLEJAY S DESIGNS INC", "city": "HOLTSVILLE", "state": "NY", "zip": "11742-1063", "ntee": "A90", "ruling": "202201", "deductibility": "1", "assets": 0, "income": 0, "revenue": 0}], "KEHILOS": [{"ein": "133079379", "name": "UNITED RABBINICAL KEHILOS INC", "city": "BROOKLYN", "state": "NY", "zip": "11211-8002", "ntee": "", "ruling": "198107", "deductibility": "1", "assets": 0, "income": 0, "revenue": 0}], "VILLAG": [{"ein": "133214064", "name": "THE DAWNING VILLAG INC", "city": "NEW YORK", "state": "NY", "zip": "10029-4307", "ntee": "P33J", "ruling": "199712", "deductibility": "1", "assets": 592995, "income": 820309, "revenue": 820309}], "SAMUDRA": [{"ein": "133346506", "name": "DHARMA SAMUDRA", "city": "SIDNEY CENTER", "state": "NY", "zip": "13839-3180", "ntee": "X83", "ruling": "201206", "deductibility": "1", "assets": 0, "income": 0, "revenue": 0}], "SHNEUR": [{"ein": "133507903", "name": "KOLLEL ZICHRON SHNEUR INC", "city": "MONSEY", "state": "NY", "zip": "10952-2461", "ntee": "", "ruling": "198905", "deductibility": "1", "assets": 0, "income": 0, "revenue": 0}, {"ein": "853952286", "name": "BEIS SHNEUR", "city": "BROOKLYN", "state": "NY", "zip": "11213-4339", "ntee": "X30", "ruling": "202104", "deductibility": "1", "assets": 0, "income": 0, "revenue": 0}], "NANUET": [{"ein": "133570129", "name": "NANUET ROTARY SCHOLARSHIP FOUNDATION INC", "city": "NANUET", "state": "NY", "zip": "10954-0281", "ntee": "", "ruling": "199410", "deductibility": "1", "assets": 0, "income": 0, "revenue": 0}, {"ein": "133674019", "name": "NANUET TEACHERS ASSOCIATION EMPLOYEE BENEFIT TRUST", "city": "NANUET", "state": "NY", "zip": "10954-3516", "ntee": "", "ruling": "199210", "deductibility": "2", "assets": 738140, "income": 896565, "revenue": 896565}, {"ein": "134031694", "name": "FRIENDS OF THE NANUET LIBRARY INCORPORATED", "city": "NANUET", "state": "NY", "zip": "10954-1019", "ntee": "B11", "ruling": "201309", "deductibility": "1", "assets": 0, "income": 0, "revenue": 0}, {"ein": "136104617", "name": "ROTARY CLUB OF NANUET INC", "city": "NANUET", "state": "NY", "zip": "10954-0281", "ntee": "", "ruling": "201310", "deductibility": "0", "assets": 0, "income": 0, "revenue": 0}, {"ein": "136591417", "name": "TRUST UW ROMER C BORST FBO NANUET HIGH SCHOOL SCHOLARSHIP FUND", "city": "NORWICH", "state": "NY", "zip": "13815-0000", "ntee": "", "ruling": "000000", "deductibility": "0", "assets": 106882, "income": 5573, "revenue": 0}, {"ein": "200110711", "name": "NANUET FAMILY RESOURCES CENTER INC", "city": "NANUET", "state": "NY", "zip": "10954-3445", "ntee": "T30", "ruling": "200712", "deductibility": "1", "assets": 1804572, "income": 1447074, "revenue": 1447074}, {"ein": "237111833", "name": "NANUET COMMUNITY AMBULANCE CORPS INC", "city": "NANUET", "state": "NY", "zip": "10954-0152", "ntee": "E62Z", "ruling": "197105", "deductibility": "1", "assets": 5093725, "income": 4858801, "revenue": 4858151}, {"ein": "431979503", "name": "NANUET HIGH SCHOOL HALL OF FAME INC", "city": "NANUET", "state": "NY", "zip": "10954-3030", "ntee": "A68", "ruling": "200710", "deductibility": "1", "assets": 1545, "income": 12005, "revenue": 12005}, {"ein": "460860105", "name": "GREATER NANUET CHAMBER OF COMMERCE INC", "city": "NANUET", "state": "NY", "zip": "10954-2905", "ntee": "S41", "ruling": "201302", "deductibility": "2", "assets": 37435, "income": 96645, "revenue": 96645}, {"ein": "474906757", "name": "NANUET BLACK AND GOLD CLUB INC", "city": "NANUET", "state": "NY", "zip": "10954-0514", "ntee": "N99", "ruling": "201509", "deductibility": "1", "assets": 95785, "income": 86505, "revenue": 43243}, {"ein": "814995655", "name": "NANUET AND BEYOND INC", "city": "NANUET", "state": "NY", "zip": "10954-1305", "ntee": "B82", "ruling": "201706", "deductibility": "1", "assets": 0, "income": 0, "revenue": 0}, {"ein": "932207250", "name": "CONG KC NANUET", "city": "SPRING VALLEY", "state": "NY", "zip": "10977-5907", "ntee": "X30", "ruling": "202409", "deductibility": "1", "assets": 0, "income": 0, "revenue": 0}], "WESCHESTER": [{"ein": "133578483", "name": "FAIRFIED WESCHESTER CHAPTER OF THE HOSPITALITY FINAINCIAL TECHNOLOGY", "city": "NEW YORK", "state": "NY", "zip": "10004-1564", "ntee": "", "ruling": "199810", "deductibility": "2", "assets": 24034, "income": 96287, "revenue": 96287}], "ZINBERG": [{"ein": "133626368", "name": "FRIEDA & GEORGE ZINBERG FOUNDATION INC", "city": "NEW YORK", "state": "NY", "zip": "10021-0000", "ntee": "", "ruling": "199111", "deductibility": "1", "assets": 309077, "income": 66618, "revenue": 0}, {"ein": "453250036", "name": "ARTHUR D ZINBERG FAMILY FOUNDATION", "city": "NEW YORK", "state": "NY", "zip": "10021-0000", "ntee": "T22", "ruling": "201301", "deductibility": "1", "assets": 1050793, "income": 63550, "revenue": 0}], "CONSOTIUM": [{"ein": "133713800", "name": "WESTCHESTER PUTNAM ROCKLAND LACTATION CONSOTIUM INC", "city": "TAPPAN", "state": "NY", "zip": "10983-2510", "ntee": "H20", "ruling": "200309", "deductibility": "1", "assets": 0, "income": 0, "revenue": 0}], "COOPERATION": [{"ein": "133747781", "name": "INSTITUTE FOR COOPERATION OF ART AND RESEARCH INC", "city": "NEW YORK", "state": "NY", "zip": "10020-0000", "ntee": "", "ruling": "199405", "deductibility": "1", "assets": 390434, "income": 11214, "revenue": 0}, {"ein": "146151570", "name": "LABORERS LOCAL NO 17 EMPLOYERS COOPERATION AND EDUCATION TRUST", "city": "NEWBURGH", "state": "NY", "zip": "12550-5145", "ntee": "", "ruling": "199207", "deductibility": "0", "assets": 4075950, "income": 3398388, "revenue": 1652014}, {"ein": "161505681", "name": "CENTRAL NEW YORK -LABOR MANAGEMENT COOPERATION COMMITTEE", "city": "LIVERPOOL", "state": "NY", "zip": "13088-5301", "ntee": "", "ruling": "199812", "deductibility": "2", "assets": 690902, "income": 567965, "revenue": 567965}, {"ein": "161534386", "name": "LABORERS LOCAL NO 91 EMPLOYERS COOPERATION AND EDUCATION TR", "city": "NIAGARA FALLS", "state": "NY", "zip": "14305-1386", "ntee": "Z99", "ruling": "199812", "deductibility": "2", "assets": 148855, "income": 58368, "revenue": 58368}, {"ein": "161542052", "name": "CONSTRUCTION COOPERATION AND EDUCATION TR", "city": "ROCHESTER", "state": "NY", "zip": "14625-2837", "ntee": "", "ruling": "199806", "deductibility": "2", "assets": 296924, "income": 336884, "revenue": 336884}, {"ein": "166531871", "name": "METAL LATHERS LOCAL 46 LABOR MANAGEMENT COOPERATION FUND TR", "city": "WOODSIDE", "state": "NY", "zip": "11377-2021", "ntee": "J40", "ruling": "200301", "deductibility": "2", "assets": 2234014, "income": 94681, "revenue": 94681}, {"ein": "203210166", "name": "GENEVA LABOR MANAGEMENT COOPERATION COMMITTEE", "city": "LIVERPOOL", "state": "NY", "zip": "13088-5301", "ntee": "S41", "ruling": "200611", "deductibility": "2", "assets": 55092, "income": 51971, "revenue": 51971}, {"ein": "203462754", "name": "PLUMBERS LOCAL 200 LABOR MANAGEMENT COOPERATION FUND", "city": "RONKONKOMA", "state": "NY", "zip": "11779-6908", "ntee": "J40", "ruling": "200511", "deductibility": "2", "assets": 215090, "income": 91692, "revenue": 91692}, {"ein": "204499834", "name": "LABOR MANAGEMENT COOPERATION FUND", "city": "GLENS FALLS", "state": "NY", "zip": "12801-0312", "ntee": "J194", "ruling": "200702", "deductibility": "2", "assets": 112152, "income": 119460, "revenue": 119460}, {"ein": "223060487", "name": "NEW YORK STATE LABORERS-EMPLOYERS COOPERATION AND EDUCATION TR", "city": "ALBANY", "state": "NY", "zip": "12211-2522", "ntee": "", "ruling": "199202", "deductibility": "2", "assets": 28633210, "income": 7072402, "revenue": 6974913}, {"ein": "263223123", "name": "ROOFERS LOCAL 195 LABOR MANAGEMENT COOPERATION COMMITTEE", "city": "LIVERPOOL", "state": "NY", "zip": "13090-2513", "ntee": "J40", "ruling": "200904", "deductibility": "2", "assets": 274072, "income": 88940, "revenue": 88940}, {"ein": "273157589", "name": "LOCAL 1010 LABORERS EMPLOYERS COOPERATION AND EDUCATION TRUST", "city": "WHITESTONE", "state": "NY", "zip": "11357-3000", "ntee": "J40", "ruling": "201109", "deductibility": "2", "assets": 9075177, "income": 10708129, "revenue": 2669075}, {"ein": "352573997", "name": "IUOE LOCAL 14-14B LABOR MANAGEMENT COOPERATION TRUST FUND", "city": "FLUSHING", "state": "NY", "zip": "11358-1655", "ntee": "J40", "ruling": "201701", "deductibility": "2", "assets": 2512710, "income": 588652, "revenue": 588652}, {"ein": "367498676", "name": "STEAMFITTING INDUSTRY LABOR MANAGEMENT COOPERATION COMMITTEE", "city": "LONG ISLAND CITY", "state": "NY", "zip": "11101-3725", "ntee": "J40", "ruling": "200904", "deductibility": "2", "assets": 663555, "income": 161422, "revenue": 161422}, {"ein": "453805095", "name": "NEW YORK STATE LABOR-MANAGEMENT COOPERATION COMMITTEE", "city": "LIVERPOOL", "state": "NY", "zip": "13088-5301", "ntee": "S41", "ruling": "201404", "deductibility": "2", "assets": 282037, "income": 1089364, "revenue": 1089364}, {"ein": "474105809", "name": "ITHACA COALITION FOR UNITY AND COOPERATION IN THE MIDDLE EAST", "city": "ITHACA", "state": "NY", "zip": "14852-4074", "ntee": "Q20", "ruling": "201605", "deductibility": "1", "assets": 0, "income": 0, "revenue": 0}, {"ein": "474384010", "name": "AGENCY OF INTERNATIONAL COOPERATION FOR DEVELOPMENT", "city": "NEW YORK", "state": "NY", "zip": "10001-4527", "ntee": "", "ruling": "201708", "deductibility": "1", "assets": 3362999, "income": 4007120, "revenue": 4007120}, {"ein": "806073815", "name": "CONSTRUCTION INDUSTRY PARTNERSHIP LABOR MANAGEMENT COOPERATION COMTE", "city": "NEW YORK", "state": "NY", "zip": "10001-2820", "ntee": "S41", "ruling": "200906", "deductibility": "2", "assets": 0, "income": 0, "revenue": 0}, {"ein": "854150868", "name": "GREAT ALLIANCE OF WORLD RELIGIOUS COOPERATION INC", "city": "FLUSHING", "state": "NY", "zip": "11354-6537", "ntee": "X90", "ruling": "202105", "deductibility": "1", "assets": 1, "income": 0, "revenue": 0}, {"ein": "866553058", "name": "LOCAL 621 LABOR MANAGEMENT COOPERATION COMMITTEE FUND", "city": "DOUGLASTON", "state": "NY", "zip": "11363-1508", "ntee": "Y11", "ruling": "202204", "deductibility": "2", "assets": 22397, "income": 30974, "revenue": 30974}, {"ein": "883133634", "name": "LOCAL 773 AND MCACD LABOR-MANAGEMENT COOPERATION FUND", "city": "GLENS FALLS", "state": "NY", "zip": "12801-0312", "ntee": "J40", "ruling": "202404", "deductibility": "2", "assets": 207748, "income": 75090, "revenue": 75090}], "DREAMYARD": [{"ein": "133759661", "name": "DREAMYARD PROJECT INC", "city": "BRONX", "state": "NY", "zip": "10456-6669", "ntee": "A250", "ruling": "199409", "deductibility": "1", "assets": 5897830, "income": 6935876, "revenue": 6874276}, {"ein": "474641223", "name": "DREAMYARD AFFORDABLE HOUSING SUPPORT CORP", "city": "BRONX", "state": "NY", "zip": "10456-6669", "ntee": "L20", "ruling": "202501", "deductibility": "2", "assets": 353223, "income": 348939, "revenue": 348939}], "FITZPATRICK": [{"ein": "133764252", "name": "EITHNE AND PADDY FITZPATRICK MEMORIAL FUND", "city": "NEW YORK", "state": "NY", "zip": "10022-2607", "ntee": "T21J", "ruling": "199505", "deductibility": "1", "assets": 366067, "income": 307185, "revenue": 183156}, {"ein": "236692323", "name": "REVEREND WILLIAM J FITZPATRICK MEMORIAL SCHOLARSHIP FUND", "city": "BUFFALO", "state": "NY", "zip": "14240-1504", "ntee": "", "ruling": "198101", "deductibility": "1", "assets": 184055, "income": 17049, "revenue": 0}], "JET": [{"ein": "133876498", "name": "JET ALUMNI ASSOCIATION INC", "city": "NEW YORK", "state": "NY", "zip": "10016-5902", "ntee": "A192", "ruling": "200611", "deductibility": "1", "assets": 0, "income": 0, "revenue": 0}, {"ein": "862310895", "name": "SUPER JET BRUNETTE", "city": "STATEN ISLAND", "state": "NY", "zip": "10305-3704", "ntee": "B01", "ruling": "202106", "deductibility": "1", "assets": 0, "income": 0, "revenue": 0}], "HAYOSHON": [{"ein": "133970167", "name": "CONG BAIS CHINUCH HAYOSHON", "city": "MONSEY", "state": "NY", "zip": "10952-2724", "ntee": "X30Z", "ruling": "199801", "deductibility": "1", "assets": 0, "income": 0, "revenue": 0}], "MAIOGLIO": [{"ein": "134068267", "name": "MAIOGLIO-BLOBEL FOUNDATION", "city": "NEW YORK", "state": "NY", "zip": "10128-1202", "ntee": "T20", "ruling": "199908", "deductibility": "1", "assets": 81850, "income": 5448, "revenue": 0}], "TRISK": [{"ein": "134156580", "name": "CONGREGATION TRISK TOLNA INC", "city": "MONSEY", "state": "NY", "zip": "10952-1309", "ntee": "X30", "ruling": "200106", "deductibility": "1", "assets": 0, "income": 0, "revenue": 0}, {"ein": "812091219", "name": "BAIS PINCHOS TRISK INC", "city": "AIRMONT", "state": "NY", "zip": "10952-0000", "ntee": "X30", "ruling": "201606", "deductibility": "1", "assets": 0, "income": 0, "revenue": 0}], "CARTHY": [{"ein": "136161726", "name": "GRAHAM HUNTER FOUNDATIO INC MC CARTHY FINGAR DONOVAN DRAZEN", "city": "RAVENA", "state": "NY", "zip": "12143-0160", "ntee": "", "ruling": "194801", "deductibility": "1", "assets": 1333618, "income": 497027, "revenue": 0}], "FITTERER": [{"ein": "136211439", "name": "DOROTHY D & JOHN C FITTERER JR FOUNDATION INC", "city": "NEW YORK", "state": "NY", "zip": "10036-4031", "ntee": "", "ruling": "196703", "deductibility": "1", "assets": 339388, "income": 31551, "revenue": 0}], "HYGIENE": [{"ein": "141410842", "name": "RESEARCH FOUNDATION FOR MENTAL HYGIENE INC", "city": "MENANDS", "state": "NY", "zip": "12204-2726", "ntee": "F050", "ruling": "195405", "deductibility": "1", "assets": 155721238, "income": 253055407, "revenue": 246667779}, {"ein": "141827940", "name": "NEW YORK MENTAL HYGIENE INSTITUTE INC", "city": "ALBANY", "state": "NY", "zip": "12207-2843", "ntee": "F30", "ruling": "200103", "deductibility": "1", "assets": 66099, "income": 0, "revenue": 0}, {"ein": "161090596", "name": "NEW YORK STATE CONFERENCE OF LOCAL MENTAL HYGIENE DIRECTORS INC", "city": "ALBANY", "state": "NY", "zip": "12207-2828", "ntee": "", "ruling": "198005", "deductibility": "2", "assets": 0, "income": 0, "revenue": 0}, {"ein": "161103957", "name": "SIGMA PHI ALPHA DENTAL HYGIENE HONOR SOCIETY", "city": "WILLIAMSVILLE", "state": "NY", "zip": "14221-8402", "ntee": "", "ruling": "196703", "deductibility": "1", "assets": 0, "income": 0, "revenue": 0}, {"ein": "166073770", "name": "SIGMA PHI ALPHA DENTAL HYGIENE HONOR SOCIETY", "city": "BINGHAMTON", "state": "NY", "zip": "13902-1017", "ntee": "", "ruling": "196703", "deductibility": "1", "assets": 0, "income": 0, "revenue": 0}, {"ein": "226091067", "name": "SIGMA PHI ALPHA DENTAL HYGIENE HONOR SOCIETY", "city": "NEW YORK", "state": "NY", "zip": "10010-4020", "ntee": "", "ruling": "196703", "deductibility": "1", "assets": 0, "income": 0, "revenue": 0}, {"ein": "311254264", "name": "AMERICAN INDUSTRIAL HYGIENE ASSOCIATION", "city": "RUSH", "state": "NY", "zip": "14543-9703", "ntee": "", "ruling": "198307", "deductibility": "2", "assets": 0, "income": 0, "revenue": 0}, {"ein": "462183534", "name": "SIGMA PHI ALPHA DENTAL HYGIENE HONOR SOCIETY", "city": "TROY", "state": "NY", "zip": "12180-6037", "ntee": "", "ruling": "196703", "deductibility": "1", "assets": 0, "income": 0, "revenue": 0}, {"ein": "472154246", "name": "AMERICAN INDUSTRIAL HYGIENE ASSOCIATION", "city": "LATHAM", "state": "NY", "zip": "12110-0091", "ntee": "", "ruling": "198307", "deductibility": "2", "assets": 0, "income": 0, "revenue": 0}, {"ein": "911895153", "name": "SIGMA PHI ALPHA DENTAL HYGIENE HONOR SOCIETY", "city": "FARMINGDALE", "state": "NY", "zip": "11735-0000", "ntee": "", "ruling": "196703", "deductibility": "0", "assets": 0, "income": 0, "revenue": 0}], "SERVIES": [{"ein": "141644567", "name": "DOMESTIC VIOLENCE & RAPE CRISIS SERVIES OF SARATOGA COUNTY", "city": "MALTA", "state": "NY", "zip": "12020-0000", "ntee": "P43Z", "ruling": "199402", "deductibility": "1", "assets": 5983021, "income": 1984786, "revenue": 1962322}], "GALVAN": [{"ein": "141664264", "name": "GALVAN HOUSING RESOURCES INC", "city": "HUDSON", "state": "NY", "zip": "12534-1807", "ntee": "S30Z", "ruling": "198703", "deductibility": "1", "assets": 3336939, "income": 818828, "revenue": 818828}, {"ein": "223695479", "name": "GALVAN ASSET MANAGEMENT INC", "city": "HUDSON", "state": "NY", "zip": "12534-1807", "ntee": "S47", "ruling": "200003", "deductibility": "2", "assets": 6552868, "income": 1140811, "revenue": 1140811}, {"ein": "454110126", "name": "GALVAN FOUNDATION CHARITABLE TRUST", "city": "NEW YORK", "state": "NY", "zip": "10018-2082", "ntee": "T20", "ruling": "201202", "deductibility": "1", "assets": 417088, "income": 1760200, "revenue": 0}, {"ein": "465286303", "name": "GALVAN CIVIC I INC", "city": "NEW YORK", "state": "NY", "zip": "10018-2082", "ntee": "T11", "ruling": "201510", "deductibility": "1", "assets": 10868871, "income": 363803, "revenue": -223504}], "KENNYETTO": [{"ein": "141793006", "name": "BROADALBIN KENNYETTO HISTORICAL SOCIETY INC", "city": "BROADALBIN", "state": "NY", "zip": "12025-1036", "ntee": "A82", "ruling": "202403", "deductibility": "1", "assets": 0, "income": 0, "revenue": 0}, {"ein": "146025052", "name": "BROADALBIN KENNYETTO FIRE CO INC", "city": "BROADALBIN", "state": "NY", "zip": "12025-0295", "ntee": "", "ruling": "199312", "deductibility": "1", "assets": 3880822, "income": 327299, "revenue": 313268}], "RIVERCREST": [{"ein": "141815076", "name": "RIVERCREST DEVELOPEMENT CORPORATION", "city": "AMSTERDAM", "state": "NY", "zip": "12010-4002", "ntee": "L21", "ruling": "200003", "deductibility": "1", "assets": 2554635, "income": 420365, "revenue": 420365}, {"ein": "200597209", "name": "RIVERCREST COMMONS HOUSING DEVELOPMENT FUND COMPANY INC", "city": "AMSTERDAM", "state": "NY", "zip": "12010-4002", "ntee": "L21", "ruling": "200501", "deductibility": "1", "assets": 414817, "income": 62043, "revenue": 62043}], "WIETING": [{"ein": "146089242", "name": "WIETING MEMORIAL ASSOCIATION ATTN CARMEN CAIAZZA", "city": "WORCESTER", "state": "NY", "zip": "12197-0000", "ntee": "", "ruling": "198503", "deductibility": "1", "assets": 0, "income": 0, "revenue": 0}], "BEECH": [{"ein": "156022168", "name": "BEECH PLAINS CEMETERY INC", "city": "HERMON", "state": "NY", "zip": "13652-3131", "ntee": "Y50", "ruling": "201402", "deductibility": "1", "assets": 0, "income": 0, "revenue": 0}, {"ein": "222251843", "name": "BEECH HILL POND MEDITATION CENTER", "city": "W DANBY", "state": "NY", "zip": "14883-0064", "ntee": "", "ruling": "197912", "deductibility": "1", "assets": 0, "income": 0, "revenue": 0}, {"ein": "223793126", "name": "COPPER BEECH FOUNDATION", "city": "NEW YORK", "state": "NY", "zip": "10020-0000", "ntee": "T20", "ruling": "200111", "deductibility": "1", "assets": 3232556, "income": 4425199, "revenue": 0}], "STAFFORD": [{"ein": "160646050", "name": "STAFFORD COUNTRY CLUB INC", "city": "STAFFORD", "state": "NY", "zip": "14143-0063", "ntee": "", "ruling": "000000", "deductibility": "2", "assets": 1818002, "income": 2602353, "revenue": 2395804}, {"ein": "160646084", "name": "STAFFORD RURAL CEMETERY ASSN", "city": "STAFFORD", "state": "NY", "zip": "14143-0102", "ntee": "", "ruling": "194310", "deductibility": "1", "assets": 0, "income": 0, "revenue": 0}, {"ein": "161581361", "name": "SLEDS OF STAFFORD INC", "city": "STAFFORD", "state": "NY", "zip": "14143-0709", "ntee": "N32", "ruling": "200905", "deductibility": "1", "assets": 0, "income": 0, "revenue": 0}, {"ein": "161582585", "name": "STAFFORD FIRE DEPARTMENT INC", "city": "STAFFORD", "state": "NY", "zip": "14143-0056", "ntee": "M24", "ruling": "200602", "deductibility": "1", "assets": 3546334, "income": 465706, "revenue": 464010}, {"ein": "471769771", "name": "STAFFORD HISTORICAL SOCIETY", "city": "STAFFORD", "state": "NY", "zip": "14143-0028", "ntee": "A80", "ruling": "201809", "deductibility": "1", "assets": 0, "income": 0, "revenue": 0}, {"ein": "886123071", "name": "CHARLOTTE STAFFORD FBO TOWN OF OXFORD-STAFFORD HOUSE", "city": "NORWICH", "state": "NY", "zip": "13815-0000", "ntee": "T30", "ruling": "202403", "deductibility": "1", "assets": 379835, "income": 36073, "revenue": 20361}], "RADISSON": [{"ein": "161037810", "name": "RADISSON COMMUNITY ASSOCIATION INC", "city": "BALDWINSVILLE", "state": "NY", "zip": "13027-1616", "ntee": "", "ruling": "197808", "deductibility": "2", "assets": 3334915, "income": 3203673, "revenue": 3203673}, {"ein": "822240162", "name": "RADISSON COMMUNITY FOUNDATION INC", "city": "BALDWINSVILLE", "state": "NY", "zip": "13027-1616", "ntee": "W12", "ruling": "201708", "deductibility": "1", "assets": 83291, "income": 7003, "revenue": 4955}], "SADAN": [{"ein": "161311788", "name": "GOBIND SADAN USA", "city": "CENTRAL SQ", "state": "NY", "zip": "13036-2286", "ntee": "Z99Z", "ruling": "198805", "deductibility": "1", "assets": 423193, "income": 32923, "revenue": 32923}, {"ein": "475001517", "name": "SHANTI SADAN", "city": "POTSDAM", "state": "NY", "zip": "13676-0825", "ntee": "P20", "ruling": "201910", "deductibility": "1", "assets": 0, "income": 0, "revenue": 0}], "TABERG": [{"ein": "161437006", "name": "TABERG TRAIL BLAZERS INC", "city": "TABERG", "state": "NY", "zip": "13471-0025", "ntee": "N68", "ruling": "201604", "deductibility": "1", "assets": 234740, "income": 67512, "revenue": 67512}, {"ein": "204559694", "name": "TABERG VOLUNTEER FIRE COMPANY INC", "city": "TABERG", "state": "NY", "zip": "13471-0523", "ntee": "M24", "ruling": "200902", "deductibility": "1", "assets": 1235974, "income": 234650, "revenue": 233279}], "RIDES": [{"ein": "161543861", "name": "HISTORIC AMUSEMENT RIDES PRESERVATION INC", "city": "NORTH TONAWANDA", "state": "NY", "zip": "14120-3533", "ntee": "A80", "ruling": "200103", "deductibility": "1", "assets": 171099, "income": 136826, "revenue": 11360}, {"ein": "432100844", "name": "HELPING OUR NEIGHBORS WITH OPTIONS FOR RIDES FOUNDATION", "city": "ROCHESTER", "state": "NY", "zip": "14609-6912", "ntee": "M11", "ruling": "200606", "deductibility": "1", "assets": 2530, "income": 0, "revenue": 0}, {"ein": "452920545", "name": "WHEN THE RIDES OVER HORSE RESCUE INC", "city": "STATEN ISLAND", "state": "NY", "zip": "10309-2505", "ntee": "D20", "ruling": "201404", "deductibility": "1", "assets": 0, "income": 0, "revenue": 0}], "FOOTE": [{"ein": "166031968", "name": "L K FOOTE FAMILY MEMORIAL FUND TR 620250", "city": "OLEAN", "state": "NY", "zip": "14760-2738", "ntee": "", "ruling": "199203", "deductibility": "1", "assets": 248191, "income": 71789, "revenue": 0}, {"ein": "166367809", "name": "FOOTE-WHITNEY MEMORIAL FUND TR UW", "city": "NORWICH", "state": "NY", "zip": "13815-0000", "ntee": "", "ruling": "199404", "deductibility": "1", "assets": 671096, "income": 151972, "revenue": 0}, {"ein": "800589155", "name": "FOOTE FAMILY ASSOCIATION OF AMERICA CORPORATION", "city": "ORCHARD PARK", "state": "NY", "zip": "14127-3516", "ntee": "A80", "ruling": "201408", "deductibility": "1", "assets": 0, "income": 0, "revenue": 0}], "PANHELLENIC": [{"ein": "166058443", "name": "ROCHESTER CITY PANHELLENIC", "city": "PITTSFORD", "state": "NY", "zip": "14534-2433", "ntee": "B90", "ruling": "200804", "deductibility": "1", "assets": 0, "income": 0, "revenue": 0}], "HAYTS": [{"ein": "166064066", "name": "BIBLE CHURCH OF HAYTS CORNERS NEW YORK", "city": "HAYTS CORNERS", "state": "NY", "zip": "14465-0000", "ntee": "", "ruling": "196512", "deductibility": "1", "assets": 0, "income": 0, "revenue": 0}], "SMACIPP": [{"ein": "166066624", "name": "SMACIPP-ROCHESTER NEW YORK", "city": "ROCHESTER", "state": "NY", "zip": "14625-2837", "ntee": "", "ruling": "196607", "deductibility": "2", "assets": 23455, "income": 284155, "revenue": 284155}], "KITCHENS": [{"ein": "200042618", "name": "UNITED SOUP KITCHENS INC", "city": "NEW YORK", "state": "NY", "zip": "10003-9536", "ntee": "K30", "ruling": "200312", "deductibility": "1", "assets": 1092745, "income": 702522, "revenue": 702522}, {"ein": "823066078", "name": "PATCHOGUE NEIGHBORS SOUP KITCHENS INC", "city": "PATCHOGUE", "state": "NY", "zip": "11772-0727", "ntee": "K30", "ruling": "201711", "deductibility": "1", "assets": 62628, "income": 60289, "revenue": 59739}], "BANDZ": [{"ein": "200394954", "name": "TAY-BANDZ INC", "city": "NEW YORK", "state": "NY", "zip": "10019-1428", "ntee": "H12", "ruling": "200408", "deductibility": "1", "assets": 80438, "income": 107524, "revenue": 100821}], "CRUCIBLE": [{"ein": "200642845", "name": "CRUCIBLE OF AMERICAN THEATER", "city": "RYE", "state": "NY", "zip": "10580-3947", "ntee": "A61", "ruling": "200403", "deductibility": "1", "assets": 0, "income": 0, "revenue": 0}], "GATTI": [{"ein": "203826148", "name": "QUATTRO GATTI THEATRE COMPANY", "city": "BROOKLYN", "state": "NY", "zip": "11201-2432", "ntee": "A65", "ruling": "200602", "deductibility": "1", "assets": 0, "income": 0, "revenue": 0}], "METZLER": [{"ein": "206244220", "name": "THE CARL LANE METZLER MEMORIAL FUND", "city": "ROCHESTER", "state": "NY", "zip": "14618-3806", "ntee": "B82", "ruling": "200608", "deductibility": "1", "assets": 0, "income": 0, "revenue": 0}], "W20": [{"ein": "208982966", "name": "W20 FOUNDATION", "city": "CTR MORICHES", "state": "NY", "zip": "11934-1412", "ntee": "B82", "ruling": "200709", "deductibility": "1", "assets": 5692, "income": 210404, "revenue": 210404}], "TYME": [{"ein": "222203581", "name": "NEW YORK STATE OLD TYME FIDDLERS ASSOCIATION INC", "city": "FAYETTEVILLE", "state": "NY", "zip": "13066-1825", "ntee": "A200", "ruling": "197807", "deductibility": "1", "assets": 0, "income": 0, "revenue": 0}], "POWERBOAT": [{"ein": "222668314", "name": "BUFFALO MODEL POWERBOAT CLUB INC", "city": "BERGEN", "state": "NY", "zip": "14416-9768", "ntee": "", "ruling": "198705", "deductibility": "2", "assets": 0, "income": 0, "revenue": 0}, {"ein": "261591203", "name": "WESTERN NEW YORK OFFSHORE POWERBOAT ASSOCIATION", "city": "TONAWANDA", "state": "NY", "zip": "14151-0431", "ntee": "N50", "ruling": "201112", "deductibility": "2", "assets": 0, "income": 0, "revenue": 0}], "COLBURN": [{"ein": "222777121", "name": "DEO B COLBURN EDUCATION FOUNDATION", "city": "LAKE PLACID", "state": "NY", "zip": "12946-0824", "ntee": "B82", "ruling": "198703", "deductibility": "1", "assets": 7810234, "income": 2116723, "revenue": 0}], "REMANENTE": [{"ein": "223862111", "name": "IGLESIA METODISTA LIBRE EL REMANENTE", "city": "BRONX", "state": "NY", "zip": "10456-2208", "ntee": "", "ruling": "195806", "deductibility": "1", "assets": 0, "income": 0, "revenue": 0}, {"ein": "274848208", "name": "IGLESIA MISIONERA EVANGELICA REMANENTE DE DIOS INC", "city": "JAMAICA", "state": "NY", "zip": "11435-5135", "ntee": "X20", "ruling": "201107", "deductibility": "1", "assets": 0, "income": 0, "revenue": 0}], "GEVA": [{"ein": "237202906", "name": "GEVA THEATRE CENTER INC", "city": "ROCHESTER", "state": "NY", "zip": "14607-1717", "ntee": "A650", "ruling": "197212", "deductibility": "1", "assets": 14179946, "income": 6860834, "revenue": 6609789}], "CHAMBERSBURG": [{"ein": "237901431", "name": "ANNA SNIVELY TR FBO CHAMBERSBURG HOSPITAL", "city": "BUFFALO", "state": "NY", "zip": "14240-1504", "ntee": "T20", "ruling": "200508", "deductibility": "1", "assets": 6531572, "income": 1710858, "revenue": 0}, {"ein": "256266026", "name": "MARJORIE K HUBER TRUST A CHAMBERSBURG TRUST CO TR", "city": "BUFFALO", "state": "NY", "zip": "14240-1504", "ntee": "T20", "ruling": "200507", "deductibility": "1", "assets": 638292, "income": 208239, "revenue": 0}], "HAIM": [{"ein": "251902663", "name": "ZVI AND JODY BEN-HAIM FAMILY FOUNDATION", "city": "BROOKLYN", "state": "NY", "zip": "11223-4028", "ntee": "T20", "ruling": "200309", "deductibility": "1", "assets": 8192, "income": 1, "revenue": 0}, {"ein": "300138485", "name": "BARBARA & HAIM DABAH FAMILY FOUNDATION INC", "city": "NEW YORK", "state": "NY", "zip": "10065-0060", "ntee": "T22", "ruling": "200302", "deductibility": "1", "assets": 49761, "income": 1137788, "revenue": 0}, {"ein": "331772197", "name": "SHAAREI HAIM INC", "city": "NEW YORK", "state": "NY", "zip": "10017-8155", "ntee": "X30", "ruling": "202505", "deductibility": "1", "assets": 0, "income": 0, "revenue": 0}, {"ein": "332129701", "name": "TORAT MOSHE HAIM INC", "city": "BROOKLYN", "state": "NY", "zip": "11229-2810", "ntee": "T30", "ruling": "202507", "deductibility": "1", "assets": 0, "income": 0, "revenue": 0}, {"ein": "471034442", "name": "OROT HAIM VE MOSHE", "city": "NEW YORK", "state": "NY", "zip": "10024-6604", "ntee": "X30", "ruling": "201504", "deductibility": "1", "assets": 0, "income": 0, "revenue": 0}, {"ein": "651225083", "name": "TORATH HAIM OHEL SARA", "city": "FLUSHING", "state": "NY", "zip": "11367-3129", "ntee": "X30", "ruling": "200506", "deductibility": "1", "assets": 0, "income": 0, "revenue": 0}, {"ein": "821567946", "name": "HESSED HAIM FUND INC", "city": "BROOKLYN", "state": "NY", "zip": "11223-4831", "ntee": "T22", "ruling": "201709", "deductibility": "1", "assets": 71138, "income": 130000, "revenue": 0}, {"ein": "874366380", "name": "TORAT HAIM INC", "city": "BROOKLYN", "state": "NY", "zip": "11223-4044", "ntee": "K30", "ruling": "202202", "deductibility": "1", "assets": 14962, "income": 115352, "revenue": 115352}], "BUFFALOPRESIDENTIAL": [{"ein": "260646013", "name": "ASSOCIATION FOR THE BUFFALOPRESIDENTIAL CENTER", "city": "BUFFALO", "state": "NY", "zip": "14203-1823", "ntee": "T30", "ruling": "201308", "deductibility": "1", "assets": 81191, "income": 20966, "revenue": 20966}], "JASY": [{"ein": "261315038", "name": "JASY - JAMAICAN ADVANTAGE THROUGH SPORTS FOR YOUTH", "city": "ROCHESTER", "state": "NY", "zip": "14602-0324", "ntee": "N99", "ruling": "200803", "deductibility": "1", "assets": 61561, "income": 66096, "revenue": 66096}], "OLYMPUS": [{"ein": "261323620", "name": "MUSICAL OLYMPUS FOUNDATION INC", "city": "NEW YORK", "state": "NY", "zip": "10128-0003", "ntee": "A20", "ruling": "200902", "deductibility": "1", "assets": 0, "income": 0, "revenue": 0}], "YALDEINU": [{"ein": "263373908", "name": "YALDEINU SCHOOL INC", "city": "BROOKLYN", "state": "NY", "zip": "11204-2713", "ntee": "B20", "ruling": "200906", "deductibility": "1", "assets": 20264409, "income": 14873708, "revenue": 14873708}], "AMUDEY": [{"ein": "263418863", "name": "AMUDEY SHLOMO FOUNDATION INC", "city": "BROOKLYN", "state": "NY", "zip": "11204-2254", "ntee": "T20", "ruling": "201005", "deductibility": "1", "assets": 1, "income": 1, "revenue": 0}], "DOCUMENT": [{"ein": "264377317", "name": "INDIAN SUBCONTINENT PARTITION DOCUMENT PROJECT INC", "city": "BELLEROSE", "state": "NY", "zip": "11426-2608", "ntee": "R05", "ruling": "200908", "deductibility": "1", "assets": 0, "income": 0, "revenue": 0}], "LYCEUM": [{"ein": "271706494", "name": "LYCEUM III HOUSING DEVELOPMENT FUND CORP", "city": "GENEVA", "state": "NY", "zip": "14456-1774", "ntee": "L20", "ruling": "201009", "deductibility": "1", "assets": 2139086, "income": 128170, "revenue": 128170}, {"ein": "474500312", "name": "RUSSIAN LANGUAGE LYCEUM INC", "city": "BROOKLYN", "state": "NY", "zip": "11215-2277", "ntee": "B90", "ruling": "201507", "deductibility": "1", "assets": 2583, "income": 306209, "revenue": 0}, {"ein": "743213495", "name": "PARENTS ASSOCIATION OF LYCEUM KENNEDY", "city": "NEW YORK", "state": "NY", "zip": "10017-4753", "ntee": "B94", "ruling": "202207", "deductibility": "1", "assets": 0, "income": 0, "revenue": 0}, {"ein": "872691864", "name": "LYCEUM INSTITUTE INCORPORATED", "city": "ORCHARD PARK", "state": "NY", "zip": "14127-2025", "ntee": "A70", "ruling": "202208", "deductibility": "1", "assets": 0, "income": 0, "revenue": 0}, {"ein": "932620087", "name": "IOLAS LYCEUM INC", "city": "BROOKLYN", "state": "NY", "zip": "11233-2003", "ntee": "A23", "ruling": "202404", "deductibility": "1", "assets": 0, "income": 0, "revenue": 0}], "GAMERS": [{"ein": "271708283", "name": "SOS GAMERS INC", "city": "NEW YORK", "state": "NY", "zip": "10001-7604", "ntee": "T03", "ruling": "201008", "deductibility": "1", "assets": 0, "income": 0, "revenue": 0}, {"ein": "844106825", "name": "CHARITABLE IMPACT GAMERS INC", "city": "FAIRPORT", "state": "NY", "zip": "14450-8780", "ntee": "P12", "ruling": "202001", "deductibility": "1", "assets": 0, "income": 0, "revenue": 0}], "SCHARTZ": [{"ein": "272257020", "name": "LIU-A&M SCHARTZ COLL - PHARM CB CHAPTER", "city": "BROOKLYN", "state": "NY", "zip": "11201-5423", "ntee": "S40", "ruling": "201110", "deductibility": "2", "assets": 16553, "income": 8320, "revenue": 8320}], "ELAZER": [{"ein": "274314708", "name": "YALKET ELAZER FUND", "city": "MONROE", "state": "NY", "zip": "10950-6064", "ntee": "T22", "ruling": "201307", "deductibility": "1", "assets": 2574500, "income": 825000, "revenue": 0}], "RAISEDBY": [{"ein": "274852454", "name": "RAISEDBY US INC", "city": "NEW YORK", "state": "NY", "zip": "10017-1012", "ntee": "T50", "ruling": "201410", "deductibility": "1", "assets": 224681, "income": 463543, "revenue": 463543}], "JAIMAICA": [{"ein": "300192016", "name": "LA IGLESIA CHRISTIANA DE JAIMAICA INC THE CHRISTIAN CHURCH OF JAIMAI", "city": "JAMAICA", "state": "NY", "zip": "11435-3110", "ntee": "X21", "ruling": "200509", "deductibility": "1", "assets": 0, "income": 0, "revenue": 0}], "FERN": [{"ein": "311607301", "name": "LOWELL AND FERN KWIAT FAMILY FOUNDATION INC", "city": "MUTTONTOWN", "state": "NY", "zip": "11791-7003", "ntee": "T20Z", "ruling": "199807", "deductibility": "1", "assets": 1, "income": 1, "revenue": 0}], "ISI": [{"ein": "320462523", "name": "ISI GLOBAL SCIENCE FOUNDATION", "city": "NEW YORK", "state": "NY", "zip": "10004-0000", "ntee": "Q05", "ruling": "201607", "deductibility": "1", "assets": 25, "income": 63599, "revenue": 63599}], "NANOS": [{"ein": "331782861", "name": "NANOS IN ACTION INC", "city": "RIDGEWOOD", "state": "NY", "zip": "11385-4653", "ntee": "P50", "ruling": "202411", "deductibility": "1", "assets": 0, "income": 0, "revenue": 0}], "DOMESTICA": [{"ein": "332785261", "name": "FUNDACION DE PREVENCION DE ADICIONES Y VIOLENCIA DOMESTICA NY", "city": "NEW YORK", "state": "NY", "zip": "10022-3609", "ntee": "E70", "ruling": "202504", "deductibility": "1", "assets": 0, "income": 0, "revenue": 0}], "LACANIAN": [{"ein": "333576654", "name": "LACANIAN COMPASS NEW YORK INC", "city": "NEW YORK", "state": "NY", "zip": "10016-0216", "ntee": "B99", "ruling": "202505", "deductibility": "1", "assets": 0, "income": 0, "revenue": 0}], "DOOMSTRIKER": [{"ein": "334018452", "name": "RUM RUNNERS DOOMSTRIKER LEMC INC", "city": "PATCHOGUE", "state": "NY", "zip": "11772-2004", "ntee": "W12", "ruling": "202504", "deductibility": "1", "assets": 0, "income": 0, "revenue": 0}], "FINLEY": [{"ein": "351528438", "name": "FINLEY ENTEMAN MEMORIAL PARK", "city": "NEW YORK", "state": "NY", "zip": "10075-0935", "ntee": "", "ruling": "198212", "deductibility": "1", "assets": 0, "income": 0, "revenue": 0}, {"ein": "826697499", "name": "DOLORES M FINLEY CHARITABLE FOUNDATION TR AGREEMENT", "city": "LAGRANGEVILLE", "state": "NY", "zip": "12540-5989", "ntee": "T22", "ruling": "201806", "deductibility": "1", "assets": 1843018, "income": 1463149, "revenue": 0}], "RAUNER": [{"ein": "363993405", "name": "THE RAUNER FAMILY FOUNDATION", "city": "NEW YORK", "state": "NY", "zip": "10023-0016", "ntee": "X99Z", "ruling": "199510", "deductibility": "1", "assets": 55468406, "income": 2522450, "revenue": 0}], "SANTISUKHA": [{"ein": "371515907", "name": "SANTISUKHA VIHARA", "city": "UTICA", "state": "NY", "zip": "13501-3609", "ntee": "X50", "ruling": "201709", "deductibility": "1", "assets": 0, "income": 0, "revenue": 0}], "MZEE": [{"ein": "421737128", "name": "THE OWEN & MZEE FOUNDATION", "city": "NEW YORK", "state": "NY", "zip": "10023-3425", "ntee": "T22", "ruling": "200804", "deductibility": "1", "assets": 1, "income": 1, "revenue": 0}], "REINS": [{"ein": "450678213", "name": "AB REINS FOUNDATION", "city": "NEW YORK", "state": "NY", "zip": "10020-0000", "ntee": "T20", "ruling": "201202", "deductibility": "1", "assets": 5975991, "income": 6732586, "revenue": 0}, {"ein": "830647258", "name": "UNITED REINS OF AMERICA", "city": "MANORVILLE", "state": "NY", "zip": "11949-2858", "ntee": "F12", "ruling": "201903", "deductibility": "1", "assets": 0, "income": 0, "revenue": 0}], "EDP": [{"ein": "452808168", "name": "BUFFALO REGALS EDP FUND INC", "city": "CHEEKTOWAGA", "state": "NY", "zip": "14227-1128", "ntee": "N68", "ruling": "201211", "deductibility": "1", "assets": 113858, "income": 222993, "revenue": 217993}], "EISEK": [{"ein": "454065282", "name": "EISEK HATORAH DRACHMISTRIVKA", "city": "BROOKLYN", "state": "NY", "zip": "11236-4203", "ntee": "X30", "ruling": "201308", "deductibility": "1", "assets": 0, "income": 0, "revenue": 0}, {"ein": "854243573", "name": "YESHIVAH EISEK HATORAH INC", "city": "BROOKLYN", "state": "NY", "zip": "11205-1630", "ntee": "X30", "ruling": "202111", "deductibility": "1", "assets": 0, "income": 0, "revenue": 0}], "TARTANS": [{"ein": "455330544", "name": "JUNIOR TARTANS INC", "city": "SCHENECTADY", "state": "NY", "zip": "12325-0624", "ntee": "N65", "ruling": "201805", "deductibility": "1", "assets": 0, "income": 0, "revenue": 0}], "VSOROH": [{"ein": "461582625", "name": "KEREN AVROHOM VSOROH FOUNDATION", "city": "BROOKLYN", "state": "NY", "zip": "11210-3742", "ntee": "T99", "ruling": "201406", "deductibility": "1", "assets": 5000, "income": 5000, "revenue": 0}], "DIETER": [{"ein": "461700092", "name": "MARJORIE DIETER MASTIN HISTORICAL SOCIETY", "city": "CANASERAGA", "state": "NY", "zip": "14822-9728", "ntee": "A80", "ruling": "201709", "deductibility": "1", "assets": 0, "income": 0, "revenue": 0}], "BENYAMIN": [{"ein": "462047950", "name": "CONGREGATION OHR BENYAMIN", "city": "FLUSHING", "state": "NY", "zip": "11367-1735", "ntee": "X30", "ruling": "201308", "deductibility": "1", "assets": 0, "income": 0, "revenue": 0}], "MAGOTHY": [{"ein": "463986874", "name": "LLOYD MAGOTHY WATER TRUST INC", "city": "SOUTHAMPTON", "state": "NY", "zip": "11968-3457", "ntee": "Z99", "ruling": "201406", "deductibility": "1", "assets": 0, "income": 0, "revenue": 0}], "SCUDERI": [{"ein": "465485264", "name": "SCUDERI CUSHNER ORTHOPEDIC RESEARCH AND EDUCATION FOUNDATION", "city": "NEW YORK", "state": "NY", "zip": "10065-7471", "ntee": "T30", "ruling": "201411", "deductibility": "1", "assets": 10660, "income": 27841, "revenue": 27841}], "LIONSTONE": [{"ein": "471372065", "name": "LIONSTONE FOUNDATION", "city": "NEW YORK", "state": "NY", "zip": "10151-0000", "ntee": "T20", "ruling": "201412", "deductibility": "1", "assets": 1005648, "income": 78871, "revenue": 0}], "SPRINGBOARD": [{"ein": "473804170", "name": "FRIENDS OF SPRINGBOARD DANSE LTD", "city": "BROOKLYN", "state": "NY", "zip": "11215-7517", "ntee": "A62", "ruling": "201510", "deductibility": "1", "assets": 0, "income": 0, "revenue": 0}, {"ein": "814200249", "name": "SPRINGBOARD INCUBATORS INC", "city": "GARDEN CITY", "state": "NY", "zip": "11530-1901", "ntee": "S20", "ruling": "201701", "deductibility": "1", "assets": 99353, "income": 208632, "revenue": 208632}], "MAISC": [{"ein": "474506579", "name": "MOVEMENT OF AMERICAN INDIAN SOLAR CULTURE MAISC INC", "city": "BROOKLYN", "state": "NY", "zip": "11222-5895", "ntee": "A20", "ruling": "201912", "deductibility": "1", "assets": 423617, "income": 116811, "revenue": 116811}], "UNLOK": [{"ein": "475649727", "name": "UNLOK INC", "city": "LONG BEACH", "state": "NY", "zip": "11561-2836", "ntee": "I40", "ruling": "201602", "deductibility": "1", "assets": 2511, "income": 0, "revenue": 0}], "CORDELL": [{"ein": "481292574", "name": "CORDELL HULL GLOBAL", "city": "NEW YORK", "state": "NY", "zip": "10022-5125", "ntee": "B12", "ruling": "200507", "deductibility": "1", "assets": 0, "income": 0, "revenue": 0}, {"ein": "726027215", "name": "CORDELL HULL FOUNDATION FOR INTERNATIONAL EDUCATION", "city": "NEW YORK", "state": "NY", "zip": "10111-0100", "ntee": "Q230", "ruling": "195409", "deductibility": "1", "assets": 320196, "income": 513400, "revenue": 513400}], "BAXTERS": [{"ein": "562477532", "name": "BAXTERS POND FOUNDATION INC", "city": "PRT WASHINGTN", "state": "NY", "zip": "11050-2721", "ntee": "C50", "ruling": "201306", "deductibility": "1", "assets": 0, "income": 0, "revenue": 0}], "KIVUNIM": [{"ein": "571148733", "name": "KIVUNIM", "city": "NEW YORK", "state": "NY", "zip": "10024-1593", "ntee": "B60", "ruling": "200902", "deductibility": "1", "assets": 803659, "income": 2855047, "revenue": 2855047}], "MINDU": [{"ein": "660861498", "name": "MUSEO DE LA INDUMENTARIA DE PUERTO RICO MINDU-MINDUPR", "city": "REGO PARK", "state": "NY", "zip": "11374-1575", "ntee": "A51", "ruling": "201808", "deductibility": "1", "assets": 0, "income": 0, "revenue": 0}], "PDM": [{"ein": "753032931", "name": "PDM PERFORMING ARTS CORPORATION", "city": "LAURELTON", "state": "NY", "zip": "11413-2709", "ntee": "A62", "ruling": "201608", "deductibility": "1", "assets": 0, "income": 0, "revenue": 0}], "COLM": [{"ein": "811258951", "name": "COLM CILLE CLUB", "city": "BRONXVILLE", "state": "NY", "zip": "10708-2715", "ntee": "B80", "ruling": "201611", "deductibility": "1", "assets": 21490, "income": 51266, "revenue": 51266}], "ADILAH": [{"ein": "813626284", "name": "ADILAH DIBBA CORP", "city": "YONKERS", "state": "NY", "zip": "10701-3909", "ntee": "W20", "ruling": "202411", "deductibility": "1", "assets": 0, "income": 0, "revenue": 0}], "SHRIJAN": [{"ein": "813641963", "name": "SHRIJAN CHARITY", "city": "MANLIUS", "state": "NY", "zip": "13104-8809", "ntee": "Q30", "ruling": "201610", "deductibility": "1", "assets": 0, "income": 0, "revenue": 0}], "YIDE": [{"ein": "814068855", "name": "CONGREGATION ZICHRON MOSHE YIDE", "city": "SPRING VALLEY", "state": "NY", "zip": "10977-3810", "ntee": "X30", "ruling": "201704", "deductibility": "1", "assets": 0, "income": 0, "revenue": 0}], "TAHARAT": [{"ein": "814859485", "name": "SEPHARDIC MIKVAH TAHARAT SARAH INC", "city": "BROOKLYN", "state": "NY", "zip": "11230-6403", "ntee": "X30", "ruling": "201805", "deductibility": "1", "assets": 0, "income": 0, "revenue": 0}, {"ein": "884324925", "name": "TAHARAT ISRAEL", "city": "BROOKLYN", "state": "NY", "zip": "11223-1828", "ntee": "X30", "ruling": "202307", "deductibility": "1", "assets": 0, "income": 0, "revenue": 0}], "BEAGLES": [{"ein": "815072074", "name": "SAVING OLDER BEAGLES INC", "city": "YORKTOWN HTS", "state": "NY", "zip": "10598-5703", "ntee": "D20", "ruling": "201703", "deductibility": "1", "assets": 0, "income": 0, "revenue": 0}], "DEPENDENCY": [{"ein": "820740606", "name": "WESTERN NEW YORK CHEMICAL DEPENDENCY CONSORTIUM INC", "city": "AMHERST", "state": "NY", "zip": "14226-1439", "ntee": "F21", "ruling": "201807", "deductibility": "1", "assets": 0, "income": 0, "revenue": 0}], "ENLIGHTENED": [{"ein": "821363364", "name": "ENLIGHTENED CHRISTIAN GATHERING", "city": "MOUNT VERNON", "state": "NY", "zip": "10550-5106", "ntee": "X21", "ruling": "201807", "deductibility": "1", "assets": 36873, "income": 238094, "revenue": 238094}, {"ein": "833026074", "name": "SHARE INFORM ENLIGHTENED", "city": "WHEATLEY HTS", "state": "NY", "zip": "11798-1221", "ntee": "P20", "ruling": "201908", "deductibility": "1", "assets": 0, "income": 0, "revenue": 0}, {"ein": "873200128", "name": "ENLIGHTENED CHRISTIAN GATHERING OF QUEENS NEW YORK INC", "city": "FAR ROCKAWAY", "state": "NY", "zip": "11691-2426", "ntee": "X20", "ruling": "202506", "deductibility": "1", "assets": 0, "income": 0, "revenue": 0}, {"ein": "900416840", "name": "BODHIVASTU FOUNDATION FOR ENLIGHTENED ACTIVITY", "city": "POUGHKEEPSIE", "state": "NY", "zip": "12603-1151", "ntee": "X50", "ruling": "200902", "deductibility": "1", "assets": 625023, "income": 126418, "revenue": 126418}, {"ein": "990975447", "name": "ENLIGHTENED WORD INC", "city": "MASTIC BEACH", "state": "NY", "zip": "11951-2711", "ntee": "X99", "ruling": "202405", "deductibility": "1", "assets": 0, "income": 0, "revenue": 0}], "INVESTIGATE": [{"ein": "823004277", "name": "WORLD ORGANIZATION TO INVESTIGATE THE PERSECUTION OF FALUN GONG INC", "city": "NEW YORK", "state": "NY", "zip": "10116-0084", "ntee": "V25", "ruling": "201909", "deductibility": "1", "assets": 49576, "income": 4871, "revenue": 4871}], "SANTIAGUEROS": [{"ein": "823455120", "name": "SANTIAGUEROS AUSENTES MIEMBROS DE LA DEFENSA CIVIL CORP", "city": "LINDENHURST", "state": "NY", "zip": "11757-5232", "ntee": "I11", "ruling": "201712", "deductibility": "1", "assets": 1, "income": 52400, "revenue": 0}], "MICROBIOTA": [{"ein": "830531098", "name": "MICROBIOTA VAULT INC", "city": "NEW YORK", "state": "NY", "zip": "10003-5107", "ntee": "G92", "ruling": "201906", "deductibility": "1", "assets": 403560, "income": 780580, "revenue": 780580}], "MYRICK": [{"ein": "833836544", "name": "MYRICK FOUNDATION INC", "city": "STATEN ISLAND", "state": "NY", "zip": "10314-4024", "ntee": "S30", "ruling": "202202", "deductibility": "1", "assets": 0, "income": 0, "revenue": 0}], "AMANT": [{"ein": "834140659", "name": "AMANT FOUNDATION USA", "city": "NEW YORK", "state": "NY", "zip": "10013-1732", "ntee": "A20", "ruling": "202011", "deductibility": "1", "assets": 22539637, "income": 7982432, "revenue": 7982432}], "VEHAER": [{"ein": "841807957", "name": "VEHAER", "city": "POMONA", "state": "NY", "zip": "10970-2817", "ntee": "B60", "ruling": "201907", "deductibility": "1", "assets": 0, "income": 0, "revenue": 0}], "WYTHE": [{"ein": "841971137", "name": "1415 WYTHE HOUSING DEVELOPMENT FUND CORPORATION", "city": "NEW YORK", "state": "NY", "zip": "10018-5706", "ntee": "L80", "ruling": "201908", "deductibility": "1", "assets": 68829722, "income": 2119277, "revenue": 2119277}], "FUNDBLINK": [{"ein": "842197368", "name": "FUNDBLINK INC", "city": "BROOKLYN", "state": "NY", "zip": "11249-6656", "ntee": "T30", "ruling": "202009", "deductibility": "1", "assets": 0, "income": 0, "revenue": 0}], "LINDAS": [{"ein": "842371524", "name": "LINDAS ANGELS LTD", "city": "OLD WESTBURY", "state": "NY", "zip": "11568-1226", "ntee": "T12", "ruling": "201908", "deductibility": "1", "assets": 20317, "income": 236979, "revenue": 121112}, {"ein": "842939105", "name": "LINDAS LOVE SOCIETY", "city": "ROCHESTER", "state": "NY", "zip": "14626-4890", "ntee": "P20", "ruling": "202002", "deductibility": "1", "assets": 0, "income": 0, "revenue": 0}], "PRECURSOR": [{"ein": "843055710", "name": "PRECURSOR HUMAN CAPITAL DEVELOPMENT INC", "city": "VALLEY STREAM", "state": "NY", "zip": "11580-1030", "ntee": "J20", "ruling": "201911", "deductibility": "1", "assets": 5298, "income": 395755, "revenue": 395755}], "ZBA": [{"ein": "851579760", "name": "CONGREGATION ZBA", "city": "MONSEY", "state": "NY", "zip": "10952-2942", "ntee": "X30", "ruling": "202009", "deductibility": "1", "assets": 0, "income": 0, "revenue": 0}], "FIERCELY": [{"ein": "852484657", "name": "FIERCELY LEADING YOUTH INC", "city": "BAY SHORE", "state": "NY", "zip": "11706-2125", "ntee": "O99", "ruling": "202010", "deductibility": "1", "assets": 0, "income": 0, "revenue": 0}], "MANIFESTING": [{"ein": "861310858", "name": "MANIFESTING AFTER REVISITING CRISIS INCORPORATED", "city": "NEWBURGH", "state": "NY", "zip": "12550-4539", "ntee": "A70", "ruling": "202104", "deductibility": "1", "assets": 0, "income": 0, "revenue": 0}], "JARDIM": [{"ein": "861378594", "name": "JARDIM DAS FLORES INC", "city": "HIGH FALLS", "state": "NY", "zip": "12440-5441", "ntee": "X20", "ruling": "202305", "deductibility": "1", "assets": 0, "income": 0, "revenue": 0}], "CREATELLA": [{"ein": "861598589", "name": "CREATELLA IMPACT INC", "city": "NEW YORK", "state": "NY", "zip": "10016-7207", "ntee": "", "ruling": "202109", "deductibility": "1", "assets": 38116, "income": 53541, "revenue": 53541}], "ANABAPTIST": [{"ein": "861750266", "name": "ANABAPTIST TREASURE NETWORK INC", "city": "NEW YORK", "state": "NY", "zip": "10032-2800", "ntee": "P29", "ruling": "202404", "deductibility": "1", "assets": 0, "income": 0, "revenue": 0}, {"ein": "921150336", "name": "ANABAPTIST WELLNESS CENTER FND INC", "city": "CANAJOHARIE", "state": "NY", "zip": "13317-0000", "ntee": "E70", "ruling": "202310", "deductibility": "1", "assets": 1121033, "income": 34338, "revenue": 34338}], "BAYNO": [{"ein": "871210737", "name": "THE SOPHIA BAYNO SCHOLARSHIP FUND INC", "city": "GOSHEN", "state": "NY", "zip": "10924-2309", "ntee": "B82", "ruling": "202206", "deductibility": "1", "assets": 0, "income": 0, "revenue": 0}], "RAHAMANE": [{"ein": "871251300", "name": "DAROU RAHAMANE INC", "city": "BRONX", "state": "NY", "zip": "10455-2626", "ntee": "P20", "ruling": "202408", "deductibility": "1", "assets": 0, "income": 0, "revenue": 0}], "EUPHORIA": [{"ein": "873958344", "name": "EUPHORIA FOUNDATION", "city": "NEW YORK", "state": "NY", "zip": "10010-7230", "ntee": "T20", "ruling": "202212", "deductibility": "1", "assets": 219779, "income": 4690, "revenue": 0}], "LISS": [{"ein": "880774451", "name": "REMEMBER LISS", "city": "NEW YORK", "state": "NY", "zip": "10005-1522", "ntee": "A80", "ruling": "202205", "deductibility": "1", "assets": 0, "income": 0, "revenue": 0}], "EMAMA": [{"ein": "883913214", "name": "EMAMA GEDAM ORPHAN FUND INC", "city": "CHEEKTOWAGA", "state": "NY", "zip": "14225-4010", "ntee": "B90", "ruling": "202506", "deductibility": "1", "assets": 0, "income": 0, "revenue": 0}], "BWOG": [{"ein": "884233179", "name": "BWOG PUBLISHING INC", "city": "NEW YORK", "state": "NY", "zip": "10025-7722", "ntee": "A20", "ruling": "202506", "deductibility": "1", "assets": 0, "income": 0, "revenue": 0}], "CHRH": [{"ein": "912047553", "name": "ST GREGORY ILLMN ARM CHRH BROOKLYN", "city": "NEW YORK", "state": "NY", "zip": "10016-4806", "ntee": "", "ruling": "194909", "deductibility": "1", "assets": 0, "income": 0, "revenue": 0}], "ARTEEAST": [{"ein": "912187887", "name": "ARTEEAST INC", "city": "BROOKLYN", "state": "NY", "zip": "11215-4194", "ntee": "A23", "ruling": "200405", "deductibility": "1", "assets": 79536, "income": 247253, "revenue": 247253}], "WOLFPACK": [{"ein": "920489116", "name": "MONROE COUNTY WOLFPACK", "city": "ROCHESTER", "state": "NY", "zip": "14624-2816", "ntee": "N60", "ruling": "202211", "deductibility": "1", "assets": 0, "income": 0, "revenue": 0}, {"ein": "994690723", "name": "WOLFPACK LACROSSE", "city": "LITTLE VALLEY", "state": "NY", "zip": "14755-1226", "ntee": "N60", "ruling": "202409", "deductibility": "1", "assets": 0, "income": 0, "revenue": 0}], "BLESSERS": [{"ein": "922056426", "name": "BLESSERS CORPORATION", "city": "ALBANY", "state": "NY", "zip": "12205-4627", "ntee": "P12", "ruling": "202302", "deductibility": "1", "assets": 0, "income": 0, "revenue": 0}], "VALLONE": [{"ein": "922404388", "name": "VALLONE ASR HOUSING DEVELOPMENT FUND CORPORATION", "city": "LONG IS CITY", "state": "NY", "zip": "11102-3331", "ntee": "L20", "ruling": "202501", "deductibility": "2", "assets": 11686911, "income": 910816, "revenue": 910816}], "SOSP": [{"ein": "922486756", "name": "SOSP INC", "city": "FRANKLIN SQ", "state": "NY", "zip": "11010-0242", "ntee": "A23", "ruling": "202404", "deductibility": "1", "assets": 0, "income": 0, "revenue": 0}], "CHERNOWITZ": [{"ein": "923067923", "name": "CONGREGATION SHAAR TEFILA CHERNOWITZ", "city": "MONROE", "state": "NY", "zip": "10950-0000", "ntee": "X30", "ruling": "202311", "deductibility": "1", "assets": 0, "income": 0, "revenue": 0}, {"ein": "923573893", "name": "CONGREGATION CHERNOWITZ MONSEY", "city": "MONSEY", "state": "NY", "zip": "10952-1740", "ntee": "X30", "ruling": "202310", "deductibility": "1", "assets": 0, "income": 0, "revenue": 0}], "COTTONTAIL": [{"ein": "931736719", "name": "COTTONTAIL COTTAGE WILDLIFE REHAB INC", "city": "RYE BROOK", "state": "NY", "zip": "10573-3501", "ntee": "D30", "ruling": "202309", "deductibility": "1", "assets": 0, "income": 0, "revenue": 0}], "HUMANOSH": [{"ein": "932546688", "name": "HUMANOSH USA INC", "city": "NEW YORK", "state": "NY", "zip": "10069-0201", "ntee": "P20", "ruling": "202308", "deductibility": "1", "assets": 54259, "income": 102318, "revenue": 102318}], "MENANTIC": [{"ein": "932831560", "name": "MENANTIC CREEK KEEPERS CONSERVANCY INC", "city": "SHELTER IS", "state": "NY", "zip": "11964-0052", "ntee": "U21", "ruling": "202309", "deductibility": "1", "assets": 0, "income": 0, "revenue": 0}], "TALKS": [{"ein": "933134315", "name": "TIMBI TALKS CORPORATION", "city": "BEDFORD CORS", "state": "NY", "zip": "10549-3520", "ntee": "B90", "ruling": "202311", "deductibility": "1", "assets": 29072, "income": 51857, "revenue": 51857}, {"ein": "993930798", "name": "AUSOME TALKS INC", "city": "JAMAICA", "state": "NY", "zip": "11433-3146", "ntee": "B90", "ruling": "202407", "deductibility": "1", "assets": 0, "income": 0, "revenue": 0}], "SDN": [{"ein": "933539751", "name": "SDN INNOVATION", "city": "SARANAC LAKE", "state": "NY", "zip": "12983-1343", "ntee": "Q32", "ruling": "202403", "deductibility": "1", "assets": 0, "income": 0, "revenue": 0}], "UCBM": [{"ein": "992134823", "name": "FRIENDS OF UCBM INC", "city": "ARMONK", "state": "NY", "zip": "10504-1704", "ntee": "T12", "ruling": "202409", "deductibility": "1", "assets": 0, "income": 0, "revenue": 0}], "JENTUBY": [{"ein": "994126993", "name": "JENTUBY FOR WOMEN EMPOWERMENT & ERADICATION OF CHILD ABUSE", "city": "STATEN ISLAND", "state": "NY", "zip": "10303-1658", "ntee": "R12", "ruling": "202409", "deductibility": "1", "assets": 0, "income": 0, "revenue": 0}]}