{"JOSEPH": [{"ein": "010563715", "name": "JOSEPH CINER FOUNDATIN INC", "city": "NEW YORK", "state": "NY", "zip": "10017-2251", "ntee": "T20", "ruling": "200202", "deductibility": "1", "assets": 100032, "income": 9921, "revenue": 0}, {"ein": "010567810", "name": "PATRICIA E PHELAN AND JOSEPH W PHELAN FAMILY FOUNDATION INC", "city": "GERMANTOWN", "state": "NY", "zip": "12526-0573", "ntee": "T22", "ruling": "200310", "deductibility": "1", "assets": 2654603, "income": 557484, "revenue": 0}, {"ein": "020671182", "name": "JOSEPH AND FLORENCE WASSNER FOUNDATION INC", "city": "NEW YORK", "state": "NY", "zip": "10024-5347", "ntee": "T22", "ruling": "200302", "deductibility": "1", "assets": 95, "income": 1, "revenue": 0}, {"ein": "030507228", "name": "JOSEPH P SPOR JR MEMORIAL SCHOLARSHIP FUND", "city": "YORKTOWN HGTS", "state": "NY", "zip": "10598-6632", "ntee": "B82", "ruling": "200305", "deductibility": "1", "assets": 0, "income": 0, "revenue": 0}, {"ein": "042273779", "name": "DOMINICAN FATHERS PROVINCE OF ST JOSEPH INC", "city": "NEW YORK", "state": "NY", "zip": "10021-6618", "ntee": "", "ruling": "194601", "deductibility": "1", "assets": 0, "income": 0, "revenue": 0}, {"ein": "061181226", "name": "JOSEPH P ADDABBO FAMILY HEALTH CENTER INC", "city": "ARVERNE", "state": "NY", "zip": "11692-1409", "ntee": "", "ruling": "198706", "deductibility": "1", "assets": 46255317, "income": 52365957, "revenue": 52365957}, {"ein": "061565092", "name": "DAVID JOSEPH FOUNDATION", "city": "BROOKLYN", "state": "NY", "zip": "11230-3971", "ntee": "T20", "ruling": "200002", "deductibility": "1", "assets": 295877, "income": 32847, "revenue": 0}, {"ein": "061640434", "name": "JOSEPH SAFRA FOUNDATION INC", "city": "NEW YORK", "state": "NY", "zip": "10036-5000", "ntee": "T20", "ruling": "200209", "deductibility": "1", "assets": 22362120, "income": 12237894, "revenue": 0}, {"ein": "061784736", "name": "NIKI AND JOSEPH GREGORY CHARTABLE FOUNDATION", "city": "HUNTINGTON", "state": "NY", "zip": "11743-2609", "ntee": "T20", "ruling": "200704", "deductibility": "1", "assets": 1170, "income": 8500, "revenue": 0}, {"ein": "066071618", "name": "JOSEPH J PELTZ FOUNDATION INC", "city": "PRT WASHINGTN", "state": "NY", "zip": "11050-1733", "ntee": "", "ruling": "195707", "deductibility": "1", "assets": 586118, "income": 135406, "revenue": 0}, {"ein": "111631829", "name": "SACRED HEART CONVENT SISTERS OF ST JOSEPH ACADEMY", "city": "HEMPSTEAD", "state": "NY", "zip": "11550-2046", "ntee": "", "ruling": "194603", "deductibility": "1", "assets": 0, "income": 0, "revenue": 0}, {"ein": "111667628", "name": "SISTERS OF SAINT JOSEPH FONTBONNE HALL", "city": "BROOKLYN", "state": "NY", "zip": "11209-7934", "ntee": "", "ruling": "194603", "deductibility": "1", "assets": 0, "income": 0, "revenue": 0}, {"ein": "111715786", "name": "CENTRAL YESHIVA BETH JOSEPH", "city": "BROOKLYN", "state": "NY", "zip": "11230-6043", "ntee": "", "ruling": "194910", "deductibility": "1", "assets": 0, "income": 0, "revenue": 0}, {"ein": "112146150", "name": "YESHIVA BETH JOSEPH", "city": "BROOKLYN", "state": "NY", "zip": "11204-1425", "ntee": "", "ruling": "196803", "deductibility": "1", "assets": 0, "income": 0, "revenue": 0}, {"ein": "112305419", "name": "BROWNSVILLE HOUSING DEVELOPMENT FUND CORP C O JOSEPH JEFFRIES", "city": "BROOKLYN", "state": "NY", "zip": "11208-6419", "ntee": "", "ruling": "197711", "deductibility": "2", "assets": 0, "income": 0, "revenue": 0}, {"ein": "112416905", "name": "CONGREGATION KHAL BNEI JOSEPH C O BENJAMIN ISAACS ESQ", "city": "BROOKLYN", "state": "NY", "zip": "11211-8112", "ntee": "", "ruling": "197704", "deductibility": "1", "assets": 0, "income": 0, "revenue": 0}, {"ein": "112423631", "name": "JOSEPH & FAYE TANENBAUM CENTER OF APPLIED TORAH LEARNING", "city": "BROOKLYN", "state": "NY", "zip": "11204-1252", "ntee": "", "ruling": "197707", "deductibility": "1", "assets": 0, "income": 0, "revenue": 0}, {"ein": "112449995", "name": "AMERICAN FRIENDS OF AGUDAT SHETILE ZETIM INC C O JOSEPH HAMAOUYUI", "city": "BROOKLYN", "state": "NY", "zip": "11223-0000", "ntee": "Q99Z", "ruling": "197804", "deductibility": "1", "assets": 8585, "income": 174995, "revenue": 174995}, {"ein": "112483397", "name": "EZRAS YOSEF INC C O JOSEPH ORLIK", "city": "BROOKLYN", "state": "NY", "zip": "11230-4416", "ntee": "", "ruling": "197902", "deductibility": "1", "assets": 0, "income": 0, "revenue": 0}, {"ein": "112522739", "name": "GEMILAS CHESED ACHIM INC C/O JOSEPH POSNER", "city": "BROOKLYN", "state": "NY", "zip": "11219-4220", "ntee": "", "ruling": "198002", "deductibility": "1", "assets": 0, "income": 0, "revenue": 0}, {"ein": "112537405", "name": "CONGREGATION BETH JOSEPH ARYE INC", "city": "BROOKLYN", "state": "NY", "zip": "11211-7612", "ntee": "", "ruling": "198007", "deductibility": "1", "assets": 0, "income": 0, "revenue": 0}, {"ein": "112691078", "name": "CONGREGATION BAIS JOSEPH VESURE DEKALEV", "city": "BROOKLYN", "state": "NY", "zip": "11211-7671", "ntee": "", "ruling": "198406", "deductibility": "1", "assets": 0, "income": 0, "revenue": 0}, {"ein": "112722156", "name": "JOSEPH MANDATO MEMORIAL FUND", "city": "GARDEN CITY", "state": "NY", "zip": "11530-1571", "ntee": "", "ruling": "198704", "deductibility": "1", "assets": 0, "income": 0, "revenue": 0}, {"ein": "112785201", "name": "THE ROSALIND AND JOSEPH GURWIN JEWISH GERIATRIC CENTER OF LONG IS", "city": "COMMACK", "state": "NY", "zip": "11725-4403", "ntee": "E910", "ruling": "198604", "deductibility": "1", "assets": 53417150, "income": 85417674, "revenue": 84785056}, {"ein": "112811151", "name": "CHAI CORPORATION C/O JOSEPH GUTTMAN", "city": "BROOKLYN", "state": "NY", "zip": "11204-1226", "ntee": "", "ruling": "198608", "deductibility": "1", "assets": 709189, "income": 666849, "revenue": 666849}, {"ein": "112840436", "name": "CONGREGATION BAIS MEDRASH JOSEPH PETERSEIL MEMORIAL TRUST", "city": "CEDARHURST", "state": "NY", "zip": "11516-1638", "ntee": "", "ruling": "198703", "deductibility": "1", "assets": 0, "income": 0, "revenue": 0}, {"ein": "113002962", "name": "JOSEPH AND MARGOT GANGER FOUNDATION INC", "city": "NEW YORK", "state": "NY", "zip": "10018-0000", "ntee": "", "ruling": "199005", "deductibility": "1", "assets": 1617655, "income": 162817, "revenue": 0}, {"ein": "113009058", "name": "OHEL JOSEPH BEIS FEIGE YELED SHAASHIYIM INST", "city": "HEIGHLAND MILLS", "state": "NY", "zip": "10930-0537", "ntee": "", "ruling": "199008", "deductibility": "1", "assets": 0, "income": 0, "revenue": 0}, {"ein": "113039390", "name": "CONGREGATION OHR GEDALYAHU C/O RABBI JOSEPH ASZKNAZY", "city": "BROOKLYN", "state": "NY", "zip": "11230-4814", "ntee": "X99J", "ruling": "199601", "deductibility": "1", "assets": 0, "income": 0, "revenue": 0}, {"ein": "113067018", "name": "JOSEPH R CAPRA WELDING SCHOLARSHIP FUND", "city": "WEST ONEONTA", "state": "NY", "zip": "13861-0418", "ntee": "", "ruling": "198308", "deductibility": "1", "assets": 52481, "income": 5455, "revenue": 0}, {"ein": "113232748", "name": "JOSEPH BEST MINISTRIES CHRISTIAN GOSPEL MISSION INC", "city": "MINEOLA", "state": "NY", "zip": "11501-4614", "ntee": "", "ruling": "199410", "deductibility": "1", "assets": 0, "income": 0, "revenue": 0}, {"ein": "113250005", "name": "SAINT JOSEPH HIGH SCHOOL ALUMNI ASSOCIATION", "city": "NEW YORK", "state": "NY", "zip": "10037-9400", "ntee": "B84", "ruling": "202003", "deductibility": "1", "assets": 0, "income": 0, "revenue": 0}, {"ein": "113300825", "name": "JOSEPH AND BERNICE TANENBAUM FOUNDATION", "city": "BAYSIDE", "state": "NY", "zip": "11361-2864", "ntee": "T99J", "ruling": "199601", "deductibility": "1", "assets": 557461, "income": 193236, "revenue": 0}, {"ein": "113324636", "name": "JOSEPH HORVATH MEMORIAL SCHLARSHIP FUND INC", "city": "RONKONKOMA", "state": "NY", "zip": "11779-4939", "ntee": "B82", "ruling": "199710", "deductibility": "1", "assets": 199999, "income": 93795, "revenue": 42579}, {"ein": "113388342", "name": "JOSEPH CHEHEBAR FAM FOUNDATION INC", "city": "BROOKLYN", "state": "NY", "zip": "11207-8417", "ntee": "T20Z", "ruling": "199803", "deductibility": "1", "assets": 1779667, "income": 3637496, "revenue": 0}, {"ein": "113402363", "name": "MSGR JOSEPH F STEDMAN RESIDENCE HOUSING DEVELOPMENT FUND CORPORATI", "city": "BROOKLYN", "state": "NY", "zip": "11201-4306", "ntee": "", "ruling": "194603", "deductibility": "1", "assets": 5477919, "income": 1298958, "revenue": 1298958}, {"ein": "113426508", "name": "JOSEPH LEROY AND ANN C WARNER FUND INC", "city": "NEW YORK", "state": "NY", "zip": "10004-2783", "ntee": "T20", "ruling": "199804", "deductibility": "1", "assets": 17874516, "income": 4574870, "revenue": 0}, {"ein": "113436536", "name": "CONG BEIS JOSEPH INC", "city": "BROOKLYN", "state": "NY", "zip": "11211-7702", "ntee": "X21Z", "ruling": "199808", "deductibility": "1", "assets": 0, "income": 0, "revenue": 0}, {"ein": "113438973", "name": "ST JOSEPH HOSPITAL", "city": "BETHPAGE", "state": "NY", "zip": "11714-5713", "ntee": "E220", "ruling": "199809", "deductibility": "1", "assets": 83954715, "income": 162543618, "revenue": 162543618}, {"ein": "113522305", "name": "THE JOSEPH FOUNDATION", "city": "BROOKLYN", "state": "NY", "zip": "11234-2609", "ntee": "T22", "ruling": "200103", "deductibility": "1", "assets": 28197, "income": 80360, "revenue": 0}, {"ein": "113523647", "name": "JOSEPH SHAMMA FOUNDATION", "city": "BROOKLYN", "state": "NY", "zip": "11223-5437", "ntee": "T22", "ruling": "200004", "deductibility": "1", "assets": 1, "income": 1, "revenue": 0}, {"ein": "113533163", "name": "KAHAL BETH JOSEPH INC", "city": "BROOKLYN", "state": "NY", "zip": "11219-3201", "ntee": "X30", "ruling": "200004", "deductibility": "1", "assets": 0, "income": 0, "revenue": 0}, {"ein": "113541453", "name": "KOLEL BNEL JOSEPH", "city": "BROOKLYN", "state": "NY", "zip": "11219-3843", "ntee": "X30", "ruling": "200006", "deductibility": "1", "assets": 0, "income": 0, "revenue": 0}, {"ein": "113577034", "name": "ST JOSEPH SYRIAN ORTHODOX KNANAYA CHURCH", "city": "WEST BABYLON", "state": "NY", "zip": "11704-4346", "ntee": "X20", "ruling": "200106", "deductibility": "1", "assets": 0, "income": 0, "revenue": 0}, {"ein": "113986018", "name": "CONG KHAL MAYER JOSEPH", "city": "MONROE", "state": "NY", "zip": "10950-2417", "ntee": "X30", "ruling": "199803", "deductibility": "1", "assets": 0, "income": 0, "revenue": 0}, {"ein": "116003379", "name": "JOSEPH S GRUSS YESHIVA HIGH SCHOOL", "city": "BROOKLYN", "state": "NY", "zip": "11230-6209", "ntee": "", "ruling": "196206", "deductibility": "1", "assets": 0, "income": 0, "revenue": 0}, {"ein": "116080611", "name": "JOSEPH R DALY FOUNDATION", "city": "FORT SALONGA", "state": "NY", "zip": "11768-2430", "ntee": "T22Z", "ruling": "196802", "deductibility": "1", "assets": 2103985, "income": 703301, "revenue": 0}, {"ein": "116110951", "name": "RUDOLPH JOSEPH FOUNDATION", "city": "ROCKVILLE CENTRE", "state": "NY", "zip": "11570-0000", "ntee": "", "ruling": "196810", "deductibility": "1", "assets": 324693, "income": 220822, "revenue": 0}, {"ein": "131873291", "name": "DOMINICAN FATHERS PROVINCE OF ST JOSEPH INCORPORATED", "city": "NEW YORK", "state": "NY", "zip": "10065-0000", "ntee": "X22", "ruling": "194603", "deductibility": "1", "assets": 0, "income": 0, "revenue": 0}, {"ein": "132631083", "name": "JOSEPH M DASSERN HOUSING CORPORATION", "city": "DOBBS FERRY", "state": "NY", "zip": "10522-3600", "ntee": "", "ruling": "197202", "deductibility": "2", "assets": 2517851, "income": 1370806, "revenue": 1370806}, {"ein": "132875229", "name": "SAINT JOSEPH SAINT BONIFACE", "city": "WESLEY HILLS", "state": "NY", "zip": "10952-1118", "ntee": "", "ruling": "194603", "deductibility": "1", "assets": 0, "income": 0, "revenue": 0}, {"ein": "133042360", "name": "EMILY DAVIE AND JOSEPH S KORNFELD FOUNDATION", "city": "NEW YORK", "state": "NY", "zip": "10036-6710", "ntee": "T20Z", "ruling": "198112", "deductibility": "1", "assets": 26051978, "income": 4754557, "revenue": 0}, {"ein": "133057951", "name": "CHARLOTTE & JOSEPH GARDNER FOUNDATION INC", "city": "NEW YORK", "state": "NY", "zip": "10036-7221", "ntee": "", "ruling": "198103", "deductibility": "1", "assets": 274060, "income": 292132, "revenue": 0}, {"ein": "133132782", "name": "RABBI JOSEPH BREUER FOUNDATION INC", "city": "KEW GARDENS", "state": "NY", "zip": "11415-0000", "ntee": "A33Z", "ruling": "198304", "deductibility": "1", "assets": 103540, "income": 161371, "revenue": 161371}, {"ein": "133188830", "name": "JOSEPH B CORPINA JR MEMORIAL FOUNDATION INC", "city": "ARMONK", "state": "NY", "zip": "10504-1931", "ntee": "", "ruling": "198405", "deductibility": "1", "assets": 240771, "income": 20928, "revenue": 20016}, {"ein": "133235960", "name": "OHR SOMAYACH JOSEPH TANENBAUM EDUCATIONAL CENTER", "city": "MONSEY", "state": "NY", "zip": "10952-1810", "ntee": "", "ruling": "198505", "deductibility": "1", "assets": 0, "income": 0, "revenue": 0}, {"ein": "133238626", "name": "JOSEPH J YANCY JR HOUSING DEVELOPMENT FUND COMPANY INC", "city": "NEW YORK", "state": "NY", "zip": "10010-6002", "ntee": "Z99Z", "ruling": "199711", "deductibility": "1", "assets": 3587847, "income": 1267861, "revenue": 1267861}, {"ein": "133395216", "name": "JOSEPH AND MARTHA MELOHN CHARITABL E FOUNDATION", "city": "NEW YORK", "state": "NY", "zip": "10019-0000", "ntee": "", "ruling": "198803", "deductibility": "1", "assets": 69034, "income": 507452, "revenue": 0}, {"ein": "133395217", "name": "JOSEPH AND MALKA MELOHN FOUNDATION", "city": "NEW YORK", "state": "NY", "zip": "10005-0000", "ntee": "", "ruling": "199404", "deductibility": "1", "assets": 182050, "income": 93163, "revenue": 0}, {"ein": "133395218", "name": "JOSEPH AND MARTHA MELOHN FUND", "city": "NEW YORK", "state": "NY", "zip": "10019-3310", "ntee": "", "ruling": "198803", "deductibility": "1", "assets": 19440, "income": 1, "revenue": 0}, {"ein": "133395219", "name": "JOSEPH AND MARTHA MELOHN TZEDAKA FUND", "city": "NEW YORK", "state": "NY", "zip": "10019-0000", "ntee": "", "ruling": "198803", "deductibility": "1", "assets": 6287558, "income": 8535791, "revenue": 0}, {"ein": "133406764", "name": "JOSEPH JACK SITT 1986 CHARITABLE TR", "city": "NEW YORK", "state": "NY", "zip": "10018-4074", "ntee": "", "ruling": "198802", "deductibility": "1", "assets": 7060254, "income": 1439360, "revenue": 0}, {"ein": "133562511", "name": "PETER T JOSEPH FOUNDATION INC", "city": "NEW YORK", "state": "NY", "zip": "10022-1606", "ntee": "", "ruling": "199005", "deductibility": "1", "assets": 2403897, "income": 365467, "revenue": 0}, {"ein": "133573461", "name": "CAROLINE & JOSEPH S GRUSS LIFE MONUMENT FUNDS INC", "city": "BROOKLYN", "state": "NY", "zip": "11232-2713", "ntee": "B120", "ruling": "199106", "deductibility": "1", "assets": 6238298, "income": 1887456, "revenue": 1887456}, {"ein": "133619283", "name": "JOSEPH G HAYES MEDICAL EDUCATION FOUNDATION", "city": "NEW YORK", "state": "NY", "zip": "10172-0003", "ntee": "", "ruling": "199107", "deductibility": "1", "assets": 79028, "income": 8, "revenue": 0}, {"ein": "133630161", "name": "JOSEPH A DEJULIA JR MEMORIAL SCHOLARSHIP FUND INC", "city": "STONY POINT", "state": "NY", "zip": "10980-1907", "ntee": "B82Z", "ruling": "199201", "deductibility": "1", "assets": 0, "income": 0, "revenue": 0}, {"ein": "133636511", "name": "JOSEPH M & BARBARA COHEN FOUNDATION INC", "city": "NEW YORK", "state": "NY", "zip": "10022-6258", "ntee": "", "ruling": "199111", "deductibility": "1", "assets": 376937, "income": 16024, "revenue": 0}, {"ein": "133651632", "name": "JOSEPH V GIFFUNI FOUNDATION INC", "city": "NEW YORK", "state": "NY", "zip": "10028-4221", "ntee": "", "ruling": "199206", "deductibility": "1", "assets": 1093909, "income": 182666, "revenue": 0}, {"ein": "133692614", "name": "JOSEPH C NUGENT FAM CHARITABLE TR", "city": "NEW YORK", "state": "NY", "zip": "10008-1297", "ntee": "", "ruling": "199303", "deductibility": "1", "assets": 2428117, "income": 808945, "revenue": 0}, {"ein": "133866003", "name": "JOSEPH N MUSCHEL MEMORIAL FOUNDATION INC", "city": "NEW YORK", "state": "NY", "zip": "10016-0606", "ntee": "T20J", "ruling": "199606", "deductibility": "1", "assets": 230743, "income": 1, "revenue": 0}, {"ein": "133872327", "name": "THE JOSEPH BRODSKY MEMORIAL FELLOWSHIP FUND", "city": "BROOKLYN", "state": "NY", "zip": "11215-0000", "ntee": "Q21", "ruling": "199705", "deductibility": "1", "assets": 338287, "income": 8389, "revenue": 8389}, {"ein": "133921102", "name": "JOSEPH AND SUSAN GATTO FOUNDATION", "city": "MELVILLE", "state": "NY", "zip": "11747-3146", "ntee": "T20Z", "ruling": "199802", "deductibility": "1", "assets": 7236097, "income": 329318, "revenue": 0}, {"ein": "133962647", "name": "THE CATHERINE AND JOSEPH ARESTY FOUNDATION INC", "city": "NEW YORK", "state": "NY", "zip": "10018-0000", "ntee": "T22Z", "ruling": "199709", "deductibility": "1", "assets": 20868943, "income": 10554480, "revenue": 0}, {"ein": "133981351", "name": "BEATRICE R AND JOSEPH A COLEMAN FOUNDATION INC", "city": "NEW YORK", "state": "NY", "zip": "10016-0820", "ntee": "T22Z", "ruling": "199801", "deductibility": "1", "assets": 1983942, "income": 509110, "revenue": 0}, {"ein": "134125358", "name": "LT JOSEPH R GRILLO MEMORIAL ASSOCIATION INC", "city": "HARRISON", "state": "NY", "zip": "10528-0101", "ntee": "W30", "ruling": "201709", "deductibility": "1", "assets": 0, "income": 0, "revenue": 0}, {"ein": "134144648", "name": "JOSEPH F STEIN FAMILY FOUNDATION INC", "city": "WHITE PLAINS", "state": "NY", "zip": "10603-3254", "ntee": "T22", "ruling": "200102", "deductibility": "1", "assets": 10945714, "income": 3905111, "revenue": 0}, {"ein": "134168730", "name": "WENDI AND JOSEPH B ROSE FOUNDATION", "city": "NEW YORK", "state": "NY", "zip": "10010-2010", "ntee": "T90", "ruling": "200206", "deductibility": "1", "assets": 362618, "income": 92143, "revenue": 0}, {"ein": "135573064", "name": "JOSEPH WARREN-GOTHIC LODGE NO 934 F & AM", "city": "NEW YORK", "state": "NY", "zip": "10010-4190", "ntee": "Y42", "ruling": "201804", "deductibility": "1", "assets": 0, "income": 0, "revenue": 0}, {"ein": "135645887", "name": "ST JOSEPH CHURCH", "city": "NEW YORK", "state": "NY", "zip": "10002-7307", "ntee": "", "ruling": "194603", "deductibility": "1", "assets": 0, "income": 0, "revenue": 0}, {"ein": "136019803", "name": "ST JOSEPH & ST THOMAS CHURCH", "city": "STATEN ISLAND", "state": "NY", "zip": "10309-3120", "ntee": "", "ruling": "194603", "deductibility": "1", "assets": 0, "income": 0, "revenue": 0}, {"ein": "136028788", "name": "THE ESTHER A AND JOSEPH KLINGENSTEIN FUND INC", "city": "NEW YORK", "state": "NY", "zip": "10011-7159", "ntee": "", "ruling": "194611", "deductibility": "1", "assets": 123254867, "income": 9499667, "revenue": 0}, {"ein": "136106433", "name": "JOSEPH & SYLVIA SLIFKA FOUNDATION INC", "city": "NEW YORK", "state": "NY", "zip": "10020-0000", "ntee": "", "ruling": "198703", "deductibility": "1", "assets": 16631032, "income": 19971115, "revenue": 0}, {"ein": "136109420", "name": "JOSEPH CAMHI FOUNDATION INC", "city": "EAST ROCKAWAY", "state": "NY", "zip": "11518-2111", "ntee": "", "ruling": "195604", "deductibility": "1", "assets": 285819, "income": 23694, "revenue": 0}, {"ein": "136141239", "name": "JOSEPH AND LILLIAN EATON FOUNDATION", "city": "NEW YORK", "state": "NY", "zip": "10025-0000", "ntee": "", "ruling": "196004", "deductibility": "1", "assets": 16373, "income": 6990, "revenue": 0}, {"ein": "136154141", "name": "JOSEPH H GLUCK FOUNDATION", "city": "NEW YORK", "state": "NY", "zip": "10017-9117", "ntee": "", "ruling": "194606", "deductibility": "1", "assets": 132735, "income": 14945, "revenue": 0}, {"ein": "136158412", "name": "JOSEPH ROSEN FOUNDATION INC", "city": "NEW YORK", "state": "NY", "zip": "10021-0009", "ntee": "", "ruling": "194910", "deductibility": "1", "assets": 20062970, "income": 5288870, "revenue": 0}, {"ein": "136161364", "name": "YESHIVATH BETH JOSEPH NOVAREDOK OF JERUSALEM INC", "city": "NEW YORK", "state": "NY", "zip": "10002-2674", "ntee": "X123", "ruling": "195604", "deductibility": "1", "assets": 0, "income": 0, "revenue": 0}, {"ein": "136161532", "name": "TTEES JOSEPH MARTINSON MEMORIAL FUND 1473764", "city": "NEW YORK", "state": "NY", "zip": "10013-2362", "ntee": "", "ruling": "195205", "deductibility": "1", "assets": 2775794, "income": 761716, "revenue": 0}, {"ein": "136259577", "name": "JOSEPH & SOPHIA ABELES FOUNDATION INC", "city": "PURCHASE", "state": "NY", "zip": "10577-1712", "ntee": "", "ruling": "196212", "deductibility": "1", "assets": 10452536, "income": 4294779, "revenue": 0}, {"ein": "136404527", "name": "JOSEPH COLLINS FOUNDATION", "city": "NEW YORK", "state": "NY", "zip": "10019-6018", "ntee": "", "ruling": "195205", "deductibility": "1", "assets": 17195753, "income": 947829, "revenue": 0}, {"ein": "136919339", "name": "JOSEPH & LAURA WORTMAN FOUNDATION 9-150033131768", "city": "NEW YORK", "state": "NY", "zip": "10013-2362", "ntee": "", "ruling": "198909", "deductibility": "1", "assets": 8715217, "income": 2046740, "revenue": 0}, {"ein": "137002791", "name": "JOSEPH S & DIANE H STEINBERG 1992 CHARITABLE TRUST", "city": "BROOKLYN", "state": "NY", "zip": "11201-3420", "ntee": "", "ruling": "199305", "deductibility": "1", "assets": 40945467, "income": 21859268, "revenue": 0}, {"ein": "137153248", "name": "JOSEPH TZVI FOUNDATION", "city": "BROOKLYN", "state": "NY", "zip": "11218-0000", "ntee": "T20", "ruling": "199902", "deductibility": "1", "assets": 142280, "income": 1, "revenue": 0}, {"ein": "141510900", "name": "ROMAN CATHOLIC COMMUNITY OF ST ALEXANDER AND ST JOSEPH PARISH", "city": "MORRISONVILLE", "state": "NY", "zip": "12962-0159", "ntee": "", "ruling": "194603", "deductibility": "1", "assets": 0, "income": 0, "revenue": 0}, {"ein": "141550945", "name": "CATHOLIC COMMUNITY OF ST PHILIP OF JESUS AND ST JOSEPH OF WILLSBORO", "city": "WILLSBORO", "state": "NY", "zip": "12996-0607", "ntee": "", "ruling": "194603", "deductibility": "1", "assets": 0, "income": 0, "revenue": 0}, {"ein": "141610774", "name": "ST JOSEPH MARIAN CENTER INC", "city": "ALTAMONT", "state": "NY", "zip": "12009-0472", "ntee": "", "ruling": "194603", "deductibility": "1", "assets": 1156, "income": 3552, "revenue": 3552}, {"ein": "141646323", "name": "COMMUNITY CHORALE OF THE CATSKILLS INC C/O JOSEPH C SHARPIRO", "city": "HALCOTTSVILLE", "state": "NY", "zip": "12438-0025", "ntee": "", "ruling": "198408", "deductibility": "1", "assets": 0, "income": 0, "revenue": 0}, {"ein": "141691430", "name": "ANCIENT ORDER OF HIBERNIANS JOSEPH DUELK JR CORP AOH JDJ CORP", "city": "MONROE", "state": "NY", "zip": "10950-2837", "ntee": "", "ruling": "199306", "deductibility": "2", "assets": 109854, "income": 28850, "revenue": 28850}, {"ein": "141851178", "name": "JOSEPH R RIVERSO MEMORIAL FOUNDATION INC", "city": "WHITE PLAINS", "state": "NY", "zip": "10605-1156", "ntee": "B82", "ruling": "200307", "deductibility": "1", "assets": 113283, "income": 59125, "revenue": 38241}, {"ein": "141975875", "name": "ST JOSEPH INVESTMENT FUND INC", "city": "BUFFALO", "state": "NY", "zip": "14203-1215", "ntee": "", "ruling": "194603", "deductibility": "0", "assets": 0, "income": 0, "revenue": 0}, {"ein": "146034010", "name": "JOSEPH G & HORTENSE L MINTZER TRUST", "city": "W SAND LAKE", "state": "NY", "zip": "12196-0442", "ntee": "", "ruling": "196512", "deductibility": "1", "assets": 170723, "income": 45744, "revenue": 0}, {"ein": "150536618", "name": "SOCIETY OF THE SISTERS OF ST JOSEPH INC", "city": "WATERTOWN", "state": "NY", "zip": "13601-8368", "ntee": "", "ruling": "194603", "deductibility": "1", "assets": 0, "income": 0, "revenue": 0}, {"ein": "160667383", "name": "CORPORAL JOSEPH J MOONEY POST 2250 VFW OF US INC", "city": "HORNELL", "state": "NY", "zip": "14843-1816", "ntee": "W30", "ruling": "201712", "deductibility": "1", "assets": 102138, "income": 1006877, "revenue": 170415}, {"ein": "160743089", "name": "SISTERS OF ST JOSEPH OF ROCHESTER", "city": "ROCHESTER", "state": "NY", "zip": "14618-3822", "ntee": "", "ruling": "194603", "deductibility": "1", "assets": 0, "income": 0, "revenue": 0}, {"ein": "160754668", "name": "HOLY FAMILY OF JESUS MARY AND JOSEPH CHURCH", "city": "NIAGARA FALLS", "state": "NY", "zip": "14301-1921", "ntee": "", "ruling": "194603", "deductibility": "1", "assets": 0, "income": 0, "revenue": 0}, {"ein": "160755862", "name": "OUR LADY OF VICTORY-ST JOSEPH", "city": "ROCHESTER", "state": "NY", "zip": "14604-1326", "ntee": "", "ruling": "194603", "deductibility": "1", "assets": 0, "income": 0, "revenue": 0}, {"ein": "160783261", "name": "ST JOSEPH CHURCH", "city": "PENFIELD", "state": "NY", "zip": "14526-1301", "ntee": "", "ruling": "194603", "deductibility": "1", "assets": 0, "income": 0, "revenue": 0}, {"ein": "160850715", "name": "HOLY FAMILY OF JESUS MARY & JOSEPH", "city": "BELMONT", "state": "NY", "zip": "14813-0570", "ntee": "", "ruling": "194603", "deductibility": "1", "assets": 0, "income": 0, "revenue": 0}, {"ein": "160985052", "name": "ST JOSEPH PASTORAL CARE INC", "city": "UTICA", "state": "NY", "zip": "13501-6251", "ntee": "", "ruling": "202312", "deductibility": "1", "assets": 1705451, "income": 370485, "revenue": 123521}, {"ein": "161007842", "name": "CONGREGATION OF THE SISTERS OF ST JOSEPH GENERALATE", "city": "CLARENCE", "state": "NY", "zip": "14031-1542", "ntee": "", "ruling": "194603", "deductibility": "1", "assets": 0, "income": 0, "revenue": 0}, {"ein": "161475079", "name": "JOSEPH AND INEZ E CARBONE FOUNDATION TR", "city": "UTICA", "state": "NY", "zip": "13501-3813", "ntee": "T99Z", "ruling": "199503", "deductibility": "1", "assets": 1735850, "income": 529730, "revenue": 0}, {"ein": "161516424", "name": "VINCENZA AND JOSEPH VASILE FOUNDATION", "city": "WEBSTER", "state": "NY", "zip": "14580-1046", "ntee": "T22Z", "ruling": "199711", "deductibility": "1", "assets": 170181, "income": 21687, "revenue": 0}, {"ein": "161545713", "name": "JOSEPH E PETER FOUNDATION", "city": "SYRACUSE", "state": "NY", "zip": "13224-2234", "ntee": "T21", "ruling": "199907", "deductibility": "1", "assets": 70396, "income": 1095, "revenue": 0}, {"ein": "161768462", "name": "ELAINE T AND JOSEPH G BUCCI FAMILY FOUNDATION", "city": "GENESEO", "state": "NY", "zip": "14454-0098", "ntee": "T22", "ruling": "200608", "deductibility": "1", "assets": 3917, "income": 1, "revenue": 0}, {"ein": "166001337", "name": "BETH JOSEPH CENTER", "city": "ROCHESTER", "state": "NY", "zip": "14621-5216", "ntee": "", "ruling": "194907", "deductibility": "1", "assets": 0, "income": 0, "revenue": 0}, {"ein": "166015269", "name": "JOSEPH F MEADE MEMORIAL SCIENCE FUND", "city": "HAMMONDSPORT", "state": "NY", "zip": "14840-9458", "ntee": "", "ruling": "195308", "deductibility": "1", "assets": 212938, "income": 23431, "revenue": 0}, {"ein": "166041683", "name": "CHARLES JOSEPH KINZIE TRUST UW 24-211330", "city": "NORWICH", "state": "NY", "zip": "13815-0000", "ntee": "", "ruling": "190012", "deductibility": "0", "assets": 24250, "income": 1311, "revenue": 0}, {"ein": "166305073", "name": "JOSEPH LETSON CHARITABLE TRUST UW", "city": "NORWICH", "state": "NY", "zip": "13815-0000", "ntee": "T20", "ruling": "200101", "deductibility": "1", "assets": 464989, "income": 24530, "revenue": 0}, {"ein": "200558022", "name": "ST JOSEPH RC CHURCH", "city": "BUFFALO", "state": "NY", "zip": "14203-1215", "ntee": "", "ruling": "194603", "deductibility": "1", "assets": 0, "income": 0, "revenue": 0}, {"ein": "202006253", "name": "JOSEPH G KEARNS AND AGNES K KEARNS FOUNDATION", "city": "COOPERSTOWN", "state": "NY", "zip": "13326-1138", "ntee": "T20", "ruling": "200501", "deductibility": "1", "assets": 820, "income": 15918, "revenue": 0}, {"ein": "202340553", "name": "JOSEPH BERGMAN CHARITABLE FOUNDATION", "city": "BROOKLYN", "state": "NY", "zip": "11204-1482", "ntee": "T22", "ruling": "200910", "deductibility": "1", "assets": 260867, "income": 306780, "revenue": 0}, {"ein": "203035924", "name": "JOSEPH TOLES FOUNDATION INC", "city": "CENTERPORT", "state": "NY", "zip": "11721-1109", "ntee": "O50", "ruling": "200610", "deductibility": "1", "assets": 0, "income": 0, "revenue": 0}, {"ein": "203378909", "name": "JOSEPH AND ALICE DABBAH CHARITABLE FOUNDATION", "city": "BROOKLYN", "state": "NY", "zip": "11223-1936", "ntee": "P12", "ruling": "200512", "deductibility": "1", "assets": 82004, "income": 2513, "revenue": 0}, {"ein": "204068168", "name": "NEW YORK JOSEPH CHURCH", "city": "FLUSHING", "state": "NY", "zip": "11354-3785", "ntee": "X21", "ruling": "200604", "deductibility": "1", "assets": 0, "income": 0, "revenue": 0}, {"ein": "204240247", "name": "JOSEPH BERBERICK HOSE CO INC", "city": "ILION", "state": "NY", "zip": "13357-3908", "ntee": "M24", "ruling": "202101", "deductibility": "1", "assets": 190095, "income": 97699, "revenue": 72971}, {"ein": "205269657", "name": "JAMES B LEE JR SCHOLARSHIP AND RELIEF FUND IN HONOR OF JOSEPH", "city": "SOUTHAMPTON", "state": "NY", "zip": "11969-1366", "ntee": "B82", "ruling": "200609", "deductibility": "1", "assets": 3701751, "income": 1646659, "revenue": 675266}, {"ein": "205692537", "name": "ST JOSEPH NEIGHBORHOOD HOUSINGINITIATIVE INC", "city": "BUFFALO", "state": "NY", "zip": "14214-1224", "ntee": "L25", "ruling": "200706", "deductibility": "1", "assets": 0, "income": 0, "revenue": 0}, {"ein": "222400456", "name": "JOSEPH & ANNA GARTNER FOUNDATION", "city": "WILLIAMSVILLE", "state": "NY", "zip": "14221-5765", "ntee": "", "ruling": "198206", "deductibility": "1", "assets": 3460922, "income": 327295, "revenue": 0}, {"ein": "222565883", "name": "JOSEPH P MANGAN AUXILIARY UNIT 1194", "city": "BINGHAMTON", "state": "NY", "zip": "13901-1553", "ntee": "W30", "ruling": "201711", "deductibility": "1", "assets": 0, "income": 0, "revenue": 0}, {"ein": "222854811", "name": "ROSALYN AND JOSEPH NEWMAN FOUNDATION INC", "city": "CENTERPORT", "state": "NY", "zip": "11721-1162", "ntee": "", "ruling": "198902", "deductibility": "1", "assets": 2279534, "income": 1106293, "revenue": 0}, {"ein": "223590857", "name": "JOSEPH HOME INC", "city": "PEARL RIVER", "state": "NY", "zip": "10965-3104", "ntee": "E91", "ruling": "199809", "deductibility": "1", "assets": 2810666, "income": 468494, "revenue": 468494}, {"ein": "223639034", "name": "DR JOSEPH B-LILLIAN STIEFEL FOUNDATION INC", "city": "BRONX", "state": "NY", "zip": "10463-6106", "ntee": "T20", "ruling": "199906", "deductibility": "1", "assets": 555313, "income": 165441, "revenue": 0}, {"ein": "236242538", "name": "JOSEPH T AND HELEN M SIMPSON FOUNDATION", "city": "BUFFALO", "state": "NY", "zip": "14240-1504", "ntee": "", "ruling": "195801", "deductibility": "1", "assets": 3229700, "income": 1006805, "revenue": 0}, {"ein": "237039999", "name": "JOSEPH C & CLARE F GOODMAN MEMORIAL FOUNDATION INC", "city": "NEW YORK", "state": "NY", "zip": "10036-0000", "ntee": "", "ruling": "197002", "deductibility": "1", "assets": 2571542, "income": 1632793, "revenue": 0}, {"ein": "237066431", "name": "JOSEPH AND OPHELIA MARIAN TRUST", "city": "TARRYTOWN", "state": "NY", "zip": "10591-3023", "ntee": "", "ruling": "197009", "deductibility": "1", "assets": 114745, "income": 11835, "revenue": 0}, {"ein": "237210190", "name": "CONGREGATION YESHIVA & TALMUD TORAH BETH JOSEPH DSPINKA", "city": "FLUSHING", "state": "NY", "zip": "11367-2318", "ntee": "", "ruling": "197205", "deductibility": "1", "assets": 0, "income": 0, "revenue": 0}, {"ein": "237333419", "name": "CONGREGATION BETH JOSEPH", "city": "FAR ROCKAWAY", "state": "NY", "zip": "11691-5235", "ntee": "", "ruling": "197312", "deductibility": "1", "assets": 0, "income": 0, "revenue": 0}, {"ein": "237544141", "name": "KNIGHTS OF COLUMBUS ST JOSEPH COUNCIL 5398", "city": "SYRACUSE", "state": "NY", "zip": "13206-0081", "ntee": "Y40", "ruling": "201702", "deductibility": "1", "assets": 0, "income": 0, "revenue": 0}, {"ein": "260344577", "name": "JOSEPH P DURSO FOUNDATION FOR IMPROVED COMMUNICATION IN MEDICINE", "city": "WANTAGH", "state": "NY", "zip": "11793-2859", "ntee": "E19", "ruling": "200709", "deductibility": "1", "assets": 0, "income": 0, "revenue": 0}, {"ein": "260837643", "name": "THE ELIAHOU JOSEPH SHAMAH AND DAVID SHAMAH FOUNDATION INC", "city": "BROOKLYN", "state": "NY", "zip": "11223-3237", "ntee": "T20", "ruling": "200710", "deductibility": "1", "assets": 3250680, "income": 169820, "revenue": 0}, {"ein": "262032944", "name": "LAURIE AND JOSEPH KLINOW FOUNDATION", "city": "NEW YORK", "state": "NY", "zip": "10022-4127", "ntee": "T22", "ruling": "200804", "deductibility": "1", "assets": 57724, "income": 19315, "revenue": 0}, {"ein": "262251313", "name": "THE JOSEPH LAPINSKI FOUNDATION", "city": "NEW CITY", "state": "NY", "zip": "10956-4132", "ntee": "T30", "ruling": "201001", "deductibility": "1", "assets": 0, "income": 0, "revenue": 0}, {"ein": "263876922", "name": "THE JOSEPH AND IRENE SKALNY CHARITABLE TRUST", "city": "NEW YORK", "state": "NY", "zip": "10022-9499", "ntee": "T22", "ruling": "200907", "deductibility": "1", "assets": 4927318, "income": 2528152, "revenue": 0}, {"ein": "264219344", "name": "ELLENMORRIS & JOSEPH FARBER CHARITABLE FOUNDATION", "city": "ROSLYN", "state": "NY", "zip": "11576-3047", "ntee": "T22", "ruling": "201002", "deductibility": "1", "assets": 282633, "income": 1588, "revenue": 0}, {"ein": "270220278", "name": "PARISH OF ST JOSEPH THE WORKER", "city": "RICHFLD SPGS", "state": "NY", "zip": "13439-0791", "ntee": "", "ruling": "194603", "deductibility": "1", "assets": 0, "income": 0, "revenue": 0}, {"ein": "270364200", "name": "LIEUTENANT DETECTIVE JOSEPH PETROSINO ASSOCIATION IN AMERICA", "city": "WHITESTONE", "state": "NY", "zip": "11357-1955", "ntee": "P12", "ruling": "201103", "deductibility": "1", "assets": 0, "income": 0, "revenue": 0}, {"ein": "270821447", "name": "SAINT JOSEPH SCHOOL FOUNDATION", "city": "PENFIELD", "state": "NY", "zip": "14526-1301", "ntee": "B11", "ruling": "201107", "deductibility": "1", "assets": 80254, "income": 147242, "revenue": 96451}, {"ein": "273062870", "name": "JOSEPH KOHEN FOUNDATION", "city": "SPRING VALLEY", "state": "NY", "zip": "10977-3856", "ntee": "T20", "ruling": "201009", "deductibility": "1", "assets": 1, "income": 1, "revenue": 0}, {"ein": "274713771", "name": "OHEL JOSEPH & BURHO TOXSUR INC", "city": "REGO PARK", "state": "NY", "zip": "11374-1979", "ntee": "X30", "ruling": "201201", "deductibility": "1", "assets": 0, "income": 0, "revenue": 0}, {"ein": "275268256", "name": "JOSEPH J THEINERT MEMORIAL FUND INC", "city": "SHELTER IS HT", "state": "NY", "zip": "11965-0604", "ntee": "B82", "ruling": "201106", "deductibility": "1", "assets": 19733, "income": 26509, "revenue": 19517}, {"ein": "311574943", "name": "JOSEPH FELDSCHUH FOUNDATION INC", "city": "NEW YORK", "state": "NY", "zip": "10113-0000", "ntee": "T20Z", "ruling": "199712", "deductibility": "1", "assets": 1278269, "income": 282542, "revenue": 0}, {"ein": "320310934", "name": "BARTHOLOMEW JOSEPH RECAME SR FOUNDATION LTD", "city": "SAYVILLE", "state": "NY", "zip": "11782-3224", "ntee": "T30", "ruling": "201109", "deductibility": "1", "assets": 8517, "income": 16359, "revenue": 16359}, {"ein": "331416223", "name": "SISTERS OF ST JOSEPH BRENTWOOD LEGACY FUND", "city": "MIDDLE VLG", "state": "NY", "zip": "11379-1818", "ntee": "T31", "ruling": "202505", "deductibility": "1", "assets": 0, "income": 0, "revenue": 0}, {"ein": "331428665", "name": "JOSEPH CHIKOTA ARTS & SCIENCE FUND INC", "city": "CHAPPAQUA", "state": "NY", "zip": "10514-2702", "ntee": "A99", "ruling": "202410", "deductibility": "1", "assets": 0, "income": 0, "revenue": 0}, {"ein": "334994449", "name": "JOSEPH FALU FOUNDATION INC", "city": "NEW YORK", "state": "NY", "zip": "10003-1502", "ntee": "P12", "ruling": "202506", "deductibility": "1", "assets": 0, "income": 0, "revenue": 0}, {"ein": "352443070", "name": "JOSEPH AVENUE BUSINESS ASSOCIATION", "city": "ROCHESTER", "state": "NY", "zip": "14603-3147", "ntee": "S40", "ruling": "201303", "deductibility": "2", "assets": 0, "income": 0, "revenue": 0}, {"ein": "356044280", "name": "JOSEPH E CAIN FOUNDATION INC", "city": "CLINTON CORNERS", "state": "NY", "zip": "12514-0000", "ntee": "", "ruling": "195809", "deductibility": "1", "assets": 10035, "income": 35, "revenue": 0}, {"ein": "357111960", "name": "THE JOSEPH A FERRARA AND JOAN FERRARA FAMILY FOUNDATION", "city": "GARDEN CITY", "state": "NY", "zip": "11530-1408", "ntee": "T20", "ruling": "201703", "deductibility": "1", "assets": 50930, "income": 1081, "revenue": 0}, {"ein": "383352412", "name": "JOSEPH AND CONSTANCE FRANKLIN CHARITABLE FOUNDATION INC", "city": "NEW YORK", "state": "NY", "zip": "10022-0000", "ntee": "Z99Z", "ruling": "199708", "deductibility": "1", "assets": 15041, "income": 1583, "revenue": 0}, {"ein": "431519323", "name": "THE FEDERATION OF THE CONGREGATIONS OF SISTERS OF SAINT JOSEPH OF THE", "city": "JAMAICA", "state": "NY", "zip": "11432-2937", "ntee": "", "ruling": "194603", "deductibility": "1", "assets": 0, "income": 0, "revenue": 0}, {"ein": "450706948", "name": "JOSEPH T OLIVA MEMORIAL SCHOLARSHIP FUND LTD", "city": "SYOSSET", "state": "NY", "zip": "11791-4211", "ntee": "B82", "ruling": "201302", "deductibility": "1", "assets": 0, "income": 0, "revenue": 0}, {"ein": "454332754", "name": "CONGREGATION BETH JOSEPH BROOKLYN", "city": "BROOKLYN", "state": "NY", "zip": "11230-6043", "ntee": "X30", "ruling": "201404", "deductibility": "1", "assets": 0, "income": 0, "revenue": 0}, {"ein": "455132396", "name": "JOSEPH ACOCELLA JR MEMORIAL FUND INC", "city": "HARRISON", "state": "NY", "zip": "10528-2912", "ntee": "B82", "ruling": "201304", "deductibility": "1", "assets": 0, "income": 0, "revenue": 0}, {"ein": "455194716", "name": "ST JOSEPH THE WORKER", "city": "CLYDE", "state": "NY", "zip": "14433-1121", "ntee": "", "ruling": "194603", "deductibility": "1", "assets": 0, "income": 0, "revenue": 0}, {"ein": "455370807", "name": "OFFICER JOSEPH CORR FOUNDATION", "city": "NEW HARTFORD", "state": "NY", "zip": "13413-2530", "ntee": "B82", "ruling": "201304", "deductibility": "1", "assets": 0, "income": 0, "revenue": 0}, {"ein": "456814949", "name": "THE JOSEPH A AND NINA G CAMERATA CHARITABLE TRUST", "city": "NEW YORK", "state": "NY", "zip": "10001-2189", "ntee": "T20", "ruling": "201408", "deductibility": "1", "assets": 2651759, "income": 730869, "revenue": 0}, {"ein": "460541155", "name": "ST JOSEPH CATHOLIC ACADEMY", "city": "LONG IS CITY", "state": "NY", "zip": "11103-2147", "ntee": "", "ruling": "194603", "deductibility": "1", "assets": 0, "income": 0, "revenue": 0}, {"ein": "460553453", "name": "ST JOSEPH THE WORKER CATHOLIC ACADEMY", "city": "BROOKLYN", "state": "NY", "zip": "11215-5807", "ntee": "", "ruling": "194603", "deductibility": "1", "assets": 0, "income": 0, "revenue": 0}, {"ein": "461793836", "name": "JOHNATHAN JOSEPH FOUNDATION", "city": "NEW YORK", "state": "NY", "zip": "10036-0000", "ntee": "P20", "ruling": "201312", "deductibility": "1", "assets": 8553, "income": 12500, "revenue": 12500}, {"ein": "461828044", "name": "LIEUTENANT JOSEPH P DIBERNARDO MEMORIAL FOUNDATION", "city": "MILLER PLACE", "state": "NY", "zip": "11764-8713", "ntee": "M122", "ruling": "201305", "deductibility": "1", "assets": 153219, "income": 245684, "revenue": 235541}, {"ein": "463739937", "name": "JOSEPH MICHAEL CHUBBUCK FOUNDATION INC", "city": "ROME", "state": "NY", "zip": "13442-4917", "ntee": "G30", "ruling": "201409", "deductibility": "1", "assets": 12559, "income": 83301, "revenue": 58726}, {"ein": "464673005", "name": "JOSEPH S LAWSON SR SCHOLARSHIP FUND", "city": "KINGSTON", "state": "NY", "zip": "12401-3032", "ntee": "B82", "ruling": "201708", "deductibility": "1", "assets": 0, "income": 0, "revenue": 0}, {"ein": "465346559", "name": "JOSEPH CHAIM SOCIETY INC", "city": "BROOKLYN", "state": "NY", "zip": "11204-2236", "ntee": "X30", "ruling": "201807", "deductibility": "1", "assets": 0, "income": 0, "revenue": 0}, {"ein": "465482461", "name": "JOY FROM JOSEPH", "city": "POESTENKILL", "state": "NY", "zip": "12140-2715", "ntee": "G48", "ruling": "201408", "deductibility": "1", "assets": 0, "income": 0, "revenue": 0}, {"ein": "466428388", "name": "JOSEPH P AND COLLEEN M BRANDON FAMILY FOUNDATION", "city": "ALBANY", "state": "NY", "zip": "12212-5201", "ntee": "P12", "ruling": "202111", "deductibility": "1", "assets": 2632913, "income": 1445814, "revenue": 0}, {"ein": "471035983", "name": "NAZEE & JOSEPH MOINIAN FOUNDATION", "city": "NEW YORK", "state": "NY", "zip": "10019-8760", "ntee": "T20", "ruling": "201502", "deductibility": "1", "assets": 1, "income": 99670, "revenue": 0}, {"ein": "471484178", "name": "THE SEPHARDIC BIKUR HOLIM FUND IN MEMORY OF JOSEPH D BEYDA INC", "city": "BROOKLYN", "state": "NY", "zip": "11223-1629", "ntee": "F11", "ruling": "201411", "deductibility": "1", "assets": 5293407, "income": 287626, "revenue": 225655}, {"ein": "471841978", "name": "JOSEPH AVENUE ARTS AND CULTURE ALLIANCE INC", "city": "ROCHESTER", "state": "NY", "zip": "14603-3147", "ntee": "A61", "ruling": "201504", "deductibility": "1", "assets": 607669, "income": 218918, "revenue": 218918}, {"ein": "472574719", "name": "JOSEPH S EXPERIENCE INC", "city": "WHITESBORO", "state": "NY", "zip": "13492-0522", "ntee": "E86", "ruling": "201505", "deductibility": "1", "assets": 0, "income": 0, "revenue": 0}, {"ein": "473707020", "name": "PILGRIMAGES WITH ST JOSEPH THE PILGRIM", "city": "EAST MEADOW", "state": "NY", "zip": "11554-4535", "ntee": "P20", "ruling": "201508", "deductibility": "1", "assets": 0, "income": 0, "revenue": 0}, {"ein": "510180125", "name": "OHR JOSEPH RABBINICAL SEMINARY", "city": "NEW YORK", "state": "NY", "zip": "10001-3102", "ntee": "", "ruling": "197602", "deductibility": "1", "assets": 0, "income": 0, "revenue": 0}, {"ein": "510243469", "name": "VETERANS OF FOREIGN WARS OF THE U S 6239 VFW-NY JOSEPH M COLLINS", "city": "ALEXANDER", "state": "NY", "zip": "14005-9703", "ntee": "Z99", "ruling": "201406", "deductibility": "1", "assets": 0, "income": 0, "revenue": 0}, {"ein": "522256192", "name": "JOHN MARIE AND JOSEPH WHALEN FOUNDATION INC", "city": "TROY", "state": "NY", "zip": "12181-1302", "ntee": "T20", "ruling": "200208", "deductibility": "1", "assets": 5713743, "income": 5538386, "revenue": 0}, {"ein": "550862258", "name": "JOSEPH GHERALDI PLAYWRIGHT THEATRE", "city": "STATEN ISLAND", "state": "NY", "zip": "10314-6427", "ntee": "A65", "ruling": "201102", "deductibility": "1", "assets": 0, "income": 0, "revenue": 0}, {"ein": "562349419", "name": "JOSEPH MAFFEO FOUNDATION INC", "city": "STATEN ISLAND", "state": "NY", "zip": "10305-4900", "ntee": "T30", "ruling": "200407", "deductibility": "1", "assets": 193170, "income": 297983, "revenue": 297983}, {"ein": "562531360", "name": "LT JOSEPH G LEAVEY EDUCATIONAL FOUNDATION", "city": "PELHAM", "state": "NY", "zip": "10803-1424", "ntee": "B82", "ruling": "201510", "deductibility": "1", "assets": 0, "income": 0, "revenue": 0}, {"ein": "616624579", "name": "BENEFIT TRUST FOR CARE & SUPPORT PLAN DOMINICAN FRIARS ST JOSEPH", "city": "NEW YORK", "state": "NY", "zip": "10065-6618", "ntee": "", "ruling": "194603", "deductibility": "1", "assets": 0, "income": 0, "revenue": 0}, {"ein": "770648518", "name": "JOSEPH AND KATHERINE MACARI FOUNDATION INC", "city": "SOUTHOLD", "state": "NY", "zip": "11971-5102", "ntee": "T22", "ruling": "200703", "deductibility": "1", "assets": 4132832, "income": 1363949, "revenue": 0}, {"ein": "810586927", "name": "JOSEPH G VISCIANO MEMORIAL SCHOLARSHIP FUND", "city": "STATEN ISLAND", "state": "NY", "zip": "10308-2927", "ntee": "B82", "ruling": "200509", "deductibility": "1", "assets": 63155, "income": 30625, "revenue": 30625}, {"ein": "810828304", "name": "JOSEPH FERRISO MEMORIAL SCHOLARSHIP FUND INC", "city": "COPIAGUE", "state": "NY", "zip": "11726-3829", "ntee": "B82", "ruling": "201607", "deductibility": "1", "assets": 232288, "income": 83343, "revenue": 83343}, {"ein": "810905076", "name": "JOSEPH AND MOLLY BIEN FOUNDATION INC", "city": "WHITE PLAINS", "state": "NY", "zip": "10604-3536", "ntee": "T22", "ruling": "201908", "deductibility": "1", "assets": 2890012, "income": 5107399, "revenue": 0}, {"ein": "811083172", "name": "THE JOSEPH LOMBARDO MEMORIAL SCHOLARSHIP FOUNDATION INC", "city": "GLENDALE", "state": "NY", "zip": "11385-7733", "ntee": "B82", "ruling": "201601", "deductibility": "1", "assets": 109264, "income": 10288, "revenue": 674}, {"ein": "811942156", "name": "JOSEPH AHMED FOUNDATION INC", "city": "STATEN ISLAND", "state": "NY", "zip": "10303-2208", "ntee": "G30", "ruling": "202302", "deductibility": "1", "assets": 0, "income": 0, "revenue": 0}, {"ein": "812442602", "name": "ROMAN CATHOLIC CHURCH OF SAINT JOSEPH AND IMMACULATE CONCEPTION", "city": "MILLBROOK", "state": "NY", "zip": "12545-5951", "ntee": "", "ruling": "194603", "deductibility": "1", "assets": 0, "income": 0, "revenue": 0}, {"ein": "812486769", "name": "ROMAN CATHOLIC CHURCH OF SAINT JOSEPH IMMACULATE CONCEPTION AND S", "city": "STATEN ISLAND", "state": "NY", "zip": "10305-1714", "ntee": "", "ruling": "194603", "deductibility": "1", "assets": 0, "income": 0, "revenue": 0}, {"ein": "812847832", "name": "ROMAN CATHOLIC CHURCH OF SAINT MARY AND SAINT JOSEPH", "city": "POUGHKEEPSIE", "state": "NY", "zip": "12601-4262", "ntee": "", "ruling": "194603", "deductibility": "1", "assets": 0, "income": 0, "revenue": 0}, {"ein": "812984223", "name": "ROMAN CATHOLIC CHURCH OF SAINT SIMON STOCK AND SAINT JOSEPH", "city": "BRONX", "state": "NY", "zip": "10457-2201", "ntee": "", "ruling": "194603", "deductibility": "1", "assets": 0, "income": 0, "revenue": 0}, {"ein": "813281903", "name": "ROMAN CATHOLIC CHURCH OF SAINT GABRIEL AND SAINT JOSEPH", "city": "NEW ROCHELLE", "state": "NY", "zip": "10801-5507", "ntee": "", "ruling": "194603", "deductibility": "1", "assets": 0, "income": 0, "revenue": 0}, {"ein": "813847449", "name": "JOSEPH&MACHELA SINGER FOUNDATION", "city": "AIRMONT", "state": "NY", "zip": "10952-4324", "ntee": "T50", "ruling": "201902", "deductibility": "1", "assets": 267712, "income": 1, "revenue": 0}, {"ein": "823846671", "name": "JOSEPH V CARUANA MEMORIAL FOUNDATION INC", "city": "ROCKAWAY PARK", "state": "NY", "zip": "11694-1531", "ntee": "B82", "ruling": "201801", "deductibility": "1", "assets": 32424, "income": 14514, "revenue": 14514}, {"ein": "830892147", "name": "SISTERS OF ST JOSEPH FOUNDATION INC", "city": "WATERTOWN", "state": "NY", "zip": "13601-8365", "ntee": "T22", "ruling": "201907", "deductibility": "1", "assets": 1583470, "income": 131582, "revenue": 0}, {"ein": "832219427", "name": "JOSEPH LEMM MEMORIAL FOUNDATION LTD", "city": "PURCHASE", "state": "NY", "zip": "10577-1513", "ntee": "T12", "ruling": "202004", "deductibility": "1", "assets": 56055, "income": 176188, "revenue": 72331}, {"ein": "832298661", "name": "ST JOSEPH REGIONAL SCHOOL", "city": "BATAVIA", "state": "NY", "zip": "14020-2208", "ntee": "", "ruling": "194603", "deductibility": "1", "assets": 0, "income": 0, "revenue": 0}, {"ein": "832614900", "name": "JOSEPH M ROT FOUNDATION INC", "city": "HAUPPAUGE", "state": "NY", "zip": "11788-3101", "ntee": "P50", "ruling": "201812", "deductibility": "1", "assets": 0, "income": 0, "revenue": 0}, {"ein": "843582646", "name": "MARIE C AND JOSEPH C WILSON FOUNDATION INC", "city": "ROCHESTER", "state": "NY", "zip": "14620-1327", "ntee": "T20", "ruling": "202005", "deductibility": "1", "assets": 18674628, "income": 8392315, "revenue": 0}, {"ein": "843862477", "name": "KHAL BETH JOSEPH ZVI DUSHINSKY", "city": "BROOKLYN", "state": "NY", "zip": "11211-1864", "ntee": "X30", "ruling": "202207", "deductibility": "1", "assets": 0, "income": 0, "revenue": 0}, {"ein": "844099693", "name": "JOSEPH C AND PHYLLIS T CHARITABLE FOUNDATION INC", "city": "BELMONT", "state": "NY", "zip": "14813-1015", "ntee": "B82", "ruling": "202004", "deductibility": "1", "assets": 407400, "income": 405555, "revenue": 0}, {"ein": "844265994", "name": "DANA AND JOSEPH KEKST FAMILY FOUNDATION", "city": "NEW YORK", "state": "NY", "zip": "10028-3229", "ntee": "P99", "ruling": "202003", "deductibility": "1", "assets": 790935, "income": 15618, "revenue": 0}, {"ein": "851603288", "name": "JOSEPH PRISON TO PALACE PROGRAM INC", "city": "BROOKLYN", "state": "NY", "zip": "11203-5110", "ntee": "P20", "ruling": "202311", "deductibility": "1", "assets": 0, "income": 0, "revenue": 0}, {"ein": "852435832", "name": "JOSEPH AND LEAH AUSCH FOUNDATION INC", "city": "SPRING VALLEY", "state": "NY", "zip": "10977-3385", "ntee": "T20", "ruling": "202010", "deductibility": "1", "assets": 718132, "income": 118896, "revenue": 0}, {"ein": "854171307", "name": "JOSEPH SCHOLARSHIP FOUNDATION INC", "city": "FLUSHING", "state": "NY", "zip": "11358-2066", "ntee": "B82", "ruling": "202105", "deductibility": "1", "assets": 565647, "income": 24130, "revenue": 24130}, {"ein": "854206469", "name": "JOSEPH AND HELEN SPITZER FAMILY FOUNDATION INC", "city": "CHESTER", "state": "NY", "zip": "10918-1033", "ntee": "X30", "ruling": "202310", "deductibility": "1", "assets": 1000002, "income": 1000002, "revenue": 0}, {"ein": "861218951", "name": "JOSEPH AND BROCHA JACOB FOUNDATION", "city": "SUFFERN", "state": "NY", "zip": "10901-8218", "ntee": "T20", "ruling": "202106", "deductibility": "1", "assets": 588984, "income": 1, "revenue": 0}, {"ein": "871132808", "name": "JOSEPH P MCKENNA MARCH FORTH FOUNDATION INC", "city": "SMITHTOWN", "state": "NY", "zip": "11787-4843", "ntee": "P20", "ruling": "202109", "deductibility": "1", "assets": 10227, "income": 61234, "revenue": 20249}, {"ein": "871500800", "name": "ST JOSEPH STUDIO WORKSHOP INC", "city": "BROOKLYN", "state": "NY", "zip": "11225-2202", "ntee": "", "ruling": "194603", "deductibility": "1", "assets": 10776, "income": 193489, "revenue": 193489}, {"ein": "873933125", "name": "JOSEPH & RACHEL CHARITY FOUNDATION INC", "city": "MONSEY", "state": "NY", "zip": "10952-2107", "ntee": "X30", "ruling": "202112", "deductibility": "1", "assets": 10010, "income": 1, "revenue": 0}, {"ein": "874586090", "name": "JOSEPH & KATHLEEN CURATOLO FOUNDATION INC", "city": "WILLIAMSVILLE", "state": "NY", "zip": "14221-5338", "ntee": "T23", "ruling": "202204", "deductibility": "1", "assets": 68002, "income": 122744, "revenue": 0}, {"ein": "881243027", "name": "HOUSE OF JOSEPH FOUNDATION INC", "city": "REGO PARK", "state": "NY", "zip": "11374-2305", "ntee": "P20", "ruling": "202203", "deductibility": "1", "assets": 0, "income": 0, "revenue": 0}, {"ein": "900447301", "name": "SOCIETY OF SAINT VINCENT DE PAUL SACRED HEART ST JOSEPH", "city": "NEWBURGH", "state": "NY", "zip": "12550-5467", "ntee": "X22", "ruling": "201808", "deductibility": "1", "assets": 0, "income": 0, "revenue": 0}, {"ein": "911841186", "name": "JOSEPH MICHAEL WUEST MORRIS PARK", "city": "BRONX", "state": "NY", "zip": "10461-2240", "ntee": "Y99", "ruling": "201501", "deductibility": "2", "assets": 0, "income": 0, "revenue": 0}, {"ein": "912021298", "name": "JOSEPH R DALY FOUNDATION B", "city": "SAG HARBOR", "state": "NY", "zip": "11963-3552", "ntee": "T22Z", "ruling": "199711", "deductibility": "1", "assets": 751194, "income": 30333, "revenue": 0}, {"ein": "920690091", "name": "JOSEPH LAROSA JR FOUNDATION INC", "city": "SETAUKET", "state": "NY", "zip": "11733-0739", "ntee": "T30", "ruling": "202305", "deductibility": "1", "assets": 53233, "income": 144548, "revenue": 67754}, {"ein": "923354326", "name": "JOSEPH GABRIEL FOUNDATION", "city": "SCARSDALE", "state": "NY", "zip": "10583-2512", "ntee": "P30", "ruling": "202304", "deductibility": "1", "assets": 0, "income": 0, "revenue": 0}, {"ein": "923825912", "name": "JOSEPH CARADONNA SCHOLARSHIP FUND", "city": "NEW YORK", "state": "NY", "zip": "10016-3329", "ntee": "B43", "ruling": "202305", "deductibility": "1", "assets": 2170, "income": 23626, "revenue": 0}, {"ein": "931969242", "name": "THE SISTERS OF ST JOSEPH RETIREMENT FUND INC", "city": "WATERTOWN", "state": "NY", "zip": "13601-8368", "ntee": "", "ruling": "202401", "deductibility": "1", "assets": 18588703, "income": 1633245, "revenue": 1633245}, {"ein": "932179799", "name": "JOSEPH COTRONE FOUNDATION INC", "city": "MASSAPEQUA", "state": "NY", "zip": "11758-3442", "ntee": "H12", "ruling": "202309", "deductibility": "1", "assets": 0, "income": 0, "revenue": 0}, {"ein": "933009595", "name": "JOSEPH V FRAIOLI MEMORIAL FOUNDATION INC", "city": "POUND RIDGE", "state": "NY", "zip": "10576-1833", "ntee": "N12", "ruling": "202309", "deductibility": "1", "assets": 1, "income": 0, "revenue": 0}, {"ein": "933139831", "name": "JOSEPH AND MARGARETA GOLDZAL CHARITABLE FOUNDATION INC", "city": "BROOKLYN", "state": "NY", "zip": "11229-2515", "ntee": "B01", "ruling": "202309", "deductibility": "1", "assets": 2830001, "income": 3000001, "revenue": 0}, {"ein": "933673838", "name": "JOSEPH CHAMBRONE MEMORIAL FUND INC", "city": "ILION", "state": "NY", "zip": "13357-0000", "ntee": "E12", "ruling": "202311", "deductibility": "1", "assets": 0, "income": 0, "revenue": 0}, {"ein": "933681764", "name": "JOSEPH A DEVITO MEMORIAL FOUNDATION INC", "city": "WANTAGH", "state": "NY", "zip": "11793-0000", "ntee": "T12", "ruling": "202403", "deductibility": "1", "assets": 0, "income": 0, "revenue": 0}, {"ein": "934059904", "name": "JOSEPH A PORCO SCHOLARSHIP FOUNDATION INC", "city": "STONE RIDGE", "state": "NY", "zip": "12484-5304", "ntee": "T12", "ruling": "202505", "deductibility": "1", "assets": 0, "income": 0, "revenue": 0}, {"ein": "990773200", "name": "JOSEPH AND SUSAN PISACANO MEMORIAL FOUNDATION INC", "city": "MELVILLE", "state": "NY", "zip": "11747-6634", "ntee": "B82", "ruling": "202402", "deductibility": "1", "assets": 500, "income": 2500, "revenue": 0}, {"ein": "992010419", "name": "JOSEPH M SORG FOUNDATION INC", "city": "BUFFALO", "state": "NY", "zip": "14214-2602", "ntee": "A80", "ruling": "202409", "deductibility": "1", "assets": 0, "income": 0, "revenue": 0}, {"ein": "992773090", "name": "JOSEPH WILL ARISTIDE FOUNDATION INC", "city": "BROOKLYN", "state": "NY", "zip": "11225-3706", "ntee": "B90", "ruling": "202405", "deductibility": "1", "assets": 0, "income": 0, "revenue": 0}], "STUDIES": [{"ein": "010611443", "name": "CENTER FOR ADOPTION POLICY STUDIES INC", "city": "RYE", "state": "NY", "zip": "10580-4320", "ntee": "O05", "ruling": "200203", "deductibility": "1", "assets": 0, "income": 0, "revenue": 0}, {"ein": "020361150", "name": "AMERICAN COUNCIL FOR QUEBEC STUDIES", "city": "PLATTSBURGH", "state": "NY", "zip": "12901-2713", "ntee": "", "ruling": "198308", "deductibility": "1", "assets": 180346, "income": 19279, "revenue": 0}, {"ein": "020546483", "name": "ASSOCIATION FOR HEBRAIC STUDIES OHR REUVEN", "city": "SUFFERN", "state": "NY", "zip": "10901-2806", "ntee": "X30", "ruling": "200205", "deductibility": "1", "assets": 0, "income": 0, "revenue": 0}, {"ein": "042973109", "name": "SWEDISH PROGRAM IN ORGANIZATIONAL STUDIES AND POLICY INC", "city": "ALTAMONT", "state": "NY", "zip": "12009-5804", "ntee": "Q220", "ruling": "198905", "deductibility": "1", "assets": 2273353, "income": 3655631, "revenue": 3084158}, {"ein": "043004768", "name": "NEW ENGLAND AMERICAN STUDIES ASSOCIATION", "city": "LARCHMONT", "state": "NY", "zip": "10538-1521", "ntee": "B03", "ruling": "202501", "deductibility": "1", "assets": 0, "income": 0, "revenue": 0}, {"ein": "050548115", "name": "AMERICAN LABOR STUDIES CENTER INC", "city": "COHOES", "state": "NY", "zip": "12047-0000", "ntee": "B99", "ruling": "200306", "deductibility": "1", "assets": 502903, "income": 14120, "revenue": 13366}, {"ein": "061392628", "name": "INSTITUTE FOR PATENT STUDIES INC", "city": "ALBANY", "state": "NY", "zip": "12207-2922", "ntee": "V99", "ruling": "199408", "deductibility": "1", "assets": 1228837, "income": 236082, "revenue": 148207}, {"ein": "112209620", "name": "U S INTERNATIONAL FOUNDATION FOR STUDIES IN REPRODUCTION INC", "city": "PRT WASHINGTN", "state": "NY", "zip": "11050-1706", "ntee": "", "ruling": "197211", "deductibility": "1", "assets": 0, "income": 0, "revenue": 0}, {"ein": "112511069", "name": "RESEARCH CENTER FOR JUDAIC STUDIES", "city": "BROOKLYN", "state": "NY", "zip": "11219-2672", "ntee": "", "ruling": "198001", "deductibility": "1", "assets": 0, "income": 0, "revenue": 0}, {"ein": "112533311", "name": "LONG ISLAND STUDIES COUNCIL", "city": "UNIONDALE", "state": "NY", "zip": "11553-2106", "ntee": "", "ruling": "198007", "deductibility": "1", "assets": 0, "income": 0, "revenue": 0}, {"ein": "112553513", "name": "FOUNDATION FOR SEPHARDIC STUDIES INC", "city": "BROOKLYN", "state": "NY", "zip": "11223-3152", "ntee": "", "ruling": "198306", "deductibility": "1", "assets": 3826801, "income": 3005633, "revenue": 3005633}, {"ein": "112636425", "name": "INTERNATIONAL CENTER FOR MEDICINAL AND SCIENTIFIC STUDIES", "city": "JAMAICA", "state": "NY", "zip": "11433-3128", "ntee": "B90", "ruling": "201412", "deductibility": "1", "assets": 0, "income": 0, "revenue": 0}, {"ein": "112823514", "name": "SUFFOLK INSTITUTE FOR EASTERN STUDIES INC", "city": "STONY BROOK", "state": "NY", "zip": "11790-2410", "ntee": "", "ruling": "198809", "deductibility": "1", "assets": 0, "income": 0, "revenue": 0}, {"ein": "112890566", "name": "TAIWAN STUDIES INC", "city": "BROOKLYN", "state": "NY", "zip": "11237-5504", "ntee": "V99Z", "ruling": "198904", "deductibility": "1", "assets": 0, "income": 0, "revenue": 0}, {"ein": "112968736", "name": "TRADITIONAL JEWISH STUDIES CENTER INC", "city": "BROOKLYN", "state": "NY", "zip": "11219-4706", "ntee": "", "ruling": "198905", "deductibility": "1", "assets": 0, "income": 0, "revenue": 0}, {"ein": "113286353", "name": "PAN MACEDONIAN STUDIES CENTER INC", "city": "WHITESTONE", "state": "NY", "zip": "11357-1730", "ntee": "A23", "ruling": "201404", "deductibility": "1", "assets": 234221, "income": 40806, "revenue": 40806}, {"ein": "113297940", "name": "CENTER FOR ISLAMIC STUDIES", "city": "QUEENS VLG", "state": "NY", "zip": "11428-1069", "ntee": "X40", "ruling": "199905", "deductibility": "1", "assets": 0, "income": 0, "revenue": 0}, {"ein": "113505416", "name": "TORAH STUDIES NETWORK", "city": "LAWRENCE", "state": "NY", "zip": "11559-1303", "ntee": "X30", "ruling": "199912", "deductibility": "1", "assets": 0, "income": 0, "revenue": 0}, {"ein": "113594618", "name": "CENTER OF SPIRITIST STUDIES BOA NOVA", "city": "CORONA", "state": "NY", "zip": "11368-0000", "ntee": "X99", "ruling": "200403", "deductibility": "1", "assets": 0, "income": 0, "revenue": 0}, {"ein": "116104966", "name": "ROMEMAH INSTITUTE OF RABBINICS & COGNATE STUDIES", "city": "BROOKLYN", "state": "NY", "zip": "11229-1106", "ntee": "", "ruling": "196801", "deductibility": "1", "assets": 0, "income": 0, "revenue": 0}, {"ein": "131825916", "name": "AMERICAN FUND FOR CZECH AND SLOVAK LEADERSHIP STUDIES INC", "city": "NEW YORK", "state": "NY", "zip": "10021-3705", "ntee": "Q123", "ruling": "194809", "deductibility": "1", "assets": 14696, "income": 25000, "revenue": 25000}, {"ein": "132877889", "name": "THE NORTH AMERICAN CONFERENCE ON BRITISH STUDIES INC", "city": "BUFFALO", "state": "NY", "zip": "14260-4120", "ntee": "", "ruling": "199008", "deductibility": "1", "assets": 1330303, "income": 220905, "revenue": 220905}, {"ein": "132904286", "name": "POLICY STUDIES IN EDUCATION", "city": "NEW YORK", "state": "NY", "zip": "10028-0001", "ntee": "", "ruling": "197708", "deductibility": "1", "assets": 92, "income": 3, "revenue": 0}, {"ein": "132918238", "name": "CENTER FOR WAR-PEACE STUDIES INC", "city": "WOODSTOCK", "state": "NY", "zip": "12498-2016", "ntee": "Q400", "ruling": "197801", "deductibility": "1", "assets": 0, "income": 0, "revenue": 0}, {"ein": "132943335", "name": "CABIN CREEK CENTER FOR WORK AND ENVIRONMENTAL STUDIES INC", "city": "NEW YORK", "state": "NY", "zip": "10012-2607", "ntee": "A31Z", "ruling": "197908", "deductibility": "1", "assets": 292454, "income": 1020577, "revenue": 1020577}, {"ein": "132998311", "name": "COMMUNITY STUDIES INC", "city": "NEW YORK", "state": "NY", "zip": "10025-7313", "ntee": "", "ruling": "197911", "deductibility": "1", "assets": 164288, "income": 808710, "revenue": 808710}, {"ein": "133021938", "name": "NEW YORK CENTER FOR FINANCIAL STUDIES", "city": "NEW YORK", "state": "NY", "zip": "10016-5675", "ntee": "", "ruling": "198004", "deductibility": "1", "assets": 797075, "income": 44785, "revenue": 16517}, {"ein": "133206848", "name": "LABAN BARTENIEFF INSTITUTE OF MOVEMENT STUDIES INC", "city": "BROOKLYN", "state": "NY", "zip": "11217-1695", "ntee": "A6E0", "ruling": "198508", "deductibility": "1", "assets": 26220, "income": 182970, "revenue": 182970}, {"ein": "133242949", "name": "FOUNDATION FOR FAMILY HEALTH STUDIES", "city": "WHITE PLAINS", "state": "NY", "zip": "10601-4427", "ntee": "P40", "ruling": "202208", "deductibility": "1", "assets": 36210, "income": 2395, "revenue": 0}, {"ein": "133289551", "name": "ASSOCIATION FOR ISRAEL STUDIES INCORPORATED", "city": "NEW YORK", "state": "NY", "zip": "10018-0000", "ntee": "Q20", "ruling": "201408", "deductibility": "1", "assets": 125294, "income": 144716, "revenue": 144716}, {"ein": "133543235", "name": "THE CENTER FOR GROUP STUDIES", "city": "NEW YORK", "state": "NY", "zip": "10024-5511", "ntee": "A33Z", "ruling": "199008", "deductibility": "1", "assets": 261065, "income": 402015, "revenue": 402015}, {"ein": "133636988", "name": "INSTITUTE FOR CHILD ADOLESCENT & FAMILY STUDIES", "city": "NEW YORK", "state": "NY", "zip": "10014-3024", "ntee": "P62Z", "ruling": "199711", "deductibility": "1", "assets": 0, "income": 0, "revenue": 0}, {"ein": "133736055", "name": "COMMUNITY STUDIES OF NEW YORK INC", "city": "NEW YORK", "state": "NY", "zip": "10024-3142", "ntee": "", "ruling": "199411", "deductibility": "1", "assets": 0, "income": 0, "revenue": 0}, {"ein": "133771939", "name": "CENTER FOR RELIGION AND ADVANCED SPIRITUAL STUDIES INC", "city": "NEW YORK", "state": "NY", "zip": "10028-9653", "ntee": "X20", "ruling": "199409", "deductibility": "1", "assets": 239047, "income": 179405, "revenue": 179405}, {"ein": "134047751", "name": "INSTITUTE FOR DEMOCRACY STUDIES INC", "city": "EAST HAMPTON", "state": "NY", "zip": "11937-0906", "ntee": "V05", "ruling": "199904", "deductibility": "1", "assets": 288896, "income": 1482, "revenue": 0}, {"ein": "134078345", "name": "MEDIEVAL JAPANESE STUDIES FOUNDATION", "city": "NEW YORK", "state": "NY", "zip": "10023-8157", "ntee": "T22", "ruling": "200004", "deductibility": "1", "assets": 132001, "income": 69029, "revenue": 0}, {"ein": "134121784", "name": "INSTITUTE FOR STUDIES IN GLOBAL PROSPERITY INC", "city": "NEW YORK", "state": "NY", "zip": "10017-1833", "ntee": "T23", "ruling": "200106", "deductibility": "1", "assets": 17413, "income": 213640, "revenue": 0}, {"ein": "134184573", "name": "BUDDHIST THREE STUDIES SOCIETY INC", "city": "BRONX", "state": "NY", "zip": "10468-4103", "ntee": "X50", "ruling": "200203", "deductibility": "1", "assets": 0, "income": 0, "revenue": 0}, {"ein": "134203622", "name": "NORTHEAST AMERICAN SOCIETY FOR EIGHTEENTH-CENTURY STUDIES", "city": "ROCHESTER", "state": "NY", "zip": "14610-1703", "ntee": "A80", "ruling": "200401", "deductibility": "1", "assets": 0, "income": 0, "revenue": 0}, {"ein": "136018127", "name": "THE SOCIETY FOR CLASSICAL STUDIES", "city": "NEW YORK", "state": "NY", "zip": "10003-7112", "ntee": "B60", "ruling": "194606", "deductibility": "1", "assets": 9577087, "income": 1276038, "revenue": 1276038}, {"ein": "136162184", "name": "ZEN STUDIES SOCIETY INC", "city": "NEW YORK", "state": "NY", "zip": "10065-6002", "ntee": "", "ruling": "196005", "deductibility": "1", "assets": 0, "income": 0, "revenue": 0}, {"ein": "136167982", "name": "INSTITUTE FOR RELIGIOUS & SOCIAL STUDIES", "city": "NEW YORK", "state": "NY", "zip": "10027-4650", "ntee": "", "ruling": "195907", "deductibility": "1", "assets": 0, "income": 0, "revenue": 0}, {"ein": "141785594", "name": "MID HUDSON SOCIAL STUDIES COUNCIL", "city": "WASHINGTONVLE", "state": "NY", "zip": "10992-0563", "ntee": "B03", "ruling": "202311", "deductibility": "1", "assets": 0, "income": 0, "revenue": 0}, {"ein": "160991020", "name": "VISUAL STUDIES WORKSHOP INC", "city": "ROCHESTER", "state": "NY", "zip": "14607-1405", "ntee": "H41Z", "ruling": "199410", "deductibility": "1", "assets": 1532580, "income": 549015, "revenue": 542030}, {"ein": "161048413", "name": "RABBI JACOB H EPSTEIN SCHOOL OF JEWISH STUDIES INC", "city": "DEWITT", "state": "NY", "zip": "13214-0161", "ntee": "", "ruling": "197410", "deductibility": "1", "assets": 80031, "income": 74024, "revenue": 74024}, {"ein": "161167877", "name": "IRONDEQUOIT HEBREW STUDIES", "city": "ROCHESTER", "state": "NY", "zip": "14617-3435", "ntee": "", "ruling": "198305", "deductibility": "1", "assets": 0, "income": 0, "revenue": 0}, {"ein": "161405885", "name": "NAMGYAL MONASTERY INSTITUTE OF BUDDHIST STUDIES", "city": "ITHACA", "state": "NY", "zip": "14850-4235", "ntee": "", "ruling": "199204", "deductibility": "1", "assets": 0, "income": 0, "revenue": 0}, {"ein": "161497081", "name": "JEWISH STUDIES FOUNDATION INC", "city": "ROCHESTER", "state": "NY", "zip": "14609-4400", "ntee": "X30J", "ruling": "199607", "deductibility": "1", "assets": 109290, "income": 205829, "revenue": 205829}, {"ein": "161500454", "name": "THE T COLIN CAMPBELL CENTER FOR NUTRITION STUDIES", "city": "WEBSTER", "state": "NY", "zip": "14580-8792", "ntee": "T50Z", "ruling": "199705", "deductibility": "1", "assets": 1599360, "income": 1412279, "revenue": 0}, {"ein": "161546841", "name": "CENTER FOR CREATIVE AND SPIRITUAL STUDIES INC", "city": "PALENVILLE", "state": "NY", "zip": "12463-0299", "ntee": "Q21", "ruling": "199808", "deductibility": "1", "assets": 0, "income": 0, "revenue": 0}, {"ein": "161570444", "name": "FOOD STUDIES INSTITUTE INC", "city": "TRUMANSBURG", "state": "NY", "zip": "14886-9106", "ntee": "B02", "ruling": "199911", "deductibility": "1", "assets": 0, "income": 0, "revenue": 0}, {"ein": "161570830", "name": "FRIENDS OF TALMUDIC STUDIES INC", "city": "BROOKLYN", "state": "NY", "zip": "11223-3055", "ntee": "T20", "ruling": "199912", "deductibility": "1", "assets": 190355, "income": 131000, "revenue": 131000}, {"ein": "201545794", "name": "FIELD RESEARCH AND SCIENTIFIC STUDIES", "city": "DELMAR", "state": "NY", "zip": "12054-1029", "ntee": "A56", "ruling": "200506", "deductibility": "1", "assets": 0, "income": 0, "revenue": 0}, {"ein": "203507437", "name": "INTERNATIONAL ASSOCIATION FOR NEAR DEATH STUDIES INC", "city": "N SYRACUSE", "state": "NY", "zip": "13212-3609", "ntee": "V20", "ruling": "201408", "deductibility": "1", "assets": 0, "income": 0, "revenue": 0}, {"ein": "208204947", "name": "SOCIETY FOR EMPIRICAL LEGAL STUDIES", "city": "ITHACA", "state": "NY", "zip": "14853-0000", "ntee": "B50", "ruling": "201103", "deductibility": "1", "assets": 0, "income": 0, "revenue": 0}, {"ein": "222542042", "name": "CAPITAL DISTRICT COUNCIL FOR THE SOCIAL STUDIES", "city": "LATHAM", "state": "NY", "zip": "12110-8842", "ntee": "B01", "ruling": "201705", "deductibility": "1", "assets": 0, "income": 0, "revenue": 0}, {"ein": "222553787", "name": "WESTFIELD CENTER FOR HISTORICAL KEYBOARD STUDIES INC", "city": "ITHACA", "state": "NY", "zip": "14853-4101", "ntee": "", "ruling": "198702", "deductibility": "1", "assets": 0, "income": 0, "revenue": 0}, {"ein": "222594099", "name": "PARDES INSTITUTE OF JEWISH STUDIES NORTH AMERICA INC", "city": "NEW YORK", "state": "NY", "zip": "10003-1502", "ntee": "Q113", "ruling": "198512", "deductibility": "1", "assets": 13759909, "income": 4934032, "revenue": 4306789}, {"ein": "223223194", "name": "CENTER FOR SYMBOLIC STUDIES INC", "city": "NEW PALTZ", "state": "NY", "zip": "12561-0000", "ntee": "A20", "ruling": "199304", "deductibility": "1", "assets": 0, "income": 0, "revenue": 0}, {"ein": "223232968", "name": "CARY INSTITUTE OF ECOSYSTEM STUDIES INC", "city": "MILLBROOK", "state": "NY", "zip": "12545-5721", "ntee": "C050", "ruling": "199306", "deductibility": "1", "assets": 148335462, "income": 17831979, "revenue": 9510039}, {"ein": "237004865", "name": "AMERICAN INSTITUTE OF IRANIAN STUDIES", "city": "NEW YORK", "state": "NY", "zip": "10024-3708", "ntee": "Q220", "ruling": "196812", "deductibility": "1", "assets": 502400, "income": 205130, "revenue": 205130}, {"ein": "237036022", "name": "CENTER FOR MIGRATION STUDIES OF NEW YORK INC", "city": "NEW YORK", "state": "NY", "zip": "10022-1832", "ntee": "V25Z", "ruling": "197007", "deductibility": "1", "assets": 1008903, "income": 701310, "revenue": 645130}, {"ein": "237069473", "name": "NEW YORK STATE COUNCIL FOR THE SOCIAL STUDIES", "city": "MONTICELLO", "state": "NY", "zip": "12701-0921", "ntee": "", "ruling": "197006", "deductibility": "1", "assets": 288957, "income": 143534, "revenue": 143534}, {"ein": "237078939", "name": "ASSOCIATION FOR JEWISH STUDIES INC", "city": "NEW YORK", "state": "NY", "zip": "10018-1879", "ntee": "B58C", "ruling": "197110", "deductibility": "1", "assets": 2976580, "income": 1100422, "revenue": 1100422}, {"ein": "237092461", "name": "CENTER FOR CUBAN STUDIES INC", "city": "BROOKLYN", "state": "NY", "zip": "11201-8301", "ntee": "V33Z", "ruling": "197101", "deductibility": "1", "assets": 480991, "income": 499530, "revenue": 434407}, {"ein": "237233306", "name": "OMEGA INSTITUTE FOR HOLISTIC STUDIES INC", "city": "RHINEBECK", "state": "NY", "zip": "12572-3252", "ntee": "B400", "ruling": "197209", "deductibility": "1", "assets": 26368804, "income": 17159936, "revenue": 16514349}, {"ein": "237330983", "name": "AMERICAN INSTITUTE OF BUDDHIST STUDIES INC", "city": "NEW YORK", "state": "NY", "zip": "10027-0000", "ntee": "", "ruling": "197411", "deductibility": "1", "assets": 0, "income": 0, "revenue": 0}, {"ein": "237347292", "name": "CENTER FOR MODERN PSYCHOANALYTIC STUDIES", "city": "NEW YORK", "state": "NY", "zip": "10011-8707", "ntee": "F32Z", "ruling": "197405", "deductibility": "1", "assets": 2203084, "income": 1362288, "revenue": 993696}, {"ein": "237385641", "name": "LIGHT WORK VISUAL STUDIES INC", "city": "SYRACUSE", "state": "NY", "zip": "13210-2437", "ntee": "A400", "ruling": "197405", "deductibility": "1", "assets": 2777183, "income": 553305, "revenue": 536080}, {"ein": "237417959", "name": "LONG ISLAND COUNCIL FOR THE SOCIAL STUDIES", "city": "MEDFORD", "state": "NY", "zip": "11763-0112", "ntee": "", "ruling": "197412", "deductibility": "2", "assets": 0, "income": 0, "revenue": 0}, {"ein": "262755241", "name": "INSTITUTE FOR DEPRESSION STUDIES AND TREATMENT", "city": "NEW YORK", "state": "NY", "zip": "10016-0000", "ntee": "G12", "ruling": "200810", "deductibility": "1", "assets": 454878, "income": 6565, "revenue": 0}, {"ein": "263352962", "name": "INSTITUTE FOR CRITICAL ANIMAL STUDIES INC", "city": "BINGHAMTON", "state": "NY", "zip": "13902-0965", "ntee": "D99", "ruling": "201405", "deductibility": "1", "assets": 0, "income": 0, "revenue": 0}, {"ein": "270844094", "name": "CENTER FOR STUDIES IN GLOBAL CHRISTIANITY INC", "city": "NYACK", "state": "NY", "zip": "10960-4205", "ntee": "X20", "ruling": "201012", "deductibility": "1", "assets": 1607318, "income": 1046298, "revenue": 1046298}, {"ein": "272851336", "name": "AFRICAN CENTER FOR JUSTICE AND PEACE STUDIES", "city": "NEW YORK", "state": "NY", "zip": "10021-8824", "ntee": "Q30", "ruling": "201301", "deductibility": "1", "assets": 301890, "income": 862575, "revenue": 862575}, {"ein": "273016838", "name": "JEWISH STUDIES ENRICHMENT INC", "city": "BROOKLYN", "state": "NY", "zip": "11204-1425", "ntee": "X30", "ruling": "201010", "deductibility": "1", "assets": 165968, "income": 1089504, "revenue": 1089504}, {"ein": "273846145", "name": "HOFFBERGER FUND FOR BIBLICAL STUDIES LTD", "city": "NEW CITY", "state": "NY", "zip": "10956-5146", "ntee": "X20", "ruling": "201202", "deductibility": "1", "assets": 524734, "income": 3103657, "revenue": 3035729}, {"ein": "274510956", "name": "AMERICAN INSTITUTE FOR INDONESIAN STUDIES INC", "city": "ITHACA", "state": "NY", "zip": "14850-0000", "ntee": "Q23", "ruling": "201104", "deductibility": "1", "assets": 172734, "income": 190785, "revenue": 190785}, {"ein": "300085525", "name": "FRIENDS OF THE BKLYN NEW SCHOOL- BKLYN SCHOOL FOR COLLAB STUDIES", "city": "BROOKLYN", "state": "NY", "zip": "11231-2612", "ntee": "Z99", "ruling": "200206", "deductibility": "1", "assets": 309099, "income": 234415, "revenue": 234415}, {"ein": "311309789", "name": "CZECHOSLOVAK STUDIES ASSOCIATION", "city": "LONG IS CITY", "state": "NY", "zip": "11101-4703", "ntee": "A82Z", "ruling": "199012", "deductibility": "1", "assets": 0, "income": 0, "revenue": 0}, {"ein": "311653391", "name": "INSTITUTE OF RELIGIOUS STUDIES BET MIDRASH LATORAH", "city": "NEW YORK", "state": "NY", "zip": "10021-2941", "ntee": "X30", "ruling": "199912", "deductibility": "1", "assets": 0, "income": 0, "revenue": 0}, {"ein": "364946785", "name": "CUNY SCHOOL OF LABOR AND URBAN STUDIES FOUNDATION INC", "city": "NEW YORK", "state": "NY", "zip": "10036-7410", "ntee": "B12", "ruling": "202006", "deductibility": "1", "assets": 1302006, "income": 529930, "revenue": 412275}, {"ein": "383719352", "name": "SHANGHAI INITIATIVE FOR ADVANCED STUDIES LTD", "city": "SUFFERN", "state": "NY", "zip": "10901-2403", "ntee": "B99", "ruling": "201407", "deductibility": "1", "assets": 0, "income": 0, "revenue": 0}, {"ein": "392060792", "name": "THE NYC LAB MIDDLE SCHOOL FOR COLLABORATIVE STUDIES PARENTS", "city": "NEW YORK", "state": "NY", "zip": "10011-5001", "ntee": "B94", "ruling": "200803", "deductibility": "1", "assets": 213010, "income": 176422, "revenue": 150038}, {"ein": "412069206", "name": "INSTITUTE FOR ARCHITECTURE AND URBAN STUDIES-NY INC", "city": "NEW YORK", "state": "NY", "zip": "10014-3381", "ntee": "B43", "ruling": "200309", "deductibility": "1", "assets": 0, "income": 0, "revenue": 0}, {"ein": "452318579", "name": "CARIBBEAN STUDIES ASSOCIATION INC", "city": "NEW YORK", "state": "NY", "zip": "10010-0000", "ntee": "A23", "ruling": "201205", "deductibility": "1", "assets": 0, "income": 0, "revenue": 0}, {"ein": "452579691", "name": "CUNY SCHOOL OF PROFESSIONAL STUDIES FOUNDATION INC", "city": "NEW YORK", "state": "NY", "zip": "10001-3400", "ntee": "B11", "ruling": "201202", "deductibility": "1", "assets": 936562, "income": 376120, "revenue": 376120}, {"ein": "462358669", "name": "ASSOCIATION FOR PHILOSOPHICAL STUDIES OF NEW YORK INC", "city": "NEW YORK", "state": "NY", "zip": "10018-8054", "ntee": "T30", "ruling": "201608", "deductibility": "1", "assets": 91351, "income": 162476, "revenue": 162476}, {"ein": "462465164", "name": "TORAH CENTER FOR HIGHER RABBINICAL STUDIES INC", "city": "BROOKLYN", "state": "NY", "zip": "11210-3743", "ntee": "X80", "ruling": "201408", "deductibility": "1", "assets": 205647, "income": 6954636, "revenue": 6954636}, {"ein": "463604359", "name": "ASSOCIATION FOR COROPLASTIC STUDIES", "city": "NEW YORK CITY", "state": "NY", "zip": "10025-4125", "ntee": "A03", "ruling": "201606", "deductibility": "1", "assets": 0, "income": 0, "revenue": 0}, {"ein": "464008270", "name": "NEW YORK CONFERENCE ON ASIAN STUDIES NYCAS INC", "city": "KEW GARDENS", "state": "NY", "zip": "11415-2129", "ntee": "B90", "ruling": "201412", "deductibility": "1", "assets": 0, "income": 0, "revenue": 0}, {"ein": "471989816", "name": "OLGA LENGYEL INSTITUTE FOR HOLOCAUST STUDIES AND HUMAN RIGHTS", "city": "NEW YORK", "state": "NY", "zip": "10075-0221", "ntee": "B99", "ruling": "201411", "deductibility": "1", "assets": 34946, "income": 787311, "revenue": 787311}, {"ein": "474114386", "name": "ROSENTHAL CENTER FOR ADDICTION STUDIES INC", "city": "NEW YORK", "state": "NY", "zip": "10022-3902", "ntee": "F05", "ruling": "201602", "deductibility": "1", "assets": 495313, "income": 987795, "revenue": 880538}, {"ein": "475378213", "name": "WESTCHESTER LOWER HUDSON COUNCIL FOR THE SOCIAL STUDIES INC", "city": "IRVINGTON", "state": "NY", "zip": "10533-2313", "ntee": "B03", "ruling": "201510", "deductibility": "1", "assets": 0, "income": 0, "revenue": 0}, {"ein": "510176395", "name": "TORAH INSTITUTE FOR RABBINIC STUDIES", "city": "LONG BEACH", "state": "NY", "zip": "11561-4119", "ntee": "", "ruling": "196904", "deductibility": "1", "assets": 0, "income": 0, "revenue": 0}, {"ein": "582015580", "name": "VISITORS STUDIES ASSOCIATION INC", "city": "ALBANY", "state": "NY", "zip": "12205-1418", "ntee": "B99Z", "ruling": "199305", "deductibility": "1", "assets": 29047, "income": 96153, "revenue": 96153}, {"ein": "592062409", "name": "CENTER FOR ADVANCED INTERNATIONAL STUDIES INC", "city": "HAMILTON", "state": "NY", "zip": "13346-2636", "ntee": "B40", "ruling": "202303", "deductibility": "1", "assets": 0, "income": 0, "revenue": 0}, {"ein": "651233607", "name": "CRIMINAL JUSTICE STUDIES-TECHNICAL EDUCATION CAREER INSTRUCTORS ASSN", "city": "MILLER PLACE", "state": "NY", "zip": "11764-3215", "ntee": "I50", "ruling": "200611", "deductibility": "1", "assets": 0, "income": 0, "revenue": 0}, {"ein": "753107769", "name": "FOUNDATION FOR HUMAN MOVEMENT STUDIES INC", "city": "HUDSON", "state": "NY", "zip": "12534-3624", "ntee": "E70", "ruling": "200312", "deductibility": "1", "assets": 79697, "income": 86145, "revenue": 86145}, {"ein": "770666412", "name": "INTERNATIONAL ASSOCIATION OF LITERARY JOURNALISM STUDIES INC", "city": "WOODSTOCK", "state": "NY", "zip": "12498-2512", "ntee": "B03", "ruling": "202407", "deductibility": "1", "assets": 75755, "income": 13126, "revenue": 13126}, {"ein": "812337098", "name": "CENTER FOR STUDIES OF JEWISH HERITAGE OF KASTORIA INC", "city": "ASTORIA", "state": "NY", "zip": "11102-4328", "ntee": "A20", "ruling": "201610", "deductibility": "1", "assets": 9745, "income": 0, "revenue": 0}, {"ein": "813041443", "name": "GLOBAL INSTITUTE FOR SIKH STUDIES", "city": "RICHMOND HILL", "state": "NY", "zip": "11418-1078", "ntee": "A23", "ruling": "201705", "deductibility": "1", "assets": 11756, "income": 1300, "revenue": 1300}, {"ein": "815312682", "name": "SOCIAL STUDIES 101", "city": "SYRACUSE", "state": "NY", "zip": "13215-2445", "ntee": "A20", "ruling": "201710", "deductibility": "1", "assets": 187046, "income": 25015, "revenue": 25015}, {"ein": "830991554", "name": "CONSORTIUM FOR INTERNATIONAL STUDIES INC", "city": "BROOKLYN", "state": "NY", "zip": "11230-5711", "ntee": "X30", "ruling": "201911", "deductibility": "1", "assets": 4015, "income": 112219, "revenue": 112219}, {"ein": "831533054", "name": "AMERICAN ASSOCIATION FOR UKRAINIAN STUDIES", "city": "NEW YORK", "state": "NY", "zip": "10003-5202", "ntee": "B01", "ruling": "202003", "deductibility": "1", "assets": 0, "income": 0, "revenue": 0}, {"ein": "832751853", "name": "LATIN AMERICAN STUDIES FOR THE PROFESSIONS INC", "city": "PLATTSBURGH", "state": "NY", "zip": "12901-2542", "ntee": "T01", "ruling": "201908", "deductibility": "1", "assets": 702308, "income": 390135, "revenue": 0}, {"ein": "842143420", "name": "FRIENDS OF BROOKLYN COLLABORATIVE STUDIES INC", "city": "BROOKLYN", "state": "NY", "zip": "11231-2612", "ntee": "B94", "ruling": "202306", "deductibility": "1", "assets": 0, "income": 0, "revenue": 0}, {"ein": "842402777", "name": "MASORET INSTITUTE OF JUDAIC STUDIES INC", "city": "HEWLETT", "state": "NY", "zip": "11557-1520", "ntee": "X30", "ruling": "202006", "deductibility": "1", "assets": 123750, "income": 100090, "revenue": 100090}, {"ein": "844023178", "name": "WASHINGTON CENTER FOR YEMENI STUDIES INC", "city": "BROOKLYN", "state": "NY", "zip": "11231-4740", "ntee": "Q05", "ruling": "202111", "deductibility": "1", "assets": 12691, "income": 124478, "revenue": 124478}, {"ein": "851553880", "name": "SOCIETY OF SINOPHONE STUDIES", "city": "STONY BROOK", "state": "NY", "zip": "11794-0001", "ntee": "B03", "ruling": "202207", "deductibility": "1", "assets": 0, "income": 0, "revenue": 0}, {"ein": "852246393", "name": "HIMALAYAN CULTURAL STUDIES CENTER INC", "city": "JACKSON HTS", "state": "NY", "zip": "11372-6623", "ntee": "", "ruling": "202108", "deductibility": "1", "assets": 33, "income": 30134, "revenue": 30134}, {"ein": "852688298", "name": "LE SALLAY & MARABOU INTERNATIONAL STUDIES INC", "city": "CROTON HDSN", "state": "NY", "zip": "10520-2428", "ntee": "B82", "ruling": "202109", "deductibility": "1", "assets": 0, "income": 396034, "revenue": 396034}, {"ein": "852896305", "name": "NEW YORK INSTITUTE FOR THE HUMANITIES AND SOCIAL STUDIES INC", "city": "NEW YORK", "state": "NY", "zip": "10029-1307", "ntee": "A05", "ruling": "202101", "deductibility": "1", "assets": 0, "income": 0, "revenue": 0}, {"ein": "861791257", "name": "INTERNATIONAL GRADUATE STUDIES INC", "city": "YORKTOWN HTS", "state": "NY", "zip": "10598-6637", "ntee": "B80", "ruling": "202108", "deductibility": "1", "assets": 2832, "income": 48720, "revenue": 48720}, {"ein": "861861965", "name": "KAMINSKI CENTER FOR PSYCHIATRY AND OTHERNESS STUDIES INC", "city": "NEW YORK", "state": "NY", "zip": "10028-0311", "ntee": "F31", "ruling": "202109", "deductibility": "1", "assets": 440, "income": 8542, "revenue": 8542}, {"ein": "863626578", "name": "PTA OF THE HIGH SCHOOL FOR ENVIRONMENTAL STUDIES INC", "city": "NEW YORK", "state": "NY", "zip": "10019-3602", "ntee": "B94", "ruling": "202201", "deductibility": "1", "assets": 0, "income": 0, "revenue": 0}, {"ein": "863881770", "name": "VIACHESLAV KUTUZOV FOUNDATION OF POLITICAL STUDIES LTD", "city": "NEW YORK", "state": "NY", "zip": "10006-3757", "ntee": "V24", "ruling": "202108", "deductibility": "1", "assets": 0, "income": 0, "revenue": 0}, {"ein": "873691702", "name": "BLACK STUDIES FOR THE HOOD INC", "city": "NEW YORK", "state": "NY", "zip": "10027-4444", "ntee": "P20", "ruling": "202202", "deductibility": "1", "assets": 0, "income": 0, "revenue": 0}, {"ein": "900540994", "name": "FOUNDATION FOR MALE STUDIES INC", "city": "WHITE PLAINS", "state": "NY", "zip": "10605-1440", "ntee": "B99", "ruling": "201008", "deductibility": "1", "assets": 0, "income": 0, "revenue": 0}, {"ein": "911829549", "name": "IROQUOIS STUDIES ASSOCIATION INC", "city": "JOHNSON CITY", "state": "NY", "zip": "13790-4633", "ntee": "A230", "ruling": "198106", "deductibility": "1", "assets": 0, "income": 0, "revenue": 0}, {"ein": "911997608", "name": "JOURNAL OF AYN RAND STUDIES FOUNDATION", "city": "BROOKLYN", "state": "NY", "zip": "11229-4061", "ntee": "A70", "ruling": "200001", "deductibility": "1", "assets": 0, "income": 0, "revenue": 0}, {"ein": "921342926", "name": "GREAT LAKES INSTITUTE FOR STRATEGIC STUDIES INC", "city": "NEW YORK", "state": "NY", "zip": "10075-2318", "ntee": "Q05", "ruling": "202311", "deductibility": "1", "assets": 0, "income": 0, "revenue": 0}, {"ein": "921382312", "name": "DESIGN STUDIES INSTITUTE INC", "city": "NEW YORK", "state": "NY", "zip": "10019-4585", "ntee": "A05", "ruling": "202301", "deductibility": "1", "assets": 0, "income": 0, "revenue": 0}, {"ein": "921510582", "name": "GCI CENTER FOR THEOLOGICAL STUDIES INC", "city": "UNIONDALE", "state": "NY", "zip": "11553-3003", "ntee": "X20", "ruling": "202303", "deductibility": "1", "assets": 0, "income": 0, "revenue": 0}, {"ein": "923023271", "name": "ACADEMY OF AMERICAN STUDIES PARENT TEACHER ASSOCIATION INC", "city": "NEW YORK", "state": "NY", "zip": "10001-4252", "ntee": "B94", "ruling": "202310", "deductibility": "1", "assets": 0, "income": 0, "revenue": 0}, {"ein": "930880109", "name": "SOCIETY FOR DISABILITY STUDIES", "city": "DELMAR", "state": "NY", "zip": "12054-3213", "ntee": "P03", "ruling": "202109", "deductibility": "1", "assets": 55781, "income": 26037, "revenue": 26037}, {"ein": "934388911", "name": "MINDFUL STUDIES", "city": "SCARSDALE", "state": "NY", "zip": "10583-2321", "ntee": "O50", "ruling": "202312", "deductibility": "1", "assets": 0, "income": 0, "revenue": 0}, {"ein": "934668490", "name": "HISTORICAL STUDIES GROUP NEW YORK INC", "city": "NEW YORK", "state": "NY", "zip": "10036-5904", "ntee": "A23", "ruling": "202403", "deductibility": "1", "assets": 0, "income": 0, "revenue": 0}], "MOISHE": [{"ein": "010786617", "name": "CONGREGATION KEREN VYOEL MOISHE", "city": "MONROE", "state": "NY", "zip": "10950-2924", "ntee": "X30", "ruling": "200310", "deductibility": "1", "assets": 0, "income": 0, "revenue": 0}, {"ein": "050589772", "name": "MOISHE ZUPNICK CHARITABLE TR", "city": "BROOKLYN", "state": "NY", "zip": "11211-8919", "ntee": "T20", "ruling": "201503", "deductibility": "1", "assets": 107837, "income": 116260, "revenue": 0}, {"ein": "112514870", "name": "CONGREGATION BAIS MOISHE D KAALEV INC", "city": "BROOKLYN", "state": "NY", "zip": "11211-8101", "ntee": "", "ruling": "198001", "deductibility": "1", "assets": 0, "income": 0, "revenue": 0}, {"ein": "112608559", "name": "CONGREGATION BNAI MOISHE INC", "city": "BROOKLYN", "state": "NY", "zip": "11211-7911", "ntee": "", "ruling": "198208", "deductibility": "1", "assets": 0, "income": 0, "revenue": 0}, {"ein": "113112103", "name": "BAIS MOISHE INC", "city": "BROOKLYN", "state": "NY", "zip": "11210-3714", "ntee": "", "ruling": "199209", "deductibility": "1", "assets": 0, "income": 0, "revenue": 0}, {"ein": "113384161", "name": "CONGREGATION YESHIVA YAD MOISHE", "city": "BROOKLYN", "state": "NY", "zip": "11218-4414", "ntee": "X30Z", "ruling": "199707", "deductibility": "1", "assets": 0, "income": 0, "revenue": 0}, {"ein": "113404502", "name": "KEREN ZICHRON MOISHE SOBEL INC", "city": "NEW YORK", "state": "NY", "zip": "10116-0033", "ntee": "X30", "ruling": "199712", "deductibility": "1", "assets": 0, "income": 0, "revenue": 0}, {"ein": "113447366", "name": "ZICHRON MOISHE YAKOV FOUNDATION", "city": "BROOKLYN", "state": "NY", "zip": "11219-5017", "ntee": "T20", "ruling": "199901", "deductibility": "1", "assets": 119761, "income": 441000, "revenue": 0}, {"ein": "113636171", "name": "CONGREGATION BEIRACH MOISHE INC", "city": "BROOKLYN", "state": "NY", "zip": "11211-0000", "ntee": "X30", "ruling": "200802", "deductibility": "1", "assets": 0, "income": 0, "revenue": 0}, {"ein": "116036649", "name": "REB MOISHE ROSEN FUND INC", "city": "NEW YORK", "state": "NY", "zip": "10016-1001", "ntee": "", "ruling": "196408", "deductibility": "1", "assets": 242739, "income": 685004, "revenue": 0}, {"ein": "133616966", "name": "KEREN CHASDEI MOISHE", "city": "BROOKLYN", "state": "NY", "zip": "11210-3714", "ntee": "", "ruling": "199108", "deductibility": "1", "assets": 0, "income": 0, "revenue": 0}, {"ein": "133778503", "name": "CONGREGATION GEMACH CHASDEI MOISHE", "city": "SPRING VALLEY", "state": "NY", "zip": "10977-1907", "ntee": "X99Z", "ruling": "199506", "deductibility": "1", "assets": 0, "income": 0, "revenue": 0}, {"ein": "200797653", "name": "CONGREGATION IMRAY MOISHE", "city": "SPRING VALLEY", "state": "NY", "zip": "10977-1907", "ntee": "X30", "ruling": "200505", "deductibility": "1", "assets": 0, "income": 0, "revenue": 0}, {"ein": "200805968", "name": "CONGREGATION NACHLAS MOISHE", "city": "BROOKLYN", "state": "NY", "zip": "11211-8726", "ntee": "X99", "ruling": "200403", "deductibility": "1", "assets": 0, "income": 0, "revenue": 0}, {"ein": "204541876", "name": "MOISHE ARYEH LEHON TOMCHEI SHABBOSFUND", "city": "NEW YORK", "state": "NY", "zip": "10002-4181", "ntee": "P99", "ruling": "201407", "deductibility": "1", "assets": 0, "income": 0, "revenue": 0}, {"ein": "222453421", "name": "MESAMCHE LEV-VIYOEL MOISHE INC", "city": "BROOKLYN", "state": "NY", "zip": "11219-3878", "ntee": "", "ruling": "198307", "deductibility": "1", "assets": 0, "income": 0, "revenue": 0}, {"ein": "432053354", "name": "MOISHE JACOBOWITZ CHARITABLE FOUNDATION", "city": "NEW YORK", "state": "NY", "zip": "10018-5704", "ntee": "T20", "ruling": "200508", "deductibility": "1", "assets": 69636, "income": 8200, "revenue": 0}, {"ein": "472252638", "name": "CONG BNEI MOISHE OF N S INC", "city": "SPRING VALLEY", "state": "NY", "zip": "10977-1923", "ntee": "X30", "ruling": "201503", "deductibility": "1", "assets": 0, "income": 0, "revenue": 0}, {"ein": "472722321", "name": "ZICHRON MOISHE AND NAFTULE", "city": "BROOKLYN", "state": "NY", "zip": "11204-2130", "ntee": "T12", "ruling": "201501", "deductibility": "1", "assets": 16161, "income": 26971, "revenue": 26971}, {"ein": "810910709", "name": "MOISHE GOLDSTEIN FOUNDATION", "city": "MONROE", "state": "NY", "zip": "10950-6016", "ntee": "T20", "ruling": "201604", "deductibility": "1", "assets": 99, "income": 1, "revenue": 0}, {"ein": "830625950", "name": "CONG PNIE MOISHE INC", "city": "MONROE", "state": "NY", "zip": "10950-6191", "ntee": "X30", "ruling": "201903", "deductibility": "1", "assets": 0, "income": 0, "revenue": 0}, {"ein": "872908625", "name": "YESHIVAH YESHUOIS MOISHE VIZNITZ", "city": "MONSEY", "state": "NY", "zip": "10952-0911", "ntee": "X30", "ruling": "202209", "deductibility": "1", "assets": 0, "income": 0, "revenue": 0}, {"ein": "933554759", "name": "CONGREGATION OHEL MOISHE", "city": "CHESTNUT RDG", "state": "NY", "zip": "10977-7226", "ntee": "X30", "ruling": "202407", "deductibility": "1", "assets": 0, "income": 0, "revenue": 0}], "LAHAK": [{"ein": "010890941", "name": "LAHAK HANOCHOS INC", "city": "BROOKLYN", "state": "NY", "zip": "11213-4301", "ntee": "X80", "ruling": "201008", "deductibility": "1", "assets": 1384843, "income": 1618935, "revenue": 1618935}], "VELIBA": [{"ein": "030521415", "name": "ZICHRON SHAUL VELIBA BAUM CHARITABLE FUND INC", "city": "BROOKLYN", "state": "NY", "zip": "11230-4119", "ntee": "T20", "ruling": "200503", "deductibility": "1", "assets": 222560, "income": 20157, "revenue": 0}], "BETHANY": [{"ein": "050562324", "name": "BETHANY ELEVATION COMMUNITY CHURCH", "city": "FLUSHING", "state": "NY", "zip": "11355-2337", "ntee": "X21", "ruling": "200308", "deductibility": "1", "assets": 0, "income": 0, "revenue": 0}, {"ein": "112341436", "name": "BETHANY BAPTIST CHURCH OF BROOKLYN INC", "city": "BROOKLYN", "state": "NY", "zip": "11216-2529", "ntee": "", "ruling": "199109", "deductibility": "1", "assets": 0, "income": 0, "revenue": 0}, {"ein": "112525884", "name": "BETHANY CHRISTIAN CHURCH INC", "city": "BROOKLYN", "state": "NY", "zip": "11237-1619", "ntee": "", "ruling": "196408", "deductibility": "1", "assets": 0, "income": 0, "revenue": 0}, {"ein": "112538705", "name": "BETHANY BAPTIST CHURCH", "city": "JAMAICA", "state": "NY", "zip": "11433-3613", "ntee": "X20Z", "ruling": "199705", "deductibility": "1", "assets": 0, "income": 0, "revenue": 0}, {"ein": "112615511", "name": "BETHANY MISSIONARY BAPTIST CHURCH", "city": "NIAGARA FALLS", "state": "NY", "zip": "14305-0068", "ntee": "", "ruling": "198211", "deductibility": "1", "assets": 0, "income": 0, "revenue": 0}, {"ein": "112750129", "name": "BETHANY LUTHERAN CHURCH", "city": "ELMHURST", "state": "NY", "zip": "11373-4027", "ntee": "", "ruling": "198804", "deductibility": "1", "assets": 0, "income": 0, "revenue": 0}, {"ein": "112848726", "name": "BETHANY HOUSE OF NASSAU COUNTY CORPORATION", "city": "NORTH BALDWIN", "state": "NY", "zip": "11510-1324", "ntee": "L410", "ruling": "199312", "deductibility": "1", "assets": 4437877, "income": 2977132, "revenue": 2882248}, {"ein": "112884741", "name": "BETHANY FRENCH BAPTIST CHURCH", "city": "ELMONT", "state": "NY", "zip": "11003-3501", "ntee": "", "ruling": "198908", "deductibility": "1", "assets": 0, "income": 0, "revenue": 0}, {"ein": "113292135", "name": "WAYSIDE BETHANY ASSEMBLY CHURCH OF GOD", "city": "UNIONDALE", "state": "NY", "zip": "11553-2218", "ntee": "X20Z", "ruling": "199603", "deductibility": "1", "assets": 0, "income": 0, "revenue": 0}, {"ein": "113473174", "name": "BETHANY HERMITAGE INC", "city": "MASTIC BEACH", "state": "NY", "zip": "11951-1111", "ntee": "X22", "ruling": "200003", "deductibility": "1", "assets": 0, "income": 0, "revenue": 0}, {"ein": "113485180", "name": "BETHANY APOSTOLIC CHURCH", "city": "FAR ROCKAWAY", "state": "NY", "zip": "11691-2650", "ntee": "X21", "ruling": "200505", "deductibility": "1", "assets": 0, "income": 0, "revenue": 0}, {"ein": "131656611", "name": "BETHANY MEMORIAL REFORMED CHURCH", "city": "NEW YORK", "state": "NY", "zip": "10021-5706", "ntee": "", "ruling": "198601", "deductibility": "1", "assets": 0, "income": 0, "revenue": 0}, {"ein": "132720535", "name": "BETHANY BAPTIST CHURCH", "city": "NEW YORK", "state": "NY", "zip": "10039-1503", "ntee": "", "ruling": "198806", "deductibility": "1", "assets": 0, "income": 0, "revenue": 0}, {"ein": "132732818", "name": "BETHANY DAY NURSERY INC", "city": "NEW YORK", "state": "NY", "zip": "10039-1903", "ntee": "P33", "ruling": "201908", "deductibility": "1", "assets": 808467, "income": 834478, "revenue": 821111}, {"ein": "133121213", "name": "BETHANY CHRISTIAN CHURCH", "city": "NEW YORK", "state": "NY", "zip": "10029-0278", "ntee": "", "ruling": "196408", "deductibility": "1", "assets": 0, "income": 0, "revenue": 0}, {"ein": "133566723", "name": "ROBERT & BETHANY MILLARD CHARITABLE FOUNDATION", "city": "ALBANY", "state": "NY", "zip": "12203-3710", "ntee": "", "ruling": "199104", "deductibility": "1", "assets": 7604155, "income": 492222, "revenue": 0}, {"ein": "134070992", "name": "BETHANY-DEVELOPMENT OUTREACH HOUSING DEVELOPMENT FUND CORP", "city": "NEW YORK", "state": "NY", "zip": "10027-5675", "ntee": "P75", "ruling": "200004", "deductibility": "1", "assets": 2688723, "income": 1874606, "revenue": 0}, {"ein": "134166270", "name": "BETHANY II HOUSING DEVELOPMENT FUND CORP", "city": "NEW YORK", "state": "NY", "zip": "10027-5675", "ntee": "L20", "ruling": "202005", "deductibility": "1", "assets": 3741829, "income": 645011, "revenue": 0}, {"ein": "134168094", "name": "BETHANY MARTHOMA CHURCH", "city": "ORANGEBURG", "state": "NY", "zip": "10962-1128", "ntee": "X21", "ruling": "200207", "deductibility": "1", "assets": 0, "income": 0, "revenue": 0}, {"ein": "141583447", "name": "BETHANY CHAPEL INC C O J DYRUD", "city": "GARRISON", "state": "NY", "zip": "10524-0194", "ntee": "", "ruling": "197705", "deductibility": "1", "assets": 0, "income": 0, "revenue": 0}, {"ein": "141617599", "name": "BETHANY EVANGICAL LUTHERAN CHURCH", "city": "CENTRAL BRG", "state": "NY", "zip": "12035-0273", "ntee": "", "ruling": "198804", "deductibility": "1", "assets": 0, "income": 0, "revenue": 0}, {"ein": "141807401", "name": "BETHANY MINISTRIES", "city": "MIDDLEBURGH", "state": "NY", "zip": "12122-0432", "ntee": "", "ruling": "194603", "deductibility": "0", "assets": 0, "income": 0, "revenue": 0}, {"ein": "146018848", "name": "BETHANY REFORMED CHURCH OF ALBANY", "city": "ALBANY", "state": "NY", "zip": "12208-1741", "ntee": "", "ruling": "198601", "deductibility": "1", "assets": 0, "income": 0, "revenue": 0}, {"ein": "156019151", "name": "BETHANY BAPTIST CHURCH", "city": "SYRACUSE", "state": "NY", "zip": "13224-1101", "ntee": "", "ruling": "199304", "deductibility": "1", "assets": 0, "income": 0, "revenue": 0}, {"ein": "160988865", "name": "BETHANY RETIREMENT HOME INC", "city": "HORSEHEADS", "state": "NY", "zip": "14845-1800", "ntee": "P750", "ruling": "197101", "deductibility": "1", "assets": 10447250, "income": 7784036, "revenue": 7082166}, {"ein": "161066328", "name": "BETHANY CAMP INC", "city": "SINCLAIRVILLE", "state": "NY", "zip": "14782-9718", "ntee": "", "ruling": "197810", "deductibility": "1", "assets": 0, "income": 0, "revenue": 0}, {"ein": "161076692", "name": "BETHANY VOLUNTEER FIRE CO INC", "city": "EAST BETHANY", "state": "NY", "zip": "14054-9625", "ntee": "M24", "ruling": "200802", "deductibility": "1", "assets": 2158858, "income": 144271, "revenue": 135338}, {"ein": "161102248", "name": "BETHANY EVANGELICAL LUTHERAN CHURCH", "city": "ELMIRA", "state": "NY", "zip": "14904-1157", "ntee": "", "ruling": "198804", "deductibility": "1", "assets": 0, "income": 0, "revenue": 0}, {"ein": "161173197", "name": "BETHANY BAPTIST CHURCH", "city": "ROCHESTER", "state": "NY", "zip": "14613-2319", "ntee": "", "ruling": "198209", "deductibility": "1", "assets": 0, "income": 0, "revenue": 0}, {"ein": "161371036", "name": "BETHANY SPIRITUAL CHURCH OF GOD", "city": "ROCHESTER", "state": "NY", "zip": "14608-2326", "ntee": "X21", "ruling": "200605", "deductibility": "1", "assets": 0, "income": 0, "revenue": 0}, {"ein": "161570750", "name": "THE BETHANY CENTER FOR NONVIOLENT THEOLOGY AND SPIRITUALITY", "city": "SYRACUSE", "state": "NY", "zip": "13205-3044", "ntee": "X20", "ruling": "201502", "deductibility": "1", "assets": 0, "income": 0, "revenue": 0}, {"ein": "166029975", "name": "BETHANY LUTHERAN CHURCH", "city": "OLEAN", "state": "NY", "zip": "14760-1155", "ntee": "", "ruling": "198804", "deductibility": "1", "assets": 0, "income": 0, "revenue": 0}, {"ein": "202019814", "name": "ORCHARD HOMES AT BETHANY VILLAGE INC", "city": "HORSEHEADS", "state": "NY", "zip": "14845-1800", "ntee": "L22", "ruling": "200702", "deductibility": "1", "assets": 14003535, "income": 885520, "revenue": 885520}, {"ein": "222209119", "name": "BETHANY VILLAGE HOUSING DEVELOPMENT FUND COMPANY INC", "city": "W COXSACKIE", "state": "NY", "zip": "12192-9702", "ntee": "L20Z", "ruling": "197808", "deductibility": "1", "assets": 2526678, "income": 1132254, "revenue": 1132254}, {"ein": "222238087", "name": "BETHANY SENIOR CITIZENS HOUSING INC", "city": "HORSEHEADS", "state": "NY", "zip": "14845-1800", "ntee": "P750", "ruling": "197903", "deductibility": "1", "assets": 735795, "income": 293680, "revenue": 293680}, {"ein": "222850706", "name": "BETHANY HOUSE INC", "city": "ROCHESTER", "state": "NY", "zip": "14621-3415", "ntee": "L41Z", "ruling": "198802", "deductibility": "1", "assets": 566763, "income": 299282, "revenue": 299282}, {"ein": "223490383", "name": "ESTONIAN BETHANY CHURCH INC", "city": "NEW YORK", "state": "NY", "zip": "10016-4104", "ntee": "X99Z", "ruling": "199710", "deductibility": "1", "assets": 0, "income": 0, "revenue": 0}, {"ein": "237216359", "name": "BETHANY LODGE ENDOWMENT FUND LODGE 8-21", "city": "BLACK RIVER", "state": "NY", "zip": "13612-2146", "ntee": "", "ruling": "197301", "deductibility": "2", "assets": 0, "income": 0, "revenue": 0}, {"ein": "237419199", "name": "BETHANY LUTHERAN BRETHREN CHURCH", "city": "STATEN ISLAND", "state": "NY", "zip": "10314-2337", "ntee": "X21", "ruling": "202403", "deductibility": "1", "assets": 0, "income": 0, "revenue": 0}, {"ein": "256409964", "name": "RUTH D MILLER TR UW FBO BETHANY ORPHANS HOME FOR CHILDREN", "city": "BUFFALO", "state": "NY", "zip": "14240-1504", "ntee": "T20", "ruling": "200609", "deductibility": "1", "assets": 902741, "income": 269407, "revenue": 0}, {"ein": "256480484", "name": "RUBY F SNYDER CTW FBO BETHANY UNITED METHODIST CHURCH", "city": "AMHERST", "state": "NY", "zip": "14228-2307", "ntee": "T20I", "ruling": "199604", "deductibility": "1", "assets": 229759, "income": 64666, "revenue": 0}, {"ein": "256497018", "name": "LOUISE C HENCH TW FBO BETHANY CHILDRENS HOME", "city": "BUFFALO", "state": "NY", "zip": "14240-1504", "ntee": "T22J", "ruling": "199607", "deductibility": "1", "assets": 952943, "income": 329656, "revenue": 0}, {"ein": "256523497", "name": "FLORENCE H FLUKE TW FBO BETHANY VILLAGE CARE ASSURANCE FUND TR", "city": "BUFFALO", "state": "NY", "zip": "14240-1504", "ntee": "T112", "ruling": "200106", "deductibility": "1", "assets": 374219, "income": 117919, "revenue": 0}, {"ein": "256702275", "name": "GEORGE D AND DOROTHY S BOWERS TW FBO BETHANY U M CHURCH", "city": "BUFFALO", "state": "NY", "zip": "14240-1504", "ntee": "X11", "ruling": "200107", "deductibility": "1", "assets": 104006, "income": 32126, "revenue": 0}, {"ein": "262015865", "name": "BETHANY SPIRITUALITY CENTER INC", "city": "HIGHLAND MLS", "state": "NY", "zip": "10930-3130", "ntee": "", "ruling": "194603", "deductibility": "1", "assets": 0, "income": 0, "revenue": 0}, {"ein": "262505580", "name": "BETHANY INDO CHURCH OF NEW YORK", "city": "WOODHAVEN", "state": "NY", "zip": "11368-0000", "ntee": "X20", "ruling": "201401", "deductibility": "1", "assets": 0, "income": 0, "revenue": 0}, {"ein": "464377011", "name": "CORNELL BETHANY KOREAN CHURCH", "city": "ITHACA", "state": "NY", "zip": "14850-1682", "ntee": "X20", "ruling": "201509", "deductibility": "1", "assets": 0, "income": 0, "revenue": 0}, {"ein": "474061891", "name": "BETHANY ARTS COMMUNITY INC", "city": "OSSINING", "state": "NY", "zip": "10562-3107", "ntee": "A20", "ruling": "201508", "deductibility": "1", "assets": 3707523, "income": 948970, "revenue": 942925}, {"ein": "510191763", "name": "BETHANY NURSING HOME AND HEALTH RELATED FACILITY INC", "city": "HORSEHEADS", "state": "NY", "zip": "14845-1800", "ntee": "E91Z", "ruling": "197712", "deductibility": "1", "assets": 7664219, "income": 11864309, "revenue": 11864309}, {"ein": "510433711", "name": "BRONX BETHANY COMMUNITY CORPORATION", "city": "BRONX", "state": "NY", "zip": "10466-4620", "ntee": "P28", "ruling": "200401", "deductibility": "1", "assets": 59791, "income": 149250, "revenue": 149250}, {"ein": "550795774", "name": "BETHANY CHRISTIAN CHURCH", "city": "NEW HYDE PARK", "state": "NY", "zip": "11040-0000", "ntee": "X21", "ruling": "200308", "deductibility": "1", "assets": 0, "income": 0, "revenue": 0}, {"ein": "824104043", "name": "BETHANY HOSPITALITY KITCHEN LTD", "city": "CENTRAL ISLIP", "state": "NY", "zip": "11722-0056", "ntee": "K30", "ruling": "201804", "deductibility": "1", "assets": 0, "income": 0, "revenue": 0}], "COPIAGUE": [{"ein": "061263311", "name": "COPIAGUE YOUTH LEAGUES INC", "city": "COPIAGUE", "state": "NY", "zip": "11726-0005", "ntee": "O23Z", "ruling": "199603", "deductibility": "1", "assets": 58673, "income": 174008, "revenue": 169824}, {"ein": "112510094", "name": "THE FULL GOSPEL CHRISTIAN CHURCH OF COPIAGUE NY", "city": "COPIAGUE", "state": "NY", "zip": "11726-1645", "ntee": "", "ruling": "198808", "deductibility": "1", "assets": 0, "income": 0, "revenue": 0}, {"ein": "112681261", "name": "SAINT JOHNS BAPTIST CHURCH OF COPIAGUE NEW YORK", "city": "COPIAGUE", "state": "NY", "zip": "11726-1421", "ntee": "X21", "ruling": "200008", "deductibility": "1", "assets": 0, "income": 0, "revenue": 0}, {"ein": "113064372", "name": "COPIAGUE CHAMBER OF COMMERCE", "city": "COPIAGUE", "state": "NY", "zip": "11726-0008", "ntee": "S41", "ruling": "200904", "deductibility": "2", "assets": 76705, "income": 104190, "revenue": 104190}, {"ein": "113427565", "name": "COPIAGUE CHRISTIAN CHURCH", "city": "COPIAGUE", "state": "NY", "zip": "11726-4430", "ntee": "P20", "ruling": "199903", "deductibility": "1", "assets": 1549898, "income": 313759, "revenue": 313759}, {"ein": "237332990", "name": "THE COPIAGUE POST VFW 9482 INC", "city": "COPIAGUE", "state": "NY", "zip": "11726-3016", "ntee": "", "ruling": "201504", "deductibility": "1", "assets": 0, "income": 0, "revenue": 0}, {"ein": "464234071", "name": "FRIENDS OF THE COPIAGUE PUBLIC LIBRARY INC", "city": "COPIAGUE", "state": "NY", "zip": "11726-4103", "ntee": "B70", "ruling": "201503", "deductibility": "1", "assets": 0, "income": 0, "revenue": 0}, {"ein": "542170352", "name": "IGLESIA PENTECOSTAL REFUGIO DE SALVACION DE COPIAGUE INC", "city": "FARMINGDALE", "state": "NY", "zip": "11735-5600", "ntee": "X21", "ruling": "202303", "deductibility": "1", "assets": 570452, "income": 211916, "revenue": 211916}, {"ein": "992697715", "name": "WALTER G O CONNELL COPIAGUE HIGH SCHOOL BAND PARENTS ORGANIZATION", "city": "COPIAGUE", "state": "NY", "zip": "11726-1814", "ntee": "B12", "ruling": "202405", "deductibility": "1", "assets": 0, "income": 0, "revenue": 0}], "SKY": [{"ein": "061794159", "name": "SKY IS NOT LIMITED", "city": "WYNANTSKILL", "state": "NY", "zip": "12198-7512", "ntee": "Q30", "ruling": "200711", "deductibility": "1", "assets": 0, "income": 0, "revenue": 0}, {"ein": "133473726", "name": "SKY LIGHT CENTER INCORPORATED", "city": "STATEN ISLAND", "state": "NY", "zip": "10301-1805", "ntee": "F320", "ruling": "198808", "deductibility": "1", "assets": 452386, "income": 2635825, "revenue": 2635825}, {"ein": "133945632", "name": "BLUE SKY ASIAN-AMERICAN RESEARCH FOUNDATION INC", "city": "NEW YORK", "state": "NY", "zip": "10027-4711", "ntee": "O99", "ruling": "199710", "deductibility": "1", "assets": 0, "income": 0, "revenue": 0}, {"ein": "270464021", "name": "SKY-ROVERS FLYING CLUB INC", "city": "CLIFTON SPGS", "state": "NY", "zip": "14432-0075", "ntee": "N50", "ruling": "202507", "deductibility": "1", "assets": 0, "income": 0, "revenue": 0}, {"ein": "333625635", "name": "WINTER SKY INDEPENDENT INC", "city": "OWEGO", "state": "NY", "zip": "13827-1524", "ntee": "A60", "ruling": "202503", "deductibility": "1", "assets": 0, "income": 0, "revenue": 0}, {"ein": "450524971", "name": "SKY EDUCATION & WORLD COMMUNITY CENTER INC", "city": "SAYVILLE", "state": "NY", "zip": "11782-2723", "ntee": "", "ruling": "200405", "deductibility": "1", "assets": 593278, "income": 142722, "revenue": 0}, {"ein": "473885269", "name": "THE SKY IS THE LIMIT INC", "city": "BROOKLYN", "state": "NY", "zip": "11212-6862", "ntee": "P20", "ruling": "201708", "deductibility": "1", "assets": 0, "income": 0, "revenue": 0}, {"ein": "611753255", "name": "CASTLES IN THE SKY INC", "city": "HAMPTON BAYS", "state": "NY", "zip": "11946-2320", "ntee": "F80", "ruling": "201505", "deductibility": "1", "assets": 0, "income": 0, "revenue": 0}, {"ein": "810764483", "name": "SKY HIGH FARM INC", "city": "PINE PLAINS", "state": "NY", "zip": "12567-9764", "ntee": "K30", "ruling": "201604", "deductibility": "1", "assets": 4917507, "income": 4453250, "revenue": 4453250}, {"ein": "822345813", "name": "SKY BLUE DREAMS", "city": "RYE", "state": "NY", "zip": "10580-3309", "ntee": "E50", "ruling": "202403", "deductibility": "1", "assets": 0, "income": 0, "revenue": 0}, {"ein": "831892653", "name": "BRIELLE SKY FOUNDATION INC", "city": "OSSINING", "state": "NY", "zip": "10562-3404", "ntee": "T01", "ruling": "201809", "deductibility": "1", "assets": 0, "income": 0, "revenue": 0}, {"ein": "832224068", "name": "ORANGE SKY USA LIMITED", "city": "NEW YORK", "state": "NY", "zip": "10036-6524", "ntee": "P85", "ruling": "201910", "deductibility": "1", "assets": 0, "income": 0, "revenue": 0}, {"ein": "833131566", "name": "NEW YORK SKY BLUES INC", "city": "NEW YORK", "state": "NY", "zip": "10012-0000", "ntee": "N12", "ruling": "202208", "deductibility": "1", "assets": 0, "income": 0, "revenue": 0}, {"ein": "861233736", "name": "SKY HIGH ADVENTURE CENTER INC", "city": "AVERILL PARK", "state": "NY", "zip": "12018-2516", "ntee": "W99", "ruling": "202103", "deductibility": "1", "assets": 634229, "income": 151561, "revenue": 137387}, {"ein": "921142062", "name": "BRIGHT SKY FOUNDATION", "city": "SPRING VALLEY", "state": "NY", "zip": "10977-1406", "ntee": "T22", "ruling": "202301", "deductibility": "1", "assets": 43693, "income": 15000, "revenue": 0}, {"ein": "990804781", "name": "LAND IN THE SKY CATHOLIC FUND", "city": "WINDHAM", "state": "NY", "zip": "12496-1116", "ntee": "X22", "ruling": "202404", "deductibility": "1", "assets": 0, "income": 0, "revenue": 0}, {"ein": "991041978", "name": "SKY IS YOUR FOUNDATION INC", "city": "STATEN ISLAND", "state": "NY", "zip": "10314-3783", "ntee": "A12", "ruling": "202402", "deductibility": "1", "assets": 0, "income": 0, "revenue": 0}], "VISITORS": [{"ein": "100001221", "name": "BUFFALO NIAGARA CONVENTION & VISITORS BUREAU FOUNDATION", "city": "BUFFALO", "state": "NY", "zip": "14203-2107", "ntee": "A112", "ruling": "200211", "deductibility": "1", "assets": 0, "income": 0, "revenue": 0}, {"ein": "141755666", "name": "NORTHERN NEW YORK VISITORS HOSPITALITY CENTERS", "city": "MALONE", "state": "NY", "zip": "12953-0685", "ntee": "P20Z", "ruling": "199401", "deductibility": "1", "assets": 20748, "income": 72136, "revenue": 72136}, {"ein": "141759736", "name": "ALBANY COUNTY CONVENTION & VISITORS BUREAU EDUCATION FOUNDATION", "city": "ALBANY", "state": "NY", "zip": "12207-2311", "ntee": "B80Z", "ruling": "199308", "deductibility": "1", "assets": 64950, "income": 4482, "revenue": 4482}, {"ein": "141768361", "name": "WHITEFACE MOUNTAIN REGIONAL VISITORS BUREAU INC", "city": "WILMINGTON", "state": "NY", "zip": "12997-0277", "ntee": "", "ruling": "199507", "deductibility": "2", "assets": 86598, "income": 129855, "revenue": 85413}, {"ein": "141799350", "name": "SULLIVAN COUNTY VISITORS ASSOCIATION", "city": "FERNDALE", "state": "NY", "zip": "12734-0000", "ntee": "", "ruling": "199903", "deductibility": "0", "assets": 2471367, "income": 3268450, "revenue": 3268450}, {"ein": "141852196", "name": "HAMPTONS VISITORS COUNCIL INC", "city": "EAST QUOGUE", "state": "NY", "zip": "11942-4137", "ntee": "S41", "ruling": "201502", "deductibility": "2", "assets": 0, "income": 0, "revenue": 0}, {"ein": "160611680", "name": "GREATER ROCHESTER VISITORS ASSOCIATION INC", "city": "ROCHESTER", "state": "NY", "zip": "14604-2225", "ntee": "", "ruling": "196401", "deductibility": "2", "assets": 1422523, "income": 4415772, "revenue": 4148908}, {"ein": "161454737", "name": "CORTLAND COUNTY CONVENTION & VISITORS BUREAU INC", "city": "CORTLAND", "state": "NY", "zip": "13045-2684", "ntee": "S99", "ruling": "200904", "deductibility": "1", "assets": 358728, "income": 681022, "revenue": 681022}, {"ein": "161464229", "name": "STEUBEN COUNTY CONFERENCE AND VISITORS BUREAU INC", "city": "CORNING", "state": "NY", "zip": "14830-2680", "ntee": "", "ruling": "000000", "deductibility": "2", "assets": 762579, "income": 1204416, "revenue": 1204416}, {"ein": "161491272", "name": "CAYUGA COUNTY CONVENTION AND VISITORS BUREAU INC", "city": "AUBURN", "state": "NY", "zip": "13021-3929", "ntee": "S40", "ruling": "200303", "deductibility": "1", "assets": 908539, "income": 1193184, "revenue": 1193184}, {"ein": "222553580", "name": "CONVENTION AND VISITORS BUREAU OF ONEIDA COUNTY INC", "city": "UTICA", "state": "NY", "zip": "13503-0551", "ntee": "", "ruling": "198510", "deductibility": "2", "assets": 747461, "income": 1061330, "revenue": 1061330}, {"ein": "510233241", "name": "ALBANY COUNTY CONVENTION & VISITORS BUREAU INC", "city": "ALBANY", "state": "NY", "zip": "12207-2311", "ntee": "", "ruling": "198001", "deductibility": "2", "assets": 2362571, "income": 2295638, "revenue": 2120636}, {"ein": "582015580", "name": "VISITORS STUDIES ASSOCIATION INC", "city": "ALBANY", "state": "NY", "zip": "12205-1418", "ntee": "B99Z", "ruling": "199305", "deductibility": "1", "assets": 29047, "income": 96153, "revenue": 96153}, {"ein": "810579108", "name": "FRIENDS OF SALMON RIVER VISITORS CENTER AND INTERNATIONAL SPORT", "city": "CENTRAL SQ", "state": "NY", "zip": "13036-3476", "ntee": "A50", "ruling": "200304", "deductibility": "1", "assets": 129704, "income": 140173, "revenue": 54172}, {"ein": "912052551", "name": "ASSOCIATION OF CONVENTION & VISITORS BUREAU OF NEW YORK STATE", "city": "ROCHESTER", "state": "NY", "zip": "14604-2225", "ntee": "S41", "ruling": "200009", "deductibility": "2", "assets": 69779, "income": 483642, "revenue": 483642}], "CAMBRIA": [{"ein": "111733457", "name": "CAMBRIA HEIGHTS COMMUNITY CHURCH", "city": "CAMBRIA HTS", "state": "NY", "zip": "11411-1607", "ntee": "", "ruling": "198601", "deductibility": "1", "assets": 0, "income": 0, "revenue": 0}, {"ein": "112789513", "name": "CAMBRIA HEIGHTS CIVIC ASSOCIATION INC", "city": "CAMBRIA HTS", "state": "NY", "zip": "11411-0007", "ntee": "S22", "ruling": "201102", "deductibility": "2", "assets": 0, "income": 0, "revenue": 0}, {"ein": "161146149", "name": "CAMBRIA VOLUNTEER FIRE CO", "city": "LOCKPORT", "state": "NY", "zip": "14094-9796", "ntee": "M24", "ruling": "200902", "deductibility": "1", "assets": 0, "income": 521107, "revenue": 450376}, {"ein": "237436147", "name": "ALPHA PHI ALPHA SENIOR CITIZENS CENTER INC CAMBRIA HEIGHTS COMMUN", "city": "CAMBRIA HTS", "state": "NY", "zip": "11411-1620", "ntee": "", "ruling": "197506", "deductibility": "1", "assets": 1299752, "income": 1169623, "revenue": 1169623}, {"ein": "237448492", "name": "CAMBRIA HEIGHTS GOSPEL CHAPEL INC", "city": "CAMBRIA HTS", "state": "NY", "zip": "11411-1623", "ntee": "", "ruling": "197505", "deductibility": "1", "assets": 0, "income": 0, "revenue": 0}, {"ein": "270150186", "name": "CAMBRIA SCHOOL OF EXCELLENCE INC", "city": "CAMBRIA HTS", "state": "NY", "zip": "11411-1842", "ntee": "B24", "ruling": "201003", "deductibility": "1", "assets": 873473, "income": 304615, "revenue": 304615}, {"ein": "384248318", "name": "CAMBRIA HISTORICAL SOCIETY", "city": "SANBORN", "state": "NY", "zip": "14132-9416", "ntee": "A54", "ruling": "202401", "deductibility": "1", "assets": 0, "income": 0, "revenue": 0}, {"ein": "843642882", "name": "CAMBRIA OPPOSITION TO INDUSTRIAL SOLAR INC", "city": "SANBORN", "state": "NY", "zip": "14132-9463", "ntee": "C34", "ruling": "202101", "deductibility": "2", "assets": 0, "income": 0, "revenue": 0}], "AIM": [{"ein": "112207752", "name": "AIM INNOVATION INC", "city": "JAMAICA", "state": "NY", "zip": "11434-1019", "ntee": "A20", "ruling": "201903", "deductibility": "1", "assets": 289401, "income": 0, "revenue": 0}, {"ein": "113456448", "name": "AIM HIGH CHILDRENS SERVICES", "city": "BROOKLYN", "state": "NY", "zip": "11226-4301", "ntee": "P82", "ruling": "200403", "deductibility": "1", "assets": 2486125, "income": 5465753, "revenue": 5465753}, {"ein": "134149817", "name": "AIM B YISROEL INC", "city": "NEW SQUARE", "state": "NY", "zip": "10977-8917", "ntee": "P40", "ruling": "200505", "deductibility": "1", "assets": 11887760, "income": 10844940, "revenue": 10844940}, {"ein": "141609398", "name": "AIM SERVICES INC", "city": "SARATOGA SPGS", "state": "NY", "zip": "12866-2927", "ntee": "P73Z", "ruling": "198003", "deductibility": "1", "assets": 30957315, "income": 91889616, "revenue": 90854937}, {"ein": "470904812", "name": "CONGREGATION AIM HA BA NIM", "city": "BROOKLYN", "state": "NY", "zip": "11229-1101", "ntee": "X30", "ruling": "200303", "deductibility": "1", "assets": 0, "income": 0, "revenue": 0}, {"ein": "823901156", "name": "AIM COMMUNITY LIVING INC", "city": "CORNING", "state": "NY", "zip": "14830-2924", "ntee": "L20", "ruling": "202003", "deductibility": "1", "assets": 1554677, "income": 77067, "revenue": 77067}, {"ein": "832450096", "name": "AHS AIM HABONIM INC", "city": "MONROE", "state": "NY", "zip": "10950-2970", "ntee": "G12", "ruling": "201902", "deductibility": "1", "assets": 0, "income": 0, "revenue": 0}, {"ein": "832725238", "name": "AIM HIRE INC", "city": "NEW YORK", "state": "NY", "zip": "10007-3001", "ntee": "J01", "ruling": "201903", "deductibility": "1", "assets": 254028, "income": 366293, "revenue": 295577}, {"ein": "832804035", "name": "GIRLS WHO AIM INC", "city": "WHITE PLAINS", "state": "NY", "zip": "10605-0000", "ntee": "A99", "ruling": "202004", "deductibility": "1", "assets": 800, "income": 0, "revenue": 0}, {"ein": "851703773", "name": "AIM PROJECTS INC", "city": "SAG HARBOR", "state": "NY", "zip": "11963-1735", "ntee": "T70", "ruling": "202103", "deductibility": "1", "assets": 0, "income": 0, "revenue": 0}, {"ein": "851778092", "name": "AIM HIGHER INC", "city": "WEST HURLEY", "state": "NY", "zip": "12491-5137", "ntee": "A70", "ruling": "202009", "deductibility": "1", "assets": 0, "income": 0, "revenue": 0}, {"ein": "872289320", "name": "AIM HABONIM", "city": "LAWRENCE", "state": "NY", "zip": "11559-1720", "ntee": "B12", "ruling": "202202", "deductibility": "1", "assets": 0, "income": 0, "revenue": 0}, {"ein": "882003710", "name": "LEV AIM INC", "city": "STATEN ISLAND", "state": "NY", "zip": "10314-4107", "ntee": "X30", "ruling": "202301", "deductibility": "1", "assets": 0, "income": 0, "revenue": 0}, {"ein": "994037092", "name": "AIM ROBOTICS INC", "city": "NEW YORK", "state": "NY", "zip": "10128-1675", "ntee": "U40", "ruling": "202407", "deductibility": "1", "assets": 0, "income": 0, "revenue": 0}], "MOLEH": [{"ein": "112473104", "name": "YESHIVAS AND CONGREGATION OHR MOLEH KOSON", "city": "BROOKLYN", "state": "NY", "zip": "11219-2201", "ntee": "", "ruling": "197811", "deductibility": "1", "assets": 0, "income": 0, "revenue": 0}, {"ein": "113321728", "name": "CONGREGATION OLOM MOLEH INC", "city": "BROOKLYN", "state": "NY", "zip": "11219-3746", "ntee": "X20Z", "ruling": "199706", "deductibility": "1", "assets": 0, "income": 0, "revenue": 0}], "GREENLAWN": [{"ein": "112554602", "name": "GREENLAWN-CENTERPORT HISTORICAL ASSOCIATION", "city": "GREENLAWN", "state": "NY", "zip": "11740-1320", "ntee": "L99", "ruling": "201405", "deductibility": "1", "assets": 787651, "income": 180318, "revenue": 140530}, {"ein": "113118115", "name": "GREENLAWN CIVIC ASSOCIATION INC", "city": "GREENLAWN", "state": "NY", "zip": "11740-0332", "ntee": "", "ruling": "199301", "deductibility": "2", "assets": 0, "income": 0, "revenue": 0}, {"ein": "821727125", "name": "GREENLAWN CEMETERY ASSOCIATION", "city": "ATLANTA", "state": "NY", "zip": "14808-9709", "ntee": "Y50", "ruling": "201710", "deductibility": "1", "assets": 0, "income": 0, "revenue": 0}], "BHAP": [{"ein": "112591013", "name": "BHAP HOUSING DEVELOPMENT FUND CO", "city": "QUEENS VLG", "state": "NY", "zip": "11428-2047", "ntee": "L22Z", "ruling": "198212", "deductibility": "1", "assets": 3350241, "income": 1751038, "revenue": 1751038}], "PANAGHIA": [{"ein": "112604610", "name": "PANAGHIA OF ISLAND PARK INC", "city": "ISLAND PARK", "state": "NY", "zip": "11558-1012", "ntee": "X20", "ruling": "202208", "deductibility": "1", "assets": 0, "income": 0, "revenue": 0}], "PRIMITIVE": [{"ein": "112635003", "name": "PRIMITIVE CHRISTIAN CHURCH", "city": "BROOKLYN", "state": "NY", "zip": "11237-5433", "ntee": "", "ruling": "196408", "deductibility": "1", "assets": 483112, "income": 169414, "revenue": 169414}, {"ein": "113155910", "name": "FIRST PRIMITIVE PENTECOSTAL CHURCH OF GOD", "city": "BROOKLYN", "state": "NY", "zip": "11217-1706", "ntee": "", "ruling": "196408", "deductibility": "1", "assets": 0, "income": 0, "revenue": 0}, {"ein": "113362258", "name": "PRIMITIVE CHURCH OF JESUS CHRIST", "city": "CAMBRIA HTS", "state": "NY", "zip": "11411-1312", "ntee": "X20", "ruling": "200408", "deductibility": "1", "assets": 95526, "income": 36161, "revenue": 36161}, {"ein": "113441905", "name": "THE NEW PRIMITIVE CHURCH OF JESUS-CHRIST", "city": "BROOKLYN", "state": "NY", "zip": "11234-0359", "ntee": "X21", "ruling": "199912", "deductibility": "1", "assets": 0, "income": 0, "revenue": 0}, {"ein": "136164303", "name": "THE PRIMITIVE CHRISTIAN CHURCH", "city": "NEW YORK", "state": "NY", "zip": "10002-5507", "ntee": "", "ruling": "196408", "deductibility": "1", "assets": 0, "income": 0, "revenue": 0}, {"ein": "150564675", "name": "THE PRIMITIVE METHODIST CHURCH OF JOHNSON CITY", "city": "JOHNSON CITY", "state": "NY", "zip": "13790-2898", "ntee": "X20", "ruling": "202312", "deductibility": "1", "assets": 0, "income": 0, "revenue": 0}, {"ein": "237304152", "name": "COUNCIL OF THE SALEM PRIMITIVE CHURCH OF GOD INC", "city": "BRONX", "state": "NY", "zip": "10456-6637", "ntee": "", "ruling": "197307", "deductibility": "1", "assets": 0, "income": 0, "revenue": 0}, {"ein": "311633113", "name": "PRIMITIVE CHURCH OF JESUS CHRIST", "city": "BRENTWOOD", "state": "NY", "zip": "11717-6924", "ntee": "X21", "ruling": "201604", "deductibility": "1", "assets": 0, "income": 0, "revenue": 0}, {"ein": "331077566", "name": "INTERNATIONAL COUNCIL OF GOD PRIMITIVE CHURCHES", "city": "BRONX", "state": "NY", "zip": "10451-1728", "ntee": "X20", "ruling": "201002", "deductibility": "1", "assets": 67310, "income": 24396, "revenue": 24396}, {"ein": "461144894", "name": "EGLISE PRIMITIVE DE LA PERFECTION INC PRIVITIVE CHURCH OF PERFECTION", "city": "ELMONT", "state": "NY", "zip": "11003-1503", "ntee": "X20", "ruling": "201402", "deductibility": "1", "assets": 0, "income": 0, "revenue": 0}, {"ein": "830793617", "name": "PRIMITIVE GRACE THEATER INC", "city": "BAYVILLE", "state": "NY", "zip": "11709-1822", "ntee": "A65", "ruling": "201810", "deductibility": "1", "assets": 0, "income": 0, "revenue": 0}], "ROKEACH": [{"ein": "112635951", "name": "CONGREGATION SHEMEN ROKEACH", "city": "BROOKLYN", "state": "NY", "zip": "11211-7911", "ntee": "", "ruling": "198605", "deductibility": "1", "assets": 0, "income": 0, "revenue": 0}], "NARAYANA": [{"ein": "112649129", "name": "SREE NARAYANA ASSOCIATION OF NORTH AMERICA INC", "city": "HEMPSTEAD", "state": "NY", "zip": "11550-6834", "ntee": "", "ruling": "198308", "deductibility": "1", "assets": 471878, "income": 54552, "revenue": 54552}], "BER": [{"ein": "112655370", "name": "CONGREGATION TIFERES YISSOCHOR BER INC", "city": "BROOKLYN", "state": "NY", "zip": "11211-7181", "ntee": "", "ruling": "199406", "deductibility": "1", "assets": 0, "income": 0, "revenue": 0}, {"ein": "112874472", "name": "YESHIVA AND KOBEL DBNEI YISUCHER BER", "city": "BROOKLYN", "state": "NY", "zip": "11211-6753", "ntee": "", "ruling": "198803", "deductibility": "1", "assets": 0, "income": 0, "revenue": 0}, {"ein": "113469609", "name": "AL-BER INC", "city": "ASTORIA", "state": "NY", "zip": "11103-1121", "ntee": "X40", "ruling": "200004", "deductibility": "1", "assets": 0, "income": 0, "revenue": 0}, {"ein": "141803138", "name": "BER-SHAR RESCUE INC", "city": "STORMVILLE", "state": "NY", "zip": "12582-0000", "ntee": "D20", "ruling": "199901", "deductibility": "1", "assets": 7384, "income": 64000, "revenue": 64000}], "ITALO": [{"ein": "113044143", "name": "FEDERAZIONE ITALO-AMERICANA DI BROOKLYN AND QUEENS INC", "city": "GLENDALE", "state": "NY", "zip": "11385-7055", "ntee": "P84", "ruling": "200202", "deductibility": "1", "assets": 51458, "income": 77708, "revenue": 17708}, {"ein": "113049519", "name": "DONNE ITALO AMERICANE D I A LTD", "city": "BROOKLYN", "state": "NY", "zip": "11214-2715", "ntee": "P50", "ruling": "201304", "deductibility": "2", "assets": 0, "income": 0, "revenue": 0}, {"ein": "113091231", "name": "DURAZZANESE SOCIETA ITALO AMERICANO DIMUTUO SOOORSO INC", "city": "WESTBURY", "state": "NY", "zip": "11590-3216", "ntee": "A23", "ruling": "200503", "deductibility": "1", "assets": 142595, "income": 21052, "revenue": 10879}], "METSUDAH": [{"ein": "113091706", "name": "KEREN METSUDAH", "city": "BROOKLYN", "state": "NY", "zip": "11210-4830", "ntee": "", "ruling": "199203", "deductibility": "1", "assets": 0, "income": 0, "revenue": 0}], "SACRIFICE": [{"ein": "113104491", "name": "SACRIFICE OF PRAISE MINISTRIES", "city": "ROOSEVELT", "state": "NY", "zip": "11575-1120", "ntee": "X20", "ruling": "201412", "deductibility": "1", "assets": 0, "income": 0, "revenue": 0}, {"ein": "873818902", "name": "ULTIMATE SACRIFICE FOUNDATION INC", "city": "VLY COTTAGE", "state": "NY", "zip": "10989-2431", "ntee": "W30", "ruling": "202202", "deductibility": "1", "assets": 72058, "income": 97559, "revenue": 97559}], "CHAMBERS": [{"ein": "113152843", "name": "NASSAU COUNCIL OF CHAMBERS OF COMMERCE INC", "city": "GARDEN CITY", "state": "NY", "zip": "11530-1657", "ntee": "", "ruling": "199710", "deductibility": "2", "assets": 371954, "income": 149046, "revenue": 73641}, {"ein": "132878291", "name": "TAIWANESE CHAMBERS OF COMMERCE OF NEW YORK INC", "city": "FLUSHING", "state": "NY", "zip": "11352-1322", "ntee": "", "ruling": "197812", "deductibility": "2", "assets": 126007, "income": 270212, "revenue": 270212}, {"ein": "133835728", "name": "CHAMBERS MEMORIAL BAPTIST CHURCH", "city": "NEW YORK", "state": "NY", "zip": "10035-2021", "ntee": "", "ruling": "195504", "deductibility": "1", "assets": 0, "income": 0, "revenue": 0}, {"ein": "140696450", "name": "ADIRONDACK REGIONAL CHAMBERS OF COMMERCE INC", "city": "GLENS FALLS", "state": "NY", "zip": "12801-4530", "ntee": "", "ruling": "194310", "deductibility": "2", "assets": 1197738, "income": 887273, "revenue": 887273}, {"ein": "453639436", "name": "PRINCESS CHAMBERS INC", "city": "BROOKLYN", "state": "NY", "zip": "11225-3584", "ntee": "O50", "ruling": "201411", "deductibility": "1", "assets": 0, "income": 0, "revenue": 0}, {"ein": "456691957", "name": "GEORGE LEE TR UW BO GRACE LEE MEM WESLEYAN CHURCH OF CHAMBERS", "city": "ELMIRA", "state": "NY", "zip": "14902-1522", "ntee": "", "ruling": "000000", "deductibility": "0", "assets": 443001, "income": 231644, "revenue": 0}, {"ein": "473844266", "name": "SUFFOLK COUNTY ALLIANCE OF CHAMBERS INC", "city": "HUNTINGTON STATION", "state": "NY", "zip": "11746-3640", "ntee": "S40", "ruling": "201512", "deductibility": "2", "assets": 0, "income": 0, "revenue": 0}, {"ein": "571233391", "name": "BROOKHAVEN CHAMBERS OF COMMERCE COALITION INC", "city": "PORT JEFF STA", "state": "NY", "zip": "11776-0012", "ntee": "S41", "ruling": "200806", "deductibility": "2", "assets": 0, "income": 0, "revenue": 0}, {"ein": "814632031", "name": "NASSAU COUNCIL OF CHAMBERS OF COMMERCE CHARITABLE FOUNDATION INC", "city": "GARDEN CITY", "state": "NY", "zip": "11530-6744", "ntee": "S30", "ruling": "201711", "deductibility": "1", "assets": 298499, "income": 244200, "revenue": 244200}, {"ein": "833439208", "name": "CHAMBERS CAMP AND RETREAT CENTER INC", "city": "BEAVER DAMS", "state": "NY", "zip": "14812-9382", "ntee": "X20", "ruling": "202004", "deductibility": "1", "assets": 61713, "income": 383316, "revenue": 383316}, {"ein": "863550686", "name": "DOMINICAN USA CHAMBERS OF COMMERCE INC", "city": "NEW YORK", "state": "NY", "zip": "10026-4334", "ntee": "A01", "ruling": "202206", "deductibility": "1", "assets": 0, "income": 0, "revenue": 0}, {"ein": "994576267", "name": "ROBERT W CHAMBERS MANSION & PARK", "city": "BROADALBIN", "state": "NY", "zip": "12025-2135", "ntee": "S12", "ruling": "202502", "deductibility": "1", "assets": 0, "income": 0, "revenue": 0}], "GATHERING": [{"ein": "113355698", "name": "GATHERING OF LIGHT MULTIFAITH SPIRITUAL FELLOWSHIP", "city": "KINGS PARK", "state": "NY", "zip": "11754-3124", "ntee": "X90", "ruling": "200106", "deductibility": "1", "assets": 126620, "income": 195961, "revenue": 138484}, {"ein": "133714232", "name": "GATHERING OF THE TRIBES", "city": "BROOKLYN", "state": "NY", "zip": "11237-2561", "ntee": "A20", "ruling": "201506", "deductibility": "1", "assets": 1, "income": 73513, "revenue": 73513}, {"ein": "205544035", "name": "THE GATHERING", "city": "NEW YORK", "state": "NY", "zip": "10012-2727", "ntee": "", "ruling": "196402", "deductibility": "1", "assets": 0, "income": 0, "revenue": 0}, {"ein": "260510714", "name": "SUFI AMERICAN GATHERING FORENLIGHTENMENT", "city": "CHESTNUT RDG", "state": "NY", "zip": "10977-7013", "ntee": "X40", "ruling": "200811", "deductibility": "1", "assets": 0, "income": 0, "revenue": 0}, {"ein": "263166967", "name": "MANHATTAN CHRISTIAN GATHERING INC", "city": "NEW YORK", "state": "NY", "zip": "10003-2636", "ntee": "X21", "ruling": "200904", "deductibility": "1", "assets": 0, "income": 0, "revenue": 0}, {"ein": "462101659", "name": "NEW TESTAMENT GATHERING IN CHRIST", "city": "BROOKLYN", "state": "NY", "zip": "11210-1132", "ntee": "X21", "ruling": "201502", "deductibility": "1", "assets": 0, "income": 0, "revenue": 0}, {"ein": "462855872", "name": "GATHERING OF MEN OF NEW ROCHELLE INC", "city": "NEW ROCHELLE", "state": "NY", "zip": "10801-2802", "ntee": "R22", "ruling": "201511", "deductibility": "1", "assets": 2827, "income": 6195, "revenue": 6195}, {"ein": "472966777", "name": "GATHERING FOR JUSTICE INC", "city": "NEW YORK", "state": "NY", "zip": "10018-3612", "ntee": "P20", "ruling": "201504", "deductibility": "1", "assets": 537019, "income": 881019, "revenue": 881019}, {"ein": "582490493", "name": "JACK SUMMERALL GATHERING COMMUNITY CENTER INC", "city": "STATEN ISLAND", "state": "NY", "zip": "10303-1760", "ntee": "T22", "ruling": "200008", "deductibility": "1", "assets": 0, "income": 0, "revenue": 0}, {"ein": "800490247", "name": "THE GATHERING INTERNATIONAL MINISTRIES", "city": "BRONX", "state": "NY", "zip": "10466-1906", "ntee": "", "ruling": "197210", "deductibility": "1", "assets": 0, "income": 0, "revenue": 0}, {"ein": "811638864", "name": "GATHERING PLACE OF PURPOSE INC", "city": "ROCHESTER", "state": "NY", "zip": "14621-4930", "ntee": "X20", "ruling": "201702", "deductibility": "1", "assets": 0, "income": 0, "revenue": 0}, {"ein": "813859139", "name": "GATHERING HARLEM", "city": "NEW YORK", "state": "NY", "zip": "10027-3811", "ntee": "X20", "ruling": "201708", "deductibility": "1", "assets": 0, "income": 0, "revenue": 0}, {"ein": "821363364", "name": "ENLIGHTENED CHRISTIAN GATHERING", "city": "MOUNT VERNON", "state": "NY", "zip": "10550-5106", "ntee": "X21", "ruling": "201807", "deductibility": "1", "assets": 36873, "income": 238094, "revenue": 238094}, {"ein": "873200128", "name": "ENLIGHTENED CHRISTIAN GATHERING OF QUEENS NEW YORK INC", "city": "FAR ROCKAWAY", "state": "NY", "zip": "11691-2426", "ntee": "X20", "ruling": "202506", "deductibility": "1", "assets": 0, "income": 0, "revenue": 0}, {"ein": "874246118", "name": "ABIDE GATHERING INC", "city": "NEW YORK", "state": "NY", "zip": "10024-4341", "ntee": "X99", "ruling": "202202", "deductibility": "1", "assets": 37217, "income": 125114, "revenue": 125114}, {"ein": "881362917", "name": "PRODUCTION DESIGNERS GATHERING INC", "city": "BROOKLYN", "state": "NY", "zip": "11238-1690", "ntee": "J22", "ruling": "202210", "deductibility": "1", "assets": 0, "income": 0, "revenue": 0}, {"ein": "883042018", "name": "LIGHTHOUSE INTERNATIONAL CHRISTIAN GATHERING", "city": "VALLEY STREAM", "state": "NY", "zip": "11580-4829", "ntee": "X20", "ruling": "202306", "deductibility": "1", "assets": 0, "income": 0, "revenue": 0}, {"ein": "932001136", "name": "GATHERING PLACE GLOBAL MINISTRIES INC", "city": "BRONX", "state": "NY", "zip": "10460-0000", "ntee": "S20", "ruling": "202309", "deductibility": "1", "assets": 0, "income": 0, "revenue": 0}, {"ein": "932266435", "name": "GATHERING PLACE INC", "city": "WEBSTER", "state": "NY", "zip": "14580-1541", "ntee": "", "ruling": "202308", "deductibility": "1", "assets": 0, "income": 0, "revenue": 0}, {"ein": "934021489", "name": "GATHERING RETREATS AND COMMUNITY", "city": "BROOKLYN", "state": "NY", "zip": "11213-5190", "ntee": "X30", "ruling": "202311", "deductibility": "1", "assets": 0, "income": 0, "revenue": 0}, {"ein": "991857373", "name": "RAMAH GATHERING INC", "city": "CAMBRIA HTS", "state": "NY", "zip": "11411-1427", "ntee": "X20", "ruling": "202410", "deductibility": "1", "assets": 0, "income": 0, "revenue": 0}], "STRIVE": [{"ein": "113637794", "name": "STRIVE-COALITION FOR A BETTER FLATBUSH", "city": "BROOKLYN", "state": "NY", "zip": "11203-6009", "ntee": "B60", "ruling": "200408", "deductibility": "1", "assets": 0, "income": 0, "revenue": 0}, {"ein": "133255679", "name": "STRIVE INTERNATIONAL INC", "city": "NEW YORK", "state": "NY", "zip": "10035-2126", "ntee": "J200", "ruling": "198505", "deductibility": "1", "assets": 17161290, "income": 18940461, "revenue": 18696183}, {"ein": "331670279", "name": "LI STRIVE FOUNDATION CORP", "city": "MANORVILLE", "state": "NY", "zip": "11949-2903", "ntee": "P20", "ruling": "202410", "deductibility": "1", "assets": 7217, "income": 11608, "revenue": 11608}, {"ein": "810914823", "name": "ALWAYS STRIVE AND PROSPER FOUNDATION INC", "city": "BRONX", "state": "NY", "zip": "10463-0000", "ntee": "B90", "ruling": "201903", "deductibility": "1", "assets": 84841, "income": 2500, "revenue": 2500}, {"ein": "815207846", "name": "LMHF STRIVE TO THRIVE PROGRAM INC", "city": "CHEEKTOWAGA", "state": "NY", "zip": "14225-4906", "ntee": "E70", "ruling": "201708", "deductibility": "1", "assets": 903071, "income": 230991, "revenue": 230991}, {"ein": "832628119", "name": "RYAN MULLEN STRIVE FOR FIVE CHARITABLE FOUNDATION", "city": "HUNTINGTON", "state": "NY", "zip": "11743-1451", "ntee": "T22", "ruling": "201812", "deductibility": "1", "assets": 43301, "income": 5992, "revenue": 0}, {"ein": "933418081", "name": "STRIVE FOR CHANGE INC", "city": "PRT JEFFERSON", "state": "NY", "zip": "11777-2117", "ntee": "L41", "ruling": "202402", "deductibility": "1", "assets": 0, "income": 0, "revenue": 0}], "HAPLETAH": [{"ein": "116038985", "name": "YESHIVATH SHEARITH HAPLETAH", "city": "BROOKLYN", "state": "NY", "zip": "11211-7910", "ntee": "", "ruling": "194908", "deductibility": "1", "assets": 0, "income": 0, "revenue": 0}], "BAMFORD": [{"ein": "131106710", "name": "NIGHTINGALE-BAMFORD SCHOOL", "city": "NEW YORK", "state": "NY", "zip": "10128-0608", "ntee": "B200", "ruling": "194004", "deductibility": "1", "assets": 198700845, "income": 103912075, "revenue": 54574582}], "APAWAMIS": [{"ein": "131695907", "name": "APAWAMIS CLUB", "city": "RYE", "state": "NY", "zip": "10580-1613", "ntee": "", "ruling": "193412", "deductibility": "2", "assets": 43179160, "income": 20099054, "revenue": 18674394}, {"ein": "134074486", "name": "THE APAWAMIS FOUNDATION", "city": "RYE", "state": "NY", "zip": "10580-0000", "ntee": "B82", "ruling": "200011", "deductibility": "1", "assets": 397528, "income": 144979, "revenue": 144979}], "BENEDICTS": [{"ein": "132693072", "name": "ST BENEDICTS PAROCHIAL ELEMENTARY SCHOOL", "city": "BRONX", "state": "NY", "zip": "10465-3435", "ntee": "", "ruling": "194603", "deductibility": "1", "assets": 0, "income": 0, "revenue": 0}, {"ein": "133841140", "name": "KNIGHTS OF COLUMBUS ST BENEDICTS COUNCIL 11590", "city": "BRONX", "state": "NY", "zip": "10465-2137", "ntee": "Y41", "ruling": "201911", "deductibility": "1", "assets": 0, "income": 0, "revenue": 0}, {"ein": "160755825", "name": "ST BENEDICTS ROMAN CATHOLIC CHURCH", "city": "BUFFALO", "state": "NY", "zip": "14226-3355", "ntee": "", "ruling": "194603", "deductibility": "1", "assets": 0, "income": 0, "revenue": 0}], "ENCOMPASS": [{"ein": "132863585", "name": "ENCOMPASS THEATRE COMPANY INC", "city": "BROOKLYN", "state": "NY", "zip": "11217-1694", "ntee": "", "ruling": "197607", "deductibility": "1", "assets": 72344, "income": 91498, "revenue": 91498}, {"ein": "201612594", "name": "ENCOMPASS RESOURCES FOR LEARNING INC", "city": "ROCHESTER", "state": "NY", "zip": "14613-1709", "ntee": "B11", "ruling": "200411", "deductibility": "1", "assets": 6847318, "income": 7805887, "revenue": 7805887}, {"ein": "853463983", "name": "ENCOMPASS ANIMAL HEALTH INC", "city": "HAMBURG", "state": "NY", "zip": "14075-3709", "ntee": "D40", "ruling": "202101", "deductibility": "1", "assets": 90097, "income": 507032, "revenue": 507032}, {"ein": "883542312", "name": "ENCOMPASS RECREATION", "city": "CARTHAGE", "state": "NY", "zip": "13619-9538", "ntee": "N99", "ruling": "202208", "deductibility": "1", "assets": 0, "income": 0, "revenue": 0}], "KIMMELMAN": [{"ein": "132967083", "name": "ELBRUN AND PETER KIMMELMAN FAMILY FOUNDATION INC", "city": "NEW YORK", "state": "NY", "zip": "10022-7667", "ntee": "", "ruling": "197902", "deductibility": "1", "assets": 7809, "income": 468933, "revenue": 0}], "WILHEIM": [{"ein": "133024141", "name": "MASKIL EL-DAL INC C/O DOV WILHEIM", "city": "BROOKLYN", "state": "NY", "zip": "11219-1651", "ntee": "", "ruling": "198005", "deductibility": "1", "assets": 0, "income": 0, "revenue": 0}], "POSTGRADUATE": [{"ein": "133061671", "name": "POSTGRADUATE PSYCHOANALYTIC SOCIETY INC", "city": "NEW YORK", "state": "NY", "zip": "10010-0000", "ntee": "F030", "ruling": "198208", "deductibility": "1", "assets": 0, "income": 0, "revenue": 0}, {"ein": "133179312", "name": "POSTGRADUATE CENTER RESIDENCE INC", "city": "NEW YORK", "state": "NY", "zip": "10016-4102", "ntee": "", "ruling": "198709", "deductibility": "1", "assets": 778750, "income": 406134, "revenue": 406134}, {"ein": "133411068", "name": "POSTGRADUATE CENTER RESIDENCE II OF NEW YORK INC", "city": "NEW YORK", "state": "NY", "zip": "10016-4102", "ntee": "F34Z", "ruling": "198709", "deductibility": "1", "assets": 1464394, "income": 702520, "revenue": 702520}, {"ein": "133651283", "name": "POSTGRADUATE CENTER WEST 98TH STREET RESIDENCE INC", "city": "NEW YORK", "state": "NY", "zip": "10016-4102", "ntee": "", "ruling": "199208", "deductibility": "1", "assets": 1175317, "income": 206147, "revenue": 206147}, {"ein": "261969383", "name": "INSTITUTE OF THE POSTGRADUATE PSYCHOANALYTIC SOCIETY", "city": "NEW YORK", "state": "NY", "zip": "10010-0000", "ntee": "B29", "ruling": "201310", "deductibility": "1", "assets": 64840, "income": 11826, "revenue": 11826}], "HUMANAS": [{"ein": "133132602", "name": "HUMANAS INC", "city": "NEW YORK", "state": "NY", "zip": "10024-6038", "ntee": "", "ruling": "198306", "deductibility": "1", "assets": 84408, "income": 62450, "revenue": 0}], "BROTHERLY": [{"ein": "133200587", "name": "AMERICAN BROTHERLY AID ASSOCIATION INC", "city": "NEW YORK", "state": "NY", "zip": "10025-3534", "ntee": "S99", "ruling": "201409", "deductibility": "2", "assets": 0, "income": 0, "revenue": 0}, {"ein": "161537766", "name": "BROTHERLY LOVE OUTREACH CENTER INC", "city": "SYRACUSE", "state": "NY", "zip": "13202-3831", "ntee": "P20", "ruling": "200107", "deductibility": "1", "assets": 0, "income": 0, "revenue": 0}, {"ein": "161539841", "name": "BROTHERLY LOVE CHURCH OF GOD IN CHR", "city": "SYRACUSE", "state": "NY", "zip": "13202-3831", "ntee": "X21", "ruling": "200309", "deductibility": "1", "assets": 0, "income": 0, "revenue": 0}, {"ein": "237293064", "name": "CHURCH OF BROTHERLY LOVE IN JESUS NAME", "city": "GENEVA", "state": "NY", "zip": "14456-2421", "ntee": "", "ruling": "197304", "deductibility": "1", "assets": 0, "income": 0, "revenue": 0}, {"ein": "332985349", "name": "BROTHERLY LOVE OVER VIOLENCE INC", "city": "NEW YORK", "state": "NY", "zip": "10003-1502", "ntee": "O50", "ruling": "202501", "deductibility": "1", "assets": 0, "income": 0, "revenue": 0}], "MENDEZ": [{"ein": "133211951", "name": "PIO MENDEZ HOUSING DEVELOPMENT FUND COMPANY", "city": "BRONX", "state": "NY", "zip": "10455-5007", "ntee": "", "ruling": "198701", "deductibility": "1", "assets": 9773022, "income": 483784, "revenue": 483784}, {"ein": "843658748", "name": "HENSHAW MENDEZ FAMILY FOUNDATION INC", "city": "BROOKLYN", "state": "NY", "zip": "11201-4502", "ntee": "P50", "ruling": "202002", "deductibility": "1", "assets": 1088665, "income": 98600, "revenue": 0}], "FELBERBAUM": [{"ein": "133385574", "name": "FELBERBAUM FAMILY FOUNDATION", "city": "SOUTHAMPTON", "state": "NY", "zip": "11968-4827", "ntee": "", "ruling": "198703", "deductibility": "1", "assets": 401344, "income": 240622, "revenue": 0}], "PAX": [{"ein": "133424349", "name": "PAX CHRISTI METRO NEW YORK", "city": "NEW YORK", "state": "NY", "zip": "10036-1602", "ntee": "", "ruling": "194603", "deductibility": "1", "assets": 90093, "income": 39241, "revenue": 39241}, {"ein": "711035897", "name": "PAX ET BONUM INC", "city": "CLIFTON PARK", "state": "NY", "zip": "12065-1729", "ntee": "X80", "ruling": "200904", "deductibility": "1", "assets": 0, "income": 0, "revenue": 0}], "CHASHEK": [{"ein": "133443924", "name": "CHASHEK SHLOMOH CHESED FUND INC C/O HOWARD SPIEGEL", "city": "STATEN ISLAND", "state": "NY", "zip": "10309-2727", "ntee": "P60", "ruling": "201305", "deductibility": "1", "assets": 0, "income": 0, "revenue": 0}], "PREVAIL": [{"ein": "133508714", "name": "MAY PEACE PREVAIL ON EARTH INTERNATIONAL INC", "city": "WASSAIC", "state": "NY", "zip": "12592-2421", "ntee": "Q410", "ruling": "199312", "deductibility": "1", "assets": 1343358, "income": 828079, "revenue": 760953}, {"ein": "270391289", "name": "PREVAIL INC", "city": "NESCONSET", "state": "NY", "zip": "11767-3343", "ntee": "E86", "ruling": "201108", "deductibility": "1", "assets": 0, "income": 0, "revenue": 0}], "VENEZUELAN": [{"ein": "133619611", "name": "VENEZUELAN AMERICAN ENDOWMENT FOR THE ARTS INC", "city": "NEW ROCHELLE", "state": "NY", "zip": "10801-7172", "ntee": "A20", "ruling": "201210", "deductibility": "1", "assets": 1886637, "income": 582585, "revenue": 582585}, {"ein": "135506547", "name": "THE VENEZUELAN AMERICAN ASSOCIATION", "city": "NEW YORK", "state": "NY", "zip": "10022-1200", "ntee": "", "ruling": "194508", "deductibility": "2", "assets": 0, "income": 0, "revenue": 0}], "GREENGARD": [{"ein": "133915986", "name": "VON RYDINGSVARD AND GREENGARD FOUNDATION INC", "city": "NEW YORK", "state": "NY", "zip": "10065-7928", "ntee": "T22Z", "ruling": "199703", "deductibility": "1", "assets": 8417043, "income": 1778542, "revenue": 0}], "ZULKER": [{"ein": "134032142", "name": "DONALD AND BARBARA ZULKER FOUNDATION INC", "city": "NEW YORK", "state": "NY", "zip": "10019-5306", "ntee": "T20", "ruling": "200003", "deductibility": "1", "assets": 8317, "income": 1, "revenue": 0}], "CATALOGUE": [{"ein": "134194235", "name": "THOMAS HART BENTON CATALOGUE RAISONNE FOUNDATION INC", "city": "BROOKLYN", "state": "NY", "zip": "11231-2894", "ntee": "A70", "ruling": "200204", "deductibility": "1", "assets": 4161, "income": 1, "revenue": 0}, {"ein": "921143118", "name": "CATALOGUE RAISONNE SCHOLARS ASSOCIATION LTD", "city": "BEARSVILLE", "state": "NY", "zip": "12409-0628", "ntee": "A03", "ruling": "202301", "deductibility": "1", "assets": 0, "income": 0, "revenue": 0}], "HAMISHPOT": [{"ein": "134216660", "name": "SHAR HAMISHPOT", "city": "BROOKLYN", "state": "NY", "zip": "11205-0226", "ntee": "X21", "ruling": "200301", "deductibility": "1", "assets": 0, "income": 0, "revenue": 0}], "NYCS": [{"ein": "134352239", "name": "NYCS DANCE MAKERS INC", "city": "NEW YORK", "state": "NY", "zip": "10019-0120", "ntee": "A62", "ruling": "201408", "deductibility": "1", "assets": 0, "income": 0, "revenue": 0}, {"ein": "731653635", "name": "MAYORS ALLIANCE FOR NYCS ANIMALS INC", "city": "NEW YORK", "state": "NY", "zip": "10001-7604", "ntee": "D20", "ruling": "200209", "deductibility": "1", "assets": 58869, "income": 86033, "revenue": 86033}], "ZLINKOFF": [{"ein": "136094651", "name": "SERGEI S ZLINKOFF FUND FOR MEDICAL RESEARCH AND EDUCATION INC", "city": "NEW YORK", "state": "NY", "zip": "10022-7736", "ntee": "", "ruling": "195803", "deductibility": "1", "assets": 2465928, "income": 561040, "revenue": 0}], "HEISMAN": [{"ein": "137052079", "name": "HEISMAN TROPHY TR", "city": "NEW YORK", "state": "NY", "zip": "10006-1901", "ntee": "B99", "ruling": "200806", "deductibility": "1", "assets": 50198057, "income": 17540915, "revenue": 0}], "HIMELBERG": [{"ein": "137200887", "name": "THE@DAVID HIMELBERG FOUNDATION", "city": "NEW YORK", "state": "NY", "zip": "10019-0000", "ntee": "T22", "ruling": "199912", "deductibility": "1", "assets": 8159960, "income": 1495712, "revenue": 0}], "LORMAN": [{"ein": "137346901", "name": "NATHAN R & VIVIAN LORMAN CHARITABLE TR", "city": "MERRICK", "state": "NY", "zip": "11566-0000", "ntee": "T22", "ruling": "200402", "deductibility": "1", "assets": 10, "income": 1, "revenue": 0}], "TIVOLI": [{"ein": "141321853", "name": "EDGEWOOD CLUB OF TIVOLI INC", "city": "RED HOOK", "state": "NY", "zip": "12571-0339", "ntee": "", "ruling": "193601", "deductibility": "2", "assets": 149604, "income": 225161, "revenue": 213414}, {"ein": "141406349", "name": "TIVOLI FREE LIBRARY ASSOC", "city": "TIVOLI", "state": "NY", "zip": "12583-0000", "ntee": "", "ruling": "200011", "deductibility": "0", "assets": 485860, "income": 242368, "revenue": 242368}, {"ein": "141825168", "name": "TIVOLI FIRE CO INC", "city": "TIVOLI", "state": "NY", "zip": "12583-0486", "ntee": "M24", "ruling": "202112", "deductibility": "1", "assets": 628589, "income": 62472, "revenue": 62472}, {"ein": "222451679", "name": "CAFH ORDER AT TIVOLI INC", "city": "TIVOLI", "state": "NY", "zip": "12583-0000", "ntee": "", "ruling": "198403", "deductibility": "1", "assets": 0, "income": 0, "revenue": 0}, {"ein": "371931984", "name": "FRIENDS OF TIVOLI LAKE PRESERVE AND FARM INC", "city": "ALBANY", "state": "NY", "zip": "12206-2004", "ntee": "C50", "ruling": "201904", "deductibility": "1", "assets": 0, "income": 0, "revenue": 0}, {"ein": "465615613", "name": "TIVOLI ARTISTS GALLERY LTD", "city": "TIVOLI", "state": "NY", "zip": "12583-0002", "ntee": "A20", "ruling": "201504", "deductibility": "1", "assets": 25401, "income": 59986, "revenue": 26080}, {"ein": "562426466", "name": "FRIENDS OF THE TIVOLI FOUNDATION INC", "city": "STAATSBURG", "state": "NY", "zip": "12580-6301", "ntee": "T30", "ruling": "200411", "deductibility": "1", "assets": 349722, "income": 193153, "revenue": 43604}, {"ein": "844111628", "name": "TIVOLI HALL FOUNDATION", "city": "TIVOLI", "state": "NY", "zip": "12583-0065", "ntee": "A20", "ruling": "202104", "deductibility": "1", "assets": 1248953, "income": 310000, "revenue": 0}], "HOOSIC": [{"ein": "141577119", "name": "HOOSIC VALLEY VOLUNTEER FIRE CO INC", "city": "SCHAGHTICOKE", "state": "NY", "zip": "12154-2706", "ntee": "", "ruling": "198803", "deductibility": "1", "assets": 499917, "income": 168073, "revenue": 165446}, {"ein": "141604837", "name": "HOOSIC VALLEY COMMUNITY CHURCH", "city": "SCHAGHTICOKE", "state": "NY", "zip": "12154-0133", "ntee": "", "ruling": "197903", "deductibility": "1", "assets": 0, "income": 0, "revenue": 0}, {"ein": "141621929", "name": "HOOSIC VALLEY BOOSTER CLUB INC", "city": "SCHAGHTICOKE", "state": "NY", "zip": "12154-0305", "ntee": "", "ruling": "198805", "deductibility": "1", "assets": 71727, "income": 41107, "revenue": 22894}, {"ein": "141639401", "name": "HOOSIC VALLEY ATHLETIC ASSOCIATION INC", "city": "VALLEY FALLS", "state": "NY", "zip": "12185-0281", "ntee": "O50", "ruling": "200509", "deductibility": "1", "assets": 248960, "income": 73439, "revenue": 65716}, {"ein": "205996609", "name": "HOOSIC VALLEY PARENT TEACHERORGANIZATION INC", "city": "SCHAGHTICOKE", "state": "NY", "zip": "12154-3908", "ntee": "B94", "ruling": "200703", "deductibility": "1", "assets": 86116, "income": 44795, "revenue": 15894}, {"ein": "222473412", "name": "HOOSIC VALLEY RESCUE SQUAD", "city": "SCHAGHTICOKE", "state": "NY", "zip": "12154-0000", "ntee": "M23", "ruling": "201503", "deductibility": "1", "assets": 1227038, "income": 1330007, "revenue": 1330007}, {"ein": "832067591", "name": "HOOSIC VALLEY MAC INC", "city": "SCHAGHTICOKE", "state": "NY", "zip": "12154-3907", "ntee": "A20", "ruling": "201902", "deductibility": "1", "assets": 0, "income": 0, "revenue": 0}], "LIEBERMAN": [{"ein": "141776400", "name": "CONGREGATION OHEL AVRAHAM LIEBER LIEBERMAN", "city": "STATEN ISLAND", "state": "NY", "zip": "10314-4119", "ntee": "X30Z", "ruling": "199605", "deductibility": "1", "assets": 0, "income": 0, "revenue": 0}], "BRITTANY": [{"ein": "146085749", "name": "AMERICAN BRITTANY CLUB INC", "city": "NASSAU", "state": "NY", "zip": "12123-3523", "ntee": "", "ruling": "197409", "deductibility": "2", "assets": 0, "income": 0, "revenue": 0}, {"ein": "166052237", "name": "AMERICA BRITTANY CLUB INC", "city": "FORT EDWARD", "state": "NY", "zip": "12828-2407", "ntee": "", "ruling": "197409", "deductibility": "2", "assets": 0, "income": 0, "revenue": 0}, {"ein": "883698989", "name": "BRITTANY LEE JONES MEMORIAL FUND", "city": "BLOSSVALE", "state": "NY", "zip": "13308-1840", "ntee": "N12", "ruling": "202403", "deductibility": "1", "assets": 11338, "income": 4103, "revenue": 0}], "SWANCOTT": [{"ein": "150566326", "name": "SWANCOTT HOME INC", "city": "NEW HARTFORD", "state": "NY", "zip": "13413-5130", "ntee": "", "ruling": "195008", "deductibility": "1", "assets": 0, "income": 0, "revenue": 0}], "RUSHFORD": [{"ein": "160871185", "name": "RUSHFORD FREE LIBRARY ASSOCIATION", "city": "RUSHFORD", "state": "NY", "zip": "14777-0000", "ntee": "", "ruling": "197208", "deductibility": "1", "assets": 740617, "income": 114121, "revenue": 114121}, {"ein": "161144345", "name": "RUSHFORD MUSEUM SOCIETY INC", "city": "RUSHFORD", "state": "NY", "zip": "14777-0133", "ntee": "T70", "ruling": "200405", "deductibility": "1", "assets": 0, "income": 0, "revenue": 0}, {"ein": "166052190", "name": "RUSHFORD LABOR DAY CORP", "city": "RUSHFORD", "state": "NY", "zip": "14777-0415", "ntee": "A23", "ruling": "201209", "deductibility": "2", "assets": 0, "income": 0, "revenue": 0}, {"ein": "204684232", "name": "RUSHFORD VOLUNTEER FIRE DEPARTMENT INC", "city": "RUSHFORD", "state": "NY", "zip": "14777-0067", "ntee": "M24", "ruling": "200606", "deductibility": "1", "assets": 0, "income": 0, "revenue": 0}, {"ein": "272960942", "name": "RUSHFORD LAKE FOUNDATION", "city": "RUSHFORD", "state": "NY", "zip": "14777-0000", "ntee": "C34", "ruling": "201107", "deductibility": "1", "assets": 496703, "income": 49000, "revenue": 0}], "DAMS": [{"ein": "161029734", "name": "BEAVER DAMS VOLUNTEER FIRE DEPT", "city": "BEAVER DAMS", "state": "NY", "zip": "14812-0000", "ntee": "M24", "ruling": "201504", "deductibility": "1", "assets": 460310, "income": 284331, "revenue": 271605}], "WELEYAN": [{"ein": "161138290", "name": "NORTH PARK WELEYAN CHURCH", "city": "CUBA", "state": "NY", "zip": "14727-1209", "ntee": "", "ruling": "197005", "deductibility": "2", "assets": 0, "income": 0, "revenue": 0}], "LACKAWANNA": [{"ein": "161139428", "name": "LACKAWANNA COMMUNITY DEVELOPMENT CO", "city": "LACKAWANNA", "state": "NY", "zip": "14218-1442", "ntee": "L25Z", "ruling": "198209", "deductibility": "1", "assets": 176339, "income": 3600, "revenue": 3600}, {"ein": "161387187", "name": "LACKAWANNA HOUSING DEVELOPMENT CORPORATION", "city": "LACKAWANNA", "state": "NY", "zip": "14218-1442", "ntee": "L80Z", "ruling": "199109", "deductibility": "1", "assets": 893236, "income": 569003, "revenue": 310869}, {"ein": "161389093", "name": "LACKAWANNA YEMEN SOCCER CLUB INC", "city": "LACKAWANNA", "state": "NY", "zip": "14218-0065", "ntee": "N64", "ruling": "200107", "deductibility": "1", "assets": 36000, "income": 59000, "revenue": 59000}, {"ein": "161483502", "name": "LACKAWANNA HISTORICAL ASSOCIATION", "city": "LACKAWANNA", "state": "NY", "zip": "14218-1641", "ntee": "A80", "ruling": "201807", "deductibility": "1", "assets": 0, "income": 0, "revenue": 0}, {"ein": "166023212", "name": "LACKAWANNA POLICE BENV ASSN", "city": "BUFFALO", "state": "NY", "zip": "14218-0019", "ntee": "", "ruling": "199209", "deductibility": "2", "assets": 0, "income": 0, "revenue": 0}, {"ein": "222154102", "name": "LACKAWANNA BAPTIST TEMPLE C O DOUGLAS SPORTEL", "city": "LACKAWANNA", "state": "NY", "zip": "14218-0041", "ntee": "", "ruling": "197707", "deductibility": "1", "assets": 0, "income": 0, "revenue": 0}, {"ein": "232214610", "name": "ERIE LACKAWANNA HISTORICAL SOCIETY INC", "city": "AVOCA", "state": "NY", "zip": "14809-0431", "ntee": "A80", "ruling": "202401", "deductibility": "1", "assets": 372769, "income": 121372, "revenue": 100083}, {"ein": "232885523", "name": "ANCIENT ORDER OF HIBERNIANS LADIES DIVISION 4 LACKAWANNA PA", "city": "BROOKLYN", "state": "NY", "zip": "11229-4111", "ntee": "Y42", "ruling": "201708", "deductibility": "1", "assets": 0, "income": 0, "revenue": 0}, {"ein": "261636959", "name": "LACKAWANNA LITTLE LOOP FOOTBALL INC", "city": "BUFFALO", "state": "NY", "zip": "14218-0328", "ntee": "N60", "ruling": "201605", "deductibility": "1", "assets": 6594, "income": 78082, "revenue": 60359}, {"ein": "510207205", "name": "LACKAWANNA ISLAMIE MOSQUE", "city": "LACKAWANNA", "state": "NY", "zip": "14218-1148", "ntee": "", "ruling": "197612", "deductibility": "1", "assets": 0, "income": 0, "revenue": 0}, {"ein": "800207494", "name": "ANCIENT ORDER OF HEBERNIANS LADIES PA LACKAWANNA DIV 5", "city": "BROOKLYN", "state": "NY", "zip": "11229-4111", "ntee": "Y42", "ruling": "201610", "deductibility": "1", "assets": 0, "income": 0, "revenue": 0}, {"ein": "824733603", "name": "LACKAWANNA EDUCATION EXTRA CURRICULAR FOUDATION INC", "city": "BUFFALO", "state": "NY", "zip": "14220-2263", "ntee": "B12", "ruling": "201807", "deductibility": "1", "assets": 24842, "income": 19045, "revenue": 0}, {"ein": "861945678", "name": "LACKAWANNA LIFE CENTER CAMPUS INC", "city": "LACKAWANNA", "state": "NY", "zip": "14218-1037", "ntee": "L21", "ruling": "202504", "deductibility": "1", "assets": 0, "income": 0, "revenue": 0}, {"ein": "872928566", "name": "PATRIOTS CLUB OF LACKAWANNA", "city": "LACKAWANNA", "state": "NY", "zip": "14218-2434", "ntee": "N50", "ruling": "202205", "deductibility": "1", "assets": 0, "income": 0, "revenue": 0}, {"ein": "884013865", "name": "LACKAWANNA LEGENDS", "city": "LACKAWANNA", "state": "NY", "zip": "14218-2029", "ntee": "N63", "ruling": "202505", "deductibility": "1", "assets": 0, "income": 0, "revenue": 0}], "CAMERON": [{"ein": "161257507", "name": "CAMERON COMMUNITY MINISTRIES INC", "city": "ROCHESTER", "state": "NY", "zip": "14606-0000", "ntee": "", "ruling": "198604", "deductibility": "1", "assets": 1236139, "income": 1265925, "revenue": 1265925}, {"ein": "161554784", "name": "CAMERON VOLUNTEER FIRE DEPARTMENT INC", "city": "CAMERON", "state": "NY", "zip": "14819-0093", "ntee": "M24", "ruling": "200708", "deductibility": "1", "assets": 478493, "income": 287942, "revenue": 287942}, {"ein": "166029481", "name": "THE CAMERON AND JANE BAIRD FOUNDATION", "city": "BUFFALO", "state": "NY", "zip": "14210-1465", "ntee": "", "ruling": "196206", "deductibility": "1", "assets": 37132967, "income": 10268146, "revenue": 0}, {"ein": "166088208", "name": "STEUBEN COUNTY HISTORICAL SOCIETY DUGALD CAMERON CHAPTER", "city": "BATH", "state": "NY", "zip": "14810-1406", "ntee": "", "ruling": "195111", "deductibility": "1", "assets": 455185, "income": 51902, "revenue": 51902}, {"ein": "262480337", "name": "CAMERON CHARITABLE FOUNDATION", "city": "LARCHMONT", "state": "NY", "zip": "10538-0197", "ntee": "T22", "ruling": "200807", "deductibility": "1", "assets": 836732, "income": 40449, "revenue": 0}, {"ein": "316653586", "name": "THE CAMERON AND HAYDEN LORD FOUNDATION", "city": "NEW YORK", "state": "NY", "zip": "10024-0000", "ntee": "H20", "ruling": "200102", "deductibility": "1", "assets": 2397295, "income": 2935004, "revenue": 0}, {"ein": "452493342", "name": "GRASMERE AND CAMERON LAKES BLUEBELT CONSERVANCY", "city": "STATEN ISLAND", "state": "NY", "zip": "10305-1509", "ntee": "C30", "ruling": "201204", "deductibility": "1", "assets": 0, "income": 0, "revenue": 0}, {"ein": "463093421", "name": "KATHLEEN CAMERON FOUNDATION INC", "city": "TULLY", "state": "NY", "zip": "13159-0582", "ntee": "B82", "ruling": "202405", "deductibility": "1", "assets": 299622, "income": 9956, "revenue": 0}, {"ein": "815197241", "name": "EXTENDED FAMILY SOLUTIONS INC LAURIE CAMERON", "city": "SOMERS", "state": "NY", "zip": "10589-3279", "ntee": "P80", "ruling": "201702", "deductibility": "1", "assets": 188046, "income": 425560, "revenue": 424932}, {"ein": "833654069", "name": "CAMERON CHAMP FOUNDATION", "city": "GARDEN CITY", "state": "NY", "zip": "11530-0000", "ntee": "N6A", "ruling": "202002", "deductibility": "1", "assets": 1518825, "income": 752305, "revenue": 673566}, {"ein": "921408515", "name": "MARGARET CAMERON AND JAMES M GLICKENHAUS FOUNDATION", "city": "SLEEPY HOLLOW", "state": "NY", "zip": "10591-2211", "ntee": "T22", "ruling": "202310", "deductibility": "1", "assets": 2354963, "income": 429954, "revenue": 0}], "BLUFF": [{"ein": "161282579", "name": "BLUFF POINT ASSOCIATION INC", "city": "BLUFF POINT", "state": "NY", "zip": "14478-0072", "ntee": "W99", "ruling": "201403", "deductibility": "2", "assets": 0, "income": 0, "revenue": 0}], "LUBELLE": [{"ein": "166092145", "name": "JACK G LUBELLE FOUNDATION INC", "city": "WEBSTER", "state": "NY", "zip": "14580-2969", "ntee": "", "ruling": "197205", "deductibility": "1", "assets": 73718, "income": 2662, "revenue": 0}], "RIBINITZ": [{"ein": "201478500", "name": "CONGRATION RIBINITZ INC", "city": "MONSEY", "state": "NY", "zip": "10952-0657", "ntee": "X30", "ruling": "200511", "deductibility": "1", "assets": 0, "income": 0, "revenue": 0}], "POR": [{"ein": "202476454", "name": "IGLESIA PENTECOSTAL LIBERTADOS POR JESUS", "city": "BROOKLYN", "state": "NY", "zip": "11237-2579", "ntee": "X20", "ruling": "200509", "deductibility": "1", "assets": 0, "income": 0, "revenue": 0}, {"ein": "264601686", "name": "UNIDOS POR AMOR A BAITOA INC", "city": "BROOKLYN", "state": "NY", "zip": "11220-1408", "ntee": "Q30", "ruling": "201402", "deductibility": "1", "assets": 0, "income": 0, "revenue": 0}, {"ein": "320780621", "name": "COMITE UNIDO POR CASTANUELAS CORP", "city": "NEW YORK", "state": "NY", "zip": "10026-1225", "ntee": "W03", "ruling": "202409", "deductibility": "1", "assets": 0, "income": 0, "revenue": 0}, {"ein": "371782070", "name": "UNIDOS POR PIEDRA BLANCA", "city": "CORONA", "state": "NY", "zip": "11368-4932", "ntee": "T50", "ruling": "201905", "deductibility": "1", "assets": 0, "income": 0, "revenue": 0}, {"ein": "873322723", "name": "JUNTOS POR UNA SONRISA INC", "city": "CORONA", "state": "NY", "zip": "11368-4080", "ntee": "P84", "ruling": "202201", "deductibility": "1", "assets": 1, "income": 1, "revenue": 0}, {"ein": "933043206", "name": "POR ELAS - SUPPORTING GIRLS AND WOMEN", "city": "NEW YORK", "state": "NY", "zip": "10028-3026", "ntee": "P20", "ruling": "202309", "deductibility": "1", "assets": 0, "income": 0, "revenue": 0}, {"ein": "934028689", "name": "FUNDACION POR AMOR MUNDIAL INC", "city": "BRONX", "state": "NY", "zip": "10462-1506", "ntee": "P50", "ruling": "202406", "deductibility": "1", "assets": 0, "income": 0, "revenue": 0}, {"ein": "994657017", "name": "MIGRANTES POR GUATEMALA INC", "city": "NEW YORK", "state": "NY", "zip": "10075-2048", "ntee": "R99", "ruling": "202409", "deductibility": "1", "assets": 0, "income": 0, "revenue": 0}], "FREDDIE": [{"ein": "204928859", "name": "THE FREDDIE INSTITUTE INC", "city": "GLENMONT", "state": "NY", "zip": "12077-2967", "ntee": "T50", "ruling": "200703", "deductibility": "1", "assets": 1, "income": 1, "revenue": 0}, {"ein": "934816351", "name": "FREDDIE L AND MIDGE THOMAS RESOURCE CENTER INC", "city": "ROCHESTER", "state": "NY", "zip": "14619-1207", "ntee": "B90", "ruling": "202403", "deductibility": "1", "assets": 0, "income": 0, "revenue": 0}], "STOREINC": [{"ein": "205779287", "name": "ALEXANDRIA COMMUNITY THRIFT STOREINC", "city": "ALEX BAY", "state": "NY", "zip": "13607-4106", "ntee": "P29", "ruling": "201008", "deductibility": "1", "assets": 654225, "income": 224432, "revenue": 224432}], "LEOGRANDE": [{"ein": "208063335", "name": "THE LOUIS AND LINDA LEOGRANDE CHARITABLE FOUNDATION", "city": "NEW HARTFORD", "state": "NY", "zip": "13413-2624", "ntee": "T20", "ruling": "200708", "deductibility": "1", "assets": 64393, "income": 1890, "revenue": 0}], "WHEELCHAIRS": [{"ein": "208539293", "name": "WHEELCHAIRS AND VETERANS ENJOYINGSUMMER INC", "city": "LINDENHURST", "state": "NY", "zip": "11757-5824", "ntee": "N50", "ruling": "200709", "deductibility": "1", "assets": 0, "income": 0, "revenue": 0}, {"ein": "464304659", "name": "WHEELCHAIRS AGAINST GUNS INC", "city": "BROOKLYN", "state": "NY", "zip": "11225-3229", "ntee": "I21", "ruling": "201511", "deductibility": "1", "assets": 5991, "income": 783042, "revenue": 783042}], "BURCHAN": [{"ein": "222294069", "name": "WALTER J AND ANNA H BURCHAN CHARITABLE TRUST", "city": "ONEONTA", "state": "NY", "zip": "13820-1968", "ntee": "", "ruling": "198005", "deductibility": "1", "assets": 2841145, "income": 318609, "revenue": 0}], "ANTOINETTE": [{"ein": "222487218", "name": "ANTOINETTE BROWN BLACKWELL COMMITTEE", "city": "HENRIETTA", "state": "NY", "zip": "14467-0133", "ntee": "", "ruling": "198503", "deductibility": "1", "assets": 0, "income": 0, "revenue": 0}, {"ein": "922891919", "name": "ANTOINETTE PARRIS MINISTRIES", "city": "BROOKLYN", "state": "NY", "zip": "11207-6722", "ntee": "X01", "ruling": "202305", "deductibility": "1", "assets": 0, "income": 0, "revenue": 0}], "RIGHTER": [{"ein": "222645214", "name": "THE JAMES H RIGHTER MEMORIAL FUND", "city": "CHEEKTOWAGA", "state": "NY", "zip": "14225-4542", "ntee": "", "ruling": "198510", "deductibility": "1", "assets": 0, "income": 0, "revenue": 0}, {"ein": "853929547", "name": "EDWARD B RIGHTER CHARITABLE TRUST", "city": "BUFFALO", "state": "NY", "zip": "14222-2009", "ntee": "T20", "ruling": "202104", "deductibility": "1", "assets": 940168, "income": 731645, "revenue": 0}], "BINGHAMPTON": [{"ein": "223137816", "name": "S R O PRODUCTIONS III OF BINGHAMPTON INC", "city": "BINGHAMTON", "state": "NY", "zip": "13905-2124", "ntee": "R00Z", "ruling": "199112", "deductibility": "1", "assets": 4445, "income": 52872, "revenue": 52872}, {"ein": "223475079", "name": "ST GREGORY THE ILLUMINATOR ARMENIAN CHURCH OF BINGHAMPTON NEW YORK", "city": "BINGHAMPTON", "state": "NY", "zip": "13903-3232", "ntee": "", "ruling": "194909", "deductibility": "0", "assets": 0, "income": 0, "revenue": 0}], "TRAILBREAKERS": [{"ein": "223837175", "name": "LAKE EFFECT TRAILBREAKERS", "city": "SINCLAIRVILLE", "state": "NY", "zip": "14782-0842", "ntee": "N32", "ruling": "201303", "deductibility": "1", "assets": 127324, "income": 74615, "revenue": 57032}], "LEECH": [{"ein": "236508132", "name": "TR UW GEO L LEECH KING ST FERDINAND III COLLEGE SCHOLARSHIP FOUNDATION", "city": "BUFFALO", "state": "NY", "zip": "14240-1504", "ntee": "", "ruling": "196710", "deductibility": "1", "assets": 1737907, "income": 80572, "revenue": 0}], "EDWILLB": [{"ein": "236542778", "name": "EDWILLB & RACHEL H MILLER TRUST", "city": "AMHERST", "state": "NY", "zip": "14228-2307", "ntee": "", "ruling": "197805", "deductibility": "1", "assets": 99261, "income": 20692, "revenue": 0}], "GENTZLER": [{"ein": "236958411", "name": "W EMERSON GENTZLER RESIDUARY TRUST", "city": "BUFFALO", "state": "NY", "zip": "14240-1504", "ntee": "", "ruling": "199010", "deductibility": "1", "assets": 2325639, "income": 726763, "revenue": 0}], "GALLER": [{"ein": "237013433", "name": "MARC GALLER RESEARCH FOUNDATION INC", "city": "NEW YORK", "state": "NY", "zip": "10023-0000", "ntee": "", "ruling": "196904", "deductibility": "1", "assets": 7803543, "income": 1281371, "revenue": 0}], "LIFESPRING": [{"ein": "237204435", "name": "LIFESPRING COMMUNITY CHURCH", "city": "CANANDAIGUA", "state": "NY", "zip": "14424-8053", "ntee": "", "ruling": "197303", "deductibility": "1", "assets": 0, "income": 0, "revenue": 0}, {"ein": "843233781", "name": "LIFESPRING MINISTRIES UPSTATE NEW YORK INC", "city": "SCHENECTADY", "state": "NY", "zip": "12307-1814", "ntee": "X20", "ruling": "202106", "deductibility": "1", "assets": 0, "income": 0, "revenue": 0}], "WILLKEMIRA": [{"ein": "237439364", "name": "WILLKEMIRA YOUNG MENS BENEVOLENT ASSOCIATION", "city": "PLAINVIEW", "state": "NY", "zip": "11803-4711", "ntee": "", "ruling": "197503", "deductibility": "2", "assets": 0, "income": 0, "revenue": 0}], "YESHEVA": [{"ein": "237439783", "name": "CONGREGATION & YESHEVA TEFERETH YESROEL MOISKE", "city": "BROOKLYN", "state": "NY", "zip": "11230-4001", "ntee": "", "ruling": "197504", "deductibility": "1", "assets": 0, "income": 0, "revenue": 0}], "HESPERUS": [{"ein": "237579315", "name": "HESPERUS LODGE NO 837", "city": "BERGEN", "state": "NY", "zip": "14416-0101", "ntee": "Y42", "ruling": "201802", "deductibility": "1", "assets": 0, "income": 0, "revenue": 0}], "DARCO": [{"ein": "262550575", "name": "FIGLI DI POMIGLIANO DARCO INC", "city": "WANTAGH", "state": "NY", "zip": "11793-2125", "ntee": "A70", "ruling": "200906", "deductibility": "1", "assets": 0, "income": 0, "revenue": 0}], "PS37": [{"ein": "270783284", "name": "PARENT TEACHER ASSOCIATION OF PS37 INC", "city": "STATEN ISLAND", "state": "NY", "zip": "10308-1823", "ntee": "B94", "ruling": "200909", "deductibility": "1", "assets": 24298, "income": 93533, "revenue": 35804}], "TESTIMONIO": [{"ein": "272857494", "name": "IGLESIA EL GRAN TESTIMONIO DE DIOS INC", "city": "NEW YORK", "state": "NY", "zip": "10017-8020", "ntee": "X21", "ruling": "201601", "deductibility": "1", "assets": 0, "income": 0, "revenue": 0}, {"ein": "863038592", "name": "TESTIMONIO HC INC", "city": "NEW YORK", "state": "NY", "zip": "10166-0005", "ntee": "X02", "ruling": "202204", "deductibility": "2", "assets": 0, "income": 0, "revenue": 0}], "RADHASOAMI": [{"ein": "273225785", "name": "RADHASOAMI SATSANG INC", "city": "NEW CITY", "state": "NY", "zip": "10956-4231", "ntee": "X40", "ruling": "201105", "deductibility": "1", "assets": 0, "income": 0, "revenue": 0}], "HIMAN": [{"ein": "276669056", "name": "HIMAN BROWN CHARITABLE TR", "city": "NEW YORK", "state": "NY", "zip": "10036-6524", "ntee": "T20", "ruling": "201011", "deductibility": "1", "assets": 77218743, "income": 22281122, "revenue": 0}, {"ein": "921172212", "name": "HIMAN BROWN 60 PLUS ADVISORY COUNCIL", "city": "NEW YORK", "state": "NY", "zip": "10128-1612", "ntee": "P81", "ruling": "202307", "deductibility": "1", "assets": 0, "income": 0, "revenue": 0}], "RATTIE": [{"ein": "276999375", "name": "RATTIE FAMILY FOUNDATION", "city": "ALBANY", "state": "NY", "zip": "12212-5201", "ntee": "T22", "ruling": "201104", "deductibility": "1", "assets": 388370, "income": 283087, "revenue": 0}], "GROUSBECK": [{"ein": "306284986", "name": "GIVING GROUSBECK FAZZALARI", "city": "NEW YORK", "state": "NY", "zip": "10019-0000", "ntee": "T20", "ruling": "201109", "deductibility": "1", "assets": 295479889, "income": 12552312, "revenue": 0}], "SOLIYA": [{"ein": "320060209", "name": "SOLIYA INC", "city": "NEW YORK", "state": "NY", "zip": "10036-7303", "ntee": "Q21", "ruling": "200403", "deductibility": "1", "assets": 88850, "income": 490182, "revenue": 490182}], "MYAD": [{"ein": "331085033", "name": "CONGREGATION MYAD LYAD INC", "city": "MONSEY", "state": "NY", "zip": "10952-2680", "ntee": "X30", "ruling": "200408", "deductibility": "1", "assets": 0, "income": 0, "revenue": 0}], "PETANQUE": [{"ein": "333759635", "name": "ERNESTO PETANQUE FOUNDATION INC", "city": "RIDGEWOOD", "state": "NY", "zip": "11385-8130", "ntee": "N60", "ruling": "202504", "deductibility": "1", "assets": 0, "income": 0, "revenue": 0}, {"ein": "921658224", "name": "LOCAL 718 PETANQUE", "city": "BROOKLYN", "state": "NY", "zip": "11238-7478", "ntee": "N60", "ruling": "202502", "deductibility": "1", "assets": 0, "income": 0, "revenue": 0}], "HANWHA": [{"ein": "352832872", "name": "HANWHA FOUNDATION OF CULTURE", "city": "NEW YORK", "state": "NY", "zip": "10013-4189", "ntee": "T20", "ruling": "202505", "deductibility": "1", "assets": 0, "income": 0, "revenue": 0}], "HEALTHELINK": [{"ein": "364594483", "name": "HEALTHELINK INC", "city": "DEPEW", "state": "NY", "zip": "14043-2022", "ntee": "E60", "ruling": "200902", "deductibility": "1", "assets": 13404257, "income": 12468116, "revenue": 12468116}], "MCS": [{"ein": "383445338", "name": "MCS FRIENDS", "city": "NEW LEBANON", "state": "NY", "zip": "12125-0204", "ntee": "G80", "ruling": "200101", "deductibility": "1", "assets": 0, "income": 0, "revenue": 0}, {"ein": "931960802", "name": "MCS CARE & SHARE FOUNDATION", "city": "NEW YORK", "state": "NY", "zip": "10280-1036", "ntee": "T23", "ruling": "202308", "deductibility": "1", "assets": 0, "income": 0, "revenue": 0}], "THILIM": [{"ein": "431980322", "name": "CONGREGATION OHEL MOSHE CHEVRA THILIM LUBAVITCH", "city": "BROOKLYN", "state": "NY", "zip": "11230-1122", "ntee": "X30", "ruling": "200311", "deductibility": "1", "assets": 0, "income": 0, "revenue": 0}], "BASCOM": [{"ein": "452977816", "name": "BASCOM HOUSE INC", "city": "BROOKLYN", "state": "NY", "zip": "11216-2709", "ntee": "P73", "ruling": "201406", "deductibility": "1", "assets": 0, "income": 0, "revenue": 0}], "BORUCHAI": [{"ein": "453263173", "name": "BAIS BORUCHAI OHAVEI TORAH INC", "city": "REGO PARK", "state": "NY", "zip": "11374-3848", "ntee": "X30", "ruling": "201511", "deductibility": "1", "assets": 0, "income": 0, "revenue": 0}], "SOBRIETY": [{"ein": "454003807", "name": "SOLDIERS IN SOBRIETY", "city": "ROOSEVELT", "state": "NY", "zip": "11575-2231", "ntee": "F20", "ruling": "201408", "deductibility": "1", "assets": 0, "income": 0, "revenue": 0}, {"ein": "871854970", "name": "SOBRIETY SOUNDS INC", "city": "ROCHESTER", "state": "NY", "zip": "14604-2131", "ntee": "F50", "ruling": "202202", "deductibility": "1", "assets": 0, "income": 0, "revenue": 0}, {"ein": "872464470", "name": "REBECCA ROSE & JA HAUSER SOBRIETY SERVICES INC", "city": "BUFFALO", "state": "NY", "zip": "14206-1421", "ntee": "F20", "ruling": "202410", "deductibility": "1", "assets": 0, "income": 0, "revenue": 0}, {"ein": "884350047", "name": "DAY 1 OF SOBRIETY INC", "city": "BROCKPORT", "state": "NY", "zip": "14420-1506", "ntee": "B02", "ruling": "202301", "deductibility": "1", "assets": 0, "income": 0, "revenue": 0}, {"ein": "991203553", "name": "STEPPING STONES SOBRIETY", "city": "EAST ISLIP", "state": "NY", "zip": "11730-2010", "ntee": "F21", "ruling": "202406", "deductibility": "1", "assets": 0, "income": 0, "revenue": 0}], "LARCHE": [{"ein": "454924982", "name": "LARCHE LONG ISLAND INC", "city": "NEW YORK", "state": "NY", "zip": "10022-0000", "ntee": "L21", "ruling": "201209", "deductibility": "1", "assets": 2148238, "income": 248141, "revenue": 248141}], "STEER": [{"ein": "461076315", "name": "STEER FOR STUDENT ATHLETES INC", "city": "PORT CHESTER", "state": "NY", "zip": "10573-4956", "ntee": "O50", "ruling": "201301", "deductibility": "1", "assets": 1276815, "income": 1208451, "revenue": 1208451}], "PUBICANDO": [{"ein": "461792226", "name": "IGLESIA PENTECOSTAL ELOHIM PUBICANDO LIBERTAD A LOS CAUTIVOS", "city": "NIAGARA FALLS", "state": "NY", "zip": "14305-2470", "ntee": "X99", "ruling": "201408", "deductibility": "1", "assets": 0, "income": 0, "revenue": 0}], "WORLDVIEW": [{"ein": "463225353", "name": "WORLDVIEW DEVELOPMENT USA", "city": "NEW YORK", "state": "NY", "zip": "10011-2599", "ntee": "T50", "ruling": "201710", "deductibility": "1", "assets": 878120, "income": 5898003, "revenue": 5898003}, {"ein": "815195366", "name": "WORLDVIEW GLOBAL CULTURE ALLIANCE CORPORATION", "city": "NEW YORK", "state": "NY", "zip": "10019-3845", "ntee": "A23", "ruling": "202309", "deductibility": "1", "assets": 1331, "income": 6500, "revenue": 0}], "LHK": [{"ein": "464333087", "name": "LHK FOUNDATION", "city": "BROOKLYN", "state": "NY", "zip": "11249-7630", "ntee": "X99", "ruling": "201408", "deductibility": "1", "assets": 5651487, "income": 120500, "revenue": 0}], "PIETRA": [{"ein": "464352404", "name": "STEPHEN DELLA PIETRA AND PAMELA HURST-DELLA PIETRA FAMILY FOUNDAT", "city": "JERICHO", "state": "NY", "zip": "11753-2702", "ntee": "Z99", "ruling": "201407", "deductibility": "1", "assets": 54610339, "income": 45071246, "revenue": 0}, {"ein": "832596679", "name": "DELLA PIETRA FOUNDATION", "city": "JERICHO", "state": "NY", "zip": "11753-2702", "ntee": "T22", "ruling": "201908", "deductibility": "1", "assets": 64535496, "income": 29002295, "revenue": 0}], "YISLAWN": [{"ein": "465277348", "name": "YISLAWN FUND", "city": "BROOKLYN", "state": "NY", "zip": "11204-1722", "ntee": "T12", "ruling": "201409", "deductibility": "1", "assets": 14434, "income": 65184, "revenue": 0}], "CARICULUM": [{"ein": "472690176", "name": "CARICULUM INC", "city": "LAURELTON", "state": "NY", "zip": "11413-3619", "ntee": "O99", "ruling": "202301", "deductibility": "1", "assets": 0, "income": 0, "revenue": 0}], "TYLERSTRONG": [{"ein": "473353987", "name": "TYLERSTRONG FOUNDATION INC", "city": "VICTOR", "state": "NY", "zip": "14564-1255", "ntee": "T30", "ruling": "201509", "deductibility": "1", "assets": 169199, "income": 32659, "revenue": 32659}], "GALILL": [{"ein": "510189407", "name": "KIRYA CHASSIDIT CHATZOR GALILL", "city": "BROOKLYN", "state": "NY", "zip": "11219-3810", "ntee": "", "ruling": "197606", "deductibility": "1", "assets": 0, "income": 0, "revenue": 0}], "TELECOM": [{"ein": "521880677", "name": "MULTICULTURAL MEDIA TELECOM AND INTERNET COUNCIL", "city": "JERICHO", "state": "NY", "zip": "11753-2716", "ntee": "R30", "ruling": "199602", "deductibility": "1", "assets": 1782622, "income": 1639421, "revenue": 1639421}], "RCP": [{"ein": "550799333", "name": "RCP FOUNDATION", "city": "LITTLE NECK", "state": "NY", "zip": "11362-1030", "ntee": "T20", "ruling": "200210", "deductibility": "1", "assets": 618483, "income": 6955, "revenue": 0}, {"ein": "820969872", "name": "FRIENDS OF RCP INC", "city": "ROSLYN HTS", "state": "NY", "zip": "11577-2113", "ntee": "A65", "ruling": "201705", "deductibility": "1", "assets": 0, "income": 0, "revenue": 0}], "JAMESTOWNE": [{"ein": "611697076", "name": "JAMESTOWNE SOCIETY", "city": "NEW YORK", "state": "NY", "zip": "10021-4250", "ntee": "A80", "ruling": "201412", "deductibility": "1", "assets": 0, "income": 0, "revenue": 0}], "FYRISH": [{"ein": "711003904", "name": "FYRISH GIBRALTAR COURTLAND NO 1 ASSOCIATION INC", "city": "BROOKLYN", "state": "NY", "zip": "11203-3781", "ntee": "B90", "ruling": "201110", "deductibility": "1", "assets": 0, "income": 0, "revenue": 0}], "MULTIVARIATE": [{"ein": "756043094", "name": "SOCIETY OF MULTIVARIATE EXPERIMENTAL PSYCHOLOGY INC", "city": "NEW YORK", "state": "NY", "zip": "10027-7054", "ntee": "", "ruling": "196507", "deductibility": "4", "assets": 1358406, "income": 570292, "revenue": 0}], "GILEADE": [{"ein": "810616844", "name": "GILEADE BIBLICAL COMMUNITY", "city": "NEW ROCHELLE", "state": "NY", "zip": "10801-1523", "ntee": "X20", "ruling": "200608", "deductibility": "1", "assets": 0, "income": 0, "revenue": 0}], "INES": [{"ein": "810812254", "name": "INES MANDL RESEARCH FOUNDATION INC", "city": "NEW YORK", "state": "NY", "zip": "10128-1758", "ntee": "E05", "ruling": "201604", "deductibility": "1", "assets": 7598543, "income": 8156924, "revenue": 0}], "RIMON": [{"ein": "811509281", "name": "INTERNATIONAL JEWISH CHARITABLE FUND RIMON", "city": "FRESH MEADOWS", "state": "NY", "zip": "11366-1329", "ntee": "A23", "ruling": "201605", "deductibility": "1", "assets": 1, "income": 1, "revenue": 0}], "CHASING": [{"ein": "812737937", "name": "CHASING HEALTH INC", "city": "SCHENECTADY", "state": "NY", "zip": "12309-1938", "ntee": "Q33", "ruling": "201912", "deductibility": "1", "assets": 0, "income": 0, "revenue": 0}, {"ein": "992475852", "name": "CHASING ARTS CENTER", "city": "W HEMPSTEAD", "state": "NY", "zip": "11552-3942", "ntee": "A60", "ruling": "202406", "deductibility": "1", "assets": 0, "income": 0, "revenue": 0}], "JEWBELONG": [{"ein": "813739789", "name": "JEWBELONG INC", "city": "NEW YORK", "state": "NY", "zip": "10011-3706", "ntee": "X30", "ruling": "201704", "deductibility": "1", "assets": 4558514, "income": 6989506, "revenue": 6873608}], "THANH": [{"ein": "813916111", "name": "DINH THANH TEMPLE", "city": "FRANKFORT", "state": "NY", "zip": "13340-4813", "ntee": "X50", "ruling": "201702", "deductibility": "1", "assets": 133128, "income": 231137, "revenue": 231137}], "8U": [{"ein": "814667243", "name": "ORCHARD PARK THUNDER 8U", "city": "ORCHARD PARK", "state": "NY", "zip": "14127-2093", "ntee": "N63", "ruling": "201701", "deductibility": "1", "assets": 0, "income": 0, "revenue": 0}], "MNAYMNEH": [{"ein": "814740575", "name": "MNAYMNEH FAMILY CHARITABLE FOUNDATION INC", "city": "NEW YORK", "state": "NY", "zip": "10020-0000", "ntee": "T90", "ruling": "201804", "deductibility": "1", "assets": 7965133, "income": 3331226, "revenue": 0}], "PAWS4POTTER": [{"ein": "821871569", "name": "PAWS4POTTER INC", "city": "DEXTER", "state": "NY", "zip": "13634-2000", "ntee": "D12", "ruling": "201706", "deductibility": "1", "assets": 0, "income": 0, "revenue": 0}], "KAURAGEOUS": [{"ein": "822374934", "name": "KAURAGEOUS LOVE INC", "city": "RICHMOND HILL", "state": "NY", "zip": "11418-1629", "ntee": "R24", "ruling": "201802", "deductibility": "1", "assets": 0, "income": 0, "revenue": 0}], "FLEXATONIC": [{"ein": "831138420", "name": "FLEXATONIC ARTS INC", "city": "BINGHAMTON", "state": "NY", "zip": "13901-5702", "ntee": "A99", "ruling": "201807", "deductibility": "1", "assets": 0, "income": 0, "revenue": 0}], "MYA": [{"ein": "831392423", "name": "MYA J CORIGLIANO FOUNDATION INC", "city": "WESTERNVILLE", "state": "NY", "zip": "13486-2320", "ntee": "G11", "ruling": "201903", "deductibility": "1", "assets": 0, "income": 0, "revenue": 0}, {"ein": "921739146", "name": "MYA FOUNDATION", "city": "BRONX", "state": "NY", "zip": "10457-1747", "ntee": "T99", "ruling": "202303", "deductibility": "1", "assets": 0, "income": 0, "revenue": 0}], "MOUNTSINAI": [{"ein": "831404781", "name": "MOUNTSINAI CHURCH OF JESUS INC", "city": "PELHAM", "state": "NY", "zip": "10803-1025", "ntee": "X20", "ruling": "201909", "deductibility": "1", "assets": 111303, "income": 24680, "revenue": 24680}], "LANDCRAFT": [{"ein": "834025127", "name": "LANDCRAFT GARDEN FOUNDATION INC", "city": "MATTITUCK", "state": "NY", "zip": "11952-1289", "ntee": "C40", "ruling": "201905", "deductibility": "1", "assets": 185995, "income": 340263, "revenue": 318325}], "CHAIDEE": [{"ein": "834286507", "name": "CHAIDEE INC", "city": "NEW ROCHELLE", "state": "NY", "zip": "10804-1221", "ntee": "B90", "ruling": "201905", "deductibility": "1", "assets": 0, "income": 0, "revenue": 0}], "UMU": [{"ein": "834710313", "name": "UMU-OKPU NGWA ASSOCIATION USA AND DIASPORA INC", "city": "BRONX", "state": "NY", "zip": "10467-6438", "ntee": "A23", "ruling": "201908", "deductibility": "1", "assets": 0, "income": 0, "revenue": 0}], "INVISION": [{"ein": "841806456", "name": "INVISION U", "city": "NEW ROCHELLE", "state": "NY", "zip": "10801-7242", "ntee": "A20", "ruling": "201911", "deductibility": "1", "assets": 0, "income": 0, "revenue": 0}], "RAGS": [{"ein": "841987230", "name": "RAGS TO RICHES ANIMAL RESCUE INC", "city": "LAKE GROVE", "state": "NY", "zip": "11755-2730", "ntee": "D20", "ruling": "201910", "deductibility": "1", "assets": 0, "income": 0, "revenue": 0}, {"ein": "934301642", "name": "PEACE RAGS INC", "city": "NEW YORK", "state": "NY", "zip": "10011-8436", "ntee": "J22", "ruling": "202312", "deductibility": "1", "assets": 0, "income": 0, "revenue": 0}], "AURORAS": [{"ein": "843932249", "name": "AURORAS LIGHT FOUNDATION", "city": "JAMAICA", "state": "NY", "zip": "11435-1247", "ntee": "T50", "ruling": "202001", "deductibility": "1", "assets": 0, "income": 0, "revenue": 0}], "EMPYREAN": [{"ein": "851262059", "name": "EMPYREAN FIELDS CORPORATION", "city": "HOPEWELL JCT", "state": "NY", "zip": "12533-5918", "ntee": "L99", "ruling": "202006", "deductibility": "1", "assets": 0, "income": 0, "revenue": 0}], "SHTEFENESHT": [{"ein": "852555622", "name": "YESHUOIS SHTEFENESHT VRIBNITZ INC", "city": "BROOKLYN", "state": "NY", "zip": "11204-1425", "ntee": "T12", "ruling": "202011", "deductibility": "1", "assets": 0, "income": 0, "revenue": 0}], "KNOBLOWITZ": [{"ein": "872002925", "name": "PINCHES MENACHEM KNOBLOWITZ CHARITY FUND INC", "city": "BROOKLYN", "state": "NY", "zip": "11204-2503", "ntee": "P20", "ruling": "202209", "deductibility": "1", "assets": 317, "income": 65500, "revenue": 65500}], "PAPAFUND": [{"ein": "873505885", "name": "PAPAFUND INC", "city": "CEDARHURST", "state": "NY", "zip": "11516-1138", "ntee": "O53", "ruling": "202401", "deductibility": "1", "assets": 0, "income": 0, "revenue": 0}], "BARKAT": [{"ein": "874118829", "name": "BARKAT ALI FOUNDATION INC", "city": "JERICHO", "state": "NY", "zip": "11753-1615", "ntee": "B12", "ruling": "202202", "deductibility": "1", "assets": 20425, "income": 1, "revenue": 0}], "FEATURING": [{"ein": "874566265", "name": "FEATURING THE CENTER FOR CULINARY ARTS", "city": "NEW YORK", "state": "NY", "zip": "10037-2215", "ntee": "K99", "ruling": "202204", "deductibility": "1", "assets": 0, "income": 0, "revenue": 0}], "3P": [{"ein": "880811066", "name": "3P FUTURE INC", "city": "BUFFALO", "state": "NY", "zip": "14207-0642", "ntee": "B90", "ruling": "202204", "deductibility": "1", "assets": 0, "income": 0, "revenue": 0}, {"ein": "884268522", "name": "SARANAC LAKE 3P INC", "city": "SARANAC LAKE", "state": "NY", "zip": "12983-0000", "ntee": "S20", "ruling": "202307", "deductibility": "1", "assets": 0, "income": 0, "revenue": 0}], "CLAS": [{"ein": "881197667", "name": "CLAS HINDU LEARNING CENTER INC", "city": "WESTBURY", "state": "NY", "zip": "11590-1645", "ntee": "X70", "ruling": "202303", "deductibility": "1", "assets": 1816, "income": 5975, "revenue": 5975}], "ROADRUNNERS": [{"ein": "882212204", "name": "ROADRUNNERS ATV CLUB INC", "city": "MC GRAW", "state": "NY", "zip": "13101-0252", "ntee": "N99", "ruling": "202307", "deductibility": "1", "assets": 1118, "income": 5766, "revenue": 0}, {"ein": "923409352", "name": "BEEKMANTOWN ROADRUNNERS", "city": "WEST CHAZY", "state": "NY", "zip": "12992-3230", "ntee": "N60", "ruling": "202305", "deductibility": "1", "assets": 0, "income": 0, "revenue": 0}], "REFULI": [{"ein": "882745720", "name": "REFULI INC", "city": "POMONA", "state": "NY", "zip": "10970-2001", "ntee": "T30", "ruling": "202212", "deductibility": "1", "assets": 852, "income": 203931, "revenue": 203931}], "GLASSHOUSEPROJECTINC": [{"ein": "883253040", "name": "GLASSHOUSEPROJECTINC", "city": "NEW PALTZ", "state": "NY", "zip": "12561-3020", "ntee": "A20", "ruling": "202209", "deductibility": "1", "assets": 264007, "income": 84380, "revenue": 84380}], "ARUCH": [{"ein": "883770155", "name": "SHULCHAN ARUCH PROJECT INC", "city": "BROOKLYN", "state": "NY", "zip": "11225-4482", "ntee": "B99", "ruling": "202212", "deductibility": "1", "assets": 0, "income": 0, "revenue": 0}], "MASAI": [{"ein": "883909872", "name": "MASAI UNITED INTERNATIONAL INC", "city": "MANHATTAN", "state": "NY", "zip": "10001-5404", "ntee": "K31", "ruling": "202411", "deductibility": "1", "assets": 0, "income": 0, "revenue": 0}], "GONDAR": [{"ein": "900646243", "name": "MUTUAL ASSISTANCE ASSOCIATION OF GONDAR IN WESTERN NEW YORK INC", "city": "ROCHESTER", "state": "NY", "zip": "14620-2039", "ntee": "P20", "ruling": "202504", "deductibility": "1", "assets": 0, "income": 0, "revenue": 0}], "CORSOS": [{"ein": "921064765", "name": "CORSOS KIDS FOUNDATION INC", "city": "N SYRACUSE", "state": "NY", "zip": "13212-0000", "ntee": "O12", "ruling": "202301", "deductibility": "1", "assets": 1, "income": 1, "revenue": 0}], "EYGF": [{"ein": "921316240", "name": "EYGF CHARITY FOUNDATION", "city": "BROOKLYN", "state": "NY", "zip": "11219-5445", "ntee": "T20", "ruling": "202312", "deductibility": "1", "assets": 13731, "income": 41436, "revenue": 0}], "NAVIS": [{"ein": "922141930", "name": "NAVIS FOUNDATION INC", "city": "RYE BROOK", "state": "NY", "zip": "10573-1354", "ntee": "E12", "ruling": "202303", "deductibility": "1", "assets": 29687, "income": 160655, "revenue": 29687}], "ENSENANDO": [{"ein": "922369187", "name": "MINISTERIO EVANGELICO ENSENANDO EL CAMINO INC", "city": "BRONX", "state": "NY", "zip": "10469-5229", "ntee": "A70", "ruling": "202309", "deductibility": "1", "assets": 1, "income": 1, "revenue": 0}], "GMEN": [{"ein": "922428618", "name": "GMEN YOUTH SPORTS INC", "city": "CENTRAL VLY", "state": "NY", "zip": "10917-3200", "ntee": "N99", "ruling": "202303", "deductibility": "1", "assets": 0, "income": 0, "revenue": 0}], "DARHMA": [{"ein": "923094128", "name": "VIMUTTI DARHMA COMMUNITY", "city": "CROTON HDSN", "state": "NY", "zip": "10520-1129", "ntee": "P20", "ruling": "202309", "deductibility": "1", "assets": 0, "income": 0, "revenue": 0}], "ISIEKENESI": [{"ein": "923416384", "name": "ADA ISIEKENESI ADA ISHI USA", "city": "BRONX", "state": "NY", "zip": "10457-0000", "ntee": "P20", "ruling": "202311", "deductibility": "1", "assets": 0, "income": 0, "revenue": 0}], "OCEANGATE": [{"ein": "923487114", "name": "SHF OCEANGATE HOUSING DEVELOPMENT FUND CORPORATION", "city": "NEW YORK", "state": "NY", "zip": "10018-5706", "ntee": "L80", "ruling": "202504", "deductibility": "1", "assets": 0, "income": 0, "revenue": 0}], "AHIM": [{"ein": "933049320", "name": "AMERICAN FRIENDS OF SHEVET AHIM INC", "city": "NEW YORK", "state": "NY", "zip": "10075-1192", "ntee": "B99", "ruling": "202312", "deductibility": "1", "assets": 0, "income": 0, "revenue": 0}], "GOLDZAL": [{"ein": "933139831", "name": "JOSEPH AND MARGARETA GOLDZAL CHARITABLE FOUNDATION INC", "city": "BROOKLYN", "state": "NY", "zip": "11229-2515", "ntee": "B01", "ruling": "202309", "deductibility": "1", "assets": 2830001, "income": 3000001, "revenue": 0}], "WRONG": [{"ein": "933679324", "name": "PROVE THEM WRONG 51 INC", "city": "SELDEN", "state": "NY", "zip": "11784-4024", "ntee": "P20", "ruling": "202310", "deductibility": "1", "assets": 0, "income": 0, "revenue": 0}], "IMESI": [{"ein": "933836945", "name": "IMESI-ILE HIGH SCHOOL OLD STUDENTS ASSOCIATION INC", "city": "STONY POINT", "state": "NY", "zip": "10980-3100", "ntee": "S99", "ruling": "202310", "deductibility": "1", "assets": 0, "income": 0, "revenue": 0}], "RECRUITS": [{"ein": "934126710", "name": "CLUTCH RECRUITS USA INC", "city": "BROOKLYN", "state": "NY", "zip": "11234-6242", "ntee": "O55", "ruling": "202407", "deductibility": "1", "assets": 0, "income": 0, "revenue": 0}], "GEK": [{"ein": "991097543", "name": "GEK IN THE GAME", "city": "BUFFALO", "state": "NY", "zip": "14206-3108", "ntee": "N99", "ruling": "202403", "deductibility": "1", "assets": 0, "income": 0, "revenue": 0}], "AKADENY": [{"ein": "993163448", "name": "SPORTS ALLIANCE AKADENY INC", "city": "NEW YORK", "state": "NY", "zip": "10022-7725", "ntee": "N60", "ruling": "202406", "deductibility": "1", "assets": 0, "income": 0, "revenue": 0}], "ROLLES": [{"ein": "993536263", "name": "NANA ROLLES HOUSE", "city": "BROOKLYN", "state": "NY", "zip": "11221-3117", "ntee": "P20", "ruling": "202406", "deductibility": "1", "assets": 0, "income": 0, "revenue": 0}], "HANAHNS": [{"ein": "994357477", "name": "HANAHNS WINTER FOUNDATION", "city": "CORAM", "state": "NY", "zip": "11727-4040", "ntee": "A12", "ruling": "202408", "deductibility": "1", "assets": 0, "income": 0, "revenue": 0}]}