{"ENEWS": [{"ein": "010578709", "name": "WOMENS ENEWS INC", "city": "BROOKLYN", "state": "NY", "zip": "11222-6675", "ntee": "P80", "ruling": "200410", "deductibility": "1", "assets": 88874, "income": 164378, "revenue": 143093}], "JOINT": [{"ein": "010864614", "name": "WYOMING COUNTY JOINT VETERANS COUNCIL", "city": "WARSAW", "state": "NY", "zip": "14569-1471", "ntee": "W30", "ruling": "201111", "deductibility": "1", "assets": 0, "income": 0, "revenue": 0}, {"ein": "061106783", "name": "CHAPPAQUA SCHOOL DISTRICT JOINT BENEFIT FUND", "city": "CHAPPAQUA", "state": "NY", "zip": "10514-0000", "ntee": "", "ruling": "198612", "deductibility": "2", "assets": 1428178, "income": 1331708, "revenue": 1331708}, {"ein": "111902592", "name": "LOCAL 8 JOINT APPRENTICE COMM", "city": "LONG IS CITY", "state": "NY", "zip": "11101-6816", "ntee": "", "ruling": "197012", "deductibility": "2", "assets": 596860, "income": 439938, "revenue": 439938}, {"ein": "112971488", "name": "GERMAN AMERICAN JOINT ACTION COMM", "city": "PATCHOGUE", "state": "NY", "zip": "11772-3716", "ntee": "", "ruling": "199210", "deductibility": "1", "assets": 0, "income": 0, "revenue": 0}, {"ein": "113382334", "name": "JOINT BELLEROSE BUSINESS DISTRICT DEVELOPMENT CORPORATION", "city": "BELLEROSE VLG", "state": "NY", "zip": "11001-4125", "ntee": "", "ruling": "199711", "deductibility": "2", "assets": 0, "income": 0, "revenue": 0}, {"ein": "113459892", "name": "INTERNATIONAL UNION OF OPERATING ENGINEERS LOCAL 295-295C JOINT", "city": "MASPETH", "state": "NY", "zip": "11378-1228", "ntee": "J22", "ruling": "199909", "deductibility": "1", "assets": 1380016, "income": 517941, "revenue": 391345}, {"ein": "113522006", "name": "LOCAL 355 USW JOINT APPRENTICESHIP AND TRAINING FUND", "city": "NEW ROCHELLE", "state": "NY", "zip": "10801-5251", "ntee": "B30", "ruling": "200301", "deductibility": "1", "assets": 2531733, "income": 1151082, "revenue": 1151082}, {"ein": "116000935", "name": "JOINT APPRENTICESHIP & TRAINING COMM", "city": "HAUPPAUGE", "state": "NY", "zip": "11788-5181", "ntee": "J22Z", "ruling": "194811", "deductibility": "1", "assets": 4279554, "income": 1892592, "revenue": 1892592}, {"ein": "116472322", "name": "LABORERS LOCAL 1298 JOINT APPRENTICESHIP & TRAINING TR FUND", "city": "HEMPSTEAD", "state": "NY", "zip": "11550-4556", "ntee": "B300", "ruling": "199703", "deductibility": "1", "assets": 3928447, "income": 1662910, "revenue": 1662910}, {"ein": "130891035", "name": "JOINT INDUSTRY BOARD OF THE ELECTRICAL INDUSTRY", "city": "FLUSHING", "state": "NY", "zip": "11365-3085", "ntee": "", "ruling": "194501", "deductibility": "2", "assets": 58795852, "income": 56526647, "revenue": 56526647}, {"ein": "130891045", "name": "PENSION COMM JOINT INDUSTRY BOARD OF THE ELECTRICAL INDUSTRY", "city": "FLUSHING", "state": "NY", "zip": "11365-3085", "ntee": "", "ruling": "194410", "deductibility": "2", "assets": 252335115, "income": 875562054, "revenue": 466330019}, {"ein": "131656634", "name": "AMERICAN JEWISH JOINT DISTRIBUTION COMMITTEE INC", "city": "NEW YORK", "state": "NY", "zip": "10017-5833", "ntee": "Q330", "ruling": "193304", "deductibility": "1", "assets": 794620255, "income": 455102851, "revenue": 409844302}, {"ein": "131955999", "name": "WESTCHESTER-FAIRFIELD ELECTRICAL JOINT APPRNTCSHP & TRAING TR FUND", "city": "WHITE PLAINS", "state": "NY", "zip": "10605-1514", "ntee": "", "ruling": "196404", "deductibility": "2", "assets": 1370302, "income": 1500659, "revenue": 1500659}, {"ein": "133037968", "name": "JOINT TRADE COMMITTEE OF THE PAINTING AND DECORATING INDUSTRY", "city": "NEW YORK", "state": "NY", "zip": "10001-3967", "ntee": "", "ruling": "198804", "deductibility": "2", "assets": 258412, "income": 126766, "revenue": 126766}, {"ein": "133475693", "name": "JOINT EMPLOYMENT OFFICE OF THE ELEVATOR INDUSTRY", "city": "LONG IS CITY", "state": "NY", "zip": "11106-1363", "ntee": "", "ruling": "199109", "deductibility": "2", "assets": 3216524, "income": 1765852, "revenue": 1765852}, {"ein": "133644302", "name": "ALUMNI ASSOCIATION OF THE HOSPITAL FOR JOINT DISEASES", "city": "NEW YORK", "state": "NY", "zip": "10003-3804", "ntee": "", "ruling": "199409", "deductibility": "2", "assets": 246488, "income": 279021, "revenue": 279021}, {"ein": "134164793", "name": "JOINT PATENT PRACTICE CONTINUING LEGAL EDUCATION INC", "city": "STATEN ISLAND", "state": "NY", "zip": "10306-5929", "ntee": "B50", "ruling": "200111", "deductibility": "1", "assets": 73434, "income": 51086, "revenue": 51086}, {"ein": "136053352", "name": "TR HOSP FOR JOINT DISEASES UW HS", "city": "NEW YORK", "state": "NY", "zip": "10013-2362", "ntee": "", "ruling": "198209", "deductibility": "0", "assets": 605229, "income": 186716, "revenue": 0}, {"ein": "136125313", "name": "EXPANSION JOINT MFRS ASSN INC", "city": "TARRYTOWN", "state": "NY", "zip": "10591-3221", "ntee": "", "ruling": "195606", "deductibility": "2", "assets": 97007, "income": 91511, "revenue": 50036}, {"ein": "136132505", "name": "IBEW LOCAL UNION 363 JOINT APPRENTICE TRAINING FUND", "city": "HARRIMAN", "state": "NY", "zip": "10926-3100", "ntee": "J22I", "ruling": "197701", "deductibility": "1", "assets": 7551346, "income": 4538998, "revenue": 2026641}, {"ein": "141494810", "name": "JOINT COUNCIL FOR ECONOMIC OPPORTUNITY OF CLINTON & FRANKLIN", "city": "PLATTSBURGH", "state": "NY", "zip": "12901-2925", "ntee": "", "ruling": "196710", "deductibility": "1", "assets": 5473069, "income": 9121689, "revenue": 9113384}, {"ein": "141609873", "name": "TRI CITY JOINT APPRENTICESHIP AND TRAINING COMMITTEE", "city": "LATHAM", "state": "NY", "zip": "12110-1569", "ntee": "", "ruling": "198112", "deductibility": "1", "assets": 2642675, "income": 1872318, "revenue": 1872318}, {"ein": "141645636", "name": "ROOFING INDUSTRY JOINT APPRENTICE & TRAINING COMMITTEE FOR NY ET AL", "city": "ROCHESTER", "state": "NY", "zip": "14623-2617", "ntee": "J22", "ruling": "202305", "deductibility": "1", "assets": 376531, "income": 256896, "revenue": 256896}, {"ein": "146076853", "name": "ROOFERS LOCAL UNION 241 JOINT APPRENTICESHIP TRUST FUND", "city": "ALBANY", "state": "NY", "zip": "12206-1626", "ntee": "", "ruling": "198505", "deductibility": "2", "assets": 244079, "income": 223077, "revenue": 223077}, {"ein": "150595908", "name": "ELECTRICAL JOINT APPRENTICE AND TRAINING COMMITTEE OF WATERTOWN NY", "city": "WATERTOWN", "state": "NY", "zip": "13601-2145", "ntee": "", "ruling": "196101", "deductibility": "1", "assets": 1455577, "income": 909527, "revenue": 667453}, {"ein": "150626264", "name": "INTERNATIONAL BROTHERHOOD OF ELECTRICAL WORKERS 325 JOINT FUND", "city": "BINGHAMTON", "state": "NY", "zip": "13904-3213", "ntee": "", "ruling": "196404", "deductibility": "2", "assets": 31716332, "income": 27095005, "revenue": 6714969}, {"ein": "161005993", "name": "BAC LOCAL 3 NY JOINT APPRENTICESHIP AND TRAINING COMMITTEE", "city": "ROCHESTER", "state": "NY", "zip": "14623-3131", "ntee": "", "ruling": "197512", "deductibility": "2", "assets": 2085919, "income": 1196445, "revenue": 1021932}, {"ein": "161015030", "name": "SOUTHWEST ONEIDA COUNTY JOINT SWOC", "city": "VERNON", "state": "NY", "zip": "13476-0396", "ntee": "M20", "ruling": "201807", "deductibility": "1", "assets": 28529, "income": 57160, "revenue": 57160}, {"ein": "161041735", "name": "SHEET METAL JOINT APPRENTICESHIP COMMITTEE OF ROCHESTER NY", "city": "ROCHESTER", "state": "NY", "zip": "14624-4992", "ntee": "J22Z", "ruling": "197710", "deductibility": "2", "assets": 733805, "income": 592469, "revenue": 592469}, {"ein": "161172173", "name": "IRONWORKERS LOCAL NO 6 JOINT APPRENTICE TRAINING & JOURNEYMAN", "city": "CHEEKTOWAGA", "state": "NY", "zip": "14227-1816", "ntee": "B30", "ruling": "200906", "deductibility": "1", "assets": 850457, "income": 361634, "revenue": 292083}, {"ein": "161199782", "name": "ROOFERS LOCAL 195 JOINT APPRENTICESHIP TRAINING FUND", "city": "LIVERPOOL", "state": "NY", "zip": "13090-2513", "ntee": "J22I", "ruling": "198812", "deductibility": "1", "assets": 1731222, "income": 631188, "revenue": 631188}, {"ein": "161292250", "name": "ROCHESTER JOINT BOARD REALTY CORPORATION", "city": "ROCHESTER", "state": "NY", "zip": "14607-2100", "ntee": "J40Z", "ruling": "198803", "deductibility": "2", "assets": 706517, "income": 582286, "revenue": 582286}, {"ein": "166036596", "name": "ROOFERS JOINT APPRENTICE AND EDUCATIONAL FUND", "city": "BUFFALO", "state": "NY", "zip": "14224-1393", "ntee": "", "ruling": "196312", "deductibility": "2", "assets": 307431, "income": 446700, "revenue": 392671}, {"ein": "166067509", "name": "ROCHESTER ELECTRICAL JOINT APPRENTICESHIP AND TRAINING TR", "city": "ROCHESTER", "state": "NY", "zip": "14623-2619", "ntee": "J220", "ruling": "199802", "deductibility": "1", "assets": 4203620, "income": 2416292, "revenue": 1959936}, {"ein": "201365338", "name": "INSULATORS LOCAL 26 JOINT APPRENTICE TRAINING PLAN TRUST", "city": "ROCHESTER", "state": "NY", "zip": "14622-1552", "ntee": "J22", "ruling": "200506", "deductibility": "1", "assets": 134513, "income": 66650, "revenue": 66650}, {"ein": "204393253", "name": "JACK G BUNCHER CHARITABLE FUND FORTHE AMER JEWISH JOINT DIST COMMITTE", "city": "NEW YORK", "state": "NY", "zip": "10017-5833", "ntee": "T20", "ruling": "200706", "deductibility": "1", "assets": 15503520, "income": 1507567, "revenue": 1507567}, {"ein": "208628882", "name": "1217 JOINT COUNCIL USWU IUJAT", "city": "LONG IS CITY", "state": "NY", "zip": "11106-2329", "ntee": "J40", "ruling": "201008", "deductibility": "2", "assets": 7046, "income": 93859, "revenue": 93859}, {"ein": "222188264", "name": "JOINT APPRENTICE AND TRAINING COMMITTEE OF THE ELEVATOR INDUSTRY", "city": "LONG ISLAND CITY", "state": "NY", "zip": "11106-1363", "ntee": "", "ruling": "197808", "deductibility": "2", "assets": 432674, "income": 967746, "revenue": 967746}, {"ein": "222485445", "name": "INDIVIDUAL JOINT ROOFERS LOCAL 203 TRAINING COMMITTEE", "city": "BINGHAMTON", "state": "NY", "zip": "13901-2359", "ntee": "", "ruling": "198404", "deductibility": "2", "assets": 0, "income": 0, "revenue": 0}, {"ein": "223462684", "name": "ROCHESTER REGIONAL JOINT BOARD FUND FOR THE FUTURE", "city": "ROCHESTER", "state": "NY", "zip": "14607-2100", "ntee": "", "ruling": "199610", "deductibility": "2", "assets": 6028551, "income": 573100, "revenue": 230306}, {"ein": "237108217", "name": "TEAMSTERS LOCAL 294 AND EASTERN CONTRACTORS ASSOCIATION INC JOINT", "city": "ALBANY", "state": "NY", "zip": "12205-1051", "ntee": "J22Z", "ruling": "197201", "deductibility": "2", "assets": 1667019, "income": 915675, "revenue": 187051}, {"ein": "237125961", "name": "SHEET METAL WORKERS LOCAL UNION 83 JOINT APPRENTICESHIP TRUST FUND", "city": "CLIFTON PARK", "state": "NY", "zip": "12065-1312", "ntee": "B30", "ruling": "202303", "deductibility": "1", "assets": 752538, "income": 398723, "revenue": 398723}, {"ein": "237181663", "name": "JOINT APPRENTICESHIP & TRAINING COMMITTEE", "city": "JAMESTOWN", "state": "NY", "zip": "14701-9680", "ntee": "", "ruling": "197204", "deductibility": "1", "assets": 547307, "income": 228569, "revenue": 228569}, {"ein": "237232360", "name": "IRONWORKERS LOCAL 12 TRAINING & EDUCATION JOINT APPRENTICESHIP", "city": "LATHAM", "state": "NY", "zip": "12110-2203", "ntee": "B30", "ruling": "202004", "deductibility": "1", "assets": 1351780, "income": 434499, "revenue": 434499}, {"ein": "237257515", "name": "ITHACA ELECTRICAL JOINT APPRENTICESHIP TRAINING FUND LOCAL", "city": "ITHACA", "state": "NY", "zip": "14850-5124", "ntee": "B30", "ruling": "201302", "deductibility": "1", "assets": 1398162, "income": 549968, "revenue": 549968}, {"ein": "237310768", "name": "JOINT INDUSTRY ADVANCEMENT FUND", "city": "ARMONK", "state": "NY", "zip": "10504-1705", "ntee": "", "ruling": "197308", "deductibility": "2", "assets": 3643, "income": 71539, "revenue": 71539}, {"ein": "237448166", "name": "NIAGARA COUNTY ELECTRICAL JOINT APPRENTICESHIP TRAINING COMMITTEE", "city": "NIAGARA FALLS", "state": "NY", "zip": "14304-1987", "ntee": "J40Z", "ruling": "197505", "deductibility": "1", "assets": 1004896, "income": 477138, "revenue": 477138}, {"ein": "262718175", "name": "JOINT COUNCIL 1217 USWU IUJAT", "city": "LONG IS CITY", "state": "NY", "zip": "11106-2329", "ntee": "J40", "ruling": "201008", "deductibility": "2", "assets": 300629, "income": 2355135, "revenue": 2355135}, {"ein": "264446028", "name": "JOINT HEIRS KINGDOM MINISTRIES", "city": "ROCHESTER", "state": "NY", "zip": "14621-4404", "ntee": "X20", "ruling": "201409", "deductibility": "1", "assets": 0, "income": 0, "revenue": 0}, {"ein": "271373186", "name": "A JOINT INITIATIVE INC", "city": "KEW GARDENS", "state": "NY", "zip": "11415-3328", "ntee": "P20", "ruling": "201003", "deductibility": "1", "assets": 0, "income": 0, "revenue": 0}, {"ein": "271908537", "name": "PERINTON JOINT TRAINING FACILITY INC", "city": "FAIRPORT", "state": "NY", "zip": "14450-9577", "ntee": "N40", "ruling": "201103", "deductibility": "1", "assets": 1106063, "income": 55409, "revenue": 55409}, {"ein": "271938867", "name": "JOINT LANDOWNERS COALITION OF NEW YORK INC", "city": "BINGHAMTON", "state": "NY", "zip": "13902-2839", "ntee": "S41", "ruling": "201010", "deductibility": "2", "assets": 0, "income": 0, "revenue": 0}, {"ein": "300954667", "name": "NEW YORK NEW JERSEY REGIONAL JOINT BOARD HOLDING COMPANY INC", "city": "NEW YORK", "state": "NY", "zip": "10001-6443", "ntee": "S47", "ruling": "201804", "deductibility": "2", "assets": 8007866, "income": 240000, "revenue": 240000}, {"ein": "311711622", "name": "THE JOINT RETIREMENT BOARD OF CONSERVATIVE JUDAISM AMUTAH", "city": "NEW YORK", "state": "NY", "zip": "10119-1501", "ntee": "X30", "ruling": "200103", "deductibility": "1", "assets": 0, "income": 0, "revenue": 0}, {"ein": "332786845", "name": "VIRTUAL JOINT FORCES COMMAND", "city": "SAYVILLE", "state": "NY", "zip": "11782-0208", "ntee": "B60", "ruling": "202501", "deductibility": "1", "assets": 0, "income": 0, "revenue": 0}, {"ein": "342002239", "name": "JOINT BOARD OF PLUMBERS CORP", "city": "FRANKLIN SQ", "state": "NY", "zip": "11010-3233", "ntee": "S41", "ruling": "200506", "deductibility": "2", "assets": 0, "income": 0, "revenue": 0}, {"ein": "421643369", "name": "JOINT INDUSTRY ADVANCEMENT FUND", "city": "FARMINGDALE", "state": "NY", "zip": "11735-0206", "ntee": "J40", "ruling": "200412", "deductibility": "2", "assets": 4641195, "income": 3089176, "revenue": 3089176}, {"ein": "431962200", "name": "JOINT CHRISTAIN CHOIR ASSOCIATION INC", "city": "CAMBRIA HTS", "state": "NY", "zip": "11411-1936", "ntee": "X20", "ruling": "201408", "deductibility": "1", "assets": 26586, "income": 10105, "revenue": 10105}, {"ein": "453307266", "name": "CIR - JOINT QUALITY IMPROVEMENT ASSOCIATION", "city": "LONG ISLAND CITY", "state": "NY", "zip": "11101-5245", "ntee": "E60", "ruling": "201209", "deductibility": "1", "assets": 416444, "income": 69491, "revenue": 69491}, {"ein": "471084570", "name": "JOINT PERPETUAL CARE FUND INC", "city": "NEW YORK", "state": "NY", "zip": "10022-5727", "ntee": "", "ruling": "194603", "deductibility": "0", "assets": 0, "income": 0, "revenue": 0}, {"ein": "475044823", "name": "JOINT OWNERSHIP ENTITY NEW YORK CITY CORP", "city": "NEW YORK", "state": "NY", "zip": "10012-5237", "ntee": "L80", "ruling": "201511", "deductibility": "1", "assets": 10293193, "income": 720303, "revenue": 720303}, {"ein": "510186057", "name": "IRON WORKERS LOCAL 440 JOINT APPRENTICESHIP FUND", "city": "WHITESBORO", "state": "NY", "zip": "13492-1035", "ntee": "", "ruling": "197705", "deductibility": "1", "assets": 376281, "income": 109340, "revenue": 109340}, {"ein": "510195184", "name": "MANHATTAN JOINT LECTURE COMMITTEE", "city": "NEW YORK", "state": "NY", "zip": "10021-1802", "ntee": "", "ruling": "197607", "deductibility": "1", "assets": 0, "income": 0, "revenue": 0}, {"ein": "562373058", "name": "PARTNERS OF JOINT MINISTRY INTERNATIONAL INC", "city": "WYANDANCH", "state": "NY", "zip": "11798-4303", "ntee": "X20", "ruling": "200405", "deductibility": "1", "assets": 0, "income": 0, "revenue": 0}, {"ein": "770660893", "name": "NATIONAL JOINT SERVICES MILITARY CADET CORPS", "city": "NEW YORK", "state": "NY", "zip": "10035-4603", "ntee": "X20", "ruling": "200811", "deductibility": "1", "assets": 0, "income": 0, "revenue": 0}, {"ein": "813350524", "name": "JOINT EDUCATION OUTREACH INC", "city": "NEW YORK", "state": "NY", "zip": "10003-2139", "ntee": "E19", "ruling": "201706", "deductibility": "1", "assets": 0, "income": 0, "revenue": 0}, {"ein": "852586238", "name": "THE INTERNATIONAL CARTILAGE JOINT PRESERVATION FOUNDATION INC", "city": "NEW YORK", "state": "NY", "zip": "10021-3901", "ntee": "G51", "ruling": "202010", "deductibility": "1", "assets": 0, "income": 0, "revenue": 0}, {"ein": "871616118", "name": "FRIENDS OF JOINT CAMPS INC", "city": "BROOKLYN", "state": "NY", "zip": "11203-1281", "ntee": "X30", "ruling": "202202", "deductibility": "1", "assets": 0, "income": 0, "revenue": 0}, {"ein": "932800517", "name": "ORLEANS JOINT VETERANS COUNCIL", "city": "ALBION", "state": "NY", "zip": "14411-9303", "ntee": "W30", "ruling": "202309", "deductibility": "1", "assets": 0, "income": 0, "revenue": 0}], "OVADIA": [{"ein": "020725345", "name": "HAZON OVADIA INC", "city": "BROOKLYN", "state": "NY", "zip": "11223-3241", "ntee": "X30", "ruling": "200506", "deductibility": "1", "assets": 0, "income": 0, "revenue": 0}], "LETOIVA": [{"ein": "020738485", "name": "PRI LETOIVA INSTITUTE", "city": "BROOKLYN", "state": "NY", "zip": "11219-2611", "ntee": "X30", "ruling": "202205", "deductibility": "1", "assets": 0, "income": 0, "revenue": 0}], "AILIM": [{"ein": "030514461", "name": "BNEI AILIM", "city": "BROOKLYN", "state": "NY", "zip": "11219-2252", "ntee": "X30", "ruling": "200402", "deductibility": "1", "assets": 0, "income": 0, "revenue": 0}], "CARMELITE": [{"ein": "036007382", "name": "DISCALCED CARMELITE NUNS OF THE DIOCESE OF BURLINGTON VERMONT", "city": "BEACON", "state": "NY", "zip": "12508-3540", "ntee": "", "ruling": "194603", "deductibility": "1", "assets": 0, "income": 0, "revenue": 0}, {"ein": "141369151", "name": "CARMELITE SISTERS FOR THE AGED AND INFIRM", "city": "GERMANTOWN", "state": "NY", "zip": "12526-5639", "ntee": "", "ruling": "194603", "deductibility": "1", "assets": 0, "income": 0, "revenue": 0}, {"ein": "141810368", "name": "THE CARMELITE SYSTEM INC", "city": "GERMANTOWN", "state": "NY", "zip": "12526-5639", "ntee": "", "ruling": "194603", "deductibility": "1", "assets": 21274263, "income": 10638217, "revenue": 10638217}, {"ein": "146019582", "name": "DISCALCED CARMELITE NUNS OF SCHENECTADY N Y INC", "city": "PITTSFORD", "state": "NY", "zip": "14534-1041", "ntee": "", "ruling": "194603", "deductibility": "1", "assets": 0, "income": 0, "revenue": 0}, {"ein": "811564859", "name": "CARMELITE SISTERS FOR THE AGED AND INFIRM CONTINUING CARE TRUST", "city": "GERMANTOWN", "state": "NY", "zip": "12526-5644", "ntee": "", "ruling": "194603", "deductibility": "1", "assets": 0, "income": 0, "revenue": 0}, {"ein": "823444641", "name": "CARMELITE GUATEMALAN MISSION INC", "city": "EAST AURORA", "state": "NY", "zip": "14052-1636", "ntee": "E12", "ruling": "201712", "deductibility": "1", "assets": 0, "income": 0, "revenue": 0}, {"ein": "842557084", "name": "ZEPHYR LAY CARMELITE MISSION INC", "city": "CANANDAIGUA", "state": "NY", "zip": "14424-8366", "ntee": "X22", "ruling": "201908", "deductibility": "1", "assets": 0, "income": 0, "revenue": 0}], "HUMMOCK": [{"ein": "043308915", "name": "HUMMOCK POND EQUESTRIAN CENTER INC", "city": "GARDEN CITY", "state": "NY", "zip": "11530-4890", "ntee": "", "ruling": "199802", "deductibility": "2", "assets": 172305, "income": 154220, "revenue": 154220}], "UTA": [{"ein": "043642857", "name": "CONGREGATION ALUMNUS UTA", "city": "BROOKLYN", "state": "NY", "zip": "11219-3945", "ntee": "X21", "ruling": "200205", "deductibility": "1", "assets": 0, "income": 0, "revenue": 0}, {"ein": "113541397", "name": "KOLLEL AVREICHIM DRABEINU YOEL OF UTA", "city": "BROOKLYN", "state": "NY", "zip": "11206-5408", "ntee": "X30", "ruling": "200006", "deductibility": "1", "assets": 0, "income": 0, "revenue": 0}, {"ein": "166532975", "name": "LOTTE AND FELIX BILGREY MEMORIAL FOUNDATION TR UTA 05242000", "city": "LARCHMONT", "state": "NY", "zip": "10538-0197", "ntee": "T21", "ruling": "200210", "deductibility": "1", "assets": 1815857, "income": 65210, "revenue": 0}, {"ein": "201466090", "name": "UTA OF KJ BC INC", "city": "MONROE", "state": "NY", "zip": "10950-2963", "ntee": "X11", "ruling": "201408", "deductibility": "1", "assets": 0, "income": 0, "revenue": 0}, {"ein": "201466483", "name": "UTA OF KJ SC INC", "city": "MONROE", "state": "NY", "zip": "10950-2963", "ntee": "X11", "ruling": "201505", "deductibility": "1", "assets": 26349244, "income": 3930004, "revenue": 3930004}, {"ein": "201470096", "name": "UTA OF KJ MC INC", "city": "MONROE", "state": "NY", "zip": "10950-2963", "ntee": "X30", "ruling": "201407", "deductibility": "1", "assets": 24764792, "income": 2140859, "revenue": 2140859}, {"ein": "357119449", "name": "ZUCKERMAN INSTITUTE CHARITABLE UTA 09302015", "city": "NEW YORK", "state": "NY", "zip": "10022-5730", "ntee": "B05", "ruling": "201601", "deductibility": "1", "assets": 2759, "income": 2135783, "revenue": 0}, {"ein": "472241961", "name": "CENTRAL UTA OF MONSEY", "city": "AIRMONT", "state": "NY", "zip": "10952-3801", "ntee": "X30", "ruling": "201506", "deductibility": "1", "assets": 0, "income": 0, "revenue": 0}, {"ein": "811547736", "name": "FRIENDS OF UTA INC", "city": "BROOKLYN", "state": "NY", "zip": "11219-3945", "ntee": "T30", "ruling": "201610", "deductibility": "1", "assets": 0, "income": 0, "revenue": 0}], "MINIMALLY": [{"ein": "043821340", "name": "FOUNDATION FOR THE ADVANCEMENT OF MINIMALLY INVASIVE SURGERY INC", "city": "NEW YORK", "state": "NY", "zip": "10025-7352", "ntee": "H12", "ruling": "200706", "deductibility": "1", "assets": 0, "income": 0, "revenue": 0}], "BETHPAGE": [{"ein": "061585816", "name": "MUSIC ASSOCIATION OF PLAINVIEW-OLD BETHPAGE", "city": "PLAINVIEW", "state": "NY", "zip": "11803-2625", "ntee": "B94", "ruling": "201208", "deductibility": "1", "assets": 0, "income": 0, "revenue": 0}, {"ein": "111827062", "name": "BETHPAGE NURSERY SCHOOL", "city": "BETHPAGE", "state": "NY", "zip": "11714-3108", "ntee": "B21Z", "ruling": "196701", "deductibility": "1", "assets": 361292, "income": 162604, "revenue": 162256}, {"ein": "112480387", "name": "BETHPAGE BASEBALL ASSOCIATION INC", "city": "BETHPAGE", "state": "NY", "zip": "11714-0721", "ntee": "N63", "ruling": "200503", "deductibility": "1", "assets": 41152, "income": 204649, "revenue": 204649}, {"ein": "112677375", "name": "VOLUNTEER AND EXEMPT FIREMENS BENEVOLENT ASSN OF BETHPAGE NASSAU", "city": "BETHPAGE", "state": "NY", "zip": "11714-3705", "ntee": "E62I", "ruling": "199004", "deductibility": "2", "assets": 3086671, "income": 292736, "revenue": 292711}, {"ein": "113127048", "name": "BETHPAGE MEDICAL STAFF ASSOCIATION INC", "city": "BETHPAGE", "state": "NY", "zip": "11714-5713", "ntee": "", "ruling": "199403", "deductibility": "2", "assets": 529164, "income": 248628, "revenue": 248628}, {"ein": "113197361", "name": "BETHPAGE DISCOVERY PROGRAM INC", "city": "PLAINVIEW", "state": "NY", "zip": "11803-6119", "ntee": "O99Z", "ruling": "199803", "deductibility": "1", "assets": 325247, "income": 296198, "revenue": 296198}, {"ein": "113521701", "name": "CONCERNED CITIZENS OF THE PLAINVIEW -OLD BETHPAGE COMMUNITY INC", "city": "PLAINVIEW", "state": "NY", "zip": "11803-3944", "ntee": "P015", "ruling": "200106", "deductibility": "1", "assets": 0, "income": 0, "revenue": 0}, {"ein": "113536196", "name": "GRUMMAN RETIREE CLUB-BETHPAGE CHAPTER SCHOLARSHIP FUND INC", "city": "BETHPAGE", "state": "NY", "zip": "11714-0748", "ntee": "Z99", "ruling": "200008", "deductibility": "1", "assets": 0, "income": 0, "revenue": 0}, {"ein": "113578002", "name": "BETHPAGE COMMUNITY FOUNDATION", "city": "BETHPAGE", "state": "NY", "zip": "11714-2906", "ntee": "T31", "ruling": "200112", "deductibility": "1", "assets": 0, "income": 0, "revenue": 0}, {"ein": "113605225", "name": "BETHPAGE CONGRESS OF TEACHERS BENEFIT TR PLAN FUND", "city": "BETHPAGE", "state": "NY", "zip": "11714-1501", "ntee": "Y43", "ruling": "200205", "deductibility": "2", "assets": 420767, "income": 440525, "revenue": 440525}, {"ein": "208405895", "name": "BETHPAGE EDUCATIONAL FOUNDATION INC", "city": "BETHPAGE", "state": "NY", "zip": "11714-1501", "ntee": "B12", "ruling": "200904", "deductibility": "1", "assets": 71195, "income": 14509, "revenue": 9051}, {"ein": "237073852", "name": "BETHPAGE UFSD CLERICAL UNIT OF THE NASSAU COUNTY EDL EMP LOCAL 865", "city": "MASSAPEQUA", "state": "NY", "zip": "11758-6419", "ntee": "", "ruling": "197007", "deductibility": "2", "assets": 0, "income": 0, "revenue": 0}, {"ein": "237405672", "name": "PLAINVIEW OLD BETHPAGE YOUTH ACTIVITIES COUNCIL", "city": "PLAINVIEW", "state": "NY", "zip": "11803-2318", "ntee": "F220", "ruling": "198004", "deductibility": "1", "assets": 0, "income": 0, "revenue": 0}, {"ein": "237431780", "name": "PLAINVIEW-OLD BETHPAGE SOCCER CLUB INC", "city": "OLD BETHPAGE", "state": "NY", "zip": "11804-0212", "ntee": "N64Z", "ruling": "197510", "deductibility": "1", "assets": 93985, "income": 542330, "revenue": 542330}, {"ein": "237442262", "name": "LOCAL 237 TEAMSTERS PLAINVIEW OLD BETHPAGE PUBLIC SCHOOL C S D NO 4", "city": "NEW YORK", "state": "NY", "zip": "10011-7201", "ntee": "", "ruling": "197503", "deductibility": "2", "assets": 1389010, "income": 819978, "revenue": 668803}, {"ein": "272500620", "name": "BETHPAGE ATHLETIC CAMPS INC", "city": "BETHPAGE", "state": "NY", "zip": "11714-0029", "ntee": "N60", "ruling": "201306", "deductibility": "1", "assets": 8871, "income": 168280, "revenue": 168280}, {"ein": "300569609", "name": "PLAINVIEW OLD BETHPAGE ATHLETIC BOOSTER CLUB INC", "city": "PLAINVIEW", "state": "NY", "zip": "11803-5410", "ntee": "B12", "ruling": "202302", "deductibility": "1", "assets": 0, "income": 0, "revenue": 0}, {"ein": "510153499", "name": "5033 BETHPAGE CORPORATION", "city": "BETHPAGE", "state": "NY", "zip": "11714-3903", "ntee": "", "ruling": "197508", "deductibility": "2", "assets": 30190, "income": 506835, "revenue": 432909}, {"ein": "753003986", "name": "BETHPAGE FIRE DEPARTMENT", "city": "BETHPAGE", "state": "NY", "zip": "11714-3705", "ntee": "M24", "ruling": "201006", "deductibility": "1", "assets": 169826, "income": 132265, "revenue": 132265}, {"ein": "813525941", "name": "PIECE BY PIECE BETHPAGE INC", "city": "BETHPAGE", "state": "NY", "zip": "11714-3107", "ntee": "P40", "ruling": "202103", "deductibility": "1", "assets": 0, "income": 0, "revenue": 0}, {"ein": "832869844", "name": "BETHPAGE CENTRAL PARK KIWANIS CORP", "city": "BETHPAGE", "state": "NY", "zip": "11714-0623", "ntee": "O12", "ruling": "201902", "deductibility": "1", "assets": 0, "income": 0, "revenue": 0}, {"ein": "852666816", "name": "FRIENDS FOR OLD BETHPAGE VILLAGE RESTORATION INC", "city": "E WILLISTON", "state": "NY", "zip": "11596-2002", "ntee": "A80", "ruling": "202106", "deductibility": "1", "assets": 235451, "income": 101362, "revenue": 101362}, {"ein": "934646617", "name": "BETHPAGE HIGH SCHOOL MARINE FITNESS ASSOCIATION", "city": "BETHPAGE", "state": "NY", "zip": "11714-1501", "ntee": "N60", "ruling": "202401", "deductibility": "1", "assets": 0, "income": 0, "revenue": 0}, {"ein": "992725821", "name": "BETHPAGE HIGH SCHOOL BOYS LACROSSE BOOSTER CLUB", "city": "BETHPAGE", "state": "NY", "zip": "11714-1201", "ntee": "N60", "ruling": "202405", "deductibility": "1", "assets": 0, "income": 0, "revenue": 0}, {"ein": "993404425", "name": "BETHPAGE HIGH SCHOOL FOOTBALL BOOSTER CLUB", "city": "GREENLAWN", "state": "NY", "zip": "11740-2012", "ntee": "N60", "ruling": "202406", "deductibility": "1", "assets": 0, "income": 0, "revenue": 0}], "GINGOLD": [{"ein": "061764976", "name": "GINGOLD THEATRICAL GROUP", "city": "NEW YORK", "state": "NY", "zip": "10018-8641", "ntee": "A65", "ruling": "200802", "deductibility": "1", "assets": 98475, "income": 497771, "revenue": 452801}, {"ein": "236767559", "name": "MOLLY GINGOLD TRUST UW DR RALPH B LITTLE FUND", "city": "AMHERST", "state": "NY", "zip": "14228-2307", "ntee": "T22", "ruling": "200201", "deductibility": "1", "assets": 85177, "income": 26155, "revenue": 0}], "PACKER": [{"ein": "111633522", "name": "PACKER COLLEGIATE INSTITUTE", "city": "BROOKLYN", "state": "NY", "zip": "11201-4312", "ntee": "B200", "ruling": "193809", "deductibility": "1", "assets": 214118978, "income": 84701596, "revenue": 73666304}], "SPEECH": [{"ein": "111807504", "name": "GREATER NEW YORK HEARING AND SPEECH SOCIETY", "city": "NEW HYDE PARK", "state": "NY", "zip": "11042-1121", "ntee": "", "ruling": "195309", "deductibility": "1", "assets": 4044258, "income": 95412, "revenue": 95412}, {"ein": "112226910", "name": "LONG ISLAND SPEECH ASSOCIATION INC", "city": "MASTIC BEACH", "state": "NY", "zip": "11951-0133", "ntee": "", "ruling": "197107", "deductibility": "2", "assets": 153211, "income": 106892, "revenue": 106892}, {"ein": "112646484", "name": "LEXINGTON HEARING AND SPEECH CENTER INC", "city": "EAST ELMHURST", "state": "NY", "zip": "11370-1441", "ntee": "P80", "ruling": "198704", "deductibility": "1", "assets": 151110, "income": 1035915, "revenue": 1035915}, {"ein": "113315274", "name": "NATIONAL CUED SPEECH ASSOCIATION INC", "city": "BROOKLYN", "state": "NY", "zip": "11234-4203", "ntee": "", "ruling": "198904", "deductibility": "1", "assets": 0, "income": 0, "revenue": 0}, {"ein": "132811433", "name": "MOUNT ST URSULA SPEECH CENTER INC", "city": "BRONX", "state": "NY", "zip": "10458-3012", "ntee": "", "ruling": "194601", "deductibility": "2", "assets": 0, "income": 0, "revenue": 0}, {"ein": "160743137", "name": "HEARING AND SPEECH CENTER OF ROCHESTER INC", "city": "ROCHESTER", "state": "NY", "zip": "14620-3042", "ntee": "E56Z", "ruling": "195607", "deductibility": "1", "assets": 1746125, "income": 4397186, "revenue": 4452066}, {"ein": "160776186", "name": "BUFFALO HEARING AND SPEECH CENTER INC", "city": "BUFFALO", "state": "NY", "zip": "14203-1002", "ntee": "E56Z", "ruling": "196002", "deductibility": "1", "assets": 8448839, "income": 24282605, "revenue": 24282605}, {"ein": "161447479", "name": "SPEECH-LANGUAGE-HEARING ASSOCIATION OF WESTERN NEW YORK INCORPORATED", "city": "TONAWANDA", "state": "NY", "zip": "14150-5127", "ntee": "E035", "ruling": "200702", "deductibility": "1", "assets": 0, "income": 0, "revenue": 0}, {"ein": "161487962", "name": "BUFFALO HEARING AND SPEECH CENTER F OUNDATION INC", "city": "BUFFALO", "state": "NY", "zip": "14203-1002", "ntee": "T20I", "ruling": "199704", "deductibility": "1", "assets": 2216029, "income": 622799, "revenue": 492828}, {"ein": "222593099", "name": "CAPITAL AREA SPEECH LANGUAGE AND HEARING ASSOCIATION", "city": "GUILDERLAND", "state": "NY", "zip": "12084-0002", "ntee": "H42", "ruling": "200805", "deductibility": "1", "assets": 0, "income": 0, "revenue": 0}, {"ein": "222993238", "name": "CENTRAL NEW SPEECH LANGUAGE HEARING ASSN", "city": "SYRACUSE", "state": "NY", "zip": "13217-8053", "ntee": "S41", "ruling": "201211", "deductibility": "2", "assets": 0, "income": 0, "revenue": 0}, {"ein": "237359733", "name": "GENESEE VALLEY SPEECH & HEARING ASSOCIATION", "city": "ROCHESTER", "state": "NY", "zip": "14618-3703", "ntee": "P87", "ruling": "201005", "deductibility": "1", "assets": 0, "income": 0, "revenue": 0}, {"ein": "263652871", "name": "SPEECH LANGUAGE & HEARING ASSOCIATION OF THE HUDSON VALLEY", "city": "GARDINER", "state": "NY", "zip": "12525-0248", "ntee": "P990", "ruling": "200803", "deductibility": "1", "assets": 0, "income": 0, "revenue": 0}, {"ein": "822395157", "name": "SMILES FOR SPEECH INC", "city": "NEW YORK", "state": "NY", "zip": "10032-5229", "ntee": "O50", "ruling": "201709", "deductibility": "1", "assets": 0, "income": 0, "revenue": 0}, {"ein": "883231166", "name": "WORDWISE SPEECH THERAPY FOUNDATION INC", "city": "DEER PARK", "state": "NY", "zip": "11729-5515", "ntee": "O01", "ruling": "202209", "deductibility": "1", "assets": 0, "income": 0, "revenue": 0}, {"ein": "932316612", "name": "GLOBAL SPEECH AND HEARING INCORPORATED", "city": "WEBSTER", "state": "NY", "zip": "14580-8612", "ntee": "E50", "ruling": "202308", "deductibility": "1", "assets": 0, "income": 0, "revenue": 0}], "SALES": [{"ein": "112129051", "name": "UNITED AUTOMOTIVE SALES & SERVICE EMPLOYEES UNION LOCAL 1A NOITU", "city": "JAMAICA", "state": "NY", "zip": "11435-3331", "ntee": "J40Z", "ruling": "197011", "deductibility": "2", "assets": 3236820, "income": 851152, "revenue": 308722}, {"ein": "133317994", "name": "HOSPITALITY SALES & MARKETING ASSOCIATION INTERNATIONAL INC", "city": "BRIARCLIFF", "state": "NY", "zip": "10510-1736", "ntee": "", "ruling": "198503", "deductibility": "2", "assets": 34832, "income": 98794, "revenue": 98794}, {"ein": "133990145", "name": "DE SALES ASSISTED LIVING DEVELOPMENT CORP", "city": "NEW YORK", "state": "NY", "zip": "10029-3822", "ntee": "L20Z", "ruling": "199804", "deductibility": "1", "assets": 5890610, "income": 1773587, "revenue": 1773587}, {"ein": "161218035", "name": "CENTRAL NEW YORK SALES AND MARKETING EXECUTIVES INC", "city": "SYRACUSE", "state": "NY", "zip": "13220-5334", "ntee": "", "ruling": "198607", "deductibility": "2", "assets": 12726, "income": 70461, "revenue": 70461}, {"ein": "166029004", "name": "BUFFALO NIAGARA SALES EXECTIVE INC", "city": "ORCHARD PARK", "state": "NY", "zip": "14127-8185", "ntee": "S41", "ruling": "201101", "deductibility": "2", "assets": 56381, "income": 141961, "revenue": 123612}, {"ein": "263564034", "name": "ST FRANCIS DE SALES FOUNDATION", "city": "BROOKLYN", "state": "NY", "zip": "11236-2113", "ntee": "B11", "ruling": "201006", "deductibility": "1", "assets": 0, "income": 0, "revenue": 0}, {"ein": "454371313", "name": "GARAGE SALES AGAINST VIOLENCE CORP", "city": "LINDENHURST", "state": "NY", "zip": "11757-5904", "ntee": "F99", "ruling": "201208", "deductibility": "1", "assets": 0, "income": 0, "revenue": 0}, {"ein": "834585429", "name": "ALL SALES FOUNDATION", "city": "BROOKLYN", "state": "NY", "zip": "11211-7578", "ntee": "T22", "ruling": "201909", "deductibility": "1", "assets": 1, "income": 1, "revenue": 0}, {"ein": "872442763", "name": "ROMAN CATHOLIC CHURCH OF SAINT JOHN AND SAINT FRANCIS DE SALES", "city": "WOODSTOCK", "state": "NY", "zip": "12498-1710", "ntee": "", "ruling": "194603", "deductibility": "1", "assets": 0, "income": 0, "revenue": 0}], "EASTPORT": [{"ein": "112214162", "name": "EASTPORT BIBLE CHURCH", "city": "EASTPORT", "state": "NY", "zip": "11941-1322", "ntee": "", "ruling": "197102", "deductibility": "1", "assets": 0, "income": 0, "revenue": 0}, {"ein": "113302077", "name": "EASTPORT-SOUTH MANOR SPORTS ASSOCIATION", "city": "MANORVILLE", "state": "NY", "zip": "11949-0701", "ntee": "O20Z", "ruling": "199710", "deductibility": "1", "assets": 96998, "income": 142100, "revenue": 142100}, {"ein": "260099756", "name": "EASTPORT-SOUTH MANOR TEACHERS BENEFIT TR FUND", "city": "EASTPORT", "state": "NY", "zip": "11941-1210", "ntee": "Y43", "ruling": "200411", "deductibility": "2", "assets": 743548, "income": 439607, "revenue": 439607}, {"ein": "272414004", "name": "EASTPORT CHEMICAL FIRE ENGINE COMPANY NUMBER ONE INC", "city": "EASTPORT", "state": "NY", "zip": "11941-1207", "ntee": "M20", "ruling": "201101", "deductibility": "1", "assets": 379661, "income": 206888, "revenue": 99071}, {"ein": "461299092", "name": "EASTPORT SOUTH MANOR PTSO CONNECTION", "city": "MANORVILLE", "state": "NY", "zip": "11949-0027", "ntee": "B82", "ruling": "201312", "deductibility": "1", "assets": 0, "income": 0, "revenue": 0}, {"ein": "462123734", "name": "EASTPORT-SOUTH MANOR ATHLETIC BOOSTER CLUB INC", "city": "MANORVILLE", "state": "NY", "zip": "11949-0655", "ntee": "B11", "ruling": "201412", "deductibility": "1", "assets": 87549, "income": 94901, "revenue": 94901}, {"ein": "800340460", "name": "CSEA UNIT 0870-831603 SUFFOLK CTY EASTPORT SOUTH MANOR CSD CLERICAL", "city": "WEST BABYLON", "state": "NY", "zip": "11704-3930", "ntee": "J40", "ruling": "201410", "deductibility": "2", "assets": 0, "income": 0, "revenue": 0}, {"ein": "815212412", "name": "EASTPORT TUTTLE PTO INC", "city": "EASTPORT", "state": "NY", "zip": "11941-1210", "ntee": "B94", "ruling": "201708", "deductibility": "1", "assets": 29941, "income": 132040, "revenue": 74513}], "NORDEN": [{"ein": "112381578", "name": "NORDEN MEMBERSHIP CORPORATION", "city": "BETHPAGE", "state": "NY", "zip": "11714-1224", "ntee": "", "ruling": "198706", "deductibility": "2", "assets": 0, "income": 0, "revenue": 0}], "MOSAD": [{"ein": "112436845", "name": "MOSAD BRUCHA TOVA C O BENJAMIN ISAACS ESQ", "city": "NEW YORK", "state": "NY", "zip": "10024-3371", "ntee": "", "ruling": "197711", "deductibility": "1", "assets": 0, "income": 0, "revenue": 0}, {"ein": "113071965", "name": "CONG MOSAD KEREN HATZOLE", "city": "BROOKLYN", "state": "NY", "zip": "11211-8151", "ntee": "", "ruling": "199110", "deductibility": "1", "assets": 0, "income": 0, "revenue": 0}, {"ein": "133025974", "name": "MOSAD ZVI", "city": "BKLYN", "state": "NY", "zip": "11225-3120", "ntee": "", "ruling": "198005", "deductibility": "1", "assets": 0, "income": 0, "revenue": 0}, {"ein": "133446048", "name": "MOSAD OF RECOGNITION AND REMEMBERANCE", "city": "MONSEY", "state": "NY", "zip": "10952-3631", "ntee": "", "ruling": "198802", "deductibility": "1", "assets": 0, "income": 0, "revenue": 0}, {"ein": "510181881", "name": "MOSAD V CHUE RABBI ZIRLSON", "city": "BROOKLYN", "state": "NY", "zip": "11211-0046", "ntee": "", "ruling": "197603", "deductibility": "1", "assets": 0, "income": 0, "revenue": 0}], "AVOTH": [{"ein": "112583160", "name": "CHASDEI AVOTH INC", "city": "BROOKLYN", "state": "NY", "zip": "11210-4535", "ntee": "", "ruling": "198111", "deductibility": "1", "assets": 0, "income": 0, "revenue": 0}, {"ein": "113508250", "name": "HERITAGE INSTITUTE LEV AVOTH", "city": "BROOKLYN", "state": "NY", "zip": "11214-5706", "ntee": "X30", "ruling": "199912", "deductibility": "1", "assets": 0, "income": 0, "revenue": 0}, {"ein": "136271694", "name": "BATAY AVOTH OF PONEVEZ YESHIVA INC", "city": "NEW YORK", "state": "NY", "zip": "10010-7903", "ntee": "", "ruling": "195302", "deductibility": "1", "assets": 100, "income": 0, "revenue": 0}], "AUDUBON": [{"ein": "112689401", "name": "FOUR HARBORS AUDUBON SOCIETY", "city": "SAINT JAMES", "state": "NY", "zip": "11780-0000", "ntee": "C30", "ruling": "201904", "deductibility": "1", "assets": 0, "income": 0, "revenue": 0}, {"ein": "112701066", "name": "HUNTINGTON OYSTER BAY AUDUBON SOCIETY INC", "city": "HUNTINGTON", "state": "NY", "zip": "11743-0735", "ntee": "C300", "ruling": "198410", "deductibility": "1", "assets": 0, "income": 0, "revenue": 0}, {"ein": "131624102", "name": "NATIONAL AUDUBON SOCIETY INC", "city": "NEW YORK", "state": "NY", "zip": "10014-4396", "ntee": "C300", "ruling": "197211", "deductibility": "1", "assets": 622238458, "income": 192991958, "revenue": 149874174}, {"ein": "132944501", "name": "AUDUBON ARTISTS INC", "city": "NEW YORK", "state": "NY", "zip": "10003-4679", "ntee": "A40Z", "ruling": "195103", "deductibility": "1", "assets": 327094, "income": 42805, "revenue": 42805}, {"ein": "133004756", "name": "CENTRAL WESTCHESTER AUDUBON SOCIETY", "city": "WHITE PLAINS", "state": "NY", "zip": "10602-0359", "ntee": "", "ruling": "198101", "deductibility": "1", "assets": 0, "income": 0, "revenue": 0}, {"ein": "133927797", "name": "AUDUBON PARTNERSHIP FOR ECONOMIC DEVELOPMENT LOCAL DEV CORPORATION", "city": "BRONX", "state": "NY", "zip": "10457-5859", "ntee": "S31", "ruling": "199706", "deductibility": "1", "assets": 0, "income": 0, "revenue": 0}, {"ein": "133978842", "name": "HUDSON RIVER AUDUBON SOCIETY OF WESTCHESTER INC", "city": "YONKERS", "state": "NY", "zip": "10703-0616", "ntee": "D30", "ruling": "199802", "deductibility": "1", "assets": 0, "income": 0, "revenue": 0}, {"ein": "134036137", "name": "AUDUBON HOUSING DEVELOPMENT FUND CORPORATION", "city": "NEW YORK", "state": "NY", "zip": "10018-2082", "ntee": "P20", "ruling": "199906", "deductibility": "1", "assets": 0, "income": 0, "revenue": 0}, {"ein": "136161411", "name": "SAW MILL RIVER AUDUBON SOCIETY INC", "city": "CHAPPAQUA", "state": "NY", "zip": "10514-1422", "ntee": "C300", "ruling": "195409", "deductibility": "1", "assets": 1623160, "income": 375200, "revenue": 284306}, {"ein": "136162775", "name": "BRONX RIVER-SOUND SHORE AUDUBON SOCIETY INC", "city": "TUCKAHOE", "state": "NY", "zip": "10707-3302", "ntee": "D30", "ruling": "196105", "deductibility": "1", "assets": 0, "income": 0, "revenue": 0}, {"ein": "136220779", "name": "BEDFORD AUDUBON SOCIETY", "city": "KATONAH", "state": "NY", "zip": "10536-2807", "ntee": "C300", "ruling": "199111", "deductibility": "1", "assets": 3549950, "income": 276391, "revenue": 241999}, {"ein": "141698061", "name": "AUDUBON SOCIETY OF NEW YORK STATE INC", "city": "TROY", "state": "NY", "zip": "12180-7608", "ntee": "C300", "ruling": "198804", "deductibility": "1", "assets": 3018832, "income": 1842853, "revenue": 1140816}, {"ein": "141699002", "name": "PUTNAM HIGHLANDS AUDUBON SOCIETY", "city": "COLD SPRING", "state": "NY", "zip": "10516-0292", "ntee": "C30Z", "ruling": "199106", "deductibility": "1", "assets": 0, "income": 0, "revenue": 0}, {"ein": "141783901", "name": "NORTHERN CATSKILLS AUDUBON SOCIETY INC", "city": "PALENVILLE", "state": "NY", "zip": "12463-0068", "ntee": "C30Z", "ruling": "199511", "deductibility": "1", "assets": 0, "income": 0, "revenue": 0}, {"ein": "161045304", "name": "AUDUBON ASSOCIATION INC", "city": "AMHERST", "state": "NY", "zip": "14228-1048", "ntee": "", "ruling": "197704", "deductibility": "2", "assets": 910559, "income": 375094, "revenue": 375094}, {"ein": "166031149", "name": "AUDUBON COMMUNITY NATURE CENTER", "city": "JAMESTOWN", "state": "NY", "zip": "14701-9340", "ntee": "C300", "ruling": "196112", "deductibility": "1", "assets": 3390865, "income": 967798, "revenue": 861690}, {"ein": "166054355", "name": "BURROUGHS AUDUBON NATURE CLUB", "city": "ROCHESTER", "state": "NY", "zip": "14610-3107", "ntee": "", "ruling": "194405", "deductibility": "1", "assets": 373598, "income": 11782, "revenue": 11782}, {"ein": "166088768", "name": "BUFFALO AUDUBON SOCIETY INC", "city": "NORTH JAVA", "state": "NY", "zip": "14113-9772", "ntee": "C300", "ruling": "197110", "deductibility": "1", "assets": 3433742, "income": 1890252, "revenue": 582810}, {"ein": "208100791", "name": "AUDUBON SOCIETY OF THE CAPITALREGION INC", "city": "ALBANY", "state": "NY", "zip": "12203-8177", "ntee": "D30", "ruling": "201201", "deductibility": "1", "assets": 0, "income": 0, "revenue": 0}, {"ein": "222141669", "name": "CHEMUNG VALLEY AUDUBON SOCIETY INC", "city": "ELMIRA", "state": "NY", "zip": "14902-0663", "ntee": "", "ruling": "197701", "deductibility": "1", "assets": 0, "income": 0, "revenue": 0}, {"ein": "222506057", "name": "GENESEE VALLEY AUDUBON SOCIETY INC", "city": "ROCHESTER", "state": "NY", "zip": "14615-1212", "ntee": "", "ruling": "199101", "deductibility": "1", "assets": 0, "income": 0, "revenue": 0}, {"ein": "222610241", "name": "SOUTHERN ADIRONDACK AUDUBON SOCIETY INC", "city": "SARATOGA SPGS", "state": "NY", "zip": "12866-8036", "ntee": "", "ruling": "198509", "deductibility": "1", "assets": 0, "income": 0, "revenue": 0}, {"ein": "237014319", "name": "DELAWARE-OTESGO AUDUBON SOCIETY", "city": "ONEONTA", "state": "NY", "zip": "13820-0544", "ntee": "", "ruling": "197203", "deductibility": "1", "assets": 0, "income": 0, "revenue": 0}, {"ein": "237024587", "name": "EASTERN LONG ISLAND AUDUBON SOCIETY", "city": "QUOGUE", "state": "NY", "zip": "11959-0206", "ntee": "", "ruling": "196906", "deductibility": "1", "assets": 0, "income": 0, "revenue": 0}, {"ein": "237037547", "name": "ONONDAGA AUDUBON SOCIETY INC ONONDAGA AUDUBON SOCIETY", "city": "SYRACUSE", "state": "NY", "zip": "13201-0620", "ntee": "C300", "ruling": "197110", "deductibility": "1", "assets": 309099, "income": 53992, "revenue": 53992}, {"ein": "237245358", "name": "NATIONAL AUDUBON SOCIETY INC", "city": "NEW YORK", "state": "NY", "zip": "10014-4304", "ntee": "", "ruling": "197211", "deductibility": "1", "assets": 0, "income": 0, "revenue": 0}, {"ein": "237245359", "name": "NATIONAL AUDUBON SOCIETY INC", "city": "NEW YORK", "state": "NY", "zip": "10014-4304", "ntee": "", "ruling": "197211", "deductibility": "1", "assets": 0, "income": 0, "revenue": 0}, {"ein": "237250043", "name": "NORTH FORK AUDUBON SOCIETY", "city": "GREENPORT", "state": "NY", "zip": "11944-2236", "ntee": "", "ruling": "197403", "deductibility": "1", "assets": 134630, "income": 140148, "revenue": 124176}, {"ein": "237263861", "name": "NATIONAL AUDUBON SOCIETY INC", "city": "NEW YORK", "state": "NY", "zip": "10014-4304", "ntee": "", "ruling": "197211", "deductibility": "1", "assets": 0, "income": 0, "revenue": 0}, {"ein": "237289679", "name": "NORTHERN NEW YORK AUDUBON INC", "city": "SARANAC LAKE", "state": "NY", "zip": "12983-7172", "ntee": "", "ruling": "197512", "deductibility": "1", "assets": 0, "income": 0, "revenue": 0}, {"ein": "237293099", "name": "ORANGE COUNTY AUDUBON SOCIETY INC", "city": "GREENWOOD LK", "state": "NY", "zip": "10925-1205", "ntee": "C300", "ruling": "198410", "deductibility": "1", "assets": 565883, "income": 44929, "revenue": 44929}, {"ein": "237300504", "name": "SOUTH SHORE AUDUBON SOCIETY", "city": "FREEPORT", "state": "NY", "zip": "11520-0031", "ntee": "C300", "ruling": "197306", "deductibility": "1", "assets": 0, "income": 0, "revenue": 0}, {"ein": "237325721", "name": "ROCKLAND AUDUBON SOCIETY INC", "city": "NEW CITY", "state": "NY", "zip": "10956-0404", "ntee": "", "ruling": "199209", "deductibility": "1", "assets": 0, "income": 0, "revenue": 0}, {"ein": "237336682", "name": "NORTH SHORE AUDUBON SOCIETY INC", "city": "PRT WASHINGTN", "state": "NY", "zip": "11050-0763", "ntee": "C300", "ruling": "197312", "deductibility": "1", "assets": 108027, "income": 22901, "revenue": 22901}, {"ein": "237369227", "name": "SULLIVAN COUNTY AUDUBON SOCIETY", "city": "LOCH SHELDRKE", "state": "NY", "zip": "12759-0030", "ntee": "W99", "ruling": "201701", "deductibility": "1", "assets": 0, "income": 0, "revenue": 0}, {"ein": "237414922", "name": "GREAT SOUTH BAY AUDUBON SOCIETY INC", "city": "SAYVILLE", "state": "NY", "zip": "11782-0267", "ntee": "", "ruling": "192711", "deductibility": "1", "assets": 37858, "income": 40437, "revenue": 30688}, {"ein": "510196442", "name": "NATIONAL AUDUBON SOCIETY INC", "city": "NEW YORK", "state": "NY", "zip": "10014-4304", "ntee": "", "ruling": "197211", "deductibility": "1", "assets": 0, "income": 0, "revenue": 0}, {"ein": "651265157", "name": "OWASCO VALLEY AUDUBON SOCIETY", "city": "CAYUGA", "state": "NY", "zip": "13034-3192", "ntee": "C30", "ruling": "202012", "deductibility": "1", "assets": 0, "income": 0, "revenue": 0}], "TORAT": [{"ein": "112944232", "name": "AMERICAN FRIENDS OF YISMAN LEV TORAT MOSHE", "city": "BROOKLYN", "state": "NY", "zip": "11223-2822", "ntee": "", "ruling": "198910", "deductibility": "1", "assets": 0, "income": 0, "revenue": 0}, {"ein": "113556325", "name": "AMERICAN FRIENDS OF TORAT ELIYAHU", "city": "BROOKLYN", "state": "NY", "zip": "11229-3322", "ntee": "T90", "ruling": "201411", "deductibility": "1", "assets": 3691, "income": 224286, "revenue": 0}, {"ein": "116454667", "name": "TORAT CHESED TR", "city": "BROOKLYN", "state": "NY", "zip": "11218-4468", "ntee": "T22", "ruling": "199510", "deductibility": "1", "assets": 122210, "income": 464094, "revenue": 464094}, {"ein": "133341192", "name": "AMERICAN FRIENDS OF TORAT MEIR INC", "city": "BROOKLYN", "state": "NY", "zip": "11223-0000", "ntee": "X21", "ruling": "198609", "deductibility": "1", "assets": 45996, "income": 138309, "revenue": 138309}, {"ein": "134073339", "name": "TORAT MOSHE VOHEL YOSEF", "city": "BROOKLYN", "state": "NY", "zip": "11210-0000", "ntee": "X30", "ruling": "199909", "deductibility": "1", "assets": 0, "income": 0, "revenue": 0}, {"ein": "134173711", "name": "EL CENTRO DE ESTUDIOS JUDIOS TORAT EMET", "city": "YONKERS", "state": "NY", "zip": "10704-2907", "ntee": "X30", "ruling": "200205", "deductibility": "1", "assets": 0, "income": 0, "revenue": 0}, {"ein": "200599716", "name": "MAOZ TORAT ASAF", "city": "BROOKLYN", "state": "NY", "zip": "11230-6403", "ntee": "B122", "ruling": "200809", "deductibility": "1", "assets": 0, "income": 0, "revenue": 0}, {"ein": "203082585", "name": "TORAT REVA YERUSHALAYIM INC", "city": "NEW YORK", "state": "NY", "zip": "10006-3000", "ntee": "X30", "ruling": "200603", "deductibility": "1", "assets": 0, "income": 0, "revenue": 0}, {"ein": "208363855", "name": "TORAT HAEMEK", "city": "BROOKLYN", "state": "NY", "zip": "11230-5957", "ntee": "T20", "ruling": "201312", "deductibility": "1", "assets": 0, "income": 0, "revenue": 0}, {"ein": "332129701", "name": "TORAT MOSHE HAIM INC", "city": "BROOKLYN", "state": "NY", "zip": "11229-2810", "ntee": "T30", "ruling": "202507", "deductibility": "1", "assets": 0, "income": 0, "revenue": 0}, {"ein": "463036856", "name": "TORAT MOSHE MALKA INC", "city": "BROOKLYN", "state": "NY", "zip": "11230-3334", "ntee": "B90", "ruling": "201709", "deductibility": "1", "assets": 15258, "income": 203633, "revenue": 203633}, {"ein": "473163235", "name": "TORAT SHRAGA INC", "city": "LAWRENCE", "state": "NY", "zip": "11559-2629", "ntee": "Q30", "ruling": "201601", "deductibility": "1", "assets": 2779163, "income": 929475, "revenue": 929475}, {"ein": "811071134", "name": "AMERICAN FRIENDS OF TORAT MOSHE", "city": "BROOKLYN", "state": "NY", "zip": "11230-6885", "ntee": "P99", "ruling": "201606", "deductibility": "1", "assets": 0, "income": 0, "revenue": 0}, {"ein": "813752341", "name": "TORAT CHAIM INC", "city": "BROOKLYN", "state": "NY", "zip": "11234-4234", "ntee": "X30", "ruling": "202003", "deductibility": "1", "assets": 0, "income": 0, "revenue": 0}, {"ein": "832373316", "name": "MESHIVAT NEFESH - TORAT HASHEM INC", "city": "BROOKLYN", "state": "NY", "zip": "11230-4814", "ntee": "T30", "ruling": "201811", "deductibility": "1", "assets": 0, "income": 0, "revenue": 0}, {"ein": "874366380", "name": "TORAT HAIM INC", "city": "BROOKLYN", "state": "NY", "zip": "11223-4044", "ntee": "K30", "ruling": "202202", "deductibility": "1", "assets": 14962, "income": 115352, "revenue": 115352}, {"ein": "921353284", "name": "TORAT HESSED INC", "city": "BROOKLYN", "state": "NY", "zip": "11230-6507", "ntee": "T12", "ruling": "202311", "deductibility": "1", "assets": 165578, "income": 126664, "revenue": 126664}], "CONGRESSION": [{"ein": "113043769", "name": "CONGRESSION BELZER SHTIEBEL", "city": "BROOKLYN", "state": "NY", "zip": "11211-7902", "ntee": "", "ruling": "199302", "deductibility": "1", "assets": 0, "income": 0, "revenue": 0}], "CALLING": [{"ein": "113086594", "name": "CALLING ALL KIDS TOO INC", "city": "HUNTINGTON", "state": "NY", "zip": "11743-2803", "ntee": "P33Z", "ruling": "199208", "deductibility": "1", "assets": 28470, "income": 436906, "revenue": 436906}, {"ein": "333257308", "name": "MY INNER CALLING INC", "city": "ALBANY", "state": "NY", "zip": "12207-2834", "ntee": "P12", "ruling": "202502", "deductibility": "1", "assets": 0, "income": 0, "revenue": 0}, {"ein": "464971399", "name": "CALLING ALL POETS", "city": "BEACON", "state": "NY", "zip": "12508-3907", "ntee": "A70", "ruling": "201505", "deductibility": "1", "assets": 0, "income": 0, "revenue": 0}, {"ein": "473339378", "name": "GOD IS CALLING MINISTRIES", "city": "ALBANY", "state": "NY", "zip": "12206-3134", "ntee": "W12", "ruling": "202410", "deductibility": "1", "assets": 0, "income": 0, "revenue": 0}, {"ein": "831639978", "name": "CHRISTS CALLING", "city": "EAST NORTHPORT", "state": "NY", "zip": "11731-0000", "ntee": "O55", "ruling": "201809", "deductibility": "1", "assets": 0, "income": 0, "revenue": 0}, {"ein": "872962521", "name": "LIFE CALLING FOUNDATION", "city": "NEW YORK", "state": "NY", "zip": "10001-7604", "ntee": "W01", "ruling": "202203", "deductibility": "1", "assets": 0, "income": 0, "revenue": 0}], "EVERLASTING": [{"ein": "113109667", "name": "HIGHWAY CHURCH OF THE EVERLASTING GOD INC", "city": "ARVERNE", "state": "NY", "zip": "11692-1331", "ntee": "", "ruling": "199305", "deductibility": "1", "assets": 0, "income": 0, "revenue": 0}, {"ein": "113269211", "name": "LIGHT EVERLASTING CHURCH MINISTRIES CHERUBIM & SERAPHIM MOUNT ZION", "city": "BROOKLYN", "state": "NY", "zip": "11221-4302", "ntee": "X20Z", "ruling": "199509", "deductibility": "1", "assets": 0, "income": 0, "revenue": 0}, {"ein": "132955341", "name": "INTERNATIONAL EVERLASTING GOSPEL MISSION", "city": "FLUSHING", "state": "NY", "zip": "11358-1600", "ntee": "", "ruling": "197905", "deductibility": "1", "assets": 23319, "income": 0, "revenue": 0}, {"ein": "133218852", "name": "EVERLASTING PINE HOUSING DEVELOPMENT FUND COMPANY INC", "city": "NEW YORK", "state": "NY", "zip": "10013-4482", "ntee": "L210", "ruling": "198412", "deductibility": "1", "assets": 2523575, "income": 1641366, "revenue": 1641366}, {"ein": "201028003", "name": "EVERLASTING HOPE INC", "city": "BRONX", "state": "NY", "zip": "10469-1016", "ntee": "B90", "ruling": "200503", "deductibility": "1", "assets": 0, "income": 0, "revenue": 0}, {"ein": "202941663", "name": "EVERLASTING LIFE MINISTRIES INC", "city": "ST ALBANS", "state": "NY", "zip": "11432-0000", "ntee": "X20", "ruling": "200610", "deductibility": "1", "assets": 0, "income": 0, "revenue": 0}, {"ein": "222821795", "name": "EVERLASTING JOY BELIEVERS FELLOWSHIP", "city": "CANAJOHARIE", "state": "NY", "zip": "13317-1134", "ntee": "", "ruling": "199109", "deductibility": "1", "assets": 0, "income": 0, "revenue": 0}, {"ein": "432052185", "name": "EVERLASTING SALVATION MINISTRIES INTERNATIONAL", "city": "NEW YORK", "state": "NY", "zip": "10035-3425", "ntee": "", "ruling": "201512", "deductibility": "1", "assets": 0, "income": 0, "revenue": 0}, {"ein": "452904463", "name": "EVERLASTING HOPE ANIMAL RESCUE", "city": "HILLSDALE", "state": "NY", "zip": "12529-6111", "ntee": "D20", "ruling": "201806", "deductibility": "1", "assets": 0, "income": 0, "revenue": 0}, {"ein": "850534610", "name": "HUMAN EVERLASTING RESPECT INC", "city": "LOCKPORT", "state": "NY", "zip": "14094-3834", "ntee": "B01", "ruling": "202005", "deductibility": "1", "assets": 0, "income": 0, "revenue": 0}], "SHEKEL": [{"ein": "113134245", "name": "SHEKEL HAKODESH", "city": "SPRING VALLEY", "state": "NY", "zip": "10977-1913", "ntee": "", "ruling": "199303", "deductibility": "1", "assets": 0, "income": 0, "revenue": 0}, {"ein": "133831501", "name": "SHEKEL HAKODESH INTERNATIONAL", "city": "BROOKLYN", "state": "NY", "zip": "11210-3714", "ntee": "X30Z", "ruling": "199507", "deductibility": "1", "assets": 0, "income": 0, "revenue": 0}, {"ein": "831500662", "name": "SHEKEL HAKODESH DSATMAR INC", "city": "MONROE", "state": "NY", "zip": "10950-5495", "ntee": "W12", "ruling": "201812", "deductibility": "1", "assets": 0, "income": 0, "revenue": 0}], "ELDER": [{"ein": "113356806", "name": "NOW FAITH MINISTRIES INCORPORATED C/O ELDER ASTOR MORRISON SMITH SR", "city": "AMITYVILLE", "state": "NY", "zip": "11701-1354", "ntee": "X20Z", "ruling": "199704", "deductibility": "1", "assets": 0, "income": 0, "revenue": 0}, {"ein": "131853763", "name": "ELDER CRAFTSMEN INC", "city": "NEW YORK", "state": "NY", "zip": "10075-2304", "ntee": "A400", "ruling": "195812", "deductibility": "1", "assets": 0, "income": 0, "revenue": 0}, {"ein": "132569218", "name": "NEW YORK FOUNDATION FOR ELDER CARE", "city": "BROOKLYN", "state": "NY", "zip": "11215-4194", "ntee": "", "ruling": "196612", "deductibility": "1", "assets": 8101506, "income": 3754801, "revenue": 229775}, {"ein": "161118282", "name": "CENTER FOR ELDER LAW AND JUSTICE INC", "city": "BUFFALO", "state": "NY", "zip": "14202-3207", "ntee": "I80Z", "ruling": "198104", "deductibility": "1", "assets": 5533370, "income": 8048687, "revenue": 8017666}, {"ein": "261445421", "name": "CONA ELDER LAW CHARITABLE EVENTS", "city": "MELVILLE", "state": "NY", "zip": "11747-4822", "ntee": "T30", "ruling": "201003", "deductibility": "1", "assets": 0, "income": 0, "revenue": 0}, {"ein": "300238048", "name": "ELDER WATCH FOUNDATION", "city": "SMITHTOWN", "state": "NY", "zip": "11787-5128", "ntee": "P81", "ruling": "200601", "deductibility": "1", "assets": 53, "income": 0, "revenue": 0}, {"ein": "300893649", "name": "NYSNA CHILD CARE AND ELDER CARE FUND", "city": "NEW YORK", "state": "NY", "zip": "10001-2966", "ntee": "Y43", "ruling": "201708", "deductibility": "2", "assets": 22939914, "income": 5243032, "revenue": 5243032}, {"ein": "461910772", "name": "ELDER ABUSE REFORM NOW PROJECT INC", "city": "BROOKLYN", "state": "NY", "zip": "11230-5102", "ntee": "P81", "ruling": "201707", "deductibility": "1", "assets": 708, "income": 6450, "revenue": 0}, {"ein": "465032789", "name": "KOREAN AMERICAN WAYNE CANCER & ELDER CARE FOUNDATION INC", "city": "FLUSHING", "state": "NY", "zip": "11354-5654", "ntee": "W99", "ruling": "201408", "deductibility": "1", "assets": 1052448, "income": 151508, "revenue": 151508}, {"ein": "471826477", "name": "LONG ISLAND FAMILY & ELDER CARE", "city": "BELLMORE", "state": "NY", "zip": "11710-2243", "ntee": "L20", "ruling": "201502", "deductibility": "1", "assets": 0, "income": 392432, "revenue": 392432}, {"ein": "472856442", "name": "RESIDENT ELDER YOUTH ENGAGEMENT CORPORATION", "city": "FAR ROCKAWAY", "state": "NY", "zip": "11691-3806", "ntee": "A20", "ruling": "201708", "deductibility": "1", "assets": 0, "income": 0, "revenue": 0}, {"ein": "474963356", "name": "ELDER CARE COMMUNITY FOR HOME CARE SERVICE", "city": "BROOKLYN", "state": "NY", "zip": "11214-5418", "ntee": "T31", "ruling": "201809", "deductibility": "1", "assets": 230000, "income": 490540, "revenue": 490540}, {"ein": "810665063", "name": "RESERVE ELDER SERVICE INC", "city": "NEW YORK", "state": "NY", "zip": "10017-6733", "ntee": "J20", "ruling": "200512", "deductibility": "1", "assets": 1621516, "income": 4950432, "revenue": 4950432}, {"ein": "812851672", "name": "VENERABLE ELDER GABRIEL GEORGIAN CHRISTIAN ORTHODOX CHURCH IN MONRO", "city": "HARRIMAN", "state": "NY", "zip": "10926-3223", "ntee": "X20", "ruling": "202303", "deductibility": "1", "assets": 0, "income": 0, "revenue": 0}, {"ein": "814714384", "name": "ELDER ABUSE SOLUTIONS INC", "city": "NEW YORK", "state": "NY", "zip": "10001-4527", "ntee": "I70", "ruling": "201708", "deductibility": "1", "assets": 85616, "income": 25000, "revenue": 25000}, {"ein": "852037541", "name": "CENTER FOR PREVENTION OF ELDER FINANCIAL FRAUD INC", "city": "MINEOLA", "state": "NY", "zip": "11501-4403", "ntee": "I99", "ruling": "202008", "deductibility": "1", "assets": 0, "income": 0, "revenue": 0}], "DKRASNA": [{"ein": "113466497", "name": "YAD SHLOMO DKRASNA", "city": "BROOKLYN", "state": "NY", "zip": "11211-7836", "ntee": "X30", "ruling": "199902", "deductibility": "1", "assets": 0, "income": 0, "revenue": 0}, {"ein": "113633879", "name": "MACHNE OHEL MOSHE DKRASNA", "city": "BROOKLYN", "state": "NY", "zip": "11249-7981", "ntee": "X30", "ruling": "200112", "deductibility": "1", "assets": 0, "income": 0, "revenue": 0}], "ZICHROIN": [{"ein": "113467234", "name": "CONG ZICHROIN NAFTULE", "city": "BROOKLYN", "state": "NY", "zip": "11205-2703", "ntee": "X30", "ruling": "199902", "deductibility": "1", "assets": 0, "income": 0, "revenue": 0}], "SHRAGE": [{"ein": "113479712", "name": "CONGREGATION OHR SHRAGE TZVI", "city": "BROOKLYN", "state": "NY", "zip": "11211-7702", "ntee": "X30", "ruling": "199912", "deductibility": "1", "assets": 0, "income": 0, "revenue": 0}], "CHIOS": [{"ein": "113506407", "name": "THYMIANA CHIOS AGIA ERMIONI BENEVOLENT SOCIETY INC", "city": "BAYSIDE", "state": "NY", "zip": "11361-2046", "ntee": "N50", "ruling": "200003", "deductibility": "2", "assets": 113175, "income": 2850, "revenue": 2750}, {"ein": "810858533", "name": "BENEVOLENT SOCIETY OF VIKI CHIOS KIMISIS THEOTOKOU", "city": "ASTORIA", "state": "NY", "zip": "11103-1918", "ntee": "P99", "ruling": "201606", "deductibility": "1", "assets": 0, "income": 0, "revenue": 0}], "HAICHAL": [{"ein": "113525125", "name": "HAICHAL ESTHER", "city": "BROOKLYN", "state": "NY", "zip": "11206-5442", "ntee": "X30", "ruling": "200003", "deductibility": "1", "assets": 0, "income": 0, "revenue": 0}], "MITCHEL": [{"ein": "113558761", "name": "MUSEUMS AT MITCHEL", "city": "GARDEN CITY", "state": "NY", "zip": "11530-6743", "ntee": "A57", "ruling": "200110", "deductibility": "1", "assets": 13451329, "income": 5971129, "revenue": 5581092}, {"ein": "821476867", "name": "MITCHEL RESIDENT ASSOCIATION", "city": "BRONX", "state": "NY", "zip": "10454-3842", "ntee": "L80", "ruling": "201708", "deductibility": "1", "assets": 0, "income": 0, "revenue": 0}], "NAZARENO": [{"ein": "113582538", "name": "IGLESIA DEL NAZARENO RESTAURACION", "city": "MIDDLE ISLAND", "state": "NY", "zip": "11953-1835", "ntee": "", "ruling": "196307", "deductibility": "1", "assets": 0, "income": 0, "revenue": 0}, {"ein": "272761279", "name": "NUEVA VIDA IGLESIA DEL NAZARENO INC", "city": "NORTH BALDWIN", "state": "NY", "zip": "11510-2830", "ntee": "", "ruling": "196307", "deductibility": "1", "assets": 0, "income": 0, "revenue": 0}, {"ein": "474226180", "name": "BRONX BETEL IGLESIA DEL NAZARENO INC", "city": "BRONX", "state": "NY", "zip": "10460-4309", "ntee": "X21", "ruling": "201601", "deductibility": "1", "assets": 225438, "income": 48932, "revenue": 48932}, {"ein": "833791598", "name": "IGLESIA DEL NAZARENO ALIENTO PARA LAS NACIONES INC", "city": "MOUNT VERNON", "state": "NY", "zip": "10552-3024", "ntee": "X20", "ruling": "202106", "deductibility": "1", "assets": 0, "income": 0, "revenue": 0}], "JAMESTOWN": [{"ein": "113658198", "name": "ROTARY CLUB OF JAMESTOWN COMMUNITY SERVICE FUND INC", "city": "JAMESTOWN", "state": "NY", "zip": "14702-0454", "ntee": "P20", "ruling": "200212", "deductibility": "1", "assets": 123467, "income": 154681, "revenue": 121424}, {"ein": "160527772", "name": "LITTLE THEATRE OF JAMESTOWN INC", "city": "JAMESTOWN", "state": "NY", "zip": "14701-5216", "ntee": "A650", "ruling": "193803", "deductibility": "1", "assets": 673713, "income": 261439, "revenue": 260189}, {"ein": "160717893", "name": "JAMESTOWN VETERANS CLUB INC", "city": "FALCONER", "state": "NY", "zip": "14733-9756", "ntee": "", "ruling": "196806", "deductibility": "2", "assets": 0, "income": 0, "revenue": 0}, {"ein": "160736175", "name": "JAMESTOWN MUSICAL ASSOCIATION INC", "city": "JAMESTOWN", "state": "NY", "zip": "14701-5206", "ntee": "P20", "ruling": "201409", "deductibility": "2", "assets": 0, "income": 0, "revenue": 0}, {"ein": "160743055", "name": "WINIFRED CRAWFORD DIBERT BOYS AND GIRLS CLUB OF JAMESTOWN INC", "city": "JAMESTOWN", "state": "NY", "zip": "14701-0000", "ntee": "", "ruling": "195003", "deductibility": "1", "assets": 2718586, "income": 1192365, "revenue": 966330}, {"ein": "160743238", "name": "YOUNG MENS CHRISTIAN ASSOC JAMESTOWN", "city": "JAMESTOWN", "state": "NY", "zip": "14701-5380", "ntee": "P27Z", "ruling": "194410", "deductibility": "1", "assets": 5465514, "income": 4703525, "revenue": 4672629}, {"ein": "160743298", "name": "HOLY APOSTLES ROMAN CATHOLIC PARISH OF JAMESTOWN N Y", "city": "JAMESTOWN", "state": "NY", "zip": "14701-5024", "ntee": "", "ruling": "194603", "deductibility": "1", "assets": 0, "income": 0, "revenue": 0}, {"ein": "160778025", "name": "SHEET METAL WORKERS LOCAL UNION NO 112 JAMESTOWN AREA", "city": "JAMESTOWN", "state": "NY", "zip": "14701-3839", "ntee": "B990", "ruling": "200708", "deductibility": "1", "assets": 0, "income": 0, "revenue": 0}, {"ein": "160958003", "name": "CHRISTIAN AND MISSIONARY ALLIANCE ORGANIZATION OF JAMESTOWN CHAU", "city": "JAMESTOWN", "state": "NY", "zip": "14701-4615", "ntee": "", "ruling": "197205", "deductibility": "1", "assets": 0, "income": 0, "revenue": 0}, {"ein": "161066522", "name": "JAMESTOWN AREA MIDGET FOOTBALL INC", "city": "JAMESTOWN", "state": "NY", "zip": "14701-8437", "ntee": "N65", "ruling": "201908", "deductibility": "1", "assets": 15146, "income": 94693, "revenue": 94693}, {"ein": "161082828", "name": "MEALS ON WHEELS JAMESTOWN AREA INC", "city": "JAMESTOWN", "state": "NY", "zip": "14702-0056", "ntee": "K36Z", "ruling": "198503", "deductibility": "1", "assets": 217343, "income": 561061, "revenue": 560270}, {"ein": "161095842", "name": "CUMMINS JAMESTOWN RECREATION ASSOCIATION INC", "city": "LAKEWOOD", "state": "NY", "zip": "14750-9772", "ntee": "", "ruling": "197908", "deductibility": "2", "assets": 0, "income": 0, "revenue": 0}, {"ein": "161097232", "name": "JAMESTOWN BIBLE BAPTIST CHURCH OF JAMESTOWN NEW YORK", "city": "JAMESTOWN", "state": "NY", "zip": "14701-4127", "ntee": "", "ruling": "198002", "deductibility": "1", "assets": 0, "income": 0, "revenue": 0}, {"ein": "161132634", "name": "JAMESTOWN BABE RUTH 13 YEAR OLD WORLD SERIES COMMITTEE INC", "city": "JAMESTOWN", "state": "NY", "zip": "14702-1103", "ntee": "N63Z", "ruling": "198008", "deductibility": "1", "assets": 64182, "income": 106093, "revenue": 103305}, {"ein": "161185404", "name": "JAMESTOWN SKATING CLUB INC", "city": "JAMESTOWN", "state": "NY", "zip": "14702-2105", "ntee": "N60", "ruling": "202002", "deductibility": "1", "assets": 0, "income": 0, "revenue": 0}, {"ein": "161191893", "name": "JAMESTOWN COMMUNITY COLLEGE FOUNDATION INC", "city": "JAMESTOWN", "state": "NY", "zip": "14701-1920", "ntee": "B19", "ruling": "198306", "deductibility": "1", "assets": 28149357, "income": 10945621, "revenue": 3263360}, {"ein": "161443449", "name": "BAHAIS OF JAMESTOWN", "city": "JAMESTOWN", "state": "NY", "zip": "14701-5616", "ntee": "", "ruling": "199505", "deductibility": "1", "assets": 0, "income": 0, "revenue": 0}, {"ein": "161454342", "name": "JAMESTOWN COMMUNITY LEARNING COUNCIL", "city": "JAMESTOWN", "state": "NY", "zip": "14702-0129", "ntee": "B90", "ruling": "199406", "deductibility": "1", "assets": 2581007, "income": 2019826, "revenue": 2019826}, {"ein": "161582458", "name": "JAMESTOWN CENTER CITY DEVELOPMENT CORPORATION", "city": "JAMESTOWN", "state": "NY", "zip": "14701-4933", "ntee": "S30", "ruling": "200007", "deductibility": "1", "assets": 25052129, "income": 4228342, "revenue": 4121426}, {"ein": "161594315", "name": "KOINONIA OF JAMESTOWN AND CHAUTAUQUA COUNTY INC", "city": "JAMESTOWN", "state": "NY", "zip": "14702-0331", "ntee": "X90", "ruling": "200104", "deductibility": "1", "assets": 0, "income": 0, "revenue": 0}, {"ein": "161613441", "name": "JAMESTOWN AREA SOAP BOX DERBY INC", "city": "JAMESTOWN", "state": "NY", "zip": "14701-2729", "ntee": "N60", "ruling": "200205", "deductibility": "1", "assets": 0, "income": 0, "revenue": 0}, {"ein": "166001258", "name": "ZION COVENANT CHURCH JAMESTOWN NY", "city": "JAMESTOWN", "state": "NY", "zip": "14701-2749", "ntee": "", "ruling": "197507", "deductibility": "1", "assets": 0, "income": 0, "revenue": 0}, {"ein": "222419851", "name": "JAMESTOWN CAMPUS OF THE JAMESTOWN COMM COL FACULTY STUDENT ASSOC INC", "city": "JAMESTOWN", "state": "NY", "zip": "14701-1920", "ntee": "", "ruling": "198212", "deductibility": "1", "assets": 2130939, "income": 2431999, "revenue": 2431999}, {"ein": "222503887", "name": "JAMESTOWN FIRST FREE METHODIST CHURCH", "city": "JAMESTOWN", "state": "NY", "zip": "14701-3601", "ntee": "", "ruling": "195806", "deductibility": "1", "assets": 0, "income": 0, "revenue": 0}, {"ein": "222655556", "name": "JAMESTOWN ISLAMIC SOCIETY INC", "city": "JAMESTOWN", "state": "NY", "zip": "14701-2158", "ntee": "", "ruling": "198603", "deductibility": "1", "assets": 0, "income": 0, "revenue": 0}, {"ein": "222704699", "name": "JAMESTOWN PUBLIC SCH0OL FORESTS INC", "city": "JAMESTOWN", "state": "NY", "zip": "14701-5623", "ntee": "C36", "ruling": "200611", "deductibility": "1", "assets": 603959, "income": 20501, "revenue": 0}, {"ein": "222757357", "name": "THE KOREAN PRESBYTERIAN CHURCH OF JAMESTOWN INC", "city": "JAMESTOWN", "state": "NY", "zip": "14701-5321", "ntee": "", "ruling": "198703", "deductibility": "1", "assets": 0, "income": 0, "revenue": 0}, {"ein": "222757361", "name": "CHOOSE LIFE OF JAMESTOWN INC", "city": "JAMESTOWN", "state": "NY", "zip": "14701-4776", "ntee": "", "ruling": "198907", "deductibility": "1", "assets": 178702, "income": 156949, "revenue": 155636}, {"ein": "300413862", "name": "JAMESTOWN RENAISSANCE CORPORATION", "city": "JAMESTOWN", "state": "NY", "zip": "14701-5433", "ntee": "S30", "ruling": "200709", "deductibility": "1", "assets": 1077329, "income": 351896, "revenue": 351896}, {"ein": "471463700", "name": "JAMESTOWN MUNICIPAL BAND INC", "city": "JAMESTOWN", "state": "NY", "zip": "14702-0062", "ntee": "A6C", "ruling": "201408", "deductibility": "1", "assets": 47599, "income": 11692, "revenue": 11692}, {"ein": "521967265", "name": "JAMESTOWN AFFORDABLE HOUSING INC", "city": "NEW YORK", "state": "NY", "zip": "10168-0002", "ntee": "L20", "ruling": "201510", "deductibility": "1", "assets": 5521879, "income": 72808, "revenue": 72808}, {"ein": "562514541", "name": "JAMESTOWN VIETNAM VETERANS ASSOCIATION INC", "city": "JAMESTOWN", "state": "NY", "zip": "14701-1903", "ntee": "N50", "ruling": "200712", "deductibility": "2", "assets": 393541, "income": 262559, "revenue": 167109}, {"ein": "800531459", "name": "JAMESTOWN BABE RUTH LEAGUE", "city": "JAMESTOWN", "state": "NY", "zip": "14702-0284", "ntee": "N63", "ruling": "201708", "deductibility": "1", "assets": 0, "income": 0, "revenue": 0}, {"ein": "831179624", "name": "JAMESTOWN BAND AND CHORUS ASSOCIATION INC", "city": "JAMESTOWN", "state": "NY", "zip": "14701-5623", "ntee": "A6C", "ruling": "201909", "deductibility": "1", "assets": 65134, "income": 123330, "revenue": 103394}, {"ein": "990501863", "name": "JAMESTOWN JUSTICE COMMISSION INC", "city": "JAMESTOWN", "state": "NY", "zip": "14701-1642", "ntee": "R30", "ruling": "202407", "deductibility": "1", "assets": 0, "income": 0, "revenue": 0}], "MERCANTILE": [{"ein": "131624084", "name": "MERCANTILE LIBRARY ASSOCIATION OF THE CITY OF NEW YORK", "city": "BROOKLYN", "state": "NY", "zip": "11217-1415", "ntee": "B76Z", "ruling": "193601", "deductibility": "1", "assets": 2373267, "income": 2823260, "revenue": 2570758}], "HEBREWS": [{"ein": "131663975", "name": "UNITED HOME FOR AGED HEBREWS", "city": "NEW ROCHELLE", "state": "NY", "zip": "10805-2225", "ntee": "E91Z", "ruling": "193801", "deductibility": "1", "assets": 40339372, "income": 39218177, "revenue": 39218014}], "VSTRY": [{"ein": "132851543", "name": "RECTOR CHURCH WARDENS & VSTRY MMBRS OF THE CHRCH INTRCSSN CTY&CNTY NY", "city": "NEW YORK", "state": "NY", "zip": "10032-7801", "ntee": "", "ruling": "197810", "deductibility": "1", "assets": 0, "income": 0, "revenue": 0}, {"ein": "132861673", "name": "RECTOR CHURCH WARDENS & VSTRY MMBRS OF CHCH OF ST LUKE IN FIELDS OF NY", "city": "NEW YORK", "state": "NY", "zip": "10014-2851", "ntee": "", "ruling": "197704", "deductibility": "1", "assets": 0, "income": 0, "revenue": 0}], "DAMINO": [{"ein": "132874344", "name": "HARRY O DAMINO SCHOLARSHIP FUND", "city": "VALLEY STREAM", "state": "NY", "zip": "11580-5222", "ntee": "", "ruling": "197206", "deductibility": "1", "assets": 138202, "income": 12986, "revenue": 12986}], "LENA": [{"ein": "133106906", "name": "NATHAN & LENA SEILER FAMILY FOUNDATION INC", "city": "STATEN ISLAND", "state": "NY", "zip": "10314-4155", "ntee": "", "ruling": "198203", "deductibility": "1", "assets": 2636224, "income": 475348, "revenue": 0}, {"ein": "141726194", "name": "CAFE LENA INC", "city": "SARATOGA SPRINGS", "state": "NY", "zip": "12866-3264", "ntee": "A200", "ruling": "199105", "deductibility": "1", "assets": 2551165, "income": 1689988, "revenue": 1614458}, {"ein": "236877116", "name": "LENA HOFFMASTER TW FBO SALLIEANN GRAEFF", "city": "BUFFALO", "state": "NY", "zip": "14240-1504", "ntee": "T90", "ruling": "200206", "deductibility": "1", "assets": 201218, "income": 67186, "revenue": 0}, {"ein": "472477939", "name": "MAURICE AND LENA RUSSO FAM FOUNDATION", "city": "NEW YORK", "state": "NY", "zip": "10013-3019", "ntee": "T20", "ruling": "201506", "deductibility": "1", "assets": 10003010, "income": 316990, "revenue": 0}, {"ein": "932584785", "name": "MADE BY LENA S LOVE INC", "city": "BROOKLYN", "state": "NY", "zip": "11213-2000", "ntee": "P20", "ruling": "202308", "deductibility": "1", "assets": 0, "income": 0, "revenue": 0}], "BYRDCLIFFE": [{"ein": "133258299", "name": "THE BYRDCLIFFE PERFORMING ARTS ORGANIZATION INCORPORATED", "city": "ROXBURY", "state": "NY", "zip": "12474-0060", "ntee": "", "ruling": "198505", "deductibility": "1", "assets": 0, "income": 0, "revenue": 0}, {"ein": "133840774", "name": "BYRDCLIFFE THEATRE COMPANY INC", "city": "WOODSTOCK", "state": "NY", "zip": "12498-0649", "ntee": "A650", "ruling": "199607", "deductibility": "1", "assets": 9138, "income": 18003, "revenue": 18003}], "IMPACT": [{"ein": "133386904", "name": "COMMUNITY IMPACT", "city": "NEW YORK", "state": "NY", "zip": "10027-0000", "ntee": "P200", "ruling": "199407", "deductibility": "1", "assets": 5119014, "income": 1892454, "revenue": 1889323}, {"ein": "133445556", "name": "ODYSSEY IMPACT INC", "city": "NEW YORK", "state": "NY", "zip": "10018-5501", "ntee": "X800", "ruling": "198903", "deductibility": "1", "assets": 463046, "income": 246229, "revenue": 246229}, {"ein": "141808386", "name": "JAMAICA IMPACT INC", "city": "VALLEY STREAM", "state": "NY", "zip": "11582-0263", "ntee": "Q20", "ruling": "199910", "deductibility": "1", "assets": 0, "income": 0, "revenue": 0}, {"ein": "161561075", "name": "IMPACT ARTISTS GALLERY INC", "city": "BUFFALO", "state": "NY", "zip": "14201-1419", "ntee": "A40", "ruling": "200104", "deductibility": "1", "assets": 0, "income": 0, "revenue": 0}, {"ein": "161650130", "name": "FOUNDATION FOR IMPACT ON LITERACY AND LEARNING INC", "city": "HUNTINGTON", "state": "NY", "zip": "11743-2451", "ntee": "T30", "ruling": "200309", "deductibility": "1", "assets": 1991157, "income": 961869, "revenue": 961869}, {"ein": "200521329", "name": "IMPACT THEATRE INC", "city": "NEW YORK", "state": "NY", "zip": "10025-5059", "ntee": "A65", "ruling": "200405", "deductibility": "1", "assets": 65341, "income": 192746, "revenue": 192746}, {"ein": "200773515", "name": "HIGH IMPACT MINISTRIES CHURCH OF AMSTERDAM INC", "city": "JOHNSTOWN", "state": "NY", "zip": "12095-2412", "ntee": "X20", "ruling": "200412", "deductibility": "1", "assets": 0, "income": 0, "revenue": 0}, {"ein": "203287404", "name": "UNICEF USA IMPACT FUND FOR CHILDREN INC", "city": "NEW YORK", "state": "NY", "zip": "10038-4713", "ntee": "T11", "ruling": "200511", "deductibility": "1", "assets": 68913451, "income": 20164231, "revenue": 20164231}, {"ein": "204478251", "name": "THE IMPACT PROJECT", "city": "GREENE", "state": "NY", "zip": "13778-1006", "ntee": "A68", "ruling": "200606", "deductibility": "1", "assets": 282275, "income": 265968, "revenue": 265968}, {"ein": "261431577", "name": "GREATER IMPACT FOUNDATION", "city": "MELVILLE", "state": "NY", "zip": "11747-0000", "ntee": "T22", "ruling": "200801", "deductibility": "1", "assets": 25232211, "income": 11212433, "revenue": 0}, {"ein": "261496920", "name": "THE IMPACT INVESTING FOUNDATION", "city": "NEW YORK", "state": "NY", "zip": "10001-0891", "ntee": "T20", "ruling": "200804", "deductibility": "1", "assets": 1117530, "income": 69492, "revenue": 0}, {"ein": "261959991", "name": "LEO IMPACT FUND INC", "city": "NEW YORK", "state": "NY", "zip": "10027-2325", "ntee": "S43", "ruling": "200905", "deductibility": "1", "assets": 105775, "income": 16292, "revenue": 16292}, {"ein": "271247430", "name": "IMPACT NETWORK", "city": "BROOKLYN", "state": "NY", "zip": "11222-3894", "ntee": "Q33", "ruling": "201008", "deductibility": "1", "assets": 528022, "income": 1198445, "revenue": 1113384}, {"ein": "271668898", "name": "MASSIVE GLOBAL IMPACT", "city": "HOLLIS", "state": "NY", "zip": "11423-3420", "ntee": "P28", "ruling": "201605", "deductibility": "1", "assets": 0, "income": 0, "revenue": 0}, {"ein": "272611266", "name": "WORLD IMPACT INTERNATIONAL MINISTRIES", "city": "WOODMERE", "state": "NY", "zip": "11598-1221", "ntee": "", "ruling": "197005", "deductibility": "1", "assets": 0, "income": 0, "revenue": 0}, {"ein": "273166994", "name": "GLOBAL IMPACT INVESTING NETWORK INC", "city": "NEW YORK", "state": "NY", "zip": "10004-1412", "ntee": "T50", "ruling": "201201", "deductibility": "1", "assets": 15751354, "income": 10577276, "revenue": 10577276}, {"ein": "274258134", "name": "FRIENDS OF ODYSSEY IMPACT INC", "city": "NEW YORK", "state": "NY", "zip": "10018-5501", "ntee": "X118", "ruling": "201106", "deductibility": "1", "assets": 7120927, "income": 413191, "revenue": 413191}, {"ein": "301196052", "name": "CITY IMPACT INC", "city": "SYRACUSE", "state": "NY", "zip": "13215-9615", "ntee": "X20", "ruling": "202203", "deductibility": "1", "assets": 0, "income": 0, "revenue": 0}, {"ein": "331191727", "name": "IMPACT CAMPUS FELLOWSHIP INC", "city": "JAMESTOWN", "state": "NY", "zip": "14701-6114", "ntee": "O55", "ruling": "200803", "deductibility": "1", "assets": 66970, "income": 116000, "revenue": 114767}, {"ein": "331473618", "name": "HILLMAN HALL SOCIAL IMPACT FUND", "city": "NEW YORK", "state": "NY", "zip": "10037-3012", "ntee": "S30", "ruling": "202410", "deductibility": "1", "assets": 0, "income": 0, "revenue": 0}, {"ein": "331657229", "name": "TATTLETALES IMPACT INC", "city": "NEW YORK", "state": "NY", "zip": "10023-2250", "ntee": "A31", "ruling": "202501", "deductibility": "1", "assets": 0, "income": 0, "revenue": 0}, {"ein": "331891145", "name": "IMPACT HUB NYC INC", "city": "NEW YORK", "state": "NY", "zip": "10014-3844", "ntee": "R20", "ruling": "202411", "deductibility": "1", "assets": 0, "income": 0, "revenue": 0}, {"ein": "331971121", "name": "GLOBAL IMPACT CIRCLE INCORPORATED", "city": "NEW YORK", "state": "NY", "zip": "10003-1502", "ntee": "A20", "ruling": "202412", "deductibility": "1", "assets": 0, "income": 0, "revenue": 0}, {"ein": "332372431", "name": "BARBARA HOLMES IMPACT FOUNDATION", "city": "BRONX", "state": "NY", "zip": "10456-3508", "ntee": "O50", "ruling": "202502", "deductibility": "1", "assets": 0, "income": 0, "revenue": 0}, {"ein": "332471454", "name": "FRIENDS OF PUERTO RICO IMPACT INC", "city": "NEW YORK", "state": "NY", "zip": "10003-0000", "ntee": "R01", "ruling": "202501", "deductibility": "1", "assets": 0, "income": 0, "revenue": 0}, {"ein": "333756444", "name": "GENESEE IMPACT VENTURES INC", "city": "ROCHESTER", "state": "NY", "zip": "14620-1327", "ntee": "S30", "ruling": "202505", "deductibility": "1", "assets": 0, "income": 0, "revenue": 0}, {"ein": "333886042", "name": "EDUCATION IMPACT FOUNDATION", "city": "DEER PARK", "state": "NY", "zip": "11729-2640", "ntee": "B99", "ruling": "202505", "deductibility": "1", "assets": 0, "income": 0, "revenue": 0}, {"ein": "334005134", "name": "STORY IMPACT COLLECTIVE INC", "city": "NEW YORK", "state": "NY", "zip": "10022-3060", "ntee": "A23", "ruling": "202505", "deductibility": "1", "assets": 0, "income": 0, "revenue": 0}, {"ein": "334453039", "name": "DALINGTON UGO IMPACT FOUNDATION CORPORATION", "city": "FAR ROCKAWAY", "state": "NY", "zip": "11691-2417", "ntee": "P12", "ruling": "202506", "deductibility": "1", "assets": 0, "income": 0, "revenue": 0}, {"ein": "334478138", "name": "ISLAND LEGACY IMPACT", "city": "HUNTINGTON", "state": "NY", "zip": "11743-5138", "ntee": "B20", "ruling": "202506", "deductibility": "1", "assets": 0, "income": 0, "revenue": 0}, {"ein": "334915486", "name": "INDUSTRY IMPACT INC", "city": "NEW YORK", "state": "NY", "zip": "10003-1502", "ntee": "W99", "ruling": "202506", "deductibility": "1", "assets": 0, "income": 0, "revenue": 0}, {"ein": "352444281", "name": "SECOND IMPACT CORPORATION", "city": "ROMULUS", "state": "NY", "zip": "14541-9773", "ntee": "F70", "ruling": "201311", "deductibility": "1", "assets": 0, "income": 0, "revenue": 0}, {"ein": "384056361", "name": "FRIENDS FOR IMPACT INC", "city": "BROOKLYN", "state": "NY", "zip": "11234-3425", "ntee": "T40", "ruling": "201906", "deductibility": "1", "assets": 0, "income": 0, "revenue": 0}, {"ein": "461252198", "name": "NYC IMPACT SPORTS INC", "city": "RIDGEWOOD", "state": "NY", "zip": "11385-4529", "ntee": "O50", "ruling": "201607", "deductibility": "1", "assets": 396793, "income": 609935, "revenue": 609935}, {"ein": "461452574", "name": "IMPACT CHURCH", "city": "FARMINGTON", "state": "NY", "zip": "14425-7068", "ntee": "X20", "ruling": "201307", "deductibility": "1", "assets": 0, "income": 0, "revenue": 0}, {"ein": "461723530", "name": "WESTERN NEW YORK IMPACT FOUNDATION", "city": "CLARENCE CTR", "state": "NY", "zip": "14032-0046", "ntee": "T20", "ruling": "201306", "deductibility": "1", "assets": 231002, "income": 155740, "revenue": 0}, {"ein": "462591656", "name": "IMPACT PUBLIC SERVICE FUND", "city": "NEW YORK", "state": "NY", "zip": "10038-5247", "ntee": "W24", "ruling": "202402", "deductibility": "1", "assets": 0, "income": 0, "revenue": 0}, {"ein": "462855423", "name": "SUDDEN IMPACT MINISTRIES FOR CHRIST", "city": "ROCHESTER", "state": "NY", "zip": "14624-2273", "ntee": "X20", "ruling": "201512", "deductibility": "1", "assets": 0, "income": 0, "revenue": 0}, {"ein": "464657948", "name": "IMPACT SOCIETY", "city": "NEW YORK", "state": "NY", "zip": "10010-2913", "ntee": "T50", "ruling": "201409", "deductibility": "1", "assets": 538269, "income": 500000, "revenue": 0}, {"ein": "471349355", "name": "LIFE IMPACT WORSHIP CENTER", "city": "JAMAICA", "state": "NY", "zip": "11435-5507", "ntee": "X20", "ruling": "201508", "deductibility": "1", "assets": 0, "income": 0, "revenue": 0}, {"ein": "471504165", "name": "CHRIST WORLD IMPACT CENTER INC", "city": "BRONX", "state": "NY", "zip": "10467-0343", "ntee": "X20", "ruling": "201501", "deductibility": "1", "assets": 0, "income": 0, "revenue": 0}, {"ein": "471858572", "name": "IMPACT FARMING FOUNDATION INC", "city": "BRIARCLIFF", "state": "NY", "zip": "10510-2211", "ntee": "Q32", "ruling": "201502", "deductibility": "1", "assets": 7597, "income": 83825, "revenue": 83825}, {"ein": "651253902", "name": "IMPACT THEATRE", "city": "PALMYRA", "state": "NY", "zip": "14522-1402", "ntee": "A65", "ruling": "200603", "deductibility": "1", "assets": 0, "income": 0, "revenue": 0}, {"ein": "811865150", "name": "IMPACT HUMAN INC", "city": "BROOKLYN", "state": "NY", "zip": "11225-4047", "ntee": "W05", "ruling": "201610", "deductibility": "1", "assets": 0, "income": 0, "revenue": 0}, {"ein": "814124772", "name": "RISING EARTH HUMAN IMPACT EDUCATION INC", "city": "BROOKLYN", "state": "NY", "zip": "11232-2969", "ntee": "C60", "ruling": "201705", "deductibility": "1", "assets": 148965, "income": 85000, "revenue": 85000}, {"ein": "814198051", "name": "IMPACT NOW INC", "city": "NEW YORK", "state": "NY", "zip": "10007-2286", "ntee": "J20", "ruling": "202506", "deductibility": "1", "assets": 0, "income": 0, "revenue": 0}, {"ein": "814591892", "name": "SUNY IMPACT FOUNDATION INC", "city": "NEW YORK", "state": "NY", "zip": "10022-4501", "ntee": "B12", "ruling": "201703", "deductibility": "1", "assets": 4361703, "income": 17020776, "revenue": 13855479}, {"ein": "815262949", "name": "BASIS IMPACT GROUP FOUNDATION INC", "city": "NEW YORK", "state": "NY", "zip": "10004-0000", "ntee": "B12", "ruling": "201802", "deductibility": "1", "assets": 22242, "income": 200310, "revenue": 0}, {"ein": "815408487", "name": "INTERNATIONAL FOUNDATION FOR SOCIAL IMPACT INC", "city": "NEW YORK", "state": "NY", "zip": "10019-7638", "ntee": "B12", "ruling": "201706", "deductibility": "1", "assets": 3256678, "income": 1314299, "revenue": 1314299}, {"ein": "820756565", "name": "SOCIAL IMPACT SCHOLARS", "city": "NEW YORK", "state": "NY", "zip": "10011-8560", "ntee": "R02", "ruling": "201705", "deductibility": "1", "assets": 0, "income": 0, "revenue": 0}, {"ein": "820762816", "name": "WORLD IMPACT COMMUNITY SERVICES INC", "city": "WOODMERE", "state": "NY", "zip": "11598-1221", "ntee": "S20", "ruling": "201704", "deductibility": "1", "assets": 0, "income": 0, "revenue": 0}, {"ein": "822971232", "name": "MEDIA IMPACT PARTNERS INC", "city": "KINGSTON", "state": "NY", "zip": "12401-7824", "ntee": "A12", "ruling": "201711", "deductibility": "1", "assets": 8687, "income": 145012, "revenue": 145012}, {"ein": "823038867", "name": "HEALTHCARE IMPACT FOUNDATION", "city": "NEW YORK", "state": "NY", "zip": "10022-1106", "ntee": "E19", "ruling": "201712", "deductibility": "1", "assets": 2273, "income": 0, "revenue": 0}, {"ein": "824717403", "name": "MASTERCARD IMPACT FUND", "city": "PURCHASE", "state": "NY", "zip": "10577-2405", "ntee": "B82", "ruling": "201812", "deductibility": "1", "assets": 183357220, "income": 9024076, "revenue": 0}, {"ein": "825402867", "name": "IMPACT SOCIETY GLOBAL", "city": "NEW YORK", "state": "NY", "zip": "10010-2913", "ntee": "Q30", "ruling": "201905", "deductibility": "1", "assets": 1952546, "income": 2472101, "revenue": 2472101}, {"ein": "831883532", "name": "GLOBAL IMPACT LIFE ENRICHMENT SERVICES INC", "city": "QUEENS VLG", "state": "NY", "zip": "11427-2643", "ntee": "P80", "ruling": "202307", "deductibility": "1", "assets": 0, "income": 0, "revenue": 0}, {"ein": "832945292", "name": "IMPACT CAPITAL MANAGERS INSTITUTE INC", "city": "NEW YORK", "state": "NY", "zip": "10036-8008", "ntee": "B03", "ruling": "201907", "deductibility": "1", "assets": 181731, "income": 550900, "revenue": 550900}, {"ein": "833146090", "name": "IMPACT WAY INC", "city": "TROY", "state": "NY", "zip": "12180-9651", "ntee": "O50", "ruling": "202005", "deductibility": "1", "assets": 0, "income": 0, "revenue": 0}, {"ein": "833202575", "name": "HLTH IMPACT FOUNDATION", "city": "NEW YORK", "state": "NY", "zip": "10017-4100", "ntee": "E11", "ruling": "201905", "deductibility": "1", "assets": 758779, "income": 308874, "revenue": 308874}, {"ein": "833381165", "name": "THE CENTER FOR IMPACT COMMUNICATIONS INC", "city": "BROOKLYN", "state": "NY", "zip": "11211-3620", "ntee": "B99", "ruling": "201906", "deductibility": "0", "assets": 172478, "income": 201110, "revenue": 201110}, {"ein": "833537617", "name": "IMPACT SYRACUSE COMMUNITY DEVELOPMENT CORPORATION NFP", "city": "SYRACUSE", "state": "NY", "zip": "13205-1012", "ntee": "P40", "ruling": "201912", "deductibility": "1", "assets": 0, "income": 0, "revenue": 0}, {"ein": "842401907", "name": "ARTISTS FOR IMPACT INC", "city": "NEW YORK", "state": "NY", "zip": "10024-4118", "ntee": "A01", "ruling": "201908", "deductibility": "1", "assets": 0, "income": 0, "revenue": 0}, {"ein": "842690690", "name": "LIFE IMPACT INC", "city": "BUFFALO", "state": "NY", "zip": "14227-2722", "ntee": "K31", "ruling": "202004", "deductibility": "1", "assets": 839530, "income": 1304435, "revenue": 1304435}, {"ein": "843685987", "name": "V1 COMMUNITY IMPACT INC", "city": "RIDGEWOOD", "state": "NY", "zip": "11386-0091", "ntee": "S20", "ruling": "202011", "deductibility": "1", "assets": 0, "income": 0, "revenue": 0}, {"ein": "843851585", "name": "IMPACT LABS LLC", "city": "NEW YORK", "state": "NY", "zip": "10024-6703", "ntee": "B80", "ruling": "202201", "deductibility": "1", "assets": 43619, "income": 109898, "revenue": 109898}, {"ein": "844106825", "name": "CHARITABLE IMPACT GAMERS INC", "city": "FAIRPORT", "state": "NY", "zip": "14450-8780", "ntee": "P12", "ruling": "202001", "deductibility": "1", "assets": 0, "income": 0, "revenue": 0}, {"ein": "844467231", "name": "IMPACT 100 NYC INC", "city": "NEW YORK", "state": "NY", "zip": "10028-0008", "ntee": "T30", "ruling": "202008", "deductibility": "1", "assets": 521120, "income": 419030, "revenue": 419030}, {"ein": "845059689", "name": "REPURPOSE GLOBAL IMPACT FOUNDATION", "city": "NEW YORK", "state": "NY", "zip": "10036-7329", "ntee": "C20", "ruling": "202006", "deductibility": "1", "assets": 0, "income": 0, "revenue": 0}, {"ein": "845156615", "name": "TRU IMPACT INCORPORATED", "city": "FAIRPORT", "state": "NY", "zip": "14450-0801", "ntee": "O50", "ruling": "202006", "deductibility": "1", "assets": 0, "income": 0, "revenue": 0}, {"ein": "851627078", "name": "IMPACT THEATER GROUP INC", "city": "JAMAICA", "state": "NY", "zip": "11435-4807", "ntee": "A65", "ruling": "202501", "deductibility": "1", "assets": 0, "income": 0, "revenue": 0}, {"ein": "851834250", "name": "IMPACT NYFW INC", "city": "BROOKLYN", "state": "NY", "zip": "11221-6337", "ntee": "A20", "ruling": "202108", "deductibility": "1", "assets": 0, "income": 0, "revenue": 0}, {"ein": "851963684", "name": "CHEFS FOR IMPACT INC", "city": "NEW YORK", "state": "NY", "zip": "10011-7802", "ntee": "K40", "ruling": "202009", "deductibility": "1", "assets": 18393, "income": 270016, "revenue": 249700}, {"ein": "852093283", "name": "TRADE IMPACT FOUNDATION", "city": "NEW ROCHELLE", "state": "NY", "zip": "10804-2530", "ntee": "Q05", "ruling": "202111", "deductibility": "1", "assets": 2325, "income": 1, "revenue": 0}, {"ein": "852145134", "name": "GLOBAL IMPACT RELATIONS NETWORK INC", "city": "ALBANY", "state": "NY", "zip": "12207-1704", "ntee": "A30", "ruling": "202103", "deductibility": "1", "assets": 0, "income": 0, "revenue": 0}, {"ein": "852248898", "name": "ALLIANCE FOR IMPACT INC", "city": "NEW YORK", "state": "NY", "zip": "10583-0000", "ntee": "A23", "ruling": "202010", "deductibility": "1", "assets": 71138, "income": 159051, "revenue": 159051}, {"ein": "852613360", "name": "ENTERTAIN IMPACT ADVOCACY ALLIANCE INC", "city": "NEW YORK", "state": "NY", "zip": "10009-3796", "ntee": "R40", "ruling": "202109", "deductibility": "2", "assets": 31626, "income": 75000, "revenue": 75000}, {"ein": "852785319", "name": "PAN IMPACT FOUNDATION", "city": "NEW YORK", "state": "NY", "zip": "10026-1712", "ntee": "O51", "ruling": "202106", "deductibility": "1", "assets": 0, "income": 0, "revenue": 0}, {"ein": "854016570", "name": "BARTERMAX YOUR IMPACT FOUNDATION INC", "city": "WILLIAMSVILLE", "state": "NY", "zip": "14221-5854", "ntee": "T30", "ruling": "202108", "deductibility": "1", "assets": 0, "income": 0, "revenue": 0}, {"ein": "854302409", "name": "FOUNDERS IMPACT NEW ENTERPRISE", "city": "NEW YORK", "state": "NY", "zip": "10001-3411", "ntee": "S30", "ruling": "202108", "deductibility": "1", "assets": 0, "income": 0, "revenue": 0}, {"ein": "861598589", "name": "CREATELLA IMPACT INC", "city": "NEW YORK", "state": "NY", "zip": "10016-7207", "ntee": "", "ruling": "202109", "deductibility": "1", "assets": 38116, "income": 53541, "revenue": 53541}, {"ein": "862701603", "name": "SUSTAINABLE IMPACT MAKERS INTERNATIONAL INC", "city": "NEW YORK", "state": "NY", "zip": "10017-4707", "ntee": "P20", "ruling": "202107", "deductibility": "1", "assets": 0, "income": 0, "revenue": 0}, {"ein": "863125507", "name": "ACCESO IMPACT INC", "city": "BROOKLYN", "state": "NY", "zip": "11211-4171", "ntee": "K20", "ruling": "202302", "deductibility": "1", "assets": 7796545, "income": 10306580, "revenue": 10306580}, {"ein": "863332760", "name": "MYANMAR IMPACT FUND", "city": "SCARSDALE", "state": "NY", "zip": "10530-7726", "ntee": "Q33", "ruling": "202204", "deductibility": "1", "assets": 2793, "income": 475, "revenue": 475}, {"ein": "871116175", "name": "INSPIRE TO IMPACT FOUNDATION INC", "city": "PORT CHESTER", "state": "NY", "zip": "10573-0204", "ntee": "B80", "ruling": "202110", "deductibility": "1", "assets": 0, "income": 0, "revenue": 0}, {"ein": "871881478", "name": "IMPACT FRIENDS IMPROVING ALLEGANY COUNTY TRAILS", "city": "BELMONT", "state": "NY", "zip": "14813-9539", "ntee": "C30", "ruling": "202201", "deductibility": "1", "assets": 0, "income": 0, "revenue": 0}, {"ein": "872605065", "name": "CANARY IMPACT LAB INC", "city": "NEW YORK", "state": "NY", "zip": "10003-3306", "ntee": "W19", "ruling": "202205", "deductibility": "1", "assets": 1469994, "income": 2614175, "revenue": 2614175}, {"ein": "873148557", "name": "SIMA IMPACT FOUNDATION", "city": "NEW YORK", "state": "NY", "zip": "10023-6082", "ntee": "C02", "ruling": "202201", "deductibility": "1", "assets": 0, "income": 0, "revenue": 0}, {"ein": "873165286", "name": "PERCENT IMPACT FOUNDATION", "city": "NEW YORK", "state": "NY", "zip": "10001-4527", "ntee": "T12", "ruling": "202211", "deductibility": "1", "assets": 27833, "income": 268231, "revenue": 268231}, {"ein": "873893115", "name": "OPERATION YOUTH IMPACT INC", "city": "BROOKLYN", "state": "NY", "zip": "11212-6403", "ntee": "B90", "ruling": "202210", "deductibility": "1", "assets": 0, "income": 0, "revenue": 0}, {"ein": "881789681", "name": "K IMPACT FOUNDATION INC", "city": "VLY COTTAGE", "state": "NY", "zip": "10989-2326", "ntee": "E12", "ruling": "202207", "deductibility": "1", "assets": 0, "income": 0, "revenue": 0}, {"ein": "882251093", "name": "LEAD IMPACT RECONCILIATION INSTITUTE INC", "city": "NEW YORK", "state": "NY", "zip": "10003-4556", "ntee": "B03", "ruling": "202206", "deductibility": "1", "assets": 14193, "income": 0, "revenue": 0}, {"ein": "882408684", "name": "CO-IMPACT PHILANTHROPIC FUNDS INC", "city": "NEW YORK", "state": "NY", "zip": "10001-5666", "ntee": "T30", "ruling": "202212", "deductibility": "1", "assets": 318248255, "income": 360064037, "revenue": 360064037}, {"ein": "882680570", "name": "GLOBAL IMPACT CONNECT INC", "city": "SCHROON LAKE", "state": "NY", "zip": "12870-0234", "ntee": "P20", "ruling": "202207", "deductibility": "1", "assets": 0, "income": 0, "revenue": 0}, {"ein": "883048015", "name": "IMPACT RELIEF INTERNATIONAL INC", "city": "MANLIUS", "state": "NY", "zip": "13104-8809", "ntee": "Q19", "ruling": "202306", "deductibility": "1", "assets": 0, "income": 0, "revenue": 0}, {"ein": "883398651", "name": "NYC HOSPITALITY ALLIANCE IMPACT FOUNDATION INC", "city": "NEW YORK", "state": "NY", "zip": "10019-4951", "ntee": "J22", "ruling": "202209", "deductibility": "1", "assets": 284773, "income": 269418, "revenue": 269418}, {"ein": "883561699", "name": "IMPACT YOUTH LEAGUE - NYC INC", "city": "SPRNGFLD GDNS", "state": "NY", "zip": "11413-2638", "ntee": "N99", "ruling": "202303", "deductibility": "1", "assets": 1838, "income": 20404, "revenue": 20404}, {"ein": "883841970", "name": "GETHEDOCS IMPACT FOUNDATION", "city": "BROOKLYN", "state": "NY", "zip": "11231-0947", "ntee": "P84", "ruling": "202307", "deductibility": "1", "assets": 0, "income": 0, "revenue": 0}, {"ein": "883975312", "name": "LASTING IMPACT INC", "city": "BROOKLYN", "state": "NY", "zip": "11219-4314", "ntee": "B80", "ruling": "202303", "deductibility": "1", "assets": 127021, "income": 133000, "revenue": 133000}, {"ein": "920598204", "name": "CORTLAND COLLECTIVE IMPACT INITIATIVES", "city": "HOMER", "state": "NY", "zip": "13077-9723", "ntee": "A20", "ruling": "202302", "deductibility": "1", "assets": 0, "income": 0, "revenue": 0}, {"ein": "921259787", "name": "RONALD S LAUDER IMPACT INITIATIVE INC", "city": "JEFFERSON VLY", "state": "NY", "zip": "10535-1513", "ntee": "T23", "ruling": "202303", "deductibility": "1", "assets": 35133, "income": 334873, "revenue": 0}, {"ein": "922675460", "name": "IMPACT SPACES INC", "city": "NEW YORK", "state": "NY", "zip": "10017-2422", "ntee": "S99", "ruling": "202304", "deductibility": "1", "assets": 35143, "income": 0, "revenue": 0}, {"ein": "922768582", "name": "FINANCIAL IMPACT AND EDUCATION", "city": "CLIFTON PARK", "state": "NY", "zip": "12065-2720", "ntee": "B99", "ruling": "202304", "deductibility": "1", "assets": 0, "income": 0, "revenue": 0}, {"ein": "923270882", "name": "IMPACT STUDENT SUCCESS", "city": "HEMPSTEAD", "state": "NY", "zip": "11550-3686", "ntee": "O50", "ruling": "202309", "deductibility": "1", "assets": 0, "income": 0, "revenue": 0}, {"ein": "923638003", "name": "PALIO IMPACT FUNDING ACCELERATOR", "city": "SHELTER IS HT", "state": "NY", "zip": "11965-0373", "ntee": "L80", "ruling": "202409", "deductibility": "1", "assets": 0, "income": 0, "revenue": 0}, {"ein": "933115738", "name": "KINETIC IMPACT INC", "city": "MASPETH", "state": "NY", "zip": "11378-3019", "ntee": "C05", "ruling": "202405", "deductibility": "1", "assets": 0, "income": 0, "revenue": 0}, {"ein": "933401211", "name": "COLOR FARM IMPACT INC", "city": "BROOKLYN", "state": "NY", "zip": "11201-3821", "ntee": "A31", "ruling": "202405", "deductibility": "1", "assets": 326011, "income": 376451, "revenue": 376451}, {"ein": "933884923", "name": "IMPACT WARWICK INC", "city": "WARWICK", "state": "NY", "zip": "10990-2461", "ntee": "S12", "ruling": "202310", "deductibility": "1", "assets": 27383, "income": 98351, "revenue": 98351}, {"ein": "934003575", "name": "FANA IMPACT FOUNDATION INC", "city": "NEW YORK", "state": "NY", "zip": "10022-6017", "ntee": "T99", "ruling": "202311", "deductibility": "1", "assets": 0, "income": 0, "revenue": 0}, {"ein": "934008739", "name": "FURTHER YOUR IMPACT INC", "city": "HYDE PARK", "state": "NY", "zip": "12538-1983", "ntee": "S50", "ruling": "202404", "deductibility": "1", "assets": 0, "income": 0, "revenue": 0}, {"ein": "934050727", "name": "IMPACT GENERATION GLOBAL INC", "city": "HAMBURG", "state": "NY", "zip": "14075-1852", "ntee": "", "ruling": "202401", "deductibility": "1", "assets": 0, "income": 0, "revenue": 0}, {"ein": "934284011", "name": "STEM IMPACT CENTER AFRICA INC", "city": "NEW YORK", "state": "NY", "zip": "10001-2538", "ntee": "U40", "ruling": "202405", "deductibility": "1", "assets": 0, "income": 0, "revenue": 0}, {"ein": "934387446", "name": "HELIX IMPACT", "city": "NEW YORK", "state": "NY", "zip": "10013-2562", "ntee": "S02", "ruling": "202312", "deductibility": "1", "assets": 0, "income": 0, "revenue": 0}, {"ein": "934419534", "name": "IMPRINTED IMPACT INITIATIVES INC", "city": "BROOKLYN", "state": "NY", "zip": "11222-7614", "ntee": "A20", "ruling": "202401", "deductibility": "1", "assets": 0, "income": 0, "revenue": 0}, {"ein": "934461037", "name": "EE&P IMPACT INC", "city": "NEW YORK", "state": "NY", "zip": "10005-1735", "ntee": "T20", "ruling": "202412", "deductibility": "1", "assets": 1, "income": 1, "revenue": 0}, {"ein": "934484580", "name": "NONPROFIT IMPACT GROUP", "city": "STATEN ISLAND", "state": "NY", "zip": "10312-0000", "ntee": "S02", "ruling": "202409", "deductibility": "1", "assets": 0, "income": 0, "revenue": 0}, {"ein": "934925946", "name": "LEVINE IMPACT LAB INC", "city": "HARTSDALE", "state": "NY", "zip": "10530-2904", "ntee": "T23", "ruling": "202401", "deductibility": "1", "assets": 1, "income": 1, "revenue": 0}, {"ein": "992143868", "name": "ELEVATE IMPACT DEVELOPMENT AGENCY CORPORATION", "city": "BROOKLYN", "state": "NY", "zip": "11201-7508", "ntee": "P20", "ruling": "202404", "deductibility": "1", "assets": 0, "income": 0, "revenue": 0}, {"ein": "992453908", "name": "ALL OUT IMPACT FUND INC", "city": "NEW YORK", "state": "NY", "zip": "10158-1804", "ntee": "R26", "ruling": "202501", "deductibility": "1", "assets": 0, "income": 0, "revenue": 0}, {"ein": "992587845", "name": "IMPACT READING INC", "city": "NEW YORK", "state": "NY", "zip": "10012-3962", "ntee": "B92", "ruling": "202412", "deductibility": "1", "assets": 0, "income": 0, "revenue": 0}, {"ein": "992969486", "name": "EMPOWERING IMPACT INC", "city": "SHOREHAM", "state": "NY", "zip": "11786-2359", "ntee": "T12", "ruling": "202405", "deductibility": "1", "assets": 0, "income": 0, "revenue": 0}, {"ein": "993312286", "name": "RAI IMPACT EQUITY LABS INC", "city": "NEW YORK", "state": "NY", "zip": "10019-7629", "ntee": "S02", "ruling": "202406", "deductibility": "1", "assets": 0, "income": 0, "revenue": 0}, {"ein": "993356433", "name": "IMPACT COLLECTIVE", "city": "LATHAM", "state": "NY", "zip": "12110-6800", "ntee": "T50", "ruling": "202406", "deductibility": "1", "assets": 16611, "income": 151785, "revenue": 151785}, {"ein": "993475536", "name": "IMPACT COUNCIL INC", "city": "NEWYORK", "state": "NY", "zip": "10022-5908", "ntee": "P20", "ruling": "202408", "deductibility": "1", "assets": 0, "income": 0, "revenue": 0}, {"ein": "993685647", "name": "ADIRONDACK IMPACT TRAVEL SOFTBALL", "city": "TICONDEROGA", "state": "NY", "zip": "12883-1102", "ntee": "N63", "ruling": "202408", "deductibility": "1", "assets": 0, "income": 0, "revenue": 0}, {"ein": "993738583", "name": "IMPACT COLLABORATIVE INC", "city": "FOREST HILLS", "state": "NY", "zip": "11375-7211", "ntee": "F11", "ruling": "202505", "deductibility": "1", "assets": 0, "income": 0, "revenue": 0}, {"ein": "994822231", "name": "IMPACT GLOBAL MINISTRIES INC", "city": "LIVERPOOL", "state": "NY", "zip": "13088-5600", "ntee": "X20", "ruling": "202504", "deductibility": "1", "assets": 0, "income": 0, "revenue": 0}], "MANDELBAUM": [{"ein": "133444156", "name": "MALDEB FOUNDATION INC MANDELBAUM", "city": "SUNNYSIDE", "state": "NY", "zip": "11104-1407", "ntee": "", "ruling": "198804", "deductibility": "1", "assets": 105170, "income": 13184, "revenue": 0}], "CARDIO": [{"ein": "133456485", "name": "AMERICAN CARDIO VASCULAR RESEARCH FOUNDATION INC", "city": "NEW YORK", "state": "NY", "zip": "10018-0000", "ntee": "", "ruling": "198804", "deductibility": "1", "assets": 135743, "income": 247042, "revenue": 32531}, {"ein": "334359765", "name": "CARDIO RENAL FOUNDATION INC", "city": "NEW YORK", "state": "NY", "zip": "10014-3112", "ntee": "G40", "ruling": "202505", "deductibility": "1", "assets": 0, "income": 0, "revenue": 0}, {"ein": "454805875", "name": "VIRTUAL CENTER FOR VELO-CARDIO-FACIAL SYNDROME INC", "city": "MANLIUS", "state": "NY", "zip": "13104-9364", "ntee": "E70", "ruling": "201208", "deductibility": "1", "assets": 241208, "income": 219239, "revenue": 219239}, {"ein": "473061620", "name": "HEART FUND TO FIGHT CARDIO-VASCULAR DISEASES INC", "city": "NYC", "state": "NY", "zip": "10012-3833", "ntee": "Q33", "ruling": "201509", "deductibility": "1", "assets": 0, "income": 0, "revenue": 0}], "RAMBLERS": [{"ein": "133762188", "name": "RAMBLERS SOCCER NEW YORK INC", "city": "NEW YORK", "state": "NY", "zip": "10023-8616", "ntee": "O99", "ruling": "201406", "deductibility": "1", "assets": 110925, "income": 129897, "revenue": 129897}], "FELLOWHIP": [{"ein": "133847950", "name": "BETHEL CHURCH OF GOD SOUNDS OF PRAISE PENTECOSTAL FELLOWHIP MINIS", "city": "PORT CHESTER", "state": "NY", "zip": "10573-0707", "ntee": "X20", "ruling": "200008", "deductibility": "1", "assets": 0, "income": 0, "revenue": 0}], "GROUNDS": [{"ein": "133856694", "name": "HIGHER GROUNDS PROJECTS INC", "city": "NEW YORK", "state": "NY", "zip": "10018-2915", "ntee": "A62", "ruling": "199608", "deductibility": "1", "assets": 0, "income": 0, "revenue": 0}, {"ein": "300567195", "name": "FRIENDS OF BEDFORD BURYING GROUNDS FOUNDATION", "city": "BEDFORD", "state": "NY", "zip": "10506-0152", "ntee": "Y50", "ruling": "201105", "deductibility": "1", "assets": 0, "income": 0, "revenue": 0}, {"ein": "392106974", "name": "HALLOWED GROUNDS INC", "city": "MOUNT VERNON", "state": "NY", "zip": "10552-2175", "ntee": "A99", "ruling": "202507", "deductibility": "1", "assets": 0, "income": 0, "revenue": 0}, {"ein": "851412575", "name": "OFF SCHOOL GROUNDS COALITION INC", "city": "NEW WINDSOR", "state": "NY", "zip": "12553-0614", "ntee": "B90", "ruling": "202011", "deductibility": "1", "assets": 0, "income": 232397, "revenue": 232397}, {"ein": "862854972", "name": "SOARING GROUNDS", "city": "NEW YORK", "state": "NY", "zip": "10030-2900", "ntee": "N40", "ruling": "202203", "deductibility": "0", "assets": 0, "income": 0, "revenue": 0}], "SOLOISTS": [{"ein": "134015123", "name": "INTERNATIONAL SEJONG SOLOISTS INC", "city": "NEW YORK", "state": "NY", "zip": "10023-3201", "ntee": "A6C0", "ruling": "199907", "deductibility": "1", "assets": 18009, "income": 472105, "revenue": 472105}, {"ein": "921882318", "name": "WESTCHESTER CHAMBER SOLOISTS INC", "city": "HASTINGS HDSN", "state": "NY", "zip": "10706-1205", "ntee": "A68", "ruling": "202302", "deductibility": "1", "assets": 0, "income": 0, "revenue": 0}], "SCHOOR": [{"ein": "134126814", "name": "SCHOOR FAMILY FOUNDATION", "city": "BROOKLYN", "state": "NY", "zip": "11222-1333", "ntee": "T20", "ruling": "200008", "deductibility": "1", "assets": 951027, "income": 350000, "revenue": 0}], "HACHOMOS": [{"ein": "135562271", "name": "KOLEL SHOMRE HACHOMOS OF JERUSALEM INC", "city": "BROOKLYN", "state": "NY", "zip": "11249-9210", "ntee": "Q330", "ruling": "193708", "deductibility": "1", "assets": 11905518, "income": 14259916, "revenue": 12656047}], "JUIVES": [{"ein": "136000207", "name": "ASSOCIATION POUR LE RETABLISSEMENT DES INSTITUTIONS ET OEUVRES JUIVES", "city": "NEW YORK", "state": "NY", "zip": "10021-2762", "ntee": "E50J", "ruling": "194507", "deductibility": "1", "assets": 4590645, "income": 1964707, "revenue": 1398902}], "SPEARS": [{"ein": "136085261", "name": "JACKSON E AND EVELYN G SPEARS FOUNDATION INC", "city": "NEW YORK", "state": "NY", "zip": "10021-4162", "ntee": "", "ruling": "194905", "deductibility": "1", "assets": 360704, "income": 122902, "revenue": 0}], "BESKIND": [{"ein": "136147945", "name": "DOROTHY M BESKIND FOUNDATION", "city": "NEW YORK", "state": "NY", "zip": "10065-0000", "ntee": "", "ruling": "196405", "deductibility": "1", "assets": 49916, "income": 5701, "revenue": 0}], "AROANA": [{"ein": "136167247", "name": "SEYMOUR M SCHATZBERG PILOT OFFICER MEMORIAL FUND OF AROANA LODGE 256", "city": "LONG ISLAND CITY", "state": "NY", "zip": "11101-6284", "ntee": "", "ruling": "196102", "deductibility": "1", "assets": 23104, "income": 1, "revenue": 0}], "DILLON": [{"ein": "136400226", "name": "DILLON FUND", "city": "NEW YORK", "state": "NY", "zip": "10016-0313", "ntee": "", "ruling": "192404", "deductibility": "1", "assets": 31131898, "income": 5683259, "revenue": 0}, {"ein": "237043773", "name": "CLARENCE AND ANNE DILLON DUNWALKE TRUST", "city": "NEW YORK", "state": "NY", "zip": "10016-0000", "ntee": "", "ruling": "196911", "deductibility": "1", "assets": 28928455, "income": 13300363, "revenue": 0}, {"ein": "273648623", "name": "DENIS E DILLON CORNER MANS FOUNDATION INC", "city": "WESTBURY", "state": "NY", "zip": "11590-2238", "ntee": "N60", "ruling": "202305", "deductibility": "1", "assets": 0, "income": 0, "revenue": 0}, {"ein": "332998265", "name": "MARK DILLON MEMORIAL FUND CORP", "city": "WEBSTER", "state": "NY", "zip": "14580-9148", "ntee": "T12", "ruling": "202503", "deductibility": "1", "assets": 0, "income": 0, "revenue": 0}, {"ein": "873844651", "name": "DILLON FAMILY FOUNDATION", "city": "NEW YORK", "state": "NY", "zip": "10075-2401", "ntee": "T20", "ruling": "202304", "deductibility": "1", "assets": 387276, "income": 54962, "revenue": 0}, {"ein": "993842511", "name": "DANIEL P DILLON AND KATHERINE SALKINDER-DILLON FOUNDATION INC", "city": "NEW YORK", "state": "NY", "zip": "10012-3637", "ntee": "T12", "ruling": "202407", "deductibility": "1", "assets": 0, "income": 0, "revenue": 0}], "MCGRATH": [{"ein": "137144702", "name": "MCGRATH FAM CHARITABLE FOUNDATION TR", "city": "NEW YORK", "state": "NY", "zip": "10022-1360", "ntee": "T50Z", "ruling": "199808", "deductibility": "1", "assets": 28158, "income": 65247, "revenue": 0}, {"ein": "202008732", "name": "MORGAN AND JUDITH MCGRATH PRIVATE FAMILY FOUNDATION", "city": "ARMONK", "state": "NY", "zip": "10504-1143", "ntee": "T20", "ruling": "200602", "deductibility": "1", "assets": 189877, "income": 86240, "revenue": 0}, {"ein": "206228522", "name": "MARGARET A MCGRATH CHARITABLE FOUNDATION SCHOLARSHIP FUND", "city": "BROCKPORT", "state": "NY", "zip": "14420-1906", "ntee": "B82", "ruling": "200410", "deductibility": "1", "assets": 2877092, "income": 1196807, "revenue": 0}, {"ein": "462261050", "name": "PEGGY MCGRATH ROCKEFELLER FOUNDATION", "city": "NEW YORK", "state": "NY", "zip": "10020-2003", "ntee": "T99", "ruling": "201406", "deductibility": "1", "assets": 17596264, "income": 6310783, "revenue": 0}], "MONTICELLO": [{"ein": "140898018", "name": "MONTICELLO LODGE NO 532 FREE AND ACCEPTED MASONS", "city": "LIBERTY", "state": "NY", "zip": "12754-0444", "ntee": "Y42", "ruling": "201803", "deductibility": "1", "assets": 0, "income": 0, "revenue": 0}, {"ein": "141609644", "name": "MONTICELLO HARNESS HORSEMENS ASSOCIATION INC", "city": "MONTICELLO", "state": "NY", "zip": "12701-8436", "ntee": "", "ruling": "198004", "deductibility": "2", "assets": 3067789, "income": 867637, "revenue": 867637}, {"ein": "141742953", "name": "MONTICELLO POLICE BENEVOLENT ASSN INC", "city": "MONTICELLO", "state": "NY", "zip": "12701-8122", "ntee": "", "ruling": "199212", "deductibility": "2", "assets": 93514, "income": 25953, "revenue": 25953}, {"ein": "141760656", "name": "THE HOUSE OF PRAYER CHURCH OF MONTICELLO INC", "city": "MONTICELLO", "state": "NY", "zip": "12701-1406", "ntee": "X21", "ruling": "200011", "deductibility": "1", "assets": 0, "income": 0, "revenue": 0}, {"ein": "141798060", "name": "MONTICELLO FIRE DEPARTMENT INC", "city": "MONTICELLO", "state": "NY", "zip": "12701-2212", "ntee": "M24Z", "ruling": "199702", "deductibility": "1", "assets": 1737154, "income": 279531, "revenue": 247341}, {"ein": "141806303", "name": "MONTICELLO GYMNASTICS CLUB INC", "city": "MONTICELLO", "state": "NY", "zip": "12701-0771", "ntee": "N60", "ruling": "199909", "deductibility": "1", "assets": 45700, "income": 145582, "revenue": 142461}, {"ein": "141814869", "name": "MONTICELLO TEACHERS ASSOCIATION BENEFIT TRUST FUND", "city": "MONTICELLO", "state": "NY", "zip": "12701-2530", "ntee": "Y33", "ruling": "201906", "deductibility": "2", "assets": 1045326, "income": 770394, "revenue": 770394}, {"ein": "141827236", "name": "MONTICELLO NY KIWANIS FOUNDATION INC", "city": "MONTICELLO", "state": "NY", "zip": "12701-0413", "ntee": "N20", "ruling": "200103", "deductibility": "1", "assets": 4266, "income": 12500, "revenue": 12500}, {"ein": "202809433", "name": "MONTICELLO AREA FOOTBALL AND CHEERLEADING ORGANIZATION INC", "city": "ROCK HILL", "state": "NY", "zip": "12775-0153", "ntee": "N65", "ruling": "200602", "deductibility": "1", "assets": 0, "income": 0, "revenue": 0}, {"ein": "222527311", "name": "MONTICELLO NY ROTARY CLUB SCHOLARSHIP FUND INC", "city": "MONTICELLO", "state": "NY", "zip": "12701-0444", "ntee": "B82", "ruling": "202406", "deductibility": "1", "assets": 0, "income": 0, "revenue": 0}, {"ein": "464101679", "name": "INTERFAITH COUNCIL OF MONTICELLO NY", "city": "MONTICELLO", "state": "NY", "zip": "12701-2504", "ntee": "Z99", "ruling": "202004", "deductibility": "1", "assets": 0, "income": 0, "revenue": 0}, {"ein": "822529419", "name": "ROTARY CLUB OF MONTICELLO NEW YORK CHARITIES INC", "city": "MONTICELLO", "state": "NY", "zip": "12701-0444", "ntee": "T50", "ruling": "201909", "deductibility": "1", "assets": 39300, "income": 37813, "revenue": 25363}, {"ein": "851406562", "name": "MOSDOS MONTICELLO INC", "city": "MONTICELLO", "state": "NY", "zip": "12701-1799", "ntee": "X30", "ruling": "202103", "deductibility": "1", "assets": 0, "income": 0, "revenue": 0}, {"ein": "862124211", "name": "TOMCHEI TEMIMIM LUBAVITCH MONTICELLO INC", "city": "LAWRENCE", "state": "NY", "zip": "11559-1536", "ntee": "X30", "ruling": "202205", "deductibility": "1", "assets": 0, "income": 0, "revenue": 0}, {"ein": "874733453", "name": "CONG YETEV LEV MONTICELLO", "city": "MONTICELLO", "state": "NY", "zip": "12701-1704", "ntee": "X30", "ruling": "202310", "deductibility": "1", "assets": 0, "income": 0, "revenue": 0}, {"ein": "922226322", "name": "ICHUD MOSDOS MONTICELLO INC", "city": "MONTICELLO", "state": "NY", "zip": "12701-1711", "ntee": "X30", "ruling": "202305", "deductibility": "1", "assets": 0, "income": 0, "revenue": 0}, {"ein": "934841158", "name": "JEWISH MONTICELLO INC", "city": "MONTICELLO", "state": "NY", "zip": "12701-1504", "ntee": "X30", "ruling": "202407", "deductibility": "1", "assets": 0, "income": 0, "revenue": 0}], "GLOVERSVILLE": [{"ein": "141584623", "name": "THE FRIENDS OF THE GLOVERSVILLE PUBLIC LIBRARY INC", "city": "GLOVERSVILLE", "state": "NY", "zip": "12078-3213", "ntee": "", "ruling": "197612", "deductibility": "1", "assets": 33051, "income": 19870, "revenue": 16179}, {"ein": "141624879", "name": "GLOVERSVILLE FIRST FREE METHODIST CHURCH", "city": "GIOVERSVILLE", "state": "NY", "zip": "12078-0000", "ntee": "", "ruling": "195806", "deductibility": "1", "assets": 0, "income": 0, "revenue": 0}, {"ein": "141627619", "name": "PROMOTE GLOVERSVILLE DEVELOPMENT CORPORATION", "city": "GLOVERSVILLE", "state": "NY", "zip": "12078-3004", "ntee": "S30", "ruling": "200409", "deductibility": "1", "assets": 598417, "income": 14242, "revenue": 14242}, {"ein": "141678992", "name": "GLOVERSVILLE WESLEYAN CHURCH", "city": "GLOVERSVILLE", "state": "NY", "zip": "12078-2338", "ntee": "", "ruling": "197005", "deductibility": "1", "assets": 0, "income": 0, "revenue": 0}, {"ein": "141787734", "name": "GLOVERSVILLE THEATRE CORPORATION", "city": "GLOVERSVILLE", "state": "NY", "zip": "12078-0005", "ntee": "A84", "ruling": "199611", "deductibility": "1", "assets": 447169, "income": 392228, "revenue": 392228}, {"ein": "141799623", "name": "THE GLOVERSVILLE CITIZENS BAND INC", "city": "GLOVERSVILLE", "state": "NY", "zip": "12078-0984", "ntee": "A6C", "ruling": "201602", "deductibility": "1", "assets": 0, "income": 0, "revenue": 0}, {"ein": "146097968", "name": "SENIOR CITIZENS SERVICE CENTER OF GLOVERSVILLE INC", "city": "GLOVERSVILLE", "state": "NY", "zip": "12078-2912", "ntee": "", "ruling": "198212", "deductibility": "1", "assets": 323337, "income": 74826, "revenue": 74826}, {"ein": "203042321", "name": "GLOVERSVILLE PUBLIC LIBRARY", "city": "GLOVERSVILLE", "state": "NY", "zip": "12078-3213", "ntee": "B70", "ruling": "200511", "deductibility": "1", "assets": 9009859, "income": 1067515, "revenue": 1067515}, {"ein": "237065255", "name": "GLOVERSVILLE EXTENDED CARE AND NURSING HOME CO INC", "city": "GLOVERSVILLE", "state": "NY", "zip": "12078-1203", "ntee": "E80Z", "ruling": "197006", "deductibility": "1", "assets": 0, "income": 0, "revenue": 0}, {"ein": "271730260", "name": "GLOVERSVILLE DUGOUT CLUB", "city": "GLOVERSVILLE", "state": "NY", "zip": "12078-2642", "ntee": "N63", "ruling": "201009", "deductibility": "1", "assets": 0, "income": 0, "revenue": 0}, {"ein": "462115418", "name": "GLOVERSVILLE HOUSING & NEIGHBORHOOD IMPROVEMENT CORPORATION", "city": "GLOVERSVILLE", "state": "NY", "zip": "12078-0009", "ntee": "L20", "ruling": "201308", "deductibility": "1", "assets": 122817, "income": 25999, "revenue": 24192}, {"ein": "542171200", "name": "GLOVERSVILLE LIBRARY FOUNDATION INC", "city": "GLOVERSVILLE", "state": "NY", "zip": "12078-3213", "ntee": "T20", "ruling": "200506", "deductibility": "1", "assets": 4809029, "income": 1185424, "revenue": 521830}, {"ein": "812889088", "name": "GLOVERSVILLE DRAGONS SOCCER BOOSTER CLUB", "city": "GLOVERSVILLE", "state": "NY", "zip": "12078-1315", "ntee": "B11", "ruling": "201804", "deductibility": "1", "assets": 0, "income": 0, "revenue": 0}, {"ein": "934672739", "name": "GLOVERSVILLE EDUCATIONAL FOUNDATION INC", "city": "GLOVERSVILLE", "state": "NY", "zip": "12078-1935", "ntee": "B11", "ruling": "202312", "deductibility": "1", "assets": 0, "income": 0, "revenue": 0}], "LOADING": [{"ein": "141600724", "name": "OLD SARATOGA MUZZLE LOADING CLUB INC", "city": "SCHUYLERVILLE", "state": "NY", "zip": "12871-0204", "ntee": "N50", "ruling": "201406", "deductibility": "2", "assets": 0, "income": 0, "revenue": 0}], "MARANTHA": [{"ein": "141611938", "name": "MARANTHA BIBLE CHURCH GANSEVOORT NEW YORK", "city": "GANSEVOORT", "state": "NY", "zip": "12831-0000", "ntee": "", "ruling": "198009", "deductibility": "1", "assets": 0, "income": 0, "revenue": 0}], "HELDERBERG": [{"ein": "141739107", "name": "HELDERBERG AMBULANCE SQUAD INC", "city": "EAST BERNE", "state": "NY", "zip": "12059-0054", "ntee": "E62", "ruling": "199208", "deductibility": "1", "assets": 771433, "income": 323568, "revenue": 323568}, {"ein": "146024281", "name": "HELDERBERG REFORMED CHURCH", "city": "GUILDRLND CTR", "state": "NY", "zip": "12085-0196", "ntee": "", "ruling": "198601", "deductibility": "1", "assets": 0, "income": 0, "revenue": 0}, {"ein": "352394755", "name": "HELDERBERG EVANGELICAL LUTHERAN CHURCH", "city": "BERNE", "state": "NY", "zip": "12023-2926", "ntee": "", "ruling": "198804", "deductibility": "1", "assets": 0, "income": 0, "revenue": 0}, {"ein": "474860007", "name": "HELDERBERG NEIGHBORHOOD ASSOCIATION", "city": "ALBANY", "state": "NY", "zip": "12208-0841", "ntee": "S20", "ruling": "202211", "deductibility": "1", "assets": 0, "income": 0, "revenue": 0}, {"ein": "542099179", "name": "HELDERBERG CHRISTIAN SCHOOL", "city": "EAST BERNE", "state": "NY", "zip": "12059-0225", "ntee": "B24", "ruling": "200309", "deductibility": "1", "assets": 412781, "income": 270232, "revenue": 270232}, {"ein": "810959505", "name": "AMERICAN LEGION RIDERS OF HELDERBERG POST 977 ALTAMONT NY", "city": "ALTAMONT", "state": "NY", "zip": "12009-6323", "ntee": "P12", "ruling": "201604", "deductibility": "1", "assets": 39253, "income": 78257, "revenue": 78257}, {"ein": "833150014", "name": "HELDERBERG FAMILY & COMMUNITY ORGANIZATION INC", "city": "KNOX", "state": "NY", "zip": "12107-0115", "ntee": "O50", "ruling": "201903", "deductibility": "1", "assets": 0, "income": 0, "revenue": 0}, {"ein": "933794324", "name": "HELDERBERG LAKE ENVIRONMENTAL RESTORATION CORP", "city": "EAST BERNE", "state": "NY", "zip": "12059-2900", "ntee": "C32", "ruling": "202312", "deductibility": "1", "assets": 0, "income": 0, "revenue": 0}], "TROYREDEVELOPMENT": [{"ein": "141777575", "name": "TROYREDEVELOPMENT FOUNDATION INC", "city": "TROY", "state": "NY", "zip": "12180-3522", "ntee": "S20", "ruling": "201211", "deductibility": "1", "assets": 178031, "income": 437379, "revenue": 437379}], "PHILLIES": [{"ein": "141816094", "name": "PHILLIES BRIDGE FARM PROJECT INC", "city": "NEW PALTZ", "state": "NY", "zip": "12561-2625", "ntee": "O52", "ruling": "200002", "deductibility": "1", "assets": 730878, "income": 367801, "revenue": 367801}], "REUNION": [{"ein": "146020379", "name": "SNELL-ZIMMERMAN-TIMMERMAN REUNION INCORPORATED", "city": "LITTLE FALLS", "state": "NY", "zip": "13365-3625", "ntee": "A80", "ruling": "201704", "deductibility": "1", "assets": 0, "income": 0, "revenue": 0}, {"ein": "161599879", "name": "NORTHEAST USA VIETNAM VETERANS REUNION ASSOC INC", "city": "FREEHOLD", "state": "NY", "zip": "12431-0326", "ntee": "A84", "ruling": "200110", "deductibility": "2", "assets": 0, "income": 0, "revenue": 0}, {"ein": "237072171", "name": "FAMILY REUNION CRUSADE", "city": "NEW YORK", "state": "NY", "zip": "10026-3625", "ntee": "", "ruling": "197006", "deductibility": "1", "assets": 0, "income": 0, "revenue": 0}, {"ein": "452516108", "name": "MARBLE HILL 225 REUNION & DEVELOPMENT COMMITTEE INC", "city": "BRONX", "state": "NY", "zip": "10453-3108", "ntee": "P20", "ruling": "201302", "deductibility": "1", "assets": 0, "income": 0, "revenue": 0}, {"ein": "473726373", "name": "SOUNDVIEW REUNION COMMITTEE", "city": "BRONX", "state": "NY", "zip": "10473-0474", "ntee": "Z99", "ruling": "201601", "deductibility": "1", "assets": 1782, "income": 3478, "revenue": 0}, {"ein": "474429178", "name": "SYRACUSE CITY WIDE HIGH SCHOOL REUNION COMMITTEE INC", "city": "SYRACUSE", "state": "NY", "zip": "13205-0000", "ntee": "O50", "ruling": "201507", "deductibility": "1", "assets": 0, "income": 0, "revenue": 0}, {"ein": "510616252", "name": "SWETES REUNION COMMITTEE", "city": "BRONX", "state": "NY", "zip": "10461-4503", "ntee": "Q330", "ruling": "200808", "deductibility": "1", "assets": 2696, "income": 0, "revenue": 0}, {"ein": "743044727", "name": "SMALLS WASHINGTON FAMILY REUNION", "city": "EAST MEADOW", "state": "NY", "zip": "11554-2289", "ntee": "N50", "ruling": "200304", "deductibility": "2", "assets": 0, "income": 0, "revenue": 0}, {"ein": "800719575", "name": "INDEPENDENCE CITY REUNION ASSOCIATION", "city": "AMITYVILLE", "state": "NY", "zip": "11701-1030", "ntee": "P20", "ruling": "201701", "deductibility": "1", "assets": 0, "income": 0, "revenue": 0}, {"ein": "841805693", "name": "ROBINSON ROOTS FAMILY REUNION INC", "city": "HEMPSTEAD", "state": "NY", "zip": "11550-5222", "ntee": "T70", "ruling": "201911", "deductibility": "1", "assets": 0, "income": 0, "revenue": 0}, {"ein": "841877231", "name": "WEST DEMERARA REUNION ORGANIZATION INC", "city": "BROOKLYN", "state": "NY", "zip": "11213-1331", "ntee": "A12", "ruling": "202001", "deductibility": "1", "assets": 0, "income": 0, "revenue": 0}, {"ein": "842507524", "name": "REUNION CHURCH", "city": "NEW YORK", "state": "NY", "zip": "10023-4521", "ntee": "X20", "ruling": "202007", "deductibility": "1", "assets": 0, "income": 0, "revenue": 0}, {"ein": "921369635", "name": "REUNION OF AFRICAN DESCENDANTS INC", "city": "NEW YORK", "state": "NY", "zip": "10026-1123", "ntee": "P20", "ruling": "202301", "deductibility": "1", "assets": 173336, "income": 77013, "revenue": 77013}], "GILEAD": [{"ein": "146023508", "name": "GILEAD LUTHERAN CHURCH", "city": "CROPSEYVILLE", "state": "NY", "zip": "12052-0026", "ntee": "", "ruling": "198804", "deductibility": "1", "assets": 0, "income": 0, "revenue": 0}, {"ein": "222736093", "name": "GILEAD CENTER FOR LEADERSHIP", "city": "SCHENECTADY", "state": "NY", "zip": "12304-0757", "ntee": "", "ruling": "198612", "deductibility": "1", "assets": 0, "income": 0, "revenue": 0}, {"ein": "260107184", "name": "MOUNT GILEAD BAPTIST CHURCH", "city": "BRONX", "state": "NY", "zip": "10457-7708", "ntee": "", "ruling": "195504", "deductibility": "1", "assets": 0, "income": 0, "revenue": 0}], "TELEPHONE": [{"ein": "146088334", "name": "INDEPENDENT TELEPHONE PIONEER ASSOCIATION", "city": "NEWPORT", "state": "NY", "zip": "13416-0201", "ntee": "Y40", "ruling": "202007", "deductibility": "2", "assets": 0, "income": 0, "revenue": 0}], "SUSQUEHANNA": [{"ein": "150544693", "name": "SUSQUEHANNA SOCIETY FOR THE PREVENTION OF CRUELTY TO ANIMALS", "city": "COOPERSTOWN", "state": "NY", "zip": "13326-5704", "ntee": "D200", "ruling": "195111", "deductibility": "1", "assets": 9008266, "income": 2365911, "revenue": 1963097}, {"ein": "150628438", "name": "PRESBYTERY OF SUSQUEHANNA VALLEY", "city": "BINGHAMTON", "state": "NY", "zip": "13901-2971", "ntee": "", "ruling": "196401", "deductibility": "1", "assets": 0, "income": 0, "revenue": 0}, {"ein": "161131343", "name": "SUSQUEHANNA VALLEY BAPTIST CHURCH OF ONEONTA NEW YORK", "city": "ONEONTA", "state": "NY", "zip": "13820-0000", "ntee": "", "ruling": "197912", "deductibility": "1", "assets": 0, "income": 0, "revenue": 0}, {"ein": "161292512", "name": "SUSQUEHANNA VALLEY RAILWAY HISTORICAL SOCIETY", "city": "BINGHAMTON", "state": "NY", "zip": "13902-2415", "ntee": "", "ruling": "198707", "deductibility": "1", "assets": 16958, "income": 2357, "revenue": 2357}, {"ein": "222581164", "name": "SUSQUEHANNA REGIONAL EMERGENCY MEDICAL SERVICES COUNCIL", "city": "ENDICOTT", "state": "NY", "zip": "13760-6000", "ntee": "E99", "ruling": "200005", "deductibility": "1", "assets": 247248, "income": 215248, "revenue": 215248}, {"ein": "473938545", "name": "SUSQUEHANNA VALLEY STUDENT EDUCATIONAL LOAN FUND", "city": "CONKLIN", "state": "NY", "zip": "13748-1136", "ntee": "B82", "ruling": "201805", "deductibility": "1", "assets": 0, "income": 0, "revenue": 0}, {"ein": "475204025", "name": "SUSQUEHANNA VALLEY QUILTERS INC", "city": "ONEONTA", "state": "NY", "zip": "13820-2383", "ntee": "A25", "ruling": "201510", "deductibility": "1", "assets": 0, "income": 0, "revenue": 0}, {"ein": "933009070", "name": "SUSQUEHANNA VALLEY CHEERLEADING", "city": "CONKLIN", "state": "NY", "zip": "13748-1136", "ntee": "A12", "ruling": "202404", "deductibility": "1", "assets": 0, "income": 0, "revenue": 0}], "CNY": [{"ein": "150625350", "name": "CNY ARTS INC", "city": "SYRACUSE", "state": "NY", "zip": "13202-2923", "ntee": "A260", "ruling": "196110", "deductibility": "1", "assets": 2077415, "income": 4441238, "revenue": 4441238}, {"ein": "161289199", "name": "CNY WORKS INC", "city": "SYRACUSE", "state": "NY", "zip": "13203-2673", "ntee": "", "ruling": "199107", "deductibility": "1", "assets": 3458828, "income": 6747799, "revenue": 6747799}, {"ein": "161335995", "name": "LONG TERM CARE EXECUTIVE COUNCIL OF CNY INC", "city": "SYRACUSE", "state": "NY", "zip": "13201-0934", "ntee": "", "ruling": "198903", "deductibility": "2", "assets": 72528, "income": 75230, "revenue": 75230}, {"ein": "161401286", "name": "CNY FAIR HOUSING INC", "city": "SYRACUSE", "state": "NY", "zip": "13203-2039", "ntee": "", "ruling": "199207", "deductibility": "1", "assets": 721233, "income": 1313976, "revenue": 1304658}, {"ein": "161467565", "name": "CNY ART GUILD INC", "city": "LIVERPOOL", "state": "NY", "zip": "13088-0241", "ntee": "A90", "ruling": "201812", "deductibility": "1", "assets": 0, "income": 0, "revenue": 0}, {"ein": "161492433", "name": "PRIDE COMMUNITY CENTER OF CNY", "city": "SYRACUSE", "state": "NY", "zip": "13217-6608", "ntee": "R26", "ruling": "201606", "deductibility": "1", "assets": 0, "income": 0, "revenue": 0}, {"ein": "161498021", "name": "REACH CNY INC", "city": "SYRACUSE", "state": "NY", "zip": "13203-2770", "ntee": "E70", "ruling": "199609", "deductibility": "1", "assets": 1134198, "income": 1400717, "revenue": 1400717}, {"ein": "161517042", "name": "CNY SNOW TRAVELERS INC", "city": "DEANSBORO", "state": "NY", "zip": "13328-0053", "ntee": "N32", "ruling": "200702", "deductibility": "1", "assets": 394431, "income": 84608, "revenue": 84608}, {"ein": "161537928", "name": "INCLUSIVE ECONOMY CNY INC", "city": "SYRACUSE", "state": "NY", "zip": "13210-1230", "ntee": "S31", "ruling": "202005", "deductibility": "1", "assets": 0, "income": 0, "revenue": 0}, {"ein": "161554791", "name": "KITTY CORNER OF CNY INC", "city": "LIVERPOOL", "state": "NY", "zip": "13088-4932", "ntee": "D20", "ruling": "199908", "deductibility": "1", "assets": 62544, "income": 87395, "revenue": 87395}, {"ein": "161564476", "name": "PAWS OF CNY INC", "city": "SYRACUSE", "state": "NY", "zip": "13220-2222", "ntee": "P80", "ruling": "200003", "deductibility": "1", "assets": 0, "income": 0, "revenue": 0}, {"ein": "161566795", "name": "CNY BMX", "city": "BRIDGEWATER", "state": "NY", "zip": "13313-7710", "ntee": "N60", "ruling": "201408", "deductibility": "1", "assets": 0, "income": 0, "revenue": 0}, {"ein": "161572367", "name": "DAMASCUS ROAD LUTHERAN SECRETARIAT OF CNY", "city": "POLAND", "state": "NY", "zip": "13431-2214", "ntee": "X21", "ruling": "199912", "deductibility": "1", "assets": 0, "income": 0, "revenue": 0}, {"ein": "161581186", "name": "CNY PIN2WIN INC", "city": "LIVERPOOL", "state": "NY", "zip": "13090-1114", "ntee": "T30", "ruling": "201409", "deductibility": "1", "assets": 0, "income": 0, "revenue": 0}, {"ein": "200082532", "name": "SOCIETY OF DEFENSE FINANCIAL MANAGEMENT-CNY LEATHERSTOCKING", "city": "ROME", "state": "NY", "zip": "13441-4501", "ntee": "S41", "ruling": "200311", "deductibility": "2", "assets": 0, "income": 0, "revenue": 0}, {"ein": "201501080", "name": "HANDS AND FEET OF CNY LTD", "city": "CLAY", "state": "NY", "zip": "13041-9694", "ntee": "B99", "ruling": "200507", "deductibility": "1", "assets": 0, "income": 0, "revenue": 0}, {"ein": "202634047", "name": "CNY VISION FOUNDATION", "city": "UTICA", "state": "NY", "zip": "13501-2317", "ntee": "T11", "ruling": "200606", "deductibility": "1", "assets": 0, "income": 0, "revenue": 0}, {"ein": "203322730", "name": "CENTRAL NEW YORK SPAY NEUTER ASSISTANCE PROGRAM CNY SNAP", "city": "CORTLAND", "state": "NY", "zip": "13045-2312", "ntee": "D20", "ruling": "200605", "deductibility": "1", "assets": 122055, "income": 428484, "revenue": 428484}, {"ein": "204069501", "name": "ADAPT CNY INC", "city": "SYRACUSE", "state": "NY", "zip": "13202-2646", "ntee": "S20", "ruling": "200611", "deductibility": "1", "assets": 0, "income": 0, "revenue": 0}, {"ein": "205534306", "name": "CNY ART COUNCIL INC", "city": "PHOENIX", "state": "NY", "zip": "13135-9011", "ntee": "A26", "ruling": "200702", "deductibility": "1", "assets": 42876, "income": 57437, "revenue": 57437}, {"ein": "208423949", "name": "CNY FAMILY BICYCLE GIVEAWAY INC", "city": "LIVERPOOL", "state": "NY", "zip": "13090-1002", "ntee": "N99", "ruling": "201407", "deductibility": "1", "assets": 0, "income": 0, "revenue": 0}, {"ein": "223753108", "name": "CHURCH OF THE NATIONS CNY INC", "city": "LIVERPOOL", "state": "NY", "zip": "13088-6102", "ntee": "X20", "ruling": "200110", "deductibility": "1", "assets": 0, "income": 0, "revenue": 0}, {"ein": "263689979", "name": "CNY BASEBALL CLUB INC", "city": "BALDWINSVILLE", "state": "NY", "zip": "13027-0026", "ntee": "N63", "ruling": "201606", "deductibility": "1", "assets": 24056, "income": 107683, "revenue": 101998}, {"ein": "264446429", "name": "CNY VETERANS PARADE INC", "city": "SYRACUSE", "state": "NY", "zip": "13217-6125", "ntee": "W30", "ruling": "200906", "deductibility": "1", "assets": 0, "income": 0, "revenue": 0}, {"ein": "271017360", "name": "CNY CONNECT NY INC", "city": "POTSDAM", "state": "NY", "zip": "13676-3132", "ntee": "B70", "ruling": "201003", "deductibility": "1", "assets": 199854, "income": 206785, "revenue": 206785}, {"ein": "271174530", "name": "CNY IRISH CURTURAL SOCIETY", "city": "SYRACUSE", "state": "NY", "zip": "13214-1540", "ntee": "", "ruling": "201405", "deductibility": "1", "assets": 1940, "income": 3610, "revenue": 0}, {"ein": "271804827", "name": "CNY CROSSROADS INC", "city": "SYRACUSE", "state": "NY", "zip": "13203-2588", "ntee": "X20", "ruling": "201010", "deductibility": "1", "assets": 1510056, "income": 329063, "revenue": 329063}, {"ein": "272562458", "name": "BURN FOUNDATION OF CNY", "city": "SYRACUSE", "state": "NY", "zip": "13218-1277", "ntee": "G80", "ruling": "201009", "deductibility": "1", "assets": 0, "income": 0, "revenue": 0}, {"ein": "273609561", "name": "CNY NURSES COLLABORATIVE TO ADVANCE RESEARCH & EVIDENCE-BASED", "city": "SYRACUSE", "state": "NY", "zip": "13215-1219", "ntee": "B60", "ruling": "201311", "deductibility": "1", "assets": 0, "income": 0, "revenue": 0}, {"ein": "273769128", "name": "CNY CHAPTER - IRISH AMERICAN CULTURAL INSTITUTE", "city": "FAYETTEVILLE", "state": "NY", "zip": "13066-1002", "ntee": "A23", "ruling": "201106", "deductibility": "1", "assets": 0, "income": 0, "revenue": 0}, {"ein": "274532742", "name": "CNY FIBER ARTISTS AND PRODUCERS", "city": "FABIUS", "state": "NY", "zip": "13063-9735", "ntee": "C20", "ruling": "201106", "deductibility": "2", "assets": 0, "income": 0, "revenue": 0}, {"ein": "275102367", "name": "CNY AFFORDABLE REALTY INC", "city": "SYRACUSE", "state": "NY", "zip": "13204-2424", "ntee": "L11", "ruling": "201302", "deductibility": "1", "assets": 1271258, "income": 368103, "revenue": 368103}, {"ein": "331270817", "name": "DEER SEARCH CNY INC", "city": "LIVERPOOL", "state": "NY", "zip": "13088-5938", "ntee": "D20", "ruling": "202410", "deductibility": "1", "assets": 0, "income": 0, "revenue": 0}, {"ein": "371607538", "name": "CNY HURRICANE", "city": "SYRACUSE", "state": "NY", "zip": "13206-2404", "ntee": "N65", "ruling": "201307", "deductibility": "1", "assets": 0, "income": 0, "revenue": 0}, {"ein": "452106346", "name": "CNY BOBCATS HOCKEY ASSOCIATION INC", "city": "NEW HARTFORD", "state": "NY", "zip": "13413-0263", "ntee": "N60", "ruling": "201612", "deductibility": "1", "assets": 0, "income": 0, "revenue": 0}, {"ein": "452482108", "name": "CNY ARTS CENTER", "city": "FULTON", "state": "NY", "zip": "13069-1709", "ntee": "A61", "ruling": "201109", "deductibility": "1", "assets": 439316, "income": 279027, "revenue": 279027}, {"ein": "460584621", "name": "CNY YOUTH RUGBY INC", "city": "FAYETTEVILLE", "state": "NY", "zip": "13066-0044", "ntee": "O50", "ruling": "201302", "deductibility": "1", "assets": 0, "income": 0, "revenue": 0}, {"ein": "461593349", "name": "VOLUNTEER LAWYERS PROJECT OF CNY INC", "city": "SYRACUSE", "state": "NY", "zip": "13202-1623", "ntee": "I80", "ruling": "201305", "deductibility": "1", "assets": 2527225, "income": 3455508, "revenue": 3447255}, {"ein": "463102154", "name": "21 CLUB OF CNY INC", "city": "NEW HARTFORD", "state": "NY", "zip": "13413-2936", "ntee": "B28", "ruling": "201406", "deductibility": "1", "assets": 51139, "income": 28506, "revenue": 28506}, {"ein": "463936881", "name": "CNY BANKRUPTCY BAR ASSOCIATION INC", "city": "SYRACUSE", "state": "NY", "zip": "13261-7003", "ntee": "B03", "ruling": "201901", "deductibility": "1", "assets": 0, "income": 0, "revenue": 0}, {"ein": "470854264", "name": "CNY TRIATHLON INC", "city": "DEWITT", "state": "NY", "zip": "13214-0000", "ntee": "N60", "ruling": "202301", "deductibility": "1", "assets": 0, "income": 0, "revenue": 0}, {"ein": "472849398", "name": "VALLEY BABE RUTH LEAGUE OF CNY INC", "city": "SYRACUSE", "state": "NY", "zip": "13219-1536", "ntee": "N63", "ruling": "201502", "deductibility": "1", "assets": 0, "income": 0, "revenue": 0}, {"ein": "473894208", "name": "CNY BOOKS FOR THE WORLD INC", "city": "SKANEATELES", "state": "NY", "zip": "13152-1195", "ntee": "S80", "ruling": "201511", "deductibility": "1", "assets": 0, "income": 0, "revenue": 0}, {"ein": "474220332", "name": "CNY CHILDRENS FOUNDATION INC", "city": "CANASTOTA", "state": "NY", "zip": "13032-4717", "ntee": "S11", "ruling": "201604", "deductibility": "1", "assets": 0, "income": 0, "revenue": 0}, {"ein": "550883343", "name": "CALVARY FOOD PANTRY CNY", "city": "AUBURN", "state": "NY", "zip": "13021-2732", "ntee": "K31", "ruling": "200608", "deductibility": "1", "assets": 198413, "income": 110784, "revenue": 110784}, {"ein": "800729956", "name": "CNY COLLABORATIVE FAMILY LAW PROFESSIONALS INC", "city": "EAST SYRACUSE", "state": "NY", "zip": "13057-9400", "ntee": "S46", "ruling": "201111", "deductibility": "2", "assets": 0, "income": 0, "revenue": 0}, {"ein": "811508200", "name": "CNY VETERANS RECOGNITION FOUNDATION INC", "city": "SKANEATELES", "state": "NY", "zip": "13152-1195", "ntee": "W24", "ruling": "201606", "deductibility": "1", "assets": 0, "income": 0, "revenue": 0}, {"ein": "815269963", "name": "CNY FOLKSMARCH INC", "city": "LIVERPOOL", "state": "NY", "zip": "13090-1107", "ntee": "N50", "ruling": "201804", "deductibility": "1", "assets": 0, "income": 0, "revenue": 0}, {"ein": "820609331", "name": "CNY RISE CENTER INC", "city": "SYRACUSE", "state": "NY", "zip": "13207-2649", "ntee": "A23", "ruling": "201709", "deductibility": "1", "assets": 275387, "income": 109225, "revenue": 109225}, {"ein": "823284899", "name": "BREWERTON CENTER FOR THE PERFORMING ARTS OF CNY INC", "city": "CENTRAL SQ", "state": "NY", "zip": "13036-2139", "ntee": "A25", "ruling": "201802", "deductibility": "1", "assets": 0, "income": 0, "revenue": 0}, {"ein": "823916621", "name": "CNY PROJECT HOPE INC", "city": "LIVERPOOL", "state": "NY", "zip": "13088-6320", "ntee": "P99", "ruling": "201909", "deductibility": "1", "assets": 0, "income": 0, "revenue": 0}, {"ein": "824985537", "name": "BLOOM OF CNY", "city": "SYRACUSE", "state": "NY", "zip": "13205-1245", "ntee": "O99", "ruling": "201805", "deductibility": "1", "assets": 0, "income": 0, "revenue": 0}, {"ein": "825230221", "name": "CNY BEARTEAM INC", "city": "PULASKI", "state": "NY", "zip": "13142-2557", "ntee": "P40", "ruling": "201805", "deductibility": "1", "assets": 0, "income": 0, "revenue": 0}, {"ein": "831158506", "name": "TRIUMPH OVER STROKE CNY INC", "city": "MANLIUS", "state": "NY", "zip": "13104-9789", "ntee": "E01", "ruling": "201904", "deductibility": "1", "assets": 0, "income": 0, "revenue": 0}, {"ein": "832089379", "name": "VEGAN CNY INC", "city": "SYRACUSE", "state": "NY", "zip": "13235-0641", "ntee": "D20", "ruling": "201811", "deductibility": "1", "assets": 0, "income": 0, "revenue": 0}, {"ein": "833017840", "name": "FIXING TO HELP CNY SPAYNEUTER INCENTIVE PROGRAM", "city": "MANLIUS", "state": "NY", "zip": "13104-0194", "ntee": "D20", "ruling": "202011", "deductibility": "1", "assets": 28990, "income": 59555, "revenue": 59555}, {"ein": "833901039", "name": "CNY WOMENS CYCLING", "city": "CAZENOVIA", "state": "NY", "zip": "13035-9543", "ntee": "B60", "ruling": "201904", "deductibility": "1", "assets": 0, "income": 0, "revenue": 0}, {"ein": "834258898", "name": "RESTORE CNY INC", "city": "BREWERTON", "state": "NY", "zip": "13029-9641", "ntee": "S50", "ruling": "201905", "deductibility": "1", "assets": 60880, "income": 190504, "revenue": 190504}, {"ein": "834602573", "name": "CNY GUJARATI SAMAJ INC", "city": "SYRACUSE", "state": "NY", "zip": "13209-1824", "ntee": "A23", "ruling": "202002", "deductibility": "1", "assets": 59506, "income": 22317, "revenue": 22317}, {"ein": "841772061", "name": "CNY SPORTS ACADEMY INC", "city": "SYRACUSE", "state": "NY", "zip": "13219-1545", "ntee": "N99", "ruling": "201905", "deductibility": "1", "assets": 10958, "income": 56404, "revenue": 56404}, {"ein": "842534650", "name": "ERINS ANGELS OF CNY INC", "city": "PHOENIX", "state": "NY", "zip": "13135-3350", "ntee": "K30", "ruling": "201912", "deductibility": "1", "assets": 458517, "income": 194125, "revenue": 171235}, {"ein": "842872491", "name": "HUNGERS FOR HOPE OF CNY INC", "city": "SYRACUSE", "state": "NY", "zip": "13211-2000", "ntee": "P99", "ruling": "201909", "deductibility": "1", "assets": 0, "income": 0, "revenue": 0}, {"ein": "843796698", "name": "SMALL STEPS CNY INC", "city": "OSWEGO", "state": "NY", "zip": "13126-6561", "ntee": "G30", "ruling": "202001", "deductibility": "1", "assets": 0, "income": 0, "revenue": 0}, {"ein": "843914813", "name": "KINGDOM BUILDERS OF CNY INC", "city": "OTEGO", "state": "NY", "zip": "13825-0291", "ntee": "L20", "ruling": "202002", "deductibility": "1", "assets": 159365, "income": 70790, "revenue": 70790}, {"ein": "843950264", "name": "CNY PLAYHOUSE INCORPORATED", "city": "LIVERPOOL", "state": "NY", "zip": "13088-5622", "ntee": "A65", "ruling": "202011", "deductibility": "1", "assets": 0, "income": 0, "revenue": 0}, {"ein": "844355153", "name": "CNY VISION FORUM INC", "city": "SYRACUSE", "state": "NY", "zip": "13212-4530", "ntee": "", "ruling": "202001", "deductibility": "1", "assets": 0, "income": 0, "revenue": 0}, {"ein": "850716112", "name": "MADE WITH LOVE CNY INC", "city": "SKANEATELES", "state": "NY", "zip": "13152-9355", "ntee": "P60", "ruling": "202005", "deductibility": "1", "assets": 0, "income": 0, "revenue": 0}, {"ein": "854101885", "name": "ROUTE 20 CNY COMMUNITY GROUP INC", "city": "MARIETTA", "state": "NY", "zip": "13110-9776", "ntee": "T50", "ruling": "202110", "deductibility": "1", "assets": 0, "income": 0, "revenue": 0}, {"ein": "862897509", "name": "SEW WHAT OF CNY INC", "city": "AUBURN", "state": "NY", "zip": "13021-2608", "ntee": "P29", "ruling": "202107", "deductibility": "1", "assets": 101554, "income": 98229, "revenue": 98229}, {"ein": "871747313", "name": "FAITH COMMUNITY OF CNY", "city": "FAYETTEVILLE", "state": "NY", "zip": "13066-9708", "ntee": "X20", "ruling": "202404", "deductibility": "1", "assets": 0, "income": 0, "revenue": 0}, {"ein": "872417130", "name": "OUTLAW LADIES LACROSSE OF CNY", "city": "MANLIUS", "state": "NY", "zip": "13104-2143", "ntee": "N40", "ruling": "202303", "deductibility": "1", "assets": 63739, "income": 163916, "revenue": 163916}, {"ein": "874498220", "name": "CNY BIRDIES FORE BABIES INC", "city": "UTICA", "state": "NY", "zip": "13502-1422", "ntee": "E40", "ruling": "202206", "deductibility": "1", "assets": 0, "income": 0, "revenue": 0}, {"ein": "880942615", "name": "PARTY PRINCESSES CNY INC", "city": "SYRACUSE", "state": "NY", "zip": "13208-2324", "ntee": "O99", "ruling": "202205", "deductibility": "1", "assets": 0, "income": 0, "revenue": 0}, {"ein": "881808631", "name": "BLACK ARTIST COLLECTIVE CNY INC", "city": "FAYETTEVILLE", "state": "NY", "zip": "13066-9789", "ntee": "A01", "ruling": "202209", "deductibility": "1", "assets": 0, "income": 0, "revenue": 0}, {"ein": "882148088", "name": "CNY VISION ALLIANCE INC", "city": "NEW HARTFORD", "state": "NY", "zip": "13413-5345", "ntee": "G41", "ruling": "202207", "deductibility": "1", "assets": 0, "income": 0, "revenue": 0}, {"ein": "882317588", "name": "EMPOWER CNY", "city": "CANASTOTA", "state": "NY", "zip": "13032-1556", "ntee": "B80", "ruling": "202206", "deductibility": "1", "assets": 0, "income": 0, "revenue": 0}, {"ein": "921992242", "name": "FORGE ATHLETICS CNY INC", "city": "FULTON", "state": "NY", "zip": "13069-3646", "ntee": "N60", "ruling": "202307", "deductibility": "1", "assets": 0, "income": 0, "revenue": 0}, {"ein": "923203024", "name": "CNY EARTHQUAKE RELIEF ACTION INC", "city": "N SYRACUSE", "state": "NY", "zip": "13212-4200", "ntee": "M20", "ruling": "202305", "deductibility": "1", "assets": 0, "income": 0, "revenue": 0}, {"ein": "931382731", "name": "IRISH CULTURAL DANCE SOCIETY OF CNY INC", "city": "BREWERTON", "state": "NY", "zip": "13029-9459", "ntee": "A20", "ruling": "202306", "deductibility": "1", "assets": 0, "income": 0, "revenue": 0}, {"ein": "931967216", "name": "STANDSTRONG OF CNY INC", "city": "JAMESVILLE", "state": "NY", "zip": "13078-6531", "ntee": "T12", "ruling": "202307", "deductibility": "1", "assets": 0, "income": 0, "revenue": 0}, {"ein": "932457547", "name": "CNY CATS INC", "city": "SKANEATELES", "state": "NY", "zip": "13152-4220", "ntee": "D99", "ruling": "202308", "deductibility": "1", "assets": 0, "income": 0, "revenue": 0}, {"ein": "932947250", "name": "WILDHEART SANCTUARY OF CNY INC", "city": "SYRACUSE", "state": "NY", "zip": "13209-9754", "ntee": "D34", "ruling": "202503", "deductibility": "1", "assets": 0, "income": 0, "revenue": 0}, {"ein": "933570180", "name": "LEGACY FOUNDATION OF CNY INC", "city": "EAST SYRACUSE", "state": "NY", "zip": "13057-2263", "ntee": "O20", "ruling": "202401", "deductibility": "1", "assets": 0, "income": 0, "revenue": 0}, {"ein": "991245787", "name": "CNY GALAXIES", "city": "LIVERPOOL", "state": "NY", "zip": "13090-1128", "ntee": "N99", "ruling": "202505", "deductibility": "1", "assets": 0, "income": 0, "revenue": 0}, {"ein": "991927486", "name": "CNY MOUNTAIN BIKE TEAM INC", "city": "CAZENOVIA", "state": "NY", "zip": "13035-9608", "ntee": "N60", "ruling": "202404", "deductibility": "1", "assets": 0, "income": 0, "revenue": 0}, {"ein": "992263388", "name": "REDEV CNY HOUSING INITIATIVE INC", "city": "SYRACUSE", "state": "NY", "zip": "13202-2603", "ntee": "L20", "ruling": "202412", "deductibility": "1", "assets": 0, "income": 0, "revenue": 0}], "CANISTEO": [{"ein": "161085957", "name": "CANISTEO WESLEYAN CHURCH", "city": "CANISTEO", "state": "NY", "zip": "14823-1214", "ntee": "", "ruling": "197005", "deductibility": "1", "assets": 0, "income": 0, "revenue": 0}, {"ein": "161381378", "name": "CANISTEO FIRE COMPANY INC", "city": "CANISTEO", "state": "NY", "zip": "14823-0010", "ntee": "M24", "ruling": "201601", "deductibility": "1", "assets": 830693, "income": 138897, "revenue": 138897}, {"ein": "222501860", "name": "S CANISTEO UNITED METHODIST CHURCH", "city": "JASPER", "state": "NY", "zip": "14855-9604", "ntee": "", "ruling": "197410", "deductibility": "0", "assets": 0, "income": 0, "revenue": 0}, {"ein": "274156569", "name": "CANISTEO COMMUNITY SUPPORT GROUP INC", "city": "CANISTEO", "state": "NY", "zip": "14823-1039", "ntee": "O51", "ruling": "202404", "deductibility": "1", "assets": 0, "income": 0, "revenue": 0}, {"ein": "462119130", "name": "CANISTEO LITTLE LEAGUE", "city": "CANISTEO", "state": "NY", "zip": "14823-0034", "ntee": "N63", "ruling": "201405", "deductibility": "1", "assets": 41788, "income": 43725, "revenue": 0}, {"ein": "475393478", "name": "CANISTEO POLICE CLUB", "city": "CANISTEO", "state": "NY", "zip": "14823-0114", "ntee": "S20", "ruling": "201703", "deductibility": "1", "assets": 35406, "income": 85607, "revenue": 37088}, {"ein": "873554964", "name": "CANISTEO VALLEY HISTORICAL SOCIETY", "city": "ARKPORT", "state": "NY", "zip": "14807-0123", "ntee": "A54", "ruling": "202403", "deductibility": "1", "assets": 0, "income": 0, "revenue": 0}], "MIDLAKES": [{"ein": "161269491", "name": "MIDLAKES BABE RUTH BASEBALL", "city": "NEWARK", "state": "NY", "zip": "14513-9180", "ntee": "N63", "ruling": "200303", "deductibility": "1", "assets": 0, "income": 0, "revenue": 0}, {"ein": "222191355", "name": "MIDLAKES JUNIOR EAGLES ATHLETIC", "city": "CLIFTON SPGS", "state": "NY", "zip": "14432-0131", "ntee": "N60", "ruling": "201208", "deductibility": "1", "assets": 11770, "income": 48682, "revenue": 39874}], "MORTONS": [{"ein": "161330375", "name": "MORTONS CORNERS VOLUNTEER FIRE DEPARTMENT", "city": "SPRINGVILLE", "state": "NY", "zip": "14141-0003", "ntee": "M24", "ruling": "200903", "deductibility": "1", "assets": 582112, "income": 293342, "revenue": 292961}], "AIMED": [{"ein": "161396117", "name": "AMERICAN BIKERS AIMED TOWARD EDUCATION INC", "city": "NORTHVILLE", "state": "NY", "zip": "12134-1417", "ntee": "M40", "ruling": "200303", "deductibility": "2", "assets": 47574, "income": 35118, "revenue": 34681}, {"ein": "900354721", "name": "AMERICAN BIKERS AIMED TOWARD EDUCATION INC", "city": "NORTHVILLE", "state": "NY", "zip": "12134-1417", "ntee": "M40", "ruling": "200303", "deductibility": "2", "assets": 30821, "income": 56802, "revenue": 41036}], "RODS": [{"ein": "161417492", "name": "7-VALLEY STREET RODS", "city": "HOMER", "state": "NY", "zip": "13077-8407", "ntee": "", "ruling": "199505", "deductibility": "2", "assets": 0, "income": 0, "revenue": 0}, {"ein": "810802973", "name": "GODS RODS", "city": "NEWFANE", "state": "NY", "zip": "14108-9703", "ntee": "X20", "ruling": "201601", "deductibility": "1", "assets": 88861, "income": 10181, "revenue": 10181}], "RALLY": [{"ein": "161514169", "name": "SPIEDIE FEST BALLOON RALLY EXPO INC", "city": "BINGHAMTON", "state": "NY", "zip": "13905-0275", "ntee": "P20Z", "ruling": "199808", "deductibility": "1", "assets": 388518, "income": 997760, "revenue": 997760}, {"ein": "862555795", "name": "RALLY CAT INC", "city": "NEW YORK", "state": "NY", "zip": "10034-0000", "ntee": "A20", "ruling": "202307", "deductibility": "1", "assets": 5821, "income": 16056, "revenue": 16056}, {"ein": "883305043", "name": "RALLY FOR REED FOUNDATION INC", "city": "STATEN ISLAND", "state": "NY", "zip": "10314-4620", "ntee": "H12", "ruling": "202303", "deductibility": "1", "assets": 6583, "income": 11700, "revenue": 11700}], "DEMAY": [{"ein": "161560448", "name": "K&M DEMAY CHARITABLE FOUNDATION", "city": "HONEOYE FALLS", "state": "NY", "zip": "14472-9218", "ntee": "T20", "ruling": "199904", "deductibility": "1", "assets": 679935, "income": 259642, "revenue": 0}], "PRIMATE": [{"ein": "161605778", "name": "PRIMATE SANCTUARY INC", "city": "NIAGARA FALLS", "state": "NY", "zip": "14303-2020", "ntee": "P20", "ruling": "200205", "deductibility": "1", "assets": 238571, "income": 29033, "revenue": 29033}], "FAULKNER": [{"ein": "166271201", "name": "MILDRED FAULKNER TRUMAN FDN", "city": "BUFFALO", "state": "NY", "zip": "14202-0000", "ntee": "", "ruling": "198605", "deductibility": "0", "assets": 5464628, "income": 1227293, "revenue": 0}], "HALDEMAN": [{"ein": "166524195", "name": "MARGARET W HALDEMAN TR", "city": "BUFFALO", "state": "NY", "zip": "14240-1504", "ntee": "T20", "ruling": "201601", "deductibility": "1", "assets": 796917, "income": 209726, "revenue": 0}, {"ein": "236923977", "name": "HALDEMAN S WERTZ 12-30-1988", "city": "BUFFALO", "state": "NY", "zip": "14240-1504", "ntee": "T20", "ruling": "201001", "deductibility": "1", "assets": 313699, "income": 76486, "revenue": 0}], "ANAPANA": [{"ein": "200989419", "name": "INTERNATIONAL ANAPANA MEDIATION CENTRE INC", "city": "CORONA", "state": "NY", "zip": "11368-3940", "ntee": "", "ruling": "200402", "deductibility": "1", "assets": 0, "income": 0, "revenue": 0}], "NIGHTBOAT": [{"ein": "201137701", "name": "NIGHTBOAT BOOKS INC", "city": "BROOKLYN", "state": "NY", "zip": "11222-3813", "ntee": "A33", "ruling": "200507", "deductibility": "1", "assets": 468957, "income": 546555, "revenue": 320727}], "PARCESEPE": [{"ein": "203994944", "name": "PARCESEPE FAMILY FOUNDATION", "city": "KATONAH", "state": "NY", "zip": "10536-3167", "ntee": "T22", "ruling": "200610", "deductibility": "1", "assets": 643153, "income": 248542, "revenue": 0}], "SHEPHERDFOUNDATION": [{"ein": "204138381", "name": "CHAPEL OF THE GOOD SHEPHERDFOUNDATION INC", "city": "CHAUTAUQUA", "state": "NY", "zip": "14722-0081", "ntee": "X11", "ruling": "200803", "deductibility": "1", "assets": 192881, "income": 35374, "revenue": 21374}], "TECHNOLOGYEDUCATION": [{"ein": "205198628", "name": "RESEARCH APPLIED TECHNOLOGYEDUCATION SERVICE INCORPORATED", "city": "POTSDAM", "state": "NY", "zip": "13676-0843", "ntee": "U21", "ruling": "201106", "deductibility": "1", "assets": 1172523, "income": 2181457, "revenue": 2172365}], "CHARTIABLEFOUNDATION": [{"ein": "205716193", "name": "JEFFERY PAGADALA CHARTIABLEFOUNDATION INC", "city": "SLINGERLANDS", "state": "NY", "zip": "12159-9525", "ntee": "T22", "ruling": "200706", "deductibility": "1", "assets": 321637, "income": 156695, "revenue": 0}], "316C6100": [{"ein": "206038266", "name": "SANDERS FAMILY FOUNDATION 316C6100", "city": "NEW YORK", "state": "NY", "zip": "10012-3957", "ntee": "T22", "ruling": "200602", "deductibility": "1", "assets": 5644077, "income": 3914139, "revenue": 0}], "SWINGING": [{"ein": "222507017", "name": "SWINGING BRIDGE PROPERTY OWNERS", "city": "MONGAUP VLY", "state": "NY", "zip": "12762-0001", "ntee": "", "ruling": "198406", "deductibility": "2", "assets": 0, "income": 0, "revenue": 0}], "REAPING": [{"ein": "222552855", "name": "REAPING THE HARVEST INC", "city": "HIGHLAND", "state": "NY", "zip": "12528-2103", "ntee": "", "ruling": "198410", "deductibility": "1", "assets": 0, "income": 0, "revenue": 0}], "KUNQU": [{"ein": "222963854", "name": "KUNQU SOCIETY INC", "city": "FLUSHING", "state": "NY", "zip": "11352-8301", "ntee": "A200", "ruling": "199102", "deductibility": "1", "assets": 344468, "income": 146528, "revenue": 146528}], "DEPOSITORY": [{"ein": "223106737", "name": "ROCHESTER AREA COMMUNITY FOUNDATION DEPOSITORY INC", "city": "ROCHESTER", "state": "NY", "zip": "14607-1949", "ntee": "T31", "ruling": "199107", "deductibility": "1", "assets": 5444725, "income": 5751269, "revenue": 4162831}], "WELLSWOOD": [{"ein": "237149278", "name": "WELLSWOOD CIVIC ASSOCIATION INC", "city": "CALVERTON", "state": "NY", "zip": "11933-1218", "ntee": "S22", "ruling": "201803", "deductibility": "2", "assets": 0, "income": 0, "revenue": 0}], "MAGNOLIA": [{"ein": "237303098", "name": "MAGNOLIA TREE EARTH CENTER OF BEDFORD STUYVESANT INC", "city": "BROOKLYN", "state": "NY", "zip": "11216-1009", "ntee": "O52Z", "ruling": "197307", "deductibility": "1", "assets": 210210, "income": 280333, "revenue": 264061}, {"ein": "276620623", "name": "MAGNOLIA FOUNDATION", "city": "FLUSHING", "state": "NY", "zip": "11367-2860", "ntee": "T22", "ruling": "201009", "deductibility": "1", "assets": 4022331, "income": 868697, "revenue": 0}, {"ein": "462226376", "name": "MAGNOLIA RUN FARM INC", "city": "ROCKVILLE CENTRE", "state": "NY", "zip": "11570-0000", "ntee": "D20", "ruling": "201408", "deductibility": "1", "assets": 1, "income": 15577, "revenue": 15577}, {"ein": "920832272", "name": "MAGNOLIA GARDENS HOUSING DEVELOPMENT FUND CORPORATION", "city": "NEW YORK", "state": "NY", "zip": "10002-3313", "ntee": "S47", "ruling": "202308", "deductibility": "1", "assets": 0, "income": 0, "revenue": 0}], "FLARE": [{"ein": "237412320", "name": "FLARE FOUNDATION FOR THE ARTS INC", "city": "NEW YORK", "state": "NY", "zip": "10019-3844", "ntee": "", "ruling": "197411", "deductibility": "1", "assets": 80991, "income": 3219, "revenue": 0}, {"ein": "331688596", "name": "FLARE FIGHTERS FEST", "city": "NEW YORK", "state": "NY", "zip": "10039-2505", "ntee": "A20", "ruling": "202501", "deductibility": "1", "assets": 0, "income": 0, "revenue": 0}], "DJALLON": [{"ein": "263409225", "name": "POTTAL FII BHANTAL FOUTA DJALLON", "city": "BRONX", "state": "NY", "zip": "10456-1160", "ntee": "P84", "ruling": "201008", "deductibility": "1", "assets": 24513, "income": 44811, "revenue": 44811}], "HENTY": [{"ein": "272791311", "name": "ROBERT ANGELO HENTY FOUNDATION INC", "city": "AUBURN", "state": "NY", "zip": "13021-9426", "ntee": "T20", "ruling": "201201", "deductibility": "1", "assets": 0, "income": 0, "revenue": 0}], "KFAR": [{"ein": "273033292", "name": "KFAR YELADIM DAVID", "city": "BROOKLYN", "state": "NY", "zip": "11229-1194", "ntee": "P20", "ruling": "201109", "deductibility": "1", "assets": 171113, "income": 403072, "revenue": 403072}, {"ein": "990549699", "name": "KFAR CHABAD COMMUNITY INC", "city": "BROOKLYN", "state": "NY", "zip": "11213-3574", "ntee": "X30", "ruling": "202407", "deductibility": "1", "assets": 0, "income": 0, "revenue": 0}], "JEMUEL": [{"ein": "300270618", "name": "SAINT JEMUEL GROUP FAMILY DAYCARE INC", "city": "BRONX", "state": "NY", "zip": "10468-2104", "ntee": "P33", "ruling": "200506", "deductibility": "1", "assets": 383160, "income": 1074622, "revenue": 1074622}], "RAUF": [{"ein": "300280072", "name": "MASJID KHALIL RAUF ABDULLAH", "city": "NEW YORK", "state": "NY", "zip": "10039-4104", "ntee": "X40", "ruling": "201512", "deductibility": "1", "assets": 0, "income": 0, "revenue": 0}], "EDINBURGH": [{"ein": "311744318", "name": "AMERICAN FRIENDS OF THE ROYAL COLLEGE OF SURGEONS OF EDINBURGH", "city": "NEW YORK", "state": "NY", "zip": "10019-0000", "ntee": "H11", "ruling": "200102", "deductibility": "1", "assets": 123841, "income": 0, "revenue": 0}, {"ein": "473929760", "name": "NORTH AMERICAN OFFICE UNIVERSITY OF EDINBURGH INC", "city": "NEW YORK", "state": "NY", "zip": "10111-3193", "ntee": "B84", "ruling": "201507", "deductibility": "1", "assets": 0, "income": 0, "revenue": 0}, {"ein": "521263286", "name": "NORTH AMERICAN OFFICE-UNIVERSITY OF EDINBURGH INC", "city": "NEW YORK", "state": "NY", "zip": "10111-0100", "ntee": "B84", "ruling": "201507", "deductibility": "1", "assets": 35838, "income": 259190, "revenue": 259190}, {"ein": "521802057", "name": "UNIVERSITY OF EDINBURGH USA DEVELOPMENT TRUST INC", "city": "NEW YORK", "state": "NY", "zip": "10111-3193", "ntee": "Q113", "ruling": "199305", "deductibility": "1", "assets": 1763432, "income": 3417781, "revenue": 2989404}], "SCREENWRITERS": [{"ein": "311755354", "name": "SCREENWRITERS COLONY INC", "city": "BROOKLYN", "state": "NY", "zip": "11211-2603", "ntee": "A26", "ruling": "200310", "deductibility": "1", "assets": 38158, "income": 156759, "revenue": 156759}], "TAHOR": [{"ein": "320016234", "name": "ALEH TAHOR", "city": "MONSEY", "state": "NY", "zip": "10952-1901", "ntee": "X30", "ruling": "200311", "deductibility": "1", "assets": 0, "income": 0, "revenue": 0}], "ASCEND": [{"ein": "331200239", "name": "ASCEND LEARNING INC", "city": "BROOKLYN", "state": "NY", "zip": "11212-3444", "ntee": "B99", "ruling": "201101", "deductibility": "1", "assets": 16996772, "income": 19015759, "revenue": 19015759}, {"ein": "331453382", "name": "ASCEND WORKFORCE SOLUTIONS INC", "city": "ROCHESTER", "state": "NY", "zip": "14623-3018", "ntee": "J22", "ruling": "202506", "deductibility": "1", "assets": 0, "income": 0, "revenue": 0}, {"ein": "453957158", "name": "ASCEND CHARTER SCHOOLS", "city": "BROOKLYN", "state": "NY", "zip": "11212-3444", "ntee": "B29", "ruling": "201409", "deductibility": "1", "assets": 482019155, "income": 139253884, "revenue": 139253884}, {"ein": "510527847", "name": "ASCEND INC", "city": "NEW YORK", "state": "NY", "zip": "10018-5808", "ntee": "", "ruling": "200510", "deductibility": "2", "assets": 7818217, "income": 7072243, "revenue": 6507282}, {"ein": "651284462", "name": "ASCEND FOUNDATION INC", "city": "NEW YORK", "state": "NY", "zip": "10018-5808", "ntee": "S194", "ruling": "200612", "deductibility": "1", "assets": 7258000, "income": 3035592, "revenue": 2692910}, {"ein": "822023126", "name": "FRIENDS OF@ASCEND CHARTER SCHOOLS INC", "city": "BROOKLYN", "state": "NY", "zip": "11212-3444", "ntee": "B11", "ruling": "201709", "deductibility": "1", "assets": 293327451, "income": 31213423, "revenue": 31213423}, {"ein": "994605642", "name": "ASCEND BEYOND BORDERS USA INC", "city": "FOREST HILLS", "state": "NY", "zip": "11375-4200", "ntee": "S31", "ruling": "202410", "deductibility": "1", "assets": 0, "income": 0, "revenue": 0}], "BOUIE": [{"ein": "331385069", "name": "BOUIE FOUNDATION INC", "city": "KENT", "state": "NY", "zip": "14477-9605", "ntee": "P60", "ruling": "202410", "deductibility": "1", "assets": 0, "income": 0, "revenue": 0}], "NKOTH": [{"ein": "331871808", "name": "FOUNDATION NKOTH CORP", "city": "BROOKLYN", "state": "NY", "zip": "11207-3471", "ntee": "B90", "ruling": "202411", "deductibility": "1", "assets": 0, "income": 0, "revenue": 0}], "HZ": [{"ein": "332523916", "name": "HZ FAMILY FOUNDATION", "city": "MAMARONECK", "state": "NY", "zip": "10543-4225", "ntee": "T20", "ruling": "202505", "deductibility": "1", "assets": 0, "income": 0, "revenue": 0}], "TAWN": [{"ein": "333271580", "name": "TAWN MARIE DANCE CENTRE BOOSTER CLUB INC", "city": "LIVERPOOL", "state": "NY", "zip": "13090-4522", "ntee": "A62", "ruling": "202503", "deductibility": "1", "assets": 0, "income": 0, "revenue": 0}], "SHAWC": [{"ein": "352292393", "name": "SHAWC INC", "city": "NEW YORK", "state": "NY", "zip": "10004-3855", "ntee": "L40", "ruling": "200809", "deductibility": "1", "assets": 0, "income": 0, "revenue": 0}], "RVILLE": [{"ein": "364710735", "name": "RVILLE STAGE CREATIONS", "city": "RENSSELAERVLE", "state": "NY", "zip": "12147-2315", "ntee": "A65", "ruling": "202311", "deductibility": "1", "assets": 0, "income": 0, "revenue": 0}], "GLOVES": [{"ein": "432031878", "name": "GOLDEN GLOVES OF AMERICA FUND INC", "city": "LIVERPOOL", "state": "NY", "zip": "13088-5826", "ntee": "N30", "ruling": "200405", "deductibility": "1", "assets": 0, "income": 0, "revenue": 0}, {"ein": "823553128", "name": "BUFFALO GOLDEN GLOVES ACADEMY", "city": "BUFFALO", "state": "NY", "zip": "14213-1462", "ntee": "O50", "ruling": "201801", "deductibility": "1", "assets": 0, "income": 37145, "revenue": 37145}, {"ein": "834345454", "name": "SHINY GLOVES CLUB INCORPORATED", "city": "ALBANY", "state": "NY", "zip": "12207-1704", "ntee": "B02", "ruling": "201912", "deductibility": "1", "assets": 0, "income": 0, "revenue": 0}, {"ein": "853070373", "name": "WLADIS HATS AND GLOVES FOUNDATION INC", "city": "EAST SYRACUSE", "state": "NY", "zip": "13057-9325", "ntee": "T30", "ruling": "202012", "deductibility": "1", "assets": 0, "income": 0, "revenue": 0}, {"ein": "923644877", "name": "WE HAVE A DREAM GLOVES UP GUNS DOWN", "city": "BUFFALO", "state": "NY", "zip": "14211-2548", "ntee": "O50", "ruling": "202308", "deductibility": "1", "assets": 0, "income": 0, "revenue": 0}], "PERROTT": [{"ein": "451807702", "name": "PERROTT FAMILY CHARITABLE FOUNDATION", "city": "HARRISON", "state": "NY", "zip": "10528-0000", "ntee": "T22", "ruling": "201108", "deductibility": "1", "assets": 664820, "income": 10697, "revenue": 0}], "NORIN": [{"ein": "455238757", "name": "NORIN ALI MOHYUDDIN HELPING HAND", "city": "ROSLYN", "state": "NY", "zip": "11576-2908", "ntee": "S20", "ruling": "201308", "deductibility": "1", "assets": 15079, "income": 30305, "revenue": 30305}], "OPHTHALMOLOGIC": [{"ein": "463197114", "name": "WESTCHESTER OPHTHALMOLOGIC SOCIETY", "city": "WHITE PLAINS", "state": "NY", "zip": "10603-2312", "ntee": "Y99", "ruling": "201406", "deductibility": "1", "assets": 0, "income": 0, "revenue": 0}], "PAYING": [{"ein": "463440011", "name": "PAYING THE PRICE FOUNDATION INC", "city": "MASSAPEQUA", "state": "NY", "zip": "11758-5409", "ntee": "O50", "ruling": "201408", "deductibility": "1", "assets": 10, "income": 1, "revenue": 0}, {"ein": "863816430", "name": "PAYING IT FORWARD FOR JESUS GLOBAL AND KIDS GLOBAL INC", "city": "BROOKLYN", "state": "NY", "zip": "11216-4337", "ntee": "O20", "ruling": "202109", "deductibility": "1", "assets": 0, "income": 0, "revenue": 0}], "VERRETTES": [{"ein": "463955542", "name": "ANNAVANSE VERRETTES INC", "city": "BROOKLYN", "state": "NY", "zip": "11236-3217", "ntee": "P99", "ruling": "201407", "deductibility": "1", "assets": 0, "income": 0, "revenue": 0}], "WAZEE": [{"ein": "470999359", "name": "WAZEE FOUNDATION", "city": "TROY", "state": "NY", "zip": "12182-9736", "ntee": "P12", "ruling": "201508", "deductibility": "1", "assets": 0, "income": 0, "revenue": 0}], "PREEMIES": [{"ein": "472609714", "name": "YERIK ISRAEL TONEY FOUNDATION FOR PREEMIES INC", "city": "MONTICELLO", "state": "NY", "zip": "12701-2439", "ntee": "P40", "ruling": "201907", "deductibility": "1", "assets": 0, "income": 0, "revenue": 0}], "STPPNY": [{"ein": "473536848", "name": "STPPNY INC", "city": "BRONX", "state": "NY", "zip": "10469-5709", "ntee": "A23", "ruling": "201504", "deductibility": "1", "assets": 51085, "income": 7906, "revenue": -1788}], "PATRICIAS": [{"ein": "474255509", "name": "PATRICIAS CHILDREN INC", "city": "KINGSTON", "state": "NY", "zip": "12402-3402", "ntee": "P32", "ruling": "201705", "deductibility": "1", "assets": 13791, "income": 15158, "revenue": 15158}, {"ein": "921370845", "name": "PATRICIAS FUND", "city": "EAST QUOGUE", "state": "NY", "zip": "11942-4439", "ntee": "W99", "ruling": "202301", "deductibility": "1", "assets": 18045, "income": 400, "revenue": 0}], "AUTOGRAPHS": [{"ein": "475479265", "name": "AUTOGRAPHS FOR AUTISM INC", "city": "BROOKLYN", "state": "NY", "zip": "11220-1010", "ntee": "P12", "ruling": "202206", "deductibility": "1", "assets": 0, "income": 0, "revenue": 0}], "MARYLAND": [{"ein": "520405033", "name": "MARYLAND STATE FUNERAL DIRECTORS ASSOCIATION INC", "city": "CORNING", "state": "NY", "zip": "14830-9227", "ntee": "", "ruling": "194207", "deductibility": "2", "assets": 497370, "income": 246465, "revenue": 208008}, {"ein": "521084766", "name": "ANCIENT ORDER OF HIBERNIANS LADIES MARYLAND STATE BOARD", "city": "BROOKLYN", "state": "NY", "zip": "11229-4111", "ntee": "", "ruling": "201610", "deductibility": "1", "assets": 0, "income": 0, "revenue": 0}, {"ein": "800335085", "name": "ANCIENT ORDER OF HIBERNIANS LADIES DIVISION 1 CARROL MARYLAND", "city": "BROOKLYN", "state": "NY", "zip": "11229-4111", "ntee": "", "ruling": "201610", "deductibility": "1", "assets": 0, "income": 0, "revenue": 0}, {"ein": "800656397", "name": "ANCIENT ORDER OF HIBERNIANS LADIES DIVISION 1 BALTIMORE MARYLAND", "city": "BROOKLYN", "state": "NY", "zip": "11229-4111", "ntee": "Y42", "ruling": "201611", "deductibility": "1", "assets": 0, "income": 0, "revenue": 0}, {"ein": "813659765", "name": "LADIES ANCIENT ORDER OF HIBERNIANS INC CECIL COUNTY DIV 1 MARYLAND", "city": "BROOKLYN", "state": "NY", "zip": "11229-4111", "ntee": "Y42", "ruling": "201902", "deductibility": "2", "assets": 0, "income": 0, "revenue": 0}, {"ein": "861516868", "name": "TOWN OF MARYLAND HISTORICAL SOCIETY", "city": "MARYLAND", "state": "NY", "zip": "12116-2004", "ntee": "A80", "ruling": "202211", "deductibility": "1", "assets": 0, "income": 0, "revenue": 0}, {"ein": "874754113", "name": "JEWISH UNION FOUNDATION OF MARYLAND", "city": "NEW YORK", "state": "NY", "zip": "10006-1705", "ntee": "P82", "ruling": "202204", "deductibility": "1", "assets": 0, "income": 0, "revenue": 0}, {"ein": "933619902", "name": "FREE OF MARYLAND INC", "city": "OLD BETHPAGE", "state": "NY", "zip": "11804-1342", "ntee": "F32", "ruling": "202408", "deductibility": "1", "assets": 0, "income": 0, "revenue": 0}], "DIAGNOSTICS": [{"ein": "522304011", "name": "NEW YORK METROPOLITAN SECTION OF THE ASSOC FOR DIAGNOSTICS & LABOTA", "city": "NEW YORK", "state": "NY", "zip": "10065-6704", "ntee": "B03", "ruling": "200905", "deductibility": "1", "assets": 0, "income": 0, "revenue": 0}], "CHUCK": [{"ein": "542066856", "name": "CHUCK CLOSE FOUNDATION", "city": "BROOKLYN", "state": "NY", "zip": "11231-2996", "ntee": "T20", "ruling": "200303", "deductibility": "1", "assets": 1, "income": 42, "revenue": 0}], "ONNUREE": [{"ein": "581930226", "name": "ONNUREE PRESBYTERIAN CHURCH CORPORATION", "city": "ORANGEBURG", "state": "NY", "zip": "10962-2123", "ntee": "", "ruling": "199204", "deductibility": "1", "assets": 0, "income": 0, "revenue": 0}], "EMSA": [{"ein": "586043282", "name": "EMSA FUND INC", "city": "NEW YORK", "state": "NY", "zip": "10017-0000", "ntee": "", "ruling": "196405", "deductibility": "1", "assets": 4870143, "income": 514446, "revenue": 0}], "TEIAM": [{"ein": "611935550", "name": "TEIAM CORP", "city": "BROOKLYN", "state": "NY", "zip": "11221-7348", "ntee": "B90", "ruling": "202006", "deductibility": "1", "assets": 214032, "income": 927634, "revenue": 927634}], "BADGERS": [{"ein": "651236323", "name": "BINGHAMTON BADGERS HOCKEY TEAM", "city": "ENDWELL", "state": "NY", "zip": "13760-5823", "ntee": "N60", "ruling": "201201", "deductibility": "1", "assets": 0, "income": 0, "revenue": 0}], "ARCHIVO": [{"ein": "660947566", "name": "ARCHIVO COMUNITARIO LGBTQ DE PUERTO RICO", "city": "NEW YORK", "state": "NY", "zip": "10035-2771", "ntee": "A80", "ruling": "202007", "deductibility": "1", "assets": 0, "income": 0, "revenue": 0}], "LABORING": [{"ein": "800395365", "name": "LABORING MINISTRIES OF GOD", "city": "QUEENS VLG", "state": "NY", "zip": "11429-1710", "ntee": "X21", "ruling": "201009", "deductibility": "1", "assets": 0, "income": 0, "revenue": 0}], "UMUAVULU": [{"ein": "800609418", "name": "UMUAVULU-ABOR ASSOCIATION INC USA", "city": "ELMHURST", "state": "NY", "zip": "11373-0983", "ntee": "Q12", "ruling": "201201", "deductibility": "1", "assets": 0, "income": 0, "revenue": 0}], "CODALA": [{"ein": "811071991", "name": "COMITE DE DAMAS LATINO AMERICANO CODALA INC", "city": "CENTRAL ISLIP", "state": "NY", "zip": "11722-4031", "ntee": "P28", "ruling": "201708", "deductibility": "1", "assets": 0, "income": 0, "revenue": 0}], "BAIBOU": [{"ein": "813022144", "name": "BAIBOU METHODIST SCHOOL ALUMNI ASSOCIATION INC", "city": "BROOKLYN", "state": "NY", "zip": "11203-5702", "ntee": "B84", "ruling": "201706", "deductibility": "2", "assets": 0, "income": 0, "revenue": 0}], "POQUOTT": [{"ein": "814160192", "name": "POQUOTT COMMUNITY EVENTS II INC", "city": "SETAUKET", "state": "NY", "zip": "11733-4038", "ntee": "S20", "ruling": "201610", "deductibility": "1", "assets": 9754, "income": 9370, "revenue": 2760}], "EMANI": [{"ein": "814599486", "name": "EMANI", "city": "CORAM", "state": "NY", "zip": "11727-3567", "ntee": "P82", "ruling": "201706", "deductibility": "1", "assets": 0, "income": 0, "revenue": 0}], "SIMPKINS": [{"ein": "814962342", "name": "SIMPKINS LEE FOUNDATION", "city": "ALBANY", "state": "NY", "zip": "12212-5201", "ntee": "T20", "ruling": "201712", "deductibility": "1", "assets": 3103383, "income": 1051758, "revenue": 0}], "RECHNITZER": [{"ein": "815329687", "name": "SARA RECHNITZER FOUNDATION", "city": "BROOKLYN", "state": "NY", "zip": "11219-0000", "ntee": "T20", "ruling": "201711", "deductibility": "1", "assets": 173407, "income": 204, "revenue": 0}], "GBA": [{"ein": "820656623", "name": "THE SILVERSTEIN FOUNDATION FOR GBA RESEARCH", "city": "NEW YORK", "state": "NY", "zip": "10023-0030", "ntee": "T30", "ruling": "201709", "deductibility": "1", "assets": 320724, "income": 625714, "revenue": 0}, {"ein": "883416748", "name": "GBA EQUALITY FOUNDATION", "city": "NEW YORK", "state": "NY", "zip": "10017-2308", "ntee": "J20", "ruling": "202209", "deductibility": "1", "assets": 3838, "income": 3928, "revenue": 3928}], "MACKEY": [{"ein": "820773617", "name": "MACKEY AWARDS FOUNDATION INC", "city": "BALDWIN", "state": "NY", "zip": "11510-4726", "ntee": "N01", "ruling": "201803", "deductibility": "1", "assets": 0, "income": 0, "revenue": 0}, {"ein": "863254625", "name": "WARREN & DENYSE MACKEY FOUNDATION INC", "city": "SLINGERLANDS", "state": "NY", "zip": "12159-3012", "ntee": "W12", "ruling": "202107", "deductibility": "1", "assets": 201036, "income": 158272, "revenue": 137016}], "YERUCHAM": [{"ein": "821175735", "name": "KOLLEL ARI YERUCHAM INC", "city": "BROOKLYN", "state": "NY", "zip": "11234-2619", "ntee": "X30", "ruling": "201711", "deductibility": "1", "assets": 906631, "income": 204713, "revenue": 0}, {"ein": "993878089", "name": "AMERICAN FRIENDS OF YESHIVAT HAHESDER YERUCHAM INC", "city": "CEDARHURST", "state": "NY", "zip": "11516-2246", "ntee": "X30", "ruling": "202502", "deductibility": "1", "assets": 0, "income": 0, "revenue": 0}], "HKY": [{"ein": "821437872", "name": "HKY KOL YAAKAB INC", "city": "NEW YORK", "state": "NY", "zip": "10018-0000", "ntee": "B82", "ruling": "201804", "deductibility": "1", "assets": 805402, "income": 1690121, "revenue": 1690121}], "SZE": [{"ein": "825505561", "name": "SARAH SZE FOUNDATION", "city": "NEW YORK", "state": "NY", "zip": "10011-5423", "ntee": "T20", "ruling": "201906", "deductibility": "1", "assets": 14342, "income": 30000, "revenue": 0}], "INFLUENCERS": [{"ein": "830755730", "name": "DIVERSE INFLUENCERS INC", "city": "BROOKLYN", "state": "NY", "zip": "11209-3228", "ntee": "B03", "ruling": "201806", "deductibility": "1", "assets": 0, "income": 0, "revenue": 0}], "YAGRS": [{"ein": "831763477", "name": "YAGRS ASSOCIATION", "city": "NEWBURGH", "state": "NY", "zip": "12550-1027", "ntee": "N50", "ruling": "201904", "deductibility": "2", "assets": 0, "income": 0, "revenue": 0}], "JCW": [{"ein": "832848778", "name": "JCW FOUNDATION", "city": "SPRING VALLEY", "state": "NY", "zip": "10977-1984", "ntee": "T20", "ruling": "201905", "deductibility": "1", "assets": 377, "income": 44516, "revenue": 0}], "JAALT": [{"ein": "832882210", "name": "JAALT FOUNDATION INC", "city": "NEW ROCHELLE", "state": "NY", "zip": "10804-0000", "ntee": "T22", "ruling": "202106", "deductibility": "1", "assets": 299511, "income": 75000, "revenue": 0}], "SUPERMAJORITY": [{"ein": "834266107", "name": "SUPERMAJORITY", "city": "NEW YORK", "state": "NY", "zip": "10272-1014", "ntee": "R24", "ruling": "202212", "deductibility": "2", "assets": 1138334, "income": 2325242, "revenue": 2318442}, {"ein": "843745987", "name": "SUPERMAJORITY EDUCATION FUND", "city": "NEW YORK", "state": "NY", "zip": "10272-1014", "ntee": "R24", "ruling": "202006", "deductibility": "1", "assets": 1918563, "income": 2776730, "revenue": 2776730}], "CAZARTS": [{"ein": "842105097", "name": "CAZARTS INC", "city": "CAZENOVIA", "state": "NY", "zip": "13035-0203", "ntee": "A20", "ruling": "201908", "deductibility": "1", "assets": 111261, "income": 118943, "revenue": 118943}], "ARAUJO": [{"ein": "843382018", "name": "FUNDACION DEPORTIVA ARAUJO YOUNG INC", "city": "BRONX", "state": "NY", "zip": "10456-2370", "ntee": "N60", "ruling": "201912", "deductibility": "1", "assets": 0, "income": 0, "revenue": 0}], "OBEN": [{"ein": "843934473", "name": "OBEN SOCCER CLUB INC", "city": "EAST NORWICH", "state": "NY", "zip": "11732-0048", "ntee": "N50", "ruling": "202011", "deductibility": "1", "assets": 103225, "income": 309567, "revenue": 309567}, {"ein": "993290779", "name": "OBEN ARTS FOUNDATION INC", "city": "OYSTER BAY", "state": "NY", "zip": "11771-0688", "ntee": "B12", "ruling": "202406", "deductibility": "1", "assets": 0, "income": 0, "revenue": 0}], "QUILTS": [{"ein": "844378338", "name": "QUILTS 4 COPS A LABOR OF LOVE PROJECT", "city": "LAURELTON", "state": "NY", "zip": "11413-1730", "ntee": "P40", "ruling": "202004", "deductibility": "1", "assets": 0, "income": 0, "revenue": 0}], "BILENKER": [{"ein": "846883387", "name": "BILENKER FAMILY FOUNDATION", "city": "NEW YORK", "state": "NY", "zip": "10019-0000", "ntee": "T22", "ruling": "202003", "deductibility": "1", "assets": 9831467, "income": 1576294, "revenue": 0}], "ZACH": [{"ein": "850535325", "name": "ZACH HELFRICH MEMORIAL FUND", "city": "BALDWINSVILLE", "state": "NY", "zip": "13027-9622", "ntee": "W12", "ruling": "202009", "deductibility": "1", "assets": 2071, "income": 45411, "revenue": 32623}, {"ein": "871933036", "name": "ZACH LIBERATORE FOUNDATION INC", "city": "ORCHARD PARK", "state": "NY", "zip": "14127-1539", "ntee": "F01", "ruling": "202209", "deductibility": "1", "assets": 79711, "income": 224730, "revenue": 149727}], "BRAVEHEART": [{"ein": "851155505", "name": "BRAVEHEART ANIMAL SANCTUARY INC", "city": "CALVERTON", "state": "NY", "zip": "11933-1066", "ntee": "D20", "ruling": "202202", "deductibility": "1", "assets": 0, "income": 0, "revenue": 0}], "NYFW": [{"ein": "851834250", "name": "IMPACT NYFW INC", "city": "BROOKLYN", "state": "NY", "zip": "11221-6337", "ntee": "A20", "ruling": "202108", "deductibility": "1", "assets": 0, "income": 0, "revenue": 0}], "ECT": [{"ein": "853086354", "name": "ECT FOUNDATION INCORPORATED", "city": "RED HOOK", "state": "NY", "zip": "12571-0042", "ntee": "A80", "ruling": "202012", "deductibility": "1", "assets": 0, "income": 0, "revenue": 0}], "THABYAY": [{"ein": "861378723", "name": "THABYAY EDUCATION FUND INC", "city": "ACCORD", "state": "NY", "zip": "12404-0003", "ntee": "B12", "ruling": "202103", "deductibility": "1", "assets": 0, "income": 0, "revenue": 0}], "OFE": [{"ein": "871517883", "name": "GRACE CHERUBIM AND SERAPHIM CHURCH ORE OFE", "city": "ROOSEVELT", "state": "NY", "zip": "11575-1147", "ntee": "", "ruling": "202308", "deductibility": "1", "assets": 0, "income": 0, "revenue": 0}], "IDALIA": [{"ein": "880938496", "name": "ENID IDALIA FOUNDATION", "city": "JAMAICA", "state": "NY", "zip": "11436-2317", "ntee": "L80", "ruling": "202205", "deductibility": "1", "assets": 0, "income": 0, "revenue": 0}], "LOGITY": [{"ein": "882388624", "name": "LOGITY PEOPLE FOUNDATION INC", "city": "BROOKLYN", "state": "NY", "zip": "11204-5686", "ntee": "W99", "ruling": "202206", "deductibility": "1", "assets": 3841, "income": 4200, "revenue": 4200}], "FACULTIES": [{"ein": "900162072", "name": "ASSOCIATION OF FACULTIES OF PEDIATRIC NURSE PRACTITIONERS", "city": "NEW YORK", "state": "NY", "zip": "10005-2701", "ntee": "B03", "ruling": "201408", "deductibility": "1", "assets": 0, "income": 0, "revenue": 0}], "SISTERHEART": [{"ein": "920236099", "name": "SISTERHEART STUDIO INC", "city": "CENTRAL ISLIP", "state": "NY", "zip": "11722-2633", "ntee": "P20", "ruling": "202209", "deductibility": "1", "assets": 8130, "income": 7938, "revenue": 6711}], "EJS": [{"ein": "920444597", "name": "EJS PJS INC", "city": "CENTEREACH", "state": "NY", "zip": "11720-3890", "ntee": "P99", "ruling": "202302", "deductibility": "1", "assets": 0, "income": 0, "revenue": 0}], "VILDWERK": [{"ein": "920651640", "name": "VILDWERK FONDATION INC", "city": "NEW YORK", "state": "NY", "zip": "10024-6840", "ntee": "A60", "ruling": "202212", "deductibility": "1", "assets": 17419, "income": 224931, "revenue": 224931}], "PHOJANAKONG": [{"ein": "923614244", "name": "CHEF KING PHOJANAKONG FOUNDATION CORP", "city": "NEW YORK", "state": "NY", "zip": "10009-0000", "ntee": "T12", "ruling": "202305", "deductibility": "1", "assets": 0, "income": 0, "revenue": 0}], "NKUL": [{"ein": "932205598", "name": "NKUL EKANG YAMERICA", "city": "NEW YORK", "state": "NY", "zip": "10039-3241", "ntee": "T50", "ruling": "202401", "deductibility": "1", "assets": 0, "income": 0, "revenue": 0}], "CLEARRESILIENCE": [{"ein": "933358579", "name": "CLEARRESILIENCE INC", "city": "REGO PARK", "state": "NY", "zip": "11374-1029", "ntee": "P20", "ruling": "202310", "deductibility": "1", "assets": 0, "income": 0, "revenue": 0}], "TIMBUKII": [{"ein": "934084946", "name": "TIMBUKII INITIATIVE INCORPORATED", "city": "LAKE PLACID", "state": "NY", "zip": "12946-0000", "ntee": "L20", "ruling": "202406", "deductibility": "1", "assets": 0, "income": 0, "revenue": 0}], "SENSATION": [{"ein": "992081604", "name": "STEEL SENSATION STEEL ORCHESTRA CORPORATION", "city": "QUEENS VLG", "state": "NY", "zip": "11429-1362", "ntee": "A68", "ruling": "202501", "deductibility": "1", "assets": 0, "income": 0, "revenue": 0}], "KRISHTI": [{"ein": "992119552", "name": "KRISHTI INC", "city": "QUEENS VLG", "state": "NY", "zip": "11428-1232", "ntee": "A60", "ruling": "202405", "deductibility": "1", "assets": 0, "income": 0, "revenue": 0}], "INTEL": [{"ein": "994113788", "name": "INTEL-NATIONAL INC", "city": "SYOSSET", "state": "NY", "zip": "11791-4819", "ntee": "R12", "ruling": "202408", "deductibility": "1", "assets": 0, "income": 0, "revenue": 0}], "BEYAHAD": [{"ein": "994803418", "name": "RISHON BEYAHAD INC", "city": "BROOKLYN", "state": "NY", "zip": "11238-1988", "ntee": "R01", "ruling": "202409", "deductibility": "1", "assets": 0, "income": 0, "revenue": 0}], "PANAMBI": [{"ein": "994849459", "name": "PANAMBI UNITY FUND", "city": "DOUGLASTON", "state": "NY", "zip": "11362-1129", "ntee": "T50", "ruling": "202411", "deductibility": "1", "assets": 0, "income": 0, "revenue": 0}]}