{"IDEA": [{"ein": "010284115", "name": "MAIN IDEA INC", "city": "MAMARONECK", "state": "NY", "zip": "10543-3709", "ntee": "", "ruling": "196905", "deductibility": "1", "assets": 1446139, "income": 583887, "revenue": 359718}], "MOTHER": [{"ein": "010595370", "name": "HEALING FELLOWSHIP OF THE UNIFIED MOTHER-FATHER", "city": "HUNTINGTON", "state": "NY", "zip": "11743-3436", "ntee": "X99", "ruling": "200305", "deductibility": "1", "assets": 0, "income": 0, "revenue": 0}, {"ein": "020743314", "name": "MOTHER ROSE FAYTON ROBINSON FOUNDATION INC", "city": "JAMAICA", "state": "NY", "zip": "11435-5717", "ntee": "P810", "ruling": "200607", "deductibility": "1", "assets": 0, "income": 0, "revenue": 0}, {"ein": "112767098", "name": "MOTHER AND UNBORN BABYCARE OF LONG ISLAND INC", "city": "MASSAPEQUA", "state": "NY", "zip": "11758-4728", "ntee": "P40Z", "ruling": "198608", "deductibility": "1", "assets": 2608672, "income": 4506015, "revenue": 2402203}, {"ein": "112818272", "name": "GREEK ORTHODOX CHURCH OF THE HOLY PROTECTION OF THE MOTHER OF GOD", "city": "ASTORIA", "state": "NY", "zip": "11102-3723", "ntee": "X01", "ruling": "202002", "deductibility": "1", "assets": 0, "income": 0, "revenue": 0}, {"ein": "113425947", "name": "FRIENDS OF MOTHER OF GOOD COUNSEL HOME INC", "city": "ROOSEVELT", "state": "NY", "zip": "11575-0329", "ntee": "", "ruling": "194603", "deductibility": "0", "assets": 0, "income": 0, "revenue": 0}, {"ein": "131655254", "name": "MOTHER A M E ZION CHURCH", "city": "NEW YORK", "state": "NY", "zip": "10027-1785", "ntee": "X20Z", "ruling": "199711", "deductibility": "1", "assets": 0, "income": 0, "revenue": 0}, {"ein": "131881478", "name": "MISSIONARY SISTERS OF THE SACRED HEART FOR GIRLS MOTHER CABRINI HS", "city": "NEW YORK", "state": "NY", "zip": "10040-3702", "ntee": "", "ruling": "194603", "deductibility": "0", "assets": 0, "income": 0, "revenue": 0}, {"ein": "132915897", "name": "ORDER OF SAINT FRANCIS OLD CATHOLIC ST MARY MOTHER OF JESUS CHAPEL", "city": "BRONX", "state": "NY", "zip": "10467-8745", "ntee": "", "ruling": "197810", "deductibility": "1", "assets": 0, "income": 0, "revenue": 0}, {"ein": "133041563", "name": "MOTHER & CHILD CENTER INC", "city": "LARCHMONT", "state": "NY", "zip": "10538-2437", "ntee": "", "ruling": "198106", "deductibility": "1", "assets": 0, "income": 0, "revenue": 0}, {"ein": "133190194", "name": "THE MOTHER CONNECTION OF CORTLANDT INC", "city": "CORTLANDT MNR", "state": "NY", "zip": "10567-1452", "ntee": "", "ruling": "198609", "deductibility": "1", "assets": 501199, "income": 787156, "revenue": 787156}, {"ein": "133415436", "name": "MOTHER ROSA A HORN NURSERY & DAY CARE CTR OF EVANGELISTIC OUTREACH", "city": "BRONX", "state": "NY", "zip": "10472-1502", "ntee": "", "ruling": "198704", "deductibility": "1", "assets": 0, "income": 0, "revenue": 0}, {"ein": "136126358", "name": "AUGUSTINIAN FATHERS OF OUR MOTHER OF CONSOLATION RIVERDALE N Y INC", "city": "NEW YORK", "state": "NY", "zip": "10463-3305", "ntee": "", "ruling": "194603", "deductibility": "1", "assets": 0, "income": 0, "revenue": 0}, {"ein": "160755865", "name": "ST MARY OUR MOTHER", "city": "HORSEHEADS", "state": "NY", "zip": "14845-2201", "ntee": "", "ruling": "194603", "deductibility": "1", "assets": 0, "income": 0, "revenue": 0}, {"ein": "160758595", "name": "BLESSED MOTHER TERESA OF CALCUTTA", "city": "DEPEW", "state": "NY", "zip": "14043-3213", "ntee": "", "ruling": "194603", "deductibility": "1", "assets": 0, "income": 0, "revenue": 0}, {"ein": "160763526", "name": "OUR MOTHER OF SORROWS", "city": "ROCHESTER", "state": "NY", "zip": "14612-3853", "ntee": "", "ruling": "194603", "deductibility": "1", "assets": 0, "income": 0, "revenue": 0}, {"ein": "161288030", "name": "OUR MOTHER OF GOOD COUNSEL HOUSING DEVELOPEMENT FUND CO INC", "city": "BUFFALO", "state": "NY", "zip": "14203-1711", "ntee": "", "ruling": "193603", "deductibility": "1", "assets": 1401354, "income": 426938, "revenue": 426938}, {"ein": "161363895", "name": "MOTHER OF DIVINE GRACE HOUSING DEVELOPMENT FUND COMPANY INC", "city": "LACKAWANNA", "state": "NY", "zip": "14218-1629", "ntee": "X20", "ruling": "201512", "deductibility": "1", "assets": 194963, "income": 106510, "revenue": 106510}, {"ein": "161429858", "name": "CATHOLIC DAUGHTERS OF THE AMERICAS CT 1311 OUR MOTHER OF GOOD COUNSEL", "city": "ORCHARD PARK", "state": "NY", "zip": "14127-1039", "ntee": "", "ruling": "194603", "deductibility": "1", "assets": 0, "income": 0, "revenue": 0}, {"ein": "161478905", "name": "MOTHER AND BABIES PERINATAL NETWORK OF SCNY INC", "city": "JOHNSON CITY", "state": "NY", "zip": "13790-2580", "ntee": "E60", "ruling": "199603", "deductibility": "1", "assets": 3013504, "income": 2538192, "revenue": 2513333}, {"ein": "161535302", "name": "MOTHER OF JOY HOUSE OF PRAYER", "city": "LIVERPOOL", "state": "NY", "zip": "13088-5661", "ntee": "X11", "ruling": "201306", "deductibility": "1", "assets": 0, "income": 0, "revenue": 0}, {"ein": "161779228", "name": "YOUR MOTHER WEARS COMBAT BOOTS", "city": "DIX HILLS", "state": "NY", "zip": "11746-7806", "ntee": "T12", "ruling": "200708", "deductibility": "1", "assets": 0, "income": 0, "revenue": 0}, {"ein": "202798256", "name": "OUR LADY OF SUFFRAGE MOTHER OF MERCY INC", "city": "CATSKILL", "state": "NY", "zip": "12414-1307", "ntee": "X20", "ruling": "200608", "deductibility": "1", "assets": 0, "income": 0, "revenue": 0}, {"ein": "205513282", "name": "MOTHER GASTON HOUSING DEVELOPMENTFUND CORPORATION", "city": "NEW YORK", "state": "NY", "zip": "10018-0092", "ntee": "L20", "ruling": "201909", "deductibility": "2", "assets": 0, "income": 0, "revenue": 0}, {"ein": "223410287", "name": "DAUGHTERS OF MARY MOTHER OF MERCY", "city": "S OZONE PARK", "state": "NY", "zip": "11420-1621", "ntee": "X22", "ruling": "200101", "deductibility": "1", "assets": 0, "income": 0, "revenue": 0}, {"ein": "223761068", "name": "IDEAL MOTHER ORGANIZATION INC", "city": "EAST ELMHURST", "state": "NY", "zip": "11369-0035", "ntee": "X40", "ruling": "200409", "deductibility": "1", "assets": 0, "income": 0, "revenue": 0}, {"ein": "237420621", "name": "MOTHER & CHILD CORPORATION", "city": "NORTH BABYLON", "state": "NY", "zip": "11703-3106", "ntee": "", "ruling": "198010", "deductibility": "1", "assets": 0, "income": 0, "revenue": 0}, {"ein": "261178932", "name": "SHEPHERD & MOTHER OF LIGHT FOR THE NEEDY", "city": "ROSLYN", "state": "NY", "zip": "11576-3002", "ntee": "Q33", "ruling": "200903", "deductibility": "1", "assets": 1126812, "income": 2447963, "revenue": 2384094}, {"ein": "264639041", "name": "RUSSIAN ORTHODOX CHURCH OF THE MOTHER OF GOD INEXHAUSTIBLE CUP", "city": "BROOKLYN", "state": "NY", "zip": "11235-6468", "ntee": "X99", "ruling": "202312", "deductibility": "1", "assets": 1806301, "income": 373965, "revenue": 373965}, {"ein": "270213562", "name": "HOLY MOTHER AND CHILD", "city": "CORINTH", "state": "NY", "zip": "12822-1217", "ntee": "", "ruling": "194603", "deductibility": "1", "assets": 0, "income": 0, "revenue": 0}, {"ein": "273304699", "name": "OUR MOTHER QUEEN OF PEACE MARIAN COALITION BETANIA XIII INC", "city": "GLENWOOD", "state": "NY", "zip": "11547-0000", "ntee": "X20", "ruling": "201105", "deductibility": "1", "assets": 0, "income": 0, "revenue": 0}, {"ein": "320448701", "name": "MOTHER MARY CHILDREN OF GHANA AID FOUNDATION MMCGAF INC", "city": "W HEMPSTEAD", "state": "NY", "zip": "11552-0853", "ntee": "P30", "ruling": "202410", "deductibility": "1", "assets": 16753, "income": 19415, "revenue": 19415}, {"ein": "352677263", "name": "MY OTHER MOTHER INC", "city": "ISLANDIA", "state": "NY", "zip": "11749-1731", "ntee": "L80", "ruling": "202001", "deductibility": "1", "assets": 1, "income": 0, "revenue": 0}, {"ein": "383910277", "name": "MOTHER DIVINE PROGRAM-MAHARISHI GLOBAL COUNTRY OF WORLD PEACE INC", "city": "LIVINGSTN MNR", "state": "NY", "zip": "12758-6549", "ntee": "P20", "ruling": "201412", "deductibility": "1", "assets": 555490, "income": 342268, "revenue": 342268}, {"ein": "412272462", "name": "DAUGHTERS OF MARY MOTHER OF MERCY - AMERICA", "city": "JAMAICA", "state": "NY", "zip": "11436-1426", "ntee": "X22", "ruling": "201808", "deductibility": "1", "assets": 29243, "income": 490593, "revenue": 490593}, {"ein": "452448761", "name": "MOTHER OF GOD WITH ETERNAL LIFE", "city": "ELMONT", "state": "NY", "zip": "11003-1516", "ntee": "X20", "ruling": "201111", "deductibility": "1", "assets": 1446407, "income": 38593, "revenue": 38593}, {"ein": "454102644", "name": "EVERY MOTHER COUNTS", "city": "NEW YORK", "state": "NY", "zip": "10013-1028", "ntee": "E70", "ruling": "201204", "deductibility": "1", "assets": 12285362, "income": 17749949, "revenue": 7715516}, {"ein": "455270453", "name": "MOTHER DIVINE CHARITABLE FOUNDATION INC", "city": "HURLEYVILLE", "state": "NY", "zip": "12747-6013", "ntee": "E60", "ruling": "201408", "deductibility": "1", "assets": 213723, "income": 10879, "revenue": 10879}, {"ein": "461836925", "name": "SABITA MOTHER AND CHILDREN FOUNDATION INC", "city": "ASTORIA", "state": "NY", "zip": "11106-2241", "ntee": "Q30", "ruling": "201507", "deductibility": "1", "assets": 0, "income": 0, "revenue": 0}, {"ein": "462736369", "name": "MOTHER OUTCRY INTERNATIONAL MINISTRY INC", "city": "BROOKLYN", "state": "NY", "zip": "11208-0405", "ntee": "X21", "ruling": "201505", "deductibility": "1", "assets": 7129, "income": 89084, "revenue": 89084}, {"ein": "474007198", "name": "CHV 603 MOTHER GASTON BLVD HOUSING DEVELOPMENT FUND CORPORATION", "city": "BROOKLYN", "state": "NY", "zip": "11226-0000", "ntee": "L20", "ruling": "201506", "deductibility": "2", "assets": 0, "income": 0, "revenue": 0}, {"ein": "474419131", "name": "THE FRANCISCAN SISTERS OF MARY MOTHER OF EVANGELIZATION", "city": "CHEEKTOWAGA", "state": "NY", "zip": "14225-1219", "ntee": "X22", "ruling": "201512", "deductibility": "1", "assets": 0, "income": 0, "revenue": 0}, {"ein": "680599791", "name": "MOTHER TERESA ACADEMY", "city": "CLIFTON PARK", "state": "NY", "zip": "12065-5694", "ntee": "B24", "ruling": "200706", "deductibility": "1", "assets": 598374, "income": 1353135, "revenue": 1322337}, {"ein": "813917472", "name": "PARISH OF MARY MOTHER OF MERCY SENECA COUNTY NEW YORK", "city": "INTERLAKEN", "state": "NY", "zip": "14847-9685", "ntee": "", "ruling": "194603", "deductibility": "1", "assets": 0, "income": 0, "revenue": 0}, {"ein": "821561917", "name": "ORTHODOX CHURCH OF THE MOTHER OF GOD", "city": "STATEN ISLAND", "state": "NY", "zip": "10306-0000", "ntee": "X20", "ruling": "201803", "deductibility": "1", "assets": 0, "income": 0, "revenue": 0}, {"ein": "822431390", "name": "MOTHER LINE STORY PROJECT", "city": "BROOKLYN", "state": "NY", "zip": "11225-4304", "ntee": "A20", "ruling": "201808", "deductibility": "1", "assets": 0, "income": 0, "revenue": 0}, {"ein": "822498190", "name": "MARY MOTHER OF MERCY", "city": "GLENMONT", "state": "NY", "zip": "12077-3627", "ntee": "X22", "ruling": "201708", "deductibility": "1", "assets": 0, "income": 0, "revenue": 0}, {"ein": "830590263", "name": "MOTHER CABRINI HEALTH FOUNDATION", "city": "NEW YORK", "state": "NY", "zip": "10017-1427", "ntee": "T30", "ruling": "201811", "deductibility": "1", "assets": 3696313328, "income": 2095299698, "revenue": 0}, {"ein": "832576875", "name": "MAGNIFICAT GENTLE WOMAN MOTHER OF BUFFALO INC", "city": "ALDEN", "state": "NY", "zip": "14004-9403", "ntee": "X22", "ruling": "202311", "deductibility": "1", "assets": 0, "income": 0, "revenue": 0}, {"ein": "833294405", "name": "MOTHER OF GODS HORSE RESCUE CORP", "city": "RIDGE", "state": "NY", "zip": "11961-2643", "ntee": "D11", "ruling": "201903", "deductibility": "1", "assets": 7625, "income": 15800, "revenue": 0}, {"ein": "850758207", "name": "MOTHER NATURE FESTIVAL LIVE INCORPORATED", "city": "OSWEGO", "state": "NY", "zip": "13126-2734", "ntee": "C60", "ruling": "202007", "deductibility": "1", "assets": 0, "income": 0, "revenue": 0}, {"ein": "852248102", "name": "MARY MOTHER OF VOCATIONS MINISTRY INC", "city": "BUFFALO", "state": "NY", "zip": "14209-1800", "ntee": "", "ruling": "202108", "deductibility": "1", "assets": 0, "income": 0, "revenue": 0}, {"ein": "862782187", "name": "MHANY MOTHER GASTON HOUSING DEVELOPMENT FUND CORPORATION", "city": "BROOKLYN", "state": "NY", "zip": "11238-2208", "ntee": "L21", "ruling": "202207", "deductibility": "1", "assets": 3350719, "income": 498523, "revenue": 498523}, {"ein": "863894957", "name": "HOLD THE MOTHER FOUNDATION INC", "city": "LINDENHURST", "state": "NY", "zip": "11757-6225", "ntee": "P40", "ruling": "202109", "deductibility": "1", "assets": 0, "income": 0, "revenue": 0}, {"ein": "922618570", "name": "MOTHER TO MOTHER INC", "city": "STATEN ISLAND", "state": "NY", "zip": "10305-2057", "ntee": "P40", "ruling": "202303", "deductibility": "1", "assets": 0, "income": 0, "revenue": 0}, {"ein": "923029047", "name": "MARY MOTHER OF OUR SAVIOR MENS CLUB", "city": "HOLLAND PATNT", "state": "NY", "zip": "13354-4149", "ntee": "X22", "ruling": "202303", "deductibility": "1", "assets": 0, "income": 0, "revenue": 0}, {"ein": "932596006", "name": "HEART OF A SINGLE MOTHER INC", "city": "WYANDANCH", "state": "NY", "zip": "11798-1118", "ntee": "X84", "ruling": "202403", "deductibility": "1", "assets": 0, "income": 0, "revenue": 0}, {"ein": "933008972", "name": "WORLD MOTHER INC", "city": "NEW YORK", "state": "NY", "zip": "10025-0127", "ntee": "A30", "ruling": "202407", "deductibility": "1", "assets": 0, "income": 0, "revenue": 0}, {"ein": "934669199", "name": "MOTHER HOME AND HOPE CORPORATION", "city": "BROOKLYN", "state": "NY", "zip": "11207-2521", "ntee": "L20", "ruling": "202401", "deductibility": "1", "assets": 0, "income": 0, "revenue": 0}, {"ein": "991590003", "name": "ORTHODOX CHURCH OF THE ICON OF THE MOTHER OF GOD UNEXPECTED JOY", "city": "STATEN ISLAND", "state": "NY", "zip": "10304-2243", "ntee": "X20", "ruling": "202504", "deductibility": "1", "assets": 0, "income": 0, "revenue": 0}], "DRUMS": [{"ein": "020556838", "name": "PORT AUTHORITY POLICE PIPES & DRUMS", "city": "NANUET", "state": "NY", "zip": "10954-3744", "ntee": "A6C", "ruling": "201004", "deductibility": "1", "assets": 0, "income": 0, "revenue": 0}, {"ein": "020597219", "name": "NEW YORK CITY FIRE DEPT EMERALD SOCIETY PIPES & DRUMS INC", "city": "BROOKLYN", "state": "NY", "zip": "11217-0000", "ntee": "M20", "ruling": "200303", "deductibility": "1", "assets": 54038, "income": 55851, "revenue": 55851}, {"ein": "113146719", "name": "EASTERN LONG ISLAND POLICE PIPES & DRUMS INC", "city": "HAMPTON BAYS", "state": "NY", "zip": "11946-0000", "ntee": "", "ruling": "199407", "deductibility": "1", "assets": 0, "income": 0, "revenue": 0}, {"ein": "113371680", "name": "EMERALD SOCIETY PIPES & DRUMS INC", "city": "GARNERVILLE", "state": "NY", "zip": "10923-1913", "ntee": "", "ruling": "199912", "deductibility": "1", "assets": 577485, "income": 127290, "revenue": 111734}, {"ein": "134229966", "name": "DRUMS ALONG THE WATERFRONT INC", "city": "COLLINS", "state": "NY", "zip": "14034-9798", "ntee": "A68", "ruling": "200404", "deductibility": "1", "assets": 0, "income": 0, "revenue": 0}, {"ein": "161480916", "name": "CALEDONIAN PIPES & DRUMS OF BUFFALO NEW YORK INC", "city": "GRAND ISLAND", "state": "NY", "zip": "14072-0000", "ntee": "A6C", "ruling": "199507", "deductibility": "1", "assets": 12593, "income": 0, "revenue": 0}, {"ein": "222672842", "name": "GALLOWAY GAELIC PIPES AND DRUMS", "city": "GLENS FALLS", "state": "NY", "zip": "12801-0873", "ntee": "", "ruling": "198804", "deductibility": "1", "assets": 0, "income": 0, "revenue": 0}, {"ein": "237427666", "name": "DANCES AND DRUMS OF AFRICA INC", "city": "BROOKLYN", "state": "NY", "zip": "11225-1302", "ntee": "A23", "ruling": "201603", "deductibility": "1", "assets": 0, "income": 0, "revenue": 0}, {"ein": "271215374", "name": "GOSHEN EMERALD SOCIETY FIREFIGHTER MCPADDEN PIPES & DRUMS", "city": "GOSHEN", "state": "NY", "zip": "10924-0000", "ntee": "A6C", "ruling": "201103", "deductibility": "1", "assets": 0, "income": 0, "revenue": 0}, {"ein": "311734163", "name": "ANCIENT ORDER OF HIBERNIANS DIVISIONS 1 PIPES AND DRUMS", "city": "SUFFERN", "state": "NY", "zip": "10901-4513", "ntee": "A23", "ruling": "201501", "deductibility": "1", "assets": 7425, "income": 12735, "revenue": 0}, {"ein": "320255453", "name": "POLICE PIPES & DRUMS OF PLATTSBURGH N Y", "city": "PLATTSBURGH", "state": "NY", "zip": "12901-6056", "ntee": "B82", "ruling": "201012", "deductibility": "1", "assets": 0, "income": 0, "revenue": 0}, {"ein": "460753548", "name": "CELTIC CROSS PIPES AND DRUMS", "city": "STATEN ISLAND", "state": "NY", "zip": "10310-3124", "ntee": "A68", "ruling": "201410", "deductibility": "1", "assets": 0, "income": 0, "revenue": 0}, {"ein": "562312736", "name": "NASSAU COUNTY FIREFIGHTERS PIPES AND DRUMS", "city": "LEVITTOWN", "state": "NY", "zip": "11756-0668", "ntee": "A6C", "ruling": "201501", "deductibility": "1", "assets": 0, "income": 0, "revenue": 0}, {"ein": "810784657", "name": "GATES KEYSTONE CLUB POLICE PIPES & DRUMS INC", "city": "ROCHESTER", "state": "NY", "zip": "14624-1614", "ntee": "A68", "ruling": "201602", "deductibility": "1", "assets": 0, "income": 0, "revenue": 0}, {"ein": "822671934", "name": "A LIFE WITH DRUMS", "city": "NEW YORK", "state": "NY", "zip": "10026-2159", "ntee": "A68", "ruling": "201710", "deductibility": "1", "assets": 0, "income": 0, "revenue": 0}, {"ein": "822964094", "name": "FIRES & DRUMS FOUNDATION INC", "city": "FARMINGDALE", "state": "NY", "zip": "11735-5422", "ntee": "P20", "ruling": "201802", "deductibility": "1", "assets": 44446, "income": 54602, "revenue": 31856}, {"ein": "862556141", "name": "NEW YORK STATE FIRE PIPES AND DRUMS", "city": "GLENS FALLS", "state": "NY", "zip": "12801-0441", "ntee": "A6C", "ruling": "202107", "deductibility": "1", "assets": 0, "income": 0, "revenue": 0}, {"ein": "871938977", "name": "BATTLE OF THE DRUMS INC", "city": "NEW YORK", "state": "NY", "zip": "10027-5127", "ntee": "A23", "ruling": "202111", "deductibility": "1", "assets": 0, "income": 0, "revenue": 0}, {"ein": "932643044", "name": "KINGS COUNTY PIPES & DRUMS INC", "city": "BROOKLYN", "state": "NY", "zip": "11215-7114", "ntee": "A23", "ruling": "202309", "deductibility": "1", "assets": 0, "income": 0, "revenue": 0}], "GREECE": [{"ein": "020653965", "name": "GREECE ROTARY FOUNDATION INC", "city": "ROCHESTER", "state": "NY", "zip": "14616-0106", "ntee": "P28", "ruling": "200305", "deductibility": "1", "assets": 193929, "income": 92552, "revenue": 60845}, {"ein": "043609774", "name": "GREECE CHAMBER CHARITABLE FOUNDATION INC", "city": "ROCHESTER", "state": "NY", "zip": "14626-3043", "ntee": "S40", "ruling": "200212", "deductibility": "1", "assets": 40267, "income": 34938, "revenue": 25204}, {"ein": "113091015", "name": "FOOD AND WINES FROM GREECE INC", "city": "BRONX", "state": "NY", "zip": "10457-7535", "ntee": "", "ruling": "199212", "deductibility": "2", "assets": 0, "income": 0, "revenue": 0}, {"ein": "135596849", "name": "TRUSTEES OF ATHENS COLLEGE IN GREECE", "city": "NEW YORK", "state": "NY", "zip": "10016-2817", "ntee": "Q300", "ruling": "194712", "deductibility": "1", "assets": 17419345, "income": 14969466, "revenue": 0}, {"ein": "160719976", "name": "GREECE-RIDGE EXEMPT FIREMENS ASSOCN OF TOWN OF GREECE MONROE COUNTY NY", "city": "ROCHESTER", "state": "NY", "zip": "14626-3031", "ntee": "", "ruling": "196508", "deductibility": "2", "assets": 347741, "income": 74863, "revenue": 74863}, {"ein": "160743015", "name": "GREECE BAPTIST CHURCH", "city": "ROCHESTER", "state": "NY", "zip": "14626-1133", "ntee": "", "ruling": "195504", "deductibility": "1", "assets": 0, "income": 0, "revenue": 0}, {"ein": "160986654", "name": "GREECE ASSEMBLY OF GOD INC", "city": "ROCHESTER", "state": "NY", "zip": "14612-3070", "ntee": "", "ruling": "196408", "deductibility": "1", "assets": 0, "income": 0, "revenue": 0}, {"ein": "160986813", "name": "GREECE MONTESSORI SCHOOL", "city": "ROCHESTER", "state": "NY", "zip": "14612-3071", "ntee": "B21Z", "ruling": "199412", "deductibility": "1", "assets": 253087, "income": 579027, "revenue": 579027}, {"ein": "161109292", "name": "GREECE POLICE ATHLETIC LEAGUE INC", "city": "ROCHESTER", "state": "NY", "zip": "14612-3094", "ntee": "O20Z", "ruling": "197903", "deductibility": "1", "assets": 13777, "income": 2326, "revenue": 2326}, {"ein": "161141608", "name": "NORTH GREECE FIRE DEPT", "city": "ROCHESTER", "state": "NY", "zip": "14612-3820", "ntee": "M24", "ruling": "200101", "deductibility": "1", "assets": 792743, "income": 261773, "revenue": 130887}, {"ein": "161157997", "name": "GREECE POLICE GOLD BADGE CLUB", "city": "ROCHESTER", "state": "NY", "zip": "14612-5030", "ntee": "", "ruling": "199506", "deductibility": "2", "assets": 0, "income": 0, "revenue": 0}, {"ein": "161181243", "name": "CALVARY CHAPEL OF GREECE", "city": "ROCHESTER", "state": "NY", "zip": "14612-1497", "ntee": "", "ruling": "198212", "deductibility": "1", "assets": 0, "income": 0, "revenue": 0}, {"ein": "161181587", "name": "GREECE COMMUNITY BROADCASTING INC", "city": "ROCHESTER", "state": "NY", "zip": "14626-0702", "ntee": "", "ruling": "198307", "deductibility": "1", "assets": 338275, "income": 57529, "revenue": 15065}, {"ein": "161188267", "name": "NEW TESTAMENT CHRISTIAN CHURCH OF GREECE INC", "city": "ROCHESTER", "state": "NY", "zip": "14626-1054", "ntee": "", "ruling": "199905", "deductibility": "0", "assets": 0, "income": 0, "revenue": 0}, {"ein": "161201961", "name": "NORTH GREECE VOLUNTEER EXEMPT FIREMENS BENEVOLENT ASSOCIATION", "city": "NORTH GREECE", "state": "NY", "zip": "14515-0308", "ntee": "", "ruling": "199010", "deductibility": "2", "assets": 371778, "income": 200905, "revenue": 101398}, {"ein": "161337212", "name": "FRIENDS OF THE GREECE PUBLIC LIBRARY", "city": "ROCHESTER", "state": "NY", "zip": "14612-5030", "ntee": "B99", "ruling": "199709", "deductibility": "1", "assets": 57553, "income": 62281, "revenue": 62281}, {"ein": "161380351", "name": "GREECE PEACE OFFICERS ASSOCIATION INC", "city": "ROCHESTER", "state": "NY", "zip": "14616-0395", "ntee": "", "ruling": "199111", "deductibility": "1", "assets": 0, "income": 0, "revenue": 0}, {"ein": "161387364", "name": "GREECE COBRA SOCCER CLUB INC", "city": "ROCHESTER", "state": "NY", "zip": "14626-0701", "ntee": "N60Z", "ruling": "199203", "deductibility": "1", "assets": 497040, "income": 332657, "revenue": 259085}, {"ein": "161441786", "name": "GREECE OLYMPIA HIGH SCHOOL SPORTS", "city": "ROCHESTER", "state": "NY", "zip": "14615-1199", "ntee": "N12", "ruling": "202506", "deductibility": "1", "assets": 0, "income": 0, "revenue": 0}, {"ein": "161444245", "name": "SPIRITUAL ASSEMBLY OF THE BAHAIS OF GREECE TOWN", "city": "NORTH GREECE", "state": "NY", "zip": "14515-0366", "ntee": "", "ruling": "199505", "deductibility": "1", "assets": 0, "income": 0, "revenue": 0}, {"ein": "161450394", "name": "GREECE UNITED FUTBOL CLUB INC", "city": "ROCHESTER", "state": "NY", "zip": "14626-0828", "ntee": "Z99Z", "ruling": "199408", "deductibility": "1", "assets": 173135, "income": 212998, "revenue": 212998}, {"ein": "161603812", "name": "GREECE ECONOMIC DEVELOPMENT PROJECTS INC", "city": "ROCHESTER", "state": "NY", "zip": "14612-5016", "ntee": "S30", "ruling": "200309", "deductibility": "1", "assets": 0, "income": 0, "revenue": 0}, {"ein": "201762441", "name": "GREECE PUBLIC LIBRARY", "city": "ROCHESTER", "state": "NY", "zip": "14612-5030", "ntee": "B70", "ruling": "200410", "deductibility": "1", "assets": 0, "income": 0, "revenue": 0}, {"ein": "222154099", "name": "NORTH GREECE BAPTIST CHAPEL C O JOHN W ADAMS", "city": "ROCHESTER", "state": "NY", "zip": "14616-1035", "ntee": "", "ruling": "197707", "deductibility": "1", "assets": 0, "income": 0, "revenue": 0}, {"ein": "222328486", "name": "GREECE CARDINALS YOUTH FOOTBALL ASSOCIATION INC", "city": "ROCHESTER", "state": "NY", "zip": "14612-1352", "ntee": "N65", "ruling": "199608", "deductibility": "1", "assets": 19564, "income": 102607, "revenue": 82728}, {"ein": "222503892", "name": "GREECE ECUMENICAL FOOD SHELF AND CLOTHING CLOSET INC", "city": "ROCHESTER", "state": "NY", "zip": "14616-4147", "ntee": "K31Z", "ruling": "198501", "deductibility": "1", "assets": 336988, "income": 355888, "revenue": 355888}, {"ein": "222515417", "name": "GREECE POLICE UNIFORMED PATROLMENS ASSOC INC", "city": "ROCHESTER", "state": "NY", "zip": "14616-0240", "ntee": "", "ruling": "199207", "deductibility": "2", "assets": 743958, "income": 129358, "revenue": 123578}, {"ein": "222529696", "name": "GREECE REGIONAL CHAMBER OF COMMERCE INC", "city": "ROCHESTER", "state": "NY", "zip": "14626-3043", "ntee": "", "ruling": "198606", "deductibility": "2", "assets": 110973, "income": 207576, "revenue": 207576}, {"ein": "222586147", "name": "GREATER GREECE SOCCER LEAGUE INC", "city": "ROCHESTER", "state": "NY", "zip": "14612-3094", "ntee": "N64", "ruling": "199603", "deductibility": "1", "assets": 46257, "income": 60287, "revenue": 60287}, {"ein": "222871595", "name": "GREECE HISTORICAL SOCIETY", "city": "GREECE", "state": "NY", "zip": "14616-0249", "ntee": "A82Z", "ruling": "198808", "deductibility": "1", "assets": 554441, "income": 263582, "revenue": 128233}, {"ein": "237259694", "name": "GREECE PERFORMING ARTS SOCIETY INC", "city": "ROCHESTER", "state": "NY", "zip": "14626-0643", "ntee": "A60Z", "ruling": "197301", "deductibility": "1", "assets": 16287, "income": 33864, "revenue": 22914}, {"ein": "261836002", "name": "GREECE MARCHING BAND BOOSTER CLUB", "city": "ROCHESTER", "state": "NY", "zip": "14616-0223", "ntee": "A19", "ruling": "201102", "deductibility": "1", "assets": 0, "income": 0, "revenue": 0}, {"ein": "270049621", "name": "GREECE EDUCATION FOUNDATON", "city": "ROCHESTER", "state": "NY", "zip": "14616-0451", "ntee": "B122", "ruling": "200306", "deductibility": "1", "assets": 156365, "income": 103249, "revenue": 103249}, {"ein": "273889068", "name": "GREECE OLYMPIA MUSIC AND DRAMA", "city": "ROCHESTER", "state": "NY", "zip": "14615-1127", "ntee": "Y12", "ruling": "201503", "deductibility": "1", "assets": 0, "income": 0, "revenue": 0}, {"ein": "274825263", "name": "KIWANIS CLUB OF GREECE NY FOUNDATION INC", "city": "ROCHESTER", "state": "NY", "zip": "14612-3094", "ntee": "S81", "ruling": "201301", "deductibility": "1", "assets": 0, "income": 0, "revenue": 0}, {"ein": "352345422", "name": "GREECE-LAKE SHORE FIRE DEPARTMENT INC", "city": "ROCHESTER", "state": "NY", "zip": "14612-1106", "ntee": "M24", "ruling": "202402", "deductibility": "1", "assets": 0, "income": 0, "revenue": 0}, {"ein": "363310316", "name": "AMERICAN FRIENDS OF THE JEWISH MUSEUM OF GREECE", "city": "NEW YORK", "state": "NY", "zip": "10001-5106", "ntee": "Q112", "ruling": "198506", "deductibility": "1", "assets": 118318, "income": 72156, "revenue": 45961}, {"ein": "474369982", "name": "GREECE POLICE GUMSHOE CLUB PBA INC", "city": "ROCHESTER", "state": "NY", "zip": "14616-4147", "ntee": "P12", "ruling": "201606", "deductibility": "1", "assets": 0, "income": 0, "revenue": 0}, {"ein": "475144439", "name": "GREECE GLADIATORS BASEBALL", "city": "ROCHESTER", "state": "NY", "zip": "14626-3106", "ntee": "N63", "ruling": "201803", "deductibility": "1", "assets": 0, "income": 0, "revenue": 0}, {"ein": "800539154", "name": "GREECE RIDGE LIONS CLUB", "city": "ROCHESTER", "state": "NY", "zip": "14626-0215", "ntee": "S20", "ruling": "201903", "deductibility": "2", "assets": 0, "income": 0, "revenue": 0}, {"ein": "811682829", "name": "GIVING FOR GREECE INC", "city": "ACCORD", "state": "NY", "zip": "12404-0003", "ntee": "P40", "ruling": "201607", "deductibility": "1", "assets": 0, "income": 0, "revenue": 0}, {"ein": "814418072", "name": "GREECE TEACHERS COMMUNITY PROGRAMS INC", "city": "ROCHESTER", "state": "NY", "zip": "14626-4609", "ntee": "B12", "ruling": "201611", "deductibility": "1", "assets": 0, "income": 0, "revenue": 0}, {"ein": "850828531", "name": "GREECE IN USA INC", "city": "NEW YORK", "state": "NY", "zip": "10013-4164", "ntee": "A20", "ruling": "202006", "deductibility": "1", "assets": 0, "income": 74350, "revenue": 0}, {"ein": "871756345", "name": "AMERICAN FUND FOR ATHENS COLLEGE IN GREECE", "city": "NEW YORK", "state": "NY", "zip": "10016-2817", "ntee": "T30", "ruling": "202204", "deductibility": "1", "assets": 1201518, "income": 341811, "revenue": 117424}], "SPORTSMEN": [{"ein": "050553865", "name": "SPORTSMEN FOR CHARITY", "city": "SCARSDALE", "state": "NY", "zip": "10583-0000", "ntee": "T30", "ruling": "200305", "deductibility": "1", "assets": 217600, "income": 1132516, "revenue": 1132516}, {"ein": "061303995", "name": "MONROE-CHESTER SPORTSMEN CLUB INC", "city": "MONROE", "state": "NY", "zip": "10949-0624", "ntee": "N50", "ruling": "202206", "deductibility": "2", "assets": 2864728, "income": 355147, "revenue": 355147}, {"ein": "113237691", "name": "SUFFOLK ALLIANCE OF SPORTSMEN INC", "city": "LINDENHURST", "state": "NY", "zip": "11757-4054", "ntee": "", "ruling": "199505", "deductibility": "2", "assets": 0, "income": 0, "revenue": 0}, {"ein": "133205288", "name": "BEAR POND SPORTSMEN CLUB INC", "city": "NEW HARTFORD", "state": "NY", "zip": "13413-5813", "ntee": "", "ruling": "198807", "deductibility": "2", "assets": 83887, "income": 4750, "revenue": 4750}, {"ein": "146029787", "name": "FEDERATION OF POLISH SPORTSMEN INC", "city": "HUDSON", "state": "NY", "zip": "12534-0512", "ntee": "", "ruling": "196404", "deductibility": "2", "assets": 287606, "income": 200554, "revenue": 149244}, {"ein": "146030065", "name": "MAYBROOK SPORTSMEN CLUB", "city": "MAYBROOK", "state": "NY", "zip": "12543-0034", "ntee": "", "ruling": "194510", "deductibility": "2", "assets": 0, "income": 0, "revenue": 0}, {"ein": "160900043", "name": "ALLIED SPORTSMEN OF WESTERN NEW YORK INC", "city": "ALDEN", "state": "NY", "zip": "14004-9705", "ntee": "", "ruling": "196505", "deductibility": "2", "assets": 208448, "income": 112550, "revenue": 112550}, {"ein": "160958325", "name": "FALCON SPORTSMEN INC C O GEORGE WESTLAKE", "city": "AUBURN", "state": "NY", "zip": "13021-0083", "ntee": "", "ruling": "197807", "deductibility": "1", "assets": 172146, "income": 28214, "revenue": 24570}, {"ein": "161315304", "name": "COOPERSTOWN SPORTSMEN ASSOCIATION INC", "city": "COOPERSTOWN", "state": "NY", "zip": "13326-5984", "ntee": "N50Z", "ruling": "199510", "deductibility": "2", "assets": 104451, "income": 104918, "revenue": 104918}, {"ein": "161512331", "name": "THOUSAND ISLANDS SPORTSMEN INC", "city": "REDWOOD", "state": "NY", "zip": "13679-0164", "ntee": "N50", "ruling": "200508", "deductibility": "2", "assets": 113448, "income": 45391, "revenue": 45391}, {"ein": "166214965", "name": "BROOME COUNTY SPORTSMEN ASSOCIATION INC", "city": "BINGHAMTON", "state": "NY", "zip": "13902-1794", "ntee": "", "ruling": "198001", "deductibility": "2", "assets": 1071656, "income": 96771, "revenue": 96771}, {"ein": "202415959", "name": "CARMINE CERONE SPORTSMEN FOUNDATION", "city": "RYE BROOK", "state": "NY", "zip": "10573-2815", "ntee": "T30", "ruling": "200507", "deductibility": "1", "assets": 561046, "income": 27180, "revenue": 27180}, {"ein": "202999553", "name": "ACIDALIA SPORTSMEN INC", "city": "AMITY HARBOR", "state": "NY", "zip": "11701-4013", "ntee": "N50", "ruling": "200801", "deductibility": "2", "assets": 753470, "income": 67800, "revenue": 67800}, {"ein": "205656675", "name": "WALKER VALLEY SPORTSMEN SASSOCIATION INC", "city": "WALKER VALLEY", "state": "NY", "zip": "12588-0021", "ntee": "N50", "ruling": "200704", "deductibility": "2", "assets": 244394, "income": 29216, "revenue": 26149}, {"ein": "222565268", "name": "WATERTOWN SPORTSMEN INC", "city": "WATERTOWN", "state": "NY", "zip": "13601-0000", "ntee": "", "ruling": "198503", "deductibility": "2", "assets": 0, "income": 0, "revenue": 0}, {"ein": "223190935", "name": "ADVERTISING SPORTSMEN OF NEW YORK INC", "city": "PURDYS", "state": "NY", "zip": "10579-0000", "ntee": "", "ruling": "199210", "deductibility": "2", "assets": 0, "income": 0, "revenue": 0}, {"ein": "232464555", "name": "BLACK KETTLE SPORTSMEN INC", "city": "WINDSOR", "state": "NY", "zip": "13865-2704", "ntee": "", "ruling": "199308", "deductibility": "2", "assets": 0, "income": 0, "revenue": 0}, {"ein": "237009081", "name": "EASTHOOK SPORTSMEN ASSOCIATION INC", "city": "FISHKILL", "state": "NY", "zip": "12524-0492", "ntee": "", "ruling": "196902", "deductibility": "2", "assets": 457715, "income": 102469, "revenue": 81320}, {"ein": "364944844", "name": "SPORTSMEN INC", "city": "BROOKLYN", "state": "NY", "zip": "11231-1412", "ntee": "N50", "ruling": "202104", "deductibility": "2", "assets": 3350, "income": 76383, "revenue": 76383}, {"ein": "452656473", "name": "GREENE COUNTY FEDERATION OF SPORTSMEN INC", "city": "CAIRO", "state": "NY", "zip": "12413-2408", "ntee": "N61", "ruling": "201209", "deductibility": "2", "assets": 72966, "income": 11535, "revenue": 9696}, {"ein": "760757757", "name": "FIN & POINT SPORTSMEN CLUB INC", "city": "ARCADE", "state": "NY", "zip": "14009-9706", "ntee": "N50", "ruling": "201110", "deductibility": "2", "assets": 0, "income": 0, "revenue": 0}], "CICERO": [{"ein": "050592932", "name": "TOWN OF CICERO HISTORICAL SOCIETY", "city": "CICERO", "state": "NY", "zip": "13039-9761", "ntee": "A80", "ruling": "200410", "deductibility": "1", "assets": 0, "income": 0, "revenue": 0}, {"ein": "141757092", "name": "BAHAIS OF CICERO TOWN", "city": "BREWERTON", "state": "NY", "zip": "13029-9557", "ntee": "", "ruling": "199505", "deductibility": "1", "assets": 0, "income": 0, "revenue": 0}, {"ein": "161188150", "name": "CICERO UNITED METHODIST CHURCH", "city": "CICERO", "state": "NY", "zip": "13039-9402", "ntee": "", "ruling": "197410", "deductibility": "0", "assets": 0, "income": 0, "revenue": 0}, {"ein": "161266055", "name": "CICERO ELEMENTARY SCHOOL PARENT TEACHERS GROUP", "city": "CICERO", "state": "NY", "zip": "13039-7323", "ntee": "B112", "ruling": "200310", "deductibility": "1", "assets": 84816, "income": 67206, "revenue": 38124}, {"ein": "161340939", "name": "CICERO POLICE BENEVOLENT ASSOCIATION", "city": "CICERO", "state": "NY", "zip": "13039-1570", "ntee": "J40", "ruling": "202206", "deductibility": "2", "assets": 27312, "income": 49588, "revenue": 49588}, {"ein": "161369088", "name": "CICERO HOUSING DEV FUND CO INC", "city": "SYRACUSE", "state": "NY", "zip": "13203-2879", "ntee": "L22Z", "ruling": "194603", "deductibility": "1", "assets": 1670584, "income": 452624, "revenue": 452624}, {"ein": "161561292", "name": "TOWN OF CICERO VOLUNTEERS IN POLICE SERVICE", "city": "CICERO", "state": "NY", "zip": "13039-8804", "ntee": "I60", "ruling": "201502", "deductibility": "1", "assets": 0, "income": 0, "revenue": 0}, {"ein": "161596983", "name": "CICERO VOLUNTEER FIRE DEPARTMENT", "city": "CICERO", "state": "NY", "zip": "13039-1111", "ntee": "M24", "ruling": "200412", "deductibility": "1", "assets": 4678173, "income": 469689, "revenue": 459165}, {"ein": "161612294", "name": "FRIENDS OF THE NORTHERN ONONDAGA PUBLIC LIBRARY AT CICERO INC", "city": "CICERO", "state": "NY", "zip": "13039-1595", "ntee": "B11", "ruling": "200201", "deductibility": "1", "assets": 0, "income": 0, "revenue": 0}, {"ein": "203610655", "name": "CICERO -PLANK ROAD CHAMBER OF COMMERCE INC", "city": "CICERO", "state": "NY", "zip": "13039-8638", "ntee": "S41", "ruling": "200512", "deductibility": "2", "assets": 38257, "income": 58827, "revenue": 58827}, {"ein": "275042600", "name": "CICERO YOUTH SOCCER LEAGUE INC", "city": "CICERO", "state": "NY", "zip": "13039-1371", "ntee": "N64", "ruling": "201210", "deductibility": "1", "assets": 76069, "income": 55253, "revenue": 55253}, {"ein": "680601386", "name": "CICERO COMMONS SENIOR HOUSING DEVELOPMENT FUND COMPANY INC", "city": "SYRACUSE", "state": "NY", "zip": "13203-2879", "ntee": "L20", "ruling": "200503", "deductibility": "1", "assets": 1363892, "income": 230438, "revenue": 230438}], "DKIRYAS": [{"ein": "061572059", "name": "AISHES CHAYIL DKIRYAS JOEL MOTHERS RELIEF CENTER INC", "city": "MONROE", "state": "NY", "zip": "10949-0625", "ntee": "L99", "ruling": "200011", "deductibility": "1", "assets": 16905655, "income": 10360696, "revenue": 10360696}], "STRUCTURAL": [{"ein": "110907905", "name": "INTERNATIONAL ASSOCIATION OF BRIDGE STRUCTURAL & ORNMENTAL IRON", "city": "OZONE PARK", "state": "NY", "zip": "11416-1415", "ntee": "", "ruling": "198305", "deductibility": "2", "assets": 13993446, "income": 7090557, "revenue": 5614818}, {"ein": "133943110", "name": "STRUCTURAL ENGINEERS ASSOCIATION OF NEW YORK", "city": "NEW YORK", "state": "NY", "zip": "10018-8403", "ntee": "", "ruling": "200705", "deductibility": "2", "assets": 443319, "income": 186518, "revenue": 186518}, {"ein": "134043587", "name": "NEW YORK STRUCTURAL BIOLOGY CENTER INC", "city": "NEW YORK", "state": "NY", "zip": "10027-0000", "ntee": "U500", "ruling": "199907", "deductibility": "1", "assets": 125553981, "income": 38077785, "revenue": 37726467}, {"ein": "135157704", "name": "INTERNATIONAL ASSN OF BRIDGE STRUCTURAL & ORNAMENTAL IRON WKRS", "city": "NEW YORK", "state": "NY", "zip": "10036-6205", "ntee": "", "ruling": "194301", "deductibility": "2", "assets": 40998135, "income": 29758870, "revenue": 4313989}, {"ein": "135512638", "name": "INTERNATIONAL ASSOCIATION BRIDGE & STRUCTURAL IRON WORKERS LOCAL 40", "city": "NEW YORK", "state": "NY", "zip": "10016-7390", "ntee": "", "ruling": "194411", "deductibility": "2", "assets": 61310057, "income": 20325871, "revenue": 6149423}, {"ein": "140771904", "name": "INTERNATIONAL ASSOCIATION OF BRIDGE STRUCTURAL & ORNAMENTAL IRON", "city": "LATHAM", "state": "NY", "zip": "12110-2203", "ntee": "", "ruling": "194411", "deductibility": "2", "assets": 1290107, "income": 1012513, "revenue": 1012513}, {"ein": "140773233", "name": "INTERNATIONAL ASSOCIATION OF BRIDGE STRUCTURAL & ORNAMENTAL IRON", "city": "WALLKILL", "state": "NY", "zip": "12589-2708", "ntee": "", "ruling": "194411", "deductibility": "2", "assets": 4263330, "income": 1041294, "revenue": 1039431}, {"ein": "150310328", "name": "INTERNATIONAL ASSOCIATION OF BRIDGE STRUCTURAL ORNAMENT IRON WORKERS", "city": "WHITESBORO", "state": "NY", "zip": "13492-1035", "ntee": "", "ruling": "194411", "deductibility": "1", "assets": 557359, "income": 343272, "revenue": 343272}, {"ein": "160492620", "name": "INTERNATIONAL ASSOC OF BRIDGE STRUCTURAL IRON WORKERS 6", "city": "BUFFALO", "state": "NY", "zip": "14224-2676", "ntee": "", "ruling": "194408", "deductibility": "2", "assets": 631904, "income": 1022193, "revenue": 1022193}, {"ein": "160492630", "name": "INTERNATIONAL ASSOC OF BRIDGE STRUCTURAL ORNAMENTAL IRON WKS 33", "city": "ROCHESTER", "state": "NY", "zip": "14624-2532", "ntee": "", "ruling": "195710", "deductibility": "2", "assets": 469364, "income": 479232, "revenue": 478522}, {"ein": "237364191", "name": "NEW YORK STRUCTURAL STEEL PAINTING CONTRACTORS ASSOCIATION", "city": "PRT WASHINGTN", "state": "NY", "zip": "11050-4634", "ntee": "", "ruling": "199610", "deductibility": "2", "assets": 2018203, "income": 1477163, "revenue": 1333491}, {"ein": "454957969", "name": "STRUCTURAL ENGINEERS ASSOCIATION OF NEW YORK EDUCATION FOUNDATION", "city": "NEW YORK", "state": "NY", "zip": "10018-8403", "ntee": "B82", "ruling": "201301", "deductibility": "1", "assets": 174092, "income": 199998, "revenue": 136380}, {"ein": "862235570", "name": "BRIDGING STRUCTURAL HOLES", "city": "NEW YORK CITY", "state": "NY", "zip": "10037-2028", "ntee": "B80", "ruling": "202110", "deductibility": "1", "assets": 0, "income": 0, "revenue": 0}], "INTERCOMMUNITY": [{"ein": "111587251", "name": "INTERCOMMUNITY NURSERY SCHOOL & KINDERGARTEN INC", "city": "LYNBROOK", "state": "NY", "zip": "11563-4061", "ntee": "", "ruling": "196003", "deductibility": "1", "assets": 299080, "income": 266507, "revenue": 266507}], "FLATBRUSH": [{"ein": "111630804", "name": "GRACE REFORMED CHURCH IN FLATBRUSH BROOKLYN N Y", "city": "BROOKLYN", "state": "NY", "zip": "11225-3904", "ntee": "", "ruling": "198601", "deductibility": "1", "assets": 0, "income": 0, "revenue": 0}, {"ein": "111761497", "name": "REFORMED PROTESTANT DUTCH CHURCH OF THE TOWN OF FLATBRUSH KINGS COUNTY", "city": "BROOKLYN", "state": "NY", "zip": "11226-4018", "ntee": "", "ruling": "196801", "deductibility": "1", "assets": 0, "income": 0, "revenue": 0}], "ALPHABET": [{"ein": "112074243", "name": "INITIAL TEACHING ALPHABET FOUNDATION INC", "city": "NEW YORK", "state": "NY", "zip": "10017-6940", "ntee": "", "ruling": "196612", "deductibility": "1", "assets": 1986915, "income": 2099844, "revenue": 0}], "TEMIMAH": [{"ein": "112127174", "name": "YESHIVA AND MESIVA TORAH TEMIMAH INCORPORATED", "city": "BROOKLYN", "state": "NY", "zip": "11218-5913", "ntee": "", "ruling": "199005", "deductibility": "1", "assets": 0, "income": 0, "revenue": 0}, {"ein": "113051157", "name": "TORAH TEMIMAH TALMUBICAL SEMINARY", "city": "BROOKLYN", "state": "NY", "zip": "11218-5913", "ntee": "", "ruling": "199303", "deductibility": "1", "assets": 0, "income": 0, "revenue": 0}], "INJURED": [{"ein": "112348663", "name": "ASSOCIATION FOR NEUROLOGICALLY IMPAIRED BRAIN INJURED CHILDREN", "city": "OAKLAND GDNS", "state": "NY", "zip": "11364-2244", "ntee": "G48Z", "ruling": "197501", "deductibility": "1", "assets": 15615416, "income": 12730217, "revenue": 12730171}, {"ein": "161350417", "name": "SPALDING FOUNDATION FOR INJURED DRIVERS INC", "city": "OWEGO", "state": "NY", "zip": "13827-2110", "ntee": "", "ruling": "199203", "deductibility": "1", "assets": 29418, "income": 2819, "revenue": 2819}, {"ein": "161522449", "name": "INJURED WORKERS BAR ASSOCIATION INC", "city": "ALBANY", "state": "NY", "zip": "12210-1367", "ntee": "", "ruling": "199808", "deductibility": "2", "assets": 194700, "income": 240358, "revenue": 240358}, {"ein": "462824728", "name": "ROAD HOME FOUNDATION FOR INJURED WARRIORS AND FAMILIES", "city": "STATEN ISLAND", "state": "NY", "zip": "10312-4418", "ntee": "W99", "ruling": "201405", "deductibility": "1", "assets": 58627, "income": 44364, "revenue": 0}], "SHULEMAN": [{"ein": "112425345", "name": "SHAAREI ZION C O SHULEMAN WEIDER", "city": "BROOKLYN", "state": "NY", "zip": "11206-4955", "ntee": "", "ruling": "197707", "deductibility": "1", "assets": 0, "income": 0, "revenue": 0}], "HARABANIM": [{"ein": "112528777", "name": "VAAD HARABANIM HASEFARADIM", "city": "BROOKLYN", "state": "NY", "zip": "11211-6728", "ntee": "", "ruling": "198006", "deductibility": "1", "assets": 0, "income": 0, "revenue": 0}], "STONE": [{"ein": "112573118", "name": "KIRYAT TELZ STONE INC", "city": "SUFFERN", "state": "NY", "zip": "10901-1708", "ntee": "", "ruling": "198107", "deductibility": "1", "assets": 0, "income": 0, "revenue": 0}, {"ein": "113003513", "name": "LIVELY STONE PENTECOSTAL CHURCH INC", "city": "BROOKLYN", "state": "NY", "zip": "11203-1907", "ntee": "X21", "ruling": "200010", "deductibility": "1", "assets": 0, "income": 0, "revenue": 0}, {"ein": "113032836", "name": "OLD STONE HOUSE OF BROOKLYN", "city": "BROOKLYN", "state": "NY", "zip": "11215-0613", "ntee": "", "ruling": "199106", "deductibility": "1", "assets": 456502, "income": 544008, "revenue": 522727}, {"ein": "113251043", "name": "THE ANGULAR STONE PENTECOSTAL ASSOCIATION INC", "city": "LONG ISLAND", "state": "NY", "zip": "11106-1942", "ntee": "X21", "ruling": "200111", "deductibility": "1", "assets": 0, "income": 0, "revenue": 0}, {"ein": "113517586", "name": "PRECIOUS STONE INTERNATIONAL INC", "city": "BROOKLYN", "state": "NY", "zip": "11207-4806", "ntee": "P84", "ruling": "201501", "deductibility": "1", "assets": 0, "income": 0, "revenue": 0}, {"ein": "113564355", "name": "THE STONE IN ZION GOSPEL TEMPLE OF PRAYER", "city": "KEW GARDENS", "state": "NY", "zip": "11415-1162", "ntee": "X21", "ruling": "201206", "deductibility": "1", "assets": 0, "income": 0, "revenue": 0}, {"ein": "113568218", "name": "LIVING STONE CHURCH", "city": "BAYSIDE", "state": "NY", "zip": "11361-2919", "ntee": "X21", "ruling": "200102", "deductibility": "1", "assets": 0, "income": 0, "revenue": 0}, {"ein": "113719468", "name": "STEPPING STONE PRODUCTIONS INC", "city": "PORT JEFF STA", "state": "NY", "zip": "11776-3409", "ntee": "A65", "ruling": "200502", "deductibility": "1", "assets": 0, "income": 0, "revenue": 0}, {"ein": "132560932", "name": "TRIED STONE BAPTIST CHURCH", "city": "BRONX", "state": "NY", "zip": "10460-0246", "ntee": "", "ruling": "195504", "deductibility": "1", "assets": 0, "income": 0, "revenue": 0}, {"ein": "132891975", "name": "STONE CASTLE REALTY INC", "city": "ROCK TAVERN", "state": "NY", "zip": "12575-5000", "ntee": "", "ruling": "198104", "deductibility": "2", "assets": 139375, "income": 112970, "revenue": 112970}, {"ein": "133275531", "name": "OHR TORAH STONE INSTITUTIONS OF ISR AEL", "city": "NEW YORK", "state": "NY", "zip": "10036-4603", "ntee": "X300", "ruling": "198510", "deductibility": "1", "assets": 3868430, "income": 9557696, "revenue": 9435685}, {"ein": "134150082", "name": "STONE BARNS RESTORATION CORP", "city": "TARRYTOWN", "state": "NY", "zip": "10591-1202", "ntee": "A50", "ruling": "200107", "deductibility": "1", "assets": 96207943, "income": 23782128, "revenue": 8102427}, {"ein": "136121373", "name": "STONE SETTERS VACATION FUND 84", "city": "NEW YORK", "state": "NY", "zip": "10018-3726", "ntee": "", "ruling": "196601", "deductibility": "2", "assets": 573928, "income": 1756725, "revenue": 1756725}, {"ein": "136130402", "name": "OLD STONE CHURCH", "city": "UPPER NYACK", "state": "NY", "zip": "10960-0000", "ntee": "", "ruling": "196401", "deductibility": "1", "assets": 0, "income": 0, "revenue": 0}, {"ein": "141277834", "name": "OLD STONE FORT CEMETERY ASSOC", "city": "SCHOHARIE", "state": "NY", "zip": "12157-0364", "ntee": "", "ruling": "194905", "deductibility": "1", "assets": 0, "income": 0, "revenue": 0}, {"ein": "141639944", "name": "OLD STONE CHURCH", "city": "BALLSTON SPA", "state": "NY", "zip": "12020-3016", "ntee": "", "ruling": "195504", "deductibility": "1", "assets": 0, "income": 0, "revenue": 0}, {"ein": "146020776", "name": "WILLIAM BULL AND SARAH WELLS STONE HOUSE ASSOCIATION INC", "city": "CAMPBELL HALL", "state": "NY", "zip": "10916-0000", "ntee": "A82Z", "ruling": "197902", "deductibility": "1", "assets": 873377, "income": 352177, "revenue": 107123}, {"ein": "150532101", "name": "STONE PRESBYTERIAN CHURCH", "city": "WATERTOWN", "state": "NY", "zip": "13601-4319", "ntee": "", "ruling": "196401", "deductibility": "1", "assets": 0, "income": 0, "revenue": 0}, {"ein": "160743019", "name": "UNITED PRESBYTERIAN STONE CHURCH", "city": "CALEDONIA", "state": "NY", "zip": "14423-1014", "ntee": "", "ruling": "196401", "deductibility": "1", "assets": 0, "income": 0, "revenue": 0}, {"ein": "161126163", "name": "PENN YAN WHITE STONE CHAPEL", "city": "PENN YAN", "state": "NY", "zip": "14527-8772", "ntee": "", "ruling": "196307", "deductibility": "2", "assets": 0, "income": 0, "revenue": 0}, {"ein": "161184835", "name": "STONE STREET BAPTIST CHURCH", "city": "CHAUMONT", "state": "NY", "zip": "13622-0125", "ntee": "", "ruling": "198308", "deductibility": "1", "assets": 0, "income": 0, "revenue": 0}, {"ein": "161355567", "name": "HOWLAND STONE STORE MUSEUM", "city": "AURORA", "state": "NY", "zip": "13026-0124", "ntee": "", "ruling": "199105", "deductibility": "1", "assets": 1266603, "income": 124166, "revenue": 124166}, {"ein": "161388322", "name": "STONE ARABIA PRESERVATION SOCIETY", "city": "PALATINE BRG", "state": "NY", "zip": "13428-0692", "ntee": "A99Z", "ruling": "199311", "deductibility": "1", "assets": 0, "income": 0, "revenue": 0}, {"ein": "161406217", "name": "STONE QUARRY HILL ART PARK INC", "city": "CAZENOVIA", "state": "NY", "zip": "13035-0251", "ntee": "A400", "ruling": "199204", "deductibility": "1", "assets": 2906677, "income": 376662, "revenue": 376662}, {"ein": "200140976", "name": "DIGITAL STONE PROJECT", "city": "LIVINGSTON", "state": "NY", "zip": "12541-0178", "ntee": "A25", "ruling": "201903", "deductibility": "1", "assets": 85811, "income": 176104, "revenue": 176104}, {"ein": "200802803", "name": "STONE SETTERS LABOR-MANAGEMENT COMMITTEE", "city": "LONGISLAND CITY", "state": "NY", "zip": "11101-4351", "ntee": "J40", "ruling": "201302", "deductibility": "2", "assets": 0, "income": 0, "revenue": 0}, {"ein": "202149550", "name": "VILLAS AT STONE OAK RANCH INVESTMENT GROUP INC", "city": "NEW YORK", "state": "NY", "zip": "10020-1104", "ntee": "S47", "ruling": "200512", "deductibility": "2", "assets": 17825531, "income": 7061888, "revenue": -1056681}, {"ein": "222487138", "name": "LIFE STONE WESLEYAN CHURCH", "city": "HENRIETTA", "state": "NY", "zip": "14467-0539", "ntee": "", "ruling": "197005", "deductibility": "1", "assets": 0, "income": 0, "revenue": 0}, {"ein": "223431042", "name": "WHITE STONE KOREAN METHODIST CHURCH INC", "city": "FLUSHING", "state": "NY", "zip": "11354-4159", "ntee": "X20Z", "ruling": "199609", "deductibility": "1", "assets": 0, "income": 0, "revenue": 0}, {"ein": "237175053", "name": "MAE STONE GOODE TRUST A 19 12-2-0892-0", "city": "NEW YORK", "state": "NY", "zip": "10001-2189", "ntee": "", "ruling": "197206", "deductibility": "0", "assets": 4091682, "income": 1933146, "revenue": 0}, {"ein": "237314874", "name": "TRUE STONE EVANGELICAL BAPTIST CHURCH", "city": "BROOKLYN", "state": "NY", "zip": "11202-1834", "ntee": "", "ruling": "197309", "deductibility": "1", "assets": 0, "income": 0, "revenue": 0}, {"ein": "270738915", "name": "CORNER STONE EVANGELICAL CHURCH INC", "city": "BROOKLYN", "state": "NY", "zip": "11236-5106", "ntee": "X21", "ruling": "201407", "deductibility": "1", "assets": 0, "income": 0, "revenue": 0}, {"ein": "273295496", "name": "STONE STREET COMMUNITY ASSOCIATION INC", "city": "NEW YORK", "state": "NY", "zip": "10004-2713", "ntee": "S20", "ruling": "201101", "deductibility": "2", "assets": 2059, "income": 108825, "revenue": 108825}, {"ein": "274335946", "name": "STEPPING STONE MINISTRIES INC", "city": "LIMA", "state": "NY", "zip": "14485-9719", "ntee": "Q33", "ruling": "201312", "deductibility": "1", "assets": 0, "income": 0, "revenue": 0}, {"ein": "300376256", "name": "STONE RIDGE LIBRARY FOUNDATION INC", "city": "STONE RIDGE", "state": "NY", "zip": "12484-0188", "ntee": "B11", "ruling": "200610", "deductibility": "1", "assets": 732294, "income": 440039, "revenue": 108624}, {"ein": "300596346", "name": "WHITE STONE CHRISTIAN MINISTRY", "city": "CAMBRIDGE", "state": "NY", "zip": "12816-1116", "ntee": "X20", "ruling": "201704", "deductibility": "1", "assets": 0, "income": 0, "revenue": 0}, {"ein": "412068074", "name": "FOUNDATION STONE INC", "city": "LAWRENCE", "state": "NY", "zip": "11559-0172", "ntee": "A70", "ruling": "200503", "deductibility": "1", "assets": 0, "income": 0, "revenue": 0}, {"ein": "462570579", "name": "STONE BY STONE MOVING MOUNTAINS IN HAITI INC", "city": "LIVERPOOL", "state": "NY", "zip": "13089-2961", "ntee": "Q33", "ruling": "201407", "deductibility": "1", "assets": 0, "income": 0, "revenue": 0}, {"ein": "464108014", "name": "CORNER STONE CHURCH OF GOD", "city": "W HEMPSTEAD", "state": "NY", "zip": "11552-1536", "ntee": "", "ruling": "197210", "deductibility": "1", "assets": 0, "income": 128628, "revenue": 128628}, {"ein": "474233533", "name": "PELLETTIERI STONE CARVERS ACADEMY INC", "city": "NEW YORK", "state": "NY", "zip": "10027-6036", "ntee": "A25", "ruling": "201509", "deductibility": "1", "assets": 67082, "income": 68073, "revenue": 68073}, {"ein": "510195302", "name": "STONE HEWN FREE CHURCH INC", "city": "WINEDALE", "state": "NY", "zip": "12594-9801", "ntee": "", "ruling": "197607", "deductibility": "1", "assets": 0, "income": 0, "revenue": 0}, {"ein": "510624487", "name": "THE STONE OF HELP MINISTRIES INCORP ORATED", "city": "BROOKLYN", "state": "NY", "zip": "11212-4443", "ntee": "X20", "ruling": "200707", "deductibility": "1", "assets": 0, "income": 0, "revenue": 0}, {"ein": "521486485", "name": "STONE LANTERN FILMS INC", "city": "SUFFERN", "state": "NY", "zip": "10901-6826", "ntee": "", "ruling": "198702", "deductibility": "1", "assets": 134266, "income": 137728, "revenue": 137728}, {"ein": "542142668", "name": "SEA STONE FOUNDATION", "city": "NEW YORK", "state": "NY", "zip": "10024-3731", "ntee": "T21", "ruling": "200406", "deductibility": "1", "assets": 338511, "income": 416065, "revenue": 0}, {"ein": "611572229", "name": "FRIENDS OF THE FOUNDATION STONE INM", "city": "YONKERS", "state": "NY", "zip": "10702-0485", "ntee": "X30", "ruling": "201502", "deductibility": "1", "assets": 24274, "income": 122053, "revenue": 122053}, {"ein": "753190060", "name": "STEPPING STONE SUPPORT INC", "city": "EASTPORT", "state": "NY", "zip": "11941-1333", "ntee": "X11", "ruling": "200607", "deductibility": "1", "assets": 15209, "income": 76425, "revenue": 76425}, {"ein": "815047837", "name": "K-STONE ACREAGE", "city": "LISBON", "state": "NY", "zip": "13658-4210", "ntee": "D20", "ruling": "201706", "deductibility": "1", "assets": 0, "income": 0, "revenue": 0}, {"ein": "832115462", "name": "ROBERT F STONE FOUNDATION", "city": "LAKE SUCCESS", "state": "NY", "zip": "11042-0000", "ntee": "T22", "ruling": "201902", "deductibility": "1", "assets": 20918850, "income": 22270257, "revenue": 0}, {"ein": "852862281", "name": "JACOB S PILLAR STONE ORGANIZATION INC", "city": "BROOKLYN", "state": "NY", "zip": "11236-3310", "ntee": "P20", "ruling": "202111", "deductibility": "1", "assets": 142, "income": 742, "revenue": 742}, {"ein": "854131174", "name": "STONE ARABIA PRESERVATION INCORPORATED", "city": "FORT PLAIN", "state": "NY", "zip": "13339-0305", "ntee": "A54", "ruling": "202410", "deductibility": "1", "assets": 0, "income": 0, "revenue": 0}, {"ein": "863022293", "name": "GRINDING STONE COLLECTIVE INC", "city": "GLENDALE", "state": "NY", "zip": "11385-7800", "ntee": "S20", "ruling": "202208", "deductibility": "1", "assets": 452400, "income": 224720, "revenue": 224720}, {"ein": "873905032", "name": "LEAVE NO STONE UNTURNED INC", "city": "MT VERNON", "state": "NY", "zip": "10550-4014", "ntee": "L80", "ruling": "202412", "deductibility": "1", "assets": 0, "income": 0, "revenue": 0}, {"ein": "991345777", "name": "BETHEL DREAM ON A STONE INC", "city": "NEW ROCHELLE", "state": "NY", "zip": "10805-0000", "ntee": "P50", "ruling": "202403", "deductibility": "1", "assets": 0, "income": 0, "revenue": 0}], "HAMISHNAH": [{"ein": "112690624", "name": "OHR HAMISHNAH", "city": "BROOKLYN", "state": "NY", "zip": "11235-8026", "ntee": "", "ruling": "198410", "deductibility": "1", "assets": 0, "income": 0, "revenue": 0}], "APOSTIC": [{"ein": "112692747", "name": "ZION GOSPEL CHURCH OF THE APOSTIC INC", "city": "JAMAICA", "state": "NY", "zip": "11433-3811", "ntee": "X20", "ruling": "200811", "deductibility": "1", "assets": 0, "income": 0, "revenue": 0}], "MAKEVE": [{"ein": "112697262", "name": "CONGREGATION KEHILAS MOSHE MAKEVE INC", "city": "BROOKLYN", "state": "NY", "zip": "11219-4201", "ntee": "", "ruling": "198410", "deductibility": "1", "assets": 0, "income": 0, "revenue": 0}], "IMAGE": [{"ein": "112730714", "name": "AMERICAN MUSEUM OF THE MOVING IMAGE", "city": "ASTORIA", "state": "NY", "zip": "11106-1226", "ntee": "A500", "ruling": "198506", "deductibility": "1", "assets": 4470826, "income": 8321015, "revenue": 8015318}, {"ein": "137120573", "name": "IN HIS IMAGE", "city": "LYNBROOK", "state": "NY", "zip": "11563-2501", "ntee": "S50", "ruling": "199811", "deductibility": "1", "assets": 1156064, "income": 1996891, "revenue": 1996891}, {"ein": "202934495", "name": "WITHIN THE IMAGE INC", "city": "NEW YORK", "state": "NY", "zip": "10024-6023", "ntee": "", "ruling": "200511", "deductibility": "1", "assets": 0, "income": 0, "revenue": 0}, {"ein": "205228712", "name": "MADE IN HIS IMAGE MINISTIRES INC", "city": "MT VERNON", "state": "NY", "zip": "10551-0689", "ntee": "X20", "ruling": "201603", "deductibility": "1", "assets": 0, "income": 0, "revenue": 0}, {"ein": "260108426", "name": "LIVING IMAGE ARTS INC", "city": "HAVERSTRAW", "state": "NY", "zip": "10927-1812", "ntee": "A20", "ruling": "200705", "deductibility": "1", "assets": 0, "income": 0, "revenue": 0}, {"ein": "264722637", "name": "TEAM IMAGE SYNCHRONIZED SKATING TEAMS LTD", "city": "NEW ROCHELLE", "state": "NY", "zip": "10802-0548", "ntee": "N68", "ruling": "201109", "deductibility": "1", "assets": 661868, "income": 1486186, "revenue": 1486186}, {"ein": "611494484", "name": "IMAGE INITIATIVE INC", "city": "SYRACUSE", "state": "NY", "zip": "13214-2229", "ntee": "O22", "ruling": "200606", "deductibility": "1", "assets": 58556, "income": 125629, "revenue": 125629}, {"ein": "833708865", "name": "IMAGE THREADS INC", "city": "ELIZAVILLE", "state": "NY", "zip": "12523-1052", "ntee": "T50", "ruling": "201903", "deductibility": "1", "assets": 186184, "income": 191693, "revenue": 191693}, {"ein": "922532594", "name": "IMAGE MAKER FILMS INC", "city": "ASTORIA", "state": "NY", "zip": "11102-3251", "ntee": "", "ruling": "202303", "deductibility": "1", "assets": 0, "income": 0, "revenue": 0}, {"ein": "931992633", "name": "PLANE IMAGE HUDSON RIVER GARDEN FOUNDATION", "city": "TIVOLI", "state": "NY", "zip": "12583-0065", "ntee": "N32", "ruling": "202308", "deductibility": "1", "assets": 1295327, "income": 1306557, "revenue": 0}, {"ein": "933283398", "name": "ARAB IMAGE FOUNDATION INC", "city": "BROOKLYN", "state": "NY", "zip": "11238-2676", "ntee": "A82", "ruling": "202309", "deductibility": "1", "assets": 131309, "income": 131309, "revenue": 131309}], "FIND": [{"ein": "112764785", "name": "ARLENE TOPAL CREATIVE ARTS FIND INC", "city": "NEW YORK", "state": "NY", "zip": "10122-1800", "ntee": "A90", "ruling": "201211", "deductibility": "1", "assets": 44703, "income": 44500, "revenue": 0}, {"ein": "132666921", "name": "FIND AID FOR THE AGED INC", "city": "NEW YOK", "state": "NY", "zip": "10023-3901", "ntee": "P810", "ruling": "197005", "deductibility": "1", "assets": 27764761, "income": 6481093, "revenue": 6447930}, {"ein": "222323336", "name": "CHILD FIND OF AMERICA INC", "city": "HIGHLAND", "state": "NY", "zip": "12528-2805", "ntee": "I24Z", "ruling": "198111", "deductibility": "1", "assets": 2151100, "income": 1081264, "revenue": 790000}, {"ein": "851396380", "name": "QUINN FOR THE WIN - FIND YOUR SMILE - FOUNDATION INC", "city": "BRONX", "state": "NY", "zip": "10470-1952", "ntee": "G50", "ruling": "202006", "deductibility": "1", "assets": 0, "income": 0, "revenue": 0}, {"ein": "883724403", "name": "FIND COMMUNITY CONNECTION PROJECT INC", "city": "BROOKLYN", "state": "NY", "zip": "11225-3706", "ntee": "A19", "ruling": "202209", "deductibility": "1", "assets": 0, "income": 0, "revenue": 0}], "YITTY": [{"ein": "112839281", "name": "YITTY LEIBEL CHESED FUND INC", "city": "BROOKLYN", "state": "NY", "zip": "11219-3575", "ntee": "", "ruling": "198702", "deductibility": "1", "assets": 0, "income": 0, "revenue": 0}, {"ein": "821730415", "name": "SHMILY & YITTY STEINBERG FOUNDATION", "city": "BROOKLYN", "state": "NY", "zip": "11204-1345", "ntee": "T20", "ruling": "201806", "deductibility": "1", "assets": 260882, "income": 2889, "revenue": 0}], "PREVAILING": [{"ein": "112862163", "name": "PREVAILING WORD MINISTRIES INC", "city": "BROOKLYN", "state": "NY", "zip": "11238-0331", "ntee": "", "ruling": "198802", "deductibility": "1", "assets": 0, "income": 0, "revenue": 0}, {"ein": "832087739", "name": "PREVAILING FAITH MINISTRIES", "city": "YONKERS", "state": "NY", "zip": "10701-5451", "ntee": "X21", "ruling": "202007", "deductibility": "1", "assets": 0, "income": 0, "revenue": 0}], "DMONTIVEDID": [{"ein": "113079873", "name": "CONGREGATION BINYAN DAVID DMONTIVEDID", "city": "BROOKLYN", "state": "NY", "zip": "11210-3714", "ntee": "", "ruling": "199203", "deductibility": "1", "assets": 0, "income": 0, "revenue": 0}], "ENTRENET": [{"ein": "113184052", "name": "ENTRENET THE PROGRESSIVE PROVIDERS CHILD CARE NETWORK INC", "city": "CORONA", "state": "NY", "zip": "11368-0000", "ntee": "P33I", "ruling": "199403", "deductibility": "1", "assets": 0, "income": 0, "revenue": 0}], "MAAMIN": [{"ein": "113211700", "name": "CONGREGATION ANI MAAMIN", "city": "BROOKLYN", "state": "NY", "zip": "11203-1601", "ntee": "", "ruling": "199409", "deductibility": "1", "assets": 0, "income": 0, "revenue": 0}], "THAN": [{"ein": "113272350", "name": "MORE THAN CONQUERORS OUTREACH MINISTRIES INC", "city": "BROOKLYN", "state": "NY", "zip": "11233-3357", "ntee": "X99Z", "ruling": "199706", "deductibility": "1", "assets": 0, "income": 0, "revenue": 0}, {"ein": "113279206", "name": "MORE THAN CONQUERERS INC", "city": "ST ALBANS", "state": "NY", "zip": "11412-3246", "ntee": "X20Z", "ruling": "199612", "deductibility": "1", "assets": 0, "income": 0, "revenue": 0}, {"ein": "113516207", "name": "MORE THAN CONQUERORS GLOBAL MINISTRIES INC", "city": "S OZONE PARK", "state": "NY", "zip": "11420-0134", "ntee": "X21", "ruling": "200003", "deductibility": "1", "assets": 0, "income": 0, "revenue": 0}, {"ein": "205743644", "name": "JESUS NOW MORE THAN EVER MINISTRIES INC", "city": "PALMYRA", "state": "NY", "zip": "14522-9328", "ntee": "X21", "ruling": "200706", "deductibility": "1", "assets": 0, "income": 0, "revenue": 0}, {"ein": "261338858", "name": "LARGER THAN LIFE USA INC", "city": "LONG IS CITY", "state": "NY", "zip": "11101-3233", "ntee": "P20", "ruling": "200809", "deductibility": "1", "assets": 1866857, "income": 998176, "revenue": 998176}, {"ein": "262821050", "name": "MORE THAN CONQUERORS MINISTRIES NYC", "city": "BRONX", "state": "NY", "zip": "10462-5203", "ntee": "X21", "ruling": "201008", "deductibility": "1", "assets": 0, "income": 0, "revenue": 0}, {"ein": "275080929", "name": "LESS THAN RENT THEATRE LTD", "city": "NEW YORK", "state": "NY", "zip": "10002-5512", "ntee": "A65", "ruling": "201109", "deductibility": "1", "assets": 0, "income": 0, "revenue": 0}, {"ein": "332891017", "name": "MORE THAN MATTER COLLECTIVE INC", "city": "LAKEVIEW", "state": "NY", "zip": "14085-9633", "ntee": "F80", "ruling": "202504", "deductibility": "1", "assets": 0, "income": 0, "revenue": 0}, {"ein": "333075588", "name": "MORE THAN ENOUGH WOMEN2WOMEN INC", "city": "HORSEHEADS", "state": "NY", "zip": "14845-2326", "ntee": "X20", "ruling": "202503", "deductibility": "1", "assets": 0, "income": 0, "revenue": 0}, {"ein": "334688535", "name": "MOORE THAN A MEMORY", "city": "NANUET", "state": "NY", "zip": "10954-3524", "ntee": "B82", "ruling": "202506", "deductibility": "1", "assets": 0, "income": 0, "revenue": 0}, {"ein": "823403842", "name": "MORE THAN CONQUERORS PRODUCTIONS", "city": "BROOKLYN", "state": "NY", "zip": "11233-4260", "ntee": "P20", "ruling": "201805", "deductibility": "1", "assets": 0, "income": 0, "revenue": 0}, {"ein": "844945663", "name": "MORE THAN A VOTE ACTION INC", "city": "NEW YORK", "state": "NY", "zip": "10003-0000", "ntee": "R22", "ruling": "202204", "deductibility": "2", "assets": 18635, "income": 0, "revenue": 0}, {"ein": "921789127", "name": "BIGGER THAN BASKETBALL USA INC", "city": "STATEN ISLAND", "state": "NY", "zip": "10312-2043", "ntee": "N62", "ruling": "202301", "deductibility": "1", "assets": 1, "income": 1, "revenue": 0}, {"ein": "922051455", "name": "MORE THAN A MEAL CORPORATION", "city": "BROOKLYN", "state": "NY", "zip": "11205-1010", "ntee": "K30", "ruling": "202302", "deductibility": "1", "assets": 251995, "income": 349039, "revenue": 349039}], "PUBLICATIONS": [{"ein": "113335514", "name": "REDEEMED OUTREACH MINISTRIES & PUBLICATIONS INTERNATIONAL INC", "city": "ROSEDALE", "state": "NY", "zip": "11422-1801", "ntee": "P20", "ruling": "200411", "deductibility": "1", "assets": 0, "income": 0, "revenue": 0}, {"ein": "132794121", "name": "LILITH PUBLICATIONS INC", "city": "NEW YORK", "state": "NY", "zip": "10019-2400", "ntee": "A33Z", "ruling": "197504", "deductibility": "1", "assets": 290074, "income": 597490, "revenue": 597490}, {"ein": "133336695", "name": "NEW ART PUBLICATIONS INC", "city": "BROOKLYN", "state": "NY", "zip": "11217-2998", "ntee": "", "ruling": "198608", "deductibility": "1", "assets": 2043767, "income": 3003783, "revenue": 2461768}, {"ein": "134027846", "name": "DRUZE RESEARCH AND PUBLICATIONS INSTITUTE INC", "city": "NEW YORK", "state": "NY", "zip": "10018-4447", "ntee": "A23", "ruling": "199812", "deductibility": "1", "assets": 0, "income": 0, "revenue": 0}, {"ein": "141709827", "name": "PRESERVING CHRISTIAN PUBLICATIONS INC", "city": "BOONVILLE", "state": "NY", "zip": "13309-4353", "ntee": "A33Z", "ruling": "198912", "deductibility": "1", "assets": 327742, "income": 370593, "revenue": 370593}, {"ein": "202451306", "name": "INTERNATIONAL SOCIETY FOR MEDICAL PUBLICATIONS PROFESSIONALS INC", "city": "BRIARCLIFF", "state": "NY", "zip": "10510-8123", "ntee": "S41", "ruling": "200602", "deductibility": "2", "assets": 5816220, "income": 3654618, "revenue": 3654618}, {"ein": "202573888", "name": "HASHKAFA PUBLICATIONS FOUNDATION INC", "city": "BROOKLYN", "state": "NY", "zip": "11230-4811", "ntee": "X20", "ruling": "200504", "deductibility": "1", "assets": 0, "income": 0, "revenue": 0}, {"ein": "208316557", "name": "MANNA PUBLICATIONS USA INCORPORATED", "city": "NYACK", "state": "NY", "zip": "10960-3705", "ntee": "X800", "ruling": "200808", "deductibility": "1", "assets": 0, "income": 0, "revenue": 0}, {"ein": "223462113", "name": "YAGDIYL TORAH PUBLICATIONS INC", "city": "BROOKLYN", "state": "NY", "zip": "11223-0000", "ntee": "X83", "ruling": "199704", "deductibility": "1", "assets": 38465, "income": 112481, "revenue": 112481}, {"ein": "382175272", "name": "CISTERCIAN PUBLICATIONS", "city": "PIFFARD", "state": "NY", "zip": "14533-9636", "ntee": "A33Z", "ruling": "194603", "deductibility": "1", "assets": 0, "income": 0, "revenue": 0}, {"ein": "474664419", "name": "HASEFER PUBLICATIONS INC", "city": "BROOKLYN", "state": "NY", "zip": "11204-2375", "ntee": "X83", "ruling": "201510", "deductibility": "1", "assets": 479060, "income": 484018, "revenue": 484018}, {"ein": "841823151", "name": "NEW YORK SONG OF SONGS PUBLICATIONS INC", "city": "ISLAND PARK", "state": "NY", "zip": "11558-1106", "ntee": "X83", "ruling": "202001", "deductibility": "1", "assets": 15344, "income": 16948, "revenue": 16948}], "HAPLETA": [{"ein": "113379668", "name": "CONG SHEARITH HAPLETA", "city": "BROOKLYN", "state": "NY", "zip": "11211-7916", "ntee": "X30Z", "ruling": "199706", "deductibility": "1", "assets": 0, "income": 0, "revenue": 0}], "BOYAR": [{"ein": "113410278", "name": "JOAN AND MARK BOYAR FOUNDATION INC", "city": "OLD WESTBURY", "state": "NY", "zip": "11568-1302", "ntee": "T20Z", "ruling": "199803", "deductibility": "1", "assets": 961688, "income": 68101, "revenue": 0}], "HAMITZVOS": [{"ein": "113457986", "name": "VAAD HAMITZVOS", "city": "BROOKLYN", "state": "NY", "zip": "11219-4119", "ntee": "X30", "ruling": "200105", "deductibility": "1", "assets": 0, "income": 0, "revenue": 0}], "GINDI": [{"ein": "113521545", "name": "GINDI FOUNDATION", "city": "BROOKLYN", "state": "NY", "zip": "11223-0000", "ntee": "T22", "ruling": "200003", "deductibility": "1", "assets": 20408, "income": 18042, "revenue": 0}, {"ein": "357024099", "name": "THE@RALPH S GINDI FAMILY FOUNDATION", "city": "NEW YORK", "state": "NY", "zip": "10001-0000", "ntee": "T22", "ruling": "201312", "deductibility": "1", "assets": 7994, "income": 33129, "revenue": 0}], "PROVERBS": [{"ein": "113614839", "name": "PROVERBS TEMPLE CHURCH OF GOD IN CHRIST INC", "city": "BROOKLYN", "state": "NY", "zip": "11221-1824", "ntee": "X21", "ruling": "200303", "deductibility": "1", "assets": 0, "income": 0, "revenue": 0}], "TAX": [{"ein": "113719486", "name": "AMERICAN SOCIETY OF TAX PROBLEM SOLVERS INC", "city": "WILLIAMSVILLE", "state": "NY", "zip": "14221-7034", "ntee": "S41", "ruling": "200502", "deductibility": "2", "assets": 249886, "income": 409217, "revenue": 409217}, {"ein": "132819941", "name": "REAL ESTATE TAX REVIEW BAR ASSN", "city": "NEW YORK", "state": "NY", "zip": "10018-0000", "ntee": "S47Z", "ruling": "199211", "deductibility": "2", "assets": 14957, "income": 23000, "revenue": 23000}, {"ein": "133318164", "name": "RAYDAN FOUNDATION TAX DEPT", "city": "BROOKLYN", "state": "NY", "zip": "11201-0000", "ntee": "", "ruling": "198701", "deductibility": "1", "assets": 18934, "income": 1825, "revenue": 0}, {"ein": "133974890", "name": "NEW YORK TAX STUDY GROUP INC", "city": "NEW YORK", "state": "NY", "zip": "10016-1717", "ntee": "B03", "ruling": "202307", "deductibility": "1", "assets": 0, "income": 0, "revenue": 0}, {"ein": "136121749", "name": "INTERNATIONAL TAX INSTITUTE INC", "city": "NEW YORK", "state": "NY", "zip": "10069-0000", "ntee": "", "ruling": "199212", "deductibility": "1", "assets": 58115, "income": 37810, "revenue": 37810}, {"ein": "161332580", "name": "NATIONAL ASSOCIATION OF TAX PROFESSIONALS INC", "city": "BINGHAMTON", "state": "NY", "zip": "13902-3140", "ntee": "W60", "ruling": "199506", "deductibility": "1", "assets": 166282, "income": 219728, "revenue": 219728}, {"ein": "161438805", "name": "THE NEW YORK STATE ASSOCIATION OF TAX RECEIVERS AND COLLECTORS", "city": "WARRENSBURG", "state": "NY", "zip": "12885-5409", "ntee": "B03", "ruling": "202403", "deductibility": "2", "assets": 0, "income": 0, "revenue": 0}, {"ein": "237088671", "name": "COMMUNITY TAX AID INC", "city": "NEW YORK", "state": "NY", "zip": "10025-1040", "ntee": "", "ruling": "197101", "deductibility": "1", "assets": 0, "income": 0, "revenue": 0}, {"ein": "275111306", "name": "SUGAR HILL NEW MARKET TAX CREDIT INC", "city": "NEW YORK", "state": "NY", "zip": "10031-8346", "ntee": "L80", "ruling": "201203", "deductibility": "2", "assets": 22337925, "income": 400010, "revenue": 400010}, {"ein": "331788133", "name": "82 ST TAX SERVICES INC", "city": "JACKSON HTS", "state": "NY", "zip": "11372-8808", "ntee": "T40", "ruling": "202411", "deductibility": "1", "assets": 0, "income": 0, "revenue": 0}, {"ein": "460976093", "name": "ULSTER VOLUNTEER INCOME TAX SUPPORT", "city": "NEW PALTZ", "state": "NY", "zip": "12561-2913", "ntee": "P20", "ruling": "201411", "deductibility": "1", "assets": 0, "income": 0, "revenue": 0}, {"ein": "521660704", "name": "AMERICAN TAX POLICY INSTITUTE", "city": "ROCHESTER", "state": "NY", "zip": "14618-2213", "ntee": "W052", "ruling": "199003", "deductibility": "1", "assets": 249483, "income": 63474, "revenue": 63474}, {"ein": "630795615", "name": "AMERICAN COLLEGE OF TAX COUNSEL", "city": "ROCHESTER", "state": "NY", "zip": "14618-2213", "ntee": "", "ruling": "198109", "deductibility": "2", "assets": 729310, "income": 162677, "revenue": 162677}, {"ein": "800930352", "name": "CARBON TAX CENTER", "city": "NEW YORK", "state": "NY", "zip": "10008-3572", "ntee": "B99", "ruling": "201407", "deductibility": "1", "assets": 46104, "income": 6033, "revenue": 6033}, {"ein": "822795105", "name": "ANDERSEN TAX FOUNDATION", "city": "NEW YORK", "state": "NY", "zip": "10036-2714", "ntee": "T31", "ruling": "201810", "deductibility": "1", "assets": 5342744, "income": 3326791, "revenue": 1666692}, {"ein": "854320028", "name": "NY LOW INCOME TAX CLINIC INC", "city": "NEW YORK", "state": "NY", "zip": "10039-2601", "ntee": "Q30", "ruling": "202104", "deductibility": "1", "assets": 0, "income": 0, "revenue": 0}, {"ein": "861629100", "name": "SILO RIDGE COMMUNITY FOUNDATION TAX", "city": "AMENIA", "state": "NY", "zip": "12501-0000", "ntee": "P20", "ruling": "202204", "deductibility": "1", "assets": 50832, "income": 31500, "revenue": 31500}, {"ein": "862705965", "name": "COMMUNITY TAX RELIEF INC", "city": "BROOKLYN", "state": "NY", "zip": "11235-3830", "ntee": "S31", "ruling": "202111", "deductibility": "1", "assets": 0, "income": 0, "revenue": 0}, {"ein": "922278251", "name": "FREE TAX PREPARATION SERVICES INC", "city": "BROOKLYN", "state": "NY", "zip": "11208-3419", "ntee": "B02", "ruling": "202402", "deductibility": "1", "assets": 0, "income": 0, "revenue": 0}, {"ein": "934022401", "name": "PIERRE TAX PRO GROUP", "city": "LIVERPOOL", "state": "NY", "zip": "13090-0000", "ntee": "P50", "ruling": "202311", "deductibility": "1", "assets": 0, "income": 0, "revenue": 0}], "RECTAL": [{"ein": "116039069", "name": "NEW YORK SOCIETY OF COLON AND RECTAL SURGEONS INC", "city": "WESTHAMPTON", "state": "NY", "zip": "11977-1209", "ntee": "", "ruling": "196005", "deductibility": "2", "assets": 47167, "income": 38459, "revenue": 38459}], "AUSTRIAN": [{"ein": "131571395", "name": "US AUSTRIAN CHAMBER OF COMMERCE INC", "city": "NEW YORK", "state": "NY", "zip": "10174-0002", "ntee": "", "ruling": "196604", "deductibility": "2", "assets": 52475, "income": 11310, "revenue": 11310}, {"ein": "133275103", "name": "THE AMERICAN AUSTRIAN FOUNDATION", "city": "NEW YORK", "state": "NY", "zip": "10022-6116", "ntee": "", "ruling": "198504", "deductibility": "1", "assets": 10566792, "income": 4409518, "revenue": 4208213}, {"ein": "133322785", "name": "AUSTRIAN FAMILY FOUNDATION INC", "city": "NEW YORK", "state": "NY", "zip": "10016-0000", "ntee": "", "ruling": "198701", "deductibility": "1", "assets": 817, "income": 1, "revenue": 0}], "DEAMERICA": [{"ein": "131635278", "name": "HISTADRUTH HORABONIM DEAMERICA RABBINICAL COUNCIL OF AMERICA INC", "city": "NEW YORK", "state": "NY", "zip": "10001-6008", "ntee": "X99", "ruling": "201510", "deductibility": "1", "assets": 959292, "income": 763753, "revenue": 763753}], "DHARMACHAKRA": [{"ein": "132956689", "name": "KARMA TRIYANA DHARMACHAKRA INC", "city": "NEW YORK", "state": "NY", "zip": "10108-0176", "ntee": "", "ruling": "197902", "deductibility": "1", "assets": 0, "income": 0, "revenue": 0}, {"ein": "141579633", "name": "KARMA TRIYANA DHARMACHAKRA INC", "city": "WOODSTOCK", "state": "NY", "zip": "12498-1038", "ntee": "", "ruling": "197902", "deductibility": "1", "assets": 0, "income": 0, "revenue": 0}, {"ein": "222317083", "name": "KARMA TRIYANA DHARMACHAKRA INC", "city": "MENANDS", "state": "NY", "zip": "12204-2986", "ntee": "", "ruling": "197902", "deductibility": "1", "assets": 0, "income": 0, "revenue": 0}], "LDC": [{"ein": "132974137", "name": "NORTHFIELD COMMUNITY LDC OF STATEN ISLAND INC", "city": "STATEN ISLAND", "state": "NY", "zip": "10302-1403", "ntee": "L820", "ruling": "197907", "deductibility": "1", "assets": 1775528, "income": 2952875, "revenue": 2949247}, {"ein": "202424865", "name": "TOWN OF PLATTSBURGH LDC INC", "city": "PLATTSBURGH", "state": "NY", "zip": "12901-7307", "ntee": "S31", "ruling": "201410", "deductibility": "1", "assets": 0, "income": 0, "revenue": 0}, {"ein": "933677787", "name": "DOWNTOWN ITHACA LDC II INC", "city": "ITHACA", "state": "NY", "zip": "14850-5587", "ntee": "S30", "ruling": "202403", "deductibility": "1", "assets": 0, "income": 0, "revenue": 0}], "ONEIL": [{"ein": "132983403", "name": "ISABEL ONEIL FOUNDATION FOR THE ART OF THE PAINTED FINISH INC", "city": "NEW YORK", "state": "NY", "zip": "10128-5938", "ntee": "A400", "ruling": "197910", "deductibility": "1", "assets": 334619, "income": 147622, "revenue": 147622}, {"ein": "346523819", "name": "CYRIL F & MARIE E ONEIL FOUNDATION", "city": "NEW YORK", "state": "NY", "zip": "10016-0000", "ntee": "", "ruling": "196003", "deductibility": "1", "assets": 5537442, "income": 734452, "revenue": 0}], "APPLEBY": [{"ein": "133002239", "name": "APPLEBY FOUNDATION INC", "city": "AU SABLE FORKS", "state": "NY", "zip": "12912-0000", "ntee": "A62Z", "ruling": "197912", "deductibility": "1", "assets": 252896, "income": 62921, "revenue": 62921}], "TURNERS": [{"ein": "133197778", "name": "AMERICAN TURNERS NEW YORK INC", "city": "BRONX", "state": "NY", "zip": "10465-1704", "ntee": "S21", "ruling": "195807", "deductibility": "2", "assets": 625427, "income": 752741, "revenue": 712998}, {"ein": "161572097", "name": "BUFFALO TURNERS INC", "city": "KENMORE", "state": "NY", "zip": "14217-1174", "ntee": "N60", "ruling": "200008", "deductibility": "1", "assets": 557016, "income": 498571, "revenue": 498571}, {"ein": "270921554", "name": "FINGER LAKES WOOD TURNERS", "city": "SODUS", "state": "NY", "zip": "14551-1018", "ntee": "A25", "ruling": "201509", "deductibility": "1", "assets": 0, "income": 0, "revenue": 0}], "PALMS": [{"ein": "133202137", "name": "AMERICAN SOCIETY OF THE FRENCH ACADEMIC PALMS INC", "city": "NEW YORK", "state": "NY", "zip": "10025-6016", "ntee": "", "ruling": "198602", "deductibility": "1", "assets": 0, "income": 0, "revenue": 0}, {"ein": "134147362", "name": "PALMS AT PECCOLE RANCH INC", "city": "NEW YORK", "state": "NY", "zip": "10020-1104", "ntee": "", "ruling": "200108", "deductibility": "2", "assets": 0, "income": 0, "revenue": 0}, {"ein": "161760622", "name": "PALMS FOR LIFE FUND INC", "city": "BRONXVILLE", "state": "NY", "zip": "10708-2737", "ntee": "M20", "ruling": "200607", "deductibility": "1", "assets": 1416604, "income": 5772982, "revenue": 5772982}, {"ein": "814096780", "name": "DEBAJO DE LAS PALMAS UNDER THE PALMS IN DOMINICAN REPUBLIC INC", "city": "EAST HAMPTON", "state": "NY", "zip": "11937-1933", "ntee": "P40", "ruling": "201610", "deductibility": "1", "assets": 0, "income": 0, "revenue": 0}, {"ein": "823108334", "name": "PALMS UPON MY HANDS IN C", "city": "BRONX", "state": "NY", "zip": "10451-5785", "ntee": "A23", "ruling": "201809", "deductibility": "1", "assets": 0, "income": 0, "revenue": 0}, {"ein": "843739873", "name": "WALKING PALMS GLOBAL HEALTH INCORPORATED", "city": "NORTH SALEM", "state": "NY", "zip": "10560-2600", "ntee": "E70", "ruling": "202008", "deductibility": "1", "assets": 1, "income": 27226, "revenue": 27226}], "ANDREE": [{"ein": "133301202", "name": "ANDREE WILDENSTEIN DORMEUIL AND ROGER DORMEUIL FOUNDATION", "city": "ARMONK", "state": "NY", "zip": "10504-1704", "ntee": "", "ruling": "198603", "deductibility": "1", "assets": 10064643, "income": 858013, "revenue": 0}], "VIETNAMESE": [{"ein": "133388206", "name": "VIETNAMESE BUDDHIST ASSOCIATION NEW YORK", "city": "BRONX", "state": "NY", "zip": "10453-1355", "ntee": "", "ruling": "198706", "deductibility": "1", "assets": 0, "income": 0, "revenue": 0}, {"ein": "134095507", "name": "VIETNAMESE-AMERICAN RELIEF EFFORT", "city": "NEW YORK", "state": "NY", "zip": "10017-3539", "ntee": "B12", "ruling": "202411", "deductibility": "1", "assets": 0, "income": 0, "revenue": 0}, {"ein": "161537437", "name": "VIETNAMESE BUDDHIST ASSOCIATION OF ROCHESTER", "city": "ROCHESTER", "state": "NY", "zip": "14612-1133", "ntee": "X21", "ruling": "199802", "deductibility": "1", "assets": 598345, "income": 67012, "revenue": 66982}, {"ein": "464294652", "name": "VIETNAMESE BUDDHIST CONGREGATION OF NEW YORK INC", "city": "UTICA", "state": "NY", "zip": "13501-1446", "ntee": "X50", "ruling": "201503", "deductibility": "1", "assets": 0, "income": 0, "revenue": 0}, {"ein": "472533405", "name": "VIETNAMESE BUDDHIST COMMUNITY OF SYRACUSE INC", "city": "SYRACUSE", "state": "NY", "zip": "13208-2523", "ntee": "X50", "ruling": "201510", "deductibility": "1", "assets": 0, "income": 0, "revenue": 0}, {"ein": "475556093", "name": "VIETNAMESE AMERICAN CULTURAL PARADE INC - VACP", "city": "BRONX", "state": "NY", "zip": "10462-0000", "ntee": "A23", "ruling": "201604", "deductibility": "1", "assets": 36555, "income": 96317, "revenue": 96317}], "HEALED": [{"ein": "133423082", "name": "THE CHURCH OF OUR LORD AND SAVIOR JESUS CHRIST WHO HEALED THE SICK", "city": "NEW YORK", "state": "NY", "zip": "10101-0094", "ntee": "X20Z", "ruling": "199504", "deductibility": "1", "assets": 0, "income": 0, "revenue": 0}, {"ein": "311731906", "name": "HEALED BY HIS STRIPES MINISTRY", "city": "YONKERS", "state": "NY", "zip": "10704-1725", "ntee": "X212", "ruling": "200101", "deductibility": "1", "assets": 0, "income": 0, "revenue": 0}, {"ein": "922427574", "name": "BROKEN BUT YET HEALED MINISTRIES INC", "city": "NEW YORK", "state": "NY", "zip": "10022-5403", "ntee": "P20", "ruling": "202303", "deductibility": "1", "assets": 0, "income": 0, "revenue": 0}, {"ein": "991633673", "name": "HEALED AND FREE", "city": "NEW YORK", "state": "NY", "zip": "10036-7307", "ntee": "F01", "ruling": "202404", "deductibility": "1", "assets": 1, "income": 1, "revenue": 0}], "DAEDALUS": [{"ein": "133489057", "name": "DAEDALUS FOUNDATION INC", "city": "NEW YORK", "state": "NY", "zip": "10003-1526", "ntee": "G12", "ruling": "200206", "deductibility": "1", "assets": 2043867, "income": 264702, "revenue": 0}, {"ein": "133502842", "name": "DAEDALUS PRODUCTIONS INC", "city": "NEW YORK", "state": "NY", "zip": "10024-3708", "ntee": "", "ruling": "198206", "deductibility": "1", "assets": 0, "income": 0, "revenue": 0}], "SHINGLES": [{"ein": "133601316", "name": "NATIONAL SHINGLES FOUNDATION", "city": "NEW YORK", "state": "NY", "zip": "10025-7722", "ntee": "H99Z", "ruling": "199106", "deductibility": "1", "assets": 283055, "income": 187595, "revenue": 187595}], "AUXILARY": [{"ein": "133860474", "name": "CITY COLLEGE AUXILARY ENTERPRISES CORPORATION", "city": "NEW YORK", "state": "NY", "zip": "10031-9101", "ntee": "Q22", "ruling": "199605", "deductibility": "1", "assets": 1023068, "income": 666977, "revenue": 666977}, {"ein": "160774048", "name": "BROCKPORT AUXILARY SERVICE CORPORATION", "city": "BROCKPORT", "state": "NY", "zip": "14420-2997", "ntee": "", "ruling": "195308", "deductibility": "1", "assets": 19343238, "income": 15744957, "revenue": 15737039}, {"ein": "320273792", "name": "GURTLER BROTHERS VFW POST 420 MENS AUXILARY", "city": "SARATOGA SPGS", "state": "NY", "zip": "12866-8532", "ntee": "", "ruling": "197106", "deductibility": "0", "assets": 0, "income": 0, "revenue": 0}], "COUFOS": [{"ein": "133986710", "name": "JAMES & VIKI COUFOS FOUNDATION INC", "city": "NEW YORK", "state": "NY", "zip": "10006-2744", "ntee": "T20", "ruling": "199902", "deductibility": "1", "assets": 4430764, "income": 1048930, "revenue": 0}], "REINHARD": [{"ein": "134057552", "name": "KEITH AND ROSE REINHARD FAMILY FOUNDATION", "city": "NEW YORK", "state": "NY", "zip": "10019-5820", "ntee": "T20", "ruling": "199908", "deductibility": "1", "assets": 220116, "income": 150512, "revenue": 0}], "URBANE": [{"ein": "134182973", "name": "MATLAB URBANE SOCIETY INC", "city": "BRONX", "state": "NY", "zip": "10467-3007", "ntee": "T20", "ruling": "200311", "deductibility": "1", "assets": 0, "income": 0, "revenue": 0}], "ACHELIS": [{"ein": "136022018", "name": "ACHELIS AND BODMAN FOUNDATION", "city": "NEW YORK", "state": "NY", "zip": "10170-2806", "ntee": "", "ruling": "194107", "deductibility": "1", "assets": 137130810, "income": 18102993, "revenue": 0}], "ABBEY": [{"ein": "136053133", "name": "ABBEY MEMORIAL SCHOLARSHIPS UA DTD 042831 115410", "city": "NEW YORK", "state": "NY", "zip": "10013-2362", "ntee": "", "ruling": "198209", "deductibility": "0", "assets": 2683249, "income": 793324, "revenue": 0}, {"ein": "160758593", "name": "ABBEY OF THE GENESEE INC", "city": "PIFFARD", "state": "NY", "zip": "14533-9636", "ntee": "", "ruling": "194603", "deductibility": "1", "assets": 0, "income": 0, "revenue": 0}, {"ein": "222534498", "name": "ABBEY RESIDENCES INC", "city": "CANANDAIGUA", "state": "NY", "zip": "14424-9505", "ntee": "P73Z", "ruling": "198802", "deductibility": "1", "assets": 252627, "income": 118192, "revenue": 118192}, {"ein": "320416987", "name": "INCORPORATED EDWIN AUSTIN ABBEY MEMORIAL SCHOLARSHIPS FOR MURAL PA", "city": "NEW YORK", "state": "NY", "zip": "10001-5530", "ntee": "B11", "ruling": "201409", "deductibility": "1", "assets": 1770526, "income": 1403876, "revenue": 218230}, {"ein": "454735976", "name": "AMERICAN FUND FOR WESTMINSTER ABBEY", "city": "NEW YORK", "state": "NY", "zip": "10022-2600", "ntee": "A80", "ruling": "201205", "deductibility": "1", "assets": 30894, "income": 130747, "revenue": 80677}, {"ein": "471916500", "name": "BUSHWICK ABBEY", "city": "BROOKLYN", "state": "NY", "zip": "11237-0000", "ntee": "", "ruling": "197206", "deductibility": "1", "assets": 0, "income": 0, "revenue": 0}, {"ein": "813995235", "name": "ABBEY OF SAINT MARY THEOTOKOS INC", "city": "ALBANY", "state": "NY", "zip": "12203-6401", "ntee": "X99", "ruling": "201610", "deductibility": "1", "assets": 0, "income": 0, "revenue": 0}], "HATCHER": [{"ein": "136114331", "name": "LAURENTS HATCHER FOUNDATION INC", "city": "RIVERHEAD", "state": "NY", "zip": "11901-2669", "ntee": "", "ruling": "196506", "deductibility": "1", "assets": 18465476, "income": 7234538, "revenue": 0}], "CHATTERJEE": [{"ein": "137072667", "name": "CHATTERJEE CHARITABLE FOUNDATION", "city": "NEW YORK", "state": "NY", "zip": "10106-0200", "ntee": "T31J", "ruling": "199702", "deductibility": "1", "assets": 1073450, "income": 506308, "revenue": 0}], "REMY": [{"ein": "137308465", "name": "WELLES REMY CROWTHER CHARITABLE TR", "city": "UPPER NYACK", "state": "NY", "zip": "10960-1202", "ntee": "B82", "ruling": "200403", "deductibility": "1", "assets": 296760, "income": 133767, "revenue": 125288}, {"ein": "141251267", "name": "ST REMY RURAL CEMETERY ASSN INC", "city": "PORT EWEN", "state": "NY", "zip": "12466-0988", "ntee": "", "ruling": "194909", "deductibility": "1", "assets": 0, "income": 0, "revenue": 0}, {"ein": "141755936", "name": "ST REMY REFORMED CHURCH", "city": "PORT EWEN", "state": "NY", "zip": "12466-1022", "ntee": "", "ruling": "196801", "deductibility": "1", "assets": 0, "income": 0, "revenue": 0}, {"ein": "862956020", "name": "THE REMY HEALTHCARE FOUNDATION INC", "city": "NEW YORK", "state": "NY", "zip": "10001-2538", "ntee": "G01", "ruling": "202107", "deductibility": "1", "assets": 0, "income": 0, "revenue": 0}], "STAG": [{"ein": "141789574", "name": "NORTH TROY STAG ROD AND GUN CLUB INC", "city": "COHOES", "state": "NY", "zip": "12047-0272", "ntee": "", "ruling": "199607", "deductibility": "2", "assets": 820065, "income": 131503, "revenue": 104315}], "MAYVILLE": [{"ein": "160780236", "name": "MAYVILLE LIBRARY", "city": "MAYVILLE", "state": "NY", "zip": "14757-1145", "ntee": "B71Z", "ruling": "196211", "deductibility": "1", "assets": 733685, "income": 114130, "revenue": 114130}, {"ein": "161473387", "name": "MAYVILLE VOLUNTEER FIRE CO NO 1 INC", "city": "MAYVILLE", "state": "NY", "zip": "14757-0002", "ntee": "", "ruling": "199502", "deductibility": "1", "assets": 497285, "income": 61063, "revenue": 61063}, {"ein": "473220709", "name": "FAMILY CHURCH MAYVILLE INC", "city": "MAYVILLE", "state": "NY", "zip": "14757-9695", "ntee": "X20", "ruling": "201504", "deductibility": "1", "assets": 0, "income": 0, "revenue": 0}], "CORFU": [{"ein": "160784098", "name": "SAINT MAXIMILIAN KOLBE ROMAN CATHOLIC PARISH OF CORFU NY", "city": "CORFU", "state": "NY", "zip": "14036-0278", "ntee": "", "ruling": "194603", "deductibility": "1", "assets": 0, "income": 0, "revenue": 0}, {"ein": "166047785", "name": "CORFU RESCUE HOOK & LADDER CO NO 1", "city": "CORFU", "state": "NY", "zip": "14036-0418", "ntee": "M24", "ruling": "201506", "deductibility": "1", "assets": 0, "income": 0, "revenue": 0}], "BUSTI": [{"ein": "160971285", "name": "BUSTI TRAP & SKEET CLUB INC", "city": "JAMESTOWN", "state": "NY", "zip": "14701-9430", "ntee": "N61Z", "ruling": "197308", "deductibility": "2", "assets": 28067, "income": 59101, "revenue": 59101}, {"ein": "160997092", "name": "BUSTI FIRE DEPT INC", "city": "JAMESTOWN", "state": "NY", "zip": "14701-9547", "ntee": "", "ruling": "199105", "deductibility": "1", "assets": 3151097, "income": 349584, "revenue": 321506}, {"ein": "161185457", "name": "BUSTI FEDERATED CHURCH", "city": "JAMESTOWN", "state": "NY", "zip": "14701-9548", "ntee": "", "ruling": "195504", "deductibility": "1", "assets": 0, "income": 0, "revenue": 0}, {"ein": "166028733", "name": "BUSTI FEDERATED CHURCH", "city": "JAMESTOWN", "state": "NY", "zip": "14701-9548", "ntee": "", "ruling": "195504", "deductibility": "1", "assets": 0, "income": 0, "revenue": 0}, {"ein": "166057396", "name": "BUSTI CHURCH OF GOD", "city": "JAMESTOWN", "state": "NY", "zip": "14701-9506", "ntee": "", "ruling": "196007", "deductibility": "1", "assets": 0, "income": 0, "revenue": 0}, {"ein": "237448483", "name": "BUSTI HISTORICAL SOCIETY", "city": "JAMESTOWN", "state": "NY", "zip": "14701-9577", "ntee": "", "ruling": "197505", "deductibility": "1", "assets": 0, "income": 0, "revenue": 0}], "CONTRATORS": [{"ein": "161034216", "name": "CENTRAL NEW YORK SHEET METAL CONTRATORS ASSOCIATION INC", "city": "SYRACUSE", "state": "NY", "zip": "13206-1202", "ntee": "", "ruling": "197506", "deductibility": "2", "assets": 339291, "income": 100847, "revenue": 100847}], "JAMISON": [{"ein": "161142613", "name": "JAMISON ROAD VOLUNTEER FIRE COMPANY INC", "city": "ELMA", "state": "NY", "zip": "14059-9535", "ntee": "M24", "ruling": "200411", "deductibility": "1", "assets": 1605924, "income": 410736, "revenue": 380594}, {"ein": "932834719", "name": "JAMISON NOVELLOS STILL SPARKLING FOUNDATION INC", "city": "ROCKVILLE CTR", "state": "NY", "zip": "11570-4203", "ntee": "T20", "ruling": "202401", "deductibility": "1", "assets": 0, "income": 0, "revenue": 0}], "BIBLES": [{"ein": "161282296", "name": "BIBLES FOR CHILDREN INC", "city": "AFTON", "state": "NY", "zip": "13730-2188", "ntee": "X20Z", "ruling": "198712", "deductibility": "1", "assets": 0, "income": 0, "revenue": 0}, {"ein": "276694489", "name": "BIBLES FOR BIBLELESS", "city": "TAPPAN", "state": "NY", "zip": "10983-2307", "ntee": "T22", "ruling": "201102", "deductibility": "1", "assets": 182902, "income": 24545, "revenue": 24545}], "DEVELOPEMNT": [{"ein": "161292063", "name": "MILLTOWN HOUSING DEVELOPEMNT FUND COMPANY INC", "city": "EVANS MILLS", "state": "NY", "zip": "13637-3263", "ntee": "L22Z", "ruling": "198809", "deductibility": "1", "assets": 307188, "income": 249526, "revenue": 242339}], "HEARTHSIDE": [{"ein": "161411106", "name": "HEARTHSIDE CATS INC", "city": "GENESEO", "state": "NY", "zip": "14454-0282", "ntee": "D200", "ruling": "199305", "deductibility": "1", "assets": 7963, "income": 72675, "revenue": 72675}], "HANSEN": [{"ein": "161523554", "name": "FRIENDS OF TINKER NATURE PARK HANSEN NATURE CENTER", "city": "HENRIETTA", "state": "NY", "zip": "14467-0999", "ntee": "C30", "ruling": "199712", "deductibility": "1", "assets": 0, "income": 0, "revenue": 0}, {"ein": "200034006", "name": "GREGORY L HANSEN MEMORIAL SCHOLARSHIP TR", "city": "DELHI", "state": "NY", "zip": "13753-1213", "ntee": "", "ruling": "200308", "deductibility": "1", "assets": 156905, "income": 18970, "revenue": 0}, {"ein": "271093680", "name": "EMILY C AND JOHN E HANSEN INTELLECTUAL PROPERTY LAW INSTITUT", "city": "NEW YORK", "state": "NY", "zip": "10023-7407", "ntee": "B60", "ruling": "201107", "deductibility": "1", "assets": 315695, "income": 660182, "revenue": 660182}, {"ein": "392011330", "name": "HANSEN FAMILY FOUNDATION", "city": "GARDEN CITY", "state": "NY", "zip": "11530-0000", "ntee": "T22", "ruling": "200104", "deductibility": "1", "assets": 12620831, "income": 4106317, "revenue": 0}, {"ein": "810775885", "name": "K AHMAD & L HANSEN FAMILY FOUNDATION", "city": "NEW YORK", "state": "NY", "zip": "10028-7533", "ntee": "T20", "ruling": "201609", "deductibility": "1", "assets": 1142908, "income": 49008, "revenue": 0}, {"ein": "810901521", "name": "HANSEN FAMILY FOUNDATION INC", "city": "ELMIRA", "state": "NY", "zip": "14901-3401", "ntee": "T22", "ruling": "201604", "deductibility": "1", "assets": 510699, "income": 42826, "revenue": 0}], "MIRABITO": [{"ein": "161577124", "name": "THE@FREDERICK B AND RAMONA E MIRABITO FOUNDATION", "city": "NORWICH", "state": "NY", "zip": "13815-0550", "ntee": "T20", "ruling": "200001", "deductibility": "1", "assets": 15133678, "income": 4907012, "revenue": 0}, {"ein": "455511762", "name": "MIRABITO PHILANTHROPY INC", "city": "BINGHAMTON", "state": "NY", "zip": "13901-3274", "ntee": "T20", "ruling": "201210", "deductibility": "1", "assets": 37686, "income": 250870, "revenue": 0}], "RADIOLOGIC": [{"ein": "166066972", "name": "AMERICAN SOCIETY OF RADIOLOGIC TECHNOLOGISTS", "city": "ISLIP", "state": "NY", "zip": "11751-3726", "ntee": "", "ruling": "196712", "deductibility": "2", "assets": 70363, "income": 76663, "revenue": 76663}], "STALFORD": [{"ein": "166265083", "name": "ALICE M GAYLORD TRUST FBO EDWARD STALFORD", "city": "BUFFALO", "state": "NY", "zip": "14240-1504", "ntee": "T22", "ruling": "200204", "deductibility": "1", "assets": 1657387, "income": 473090, "revenue": 0}], "GHYALSUMDO": [{"ein": "201010118", "name": "GHYALSUMDO SEWA SANSTHA INC", "city": "ELMHURST", "state": "NY", "zip": "11373-1055", "ntee": "A23", "ruling": "201510", "deductibility": "1", "assets": 0, "income": 0, "revenue": 0}], "OUTSOURCE": [{"ein": "203684091", "name": "WORKFORCE OUTSOURCE SERVICES INC", "city": "NEW YORK", "state": "NY", "zip": "10115-0061", "ntee": "B90", "ruling": "200703", "deductibility": "1", "assets": 9291308, "income": 11057890, "revenue": 11057890}], "PLAYGROUP": [{"ein": "203742057", "name": "THE DOWNING STREET PLAYGROUP INC", "city": "NEW YORK", "state": "NY", "zip": "10014-4625", "ntee": "P33", "ruling": "200603", "deductibility": "1", "assets": 280623, "income": 224007, "revenue": 224007}, {"ein": "471608733", "name": "LITTLE MUNCHKINS PLAYGROUP 56 INC", "city": "BROOKLYN", "state": "NY", "zip": "11219-4617", "ntee": "B21", "ruling": "201507", "deductibility": "1", "assets": 6619856, "income": 4204366, "revenue": 4204366}, {"ein": "651313171", "name": "RED HOOK PLAYGROUP INC", "city": "BROOKLYN", "state": "NY", "zip": "11231-5310", "ntee": "P30", "ruling": "200912", "deductibility": "1", "assets": 444256, "income": 1573, "revenue": 1573}], "STOMPERS": [{"ein": "203788278", "name": "NEWFANE CIRCUIT STOMPERS INC", "city": "NEWFANE", "state": "NY", "zip": "14108-9710", "ntee": "O20", "ruling": "200605", "deductibility": "1", "assets": 0, "income": 0, "revenue": 0}, {"ein": "992242622", "name": "CANCER STOMPERS INC", "city": "LEVITTOWN", "state": "NY", "zip": "11756-5720", "ntee": "G30", "ruling": "202404", "deductibility": "1", "assets": 0, "income": 0, "revenue": 0}], "CORRELATE": [{"ein": "204664097", "name": "NEURAL CORRELATE SOCIETY", "city": "BROOKLYN", "state": "NY", "zip": "11201-4405", "ntee": "A20", "ruling": "200607", "deductibility": "1", "assets": 0, "income": 0, "revenue": 0}], "ASSOCIATIONINCORPORATED": [{"ein": "205649715", "name": "HVTC PARENTS ASSOCIATIONINCORPORATED", "city": "ELLICOTTVILLE", "state": "NY", "zip": "14731-1655", "ntee": "B94", "ruling": "200906", "deductibility": "1", "assets": 0, "income": 0, "revenue": 0}], "INSTITUE": [{"ein": "205963064", "name": "INSTITUE OF AMERICAN AND TALMUDICLAW INC", "city": "NEW YORK", "state": "NY", "zip": "10019-3407", "ntee": "B60", "ruling": "200807", "deductibility": "1", "assets": 0, "income": 0, "revenue": 0}, {"ein": "237270262", "name": "SAMUEL SCHULMAN INSTITUE FOR NURSING & REHABILITATION FUND INC", "city": "BROOKLYN", "state": "NY", "zip": "11236-1902", "ntee": "", "ruling": "197309", "deductibility": "1", "assets": 180669, "income": 0, "revenue": 0}, {"ein": "237408776", "name": "INSTITUE OF INTERNAL AUDITORS", "city": "SYRACUSE", "state": "NY", "zip": "13220-3552", "ntee": "", "ruling": "199201", "deductibility": "2", "assets": 0, "income": 0, "revenue": 0}], "MALLE": [{"ein": "206742178", "name": "CANDICE BERGEN MALLE FOUNDATION", "city": "NEW YORK", "state": "NY", "zip": "10020-0000", "ntee": "T20", "ruling": "200602", "deductibility": "1", "assets": 1015436, "income": 988043, "revenue": 0}], "SHOPPE": [{"ein": "222982009", "name": "AGAPE SHOPPE INC", "city": "CARTHAGE", "state": "NY", "zip": "13619-0000", "ntee": "Q320", "ruling": "199405", "deductibility": "1", "assets": 92083, "income": 145099, "revenue": 4124}], "FG": [{"ein": "223577769", "name": "FG FOUNDATION", "city": "WOODMERE", "state": "NY", "zip": "11598-0000", "ntee": "T20Z", "ruling": "199807", "deductibility": "1", "assets": 154007, "income": 23844, "revenue": 0}], "GURDON": [{"ein": "237027979", "name": "GURDON W WATTLES FUND", "city": "GARDEN CITY", "state": "NY", "zip": "11530-0000", "ntee": "", "ruling": "196906", "deductibility": "1", "assets": 647905, "income": 306709, "revenue": 0}], "CHAYAI": [{"ein": "237172139", "name": "YESHIVA CHAYAI OLOM", "city": "FLUSHING", "state": "NY", "zip": "11367-1927", "ntee": "", "ruling": "197203", "deductibility": "1", "assets": 0, "income": 0, "revenue": 0}], "HAYALMUD": [{"ein": "237339659", "name": "SYNAGOGUE OF BAIS HAYALMUD HAIGODOL", "city": "BROOKLYN", "state": "NY", "zip": "11204-1252", "ntee": "", "ruling": "197401", "deductibility": "1", "assets": 0, "income": 0, "revenue": 0}], "RASHBI": [{"ein": "237365660", "name": "AMERICAN FOUNDATION FOR YESHIVATH RASHBI", "city": "BROOKLYN", "state": "NY", "zip": "11219-3009", "ntee": "B25I", "ruling": "197404", "deductibility": "1", "assets": 128406, "income": 1371452, "revenue": 1371452}, {"ein": "262638331", "name": "AISHEL RASHBI", "city": "BROOKLYN", "state": "NY", "zip": "11218-4414", "ntee": "T20", "ruling": "200811", "deductibility": "1", "assets": 1781849, "income": 777588, "revenue": 777588}, {"ein": "333469278", "name": "ZECHUS RASHBI INC", "city": "BROOKLYN", "state": "NY", "zip": "11230-5493", "ntee": "X30", "ruling": "202505", "deductibility": "1", "assets": 0, "income": 0, "revenue": 0}, {"ein": "455490144", "name": "VAAD HATZOLOS TZION RASHBI INC", "city": "BROOKLYN", "state": "NY", "zip": "11201-1076", "ntee": "X30", "ruling": "201403", "deductibility": "1", "assets": 0, "income": 0, "revenue": 0}, {"ein": "850693358", "name": "CHABAD LUBAVITCH OF RASHBI MERON INC", "city": "BROOKLYN", "state": "NY", "zip": "11213-3512", "ntee": "X30", "ruling": "202202", "deductibility": "1", "assets": 0, "income": 0, "revenue": 0}], "KAGENO": [{"ein": "251910983", "name": "KAGENO WORLDWIDE INC", "city": "NEW YORK", "state": "NY", "zip": "10007-2307", "ntee": "Q30", "ruling": "200511", "deductibility": "1", "assets": 420735, "income": 728687, "revenue": 628636}], "EDUCARE": [{"ein": "261537523", "name": "BRIENZAS EDUCARE INC", "city": "BROOKLYN", "state": "NY", "zip": "11236-2842", "ntee": "B90", "ruling": "200807", "deductibility": "1", "assets": 105666, "income": 576965, "revenue": 576965}], "OCZY": [{"ein": "263378417", "name": "THE WIELKIE OCZY FOUNDATION INC", "city": "WHITE PLAINS", "state": "NY", "zip": "10607-1363", "ntee": "A80", "ruling": "200906", "deductibility": "1", "assets": 0, "income": 0, "revenue": 0}], "BTEL": [{"ein": "272779630", "name": "AMERICAN FRIENDS FO HAAM HAYEHUDI BTEL AVIV INC", "city": "NEW ROCHELLE", "state": "NY", "zip": "10804-0039", "ntee": "T20", "ruling": "201003", "deductibility": "1", "assets": 14798, "income": 236187, "revenue": 236187}], "VACHESED": [{"ein": "272985726", "name": "TOV VACHESED INC", "city": "NEW YORK", "state": "NY", "zip": "10001-3306", "ntee": "Q123", "ruling": "201107", "deductibility": "1", "assets": 154397, "income": 383432, "revenue": 383432}, {"ein": "273136028", "name": "CONGREGATION CHAIM VACHESED", "city": "BROOKLYN", "state": "NY", "zip": "11225-3131", "ntee": "X30", "ruling": "201308", "deductibility": "1", "assets": 0, "income": 0, "revenue": 0}, {"ein": "871915883", "name": "AHAVAT HAYIM VACHESED", "city": "BROOKLYN", "state": "NY", "zip": "11229-4106", "ntee": "X30", "ruling": "202111", "deductibility": "1", "assets": 0, "income": 0, "revenue": 0}, {"ein": "881277739", "name": "TOV VACHESED ORGANIZATION INC", "city": "GREAT NECK", "state": "NY", "zip": "11024-1939", "ntee": "T30", "ruling": "202307", "deductibility": "1", "assets": 0, "income": 0, "revenue": 0}, {"ein": "922219652", "name": "AMERICAN FRIENDS OF MAMLECHET TORAH VACHESED ABIR YAKOV TZFAT INC", "city": "ALBANY", "state": "NY", "zip": "12207-1717", "ntee": "B19", "ruling": "202306", "deductibility": "1", "assets": 20260, "income": 100970, "revenue": 100970}], "LSMA": [{"ein": "275363310", "name": "LSMA FOUNDATION INC", "city": "OCEANSIDE", "state": "NY", "zip": "11572-1396", "ntee": "O50", "ruling": "201110", "deductibility": "1", "assets": 14692, "income": 71095, "revenue": 71095}], "LIGHTWORK": [{"ein": "333378244", "name": "LIGHTWORK SPORTS & CREATIVE ARTS INSTITUTE INC", "city": "NEW YORK", "state": "NY", "zip": "10002-4747", "ntee": "O50", "ruling": "202502", "deductibility": "1", "assets": 0, "income": 0, "revenue": 0}], "BEGUEDO": [{"ein": "333735746", "name": "ASSOCIATION DES RESSORTISSANTS DE BEGUEDO EN AMERIQUE INC", "city": "BRONX", "state": "NY", "zip": "10453-3100", "ntee": "Q23", "ruling": "202505", "deductibility": "1", "assets": 0, "income": 0, "revenue": 0}], "SURMOUNT": [{"ein": "333925148", "name": "SURMOUNT NEW YORK INC", "city": "POUGHKEEPSIE", "state": "NY", "zip": "12601-4311", "ntee": "P20", "ruling": "202506", "deductibility": "1", "assets": 0, "income": 0, "revenue": 0}], "LADINO": [{"ein": "372098606", "name": "AMERICAN LADINO LEAGUE INC", "city": "ALBANY", "state": "NY", "zip": "12207-2922", "ntee": "A99", "ruling": "202308", "deductibility": "1", "assets": 0, "income": 0, "revenue": 0}], "BOSNIAK": [{"ein": "383877934", "name": "BOSNIAK YOUTH OF NEW YORK INC", "city": "JACKSON HEIGHTS", "state": "NY", "zip": "11372-2741", "ntee": "O50", "ruling": "201612", "deductibility": "1", "assets": 0, "income": 0, "revenue": 0}, {"ein": "820781430", "name": "BOSNIAK-AMERICAN NATIONAL ASSOCIATION INC", "city": "ASTORIA", "state": "NY", "zip": "11103-0545", "ntee": "A23", "ruling": "201704", "deductibility": "1", "assets": 0, "income": 0, "revenue": 0}, {"ein": "900728416", "name": "ALL BOSNIAK-AMERICAN SOCIETY", "city": "BROOKLYN", "state": "NY", "zip": "11204-6353", "ntee": "O50", "ruling": "202204", "deductibility": "1", "assets": 1308, "income": 24335, "revenue": 24335}], "WOLBOROSH": [{"ein": "453117647", "name": "YAD BECHESED WOLBOROSH INC", "city": "BROOKLYN", "state": "NY", "zip": "11204-1395", "ntee": "X30", "ruling": "201507", "deductibility": "1", "assets": 3175, "income": 125889, "revenue": 125889}], "GOLDREYER": [{"ein": "454213262", "name": "GOLDREYER FAMILY FOUNDATION", "city": "BROOKLYN", "state": "NY", "zip": "11232-1406", "ntee": "T23", "ruling": "201301", "deductibility": "1", "assets": 11659401, "income": 50276, "revenue": 0}], "ARTEST": [{"ein": "454253451", "name": "ARTEST FOUNDATION", "city": "NEW YORK", "state": "NY", "zip": "10044-0012", "ntee": "E12", "ruling": "201510", "deductibility": "1", "assets": 0, "income": 0, "revenue": 0}], "JAYNE": [{"ein": "455006973", "name": "MARY JAYNE CASILLO FOUNDATION FOR CANCER RESEARCH AND AWARENESS INC", "city": "HUNTINGTON", "state": "NY", "zip": "11743-4445", "ntee": "T30", "ruling": "201304", "deductibility": "1", "assets": 0, "income": 0, "revenue": 0}, {"ein": "813784667", "name": "SARAH JAYNE ORTON PAWS FOR A CAUSE INC", "city": "CANDOR", "state": "NY", "zip": "13743-0613", "ntee": "D20", "ruling": "201705", "deductibility": "1", "assets": 0, "income": 0, "revenue": 0}, {"ein": "922562966", "name": "LOLA JAYNE FOUNDATION", "city": "SEAFORD", "state": "NY", "zip": "11783-2254", "ntee": "T30", "ruling": "202303", "deductibility": "1", "assets": 101011, "income": 139454, "revenue": 102755}], "VAUXHALL": [{"ein": "455398253", "name": "VAUXHALL PAST STUDENTS ASSOCIATION NY CHAPTER INC", "city": "BROOKLYN", "state": "NY", "zip": "11226-0000", "ntee": "B82", "ruling": "201407", "deductibility": "1", "assets": 0, "income": 0, "revenue": 0}], "WIOX": [{"ein": "461344513", "name": "WIOX", "city": "ROXBURY", "state": "NY", "zip": "12474-0000", "ntee": "A34", "ruling": "201811", "deductibility": "1", "assets": 170662, "income": 175456, "revenue": 175456}], "KLOWN": [{"ein": "464484239", "name": "KLOWN KLUB", "city": "BLAUVELT", "state": "NY", "zip": "10913-1214", "ntee": "P30", "ruling": "201408", "deductibility": "1", "assets": 0, "income": 0, "revenue": 0}], "MAVERICKS": [{"ein": "464792435", "name": "METRO MAVERICKS CORPORATION", "city": "SOUTHAMPTON", "state": "NY", "zip": "11968-5535", "ntee": "N62", "ruling": "201503", "deductibility": "1", "assets": 947, "income": 0, "revenue": 0}, {"ein": "862887833", "name": "UNITED MAVERICKS FOUNDATION INC", "city": "NEW HYDE PARK", "state": "NY", "zip": "11040-4742", "ntee": "S80", "ruling": "202502", "deductibility": "1", "assets": 0, "income": 0, "revenue": 0}, {"ein": "922800310", "name": "ORANGETOWN MAVERICKS YOUTH FOOTBALL INC", "city": "TAPPAN", "state": "NY", "zip": "10983-2601", "ntee": "N65", "ruling": "202409", "deductibility": "1", "assets": 0, "income": 0, "revenue": 0}], "SOHARMONIUMS": [{"ein": "471857828", "name": "SOHARMONIUMS INCORPORATED", "city": "NEW YORK", "state": "NY", "zip": "10023-6610", "ntee": "A6B", "ruling": "201504", "deductibility": "1", "assets": 24284, "income": 67559, "revenue": 67559}], "VVS": [{"ein": "472011560", "name": "VVS YOUTH SOFTBALL INC", "city": "SHERRILL", "state": "NY", "zip": "13461-0012", "ntee": "N60", "ruling": "202003", "deductibility": "1", "assets": 0, "income": 0, "revenue": 0}, {"ein": "853927863", "name": "VVS PERFORMING ARTS BOOSTERS", "city": "VERONA", "state": "NY", "zip": "13478-2913", "ntee": "A6E", "ruling": "202503", "deductibility": "1", "assets": 0, "income": 0, "revenue": 0}], "ADEBA": [{"ein": "472818055", "name": "IVOIRE ADEBA INC", "city": "NEW YORK", "state": "NY", "zip": "10029-0244", "ntee": "A23", "ruling": "201702", "deductibility": "1", "assets": 8833, "income": 7227, "revenue": 7227}], "CHABIRES": [{"ein": "474968627", "name": "CONG CHABIRES VYOEL MOSHE INC", "city": "MONROE", "state": "NY", "zip": "10950-6454", "ntee": "X30", "ruling": "201601", "deductibility": "1", "assets": 0, "income": 0, "revenue": 0}, {"ein": "882383503", "name": "CONG CHABIRES AVREICHIM", "city": "BROOKLYN", "state": "NY", "zip": "11211-8919", "ntee": "X30", "ruling": "202210", "deductibility": "1", "assets": 0, "income": 0, "revenue": 0}], "QUEENSRAIL": [{"ein": "475388098", "name": "QUEENSRAIL CORPORATION", "city": "BELLE HARBOR", "state": "NY", "zip": "11694-1729", "ntee": "S01", "ruling": "201702", "deductibility": "1", "assets": 0, "income": 0, "revenue": 0}], "GRANCEY": [{"ein": "510556361", "name": "SR MARIE DE MANDAT GRANCEY FOUNDATION", "city": "COLD SPG HBR", "state": "NY", "zip": "11724-1013", "ntee": "X99", "ruling": "200711", "deductibility": "1", "assets": 83353, "income": 2113, "revenue": 2113}], "ARTSLAB": [{"ein": "550789610", "name": "ARTSLAB", "city": "WOODSIDE", "state": "NY", "zip": "11377-0000", "ntee": "B60", "ruling": "200305", "deductibility": "1", "assets": 0, "income": 0, "revenue": 0}], "FAILS": [{"ein": "760795808", "name": "JESUS NEVER FAILS CHURCH OF GOD INC", "city": "BROOKLYN", "state": "NY", "zip": "11215-3118", "ntee": "X213", "ruling": "200601", "deductibility": "1", "assets": 0, "income": 0, "revenue": 0}], "MLB": [{"ein": "811328663", "name": "MLB-MLBPA YOUTH DEVELOPMENT FOUNDATION", "city": "NEW YORK", "state": "NY", "zip": "10020-1300", "ntee": "N63", "ruling": "201706", "deductibility": "1", "assets": 13113054, "income": 6670371, "revenue": 0}, {"ein": "830344507", "name": "MLB AFFILIATES INC", "city": "LONGBEACH", "state": "NY", "zip": "11561-3244", "ntee": "", "ruling": "198904", "deductibility": "1", "assets": 0, "income": 0, "revenue": 0}], "CULIKID": [{"ein": "812664500", "name": "CULIKID INC", "city": "NEW YORK", "state": "NY", "zip": "10001-7604", "ntee": "P80", "ruling": "201708", "deductibility": "1", "assets": 11353, "income": 119452, "revenue": 119452}], "AMBULANTE": [{"ein": "812765654", "name": "RADIO AMBULANTE STUDIOS INC", "city": "NEW YORK", "state": "NY", "zip": "10025-9718", "ntee": "A34", "ruling": "201805", "deductibility": "1", "assets": 137566, "income": 1800974, "revenue": 1799404}], "INTACT": [{"ein": "812887457", "name": "INTACT AMERICA INC", "city": "TARRYTOWN", "state": "NY", "zip": "10591-5485", "ntee": "E01", "ruling": "202012", "deductibility": "1", "assets": 2063026, "income": 875084, "revenue": 875084}], "LOVELY": [{"ein": "814591344", "name": "LOVELY HILL BAPTIST CHURCH", "city": "BROOKLYN", "state": "NY", "zip": "11221-1316", "ntee": "X20", "ruling": "201307", "deductibility": "1", "assets": 0, "income": 0, "revenue": 0}, {"ein": "882464153", "name": "A LOVELY TIME", "city": "SYRACUSE", "state": "NY", "zip": "13204-2809", "ntee": "A99", "ruling": "202306", "deductibility": "1", "assets": 0, "income": 0, "revenue": 0}], "LILLIS": [{"ein": "814663562", "name": "PEGGY LILLIS FOUNDATION", "city": "BROOKLYN", "state": "NY", "zip": "11215-3922", "ntee": "E70", "ruling": "201705", "deductibility": "1", "assets": 38141, "income": 460473, "revenue": 415804}], "CALMING": [{"ein": "821075476", "name": "CALMING NATURE DOULA CENTER INC", "city": "BUFFALO", "state": "NY", "zip": "14213-1607", "ntee": "E86", "ruling": "202305", "deductibility": "1", "assets": 0, "income": 0, "revenue": 0}], "CVR": [{"ein": "821705182", "name": "SYRACUSE CVR LIONS CLUB", "city": "LAFAYETTE", "state": "NY", "zip": "13084-0362", "ntee": "", "ruling": "202104", "deductibility": "2", "assets": 0, "income": 0, "revenue": 0}], "SITA": [{"ein": "822892410", "name": "SITA FOUNDATION INC", "city": "NEW YORK", "state": "NY", "zip": "10006-2900", "ntee": "P20", "ruling": "201806", "deductibility": "1", "assets": 27169, "income": 29599, "revenue": 29599}], "BLEUS": [{"ein": "823675131", "name": "BLEUS K9 RESCUE", "city": "MAYBROOK", "state": "NY", "zip": "12543-0322", "ntee": "D20", "ruling": "201801", "deductibility": "1", "assets": 91969, "income": 99816, "revenue": 82419}], "CNFH": [{"ein": "823706201", "name": "CNFH FOUNDATION", "city": "BROOKLYN", "state": "NY", "zip": "11249-5964", "ntee": "T22", "ruling": "201904", "deductibility": "1", "assets": 806364, "income": 152750, "revenue": 0}], "HITTERS": [{"ein": "823993263", "name": "HITTERS BOXING ACADEMY", "city": "ALBANY", "state": "NY", "zip": "12203-1310", "ntee": "O50", "ruling": "201802", "deductibility": "1", "assets": 0, "income": 0, "revenue": 0}, {"ein": "832001541", "name": "HEAVY HITTERS FOUNDATION INC", "city": "LAKE SUCCCESS", "state": "NY", "zip": "11042-1007", "ntee": "P12", "ruling": "201810", "deductibility": "1", "assets": 1955, "income": 36159, "revenue": 36159}, {"ein": "991294986", "name": "PINCH HITTERS USA INC", "city": "HUNTINGTN STA", "state": "NY", "zip": "11746-0072", "ntee": "N63", "ruling": "202407", "deductibility": "1", "assets": 0, "income": 0, "revenue": 0}], "LOUISA": [{"ein": "825190658", "name": "NATHANIEL AND LOUISA GUADELOUPE FOUNDATION", "city": "BROOKLYN", "state": "NY", "zip": "11206-6409", "ntee": "W12", "ruling": "201804", "deductibility": "1", "assets": 1, "income": 0, "revenue": 0}], "DAUKSZA": [{"ein": "825287236", "name": "STEVEN W DAUKSZA MEMORIAL SCHOLARSHIP FUND", "city": "NEW CITY", "state": "NY", "zip": "10956-6816", "ntee": "B82", "ruling": "201905", "deductibility": "1", "assets": 39855, "income": 15969, "revenue": 15969}], "DWELLINGS": [{"ein": "831257608", "name": "DELLAVALE FARM DWELLINGS INC", "city": "PATTERSONVLE", "state": "NY", "zip": "12137-4331", "ntee": "B90", "ruling": "201807", "deductibility": "1", "assets": 0, "income": 0, "revenue": 0}], "KAYLEE": [{"ein": "832013508", "name": "KAYLEE KEUMSOON LEE SCHOLARSHIP FOUNDATION INC", "city": "NEW YORK", "state": "NY", "zip": "10019-6698", "ntee": "T20", "ruling": "201908", "deductibility": "1", "assets": 490865, "income": 19302, "revenue": 0}], "PUP": [{"ein": "832810354", "name": "PUP PALS INC", "city": "NEW YORK", "state": "NY", "zip": "10036-3988", "ntee": "D20", "ruling": "201906", "deductibility": "1", "assets": 0, "income": 0, "revenue": 0}, {"ein": "872419215", "name": "ABBY THE PUP INC", "city": "FOREST HILLS", "state": "NY", "zip": "11375-5501", "ntee": "B99", "ruling": "202112", "deductibility": "1", "assets": 0, "income": 0, "revenue": 0}, {"ein": "881014800", "name": "PUP RELIEF TOUR INC", "city": "NEW YORK", "state": "NY", "zip": "10031-4002", "ntee": "D99", "ruling": "202507", "deductibility": "1", "assets": 0, "income": 0, "revenue": 0}], "KOPELION": [{"ein": "833629425", "name": "KOPELION INC", "city": "NEW YORK", "state": "NY", "zip": "10004-2306", "ntee": "D30", "ruling": "202002", "deductibility": "1", "assets": 220495, "income": 466892, "revenue": 466892}], "RCYOUNG": [{"ein": "834211766", "name": "RCYOUNG ADULT MINYAN INC", "city": "NEW YORK", "state": "NY", "zip": "10018-9761", "ntee": "X30", "ruling": "202002", "deductibility": "1", "assets": 0, "income": 0, "revenue": 0}], "SHELI": [{"ein": "842608287", "name": "MISHNAH SHELI INC", "city": "BROOKLYN", "state": "NY", "zip": "11219-3011", "ntee": "X30", "ruling": "202006", "deductibility": "1", "assets": 0, "income": 0, "revenue": 0}], "LEACH": [{"ein": "843784508", "name": "ROBIN D LEACH FOUNDATION INC", "city": "WHITE PLAINS", "state": "NY", "zip": "10603-2414", "ntee": "", "ruling": "201911", "deductibility": "1", "assets": 1, "income": 1, "revenue": 0}], "SUNFLOWER": [{"ein": "850725542", "name": "SUNFLOWER COMMUNITY INC", "city": "FLORAL PARK", "state": "NY", "zip": "11001-2816", "ntee": "Q33", "ruling": "202105", "deductibility": "1", "assets": 3707, "income": 45750, "revenue": 45750}, {"ein": "871621321", "name": "SUNFLOWER SHUL", "city": "BROOKLYN", "state": "NY", "zip": "11249-7874", "ntee": "X30", "ruling": "202202", "deductibility": "1", "assets": 0, "income": 0, "revenue": 0}, {"ein": "881930874", "name": "SUNFLOWER NETWORK", "city": "NEW YORK", "state": "NY", "zip": "10014-7222", "ntee": "M20", "ruling": "202206", "deductibility": "1", "assets": 340234, "income": 2025666, "revenue": 2025666}, {"ein": "882439686", "name": "SUNFLOWER FUND", "city": "STILLWATER", "state": "NY", "zip": "12170-1409", "ntee": "P12", "ruling": "202206", "deductibility": "1", "assets": 6401, "income": 29829, "revenue": 29829}, {"ein": "923635636", "name": "ANNAS SUNFLOWER WARRIOR INC", "city": "ILION", "state": "NY", "zip": "13357-2222", "ntee": "E86", "ruling": "202306", "deductibility": "1", "assets": 0, "income": 0, "revenue": 0}, {"ein": "993159228", "name": "SUNFLOWER OF WESTCHESTER", "city": "VALHALLA", "state": "NY", "zip": "10595-1709", "ntee": "P30", "ruling": "202406", "deductibility": "1", "assets": 826, "income": 2530, "revenue": 2530}], "GRUSKIN": [{"ein": "852476281", "name": "ELI GRUSKIN FOUNDATION INC", "city": "STATEN ISLAND", "state": "NY", "zip": "10314-5060", "ntee": "P20", "ruling": "202104", "deductibility": "1", "assets": 42458, "income": 8312, "revenue": 8312}], "AJALON": [{"ein": "852956599", "name": "AJALON INTL CHARITY ORGANIZATION", "city": "SAINT ALBANS", "state": "NY", "zip": "11412-3039", "ntee": "B82", "ruling": "202112", "deductibility": "1", "assets": 0, "income": 0, "revenue": 0}], "CMT4B3": [{"ein": "853259676", "name": "HUNTERS CMT4B3 RESEARCH FOUNDATION INC", "city": "SCARSDALE", "state": "NY", "zip": "10583-2107", "ntee": "H12", "ruling": "202103", "deductibility": "1", "assets": 1099881, "income": 593393, "revenue": 500835}], "MORDCHEI": [{"ein": "854264578", "name": "MAMAR MORDCHEI", "city": "BROOKLYN", "state": "NY", "zip": "11211-6753", "ntee": "X30", "ruling": "202108", "deductibility": "1", "assets": 0, "income": 0, "revenue": 0}], "EMPOWERINGSCIENCE": [{"ein": "863311833", "name": "EMPOWERINGSCIENCE INC", "city": "ARMONK", "state": "NY", "zip": "10504-1935", "ntee": "U20", "ruling": "202108", "deductibility": "1", "assets": 0, "income": 0, "revenue": 0}], "SARAFIAN": [{"ein": "866446260", "name": "SARAFIAN CHARITABLE FUND", "city": "NEW YORK", "state": "NY", "zip": "10023-8115", "ntee": "T22", "ruling": "202207", "deductibility": "1", "assets": 234812, "income": 86961, "revenue": 0}], "MUSIMSA": [{"ein": "871606021", "name": "MUSIMSA TEMPLE", "city": "LITTLE NECK", "state": "NY", "zip": "11362-1475", "ntee": "X50", "ruling": "202211", "deductibility": "1", "assets": 0, "income": 0, "revenue": 0}], "PAGEANTRY": [{"ein": "872623133", "name": "EAGLE WINGS PAGEANTRY", "city": "VICTOR", "state": "NY", "zip": "14564-9469", "ntee": "B82", "ruling": "202112", "deductibility": "1", "assets": 0, "income": 0, "revenue": 0}], "MIKEY": [{"ein": "872707206", "name": "MIKEY GS EMBRACING WINGS FOUNDATION", "city": "MERRICK", "state": "NY", "zip": "11566-3710", "ntee": "T30", "ruling": "202204", "deductibility": "1", "assets": 15883, "income": 13927, "revenue": 13927}, {"ein": "922467116", "name": "MIKEY PIPES PHILANTHROPY INC", "city": "W HEMPSTEAD", "state": "NY", "zip": "11552-2816", "ntee": "L81", "ruling": "202303", "deductibility": "1", "assets": 0, "income": 0, "revenue": 0}], "32ND": [{"ein": "873675900", "name": "32ND PCT COMMUNITY COUNCIL", "city": "NEW YORK", "state": "NY", "zip": "10037-2504", "ntee": "M60", "ruling": "202506", "deductibility": "1", "assets": 0, "income": 0, "revenue": 0}], "GEN12": [{"ein": "873930791", "name": "GEN12 2 FOUNDATION INC", "city": "NEW YORK", "state": "NY", "zip": "10003-3146", "ntee": "T20", "ruling": "202208", "deductibility": "1", "assets": 2596984, "income": 1710814, "revenue": 0}], "XIT": [{"ein": "873949902", "name": "XIT YOUTH PROGRAM", "city": "KINGSTON", "state": "NY", "zip": "12401-2518", "ntee": "O50", "ruling": "202202", "deductibility": "1", "assets": 0, "income": 0, "revenue": 0}], "CONTRIBUTE": [{"ein": "880830455", "name": "CONTRIBUTE STOCK CHARITABLE INC", "city": "BROOKLYN", "state": "NY", "zip": "11225-4337", "ntee": "P12", "ruling": "202211", "deductibility": "1", "assets": 0, "income": 0, "revenue": 0}], "DENICOLA": [{"ein": "881278542", "name": "DENICOLA CHARITABLE FOUNDATION INC", "city": "STATEN ISLAND", "state": "NY", "zip": "10308-1881", "ntee": "", "ruling": "202205", "deductibility": "1", "assets": 315910, "income": 175000, "revenue": 0}], "FIT4LIFE": [{"ein": "882121039", "name": "FIT4LIFE INC", "city": "BUFFALO", "state": "NY", "zip": "14220-1934", "ntee": "N60", "ruling": "202303", "deductibility": "1", "assets": 0, "income": 0, "revenue": 0}], "ROMEMUT": [{"ein": "883023115", "name": "ROMEMUT HAADAM INC", "city": "BROOKLYN", "state": "NY", "zip": "11230-6610", "ntee": "P20", "ruling": "202301", "deductibility": "1", "assets": 0, "income": 0, "revenue": 0}], "NRG": [{"ein": "920920994", "name": "NRG TRACK CLUB", "city": "BRONX", "state": "NY", "zip": "10467-5104", "ntee": "N60", "ruling": "202410", "deductibility": "1", "assets": 0, "income": 0, "revenue": 0}], "METAPHORS": [{"ein": "921110945", "name": "CHANGING METAPHORS INC", "city": "GERMANTOWN", "state": "NY", "zip": "12526-5825", "ntee": "X80", "ruling": "202212", "deductibility": "1", "assets": 0, "income": 0, "revenue": 0}], "FINANC": [{"ein": "923413540", "name": "PLANET FINANC", "city": "CENTRAL ISLIP", "state": "NY", "zip": "11722-6000", "ntee": "S31", "ruling": "202305", "deductibility": "1", "assets": 0, "income": 0, "revenue": 0}], "GUTTIERI": [{"ein": "923897485", "name": "CHEF ADRIENNE GUTTIERI CULINARY FOUNDATION", "city": "FAR ROCKAWAY", "state": "NY", "zip": "11693-0000", "ntee": "K01", "ruling": "202307", "deductibility": "1", "assets": 0, "income": 0, "revenue": 0}], "CYO": [{"ein": "932288178", "name": "MENANDS CYO BASKETBALL", "city": "MENANDS", "state": "NY", "zip": "12204-2723", "ntee": "N62", "ruling": "202308", "deductibility": "1", "assets": 0, "income": 0, "revenue": 0}], "ARCHITECHTURE": [{"ein": "933646770", "name": "ARCHITECHTURE REVIEW COLLECTIVE INC", "city": "NEW YORK", "state": "NY", "zip": "10113-9615", "ntee": "A30", "ruling": "202410", "deductibility": "1", "assets": 0, "income": 0, "revenue": 0}], "CARDIOLOGISTS": [{"ein": "954074890", "name": "AMERICAN ASSOCIATION OF CARDIOLOGISTS OF INDIAN ORIGIN", "city": "BAYSIDE", "state": "NY", "zip": "11360-2620", "ntee": "H03", "ruling": "199905", "deductibility": "1", "assets": 441066, "income": 61599, "revenue": 61599}], "BIZ": [{"ein": "994190565", "name": "HANDLE BIZ HAVE FUN INC", "city": "LANCASTER", "state": "NY", "zip": "14086-2383", "ntee": "O50", "ruling": "202408", "deductibility": "1", "assets": 0, "income": 0, "revenue": 0}]}