{"JANIE": [{"ein": "010573144", "name": "JANIE BRENDEL & FRIENDS INC", "city": "NEW YORK CITY", "state": "NY", "zip": "10009-6143", "ntee": "A65", "ruling": "200208", "deductibility": "1", "assets": 0, "income": 0, "revenue": 0}, {"ein": "863974306", "name": "JANIE LOU MAKINS AND VIRGINIA BARNES SCHOLARSHIP FOUNDATION", "city": "BALDWIN", "state": "NY", "zip": "11510-4521", "ntee": "B82", "ruling": "202203", "deductibility": "1", "assets": 0, "income": 0, "revenue": 0}], "ASHNER": [{"ein": "010772925", "name": "ASHNER FAMILY EVERGREEN FOUNDATION", "city": "JERICHO", "state": "NY", "zip": "11753-1681", "ntee": "T90", "ruling": "200304", "deductibility": "1", "assets": 2113687, "income": 2610426, "revenue": 0}], "FAYTON": [{"ein": "020743314", "name": "MOTHER ROSE FAYTON ROBINSON FOUNDATION INC", "city": "JAMAICA", "state": "NY", "zip": "11435-5717", "ntee": "P810", "ruling": "200607", "deductibility": "1", "assets": 0, "income": 0, "revenue": 0}], "COASTAL": [{"ein": "020757008", "name": "COASTAL STEWARD INC", "city": "PORT JEFF STA", "state": "NY", "zip": "11776-5003", "ntee": "C200", "ruling": "200706", "deductibility": "1", "assets": 8637, "income": 46629, "revenue": 46629}, {"ein": "113354970", "name": "COASTAL RESEARCH AND EDUCATION SOCIETY OF LONG ISLAND INC", "city": "WEST SAYVILLE", "state": "NY", "zip": "11796-0054", "ntee": "U21", "ruling": "199704", "deductibility": "1", "assets": 0, "income": 0, "revenue": 0}, {"ein": "474917503", "name": "COASTAL RESERVE CORP", "city": "RIVERHEAD", "state": "NY", "zip": "11901-3868", "ntee": "C32", "ruling": "201510", "deductibility": "1", "assets": 0, "income": 0, "revenue": 0}, {"ein": "510544114", "name": "COASTAL PRESERVATION NETWORK", "city": "LITTLE NECK", "state": "NY", "zip": "11363-0098", "ntee": "C50", "ruling": "200606", "deductibility": "1", "assets": 0, "income": 0, "revenue": 0}, {"ein": "921296495", "name": "COASTAL COUSINS HERITAGE GARDENS INC", "city": "YONKERS", "state": "NY", "zip": "10703-0000", "ntee": "S20", "ruling": "202301", "deductibility": "1", "assets": 0, "income": 0, "revenue": 0}, {"ein": "942939433", "name": "COASTAL ZONE FOUNDATION", "city": "W HAMPTON BCH", "state": "NY", "zip": "11978-7212", "ntee": "", "ruling": "198504", "deductibility": "1", "assets": 0, "income": 0, "revenue": 0}], "MITU": [{"ein": "030539644", "name": "THEATER MITU INC", "city": "BROOKLYN", "state": "NY", "zip": "11217-3019", "ntee": "A65", "ruling": "200410", "deductibility": "1", "assets": 495753, "income": 229906, "revenue": 229906}], "LUDLOW": [{"ein": "036032482", "name": "FRANK W AGAN TRUST FBO LUDLOW VT", "city": "BUFFALO", "state": "NY", "zip": "14240-1504", "ntee": "T20", "ruling": "201905", "deductibility": "1", "assets": 249755, "income": 70814, "revenue": 0}, {"ein": "036032483", "name": "FRANK W AGAN TR FBO LUDLOW PATIENTS RRMC", "city": "BUFFALO", "state": "NY", "zip": "14240-1504", "ntee": "T20", "ruling": "201902", "deductibility": "1", "assets": 208167, "income": 57334, "revenue": 0}, {"ein": "112571326", "name": "LAKE LUDLOW CLUB INC", "city": "OXFORD", "state": "NY", "zip": "13830-3417", "ntee": "", "ruling": "198109", "deductibility": "2", "assets": 0, "income": 0, "revenue": 0}, {"ein": "133637357", "name": "142 LUDLOW STREET HOUSING DEVELOPMENT FUND COMPANY INC", "city": "NEW YORK", "state": "NY", "zip": "10002-4800", "ntee": "", "ruling": "199310", "deductibility": "1", "assets": 196023, "income": 96293, "revenue": 96293}, {"ein": "471200538", "name": "LUDLOW COMMONS HOUSING DEVELOPMENT FUND CORPORATION", "city": "YONKERS", "state": "NY", "zip": "10701-2743", "ntee": "L22", "ruling": "201409", "deductibility": "1", "assets": 0, "income": 0, "revenue": 0}], "HORSEMANSHIP": [{"ein": "043667861", "name": "FROM THE GROUND UP THERAPEUTIC HORSEMANSHIP INC", "city": "TULLY", "state": "NY", "zip": "13159-9435", "ntee": "F60", "ruling": "200304", "deductibility": "1", "assets": 289050, "income": 57291, "revenue": 57291}, {"ein": "141822456", "name": "CRICKET HILL ACADEMY FOR HORSEMANSHIP INC", "city": "ANCRAMDALE", "state": "NY", "zip": "12503-5157", "ntee": "P80", "ruling": "200010", "deductibility": "1", "assets": 107961, "income": 195962, "revenue": 195962}, {"ein": "202875765", "name": "PURPLE PONY THERAPEUTIC HORSEMANSHIP INCORPORATED", "city": "BERGEN", "state": "NY", "zip": "14416-0148", "ntee": "P80", "ruling": "200608", "deductibility": "1", "assets": 0, "income": 0, "revenue": 0}, {"ein": "465651248", "name": "RISE UP THERAPEUTIC HORSEMANSHIP INC", "city": "CANANDAIGUA", "state": "NY", "zip": "14424-0095", "ntee": "P19", "ruling": "201409", "deductibility": "1", "assets": 0, "income": 0, "revenue": 0}, {"ein": "472323887", "name": "ENDEAVOR THERAPEUTIC HORSEMANSHIP INC", "city": "MOUNT KISCO", "state": "NY", "zip": "10549-4233", "ntee": "E50", "ruling": "201503", "deductibility": "1", "assets": 4125923, "income": 1343952, "revenue": 1136608}, {"ein": "842259231", "name": "MAKING STRIDES THERAPEUTIC HORSEMANSHIP INC", "city": "ALTONA", "state": "NY", "zip": "12910-2226", "ntee": "D99", "ruling": "201908", "deductibility": "1", "assets": 0, "income": 0, "revenue": 0}, {"ein": "850998081", "name": "VICTORY HILL THERAPEUTIC HORSEMANSHIP INC", "city": "PORT JERVIS", "state": "NY", "zip": "12771-3598", "ntee": "P99", "ruling": "202006", "deductibility": "1", "assets": 312361, "income": 425434, "revenue": 425434}, {"ein": "872346999", "name": "ASSOCIATION FOR THE PROTECTION OF THE ART OF HORSEMANSHIP IN AMERICA", "city": "GERMANTOWN", "state": "NY", "zip": "12526-5026", "ntee": "A20", "ruling": "202112", "deductibility": "1", "assets": 0, "income": 0, "revenue": 0}], "MILLER": [{"ein": "046677701", "name": "MARGARET M MILLER TR UW ART 22 FBO CHEVERUS HIGH SCHOOL", "city": "NEW YORK", "state": "NY", "zip": "10028-0810", "ntee": "", "ruling": "199109", "deductibility": "1", "assets": 9822941, "income": 962570, "revenue": 384807}, {"ein": "061187583", "name": "MORGAN & MARJORIE L MILLER CHARITABLE TRUST", "city": "RYE", "state": "NY", "zip": "10580-1445", "ntee": "", "ruling": "198809", "deductibility": "1", "assets": 146554, "income": 47496, "revenue": 0}, {"ein": "112464743", "name": "MILLER PLACE FIRE DEPARTMENT INC", "city": "MILLER PLACE", "state": "NY", "zip": "11764-2317", "ntee": "M24Z", "ruling": "199609", "deductibility": "1", "assets": 107681, "income": 56803, "revenue": 45173}, {"ein": "112647546", "name": "MILLER PLACE PARK HOME OWNERS ASSOCIATION INC", "city": "MILLER PLACE", "state": "NY", "zip": "11764-0085", "ntee": "N32", "ruling": "201209", "deductibility": "2", "assets": 24968, "income": 69250, "revenue": 69250}, {"ein": "112749873", "name": "MILLER BLUFFS BEACH CLUB INC", "city": "MILLER PLACE", "state": "NY", "zip": "11764-1542", "ntee": "N31", "ruling": "199304", "deductibility": "2", "assets": 0, "income": 0, "revenue": 0}, {"ein": "112752769", "name": "MILLER AVE BLOCK ASSOC", "city": "BROOKLYN", "state": "NY", "zip": "11208-2343", "ntee": "P99", "ruling": "200006", "deductibility": "1", "assets": 0, "income": 0, "revenue": 0}, {"ein": "113097198", "name": "MILLER PLACE BADMINTON CLUB INC", "city": "OAKDALE", "state": "NY", "zip": "11769-1827", "ntee": "", "ruling": "199408", "deductibility": "2", "assets": 0, "income": 0, "revenue": 0}, {"ein": "113635469", "name": "ALAN R MILLER FOUNDATION", "city": "GLEN COVE", "state": "NY", "zip": "11542-3112", "ntee": "T20", "ruling": "200203", "deductibility": "1", "assets": 453939, "income": 14515, "revenue": 0}, {"ein": "132913457", "name": "MILLER DAY CARE CENTER INC", "city": "NEW YORK", "state": "NY", "zip": "10025-7016", "ntee": "", "ruling": "198106", "deductibility": "1", "assets": 4059484, "income": 1599687, "revenue": 1599687}, {"ein": "132918230", "name": "CHARLES LAWRENCE KEITH & CLARA MILLER FOUNDATION", "city": "DIX HILLS", "state": "NY", "zip": "11746-5743", "ntee": "", "ruling": "197802", "deductibility": "1", "assets": 2243465, "income": 11948725, "revenue": 0}, {"ein": "132991394", "name": "PRINCETON CLUB OF NEW YORK & SUMMER RULON-MILLER SCHOLARSHIP TRUST", "city": "NEW YORK", "state": "NY", "zip": "10036-7497", "ntee": "", "ruling": "198001", "deductibility": "1", "assets": 1103330, "income": 261880, "revenue": 0}, {"ein": "133054113", "name": "MICHAEL AND CAROL MILLER FOUNDATION INC", "city": "WOODBURY", "state": "NY", "zip": "11797-2012", "ntee": "", "ruling": "198108", "deductibility": "1", "assets": 256577, "income": 70463, "revenue": 0}, {"ein": "133109190", "name": "LOUISE HAUSS MILLER FOUNDATION", "city": "NEW YORK", "state": "NY", "zip": "10020-2078", "ntee": "", "ruling": "198810", "deductibility": "1", "assets": 688008, "income": 57205, "revenue": 0}, {"ein": "133395958", "name": "MILLER-SWEEZY CHARITABLE TRUST", "city": "BRIDGEHAMPTON", "state": "NY", "zip": "11932-0000", "ntee": "", "ruling": "198706", "deductibility": "1", "assets": 68567, "income": 224259, "revenue": 0}, {"ein": "133435210", "name": "ROBERT MILLER FUND FOR MUSIC INC", "city": "NEW YORK", "state": "NY", "zip": "10128-0000", "ntee": "", "ruling": "198311", "deductibility": "1", "assets": 178503, "income": 119068, "revenue": 63047}, {"ein": "133980940", "name": "IRMA & ARTHUR MILLER FAMILY FOUNDATION INC", "city": "NEW YORK", "state": "NY", "zip": "10065-7212", "ntee": "T21", "ruling": "199905", "deductibility": "1", "assets": 109880, "income": 5310, "revenue": 0}, {"ein": "136075621", "name": "G D MILLER CORP HENRY P DAVISON II", "city": "DOBBS FERRY", "state": "NY", "zip": "10522-2192", "ntee": "", "ruling": "196607", "deductibility": "2", "assets": 1598337, "income": 1760689, "revenue": 1760689}, {"ein": "136161712", "name": "MITCH MILLER FOUNDATION INC", "city": "WILLSBORO", "state": "NY", "zip": "12996-0337", "ntee": "", "ruling": "196103", "deductibility": "1", "assets": 132377, "income": 357, "revenue": 0}, {"ein": "141802204", "name": "THOMAS O MILLER CHARITABLE FOUNDATION INC", "city": "MARLBORO", "state": "NY", "zip": "12542-5310", "ntee": "T30", "ruling": "200003", "deductibility": "1", "assets": 0, "income": 0, "revenue": 0}, {"ein": "146103487", "name": "FORT MILLER REFORMED CHURCH", "city": "FORT EDWARD", "state": "NY", "zip": "12828-0324", "ntee": "", "ruling": "198601", "deductibility": "1", "assets": 0, "income": 0, "revenue": 0}, {"ein": "161104207", "name": "SOUTHERN TIER BICYCLE CLUB INC C/O AUGIE MILLER", "city": "BINGHAMTON", "state": "NY", "zip": "13902-0601", "ntee": "", "ruling": "199104", "deductibility": "2", "assets": 0, "income": 0, "revenue": 0}, {"ein": "161244101", "name": "MILLER HOUSE COMPANY", "city": "NEWFANE", "state": "NY", "zip": "14108-9707", "ntee": "M24", "ruling": "202004", "deductibility": "1", "assets": 0, "income": 581331, "revenue": 581331}, {"ein": "161401396", "name": "MILLER ROAD HOUSING DEVELOPMENT FUND COMPANY INC", "city": "SYRACUSE", "state": "NY", "zip": "13203-2879", "ntee": "", "ruling": "194603", "deductibility": "1", "assets": 783367, "income": 309799, "revenue": 309799}, {"ein": "161469652", "name": "PAUL MILLER FAMILY FOUNDATION", "city": "NEW YORK CITY", "state": "NY", "zip": "10018-3496", "ntee": "", "ruling": "199411", "deductibility": "1", "assets": 3975945, "income": 2272375, "revenue": 0}, {"ein": "161686671", "name": "MILLER PLACE ROBOTICS BOOSTER CLUB", "city": "MILLER PLACE", "state": "NY", "zip": "11764-8774", "ntee": "B11", "ruling": "201501", "deductibility": "1", "assets": 0, "income": 0, "revenue": 0}, {"ein": "166054805", "name": "AMERICAN LEGION POST 0140 CHARLES MILLER", "city": "CANASTOTA", "state": "NY", "zip": "13032-1413", "ntee": "", "ruling": "194603", "deductibility": "1", "assets": 146362, "income": 333252, "revenue": 98225}, {"ein": "166101748", "name": "MILLER S AND ADELAIDE S GAFFNEY FOUNDATION", "city": "BINGHAMTON", "state": "NY", "zip": "13901-3502", "ntee": "", "ruling": "196906", "deductibility": "1", "assets": 4082089, "income": 1623670, "revenue": 0}, {"ein": "166552192", "name": "PIERSON K MILLER TUA IRRV PORTION TR", "city": "BUFFALO", "state": "NY", "zip": "14240-1504", "ntee": "T20", "ruling": "201206", "deductibility": "1", "assets": 9703966, "income": 1373119, "revenue": 0}, {"ein": "204827716", "name": "HARVEY R AND RUTH MILLER CHARITABLEFUND", "city": "NEW YORK", "state": "NY", "zip": "10022-6131", "ntee": "T20", "ruling": "200708", "deductibility": "1", "assets": 217376, "income": 1097, "revenue": 0}, {"ein": "205921770", "name": "THE GREGG ARTHUR MILLER FOUNDATION", "city": "JERICHO", "state": "NY", "zip": "11753-2008", "ntee": "T20", "ruling": "200703", "deductibility": "1", "assets": 3227769, "income": 1137139, "revenue": 0}, {"ein": "206215226", "name": "MILLER KHOSHKISH FOUNDATION TR", "city": "NEW YORK", "state": "NY", "zip": "10024-1007", "ntee": "T20", "ruling": "200407", "deductibility": "1", "assets": 143702, "income": 345244, "revenue": 0}, {"ein": "222518143", "name": "THE BRIGGS CEMETERY ASSOCIATION INC C/O WILLIAM C MILLER", "city": "SARATOGA SPGS", "state": "NY", "zip": "12866-6027", "ntee": "Y50", "ruling": "201302", "deductibility": "1", "assets": 0, "income": 0, "revenue": 0}, {"ein": "223661214", "name": "ARTHUR MILLER FOUNDATION", "city": "NEW YORK", "state": "NY", "zip": "10011-8643", "ntee": "T20", "ruling": "202006", "deductibility": "1", "assets": 801779, "income": 1483902, "revenue": 972638}, {"ein": "232369807", "name": "DELVIN MILLER AMATEUR DRIVERS ASSN", "city": "GOSHEN", "state": "NY", "zip": "10924-2157", "ntee": "", "ruling": "198703", "deductibility": "2", "assets": 30628, "income": 260, "revenue": 260}, {"ein": "236285922", "name": "HARRY MILLER TR 6945", "city": "BUFFALO", "state": "NY", "zip": "14240-1504", "ntee": "", "ruling": "197404", "deductibility": "1", "assets": 1598295, "income": 483434, "revenue": 124613}, {"ein": "236542778", "name": "EDWILLB & RACHEL H MILLER TRUST", "city": "AMHERST", "state": "NY", "zip": "14228-2307", "ntee": "", "ruling": "197805", "deductibility": "1", "assets": 99261, "income": 20692, "revenue": 0}, {"ein": "236642645", "name": "RACHEL H MILLER TRUST U-W", "city": "AMHERST", "state": "NY", "zip": "14228-2307", "ntee": "", "ruling": "197803", "deductibility": "1", "assets": 595328, "income": 94856, "revenue": 0}, {"ein": "236657558", "name": "EDWILL B MILLER TRUST UW", "city": "AMHERST", "state": "NY", "zip": "14228-2307", "ntee": "", "ruling": "197803", "deductibility": "1", "assets": 3233346, "income": 396003, "revenue": 0}, {"ein": "237389133", "name": "MILLER PLACE CIVIC ASSOCIATION", "city": "MILLER PLACE", "state": "NY", "zip": "11764-0623", "ntee": "", "ruling": "197407", "deductibility": "2", "assets": 0, "income": 0, "revenue": 0}, {"ein": "237413417", "name": "MILLER PLACE-MOUNT SINAI HISTORICAL SOCIETY", "city": "MILLER PLACE", "state": "NY", "zip": "11764-0651", "ntee": "", "ruling": "197506", "deductibility": "1", "assets": 0, "income": 0, "revenue": 0}, {"ein": "256409964", "name": "RUTH D MILLER TR UW FBO BETHANY ORPHANS HOME FOR CHILDREN", "city": "BUFFALO", "state": "NY", "zip": "14240-1504", "ntee": "T20", "ruling": "200609", "deductibility": "1", "assets": 902741, "income": 269407, "revenue": 0}, {"ein": "256423597", "name": "LORRAINE MILLER TW FBO ST PETERS UNITED CHURCH OF CHRIST ET AL", "city": "BUFFALO", "state": "NY", "zip": "14240-1504", "ntee": "T20", "ruling": "200611", "deductibility": "1", "assets": 272800, "income": 87693, "revenue": 0}, {"ein": "256677347", "name": "VIRGINIA MILLER DEKLE FOUNDATION COLLEGE", "city": "AMHERST", "state": "NY", "zip": "14228-2307", "ntee": "T20", "ruling": "200102", "deductibility": "1", "assets": 159433, "income": 47095, "revenue": 0}, {"ein": "256677348", "name": "VIRGINIA MILLER DEKLE FOUNDATION MARY COLLEGE", "city": "AMHERST", "state": "NY", "zip": "14228-2307", "ntee": "T20", "ruling": "200102", "deductibility": "1", "assets": 157461, "income": 45964, "revenue": 0}, {"ein": "260537800", "name": "ELIZABETH MILLER ESTATE", "city": "BUFFALO", "state": "NY", "zip": "14240-1504", "ntee": "T20", "ruling": "201905", "deductibility": "1", "assets": 464491, "income": 138593, "revenue": 0}, {"ein": "271569699", "name": "BERNARD MILLER FAMILY FOUNDATION INC", "city": "BROOKLYN", "state": "NY", "zip": "11219-2529", "ntee": "T22", "ruling": "201109", "deductibility": "1", "assets": 761206, "income": 105567, "revenue": 0}, {"ein": "306020576", "name": "MORRIS J MILLER CHARITABLE TRUST", "city": "BUFFALO", "state": "NY", "zip": "14240-1504", "ntee": "T22", "ruling": "200210", "deductibility": "1", "assets": 1312881, "income": 214992, "revenue": 0}, {"ein": "311577542", "name": "MILLER PLACE VOLUNTEER EXEMPT FIREMANS BENEVOLENT ASSOC", "city": "MILLER PLACE", "state": "NY", "zip": "11764-2317", "ntee": "", "ruling": "199806", "deductibility": "2", "assets": 1031331, "income": 132343, "revenue": 102320}, {"ein": "331137812", "name": "MILLER PLACE ATHLETIC BOOSTER CLUB", "city": "MILLER PLACE", "state": "NY", "zip": "11764-0790", "ntee": "B112", "ruling": "200902", "deductibility": "1", "assets": 80021, "income": 165564, "revenue": 55314}, {"ein": "453670748", "name": "JOHN L MILLER GREAT NECK NORTH HIGH SCHOOL PARENT TEACHER ORG INC", "city": "GREAT NECK", "state": "NY", "zip": "11023-0000", "ntee": "B94", "ruling": "201203", "deductibility": "1", "assets": 48941, "income": 35779, "revenue": 35779}, {"ein": "463920864", "name": "DORIE MILLER RIFLE & PISTOL CLUB INC", "city": "BUFFALO", "state": "NY", "zip": "14208-1827", "ntee": "Y99", "ruling": "201407", "deductibility": "2", "assets": 0, "income": 0, "revenue": 0}, {"ein": "474913191", "name": "MEHALA ISADORA MILLER MIM FOUNDATION INC", "city": "ROOSEVELT", "state": "NY", "zip": "11575-2102", "ntee": "P99", "ruling": "201509", "deductibility": "1", "assets": 0, "income": 0, "revenue": 0}, {"ein": "571030645", "name": "MILLER-LOWRY CEMETERY ASSOCIATION", "city": "SARATOGA SPGS", "state": "NY", "zip": "12866-0471", "ntee": "", "ruling": "199604", "deductibility": "1", "assets": 0, "income": 0, "revenue": 0}, {"ein": "593762690", "name": "MILLER PLACE PARENT TEACHER ORG", "city": "MILLER PLACE", "state": "NY", "zip": "11764-1046", "ntee": "B60", "ruling": "200309", "deductibility": "1", "assets": 61396, "income": 145328, "revenue": 78978}, {"ein": "800673095", "name": "MILLER TOWN CEMETERY ASSOCIATION", "city": "CHARLTON", "state": "NY", "zip": "12019-2641", "ntee": "Y50", "ruling": "202405", "deductibility": "1", "assets": 0, "income": 0, "revenue": 0}, {"ein": "800721122", "name": "MILLER PARK ASSOCIATION", "city": "UTICA", "state": "NY", "zip": "13502-2322", "ntee": "N50", "ruling": "201110", "deductibility": "2", "assets": 0, "income": 0, "revenue": 0}, {"ein": "811177699", "name": "FRANK MILLER FREEDOM FOUNDATION INC", "city": "GARDEN CITY", "state": "NY", "zip": "11530-0000", "ntee": "T22", "ruling": "201606", "deductibility": "1", "assets": 468, "income": 1, "revenue": 0}, {"ein": "814526292", "name": "MILLER MANHATTAN FOUNDATION INC", "city": "NEW YORK", "state": "NY", "zip": "10002-3100", "ntee": "P12", "ruling": "201803", "deductibility": "1", "assets": 0, "income": 0, "revenue": 0}, {"ein": "821720218", "name": "INCREASE MILLER ELEMENTARY SCHOOL PARENT TEACHER ORGANIZATION INC", "city": "GOLDENS BRG", "state": "NY", "zip": "10526-1403", "ntee": "B11", "ruling": "201709", "deductibility": "1", "assets": 131537, "income": 140436, "revenue": 140436}, {"ein": "823122216", "name": "MILLER FUNERAL AND CREMATION CHARITABLE FOUNDATION INC", "city": "ROCHESTER", "state": "NY", "zip": "14623-3025", "ntee": "T20", "ruling": "201805", "deductibility": "1", "assets": 3929, "income": 5518, "revenue": 0}, {"ein": "830550953", "name": "MT SINAI-MILLER PLACE CHAMBER OF COMMERCE INC", "city": "MT SINAI", "state": "NY", "zip": "11766-0566", "ntee": "S41", "ruling": "201905", "deductibility": "2", "assets": 0, "income": 0, "revenue": 0}, {"ein": "832904706", "name": "MILLER PLACE FRIENDS OF THE ARTS", "city": "SOUND BEACH", "state": "NY", "zip": "11789-1842", "ntee": "A90", "ruling": "201903", "deductibility": "1", "assets": 0, "income": 0, "revenue": 0}, {"ein": "834697810", "name": "MC MILLER MIDDLE SCHOOL PTSO INC", "city": "LAKE KATRINE", "state": "NY", "zip": "12449-5221", "ntee": "B94", "ruling": "201905", "deductibility": "1", "assets": 0, "income": 0, "revenue": 0}, {"ein": "853609416", "name": "ELSA MILLER FOUNDATION INC", "city": "NEW YORK", "state": "NY", "zip": "10065-6607", "ntee": "T20", "ruling": "202107", "deductibility": "1", "assets": 18478211, "income": 1231953, "revenue": 0}, {"ein": "900654662", "name": "FRIENDS OF MILLER HOUSE-WASHINGTONS HEADQUARTERS", "city": "ARMONK", "state": "NY", "zip": "10504-0726", "ntee": "A54", "ruling": "201405", "deductibility": "1", "assets": 0, "income": 0, "revenue": 0}, {"ein": "934603255", "name": "FRIENDS OF THE MILLER HILL PLAYGROUND", "city": "AVERILL PARK", "state": "NY", "zip": "12018-9728", "ntee": "N12", "ruling": "202405", "deductibility": "1", "assets": 0, "income": 0, "revenue": 0}, {"ein": "942538647", "name": "MILLER FOUNDATION", "city": "WHITE PLAINS", "state": "NY", "zip": "10601-0000", "ntee": "", "ruling": "197906", "deductibility": "1", "assets": 1142264, "income": 334014, "revenue": 0}], "BROKEN": [{"ein": "061622755", "name": "BROKEN WATCH PRODUCTIONS INC", "city": "BRONX", "state": "NY", "zip": "10471-2706", "ntee": "A65", "ruling": "200301", "deductibility": "1", "assets": 0, "income": 0, "revenue": 0}, {"ein": "201751323", "name": "BROKEN TO BE MADE WHOLE MINISTRIES", "city": "BROOKLYN", "state": "NY", "zip": "11236-3450", "ntee": "X20", "ruling": "202409", "deductibility": "1", "assets": 0, "income": 0, "revenue": 0}, {"ein": "334490322", "name": "BROKEN ARROW MOTORCYCLE CLUB NEW YORK CHAPTER", "city": "THERESA", "state": "NY", "zip": "13691-2131", "ntee": "W30", "ruling": "202505", "deductibility": "1", "assets": 0, "income": 0, "revenue": 0}, {"ein": "464389066", "name": "BROKEN BUT NOT DESTROYED CORPORATION", "city": "JAMAICA", "state": "NY", "zip": "11434-3607", "ntee": "L40", "ruling": "201603", "deductibility": "1", "assets": 335986, "income": 1043596, "revenue": 1043596}, {"ein": "472527865", "name": "BROKEN BOX MIME THEATER", "city": "BROOKLYN", "state": "NY", "zip": "11230-2030", "ntee": "A65", "ruling": "201412", "deductibility": "1", "assets": 33024, "income": 165272, "revenue": 165272}, {"ein": "473753984", "name": "REPAIRERS OF BROKEN WALLS INTERNATIONAL MINISTRIES INC", "city": "BROOKLYN", "state": "NY", "zip": "11236-5412", "ntee": "X21", "ruling": "201608", "deductibility": "1", "assets": 0, "income": 0, "revenue": 0}, {"ein": "753249524", "name": "BROKEN WINGS MINISTRIES INC", "city": "PENFIELD", "state": "NY", "zip": "14526-2212", "ntee": "X200", "ruling": "200712", "deductibility": "1", "assets": 0, "income": 0, "revenue": 0}, {"ein": "832646151", "name": "BROKEN CHAINS RECOVERY RESOURCE CENTER INC", "city": "STATEN ISLAND", "state": "NY", "zip": "10312-1547", "ntee": "F20", "ruling": "201903", "deductibility": "1", "assets": 0, "income": 0, "revenue": 0}, {"ein": "843282722", "name": "BROKEN TIES INC", "city": "BROOKLYN", "state": "NY", "zip": "11219-3782", "ntee": "F60", "ruling": "201912", "deductibility": "1", "assets": 0, "income": 0, "revenue": 0}, {"ein": "843322683", "name": "BROKEN ORCHESTRA INC", "city": "BROOKLYN", "state": "NY", "zip": "11201-8372", "ntee": "A68", "ruling": "202007", "deductibility": "1", "assets": 0, "income": 0, "revenue": 0}, {"ein": "844369299", "name": "RESTORING THE BROKEN CROWNS", "city": "SAINT ALBANS", "state": "NY", "zip": "11412-3328", "ntee": "F80", "ruling": "202005", "deductibility": "1", "assets": 0, "income": 0, "revenue": 0}, {"ein": "861255474", "name": "REPAIRERS OF THE BROKEN", "city": "LAWRENCE", "state": "NY", "zip": "11559-0054", "ntee": "K31", "ruling": "202104", "deductibility": "1", "assets": 8, "income": 53878, "revenue": 53878}, {"ein": "872657528", "name": "BROKEN SOULS RESCUE AND RECOVERY INC", "city": "STATEN ISLAND", "state": "NY", "zip": "10307-1228", "ntee": "D20", "ruling": "202112", "deductibility": "1", "assets": 54128, "income": 480826, "revenue": 480826}, {"ein": "922427574", "name": "BROKEN BUT YET HEALED MINISTRIES INC", "city": "NEW YORK", "state": "NY", "zip": "10022-5403", "ntee": "P20", "ruling": "202303", "deductibility": "1", "assets": 0, "income": 0, "revenue": 0}], "WEI": [{"ein": "061634051", "name": "SHEN WEI DANCE ARTS INC", "city": "NEW YORK", "state": "NY", "zip": "10028-6290", "ntee": "A62", "ruling": "200203", "deductibility": "1", "assets": 0, "income": 0, "revenue": 0}, {"ein": "134069030", "name": "WU-WEI TIEN TAO ASSOCIATION INC", "city": "NEW YORK", "state": "NY", "zip": "10011-2421", "ntee": "X50", "ruling": "200201", "deductibility": "1", "assets": 0, "income": 0, "revenue": 0}, {"ein": "260238100", "name": "WEI WEI WANG FUND", "city": "NEW YORK", "state": "NY", "zip": "10018-0000", "ntee": "T22", "ruling": "200707", "deductibility": "1", "assets": 4839736, "income": 1282809, "revenue": 0}, {"ein": "260316350", "name": "WEI BO LEARNING ORGANIZATION INC", "city": "FLUSHING", "state": "NY", "zip": "11354-5566", "ntee": "B99", "ruling": "201101", "deductibility": "1", "assets": 730873, "income": 762843, "revenue": 762843}, {"ein": "825086974", "name": "NY WEI CORP", "city": "HOLLIS", "state": "NY", "zip": "11423-0217", "ntee": "B03", "ruling": "201807", "deductibility": "1", "assets": 0, "income": 0, "revenue": 0}, {"ein": "863133026", "name": "WEI & WANG FAMILY FOUNDATION INC", "city": "CHAPPAQUA", "state": "NY", "zip": "10514-1000", "ntee": "T20", "ruling": "202206", "deductibility": "1", "assets": 964691, "income": 26108, "revenue": 0}], "WYCKOFF": [{"ein": "100001401", "name": "WYCKOFF FAMILY FOUNDATION INC", "city": "GENEVA", "state": "NY", "zip": "14456-0082", "ntee": "T21", "ruling": "200203", "deductibility": "1", "assets": 9760752, "income": 991917, "revenue": 0}, {"ein": "111631837", "name": "WYCKOFF HEIGHTS MEDICAL CENTER", "city": "BROOKLYN", "state": "NY", "zip": "11237-4434", "ntee": "E21", "ruling": "194212", "deductibility": "1", "assets": 471648060, "income": 415310891, "revenue": 415310891}, {"ein": "112513146", "name": "WYCKOFF HEIGHTS HOSPITAL SELF INSURANCE FUND", "city": "BROOKLYN", "state": "NY", "zip": "11237-4006", "ntee": "", "ruling": "198001", "deductibility": "1", "assets": 1, "income": 0, "revenue": 0}, {"ein": "112615053", "name": "WYCKOFF HOUSE & ASSOCIATION INC", "city": "BROOKLYN", "state": "NY", "zip": "11203-5444", "ntee": "", "ruling": "197405", "deductibility": "1", "assets": 392460, "income": 461337, "revenue": 391177}, {"ein": "113437602", "name": "WYCKOFF PROFESSIONAL MEDICAL SERVICES PC", "city": "BROOKLYN", "state": "NY", "zip": "11237-4006", "ntee": "E300", "ruling": "200212", "deductibility": "1", "assets": 443386, "income": 20170710, "revenue": 20170710}, {"ein": "113440088", "name": "WYCKOFF HEIGHTS DENTAL SERVICES P C", "city": "BROOKLYN", "state": "NY", "zip": "11237-4006", "ntee": "E300", "ruling": "200306", "deductibility": "1", "assets": 22267, "income": 1131997, "revenue": 1131997}, {"ein": "113495935", "name": "WYCKOFF EMERGENCY MEDICINE SERVICES P C", "city": "BROOKLYN", "state": "NY", "zip": "11237-4006", "ntee": "G90", "ruling": "202402", "deductibility": "1", "assets": 231339, "income": 3299821, "revenue": 3299821}, {"ein": "113519417", "name": "WYCKOFF HEIGHTS MEDICAL SERVICES P C", "city": "BROOKLYN", "state": "NY", "zip": "11237-4434", "ntee": "E600", "ruling": "200306", "deductibility": "1", "assets": 2143, "income": 80249, "revenue": 80249}, {"ein": "113626419", "name": "WYCKOFF HEIGHTS MEDICAL CENTER FOUNDATION", "city": "BROOKLYN", "state": "NY", "zip": "11237-4006", "ntee": "E11", "ruling": "200111", "deductibility": "1", "assets": 4174424, "income": 8520, "revenue": 8520}, {"ein": "811753297", "name": "WYCKOFF GARDENS RESIDENT ASSOCIATION I", "city": "BROOKLYN", "state": "NY", "zip": "11217-2310", "ntee": "S99", "ruling": "202112", "deductibility": "1", "assets": 0, "income": 0, "revenue": 0}, {"ein": "874821117", "name": "NYSNA RETIREE HEALTH FUND AT WYCKOFF HEIGHTS MEDICAL CENTER", "city": "NEW YORK", "state": "NY", "zip": "10001-2908", "ntee": "Y43", "ruling": "202411", "deductibility": "2", "assets": 0, "income": 0, "revenue": 0}], "ERWIN": [{"ein": "111761794", "name": "JAMES ERWIN DONAHUE POST 347 VETERNS OF FORIEGN WARS", "city": "GLEN COVE", "state": "NY", "zip": "11542-2409", "ntee": "", "ruling": "197210", "deductibility": "1", "assets": 589980, "income": 259854, "revenue": 259854}, {"ein": "113135109", "name": "ERWIN & RUTH ZAFIR FOUNDATION INC", "city": "BROOKLYN", "state": "NY", "zip": "11219-3961", "ntee": "", "ruling": "199403", "deductibility": "1", "assets": 14197305, "income": 3930582, "revenue": 0}, {"ein": "150567352", "name": "ERWIN LIBRARY AND INSTITUTE", "city": "BOONVILLE", "state": "NY", "zip": "13309-1005", "ntee": "B70", "ruling": "194002", "deductibility": "1", "assets": 842855, "income": 165429, "revenue": 165429}, {"ein": "161223508", "name": "ERWIN VALLEY PAINTED CINDERELLA SOFTBALL LEAGUE", "city": "PAINTED POST", "state": "NY", "zip": "14870-0265", "ntee": "", "ruling": "197308", "deductibility": "1", "assets": 0, "income": 0, "revenue": 0}, {"ein": "222142776", "name": "NIAGARA COUNTY FEDERATION OF CONSERVATION CLUBS INC C O ERWIN K", "city": "SANBORN", "state": "NY", "zip": "14132-9274", "ntee": "C30", "ruling": "202301", "deductibility": "1", "assets": 73222, "income": 20818, "revenue": 20818}, {"ein": "222967114", "name": "ERWIN H JOHNSON MEMORIAL FUND", "city": "BUFFALO", "state": "NY", "zip": "14207-0566", "ntee": "", "ruling": "199404", "deductibility": "1", "assets": 0, "income": 0, "revenue": 0}, {"ein": "263630895", "name": "ERWIN AND GERTRUDE DAVENPORT PRIVATE FOUNDATION", "city": "ROCHESTER", "state": "NY", "zip": "14610-1511", "ntee": "T20", "ruling": "200903", "deductibility": "1", "assets": 396487, "income": 57982, "revenue": 0}, {"ein": "272593261", "name": "ERWIN AND SANDRA PEARL FOUNDATION", "city": "NEW YORK", "state": "NY", "zip": "10021-4157", "ntee": "T22", "ruling": "201007", "deductibility": "1", "assets": 109513, "income": 16054, "revenue": 0}, {"ein": "382831525", "name": "ERWIN & ISABELLE ZIEGELMAN FOUNDATION", "city": "PELHAM", "state": "NY", "zip": "10803-2426", "ntee": "T21", "ruling": "198911", "deductibility": "1", "assets": 2134888, "income": 509419, "revenue": 0}], "LUBAVITZ": [{"ein": "111797166", "name": "CENTRAL YESHIVA TOMCHEI TIMIMIM LUBAVITZ OF THE U S A", "city": "BROOKLYN", "state": "NY", "zip": "11213-3619", "ntee": "", "ruling": "197003", "deductibility": "1", "assets": 13916944, "income": 8924996, "revenue": 8859750}], "RDC": [{"ein": "112249649", "name": "RDC COMMERCIAL CENTER INC", "city": "BROOKLYN", "state": "NY", "zip": "11216-5372", "ntee": "S310", "ruling": "199308", "deductibility": "1", "assets": 13927872, "income": 4190438, "revenue": 4190438}, {"ein": "133698967", "name": "RDC CENTER FOR COUNSELING AND HUMAN DEVELOPMENT INC", "city": "WHITE PLAINS", "state": "NY", "zip": "10603-3710", "ntee": "F60", "ruling": "202207", "deductibility": "1", "assets": 456501, "income": 127341, "revenue": 127341}], "NEUROLOGICALLY": [{"ein": "112348663", "name": "ASSOCIATION FOR NEUROLOGICALLY IMPAIRED BRAIN INJURED CHILDREN", "city": "OAKLAND GDNS", "state": "NY", "zip": "11364-2244", "ntee": "G48Z", "ruling": "197501", "deductibility": "1", "assets": 15615416, "income": 12730217, "revenue": 12730171}], "KADISHA": [{"ein": "112443177", "name": "CHEVRA KADISHA OF BOBOV C O BENJAMIN ISAACS ESQ", "city": "BROOKLYN", "state": "NY", "zip": "11232-4210", "ntee": "", "ruling": "197712", "deductibility": "1", "assets": 0, "income": 0, "revenue": 0}, {"ein": "113048781", "name": "CHEVRA KADISHA OF NEW SQUARE", "city": "BROOKLYN", "state": "NY", "zip": "11210-3714", "ntee": "", "ruling": "199106", "deductibility": "1", "assets": 0, "income": 0, "revenue": 0}, {"ein": "113364887", "name": "ASSOCIATION OF CHEVROS KADISHA INC", "city": "RICHMOND HILL", "state": "NY", "zip": "11418-1846", "ntee": "", "ruling": "201504", "deductibility": "1", "assets": 147965, "income": 477655, "revenue": 477655}, {"ein": "113634227", "name": "CHEVRA-KADISHA YERUSHALAYIM INC", "city": "BROOKLYN", "state": "NY", "zip": "11218-3786", "ntee": "T30", "ruling": "200202", "deductibility": "1", "assets": 620689, "income": 8531805, "revenue": 8531805}, {"ein": "133413295", "name": "ASRA KADISHA", "city": "MONROE", "state": "NY", "zip": "10950-0000", "ntee": "", "ruling": "198708", "deductibility": "1", "assets": 0, "income": 0, "revenue": 0}, {"ein": "133898978", "name": "CHEVRA KADISHA SHARI TORU INC", "city": "MONROE", "state": "NY", "zip": "10950-6428", "ntee": "X30", "ruling": "199910", "deductibility": "1", "assets": 0, "income": 0, "revenue": 0}, {"ein": "316677171", "name": "CHEVRA KADISHA OF FLATBUSH", "city": "BROOKLYN", "state": "NY", "zip": "11230-5961", "ntee": "X99", "ruling": "200204", "deductibility": "1", "assets": 0, "income": 0, "revenue": 0}, {"ein": "462036888", "name": "CHEVRA KADISHA DKHAL KEHILATH YAKOV PUPA INC", "city": "BROOKLYN", "state": "NY", "zip": "11211-7578", "ntee": "X30", "ruling": "201612", "deductibility": "1", "assets": 0, "income": 0, "revenue": 0}, {"ein": "522388977", "name": "CHEVRA KADISHA KHAL MINCHAS ELUZOR DMUNKACS", "city": "BROOKLYN", "state": "NY", "zip": "11219-2622", "ntee": "X30", "ruling": "200308", "deductibility": "1", "assets": 0, "income": 0, "revenue": 0}, {"ein": "843109913", "name": "CHEVRA KADISHA OF BOBOV 45", "city": "BROOKLYN", "state": "NY", "zip": "11219-3132", "ntee": "X30", "ruling": "202108", "deductibility": "1", "assets": 0, "income": 0, "revenue": 0}, {"ein": "844859688", "name": "KEHULA KADISHA", "city": "BROOKLYN", "state": "NY", "zip": "11204-1048", "ntee": "X30", "ruling": "202312", "deductibility": "1", "assets": 0, "income": 0, "revenue": 0}, {"ein": "883420395", "name": "CONGREGATION TOLDOS TZVI CHEVRA KADISHA", "city": "BROOKLYN", "state": "NY", "zip": "11249-7809", "ntee": "X30", "ruling": "202303", "deductibility": "1", "assets": 0, "income": 0, "revenue": 0}, {"ein": "883636537", "name": "CHEVRA KADISHA SLONIM USA INC", "city": "SPRING VALLEY", "state": "NY", "zip": "10977-2515", "ntee": "X30", "ruling": "202210", "deductibility": "1", "assets": 0, "income": 0, "revenue": 0}, {"ein": "934952378", "name": "KEHULA KADISHA HAMBURG INC", "city": "BROOKLYN", "state": "NY", "zip": "11211-8483", "ntee": "X30", "ruling": "202407", "deductibility": "1", "assets": 0, "income": 0, "revenue": 0}], "PLASTERERS": [{"ein": "112483766", "name": "OPERATIVE PLASTERERS & CEMENT MASONS INTERNATIONAL ASSOCIATION", "city": "BRONX", "state": "NY", "zip": "10461-2623", "ntee": "", "ruling": "194007", "deductibility": "0", "assets": 737919, "income": 85971, "revenue": 85971}, {"ein": "135503998", "name": "OPERATIVE PLASTERERS & CEMENT MASONS INTERNATIONAL ASSOCIATION", "city": "BRONX", "state": "NY", "zip": "10461-2623", "ntee": "", "ruling": "196307", "deductibility": "2", "assets": 3714739, "income": 262693, "revenue": 262693}, {"ein": "160578655", "name": "OPERATIVE PLASTERERS & CEMENT MASONS INTERNATIONAL ASSOCIATION", "city": "N TONAWANDA", "state": "NY", "zip": "14120-7227", "ntee": "", "ruling": "194007", "deductibility": "2", "assets": 109913, "income": 487707, "revenue": 487707}, {"ein": "161477284", "name": "OPERATIVE PLASTERERS & CEMENT MASONS INTERNATIONAL ASSOCIATION", "city": "TONAWANDA", "state": "NY", "zip": "14150-2505", "ntee": "", "ruling": "194007", "deductibility": "2", "assets": 792428, "income": 530355, "revenue": 530085}, {"ein": "161534793", "name": "PLASTERERS LOCAL NO 9 HEALTH AND WELFARE FUND", "city": "N TONAWANDA", "state": "NY", "zip": "14120-6916", "ntee": "", "ruling": "199712", "deductibility": "2", "assets": 859054, "income": 619809, "revenue": 619809}, {"ein": "455487136", "name": "OPERATIVE PLASTERERS & CEMENT MASONS INTERNATIONAL ASSOCIATION", "city": "BRONX", "state": "NY", "zip": "10461-2623", "ntee": "", "ruling": "194007", "deductibility": "2", "assets": 0, "income": 0, "revenue": 0}, {"ein": "821278346", "name": "OPERATIVE PLASTERERS & CEMENT MASONS INTERNATIONAL ASSOCIATION", "city": "BRONX", "state": "NY", "zip": "10461-2623", "ntee": "", "ruling": "194007", "deductibility": "2", "assets": 1191823, "income": 4234723, "revenue": 4234723}], "CHASSIDEI": [{"ein": "112592466", "name": "BAIS YAAKOV D CHASSIDEI GUR", "city": "BROOKLYN", "state": "NY", "zip": "11204-1345", "ntee": "", "ruling": "198309", "deductibility": "1", "assets": 0, "income": 0, "revenue": 0}], "ID": [{"ein": "112596270", "name": "FOUNDATION OF CHRIST THE REDEEMER & INSTITUTE ID-MISIONEROS Y MISIONER", "city": "FOREST HILLS", "state": "NY", "zip": "11375-6133", "ntee": "", "ruling": "198207", "deductibility": "1", "assets": 0, "income": 0, "revenue": 0}, {"ein": "455231803", "name": "ID IDENTIFYING DISCOURSE INC", "city": "HICKSVILLE", "state": "NY", "zip": "11801-1007", "ntee": "B12", "ruling": "201403", "deductibility": "1", "assets": 0, "income": 0, "revenue": 0}, {"ein": "464110516", "name": "CENTRO MISIONERO ID MATEO 28 19", "city": "HUNTINGTN STA", "state": "NY", "zip": "11746-0927", "ntee": "", "ruling": "196402", "deductibility": "1", "assets": 0, "income": 0, "revenue": 0}, {"ein": "473931963", "name": "ID ART CENTER INC", "city": "BROOKLYN", "state": "NY", "zip": "11201-6336", "ntee": "A20", "ruling": "201606", "deductibility": "1", "assets": 264010, "income": 876737, "revenue": 876737}, {"ein": "710991159", "name": "ID STUDIO THEATER PERFORMANCE AND", "city": "NEW YORK", "state": "NY", "zip": "10025-1628", "ntee": "A65", "ruling": "200611", "deductibility": "1", "assets": 452141, "income": 595372, "revenue": 595372}, {"ein": "810841429", "name": "ID TRAVEL GROUP FOUNDATION FOR BETTER LIVING INC", "city": "LARCHMONT", "state": "NY", "zip": "10538-3053", "ntee": "T50", "ruling": "201710", "deductibility": "1", "assets": 0, "income": 0, "revenue": 0}], "KELLENBERG": [{"ein": "112611179", "name": "BISHOP KELLENBERG GARDNS FOR SENIOR CITIZEN HOUSING DEVELP FUND INC", "city": "HICKSVILLE", "state": "NY", "zip": "11801-6232", "ntee": "L21Z", "ruling": "198411", "deductibility": "1", "assets": 3714161, "income": 1684424, "revenue": 1684424}, {"ein": "112861852", "name": "KELLENBERG MEMORIAL HIGH SCHOOL", "city": "UNIONDALE", "state": "NY", "zip": "11553-3703", "ntee": "", "ruling": "194603", "deductibility": "1", "assets": 0, "income": 0, "revenue": 0}, {"ein": "832160419", "name": "KELLENBERG SHEPHERDS FUND INC", "city": "UNIONDALE", "state": "NY", "zip": "11553-0000", "ntee": "B11", "ruling": "201907", "deductibility": "1", "assets": 28654285, "income": 8523591, "revenue": 3221459}], "HARASHASH": [{"ein": "112676252", "name": "SHUVA YISROEL OF YAD HARASHASH", "city": "BROOKLYN", "state": "NY", "zip": "11223-1941", "ntee": "", "ruling": "198404", "deductibility": "1", "assets": 0, "income": 0, "revenue": 0}], "YERMIAH": [{"ein": "112752851", "name": "GEMACH ZICHION YERMIAH", "city": "BROOKLYN", "state": "NY", "zip": "11214-2510", "ntee": "", "ruling": "198512", "deductibility": "1", "assets": 0, "income": 0, "revenue": 0}], "MCMAHON": [{"ein": "112925942", "name": "JOHN J MCMAHON JR MEMORIAL ROLLER HOCKEY CLUB INC", "city": "NORTH BABYLON", "state": "NY", "zip": "11703-1100", "ntee": "I21Z", "ruling": "199503", "deductibility": "1", "assets": 5986, "income": 14182, "revenue": 14182}, {"ein": "133318163", "name": "THE MCMAHON FAMILY FOUNDATION", "city": "NEW YORK", "state": "NY", "zip": "10075-9202", "ntee": "", "ruling": "198702", "deductibility": "1", "assets": 26062, "income": 96386, "revenue": 0}, {"ein": "161563195", "name": "MCMAHON-RYAN CHILD ADVOCACY SITE INC", "city": "SYRACUSE", "state": "NY", "zip": "13202-3117", "ntee": "F60", "ruling": "200001", "deductibility": "1", "assets": 3773208, "income": 3434534, "revenue": 3256859}, {"ein": "562653270", "name": "THE LEE AND AIDAN MCMAHON FOUNDATION INC", "city": "COMMACK", "state": "NY", "zip": "11725-1931", "ntee": "G12", "ruling": "201609", "deductibility": "1", "assets": 1326, "income": 40764, "revenue": 40764}], "MONUMENT": [{"ein": "113038927", "name": "NASSAU COUNTY VETERANS MONUMENT FUND INC", "city": "HICKSVILLE", "state": "NY", "zip": "11802-7911", "ntee": "W30", "ruling": "201803", "deductibility": "1", "assets": 87286, "income": 50230, "revenue": 50230}, {"ein": "113201953", "name": "GRANT MONUMENT ASSOCIATION INC", "city": "FRESH MEADOWS", "state": "NY", "zip": "11365-1426", "ntee": "L20", "ruling": "201407", "deductibility": "1", "assets": 153484, "income": 84879, "revenue": 28506}, {"ein": "133573461", "name": "CAROLINE & JOSEPH S GRUSS LIFE MONUMENT FUNDS INC", "city": "BROOKLYN", "state": "NY", "zip": "11232-2713", "ntee": "B120", "ruling": "199106", "deductibility": "1", "assets": 6238298, "income": 1887456, "revenue": 1887456}, {"ein": "161598732", "name": "MONUMENT OF FAITH FELLOWSHIP CENTER A BAPTIST CHURCH", "city": "BUFFALO", "state": "NY", "zip": "14211-1218", "ntee": "X21", "ruling": "200206", "deductibility": "1", "assets": 0, "income": 0, "revenue": 0}, {"ein": "200847318", "name": "SANDMINERS MONUMENT INC", "city": "PORT WASHINGTON", "state": "NY", "zip": "11050-0000", "ntee": "A80", "ruling": "200409", "deductibility": "1", "assets": 0, "income": 0, "revenue": 0}, {"ein": "260847563", "name": "TOWERS OF FREEDOM MILITARY MONUMENT INC", "city": "WEST ISLIP", "state": "NY", "zip": "11795-4530", "ntee": "A80", "ruling": "201002", "deductibility": "1", "assets": 0, "income": 0, "revenue": 0}, {"ein": "460898528", "name": "MONUMENT OF FAITH IN CHRIST CHURCH INC", "city": "BROOKLYN", "state": "NY", "zip": "11218-3302", "ntee": "X21", "ruling": "201210", "deductibility": "1", "assets": 0, "income": 0, "revenue": 0}, {"ein": "474180843", "name": "GWOT MONUMENT ORGANIZATION INC", "city": "HUDSON FALLS", "state": "NY", "zip": "12839-2205", "ntee": "W24", "ruling": "201610", "deductibility": "1", "assets": 0, "income": 0, "revenue": 0}, {"ein": "611631597", "name": "IRISH MONUMENT COMMITTEE OF NASSAU COUNTY NEW YORK INC", "city": "GARDEN CITY", "state": "NY", "zip": "11530-5535", "ntee": "A80", "ruling": "201104", "deductibility": "1", "assets": 0, "income": 0, "revenue": 0}, {"ein": "831042319", "name": "AMERICAS RESPONSE MONUMENT FOUNDATION", "city": "NEW YORK", "state": "NY", "zip": "10019-0000", "ntee": "A84", "ruling": "202409", "deductibility": "1", "assets": 0, "income": 0, "revenue": 0}, {"ein": "852599672", "name": "AFRICAN AMERICAN VETERANS MONUMENT INC", "city": "BUFFALO", "state": "NY", "zip": "14202-0000", "ntee": "A50", "ruling": "202010", "deductibility": "1", "assets": 190170, "income": 95217, "revenue": 95217}, {"ein": "863383104", "name": "911 MONUMENT OF THE MISSING FOUNDATION INC", "city": "HUNTINGTN STA", "state": "NY", "zip": "11746-2839", "ntee": "A84", "ruling": "202107", "deductibility": "1", "assets": 0, "income": 0, "revenue": 0}], "BRIT": [{"ein": "113047483", "name": "INTERNATIONAL BRIT MILAH ASSOCIATION INC", "city": "BROOKLYN", "state": "NY", "zip": "11203-6703", "ntee": "", "ruling": "199201", "deductibility": "1", "assets": 9588, "income": 31000, "revenue": 0}, {"ein": "475368292", "name": "SHOMREY BRIT KODESH ORG CORP", "city": "BROOKLYN", "state": "NY", "zip": "11230-0000", "ntee": "X30", "ruling": "201601", "deductibility": "1", "assets": 38710, "income": 46281, "revenue": 46281}], "YEDID": [{"ein": "113052852", "name": "CONGREGATION MOSDOS YEDID NEFESH", "city": "BROOKLYN", "state": "NY", "zip": "11219-1012", "ntee": "X30Z", "ruling": "199803", "deductibility": "1", "assets": 0, "income": 0, "revenue": 0}, {"ein": "222766747", "name": "EDWARD AND ADELE YEDID FOUNDATION INC", "city": "BROOKLYN", "state": "NY", "zip": "11223-2039", "ntee": "", "ruling": "198803", "deductibility": "1", "assets": 1, "income": 1, "revenue": 0}, {"ein": "332628002", "name": "YEDID NEFESH SUPPORT INC", "city": "BROOKLYN", "state": "NY", "zip": "11206-8189", "ntee": "P20", "ruling": "202501", "deductibility": "1", "assets": 0, "income": 0, "revenue": 0}, {"ein": "471806299", "name": "ROFEH YEDID INC", "city": "NEW YORK", "state": "NY", "zip": "10024-3110", "ntee": "P58", "ruling": "201502", "deductibility": "1", "assets": 0, "income": 0, "revenue": 0}, {"ein": "814808456", "name": "YEDID NEFESH FOR EVERYONE INC", "city": "POMONA", "state": "NY", "zip": "10970-2626", "ntee": "P99", "ruling": "202009", "deductibility": "1", "assets": 0, "income": 0, "revenue": 0}, {"ein": "862644609", "name": "MOSDOS YEDID NEFESH", "city": "BROOKLYN", "state": "NY", "zip": "11219-1300", "ntee": "", "ruling": "202107", "deductibility": "1", "assets": 0, "income": 0, "revenue": 0}, {"ein": "883370549", "name": "YEDID NEFESH ESTATES INC", "city": "HARRIS", "state": "NY", "zip": "12742-5022", "ntee": "F12", "ruling": "202210", "deductibility": "1", "assets": 0, "income": 0, "revenue": 0}, {"ein": "920189889", "name": "SANDY YEDID CHARITABLE FOUNDATION", "city": "NEW YORK", "state": "NY", "zip": "10018-5302", "ntee": "", "ruling": "200402", "deductibility": "0", "assets": 2005, "income": 1, "revenue": 0}], "INCUBATOR": [{"ein": "113059018", "name": "LONG ISLAND HIGH TECHNOLOGY INCUBATOR INC", "city": "STONY BROOK", "state": "NY", "zip": "11790-3350", "ntee": "S30", "ruling": "199512", "deductibility": "1", "assets": 16794320, "income": 1840280, "revenue": 1840280}, {"ein": "161301210", "name": "UNIVERSITY AT BUFFALO FOUNDATION INCUBATOR INC", "city": "BUFFALO", "state": "NY", "zip": "14226-0900", "ntee": "B114", "ruling": "198712", "deductibility": "1", "assets": 1276381, "income": 629016, "revenue": 629016}, {"ein": "204440469", "name": "BUSINESS INCUBATOR ASSOCIATION OFNEW YORK STATE INC", "city": "ALBANY", "state": "NY", "zip": "12201-0095", "ntee": "S41", "ruling": "200704", "deductibility": "2", "assets": 7245, "income": 76921, "revenue": 74921}, {"ein": "300156146", "name": "BROOKLYN ART INCUBATOR INC", "city": "BROOKLYN", "state": "NY", "zip": "11216-0213", "ntee": "A20", "ruling": "200309", "deductibility": "1", "assets": 744, "income": 0, "revenue": 0}, {"ein": "471682208", "name": "BIOTECHNOLOGY INCUBATOR AT NYMC INC", "city": "VALHALLA", "state": "NY", "zip": "10595-1524", "ntee": "S43", "ruling": "201611", "deductibility": "1", "assets": 1982085, "income": 167871, "revenue": 167871}, {"ein": "474889716", "name": "BROOKLYN FASHION INCUBATOR INC", "city": "BROOKLYN", "state": "NY", "zip": "11201-3022", "ntee": "S30", "ruling": "201509", "deductibility": "1", "assets": 0, "income": 0, "revenue": 0}, {"ein": "800821308", "name": "SOUTHER TIER HIGH TECHNOLOGY INCUBATOR INC", "city": "BINGHAMTON", "state": "NY", "zip": "13902-6005", "ntee": "B11", "ruling": "201210", "deductibility": "1", "assets": 11481525, "income": 964825, "revenue": 964825}, {"ein": "831812242", "name": "LOCAL FOODS INCUBATOR INC", "city": "LITTLE FALLS", "state": "NY", "zip": "13365-2026", "ntee": "K01", "ruling": "202409", "deductibility": "1", "assets": 14560, "income": 18294, "revenue": 18294}, {"ein": "853888756", "name": "HER INCUBATOR INC", "city": "BROOKLYN", "state": "NY", "zip": "11222-7300", "ntee": "S43", "ruling": "202104", "deductibility": "1", "assets": 0, "income": 0, "revenue": 0}, {"ein": "873173724", "name": "KASHIF INCUBATOR INC", "city": "BROOKLYN", "state": "NY", "zip": "11215-4632", "ntee": "A31", "ruling": "202307", "deductibility": "1", "assets": 2139259, "income": 1970955, "revenue": 1970955}, {"ein": "883007231", "name": "FINGER LAKES INCUBATOR AND COMMERCIAL KITCHEN INC", "city": "AUBURN", "state": "NY", "zip": "13021-4323", "ntee": "K02", "ruling": "202211", "deductibility": "1", "assets": 0, "income": 0, "revenue": 0}], "LICENSED": [{"ein": "113133983", "name": "LICENSED PLUMBING ASSOCIATION OF NY CITY", "city": "BELLEROSE", "state": "NY", "zip": "11426-1152", "ntee": "", "ruling": "199305", "deductibility": "2", "assets": 1669463, "income": 1881411, "revenue": 1786762}, {"ein": "132623987", "name": "LICENSED PRACTICAL NURSES WELFARE FUND", "city": "NEW YORK", "state": "NY", "zip": "10036-6902", "ntee": "", "ruling": "197106", "deductibility": "2", "assets": 5831552, "income": 809549, "revenue": 809549}, {"ein": "133613708", "name": "ASSOCIATED LICENSED DETECTIVES OF NYS INC", "city": "ROCKVILLE CTR", "state": "NY", "zip": "11570-2355", "ntee": "", "ruling": "199606", "deductibility": "2", "assets": 73683, "income": 17826, "revenue": 17826}, {"ein": "133900644", "name": "RIVERSPRING LICENSED HOME CARE SERVICES AGENCY INC", "city": "BRONX", "state": "NY", "zip": "10471-1205", "ntee": "E92Z", "ruling": "199710", "deductibility": "1", "assets": 1911262, "income": 14977703, "revenue": 14977703}, {"ein": "141818568", "name": "EDDY LICENSED HOME CARE AGENCY", "city": "TROY", "state": "NY", "zip": "12180-2250", "ntee": "", "ruling": "194603", "deductibility": "0", "assets": 2495217, "income": 121580, "revenue": 121580}, {"ein": "161561691", "name": "UR MEDICINE HOME CARE LICENSED INC", "city": "WEBSTER", "state": "NY", "zip": "14580-2029", "ntee": "E90", "ruling": "199907", "deductibility": "1", "assets": 14560099, "income": 10406944, "revenue": 10406944}, {"ein": "264637457", "name": "SAMARITAN LICENSED CLINICAL SOCIAL WORK PC", "city": "SCOTIA", "state": "NY", "zip": "12302-0000", "ntee": "E30", "ruling": "201011", "deductibility": "1", "assets": 353537, "income": 2090315, "revenue": 2090315}, {"ein": "264642350", "name": "ADIRONDACK SAMARITAN LICENSED CLINICAL SOCIAL WORK PC", "city": "HUDSON FALLS", "state": "NY", "zip": "12839-1001", "ntee": "F30", "ruling": "201404", "deductibility": "1", "assets": 204601, "income": 644056, "revenue": 644056}, {"ein": "311759233", "name": "WESTCHESTER COUNTY LICENSED ELECTRICAL CONTRACTORS ASSOCIATION", "city": "WHITE PLAINS", "state": "NY", "zip": "10605-1440", "ntee": "S41", "ruling": "200103", "deductibility": "2", "assets": 33461, "income": 27544, "revenue": 27544}, {"ein": "550856711", "name": "HIRAM LICENSED HOME CARE COMPANY", "city": "UTICA", "state": "NY", "zip": "13501-1738", "ntee": "E90", "ruling": "200704", "deductibility": "1", "assets": 20162, "income": 215745, "revenue": 215745}, {"ein": "815398464", "name": "REBEKAH REHAB LICENSED HOME CARE SERVICES AGENCY INC", "city": "BRONX", "state": "NY", "zip": "10462-5310", "ntee": "E60", "ruling": "202106", "deductibility": "1", "assets": 494993, "income": 2231152, "revenue": 2231152}], "CHONG": [{"ein": "113265961", "name": "EUN CHONG BIBLE PRESBYTERIAN CHURCH OF NEW YORK INC", "city": "LITTLE NECK", "state": "NY", "zip": "11362-1429", "ntee": "X20Z", "ruling": "199609", "deductibility": "1", "assets": 0, "income": 0, "revenue": 0}, {"ein": "260729538", "name": "FA-YI CHONG-DE NEW YORK CULTURE AND EDUCATION CENTER INC", "city": "BROOKLYN", "state": "NY", "zip": "11220-2477", "ntee": "X90", "ruling": "200908", "deductibility": "1", "assets": 0, "income": 0, "revenue": 0}, {"ein": "270249446", "name": "CHONG XUAN ASSOCIATION", "city": "FLUSHING", "state": "NY", "zip": "11367-1107", "ntee": "X99", "ruling": "201008", "deductibility": "1", "assets": 0, "income": 0, "revenue": 0}, {"ein": "823524665", "name": "FA YI CHONG DE HUI ASSOCIATION INC", "city": "BROOKLYN", "state": "NY", "zip": "11220-3224", "ntee": "X21", "ruling": "201809", "deductibility": "1", "assets": 0, "income": 0, "revenue": 0}, {"ein": "882288260", "name": "CHONG LOU USA ASSOCIATION HEADQUARTERS INC", "city": "BROOKLYN", "state": "NY", "zip": "11220-5579", "ntee": "A12", "ruling": "202205", "deductibility": "1", "assets": 0, "income": 0, "revenue": 0}, {"ein": "933291797", "name": "BON CHONG LING INC", "city": "WOODSIDE", "state": "NY", "zip": "11377-3435", "ntee": "S19", "ruling": "202402", "deductibility": "1", "assets": 1, "income": 1, "revenue": 0}], "ASAMBLEAS": [{"ein": "113319889", "name": "FUENTE VIVA ASAMBLEAS DE DIOS", "city": "BROOKLYN", "state": "NY", "zip": "11223-0074", "ntee": "", "ruling": "196408", "deductibility": "1", "assets": 0, "income": 0, "revenue": 0}, {"ein": "113528885", "name": "IGLESIA HISPANA DE LAS ASAMBLEAS DE DIOS", "city": "FARMINGDALE", "state": "NY", "zip": "11735-5608", "ntee": "", "ruling": "196408", "deductibility": "1", "assets": 0, "income": 0, "revenue": 0}, {"ein": "133572457", "name": "TEMPLO SALEM PENTECOSTAL ASAMBLEAS DE DIOS", "city": "BRONX", "state": "NY", "zip": "10459-1602", "ntee": "", "ruling": "196408", "deductibility": "1", "assets": 0, "income": 0, "revenue": 0}, {"ein": "223492049", "name": "IGLESIA LA MISION ASAMBLEAS DE DIOS", "city": "NYACK", "state": "NY", "zip": "10960-4405", "ntee": "", "ruling": "196408", "deductibility": "1", "assets": 0, "income": 0, "revenue": 0}, {"ein": "264256105", "name": "2NDA IGLESIA LA MISION ASAMBLEAS DE DIOS", "city": "KINGSTON", "state": "NY", "zip": "12401-3424", "ntee": "", "ruling": "196408", "deductibility": "1", "assets": 0, "income": 0, "revenue": 0}, {"ein": "270900638", "name": "FUNDAMENTOS DE LA FE ASAMBLEAS DE DIOS", "city": "SYRACUSE", "state": "NY", "zip": "13203-1010", "ntee": "", "ruling": "196408", "deductibility": "1", "assets": 0, "income": 0, "revenue": 0}, {"ein": "371580090", "name": "GENESIS 2 ASAMBLEAS DE DIOS", "city": "HEMPSTEAD", "state": "NY", "zip": "11550-3811", "ntee": "", "ruling": "196408", "deductibility": "1", "assets": 0, "income": 0, "revenue": 0}, {"ein": "383682433", "name": "EL FARO ASAMBLEAS DE DIOS INC", "city": "SCHENECTADY", "state": "NY", "zip": "12308-1126", "ntee": "", "ruling": "197210", "deductibility": "1", "assets": 0, "income": 0, "revenue": 0}, {"ein": "800112935", "name": "IGLESIA PENTECOSTAL DE HEMPSTEAD ASAMBLEAS DE DIOS INC", "city": "HEMPSTEAD", "state": "NY", "zip": "11550-6528", "ntee": "", "ruling": "196408", "deductibility": "1", "assets": 0, "income": 0, "revenue": 0}], "ANGUILLA": [{"ein": "113329205", "name": "ANGUILLA PROGRESSIVE ASSOCIATION OF NEW YORK INC", "city": "UNIONDALE", "state": "NY", "zip": "11553-1252", "ntee": "A23", "ruling": "199907", "deductibility": "1", "assets": 227401, "income": 379186, "revenue": 379186}], "NEHORA": [{"ein": "113391398", "name": "AMERICAN FRIENDS OF NEHORA INC", "city": "FAR ROCKAWAY", "state": "NY", "zip": "11691-5402", "ntee": "Q113", "ruling": "199806", "deductibility": "1", "assets": 1425028, "income": 571235, "revenue": 571235}], "VI": [{"ein": "113443065", "name": "PROJECT SHARE VI INC", "city": "MEDFORD", "state": "NY", "zip": "11763-2555", "ntee": "F330", "ruling": "199811", "deductibility": "1", "assets": 681109, "income": 110311, "revenue": 110311}, {"ein": "113534602", "name": "OCL PROPERTIES VI INC", "city": "RONKONKOMA", "state": "NY", "zip": "11779-7206", "ntee": "P20", "ruling": "200007", "deductibility": "1", "assets": 367606, "income": 99552, "revenue": 99552}, {"ein": "132923702", "name": "DIOCESE FOR ORTHODOX CATHOLIC CH IN FLA PR DOMINICAN REP JAMAICA & VI", "city": "NEW YORK", "state": "NY", "zip": "10003-6811", "ntee": "", "ruling": "197802", "deductibility": "1", "assets": 0, "income": 0, "revenue": 0}, {"ein": "222384580", "name": "SECTION VI OF THE NEW YORK STATE PUB HIGH SCHL ATHLETIC ASSOC", "city": "WEST SENECA", "state": "NY", "zip": "14224-1825", "ntee": "N41Z", "ruling": "198208", "deductibility": "1", "assets": 742034, "income": 1940648, "revenue": 1940648}, {"ein": "256309559", "name": "R N BOERNER MEMORIAL TR NO VI 2112", "city": "BUFFALO", "state": "NY", "zip": "14240-1504", "ntee": "T20", "ruling": "200507", "deductibility": "1", "assets": 478110, "income": 123045, "revenue": 0}, {"ein": "270631959", "name": "COUNCIL TOWERS VI DEVELOPMENT FUND CORPORATION", "city": "NEW YORK", "state": "NY", "zip": "10004-1561", "ntee": "L22", "ruling": "200911", "deductibility": "1", "assets": 0, "income": 0, "revenue": 0}, {"ein": "542073371", "name": "CRYSTAL RUN OWNER CORP VI", "city": "MIDDLETOWN", "state": "NY", "zip": "10940-2597", "ntee": "P82", "ruling": "200211", "deductibility": "1", "assets": 355324, "income": 59355, "revenue": 59355}, {"ein": "582618633", "name": "DI VI SION ARTS & EDUCATION INC", "city": "BRONX", "state": "NY", "zip": "10463-7720", "ntee": "A68", "ruling": "200302", "deductibility": "1", "assets": 0, "income": 0, "revenue": 0}], "ELSHADDAI": [{"ein": "113469216", "name": "ELSHADDAI PRISON MINISTRIES", "city": "SCOTIA", "state": "NY", "zip": "12302-4028", "ntee": "X21", "ruling": "200209", "deductibility": "1", "assets": 0, "income": 0, "revenue": 0}], "AMAANA": [{"ein": "113488344", "name": "AMAANA HANDS", "city": "S OZONE PARK", "state": "NY", "zip": "11420-0285", "ntee": "P20", "ruling": "199907", "deductibility": "1", "assets": 210478, "income": 744788, "revenue": 744788}], "TRINIDAD": [{"ein": "113490115", "name": "TRINIDAD & TOBAGO ALLIANCE NA INC", "city": "BROOKLYN", "state": "NY", "zip": "11234-5520", "ntee": "B90", "ruling": "200010", "deductibility": "1", "assets": 0, "income": 0, "revenue": 0}, {"ein": "113490133", "name": "TRINIDAD AND TOBAGO EX-POLICE", "city": "BROOKLYN", "state": "NY", "zip": "11225-4514", "ntee": "P58", "ruling": "200011", "deductibility": "1", "assets": 0, "income": 0, "revenue": 0}, {"ein": "133736215", "name": "TRINIDAD DE DIOS", "city": "OSSINING", "state": "NY", "zip": "10562-4709", "ntee": "", "ruling": "196408", "deductibility": "1", "assets": 0, "income": 0, "revenue": 0}, {"ein": "261515139", "name": "TRINIDAD & TOBAGO NURSES ASSOCIATION OF AMERICA INC", "city": "BROOKLYN", "state": "NY", "zip": "11234-5416", "ntee": "B99", "ruling": "200807", "deductibility": "1", "assets": 0, "income": 0, "revenue": 0}, {"ein": "800352555", "name": "TRINIDAD & TOBAGO USA SOCCER ASSOCIATION INC", "city": "BROOKLYN", "state": "NY", "zip": "11233-6312", "ntee": "N64", "ruling": "201409", "deductibility": "1", "assets": 0, "income": 0, "revenue": 0}, {"ein": "833085974", "name": "TRINIDAD AND TOBAGO AMERICAN ADVENTIST ASSOCIATION INC", "city": "BROOKLYN", "state": "NY", "zip": "11213-1803", "ntee": "X99", "ruling": "201909", "deductibility": "1", "assets": 0, "income": 0, "revenue": 0}, {"ein": "900824401", "name": "TRINIDAD AND TOBAGO UNITED COMMUNITY ASSOCIATION INC", "city": "BROOKLYN", "state": "NY", "zip": "11234-5520", "ntee": "A20", "ruling": "201603", "deductibility": "1", "assets": 0, "income": 0, "revenue": 0}, {"ein": "920859257", "name": "TRINIDAD CLASSICAL MUSIC FOUNDATION INC", "city": "RIDGEWOOD", "state": "NY", "zip": "11385-1235", "ntee": "A23", "ruling": "202301", "deductibility": "1", "assets": 1, "income": 0, "revenue": 0}], "MEG": [{"ein": "113510392", "name": "MEG FOUNDATION", "city": "BROOKLYN", "state": "NY", "zip": "11210-5309", "ntee": "T22", "ruling": "200002", "deductibility": "1", "assets": 104766, "income": -158617, "revenue": 0}, {"ein": "465316788", "name": "MEG AND BENNETT GOODMAN FAMILY FOUNDATION", "city": "SARATOGA SPRINGS", "state": "NY", "zip": "12866-2196", "ntee": "T22", "ruling": "201503", "deductibility": "1", "assets": 57174020, "income": 42811149, "revenue": 0}], "RABINICAL": [{"ein": "113514580", "name": "R A V RABINICAL ACADEMY OF VENICE", "city": "BROOKLYN", "state": "NY", "zip": "11213-4333", "ntee": "X30", "ruling": "200309", "deductibility": "1", "assets": 0, "income": 0, "revenue": 0}], "BINYAMIN": [{"ein": "113518718", "name": "CHESED BINYAMIN ELIEZER", "city": "BROOKLYN", "state": "NY", "zip": "11205-1610", "ntee": "X30", "ruling": "200002", "deductibility": "1", "assets": 0, "income": 0, "revenue": 0}, {"ein": "260068809", "name": "OHR BINYAMIN", "city": "FAR ROCKAWAY", "state": "NY", "zip": "11691-5215", "ntee": "X30", "ruling": "201104", "deductibility": "1", "assets": 0, "income": 0, "revenue": 0}, {"ein": "332317492", "name": "BINYAMIN FOUNDATION INC", "city": "BROOKLYN", "state": "NY", "zip": "11213-4115", "ntee": "", "ruling": "202501", "deductibility": "1", "assets": 0, "income": 0, "revenue": 0}, {"ein": "463230961", "name": "FRIENDS OF N BINYAMIN INC", "city": "BROOKLYN", "state": "NY", "zip": "11234-4203", "ntee": "Q12", "ruling": "201408", "deductibility": "1", "assets": 90365, "income": 52331, "revenue": 52331}, {"ein": "474044922", "name": "THE BINYAMIN FUND INC", "city": "SPRING VALLEY", "state": "NY", "zip": "10977-5281", "ntee": "Q32", "ruling": "201512", "deductibility": "1", "assets": 214232, "income": 2967154, "revenue": 2967154}, {"ein": "825240524", "name": "BNEI BINYAMIN & RIVKA KALATY CHARITABLE FOUNDATION INC", "city": "HICKSVILLE", "state": "NY", "zip": "11801-3640", "ntee": "T22", "ruling": "202001", "deductibility": "1", "assets": 3401, "income": 261000, "revenue": 0}], "NSYM": [{"ein": "113545264", "name": "CONGREGATION NSYM", "city": "BROOKLYN", "state": "NY", "zip": "11211-7916", "ntee": "X30", "ruling": "200006", "deductibility": "1", "assets": 0, "income": 0, "revenue": 0}], "HEITIV": [{"ein": "113556517", "name": "CONG HEITIV EITIV", "city": "BROOKLYN", "state": "NY", "zip": "11219-4509", "ntee": "X30", "ruling": "200009", "deductibility": "1", "assets": 0, "income": 0, "revenue": 0}], "AGRCLTRL": [{"ein": "116015965", "name": "ALUMNI ASSOCIATION OF SUNY AGRCLTRL AND TECHNICAL COLL AT FARMNGDL INC", "city": "FARMINGDALE", "state": "NY", "zip": "11735-1006", "ntee": "", "ruling": "196902", "deductibility": "1", "assets": 452824, "income": 23866, "revenue": 23866}], "COSTANZO": [{"ein": "116432843", "name": "GESUALDO A COSTANZO TR UA 092793 152158", "city": "NEW YORK", "state": "NY", "zip": "10013-2362", "ntee": "", "ruling": "199403", "deductibility": "1", "assets": 2137033, "income": 1746650, "revenue": 0}], "ELENAR": [{"ein": "116496241", "name": "UNITED ELENAR FOUNDATION TR UA 122997", "city": "BROOKLYN", "state": "NY", "zip": "11204-1722", "ntee": "T20", "ruling": "199904", "deductibility": "1", "assets": 5488270, "income": 83001, "revenue": 0}], "BAEK": [{"ein": "132784856", "name": "MARN BAEK SUNG UNITED METHODIST CHURCH OF NEW YORK", "city": "STATEN ISLAND", "state": "NY", "zip": "10314-7715", "ntee": "", "ruling": "197511", "deductibility": "1", "assets": 6051619, "income": 700545, "revenue": 700545}], "ICE": [{"ein": "132939069", "name": "STATEN ISLAND ICE HOCKEY ASSOCIATION INC", "city": "STATEN ISLAND", "state": "NY", "zip": "10312-4917", "ntee": "", "ruling": "197812", "deductibility": "1", "assets": 0, "income": 0, "revenue": 0}, {"ein": "133258301", "name": "ICE THEATRE OF NEW YORK", "city": "NEW YORK", "state": "NY", "zip": "10011-1015", "ntee": "", "ruling": "198505", "deductibility": "1", "assets": 674330, "income": 698309, "revenue": 607458}, {"ein": "133577519", "name": "ICE HOCKEY IN HARLEM INC", "city": "NEW YORK", "state": "NY", "zip": "10029-9600", "ntee": "", "ruling": "199012", "deductibility": "1", "assets": 605815, "income": 732485, "revenue": 606104}, {"ein": "134008914", "name": "NEW CASTLE ICE HOCKEY ASSOCIATION INC", "city": "CHAPPAQUA", "state": "NY", "zip": "10514-2528", "ntee": "N68", "ruling": "200003", "deductibility": "1", "assets": 0, "income": 0, "revenue": 0}, {"ein": "134121620", "name": "LAKELAND PANAS HIGH SCHOOL ICE HOCKEY CLUB INC", "city": "MONTROSE", "state": "NY", "zip": "10548-1441", "ntee": "N68", "ruling": "200111", "deductibility": "1", "assets": 0, "income": 0, "revenue": 0}, {"ein": "161495560", "name": "NIAGARA UNIVERSITY ICE COMPLEX INC", "city": "NIAGARA UNIVERSITY", "state": "NY", "zip": "14109-0000", "ntee": "S50", "ruling": "199608", "deductibility": "1", "assets": 142579, "income": 970169, "revenue": 831122}, {"ein": "161595718", "name": "AURORA ICE ASSOCIATION INC", "city": "EAST AURORA", "state": "NY", "zip": "14052-2404", "ntee": "N70", "ruling": "200402", "deductibility": "1", "assets": 3798380, "income": 1195369, "revenue": 1156489}, {"ein": "200618548", "name": "ROCHESTER ICE CATS", "city": "ROCHESTER", "state": "NY", "zip": "14612-2771", "ntee": "N70", "ruling": "201407", "deductibility": "1", "assets": 0, "income": 0, "revenue": 0}, {"ein": "223174520", "name": "SALMON RIVER ICE HOCKEY ASSOCIATION", "city": "PULASKI", "state": "NY", "zip": "13142-0386", "ntee": "N60", "ruling": "200212", "deductibility": "1", "assets": 100785, "income": 224179, "revenue": 197479}, {"ein": "237001471", "name": "GREATER NEW YORK CITY ICE HOCKEY LEAGUE INC HIATRIC SOCIETY", "city": "BROOKLYN", "state": "NY", "zip": "11234-6908", "ntee": "", "ruling": "196812", "deductibility": "1", "assets": 93948, "income": 517368, "revenue": 517368}, {"ein": "260454701", "name": "CENTER ICE HOCKEY CORPORATION", "city": "CLIFTON PARK", "state": "NY", "zip": "12065-1626", "ntee": "N99", "ruling": "200808", "deductibility": "2", "assets": 0, "income": 0, "revenue": 0}, {"ein": "260554837", "name": "ROCHESTER ICE HOCKEY OFFICIALS ASSOCIATION INC", "city": "ROCHESTER", "state": "NY", "zip": "14692-0204", "ntee": "N68", "ruling": "200802", "deductibility": "2", "assets": 135704, "income": 852566, "revenue": 852566}, {"ein": "261718666", "name": "LOCKPORT ICE ARENA & SPORTS CENTER INC", "city": "LOCKPORT", "state": "NY", "zip": "14094-1254", "ntee": "N60", "ruling": "200805", "deductibility": "1", "assets": 12069866, "income": 1216292, "revenue": 1166917}, {"ein": "320012174", "name": "NORTHPORT HUNTINGTON ICE HOCKEY CLUB INC", "city": "E NORTHPORT", "state": "NY", "zip": "11731-6417", "ntee": "N60", "ruling": "200211", "deductibility": "1", "assets": 0, "income": 173766, "revenue": 173766}, {"ein": "363638131", "name": "ICE SKATING INSTITUTE OF AMERICA EDUCATION FOUNDATION", "city": "SKANEATELES", "state": "NY", "zip": "13152-0718", "ntee": "", "ruling": "198905", "deductibility": "1", "assets": 218790, "income": 11944, "revenue": 11944}, {"ein": "461324623", "name": "POB ICE HOCKEY CLUB INC", "city": "OLD BETHPAGE", "state": "NY", "zip": "11804-1516", "ntee": "N99", "ruling": "201406", "deductibility": "1", "assets": 15540, "income": 48865, "revenue": 48865}, {"ein": "462612187", "name": "WARD MELVILLE ICE HOCKEY CLUB INC", "city": "STONY BROOK", "state": "NY", "zip": "11790-3012", "ntee": "O50", "ruling": "201308", "deductibility": "1", "assets": 35380, "income": 171417, "revenue": 171417}, {"ein": "472714996", "name": "EAST ISLIP ICE HOCKEY CHILDRENS FUND", "city": "EAST ISLIP", "state": "NY", "zip": "11730-0234", "ntee": "N12", "ruling": "201503", "deductibility": "1", "assets": 0, "income": 0, "revenue": 0}, {"ein": "474022717", "name": "RYE GARNETS ICE HOCKEY INC", "city": "HARRISON", "state": "NY", "zip": "10528-4122", "ntee": "N68", "ruling": "201508", "deductibility": "1", "assets": 65785, "income": 61181, "revenue": 61181}, {"ein": "475097343", "name": "EASTSIDE ICE VOLLEYBALL CLUB", "city": "FAIRPORT", "state": "NY", "zip": "14450-9563", "ntee": "N60", "ruling": "201605", "deductibility": "1", "assets": 30824, "income": 143744, "revenue": 143744}, {"ein": "800254048", "name": "PELHAM RECREATION ICE HOCKEY INC", "city": "PELHAM", "state": "NY", "zip": "10803-8433", "ntee": "N68", "ruling": "200810", "deductibility": "1", "assets": 273746, "income": 1233957, "revenue": 1129494}, {"ein": "812891369", "name": "RVC ICE HOCKEY CLUB INC", "city": "ROCKVILLE CTR", "state": "NY", "zip": "11570-1433", "ntee": "N60", "ruling": "201608", "deductibility": "1", "assets": 38956, "income": 108563, "revenue": 108563}, {"ein": "813104838", "name": "NATIONAL ICE HOCKEY OFFICIALS ASSOCIATION OF LONG ISLAND INC", "city": "CENTERPORT", "state": "NY", "zip": "11721-1721", "ntee": "N68", "ruling": "201608", "deductibility": "1", "assets": 0, "income": 0, "revenue": 0}, {"ein": "824599520", "name": "ICE TEA YOUTH DEVELOPMENT PROGRAM INC", "city": "BROOKLYN", "state": "NY", "zip": "11234-3117", "ntee": "O50", "ruling": "201803", "deductibility": "1", "assets": 0, "income": 0, "revenue": 0}, {"ein": "831116940", "name": "QUEEN SUGAR HONEY ICE TEA INC", "city": "BROOKLYN", "state": "NY", "zip": "11213-2028", "ntee": "O99", "ruling": "202201", "deductibility": "1", "assets": 0, "income": 0, "revenue": 0}, {"ein": "831247014", "name": "FRIENDS OF THE 1980 MIRACLE ON ICE HOCKEY TEAM CORP", "city": "LAKE PLACID", "state": "NY", "zip": "12946-5980", "ntee": "A84", "ruling": "201908", "deductibility": "1", "assets": 110462, "income": 14419, "revenue": 14419}, {"ein": "833762201", "name": "RAIDERS ICE HOCKEY CLUB INC", "city": "PATCHOGUE", "state": "NY", "zip": "11772-3708", "ntee": "N50", "ruling": "201909", "deductibility": "1", "assets": 24974, "income": 83768, "revenue": 83768}, {"ein": "841649363", "name": "ICE FOUNDATION INC", "city": "NEW YORK", "state": "NY", "zip": "10009-0370", "ntee": "B11", "ruling": "200412", "deductibility": "1", "assets": 43484, "income": 136790, "revenue": 126004}, {"ein": "843631729", "name": "CALLE OUVERT ICE INC", "city": "SOUTH CAIRO", "state": "NY", "zip": "12482-0260", "ntee": "A62", "ruling": "202004", "deductibility": "1", "assets": 0, "income": 0, "revenue": 0}, {"ein": "843639577", "name": "KPC ICE HOCKEY CLUB INC", "city": "KINGS PARK", "state": "NY", "zip": "11754-3926", "ntee": "N68", "ruling": "202004", "deductibility": "1", "assets": 95544, "income": 180247, "revenue": 180247}, {"ein": "880610570", "name": "UPSTATE ICE PLEX INC", "city": "GLOVERSVILLE", "state": "NY", "zip": "12078-3211", "ntee": "N68", "ruling": "202205", "deductibility": "1", "assets": 20914, "income": 25704, "revenue": 15569}, {"ein": "912047527", "name": "SACHEM ICE HOCKEY CLUB", "city": "HOLBROOK", "state": "NY", "zip": "11741-0088", "ntee": "N68", "ruling": "200101", "deductibility": "1", "assets": 110156, "income": 231213, "revenue": 231213}, {"ein": "922147797", "name": "SODUS BAY ICE BOAT CLUB INC", "city": "SODUS POINT", "state": "NY", "zip": "14555-0127", "ntee": "N68", "ruling": "202403", "deductibility": "1", "assets": 0, "income": 0, "revenue": 0}, {"ein": "922939112", "name": "BROADWAY AND ICE INC", "city": "NEW YORK", "state": "NY", "zip": "10033-6633", "ntee": "O50", "ruling": "202306", "deductibility": "1", "assets": 0, "income": 0, "revenue": 0}, {"ein": "932791249", "name": "BALL & BUILD ICE 4 YOUTH", "city": "BUFFALO", "state": "NY", "zip": "14203-1547", "ntee": "P30", "ruling": "202309", "deductibility": "1", "assets": 0, "income": 0, "revenue": 0}, {"ein": "933195653", "name": "NEW YORK COLLEGIATE ICE HOCKEY CLUB", "city": "BELLMORE", "state": "NY", "zip": "11710-3812", "ntee": "N60", "ruling": "202408", "deductibility": "1", "assets": 0, "income": 0, "revenue": 0}, {"ein": "933951051", "name": "HUDSON RIVER ICE YACHT PRESERVATION TRUST", "city": "RHINECLIFF", "state": "NY", "zip": "12574-0185", "ntee": "A82", "ruling": "202310", "deductibility": "1", "assets": 0, "income": 0, "revenue": 0}, {"ein": "993262606", "name": "ESM HIGH SCHOOL ICE HOCKEY INC", "city": "MASTIC", "state": "NY", "zip": "11950-1517", "ntee": "O20", "ruling": "202506", "deductibility": "1", "assets": 0, "income": 0, "revenue": 0}, {"ein": "994153653", "name": "ICE ANGEL PROJECT INC", "city": "STATEN ISLAND", "state": "NY", "zip": "10314-6722", "ntee": "G30", "ruling": "202408", "deductibility": "1", "assets": 0, "income": 0, "revenue": 0}], "INDIAINC": [{"ein": "133042386", "name": "THE FOUNDATION FOR THE NATIONAL PERFORMING ARTS CENTRE OF INDIAINC", "city": "BELLMORE", "state": "NY", "zip": "11710-0000", "ntee": "", "ruling": "198011", "deductibility": "1", "assets": 1, "income": 1, "revenue": 0}], "PARLIAMENTARY": [{"ein": "133217802", "name": "INTER-AMERICAN PARLIAMENTARY GROUP ON POPULATION AND DEVELOPMENT INC", "city": "NEW YORK", "state": "NY", "zip": "10019-4368", "ntee": "Q20Z", "ruling": "198410", "deductibility": "1", "assets": 27210, "income": 371793, "revenue": 371793}], "SUZUKI": [{"ein": "133263534", "name": "BUFFALO SUZUKI STRINGS INC", "city": "N TONAWANDA", "state": "NY", "zip": "14120-5810", "ntee": "A6E0", "ruling": "198311", "deductibility": "1", "assets": 1640643, "income": 733665, "revenue": 733665}, {"ein": "751966440", "name": "INTERNATIONAL SUZUKI ASSOCIATION", "city": "NEW YORK", "state": "NY", "zip": "10023-1498", "ntee": "A68P", "ruling": "198408", "deductibility": "1", "assets": 358420, "income": 62885, "revenue": 62885}, {"ein": "880854178", "name": "ITHACA SUZUKI INSTITUTE INC", "city": "ITHACA", "state": "NY", "zip": "14850-3211", "ntee": "A6E", "ruling": "202206", "deductibility": "1", "assets": 13165, "income": 71659, "revenue": 71009}, {"ein": "884398693", "name": "ITHACA SUZUKI MUSIC FOUNDATION INC", "city": "ITHACA", "state": "NY", "zip": "14850-5719", "ntee": "A11", "ruling": "202309", "deductibility": "1", "assets": 0, "income": 0, "revenue": 0}], "TRESS": [{"ein": "133359835", "name": "CONGREGATION BAIS AVROHOM KOL YAAKOV C/O S TRESS", "city": "MONSEY", "state": "NY", "zip": "10952-2509", "ntee": "", "ruling": "198611", "deductibility": "1", "assets": 0, "income": 0, "revenue": 0}], "GLAAD": [{"ein": "133384027", "name": "GLAAD INC", "city": "NEW YORK", "state": "NY", "zip": "10001-5310", "ntee": "", "ruling": "198905", "deductibility": "1", "assets": 45527174, "income": 36091672, "revenue": 13635114}], "PEPSICO": [{"ein": "133407827", "name": "PEPSICO EMPLOYEES LONG TERM DISABILITY BENEFIT TRUST", "city": "PURCHASE", "state": "NY", "zip": "10577-1401", "ntee": "", "ruling": "198808", "deductibility": "2", "assets": 5179000, "income": 81507000, "revenue": 81507000}, {"ein": "136163174", "name": "PEPSICO FOUNDATION INC", "city": "PURCHASE", "state": "NY", "zip": "10577-1401", "ntee": "", "ruling": "196305", "deductibility": "1", "assets": 66360081, "income": 87248498, "revenue": 0}], "GRANDVIEW": [{"ein": "133543403", "name": "PTA NEW YORK CONGRESS GRANDVIEW PTA", "city": "MONSEY", "state": "NY", "zip": "10952-1414", "ntee": "", "ruling": "195405", "deductibility": "1", "assets": 0, "income": 0, "revenue": 0}, {"ein": "137297946", "name": "GRANDVIEW-STEERS FOUNDATION", "city": "RYE", "state": "NY", "zip": "10580-1806", "ntee": "", "ruling": "200108", "deductibility": "1", "assets": 11691377, "income": 3072850, "revenue": 0}, {"ein": "161249640", "name": "GRANDVIEW BAPTIST CHURCH INC", "city": "FORT PLAIN", "state": "NY", "zip": "13339-0169", "ntee": "", "ruling": "198704", "deductibility": "1", "assets": 0, "income": 0, "revenue": 0}], "NOSOTROS": [{"ein": "133701038", "name": "NOSOTROS HOUSING DEVELOPMENT FUND CORPORATION", "city": "BRONX", "state": "NY", "zip": "10452-1758", "ntee": "L800", "ruling": "199411", "deductibility": "1", "assets": 2663912, "income": 2007626, "revenue": 2007626}, {"ein": "133787490", "name": "NOSOTROS-SHAKESPEARE HOUSING DEVELOPMENT COMPANY INC", "city": "BRONX", "state": "NY", "zip": "10452-1758", "ntee": "", "ruling": "199412", "deductibility": "1", "assets": 0, "income": 0, "revenue": 0}, {"ein": "201818669", "name": "NOSOTROS RADIO INC", "city": "SYRACUSE", "state": "NY", "zip": "13204-2124", "ntee": "A34", "ruling": "200610", "deductibility": "1", "assets": 0, "income": 0, "revenue": 0}], "VIVIFIANTE": [{"ein": "133735278", "name": "EGLISE VIVIFIANTE", "city": "ELMONT", "state": "NY", "zip": "11003-2012", "ntee": "X20Z", "ruling": "196911", "deductibility": "1", "assets": 0, "income": 0, "revenue": 0}], "HECHAL": [{"ein": "133781387", "name": "AMERICAN FRIENDS OF YESHIVAT HECHAL EZRA", "city": "BROOKLYN", "state": "NY", "zip": "11210-3714", "ntee": "", "ruling": "199409", "deductibility": "1", "assets": 0, "income": 0, "revenue": 0}, {"ein": "475093303", "name": "YESHIVAT HECHAL SHEMUEL INC", "city": "BROOKLYN", "state": "NY", "zip": "11229-1205", "ntee": "X30", "ruling": "201602", "deductibility": "1", "assets": 0, "income": 0, "revenue": 0}, {"ein": "510188299", "name": "HECHAL EZRA TALMUD TORAK", "city": "BROOKLYN", "state": "NY", "zip": "11223-4045", "ntee": "", "ruling": "197605", "deductibility": "1", "assets": 0, "income": 0, "revenue": 0}], "JOURNEYS": [{"ein": "133856797", "name": "SHARED JOURNEYS INC", "city": "ITHACA", "state": "NY", "zip": "14850-3727", "ntee": "W90Z", "ruling": "199604", "deductibility": "1", "assets": 61869, "income": 91425, "revenue": 86537}, {"ein": "161242203", "name": "JOURNEYS END REFUGEE SERVICES", "city": "BUFFALO", "state": "NY", "zip": "14214-2135", "ntee": "", "ruling": "198706", "deductibility": "1", "assets": 5408533, "income": 10904264, "revenue": 10799260}, {"ein": "262399434", "name": "JOURNEYS OF SOLUTIONS INC", "city": "WEBSTER", "state": "NY", "zip": "14580-0028", "ntee": "Q30", "ruling": "200811", "deductibility": "1", "assets": 191639, "income": 264733, "revenue": 264733}, {"ein": "800183351", "name": "ADVENTURE CENTER JOURNEYS OF WONDER INC", "city": "BRONX", "state": "NY", "zip": "10471-3841", "ntee": "O50", "ruling": "200808", "deductibility": "1", "assets": 0, "income": 0, "revenue": 0}, {"ein": "931610782", "name": "BLUE HEALING JOURNEYS INC", "city": "SEA CLIFF", "state": "NY", "zip": "11579-1625", "ntee": "F60", "ruling": "202308", "deductibility": "1", "assets": 5724, "income": 11250, "revenue": 11250}], "TENT": [{"ein": "133866060", "name": "EVANGELISTIC CRUZADE UNDER TENT THE GREAT COMMISSION INC", "city": "BRONX", "state": "NY", "zip": "10468-3167", "ntee": "X20Z", "ruling": "199709", "deductibility": "1", "assets": 0, "income": 0, "revenue": 0}, {"ein": "208358027", "name": "TENT OF REFUGE AND HOPE MINISTRY", "city": "OZONE PARK", "state": "NY", "zip": "11416-2511", "ntee": "", "ruling": "196402", "deductibility": "1", "assets": 0, "income": 0, "revenue": 0}, {"ein": "222403927", "name": "VARIETY CLUB WOMEN OF BUFFALO TENT NO 7", "city": "LANCASTER", "state": "NY", "zip": "14086-9100", "ntee": "", "ruling": "198302", "deductibility": "2", "assets": 18015, "income": 66957, "revenue": 40062}, {"ein": "260902504", "name": "ABRAHAMS TENT INC", "city": "EAST MEADOW", "state": "NY", "zip": "11554-1001", "ntee": "Q12", "ruling": "201302", "deductibility": "1", "assets": 129139, "income": 221534, "revenue": 221534}, {"ein": "264041246", "name": "TANGO UNDER THE TENT INC", "city": "MIDDLETOWN", "state": "NY", "zip": "10940-0839", "ntee": "A23", "ruling": "201105", "deductibility": "1", "assets": 0, "income": 0, "revenue": 0}, {"ein": "472761733", "name": "TENT FOUNDATION", "city": "NEW YORK", "state": "NY", "zip": "10012-4079", "ntee": "T20", "ruling": "201507", "deductibility": "1", "assets": 30044796, "income": 10999814, "revenue": 0}, {"ein": "475017204", "name": "DYNAMITE CALYPSO TENT OF NEW YORK", "city": "BROOKLYN", "state": "NY", "zip": "11207-4306", "ntee": "A20", "ruling": "202408", "deductibility": "1", "assets": 0, "income": 0, "revenue": 0}, {"ein": "811081567", "name": "TENT MINSTRIES", "city": "BROOKLYN", "state": "NY", "zip": "11237-3604", "ntee": "P20", "ruling": "201803", "deductibility": "1", "assets": 246538, "income": 173941, "revenue": 173941}, {"ein": "871705949", "name": "JESUS REVIVAL TENT MINISTRY INTERDENOMINATIONAL INC", "city": "BROOKLYN", "state": "NY", "zip": "11212-3364", "ntee": "X20", "ruling": "202209", "deductibility": "1", "assets": 0, "income": 0, "revenue": 0}, {"ein": "874143276", "name": "TENT REVIVALS OF UPSTATE NY INC", "city": "ROME", "state": "NY", "zip": "13440-1945", "ntee": "X20", "ruling": "202205", "deductibility": "1", "assets": 0, "income": 0, "revenue": 0}, {"ein": "880589211", "name": "TENT THEATER COMPANY INC", "city": "BROOKLYN", "state": "NY", "zip": "11226-1727", "ntee": "A20", "ruling": "202203", "deductibility": "1", "assets": 0, "income": 0, "revenue": 0}], "ZALAZNICK": [{"ein": "133921831", "name": "BARBARA M ZALAZNICK FOUNDATION", "city": "NEW YORK", "state": "NY", "zip": "10017-4631", "ntee": "A99Z", "ruling": "199704", "deductibility": "1", "assets": 14292485, "income": 12751863, "revenue": 0}], "SAIGON": [{"ein": "133955816", "name": "SAIGON CHILDRENS CHARITY USA", "city": "NEW YORK", "state": "NY", "zip": "10024-5129", "ntee": "Q113", "ruling": "200001", "deductibility": "1", "assets": 145201, "income": 87703, "revenue": 87703}], "GIORDANO": [{"ein": "133966046", "name": "MARIE-CHRISTINE GIORDANO DANCE COMPANY INC", "city": "BROOKLYN", "state": "NY", "zip": "11232-1391", "ntee": "A62Z", "ruling": "199804", "deductibility": "1", "assets": 566, "income": 38370, "revenue": 38370}, {"ein": "300961117", "name": "BARBARA E GIORDANO FOUNDATION INC", "city": "BEDFORD", "state": "NY", "zip": "10506-2025", "ntee": "P20", "ruling": "201702", "deductibility": "1", "assets": 45186, "income": 14554, "revenue": 14554}, {"ein": "921384552", "name": "JAMES AND GINA GIORDANO FOUNDATION INC", "city": "BROOKLYN", "state": "NY", "zip": "11209-0000", "ntee": "T20", "ruling": "202501", "deductibility": "1", "assets": 669480, "income": 442687, "revenue": 0}], "BLOOMFIELD": [{"ein": "134014664", "name": "BLOOMFIELD CONSERVANCY INC", "city": "STATEN ISLAND", "state": "NY", "zip": "10314-3403", "ntee": "C500", "ruling": "199809", "deductibility": "1", "assets": 573920, "income": 160812, "revenue": 160812}, {"ein": "161110588", "name": "HISTORICAL SOCIETY OF THE TOWN OF EAST BLOOMFIELD", "city": "E BLOOMFIELD", "state": "NY", "zip": "14443-0212", "ntee": "A80", "ruling": "199909", "deductibility": "1", "assets": 407384, "income": 33429, "revenue": 28742}, {"ein": "161227900", "name": "THE EAST BLOOMFIELD-HOLCOMB FIRE DEPARTMENT INC", "city": "E BLOOMFIELD", "state": "NY", "zip": "14443-0246", "ntee": "M24", "ruling": "200808", "deductibility": "1", "assets": 438182, "income": 51034, "revenue": 47448}, {"ein": "161282404", "name": "WEST BLOOMFIELD FIRE DEPARTMENT INC", "city": "W BLOOMFIELD", "state": "NY", "zip": "14585-0024", "ntee": "M24", "ruling": "202104", "deductibility": "1", "assets": 264295, "income": 119312, "revenue": 119312}, {"ein": "237036397", "name": "RURAL CEMETERY ASSOCIATION OF WEST BLOOMFIELD", "city": "BLOOMFIELD", "state": "NY", "zip": "14469-9557", "ntee": "", "ruling": "195806", "deductibility": "1", "assets": 0, "income": 0, "revenue": 0}, {"ein": "300862587", "name": "FRIENDS OF THE BLOOMFIELD PUBLIC LIBRARY", "city": "BLOOMFIELD", "state": "NY", "zip": "14469-9342", "ntee": "B11", "ruling": "201511", "deductibility": "1", "assets": 0, "income": 0, "revenue": 0}, {"ein": "464661896", "name": "TOWN OF WEST BLOOMFIELD HISTORICAL SOCIETY", "city": "W BLOOMFIELD", "state": "NY", "zip": "14585-0173", "ntee": "A80", "ruling": "201605", "deductibility": "1", "assets": 0, "income": 0, "revenue": 0}, {"ein": "753228808", "name": "BLOOMFIELD SOCCER CLUB", "city": "BLOOMFIELD", "state": "NY", "zip": "14469-0536", "ntee": "N64", "ruling": "201902", "deductibility": "1", "assets": 0, "income": 0, "revenue": 0}, {"ein": "844555941", "name": "BLOOMFIELD BOMBERS BOOSTERS INC", "city": "BLOOMFIELD", "state": "NY", "zip": "14469-0302", "ntee": "O99", "ruling": "202003", "deductibility": "1", "assets": 0, "income": 0, "revenue": 0}], "BALSAMO": [{"ein": "134101107", "name": "BALSAMO FAMILY FOUNDATION INC", "city": "NEW YORK", "state": "NY", "zip": "10006-2744", "ntee": "T20", "ruling": "200104", "deductibility": "1", "assets": 1699753, "income": 1176502, "revenue": 0}], "NOEM": [{"ein": "134130689", "name": "DYBRIE NOEM", "city": "BROOKLYN", "state": "NY", "zip": "11205-0226", "ntee": "X30", "ruling": "200011", "deductibility": "1", "assets": 0, "income": 0, "revenue": 0}], "SHANNON": [{"ein": "134226290", "name": "SHANNON AND ANDREW S PENSON FOUNDATION", "city": "NEW YORK", "state": "NY", "zip": "10176-3499", "ntee": "T22", "ruling": "200302", "deductibility": "1", "assets": 174323, "income": 803487, "revenue": 0}, {"ein": "272354756", "name": "SHANNON GAELS GAELIC FOOTLBALL CLUB", "city": "QUEENS", "state": "NY", "zip": "11379-2440", "ntee": "N63", "ruling": "201011", "deductibility": "1", "assets": 175326, "income": 155367, "revenue": 107996}, {"ein": "473709817", "name": "SHANNON KIERNAN MEMORIAL INC", "city": "MANORVILLE", "state": "NY", "zip": "11949-2406", "ntee": "B82", "ruling": "201507", "deductibility": "1", "assets": 0, "income": 0, "revenue": 0}, {"ein": "510101350", "name": "THE SHANNON AND SAM CASPERSEN FOUNDATION", "city": "NEW YORK", "state": "NY", "zip": "10128-1234", "ntee": "", "ruling": "196408", "deductibility": "1", "assets": 284060, "income": 27600, "revenue": 0}, {"ein": "920673357", "name": "KEN & SHANNON ESLICK FAMILY FOUNDATION INC", "city": "WEST NYACK", "state": "NY", "zip": "10994-2822", "ntee": "B12", "ruling": "202211", "deductibility": "1", "assets": 1, "income": 1, "revenue": 0}], "STRUCT": [{"ein": "135591951", "name": "LOCAL UNION NO 197 OF THE INTERN ASSOC OF BRIDGE STRUCT & ORNAMENT", "city": "LONG ISLAND CITY", "state": "NY", "zip": "11101-2420", "ntee": "", "ruling": "199308", "deductibility": "2", "assets": 1231797, "income": 1196098, "revenue": 1196098}], "SOROKA": [{"ein": "135866593", "name": "AMERICAN FRIENDS OF SOROKA MEDICAL CENTER INC", "city": "SCARSDALE", "state": "NY", "zip": "10583-7501", "ntee": "Q300", "ruling": "199605", "deductibility": "1", "assets": 3577200, "income": 12845727, "revenue": 12394866}], "STELLE": [{"ein": "136124591", "name": "EMIL & STELLE ROGERS FOUNDATION INC", "city": "NEW YORK", "state": "NY", "zip": "10024-6038", "ntee": "", "ruling": "195810", "deductibility": "1", "assets": 291915, "income": 6395, "revenue": 0}], "HOCHSTEIN": [{"ein": "136161765", "name": "HOCHSTEIN FOUNDATION INC", "city": "NEW YORK", "state": "NY", "zip": "10018-3496", "ntee": "", "ruling": "196307", "deductibility": "1", "assets": 87078151, "income": 24826091, "revenue": 0}, {"ein": "160768758", "name": "DAVID HOCHSTEIN MEMORIAL MUSIC SCHOOL INC", "city": "ROCHESTER", "state": "NY", "zip": "14614-1221", "ntee": "A6E0", "ruling": "196202", "deductibility": "1", "assets": 10964333, "income": 4783251, "revenue": 4469833}, {"ein": "871809892", "name": "RN HOCHSTEIN FOUNDATION INC", "city": "NEW YORK", "state": "NY", "zip": "10018-3471", "ntee": "T20", "ruling": "202203", "deductibility": "1", "assets": 222644, "income": 258394, "revenue": 0}, {"ein": "871810056", "name": "MS HOCHSTEIN FOUNDATION INC", "city": "NEW YORK", "state": "NY", "zip": "10018-3471", "ntee": "T20", "ruling": "202203", "deductibility": "1", "assets": 543838, "income": 267436, "revenue": 0}, {"ein": "871810190", "name": "SA HOCHSTEIN FOUNDATION INC", "city": "NEW YORK", "state": "NY", "zip": "10018-3471", "ntee": "T20", "ruling": "202203", "deductibility": "1", "assets": 406640, "income": 265192, "revenue": 0}, {"ein": "871810286", "name": "BERNARD HOCHSTEIN FOUNDATION INC", "city": "NEW YORK", "state": "NY", "zip": "10018-3471", "ntee": "T20", "ruling": "202203", "deductibility": "1", "assets": 246564, "income": 291386, "revenue": 0}], "HELMET": [{"ein": "136167233", "name": "INSTITUT DE LA SAINTE FAMILLE DHELMET HELMET", "city": "NEW YORK", "state": "NY", "zip": "10005-2808", "ntee": "", "ruling": "197510", "deductibility": "1", "assets": 0, "income": 0, "revenue": 0}], "BURROUGHS": [{"ein": "136167885", "name": "THE JOHN BURROUGHS ASSOCIATION", "city": "WEST PARK", "state": "NY", "zip": "12493-0439", "ntee": "", "ruling": "193012", "deductibility": "1", "assets": 0, "income": 0, "revenue": 0}, {"ein": "166054355", "name": "BURROUGHS AUDUBON NATURE CLUB", "city": "ROCHESTER", "state": "NY", "zip": "14610-3107", "ntee": "", "ruling": "194405", "deductibility": "1", "assets": 373598, "income": 11782, "revenue": 11782}, {"ein": "237054754", "name": "JOHN BURROUGHS NATURAL HISTORY SOCIETY", "city": "KINGSTON", "state": "NY", "zip": "12402-4223", "ntee": "", "ruling": "197002", "deductibility": "1", "assets": 0, "income": 0, "revenue": 0}, {"ein": "237413428", "name": "JOHN BURROUGHS WOODCHUCK LODGE", "city": "ROXBURY", "state": "NY", "zip": "12474-0492", "ntee": "A50", "ruling": "201607", "deductibility": "1", "assets": 0, "income": 0, "revenue": 0}], "LEGIONS": [{"ein": "136201420", "name": "AMERICAN SOCIETY OF THE ITALIAN LEGIONS OF MERIT INC", "city": "NEW YORK", "state": "NY", "zip": "10021-4906", "ntee": "A23", "ruling": "202203", "deductibility": "1", "assets": 226906, "income": 104200, "revenue": 104200}], "FIERRO": [{"ein": "136348894", "name": "ELSIE H DEL FIERRO TRUST", "city": "NEW YORK", "state": "NY", "zip": "10016-0000", "ntee": "", "ruling": "000000", "deductibility": "0", "assets": 251798, "income": 21447, "revenue": 0}], "LEVIANT": [{"ein": "137000812", "name": "LEVIANT FOUNDATION TR", "city": "NEW YORK", "state": "NY", "zip": "10022-3329", "ntee": "", "ruling": "199401", "deductibility": "1", "assets": 9449258, "income": 2040128, "revenue": 0}], "MONICA": [{"ein": "137118108", "name": "VICTOR AND MONICA MARKOWICZ CHARITABLE TRUST", "city": "LARCHMONT", "state": "NY", "zip": "10538-0000", "ntee": "J00Z", "ruling": "199707", "deductibility": "1", "assets": 328255, "income": 22433, "revenue": 0}, {"ein": "473758208", "name": "EUGENE AND MONICA E HOLLANDER FOUNDATION", "city": "SYOSSET", "state": "NY", "zip": "11791-2628", "ntee": "", "ruling": "201603", "deductibility": "0", "assets": 12128, "income": 14, "revenue": 0}, {"ein": "611524101", "name": "MONICA BILL BARNES & COMPANY", "city": "NEW YORK", "state": "NY", "zip": "10014-2713", "ntee": "A20", "ruling": "200711", "deductibility": "1", "assets": 448893, "income": 506376, "revenue": 506376}, {"ein": "812486953", "name": "ROMAN CATHOLIC CHURCH OF SAINT MONICA SAINT ELIZABETH OF HUNGARY", "city": "NEW YORK", "state": "NY", "zip": "10075-1042", "ntee": "", "ruling": "194603", "deductibility": "1", "assets": 0, "income": 0, "revenue": 0}, {"ein": "841395114", "name": "PAUL AND MONICA BANCROFT FAMILY FOUNDATION", "city": "GARDEN CITY", "state": "NY", "zip": "11530-1650", "ntee": "T22Z", "ruling": "199705", "deductibility": "1", "assets": 4411175, "income": 827360, "revenue": 0}], "JERVIS": [{"ein": "140976255", "name": "PORT JERVIS COUNTRY CLUB INC", "city": "PORT JERVIS", "state": "NY", "zip": "12771-0242", "ntee": "N50", "ruling": "200005", "deductibility": "2", "assets": 0, "income": 0, "revenue": 0}, {"ein": "141459064", "name": "HUMANE SOCIETY OF PORT JERVIS -DEERPARK INC", "city": "PORT JERVIS", "state": "NY", "zip": "12771-5102", "ntee": "D200", "ruling": "196604", "deductibility": "1", "assets": 1012392, "income": 456540, "revenue": 456540}, {"ein": "141819280", "name": "471 COLUMBIAN CLUB OF PORT JERVIS NEW YORK INC", "city": "PORT JERVIS", "state": "NY", "zip": "12771-2033", "ntee": "S47", "ruling": "201306", "deductibility": "1", "assets": 0, "income": 0, "revenue": 0}, {"ein": "150617569", "name": "JERVIS PUBLIC LIBRARY ASSOCIATION", "city": "ROME", "state": "NY", "zip": "13440-4264", "ntee": "", "ruling": "196109", "deductibility": "1", "assets": 3394402, "income": 1870135, "revenue": 1870135}, {"ein": "201375856", "name": "PORT JERVIS FIRE DEPARTMENT", "city": "PORT JERVIS", "state": "NY", "zip": "12771-2717", "ntee": "P600", "ruling": "200708", "deductibility": "1", "assets": 132623, "income": 33060, "revenue": 33060}, {"ein": "202783461", "name": "MARIAN COOPER COMMUNITY FOUNDATION OF PORT JERVIS", "city": "CUDDEBACKVILLE", "state": "NY", "zip": "12729-0000", "ntee": "T31", "ruling": "200512", "deductibility": "1", "assets": 495127, "income": 91158, "revenue": 91158}, {"ein": "223012801", "name": "PORT JERVIS TEACHERS ASSOCIATION BENEFIT FUND", "city": "CUDDEBACKVILLE", "state": "NY", "zip": "12729-0000", "ntee": "", "ruling": "199110", "deductibility": "2", "assets": 163295, "income": 412886, "revenue": 412886}, {"ein": "223023720", "name": "PORT JERVIS COUNCIL FOR THE ARTS", "city": "PORT JERVIS", "state": "NY", "zip": "12771-0174", "ntee": "A20", "ruling": "200107", "deductibility": "1", "assets": 0, "income": 0, "revenue": 0}, {"ein": "237074888", "name": "CSEA UNIT 0836-790400 ORANGE COUNTY CITY OF PORT JERVIS", "city": "PORT JERVIS", "state": "NY", "zip": "12771-2410", "ntee": "J40", "ruling": "202312", "deductibility": "2", "assets": 0, "income": 0, "revenue": 0}, {"ein": "261398680", "name": "POLICE BENEVOLENT ASSOCITATIN O F THE CITY OF PORT JERVIS INC", "city": "PORT JERVIS", "state": "NY", "zip": "12771-0126", "ntee": "J40", "ruling": "200902", "deductibility": "2", "assets": 138933, "income": 84714, "revenue": 59960}, {"ein": "272944310", "name": "PORT JERVIS YOUTH FOOTBALL INC", "city": "PORT JERVIS", "state": "NY", "zip": "12771-0181", "ntee": "N65", "ruling": "201203", "deductibility": "1", "assets": 73567, "income": 59667, "revenue": 42662}, {"ein": "461469899", "name": "PORT JERVIS SOAP BOX DERBY INC", "city": "GLEN SPEY", "state": "NY", "zip": "12737-8513", "ntee": "B82", "ruling": "201409", "deductibility": "1", "assets": 74079, "income": 40488, "revenue": 38841}, {"ein": "510187995", "name": "PORT JERVIS VOLUNTEER AMBULANCE CORPS INC", "city": "PORT JERVIS", "state": "NY", "zip": "12771-2011", "ntee": "E62", "ruling": "200009", "deductibility": "1", "assets": 1172359, "income": 1303814, "revenue": 1303814}, {"ein": "800539990", "name": "FRIENDS OF JERVIS PUBLIC LIBRARY INC", "city": "ROME", "state": "NY", "zip": "13440-4264", "ntee": "B11", "ruling": "201106", "deductibility": "1", "assets": 0, "income": 0, "revenue": 0}, {"ein": "800663781", "name": "BUSINESS & PROFESSIONAL WOMENS CLUB OF PORT JERVIS NY", "city": "PORT JERVIS", "state": "NY", "zip": "12771-0720", "ntee": "B82", "ruling": "201208", "deductibility": "1", "assets": 42888, "income": 63939, "revenue": 47261}, {"ein": "812414584", "name": "PORT JERVIS LITTLE LEAGUE", "city": "PORT JERVIS", "state": "NY", "zip": "12771-0430", "ntee": "N63", "ruling": "202502", "deductibility": "1", "assets": 98449, "income": 79436, "revenue": 62009}, {"ein": "814448411", "name": "OUTDOOR CLUB OF PORT JERVIS INC", "city": "PORT JERVIS", "state": "NY", "zip": "12771-0803", "ntee": "C99", "ruling": "201612", "deductibility": "1", "assets": 32254, "income": 41721, "revenue": 39169}, {"ein": "842808700", "name": "FRIENDS OF PORT JERVIS ART & HISTORY", "city": "PORT JERVIS", "state": "NY", "zip": "12771-1931", "ntee": "A20", "ruling": "201909", "deductibility": "1", "assets": 0, "income": 0, "revenue": 0}, {"ein": "843088009", "name": "OUR LADY OF MOUNT CARMEL SOCIETY OF PORT JERVIS NY INC", "city": "PORT JERVIS", "state": "NY", "zip": "12771-3004", "ntee": "X22", "ruling": "202001", "deductibility": "1", "assets": 0, "income": 0, "revenue": 0}, {"ein": "870773098", "name": "FRIENDS OF THE PORT JERVIS LIBRARY INC", "city": "PORT JERVIS", "state": "NY", "zip": "12771-1808", "ntee": "B11", "ruling": "200710", "deductibility": "1", "assets": 0, "income": 0, "revenue": 0}, {"ein": "900772362", "name": "BETHEL COMMUNITY CHURCH OF PORT JERVIS NEW YORK", "city": "PORT JERVIS", "state": "NY", "zip": "12771-1724", "ntee": "X20", "ruling": "201208", "deductibility": "1", "assets": 0, "income": 0, "revenue": 0}, {"ein": "933065620", "name": "PORT JERVIS HERITAGE CENTER INC", "city": "PORT JERVIS", "state": "NY", "zip": "12771-1523", "ntee": "A82", "ruling": "202309", "deductibility": "1", "assets": 0, "income": 0, "revenue": 0}], "CRANDALL": [{"ein": "141338381", "name": "CRANDALL LIBRARY", "city": "GLENS FALLS", "state": "NY", "zip": "12801-3546", "ntee": "B71Z", "ruling": "195502", "deductibility": "1", "assets": 18580225, "income": 4877443, "revenue": 4858622}, {"ein": "141821465", "name": "DONNA M CRANDALL FOUNDATION INC", "city": "LOUDONVILLE", "state": "NY", "zip": "12211-1948", "ntee": "T30", "ruling": "200006", "deductibility": "1", "assets": 257230, "income": 71864, "revenue": 71864}, {"ein": "141824831", "name": "CRANDALL PARK BEAUTIFICATION COMMITTEE", "city": "GLENS FALLS", "state": "NY", "zip": "12801-0973", "ntee": "C30", "ruling": "200102", "deductibility": "1", "assets": 65989, "income": 19973, "revenue": 19973}, {"ein": "146025336", "name": "CRANDALL TRUST", "city": "GLENS FALLS", "state": "NY", "zip": "12801-3505", "ntee": "", "ruling": "196506", "deductibility": "1", "assets": 3317212, "income": 968552, "revenue": 239482}, {"ein": "146195747", "name": "GEORGE D FLIEHMAN TR UW FBO CRANDALL PUBLIC LIBRARY", "city": "GLENS FALLS", "state": "NY", "zip": "12801-2161", "ntee": "B117", "ruling": "200005", "deductibility": "1", "assets": 258268, "income": 43236, "revenue": 0}, {"ein": "156025276", "name": "CRANDALL MELVIN CHAIR FOR WILLS & TRUSTS", "city": "BUFFALO", "state": "NY", "zip": "14240-1504", "ntee": "", "ruling": "196403", "deductibility": "1", "assets": 1196398, "income": 359317, "revenue": 97304}, {"ein": "237006376", "name": "FRIENDS OF CRANDALL LIBRARY", "city": "GLENS FALLS", "state": "NY", "zip": "12801-0330", "ntee": "", "ruling": "196901", "deductibility": "1", "assets": 136183, "income": 30085, "revenue": 30085}, {"ein": "270006697", "name": "A E CRANDALL HOOK AND LADDER COMPANY INC", "city": "ALFRED", "state": "NY", "zip": "14802-0582", "ntee": "M24", "ruling": "201102", "deductibility": "1", "assets": 1164829, "income": 198847, "revenue": 198847}], "BUILDER": [{"ein": "141416337", "name": "NEW YORK STATE BUILDER ASSOC INC", "city": "EAST SCHODACK", "state": "NY", "zip": "12063-0552", "ntee": "", "ruling": "195311", "deductibility": "2", "assets": 544689, "income": 411914, "revenue": 381040}, {"ein": "453066580", "name": "COMMUNITY BRIDGE BUILDER FOUNDATION INC", "city": "BROOKLYN", "state": "NY", "zip": "11233-4802", "ntee": "B82", "ruling": "201203", "deductibility": "1", "assets": 0, "income": 0, "revenue": 0}, {"ein": "844024180", "name": "SOCIAL BUILDER INC", "city": "NEW YORK", "state": "NY", "zip": "10030-1032", "ntee": "J22", "ruling": "202005", "deductibility": "1", "assets": 0, "income": 0, "revenue": 0}], "SHOWHOUSE": [{"ein": "141878649", "name": "HAMPTON DESIGNER SHOWHOUSE FOUNDATION INC", "city": "CLINTON CORS", "state": "NY", "zip": "12514-0126", "ntee": "E12", "ruling": "200403", "deductibility": "1", "assets": 48446, "income": 375266, "revenue": 375266}], "SEAL": [{"ein": "150442260", "name": "SEAL & SERPENT SOC", "city": "ITHACA", "state": "NY", "zip": "14850-2429", "ntee": "", "ruling": "193004", "deductibility": "2", "assets": 365958, "income": 232482, "revenue": 232482}, {"ein": "237901432", "name": "ANNA SNIVELY TR FBO EASTER SEAL SOCIETY FRANKLIN CO", "city": "BUFFALO", "state": "NY", "zip": "14240-1504", "ntee": "T20", "ruling": "200508", "deductibility": "1", "assets": 144972, "income": 50287, "revenue": 0}, {"ein": "260640812", "name": "DHARMA SEAL MONASTERY INC", "city": "WALDEN", "state": "NY", "zip": "12586-2705", "ntee": "X20", "ruling": "200803", "deductibility": "1", "assets": 1037902, "income": 120585, "revenue": 120585}, {"ein": "460565393", "name": "SEAL FUTURE FOUNDATION INC", "city": "NEW YORK", "state": "NY", "zip": "10003-5504", "ntee": "T12", "ruling": "201410", "deductibility": "1", "assets": 1940869, "income": 4841902, "revenue": 3614114}, {"ein": "510475251", "name": "INTERNATIONAL SEAL MANUFACTURERS ASSOCIATION INC", "city": "PLAINVIEW", "state": "NY", "zip": "11803-2401", "ntee": "S41", "ruling": "201311", "deductibility": "2", "assets": 0, "income": 0, "revenue": 0}, {"ein": "814132284", "name": "LT MICHAEL P MURPHY NAVY SEAL MUSEUM", "city": "WEST SAYVILLE", "state": "NY", "zip": "11796-1908", "ntee": "A50", "ruling": "201704", "deductibility": "1", "assets": 3244880, "income": 795963, "revenue": 632259}], "CASCADILLA": [{"ein": "161099792", "name": "CASCADILLA BOAT CLUB LTD", "city": "ITHACA", "state": "NY", "zip": "14852-4032", "ntee": "N67Z", "ruling": "197912", "deductibility": "1", "assets": 309892, "income": 454268, "revenue": 453932}], "GADABOUT": [{"ein": "161158497", "name": "GADABOUT TRANSPORTATION SERVICES INC", "city": "ITHACA", "state": "NY", "zip": "14850-3214", "ntee": "E62Z", "ruling": "198107", "deductibility": "1", "assets": 4829035, "income": 3551901, "revenue": 3396780}], "BUFALO": [{"ein": "161328364", "name": "PARENTS & FRIENDS OF LESBIANS & GAY MEN OF BUFALO-NIAGARA INC", "city": "BUFFALO", "state": "NY", "zip": "14207-0617", "ntee": "", "ruling": "199208", "deductibility": "1", "assets": 0, "income": 0, "revenue": 0}], "SOLITUDE": [{"ein": "161417558", "name": "CENTER OF SOLITUDE INC", "city": "BELMONT", "state": "NY", "zip": "14813-0112", "ntee": "J21Z", "ruling": "199301", "deductibility": "1", "assets": 262237, "income": 13687, "revenue": 11975}], "CCRC": [{"ein": "161584941", "name": "ORCHARD PARK CCRC INC", "city": "ORCHARD PARK", "state": "NY", "zip": "14127-3165", "ntee": "L22", "ruling": "200203", "deductibility": "1", "assets": 84179252, "income": 24130055, "revenue": 20940124}], "KEEPING": [{"ein": "161601381", "name": "CHURCH OF GOD SABBATH KEEPING OF SYRACUSE", "city": "SYRACUSE", "state": "NY", "zip": "13206-3245", "ntee": "X21", "ruling": "201206", "deductibility": "1", "assets": 0, "income": 0, "revenue": 0}, {"ein": "261489571", "name": "KEEPING TECHNICIANS UP TO DATE INC", "city": "MAHOPAC", "state": "NY", "zip": "10541-3767", "ntee": "", "ruling": "200712", "deductibility": "1", "assets": 139021, "income": 316246, "revenue": 316246}, {"ein": "475230835", "name": "KEEPING US ABREAST CORP", "city": "NEW YORK CITY", "state": "NY", "zip": "10016-2203", "ntee": "E86", "ruling": "201601", "deductibility": "1", "assets": 0, "income": 0, "revenue": 0}, {"ein": "475315952", "name": "KEEPING MEMORIES INC", "city": "NEW YORK", "state": "NY", "zip": "10001-7607", "ntee": "H83", "ruling": "201606", "deductibility": "1", "assets": 0, "income": 0, "revenue": 0}, {"ein": "800257529", "name": "SISTERS KEEPING IT POSITIVE INC", "city": "CENTRAL ISLIP", "state": "NY", "zip": "11722-3526", "ntee": "Z99", "ruling": "201407", "deductibility": "1", "assets": 0, "income": 0, "revenue": 0}, {"ein": "842309818", "name": "KEEPING FAMILIES FIRST INC", "city": "BROOKLYN", "state": "NY", "zip": "11226-7660", "ntee": "P60", "ruling": "201907", "deductibility": "1", "assets": 0, "income": 0, "revenue": 0}, {"ein": "844496156", "name": "KEEPING COMMUNITIES SAFE", "city": "OSSINING", "state": "NY", "zip": "10562-4700", "ntee": "T50", "ruling": "202007", "deductibility": "1", "assets": 1, "income": 0, "revenue": 0}, {"ein": "851918996", "name": "KEEPING OUR PROMISE INC", "city": "PITTSFORD", "state": "NY", "zip": "14534-9723", "ntee": "Q71", "ruling": "202009", "deductibility": "1", "assets": 675218, "income": 742889, "revenue": 742889}, {"ein": "923354282", "name": "KEEPING KIDS CONNECTED", "city": "WOODHAVEN", "state": "NY", "zip": "11421-1226", "ntee": "X20", "ruling": "202304", "deductibility": "1", "assets": 0, "income": 0, "revenue": 0}], "STREETCAR": [{"ein": "200084429", "name": "BROOKLYN CITY STREETCAR COMPANY INC", "city": "BROOKLYN", "state": "NY", "zip": "11230-5623", "ntee": "A50", "ruling": "200406", "deductibility": "1", "assets": 0, "income": 0, "revenue": 0}], "METABOLISM": [{"ein": "200731059", "name": "NUTRITION AND METABOLISM SOCIETY INC", "city": "BROOKLYN", "state": "NY", "zip": "11218-1037", "ntee": "K03", "ruling": "200501", "deductibility": "1", "assets": 55284, "income": 1041, "revenue": 1041}], "RETREQT": [{"ein": "201628136", "name": "NORTH COUNTRY DRONG NGUR JANGCHUB DRUBDHE RETREQT CENTER", "city": "ELLENBURG DEP", "state": "NY", "zip": "12935-3215", "ntee": "X50", "ruling": "200508", "deductibility": "1", "assets": 0, "income": 0, "revenue": 0}], "GLUTEN": [{"ein": "201759302", "name": "WESTERN NEW YORK GLUTEN-FREE DIET SUPPPORT GROUP INC", "city": "WILLIAMSVILLE", "state": "NY", "zip": "14231-1835", "ntee": "E60", "ruling": "200501", "deductibility": "1", "assets": 0, "income": 0, "revenue": 0}], "KREATIVE": [{"ein": "204066872", "name": "KREATIVE AVENUES FOR POSITIVE SELF-EXPRESSION INC", "city": "HARTSDALE", "state": "NY", "zip": "10530-0660", "ntee": "O50", "ruling": "200710", "deductibility": "1", "assets": 0, "income": 0, "revenue": 0}, {"ein": "882234036", "name": "KREATIVE HAUS INC", "city": "STATEN ISLAND", "state": "NY", "zip": "10306-2437", "ntee": "O50", "ruling": "202210", "deductibility": "1", "assets": 0, "income": 0, "revenue": 0}], "GROUPINC": [{"ein": "204347316", "name": "CATHOLIC CONFERENCE POLICY GROUPINC", "city": "ALBANY", "state": "NY", "zip": "12211-2396", "ntee": "W01", "ruling": "200704", "deductibility": "2", "assets": 1, "income": 0, "revenue": 0}, {"ein": "208498449", "name": "SOCIAL MEDICINE PUBLISHING GROUPINC", "city": "NEW YORK", "state": "NY", "zip": "10031-4324", "ntee": "B70", "ruling": "200808", "deductibility": "1", "assets": 0, "income": 0, "revenue": 0}], "HERITAGEFESTIVAL": [{"ein": "205304731", "name": "ASIAN PACIFIC AMERICAN HERITAGEFESTIVAL FUND INC", "city": "NEW YORK", "state": "NY", "zip": "10011-0000", "ntee": "A23", "ruling": "200612", "deductibility": "1", "assets": 0, "income": 0, "revenue": 0}], "ALTRUISM": [{"ein": "205357250", "name": "DROP OF ALTRUISM FOUNDATION INC", "city": "BROOKLYN", "state": "NY", "zip": "11201-1550", "ntee": "X50", "ruling": "200703", "deductibility": "1", "assets": 0, "income": 0, "revenue": 0}, {"ein": "823099486", "name": "EFFECTIVE ALTRUISM RATIONALITY TO HELP", "city": "CALVERTON", "state": "NY", "zip": "11933-1064", "ntee": "C01", "ruling": "201711", "deductibility": "1", "assets": 0, "income": 0, "revenue": 0}, {"ein": "842507571", "name": "ALTRUISM FOR NEW YORK FOUNDATION", "city": "BROOKLYN", "state": "NY", "zip": "11235-1014", "ntee": "R99", "ruling": "202003", "deductibility": "1", "assets": 19840, "income": 674053, "revenue": 0}, {"ein": "921363293", "name": "ALTRUISM BEHAVIOR COMMUNITY DEVELOPMENT INC", "city": "BROOKLYN", "state": "NY", "zip": "11208-1419", "ntee": "S20", "ruling": "202310", "deductibility": "1", "assets": 0, "income": 0, "revenue": 0}], "FRANZ": [{"ein": "205614308", "name": "FRANZ E WINKLER CENTER FOR ADULTLEARNING INC", "city": "GARDEN CITY", "state": "NY", "zip": "11530-0000", "ntee": "B60", "ruling": "200810", "deductibility": "1", "assets": 16734, "income": 275, "revenue": 275}], "GREENLIGHT": [{"ein": "205712937", "name": "GREENLIGHT GUYANA EDUCATIONALPROJECT INC", "city": "BRONX", "state": "NY", "zip": "10475-1619", "ntee": "Q33", "ruling": "200806", "deductibility": "1", "assets": 0, "income": 0, "revenue": 0}], "EZIAL": [{"ein": "205794767", "name": "TIFERES EZIAL INC", "city": "MONROE", "state": "NY", "zip": "10950-6039", "ntee": "X30", "ruling": "200812", "deductibility": "1", "assets": 0, "income": 0, "revenue": 0}], "DEANNA": [{"ein": "222767247", "name": "HIRSCHELL E & DEANNA LEVINE FOUNDATION", "city": "NEW YORK", "state": "NY", "zip": "10021-5704", "ntee": "", "ruling": "198701", "deductibility": "1", "assets": 28712, "income": 1, "revenue": 0}, {"ein": "462087526", "name": "DEANNA MARIE RIVERS FOUNDATION INC", "city": "CLIFTON PARK", "state": "NY", "zip": "12065-7732", "ntee": "N99", "ruling": "201405", "deductibility": "1", "assets": 0, "income": 0, "revenue": 0}], "HOURLY": [{"ein": "222986667", "name": "ARLINGTON HOURLY TEACHING ASSISTANT ASSOCIATION", "city": "POUGHKEEPSIE", "state": "NY", "zip": "12603-4551", "ntee": "", "ruling": "198911", "deductibility": "2", "assets": 0, "income": 0, "revenue": 0}, {"ein": "251755730", "name": "ORANGE & ROCKLAND UTILITIES-WELFARE -HOURLY-VEBA NO 171-105", "city": "NEW YORK", "state": "NY", "zip": "10003-3502", "ntee": "", "ruling": "199509", "deductibility": "2", "assets": 173398402, "income": 64991462, "revenue": 928219}], "SHOPLIFTING": [{"ein": "223010584", "name": "NATIONAL ASSOCIATION FOR SHOPLIFTING PREVENTION INC", "city": "HUNTINGTON STATION", "state": "NY", "zip": "11746-3640", "ntee": "", "ruling": "199402", "deductibility": "1", "assets": 520842, "income": 412011, "revenue": 412011}], "FITTING": [{"ein": "237379398", "name": "UNITED ASSOCIATION OF JRNYMN & APPR OF THE PLBG & PIPE FITTING IND", "city": "LATHAM", "state": "NY", "zip": "12110-2605", "ntee": "", "ruling": "194101", "deductibility": "2", "assets": 881230, "income": 171183, "revenue": 171183}], "MARSHALLS": [{"ein": "260370333", "name": "NEW YORK STATE FIRE MARSHALLS AND INSPECTORS ASSOCIATION INC", "city": "W HENRIETTA", "state": "NY", "zip": "14586-0086", "ntee": "S46", "ruling": "201804", "deductibility": "2", "assets": 0, "income": 0, "revenue": 0}, {"ein": "510516618", "name": "WESTCHESTER COUNTY ASSOCIATION OF FIRE MARSHALLS AND INSPECTORS", "city": "WHITE PLAINS", "state": "NY", "zip": "10602-8404", "ntee": "M24", "ruling": "201608", "deductibility": "1", "assets": 0, "income": 0, "revenue": 0}], "CONCEPIT": [{"ein": "260682469", "name": "MONS CONCEPIT FOUNDATION INC", "city": "HAWTHORNE", "state": "NY", "zip": "10532-1103", "ntee": "X12", "ruling": "201601", "deductibility": "1", "assets": 11359671, "income": 9570549, "revenue": 0}], "LEKINYAN": [{"ein": "262506878", "name": "VAAD LEKINYAN CHELKA BAARETZ -- VLCB", "city": "BROOKLYN", "state": "NY", "zip": "11230-4201", "ntee": "X30", "ruling": "201401", "deductibility": "1", "assets": 0, "income": 0, "revenue": 0}], "STAKEHOLDERS": [{"ein": "262706912", "name": "STAKEHOLDERS INC", "city": "SLINGERLANDS", "state": "NY", "zip": "12159-0461", "ntee": "T50", "ruling": "200907", "deductibility": "1", "assets": 0, "income": 0, "revenue": 0}, {"ein": "262706934", "name": "STAKEHOLDERS FOUNDATION INC", "city": "SLINGERLANDS", "state": "NY", "zip": "12159-0177", "ntee": "T50", "ruling": "200907", "deductibility": "1", "assets": 0, "income": 0, "revenue": 0}], "AUDITING": [{"ein": "263572536", "name": "INTERNATIONAL CENTER FOR PERFORMANCE AUDITING", "city": "ROCKY POINT", "state": "NY", "zip": "11778-8912", "ntee": "A03", "ruling": "202405", "deductibility": "1", "assets": 0, "income": 0, "revenue": 0}], "GEOCOSMIC": [{"ein": "264221025", "name": "NATIONAL COUNCIL FOR GEOCOSMIC RESEARCH INC", "city": "E NORTHPORT", "state": "NY", "zip": "11731-0194", "ntee": "V039", "ruling": "200904", "deductibility": "1", "assets": 0, "income": 0, "revenue": 0}, {"ein": "364602305", "name": "NATIONAL COUNCIL FOR GEOCOSMIC RESEARCH INC", "city": "NEW YORK CITY", "state": "NY", "zip": "10011-3901", "ntee": "V039", "ruling": "200904", "deductibility": "1", "assets": 0, "income": 0, "revenue": 0}], "MILBURN": [{"ein": "264696732", "name": "MILBURN ASSISTANCE INC", "city": "NORTH BALDWIN", "state": "NY", "zip": "11510-2938", "ntee": "R12", "ruling": "201501", "deductibility": "1", "assets": 0, "income": 0, "revenue": 0}], "HARP": [{"ein": "270244406", "name": "AMERICAN HARP SOCIETY", "city": "ROCHESTER", "state": "NY", "zip": "14619-1806", "ntee": "", "ruling": "197704", "deductibility": "1", "assets": 0, "income": 0, "revenue": 0}, {"ein": "272711589", "name": "AMERICAN HARP SOCIETY", "city": "ROTTERDAM", "state": "NY", "zip": "12306-2562", "ntee": "", "ruling": "197704", "deductibility": "1", "assets": 0, "income": 0, "revenue": 0}, {"ein": "334144271", "name": "HEARTSTRINGS OF THE HARP - A MUSIC THERAPY PROJECT", "city": "BRONXVILLE", "state": "NY", "zip": "10708-1618", "ntee": "A68", "ruling": "202505", "deductibility": "1", "assets": 0, "income": 0, "revenue": 0}, {"ein": "473540074", "name": "AMERICAN HARP SOCIETY", "city": "BROOKLYN", "state": "NY", "zip": "11201-5438", "ntee": "", "ruling": "197704", "deductibility": "1", "assets": 0, "income": 0, "revenue": 0}, {"ein": "521233012", "name": "WORLD HARP CONGRESS INC", "city": "NEW YORK", "state": "NY", "zip": "10024-5342", "ntee": "", "ruling": "198102", "deductibility": "1", "assets": 547665, "income": 50267, "revenue": 50267}, {"ein": "842488559", "name": "AMERICAN HARP SOCIETY", "city": "DEPEW", "state": "NY", "zip": "14043-2008", "ntee": "", "ruling": "197704", "deductibility": "1", "assets": 0, "income": 0, "revenue": 0}, {"ein": "942518760", "name": "AMERICAN HARP SOCIETY", "city": "NORTHPORT", "state": "NY", "zip": "11768-1813", "ntee": "", "ruling": "197905", "deductibility": "1", "assets": 0, "income": 0, "revenue": 0}, {"ein": "942518761", "name": "AMERICAN HARP SOCIETY", "city": "MARIETTA", "state": "NY", "zip": "13110-3268", "ntee": "", "ruling": "197905", "deductibility": "1", "assets": 0, "income": 0, "revenue": 0}], "SIDHE": [{"ein": "272806759", "name": "TRIPLE SPIRAL OF DUN NA SIDHE", "city": "SUFFERN", "state": "NY", "zip": "10901-2507", "ntee": "X99", "ruling": "201008", "deductibility": "1", "assets": 0, "income": 0, "revenue": 0}], "UAC": [{"ein": "273684691", "name": "UKRAINIAN AMERICAN COMMUNITY UAC FOUNDATION INC", "city": "ROCHESTER", "state": "NY", "zip": "14621-1711", "ntee": "B82", "ruling": "201401", "deductibility": "1", "assets": 110229, "income": 38025, "revenue": 0}, {"ein": "851692555", "name": "UAC HEROES INC", "city": "DELMAR", "state": "NY", "zip": "12054-3811", "ntee": "E60", "ruling": "202207", "deductibility": "1", "assets": 5648, "income": 0, "revenue": 0}], "18TH": [{"ein": "273940476", "name": "CONGREGATION YETEV LEV OF 18TH AVE", "city": "BROOKLYN", "state": "NY", "zip": "11204-1425", "ntee": "X30", "ruling": "201207", "deductibility": "1", "assets": 0, "income": 0, "revenue": 0}], "EMOTIONALLY": [{"ein": "274012654", "name": "NEW YORK CENTER FOR EMOTIONALLY FOCUSED THERAPY INC", "city": "NEW YORK", "state": "NY", "zip": "10001-5021", "ntee": "F192", "ruling": "201112", "deductibility": "1", "assets": 203263, "income": 131224, "revenue": 131224}, {"ein": "452584808", "name": "EMOTIONALLY HEALTHY SPIRITUALITY", "city": "NEW YORK", "state": "NY", "zip": "10016-6803", "ntee": "X20", "ruling": "201302", "deductibility": "1", "assets": 372154, "income": 1220787, "revenue": 908306}], "TRUMBULL": [{"ein": "274249393", "name": "HUGH LEANDER ADAMS MARY TRUBULL ADAMS AND HUGH TRUMBULL", "city": "NEW YORK", "state": "NY", "zip": "10008-1297", "ntee": "T20", "ruling": "201407", "deductibility": "1", "assets": 14951035, "income": 5617211, "revenue": 0}, {"ein": "841973407", "name": "ALICE TRUMBULL MASON FOUNDATION INC", "city": "NEW YORK", "state": "NY", "zip": "10113-1257", "ntee": "T23", "ruling": "202110", "deductibility": "1", "assets": 8998489, "income": 1997962, "revenue": 0}], "ONCOLOGIC": [{"ein": "300218880", "name": "INTERNATIONAL FEDERATION OF HEAD AND NECK ONCOLOGIC SOCIETIES INC", "city": "NEW YORK", "state": "NY", "zip": "10065-6007", "ntee": "S41", "ruling": "200403", "deductibility": "2", "assets": 3340476, "income": 354968, "revenue": 353021}], "PATROON": [{"ein": "311591430", "name": "PATROON LAND FOUNDATION INC", "city": "EAST BERNE", "state": "NY", "zip": "12059-1854", "ntee": "K25Z", "ruling": "199808", "deductibility": "1", "assets": 195259, "income": 1300, "revenue": 0}], "CURRID": [{"ein": "331404239", "name": "DANIELLE CURRID FOUNDATION INC", "city": "OSSINING", "state": "NY", "zip": "10562-2110", "ntee": "T30", "ruling": "202410", "deductibility": "1", "assets": 0, "income": 0, "revenue": 0}], "NODINE": [{"ein": "332035910", "name": "NODINE ROD AND GUN CLUB OF YONKERS INC", "city": "PLEASANTVILLE", "state": "NY", "zip": "10570-3617", "ntee": "N61", "ruling": "202507", "deductibility": "2", "assets": 0, "income": 0, "revenue": 0}], "BEYACHAD": [{"ein": "332318680", "name": "KADIMA BEYACHAD INC", "city": "MELVILLE", "state": "NY", "zip": "11747-2413", "ntee": "F12", "ruling": "202402", "deductibility": "1", "assets": 0, "income": 0, "revenue": 0}], "AMBUCS": [{"ein": "364819415", "name": "NATIONAL AMBUCS INC", "city": "MASTIC BEACH", "state": "NY", "zip": "11951-2510", "ntee": "", "ruling": "199603", "deductibility": "1", "assets": 0, "income": 0, "revenue": 0}], "JONESVILLE": [{"ein": "383781107", "name": "JONESVILLE VOLUNTEER FIRE CO INC", "city": "CLIFTON PARK", "state": "NY", "zip": "12065-1011", "ntee": "M24", "ruling": "201409", "deductibility": "1", "assets": 238156, "income": 102883, "revenue": 102883}, {"ein": "900620825", "name": "JONESVILLE CEMETERY ASSOCIATION", "city": "CLIFTON PARK", "state": "NY", "zip": "12065-0024", "ntee": "Y50", "ruling": "201312", "deductibility": "1", "assets": 1396885, "income": 344808, "revenue": 83579}], "MONA": [{"ein": "384339053", "name": "MONA ART FOUNDATION INC", "city": "NEW YORK", "state": "NY", "zip": "10001-3434", "ntee": "A20", "ruling": "202502", "deductibility": "1", "assets": 0, "income": 0, "revenue": 0}], "TAYSHANA": [{"ein": "454304064", "name": "TAYSHANA CHICKEN MURPHY FOUNDATION", "city": "BROOKLYN", "state": "NY", "zip": "11202-5273", "ntee": "O50", "ruling": "202108", "deductibility": "1", "assets": 0, "income": 0, "revenue": 0}], "TRIALS": [{"ein": "454663463", "name": "MILLBROOK HORSE TRIALS INC", "city": "MILLBROOK", "state": "NY", "zip": "12545-0893", "ntee": "N69", "ruling": "201302", "deductibility": "1", "assets": 102976, "income": 522436, "revenue": 522436}, {"ein": "882284663", "name": "KENT HORSE TRIALS INC", "city": "AMENIA", "state": "NY", "zip": "12501-5858", "ntee": "N69", "ruling": "202206", "deductibility": "1", "assets": 0, "income": 0, "revenue": 0}], "OFFICIAL": [{"ein": "460681906", "name": "ELMIRA AREA FOOTBALL OFFICIAL ASSOC", "city": "ELMIRA", "state": "NY", "zip": "14904-2610", "ntee": "N65", "ruling": "202410", "deductibility": "1", "assets": 0, "income": 0, "revenue": 0}, {"ein": "464190384", "name": "INTERNATIONAL KARATE OFFICIAL SPORTS ASSOCIATION INC", "city": "REGO PARK", "state": "NY", "zip": "11374-4084", "ntee": "S80", "ruling": "202108", "deductibility": "1", "assets": 1, "income": 1, "revenue": 0}, {"ein": "473129108", "name": "AFRICAN AMERICAN CLERGY AND ELECTED OFFICIAL OF BROOKLYN INC", "city": "BROOKLYN", "state": "NY", "zip": "11221-1916", "ntee": "A01", "ruling": "202311", "deductibility": "1", "assets": 0, "income": 0, "revenue": 0}, {"ein": "922684731", "name": "SOUP MAMA OFFICIAL INCORPORATED", "city": "SUFFERN", "state": "NY", "zip": "10901-3711", "ntee": "R60", "ruling": "202303", "deductibility": "1", "assets": 0, "income": 0, "revenue": 0}], "TEIXEIRA": [{"ein": "462124448", "name": "JOAO TEIXEIRA MEMORIAL FUND", "city": "EAST MEADOW", "state": "NY", "zip": "11554-3438", "ntee": "P99", "ruling": "201406", "deductibility": "1", "assets": 21898, "income": 0, "revenue": 0}], "CURVY": [{"ein": "462475344", "name": "COURAGEOUSLY CURVY GIRLS FOUNDATION", "city": "BROOKLYN", "state": "NY", "zip": "11234-3207", "ntee": "P20", "ruling": "201601", "deductibility": "1", "assets": 0, "income": 0, "revenue": 0}, {"ein": "462737339", "name": "CURVY GIRLS FOUNDATION INC", "city": "SMITHTOWN", "state": "NY", "zip": "11787-3329", "ntee": "P11", "ruling": "201406", "deductibility": "1", "assets": 447745, "income": 168426, "revenue": 168003}], "SUSTAI": [{"ein": "465065212", "name": "FRIENDS OF THE CENTER FOR INTERNATIONAL RELATIONS AND SUSTAI", "city": "NEW YORK", "state": "NY", "zip": "10019-0000", "ntee": "Q32", "ruling": "201409", "deductibility": "1", "assets": 32732, "income": 0, "revenue": 0}], "TWIST": [{"ein": "465643684", "name": "BALLETS WITH A TWIST FOUNDATION", "city": "NEW YORK", "state": "NY", "zip": "10007-1096", "ntee": "A63", "ruling": "201409", "deductibility": "1", "assets": 2493198, "income": 1396202, "revenue": 0}, {"ein": "921100377", "name": "TWIST NEWS INC", "city": "NEW YORK", "state": "NY", "zip": "10021-5055", "ntee": "A30", "ruling": "202302", "deductibility": "1", "assets": 0, "income": 0, "revenue": 0}], "UNFCU": [{"ein": "471344867", "name": "UNFCU FOUNDATION INC", "city": "LONG IS CITY", "state": "NY", "zip": "11101-4605", "ntee": "B90", "ruling": "201503", "deductibility": "1", "assets": 821354, "income": 1428356, "revenue": 1367110}], "HOPLOLOGICAL": [{"ein": "471663530", "name": "SOUTHERN TIER HOPLOLOGICAL SOCIETY INC", "city": "CANDOR", "state": "NY", "zip": "13743-2042", "ntee": "A80", "ruling": "201410", "deductibility": "1", "assets": 0, "income": 0, "revenue": 0}], "LYNYC": [{"ein": "472701121", "name": "LYNYC FOOTBALL INC", "city": "W HEMPSTEAD", "state": "NY", "zip": "11552-4030", "ntee": "N65", "ruling": "201501", "deductibility": "1", "assets": 0, "income": 0, "revenue": 0}], "HECKL": [{"ein": "473506895", "name": "ROSANNA ELIZABETH COREY HECKL FOUNDATION FOR THE ARTS INC", "city": "BUFFALO", "state": "NY", "zip": "14213-2310", "ntee": "A26", "ruling": "202312", "deductibility": "1", "assets": 0, "income": 0, "revenue": 0}], "TRANSBORDERART": [{"ein": "474400407", "name": "TRANSBORDERART INC", "city": "LONG IS CITY", "state": "NY", "zip": "11101-4106", "ntee": "A32", "ruling": "201601", "deductibility": "1", "assets": 2005, "income": 16500, "revenue": 16500}], "MANDINGO": [{"ein": "474520516", "name": "ORGANIZATION OF NEW YORK MANDINGO ASSOCIATION ONYMA", "city": "BRONX", "state": "NY", "zip": "10456-4855", "ntee": "A23", "ruling": "201601", "deductibility": "1", "assets": 0, "income": 0, "revenue": 0}], "BETTYS": [{"ein": "475583803", "name": "BETTYS CLOSET CORP", "city": "MILLER PLACE", "state": "NY", "zip": "11764-3526", "ntee": "P58", "ruling": "201601", "deductibility": "1", "assets": 0, "income": 0, "revenue": 0}, {"ein": "862583621", "name": "BETTYS BREAST CANCER FOUNDATION CORP", "city": "MINEOLA", "state": "NY", "zip": "11501-0574", "ntee": "G32", "ruling": "202110", "deductibility": "1", "assets": 11462, "income": 14925, "revenue": 14925}], "UGNAYAN": [{"ein": "521549861", "name": "UGNAYAN CHRISTIAN FELLOWSHIP OF NEW YORK CITY INC", "city": "NEW YORK", "state": "NY", "zip": "10035-2751", "ntee": "", "ruling": "199403", "deductibility": "1", "assets": 0, "income": 0, "revenue": 0}], "ATHANASIOS": [{"ein": "541995594", "name": "AGIOS ATHANASIOS ASSOCIATION PERISTA", "city": "NEW YORK", "state": "NY", "zip": "10023-0000", "ntee": "P20", "ruling": "200011", "deductibility": "1", "assets": 0, "income": 0, "revenue": 0}], "DICKMAN": [{"ein": "650953590", "name": "LOUIS L DICKMAN CHARITABLE FOUNDATION", "city": "NEW YORK", "state": "NY", "zip": "10023-0000", "ntee": "T20", "ruling": "200005", "deductibility": "1", "assets": 174861, "income": 29031, "revenue": 0}], "GYM": [{"ein": "753256897", "name": "GYM TIME FOUNDATION", "city": "NEW YORK", "state": "NY", "zip": "10028-7008", "ntee": "C60", "ruling": "200802", "deductibility": "1", "assets": 14506, "income": 0, "revenue": 0}, {"ein": "815255570", "name": "WORLD GYM COMMUNITY INC", "city": "EAST SETAUKET", "state": "NY", "zip": "11733-1002", "ntee": "B82", "ruling": "201710", "deductibility": "1", "assets": 0, "income": 0, "revenue": 0}, {"ein": "825031410", "name": "POP GYM CORP", "city": "BROOKLYN", "state": "NY", "zip": "11207-2175", "ntee": "B99", "ruling": "201806", "deductibility": "1", "assets": 0, "income": 0, "revenue": 0}, {"ein": "832320332", "name": "CUS D AMATOS KO BOXING GYM INC", "city": "CATSKILL", "state": "NY", "zip": "12414-1717", "ntee": "N60", "ruling": "202111", "deductibility": "1", "assets": 0, "income": 0, "revenue": 0}, {"ein": "834370811", "name": "CHAUTAUQUA CHILDRENS GYM", "city": "DUNKIRK", "state": "NY", "zip": "14048-9790", "ntee": "E99", "ruling": "201905", "deductibility": "1", "assets": 16568, "income": 63992, "revenue": 63837}, {"ein": "834486276", "name": "I AM GYM FOUNDATION INC", "city": "BROOKLYN", "state": "NY", "zip": "11233-4869", "ntee": "N30", "ruling": "201908", "deductibility": "1", "assets": 0, "income": 0, "revenue": 0}, {"ein": "842201796", "name": "WEE FIT GYM FOR KIDS INC", "city": "LOCKPORT", "state": "NY", "zip": "14094-4424", "ntee": "N30", "ruling": "201907", "deductibility": "1", "assets": 0, "income": 0, "revenue": 0}, {"ein": "932470076", "name": "NY BOXING GYM", "city": "MOUNT VERNON", "state": "NY", "zip": "10550-1206", "ntee": "N30", "ruling": "202308", "deductibility": "1", "assets": 0, "income": 0, "revenue": 0}, {"ein": "934180405", "name": "BROWNSVILLE GYM AND ACADEMY INC", "city": "NEW YORK", "state": "NY", "zip": "11226-5428", "ntee": "B99", "ruling": "202311", "deductibility": "1", "assets": 0, "income": 0, "revenue": 0}], "MARPA": [{"ein": "770378622", "name": "MARPA FOUNDATION FOR THE STUDY PRACTICE & SUPPORT OF BUDDA DHARMA", "city": "OTEGO", "state": "NY", "zip": "13825-2152", "ntee": "X99", "ruling": "199409", "deductibility": "1", "assets": 4521269, "income": 437242, "revenue": 433980}, {"ein": "861969573", "name": "CONG MARPA LNEFESH", "city": "MONSEY", "state": "NY", "zip": "10952-3467", "ntee": "X30", "ruling": "202201", "deductibility": "1", "assets": 0, "income": 0, "revenue": 0}], "JULIO": [{"ein": "810623501", "name": "JULIO A MARTINEZ MEMORIAL FUND", "city": "BRONX", "state": "NY", "zip": "10456-6704", "ntee": "O50", "ruling": "200410", "deductibility": "1", "assets": 914957, "income": 342818, "revenue": 292866}], "GELBAND": [{"ein": "811610730", "name": "GELBAND FAMILY FOUNDATION", "city": "NEW YORK", "state": "NY", "zip": "10021-4281", "ntee": "T20", "ruling": "201706", "deductibility": "1", "assets": 7357867, "income": 3230335, "revenue": 0}], "HEREDEROS": [{"ein": "811704131", "name": "LOS HEREDEROS INC", "city": "MIDDLE VLG", "state": "NY", "zip": "11379-2402", "ntee": "A70", "ruling": "201701", "deductibility": "1", "assets": 26917, "income": 122733, "revenue": 122733}], "SAIMBERT": [{"ein": "813548843", "name": "MICHELLE SAIMBERT INTERNATIONAL FOUNDATION", "city": "WEST POINT", "state": "NY", "zip": "10996-1310", "ntee": "O50", "ruling": "202007", "deductibility": "1", "assets": 0, "income": 0, "revenue": 0}], "TODAS": [{"ein": "814370541", "name": "CENTRO CRISTIANO CASA DE ORACION PARA TODAS LAS NACIONES", "city": "BRONX", "state": "NY", "zip": "10466-3802", "ntee": "X21", "ruling": "202201", "deductibility": "1", "assets": 0, "income": 0, "revenue": 0}, {"ein": "821898804", "name": "CASA DE ORACION PARA TODAS LAS NACIONES", "city": "BRONX", "state": "NY", "zip": "10452-5339", "ntee": "X20", "ruling": "201907", "deductibility": "1", "assets": 0, "income": 0, "revenue": 0}], "GOLDIN": [{"ein": "814548942", "name": "HADAR GOLDIN FOUNDATION INC", "city": "NEW YORK", "state": "NY", "zip": "10025-7756", "ntee": "R60", "ruling": "201701", "deductibility": "1", "assets": 0, "income": 0, "revenue": 0}, {"ein": "993707851", "name": "GOLDIN FAMILY FOUNDATION", "city": "STATEN ISLAND", "state": "NY", "zip": "10304-1211", "ntee": "T50", "ruling": "202407", "deductibility": "1", "assets": 0, "income": 0, "revenue": 0}], "ARMOURED": [{"ein": "823414172", "name": "ARMOURED ONE TRAINING INC", "city": "SYRACUSE", "state": "NY", "zip": "13206-2276", "ntee": "M40", "ruling": "201806", "deductibility": "1", "assets": 120181, "income": 235328, "revenue": 235328}], "CRATE": [{"ein": "823444455", "name": "CRATE ESCAPE RESCUE INC", "city": "WAPPINGERS FL", "state": "NY", "zip": "12590-6132", "ntee": "D20", "ruling": "201803", "deductibility": "1", "assets": 11334, "income": 59035, "revenue": 59035}], "BLK": [{"ein": "824336871", "name": "BLK CAPITAL MANAGEMENT CORP", "city": "NEW YORK", "state": "NY", "zip": "10038-5235", "ntee": "J20", "ruling": "201907", "deductibility": "1", "assets": 1, "income": 220335, "revenue": 0}, {"ein": "851646737", "name": "IN THE BLK COALITION INC", "city": "NEW YORK", "state": "NY", "zip": "10007-0000", "ntee": "", "ruling": "202109", "deductibility": "1", "assets": 22269, "income": 239614, "revenue": 239614}, {"ein": "853214521", "name": "LEGALLY BLK FUND INC", "city": "NEW YORK", "state": "NY", "zip": "10026-4039", "ntee": "B80", "ruling": "202101", "deductibility": "1", "assets": 0, "income": 0, "revenue": 0}, {"ein": "854403273", "name": "VRY BLK", "city": "BROOKLYN", "state": "NY", "zip": "11208-2498", "ntee": "P20", "ruling": "202107", "deductibility": "1", "assets": 0, "income": 0, "revenue": 0}, {"ein": "921214941", "name": "BLK SQUARES CHANGE FOR CHANGE INC", "city": "FARMINGDALE", "state": "NY", "zip": "11735-6827", "ntee": "P20", "ruling": "202301", "deductibility": "1", "assets": 0, "income": 0, "revenue": 0}], "GYNUITY": [{"ein": "825129481", "name": "GYNUITY INSTITUTE INC", "city": "NEW YORK", "state": "NY", "zip": "10017-5804", "ntee": "E40", "ruling": "201902", "deductibility": "1", "assets": 620039, "income": 480993, "revenue": 480993}], "SHARAD": [{"ein": "825265177", "name": "COUNCIL OF CONGREGATIONS SHARAD INTERNATIONAL", "city": "BRONX", "state": "NY", "zip": "10456-7133", "ntee": "X99", "ruling": "202006", "deductibility": "1", "assets": 0, "income": 0, "revenue": 0}], "BARATTA": [{"ein": "830767499", "name": "BARATTA FAMILY FOUNDATION", "city": "SARATOGA SPGS", "state": "NY", "zip": "12866-3144", "ntee": "T22", "ruling": "201902", "deductibility": "1", "assets": 9764003, "income": 12866126, "revenue": 0}], "LIBERATORS": [{"ein": "831001277", "name": "VINCY LIBERATORS INC", "city": "BROOKLYN", "state": "NY", "zip": "11233-4234", "ntee": "K30", "ruling": "202201", "deductibility": "1", "assets": 0, "income": 0, "revenue": 0}], "YAIR": [{"ein": "831742536", "name": "CONGREGATION OLAM HACHESSED ZICHRON YAIR INC", "city": "MONSEY", "state": "NY", "zip": "10952-3366", "ntee": "X30", "ruling": "201911", "deductibility": "1", "assets": 0, "income": 0, "revenue": 0}], "GWYDION": [{"ein": "832043292", "name": "GWYDION FUND FOR WILD NATURE", "city": "NEW YORK", "state": "NY", "zip": "10005-0000", "ntee": "", "ruling": "202103", "deductibility": "1", "assets": 3659240, "income": 1408101, "revenue": 0}], "TULUM": [{"ein": "832206598", "name": "CHABAD TULUM MEXICO INC", "city": "BROOKLYN", "state": "NY", "zip": "11213-4207", "ntee": "X30", "ruling": "201811", "deductibility": "1", "assets": 0, "income": 0, "revenue": 0}, {"ein": "845136163", "name": "CHABAD LUBAVITCH TULUM MEXICO INC", "city": "BROOKLYN", "state": "NY", "zip": "11213-4030", "ntee": "X30", "ruling": "202506", "deductibility": "1", "assets": 0, "income": 0, "revenue": 0}], "NESHUMAH": [{"ein": "833157613", "name": "NESHUMAH INC", "city": "MONSEY", "state": "NY", "zip": "10952-2844", "ntee": "T30", "ruling": "202211", "deductibility": "1", "assets": 0, "income": 0, "revenue": 0}], "HINDIS": [{"ein": "834717708", "name": "HINDIS LIBRARIES INC", "city": "CEDARHURST", "state": "NY", "zip": "11516-1420", "ntee": "B92", "ruling": "201905", "deductibility": "1", "assets": 0, "income": 0, "revenue": 0}], "ZAKAT": [{"ein": "843108165", "name": "NEW YORK ZAKAT INC", "city": "NEW YORK", "state": "NY", "zip": "10011-8436", "ntee": "P60", "ruling": "202309", "deductibility": "1", "assets": 361575, "income": 1878340, "revenue": 1878340}, {"ein": "873115466", "name": "ZAKAT FOUNDATION OF INDIA INC", "city": "NEW YORK", "state": "NY", "zip": "10021-9274", "ntee": "P12", "ruling": "202201", "deductibility": "1", "assets": 13461, "income": 17195, "revenue": 17195}], "MUSZAY": [{"ein": "843742639", "name": "YESHURIN MUSZAY INC", "city": "BROOKLYN", "state": "NY", "zip": "11234-2617", "ntee": "X30", "ruling": "202003", "deductibility": "1", "assets": 0, "income": 0, "revenue": 0}], "HLA": [{"ein": "853220711", "name": "FRIENDS OF HLA 2 INC", "city": "NEW YORK", "state": "NY", "zip": "10018-5619", "ntee": "L82", "ruling": "202101", "deductibility": "1", "assets": 45005646, "income": 2389175, "revenue": 589618}], "WRITTEN": [{"ein": "853802498", "name": "ITS WRITTEN IN THE STARS INC", "city": "NEW YORK", "state": "NY", "zip": "10030-1780", "ntee": "U31", "ruling": "202406", "deductibility": "1", "assets": 0, "income": 0, "revenue": 0}], "ULEC": [{"ein": "854352949", "name": "ULEC LEVERAGE INC", "city": "NEW YORK", "state": "NY", "zip": "10005-1702", "ntee": "T11", "ruling": "202204", "deductibility": "1", "assets": 13418120, "income": 155349, "revenue": 155349}], "GLENFARMLAND": [{"ein": "871493201", "name": "GLENFARMLAND", "city": "FULTONVILLE", "state": "NY", "zip": "12072-0207", "ntee": "C99", "ruling": "202401", "deductibility": "1", "assets": 0, "income": 0, "revenue": 0}], "DRISKOVE": [{"ein": "872448238", "name": "CONGREGATION ROSH ELIYOHI DRISKOVE", "city": "BROOKLYN", "state": "NY", "zip": "11206-8080", "ntee": "X30", "ruling": "202207", "deductibility": "1", "assets": 0, "income": 0, "revenue": 0}], "ONWUKA": [{"ein": "874214987", "name": "DR LAZARUS ONWUKA MEDICAL FOUNDATION INC", "city": "RIVERHEAD", "state": "NY", "zip": "11901-2727", "ntee": "E70", "ruling": "202202", "deductibility": "1", "assets": 1, "income": 85000, "revenue": 85000}], "STANDARDIZATION": [{"ein": "881150693", "name": "METAVERSE INTERNATIONAL STANDARDIZATION FOUNDATION INC", "city": "ALBANY", "state": "NY", "zip": "12207-1707", "ntee": "U99", "ruling": "202204", "deductibility": "1", "assets": 0, "income": 0, "revenue": 0}], "GULIANNA": [{"ein": "881975094", "name": "GULIANNA HOPE FOUNDATION INC", "city": "RONKONKOMA", "state": "NY", "zip": "11779-5808", "ntee": "P50", "ruling": "202206", "deductibility": "1", "assets": 0, "income": 0, "revenue": 0}], "BARRYS": [{"ein": "883319780", "name": "BARRYS GROVE INC", "city": "WALDEN", "state": "NY", "zip": "12586-1910", "ntee": "C50", "ruling": "202208", "deductibility": "1", "assets": 6699, "income": 7970, "revenue": 7313}], "THRONES": [{"ein": "883836580", "name": "THRONES OF FIRE INC", "city": "CLAYTON", "state": "NY", "zip": "13624-2295", "ntee": "X99", "ruling": "202303", "deductibility": "1", "assets": 0, "income": 0, "revenue": 0}], "BETECH": [{"ein": "883952620", "name": "BETECH FOUNDATION INC", "city": "WESTBURY", "state": "NY", "zip": "11590-6512", "ntee": "T31", "ruling": "202209", "deductibility": "1", "assets": 0, "income": 0, "revenue": 0}], "SORICHA": [{"ein": "884324137", "name": "SORICHA FOOT INC", "city": "BRONX", "state": "NY", "zip": "10457-3868", "ntee": "N64", "ruling": "202212", "deductibility": "1", "assets": 0, "income": 0, "revenue": 0}], "LEAPS": [{"ein": "900439277", "name": "GREAT LEAPS FOR HIGHER LEARNING INC", "city": "NEW YORK", "state": "NY", "zip": "10027-3300", "ntee": "O50", "ruling": "200906", "deductibility": "1", "assets": 0, "income": 0, "revenue": 0}], "AMPLO": [{"ein": "921399155", "name": "AMPLO FAMILY FOUNDATION INC", "city": "ISLIP", "state": "NY", "zip": "11751-3619", "ntee": "P20", "ruling": "202304", "deductibility": "1", "assets": 17857, "income": 258797, "revenue": 138520}], "BALARIN": [{"ein": "921737801", "name": "EDWARD S BALARIN FOUNDATION INC", "city": "ALBANY", "state": "NY", "zip": "12212-3042", "ntee": "L20", "ruling": "202303", "deductibility": "1", "assets": 0, "income": 0, "revenue": 0}], "MULTILEVEL": [{"ein": "921851295", "name": "MULTILEVEL FITNESS 4 SPECIAL KIDS FOUNDATION", "city": "LONG IS CITY", "state": "NY", "zip": "11101-3376", "ntee": "O12", "ruling": "202405", "deductibility": "1", "assets": 0, "income": 0, "revenue": 0}], "LOLAS": [{"ein": "934713634", "name": "VANESSA & LOLAS LEGACY INC", "city": "OAKFIELD", "state": "NY", "zip": "14125-9402", "ntee": "D20", "ruling": "202401", "deductibility": "1", "assets": 0, "income": 0, "revenue": 0}], "KORANCE": [{"ein": "990663641", "name": "KORANCE FOUNDATION INC", "city": "BRONX", "state": "NY", "zip": "10466-2210", "ntee": "A62", "ruling": "202501", "deductibility": "1", "assets": 0, "income": 0, "revenue": 0}], "DEVOUT": [{"ein": "991478778", "name": "DEVOUT FOUNDATION", "city": "NEW YORK", "state": "NY", "zip": "10019-5617", "ntee": "X80", "ruling": "202402", "deductibility": "1", "assets": 0, "income": 0, "revenue": 0}], "FILIPINOS": [{"ein": "991779815", "name": "FILIPINOS FIGHTING HUNGER", "city": "BRONX", "state": "NY", "zip": "10467-3035", "ntee": "A12", "ruling": "202410", "deductibility": "1", "assets": 0, "income": 0, "revenue": 0}], "LATIFI": [{"ein": "993785331", "name": "LATIFI HANDS INC", "city": "BRONX", "state": "NY", "zip": "10467-3905", "ntee": "P60", "ruling": "202411", "deductibility": "1", "assets": 0, "income": 0, "revenue": 0}], "UMAR": [{"ein": "994514815", "name": "UMAR & FARIDI FOUNDATION INC", "city": "N BELLMORE", "state": "NY", "zip": "11710-2865", "ntee": "B12", "ruling": "202501", "deductibility": "1", "assets": 32000, "income": 32000, "revenue": 0}]}