{"TIDES": [{"ein": "010553351", "name": "DANCING TIDES FOUNDATION INC", "city": "GARDEN CITY", "state": "NY", "zip": "11530-1662", "ntee": "T22", "ruling": "200209", "deductibility": "1", "assets": 20266982, "income": 5097484, "revenue": 0}, {"ein": "112156906", "name": "TIDES PROPERTY OWNERS ASSOCIATION INC", "city": "ROCKY POINT", "state": "NY", "zip": "11778-1042", "ntee": "", "ruling": "196910", "deductibility": "2", "assets": 34292, "income": 96852, "revenue": 96852}, {"ein": "113090075", "name": "TIDES HOMEOWNERS ASSOCIATION INC", "city": "MERRICK", "state": "NY", "zip": "11566-3405", "ntee": "", "ruling": "199710", "deductibility": "2", "assets": 0, "income": 0, "revenue": 0}, {"ein": "820740463", "name": "PLASTIC TIDES INC", "city": "ITHACA", "state": "NY", "zip": "14850-4724", "ntee": "C20", "ruling": "201802", "deductibility": "1", "assets": 0, "income": 0, "revenue": 0}], "GROWTH": [{"ein": "010559558", "name": "HUMAN GROWTH FOUNDATION", "city": "WOODMERE", "state": "NY", "zip": "11598-2640", "ntee": "T22", "ruling": "200302", "deductibility": "1", "assets": 364707, "income": 104876, "revenue": 0}, {"ein": "043599274", "name": "FOUNDATION FOR GROWTH AND ENDOCRINOLOGY INC", "city": "NEW YORK", "state": "NY", "zip": "10009-0000", "ntee": "H99", "ruling": "200209", "deductibility": "1", "assets": 0, "income": 0, "revenue": 0}, {"ein": "043795646", "name": "PUTNAM SMART GROWTH ALLIANCE INC", "city": "BREWSTER", "state": "NY", "zip": "10509-2125", "ntee": "S21", "ruling": "200611", "deductibility": "2", "assets": 0, "income": 0, "revenue": 0}, {"ein": "112715743", "name": "HUMAN UNDERSTANDING & GROWTH SERVICES INC", "city": "W HAMPTON BCH", "state": "NY", "zip": "11978-2342", "ntee": "", "ruling": "198503", "deductibility": "1", "assets": 680640, "income": 668399, "revenue": 668399}, {"ein": "113470943", "name": "NEIGHBORS ALLIED FOR GOOD GROWTH INC", "city": "BROOKLYN", "state": "NY", "zip": "11249-4121", "ntee": "C34", "ruling": "200009", "deductibility": "1", "assets": 15782, "income": 75215, "revenue": 75215}, {"ein": "133920404", "name": "GROWTH AND DEVELOPMENT SERVICES INC", "city": "SOUTH SALEM", "state": "NY", "zip": "10590-0803", "ntee": "D50", "ruling": "199705", "deductibility": "1", "assets": 9718, "income": 92549, "revenue": 92549}, {"ein": "136104026", "name": "THE REFORMED CHURCH IN AMERICA CHURCH GROWTH FUND INC", "city": "NEW YORK", "state": "NY", "zip": "10115-0101", "ntee": "", "ruling": "198601", "deductibility": "1", "assets": 0, "income": 0, "revenue": 0}, {"ein": "141811351", "name": "NORTHEAST CENTER FOR SPIRITUAL GROWTH INC", "city": "NASSAU", "state": "NY", "zip": "12123-9752", "ntee": "P50", "ruling": "201803", "deductibility": "1", "assets": 0, "income": 0, "revenue": 0}, {"ein": "160874637", "name": "ECONOMIC DEVELOPMENT GROWTH ENTERPRISES CORPORATION", "city": "ROME", "state": "NY", "zip": "13441-4929", "ntee": "", "ruling": "198809", "deductibility": "1", "assets": 50447197, "income": 10997809, "revenue": 10796894}, {"ein": "160913012", "name": "HUMAN GROWTH FOUNDATION", "city": "GREENVALE", "state": "NY", "zip": "11548-1033", "ntee": "", "ruling": "197208", "deductibility": "1", "assets": 2253818, "income": 1787655, "revenue": 1445726}, {"ein": "161482682", "name": "CENTER FOR CHRISTIAN GROWTH OF WNY", "city": "TONAWANDA", "state": "NY", "zip": "14150-2111", "ntee": "X99", "ruling": "199904", "deductibility": "1", "assets": 0, "income": 0, "revenue": 0}, {"ein": "161498001", "name": "KINGDOM OF HEAVEN LIGHT HOUSE GROWTH MINISTRY CHURCH", "city": "BUFFALO", "state": "NY", "zip": "14216-2346", "ntee": "X20", "ruling": "200907", "deductibility": "1", "assets": 0, "income": 0, "revenue": 0}, {"ein": "161535559", "name": "HORNELL PARTNERS FOR GROWTH INC", "city": "HORNELL", "state": "NY", "zip": "14843-0643", "ntee": "S200", "ruling": "200406", "deductibility": "1", "assets": 74456, "income": 175232, "revenue": 175232}, {"ein": "166050285", "name": "SOUTHERN TIER ECONOMIC GROWTH INC", "city": "ELMIRA", "state": "NY", "zip": "14901-2834", "ntee": "", "ruling": "193603", "deductibility": "2", "assets": 2201779, "income": 349514, "revenue": 341039}, {"ein": "203739212", "name": "LIFE EMPOWERMENT GROWTH & ADVANCEMENT CENTER FOR YOUTH FOUND", "city": "BROOKLYN", "state": "NY", "zip": "11203-5319", "ntee": "B90", "ruling": "200809", "deductibility": "1", "assets": 0, "income": 0, "revenue": 0}, {"ein": "204017160", "name": "KEE TO INDEPENDENT GROWTH", "city": "BALLSTON SPA", "state": "NY", "zip": "12020-0243", "ntee": "P80", "ruling": "201404", "deductibility": "1", "assets": 2503380, "income": 3711899, "revenue": 3711899}, {"ein": "222880333", "name": "CENTER FOR ECONOMIC GROWTH", "city": "ALBANY", "state": "NY", "zip": "12205-1608", "ntee": "V22Z", "ruling": "198908", "deductibility": "1", "assets": 1545948, "income": 1318359, "revenue": 1318359}, {"ein": "237207631", "name": "THE CHILDRENS GROWTH FOUNDATION", "city": "AMHERST", "state": "NY", "zip": "14226-1058", "ntee": "", "ruling": "197208", "deductibility": "1", "assets": 26000, "income": 40519, "revenue": 40519}, {"ein": "272711240", "name": "PROGRAM FOR AFRICAN GROWTH THROUGH EDUCATION", "city": "PLATTSBURGH", "state": "NY", "zip": "12901-2615", "ntee": "Q23", "ruling": "201101", "deductibility": "1", "assets": 0, "income": 0, "revenue": 0}, {"ein": "272952875", "name": "CHRISTIAN GROWTH & DEVELOPMENT SOCIETY", "city": "S OZONE PARK", "state": "NY", "zip": "11420-2808", "ntee": "Q33", "ruling": "201105", "deductibility": "1", "assets": 0, "income": 0, "revenue": 0}, {"ein": "320557787", "name": "NOTES FOR GROWTH INC", "city": "NEW YORK", "state": "NY", "zip": "10029-4660", "ntee": "T30", "ruling": "201803", "deductibility": "1", "assets": 0, "income": 0, "revenue": 0}, {"ein": "331070184", "name": "SPIRITUAL GROWTH IN CHRIST MINISTRY INC", "city": "JAMAICA", "state": "NY", "zip": "11434-2024", "ntee": "X20", "ruling": "201009", "deductibility": "1", "assets": 0, "income": 0, "revenue": 0}, {"ein": "331982461", "name": "INNINGS OF GROWTH CORPORATION", "city": "YONKERS", "state": "NY", "zip": "10704-3306", "ntee": "N99", "ruling": "202411", "deductibility": "1", "assets": 0, "income": 0, "revenue": 0}, {"ein": "334320784", "name": "SOUTHERN TIER RECOVERY OUTREACH FOR NEW GROWTH INC", "city": "NEW YORK", "state": "NY", "zip": "10023-9672", "ntee": "F20", "ruling": "202505", "deductibility": "1", "assets": 0, "income": 0, "revenue": 0}, {"ein": "421625224", "name": "GROWTH PHILANTHROPY NETWORK INC", "city": "NEW YORK", "state": "NY", "zip": "10105-0302", "ntee": "", "ruling": "200510", "deductibility": "1", "assets": 978262, "income": 989335, "revenue": 989335}, {"ein": "454919269", "name": "FULTON COUNTY CENTER FOR REGIONAL GROWTH INC", "city": "GLOVERSVILLE", "state": "NY", "zip": "12078-2902", "ntee": "S20", "ruling": "201409", "deductibility": "1", "assets": 1956366, "income": 1471859, "revenue": 1471859}, {"ein": "462825027", "name": "CHILDRENS GROWTH ALLIANCE INC", "city": "RYE", "state": "NY", "zip": "10580-4113", "ntee": "O50", "ruling": "201309", "deductibility": "1", "assets": 222, "income": 0, "revenue": 0}, {"ein": "473825702", "name": "COMMUNITY GROWTH CENTER INC", "city": "SELDEN", "state": "NY", "zip": "11784-2816", "ntee": "F32", "ruling": "201506", "deductibility": "1", "assets": 0, "income": 0, "revenue": 0}, {"ein": "473960901", "name": "CATTARAUGUS COUNTY ECONOMIC SUSTAINABILITY AND GROWTH CORPORAT", "city": "LITTLE VALLEY", "state": "NY", "zip": "14755-1028", "ntee": "S30", "ruling": "201905", "deductibility": "1", "assets": 656668, "income": 5812, "revenue": 5812}, {"ein": "611573435", "name": "PECONIC GREEN GROWTH INC", "city": "RIVERHEAD", "state": "NY", "zip": "11901-2842", "ntee": "S30", "ruling": "201103", "deductibility": "1", "assets": 0, "income": 0, "revenue": 0}, {"ein": "800189407", "name": "THEATER FOR PERSONAL GROWTH INC", "city": "NEW YORK", "state": "NY", "zip": "10075-1175", "ntee": "A65", "ruling": "200808", "deductibility": "1", "assets": 11891, "income": 293916, "revenue": 293916}, {"ein": "811146529", "name": "ITEC FOR SUSTAINABLE GROWTH AND DEVELOPMENT INC", "city": "ROCHESTER", "state": "NY", "zip": "14607-2265", "ntee": "P99", "ruling": "201603", "deductibility": "1", "assets": 8500, "income": 3948, "revenue": 3948}, {"ein": "812891028", "name": "FINGER LAKES OPPORTUNITY FOR TOURISM GROWTH INC", "city": "PENN YAN", "state": "NY", "zip": "14527-1806", "ntee": "S31", "ruling": "201607", "deductibility": "1", "assets": 4175, "income": 150, "revenue": 150}, {"ein": "813625622", "name": "ECONOMIC LITERACY AND GROWTH CENTER INCORPORATED", "city": "JAMAICA", "state": "NY", "zip": "11435-5006", "ntee": "B60", "ruling": "201905", "deductibility": "1", "assets": 0, "income": 0, "revenue": 0}, {"ein": "831229430", "name": "INTENTIONAL GROWTH FOUNDATION INC", "city": "BRONX", "state": "NY", "zip": "10457-2911", "ntee": "W99", "ruling": "201807", "deductibility": "1", "assets": 0, "income": 0, "revenue": 0}, {"ein": "832395902", "name": "FOUNDATION GROWTH INITIATIVE", "city": "NEW YORK", "state": "NY", "zip": "10030-2135", "ntee": "B80", "ruling": "202305", "deductibility": "1", "assets": 0, "income": 0, "revenue": 0}, {"ein": "833960787", "name": "SEEDS FOR GROWTH AND DEVELOPMENT INC", "city": "BRONX", "state": "NY", "zip": "10459-4480", "ntee": "P20", "ruling": "201911", "deductibility": "1", "assets": 0, "income": 0, "revenue": 0}, {"ein": "834065816", "name": "GROWTH DESIGNED INC", "city": "HOWARD BEACH", "state": "NY", "zip": "11414-3407", "ntee": "O50", "ruling": "201912", "deductibility": "1", "assets": 0, "income": 0, "revenue": 0}, {"ein": "842539114", "name": "NATIONAL EQUINE INSTITUTE OF GROWTH THROUGH HEALING", "city": "BEMUS POINT", "state": "NY", "zip": "14712-9516", "ntee": "D99", "ruling": "202004", "deductibility": "1", "assets": 20992, "income": 54130, "revenue": 54130}, {"ein": "842654843", "name": "FARM AND FOOD GROWTH FUND INC", "city": "HUDSON", "state": "NY", "zip": "12534-2899", "ntee": "S30", "ruling": "202003", "deductibility": "1", "assets": 195191, "income": 60334, "revenue": 60334}, {"ein": "843970728", "name": "EMPOWERING ECONOMIC GROWTH FOUNDATION", "city": "NEW YORK", "state": "NY", "zip": "10011-9901", "ntee": "T23", "ruling": "202008", "deductibility": "1", "assets": 5018332, "income": 4000807, "revenue": 0}, {"ein": "844306037", "name": "GUILDERLAND COALITION FOR RESPONSIBLE GROWTH INC", "city": "GUILDERLAND", "state": "NY", "zip": "12084-0201", "ntee": "S01", "ruling": "202110", "deductibility": "2", "assets": 0, "income": 0, "revenue": 0}, {"ein": "852472684", "name": "GROWTH ACADEMY", "city": "MORICHES", "state": "NY", "zip": "11955-1810", "ntee": "B90", "ruling": "202012", "deductibility": "1", "assets": 0, "income": 0, "revenue": 0}, {"ein": "862748299", "name": "WORLD GREEN GROWTH ORGANIZATION", "city": "BAYSIDE", "state": "NY", "zip": "11361-1743", "ntee": "C30", "ruling": "202107", "deductibility": "1", "assets": 1, "income": 0, "revenue": 0}, {"ein": "872156955", "name": "EMERGENCY MANAGEMENT GROWTH INITIATIVE", "city": "BROOKLYN", "state": "NY", "zip": "11233-2191", "ntee": "M20", "ruling": "202202", "deductibility": "1", "assets": 0, "income": 0, "revenue": 0}, {"ein": "873909754", "name": "INSPIRE GROWTH NEW YORK INC", "city": "BROOKLYN", "state": "NY", "zip": "11215-3003", "ntee": "P20", "ruling": "202205", "deductibility": "1", "assets": 1000, "income": 1000, "revenue": 1000}, {"ein": "881678041", "name": "ETERNAL GROWTH CORPORATION", "city": "SYOSSET", "state": "NY", "zip": "11791-3909", "ntee": "O50", "ruling": "202206", "deductibility": "1", "assets": 0, "income": 0, "revenue": 0}, {"ein": "882575402", "name": "ASIAN AMERICAN GROWTH AND DEVELOPMENT CENTER INC", "city": "FLUSHING", "state": "NY", "zip": "11358-3327", "ntee": "P50", "ruling": "202212", "deductibility": "1", "assets": 1068, "income": 40658, "revenue": 0}, {"ein": "883042909", "name": "GROWTH THROUGH GRIEF", "city": "NEW YORK", "state": "NY", "zip": "10010-0026", "ntee": "F60", "ruling": "202207", "deductibility": "1", "assets": 1, "income": 16932, "revenue": 0}, {"ein": "883861429", "name": "OASIS FOR GROWTH INC", "city": "NEW YORK", "state": "NY", "zip": "10116-1148", "ntee": "P84", "ruling": "202302", "deductibility": "1", "assets": 0, "income": 0, "revenue": 0}, {"ein": "920876623", "name": "EAST WEST SPIRITUAL GROWTH FOUNDATION INC", "city": "CEDARHURST", "state": "NY", "zip": "11516-2302", "ntee": "T30", "ruling": "202212", "deductibility": "1", "assets": 0, "income": 0, "revenue": 0}, {"ein": "921344087", "name": "HUMAN GROWTH PROJECT", "city": "NEW YORK", "state": "NY", "zip": "10013-2473", "ntee": "E70", "ruling": "202309", "deductibility": "1", "assets": 17903690, "income": 950873, "revenue": 950873}, {"ein": "923250657", "name": "HAVEN CENTER FOR GROWTH", "city": "BROOKLYN", "state": "NY", "zip": "11211-1142", "ntee": "B80", "ruling": "202307", "deductibility": "1", "assets": 2410, "income": 3610, "revenue": 3610}, {"ein": "934217469", "name": "CATALYST FOR GROWTH FAITH LOVE", "city": "BROOKLYN", "state": "NY", "zip": "11213-3271", "ntee": "X99", "ruling": "202411", "deductibility": "1", "assets": 0, "income": 0, "revenue": 0}, {"ein": "934398055", "name": "SOUTH SIDE COMMUNITY GROWTH FOUNDATION INC", "city": "SYRACUSE", "state": "NY", "zip": "13202-2603", "ntee": "S20", "ruling": "202406", "deductibility": "1", "assets": 0, "income": 0, "revenue": 0}, {"ein": "993611600", "name": "DEVELOPMENT N GROWTH YOUTH PROGRAM INC", "city": "MIDDLE ISLAND", "state": "NY", "zip": "11953-2313", "ntee": "N99", "ruling": "202407", "deductibility": "1", "assets": 0, "income": 0, "revenue": 0}, {"ein": "995034265", "name": "GROWTH NYC INC", "city": "BROOKLYN", "state": "NY", "zip": "11203-3104", "ntee": "A31", "ruling": "202409", "deductibility": "1", "assets": 0, "income": 0, "revenue": 0}], "DIVINE": [{"ein": "010635330", "name": "HOUSE OF ESTHER DIVINE MINISTRIES INC", "city": "QUEENS VILLAGE", "state": "NY", "zip": "11429-0000", "ntee": "X21", "ruling": "200407", "deductibility": "1", "assets": 0, "income": 0, "revenue": 0}, {"ein": "061809655", "name": "WORKS OF DIVINE MERCY INC", "city": "ANGELICA", "state": "NY", "zip": "14709-0242", "ntee": "P20", "ruling": "200810", "deductibility": "1", "assets": 0, "income": 0, "revenue": 0}, {"ein": "110078944", "name": "SACRED ORDER OF DIVINE TRUTH", "city": "BROOKLYN", "state": "NY", "zip": "11206-7745", "ntee": "", "ruling": "196702", "deductibility": "1", "assets": 0, "income": 0, "revenue": 0}, {"ein": "112411767", "name": "MT CARMEL CHURCH OF CHRIST THE DIVINE INC", "city": "BROOKLYN", "state": "NY", "zip": "11210-3531", "ntee": "", "ruling": "197808", "deductibility": "1", "assets": 0, "income": 0, "revenue": 0}, {"ein": "112433455", "name": "DIVINE SCIENCE CHURCH OF LONG ISLAND NEW YORK CJ O JO ANN PECORA", "city": "FARMINGDALE", "state": "NY", "zip": "11735-1939", "ntee": "", "ruling": "197710", "deductibility": "1", "assets": 0, "income": 0, "revenue": 0}, {"ein": "112532692", "name": "WESTBURY DIVINE CHURCH OF GOD", "city": "WESTBURY", "state": "NY", "zip": "11590-0048", "ntee": "", "ruling": "196007", "deductibility": "1", "assets": 0, "income": 0, "revenue": 0}, {"ein": "112548555", "name": "DIVINE JOY CHURCH OF CHRIST INC", "city": "BROOKLYN", "state": "NY", "zip": "11216-1117", "ntee": "", "ruling": "198105", "deductibility": "1", "assets": 0, "income": 0, "revenue": 0}, {"ein": "112836782", "name": "GODS DIVINE PRAYER TABERNACLE", "city": "HICKSVILLE", "state": "NY", "zip": "11801-1338", "ntee": "X99Z", "ruling": "199509", "deductibility": "1", "assets": 0, "income": 0, "revenue": 0}, {"ein": "113062499", "name": "DIVINE TRUTH ASSEMBLY", "city": "BROOKLYN", "state": "NY", "zip": "11210-1329", "ntee": "", "ruling": "199408", "deductibility": "1", "assets": 0, "income": 0, "revenue": 0}, {"ein": "113225305", "name": "TRUTH CENTER OF DIVINE AWARENESS", "city": "BROOKLYN", "state": "NY", "zip": "11203-4509", "ntee": "", "ruling": "199606", "deductibility": "1", "assets": 0, "income": 0, "revenue": 0}, {"ein": "113313011", "name": "ST ANTHONYS DIVINE CHURCH OF HEALING INC", "city": "BROOKLYN", "state": "NY", "zip": "11226-5427", "ntee": "X20Z", "ruling": "199711", "deductibility": "1", "assets": 0, "income": 0, "revenue": 0}, {"ein": "113319362", "name": "CHURCH OF GOD DIVINE OUTREACH INC", "city": "BROOKLYN", "state": "NY", "zip": "11206-2503", "ntee": "X20Z", "ruling": "199608", "deductibility": "1", "assets": 0, "income": 0, "revenue": 0}, {"ein": "113404740", "name": "DIVINE HEALER ORTHODOX CHRISTIAN FELLOWSHIP", "city": "BROOKLYN", "state": "NY", "zip": "11220-5308", "ntee": "X20", "ruling": "199804", "deductibility": "1", "assets": 0, "income": 0, "revenue": 0}, {"ein": "113511227", "name": "DIVINE WORD OF TRUTH CHURCH OF GOD IN CHRIST INC", "city": "BROOKLYN", "state": "NY", "zip": "11225-4121", "ntee": "X21", "ruling": "200005", "deductibility": "1", "assets": 0, "income": 0, "revenue": 0}, {"ein": "113521064", "name": "ST ANTHONY EVANGELIST DIVINE TABERNACLE OF THE WORLD INC", "city": "JAMAICA", "state": "NY", "zip": "11435-4506", "ntee": "X21", "ruling": "200002", "deductibility": "1", "assets": 0, "income": 0, "revenue": 0}, {"ein": "113796390", "name": "ALLIANCE OF DIVINE LOVE INC", "city": "PRT JEFFERSON", "state": "NY", "zip": "11777-1623", "ntee": "", "ruling": "197702", "deductibility": "1", "assets": 0, "income": 0, "revenue": 0}, {"ein": "131623934", "name": "CATHEDRAL CHURCH OF ST JOHN THE DIVINE", "city": "NEW YORK", "state": "NY", "zip": "10025-1747", "ntee": "", "ruling": "197206", "deductibility": "1", "assets": 0, "income": 0, "revenue": 0}, {"ein": "131740396", "name": "SISTERS OF THE DIVINE COMPASSION OF THE STATE OF NEW YORK", "city": "WHITE PLAINS", "state": "NY", "zip": "10603-3710", "ntee": "", "ruling": "194603", "deductibility": "1", "assets": 0, "income": 0, "revenue": 0}, {"ein": "133157740", "name": "LAYMENS CLUB OF CATHEDRAL CHURCH OF ST JOHN THE DIVINE NEW YORK INC", "city": "NEW YORK", "state": "NY", "zip": "10025-1702", "ntee": "X11", "ruling": "198306", "deductibility": "1", "assets": 0, "income": 0, "revenue": 0}, {"ein": "141515471", "name": "EMISSARIES OF DIVINE LIGHT INC", "city": "HICKSVILLE", "state": "NY", "zip": "11801-1405", "ntee": "", "ruling": "196411", "deductibility": "1", "assets": 0, "income": 0, "revenue": 0}, {"ein": "160781582", "name": "DIVINE MERCY PARISH", "city": "NIAGARA FALLS", "state": "NY", "zip": "14303-1925", "ntee": "", "ruling": "194603", "deductibility": "1", "assets": 0, "income": 0, "revenue": 0}, {"ein": "160912442", "name": "FRANCISCAN MISSIONARY SISTERS OF THE DIVINE CHILD INC", "city": "BUFFALO", "state": "NY", "zip": "14221-5341", "ntee": "", "ruling": "194603", "deductibility": "1", "assets": 0, "income": 0, "revenue": 0}, {"ein": "161363895", "name": "MOTHER OF DIVINE GRACE HOUSING DEVELOPMENT FUND COMPANY INC", "city": "LACKAWANNA", "state": "NY", "zip": "14218-1629", "ntee": "X20", "ruling": "201512", "deductibility": "1", "assets": 194963, "income": 106510, "revenue": 106510}, {"ein": "200376176", "name": "DIVINE INTERVENTION INSTITUTE INC", "city": "VALLEY STREAM", "state": "NY", "zip": "11582-1262", "ntee": "P40", "ruling": "200403", "deductibility": "1", "assets": 134295, "income": 485992, "revenue": 485992}, {"ein": "203533001", "name": "HOPE DIVINE CHURCH OF GOD", "city": "ROCHESTER", "state": "NY", "zip": "14611-1627", "ntee": "", "ruling": "196007", "deductibility": "1", "assets": 0, "income": 0, "revenue": 0}, {"ein": "203976253", "name": "DIVINE FAVOR ASSEMBLY OF GOD", "city": "BRONX", "state": "NY", "zip": "10459-1660", "ntee": "", "ruling": "196408", "deductibility": "1", "assets": 0, "income": 0, "revenue": 0}, {"ein": "204901757", "name": "FIRST BETHEL DIVINE SPIRITUALMIRACLE TOUCH CHURCH", "city": "BALDWIN", "state": "NY", "zip": "11510-1830", "ntee": "X21", "ruling": "200708", "deductibility": "1", "assets": 0, "income": 0, "revenue": 0}, {"ein": "208905465", "name": "DIVINE AMPUTEE REHABILITATION INC", "city": "ARDSLEY", "state": "NY", "zip": "10502-2133", "ntee": "E70", "ruling": "200710", "deductibility": "1", "assets": 0, "income": 0, "revenue": 0}, {"ein": "222792152", "name": "COMMUNITY OF DIVINE PROVIDENCE INC", "city": "VLY COTTAGE", "state": "NY", "zip": "10989-1401", "ntee": "X22Z", "ruling": "199701", "deductibility": "1", "assets": 0, "income": 0, "revenue": 0}, {"ein": "223127111", "name": "CENTER FOR WOMEN THE EARTH THE DIVINE", "city": "BRONX", "state": "NY", "zip": "10464-1451", "ntee": "A99Z", "ruling": "199111", "deductibility": "1", "assets": 0, "income": 0, "revenue": 0}, {"ein": "223872857", "name": "DIVINE LOVE WORLD CHARITY INC", "city": "NEW YORK", "state": "NY", "zip": "10024-6022", "ntee": "P20", "ruling": "200210", "deductibility": "1", "assets": 198240, "income": 906756, "revenue": 906756}, {"ein": "237088028", "name": "CHURCH OF DIVINE METAPHYSICS OF BROOKLYN", "city": "BROOKLYN", "state": "NY", "zip": "11207-6724", "ntee": "", "ruling": "197009", "deductibility": "1", "assets": 0, "income": 0, "revenue": 0}, {"ein": "237181990", "name": "TEMPLE OF DIVINE ORDER INC", "city": "RAVENA", "state": "NY", "zip": "12143-1313", "ntee": "", "ruling": "197206", "deductibility": "1", "assets": 0, "income": 0, "revenue": 0}, {"ein": "237431633", "name": "EMISSARIES OF DIVINE LIGHT", "city": "WANTAGH", "state": "NY", "zip": "11793-3815", "ntee": "", "ruling": "196411", "deductibility": "1", "assets": 0, "income": 0, "revenue": 0}, {"ein": "237431634", "name": "EMISSARIES OF DIVINE LIGHT", "city": "WOODHAVEN", "state": "NY", "zip": "11421-1705", "ntee": "", "ruling": "196411", "deductibility": "1", "assets": 0, "income": 0, "revenue": 0}, {"ein": "237547661", "name": "EMISSARIES OF DIVINE LIGHT", "city": "HICKSVILLE", "state": "NY", "zip": "11801-1405", "ntee": "", "ruling": "197210", "deductibility": "1", "assets": 0, "income": 0, "revenue": 0}, {"ein": "260496393", "name": "DIVINE MERCY CATHOLIC ACADEMY", "city": "OZONE PARK", "state": "NY", "zip": "11416-2205", "ntee": "", "ruling": "194603", "deductibility": "0", "assets": 0, "income": 0, "revenue": 0}, {"ein": "261304187", "name": "DIVINE RECONCILIATION INTERNATIONAL MINISTRIES", "city": "BROOKLYN", "state": "NY", "zip": "11207-6736", "ntee": "X20", "ruling": "200909", "deductibility": "1", "assets": 0, "income": 0, "revenue": 0}, {"ein": "262184688", "name": "DIVINE FAITH DELIVERANCE INTERNATIONAL MINISTRIES INC", "city": "JAMAICA", "state": "NY", "zip": "11436-1323", "ntee": "X20", "ruling": "200902", "deductibility": "1", "assets": 0, "income": 0, "revenue": 0}, {"ein": "263006465", "name": "DIVINE FAVOR ASSEMBLY OF GOD", "city": "BRONX", "state": "NY", "zip": "10459-1660", "ntee": "X20", "ruling": "196408", "deductibility": "1", "assets": 0, "income": 0, "revenue": 0}, {"ein": "263028586", "name": "CHERIBUM AND SERAPHIM CHURCH DEW OF DIVINE BLESSINGS INC", "city": "STATEN ISLAND", "state": "NY", "zip": "10304-4618", "ntee": "X20", "ruling": "200812", "deductibility": "1", "assets": 0, "income": 0, "revenue": 0}, {"ein": "263542419", "name": "DIVINE PRAYER CHURCH AND MINISTRY", "city": "HOLLIS", "state": "NY", "zip": "11423-2009", "ntee": "X21", "ruling": "200903", "deductibility": "1", "assets": 0, "income": 0, "revenue": 0}, {"ein": "270362454", "name": "DIVINE WISDOM CATHOLIC ACADEMY", "city": "DOUGLASTON", "state": "NY", "zip": "11362-1134", "ntee": "", "ruling": "194603", "deductibility": "1", "assets": 0, "income": 0, "revenue": 0}, {"ein": "271983191", "name": "DIVINE CHILD FOUNDATION A NJ NONPROFIT CORPORATION", "city": "HOLLIS", "state": "NY", "zip": "11423-1104", "ntee": "A23", "ruling": "201101", "deductibility": "1", "assets": 0, "income": 0, "revenue": 0}, {"ein": "320435725", "name": "ALLIANCE OF DIVINE LOVE INC", "city": "BROOKLYN", "state": "NY", "zip": "11218-3605", "ntee": "", "ruling": "197702", "deductibility": "1", "assets": 0, "income": 0, "revenue": 0}, {"ein": "332457111", "name": "GODS DIVINE PURPOSE AND DELIVERANCE MINISTRIES", "city": "ROCHESTER", "state": "NY", "zip": "14609-0000", "ntee": "P30", "ruling": "202501", "deductibility": "1", "assets": 0, "income": 0, "revenue": 0}, {"ein": "333465387", "name": "DIVINE COMMUNITY HOMES INC", "city": "HICKSVILLE", "state": "NY", "zip": "11801-3362", "ntee": "L99", "ruling": "202503", "deductibility": "1", "assets": 0, "income": 0, "revenue": 0}, {"ein": "352226879", "name": "SECOURS DIVINE ASSISTANCE INC", "city": "MONSEY", "state": "NY", "zip": "10952-0169", "ntee": "B82", "ruling": "200607", "deductibility": "1", "assets": 1, "income": 1836, "revenue": 1836}, {"ein": "352284576", "name": "DIVINE POWER MINISTRY INC", "city": "BRONX", "state": "NY", "zip": "10459-2228", "ntee": "X21", "ruling": "200811", "deductibility": "1", "assets": 0, "income": 0, "revenue": 0}, {"ein": "352567179", "name": "ALLIANCE OF DIVINE LOVE INC", "city": "HUNTINGTN STA", "state": "NY", "zip": "11746-1111", "ntee": "", "ruling": "197702", "deductibility": "1", "assets": 0, "income": 0, "revenue": 0}, {"ein": "383910277", "name": "MOTHER DIVINE PROGRAM-MAHARISHI GLOBAL COUNTRY OF WORLD PEACE INC", "city": "LIVINGSTN MNR", "state": "NY", "zip": "12758-6549", "ntee": "P20", "ruling": "201412", "deductibility": "1", "assets": 555490, "income": 342268, "revenue": 342268}, {"ein": "384036360", "name": "CATHEDRAL SCHOOL OF ST JOHN THE DIVINE", "city": "NEW YORK", "state": "NY", "zip": "10025-1747", "ntee": "B24", "ruling": "201709", "deductibility": "1", "assets": 0, "income": 0, "revenue": 0}, {"ein": "421684351", "name": "ALLIANCE OF DIVINE LOVE INC", "city": "KINGS PARK", "state": "NY", "zip": "11754-5038", "ntee": "", "ruling": "197702", "deductibility": "1", "assets": 0, "income": 0, "revenue": 0}, {"ein": "432057878", "name": "GILGAL DIVINE REIEF CENTER INCL", "city": "SYOSSET", "state": "NY", "zip": "11791-6922", "ntee": "Q33", "ruling": "200503", "deductibility": "1", "assets": 6650, "income": 1800, "revenue": 1800}, {"ein": "451619330", "name": "DIVINE MERCY ROMAN CATHOLIC CHURCH", "city": "BROOKLYN", "state": "NY", "zip": "11211-2516", "ntee": "", "ruling": "194603", "deductibility": "1", "assets": 0, "income": 0, "revenue": 0}, {"ein": "453125309", "name": "SERVANTS OF DIVINE CHILD MISSIONARIES", "city": "FAR ROCKAWAY", "state": "NY", "zip": "11691-2018", "ntee": "X20", "ruling": "201301", "deductibility": "1", "assets": 0, "income": 0, "revenue": 0}, {"ein": "455270453", "name": "MOTHER DIVINE CHARITABLE FOUNDATION INC", "city": "HURLEYVILLE", "state": "NY", "zip": "12747-6013", "ntee": "E60", "ruling": "201408", "deductibility": "1", "assets": 213723, "income": 10879, "revenue": 10879}, {"ein": "464301476", "name": "DIVINE COMPASSION CHARITABLE SERVICES", "city": "BROOKLYN", "state": "NY", "zip": "11210-1316", "ntee": "Z99", "ruling": "201610", "deductibility": "1", "assets": 0, "income": 0, "revenue": 0}, {"ein": "464731630", "name": "DIVINE FAITH CHRISTIAN ALLIANCE", "city": "NORTH BALDWIN", "state": "NY", "zip": "11510-2340", "ntee": "O55", "ruling": "201812", "deductibility": "1", "assets": 0, "income": 0, "revenue": 0}, {"ein": "465346005", "name": "DIVINE MERCY TALENTS & SKILLS INSTI TUTE INC", "city": "JAMAICA", "state": "NY", "zip": "11434-1025", "ntee": "X20", "ruling": "201607", "deductibility": "1", "assets": 0, "income": 0, "revenue": 0}, {"ein": "470902508", "name": "GODS DIVINE PRAYER TABERNACLE II", "city": "OZONE PARK", "state": "NY", "zip": "11416-2131", "ntee": "X99", "ruling": "200407", "deductibility": "1", "assets": 0, "income": 0, "revenue": 0}, {"ein": "471456353", "name": "DIVINE LEGACY OF CHRIST INC", "city": "BRONX", "state": "NY", "zip": "10462-7956", "ntee": "X20", "ruling": "201505", "deductibility": "1", "assets": 0, "income": 0, "revenue": 0}, {"ein": "471469550", "name": "DIVINE DESTINY KIDZ CENTER INC", "city": "WHEATLEY HTS", "state": "NY", "zip": "11798-1114", "ntee": "O20", "ruling": "202201", "deductibility": "1", "assets": 0, "income": 0, "revenue": 0}, {"ein": "472600224", "name": "ALLIANCE OF DIVINE LOVE INC", "city": "EAST NASSAU", "state": "NY", "zip": "12062-2713", "ntee": "", "ruling": "197702", "deductibility": "1", "assets": 0, "income": 0, "revenue": 0}, {"ein": "472646274", "name": "DIVINE CHURCH INC", "city": "BROOKLYN", "state": "NY", "zip": "11212-5539", "ntee": "X20", "ruling": "201809", "deductibility": "1", "assets": 0, "income": 0, "revenue": 0}, {"ein": "473109898", "name": "DIVINE KINGDOM VICTORY GLOBAL MINISTRY INC", "city": "BRONX", "state": "NY", "zip": "10470-1610", "ntee": "X20", "ruling": "201512", "deductibility": "1", "assets": 0, "income": 0, "revenue": 0}, {"ein": "474154103", "name": "DIVINE HORIZONS COMMUNITY & VETERAN DEVELOPMENT CORPORATION", "city": "MOUNT VERNON", "state": "NY", "zip": "10553-1917", "ntee": "P50", "ruling": "201804", "deductibility": "1", "assets": 0, "income": 0, "revenue": 0}, {"ein": "474462886", "name": "ALLIANCE OF DIVINE LOVE CHAPEL 2019", "city": "BROOKLYN", "state": "NY", "zip": "11238-1406", "ntee": "", "ruling": "197702", "deductibility": "1", "assets": 0, "income": 0, "revenue": 0}, {"ein": "474687289", "name": "DISCIPLES OF DIVINE MERCY IN THE HOLY FACE OF JESUS", "city": "ORCHARD PARK", "state": "NY", "zip": "14127-3364", "ntee": "X99", "ruling": "201510", "deductibility": "1", "assets": 705881, "income": 89415, "revenue": 82254}, {"ein": "475315506", "name": "ALLIANCE OF DIVINE LOVE INC", "city": "EAST NASSAU", "state": "NY", "zip": "12062-2713", "ntee": "", "ruling": "197702", "deductibility": "1", "assets": 0, "income": 0, "revenue": 0}, {"ein": "510153807", "name": "CHRIST DIVINE MISSION CHURCH", "city": "NEW YORK", "state": "NY", "zip": "10456-1710", "ntee": "", "ruling": "197507", "deductibility": "1", "assets": 0, "income": 0, "revenue": 0}, {"ein": "510207513", "name": "MINISTER OF THE TEMPLE OF DIVINE WISDOM A CORPORATION SOLE", "city": "PORT EWEN", "state": "NY", "zip": "12466-1288", "ntee": "", "ruling": "197702", "deductibility": "1", "assets": 0, "income": 0, "revenue": 0}, {"ein": "510660264", "name": "UNITED DIVINE FREEDOM CHURCH OF THE HEALING CHRIST INC", "city": "NEW YORK", "state": "NY", "zip": "10027-6527", "ntee": "X20", "ruling": "200810", "deductibility": "1", "assets": 0, "income": 0, "revenue": 0}, {"ein": "743129231", "name": "DIVINE LOVE MINISTRY INC", "city": "BAYSHORE", "state": "NY", "zip": "11706-3132", "ntee": "X20", "ruling": "200609", "deductibility": "1", "assets": 0, "income": 0, "revenue": 0}, {"ein": "753167987", "name": "DIVINE INTELLIGENT VERSATILE ARTISTS INC", "city": "NEW YORK", "state": "NY", "zip": "10108-1507", "ntee": "A03", "ruling": "202404", "deductibility": "2", "assets": 0, "income": 0, "revenue": 0}, {"ein": "800360406", "name": "DIVINE TABERNACLE OF FAITH", "city": "ROCHESTER", "state": "NY", "zip": "14609-4638", "ntee": "X20", "ruling": "201005", "deductibility": "1", "assets": 0, "income": 0, "revenue": 0}, {"ein": "800676921", "name": "DIVINE REVELATION", "city": "ROCHESTER", "state": "NY", "zip": "14624-0347", "ntee": "X20", "ruling": "201201", "deductibility": "1", "assets": 0, "income": 0, "revenue": 0}, {"ein": "800846104", "name": "DIVINE REVELATION MINISTRY", "city": "BRONX", "state": "NY", "zip": "10465-1634", "ntee": "X20", "ruling": "201503", "deductibility": "1", "assets": 10000, "income": 48649, "revenue": 0}, {"ein": "810817719", "name": "DIVINE ANOINTING TOUCH MINISTRIES", "city": "ROSEDALE", "state": "NY", "zip": "11422-1459", "ntee": "X99", "ruling": "201910", "deductibility": "1", "assets": 0, "income": 0, "revenue": 0}, {"ein": "812483601", "name": "ALLIANCE OF DIVINE LOVE INC", "city": "ROCHESTER", "state": "NY", "zip": "14612-1467", "ntee": "", "ruling": "197702", "deductibility": "1", "assets": 0, "income": 0, "revenue": 0}, {"ein": "812891912", "name": "ALLIANCE OF DIVINE LOVE INC", "city": "BROOKLYN", "state": "NY", "zip": "11221-2572", "ntee": "", "ruling": "197702", "deductibility": "1", "assets": 0, "income": 0, "revenue": 0}, {"ein": "813207153", "name": "DIVINE TRUTH MINISTRY INC", "city": "BALDWIN", "state": "NY", "zip": "11510-0000", "ntee": "X20", "ruling": "201608", "deductibility": "1", "assets": 0, "income": 0, "revenue": 0}, {"ein": "821316955", "name": "ALLIANCE OF DIVINE LOVE INC", "city": "LAKE GROVE", "state": "NY", "zip": "11755-5010", "ntee": "", "ruling": "197702", "deductibility": "1", "assets": 0, "income": 0, "revenue": 0}, {"ein": "821318724", "name": "CYNTHIAS HOUSE OF HOPE WITH A DIVINE PURPOSE INC", "city": "LAURELTON", "state": "NY", "zip": "11413-1826", "ntee": "Z99", "ruling": "202102", "deductibility": "1", "assets": 0, "income": 0, "revenue": 0}, {"ein": "821344737", "name": "ALLIANCE OF DIVINE LOVE INC", "city": "CENTRAL ISLIP", "state": "NY", "zip": "11722-1218", "ntee": "", "ruling": "197702", "deductibility": "1", "assets": 0, "income": 0, "revenue": 0}, {"ein": "821725525", "name": "DIVINE DESIGNS GENERAL CONTRACTORS INC", "city": "SAINT ALBANS", "state": "NY", "zip": "11412-0494", "ntee": "L20", "ruling": "202101", "deductibility": "1", "assets": 0, "income": 0, "revenue": 0}, {"ein": "822387984", "name": "DIVINE INFORMATION OUTREACH INC", "city": "JAMAICA", "state": "NY", "zip": "11435-2663", "ntee": "X30", "ruling": "201711", "deductibility": "1", "assets": 0, "income": 0, "revenue": 0}, {"ein": "822491656", "name": "DIVINE WORSHIP INTERNATIONAL CENTER", "city": "YONKERS", "state": "NY", "zip": "10702-1009", "ntee": "X21", "ruling": "201804", "deductibility": "1", "assets": 0, "income": 0, "revenue": 0}, {"ein": "822588367", "name": "ALLIANCE OF DIVINE LOVE INC", "city": "ROCKVILLE CTR", "state": "NY", "zip": "11570-2421", "ntee": "", "ruling": "197702", "deductibility": "1", "assets": 0, "income": 0, "revenue": 0}, {"ein": "822675118", "name": "DIVINE MERCY CEDAR CARITAS ASSOCIATION", "city": "GREAT NECK", "state": "NY", "zip": "11021-3734", "ntee": "P11", "ruling": "201904", "deductibility": "1", "assets": 0, "income": 0, "revenue": 0}, {"ein": "832057208", "name": "DIVINE LIGHT WORLD INC", "city": "QUEENS VLG", "state": "NY", "zip": "11427-2506", "ntee": "A20", "ruling": "201812", "deductibility": "1", "assets": 588622, "income": 195378, "revenue": 195378}, {"ein": "832428598", "name": "ALLIANCE OF DIVINE LOVE", "city": "QUEENSBURY", "state": "NY", "zip": "12804-9082", "ntee": "", "ruling": "197702", "deductibility": "1", "assets": 0, "income": 0, "revenue": 0}, {"ein": "834619990", "name": "DIVINE ANGELS WELLNESS CENTER", "city": "BROOKLYN", "state": "NY", "zip": "11201-5430", "ntee": "P80", "ruling": "201912", "deductibility": "1", "assets": 0, "income": 0, "revenue": 0}, {"ein": "841787072", "name": "ALLIANCE OF DIVINE LOVE INC", "city": "BROOKLYN", "state": "NY", "zip": "11210-2381", "ntee": "", "ruling": "197702", "deductibility": "1", "assets": 0, "income": 0, "revenue": 0}, {"ein": "841944372", "name": "ALLIANCE OF DIVINE LOVE INC", "city": "BROOKLYN", "state": "NY", "zip": "11218-3605", "ntee": "", "ruling": "197702", "deductibility": "1", "assets": 0, "income": 0, "revenue": 0}, {"ein": "844142443", "name": "DIVINE DELIVERIES INC", "city": "SHIRLEY", "state": "NY", "zip": "11967-1206", "ntee": "E99", "ruling": "202001", "deductibility": "1", "assets": 0, "income": 0, "revenue": 0}, {"ein": "844686416", "name": "ALLIANCE OF DIVINE LOVE AFFILIATE CHAPEL 2136", "city": "BALDWIN", "state": "NY", "zip": "11510-3214", "ntee": "", "ruling": "197702", "deductibility": "1", "assets": 0, "income": 0, "revenue": 0}, {"ein": "851098194", "name": "DIVINE LADIES INC", "city": "NANUET", "state": "NY", "zip": "10954-4435", "ntee": "O20", "ruling": "202009", "deductibility": "1", "assets": 0, "income": 0, "revenue": 0}, {"ein": "851837721", "name": "BURNING LAMP FOR HOMELESS DIVINE HEALING AND REHABILITION IN", "city": "BROOKLYN", "state": "NY", "zip": "11208-0000", "ntee": "P85", "ruling": "202311", "deductibility": "1", "assets": 0, "income": 0, "revenue": 0}, {"ein": "852508441", "name": "ALLIANCE OF DIVINE LOVE INC", "city": "BRONX", "state": "NY", "zip": "10465-3530", "ntee": "", "ruling": "197702", "deductibility": "1", "assets": 0, "income": 0, "revenue": 0}, {"ein": "852861280", "name": "ALLIANCE OF DIVINE LOVE INC", "city": "BROOKLYN", "state": "NY", "zip": "11221-1506", "ntee": "", "ruling": "197702", "deductibility": "1", "assets": 0, "income": 0, "revenue": 0}, {"ein": "852861570", "name": "ALLIANCE OF DIVINE LOVE INC", "city": "BROOKLYN", "state": "NY", "zip": "11221-1506", "ntee": "", "ruling": "197702", "deductibility": "1", "assets": 0, "income": 0, "revenue": 0}, {"ein": "852979381", "name": "ALLIANCE OF DIVINE LOVE INC", "city": "SELDEN", "state": "NY", "zip": "11784-0469", "ntee": "", "ruling": "197702", "deductibility": "1", "assets": 0, "income": 0, "revenue": 0}, {"ein": "853166952", "name": "MID-HUDSON VALLEY DIVINE 9 FOUNDATION INC", "city": "POUGHKEEPSIE", "state": "NY", "zip": "12601-0992", "ntee": "O51", "ruling": "202011", "deductibility": "1", "assets": 0, "income": 0, "revenue": 0}, {"ein": "853756607", "name": "ALLIANCE OF DIVINE LOVE INC", "city": "BRONX", "state": "NY", "zip": "10469-5516", "ntee": "", "ruling": "197702", "deductibility": "1", "assets": 0, "income": 0, "revenue": 0}, {"ein": "853850611", "name": "ALLIANCE OF DIVINE LOVE INC", "city": "JERICHO", "state": "NY", "zip": "11753-1518", "ntee": "", "ruling": "197702", "deductibility": "1", "assets": 0, "income": 0, "revenue": 0}, {"ein": "853855788", "name": "ALLIANCE OF DIVINE LOVE INC", "city": "PATCHOGUE", "state": "NY", "zip": "11772-4024", "ntee": "", "ruling": "197702", "deductibility": "1", "assets": 0, "income": 0, "revenue": 0}, {"ein": "853876777", "name": "ALLIANCE OF DIVINE LOVE INC", "city": "FARMINGVILLE", "state": "NY", "zip": "11738-0134", "ntee": "", "ruling": "197702", "deductibility": "1", "assets": 0, "income": 0, "revenue": 0}, {"ein": "854005442", "name": "ALLIANCE OF DIVINE LOVE INCORPORATED AFFILIATE CHAPEL 1942", "city": "MONSEY", "state": "NY", "zip": "10952-2904", "ntee": "", "ruling": "197702", "deductibility": "1", "assets": 0, "income": 0, "revenue": 0}, {"ein": "861212011", "name": "ALLIANCE OF DIVINE LOVE INC AFFILIATE CHAPEL 2151", "city": "HOLBROOK", "state": "NY", "zip": "11741-2885", "ntee": "", "ruling": "197702", "deductibility": "1", "assets": 0, "income": 0, "revenue": 0}, {"ein": "861734314", "name": "DIVINE CHURCH OF GOD INC", "city": "CORTLANDT MNR", "state": "NY", "zip": "10567-6111", "ntee": "X20", "ruling": "202506", "deductibility": "1", "assets": 0, "income": 0, "revenue": 0}, {"ein": "862526909", "name": "ALLIANCE OF DIVINE LOVE INC", "city": "ROME", "state": "NY", "zip": "13440-9379", "ntee": "", "ruling": "197702", "deductibility": "1", "assets": 0, "income": 0, "revenue": 0}, {"ein": "862552179", "name": "ALLIANCE OF DIVINE LOVE INC", "city": "FAR ROCKAWAY", "state": "NY", "zip": "11691-2315", "ntee": "", "ruling": "197702", "deductibility": "1", "assets": 0, "income": 0, "revenue": 0}, {"ein": "863983058", "name": "ALLIANCE OF DIVINE LOVE INC", "city": "ROCKY POINT", "state": "NY", "zip": "11778-8971", "ntee": "", "ruling": "197702", "deductibility": "1", "assets": 0, "income": 0, "revenue": 0}, {"ein": "872831745", "name": "ALLIANCE OF DIVINE LOVE INC", "city": "CAMBRIDGE", "state": "NY", "zip": "12816-2940", "ntee": "", "ruling": "197702", "deductibility": "1", "assets": 0, "income": 0, "revenue": 0}, {"ein": "873176287", "name": "ALLIANCE OF DIVINE LOVE INC", "city": "OZONE PARK", "state": "NY", "zip": "11416-1721", "ntee": "", "ruling": "197702", "deductibility": "1", "assets": 0, "income": 0, "revenue": 0}, {"ein": "873262247", "name": "GOD DIVINE DELIVERANCE MINISTRY INC", "city": "LAURELTON", "state": "NY", "zip": "11413-2024", "ntee": "X20", "ruling": "202307", "deductibility": "1", "assets": 0, "income": 0, "revenue": 0}, {"ein": "873800427", "name": "DIVINE LADIEZ INC", "city": "BROOKLYN", "state": "NY", "zip": "11207-7322", "ntee": "E99", "ruling": "202301", "deductibility": "1", "assets": 0, "income": 0, "revenue": 0}, {"ein": "873849281", "name": "ALLIANCE OF DIVINE LOVE INC", "city": "PRT JEFFERSON", "state": "NY", "zip": "11777-1141", "ntee": "", "ruling": "197702", "deductibility": "1", "assets": 0, "income": 0, "revenue": 0}, {"ein": "873951781", "name": "ALLIANCE OF DIVINE LOVE INC", "city": "KIRKVILLE", "state": "NY", "zip": "13082-9436", "ntee": "", "ruling": "197702", "deductibility": "1", "assets": 0, "income": 0, "revenue": 0}, {"ein": "874457288", "name": "ALLIANCE OF DIVINE LOVE INC AFFILIATE CHAPEL 2224", "city": "MASSAPEQUA PK", "state": "NY", "zip": "11762-3936", "ntee": "", "ruling": "197702", "deductibility": "1", "assets": 0, "income": 0, "revenue": 0}, {"ein": "874465699", "name": "ALLIANCE OF DIVINE LOVE INC", "city": "CTR MORICHES", "state": "NY", "zip": "11934-1307", "ntee": "", "ruling": "197702", "deductibility": "1", "assets": 0, "income": 0, "revenue": 0}, {"ein": "881911880", "name": "ALLIANCE OF DIVINE LOVE INC", "city": "PRT JEFFERSON", "state": "NY", "zip": "11777-1321", "ntee": "", "ruling": "197702", "deductibility": "1", "assets": 0, "income": 0, "revenue": 0}, {"ein": "882050915", "name": "ALLIANCE OF DIVINE LOVE INC", "city": "RONKONKOMA", "state": "NY", "zip": "11779-2653", "ntee": "", "ruling": "197702", "deductibility": "1", "assets": 0, "income": 0, "revenue": 0}, {"ein": "882054162", "name": "ALLIANCE OF DIVINE LOVE INC", "city": "BROOKLYN", "state": "NY", "zip": "11230-6404", "ntee": "", "ruling": "197702", "deductibility": "1", "assets": 0, "income": 0, "revenue": 0}, {"ein": "883516254", "name": "ALLIANCE OF DIVINE LOVE INC", "city": "HOLBROOK", "state": "NY", "zip": "11741-3216", "ntee": "", "ruling": "197702", "deductibility": "1", "assets": 0, "income": 0, "revenue": 0}, {"ein": "883521986", "name": "ALLIANCE OF DIVINE LOVE INC", "city": "LONG BEACH", "state": "NY", "zip": "11561-3008", "ntee": "", "ruling": "197702", "deductibility": "1", "assets": 0, "income": 0, "revenue": 0}, {"ein": "883564602", "name": "ALLIANCE OF DIVINE LOVE INC", "city": "PATCHOGUE", "state": "NY", "zip": "11772-1763", "ntee": "", "ruling": "197702", "deductibility": "1", "assets": 0, "income": 0, "revenue": 0}, {"ein": "883601564", "name": "ALLIANCE OF DIVINE LOVE INC", "city": "HOLBROOK", "state": "NY", "zip": "11741-3216", "ntee": "", "ruling": "197702", "deductibility": "1", "assets": 0, "income": 0, "revenue": 0}, {"ein": "883731562", "name": "ALLIANCE OF DIVINE LOVE INC", "city": "FRESH MEADOWS", "state": "NY", "zip": "11366-1609", "ntee": "", "ruling": "197702", "deductibility": "1", "assets": 0, "income": 0, "revenue": 0}, {"ein": "884224879", "name": "ALLIANCE OF DIVINE LOVE INC", "city": "AVERILL PARK", "state": "NY", "zip": "12018-3741", "ntee": "", "ruling": "197702", "deductibility": "1", "assets": 0, "income": 0, "revenue": 0}, {"ein": "884359745", "name": "ALLIANCE OF DIVINE LOVE INC", "city": "N BELLMORE", "state": "NY", "zip": "11710-2302", "ntee": "", "ruling": "197702", "deductibility": "1", "assets": 0, "income": 0, "revenue": 0}, {"ein": "900138238", "name": "DIVINE HEALING DELIVERANCE MINISTRIES INC", "city": "BROOKLYN", "state": "NY", "zip": "11212-0998", "ntee": "X20", "ruling": "200710", "deductibility": "1", "assets": 0, "income": 0, "revenue": 0}, {"ein": "900439522", "name": "ALLIANCE OF DIVINE LOVE INC", "city": "GLEN COVE", "state": "NY", "zip": "11542-4032", "ntee": "", "ruling": "197702", "deductibility": "1", "assets": 0, "income": 0, "revenue": 0}, {"ein": "921303430", "name": "ALLIANCE OF DIVINE LOVE INC", "city": "HAUPPAUGE", "state": "NY", "zip": "11788-3756", "ntee": "", "ruling": "197702", "deductibility": "1", "assets": 0, "income": 0, "revenue": 0}, {"ein": "922560331", "name": "ALLIANCE OF DIVINE LOVE INC", "city": "WADING RIVER", "state": "NY", "zip": "11792-3600", "ntee": "", "ruling": "197702", "deductibility": "1", "assets": 0, "income": 0, "revenue": 0}, {"ein": "923098027", "name": "DIVINE RIOT INC", "city": "NEW YORK", "state": "NY", "zip": "11206-2880", "ntee": "A20", "ruling": "202311", "deductibility": "1", "assets": 0, "income": 0, "revenue": 0}, {"ein": "923608397", "name": "ALLIANCE OF DIVINE LOVE INC", "city": "WOODMERE", "state": "NY", "zip": "11598-2241", "ntee": "", "ruling": "197702", "deductibility": "1", "assets": 0, "income": 0, "revenue": 0}, {"ein": "932095380", "name": "ALLIANCE OF DIVINE LOVE INC", "city": "PRT JEFFERSON", "state": "NY", "zip": "11777-0436", "ntee": "", "ruling": "197702", "deductibility": "1", "assets": 0, "income": 0, "revenue": 0}, {"ein": "932095672", "name": "ALLIANCE OF DIVINE LOVE INC", "city": "PRT JEFFERSON", "state": "NY", "zip": "11777-0436", "ntee": "", "ruling": "197702", "deductibility": "1", "assets": 0, "income": 0, "revenue": 0}, {"ein": "933299447", "name": "ALLIANCE OF DIVINE LOVE INC", "city": "PORT JEFF STA", "state": "NY", "zip": "11776-4225", "ntee": "", "ruling": "197702", "deductibility": "1", "assets": 0, "income": 0, "revenue": 0}, {"ein": "933510124", "name": "DIVINE TRUTH AND LOVE MINISTRIES INC", "city": "POUGHKEEPSIE", "state": "NY", "zip": "12603-5929", "ntee": "X20", "ruling": "202412", "deductibility": "1", "assets": 0, "income": 0, "revenue": 0}, {"ein": "934679051", "name": "DIVINE ALL ALONG FOUNDATION", "city": "NEW YORK", "state": "NY", "zip": "10033-3435", "ntee": "P88", "ruling": "202401", "deductibility": "1", "assets": 0, "income": 0, "revenue": 0}, {"ein": "943231908", "name": "FOUNDATION FOR DIVINE LIVING", "city": "HERKIMER", "state": "NY", "zip": "13350-1028", "ntee": "X21", "ruling": "199602", "deductibility": "2", "assets": 0, "income": 0, "revenue": 0}, {"ein": "943488173", "name": "GLOBAL DIVINE POWER MINISTRIES INC", "city": "BRONX", "state": "NY", "zip": "10456-0520", "ntee": "X21", "ruling": "201407", "deductibility": "1", "assets": 0, "income": 0, "revenue": 0}, {"ein": "992192025", "name": "DIVINE ACTS OF LOVE INC", "city": "NORTH BALDWIN", "state": "NY", "zip": "11510-1016", "ntee": "T99", "ruling": "202408", "deductibility": "1", "assets": 0, "income": 0, "revenue": 0}, {"ein": "992603125", "name": "GOD DIVINE JURISDICTION INSPIRATION & LOVE FOUNDATION INC", "city": "ST ALBANS", "state": "NY", "zip": "11412-3213", "ntee": "O50", "ruling": "202505", "deductibility": "1", "assets": 0, "income": 0, "revenue": 0}, {"ein": "994786856", "name": "DIVINE SOUL EXPRESSIONS", "city": "MOUNT VERNON", "state": "NY", "zip": "10553-1351", "ntee": "P20", "ruling": "202410", "deductibility": "1", "assets": 0, "income": 0, "revenue": 0}], "HELPING": [{"ein": "010686174", "name": "HOPE HELPING OTHER PEOPLE FOUNDATION INC", "city": "YONKERS", "state": "NY", "zip": "10705-4488", "ntee": "Q99", "ruling": "200210", "deductibility": "1", "assets": 377029, "income": 388734, "revenue": 311187}, {"ein": "020696684", "name": "ST LUKE UNITY HELPING AID PENTECOSTAL HOLINESS CHURCH INC", "city": "BROOKLYN", "state": "NY", "zip": "11233-3223", "ntee": "X21", "ruling": "200405", "deductibility": "1", "assets": 0, "income": 0, "revenue": 0}, {"ein": "061629589", "name": "HELPING HANDS CHRISTIAN PRE-SCHOOL", "city": "GOSHEN", "state": "NY", "zip": "10924-1523", "ntee": "B21", "ruling": "200407", "deductibility": "1", "assets": 53782, "income": 102757, "revenue": 102757}, {"ein": "112386570", "name": "HELPING HANDS RESCUE MISSION INC", "city": "HUNTINGTN STA", "state": "NY", "zip": "11746-1428", "ntee": "", "ruling": "196402", "deductibility": "1", "assets": 0, "income": 0, "revenue": 0}, {"ein": "112611032", "name": "CHRISTIANS HELPING ANIMALS AND PEOPLE INC", "city": "SELDEN", "state": "NY", "zip": "11784-0272", "ntee": "", "ruling": "198304", "deductibility": "1", "assets": 0, "income": 0, "revenue": 0}, {"ein": "113009853", "name": "HELPING HAND SOCIETY OF L I", "city": "WYANDANCH", "state": "NY", "zip": "11798-0983", "ntee": "", "ruling": "199107", "deductibility": "1", "assets": 0, "income": 0, "revenue": 0}, {"ein": "113059958", "name": "NEIGHBORS HELPING NEIGHBORS INC", "city": "BROOKLYN", "state": "NY", "zip": "11217-4596", "ntee": "L80", "ruling": "199203", "deductibility": "1", "assets": 1349793, "income": 1176039, "revenue": 1172279}, {"ein": "113296463", "name": "GIVE A HELPING HAND CORPORATION", "city": "BROOKLYN", "state": "NY", "zip": "11226-7196", "ntee": "P20", "ruling": "202111", "deductibility": "1", "assets": 0, "income": 0, "revenue": 0}, {"ein": "113312226", "name": "HELPING HANDS OF KERALA INC", "city": "HICKSVILLE", "state": "NY", "zip": "11801-2118", "ntee": "P20", "ruling": "199711", "deductibility": "1", "assets": 0, "income": 0, "revenue": 0}, {"ein": "113557023", "name": "HELPING END VIOLENCE NOW INC", "city": "UNIONDALE", "state": "NY", "zip": "11553-3129", "ntee": "I20", "ruling": "202004", "deductibility": "1", "assets": 0, "income": 0, "revenue": 0}, {"ein": "133111915", "name": "SENIORS HELPING SENIORS INC", "city": "NEW YORK", "state": "NY", "zip": "10032-3743", "ntee": "T40Z", "ruling": "198207", "deductibility": "1", "assets": 1, "income": 70800, "revenue": 70800}, {"ein": "133419000", "name": "HELPING HANDS FOR THE DISABLED OF N YC INC", "city": "ASTORIA", "state": "NY", "zip": "11103-0905", "ntee": "P20", "ruling": "201208", "deductibility": "1", "assets": 0, "income": 0, "revenue": 0}, {"ein": "133421720", "name": "HELPING HANDS FOR THE HOMELESS AND HUNGRY INC", "city": "RYE", "state": "NY", "zip": "10580-0982", "ntee": "", "ruling": "198812", "deductibility": "1", "assets": 106587, "income": 119001, "revenue": 14857}, {"ein": "134189575", "name": "FRED GABLER HELPING HAND CAMP FUND INC", "city": "NEW CITY", "state": "NY", "zip": "10956-4423", "ntee": "T20", "ruling": "200202", "deductibility": "1", "assets": 223836, "income": 142563, "revenue": 63123}, {"ein": "161295221", "name": "FORMER TROOPERS HELPING HANDS INC", "city": "WEST SENECA", "state": "NY", "zip": "14224-0432", "ntee": "", "ruling": "199402", "deductibility": "1", "assets": 700938, "income": 31134, "revenue": 31134}, {"ein": "161507675", "name": "HELPING HAND MISSIONARY BAPTIST CHURCH", "city": "ROCHESTER", "state": "NY", "zip": "14603-1506", "ntee": "X20Z", "ruling": "199804", "deductibility": "1", "assets": 0, "income": 0, "revenue": 0}, {"ein": "161589561", "name": "HELPING COMMUNITY CHARITIES", "city": "ROCHESTER", "state": "NY", "zip": "14626-4265", "ntee": "T195", "ruling": "200008", "deductibility": "1", "assets": 2411, "income": 2700, "revenue": 0}, {"ein": "200492056", "name": "NORTH SHORE NEIGHBORS HELPING HAND COALITION INC", "city": "MILLER PLACE", "state": "NY", "zip": "11764-3100", "ntee": "T12", "ruling": "200901", "deductibility": "1", "assets": 0, "income": 0, "revenue": 0}, {"ein": "200617871", "name": "HELPING OTHERS PROSPER EVERYDAY INC", "city": "BROOKLYN", "state": "NY", "zip": "11207-5614", "ntee": "B60", "ruling": "202210", "deductibility": "1", "assets": 0, "income": 0, "revenue": 0}, {"ein": "200949530", "name": "HELPING HANDS BEHAVIORAL OUTREACH", "city": "E NORTHPORT", "state": "NY", "zip": "11731-1118", "ntee": "G84", "ruling": "201406", "deductibility": "1", "assets": 0, "income": 0, "revenue": 0}, {"ein": "202463879", "name": "ADRIENNES HELPING HAND INC", "city": "NEW YORK", "state": "NY", "zip": "10004-2713", "ntee": "T30", "ruling": "200505", "deductibility": "1", "assets": 161129, "income": 0, "revenue": 0}, {"ein": "202807001", "name": "HELPING HANDS INTERNATIONAL", "city": "NEW YORK", "state": "NY", "zip": "10004-0000", "ntee": "T30", "ruling": "200605", "deductibility": "1", "assets": 225147, "income": 163165, "revenue": 0}, {"ein": "204362479", "name": "HELPING HANDS-INTERFAITH COALITIONFOR THE HOMELESS OF ROCKLAND COUNTY", "city": "NYACK", "state": "NY", "zip": "10960-0240", "ntee": "L41", "ruling": "200610", "deductibility": "1", "assets": 244473, "income": 280962, "revenue": 272544}, {"ein": "204771178", "name": "COPS HELPING COPS", "city": "MIDDLE ISLAND", "state": "NY", "zip": "11953-1408", "ntee": "M20", "ruling": "200704", "deductibility": "1", "assets": 0, "income": 0, "revenue": 0}, {"ein": "205523150", "name": "HELPING DESPERATE WOMEN SURVIVE INC", "city": "WESTBURY", "state": "NY", "zip": "11590-1217", "ntee": "P46", "ruling": "200912", "deductibility": "1", "assets": 0, "income": 0, "revenue": 0}, {"ein": "205564238", "name": "HELPING HANDS CARING HEART INC", "city": "CORTLAND", "state": "NY", "zip": "13045-2743", "ntee": "O50", "ruling": "200703", "deductibility": "1", "assets": 0, "income": 0, "revenue": 0}, {"ein": "260876665", "name": "HELPING HUMANS ACROSS AMERICA", "city": "NEW YORK", "state": "NY", "zip": "10044-0062", "ntee": "P12", "ruling": "200811", "deductibility": "1", "assets": 0, "income": 0, "revenue": 0}, {"ein": "260903752", "name": "HELPING HANDS OUTREACH MINISTRIESINC", "city": "FARMINGVILLE", "state": "NY", "zip": "11738-1828", "ntee": "X21", "ruling": "200712", "deductibility": "1", "assets": 0, "income": 0, "revenue": 0}, {"ein": "262079328", "name": "HELPING HANDS OF CODESSCA INC", "city": "BROOKLYN", "state": "NY", "zip": "11238-4102", "ntee": "Q30", "ruling": "202207", "deductibility": "1", "assets": 1, "income": 0, "revenue": 0}, {"ein": "262590440", "name": "FAMILIES HELPING FAMILIES RESOURCE AND RECREATION CENTER INC", "city": "STATEN ISLAND", "state": "NY", "zip": "10312-3735", "ntee": "P82", "ruling": "200903", "deductibility": "1", "assets": 146026, "income": 139334, "revenue": 139334}, {"ein": "263771948", "name": "HEIDIS HELPING ANGELS", "city": "RIVERHEAD", "state": "NY", "zip": "11901-0911", "ntee": "P60", "ruling": "201208", "deductibility": "1", "assets": 11653, "income": 18800, "revenue": 11913}, {"ein": "264132608", "name": "HELPING HOUNDS DOG RESCUE INC", "city": "N SYRACUSE", "state": "NY", "zip": "13212-3445", "ntee": "D20", "ruling": "200911", "deductibility": "1", "assets": 2591621, "income": 1041912, "revenue": 1019249}, {"ein": "264181470", "name": "ART HELPING LIFE INC", "city": "OYSTER BAY", "state": "NY", "zip": "11771-1617", "ntee": "A23", "ruling": "201001", "deductibility": "1", "assets": 88108, "income": 7248, "revenue": 7248}, {"ein": "270327652", "name": "ANCRAMDALE NEIGHBORS HELPING NEIGHBORS ASSOCIATION INC", "city": "ANCRAMDALE", "state": "NY", "zip": "12503-0097", "ntee": "S22", "ruling": "201008", "deductibility": "1", "assets": 123767, "income": 89799, "revenue": 89799}, {"ein": "270376080", "name": "MID-NASSAU LEND A HELPING HAND INC", "city": "FREEPORT", "state": "NY", "zip": "11520-4056", "ntee": "P20", "ruling": "201009", "deductibility": "1", "assets": 0, "income": 0, "revenue": 0}, {"ein": "271425562", "name": "HUGHES WILLIAMS HELPING HANDS COMMITTEE", "city": "SCHENECTADY", "state": "NY", "zip": "12306-5011", "ntee": "P58", "ruling": "201202", "deductibility": "1", "assets": 0, "income": 0, "revenue": 0}, {"ein": "272403591", "name": "HELPING & HEALING HANDS FOR HAITI", "city": "NORTH BALDWIN", "state": "NY", "zip": "11510-2202", "ntee": "E20", "ruling": "201205", "deductibility": "1", "assets": 0, "income": 0, "revenue": 0}, {"ein": "273122142", "name": "LEND A HELPING HAND FOUNDATION INC", "city": "ROSLYN HTS", "state": "NY", "zip": "11577-1342", "ntee": "T22", "ruling": "201010", "deductibility": "1", "assets": 70057, "income": 1, "revenue": 0}, {"ein": "273444964", "name": "HELPING HANDS TRANSITIONAL HOME INC", "city": "BROOKLYN", "state": "NY", "zip": "11221-2801", "ntee": "L40", "ruling": "201102", "deductibility": "1", "assets": 0, "income": 0, "revenue": 0}, {"ein": "275557432", "name": "HELPING TO HEAL FOUNDATION INC", "city": "PRT WASHINGTN", "state": "NY", "zip": "11050-3212", "ntee": "E80", "ruling": "201206", "deductibility": "1", "assets": 0, "income": 0, "revenue": 0}, {"ein": "300648075", "name": "HELPING IRONDEQUOIT PLAN FOR PROGESS INC", "city": "ROCHESTER", "state": "NY", "zip": "14617-2209", "ntee": "S20", "ruling": "201104", "deductibility": "1", "assets": 0, "income": 0, "revenue": 0}, {"ein": "320529888", "name": "FRIENDS HELPING FRIENDS OF CAYUGA COUNTY INC", "city": "AUBURN", "state": "NY", "zip": "13021-3811", "ntee": "Z99", "ruling": "201709", "deductibility": "1", "assets": 0, "income": 0, "revenue": 0}, {"ein": "332227338", "name": "HELPING HANDS OF HARMONY INC", "city": "HIGHLAND", "state": "NY", "zip": "12528-2932", "ntee": "T22", "ruling": "202501", "deductibility": "1", "assets": 0, "income": 0, "revenue": 0}, {"ein": "332398924", "name": "LIFE HOPE HELPING HAND INC", "city": "MT VERNON", "state": "NY", "zip": "10553-1830", "ntee": "S20", "ruling": "202501", "deductibility": "1", "assets": 0, "income": 0, "revenue": 0}, {"ein": "332551853", "name": "NORAHS HELPING HANDS FOUNDATION INC", "city": "BROOKLYN", "state": "NY", "zip": "11235-5289", "ntee": "P20", "ruling": "202507", "deductibility": "1", "assets": 0, "income": 0, "revenue": 0}, {"ein": "332645123", "name": "A FREE HELPING HAND", "city": "NIAGARA FALLS", "state": "NY", "zip": "14301-1359", "ntee": "A99", "ruling": "202501", "deductibility": "1", "assets": 0, "income": 0, "revenue": 0}, {"ein": "333571554", "name": "NONAS HELPING HANDS INC", "city": "STATEN ISLAND", "state": "NY", "zip": "10308-1337", "ntee": "S20", "ruling": "202503", "deductibility": "1", "assets": 0, "income": 0, "revenue": 0}, {"ein": "334317016", "name": "CHIMBO HELPING HANDS INC", "city": "NEW YORK", "state": "NY", "zip": "10003-1502", "ntee": "S12", "ruling": "202505", "deductibility": "1", "assets": 0, "income": 0, "revenue": 0}, {"ein": "334974689", "name": "HOPE-HELPING OVERLOOKED PEOPLE EVOLVE INC", "city": "NEW YORK", "state": "NY", "zip": "10039-3115", "ntee": "P20", "ruling": "202507", "deductibility": "1", "assets": 0, "income": 0, "revenue": 0}, {"ein": "352339901", "name": "HELPING ENSURE AFRICA LOOMS INTERNATIONAL INC", "city": "BUFFALO", "state": "NY", "zip": "14213-1815", "ntee": "P84", "ruling": "200907", "deductibility": "1", "assets": 290194, "income": 70914, "revenue": 70914}, {"ein": "364808893", "name": "BROTHERS HELPING BROTHERS CORPORATION", "city": "ARVERNE", "state": "NY", "zip": "11692-1001", "ntee": "I21", "ruling": "202306", "deductibility": "1", "assets": 1, "income": 1, "revenue": 0}, {"ein": "384092198", "name": "JIMMYS HELPING HANDS INC", "city": "WALDEN", "state": "NY", "zip": "12586-2902", "ntee": "T30", "ruling": "201902", "deductibility": "1", "assets": 0, "income": 0, "revenue": 0}, {"ein": "432100844", "name": "HELPING OUR NEIGHBORS WITH OPTIONS FOR RIDES FOUNDATION", "city": "ROCHESTER", "state": "NY", "zip": "14609-6912", "ntee": "M11", "ruling": "200606", "deductibility": "1", "assets": 2530, "income": 0, "revenue": 0}, {"ein": "432106606", "name": "GOD S HELPING HAND FOR CHILDREN CAMEROON WEST AFRICA", "city": "BROOKLYN", "state": "NY", "zip": "11203-5328", "ntee": "Q330", "ruling": "200705", "deductibility": "1", "assets": 0, "income": 0, "revenue": 0}, {"ein": "452078021", "name": "PROJECT HYPE INC HELPING YOUNG PEOPLE EVOLVE", "city": "BROOKLYN", "state": "NY", "zip": "11234-3711", "ntee": "O30", "ruling": "201205", "deductibility": "1", "assets": 0, "income": 0, "revenue": 0}, {"ein": "453594989", "name": "CITY OF REGUGE HELPING HANDS DELIVERANCE MINISTRIES INC", "city": "BROOKLYN", "state": "NY", "zip": "11207-4225", "ntee": "", "ruling": "202111", "deductibility": "1", "assets": 0, "income": 0, "revenue": 0}, {"ein": "454239155", "name": "HELPING ENRICH THE ARTS OF PORT WASHINGTON INC", "city": "PRT WASHINGTN", "state": "NY", "zip": "11050-7192", "ntee": "A25", "ruling": "201206", "deductibility": "1", "assets": 56639, "income": 118897, "revenue": 88509}, {"ein": "455238757", "name": "NORIN ALI MOHYUDDIN HELPING HAND", "city": "ROSLYN", "state": "NY", "zip": "11576-2908", "ntee": "S20", "ruling": "201308", "deductibility": "1", "assets": 15079, "income": 30305, "revenue": 30305}, {"ein": "455315224", "name": "EPIC HELPING HANDS INC", "city": "QUEENSBURY", "state": "NY", "zip": "12804-1212", "ntee": "P20", "ruling": "202502", "deductibility": "1", "assets": 0, "income": 0, "revenue": 0}, {"ein": "461276877", "name": "HELPING HANDS CENTER INC", "city": "BROOKLYN", "state": "NY", "zip": "11225-3584", "ntee": "B92", "ruling": "201503", "deductibility": "1", "assets": 0, "income": 0, "revenue": 0}, {"ein": "462728555", "name": "UNIQUE HELPING HANDS", "city": "FLORAL PARK", "state": "NY", "zip": "11001-2841", "ntee": "Y11", "ruling": "201407", "deductibility": "1", "assets": 0, "income": 0, "revenue": 0}, {"ein": "462733377", "name": "ADVENTURELANDS HELPING HANDS FOUNDATION INC", "city": "FARMINGDALE", "state": "NY", "zip": "11735-1018", "ntee": "B82", "ruling": "201406", "deductibility": "1", "assets": 318081, "income": 413188, "revenue": 369467}, {"ein": "462840257", "name": "HELPING CHILDREN AND FAMILY NEED INC", "city": "PORT JEFF STA", "state": "NY", "zip": "11776-3161", "ntee": "P20", "ruling": "201403", "deductibility": "1", "assets": 0, "income": 0, "revenue": 0}, {"ein": "465366106", "name": "HELPING AFRICA FOUNDATION INC", "city": "NEW YORK", "state": "NY", "zip": "10017-0000", "ntee": "Q123", "ruling": "201410", "deductibility": "1", "assets": 62078, "income": 3181694, "revenue": 0}, {"ein": "470848029", "name": "REFUGEES HELPING REFUGEES INC", "city": "ROCHESTER", "state": "NY", "zip": "14608-2237", "ntee": "P20", "ruling": "200205", "deductibility": "1", "assets": 0, "income": 684537, "revenue": 683937}, {"ein": "471508228", "name": "HELPING HANDS FOR FURRY FRIENDS INC", "city": "NORTHPORT", "state": "NY", "zip": "11768-1814", "ntee": "D12", "ruling": "201504", "deductibility": "1", "assets": 0, "income": 0, "revenue": 0}, {"ein": "472267876", "name": "NEIGHBORS HELPING NEIGHBORS CHARITY INC", "city": "HUNTINGTN STA", "state": "NY", "zip": "11746-4020", "ntee": "T12", "ruling": "201412", "deductibility": "1", "assets": 0, "income": 0, "revenue": 0}, {"ein": "472584989", "name": "HELPING TREE FOUNDATION INC", "city": "RIVERDALE", "state": "NY", "zip": "10463-3353", "ntee": "T12", "ruling": "202004", "deductibility": "1", "assets": 0, "income": 0, "revenue": 0}, {"ein": "473149884", "name": "HELPING MAKES U HAPPY", "city": "CTR MORICHES", "state": "NY", "zip": "11934-2302", "ntee": "S80", "ruling": "201505", "deductibility": "1", "assets": 224672, "income": 133763, "revenue": 117477}, {"ein": "474239980", "name": "HEALING HANDS FOR HELPING HEARTS CORPORATION", "city": "PITTSFORD", "state": "NY", "zip": "14534-9765", "ntee": "E99", "ruling": "201611", "deductibility": "1", "assets": 0, "income": 0, "revenue": 0}, {"ein": "474452183", "name": "SHINING LIGHTS HELPING HANDS CORPORATION", "city": "HILLBURN", "state": "NY", "zip": "10931-0054", "ntee": "P50", "ruling": "201905", "deductibility": "1", "assets": 0, "income": 0, "revenue": 0}, {"ein": "475540715", "name": "HELPING HAND FOUNDATION OF CROWN HEIGHTS INC", "city": "BROOKLYN", "state": "NY", "zip": "11213-4238", "ntee": "P20", "ruling": "201602", "deductibility": "1", "assets": 0, "income": 0, "revenue": 0}, {"ein": "481306560", "name": "HELPING ANIMALS LIVE ORGANIZATION", "city": "LITTLE FALLS", "state": "NY", "zip": "13365-1503", "ntee": "D20", "ruling": "200405", "deductibility": "1", "assets": 232722, "income": 55419, "revenue": 55419}, {"ein": "562437348", "name": "HELPING HANDS IN WEST ISLIP INC", "city": "WEST ISLIP", "state": "NY", "zip": "11795-3713", "ntee": "P60", "ruling": "200502", "deductibility": "1", "assets": 0, "income": 0, "revenue": 0}, {"ein": "562481748", "name": "BETHEL HELPING HAND OUTREACH COMMUNITY DEVELOPMENT CORPORATION", "city": "AMITYVILLE", "state": "NY", "zip": "11701-2034", "ntee": "P60", "ruling": "200503", "deductibility": "1", "assets": 0, "income": 0, "revenue": 0}, {"ein": "593829893", "name": "AVIGDORS HELPING HAND INC", "city": "FLUSHING", "state": "NY", "zip": "11367-3237", "ntee": "P20", "ruling": "200810", "deductibility": "1", "assets": 3186444, "income": 1612074, "revenue": 1612074}, {"ein": "611607084", "name": "HELPING HANDS MINISTRY INCORPORATED", "city": "BROOKLYN", "state": "NY", "zip": "11236-0000", "ntee": "X21", "ruling": "201706", "deductibility": "2", "assets": 0, "income": 0, "revenue": 0}, {"ein": "611632453", "name": "HELPING HANDS FOUNDATION", "city": "SUFFERN", "state": "NY", "zip": "10901-3733", "ntee": "T99", "ruling": "201412", "deductibility": "1", "assets": 491791, "income": 1, "revenue": 0}, {"ein": "753128977", "name": "HELPING HANDS OF POTSDAM INC", "city": "HANNAWA FALLS", "state": "NY", "zip": "13647-0000", "ntee": "P60", "ruling": "200311", "deductibility": "1", "assets": 188136, "income": 99225, "revenue": 90906}, {"ein": "800300351", "name": "HELPING ALL NEEDY KIDS INC", "city": "MOUNT KISCO", "state": "NY", "zip": "10549-3420", "ntee": "S01", "ruling": "201408", "deductibility": "1", "assets": 16815, "income": 16473, "revenue": 16473}, {"ein": "800360800", "name": "HELPING PROMOTE ANIMAL WELFARE INC", "city": "HAUPPAUGE", "state": "NY", "zip": "11788-5125", "ntee": "D20", "ruling": "201001", "deductibility": "1", "assets": 324571, "income": 473438, "revenue": 473438}, {"ein": "800404388", "name": "GRENADA HELPING HANDS ORGANIZATION INC", "city": "BROOKLYN", "state": "NY", "zip": "11226-2018", "ntee": "Z99", "ruling": "201408", "deductibility": "1", "assets": 0, "income": 0, "revenue": 0}, {"ein": "800841756", "name": "HELPING HANDS TOGETHER INC", "city": "NEW YORK", "state": "NY", "zip": "10025-1854", "ntee": "N66", "ruling": "201310", "deductibility": "1", "assets": 0, "income": 0, "revenue": 0}, {"ein": "811154205", "name": "EMV HELPING HAND FOUNDATION INC", "city": "ELMHURST", "state": "NY", "zip": "11373-1935", "ntee": "P12", "ruling": "201612", "deductibility": "1", "assets": 1, "income": 4577, "revenue": 0}, {"ein": "811280867", "name": "T LANKFORD HELPING HANDS", "city": "ARVERNE", "state": "NY", "zip": "11692-1343", "ntee": "L25", "ruling": "202502", "deductibility": "1", "assets": 0, "income": 0, "revenue": 0}, {"ein": "812875000", "name": "HELPING EVERYONE RECOGNIZE OPPORTUNITIES INC", "city": "TROY", "state": "NY", "zip": "12181-1411", "ntee": "P20", "ruling": "201610", "deductibility": "1", "assets": 0, "income": 0, "revenue": 0}, {"ein": "812987408", "name": "HELPING HANDS GLOBEL MINISTRIES", "city": "VALLEY STREAM", "state": "NY", "zip": "11580-1323", "ntee": "X20", "ruling": "202402", "deductibility": "1", "assets": 0, "income": 0, "revenue": 0}, {"ein": "813377971", "name": "YP HELPING YP FOUNDATION INC", "city": "BROOKLYN", "state": "NY", "zip": "11220-4338", "ntee": "O12", "ruling": "201608", "deductibility": "1", "assets": 0, "income": 0, "revenue": 0}, {"ein": "814576973", "name": "NORTH BROOKLYN COALITION OF NEIGHBORS HELPING NEIGHBORS", "city": "BROOKLYN", "state": "NY", "zip": "11222-2103", "ntee": "P20", "ruling": "201612", "deductibility": "1", "assets": 717492, "income": 503617, "revenue": 499628}, {"ein": "821794373", "name": "D Y B HELPING THE CHILDREN IN NEED INC", "city": "S OZONE PARK", "state": "NY", "zip": "11420-3632", "ntee": "Z99", "ruling": "201712", "deductibility": "1", "assets": 0, "income": 0, "revenue": 0}, {"ein": "821804411", "name": "HELPING HANDS FILAM INC", "city": "HIGHLAND", "state": "NY", "zip": "12528-1408", "ntee": "P12", "ruling": "201706", "deductibility": "1", "assets": 4113, "income": 28840, "revenue": 0}, {"ein": "822826643", "name": "HELPING COMMUNITIES OUTREACH INC", "city": "WAYLAND", "state": "NY", "zip": "14572-1019", "ntee": "P28", "ruling": "201808", "deductibility": "1", "assets": 0, "income": 0, "revenue": 0}, {"ein": "823326124", "name": "HELPING HANDS UNITED FOUNDATION", "city": "BRONX", "state": "NY", "zip": "10469-3131", "ntee": "P12", "ruling": "201801", "deductibility": "1", "assets": 0, "income": 0, "revenue": 0}, {"ein": "823676844", "name": "LOUS HELPING HAND FOUNDATION", "city": "STATEN ISLAND", "state": "NY", "zip": "10312-4028", "ntee": "K31", "ruling": "201802", "deductibility": "1", "assets": 52662, "income": 71922, "revenue": 71922}, {"ein": "823690794", "name": "NUSEN TITAN - A HELPING HAND", "city": "BROOKLYN", "state": "NY", "zip": "11249-7623", "ntee": "X30", "ruling": "202004", "deductibility": "1", "assets": 0, "income": 0, "revenue": 0}, {"ein": "824200771", "name": "SISTERS HELPING SISTERS INC", "city": "QUEENSBURY", "state": "NY", "zip": "12804-9432", "ntee": "P50", "ruling": "201812", "deductibility": "1", "assets": 0, "income": 0, "revenue": 0}, {"ein": "824230755", "name": "HELPING HAND ACADEMY II", "city": "QUEENS VILLAGE", "state": "NY", "zip": "11428-1607", "ntee": "B24", "ruling": "201902", "deductibility": "1", "assets": 182980, "income": 330000, "revenue": 330000}, {"ein": "824230937", "name": "HELPING HAND ACADEMY", "city": "QUEENS VILLAGE", "state": "NY", "zip": "11428-1607", "ntee": "B24", "ruling": "201812", "deductibility": "1", "assets": 28599, "income": 160808, "revenue": 160808}, {"ein": "824270819", "name": "BIG BROTHER LITTLE SISTER HELPING HANDS INC", "city": "BRONX", "state": "NY", "zip": "10469-5726", "ntee": "E86", "ruling": "201904", "deductibility": "1", "assets": 0, "income": 0, "revenue": 0}, {"ein": "830588897", "name": "HELPING HANDS FOR PUERTO RICO INC", "city": "CAMPBELL HALL", "state": "NY", "zip": "10916-2610", "ntee": "T50", "ruling": "201809", "deductibility": "1", "assets": 0, "income": 0, "revenue": 0}, {"ein": "830663474", "name": "TOGETHER HELPING OTHERS INC", "city": "NEW YORK", "state": "NY", "zip": "10005-2903", "ntee": "P85", "ruling": "201806", "deductibility": "1", "assets": 34704, "income": 341620, "revenue": 341620}, {"ein": "831127244", "name": "HELPING HANDS WORLDWIDE", "city": "WILLIAMSVILLE", "state": "NY", "zip": "14221-6800", "ntee": "E70", "ruling": "201809", "deductibility": "1", "assets": 0, "income": 0, "revenue": 0}, {"ein": "831169386", "name": "WHAM WILDCATS HELPING THE ARTS & MUSIC INC", "city": "SHOREHAM", "state": "NY", "zip": "11786-0458", "ntee": "A11", "ruling": "201808", "deductibility": "1", "assets": 0, "income": 0, "revenue": 0}, {"ein": "832070782", "name": "NEPAL AAMA SOCIETY OF HELPING HANDS INC", "city": "JACKSON HEIGHT", "state": "NY", "zip": "11372-1748", "ntee": "T50", "ruling": "202312", "deductibility": "1", "assets": 7266, "income": 5696, "revenue": 5696}, {"ein": "832168828", "name": "HELPING OUR POST 911 SURVIVORS", "city": "LAURELTON", "state": "NY", "zip": "11413-1730", "ntee": "P40", "ruling": "201811", "deductibility": "1", "assets": 0, "income": 0, "revenue": 0}, {"ein": "832421902", "name": "HELPING HANDS UNLIMITED GLOBAL SCHOLARSHIPS HHUGS FOUNDATION INC", "city": "BROOKLYN", "state": "NY", "zip": "11203-5912", "ntee": "A70", "ruling": "201812", "deductibility": "1", "assets": 0, "income": 0, "revenue": 0}, {"ein": "833648608", "name": "HELPING OUR TOMORROW INC", "city": "ALBANY", "state": "NY", "zip": "12206-3247", "ntee": "P30", "ruling": "202308", "deductibility": "1", "assets": 0, "income": 0, "revenue": 0}, {"ein": "841737479", "name": "MISSION HELPING HANDS CORP", "city": "WILLISTON PK", "state": "NY", "zip": "11596-1531", "ntee": "T12", "ruling": "201906", "deductibility": "1", "assets": 13669, "income": 171062, "revenue": 83914}, {"ein": "842738168", "name": "HOME - HELPING OTHERS MEET EXPECTATIONS INC", "city": "JAMAICA", "state": "NY", "zip": "11434-4104", "ntee": "O50", "ruling": "201908", "deductibility": "1", "assets": 0, "income": 0, "revenue": 0}, {"ein": "842929615", "name": "HELPING OUR PEOPLE EVOLVE INCORPORATED", "city": "NEW YORK", "state": "NY", "zip": "10033-2505", "ntee": "A20", "ruling": "202209", "deductibility": "1", "assets": 1921, "income": 85627, "revenue": 85627}, {"ein": "843191800", "name": "VOSOS HELPING HANDS FOUNDATION INC", "city": "NORTH BABYLON", "state": "NY", "zip": "11703-0097", "ntee": "S20", "ruling": "201910", "deductibility": "1", "assets": 0, "income": 0, "revenue": 0}, {"ein": "843394988", "name": "ANTIGUA & BARBUDA HELPING HANDS INC", "city": "BRONX", "state": "NY", "zip": "10475-4309", "ntee": "A23", "ruling": "202201", "deductibility": "1", "assets": 0, "income": 0, "revenue": 0}, {"ein": "843481856", "name": "DMC HELPING COMMUNITIES INC", "city": "VALLEY STREAM", "state": "NY", "zip": "11581-3376", "ntee": "K31", "ruling": "202007", "deductibility": "1", "assets": 0, "income": 0, "revenue": 0}, {"ein": "843634079", "name": "HELPING MINDS INTERNATIONAL CHARITABLE FOUNDATION INC", "city": "NEW YORK", "state": "NY", "zip": "10036-0020", "ntee": "F01", "ruling": "202004", "deductibility": "1", "assets": 0, "income": 0, "revenue": 0}, {"ein": "844277224", "name": "HELPING HANDS HEAL INC", "city": "MINEOLA", "state": "NY", "zip": "11501-2552", "ntee": "P20", "ruling": "202002", "deductibility": "1", "assets": 1589, "income": 928, "revenue": 928}, {"ein": "844625466", "name": "HELPING MINDS FOUNDATION INC", "city": "CENTEREACH", "state": "NY", "zip": "11720-5001", "ntee": "B90", "ruling": "202008", "deductibility": "1", "assets": 0, "income": 0, "revenue": 0}, {"ein": "844626031", "name": "BIG HELPING LITTLE INC", "city": "PITTSFORD", "state": "NY", "zip": "14534-3425", "ntee": "G99", "ruling": "202007", "deductibility": "1", "assets": 1209, "income": 58625, "revenue": 34830}, {"ein": "844900775", "name": "HELPING HANDS FOR FORGOTTEN FELINES INC", "city": "ROCHESTER", "state": "NY", "zip": "14609-4342", "ntee": "D01", "ruling": "202003", "deductibility": "1", "assets": 0, "income": 0, "revenue": 0}, {"ein": "845015222", "name": "LADREAMER & DAISY HELPING HANDS FOUNDATION INC", "city": "NEW YORK", "state": "NY", "zip": "10039-3202", "ntee": "P30", "ruling": "202005", "deductibility": "1", "assets": 0, "income": 0, "revenue": 0}, {"ein": "850502252", "name": "HELPING HANDS -AFFIRMATIVE SUPPORTING ACTIONS-", "city": "ROOSEVELT", "state": "NY", "zip": "11575-2471", "ntee": "P50", "ruling": "202005", "deductibility": "1", "assets": 0, "income": 0, "revenue": 0}, {"ein": "850949118", "name": "HELPING HAND FOR CHITTAGONIAN INC", "city": "BROOKLYN", "state": "NY", "zip": "11209-1103", "ntee": "M99", "ruling": "202006", "deductibility": "1", "assets": 0, "income": 0, "revenue": 0}, {"ein": "851100870", "name": "HELPING HEART AFRICA INC", "city": "ROCHESTER", "state": "NY", "zip": "14602-0844", "ntee": "Z99", "ruling": "202006", "deductibility": "1", "assets": 0, "income": 0, "revenue": 0}, {"ein": "851885150", "name": "DANNYS HELPING HANDS", "city": "MARILLA", "state": "NY", "zip": "14102-0016", "ntee": "P50", "ruling": "201902", "deductibility": "1", "assets": 0, "income": 0, "revenue": 0}, {"ein": "852066216", "name": "AMHERST HELPING HANDS INC", "city": "GETZVILLE", "state": "NY", "zip": "14068-1281", "ntee": "P60", "ruling": "202101", "deductibility": "1", "assets": 0, "income": 0, "revenue": 0}, {"ein": "852425007", "name": "HELPING THE HELPLESS INTERNATIONAL MINISTRY INC", "city": "QUEENS VILLAGE", "state": "NY", "zip": "11428-1783", "ntee": "P20", "ruling": "202106", "deductibility": "1", "assets": 0, "income": 0, "revenue": 0}, {"ein": "852586228", "name": "CANAAN NEIGHBORS HELPING NEIGHBORS", "city": "EAST CHATHAM", "state": "NY", "zip": "12060-2912", "ntee": "T31", "ruling": "202106", "deductibility": "1", "assets": 0, "income": 0, "revenue": 0}, {"ein": "852838725", "name": "HELPING OUR TROUBLED TEENS HOTT INC", "city": "BROOKLYN", "state": "NY", "zip": "11208-5162", "ntee": "F99", "ruling": "202012", "deductibility": "1", "assets": 0, "income": 0, "revenue": 0}, {"ein": "852921385", "name": "HUDSONS HELPING HANDS FOR AUTISM INC", "city": "EAST QUOGUE", "state": "NY", "zip": "11942-3613", "ntee": "G84", "ruling": "202012", "deductibility": "1", "assets": 0, "income": 0, "revenue": 0}, {"ein": "853435672", "name": "HAICKS HELPING HAND", "city": "N TONAWANDA", "state": "NY", "zip": "14120-2007", "ntee": "T12", "ruling": "202101", "deductibility": "1", "assets": 0, "income": 0, "revenue": 0}, {"ein": "853446450", "name": "MASON S HELPING PAW INC", "city": "JACKSON HEIGHTS", "state": "NY", "zip": "11372-5765", "ntee": "", "ruling": "202012", "deductibility": "1", "assets": 0, "income": 0, "revenue": 0}, {"ein": "853589571", "name": "LONG ISLAND LENDING A HELPING HAND", "city": "ROCKY POINT", "state": "NY", "zip": "11778-8811", "ntee": "K31", "ruling": "202101", "deductibility": "1", "assets": 24102, "income": 66014, "revenue": 58861}, {"ein": "854023839", "name": "GLOBAL AMERICAN HELPING INC", "city": "BROOKLYN", "state": "NY", "zip": "11230-1404", "ntee": "S80", "ruling": "202106", "deductibility": "1", "assets": 0, "income": 0, "revenue": 0}, {"ein": "854398537", "name": "HELPING HANDS FARM INITIATIVE INC", "city": "NEW YORK", "state": "NY", "zip": "10128-5137", "ntee": "K12", "ruling": "202103", "deductibility": "1", "assets": 0, "income": 0, "revenue": 0}, {"ein": "862319543", "name": "YMANNAS HELPING HANDS INC", "city": "BRONX", "state": "NY", "zip": "10457-0000", "ntee": "P11", "ruling": "202105", "deductibility": "1", "assets": 0, "income": 0, "revenue": 0}, {"ein": "862726324", "name": "HELPING OTHERS WITH TREATMENT OPTIONS INC", "city": "BROOKLYN", "state": "NY", "zip": "11234-2638", "ntee": "F20", "ruling": "202109", "deductibility": "1", "assets": 0, "income": 0, "revenue": 0}, {"ein": "863176916", "name": "BROTHERS HELPING INC", "city": "HOWARD BEACH", "state": "NY", "zip": "11414-2639", "ntee": "T50", "ruling": "202108", "deductibility": "1", "assets": 55362, "income": 87171, "revenue": 63377}, {"ein": "863251508", "name": "FOUNDATION FOR VETERANS HELPING VETERANS AND THEIR COMM NY STATE I", "city": "BROOKLYN", "state": "NY", "zip": "11213-6040", "ntee": "P20", "ruling": "202108", "deductibility": "1", "assets": 16873, "income": 34000, "revenue": 34000}, {"ein": "863530163", "name": "HELPING IMMIGRANTS THRIVE INC", "city": "BRONX", "state": "NY", "zip": "10459-3572", "ntee": "P20", "ruling": "202204", "deductibility": "1", "assets": 63397, "income": 114539, "revenue": 114539}, {"ein": "863750026", "name": "JAMES HELPING HANDS INC", "city": "SMITHTOWN", "state": "NY", "zip": "11787-4704", "ntee": "", "ruling": "202110", "deductibility": "1", "assets": 0, "income": 0, "revenue": 0}, {"ein": "863918861", "name": "LADY J HELPING HANDS GHANA", "city": "BRONX", "state": "NY", "zip": "10451-4358", "ntee": "P99", "ruling": "202111", "deductibility": "1", "assets": 1, "income": 41225, "revenue": 41225}, {"ein": "871054610", "name": "JMD HELPING HAND INC", "city": "MINEOLA", "state": "NY", "zip": "11501-2953", "ntee": "T50", "ruling": "202210", "deductibility": "1", "assets": 0, "income": 0, "revenue": 0}, {"ein": "871243119", "name": "SFN GLOBAL HELPING HANDS FOUNDATION INC", "city": "JAMAICA", "state": "NY", "zip": "11432-2634", "ntee": "P40", "ruling": "202206", "deductibility": "1", "assets": 0, "income": 9885, "revenue": 9885}, {"ein": "871347384", "name": "HATHAWAYS HELPING HAND INC", "city": "CLAVERACK", "state": "NY", "zip": "12513-5117", "ntee": "M12", "ruling": "202301", "deductibility": "1", "assets": 0, "income": 0, "revenue": 0}, {"ein": "871579924", "name": "THERESAS HELPING HANDS INC", "city": "OSSINING", "state": "NY", "zip": "10562-5237", "ntee": "P85", "ruling": "202112", "deductibility": "1", "assets": 1, "income": 0, "revenue": 0}, {"ein": "872313671", "name": "PEOPLE HELPING PEOPLE WORLDWIDE", "city": "TARRYTOWN", "state": "NY", "zip": "10591-0231", "ntee": "P99", "ruling": "202112", "deductibility": "1", "assets": 4704, "income": 7575, "revenue": 7575}, {"ein": "872637324", "name": "TOWN OF NIAGARA HELPING HANDS", "city": "NIAGARA FALLS", "state": "NY", "zip": "14304-1314", "ntee": "W12", "ruling": "202201", "deductibility": "1", "assets": 0, "income": 0, "revenue": 0}, {"ein": "880730551", "name": "C L COLLINS HELPING VETERANS AND YOUTH FAMILY SERVICE INC", "city": "STATEN ISLAND", "state": "NY", "zip": "10305-3634", "ntee": "P20", "ruling": "202203", "deductibility": "1", "assets": 0, "income": 0, "revenue": 0}, {"ein": "880926047", "name": "HELPING ALL PEOPLE INTERNATIONALLY INC", "city": "ALBANY", "state": "NY", "zip": "12206-1959", "ntee": "S20", "ruling": "202203", "deductibility": "1", "assets": 0, "income": 0, "revenue": 0}, {"ein": "880966087", "name": "HELPING MONKEY INC", "city": "FLUSHING", "state": "NY", "zip": "11358-4123", "ntee": "B90", "ruling": "202211", "deductibility": "1", "assets": 0, "income": 0, "revenue": 0}, {"ein": "881123079", "name": "HELPING HANDS FOOD PANTRY INC", "city": "GARDINER", "state": "NY", "zip": "12525-0190", "ntee": "K31", "ruling": "202304", "deductibility": "1", "assets": 109679, "income": 172804, "revenue": 172804}, {"ein": "881125658", "name": "OSEMWEGIE OSAYANDE HELPING HANDS FOR WIDOWS & FOSTER KIDS", "city": "BRONX", "state": "NY", "zip": "10469-5244", "ntee": "A01", "ruling": "202405", "deductibility": "1", "assets": 0, "income": 0, "revenue": 0}, {"ein": "882395043", "name": "SUNNAH HELPING FUND INC", "city": "BRONX", "state": "NY", "zip": "10462-7952", "ntee": "S99", "ruling": "202210", "deductibility": "1", "assets": 42178, "income": 15616, "revenue": 15616}, {"ein": "883091295", "name": "RAHEESA BUSH HELPING HAND FOUNDATION INC", "city": "EAST ELMHURST", "state": "NY", "zip": "11369-1226", "ntee": "P12", "ruling": "202311", "deductibility": "1", "assets": 0, "income": 0, "revenue": 0}, {"ein": "883141211", "name": "EURO AMERICAN HELPING HANDS INC", "city": "NEW YORK", "state": "NY", "zip": "10033-1207", "ntee": "A70", "ruling": "202208", "deductibility": "1", "assets": 0, "income": 0, "revenue": 0}, {"ein": "883861521", "name": "HELPING NEIGHBORHOODS GROW CORP", "city": "BROOKLYN", "state": "NY", "zip": "11219-5889", "ntee": "P20", "ruling": "202209", "deductibility": "1", "assets": 0, "income": 0, "revenue": 0}, {"ein": "922306828", "name": "HOPE INC HELPING OTHERS PROGRESS EVERYWHERE", "city": "YONKERS", "state": "NY", "zip": "10705-2534", "ntee": "P20", "ruling": "202303", "deductibility": "0", "assets": 0, "income": 0, "revenue": 0}, {"ein": "922650555", "name": "HELPING THE DIOCESE OF SUNYANI INC", "city": "BEDFORD", "state": "NY", "zip": "10506-1406", "ntee": "S30", "ruling": "202307", "deductibility": "1", "assets": 96193, "income": 260209, "revenue": 260209}, {"ein": "922719295", "name": "HELPING HANDS SHIPPING COMPANY INC", "city": "SCHENECTADY", "state": "NY", "zip": "12306-2522", "ntee": "T02", "ruling": "202303", "deductibility": "1", "assets": 0, "income": 0, "revenue": 0}, {"ein": "923414682", "name": "ANASTASIAS HELPING HANDS INC", "city": "BRONX", "state": "NY", "zip": "10451-4262", "ntee": "T50", "ruling": "202309", "deductibility": "1", "assets": 0, "income": 0, "revenue": 0}, {"ein": "923598574", "name": "HELPING HAND RESCUE MISSION COMMUNITY OUTREACH CENTER INC", "city": "HUNTINGTN STA", "state": "NY", "zip": "11746-1428", "ntee": "P20", "ruling": "202409", "deductibility": "1", "assets": 0, "income": 0, "revenue": 0}, {"ein": "923918080", "name": "HELPING FRIENDS INC", "city": "BROOKLYN", "state": "NY", "zip": "11219-4737", "ntee": "P50", "ruling": "202305", "deductibility": "1", "assets": 0, "income": 0, "revenue": 0}, {"ein": "931657440", "name": "ROCKAWAYS NEIGHBORS HELPING NEIGHBORS", "city": "ARVERNE", "state": "NY", "zip": "11692-0000", "ntee": "S21", "ruling": "202402", "deductibility": "1", "assets": 0, "income": 0, "revenue": 0}, {"ein": "931742255", "name": "HELPING HANDS FOR THE GOLDEN AGE INC", "city": "BAY SHORE", "state": "NY", "zip": "11706-8347", "ntee": "P20", "ruling": "202306", "deductibility": "1", "assets": 0, "income": 0, "revenue": 0}, {"ein": "932442710", "name": "HIPPIES HELPING THE HUNGRY INC", "city": "ONEONTA", "state": "NY", "zip": "13820-3338", "ntee": "K31", "ruling": "202308", "deductibility": "1", "assets": 0, "income": 0, "revenue": 0}, {"ein": "932912924", "name": "HELPING HAND SHELTER SERVICES INC", "city": "STATEN ISLAND", "state": "NY", "zip": "10304-0000", "ntee": "L41", "ruling": "202311", "deductibility": "1", "assets": 0, "income": 0, "revenue": 0}, {"ein": "933128166", "name": "WOOS HELPING HANDS INC", "city": "ALBANY", "state": "NY", "zip": "12207-2834", "ntee": "P12", "ruling": "202309", "deductibility": "1", "assets": 0, "income": 0, "revenue": 0}, {"ein": "933223017", "name": "JENGAR HELPING HANDS FOUNDATION INC", "city": "BROOKLYN", "state": "NY", "zip": "11210-2256", "ntee": "B11", "ruling": "202311", "deductibility": "1", "assets": 0, "income": 0, "revenue": 0}, {"ein": "933459751", "name": "MARLEYS HELPING HAND INCORPORATED", "city": "YONKERS", "state": "NY", "zip": "10701-5155", "ntee": "K35", "ruling": "202311", "deductibility": "1", "assets": 0, "income": 0, "revenue": 0}, {"ein": "933664571", "name": "HELPING FAMILIES MAKING CONNECTIONS", "city": "BROOKLYN", "state": "NY", "zip": "11239-1513", "ntee": "", "ruling": "202401", "deductibility": "1", "assets": 0, "income": 0, "revenue": 0}, {"ein": "934572338", "name": "BUFFALOS HELPING HAND INC", "city": "BUFFALO", "state": "NY", "zip": "14202-3407", "ntee": "S20", "ruling": "202402", "deductibility": "1", "assets": 0, "income": 0, "revenue": 0}, {"ein": "990826225", "name": "HIS HELPING HANDS INTERNATIONAL MINISTRIES INC", "city": "NEW PALTZ", "state": "NY", "zip": "12561-4429", "ntee": "A12", "ruling": "202402", "deductibility": "1", "assets": 0, "income": 0, "revenue": 0}, {"ein": "991648296", "name": "HEIDI S HELPING HANDS INC", "city": "HORNELL", "state": "NY", "zip": "14843-1852", "ntee": "K99", "ruling": "202404", "deductibility": "1", "assets": 0, "income": 0, "revenue": 0}, {"ein": "991995066", "name": "HELPING HANDS WITH A SMILE INC", "city": "NEW CITY", "state": "NY", "zip": "10956-3646", "ntee": "O23", "ruling": "202404", "deductibility": "1", "assets": 0, "income": 0, "revenue": 0}, {"ein": "993449802", "name": "SIMONE HELPING HANDS LLC", "city": "GREAT NECK", "state": "NY", "zip": "11021-2357", "ntee": "P50", "ruling": "202408", "deductibility": "1", "assets": 0, "income": 0, "revenue": 0}, {"ein": "993696643", "name": "HELPING HANDS FOR INDEPENDENT LIVING INCORPORATED", "city": "KATONAH", "state": "NY", "zip": "10536-2808", "ntee": "L12", "ruling": "202407", "deductibility": "1", "assets": 0, "income": 0, "revenue": 0}, {"ein": "994425465", "name": "BARRINGTON HELPING HANDS FOUNDATION", "city": "HARRISON", "state": "NY", "zip": "10528-1600", "ntee": "W12", "ruling": "202506", "deductibility": "1", "assets": 0, "income": 0, "revenue": 0}, {"ein": "994711195", "name": "HELPING WITH A SMILE INC", "city": "BROOKLYN", "state": "NY", "zip": "11203-4821", "ntee": "B19", "ruling": "202409", "deductibility": "1", "assets": 0, "income": 0, "revenue": 0}, {"ein": "994937092", "name": "HELPING HANDS FAMILY FOUNDATION INC", "city": "STATEN ISLAND", "state": "NY", "zip": "10307-2078", "ntee": "E12", "ruling": "202410", "deductibility": "1", "assets": 0, "income": 0, "revenue": 0}], "USBC": [{"ein": "010842283", "name": "ADIRONDACK USBC", "city": "HUDSON FALLS", "state": "NY", "zip": "12839-0000", "ntee": "N60", "ruling": "202410", "deductibility": "1", "assets": 0, "income": 0, "revenue": 0}, {"ein": "134311719", "name": "TONAWANDAS USBC BOWLING ASSOC", "city": "N TONAWANDA", "state": "NY", "zip": "14120-2518", "ntee": "N70", "ruling": "200409", "deductibility": "1", "assets": 53141, "income": 89324, "revenue": 89324}, {"ein": "203023458", "name": "ELMIRA USBC ASSOCIATION INC", "city": "ELMIRA", "state": "NY", "zip": "14904-2201", "ntee": "N60", "ruling": "201410", "deductibility": "1", "assets": 0, "income": 0, "revenue": 0}, {"ein": "452750653", "name": "NEW YORK STATE USBC INC", "city": "BREWSTER", "state": "NY", "zip": "10509-1031", "ntee": "N70", "ruling": "200409", "deductibility": "1", "assets": 320539, "income": 509936, "revenue": 506470}], "PULASKI": [{"ein": "020686114", "name": "PULASKI DAY PARADE COMMITTEE OF STATEN ISLAND INC", "city": "STATEN ISLAND", "state": "NY", "zip": "10314-0632", "ntee": "A99", "ruling": "201903", "deductibility": "1", "assets": 0, "income": 0, "revenue": 0}, {"ein": "061358941", "name": "PULASKI FIRE COMPANY INC", "city": "PINE ISLAND", "state": "NY", "zip": "10969-0322", "ntee": "M24", "ruling": "201411", "deductibility": "1", "assets": 0, "income": 0, "revenue": 0}, {"ein": "112678605", "name": "THE PULASKI ASSOCIATION OF THE FIRE DEPT OF THE CITY OF NEW YORK", "city": "MASPETH", "state": "NY", "zip": "11378-1542", "ntee": "J03", "ruling": "201802", "deductibility": "1", "assets": 0, "income": 0, "revenue": 0}, {"ein": "112698063", "name": "PULASKI ASSOC OF THE POLICE DEPT NYC", "city": "QUEENS", "state": "NY", "zip": "11378-0558", "ntee": "W12", "ruling": "201504", "deductibility": "1", "assets": 74339, "income": 76566, "revenue": 76566}, {"ein": "113085480", "name": "PULASKI SCHOLARSHIP FOUNDATION", "city": "MASPETH", "state": "NY", "zip": "11378-0558", "ntee": "T21Z", "ruling": "199608", "deductibility": "1", "assets": 0, "income": 0, "revenue": 0}, {"ein": "113123626", "name": "GENERAL PULASKI MEMORIAL PARADE COMMITTEE INC", "city": "STATEN ISLAND", "state": "NY", "zip": "10302-1624", "ntee": "A230", "ruling": "199412", "deductibility": "1", "assets": 529620, "income": 357083, "revenue": 71283}, {"ein": "113280492", "name": "SALVATION ARMY PULASKI STREET RESIDENCE INC", "city": "NEW YORK", "state": "NY", "zip": "10011-7301", "ntee": "F33K", "ruling": "199709", "deductibility": "1", "assets": 0, "income": 0, "revenue": 0}, {"ein": "160872586", "name": "PULASKI BAPTIST CHURCH", "city": "PULASKI", "state": "NY", "zip": "13142-4404", "ntee": "", "ruling": "195504", "deductibility": "1", "assets": 0, "income": 0, "revenue": 0}, {"ein": "161070518", "name": "PULASKI SPORTS BOOSTER CLUB INC", "city": "PULASKI", "state": "NY", "zip": "13142-0000", "ntee": "N11", "ruling": "202209", "deductibility": "1", "assets": 0, "income": 0, "revenue": 0}, {"ein": "161097999", "name": "PULASKI EASTERN SHORE CHAMBER OF COMMERCE INC", "city": "PULASKI", "state": "NY", "zip": "13142-0034", "ntee": "", "ruling": "198308", "deductibility": "2", "assets": 0, "income": 0, "revenue": 0}, {"ein": "161102088", "name": "PULASKI WESLEYAN CHURCH", "city": "PULASKI", "state": "NY", "zip": "13142-2189", "ntee": "", "ruling": "197005", "deductibility": "1", "assets": 0, "income": 0, "revenue": 0}, {"ein": "161189724", "name": "PULASKI ASSEMBLY OF GOD CHURCH", "city": "PULASKI", "state": "NY", "zip": "13142-3224", "ntee": "", "ruling": "196408", "deductibility": "1", "assets": 0, "income": 0, "revenue": 0}, {"ein": "161272366", "name": "PRESERVATION REVITALIZATION OF PULASKI INC", "city": "PULASKI", "state": "NY", "zip": "13142-0621", "ntee": "C50Z", "ruling": "198706", "deductibility": "1", "assets": 55179, "income": 46282, "revenue": 46282}, {"ein": "161289682", "name": "RINGGOLD FIRE COMPANY NUMBER ONE OF PULASKI NEW YORK", "city": "PULASKI", "state": "NY", "zip": "13142-3236", "ntee": "M24", "ruling": "201803", "deductibility": "1", "assets": 1339894, "income": 83005, "revenue": 74748}, {"ein": "161433807", "name": "PULASKI-BOYLSTON SNOWMOBILE CLUB INC", "city": "PULASKI", "state": "NY", "zip": "13142-2591", "ntee": "M99", "ruling": "200212", "deductibility": "1", "assets": 378339, "income": 220345, "revenue": 202118}, {"ein": "161456001", "name": "PULASKI COMMUNITY MINISTRIES INC", "city": "PULASKI", "state": "NY", "zip": "13142-4403", "ntee": "K30", "ruling": "201504", "deductibility": "1", "assets": 200742, "income": 33052, "revenue": 33052}, {"ein": "161587542", "name": "PULASKI ACADEMY AND CENTRAL SCHOOL ALUMNI ASSOCIATION INC", "city": "PULASKI", "state": "NY", "zip": "13142-0344", "ntee": "B84", "ruling": "200010", "deductibility": "1", "assets": 0, "income": 0, "revenue": 0}, {"ein": "222329637", "name": "PULASKI HISTORICAL SOCIETY", "city": "PULASKI", "state": "NY", "zip": "13142-0721", "ntee": "", "ruling": "198105", "deductibility": "1", "assets": 0, "income": 0, "revenue": 0}, {"ein": "237579117", "name": "PULASKI LODGE 415 FREE AND ACCEPTED MASSONS", "city": "PULASKI", "state": "NY", "zip": "13142-4433", "ntee": "Y42", "ruling": "201805", "deductibility": "2", "assets": 0, "income": 0, "revenue": 0}, {"ein": "300699183", "name": "LADIES AUXILIARY OF PULASKI FIRE CO", "city": "PINE ISLAND", "state": "NY", "zip": "10969-0035", "ntee": "M19", "ruling": "201301", "deductibility": "1", "assets": 0, "income": 0, "revenue": 0}, {"ein": "562538021", "name": "THE GENERAL PULASKI ASSOCIATION INC", "city": "CHEEKTOWAGA", "state": "NY", "zip": "14225-0282", "ntee": "A80", "ruling": "200607", "deductibility": "1", "assets": 77673, "income": 107746, "revenue": 95816}, {"ein": "870833500", "name": "MERCY HOUSE PULASKI INC", "city": "BROOKLYN", "state": "NY", "zip": "11206-7543", "ntee": "P40", "ruling": "202312", "deductibility": "1", "assets": 0, "income": 0, "revenue": 0}], "SPENCERPORT": [{"ein": "030610380", "name": "SPENCERPORT DEPOT AND CANAL MUSEUM", "city": "SPENCERPORT", "state": "NY", "zip": "14559-0073", "ntee": "A50", "ruling": "200708", "deductibility": "1", "assets": 0, "income": 0, "revenue": 0}, {"ein": "160874224", "name": "SPENCERPORT FEDERAL CREDIT UNION", "city": "SPENCERPORT", "state": "NY", "zip": "14559-0086", "ntee": "", "ruling": "000000", "deductibility": "0", "assets": 0, "income": 0, "revenue": 0}, {"ein": "161173256", "name": "KIWANIS CLUB OF SPENCERPORT INC", "city": "SPENCERPORT", "state": "NY", "zip": "14559-0106", "ntee": "S80", "ruling": "202210", "deductibility": "2", "assets": 0, "income": 0, "revenue": 0}, {"ein": "161189461", "name": "SPENCERPORT ASSEMBLY OF GOD", "city": "SPENCERPORT", "state": "NY", "zip": "14559-9556", "ntee": "", "ruling": "196408", "deductibility": "1", "assets": 0, "income": 0, "revenue": 0}, {"ein": "161416814", "name": "SPENCERPORT CANAL DAYS INC", "city": "SPENCERPORT", "state": "NY", "zip": "14559-0331", "ntee": "", "ruling": "199308", "deductibility": "2", "assets": 0, "income": 0, "revenue": 0}, {"ein": "161570152", "name": "SPENCERPORT ECUMENICAL FOOD SHELF", "city": "SPENCERPORT", "state": "NY", "zip": "14559-9581", "ntee": "K31", "ruling": "202410", "deductibility": "1", "assets": 0, "income": 0, "revenue": 0}, {"ein": "161588757", "name": "SPENCERPORT ALUMNI ASSOCIATION", "city": "ROCHESTER", "state": "NY", "zip": "14618-3308", "ntee": "B84", "ruling": "200202", "deductibility": "1", "assets": 36248, "income": 10901, "revenue": 7313}, {"ein": "166051836", "name": "SPENCERPORT CENTRAL SCHOOL SCHOLARSHIP FUND INC", "city": "SPENCERPORT", "state": "NY", "zip": "14559-1942", "ntee": "", "ruling": "195904", "deductibility": "1", "assets": 0, "income": 0, "revenue": 0}, {"ein": "166144398", "name": "SPENCERPORT VOLUNTER FIREMENS ASSOCIATION INCORPORATED", "city": "SPENCERPORT", "state": "NY", "zip": "14559-1815", "ntee": "M24", "ruling": "201102", "deductibility": "1", "assets": 499770, "income": 257196, "revenue": 139555}, {"ein": "222487731", "name": "SPENCERPORT SOCCER CLUB INC", "city": "SPENCERPORT", "state": "NY", "zip": "14559-0210", "ntee": "N64", "ruling": "200802", "deductibility": "1", "assets": 124312, "income": 238644, "revenue": 238644}, {"ein": "262129810", "name": "SPENCERPORT YOUTH LACROSSE", "city": "SPENCERPORT", "state": "NY", "zip": "14559-1733", "ntee": "A12", "ruling": "201603", "deductibility": "1", "assets": 0, "income": 0, "revenue": 0}, {"ein": "271790733", "name": "SPENCERPORT JUNIOR RANGERS", "city": "SPENCERPORT", "state": "NY", "zip": "14559-0288", "ntee": "B122", "ruling": "201004", "deductibility": "1", "assets": 46664, "income": 92730, "revenue": 83516}, {"ein": "272953033", "name": "SPENCERPORT JUNIOR BASEBALL INC", "city": "SPENCERPORT", "state": "NY", "zip": "14559-0275", "ntee": "N63", "ruling": "201503", "deductibility": "1", "assets": 108363, "income": 116056, "revenue": 114683}, {"ein": "462331202", "name": "SPENCERPORT VOLUNTEER FIREMENS ASSOCIATION LADIES AUXILIARY", "city": "SPENCERPORT", "state": "NY", "zip": "14559-0252", "ntee": "S81", "ruling": "201309", "deductibility": "2", "assets": 0, "income": 0, "revenue": 0}, {"ein": "832904043", "name": "SPENCERPORT EDUCATION FOUNDATION INC", "city": "ROCHESTER", "state": "NY", "zip": "14606-3359", "ntee": "A11", "ruling": "201904", "deductibility": "1", "assets": 0, "income": 0, "revenue": 0}], "KH": [{"ein": "061236515", "name": "KH FOUNDATION", "city": "NEW YORK", "state": "NY", "zip": "10005-0000", "ntee": "", "ruling": "198810", "deductibility": "1", "assets": 41557, "income": 1, "revenue": 0}], "BINYAN": [{"ein": "061505764", "name": "CONG BINYAN SHAIM DSARUASH", "city": "HIGHLAND MLS", "state": "NY", "zip": "10930-0745", "ntee": "X30Z", "ruling": "199805", "deductibility": "1", "assets": 0, "income": 0, "revenue": 0}, {"ein": "112417876", "name": "CONG BINYAN ZVI DWAITZEN", "city": "BROOKLYN", "state": "NY", "zip": "11211-7610", "ntee": "", "ruling": "198112", "deductibility": "1", "assets": 0, "income": 0, "revenue": 0}, {"ein": "112828871", "name": "CONGREGATION BINYAN CHAIM", "city": "BROOKLYN", "state": "NY", "zip": "11218-3613", "ntee": "", "ruling": "198611", "deductibility": "1", "assets": 0, "income": 0, "revenue": 0}, {"ein": "113079873", "name": "CONGREGATION BINYAN DAVID DMONTIVEDID", "city": "BROOKLYN", "state": "NY", "zip": "11210-3714", "ntee": "", "ruling": "199203", "deductibility": "1", "assets": 0, "income": 0, "revenue": 0}, {"ein": "113398622", "name": "BINYAN SHEL CHESSED INC", "city": "BROOKLYN", "state": "NY", "zip": "11219-1606", "ntee": "X99Z", "ruling": "199802", "deductibility": "1", "assets": 0, "income": 0, "revenue": 0}, {"ein": "113472950", "name": "AMERICAN FRIENDS OF BINYAN-AV FOUNDATION", "city": "NEW YORK", "state": "NY", "zip": "10018-2247", "ntee": "T22", "ruling": "200006", "deductibility": "1", "assets": 53998, "income": 2294566, "revenue": 0}, {"ein": "113485239", "name": "CONG BINYAN SHULOM", "city": "BROOKLYN", "state": "NY", "zip": "11211-8005", "ntee": "X30", "ruling": "199906", "deductibility": "1", "assets": 0, "income": 0, "revenue": 0}, {"ein": "113514870", "name": "BINYAN YERUSHLAIM", "city": "BROOKLYN", "state": "NY", "zip": "11219-3011", "ntee": "X30", "ruling": "200406", "deductibility": "1", "assets": 0, "income": 0, "revenue": 0}, {"ein": "113526170", "name": "BINYAN YAAKOV", "city": "BROOKLYN", "state": "NY", "zip": "11211-8244", "ntee": "X30", "ruling": "200003", "deductibility": "1", "assets": 0, "income": 0, "revenue": 0}, {"ein": "113556913", "name": "CONGREGATION BINYAN SERDAHELY", "city": "BROOKLYN", "state": "NY", "zip": "11219-1608", "ntee": "X30", "ruling": "200009", "deductibility": "1", "assets": 0, "income": 0, "revenue": 0}, {"ein": "133603665", "name": "KHAL BINYAN DAVID D IHEL", "city": "MONSEY", "state": "NY", "zip": "10952-2564", "ntee": "", "ruling": "199206", "deductibility": "1", "assets": 0, "income": 0, "revenue": 0}, {"ein": "133914328", "name": "CONGREGATION BINYAN CHAIM", "city": "BROOKLYN", "state": "NY", "zip": "11211-8102", "ntee": "X30Z", "ruling": "199701", "deductibility": "1", "assets": 0, "income": 0, "revenue": 0}, {"ein": "134075371", "name": "BINYAN TORAH INC", "city": "MONSEY", "state": "NY", "zip": "10952-4023", "ntee": "X30", "ruling": "200002", "deductibility": "1", "assets": 0, "income": 0, "revenue": 0}, {"ein": "237134953", "name": "YESHIVA BINYAN DAVID", "city": "BROOKLYN", "state": "NY", "zip": "11211-8091", "ntee": "", "ruling": "196911", "deductibility": "1", "assets": 0, "income": 0, "revenue": 0}, {"ein": "237415773", "name": "CONGREGATION BINYAN DAVID", "city": "BROOKLYN", "state": "NY", "zip": "11211-8005", "ntee": "", "ruling": "197801", "deductibility": "1", "assets": 0, "income": 0, "revenue": 0}, {"ein": "273978765", "name": "BINYAN OLEM INC", "city": "BROOKLYN", "state": "NY", "zip": "11205-1504", "ntee": "X30", "ruling": "201204", "deductibility": "1", "assets": 0, "income": 0, "revenue": 0}, {"ein": "453969627", "name": "MIKVAH SARA LAYA BINYAN LIBA", "city": "INWOOD", "state": "NY", "zip": "11096-1021", "ntee": "X30", "ruling": "201310", "deductibility": "1", "assets": 1856147, "income": 191059, "revenue": 191059}, {"ein": "522311729", "name": "FRIENDS OF BINYAN HAOLAM", "city": "BROOKLYN", "state": "NY", "zip": "11219-3823", "ntee": "X30", "ruling": "200304", "deductibility": "1", "assets": 0, "income": 0, "revenue": 0}, {"ein": "883668237", "name": "BINYAN OLAM", "city": "MONROE", "state": "NY", "zip": "10950-2905", "ntee": "X30", "ruling": "202302", "deductibility": "1", "assets": 0, "income": 0, "revenue": 0}, {"ein": "912138815", "name": "BINYAN CHESED FOUNDATION", "city": "BROOKLYN", "state": "NY", "zip": "11219-3101", "ntee": "T20", "ruling": "200108", "deductibility": "1", "assets": 179791, "income": 70556, "revenue": 0}, {"ein": "920923716", "name": "BINYAN BRESLOV", "city": "POMONA", "state": "NY", "zip": "10970-2856", "ntee": "X30", "ruling": "202404", "deductibility": "1", "assets": 0, "income": 0, "revenue": 0}, {"ein": "931369732", "name": "MORESHET BINYAN AV INC", "city": "NEW YORK", "state": "NY", "zip": "10018-2247", "ntee": "X30", "ruling": "202310", "deductibility": "1", "assets": 0, "income": 0, "revenue": 0}, {"ein": "932341667", "name": "BINYAN CHAIM INC", "city": "BROOKLYN", "state": "NY", "zip": "11229-1823", "ntee": "X30", "ruling": "202307", "deductibility": "1", "assets": 9789, "income": 10690, "revenue": 10690}, {"ein": "993271362", "name": "BINYAN AVRUHOM", "city": "BROOKLYN", "state": "NY", "zip": "11249-7058", "ntee": "X30", "ruling": "202412", "deductibility": "1", "assets": 0, "income": 0, "revenue": 0}, {"ein": "995135153", "name": "CONGREGATION BINYAN SHLOIME", "city": "BROOKLYN", "state": "NY", "zip": "11219-2724", "ntee": "X30", "ruling": "202410", "deductibility": "1", "assets": 0, "income": 0, "revenue": 0}], "DBA": [{"ein": "061508865", "name": "KAREN AVRUHAM MEIR INC DBA OHER SHULEM", "city": "MONROE", "state": "NY", "zip": "10949-8532", "ntee": "X30Z", "ruling": "199805", "deductibility": "1", "assets": 0, "income": 0, "revenue": 0}, {"ein": "112024035", "name": "CONGREGATION MACHNEH RAV TOV INC DBA CAMP RAV TOV", "city": "BROOKLYN", "state": "NY", "zip": "11206-3187", "ntee": "", "ruling": "195511", "deductibility": "1", "assets": 0, "income": 0, "revenue": 0}, {"ein": "112330829", "name": "KHAL UNGVAR DBA MISHNE HALACHOTH GEDOLOTH", "city": "BROOKLYN", "state": "NY", "zip": "11204-1425", "ntee": "X30Z", "ruling": "199809", "deductibility": "1", "assets": 0, "income": 0, "revenue": 0}, {"ein": "112483363", "name": "CHESED AVRAHAM DBA CHESSED AVROHOM HOUSING GEMACH", "city": "BROOKLYN", "state": "NY", "zip": "11230-4715", "ntee": "", "ruling": "197902", "deductibility": "1", "assets": 0, "income": 0, "revenue": 0}, {"ein": "112506224", "name": "KEREN ZICHRON GEDALYAHU INC DBA BEIS MEDRASH NEZER GEDALYAHU", "city": "BROOKLYN", "state": "NY", "zip": "11230-4120", "ntee": "", "ruling": "197908", "deductibility": "1", "assets": 0, "income": 0, "revenue": 0}, {"ein": "112717326", "name": "LONG ISLAND CITIZENS CAMPAIGN INC DBA CITIZENS CAMPAIGN FOR THE", "city": "FARMINGDALE", "state": "NY", "zip": "11735-2619", "ntee": "S21Z", "ruling": "198704", "deductibility": "2", "assets": 382873, "income": 1159896, "revenue": 1159896}, {"ein": "132974957", "name": "JEWISH EDUCATION IN MEDIA INC DBA JBS JEWISH BROADCASTING SERVIC", "city": "NEW YORK", "state": "NY", "zip": "10036-2501", "ntee": "A30Z", "ruling": "197906", "deductibility": "1", "assets": 2081653, "income": 2061097, "revenue": 2061097}, {"ein": "134059573", "name": "CONGREGATION CHASDEIR AVOS INC DBA KEREN CHASONIM", "city": "MONSEY", "state": "NY", "zip": "10952-3021", "ntee": "X30", "ruling": "200007", "deductibility": "1", "assets": 0, "income": 0, "revenue": 0}, {"ein": "141701360", "name": "KINGSTON SELF-HELP CENTER INC DBA PEOPLES PLACE", "city": "KINGSTON", "state": "NY", "zip": "12401-5026", "ntee": "", "ruling": "198811", "deductibility": "1", "assets": 4095148, "income": 3807516, "revenue": 3731693}, {"ein": "161528383", "name": "SARDINIA SNOWMOBILE CLUB INC DBA PIONEER SNO SURFERS", "city": "CHAFFEE", "state": "NY", "zip": "14030-9731", "ntee": "N68", "ruling": "202111", "deductibility": "1", "assets": 0, "income": 0, "revenue": 0}, {"ein": "222612697", "name": "ALLEGANY CHRISTIAN CENTER INC DBA NEWLIFE CENTER", "city": "ALLEGANY", "state": "NY", "zip": "14706-1201", "ntee": "", "ruling": "198602", "deductibility": "1", "assets": 0, "income": 0, "revenue": 0}, {"ein": "223242715", "name": "PETER MAURIN HOUSE INC DBA HOPE HOUSE", "city": "UTICA", "state": "NY", "zip": "13503-0161", "ntee": "L410", "ruling": "199306", "deductibility": "1", "assets": 1398975, "income": 793762, "revenue": 788271}, {"ein": "262220986", "name": "TORAS SHRAGA INC DBA YESHIVA KINYAN HATORAH", "city": "SPRING VALLEY", "state": "NY", "zip": "10977-1815", "ntee": "B25", "ruling": "200905", "deductibility": "1", "assets": 1, "income": 124332, "revenue": 124332}, {"ein": "311321568", "name": "SIGMA GAMMA RHO SORORITY INC DBA KAPPA XI", "city": "PORT JEFF STA", "state": "NY", "zip": "11776-3090", "ntee": "B83", "ruling": "202305", "deductibility": "2", "assets": 0, "income": 0, "revenue": 0}, {"ein": "463914584", "name": "DBA FOUNDATION INC", "city": "HOLTSVILLE", "state": "NY", "zip": "11742-1075", "ntee": "N63", "ruling": "201802", "deductibility": "1", "assets": 270, "income": 3020, "revenue": 3020}, {"ein": "464754502", "name": "CHAKANA MEDIA INC DBA RECONSIDER", "city": "ACCORD", "state": "NY", "zip": "12404-5505", "ntee": "B99", "ruling": "202405", "deductibility": "1", "assets": 0, "income": 0, "revenue": 0}, {"ein": "472704696", "name": "CONG METAR HASHOMAYIM DBA TORAS MOSHE", "city": "MONSEY", "state": "NY", "zip": "10952-2755", "ntee": "X30", "ruling": "201505", "deductibility": "1", "assets": 0, "income": 0, "revenue": 0}, {"ein": "811011634", "name": "SMBMT DBA YESHIVA CROWN HEIGHTS", "city": "BROOKLYN", "state": "NY", "zip": "11203-1001", "ntee": "X30", "ruling": "201604", "deductibility": "1", "assets": 0, "income": 0, "revenue": 0}, {"ein": "815268868", "name": "ARIZOU DBA BASTA", "city": "NEW YORK", "state": "NY", "zip": "10018-4502", "ntee": "B80", "ruling": "201702", "deductibility": "1", "assets": 7827676, "income": 8806559, "revenue": 8806559}, {"ein": "853668830", "name": "IN-VISIONS NP CORP DBA VISIONS2030", "city": "NEW YORK CITY", "state": "NY", "zip": "10007-2504", "ntee": "A20", "ruling": "202505", "deductibility": "1", "assets": 0, "income": 0, "revenue": 0}, {"ein": "900997073", "name": "URBAN WOODLANDS COMMUNITY GARDENS INC DBA THE LOTUS GARDEN", "city": "NEW YORK", "state": "NY", "zip": "10025-0003", "ntee": "C41", "ruling": "201502", "deductibility": "1", "assets": 51588, "income": 32991, "revenue": 32991}], "TOMORROW": [{"ein": "061559473", "name": "WOMEN OF TOMORROW", "city": "SPRING VALLEY", "state": "NY", "zip": "10977-0073", "ntee": "B60", "ruling": "200110", "deductibility": "1", "assets": 0, "income": 0, "revenue": 0}, {"ein": "112475654", "name": "QUEENS COUNTY EDUCATORS FOR TOMORROW INC", "city": "QUEENS VLG", "state": "NY", "zip": "11429-1411", "ntee": "", "ruling": "198104", "deductibility": "1", "assets": 1114018, "income": 3396917, "revenue": 3396917}, {"ein": "112934620", "name": "OPPORTUNITIES FOR A BETTER TOMORROW INC", "city": "BROOKLYN", "state": "NY", "zip": "11232-1902", "ntee": "", "ruling": "199010", "deductibility": "1", "assets": 5483605, "income": 7010278, "revenue": 7001200}, {"ein": "132989474", "name": "HOLY CHURCH OF TOMORROW APOSTOLIC FAITH", "city": "MOUNT VERNON", "state": "NY", "zip": "10550-3107", "ntee": "", "ruling": "197908", "deductibility": "1", "assets": 0, "income": 0, "revenue": 0}, {"ein": "161472489", "name": "HOPE FOR TOMORROW FOUNDATION", "city": "WILLIAMSVILLE", "state": "NY", "zip": "14231-0187", "ntee": "P30Z", "ruling": "199809", "deductibility": "1", "assets": 156020, "income": 24723, "revenue": 24723}, {"ein": "205846694", "name": "KIDS FOR TOMORROW INC", "city": "NEW YORK", "state": "NY", "zip": "10011-2990", "ntee": "B12", "ruling": "202201", "deductibility": "1", "assets": 0, "income": 0, "revenue": 0}, {"ein": "223115498", "name": "TUG HILL TOMORROW LAND TRUST", "city": "WATERTOWN", "state": "NY", "zip": "13601-3330", "ntee": "C34", "ruling": "199108", "deductibility": "1", "assets": 4749895, "income": 2026703, "revenue": 1332328}, {"ein": "274317873", "name": "NORWICH BUILDING TOMORROW FOUNDATION INC", "city": "NORWICH", "state": "NY", "zip": "13815-1646", "ntee": "S31", "ruling": "201302", "deductibility": "1", "assets": 1854220, "income": 1235648, "revenue": 1235648}, {"ein": "274567359", "name": "A BETTER TOMORROW SERVICES CORP", "city": "FRANKLIN SQUARE", "state": "NY", "zip": "11010-3247", "ntee": "O50", "ruling": "201106", "deductibility": "1", "assets": 8495, "income": 15868, "revenue": 15868}, {"ein": "331070376", "name": "BROADWAY EDUCATION SHAPES TOMORROW INC", "city": "NEW YORK", "state": "NY", "zip": "10025-1455", "ntee": "B90", "ruling": "200510", "deductibility": "1", "assets": 1, "income": 1, "revenue": 0}, {"ein": "331693116", "name": "TOMORROW IS YOURS FOUNDATION INC", "city": "YONKERS", "state": "NY", "zip": "10705-3241", "ntee": "I40", "ruling": "202506", "deductibility": "1", "assets": 0, "income": 0, "revenue": 0}, {"ein": "333696119", "name": "ECONOMIC COMMUNITIES OF TOMORROW DESIGNS CORP", "city": "CAMBRIDGE", "state": "NY", "zip": "12816-0000", "ntee": "S30", "ruling": "202505", "deductibility": "1", "assets": 0, "income": 0, "revenue": 0}, {"ein": "334181500", "name": "LIGHTS OF TOMORROW", "city": "YORKTOWN HTS", "state": "NY", "zip": "10598-5904", "ntee": "X30", "ruling": "202505", "deductibility": "1", "assets": 0, "income": 0, "revenue": 0}, {"ein": "412068330", "name": "BUSINESS LEADERS OF TOMORROW LEADERSHIP EMPOWERMENT CTR INC", "city": "JAMAICA", "state": "NY", "zip": "11435-5027", "ntee": "O99", "ruling": "200304", "deductibility": "1", "assets": 0, "income": 0, "revenue": 0}, {"ein": "472649818", "name": "NEST NASSAU EMPOWERMENT AND SUPPORT FOR TOMORROW INC", "city": "GARDEN CITY", "state": "NY", "zip": "11530-6719", "ntee": "K31", "ruling": "201501", "deductibility": "1", "assets": 5347, "income": 19688, "revenue": 19688}, {"ein": "472756880", "name": "WILD TOMORROW FUND", "city": "NEW YORK", "state": "NY", "zip": "10036-1225", "ntee": "Q33", "ruling": "201506", "deductibility": "1", "assets": 2118474, "income": 2969288, "revenue": 2877830}, {"ein": "473646859", "name": "LEADERS OF TOMORROW YOUTH CENTER INC", "city": "HUNTINGTN STA", "state": "NY", "zip": "11746-3517", "ntee": "O50", "ruling": "201509", "deductibility": "1", "assets": 0, "income": 0, "revenue": 0}, {"ein": "475337820", "name": "LIMITLESS TOMORROW FOUNDATION INC", "city": "NYACK", "state": "NY", "zip": "10960-3904", "ntee": "W99", "ruling": "201512", "deductibility": "1", "assets": 0, "income": 0, "revenue": 0}, {"ein": "800259180", "name": "DESTINATION TOMORROW INC", "city": "BRONX", "state": "NY", "zip": "10455-1325", "ntee": "P88", "ruling": "201412", "deductibility": "1", "assets": 5760687, "income": 7683579, "revenue": 7683579}, {"ein": "811534983", "name": "AFRICAN WOMEN FOR A BETTER TOMORROW INC", "city": "QUEENS VLG", "state": "NY", "zip": "11427-2225", "ntee": "S80", "ruling": "201603", "deductibility": "1", "assets": 0, "income": 0, "revenue": 0}, {"ein": "811690895", "name": "GIFT-GIVE IT FOR TOMORROW", "city": "NEW YORK", "state": "NY", "zip": "10128-1251", "ntee": "J20", "ruling": "201608", "deductibility": "1", "assets": 7623, "income": 657, "revenue": 657}, {"ein": "814504607", "name": "PROFESSIONAL PILOTS OF TOMORROW INC", "city": "BROOKLYN", "state": "NY", "zip": "11206-1030", "ntee": "B03", "ruling": "201707", "deductibility": "1", "assets": 0, "income": 0, "revenue": 0}, {"ein": "822492162", "name": "SMILE FOR TOMORROW FOUNDATION INC", "city": "FAIRPORT", "state": "NY", "zip": "14450-4307", "ntee": "F12", "ruling": "201709", "deductibility": "1", "assets": 0, "income": 0, "revenue": 0}, {"ein": "830990187", "name": "UNLIMITED TOMORROW GLOBAL INITIATIVE INC", "city": "RHINEBECK", "state": "NY", "zip": "12572-3711", "ntee": "P20", "ruling": "201909", "deductibility": "1", "assets": 62233, "income": 60511, "revenue": 60511}, {"ein": "833648608", "name": "HELPING OUR TOMORROW INC", "city": "ALBANY", "state": "NY", "zip": "12206-3247", "ntee": "P30", "ruling": "202308", "deductibility": "1", "assets": 0, "income": 0, "revenue": 0}, {"ein": "843289169", "name": "A CATTARAUGUS FOR TOMORROW INC", "city": "ELLICOTTVILLE", "state": "NY", "zip": "14731-1944", "ntee": "A52", "ruling": "202202", "deductibility": "1", "assets": 0, "income": 0, "revenue": 0}, {"ein": "843448570", "name": "YOUNG MEN BUILDING A FUTURE FOR TOMORROW", "city": "ROCHESTER", "state": "NY", "zip": "14617-6599", "ntee": "O50", "ruling": "201911", "deductibility": "1", "assets": 0, "income": 0, "revenue": 0}, {"ein": "852530391", "name": "TODAY GIRL TOMORROW WOMAN", "city": "CAMBRIA HTS", "state": "NY", "zip": "11411-1318", "ntee": "B12", "ruling": "202203", "deductibility": "1", "assets": 0, "income": 0, "revenue": 0}, {"ein": "853054591", "name": "TODAY S YOUTH - TOMORROW S FUTURE INC", "city": "BROOKLYN", "state": "NY", "zip": "11236-3816", "ntee": "B90", "ruling": "202307", "deductibility": "1", "assets": 0, "income": 0, "revenue": 0}, {"ein": "853575218", "name": "JACKS TOMORROW INC", "city": "NEW YORK", "state": "NY", "zip": "10017-9257", "ntee": "H12", "ruling": "202203", "deductibility": "1", "assets": 652708, "income": 349805, "revenue": 349805}, {"ein": "862553259", "name": "ENTREPRENEURS OF TOMORROW INC", "city": "NEW YORK", "state": "NY", "zip": "10031-5002", "ntee": "B02", "ruling": "202107", "deductibility": "1", "assets": 21023, "income": 15885, "revenue": 15885}, {"ein": "862753520", "name": "PASSIONATE IMAGINATIVE LEADERS OF TOMORROW INC", "city": "NEW YORK", "state": "NY", "zip": "10023-3434", "ntee": "O50", "ruling": "202106", "deductibility": "1", "assets": 0, "income": 0, "revenue": 0}, {"ein": "863796251", "name": "PLAYING FOR TOMORROW INC", "city": "GREENVALE", "state": "NY", "zip": "11548-1401", "ntee": "A68", "ruling": "202110", "deductibility": "1", "assets": 0, "income": 0, "revenue": 0}, {"ein": "871007147", "name": "GIRLS INNOVATING FOR TOMORROW FOUNDATION INC", "city": "BROOKLYN", "state": "NY", "zip": "11210-1434", "ntee": "B12", "ruling": "202309", "deductibility": "1", "assets": 0, "income": 0, "revenue": 0}, {"ein": "871186655", "name": "BRIIGHTER TOMORROW INC", "city": "BROOKLYN", "state": "NY", "zip": "11238-2106", "ntee": "P20", "ruling": "202201", "deductibility": "1", "assets": 0, "income": 0, "revenue": 0}, {"ein": "873593724", "name": "BETTER TOMORROW NYC INC", "city": "NEW YORK", "state": "NY", "zip": "10010-7602", "ntee": "B82", "ruling": "202203", "deductibility": "1", "assets": 0, "income": 0, "revenue": 0}, {"ein": "880967211", "name": "PREP FOR TOMORROW", "city": "ROCKVILLE CTR", "state": "NY", "zip": "11570-3514", "ntee": "B20", "ruling": "202203", "deductibility": "1", "assets": 0, "income": 0, "revenue": 0}, {"ein": "881317358", "name": "TENANTS ADVOCATING FOR TOMORROW INC", "city": "NEW YORK", "state": "NY", "zip": "10029-1809", "ntee": "P40", "ruling": "202210", "deductibility": "1", "assets": 0, "income": 0, "revenue": 0}, {"ein": "882360071", "name": "TENNIS FOR TOMORROW INC", "city": "NEW YORK", "state": "NY", "zip": "10021-2818", "ntee": "N66", "ruling": "202304", "deductibility": "1", "assets": 0, "income": 0, "revenue": 0}, {"ein": "883598708", "name": "STARS OF TOMORROW PROJECT INC", "city": "NEW YORK", "state": "NY", "zip": "10034-3443", "ntee": "A60", "ruling": "202212", "deductibility": "1", "assets": 317864, "income": 171309, "revenue": 171309}, {"ein": "883612523", "name": "STUDENTS FOR A BETTER TOMORROW INC", "city": "TONAWANDA", "state": "NY", "zip": "14150-9415", "ntee": "B01", "ruling": "202211", "deductibility": "1", "assets": 0, "income": 0, "revenue": 0}, {"ein": "883959290", "name": "STARZ OF TOMORROW", "city": "HEMPSTEAD", "state": "NY", "zip": "11550-2502", "ntee": "A01", "ruling": "202211", "deductibility": "1", "assets": 0, "income": 0, "revenue": 0}, {"ein": "920898976", "name": "BRIGHTHER TOMORROW CORP", "city": "NEW YORK", "state": "NY", "zip": "10036-4707", "ntee": "T20", "ruling": "202302", "deductibility": "1", "assets": 51313, "income": 60022, "revenue": 0}, {"ein": "923872296", "name": "DEAFBLIND AND DEAF DISABLED CHILDREN OF TOMORROW INC", "city": "BROOKLYN", "state": "NY", "zip": "11225-1101", "ntee": "B11", "ruling": "202402", "deductibility": "1", "assets": 0, "income": 0, "revenue": 0}, {"ein": "923976134", "name": "SOPHIAS HOPE FOR A SAFER TOMORROW INC", "city": "CORAM", "state": "NY", "zip": "11727-1531", "ntee": "P20", "ruling": "202306", "deductibility": "1", "assets": 3635, "income": 3635, "revenue": 3635}, {"ein": "931561660", "name": "LEADING WOMEN OF TOMORROW INC", "city": "NEW YORK CITY", "state": "NY", "zip": "10022-8606", "ntee": "R24", "ruling": "202307", "deductibility": "1", "assets": 0, "income": 0, "revenue": 0}, {"ein": "932883873", "name": "TITANS OF TOMORROW INCOPORATED", "city": "GLEN COVE", "state": "NY", "zip": "11542-1202", "ntee": "B82", "ruling": "202309", "deductibility": "1", "assets": 52717, "income": 153641, "revenue": 153641}, {"ein": "934805361", "name": "TRANSFORM TOMORROW INC", "city": "ENDICOTT", "state": "NY", "zip": "13760-6124", "ntee": "O50", "ruling": "202401", "deductibility": "1", "assets": 0, "income": 0, "revenue": 0}, {"ein": "934810074", "name": "CHAMPIONS OF TOMORROW INC", "city": "BROOKLYN", "state": "NY", "zip": "11234-2902", "ntee": "B90", "ruling": "202404", "deductibility": "1", "assets": 0, "income": 0, "revenue": 0}, {"ein": "990420153", "name": "LION INNOVATION FOR TOMORROW INC", "city": "NEW YORK", "state": "NY", "zip": "10038-2903", "ntee": "U03", "ruling": "202401", "deductibility": "1", "assets": 0, "income": 0, "revenue": 0}, {"ein": "991291655", "name": "HEAR TODAY GONE TOMORROW HAMMERS GOLF SCHOLARSHIP INC", "city": "CORINTH", "state": "NY", "zip": "12822-2656", "ntee": "N12", "ruling": "202402", "deductibility": "1", "assets": 0, "income": 0, "revenue": 0}, {"ein": "992790603", "name": "HAIR TODAY HAIR TOMORROW INC", "city": "EAST SYRACUSE", "state": "NY", "zip": "13057-1529", "ntee": "S20", "ruling": "202406", "deductibility": "1", "assets": 0, "income": 0, "revenue": 0}, {"ein": "994249781", "name": "KEEP ANOTHER TOMORROW FOUNDATION INC", "city": "PLATTSBURGH", "state": "NY", "zip": "12901-2301", "ntee": "F12", "ruling": "202409", "deductibility": "1", "assets": 0, "income": 0, "revenue": 0}, {"ein": "994356160", "name": "FATHERS OF TOMORROW INC", "city": "UTICA", "state": "NY", "zip": "13502-3334", "ntee": "F99", "ruling": "202502", "deductibility": "1", "assets": 0, "income": 0, "revenue": 0}], "CHINARESEARCHNETORG": [{"ein": "061584822", "name": "CHINARESEARCHNETORG INC", "city": "DIX HILLS", "state": "NY", "zip": "11746-6327", "ntee": "A05", "ruling": "202110", "deductibility": "1", "assets": 0, "income": 0, "revenue": 0}], "KUNDIMAN": [{"ein": "061650662", "name": "KUNDIMAN INC", "city": "NEW YORK", "state": "NY", "zip": "10023-7414", "ntee": "A70", "ruling": "200402", "deductibility": "1", "assets": 1141991, "income": 722748, "revenue": 700417}], "SMILLIE": [{"ein": "061650710", "name": "KATHI SMILLIE NURSING FOUNDATION INC", "city": "MASSAPEQUA", "state": "NY", "zip": "11758-7951", "ntee": "B82", "ruling": "200303", "deductibility": "1", "assets": 0, "income": 0, "revenue": 0}], "CROTON": [{"ein": "066260375", "name": "CROTON TEACHERS ASSOCIATION BENEFITS TRUST FUND", "city": "PUTNAM VALLEY", "state": "NY", "zip": "10579-3426", "ntee": "", "ruling": "198312", "deductibility": "2", "assets": 642127, "income": 508115, "revenue": 508115}, {"ein": "131739949", "name": "CROTON FREE LIBRARY", "city": "CROTON HDSN", "state": "NY", "zip": "10520-2431", "ntee": "", "ruling": "194606", "deductibility": "1", "assets": 2750998, "income": 1070424, "revenue": 1070424}, {"ein": "131782469", "name": "CROTON COMMUNITY NURSERY SCHOOL", "city": "CROTON HDSN", "state": "NY", "zip": "10520-2525", "ntee": "B21Z", "ruling": "195003", "deductibility": "1", "assets": 236564, "income": 210268, "revenue": 210268}, {"ein": "132959648", "name": "CROTON COUNCIL ON THE ARTS", "city": "CROTON HDSN", "state": "NY", "zip": "10520-0277", "ntee": "", "ruling": "198104", "deductibility": "1", "assets": 1606, "income": 7347, "revenue": 7347}, {"ein": "133153732", "name": "CROTON CARING COMMITTEE INC", "city": "CROTON HDSN", "state": "NY", "zip": "10520-3426", "ntee": "", "ruling": "198304", "deductibility": "1", "assets": 1381604, "income": 191770, "revenue": 191770}, {"ein": "133263815", "name": "CROTON HISTORICAL SOCIETY", "city": "CROTON", "state": "NY", "zip": "10520-2525", "ntee": "A80", "ruling": "200109", "deductibility": "1", "assets": 0, "income": 0, "revenue": 0}, {"ein": "133370037", "name": "THE CROTON ARBORETUM & SANCTUARY INC", "city": "CROTON HDSN", "state": "NY", "zip": "10520-0631", "ntee": "C410", "ruling": "199410", "deductibility": "1", "assets": 0, "income": 0, "revenue": 0}, {"ein": "133505123", "name": "CROTON HOUSING NETWORK INC", "city": "CROTONONHUDSON", "state": "NY", "zip": "10520-2159", "ntee": "", "ruling": "199403", "deductibility": "1", "assets": 2485198, "income": 281695, "revenue": 281695}, {"ein": "133570850", "name": "FRIENDS OF THE OLD CROTON AQUEDUCT INC", "city": "DOBBS FERRY", "state": "NY", "zip": "10522-2151", "ntee": "A99", "ruling": "199012", "deductibility": "1", "assets": 318353, "income": 67833, "revenue": 67833}, {"ein": "133599055", "name": "CROTON POLICE ASSOCIATION INC", "city": "CROTON HDSN", "state": "NY", "zip": "10520-0302", "ntee": "", "ruling": "199202", "deductibility": "2", "assets": 247830, "income": 72030, "revenue": 45683}, {"ein": "134102870", "name": "CROTON-HARMON EDUCATION FOUNDATION LTD", "city": "CROTON HDSN", "state": "NY", "zip": "10520-0172", "ntee": "B12", "ruling": "200110", "deductibility": "1", "assets": 81750, "income": 70602, "revenue": 29013}, {"ein": "134147430", "name": "CROTON FALLS VOLUNTEER FIRE DEPARTMENT INC", "city": "CROTON FALLS", "state": "NY", "zip": "10519-0128", "ntee": "M24", "ruling": "200311", "deductibility": "1", "assets": 991681, "income": 167033, "revenue": 141170}, {"ein": "136121818", "name": "CROTON LODGE 368 F&AM", "city": "CARMEL", "state": "NY", "zip": "10512-2106", "ntee": "Y42", "ruling": "201908", "deductibility": "1", "assets": 56638, "income": 9322, "revenue": 9322}, {"ein": "136156979", "name": "CROTON FALLS COMMUNITY CHURCH", "city": "CROTON FALLS", "state": "NY", "zip": "10519-7025", "ntee": "", "ruling": "195504", "deductibility": "1", "assets": 0, "income": 0, "revenue": 0}, {"ein": "160956809", "name": "CROTON ENGINE & HOSE CO NO1 INC", "city": "OVID", "state": "NY", "zip": "14521-0904", "ntee": "M24", "ruling": "200401", "deductibility": "1", "assets": 1710707, "income": 315335, "revenue": 125239}, {"ein": "201192671", "name": "CROTON ACADEMY OF COMEDIC ARTS INC", "city": "CROTON HDSN", "state": "NY", "zip": "10520-2316", "ntee": "A6E", "ruling": "200803", "deductibility": "1", "assets": 479099, "income": 1056321, "revenue": 1056321}, {"ein": "270908496", "name": "COMMUNITY BLOOD PROGRAM OF CROTON", "city": "CROTON HDSN", "state": "NY", "zip": "10520-1942", "ntee": "E60", "ruling": "201002", "deductibility": "1", "assets": 0, "income": 0, "revenue": 0}, {"ein": "271657638", "name": "CROTON BOMBERS BASEBALL CLUB", "city": "PUTNAM VALLEY", "state": "NY", "zip": "10579-2512", "ntee": "B11", "ruling": "201401", "deductibility": "1", "assets": 0, "income": 0, "revenue": 0}, {"ein": "371479150", "name": "CROTON HARMON BOOSTER CLUB", "city": "CROTON HDSN", "state": "NY", "zip": "10520-2333", "ntee": "B112", "ruling": "200402", "deductibility": "1", "assets": 99311, "income": 164369, "revenue": 138539}, {"ein": "711052645", "name": "CROTON-CORTLANDT FOOD PANTRY", "city": "CROTON HDSN", "state": "NY", "zip": "10520-0633", "ntee": "K31", "ruling": "200812", "deductibility": "1", "assets": 278046, "income": 203929, "revenue": 203929}, {"ein": "824828340", "name": "CROTON EMERENCY MEDICAL SERVICES INC", "city": "CROTON HDSN", "state": "NY", "zip": "10520-0358", "ntee": "E62", "ruling": "202005", "deductibility": "1", "assets": 0, "income": 0, "revenue": 0}, {"ein": "830450467", "name": "CROTON YOUTH LACROSSE INC", "city": "CROTON HDSN", "state": "NY", "zip": "10520-3706", "ntee": "N60", "ruling": "200708", "deductibility": "1", "assets": 0, "income": 0, "revenue": 0}, {"ein": "850682537", "name": "CROTON-ON-HUDSON BUSINESS COUNCIL", "city": "CROTON HDSN", "state": "NY", "zip": "10520-0393", "ntee": "S41", "ruling": "202308", "deductibility": "2", "assets": 0, "income": 0, "revenue": 0}, {"ein": "874613261", "name": "CROTON SOCCER LTD", "city": "CROTON ON HUDSON", "state": "NY", "zip": "10520-3055", "ntee": "N64", "ruling": "202305", "deductibility": "1", "assets": 64451, "income": 101619, "revenue": 101619}, {"ein": "931824678", "name": "CROTON FALLS VOLUNTEER FIRE DEPARTMENT BENEVOLENT ASSOCIATION", "city": "CROTON FALLS", "state": "NY", "zip": "10519-0128", "ntee": "M11", "ruling": "202401", "deductibility": "1", "assets": 0, "income": 0, "revenue": 0}], "JUDEA": [{"ein": "111989494", "name": "TEMPLE JUDEA OF MANHASSET", "city": "MANHASSET", "state": "NY", "zip": "11030-4019", "ntee": "", "ruling": "197212", "deductibility": "1", "assets": 0, "income": 0, "revenue": 0}, {"ein": "112475074", "name": "BETHLEHEM OF JUDEA CHURCH BAPTIST INC", "city": "HEMPSTEAD", "state": "NY", "zip": "11550-5626", "ntee": "", "ruling": "199302", "deductibility": "1", "assets": 0, "income": 0, "revenue": 0}], "BRUCHA": [{"ein": "112436845", "name": "MOSAD BRUCHA TOVA C O BENJAMIN ISAACS ESQ", "city": "NEW YORK", "state": "NY", "zip": "10024-3371", "ntee": "", "ruling": "197711", "deductibility": "1", "assets": 0, "income": 0, "revenue": 0}, {"ein": "113055370", "name": "ELIZER BRUCHA", "city": "BROOKLYN", "state": "NY", "zip": "11218-5512", "ntee": "", "ruling": "199104", "deductibility": "1", "assets": 0, "income": 0, "revenue": 0}, {"ein": "113174144", "name": "CONGREGATION BRUCHA VCHAIL", "city": "BROOKLYN", "state": "NY", "zip": "11211-6030", "ntee": "X30", "ruling": "200001", "deductibility": "1", "assets": 0, "income": 0, "revenue": 0}, {"ein": "113599509", "name": "BRUCHA VHATZLUCHA", "city": "MONROE", "state": "NY", "zip": "10950-2195", "ntee": "X30", "ruling": "200108", "deductibility": "1", "assets": 0, "income": 0, "revenue": 0}, {"ein": "465713720", "name": "BRUCHA OF PH PE INC", "city": "BROOKLYN", "state": "NY", "zip": "11204-2341", "ntee": "T22", "ruling": "201408", "deductibility": "1", "assets": 1901291, "income": 684521, "revenue": 0}, {"ein": "810889572", "name": "BRUCHA VYEHOSHUA FOUNDATION TRUST", "city": "BROOKLYN", "state": "NY", "zip": "11219-3956", "ntee": "T20", "ruling": "201807", "deductibility": "1", "assets": 2305513, "income": 206418, "revenue": 0}, {"ein": "813370238", "name": "TOVA BRUCHA FOUNDATION", "city": "BROOKLYN", "state": "NY", "zip": "11219-0000", "ntee": "T20", "ruling": "201611", "deductibility": "1", "assets": 37157, "income": 1, "revenue": 0}, {"ein": "881665543", "name": "GMACH LEV BRUCHA", "city": "BROOKLYN", "state": "NY", "zip": "11219-2332", "ntee": "X30", "ruling": "202408", "deductibility": "1", "assets": 0, "income": 0, "revenue": 0}], "HANOAR": [{"ein": "112573646", "name": "AMERICAN FRIENDS OF ACHDUS HANOAR INC", "city": "FAR ROCKAWAY", "state": "NY", "zip": "11691-5515", "ntee": "", "ruling": "198111", "deductibility": "1", "assets": 0, "income": 0, "revenue": 0}], "VIII": [{"ein": "112631530", "name": "SECTION VIII OF THE NEW YORK STATE PUBLIC HIGH SCH ATHLETIC ASSN INC", "city": "GARDEN CITY", "state": "NY", "zip": "11530-4742", "ntee": "N30", "ruling": "200201", "deductibility": "1", "assets": 1580174, "income": 2013785, "revenue": 1963427}, {"ein": "113583718", "name": "SHARE VIII INC", "city": "MEDFORD", "state": "NY", "zip": "11763-2555", "ntee": "L20", "ruling": "200103", "deductibility": "1", "assets": 1020261, "income": 118443, "revenue": 118443}, {"ein": "651177555", "name": "OCL PROPERTIES VIII INC", "city": "RONKONKOMA", "state": "NY", "zip": "11779-7206", "ntee": "L20", "ruling": "200309", "deductibility": "1", "assets": 1036156, "income": 151159, "revenue": 151159}, {"ein": "834034330", "name": "DAVID SWOPE FUND U ART VIII OF REV TR DTD JULY 25 2017", "city": "YORKTOWN HTS", "state": "NY", "zip": "10598-2205", "ntee": "T22", "ruling": "201910", "deductibility": "1", "assets": 4062250, "income": 1668819, "revenue": 0}], "KESTENBAUM": [{"ein": "112740035", "name": "NASH KESTENBAUM BIKUR CHOLIM INC", "city": "BROOKLYN", "state": "NY", "zip": "11210-2822", "ntee": "E91Z", "ruling": "198611", "deductibility": "1", "assets": 0, "income": 0, "revenue": 0}, {"ein": "116578073", "name": "LOUIS & MARGARET KESTENBAUM CHARITABLE FOUNDATION TR", "city": "BROOKLYN", "state": "NY", "zip": "11201-1076", "ntee": "", "ruling": "200311", "deductibility": "1", "assets": 899624, "income": 526029, "revenue": 0}, {"ein": "136986909", "name": "KESTENBAUM FOUNDATION", "city": "LAWRENCE", "state": "NY", "zip": "11559-1503", "ntee": "", "ruling": "199303", "deductibility": "1", "assets": 1062, "income": 15908, "revenue": 0}], "DEMOCRATIC": [{"ein": "112870762", "name": "HAITIAN CENTER FOR CONCILIATION AND DEMOCRATIC EDUCATION INC CHACED", "city": "LAURELTON", "state": "NY", "zip": "11413-2337", "ntee": "", "ruling": "199309", "deductibility": "1", "assets": 0, "income": 0, "revenue": 0}, {"ein": "132893010", "name": "DEMOCRATIC SOCIALISTS OF AMERICA FUND INC", "city": "HARTSDALE", "state": "NY", "zip": "10530-0057", "ntee": "V24Z", "ruling": "197705", "deductibility": "1", "assets": 717700, "income": 412359, "revenue": 412359}, {"ein": "133109557", "name": "DEMOCRATIC SOCIALISTS OF AMERICA INC", "city": "NEW YORK", "state": "NY", "zip": "10038-4810", "ntee": "V24", "ruling": "198807", "deductibility": "2", "assets": 3914972, "income": 6287543, "revenue": 6161514}, {"ein": "263927260", "name": "BANGLADESHI AMERICAN NATIONAL DEMOCRATIC SOCIETY USA INC", "city": "BRONX", "state": "NY", "zip": "10468-4206", "ntee": "A20", "ruling": "201601", "deductibility": "1", "assets": 1, "income": 25, "revenue": 25}, {"ein": "843732674", "name": "QUEENS CENTRAL DEMOCRATIC CLUB INC", "city": "ASTORIA", "state": "NY", "zip": "11102-2615", "ntee": "V01", "ruling": "202104", "deductibility": "2", "assets": 0, "income": 0, "revenue": 0}, {"ein": "843827505", "name": "SYRACUSE NY DEMOCRATIC SOCIALISTS OF AMERICA", "city": "SYRACUSE", "state": "NY", "zip": "13261-7135", "ntee": "W24", "ruling": "202301", "deductibility": "2", "assets": 0, "income": 0, "revenue": 0}, {"ein": "881794215", "name": "LOWER HUDSON VALLEY DEMOCRATIC SOCIALISTS OF AMERICA", "city": "WHITE PLAINS", "state": "NY", "zip": "10606-3434", "ntee": "R99", "ruling": "202401", "deductibility": "2", "assets": 0, "income": 0, "revenue": 0}], "BATYA": [{"ein": "112906878", "name": "YAD BATYA L KALLAH", "city": "BROOKLYN", "state": "NY", "zip": "11210-3714", "ntee": "X30", "ruling": "200107", "deductibility": "1", "assets": 0, "income": 0, "revenue": 0}], "TMIMIM": [{"ein": "113046265", "name": "CONGREGATION YESHIVA TOMCHEI TMIMIM LUBAVITCH INC", "city": "BROOKLYN", "state": "NY", "zip": "11213-4333", "ntee": "", "ruling": "199212", "deductibility": "1", "assets": 0, "income": 0, "revenue": 0}, {"ein": "473583165", "name": "MESIVTA LEV TMIMIM LUBAVITCH", "city": "MONSEY", "state": "NY", "zip": "10952-1948", "ntee": "X30", "ruling": "201608", "deductibility": "1", "assets": 0, "income": 0, "revenue": 0}, {"ein": "920764615", "name": "OHALEY TMIMIM INC", "city": "BROOKLYN", "state": "NY", "zip": "11213-4501", "ntee": "X30", "ruling": "202312", "deductibility": "1", "assets": 0, "income": 0, "revenue": 0}], "HAZMANIM": [{"ein": "113161015", "name": "YESHIVA BEIN HAZMANIM", "city": "BROOKLYN", "state": "NY", "zip": "11210-3714", "ntee": "", "ruling": "199308", "deductibility": "1", "assets": 0, "income": 0, "revenue": 0}, {"ein": "463167786", "name": "AMERICAN FRIENDS OF KOLLEL BAIN HAZMANIM INC", "city": "STATEN ISLAND", "state": "NY", "zip": "10314-4119", "ntee": "Q33", "ruling": "201502", "deductibility": "1", "assets": 49782, "income": 86832, "revenue": 86832}], "RAMA": [{"ein": "113298655", "name": "SHRI RAMA-KRISHNA MANDIR OF NORTH AMERICA HINDU DHARMIC SABHA", "city": "BROOKLYN", "state": "NY", "zip": "11232-3011", "ntee": "X20Z", "ruling": "199709", "deductibility": "1", "assets": 0, "income": 0, "revenue": 0}, {"ein": "133911083", "name": "IGLESIA DE CRISTO EN LAS ANTILLAS PRIMERA RAMA DEL SUR BRONX INC", "city": "BRONX", "state": "NY", "zip": "10453-1804", "ntee": "X20Z", "ruling": "199609", "deductibility": "1", "assets": 0, "income": 0, "revenue": 0}, {"ein": "237287540", "name": "YESHIVA HA-RAMA", "city": "BROOKLYN", "state": "NY", "zip": "11235-5121", "ntee": "", "ruling": "197311", "deductibility": "1", "assets": 0, "income": 0, "revenue": 0}], "MIA": [{"ein": "113410211", "name": "BELLA ITALIA MIA INC", "city": "MASPETH", "state": "NY", "zip": "11378-0000", "ntee": "A230", "ruling": "199806", "deductibility": "1", "assets": 0, "income": 0, "revenue": 0}, {"ein": "223711004", "name": "MIA K", "city": "NYC", "state": "NY", "zip": "10025-1515", "ntee": "P74", "ruling": "200105", "deductibility": "1", "assets": 0, "income": 0, "revenue": 0}, {"ein": "455065973", "name": "MIA FOUNDATION LTD", "city": "ROCHESTER", "state": "NY", "zip": "14612-3094", "ntee": "D20", "ruling": "201209", "deductibility": "1", "assets": 106069, "income": 34835, "revenue": 34835}, {"ein": "821865232", "name": "MIA - MARCHIGIANI IN AMERICA", "city": "NEW YORK", "state": "NY", "zip": "10012-3766", "ntee": "A20", "ruling": "201712", "deductibility": "1", "assets": 0, "income": 0, "revenue": 0}, {"ein": "872582509", "name": "LIVING FOR MIA FOUNDATION INCORPORATED", "city": "HUDSON FALLS", "state": "NY", "zip": "12839-3905", "ntee": "P30", "ruling": "202201", "deductibility": "1", "assets": 0, "income": 0, "revenue": 0}, {"ein": "992420569", "name": "SALUD MIA INC", "city": "BRONX", "state": "NY", "zip": "10453-3119", "ntee": "E60", "ruling": "202411", "deductibility": "1", "assets": 0, "income": 0, "revenue": 0}], "BAN": [{"ein": "113513992", "name": "IL-KWAN-DO HONG-IN BUB BAN USA INC", "city": "FLUSHING", "state": "NY", "zip": "11358-2610", "ntee": "X50", "ruling": "200307", "deductibility": "1", "assets": 0, "income": 0, "revenue": 0}, {"ein": "204605486", "name": "BAN FOUNDATION OF AMERICA INC", "city": "MT VERNON", "state": "NY", "zip": "10553-1077", "ntee": "O50", "ruling": "201405", "deductibility": "1", "assets": 0, "income": 0, "revenue": 0}, {"ein": "825193948", "name": "FOUNDATION FOR THE BAN KI-MOON CENTRE", "city": "NEW YORK", "state": "NY", "zip": "10021-5034", "ntee": "P20", "ruling": "201809", "deductibility": "1", "assets": 1025746, "income": 1217917, "revenue": 1217917}], "SALM": [{"ein": "113522197", "name": "SALM FAMILY FOUNDATION INC", "city": "SOUTHAMPTON", "state": "NY", "zip": "11969-1423", "ntee": "T22", "ruling": "200006", "deductibility": "1", "assets": 1, "income": 1, "revenue": 0}], "YONASAN": [{"ein": "113563634", "name": "CONGREGATION BNEI YONASAN", "city": "BROOKLYN", "state": "NY", "zip": "11219-2139", "ntee": "X30", "ruling": "200105", "deductibility": "1", "assets": 0, "income": 0, "revenue": 0}], "SHEPHARD": [{"ein": "113572407", "name": "GOOD SHEPHARD POWERFUL HAND SPIRITUAL CHURCH INC", "city": "BROOKLYN", "state": "NY", "zip": "11203-4901", "ntee": "X20", "ruling": "200105", "deductibility": "1", "assets": 0, "income": 0, "revenue": 0}, {"ein": "134022669", "name": "GOOD SHEPHARD CHURCH", "city": "MOUNT VERNON", "state": "NY", "zip": "10552-3207", "ntee": "X21", "ruling": "199911", "deductibility": "1", "assets": 0, "income": 0, "revenue": 0}, {"ein": "383773335", "name": "THE GOOD SHEPHARD", "city": "STATEN ISLAND", "state": "NY", "zip": "10304-2413", "ntee": "P73", "ruling": "200809", "deductibility": "1", "assets": 426088, "income": 830706, "revenue": 830706}], "LUTH": [{"ein": "116030726", "name": "SAINT MATTHEW DEAF LUTH CHURCH", "city": "WOODSIDE", "state": "NY", "zip": "11377-2216", "ntee": "", "ruling": "194107", "deductibility": "1", "assets": 0, "income": 0, "revenue": 0}, {"ein": "256164956", "name": "CHARLES JOSHUA RIBBLET TRUST FD B TEST TR FBO ALLEGHENY LUTH HOME", "city": "BUFFALO", "state": "NY", "zip": "14240-1504", "ntee": "T20", "ruling": "200506", "deductibility": "1", "assets": 237590, "income": 64307, "revenue": 0}, {"ein": "256266115", "name": "KATHRYN M FIELDS TR UW FBO FIRST EVANGELICAL LUTH CHURCH OF CHAMB", "city": "BUFFALO", "state": "NY", "zip": "14240-1504", "ntee": "T20", "ruling": "200507", "deductibility": "1", "assets": 357915, "income": 125411, "revenue": 0}, {"ein": "611608163", "name": "W & T SOTE TUA FBO LUTH HOME", "city": "BUFFALO", "state": "NY", "zip": "14240-1504", "ntee": "T21", "ruling": "201102", "deductibility": "1", "assets": 1808347, "income": 342788, "revenue": 0}], "GERRITTSEN": [{"ein": "116076710", "name": "GERRITTSEN BEACH FIRE VOLUNTEERS INC", "city": "BROOKLYN", "state": "NY", "zip": "11229-6310", "ntee": "M24Z", "ruling": "199105", "deductibility": "1", "assets": 56963, "income": 280167, "revenue": 280167}], "MONETARY": [{"ein": "133023189", "name": "YOUNG MENS & WOMENS MONETARY ASSOCIATION OF NEW YORK INC", "city": "NEW YORK", "state": "NY", "zip": "10018-0000", "ntee": "", "ruling": "198005", "deductibility": "2", "assets": 82151, "income": 52959, "revenue": 52959}, {"ein": "133826836", "name": "FOUNDATION FOR THE ADVANCEMENT OF MONETARY EDUCATION LTD", "city": "NEW YORK", "state": "NY", "zip": "10022-2379", "ntee": "W60", "ruling": "199509", "deductibility": "1", "assets": 0, "income": 0, "revenue": 0}, {"ein": "237107629", "name": "COMMITTEE FOR MONETARY RESEARCH AND EDUCATION INC", "city": "NEW YORK", "state": "NY", "zip": "10021-5055", "ntee": "", "ruling": "197202", "deductibility": "1", "assets": 47057, "income": 0, "revenue": 0}], "TZIPORAH": [{"ein": "133044171", "name": "BAIS TZIPORAH INC", "city": "BROOKLYN", "state": "NY", "zip": "11218-3617", "ntee": "", "ruling": "198012", "deductibility": "1", "assets": 0, "income": 0, "revenue": 0}, {"ein": "133838938", "name": "CONGREGATION BAIS TZIPORAH OF NEW SQUARE", "city": "SPRING VALLEY", "state": "NY", "zip": "10977-1923", "ntee": "X20Z", "ruling": "199701", "deductibility": "1", "assets": 0, "income": 0, "revenue": 0}], "PERCHEURS": [{"ein": "133097987", "name": "CROISADE EVANGELIQUE DE PERCHEURS DHOMMES", "city": "BROOKLYN", "state": "NY", "zip": "11210-1533", "ntee": "", "ruling": "195105", "deductibility": "1", "assets": 5475662, "income": 725822, "revenue": 725822}], "CHENVEN": [{"ein": "133131468", "name": "RUTH AND HAROLD CHENVEN FOUNDATION INC", "city": "NEW YORK", "state": "NY", "zip": "10040-0812", "ntee": "", "ruling": "198303", "deductibility": "1", "assets": 0, "income": 0, "revenue": 0}], "SCIENTISTS": [{"ein": "133354834", "name": "MEDIA ASSOCIATION OF SOCIAL SCIENTISTS AND ARTISTS INC", "city": "ARDSLEY", "state": "NY", "zip": "10502-2310", "ntee": "A31Z", "ruling": "199001", "deductibility": "1", "assets": 1, "income": 1, "revenue": 0}, {"ein": "237269292", "name": "CHRISTIAN ORDER OF SPIRITUAL SCIENTISTS", "city": "CHEEKTOWAGA", "state": "NY", "zip": "14215-0000", "ntee": "", "ruling": "198404", "deductibility": "1", "assets": 0, "income": 0, "revenue": 0}, {"ein": "237425565", "name": "COMMITTEE OF CONCERNED SCIENTISTS INC", "city": "NEW YORK", "state": "NY", "zip": "10159-0112", "ntee": "P84Z", "ruling": "197410", "deductibility": "1", "assets": 0, "income": 0, "revenue": 0}, {"ein": "261540398", "name": "ALGERIAN AMERICAN SCIENTISTS ASSOCIATION INC", "city": "NEW YORK", "state": "NY", "zip": "10035-0000", "ntee": "U20", "ruling": "201502", "deductibility": "1", "assets": 0, "income": 0, "revenue": 0}, {"ein": "900516602", "name": "THE SOCIETY OF ORDAINED SCIENTISTS NORTH AMERICAN PROVINCE", "city": "GRAND ISLAND", "state": "NY", "zip": "14072-1656", "ntee": "X90", "ruling": "201105", "deductibility": "1", "assets": 0, "income": 0, "revenue": 0}, {"ein": "933353231", "name": "OPEN MINDED SCIENTISTS", "city": "BROOKLYN", "state": "NY", "zip": "11205-3026", "ntee": "U20", "ruling": "202310", "deductibility": "1", "assets": 0, "income": 0, "revenue": 0}], "GOLDSMITH": [{"ein": "133367816", "name": "NATHAN AND LOUISE GOLDSMITH FOUNDATION INC", "city": "NEW YORK", "state": "NY", "zip": "10028-0958", "ntee": "", "ruling": "198701", "deductibility": "1", "assets": 1595252, "income": 414648, "revenue": 0}, {"ein": "136107758", "name": "HORACE W GOLDSMITH FOUNDATION", "city": "NEW YORK", "state": "NY", "zip": "10152-3700", "ntee": "", "ruling": "195704", "deductibility": "1", "assets": 753425740, "income": 222661082, "revenue": 0}, {"ein": "883387860", "name": "CINDY GOLDSMITH AGOSTA SCHOLARSHIP FUND INC", "city": "EAST MARION", "state": "NY", "zip": "11939-0758", "ntee": "P12", "ruling": "202208", "deductibility": "1", "assets": 0, "income": 0, "revenue": 0}], "CORRECTIONS": [{"ein": "133512583", "name": "WESTCHESTER COUNTY DEPT OF CORRECTIONS SUPERIOR OFF ASSOC", "city": "VALHALLA", "state": "NY", "zip": "10595-0090", "ntee": "", "ruling": "199010", "deductibility": "2", "assets": 314810, "income": 188574, "revenue": 173719}, {"ein": "141636022", "name": "NEW YORK CORRECTIONS AND YOUTH SERVICES ASSOCIATION INC", "city": "WALDEN", "state": "NY", "zip": "12586-0432", "ntee": "", "ruling": "198410", "deductibility": "1", "assets": 158234, "income": 107825, "revenue": 79528}, {"ein": "820493821", "name": "ASSOCIATION OF WOMEN IN CORRECTIONS", "city": "CANTON", "state": "NY", "zip": "13617-4339", "ntee": "I03", "ruling": "200905", "deductibility": "1", "assets": 305989, "income": 235824, "revenue": 235824}, {"ein": "825384053", "name": "NYC CORRECTIONS HISPANIC SOCIETY INC", "city": "EAST ELMHURST", "state": "NY", "zip": "11369-0226", "ntee": "Y99", "ruling": "201912", "deductibility": "2", "assets": 4001, "income": 40990, "revenue": 17328}], "VINCI": [{"ein": "133557979", "name": "CIRCOLO DA VINCI INC", "city": "YORKTOWN HTS", "state": "NY", "zip": "10598-6231", "ntee": "P84", "ruling": "201405", "deductibility": "1", "assets": 0, "income": 0, "revenue": 0}, {"ein": "831918238", "name": "LEONARDO DA VINCI DNA PROJECT INC", "city": "NEW YORK", "state": "NY", "zip": "10065-0000", "ntee": "P20", "ruling": "201907", "deductibility": "1", "assets": 67087, "income": 85000, "revenue": 85000}], "EDGARD": [{"ein": "133618530", "name": "EDGARD & GERALDINE FEDER FOUNDATION", "city": "NEW YORK", "state": "NY", "zip": "10036-6524", "ntee": "", "ruling": "199108", "deductibility": "1", "assets": 2283920, "income": 95016, "revenue": 0}], "PERCEPTUAL": [{"ein": "133632539", "name": "PERDEV PERCEPTUAL DEVELOPMENT CENTER INC", "city": "NEW YORK", "state": "NY", "zip": "10024-5326", "ntee": "P82Z", "ruling": "199604", "deductibility": "1", "assets": 235971, "income": 272957, "revenue": 272957}, {"ein": "237442268", "name": "CENTER FOR EXPLORATORY AND PERCEPTUAL ARTS INC", "city": "BUFFALO", "state": "NY", "zip": "14203-1400", "ntee": "A400", "ruling": "197504", "deductibility": "1", "assets": 499753, "income": 464411, "revenue": 460733}], "CONFRERIE": [{"ein": "133701784", "name": "CONFRERIE DE-LA-CHAINE DES ROTISSEURS LTD", "city": "NEW YORK", "state": "NY", "zip": "10023-3446", "ntee": "", "ruling": "199310", "deductibility": "2", "assets": 63141, "income": 120586, "revenue": -5079}, {"ein": "261926604", "name": "CONFRERIE DE LA CHAINE DES ROTISSEURS LTD", "city": "ALBANY", "state": "NY", "zip": "12202-1702", "ntee": "", "ruling": "199412", "deductibility": "2", "assets": 0, "income": 0, "revenue": 0}, {"ein": "920325075", "name": "CONFRERIE DE-LA-CHAINE DES ROTISSEURS LTD", "city": "LOCKPORT", "state": "NY", "zip": "14094-1242", "ntee": "", "ruling": "199412", "deductibility": "2", "assets": 0, "income": 0, "revenue": 0}], "TAMAR": [{"ein": "133711427", "name": "CONGREGATION TAMAR OF MONSEY INC", "city": "MONSEY", "state": "NY", "zip": "10952-4023", "ntee": "", "ruling": "199307", "deductibility": "1", "assets": 0, "income": 0, "revenue": 0}, {"ein": "134022249", "name": "TAMAR ROGOFF PERFORMANCE PROJECTS INC", "city": "NEW YORK", "state": "NY", "zip": "10009-4241", "ntee": "A620", "ruling": "199801", "deductibility": "1", "assets": 37159, "income": 13120, "revenue": 13120}, {"ein": "161647207", "name": "ERIC AND TAMAR GOLDSTEIN FOUNDATION", "city": "NEW YORK", "state": "NY", "zip": "10022-0000", "ntee": "T12", "ruling": "200311", "deductibility": "1", "assets": 14894364, "income": 2016000, "revenue": 2016000}, {"ein": "205613245", "name": "THE MOSHE & TAMAR SCHWARTZ FAMILY FOUNDATION", "city": "BROOKLYN", "state": "NY", "zip": "11210-4740", "ntee": "T20", "ruling": "200811", "deductibility": "1", "assets": 128764, "income": 6881, "revenue": 0}, {"ein": "262347466", "name": "CONG SASOV BNEI CHAYIL TAMAR", "city": "MONSEY", "state": "NY", "zip": "10952-4023", "ntee": "X30", "ruling": "202110", "deductibility": "1", "assets": 0, "income": 0, "revenue": 0}, {"ein": "262967869", "name": "TAMAR FUND INTERNATIONAL INC", "city": "BROOKLYN", "state": "NY", "zip": "11201-0012", "ntee": "E86", "ruling": "200904", "deductibility": "1", "assets": 13401, "income": 177463, "revenue": 177463}, {"ein": "861540464", "name": "KEREN YAD SHMUEL VE TAMAR", "city": "GREAT NECK", "state": "NY", "zip": "11024-2121", "ntee": "X30", "ruling": "202104", "deductibility": "1", "assets": 12775, "income": 4425950, "revenue": 4425950}], "HOMEBOUND": [{"ein": "133773467", "name": "PRO-LIFE ELDERLY AND HOMEBOUND CLUB", "city": "STATEN ISLAND", "state": "NY", "zip": "10306-0520", "ntee": "X99Z", "ruling": "199408", "deductibility": "1", "assets": 0, "income": 0, "revenue": 0}, {"ein": "884402083", "name": "HOMEBOUND CHESED INC", "city": "BROOKLYN", "state": "NY", "zip": "11219-3752", "ntee": "P52", "ruling": "202301", "deductibility": "1", "assets": 83278, "income": 357391, "revenue": 357391}, {"ein": "994408081", "name": "HOMEBOUND HUMANITY INC", "city": "STATEN ISLAND", "state": "NY", "zip": "10301-4436", "ntee": "E60", "ruling": "202410", "deductibility": "1", "assets": 0, "income": 0, "revenue": 0}], "LIVERESEARCH": [{"ein": "133799808", "name": "LIVERESEARCH INC", "city": "NEW YORK", "state": "NY", "zip": "10171-0299", "ntee": "H99Z", "ruling": "199602", "deductibility": "1", "assets": 5412, "income": 15000, "revenue": 15000}], "LAINOFF": [{"ein": "133949510", "name": "LAINOFF FAMILY FOUNDATION INC", "city": "NEW YORK", "state": "NY", "zip": "10022-6131", "ntee": "T22Z", "ruling": "199712", "deductibility": "1", "assets": 9330430, "income": 3302090, "revenue": 0}], "LOCATION": [{"ein": "133951504", "name": "LOCATION ONE INC", "city": "NEW YORK", "state": "NY", "zip": "10011-8500", "ntee": "A20", "ruling": "199810", "deductibility": "1", "assets": 0, "income": 0, "revenue": 0}, {"ein": "161417526", "name": "BEFORE AND AFTER SCHOOL CHILD CARE ON LOCATION INC", "city": "LIVERPOOL", "state": "NY", "zip": "13090-2502", "ntee": "P330", "ruling": "199304", "deductibility": "1", "assets": 6129633, "income": 3117027, "revenue": 3117027}], "PARTICIPATION": [{"ein": "134079917", "name": "1199 SEIU GREATER NEW YORK WORKER PARTICIPATION FUND INC", "city": "NEW YORK", "state": "NY", "zip": "10108-0842", "ntee": "J40", "ruling": "200105", "deductibility": "2", "assets": 6456314, "income": 4401654, "revenue": 4401654}, {"ein": "371594004", "name": "WESTSIDERS FOR PUBLIC PARTICIPATION INC", "city": "NEW YORK", "state": "NY", "zip": "10025-8207", "ntee": "S20", "ruling": "201104", "deductibility": "1", "assets": 0, "income": 0, "revenue": 0}, {"ein": "475601281", "name": "CREATING HOPE THROUGH OPPORTUNITY PARTICIPATION AND EMPOWERMENT INC", "city": "BUFFALO", "state": "NY", "zip": "14217-1094", "ntee": "P82", "ruling": "201604", "deductibility": "1", "assets": 0, "income": 0, "revenue": 0}], "NEUROPATHY": [{"ein": "134137654", "name": "HEREDITARY NEUROPATHY FOUNDATION INC", "city": "NEW YORK", "state": "NY", "zip": "10128-3623", "ntee": "H129", "ruling": "200101", "deductibility": "1", "assets": 1503541, "income": 720109, "revenue": 655296}, {"ein": "450593226", "name": "HANNAHS HOPE FOR GIANT AXONAL NEUROPATHY INC", "city": "REXFORD", "state": "NY", "zip": "12148-1333", "ntee": "H12", "ruling": "200807", "deductibility": "1", "assets": 4672730, "income": 7021776, "revenue": 97225}, {"ein": "993251060", "name": "MICHAEL I WEINTRAUB MD DIABETIC NEUROPATHY RESEARCH CENTER INC", "city": "CROTON HDSN", "state": "NY", "zip": "10520-3100", "ntee": "P12", "ruling": "202406", "deductibility": "1", "assets": 0, "income": 0, "revenue": 0}], "SONY": [{"ein": "134169472", "name": "SONY AND MAURICE SCHOTLAND FOUNDATION INC", "city": "NEW YORK", "state": "NY", "zip": "10021-2762", "ntee": "T20", "ruling": "200107", "deductibility": "1", "assets": 328025, "income": 60976, "revenue": 0}], "ABIDE": [{"ein": "134294996", "name": "ABIDE IN THE VINE CHILD CARE CENTER", "city": "OWEGO", "state": "NY", "zip": "13827-1274", "ntee": "P33", "ruling": "200607", "deductibility": "1", "assets": 161834, "income": 703700, "revenue": 703700}, {"ein": "161449106", "name": "ABIDE IN THE VINE FELLOWSHIP", "city": "OWEGO", "state": "NY", "zip": "13827-1274", "ntee": "", "ruling": "199408", "deductibility": "1", "assets": 0, "income": 0, "revenue": 0}, {"ein": "460603507", "name": "ABIDE IN THE TRUTH MINISTRIES INC", "city": "BINGHAMTON", "state": "NY", "zip": "13905-1623", "ntee": "X20", "ruling": "201907", "deductibility": "1", "assets": 0, "income": 0, "revenue": 0}, {"ein": "474785871", "name": "ABIDE IN CHRIST MINISTRY", "city": "MIDDLETOWN", "state": "NY", "zip": "10941-1309", "ntee": "X20", "ruling": "201711", "deductibility": "1", "assets": 0, "income": 0, "revenue": 0}, {"ein": "874246118", "name": "ABIDE GATHERING INC", "city": "NEW YORK", "state": "NY", "zip": "10024-4341", "ntee": "X99", "ruling": "202202", "deductibility": "1", "assets": 37217, "income": 125114, "revenue": 125114}, {"ein": "881722591", "name": "ABIDE IN THE WORD INC", "city": "FRESH MEADOWS", "state": "NY", "zip": "11365-1126", "ntee": "X20", "ruling": "202207", "deductibility": "1", "assets": 0, "income": 0, "revenue": 0}], "BAKEHILLA": [{"ein": "134349965", "name": "AMERICAN FRIENDS OF BAKEHILLA INC", "city": "NEW YORK", "state": "NY", "zip": "10030-2877", "ntee": "T30", "ruling": "200801", "deductibility": "1", "assets": 0, "income": 0, "revenue": 0}], "HAMNMARSKJOLD": [{"ein": "136122648", "name": "DAG HAMNMARSKJOLD FUND FOR JOURNALISTS INC", "city": "NEW YORK", "state": "NY", "zip": "10017-0000", "ntee": "B82Z", "ruling": "196203", "deductibility": "1", "assets": 281797, "income": 44731, "revenue": 44731}], "PERIODONTISTS": [{"ein": "136140274", "name": "NORTHEASTERN SOCIETY OF PERIODONTISTS INC", "city": "N BELLMORE", "state": "NY", "zip": "11710-1857", "ntee": "", "ruling": "196105", "deductibility": "2", "assets": 216785, "income": 196585, "revenue": 196585}], "SHABOT": [{"ein": "136163084", "name": "SHAYA SHABOT LEVY FOUNDATION INC", "city": "NEW YORK", "state": "NY", "zip": "10155-0002", "ntee": "", "ruling": "194906", "deductibility": "1", "assets": 1, "income": 1, "revenue": 0}], "COE": [{"ein": "136262488", "name": "GEORGE V COE TRUST UW 137359 CHURCH OF THE HEAVENLY REST TTEE", "city": "NEW YORK", "state": "NY", "zip": "10013-2362", "ntee": "", "ruling": "197301", "deductibility": "0", "assets": 1173672, "income": 359219, "revenue": 0}, {"ein": "136262489", "name": "GEORGE V COE TRUST UW 137360 ST L UKES HOSPITAL TTEE", "city": "NEW YORK", "state": "NY", "zip": "10013-2362", "ntee": "", "ruling": "197301", "deductibility": "2", "assets": 591500, "income": 182732, "revenue": 0}, {"ein": "136262492", "name": "GEORGE V COE TRUST UW 137363 UNIVERSITY OF THE SOUTH TTEE", "city": "NEW YORK", "state": "NY", "zip": "10013-2362", "ntee": "", "ruling": "197301", "deductibility": "0", "assets": 411279, "income": 123549, "revenue": 0}, {"ein": "156018065", "name": "COE W H MED & SURG FD ED", "city": "ITHACA", "state": "NY", "zip": "14851-6437", "ntee": "", "ruling": "000000", "deductibility": "1", "assets": 369991, "income": 433752, "revenue": 0}, {"ein": "883327187", "name": "GOLISANO BUSINESS COE INC", "city": "ROCHESTER", "state": "NY", "zip": "14620-4648", "ntee": "B40", "ruling": "202303", "deductibility": "1", "assets": 19856539, "income": 13016581, "revenue": 13016581}], "SPIONKOP": [{"ein": "137087319", "name": "SPIONKOP CHARITABLE TR", "city": "NEW YORK", "state": "NY", "zip": "10017-2023", "ntee": "T21J", "ruling": "199702", "deductibility": "1", "assets": 3246937, "income": 183498, "revenue": 0}], "GIGANTE": [{"ein": "137218535", "name": "YOLANDA AND SALVATORE GIGANTE CHARITABLE FOUNDATION TR", "city": "NEW YORK", "state": "NY", "zip": "10012-2003", "ntee": "T20", "ruling": "199912", "deductibility": "1", "assets": 659376, "income": 103325, "revenue": 0}], "POLICYHOLDERS": [{"ein": "137305782", "name": "POLICYHOLDERS TR 2001", "city": "NEW YORK", "state": "NY", "zip": "10022-7764", "ntee": "E19", "ruling": "200302", "deductibility": "1", "assets": 10832, "income": 10000, "revenue": 10000}], "MIDDLEHOPE": [{"ein": "141375556", "name": "MIDDLEHOPE FIRE CO INC", "city": "NEWBURGH", "state": "NY", "zip": "12550-1227", "ntee": "M24Z", "ruling": "198805", "deductibility": "2", "assets": 1215939, "income": 127289, "revenue": 62563}], "WILDER": [{"ein": "141694262", "name": "ALMANZO AND LAURA INGALLS WILDER ASSOCIATION", "city": "MALONE", "state": "NY", "zip": "12953-0283", "ntee": "T22Z", "ruling": "198710", "deductibility": "1", "assets": 428197, "income": 92865, "revenue": 77113}, {"ein": "160763708", "name": "FRIENDS OF ALEC WILDER INC", "city": "BROOKLYN", "state": "NY", "zip": "11215-7301", "ntee": "A68", "ruling": "202202", "deductibility": "1", "assets": 0, "income": 0, "revenue": 0}, {"ein": "464463368", "name": "COMMUNITY MIKVAH OF WILDER", "city": "SUFFERN", "state": "NY", "zip": "10901-2409", "ntee": "Z99", "ruling": "201408", "deductibility": "1", "assets": 545295, "income": 26152, "revenue": 26152}, {"ein": "475458062", "name": "LILYAN WILDER GROUP", "city": "BROOKLYN", "state": "NY", "zip": "11234-5663", "ntee": "T20", "ruling": "201604", "deductibility": "1", "assets": 1687936, "income": 1024253, "revenue": 0}, {"ein": "542080333", "name": "LILYAN WILDER CENTER FOR COMMUNICATION EXCELLENCE INC", "city": "BROOKLYN", "state": "NY", "zip": "11234-0000", "ntee": "B60", "ruling": "201204", "deductibility": "1", "assets": 1, "income": 1, "revenue": 0}], "LURIA": [{"ein": "142005770", "name": "LURIA ACADEMY OF BROOKLYN", "city": "BROOKLYN", "state": "NY", "zip": "11238-3530", "ntee": "B20", "ruling": "200906", "deductibility": "1", "assets": 47073571, "income": 16125392, "revenue": 16125392}], "CALCUTTA": [{"ein": "160758595", "name": "BLESSED MOTHER TERESA OF CALCUTTA", "city": "DEPEW", "state": "NY", "zip": "14043-3213", "ntee": "", "ruling": "194603", "deductibility": "1", "assets": 0, "income": 0, "revenue": 0}], "LAUNCH": [{"ein": "160877690", "name": "TONAWANDA ISLAND LAUNCH CLUB INC", "city": "TONAWANDA", "state": "NY", "zip": "14151-0003", "ntee": "", "ruling": "196912", "deductibility": "2", "assets": 159075, "income": 100234, "revenue": 100234}, {"ein": "201724036", "name": "LAUNCH NO5 HUDSON RIVER ENVIROMENTAL AND SAFETY FOUND INC", "city": "OSSINING", "state": "NY", "zip": "10562-2008", "ntee": "C99", "ruling": "201405", "deductibility": "1", "assets": 0, "income": 0, "revenue": 0}, {"ein": "452442373", "name": "LAUNCH EXPEDITIONARY LEARNING CHARTER SCHOOL", "city": "BROOKLYN", "state": "NY", "zip": "11213-1713", "ntee": "B29", "ruling": "201110", "deductibility": "1", "assets": 3599356, "income": 7715432, "revenue": 7715432}, {"ein": "453980649", "name": "LAUNCH NEW YORK INC", "city": "BUFFALO", "state": "NY", "zip": "14203-1243", "ntee": "S43", "ruling": "201302", "deductibility": "1", "assets": 11956487, "income": 3799599, "revenue": 3799599}, {"ein": "815427825", "name": "HARLEM LAUNCH ALLIANCE INC", "city": "FARMINGDALE", "state": "NY", "zip": "11735-1826", "ntee": "B82", "ruling": "201711", "deductibility": "1", "assets": 4351, "income": 2574, "revenue": 2574}, {"ein": "830601357", "name": "LAUNCH NJ", "city": "WHITE PLAINS", "state": "NY", "zip": "10603-1232", "ntee": "", "ruling": "199112", "deductibility": "1", "assets": 0, "income": 0, "revenue": 0}], "FOURSQUARE": [{"ein": "161189072", "name": "UTICA FOURSQUARE CHURCH", "city": "UTICA", "state": "NY", "zip": "13502-5117", "ntee": "", "ruling": "194910", "deductibility": "1", "assets": 0, "income": 0, "revenue": 0}, {"ein": "260105474", "name": "NEW ROCHELLE BRAZILIAN FOURSQUARE CHURCH", "city": "MOUNT VERNON", "state": "NY", "zip": "10552-3312", "ntee": "", "ruling": "194910", "deductibility": "1", "assets": 0, "income": 0, "revenue": 0}, {"ein": "260136606", "name": "QUEENS MORNING STAR FOURSQUARE CHURCH", "city": "BRIARWOOD", "state": "NY", "zip": "11435-5422", "ntee": "", "ruling": "194910", "deductibility": "1", "assets": 0, "income": 0, "revenue": 0}, {"ein": "474418587", "name": "INTERNATIONAL CHURCH OF THE FOURSQUARE GOSPEL", "city": "BRONX", "state": "NY", "zip": "10471-4022", "ntee": "X20", "ruling": "194910", "deductibility": "1", "assets": 0, "income": 0, "revenue": 0}, {"ein": "813181449", "name": "BAY RIDGE NY FOURSQUARE CHURCH", "city": "STATEN ISLAND", "state": "NY", "zip": "10306-4912", "ntee": "", "ruling": "194910", "deductibility": "1", "assets": 0, "income": 0, "revenue": 0}, {"ein": "814324859", "name": "BROOKLYN 2 NY FOURSQUARE CHURCH", "city": "BROOKLYN", "state": "NY", "zip": "11202-8332", "ntee": "", "ruling": "194910", "deductibility": "1", "assets": 0, "income": 0, "revenue": 0}, {"ein": "815064441", "name": "EAST QUEENS NY FOURSQUARE CHURCH", "city": "MINEOLA", "state": "NY", "zip": "11501-1118", "ntee": "", "ruling": "194910", "deductibility": "1", "assets": 0, "income": 0, "revenue": 0}, {"ein": "815088111", "name": "WOODSIDE NY FOURSQUARE CHURCH", "city": "WOODSIDE", "state": "NY", "zip": "11377-2804", "ntee": "", "ruling": "194910", "deductibility": "1", "assets": 0, "income": 0, "revenue": 0}, {"ein": "830495714", "name": "FULTON FOURSQUARE SIMPLE CHURCH NETWORK", "city": "FULTON", "state": "NY", "zip": "13069-4182", "ntee": "", "ruling": "194910", "deductibility": "1", "assets": 0, "income": 0, "revenue": 0}, {"ein": "900622289", "name": "NEW YORK CITY DREAM CENTER FOURSQUARE CHURCH", "city": "NEW YORK", "state": "NY", "zip": "10029-9600", "ntee": "", "ruling": "194910", "deductibility": "1", "assets": 0, "income": 0, "revenue": 0}, {"ein": "943131586", "name": "DANSVILLE FOURSQUARE CHURCH", "city": "DANSVILLE", "state": "NY", "zip": "14437-1439", "ntee": "", "ruling": "194910", "deductibility": "1", "assets": 0, "income": 0, "revenue": 0}], "FINNEY": [{"ein": "161422818", "name": "CHARLES G FINNEY HIGH SCHOOL INC", "city": "PENFIELD", "state": "NY", "zip": "14526-1450", "ntee": "", "ruling": "199907", "deductibility": "1", "assets": 0, "income": 0, "revenue": 0}], "WHEDON": [{"ein": "166069657", "name": "LEE-WHEDON MEMORIAL LIBRARY", "city": "MEDINA", "state": "NY", "zip": "14103-1532", "ntee": "B71Z", "ruling": "196609", "deductibility": "1", "assets": 643325, "income": 652233, "revenue": 652233}], "NIMMONSBURG": [{"ein": "166093624", "name": "NIMMONSBURG ROTARY CLUB INC", "city": "CHENANGO BRG", "state": "NY", "zip": "13745-0075", "ntee": "", "ruling": "201211", "deductibility": "2", "assets": 0, "income": 0, "revenue": 0}, {"ein": "237339664", "name": "NIMMONSBURG ROTARY DR ROBERT W SMITH MEMORIAL FOUNDATION", "city": "CHENANGO BRG", "state": "NY", "zip": "13745-0075", "ntee": "", "ruling": "197402", "deductibility": "1", "assets": 610224, "income": 48690, "revenue": 26094}], "HARRISVILLE": [{"ein": "166159288", "name": "HARRISVILLE VOLUNTEER FIRE DEPT", "city": "HARRISVILLE", "state": "NY", "zip": "13648-0051", "ntee": "M24", "ruling": "201904", "deductibility": "1", "assets": 241267, "income": 260905, "revenue": 186846}, {"ein": "300260836", "name": "HARRISVILLE LITTLE LEAGUE INC", "city": "HARRISVILLE", "state": "NY", "zip": "13648-0000", "ntee": "N63", "ruling": "200703", "deductibility": "1", "assets": 0, "income": 0, "revenue": 0}, {"ein": "562401320", "name": "HARRISVILLE RESCUE SQUAD", "city": "HARRISVILLE", "state": "NY", "zip": "13648-2210", "ntee": "M23", "ruling": "201704", "deductibility": "1", "assets": 271259, "income": 74839, "revenue": 74839}], "PLESSIS": [{"ein": "201846363", "name": "PLESSIS CHURCH HOUSE SPIRITUAL REJUVENATION CENTER", "city": "PLESSIS", "state": "NY", "zip": "13675-0041", "ntee": "X21", "ruling": "200603", "deductibility": "1", "assets": 0, "income": 0, "revenue": 0}], "GAYNES": [{"ein": "201875731", "name": "CHILLIN WITH ADAM THE ADAM GAYNES FOUNDATION INC", "city": "MELVILLE", "state": "NY", "zip": "11747-2027", "ntee": "E86", "ruling": "200702", "deductibility": "1", "assets": 183062, "income": 209365, "revenue": 209365}], "SAFARIS": [{"ein": "204976317", "name": "CONCRETE SAFARIS INC", "city": "NEW YORK", "state": "NY", "zip": "10029-2025", "ntee": "O50", "ruling": "200610", "deductibility": "1", "assets": 277145, "income": 893190, "revenue": 870210}], "CONFERENCEASSOCIATION": [{"ein": "208483688", "name": "EASTERN CLAIMS CONFERENCEASSOCIATION INC", "city": "GLENDALE", "state": "NY", "zip": "11385-6260", "ntee": "S41", "ruling": "200712", "deductibility": "2", "assets": 114070, "income": 100832, "revenue": 100832}], "SALLIEANN": [{"ein": "236877116", "name": "LENA HOFFMASTER TW FBO SALLIEANN GRAEFF", "city": "BUFFALO", "state": "NY", "zip": "14240-1504", "ntee": "T90", "ruling": "200206", "deductibility": "1", "assets": 201218, "income": 67186, "revenue": 0}], "MODELING": [{"ein": "237149851", "name": "ROCHESTER AERO-MODELING SOCIETY INC", "city": "MACEDON", "state": "NY", "zip": "14502-0064", "ntee": "", "ruling": "197206", "deductibility": "2", "assets": 0, "income": 0, "revenue": 0}, {"ein": "830472440", "name": "ARMOR MODELING AND PRESERVATION SOCIETY INC", "city": "ELMA", "state": "NY", "zip": "14059-0373", "ntee": "B60", "ruling": "201102", "deductibility": "2", "assets": 0, "income": 0, "revenue": 0}, {"ein": "990723468", "name": "CONFERENCE ON LANGUAGE MODELING INC", "city": "BROOKLYN", "state": "NY", "zip": "11211-3464", "ntee": "V20", "ruling": "202403", "deductibility": "1", "assets": 0, "income": 0, "revenue": 0}], "HAMIDRASH": [{"ein": "237207679", "name": "BETH HAMIDRASH HARAV MSOSNOWITZ", "city": "BROOKLYN", "state": "NY", "zip": "11213-5127", "ntee": "", "ruling": "196902", "deductibility": "1", "assets": 0, "income": 0, "revenue": 0}], "SHANKARACHARYA": [{"ein": "237313798", "name": "HOLY SHANKARACHARYA ORDER", "city": "ROCHESTER", "state": "NY", "zip": "14623-1818", "ntee": "", "ruling": "198003", "deductibility": "1", "assets": 0, "income": 0, "revenue": 0}], "MCEWEN": [{"ein": "237852050", "name": "MCEWEN FAMILY FOUNDATION", "city": "MERRICK", "state": "NY", "zip": "11566-0000", "ntee": "T22Z", "ruling": "199610", "deductibility": "1", "assets": 266943, "income": 360867, "revenue": 0}], "RACHETES": [{"ein": "260377632", "name": "EGLISE BATPTISTE DES RACHETES DUCHRIST INC", "city": "STATEN ISLAND", "state": "NY", "zip": "10304-2226", "ntee": "X21", "ruling": "200803", "deductibility": "1", "assets": 0, "income": 0, "revenue": 0}], "BREATHE": [{"ein": "261862198", "name": "JUST BREATHE TOMORROWS", "city": "BINGHAMTON", "state": "NY", "zip": "13905-3095", "ntee": "T31", "ruling": "202406", "deductibility": "1", "assets": 0, "income": 0, "revenue": 0}, {"ein": "261995364", "name": "BREATHE EASY PLAY HARD FOUNDATION INC", "city": "NEW YORK", "state": "NY", "zip": "10065-9175", "ntee": "P20", "ruling": "200807", "deductibility": "1", "assets": 0, "income": 0, "revenue": 0}, {"ein": "274015711", "name": "BREATHE BELIEVE", "city": "WESTBURY", "state": "NY", "zip": "11590-4437", "ntee": "T30", "ruling": "201201", "deductibility": "1", "assets": 79153, "income": 0, "revenue": 0}, {"ein": "464014940", "name": "JUST BREATHE FOUNDATION", "city": "SPENCERPORT", "state": "NY", "zip": "14559-1500", "ntee": "T30", "ruling": "201504", "deductibility": "1", "assets": 67834, "income": 5308, "revenue": 5308}, {"ein": "814302675", "name": "JES BREATHE CANCER AWARENESS GROUP INC", "city": "BUFFALO", "state": "NY", "zip": "14211-1309", "ntee": "G19", "ruling": "202309", "deductibility": "1", "assets": 0, "income": 0, "revenue": 0}, {"ein": "824384607", "name": "BREATHE HOPE INC", "city": "WHITE PLAINS", "state": "NY", "zip": "10603-1205", "ntee": "P84", "ruling": "202204", "deductibility": "1", "assets": 1, "income": 0, "revenue": 0}, {"ein": "824673181", "name": "BREATHE LIFE OF WNY", "city": "BROCTON", "state": "NY", "zip": "14716-0000", "ntee": "F60", "ruling": "201905", "deductibility": "1", "assets": 139981, "income": 315147, "revenue": 114720}, {"ein": "874154994", "name": "BREATHE GLOBAL FOUNDATION INC", "city": "NEW YORK", "state": "NY", "zip": "10002-5442", "ntee": "E01", "ruling": "202310", "deductibility": "1", "assets": 15258, "income": 1000, "revenue": 1000}, {"ein": "874726819", "name": "KIDS WHO BREATHE INC", "city": "NEW YORK", "state": "NY", "zip": "10023-5981", "ntee": "O01", "ruling": "202203", "deductibility": "1", "assets": 0, "income": 0, "revenue": 0}, {"ein": "883313916", "name": "JUST BREATHE WITH RENEE INC", "city": "DE KALB JCT", "state": "NY", "zip": "13630-3192", "ntee": "P99", "ruling": "202309", "deductibility": "1", "assets": 0, "income": 0, "revenue": 0}], "EB": [{"ein": "263120479", "name": "EB PACKARD HOSE COMPANY", "city": "CAMPBELL", "state": "NY", "zip": "14821-0226", "ntee": "M23", "ruling": "202003", "deductibility": "1", "assets": 0, "income": 0, "revenue": 0}, {"ein": "272417202", "name": "EB RESEARCH PARTNERSHIP INC", "city": "NEW YORK", "state": "NY", "zip": "10016-2817", "ntee": "G80", "ruling": "201103", "deductibility": "1", "assets": 24668019, "income": 8423716, "revenue": 7430625}, {"ein": "824788888", "name": "PRIMERA IGLESIA EB KICHWA SINAI 8903", "city": "RIDGEWOOD", "state": "NY", "zip": "11385-4921", "ntee": "X20", "ruling": "201906", "deductibility": "1", "assets": 0, "income": 0, "revenue": 0}, {"ein": "852109316", "name": "EB CHARITABLE FOUNDATION INC", "city": "FLUSHING", "state": "NY", "zip": "11354-5116", "ntee": "P99", "ruling": "202010", "deductibility": "1", "assets": 1822093, "income": 1072847, "revenue": 1072847}], "JANKOWSKI": [{"ein": "271194911", "name": "RON JANKOWSKI 92 ENGINE MEMORIAL FUND", "city": "BRIARCLIFF", "state": "NY", "zip": "10510-0461", "ntee": "M40", "ruling": "201007", "deductibility": "1", "assets": 28064, "income": 13578, "revenue": 3575}], "RIGHTEOUSNESS": [{"ein": "273277616", "name": "LORD OUR RIGHTEOUSNESS WORSHIP CENTER", "city": "ARVERNE", "state": "NY", "zip": "11692-1849", "ntee": "X21", "ruling": "201104", "deductibility": "1", "assets": 0, "income": 0, "revenue": 0}, {"ein": "813850483", "name": "OAKS OF RIGHTEOUSNESS ORPHANAGE INC", "city": "BROOKLYN", "state": "NY", "zip": "11208-1227", "ntee": "P30", "ruling": "201701", "deductibility": "1", "assets": 85655, "income": 16945, "revenue": 16945}, {"ein": "814938908", "name": "CENTER FOR RIGHTEOUSNESS AND INTEGRITY INC", "city": "LAWRENCE", "state": "NY", "zip": "11559-1409", "ntee": "A23", "ruling": "201703", "deductibility": "1", "assets": 2936083, "income": 3001113, "revenue": 0}], "ANGELAS": [{"ein": "273470531", "name": "ANGELAS HOUSE FOUNDATION", "city": "MANORVILLE", "state": "NY", "zip": "11949-9604", "ntee": "P12", "ruling": "201905", "deductibility": "1", "assets": 1696314, "income": 1858313, "revenue": 1665812}, {"ein": "943465240", "name": "ANGELAS FELINES", "city": "WOODSIDE", "state": "NY", "zip": "11377-4802", "ntee": "D20", "ruling": "200907", "deductibility": "1", "assets": 0, "income": 0, "revenue": 0}], "YFT": [{"ein": "273710373", "name": "YFT", "city": "UNIONDALE", "state": "NY", "zip": "11553-1832", "ntee": "N62", "ruling": "201408", "deductibility": "1", "assets": 0, "income": 0, "revenue": 0}], "HODNICKI": [{"ein": "276826404", "name": "HODNICKI FAMILY SCHOLARSHIP TRUST", "city": "BUFFALO", "state": "NY", "zip": "14240-1504", "ntee": "B82", "ruling": "201104", "deductibility": "1", "assets": 1623411, "income": 546609, "revenue": 0}], "ADMISSION": [{"ein": "300170683", "name": "NEW YORK STATE ASSOCIATION FOR COLLEGE ADMISSION COUNSELING INC", "city": "RED HOOK", "state": "NY", "zip": "12571-1311", "ntee": "B19", "ruling": "200307", "deductibility": "1", "assets": 1606280, "income": 727509, "revenue": 550617}], "LITTLEST": [{"ein": "300424799", "name": "THE LITTLEST LAMB", "city": "RYE", "state": "NY", "zip": "10580-0592", "ntee": "Q33", "ruling": "200709", "deductibility": "1", "assets": 2163408, "income": 1155145, "revenue": 611247}, {"ein": "334551615", "name": "LITTLEST PEANUT GALLERY CORPORATION", "city": "NEW YORK", "state": "NY", "zip": "10017-3549", "ntee": "A20", "ruling": "202506", "deductibility": "1", "assets": 0, "income": 0, "revenue": 0}], "SMOKE": [{"ein": "300580814", "name": "CONSUMER AVOCATES FOR SMOKE FREE ALTERNATIVES ASSOCIATION INC", "city": "PLATTSBURGH", "state": "NY", "zip": "12903-3900", "ntee": "F52", "ruling": "201305", "deductibility": "2", "assets": 71698, "income": 120581, "revenue": 120581}, {"ein": "814006968", "name": "NO GUN SMOKE SCHOOL TOUR INC", "city": "BROOKLYN", "state": "NY", "zip": "11233-1207", "ntee": "W99", "ruling": "201612", "deductibility": "1", "assets": 0, "income": 0, "revenue": 0}, {"ein": "923362031", "name": "SMOKE ATHLETICS INC", "city": "ALBANY", "state": "NY", "zip": "12207-1529", "ntee": "O50", "ruling": "202402", "deductibility": "1", "assets": 0, "income": 0, "revenue": 0}, {"ein": "994216888", "name": "SMOKE & MIRRORS COLLABORATIVE INC", "city": "BROOKLYN", "state": "NY", "zip": "11238-5747", "ntee": "A60", "ruling": "202408", "deductibility": "1", "assets": 0, "income": 0, "revenue": 0}], "COORDINATORS": [{"ein": "331131361", "name": "NEW YORK STATE ASSOCIATION OF RESIDENT SERVICE COORDINATORS", "city": "ROCHESTER", "state": "NY", "zip": "14626-0651", "ntee": "L20", "ruling": "201902", "deductibility": "1", "assets": 0, "income": 0, "revenue": 0}, {"ein": "462640890", "name": "NEW YORK STATE 911 COORDINATORS ASSOCIATION INC", "city": "BUFFALO", "state": "NY", "zip": "14203-2600", "ntee": "M03", "ruling": "201610", "deductibility": "1", "assets": 128978, "income": 103167, "revenue": 103167}, {"ein": "510141489", "name": "HOUSING CONSERVATION COORDINATORS INC", "city": "NEW YORK", "state": "NY", "zip": "10019-5027", "ntee": "I81Z", "ruling": "197602", "deductibility": "1", "assets": 6853817, "income": 5854635, "revenue": 5798444}], "MANAH": [{"ein": "331846301", "name": "CONGREGATION MANAH SIMCHA", "city": "BROOKLYN", "state": "NY", "zip": "11249-6642", "ntee": "X30", "ruling": "202501", "deductibility": "1", "assets": 0, "income": 0, "revenue": 0}], "SOIREE": [{"ein": "331871120", "name": "SOUL SOIREE FOUNDATION INC", "city": "NEW YORK", "state": "NY", "zip": "10024-5805", "ntee": "A20", "ruling": "202412", "deductibility": "1", "assets": 0, "income": 0, "revenue": 0}], "PLUS421": [{"ein": "331921192", "name": "PLUS421", "city": "LONG IS CITY", "state": "NY", "zip": "11101-5433", "ntee": "A23", "ruling": "202412", "deductibility": "1", "assets": 0, "income": 0, "revenue": 0}], "MARKAZI": [{"ein": "332090534", "name": "SAMARKAND MILLIY MARKAZI INC", "city": "FRESH MEADOWS", "state": "NY", "zip": "11365-3774", "ntee": "X99", "ruling": "202502", "deductibility": "1", "assets": 0, "income": 0, "revenue": 0}], "ROES": [{"ein": "332167526", "name": "HUDSON VALLEY HIE-ROES FOR HIE INC", "city": "SAUGERTIES", "state": "NY", "zip": "12477-3462", "ntee": "R23", "ruling": "202502", "deductibility": "1", "assets": 1, "income": 0, "revenue": 0}], "BAGS": [{"ein": "332450155", "name": "NANAS TOTE BAGS INC", "city": "HOLTSVILLE", "state": "NY", "zip": "11742-1930", "ntee": "P01", "ruling": "202501", "deductibility": "1", "assets": 0, "income": 0, "revenue": 0}, {"ein": "453266551", "name": "FIFTY BAGS OF CHIPS", "city": "ST JAMES", "state": "NY", "zip": "11780-1414", "ntee": "T50", "ruling": "201510", "deductibility": "1", "assets": 1718, "income": 4292, "revenue": 4292}], "BESTE": [{"ein": "334080814", "name": "MC BESTE SCHOLARSHIP FUND INC", "city": "SILVER BAY", "state": "NY", "zip": "12874-2019", "ntee": "B82", "ruling": "202505", "deductibility": "1", "assets": 0, "income": 0, "revenue": 0}], "BARRELS": [{"ein": "334310239", "name": "BARRELS OF JOY INC", "city": "W HEMPSTEAD", "state": "NY", "zip": "11552-3316", "ntee": "K30", "ruling": "202505", "deductibility": "1", "assets": 0, "income": 0, "revenue": 0}], "UHAI": [{"ein": "352618978", "name": "UHAI EASHRI USA INC", "city": "NEW YORK", "state": "NY", "zip": "10019-6262", "ntee": "P20", "ruling": "201903", "deductibility": "1", "assets": 764167, "income": 300424, "revenue": 300424}], "KONA": [{"ein": "450571263", "name": "KONA FOUNDATION INC", "city": "NEW YORK", "state": "NY", "zip": "10122-0000", "ntee": "T200", "ruling": "200805", "deductibility": "1", "assets": 2010048, "income": 1131499, "revenue": 0}, {"ein": "874041508", "name": "KONA DONATION INC", "city": "NEW YORK", "state": "NY", "zip": "10036-4136", "ntee": "K30", "ruling": "202409", "deductibility": "1", "assets": 0, "income": 0, "revenue": 0}], "PM": [{"ein": "451780023", "name": "FRIENDS OF PM", "city": "ITHACA", "state": "NY", "zip": "14850-5543", "ntee": "A33", "ruling": "201302", "deductibility": "1", "assets": 18224, "income": 16087, "revenue": 16087}, {"ein": "455488111", "name": "PGM CHARLES MCGARRAH & PM GEORGE HARRIS SR SCHOLARSHIP FOUNDATION I", "city": "BUFFALO", "state": "NY", "zip": "14208-2015", "ntee": "B12", "ruling": "201811", "deductibility": "1", "assets": 0, "income": 0, "revenue": 0}], "ENKAT": [{"ein": "454953452", "name": "CONG ENKAT ASIR EZRAS ROCHEL INC", "city": "BROOKLYN", "state": "NY", "zip": "11219-3421", "ntee": "X30", "ruling": "201309", "deductibility": "1", "assets": 0, "income": 0, "revenue": 0}], "LAAMB": [{"ein": "461728918", "name": "LAAMB FAMILY SERVICES INC", "city": "NEW YORK", "state": "NY", "zip": "10021-0008", "ntee": "L40", "ruling": "201409", "deductibility": "1", "assets": 0, "income": 0, "revenue": 0}], "MILHAMTA": [{"ein": "462472379", "name": "MILHAMTA SHEL TORAH", "city": "BROOKLYN", "state": "NY", "zip": "11230-4004", "ntee": "X50", "ruling": "201505", "deductibility": "1", "assets": 0, "income": 0, "revenue": 0}], "LEARNER": [{"ein": "463576125", "name": "THE CENTER FOR LEARNER EQUITY INC", "city": "NEW YORK", "state": "NY", "zip": "10170-0002", "ntee": "B28", "ruling": "201407", "deductibility": "1", "assets": 4442096, "income": 709224, "revenue": 709224}], "MOHAPATRA": [{"ein": "464347632", "name": "MOHAPATRA FAMILY FOUNDATION INC", "city": "ALBANY", "state": "NY", "zip": "12212-5201", "ntee": "W99", "ruling": "201406", "deductibility": "1", "assets": 5319915, "income": 2077418, "revenue": 0}], "REEM": [{"ein": "464657422", "name": "AMERICAN FRIENDS OF YESHIVAT BNEI REEM", "city": "BROOKLYN", "state": "NY", "zip": "11223-2223", "ntee": "B12", "ruling": "201407", "deductibility": "1", "assets": 24907, "income": 141589, "revenue": 141589}], "MOINIAN": [{"ein": "471035983", "name": "NAZEE & JOSEPH MOINIAN FOUNDATION", "city": "NEW YORK", "state": "NY", "zip": "10019-8760", "ntee": "T20", "ruling": "201502", "deductibility": "1", "assets": 1, "income": 99670, "revenue": 0}], "CURIOSITY": [{"ein": "472000182", "name": "CENTER FOR CURIOSITY INC", "city": "NEW YORK", "state": "NY", "zip": "10036-3201", "ntee": "B99", "ruling": "201505", "deductibility": "1", "assets": 1102026, "income": 856648, "revenue": 409004}, {"ein": "472376862", "name": "CURIOSITY CABINET", "city": "BROOKLYN", "state": "NY", "zip": "11218-6006", "ntee": "A60", "ruling": "201412", "deductibility": "1", "assets": 0, "income": 0, "revenue": 0}], "FURRR": [{"ein": "472892478", "name": "FURRR 911", "city": "CROMPOND", "state": "NY", "zip": "10517-0645", "ntee": "D20", "ruling": "201503", "deductibility": "1", "assets": 0, "income": 0, "revenue": 0}], "MS177": [{"ein": "473804696", "name": "YORKVILLE EAST MS177 PTA INC", "city": "NEW YORK", "state": "NY", "zip": "10075-8815", "ntee": "B94", "ruling": "201505", "deductibility": "1", "assets": 0, "income": 0, "revenue": 0}], "CONSTITUTION": [{"ein": "510243889", "name": "CONSTITUTION ISLAND ASSOCIATION INC", "city": "COLD SPRING", "state": "NY", "zip": "10516-0126", "ntee": "A82Z", "ruling": "196705", "deductibility": "1", "assets": 57184, "income": 34434, "revenue": 34434}], "VICTORIAN": [{"ein": "522206962", "name": "THE VICTORIAN HANDS FOUNDATION", "city": "BROOKLYN", "state": "NY", "zip": "11225-2713", "ntee": "P81", "ruling": "200504", "deductibility": "1", "assets": 0, "income": 0, "revenue": 0}], "ALLSTADT": [{"ein": "542014941", "name": "ALLSTADT HARDIN FOUNDATION", "city": "COOPERSTOWN", "state": "NY", "zip": "13326-1331", "ntee": "T22", "ruling": "200107", "deductibility": "1", "assets": 1061525, "income": 55190, "revenue": 0}], "HIDING": [{"ein": "562550383", "name": "STOP HIDING INC", "city": "BROOKLYN", "state": "NY", "zip": "11236-3119", "ntee": "O50", "ruling": "202204", "deductibility": "1", "assets": 0, "income": 0, "revenue": 0}], "BURD": [{"ein": "810814769", "name": "BURD FAMILY FOUNDATION", "city": "FARMINGDALE", "state": "NY", "zip": "11735-4706", "ntee": "T20", "ruling": "201601", "deductibility": "1", "assets": 506781, "income": 76448, "revenue": 0}], "VYETEN": [{"ein": "811382856", "name": "VYETEN LECHU INC", "city": "BROOKLYN", "state": "NY", "zip": "11206-5747", "ntee": "P20", "ruling": "201605", "deductibility": "1", "assets": 0, "income": 0, "revenue": 0}], "POMPEII": [{"ein": "812453730", "name": "ROMAN CATHOLIC CHURCH OF SACRED HEART AND OUR LADY OF POMPEII", "city": "DOBBS FERRY", "state": "NY", "zip": "10522-2302", "ntee": "", "ruling": "194603", "deductibility": "1", "assets": 0, "income": 0, "revenue": 0}], "RIDNIK": [{"ein": "813251657", "name": "CONGREGATION OF RIDNIK", "city": "AIRMONT", "state": "NY", "zip": "10952-4736", "ntee": "X30", "ruling": "201610", "deductibility": "1", "assets": 0, "income": 0, "revenue": 0}], "SYDNEYS": [{"ein": "814653779", "name": "SYDNEYS SMILES", "city": "LIDO BEACH", "state": "NY", "zip": "11561-5101", "ntee": "P99", "ruling": "201705", "deductibility": "1", "assets": 0, "income": 0, "revenue": 0}], "MAIGA": [{"ein": "821925079", "name": "HAMCHETOU MAIGA-BA FOUNDATION", "city": "VALLEY STREAM", "state": "NY", "zip": "11581-2331", "ntee": "O20", "ruling": "201707", "deductibility": "1", "assets": 0, "income": 0, "revenue": 0}], "HAUER": [{"ein": "822670273", "name": "A&E HAUER FAMILY FOUNDATION", "city": "BROOKLYN", "state": "NY", "zip": "11211-7911", "ntee": "T20", "ruling": "201803", "deductibility": "1", "assets": 1981855, "income": 422000, "revenue": 0}], "PERSECUTION": [{"ein": "823004277", "name": "WORLD ORGANIZATION TO INVESTIGATE THE PERSECUTION OF FALUN GONG INC", "city": "NEW YORK", "state": "NY", "zip": "10116-0084", "ntee": "V25", "ruling": "201909", "deductibility": "1", "assets": 49576, "income": 4871, "revenue": 4871}, {"ein": "831519561", "name": "THE ASSOCIATION AGAINST RELIGIOUS PERSECUTION INC", "city": "FLUSHING", "state": "NY", "zip": "11355-1710", "ntee": "X20", "ruling": "201904", "deductibility": "1", "assets": 0, "income": 0, "revenue": 0}], "CHIAN": [{"ein": "823527568", "name": "CHIAN CHARITABLE FOUNDATION INC", "city": "WHITESTONE", "state": "NY", "zip": "11357-4057", "ntee": "T12", "ruling": "201812", "deductibility": "1", "assets": 0, "income": 0, "revenue": 0}], "MDAM": [{"ein": "823632778", "name": "MY DAUGHTERS AND ME MDAM", "city": "SCHENECTADY", "state": "NY", "zip": "12307-1311", "ntee": "P28", "ruling": "202404", "deductibility": "1", "assets": 0, "income": 0, "revenue": 0}], "UNBOXED": [{"ein": "824246631", "name": "UNBOXED INC", "city": "S OZONE PARK", "state": "NY", "zip": "11420-1906", "ntee": "E80", "ruling": "201904", "deductibility": "1", "assets": 0, "income": 0, "revenue": 0}], "LESSOW": [{"ein": "826961145", "name": "HERBERT AND PATRICIA LESSOW CHARITABLE FOUNDATION", "city": "NEW YORK", "state": "NY", "zip": "10128-1176", "ntee": "T20", "ruling": "201811", "deductibility": "1", "assets": 95771, "income": 16, "revenue": 0}], "ANCOR": [{"ein": "830479062", "name": "THE ANCOR FOUNDATION", "city": "SYRACUSE", "state": "NY", "zip": "13204-1444", "ntee": "X20", "ruling": "200711", "deductibility": "1", "assets": 0, "income": 0, "revenue": 0}], "YV": [{"ein": "831858478", "name": "YV EDUCATIONAL RESOURCES INC", "city": "FARMINGVILLE", "state": "NY", "zip": "11738-3028", "ntee": "B01", "ruling": "201809", "deductibility": "1", "assets": 0, "income": 0, "revenue": 0}], "BG": [{"ein": "831862926", "name": "BG BETANCES HOUSING DEVELOPMENT FUND CORPORATION", "city": "NEW YORK", "state": "NY", "zip": "10018-6550", "ntee": "L19", "ruling": "202008", "deductibility": "1", "assets": 1, "income": 0, "revenue": 0}, {"ein": "832961401", "name": "BG CHARITABLE FOUNDATION", "city": "NEW YORK", "state": "NY", "zip": "10022-4784", "ntee": "K30", "ruling": "201905", "deductibility": "1", "assets": 1604298, "income": 250599, "revenue": 0}, {"ein": "844615973", "name": "CONGREGATION AVODAS YISROEL KOSNITZ OF BG INC", "city": "MONROE", "state": "NY", "zip": "10950-2308", "ntee": "X30", "ruling": "202012", "deductibility": "1", "assets": 0, "income": 0, "revenue": 0}, {"ein": "863307336", "name": "BG SUTPHIN HOUSING DEVELOPMENT FUND CORPORATION", "city": "NEW YORK", "state": "NY", "zip": "10018-6505", "ntee": "L20", "ruling": "202202", "deductibility": "1", "assets": 0, "income": 0, "revenue": 0}, {"ein": "874582615", "name": "BG FOUNDATION INC", "city": "STATEN ISLAND", "state": "NY", "zip": "10314-4863", "ntee": "J12", "ruling": "202203", "deductibility": "1", "assets": 1, "income": 0, "revenue": 0}, {"ein": "932505106", "name": "BG SACK WERN HOUSING DEVELOPMENT FUND CORPORATION", "city": "NEW YORK", "state": "NY", "zip": "10018-6550", "ntee": "L20", "ruling": "202501", "deductibility": "2", "assets": 0, "income": 0, "revenue": 0}], "ANIYEI": [{"ein": "832249974", "name": "CONGREGATION ANIYEI YISROEL", "city": "BROOKLYN", "state": "NY", "zip": "11211-8919", "ntee": "X30", "ruling": "201906", "deductibility": "1", "assets": 0, "income": 0, "revenue": 0}], "NARNIA": [{"ein": "832816620", "name": "NARNIA FOUNDATION FOR THE ARTS INC", "city": "HARTSDALE", "state": "NY", "zip": "10530-1903", "ntee": "A60", "ruling": "201902", "deductibility": "1", "assets": 0, "income": 0, "revenue": 0}], "CHALICE": [{"ein": "832964118", "name": "CHARITY FOUNDATION OF INEXHAUSTIBLE CHALICE INC", "city": "BROOKLYN", "state": "NY", "zip": "11235-3017", "ntee": "X20", "ruling": "201903", "deductibility": "1", "assets": 0, "income": 0, "revenue": 0}], "FLIP": [{"ein": "833184853", "name": "FLIP FAMILIES LIVING IN POVERTY", "city": "MENANDS", "state": "NY", "zip": "12204-2304", "ntee": "P40", "ruling": "201903", "deductibility": "1", "assets": 0, "income": 0, "revenue": 0}], "JLA": [{"ein": "841958198", "name": "JLA CHARITABLE FOUNDATION", "city": "BROOKLYN", "state": "NY", "zip": "11225-4404", "ntee": "P20", "ruling": "201908", "deductibility": "1", "assets": 335305, "income": 100000, "revenue": 0}], "RANKED": [{"ein": "842565657", "name": "COMMITTEE FOR RANKED CHOICE VOTING NYC INC", "city": "NEW YORK", "state": "NY", "zip": "10013-4020", "ntee": "S21", "ruling": "201912", "deductibility": "2", "assets": 0, "income": 0, "revenue": 0}], "FAKHRA": [{"ein": "843242511", "name": "INAM & FAKHRA HAQ FAMILY FOUNDATION INC", "city": "STATEN ISLAND", "state": "NY", "zip": "10308-2814", "ntee": "T20", "ruling": "202007", "deductibility": "1", "assets": 1371057, "income": 120930, "revenue": 0}], "ROSENSTOCK": [{"ein": "846957215", "name": "ROSENSTOCK FAMILY FOUNDATION", "city": "BROOKLYN", "state": "NY", "zip": "11218-3765", "ntee": "T22", "ruling": "202007", "deductibility": "1", "assets": 6015, "income": 1, "revenue": 0}], "HOTLINE": [{"ein": "851077071", "name": "MEN OF THE CLOTH HOTLINE INC", "city": "ROSEDALE", "state": "NY", "zip": "11422-2321", "ntee": "F40", "ruling": "202007", "deductibility": "1", "assets": 0, "income": 0, "revenue": 0}, {"ein": "882932290", "name": "CHRISTIANS IN CRISIS HOTLINE INC", "city": "ROSEDALE", "state": "NY", "zip": "11422-2321", "ntee": "F40", "ruling": "202208", "deductibility": "1", "assets": 0, "income": 0, "revenue": 0}], "ANTARCTIC": [{"ein": "852869784", "name": "ANTARCTIC CIRCLE INC", "city": "BUFFALO", "state": "NY", "zip": "14206-1111", "ntee": "W22", "ruling": "202111", "deductibility": "1", "assets": 82, "income": 13000, "revenue": 13000}], "SOU": [{"ein": "852990891", "name": "GREATER SYRACUSE SOUTHSIDE HOMEOWNERS ASSOCIATION PROJECT SOU", "city": "SYRACUSE", "state": "NY", "zip": "13205-0652", "ntee": "A23", "ruling": "202012", "deductibility": "1", "assets": 0, "income": 0, "revenue": 0}], "ZWEHILL": [{"ein": "853152053", "name": "CONGREGATION OF ZWEHILL", "city": "SPRING VALLEY", "state": "NY", "zip": "10977-4701", "ntee": "X30", "ruling": "202010", "deductibility": "1", "assets": 0, "income": 0, "revenue": 0}], "TRICIAS": [{"ein": "854055624", "name": "TRICIAS KIDS INC", "city": "FLORAL PARK", "state": "NY", "zip": "11001-3310", "ntee": "B90", "ruling": "202107", "deductibility": "1", "assets": 3317, "income": 19796, "revenue": 0}], "KAZS": [{"ein": "854117756", "name": "KAZS HEART 4 GRADS INC", "city": "PLAINVIEW", "state": "NY", "zip": "11803-3301", "ntee": "P32", "ruling": "202103", "deductibility": "1", "assets": 1, "income": 1, "revenue": 0}], "MENON": [{"ein": "854242459", "name": "MENON FAMILY FOUNDATION", "city": "NEW YORK", "state": "NY", "zip": "10004-1094", "ntee": "T22", "ruling": "202105", "deductibility": "1", "assets": 1269612, "income": 745587, "revenue": 0}], "SILVA": [{"ein": "861216408", "name": "SONIA SANOJA - ALFREDO SILVA ESTRADA FOUNDATION INC", "city": "ASTORIA", "state": "NY", "zip": "11102-2990", "ntee": "A20", "ruling": "202109", "deductibility": "1", "assets": 0, "income": 0, "revenue": 0}], "HANDICAPS": [{"ein": "862863661", "name": "HAITIAN HANDICAPS R US", "city": "FREEPORT", "state": "NY", "zip": "11520-2103", "ntee": "L03", "ruling": "202107", "deductibility": "1", "assets": 52526, "income": 52526, "revenue": 0}], "TIANLIANG": [{"ein": "862883919", "name": "TIANLIANG ALLIANCE INC", "city": "CUDDEBACKVLLE", "state": "NY", "zip": "12729-5206", "ntee": "P20", "ruling": "202108", "deductibility": "1", "assets": 1031996, "income": 863180, "revenue": 863180}], "MUNSEE": [{"ein": "863158648", "name": "RAMAPO MUNSEE LAND ALLIANCE INC", "city": "MONTEBELLO", "state": "NY", "zip": "10901-0000", "ntee": "A20", "ruling": "202303", "deductibility": "1", "assets": 330054, "income": 289080, "revenue": 289080}], "ARCTURUS": [{"ein": "871862399", "name": "ARCTURUS COMMUNITY ENDEAVORS INC", "city": "BROOKLYN", "state": "NY", "zip": "11237-4589", "ntee": "W01", "ruling": "202110", "deductibility": "1", "assets": 0, "income": 0, "revenue": 0}], "TIANFO": [{"ein": "872090625", "name": "AMERICAN TIANFO TEMPLE", "city": "BROOKLYN", "state": "NY", "zip": "11220-3611", "ntee": "X50", "ruling": "202206", "deductibility": "1", "assets": 0, "income": 0, "revenue": 0}], "YARMOHAMMADI": [{"ein": "872209872", "name": "YARMOHAMMADI FOUNDATION INC", "city": "NEW YORK", "state": "NY", "zip": "10021-3159", "ntee": "B12", "ruling": "202201", "deductibility": "1", "assets": 7716, "income": 3716, "revenue": 0}], "BRIDGER": [{"ein": "874045031", "name": "B BRIDGER H FOUNDATION", "city": "NEW YORK", "state": "NY", "zip": "10005-1101", "ntee": "T20", "ruling": "202401", "deductibility": "1", "assets": 12058685, "income": 5212663, "revenue": 0}], "AGRARIAN": [{"ein": "882674306", "name": "CATSKILLS AGRARIAN ALLIANCE INC", "city": "HAMDEN", "state": "NY", "zip": "13782-1118", "ntee": "K99", "ruling": "202302", "deductibility": "1", "assets": 357047, "income": 1408574, "revenue": 1408574}], "MENACE": [{"ein": "882907223", "name": "NY MENACE BALL HOCKEY INC", "city": "BOHEMIA", "state": "NY", "zip": "11716-2908", "ntee": "N70", "ruling": "202207", "deductibility": "1", "assets": 0, "income": 0, "revenue": 0}], "NY4WHALES": [{"ein": "900669533", "name": "NY4WHALES", "city": "YONKERS", "state": "NY", "zip": "10707-2119", "ntee": "D20", "ruling": "201203", "deductibility": "1", "assets": 0, "income": 0, "revenue": 0}], "SAMITHI": [{"ein": "921057776", "name": "SANKARA SEVA SAMITHI OF WESTERN NEW YORK INC", "city": "WILLIAMSVILLE", "state": "NY", "zip": "14221-1433", "ntee": "X99", "ruling": "202301", "deductibility": "1", "assets": 0, "income": 0, "revenue": 0}], "SCHUELER": [{"ein": "921327432", "name": "JON SCHUELER FOUNDATION INC", "city": "NEW YORK", "state": "NY", "zip": "10010-5809", "ntee": "A40", "ruling": "202404", "deductibility": "1", "assets": 2310666, "income": 1217483, "revenue": 0}], "KORCZAK": [{"ein": "922196594", "name": "JANUSZ KORCZAK INSTITUTE FOR EDUCATIONAL ALTERNATIVES INC", "city": "BROOKLYN", "state": "NY", "zip": "11204-0000", "ntee": "B05", "ruling": "202303", "deductibility": "1", "assets": 25622, "income": 40000, "revenue": 40000}], "MYTTA": [{"ein": "922225245", "name": "MYTTA INC", "city": "BROOKLYN", "state": "NY", "zip": "11214-2105", "ntee": "P84", "ruling": "202302", "deductibility": "1", "assets": 44613, "income": 163700, "revenue": 163700}], "YISAMACH": [{"ein": "922334643", "name": "KUPATH YISAMACH LEV INC", "city": "MONSEY", "state": "NY", "zip": "10952-7813", "ntee": "X12", "ruling": "202312", "deductibility": "1", "assets": 0, "income": 0, "revenue": 0}], "SHUFFLEBOARD": [{"ein": "922915692", "name": "NEW YORK SHUFFLEBOARD ASSOCIATION INC", "city": "BROOKLYN", "state": "NY", "zip": "11215-2718", "ntee": "N70", "ruling": "202303", "deductibility": "1", "assets": 0, "income": 0, "revenue": 0}], "IMPART": [{"ein": "923592288", "name": "3HEARTS TO IMPART INC", "city": "WOODHAVEN", "state": "NY", "zip": "11421-2751", "ntee": "K35", "ruling": "202308", "deductibility": "1", "assets": 0, "income": 0, "revenue": 0}], "WEBERMAN": [{"ein": "923717848", "name": "WEBERMAN FAMILY FOUNDATION INC", "city": "BROOKLYN", "state": "NY", "zip": "11205-1223", "ntee": "T99", "ruling": "202401", "deductibility": "1", "assets": 122875, "income": 173000, "revenue": 0}], "BWT": [{"ein": "923869581", "name": "BWT INTERNATIONAL CULTURE & ART CENTER INC", "city": "FLUSHING", "state": "NY", "zip": "11354-1927", "ntee": "A20", "ruling": "202309", "deductibility": "1", "assets": 0, "income": 0, "revenue": 0}], "HATHORA": [{"ein": "923928964", "name": "CONGREGATION MENORAH HATHORA INC", "city": "BROOKLYN", "state": "NY", "zip": "11219-4748", "ntee": "X30", "ruling": "202312", "deductibility": "1", "assets": 0, "income": 0, "revenue": 0}], "ECORESTORATION": [{"ein": "933612047", "name": "ECORESTORATION ALLIANCE INC", "city": "ROCHESTER", "state": "NY", "zip": "14607-2307", "ntee": "C01", "ruling": "202310", "deductibility": "1", "assets": 0, "income": 0, "revenue": 0}], "ABUSING": [{"ein": "990840425", "name": "SAYSO - STOP ABUSING YOUR SPORTS OFFICIALS INC", "city": "KERHONKSON", "state": "NY", "zip": "12446-3529", "ntee": "R19", "ruling": "202505", "deductibility": "1", "assets": 0, "income": 0, "revenue": 0}], "FAIZI": [{"ein": "992338326", "name": "DR FAIZI FOUNDATION FOR CHILDREN WITH CLEFT CORP", "city": "NEWBURGH", "state": "NY", "zip": "12550-1389", "ntee": "G9B", "ruling": "202404", "deductibility": "1", "assets": 0, "income": 0, "revenue": 0}], "GOMANG": [{"ein": "993077668", "name": "DREPUNG GOMANG BUDDHIST CENTER INC", "city": "WOODSIDE", "state": "NY", "zip": "11377-1930", "ntee": "X50", "ruling": "202405", "deductibility": "1", "assets": 0, "income": 0, "revenue": 0}], "SIZZLE": [{"ein": "994165751", "name": "SIZZLE ARTS FOUNDATION", "city": "BROOKLYN", "state": "NY", "zip": "11203-3654", "ntee": "A20", "ruling": "202408", "deductibility": "1", "assets": 0, "income": 0, "revenue": 0}], "POURED": [{"ein": "994514968", "name": "POURED OUT INTERNATIONAL INC", "city": "BATAVIA", "state": "NY", "zip": "14020-2007", "ntee": "X20", "ruling": "202409", "deductibility": "1", "assets": 0, "income": 0, "revenue": 0}]}