{"AMVETS": [{"ein": "010563346", "name": "SONS OF AMVETS SQUADRON 265", "city": "PARISHVILLE", "state": "NY", "zip": "13672-0212", "ntee": "", "ruling": "195402", "deductibility": "0", "assets": 0, "income": 0, "revenue": 0}, {"ein": "010632820", "name": "AMVETS", "city": "CAMBRIA HTS", "state": "NY", "zip": "11411-1320", "ntee": "", "ruling": "194505", "deductibility": "1", "assets": 0, "income": 0, "revenue": 0}, {"ein": "061813057", "name": "AMVETS POST 637", "city": "STRYKERSVILLE", "state": "NY", "zip": "14145-9502", "ntee": "", "ruling": "202004", "deductibility": "1", "assets": 0, "income": 0, "revenue": 0}, {"ein": "100000719", "name": "AMVETS", "city": "PARISHVILLE", "state": "NY", "zip": "13672-0000", "ntee": "", "ruling": "194505", "deductibility": "1", "assets": 59980, "income": 105818, "revenue": 58765}, {"ein": "111961055", "name": "AMVETS", "city": "BUFFALO", "state": "NY", "zip": "14216-1453", "ntee": "", "ruling": "194505", "deductibility": "1", "assets": 879593, "income": 208567, "revenue": 208567}, {"ein": "112163926", "name": "AMVETS", "city": "EAST ISLIP", "state": "NY", "zip": "11730-1801", "ntee": "", "ruling": "195402", "deductibility": "1", "assets": 0, "income": 0, "revenue": 0}, {"ein": "113117721", "name": "AMVETS", "city": "BUFFALO", "state": "NY", "zip": "14216-1453", "ntee": "", "ruling": "195402", "deductibility": "1", "assets": 0, "income": 0, "revenue": 0}, {"ein": "113149230", "name": "AMVETS", "city": "BRENTWOOD", "state": "NY", "zip": "11717-6925", "ntee": "", "ruling": "199308", "deductibility": "1", "assets": 0, "income": 0, "revenue": 0}, {"ein": "113184638", "name": "AMVETS", "city": "MASSAPEQUA", "state": "NY", "zip": "11758-2324", "ntee": "", "ruling": "194505", "deductibility": "1", "assets": 218345, "income": 215694, "revenue": 91385}, {"ein": "113277200", "name": "AMVETS", "city": "EAST ISLIP", "state": "NY", "zip": "11730-1801", "ntee": "", "ruling": "196301", "deductibility": "1", "assets": 0, "income": 0, "revenue": 0}, {"ein": "113410191", "name": "AMVETS", "city": "RONKONKOMA", "state": "NY", "zip": "11779-2324", "ntee": "", "ruling": "194505", "deductibility": "1", "assets": 0, "income": 0, "revenue": 0}, {"ein": "133348380", "name": "AMVETS", "city": "DEPEW", "state": "NY", "zip": "14043-0505", "ntee": "", "ruling": "194711", "deductibility": "1", "assets": 0, "income": 0, "revenue": 0}, {"ein": "136188549", "name": "AMVETS", "city": "YONKERS", "state": "NY", "zip": "10704-1821", "ntee": "", "ruling": "196606", "deductibility": "1", "assets": 220754, "income": 200, "revenue": 200}, {"ein": "136211525", "name": "AMVETS", "city": "BAY SHORE", "state": "NY", "zip": "11706-8308", "ntee": "", "ruling": "194505", "deductibility": "1", "assets": 0, "income": 0, "revenue": 0}, {"ein": "136218333", "name": "AMVETS", "city": "BRONX", "state": "NY", "zip": "10465-1510", "ntee": "", "ruling": "195402", "deductibility": "1", "assets": 0, "income": 0, "revenue": 0}, {"ein": "141833382", "name": "AMVETS", "city": "WARNERVILLE", "state": "NY", "zip": "12187-0264", "ntee": "", "ruling": "194505", "deductibility": "2", "assets": 0, "income": 0, "revenue": 0}, {"ein": "141909226", "name": "AMVETS", "city": "COLTON", "state": "NY", "zip": "13625-0272", "ntee": "W30", "ruling": "194505", "deductibility": "1", "assets": 0, "income": 0, "revenue": 0}, {"ein": "146036394", "name": "AMVETS", "city": "MALONE", "state": "NY", "zip": "12953-0281", "ntee": "", "ruling": "195402", "deductibility": "1", "assets": 360948, "income": 333481, "revenue": 144530}, {"ein": "161450196", "name": "AMVETS", "city": "CUBA", "state": "NY", "zip": "14727-9201", "ntee": "", "ruling": "194505", "deductibility": "0", "assets": 167151, "income": 421301, "revenue": 54654}, {"ein": "161476558", "name": "AMVETS", "city": "OAKDALE", "state": "NY", "zip": "11769-2226", "ntee": "", "ruling": "196301", "deductibility": "1", "assets": 0, "income": 0, "revenue": 0}, {"ein": "161492227", "name": "AMVETS", "city": "BLASDELL", "state": "NY", "zip": "14219-1666", "ntee": "", "ruling": "196301", "deductibility": "1", "assets": 390683, "income": 259231, "revenue": 108501}, {"ein": "161508996", "name": "AMVETS", "city": "UTICA", "state": "NY", "zip": "13502-3250", "ntee": "", "ruling": "195402", "deductibility": "1", "assets": 121908, "income": 121058, "revenue": 80531}, {"ein": "161517471", "name": "AMVETS", "city": "SILVER CREEK", "state": "NY", "zip": "14136-1222", "ntee": "", "ruling": "194505", "deductibility": "1", "assets": 0, "income": 0, "revenue": 0}, {"ein": "161529284", "name": "AMVETS", "city": "HEUVELTON", "state": "NY", "zip": "13654-0580", "ntee": "", "ruling": "194505", "deductibility": "1", "assets": 131385, "income": 315417, "revenue": 100079}, {"ein": "161543507", "name": "AMVETS", "city": "HEUVELTON", "state": "NY", "zip": "13654-0580", "ntee": "", "ruling": "194505", "deductibility": "2", "assets": 0, "income": 0, "revenue": 0}, {"ein": "161545587", "name": "AMVETS", "city": "HEUVELTON", "state": "NY", "zip": "13654-0221", "ntee": "", "ruling": "194505", "deductibility": "1", "assets": 0, "income": 0, "revenue": 0}, {"ein": "161560125", "name": "AMVETS", "city": "BLASDELL", "state": "NY", "zip": "14219-1666", "ntee": "", "ruling": "195402", "deductibility": "0", "assets": 0, "income": 0, "revenue": 0}, {"ein": "161560312", "name": "LOWVILLE AMVETS POST 99", "city": "LOWVILLE", "state": "NY", "zip": "13367-1125", "ntee": "W30", "ruling": "201908", "deductibility": "1", "assets": 0, "income": 0, "revenue": 0}, {"ein": "161562213", "name": "AMVETS", "city": "BLASDELL", "state": "NY", "zip": "14219-1666", "ntee": "", "ruling": "194505", "deductibility": "2", "assets": 0, "income": 0, "revenue": 0}, {"ein": "161596984", "name": "AMVETS", "city": "HORNELL", "state": "NY", "zip": "14843-1920", "ntee": "", "ruling": "194505", "deductibility": "1", "assets": 137729, "income": 886447, "revenue": 167926}, {"ein": "161605165", "name": "AMVETS", "city": "PARISHVILLE", "state": "NY", "zip": "13672-0803", "ntee": "", "ruling": "195402", "deductibility": "1", "assets": 718844, "income": 299102, "revenue": 150704}, {"ein": "166050853", "name": "AMVETS", "city": "BUFFALO", "state": "NY", "zip": "14224-4310", "ntee": "", "ruling": "194505", "deductibility": "1", "assets": 0, "income": 0, "revenue": 0}, {"ein": "237079781", "name": "AMVETS", "city": "BOSTON", "state": "NY", "zip": "14025-0271", "ntee": "", "ruling": "199603", "deductibility": "1", "assets": 442984, "income": 154427, "revenue": 114639}, {"ein": "237171276", "name": "AMVETS", "city": "DEPEW", "state": "NY", "zip": "14043-0000", "ntee": "", "ruling": "195402", "deductibility": "1", "assets": 0, "income": 0, "revenue": 0}, {"ein": "237204645", "name": "AMVETS", "city": "SOUTH COLTON", "state": "NY", "zip": "13687-0436", "ntee": "", "ruling": "197212", "deductibility": "1", "assets": 0, "income": 0, "revenue": 0}, {"ein": "237303590", "name": "AMVETS", "city": "WEST SENECA", "state": "NY", "zip": "14224-1003", "ntee": "", "ruling": "195402", "deductibility": "1", "assets": 0, "income": 0, "revenue": 0}, {"ein": "237316004", "name": "AMVETS", "city": "WEST SENECA", "state": "NY", "zip": "14224-2915", "ntee": "", "ruling": "194505", "deductibility": "1", "assets": 0, "income": 0, "revenue": 0}, {"ein": "237335823", "name": "AMVETS", "city": "BUFFALO", "state": "NY", "zip": "14207-2053", "ntee": "", "ruling": "196702", "deductibility": "0", "assets": 0, "income": 0, "revenue": 0}, {"ein": "237379692", "name": "AMVETS", "city": "MASSENA", "state": "NY", "zip": "13662-1804", "ntee": "", "ruling": "195402", "deductibility": "1", "assets": 146032, "income": 1496242, "revenue": 302572}, {"ein": "260085006", "name": "AMVETS", "city": "WEST SENECA", "state": "NY", "zip": "14224-0433", "ntee": "", "ruling": "195402", "deductibility": "1", "assets": 0, "income": 0, "revenue": 0}, {"ein": "274931388", "name": "AMVETS", "city": "MASSAPEQUA", "state": "NY", "zip": "11758-2324", "ntee": "", "ruling": "194502", "deductibility": "1", "assets": 0, "income": 0, "revenue": 0}, {"ein": "300162487", "name": "AMVETS", "city": "COLTON", "state": "NY", "zip": "13625-0272", "ntee": "", "ruling": "194505", "deductibility": "1", "assets": 276203, "income": 206672, "revenue": 125245}, {"ein": "300266393", "name": "AMVETS", "city": "COLTON", "state": "NY", "zip": "13625-7783", "ntee": "", "ruling": "194505", "deductibility": "1", "assets": 0, "income": 0, "revenue": 0}, {"ein": "320267351", "name": "FRANCIS LABARGE & LEONARD TROMBLEY AMVETS POST 8793 INC", "city": "ELLENBURG DEP", "state": "NY", "zip": "12935-0147", "ntee": "W30", "ruling": "202011", "deductibility": "1", "assets": 0, "income": 0, "revenue": 0}, {"ein": "320401514", "name": "AMVETS POST 917 TAMBURRI MEMORIAL INC", "city": "STATEN ISLAND", "state": "NY", "zip": "10314-2201", "ntee": "Y40", "ruling": "201409", "deductibility": "1", "assets": 0, "income": 0, "revenue": 0}, {"ein": "331126775", "name": "AMVETS", "city": "FLUVANNA", "state": "NY", "zip": "14701-2034", "ntee": "", "ruling": "194505", "deductibility": "1", "assets": 0, "income": 0, "revenue": 0}, {"ein": "352390159", "name": "AMVETS", "city": "COOPERSTOWN", "state": "NY", "zip": "13326-5928", "ntee": "W30", "ruling": "194505", "deductibility": "1", "assets": 0, "income": 0, "revenue": 0}, {"ein": "364725222", "name": "AMVETS", "city": "BUFFALO", "state": "NY", "zip": "14208-1827", "ntee": "", "ruling": "195402", "deductibility": "1", "assets": 0, "income": 0, "revenue": 0}, {"ein": "371488542", "name": "AMVETS", "city": "MASSENA", "state": "NY", "zip": "13662-1804", "ntee": "", "ruling": "195402", "deductibility": "1", "assets": 0, "income": 0, "revenue": 0}, {"ein": "383783433", "name": "AMVETS", "city": "MALONE", "state": "NY", "zip": "12953-0281", "ntee": "W30", "ruling": "194505", "deductibility": "1", "assets": 0, "income": 0, "revenue": 0}, {"ein": "412209865", "name": "AMVETS", "city": "MALONE", "state": "NY", "zip": "12953-0281", "ntee": "W30", "ruling": "194505", "deductibility": "1", "assets": 0, "income": 0, "revenue": 0}, {"ein": "455048367", "name": "AMVETS", "city": "SCHENECTADY", "state": "NY", "zip": "12303-4222", "ntee": "", "ruling": "195402", "deductibility": "1", "assets": 0, "income": 0, "revenue": 0}, {"ein": "460916317", "name": "AMVETS", "city": "NASSAU", "state": "NY", "zip": "12123-0797", "ntee": "", "ruling": "194505", "deductibility": "1", "assets": 0, "income": 0, "revenue": 0}, {"ein": "462157638", "name": "AMVETS", "city": "PATCHOGUE", "state": "NY", "zip": "11772-3506", "ntee": "", "ruling": "194505", "deductibility": "1", "assets": 0, "income": 0, "revenue": 0}, {"ein": "462785810", "name": "AMVETS", "city": "CUBA", "state": "NY", "zip": "14727-9201", "ntee": "", "ruling": "194505", "deductibility": "1", "assets": 0, "income": 0, "revenue": 0}, {"ein": "462956496", "name": "AMVETS", "city": "RONKONKOMA", "state": "NY", "zip": "11779-0000", "ntee": "", "ruling": "194505", "deductibility": "1", "assets": 0, "income": 0, "revenue": 0}, {"ein": "464782763", "name": "AMVETS RIDERS OF POST 245 INC", "city": "HORNELL", "state": "NY", "zip": "14843-1920", "ntee": "P20", "ruling": "201409", "deductibility": "1", "assets": 0, "income": 0, "revenue": 0}, {"ein": "465642676", "name": "AMVETS", "city": "BAY SHORE", "state": "NY", "zip": "11706-8308", "ntee": "", "ruling": "194505", "deductibility": "1", "assets": 0, "income": 0, "revenue": 0}, {"ein": "471066365", "name": "AMVETS", "city": "CANTON", "state": "NY", "zip": "13617-3941", "ntee": "W30", "ruling": "194505", "deductibility": "1", "assets": 0, "income": 0, "revenue": 0}, {"ein": "472583084", "name": "JACK LEYDEN MEMORIAL AMVETS NY POST 1213", "city": "WASHINGTONVLE", "state": "NY", "zip": "10992-0223", "ntee": "W30", "ruling": "201908", "deductibility": "1", "assets": 0, "income": 0, "revenue": 0}, {"ein": "473592467", "name": "AMVETS", "city": "FARMINGTON", "state": "NY", "zip": "14425-0291", "ntee": "", "ruling": "194505", "deductibility": "1", "assets": 0, "income": 0, "revenue": 0}, {"ein": "473676263", "name": "AMVETS", "city": "POTSDAM", "state": "NY", "zip": "13676-0282", "ntee": "", "ruling": "194505", "deductibility": "1", "assets": 0, "income": 0, "revenue": 0}, {"ein": "510244058", "name": "AMVETS", "city": "AMHERST", "state": "NY", "zip": "14226-1732", "ntee": "", "ruling": "196606", "deductibility": "1", "assets": 0, "income": 0, "revenue": 0}, {"ein": "510501881", "name": "AMVETS", "city": "BINGHAMTON", "state": "NY", "zip": "13901-1805", "ntee": "", "ruling": "194505", "deductibility": "1", "assets": 0, "income": 0, "revenue": 0}, {"ein": "510502831", "name": "AMVETS", "city": "BOSTON", "state": "NY", "zip": "14025-0271", "ntee": "W30", "ruling": "194505", "deductibility": "1", "assets": 0, "income": 0, "revenue": 0}, {"ein": "510575230", "name": "AMVETS", "city": "PORTLAND", "state": "NY", "zip": "14769-9640", "ntee": "", "ruling": "194505", "deductibility": "2", "assets": 0, "income": 0, "revenue": 0}, {"ein": "542130040", "name": "AMVETS", "city": "HORNELL", "state": "NY", "zip": "14843-1920", "ntee": "W30", "ruling": "194505", "deductibility": "1", "assets": 0, "income": 0, "revenue": 0}, {"ein": "562388720", "name": "AMVETS", "city": "BOSTON", "state": "NY", "zip": "14025-0341", "ntee": "", "ruling": "195402", "deductibility": "1", "assets": 0, "income": 0, "revenue": 0}, {"ein": "562578132", "name": "AMVETS", "city": "SILVER CREEK", "state": "NY", "zip": "14136-1222", "ntee": "", "ruling": "194505", "deductibility": "1", "assets": 0, "income": 0, "revenue": 0}, {"ein": "753064493", "name": "AMVETS", "city": "WEST SENECA", "state": "NY", "zip": "14224-1184", "ntee": "W30", "ruling": "194505", "deductibility": "1", "assets": 0, "income": 0, "revenue": 0}, {"ein": "800192875", "name": "AMVETS", "city": "HORNELL", "state": "NY", "zip": "14843-1920", "ntee": "W30", "ruling": "194505", "deductibility": "1", "assets": 0, "income": 0, "revenue": 0}, {"ein": "800607506", "name": "AMVETS", "city": "MEXICO", "state": "NY", "zip": "13114-0000", "ntee": "Z99", "ruling": "194505", "deductibility": "1", "assets": 0, "income": 0, "revenue": 0}, {"ein": "810968627", "name": "AMVETS", "city": "LANCASTER", "state": "NY", "zip": "14086-1015", "ntee": "", "ruling": "194505", "deductibility": "1", "assets": 0, "income": 0, "revenue": 0}, {"ein": "811436619", "name": "AMVETS", "city": "HOLTSVILLE", "state": "NY", "zip": "11742-1904", "ntee": "", "ruling": "194505", "deductibility": "2", "assets": 23641, "income": 8011, "revenue": 8011}, {"ein": "813731330", "name": "AMVETS", "city": "SLOAN", "state": "NY", "zip": "14212-2229", "ntee": "", "ruling": "194505", "deductibility": "1", "assets": 0, "income": 0, "revenue": 0}, {"ein": "813761331", "name": "AMVETS POST 50", "city": "MONTICELLO", "state": "NY", "zip": "12701-0307", "ntee": "", "ruling": "202301", "deductibility": "2", "assets": 0, "income": 0, "revenue": 0}, {"ein": "813841891", "name": "AMVETS", "city": "HAMBURG", "state": "NY", "zip": "14075-4741", "ntee": "", "ruling": "194505", "deductibility": "1", "assets": 0, "income": 0, "revenue": 0}, {"ein": "821114890", "name": "AMVETS", "city": "TUPPER LAKE", "state": "NY", "zip": "12986-0194", "ntee": "", "ruling": "194505", "deductibility": "1", "assets": 0, "income": 0, "revenue": 0}, {"ein": "831221322", "name": "AMVETS", "city": "N TONAWANDA", "state": "NY", "zip": "14120-3207", "ntee": "", "ruling": "194505", "deductibility": "1", "assets": 0, "income": 0, "revenue": 0}, {"ein": "833528648", "name": "AMVETS", "city": "BAY SHORE", "state": "NY", "zip": "11706-8308", "ntee": "", "ruling": "194505", "deductibility": "1", "assets": 0, "income": 0, "revenue": 0}, {"ein": "834417356", "name": "AMVETS", "city": "RAVENA", "state": "NY", "zip": "12143-0000", "ntee": "", "ruling": "194505", "deductibility": "0", "assets": 0, "income": 0, "revenue": 0}, {"ein": "842070013", "name": "AMVETS RIDERS CHAPTER 1 NY INC", "city": "CUBA", "state": "NY", "zip": "14727-9201", "ntee": "W30", "ruling": "201910", "deductibility": "2", "assets": 0, "income": 0, "revenue": 0}, {"ein": "843140777", "name": "AMVETS RIDERS POST 88", "city": "MASSAPEQUA", "state": "NY", "zip": "11758-2324", "ntee": "W30", "ruling": "202505", "deductibility": "2", "assets": 0, "income": 0, "revenue": 0}, {"ein": "853344902", "name": "SONS OF AMVETS SQUADRON 1174", "city": "OAKDALE", "state": "NY", "zip": "11769-2226", "ntee": "W30", "ruling": "202304", "deductibility": "1", "assets": 0, "income": 0, "revenue": 0}, {"ein": "870726918", "name": "AMVETS", "city": "RONKONKOMA", "state": "NY", "zip": "11779-2324", "ntee": "", "ruling": "194505", "deductibility": "1", "assets": 0, "income": 0, "revenue": 0}], "MISSING": [{"ein": "020687548", "name": "FAMILIES OF THE MISSING", "city": "NEW YORK", "state": "NY", "zip": "10022-4182", "ntee": "I99", "ruling": "200307", "deductibility": "1", "assets": 0, "income": 0, "revenue": 0}, {"ein": "161549139", "name": "MISSING LINK SNOWMOBILE CLUB INC", "city": "CARTHAGE", "state": "NY", "zip": "13619-0844", "ntee": "N68", "ruling": "200311", "deductibility": "1", "assets": 0, "income": 0, "revenue": 0}, {"ein": "300175296", "name": "WHAT IS MISSING FOUNDATION", "city": "NEW YORK", "state": "NY", "zip": "10012-2469", "ntee": "T23", "ruling": "200307", "deductibility": "1", "assets": 1370981, "income": 454537, "revenue": 0}, {"ein": "471027343", "name": "MISSING BOLTS PRODUCTIONS INC", "city": "NEW YORK", "state": "NY", "zip": "10017-4834", "ntee": "A65", "ruling": "201511", "deductibility": "1", "assets": 0, "income": 0, "revenue": 0}, {"ein": "863383104", "name": "911 MONUMENT OF THE MISSING FOUNDATION INC", "city": "HUNTINGTN STA", "state": "NY", "zip": "11746-2839", "ntee": "A84", "ruling": "202107", "deductibility": "1", "assets": 0, "income": 0, "revenue": 0}, {"ein": "882168183", "name": "MISSING MOVIES INC", "city": "NEW YORK", "state": "NY", "zip": "10025-5655", "ntee": "", "ruling": "202305", "deductibility": "1", "assets": 0, "income": 0, "revenue": 0}, {"ein": "922641465", "name": "RIDE FOR MISSING CHILDREN - MOHAWK VALLEY", "city": "WASHINGTN MLS", "state": "NY", "zip": "13479-0006", "ntee": "W01", "ruling": "202307", "deductibility": "1", "assets": 24960, "income": 116491, "revenue": 109472}, {"ein": "932341772", "name": "COALITION FOR THE MURDERED & MISSING", "city": "MASPETH", "state": "NY", "zip": "11378-3544", "ntee": "I01", "ruling": "202309", "deductibility": "1", "assets": 0, "income": 0, "revenue": 0}, {"ein": "990941165", "name": "ALBANY RIDE FOR MISSING CHILDREN INC", "city": "NISKAYUNA", "state": "NY", "zip": "12309-5926", "ntee": "R28", "ruling": "202410", "deductibility": "1", "assets": 0, "income": 0, "revenue": 0}], "INNOCENT": [{"ein": "030451388", "name": "ST INNOCENT OF ALASKA ORTHODOX MISSION", "city": "ONEONTA", "state": "NY", "zip": "13820-1332", "ntee": "", "ruling": "197210", "deductibility": "1", "assets": 0, "income": 0, "revenue": 0}], "ME": [{"ein": "030515983", "name": "EVANGELICAL CHURCH CHRIST LIVES IN ME WORLDWIDE MOVEMENT INC", "city": "BRONX", "state": "NY", "zip": "10459-2666", "ntee": "X20", "ruling": "200405", "deductibility": "1", "assets": 0, "income": 0, "revenue": 0}, {"ein": "043743001", "name": "WHOLE ME INC", "city": "SYRACUSE", "state": "NY", "zip": "13203-2881", "ntee": "P87", "ruling": "200307", "deductibility": "1", "assets": 843674, "income": 893882, "revenue": 884389}, {"ein": "112891090", "name": "EZREE ME IM HASHEM FOUNDATION", "city": "BROOKLYN", "state": "NY", "zip": "11229-3302", "ntee": "X30", "ruling": "198904", "deductibility": "1", "assets": 0, "income": 0, "revenue": 0}, {"ein": "113294223", "name": "IMMANUEL AND ME INC", "city": "SPRNGFLD GDNS", "state": "NY", "zip": "11413-3102", "ntee": "X20Z", "ruling": "199812", "deductibility": "1", "assets": 0, "income": 0, "revenue": 0}, {"ein": "113458082", "name": "MISSIONARY CHURCH OF EVANGELIZATION HOLY SPIRIT OF GOD COME TO ME INC", "city": "CORONA", "state": "NY", "zip": "11368-2938", "ntee": "X20", "ruling": "200705", "deductibility": "1", "assets": 7521, "income": 53255, "revenue": 53255}, {"ein": "113557895", "name": "LEAN ON ME BREAST CANCER NETWORK INC", "city": "GREAT NECK", "state": "NY", "zip": "11021-5342", "ntee": "F60", "ruling": "200106", "deductibility": "1", "assets": 207184, "income": 62119, "revenue": 62119}, {"ein": "133171864", "name": "HELP ME HOUSING DEVELOPMENT FUND", "city": "SUFFERN", "state": "NY", "zip": "10901-4176", "ntee": "L200", "ruling": "198311", "deductibility": "1", "assets": 499210, "income": 503554, "revenue": 503554}, {"ein": "133200666", "name": "COUNT ME IN FOR WOMENS ECONOMIC INDEPENDENCE INC", "city": "NEW YORK", "state": "NY", "zip": "10019-1435", "ntee": "S43", "ruling": "198905", "deductibility": "1", "assets": 994, "income": 60030, "revenue": 60030}, {"ein": "133919147", "name": "GROOVE WITH ME INC", "city": "NEW YORK", "state": "NY", "zip": "10035-2259", "ntee": "B99", "ruling": "199708", "deductibility": "1", "assets": 6558932, "income": 1877693, "revenue": 1291992}, {"ein": "134151089", "name": "CHRIST ALL OVER ME INTERNATIONAL MINISTRIES", "city": "BRONX", "state": "NY", "zip": "10453-1020", "ntee": "X21", "ruling": "200106", "deductibility": "1", "assets": 0, "income": 0, "revenue": 0}, {"ein": "136058048", "name": "EPPLEY FOUNDATION TRUST UW ME APT 7 6061 38 00 FBO RESEARCH", "city": "NEW YORK", "state": "NY", "zip": "10013-2362", "ntee": "", "ruling": "197306", "deductibility": "0", "assets": 3247623, "income": 717483, "revenue": 0}, {"ein": "141775120", "name": "CARE 4 ME INC", "city": "GLENHAM", "state": "NY", "zip": "12527-0609", "ntee": "P33", "ruling": "199509", "deductibility": "1", "assets": 352579, "income": 749722, "revenue": 749722}, {"ein": "161733610", "name": "NO MORE SHACKLES HOLDING ME DOWN INTERNATIONAL", "city": "BUFFALO", "state": "NY", "zip": "14206-3261", "ntee": "X20", "ruling": "201409", "deductibility": "1", "assets": 0, "income": 0, "revenue": 0}, {"ein": "200912750", "name": "TREAT ME RIGHT INC", "city": "NEW YORK", "state": "NY", "zip": "10029-2652", "ntee": "B99", "ruling": "202408", "deductibility": "1", "assets": 0, "income": 0, "revenue": 0}, {"ein": "264694530", "name": "STRONG ME INC", "city": "TROY", "state": "NY", "zip": "12182-4401", "ntee": "B99", "ruling": "202110", "deductibility": "1", "assets": 0, "income": 0, "revenue": 0}, {"ein": "264834456", "name": "FLY WITH ME FUND", "city": "LYNBROOK", "state": "NY", "zip": "11563-4219", "ntee": "G20", "ruling": "200911", "deductibility": "1", "assets": 53741, "income": 15447, "revenue": 15447}, {"ein": "271200391", "name": "FORGET ME NOT OF AMERICA INC", "city": "RIVERHEAD", "state": "NY", "zip": "11901-5312", "ntee": "F12", "ruling": "201709", "deductibility": "1", "assets": 382301, "income": 155781, "revenue": 23005}, {"ein": "271926618", "name": "IMAGINE ME LEADERSHIP CHARTER SCHOOL", "city": "BROOKLYN", "state": "NY", "zip": "11233-3346", "ntee": "B29", "ruling": "201708", "deductibility": "1", "assets": 1193624, "income": 6706892, "revenue": 6706892}, {"ein": "320308693", "name": "HELP ME BE A CHILD MINISTRY", "city": "CORONA", "state": "NY", "zip": "11368-4756", "ntee": "X20", "ruling": "201201", "deductibility": "1", "assets": 0, "income": 0, "revenue": 0}, {"ein": "331366204", "name": "FEED ME BEFORE THE SUN SETS INC", "city": "PORT WASHINGTON", "state": "NY", "zip": "11050-0000", "ntee": "K30", "ruling": "202410", "deductibility": "1", "assets": 0, "income": 0, "revenue": 0}, {"ein": "333564544", "name": "KALEIDOSCOPE ME INC", "city": "ROCHESTER", "state": "NY", "zip": "14610-2346", "ntee": "O50", "ruling": "202504", "deductibility": "1", "assets": 0, "income": 0, "revenue": 0}, {"ein": "334219196", "name": "MADE BY ME IN GENESEE INC", "city": "CORFU", "state": "NY", "zip": "14036-9618", "ntee": "S30", "ruling": "202505", "deductibility": "1", "assets": 0, "income": 0, "revenue": 0}, {"ein": "334463898", "name": "TUTOR ME MOBILE FOUNDATION INC", "city": "JAMAICA", "state": "NY", "zip": "11433-3927", "ntee": "B99", "ruling": "202505", "deductibility": "1", "assets": 0, "income": 0, "revenue": 0}, {"ein": "352787455", "name": "COUNT ME IN INC", "city": "BROOKLYN", "state": "NY", "zip": "11219-7036", "ntee": "T30", "ruling": "202410", "deductibility": "1", "assets": 0, "income": 0, "revenue": 0}, {"ein": "453207025", "name": "GIVE ME SHELTER PROJECT", "city": "FLUSHING", "state": "NY", "zip": "11358-3935", "ntee": "D20", "ruling": "201204", "deductibility": "1", "assets": 147703, "income": 222452, "revenue": 219252}, {"ein": "462308130", "name": "CODE WITH ME INC", "city": "LONG IS CITY", "state": "NY", "zip": "11101-5790", "ntee": "J22", "ruling": "201412", "deductibility": "1", "assets": 0, "income": 0, "revenue": 0}, {"ein": "465071511", "name": "EVEN ME ECONOMIC DEVELOPMENT CORPORATION", "city": "NEW YORK", "state": "NY", "zip": "10039-4516", "ntee": "P20", "ruling": "201510", "deductibility": "1", "assets": 0, "income": 0, "revenue": 0}, {"ein": "471146384", "name": "IMAGINE ME COMMUNITY OUTREACH INC", "city": "NORTH CHILI", "state": "NY", "zip": "14514-9826", "ntee": "P20", "ruling": "201501", "deductibility": "1", "assets": 0, "income": 0, "revenue": 0}, {"ein": "471912893", "name": "TAKE ME HOME PET RESCUE INC", "city": "HIGHLAND", "state": "NY", "zip": "12528-2251", "ntee": "D20", "ruling": "201410", "deductibility": "1", "assets": 8040, "income": 152107, "revenue": 152107}, {"ein": "472306021", "name": "FREE TO BE ME RESCUE INC", "city": "DELMAR", "state": "NY", "zip": "12054-1319", "ntee": "D20", "ruling": "201510", "deductibility": "1", "assets": 32047, "income": 49088, "revenue": 49088}, {"ein": "472815241", "name": "YOU TELL ME STORIES INC", "city": "CHATHAM", "state": "NY", "zip": "12037-9781", "ntee": "B90", "ruling": "201504", "deductibility": "1", "assets": 0, "income": 0, "revenue": 0}, {"ein": "474207865", "name": "CHRIST OFFERS ME AN ESCAPE INC", "city": "HEMPSTEAD", "state": "NY", "zip": "11550-3614", "ntee": "P43", "ruling": "201508", "deductibility": "1", "assets": 1, "income": 0, "revenue": 0}, {"ein": "474267687", "name": "HELP ME FUND", "city": "MONSEY", "state": "NY", "zip": "10952-7832", "ntee": "T30", "ruling": "201509", "deductibility": "1", "assets": 0, "income": 0, "revenue": 0}, {"ein": "475601145", "name": "TAKE ME OUT TO THE BALLGAME FOUNDATION INC", "city": "SEAFORD", "state": "NY", "zip": "11783-2007", "ntee": "O12", "ruling": "201512", "deductibility": "1", "assets": 0, "income": 0, "revenue": 0}, {"ein": "731416680", "name": "INTERNATIONAL ASSOCIATION FOR CHRONIC FATIGUE SYNDROME-ME", "city": "STONY BROOK", "state": "NY", "zip": "11790-0583", "ntee": "H20Z", "ruling": "199312", "deductibility": "1", "assets": 356693, "income": 165942, "revenue": 165942}, {"ein": "812251572", "name": "MEET ME AT THE CROSSROADS", "city": "BRONX", "state": "NY", "zip": "10457-7658", "ntee": "P30", "ruling": "201802", "deductibility": "1", "assets": 0, "income": 0, "revenue": 0}, {"ein": "812552831", "name": "KEEP ME WARM DOGHOUSES INC", "city": "BELLEROSE", "state": "NY", "zip": "11426-0054", "ntee": "D20", "ruling": "201607", "deductibility": "1", "assets": 0, "income": 0, "revenue": 0}, {"ein": "813933303", "name": "STAND WITH ME ASSISTANCE DOG TEAM TRAINING INC", "city": "BINGHAMTON", "state": "NY", "zip": "13903-5702", "ntee": "", "ruling": "201609", "deductibility": "1", "assets": 80315, "income": 106503, "revenue": 106503}, {"ein": "814873713", "name": "REMEMBER ME RESCUE NY", "city": "HUNTINGTON", "state": "NY", "zip": "11743-4925", "ntee": "D20", "ruling": "201708", "deductibility": "1", "assets": 11809, "income": 126993, "revenue": 126993}, {"ein": "821753782", "name": "CONNERS COUNT ON ME", "city": "NORTHPORT", "state": "NY", "zip": "11768-2819", "ntee": "W12", "ruling": "201706", "deductibility": "1", "assets": 0, "income": 0, "revenue": 0}, {"ein": "823536110", "name": "COLOR ME CANCER FREE INC", "city": "MERRICK", "state": "NY", "zip": "11566-3517", "ntee": "T50", "ruling": "201805", "deductibility": "1", "assets": 5118, "income": 17233, "revenue": 0}, {"ein": "823632778", "name": "MY DAUGHTERS AND ME MDAM", "city": "SCHENECTADY", "state": "NY", "zip": "12307-1311", "ntee": "P28", "ruling": "202404", "deductibility": "1", "assets": 0, "income": 0, "revenue": 0}, {"ein": "830834332", "name": "LIFT ME UP INC", "city": "OLD WESTBURY", "state": "NY", "zip": "11568-1203", "ntee": "A20", "ruling": "201907", "deductibility": "1", "assets": 0, "income": 0, "revenue": 0}, {"ein": "831929951", "name": "A PLACE TO BEAD ME - CREATIVITY FOSTERED INC", "city": "NEW YORK", "state": "NY", "zip": "10021-2665", "ntee": "O50", "ruling": "201904", "deductibility": "1", "assets": 0, "income": 0, "revenue": 0}, {"ein": "841922918", "name": "ROC WIT ME INCORPORATED", "city": "BROOKLYN", "state": "NY", "zip": "11213-1469", "ntee": "F30", "ruling": "201906", "deductibility": "1", "assets": 536, "income": 18411, "revenue": 0}, {"ein": "842543473", "name": "WATCH ME MOVE NYC INC", "city": "NEW YORK", "state": "NY", "zip": "10032-5210", "ntee": "N30", "ruling": "202303", "deductibility": "1", "assets": 0, "income": 0, "revenue": 0}, {"ein": "843829696", "name": "LET ME HELP INC", "city": "NEW YORK", "state": "NY", "zip": "10013-2292", "ntee": "E12", "ruling": "202001", "deductibility": "1", "assets": 0, "income": 0, "revenue": 0}, {"ein": "843834489", "name": "BOOK ME FOUNDATION INC", "city": "BROOKLYN", "state": "NY", "zip": "11208-5117", "ntee": "B90", "ruling": "202303", "deductibility": "1", "assets": 0, "income": 0, "revenue": 0}, {"ein": "844431248", "name": "MENTOR ME OF ULSTER COUNTY INC", "city": "KINGSTON", "state": "NY", "zip": "12401-2139", "ntee": "O30", "ruling": "202101", "deductibility": "1", "assets": 53769, "income": 173369, "revenue": 173369}, {"ein": "851008943", "name": "TICKLE ME CHIC INC", "city": "BROOKLYN", "state": "NY", "zip": "11233-6173", "ntee": "P02", "ruling": "202111", "deductibility": "1", "assets": 19, "income": 40086, "revenue": 40086}, {"ein": "851868734", "name": "MADE FOR ME BOOKS INC", "city": "NEW YORK", "state": "NY", "zip": "10026-4177", "ntee": "A23", "ruling": "202103", "deductibility": "1", "assets": 0, "income": 0, "revenue": 0}, {"ein": "852970829", "name": "ME VOICES INC", "city": "DEWITT", "state": "NY", "zip": "13214-2229", "ntee": "B05", "ruling": "202101", "deductibility": "1", "assets": 0, "income": 0, "revenue": 0}, {"ein": "853060433", "name": "JUST FOR ME ACADEMY INC", "city": "AIRMONT", "state": "NY", "zip": "10952-3913", "ntee": "O99", "ruling": "202301", "deductibility": "1", "assets": 106413, "income": 213190, "revenue": 213190}, {"ein": "861122707", "name": "ME NOBODY KNOWS INC", "city": "JAMAICA", "state": "NY", "zip": "11434-2603", "ntee": "A6E", "ruling": "201408", "deductibility": "1", "assets": 0, "income": 0, "revenue": 0}, {"ein": "861220162", "name": "SISTERHOOD IN ME", "city": "BROOKLYN", "state": "NY", "zip": "11217-0000", "ntee": "S81", "ruling": "202103", "deductibility": "1", "assets": 0, "income": 0, "revenue": 0}, {"ein": "862226469", "name": "REACHING BEYOND ME", "city": "ITHACA", "state": "NY", "zip": "14850-9495", "ntee": "P20", "ruling": "202312", "deductibility": "1", "assets": 0, "income": 0, "revenue": 0}, {"ein": "862975726", "name": "HE LEADETH ME MINISTRIES INC", "city": "MOUNT VERNON", "state": "NY", "zip": "10553-1800", "ntee": "X99", "ruling": "202109", "deductibility": "1", "assets": 0, "income": 0, "revenue": 0}, {"ein": "863293724", "name": "TALK TO ME ABOUT CATS INC", "city": "NEWBURGH", "state": "NY", "zip": "12550-5511", "ntee": "D20", "ruling": "202108", "deductibility": "1", "assets": 0, "income": 0, "revenue": 0}, {"ein": "870884535", "name": "REVOLUTION ME MEDIA LAB CORPORATION", "city": "JAMAICA", "state": "NY", "zip": "11435-5505", "ntee": "A25", "ruling": "202311", "deductibility": "1", "assets": 0, "income": 0, "revenue": 0}, {"ein": "871659562", "name": "A SPECIAL PLACE FOR ME INC", "city": "WESTBURY", "state": "NY", "zip": "11590-1041", "ntee": "G84", "ruling": "202204", "deductibility": "1", "assets": 0, "income": 0, "revenue": 0}, {"ein": "872052361", "name": "RESCUE ME RANCH FOUNDATION INC", "city": "AUBURN", "state": "NY", "zip": "13021-8836", "ntee": "T23", "ruling": "202301", "deductibility": "1", "assets": 110708, "income": 75459, "revenue": 0}, {"ein": "872581810", "name": "TEAM ME INC", "city": "NEW YORK CITY", "state": "NY", "zip": "10016-2418", "ntee": "O20", "ruling": "202203", "deductibility": "1", "assets": 1, "income": 1500, "revenue": 1500}, {"ein": "873315146", "name": "HOME SERVICES ME INC", "city": "COLLEGE POINT", "state": "NY", "zip": "11356-1227", "ntee": "T30", "ruling": "202306", "deductibility": "1", "assets": 0, "income": 0, "revenue": 0}, {"ein": "882369599", "name": "ALIGN ME GOD LCM", "city": "MASTIC BEACH", "state": "NY", "zip": "11951-3417", "ntee": "P99", "ruling": "202301", "deductibility": "1", "assets": 0, "income": 0, "revenue": 0}, {"ein": "882551513", "name": "READ-ME ORG INC", "city": "ALBANY", "state": "NY", "zip": "12203-9722", "ntee": "A30", "ruling": "202206", "deductibility": "1", "assets": 0, "income": 0, "revenue": 0}, {"ein": "882560551", "name": "HOW WOULD YOU DESCRIBE ME INC", "city": "BROOKLYN", "state": "NY", "zip": "11215-7601", "ntee": "B99", "ruling": "202206", "deductibility": "1", "assets": 0, "income": 0, "revenue": 0}, {"ein": "883148090", "name": "TAKE ME OUT WITH THE CROWD", "city": "WOODBURY", "state": "NY", "zip": "11797-1015", "ntee": "B80", "ruling": "202207", "deductibility": "1", "assets": 4889, "income": 225, "revenue": 0}, {"ein": "900328907", "name": "RESCUE ME - PUREBRED K9 RESCUE INC", "city": "ONEIDA", "state": "NY", "zip": "13421-0758", "ntee": "D20", "ruling": "200902", "deductibility": "1", "assets": 0, "income": 0, "revenue": 0}, {"ein": "921267491", "name": "TEACH ME & TEACHABLE MOMENTS", "city": "BUFFALO", "state": "NY", "zip": "14228-1800", "ntee": "F60", "ruling": "202301", "deductibility": "1", "assets": 0, "income": 0, "revenue": 0}, {"ein": "922159350", "name": "PRAY FOR ME MINISTRY CORP", "city": "ROCKAWAY PARK", "state": "NY", "zip": "11694-2662", "ntee": "X21", "ruling": "202304", "deductibility": "1", "assets": 0, "income": 0, "revenue": 0}, {"ein": "923381528", "name": "LET ME TELL YOU SOMETHING FREY FAMILY FOUNDATION INC", "city": "STATEN ISLAND", "state": "NY", "zip": "10312-2525", "ntee": "B82", "ruling": "202306", "deductibility": "1", "assets": 0, "income": 0, "revenue": 0}, {"ein": "923756364", "name": "REMEMBER ME JASON JUICE INC", "city": "BROOKLYN", "state": "NY", "zip": "11224-2230", "ntee": "N70", "ruling": "202305", "deductibility": "1", "assets": 0, "income": 0, "revenue": 0}, {"ein": "931617372", "name": "DOLAH ME AFTER CARE", "city": "ROCHESTER", "state": "NY", "zip": "14615-2340", "ntee": "E60", "ruling": "202308", "deductibility": "1", "assets": 0, "income": 0, "revenue": 0}, {"ein": "932556095", "name": "ME FOR WE PROJECT INC", "city": "NEW YORK", "state": "NY", "zip": "10018-0000", "ntee": "K30", "ruling": "202311", "deductibility": "1", "assets": 0, "income": 0, "revenue": 0}, {"ein": "932603969", "name": "UNIQUELY ME CREATIVE ARTS INC", "city": "BROOKLYN", "state": "NY", "zip": "11221-1572", "ntee": "B28", "ruling": "202405", "deductibility": "1", "assets": 0, "income": 0, "revenue": 0}, {"ein": "933129341", "name": "PRAY FOR ME INC", "city": "FOREST HILLS", "state": "NY", "zip": "11375-4799", "ntee": "S20", "ruling": "202309", "deductibility": "1", "assets": 0, "income": 0, "revenue": 0}, {"ein": "933402935", "name": "MENTOR ME COLLECTIVE GROUP INC", "city": "NEW YORK", "state": "NY", "zip": "10036-0000", "ntee": "J02", "ruling": "202405", "deductibility": "1", "assets": 0, "income": 0, "revenue": 0}, {"ein": "933808016", "name": "HELP ME LIVE USA INC", "city": "STATEN ISLAND", "state": "NY", "zip": "10314-7826", "ntee": "Q33", "ruling": "202403", "deductibility": "1", "assets": 0, "income": 0, "revenue": 0}, {"ein": "990961367", "name": "I AM A BETTER ME INC", "city": "BRONXVILLE", "state": "NY", "zip": "10708-4417", "ntee": "F30", "ruling": "202410", "deductibility": "1", "assets": 0, "income": 0, "revenue": 0}, {"ein": "991774329", "name": "SUCCESS & ME ENRICHMENT PROGRAM INC", "city": "AMHERST", "state": "NY", "zip": "14228-2001", "ntee": "B80", "ruling": "202501", "deductibility": "1", "assets": 0, "income": 0, "revenue": 0}, {"ein": "992187867", "name": "WHOLE ME INTERNATIONAL INC", "city": "ROCHESTER", "state": "NY", "zip": "14624-5615", "ntee": "P80", "ruling": "202408", "deductibility": "1", "assets": 0, "income": 0, "revenue": 0}, {"ein": "993294301", "name": "MOM CENTER - MOMMY ME TIME", "city": "NEW YORK", "state": "NY", "zip": "10031-2259", "ntee": "P80", "ruling": "202406", "deductibility": "1", "assets": 0, "income": 0, "revenue": 0}, {"ein": "993395520", "name": "VIRGINIAS FORGET ME NOT FOUNDATION", "city": "SAYVILLE", "state": "NY", "zip": "11782-1912", "ntee": "H83", "ruling": "202407", "deductibility": "1", "assets": 0, "income": 0, "revenue": 0}, {"ein": "994290722", "name": "IT HAPPENED TO ME FOUNDATION FOR CHILD SEXUAL ABUSE INC", "city": "GRAND ISLAND", "state": "NY", "zip": "14072-7001", "ntee": "P20", "ruling": "202412", "deductibility": "1", "assets": 1, "income": 0, "revenue": 0}, {"ein": "994673279", "name": "SOULSCRIBE ME INC", "city": "NEW YORK", "state": "NY", "zip": "10038-1408", "ntee": "L40", "ruling": "202411", "deductibility": "1", "assets": 0, "income": 0, "revenue": 0}, {"ein": "995068365", "name": "BE PRODUCTIVE WITH ME INC", "city": "NEW YORK", "state": "NY", "zip": "10030-3385", "ntee": "P80", "ruling": "202409", "deductibility": "1", "assets": 0, "income": 0, "revenue": 0}], "TOSH": [{"ein": "030526805", "name": "CONG ZICHRON OHEL ELIMELECH TOSH INC", "city": "SPRING VALLEY", "state": "NY", "zip": "10977-4783", "ntee": "X30", "ruling": "200402", "deductibility": "1", "assets": 0, "income": 0, "revenue": 0}, {"ein": "113539294", "name": "CONG BEIS HAMEDRESH TOSH", "city": "BROOKLYN", "state": "NY", "zip": "11219-2610", "ntee": "X30", "ruling": "200006", "deductibility": "1", "assets": 0, "income": 0, "revenue": 0}, {"ein": "475018745", "name": "TOSH MONSEY", "city": "MONSEY", "state": "NY", "zip": "10952-8076", "ntee": "X30", "ruling": "201909", "deductibility": "1", "assets": 0, "income": 0, "revenue": 0}, {"ein": "820639848", "name": "HATZOLAH TOSH INC", "city": "MONSEY", "state": "NY", "zip": "10952-2891", "ntee": "T30", "ruling": "201706", "deductibility": "1", "assets": 0, "income": 0, "revenue": 0}, {"ein": "822629510", "name": "PETER TOSH FOUNDATION LTD", "city": "NEW YORK", "state": "NY", "zip": "10122-1801", "ntee": "G99", "ruling": "201806", "deductibility": "1", "assets": 0, "income": 0, "revenue": 0}, {"ein": "843098738", "name": "CONGREGATION RABBI MESHULAM FEISH OF TOSH", "city": "MONSEY", "state": "NY", "zip": "10952-2809", "ntee": "X30", "ruling": "202005", "deductibility": "1", "assets": 0, "income": 0, "revenue": 0}, {"ein": "880662490", "name": "CONGREGATION KEREN NESIYEN ATERES MORDECHAI D TOSH", "city": "BROOKLYN", "state": "NY", "zip": "11211-7732", "ntee": "X30", "ruling": "202304", "deductibility": "1", "assets": 0, "income": 0, "revenue": 0}, {"ein": "993194482", "name": "MOSDOS TOSH BP", "city": "BROOKLYN", "state": "NY", "zip": "11219-2610", "ntee": "X30", "ruling": "202406", "deductibility": "1", "assets": 0, "income": 0, "revenue": 0}], "CORPORA": [{"ein": "043611860", "name": "METRO COMMUNITY DEVELOPMENT CORPORA", "city": "BUFFALO", "state": "NY", "zip": "14215-3140", "ntee": "N31", "ruling": "201412", "deductibility": "1", "assets": 506503, "income": 572924, "revenue": 572924}, {"ein": "112561044", "name": "HOLLIS LOCAL DEVELOPMENT CORPORA TION", "city": "SAINT ALBANS", "state": "NY", "zip": "11412-1711", "ntee": "", "ruling": "198105", "deductibility": "1", "assets": 956590, "income": 80, "revenue": 80}], "LINE": [{"ein": "043682073", "name": "LIFE LINE INTERNATIONAL MINISTRIES INC", "city": "BROOKLYN", "state": "NY", "zip": "11203-5638", "ntee": "X99", "ruling": "201405", "deductibility": "1", "assets": 0, "income": 0, "revenue": 0}, {"ein": "112415091", "name": "ANIMAL LIFE LINE CORPORATION INC", "city": "BELLMORE", "state": "NY", "zip": "11710-0119", "ntee": "", "ruling": "197706", "deductibility": "1", "assets": 330315, "income": 23755, "revenue": 23755}, {"ein": "116404396", "name": "IBEW LOCAL 1049 LINE CLEARANCE TREE TRIMMING SKILL IMPROVEMENT FUND", "city": "HOLTSVILLE", "state": "NY", "zip": "11742-2000", "ntee": "J22", "ruling": "200210", "deductibility": "2", "assets": 928839, "income": 596786, "revenue": 96786}, {"ein": "133482896", "name": "LIFE LINE OF HOPE IN CHRIST INC", "city": "MT VERNON", "state": "NY", "zip": "10550-4407", "ntee": "", "ruling": "199408", "deductibility": "1", "assets": 0, "income": 0, "revenue": 0}, {"ein": "133607214", "name": "MONSEY CHAI LINE INC", "city": "MONSEY", "state": "NY", "zip": "10952-0000", "ntee": "", "ruling": "199302", "deductibility": "1", "assets": 0, "income": 0, "revenue": 0}, {"ein": "141738439", "name": "BRIDGE LINE HISTORICAL SOCIETY", "city": "ALBANY", "state": "NY", "zip": "12212-3324", "ntee": "A800", "ruling": "199510", "deductibility": "1", "assets": 0, "income": 0, "revenue": 0}, {"ein": "160864912", "name": "TOWN LINE VOLUNTEER FIRE DEPT INC", "city": "LANCASTER", "state": "NY", "zip": "14086-9515", "ntee": "", "ruling": "199409", "deductibility": "1", "assets": 8554928, "income": 956115, "revenue": 956115}, {"ein": "161293624", "name": "SOUTH LINE VOLUNTEER FIRE COMPANY INC", "city": "CHEEKTOWAGA", "state": "NY", "zip": "14227-3703", "ntee": "M24", "ruling": "200603", "deductibility": "1", "assets": 159179, "income": 171095, "revenue": 139824}, {"ein": "161405140", "name": "THIRD BATTALION LINE OFFICERS ASSOCIATION INC", "city": "PITTSFORD", "state": "NY", "zip": "14534-2121", "ntee": "M40", "ruling": "201305", "deductibility": "1", "assets": 0, "income": 0, "revenue": 0}, {"ein": "221656762", "name": "NORTHEASTERN LINE CONSTRUCTORS CHAPTER NATIONAL ELECTRICAL CONTRA", "city": "SCARSDALE", "state": "NY", "zip": "10583-5063", "ntee": "", "ruling": "195804", "deductibility": "2", "assets": 66114114, "income": 15918724, "revenue": 15918724}, {"ein": "222589838", "name": "EAST LINE UNION CEMETERY INC", "city": "ROUND LAKE", "state": "NY", "zip": "12151-0111", "ntee": "", "ruling": "000000", "deductibility": "0", "assets": 0, "income": 0, "revenue": 0}, {"ein": "222937521", "name": "EXCESS LINE ASSOCIATION OF NEW YORK", "city": "NEW YORK", "state": "NY", "zip": "10005-3904", "ntee": "", "ruling": "199004", "deductibility": "0", "assets": 47244587, "income": 20856907, "revenue": 14106907}, {"ein": "237304983", "name": "TOWN LINE VOLUNTEER FIREMENS BENEVOLENT ASSOCIATION ERIE COUNTY", "city": "LANCASTER", "state": "NY", "zip": "14086-9515", "ntee": "", "ruling": "197307", "deductibility": "1", "assets": 0, "income": 0, "revenue": 0}, {"ein": "263884479", "name": "LIFE LINE PREBYTERIAN CHURCH OF NEW YORK INC", "city": "FLUSHING", "state": "NY", "zip": "11355-5546", "ntee": "X20", "ruling": "201407", "deductibility": "1", "assets": 0, "income": 0, "revenue": 0}, {"ein": "270978908", "name": "TEMICHA SUPPORT LINE INC", "city": "SUFFERN", "state": "NY", "zip": "10901-0044", "ntee": "P60", "ruling": "200912", "deductibility": "1", "assets": 2450097, "income": 1815220, "revenue": 1815220}, {"ein": "311734086", "name": "FRIENDS OF THE HIGH LINE INC", "city": "NEW YORK", "state": "NY", "zip": "10014-1406", "ntee": "A80", "ruling": "200101", "deductibility": "1", "assets": 119987814, "income": 101548417, "revenue": 20970970}, {"ein": "331892601", "name": "PARENTS LINE INC", "city": "FAR ROCKAWAY", "state": "NY", "zip": "11691-1741", "ntee": "F40", "ruling": "202411", "deductibility": "1", "assets": 0, "income": 0, "revenue": 0}, {"ein": "411414832", "name": "ON-LINE AUDIOVISUAL CATOLOGERS INC", "city": "BROOKLYN", "state": "NY", "zip": "11216-3221", "ntee": "B03", "ruling": "201407", "deductibility": "1", "assets": 0, "income": 0, "revenue": 0}, {"ein": "461796310", "name": "CITY LINE CHURCH", "city": "BUFFALO", "state": "NY", "zip": "14220-1314", "ntee": "W99", "ruling": "201409", "deductibility": "1", "assets": 0, "income": 0, "revenue": 0}, {"ein": "465039599", "name": "CRISIS TEXT LINE INC", "city": "NEW YORK", "state": "NY", "zip": "10122-0049", "ntee": "F40", "ruling": "201410", "deductibility": "1", "assets": 36300859, "income": 67447142, "revenue": 45357832}, {"ein": "472256638", "name": "FAULT LINE THEATRE INC", "city": "NEW YORK", "state": "NY", "zip": "10036-6809", "ntee": "A65", "ruling": "201503", "deductibility": "1", "assets": 40926, "income": 174047, "revenue": 174047}, {"ein": "475536277", "name": "FRONT LINE USA FOUNDATION", "city": "NEW YORK", "state": "NY", "zip": "10001-3009", "ntee": "Q70", "ruling": "201605", "deductibility": "1", "assets": 361138, "income": 464046, "revenue": 464046}, {"ein": "510496705", "name": "SOLAR LINE UNIVERSAL GREAT BROTHERHOOD INC", "city": "BROOKLYN", "state": "NY", "zip": "11215-4007", "ntee": "P50", "ruling": "201605", "deductibility": "1", "assets": 0, "income": 0, "revenue": 0}, {"ein": "522276084", "name": "MEDIA LINE LTD", "city": "NEW YORK", "state": "NY", "zip": "10019-6026", "ntee": "A30", "ruling": "201709", "deductibility": "1", "assets": 121803, "income": 1687585, "revenue": 1687585}, {"ein": "800631654", "name": "FRONT LINE MINISTRIES INC", "city": "SAVANNAH", "state": "NY", "zip": "13146-9658", "ntee": "X21", "ruling": "201206", "deductibility": "1", "assets": 0, "income": 0, "revenue": 0}, {"ein": "812280437", "name": "ZION PRAYER LINE INC", "city": "BRONX", "state": "NY", "zip": "10453-5429", "ntee": "X99", "ruling": "201705", "deductibility": "1", "assets": 0, "income": 0, "revenue": 0}, {"ein": "813989371", "name": "MISHNAYOS LINE INC", "city": "BROOKLYN", "state": "NY", "zip": "11214-1506", "ntee": "X30", "ruling": "201610", "deductibility": "1", "assets": 0, "income": 0, "revenue": 0}, {"ein": "822431390", "name": "MOTHER LINE STORY PROJECT", "city": "BROOKLYN", "state": "NY", "zip": "11225-4304", "ntee": "A20", "ruling": "201808", "deductibility": "1", "assets": 0, "income": 0, "revenue": 0}, {"ein": "833849946", "name": "CONG SATMAR HELP LINE", "city": "MONROE", "state": "NY", "zip": "10950-2209", "ntee": "X30", "ruling": "201910", "deductibility": "1", "assets": 0, "income": 0, "revenue": 0}, {"ein": "842705610", "name": "BLUE LINE UNITED INC", "city": "MALTA", "state": "NY", "zip": "12020-3745", "ntee": "W12", "ruling": "202408", "deductibility": "1", "assets": 0, "income": 0, "revenue": 0}, {"ein": "843804101", "name": "COUNTY LINE COUNTRY CHURCH INC", "city": "BARKER", "state": "NY", "zip": "14012-0202", "ntee": "X20", "ruling": "202003", "deductibility": "1", "assets": 0, "income": 0, "revenue": 0}, {"ein": "844635316", "name": "CITY LINE OZONE PARK CIVILIAN PATROL INC", "city": "OZONE PARK", "state": "NY", "zip": "11416-1946", "ntee": "M40", "ruling": "202007", "deductibility": "1", "assets": 3471, "income": 76313, "revenue": 76313}, {"ein": "862220225", "name": "HOUSING LINE INC", "city": "NEW YORK", "state": "NY", "zip": "10003-5413", "ntee": "L30", "ruling": "202110", "deductibility": "1", "assets": 140210, "income": 386858, "revenue": 386858}, {"ein": "921474026", "name": "ABOVE THE LINE FOUNDATION INC", "city": "ROCHESTER", "state": "NY", "zip": "14615-1216", "ntee": "O50", "ruling": "202502", "deductibility": "1", "assets": 0, "income": 0, "revenue": 0}, {"ein": "933693606", "name": "BLUE LINE STABLES INC", "city": "SAINT JAMES", "state": "NY", "zip": "11780-3043", "ntee": "D99", "ruling": "202311", "deductibility": "1", "assets": 0, "income": 0, "revenue": 0}, {"ein": "991047291", "name": "MASMIDIM LINE", "city": "SPRING VALLEY", "state": "NY", "zip": "10977-6093", "ntee": "X30", "ruling": "202405", "deductibility": "1", "assets": 0, "income": 0, "revenue": 0}], "WILLIAMS": [{"ein": "043813005", "name": "CROSSLEY WILLIAMS JR MEMORIAL FUND", "city": "W HEMPSTEAD", "state": "NY", "zip": "11552-3933", "ntee": "B82", "ruling": "200512", "deductibility": "1", "assets": 0, "income": 0, "revenue": 0}, {"ein": "112801316", "name": "CHRIST TEMPLE OF LOVE CHURCH INC C/O REBECCA WILLIAMS", "city": "BROOKLYN", "state": "NY", "zip": "11207-1195", "ntee": "X20Z", "ruling": "199704", "deductibility": "1", "assets": 0, "income": 0, "revenue": 0}, {"ein": "112849607", "name": "THE WILLIAMS FAMILY PHILANTHROPIC FOUNDATION", "city": "LAWRENCE", "state": "NY", "zip": "11559-1718", "ntee": "", "ruling": "198706", "deductibility": "1", "assets": 1038331, "income": 520286, "revenue": 0}, {"ein": "131475080", "name": "WILLIAMS CLUB", "city": "NEW YORK", "state": "NY", "zip": "10036-6604", "ntee": "", "ruling": "193906", "deductibility": "2", "assets": 0, "income": 0, "revenue": 0}, {"ein": "134125025", "name": "MONTEL WILLIAMS MS FOUNDATION", "city": "NEW YORK", "state": "NY", "zip": "10019-3101", "ntee": "H125", "ruling": "200009", "deductibility": "1", "assets": 0, "income": 0, "revenue": 0}, {"ein": "136054008", "name": "A F WILLIAMS FUND FOR THE TEACHERS OF THE BARNARD SCHOOL FOR GIRLS", "city": "NEW YORK", "state": "NY", "zip": "10013-2362", "ntee": "", "ruling": "194510", "deductibility": "1", "assets": 960183, "income": 273418, "revenue": 0}, {"ein": "137320505", "name": "BUNNY WILLIAMS FOUNDATION", "city": "NEW YORK", "state": "NY", "zip": "10065-8752", "ntee": "T22", "ruling": "200205", "deductibility": "1", "assets": 16796, "income": 567, "revenue": 0}, {"ein": "150532214", "name": "MUNSON-WILLIAMS-PROCTOR ARTS INSTITUTE", "city": "UTICA", "state": "NY", "zip": "13502-4764", "ntee": "A200", "ruling": "194207", "deductibility": "1", "assets": 153126009, "income": 35486967, "revenue": 23061469}, {"ein": "161429432", "name": "ST WILLIAMS ON LONG POINT INC", "city": "RAQUETTE LAKE", "state": "NY", "zip": "13436-0071", "ntee": "X99Z", "ruling": "199310", "deductibility": "1", "assets": 173369, "income": 91048, "revenue": 91048}, {"ein": "161549566", "name": "WILLIAMS FAMILY FOUNDATION INC", "city": "ROCHESTER", "state": "NY", "zip": "14604-1757", "ntee": "T90Z", "ruling": "199806", "deductibility": "1", "assets": 708994, "income": 400222, "revenue": 0}, {"ein": "161674038", "name": "KEVIN WILLIAMS MEMORIAL FUND", "city": "SHOREHAM", "state": "NY", "zip": "11786-0970", "ntee": "N12", "ruling": "200609", "deductibility": "1", "assets": 409332, "income": 183489, "revenue": 150251}, {"ein": "205921672", "name": "BRUCE T WILLIAMS FAMILY FOUNDATION", "city": "AMHERST", "state": "NY", "zip": "14226-4245", "ntee": "T22", "ruling": "200702", "deductibility": "1", "assets": 1419169, "income": 464659, "revenue": 0}, {"ein": "223086266", "name": "T FRANKLIN WILLIAMS MD FOUNDATION INC", "city": "ROCHESTER", "state": "NY", "zip": "14620-0000", "ntee": "T20", "ruling": "199103", "deductibility": "1", "assets": 1078097, "income": 375905, "revenue": 298061}, {"ein": "271425562", "name": "HUGHES WILLIAMS HELPING HANDS COMMITTEE", "city": "SCHENECTADY", "state": "NY", "zip": "12306-5011", "ntee": "P58", "ruling": "201202", "deductibility": "1", "assets": 0, "income": 0, "revenue": 0}, {"ein": "311677571", "name": "WALT WILLIAMS CHARITABLE FOUNDATION INC", "city": "LAKE SUCCESS", "state": "NY", "zip": "11042-1007", "ntee": "T22", "ruling": "200003", "deductibility": "1", "assets": 1586, "income": 1, "revenue": 0}, {"ein": "364520407", "name": "BERTHA MAE WILLIAMS FOUNDATION", "city": "BROOKLYN", "state": "NY", "zip": "11210-3531", "ntee": "O50", "ruling": "200503", "deductibility": "1", "assets": 0, "income": 0, "revenue": 0}, {"ein": "366673112", "name": "THOMAS LYLE WILLIAMS TRUST", "city": "NEW YORK", "state": "NY", "zip": "10020-1401", "ntee": "P240", "ruling": "197802", "deductibility": "1", "assets": 144179497, "income": 52365129, "revenue": 0}, {"ein": "371793041", "name": "A J WILLIAMS-MYERS AFRICAN ROOTS COMMUNITY CENTER INC", "city": "KINGSTON", "state": "NY", "zip": "12402-2203", "ntee": "S20", "ruling": "201511", "deductibility": "1", "assets": 149688, "income": 87014, "revenue": 87014}, {"ein": "453716536", "name": "LOUGHRIDGE-WILLIAMS FOUNDATION", "city": "ALBANY", "state": "NY", "zip": "12212-5201", "ntee": "T20", "ruling": "201208", "deductibility": "1", "assets": 542172, "income": 546279, "revenue": 0}, {"ein": "463742196", "name": "WILLIAMS-DANIELS FAMILY FOUNDATION INC", "city": "BROOKLYN", "state": "NY", "zip": "11203-1201", "ntee": "B99", "ruling": "202311", "deductibility": "1", "assets": 1001, "income": 3395, "revenue": 0}, {"ein": "526690757", "name": "ALBERT V WILLIAMS TRUST UA CHARITABLE TRUST", "city": "AMHERST", "state": "NY", "zip": "14228-2307", "ntee": "T00Z", "ruling": "199611", "deductibility": "1", "assets": 326152, "income": 120406, "revenue": 0}, {"ein": "800220081", "name": "WILLIAMS WORLD WAR 2 AIRFIELD INC", "city": "DRYDEN", "state": "NY", "zip": "13053-2724", "ntee": "B20", "ruling": "202102", "deductibility": "1", "assets": 0, "income": 0, "revenue": 0}, {"ein": "814710996", "name": "WILLIAMS LEGACY FOUNDATION INC", "city": "SARATOGA SPGS", "state": "NY", "zip": "12866-0471", "ntee": "T20", "ruling": "201706", "deductibility": "1", "assets": 2716932, "income": 724195, "revenue": 0}, {"ein": "823254490", "name": "WILLIAMS WARRIORS INC", "city": "BLUE POINT", "state": "NY", "zip": "11715-1414", "ntee": "H30", "ruling": "201711", "deductibility": "1", "assets": 8580, "income": 36938, "revenue": 36938}, {"ein": "851918738", "name": "WILLIAMS FRANCISCO INITIATIVE", "city": "FORT PLAIN", "state": "NY", "zip": "13339-1444", "ntee": "S20", "ruling": "202310", "deductibility": "1", "assets": 1000, "income": 150768, "revenue": 150768}, {"ein": "852585793", "name": "SIEBERT WILLIAMS SHANK FOUNDATION", "city": "NEW YORK", "state": "NY", "zip": "10005-3701", "ntee": "T21", "ruling": "202103", "deductibility": "1", "assets": 3724673, "income": 900145, "revenue": 0}, {"ein": "852890005", "name": "MORGAN WILLIAMS YOUTH ADVOCATE PROGRAM INC", "city": "ROCHESTER", "state": "NY", "zip": "14609-6235", "ntee": "P30", "ruling": "202102", "deductibility": "1", "assets": 0, "income": 0, "revenue": 0}, {"ein": "871795854", "name": "TAMMY DARNISE WILLIAMS", "city": "ROCHESTER", "state": "NY", "zip": "14615-3438", "ntee": "", "ruling": "202212", "deductibility": "1", "assets": 0, "income": 0, "revenue": 0}, {"ein": "872222814", "name": "DETECTIVE KEITH L WILLIAMS MEMORIAL CHARITABLE FUND INC", "city": "JAMAICA", "state": "NY", "zip": "11434-1410", "ntee": "W12", "ruling": "202111", "deductibility": "1", "assets": 0, "income": 0, "revenue": 0}, {"ein": "921774908", "name": "ATTWOOD WILLIAMS CHARITABLE FOUNDATION", "city": "BEDFORD HILLS", "state": "NY", "zip": "10507-0094", "ntee": "T50", "ruling": "202302", "deductibility": "1", "assets": 1580990, "income": 36745063, "revenue": 0}, {"ein": "932414371", "name": "WILLIAMS EDUCATION AND HEALTH INITIATIVE INC", "city": "CHESTNUT RDG", "state": "NY", "zip": "10977-6219", "ntee": "P20", "ruling": "202502", "deductibility": "1", "assets": 0, "income": 0, "revenue": 0}, {"ein": "990488289", "name": "SQUAD WILLIAMS FOUNDATION INC", "city": "BALDWIN", "state": "NY", "zip": "11510-0767", "ntee": "O99", "ruling": "202403", "deductibility": "1", "assets": 50, "income": 2536, "revenue": 2536}], "ATERES": [{"ein": "061552334", "name": "ATERES AVOS", "city": "BROOKLYN", "state": "NY", "zip": "11211-8050", "ntee": "X30", "ruling": "199910", "deductibility": "1", "assets": 0, "income": 0, "revenue": 0}, {"ein": "061696408", "name": "CONGREGATION ATERES YISROEL", "city": "MONSEY", "state": "NY", "zip": "10952-1535", "ntee": "X30", "ruling": "200502", "deductibility": "1", "assets": 0, "income": 0, "revenue": 0}, {"ein": "112003553", "name": "YESHIVA ATERES YISROEL", "city": "BROOKLYN", "state": "NY", "zip": "11236-4203", "ntee": "", "ruling": "196410", "deductibility": "1", "assets": 0, "income": 0, "revenue": 0}, {"ein": "112424203", "name": "YESHIVA ATERES YESHUA D ZIKOW C O BENJAMIN ISAACS ESQ", "city": "BROOKLYN", "state": "NY", "zip": "11219-3738", "ntee": "", "ruling": "197708", "deductibility": "1", "assets": 0, "income": 0, "revenue": 0}, {"ein": "112841754", "name": "YESHIVA GEDOLAH ATERES YAAKOV", "city": "HEWLETT", "state": "NY", "zip": "11557-1119", "ntee": "", "ruling": "198703", "deductibility": "1", "assets": 0, "income": 0, "revenue": 0}, {"ein": "113022581", "name": "CONG ATERES ARON", "city": "MONROE", "state": "NY", "zip": "10950-5814", "ntee": "", "ruling": "199103", "deductibility": "1", "assets": 0, "income": 0, "revenue": 0}, {"ein": "113084311", "name": "ATERES SHLOMO", "city": "BROOKLYN", "state": "NY", "zip": "11211-8763", "ntee": "", "ruling": "199201", "deductibility": "1", "assets": 0, "income": 0, "revenue": 0}, {"ein": "113284904", "name": "YESHIVAS CHERNOBIL ATERES MESHULEM ZUSIA INC", "city": "BROOKLYN", "state": "NY", "zip": "11218-1906", "ntee": "X30Z", "ruling": "199701", "deductibility": "1", "assets": 0, "income": 0, "revenue": 0}, {"ein": "113403065", "name": "BAIS MEDRASH ATERES MORDECHAI", "city": "KEW GARDEN HL", "state": "NY", "zip": "11367-1936", "ntee": "X21Z", "ruling": "199804", "deductibility": "1", "assets": 0, "income": 0, "revenue": 0}, {"ein": "113407200", "name": "ATERES MECHOEL INC", "city": "BROOKLYN", "state": "NY", "zip": "11218-4911", "ntee": "X30Z", "ruling": "199806", "deductibility": "1", "assets": 0, "income": 0, "revenue": 0}, {"ein": "113409953", "name": "YESHIVA ATERES TZVI", "city": "BROOKLYN", "state": "NY", "zip": "11229-3510", "ntee": "X99Z", "ruling": "199803", "deductibility": "1", "assets": 0, "income": 0, "revenue": 0}, {"ein": "113445639", "name": "CONGREGATION ATERES YOSEF", "city": "BROOKLYN", "state": "NY", "zip": "11204-1228", "ntee": "X30Z", "ruling": "199809", "deductibility": "1", "assets": 0, "income": 0, "revenue": 0}, {"ein": "113479404", "name": "ATERES YEHUDA", "city": "BROOKLYN", "state": "NY", "zip": "11211-7749", "ntee": "X30", "ruling": "199906", "deductibility": "1", "assets": 0, "income": 0, "revenue": 0}, {"ein": "113497972", "name": "CONGREGATION ATERES BARDITCHEV", "city": "BROOKLYN", "state": "NY", "zip": "11211-7915", "ntee": "X30", "ruling": "199909", "deductibility": "1", "assets": 0, "income": 0, "revenue": 0}, {"ein": "113537183", "name": "ATERES MORDECHAI", "city": "BROOKLYN", "state": "NY", "zip": "11232-3101", "ntee": "X30", "ruling": "200005", "deductibility": "1", "assets": 0, "income": 0, "revenue": 0}, {"ein": "113564546", "name": "KEREN ATERES ZVI", "city": "BROOKLYN", "state": "NY", "zip": "11211-8036", "ntee": "X30", "ruling": "200101", "deductibility": "1", "assets": 0, "income": 0, "revenue": 0}, {"ein": "113576754", "name": "CONG & YESHIVA ATERES SHMIEL DSAYLISH", "city": "BROOKLYN", "state": "NY", "zip": "11205-1522", "ntee": "X30", "ruling": "200101", "deductibility": "1", "assets": 0, "income": 0, "revenue": 0}, {"ein": "113605269", "name": "ATERES AVREICHIM", "city": "BROOKLYN", "state": "NY", "zip": "11205-0226", "ntee": "X30", "ruling": "200109", "deductibility": "1", "assets": 0, "income": 0, "revenue": 0}, {"ein": "113618430", "name": "CONGREGATION ATERES SHLOIME- HORNOSTEIPEL", "city": "BROOKLYN", "state": "NY", "zip": "11210-4053", "ntee": "X30", "ruling": "200108", "deductibility": "1", "assets": 0, "income": 0, "revenue": 0}, {"ein": "113730589", "name": "CONGREGATION ATERES BANIM", "city": "BROOKLYN", "state": "NY", "zip": "11205-2787", "ntee": "X30", "ruling": "202505", "deductibility": "1", "assets": 0, "income": 0, "revenue": 0}, {"ein": "116038047", "name": "ATERES YISROEL", "city": "BROOKLYN", "state": "NY", "zip": "11236-4929", "ntee": "", "ruling": "196410", "deductibility": "1", "assets": 0, "income": 0, "revenue": 0}, {"ein": "119623333", "name": "ATERES TZUI D KHAL BEREKSAZ CONG INC", "city": "BROOKLYN", "state": "NY", "zip": "11211-7705", "ntee": "", "ruling": "197610", "deductibility": "1", "assets": 0, "income": 0, "revenue": 0}, {"ein": "133057872", "name": "CONGREGATION ATERES ZVI INC", "city": "BKLYN", "state": "NY", "zip": "11206-5409", "ntee": "", "ruling": "198103", "deductibility": "1", "assets": 0, "income": 0, "revenue": 0}, {"ein": "133395421", "name": "ATERES MOSHE CHASIDEI UMOSODOS LELOV", "city": "BROOKLYN", "state": "NY", "zip": "11204-1252", "ntee": "", "ruling": "198703", "deductibility": "1", "assets": 0, "income": 0, "revenue": 0}, {"ein": "133963408", "name": "ATERES ESTHER INC", "city": "MONSEY", "state": "NY", "zip": "10952-1801", "ntee": "X99", "ruling": "199710", "deductibility": "1", "assets": 17268, "income": 26035, "revenue": 26035}, {"ein": "134129843", "name": "CONGREGATION ATERES ROSH INC", "city": "SPRING VALLEY", "state": "NY", "zip": "10977-1126", "ntee": "X30", "ruling": "200009", "deductibility": "1", "assets": 0, "income": 0, "revenue": 0}, {"ein": "134186998", "name": "CONGREGATION ATERES TZVI", "city": "AIRMONT", "state": "NY", "zip": "10901-6302", "ntee": "X30", "ruling": "200203", "deductibility": "1", "assets": 0, "income": 0, "revenue": 0}, {"ein": "137290330", "name": "KEREN ATERES YITZCHOK", "city": "MONROE", "state": "NY", "zip": "10949-8512", "ntee": "T22", "ruling": "200210", "deductibility": "1", "assets": 62890, "income": 22000, "revenue": 0}, {"ein": "200556257", "name": "ATERES ZKEINIM BNEI BONIM CHARITABLE FOUNDATION", "city": "BROOKLYN", "state": "NY", "zip": "11234-3524", "ntee": "T20", "ruling": "200505", "deductibility": "1", "assets": 102272, "income": 25000, "revenue": 0}, {"ein": "237248598", "name": "BAIS MEDRASH ATERES YISROEL", "city": "FAR ROCKAWAY", "state": "NY", "zip": "11691-5215", "ntee": "", "ruling": "197212", "deductibility": "1", "assets": 0, "income": 0, "revenue": 0}, {"ein": "260415131", "name": "BAYIS LEPLEITOS ATERES BONOS INC", "city": "BROOKLYN", "state": "NY", "zip": "11211-1872", "ntee": "Q129", "ruling": "200810", "deductibility": "1", "assets": 2206492, "income": 8034962, "revenue": 8034962}, {"ein": "261094976", "name": "ATERES ROSH KOLBESOV", "city": "MONSEY", "state": "NY", "zip": "10952-3618", "ntee": "X30", "ruling": "201309", "deductibility": "1", "assets": 0, "income": 0, "revenue": 0}, {"ein": "272129650", "name": "CONG KEREN ATERES YISOCHER DOV DZABLITOV", "city": "BROOKLYN", "state": "NY", "zip": "11206-5411", "ntee": "X30", "ruling": "201210", "deductibility": "1", "assets": 0, "income": 0, "revenue": 0}, {"ein": "273622675", "name": "CONG ATERES NAFTALI INC", "city": "BROOKLYN", "state": "NY", "zip": "11211-8919", "ntee": "X30", "ruling": "201109", "deductibility": "1", "assets": 0, "income": 0, "revenue": 0}, {"ein": "331058523", "name": "CONG ATERES CHAIM MORDCHAI", "city": "WOODBOURNE", "state": "NY", "zip": "12788-5524", "ntee": "X30", "ruling": "200307", "deductibility": "1", "assets": 0, "income": 0, "revenue": 0}, {"ein": "332990496", "name": "ATERES BANIM INC", "city": "BROOKLYN", "state": "NY", "zip": "11205-2787", "ntee": "X30", "ruling": "202502", "deductibility": "1", "assets": 0, "income": 0, "revenue": 0}, {"ein": "455290453", "name": "BAIS YAAKOV ATERES MIRIAM", "city": "FAR ROCKAWAY", "state": "NY", "zip": "11691-5511", "ntee": "B20", "ruling": "201312", "deductibility": "1", "assets": 4535984, "income": 3976200, "revenue": 3865563}, {"ein": "463865616", "name": "CONGREGATION ATERES YESHAYE INC", "city": "SPRING VALLEY", "state": "NY", "zip": "10977-1900", "ntee": "X30", "ruling": "201407", "deductibility": "1", "assets": 0, "income": 0, "revenue": 0}, {"ein": "464098761", "name": "CONG ATERES MORDECHAI", "city": "BROOKLYN", "state": "NY", "zip": "11205-1039", "ntee": "X30", "ruling": "201806", "deductibility": "1", "assets": 0, "income": 0, "revenue": 0}, {"ein": "475193886", "name": "CONGREGATION BAIS CHINUCH ATERES BNOS", "city": "MONSEY", "state": "NY", "zip": "10952-0337", "ntee": "X30", "ruling": "201605", "deductibility": "1", "assets": 0, "income": 0, "revenue": 0}, {"ein": "562382175", "name": "ATERES BAIS YAAKOV ACADEMY OF ROCKLAND", "city": "SPRING VALLEY", "state": "NY", "zip": "10977-1222", "ntee": "B24", "ruling": "200402", "deductibility": "1", "assets": 0, "income": 0, "revenue": 0}, {"ein": "770595508", "name": "BEIS HAMEDRASH ATERES CHAIM HANIPOLY", "city": "BROOKLYN", "state": "NY", "zip": "11205-1525", "ntee": "X30", "ruling": "201003", "deductibility": "1", "assets": 0, "income": 0, "revenue": 0}, {"ein": "800078320", "name": "CONGREGATION ATERES HATORAH OHEL YAAKOV", "city": "MONSEY", "state": "NY", "zip": "10952-2559", "ntee": "X30", "ruling": "200404", "deductibility": "1", "assets": 0, "income": 0, "revenue": 0}, {"ein": "810934884", "name": "ATERES YOM TOV FOUNDATION", "city": "BROOKLYN", "state": "NY", "zip": "11221-6296", "ntee": "T22", "ruling": "201611", "deductibility": "1", "assets": 90221, "income": 1227010, "revenue": 0}, {"ein": "813055012", "name": "BAIS MEDRASH ATERES SHLOMO", "city": "CORTLANDT MNR", "state": "NY", "zip": "10567-6112", "ntee": "X30", "ruling": "201608", "deductibility": "1", "assets": 0, "income": 0, "revenue": 0}, {"ein": "813571801", "name": "ATERES SHALVA", "city": "SUFFERN", "state": "NY", "zip": "10901-4167", "ntee": "T70", "ruling": "201608", "deductibility": "1", "assets": 0, "income": 0, "revenue": 0}, {"ein": "821380094", "name": "AMERICAN FRIENDS OF ATERES MORDECHAI INC", "city": "BROOKLYN", "state": "NY", "zip": "11210-4824", "ntee": "T70", "ruling": "201807", "deductibility": "1", "assets": 0, "income": 0, "revenue": 0}, {"ein": "830361245", "name": "MESIVTA ATERES YAAKOV OF GREATER LONG ISLAND", "city": "LAWRENCE", "state": "NY", "zip": "11559-0000", "ntee": "X30", "ruling": "200407", "deductibility": "1", "assets": 0, "income": 0, "revenue": 0}, {"ein": "832865678", "name": "CONGREGATION ATERES ZVI ZIDITCHOIV HV INC", "city": "MONROE", "state": "NY", "zip": "10950-6466", "ntee": "X30", "ruling": "201908", "deductibility": "1", "assets": 0, "income": 0, "revenue": 0}, {"ein": "833136249", "name": "KHAL ATERES TZVI INC", "city": "MONSEY", "state": "NY", "zip": "10952-0000", "ntee": "X30", "ruling": "201906", "deductibility": "1", "assets": 0, "income": 0, "revenue": 0}, {"ein": "851471258", "name": "CONGREGATION ATERES YEHUDA", "city": "BROOKLYN", "state": "NY", "zip": "11206-5533", "ntee": "X30", "ruling": "202011", "deductibility": "1", "assets": 0, "income": 0, "revenue": 0}, {"ein": "852543663", "name": "ATERES CHAYA MUSHKA INC", "city": "BROOKLYN", "state": "NY", "zip": "11213-3410", "ntee": "B90", "ruling": "202311", "deductibility": "1", "assets": 0, "income": 0, "revenue": 0}, {"ein": "861307512", "name": "ATERES BUNOS", "city": "BLOOMINGBURG", "state": "NY", "zip": "12721-4510", "ntee": "X30", "ruling": "202107", "deductibility": "1", "assets": 0, "income": 0, "revenue": 0}, {"ein": "873462634", "name": "ATERES CHAIM", "city": "BROOKLYN", "state": "NY", "zip": "11249-7834", "ntee": "X30", "ruling": "202404", "deductibility": "1", "assets": 0, "income": 0, "revenue": 0}, {"ein": "880662490", "name": "CONGREGATION KEREN NESIYEN ATERES MORDECHAI D TOSH", "city": "BROOKLYN", "state": "NY", "zip": "11211-7732", "ntee": "X30", "ruling": "202304", "deductibility": "1", "assets": 0, "income": 0, "revenue": 0}, {"ein": "883339110", "name": "MESIVTA ATERES SHLOMO", "city": "AIRMONT", "state": "NY", "zip": "10952-3506", "ntee": "X30", "ruling": "202301", "deductibility": "1", "assets": 0, "income": 0, "revenue": 0}, {"ein": "933169416", "name": "CONGREGATION KAHAL ATERES SHALOM", "city": "BROOKLYN", "state": "NY", "zip": "11204-2304", "ntee": "X30", "ruling": "202404", "deductibility": "1", "assets": 0, "income": 0, "revenue": 0}, {"ein": "992534132", "name": "YESHIVA ATERES SHLOIME OF BOBOV", "city": "MONSEY", "state": "NY", "zip": "10952-3098", "ntee": "X30", "ruling": "202411", "deductibility": "1", "assets": 0, "income": 0, "revenue": 0}], "GETTING": [{"ein": "061711370", "name": "GETTING OUT AND STAYING OUT INC", "city": "NEW YORK", "state": "NY", "zip": "10035-2039", "ntee": "I43", "ruling": "200402", "deductibility": "1", "assets": 6875167, "income": 6571777, "revenue": 6440679}, {"ein": "332317377", "name": "GETTING TO GREATER GLOBAL INC", "city": "NEW YORK", "state": "NY", "zip": "10026-0550", "ntee": "B60", "ruling": "202503", "deductibility": "1", "assets": 0, "income": 0, "revenue": 0}, {"ein": "811069305", "name": "MISSION GETTING TO NEXT INC", "city": "NEW YORK", "state": "NY", "zip": "10124-0001", "ntee": "J20", "ruling": "201605", "deductibility": "1", "assets": 0, "income": 0, "revenue": 0}], "86TH": [{"ein": "061756910", "name": "EAST 86TH STREET MERCHANTS RESIDENTS ASSOCIATION INC", "city": "NEW YORK", "state": "NY", "zip": "10075-0855", "ntee": "S20", "ruling": "200609", "deductibility": "1", "assets": 0, "income": 0, "revenue": 0}, {"ein": "113619986", "name": "86TH STREET BAY RIDGE DISTRICT MANAGEMENT ASSOCIATION INC", "city": "BROOKLYN", "state": "NY", "zip": "11209-4739", "ntee": "S20", "ruling": "200307", "deductibility": "1", "assets": 339966, "income": 343839, "revenue": 343839}, {"ein": "472313917", "name": "86TH STREET ISLAMIC CENTER", "city": "BROOKLYN", "state": "NY", "zip": "11209-5057", "ntee": "X40", "ruling": "201709", "deductibility": "1", "assets": 16758, "income": 80883, "revenue": 80883}], "138B": [{"ein": "110908470", "name": "INTERNATIONAL UNION OF OPERATING ENGINEERS-LOCAL 138 138A & 138B", "city": "FARMINGDALE", "state": "NY", "zip": "11735-0206", "ntee": "", "ruling": "197304", "deductibility": "2", "assets": 6226963, "income": 5591221, "revenue": 5591221}, {"ein": "111628170", "name": "LOCAL 138 138A & 138B WELFARE INTER NATIONAL UNION OF OPERATING", "city": "FARMINGDALE", "state": "NY", "zip": "11735-0206", "ntee": "", "ruling": "199805", "deductibility": "2", "assets": 33102444, "income": 49308111, "revenue": 48197481}, {"ein": "112428038", "name": "INTERNATL UNION OF OPERATING ENGNRS LOC 138 138A 138B LEGAL FUND", "city": "FARMINGDALE", "state": "NY", "zip": "11735-0206", "ntee": "", "ruling": "199606", "deductibility": "2", "assets": 331320, "income": 274315, "revenue": 274315}], "1A": [{"ein": "112129051", "name": "UNITED AUTOMOTIVE SALES & SERVICE EMPLOYEES UNION LOCAL 1A NOITU", "city": "JAMAICA", "state": "NY", "zip": "11435-3331", "ntee": "J40Z", "ruling": "197011", "deductibility": "2", "assets": 3236820, "income": 851152, "revenue": 308722}, {"ein": "991640855", "name": "IUV PHASE 1A HOUSING DEVELOPMENT FUND CORPORATION", "city": "BROOKLYN", "state": "NY", "zip": "11207-8203", "ntee": "L80", "ruling": "202409", "deductibility": "2", "assets": 0, "income": 0, "revenue": 0}], "STUYVESTANT": [{"ein": "112194085", "name": "STUYVESTANT HEIGHTS CHRISTIAN CHURCH", "city": "BROOKLYN", "state": "NY", "zip": "11216-2303", "ntee": "", "ruling": "195107", "deductibility": "1", "assets": 0, "income": 0, "revenue": 0}], "PROMOTIONAL": [{"ein": "112477226", "name": "HEAVY CONSTRUCTION INDUSTRY PROMOTIONAL FUND", "city": "MELVILLE", "state": "NY", "zip": "11747-2335", "ntee": "", "ruling": "197902", "deductibility": "2", "assets": 6001052, "income": 1493628, "revenue": 1493628}, {"ein": "112507470", "name": "COMPOSITION ROOFERS INDUSTRY PROMOTIONAL FUND", "city": "COMMACK", "state": "NY", "zip": "11725-2810", "ntee": "", "ruling": "197910", "deductibility": "2", "assets": 179119, "income": 19861, "revenue": 19861}, {"ein": "112558447", "name": "INDUSTRY PROMOTIONAL FUND FOR THE WALL CEILING & CARPENTRY INDUSTRY", "city": "JERICHO", "state": "NY", "zip": "11753-1057", "ntee": "", "ruling": "198103", "deductibility": "2", "assets": 5784654, "income": 2124051, "revenue": 2124051}, {"ein": "132507195", "name": "PROMOTIONAL FUND OF THE TERRAZZO & MOSAIC CONTRACTORS ASSOCIATION OF", "city": "ARMONK", "state": "NY", "zip": "10504-1715", "ntee": "", "ruling": "196211", "deductibility": "2", "assets": 702061, "income": 85317, "revenue": 85317}, {"ein": "133202329", "name": "SERVICE FITTERS INDUSTRY PROMOTIONAL FUND OF NEW YORK", "city": "NEW YORK", "state": "NY", "zip": "10018-1716", "ntee": "", "ruling": "198406", "deductibility": "2", "assets": 1958155, "income": 915416, "revenue": 915416}, {"ein": "222925363", "name": "MANUFACTURING WOODWORKERS PROMOTIONAL FUND OF NEW YORK", "city": "VALHALLA", "state": "NY", "zip": "10595-1949", "ntee": "", "ruling": "199201", "deductibility": "2", "assets": 106585, "income": 47417, "revenue": 47417}, {"ein": "237057586", "name": "SHEET METAL INDUSTRY PROMOTIONAL FUND OF NASSAU & SUFFOLK COUNTIES", "city": "BOHEMIA", "state": "NY", "zip": "11716-2663", "ntee": "", "ruling": "197003", "deductibility": "2", "assets": 46009, "income": 436074, "revenue": 436074}, {"ein": "237304981", "name": "INSULATION INDUSTRY PROMOTIONAL FUND OF NEW YORK", "city": "MELVILLE", "state": "NY", "zip": "11747-3665", "ntee": "", "ruling": "197307", "deductibility": "2", "assets": 866122, "income": 687371, "revenue": 582911}, {"ein": "471275831", "name": "SCHOHARIE PROMOTIONAL ASSOCIATION", "city": "SCHOHARIE", "state": "NY", "zip": "12157-4801", "ntee": "T12", "ruling": "201412", "deductibility": "1", "assets": 0, "income": 0, "revenue": 0}, {"ein": "510186133", "name": "CONCRETE INDUSTRY PROMOTIONAL FUND", "city": "COMMACK", "state": "NY", "zip": "11725-2810", "ntee": "", "ruling": "197603", "deductibility": "2", "assets": 476031, "income": 129715, "revenue": 129715}], "PITTSBURGH": [{"ein": "112596605", "name": "MOSDOS PITTSBURGH YAD ISOMAR INC", "city": "BROOKLYN", "state": "NY", "zip": "11234-3325", "ntee": "", "ruling": "198205", "deductibility": "1", "assets": 0, "income": 0, "revenue": 0}, {"ein": "990928338", "name": "TIFERET MORDECHAI PITTSBURGH INC", "city": "BROOKLYN", "state": "NY", "zip": "11218-5905", "ntee": "T30", "ruling": "202404", "deductibility": "1", "assets": 0, "income": 0, "revenue": 0}], "FEDER": [{"ein": "112614184", "name": "ADELE AND WILLIAM FEDER PRIVATE FOUNDATION INC", "city": "GREENWOOD LK", "state": "NY", "zip": "10925-2121", "ntee": "", "ruling": "198311", "deductibility": "1", "assets": 120444, "income": 21319, "revenue": 0}, {"ein": "133618530", "name": "EDGARD & GERALDINE FEDER FOUNDATION", "city": "NEW YORK", "state": "NY", "zip": "10036-6524", "ntee": "", "ruling": "199108", "deductibility": "1", "assets": 2283920, "income": 95016, "revenue": 0}, {"ein": "136271757", "name": "FEDER FAMILY CHARITABLE TRUST", "city": "BROOKLYN", "state": "NY", "zip": "11238-3801", "ntee": "", "ruling": "196801", "deductibility": "1", "assets": 488, "income": 3, "revenue": 0}, {"ein": "461224558", "name": "PAULA FEDER FOUNDATION", "city": "MONTEBELLO", "state": "NY", "zip": "10901-2910", "ntee": "G30", "ruling": "201301", "deductibility": "1", "assets": 0, "income": 0, "revenue": 0}], "BLAC": [{"ein": "112705752", "name": "INTERNATIONAL BROTHERHOOD OF BOILMAKERS IRON SHIP BUILDERS BLAC", "city": "KINGS PARK", "state": "NY", "zip": "11754-2711", "ntee": "", "ruling": "195407", "deductibility": "2", "assets": 210039, "income": 312741, "revenue": 312741}, {"ein": "301376207", "name": "BLAC INC", "city": "NEW YORK", "state": "NY", "zip": "10037-2713", "ntee": "A90", "ruling": "202312", "deductibility": "1", "assets": 0, "income": 0, "revenue": 0}, {"ein": "852215725", "name": "BLACK BOYS LEADERSHIP ALLIANCE FOR CHANGE B-BLAC INC", "city": "JAMAICA", "state": "NY", "zip": "11433-1484", "ntee": "O50", "ruling": "202010", "deductibility": "1", "assets": 0, "income": 0, "revenue": 0}], "POUR": [{"ein": "112819709", "name": "FARDEAU DES AMES POUR CHRIST", "city": "BROOKLYN", "state": "NY", "zip": "11226-7127", "ntee": "", "ruling": "195105", "deductibility": "1", "assets": 0, "income": 0, "revenue": 0}, {"ein": "113494920", "name": "NOUVELLE JERUSALEM GROUP DEVOUES POUR CHRIST", "city": "JAMAICA", "state": "NY", "zip": "11434-2255", "ntee": "X21", "ruling": "200010", "deductibility": "1", "assets": 0, "income": 0, "revenue": 0}, {"ein": "134345617", "name": "MOUVEMENT SPIRITUEL POUR UNE NOUVELLE HAITI", "city": "BROOKLYN", "state": "NY", "zip": "11212-0316", "ntee": "X20", "ruling": "201508", "deductibility": "1", "assets": 0, "income": 0, "revenue": 0}, {"ein": "136000207", "name": "ASSOCIATION POUR LE RETABLISSEMENT DES INSTITUTIONS ET OEUVRES JUIVES", "city": "NEW YORK", "state": "NY", "zip": "10021-2762", "ntee": "E50J", "ruling": "194507", "deductibility": "1", "assets": 4590645, "income": 1964707, "revenue": 1398902}, {"ein": "352345051", "name": "FONDATION MINOUCHE POUR LES ENFANTS SANS ESPOIR DHAITI INC", "city": "BROOKLYN", "state": "NY", "zip": "11224-1696", "ntee": "P20", "ruling": "200911", "deductibility": "1", "assets": 0, "income": 0, "revenue": 0}, {"ein": "470946937", "name": "FEDERATION DES ASSOCIATIONS POUR LE DEVELOPPEMENT DU SUD-EST INC", "city": "BROOKLYN", "state": "NY", "zip": "11218-0400", "ntee": "Q33", "ruling": "201203", "deductibility": "1", "assets": 0, "income": 0, "revenue": 0}, {"ein": "743182358", "name": "SOLIDARITE HAITIENNE POUR L ACTION SOCIALE", "city": "W HEMPSTEAD", "state": "NY", "zip": "11552-0847", "ntee": "P20", "ruling": "201409", "deductibility": "1", "assets": 0, "income": 0, "revenue": 0}, {"ein": "825063505", "name": "HAITI MOUVEMENT POUR LA PAIX", "city": "ROOSEVELT", "state": "NY", "zip": "11575-2211", "ntee": "T50", "ruling": "201805", "deductibility": "1", "assets": 0, "income": 14650, "revenue": 14650}, {"ein": "844542898", "name": "ASSOCIATION POUR LE SOUTIEN DES ENFANTS D HAITI INC", "city": "SPRING VALLEY", "state": "NY", "zip": "10977-2758", "ntee": "S12", "ruling": "202003", "deductibility": "1", "assets": 6726, "income": 6016, "revenue": 6016}, {"ein": "854073491", "name": "ALLIANCE DES ANCIENS ELEVES DON DE DIRELAN DUMERLIN POUR LEDUCATION", "city": "SPRING VALLEY", "state": "NY", "zip": "10977-5048", "ntee": "B80", "ruling": "202102", "deductibility": "1", "assets": 0, "income": 0, "revenue": 0}, {"ein": "881281605", "name": "ASSOCIATION POUR LE DEVELOPMENT DE SINTA INC", "city": "BROOKLYN", "state": "NY", "zip": "11225-2537", "ntee": "B12", "ruling": "202208", "deductibility": "1", "assets": 0, "income": 0, "revenue": 0}, {"ein": "931621137", "name": "LES ENVOYES POUR CHRIST MINISTRY INCORPORATED", "city": "BROOKLYN", "state": "NY", "zip": "11203-1341", "ntee": "X99", "ruling": "202309", "deductibility": "1", "assets": 0, "income": 0, "revenue": 0}], "GUARDS": [{"ein": "112920915", "name": "NATIONAL UNION OF SECURITY OFFICERS AND GUARDS", "city": "JAMAICA", "state": "NY", "zip": "11435-3331", "ntee": "", "ruling": "000000", "deductibility": "0", "assets": 3348533, "income": 1398119, "revenue": 921275}, {"ein": "475340646", "name": "HOBOKEN GUARDS", "city": "LONG IS CITY", "state": "NY", "zip": "11101-3557", "ntee": "N60", "ruling": "201712", "deductibility": "1", "assets": 1041, "income": 9370, "revenue": 9370}, {"ein": "800563019", "name": "FEDERAL CONTRACT GUARDS OF AMERICA", "city": "NEW YORK", "state": "NY", "zip": "10022-2606", "ntee": "J40", "ruling": "201208", "deductibility": "2", "assets": 707217, "income": 451314, "revenue": 451314}], "DYNAMICS": [{"ein": "112961193", "name": "FAITH DYNAMICS CENTER INC C/O STEPHEN RE ANDREWS", "city": "BROOKLYN", "state": "NY", "zip": "11226-1901", "ntee": "", "ruling": "199409", "deductibility": "1", "assets": 0, "income": 0, "revenue": 0}, {"ein": "132573827", "name": "THE INSTITUTES OF APPLIED HUMAN DYNAMICS INC", "city": "BRONX", "state": "NY", "zip": "10467-1168", "ntee": "P82", "ruling": "196701", "deductibility": "1", "assets": 38846494, "income": 67547931, "revenue": 67533586}, {"ein": "133127899", "name": "DYNAMICS HOSTELS RESIDENCE CORPORATION", "city": "TARRYTOWN", "state": "NY", "zip": "10591-3021", "ntee": "", "ruling": "198209", "deductibility": "1", "assets": 654364, "income": 404436, "revenue": 404436}, {"ein": "133188076", "name": "DYNAMICS RESIDENCE CORPORATION OF BURKE AVENUE", "city": "TARRYTOWN", "state": "NY", "zip": "10591-3021", "ntee": "F33", "ruling": "198406", "deductibility": "1", "assets": 270938, "income": 165301, "revenue": 165301}, {"ein": "141949545", "name": "DYNAMICS TWIRLING ORGANIZATION INC", "city": "SMITHTOWN", "state": "NY", "zip": "11787-1510", "ntee": "N50", "ruling": "200703", "deductibility": "2", "assets": 0, "income": 0, "revenue": 0}, {"ein": "813975480", "name": "GREATER GOOD DYNAMICS", "city": "RED HOOK", "state": "NY", "zip": "12571-3330", "ntee": "S32", "ruling": "201709", "deductibility": "1", "assets": 0, "income": 0, "revenue": 0}], "ARQAM": [{"ein": "113019896", "name": "MASJID AL-ARQAM BRIGHTON BEACH INC", "city": "BROOKLYN", "state": "NY", "zip": "11235-5232", "ntee": "X40Z", "ruling": "199503", "deductibility": "1", "assets": 0, "income": 0, "revenue": 0}, {"ein": "113570842", "name": "DAR-E-ARQAM INC", "city": "ELMONT", "state": "NY", "zip": "11003-2902", "ntee": "X40", "ruling": "200103", "deductibility": "1", "assets": 0, "income": 0, "revenue": 0}, {"ein": "273430536", "name": "MASJID DARUL ARQAM INC", "city": "BRONX", "state": "NY", "zip": "10456-1155", "ntee": "X40", "ruling": "202202", "deductibility": "1", "assets": 0, "income": 0, "revenue": 0}, {"ein": "473538604", "name": "DARUL ARQAM", "city": "WOODSIDE", "state": "NY", "zip": "11377-0218", "ntee": "X40", "ruling": "201508", "deductibility": "1", "assets": 0, "income": 0, "revenue": 0}, {"ein": "812350591", "name": "AL-ARQAM CENTER OF SARATOGA INC", "city": "WATERFORD", "state": "NY", "zip": "12188-1130", "ntee": "X40", "ruling": "201606", "deductibility": "1", "assets": 0, "income": 0, "revenue": 0}, {"ein": "831209724", "name": "DARUL ARQAM CULTURAL CENTER USA INC", "city": "BUFFALO", "state": "NY", "zip": "14215-3906", "ntee": "X40", "ruling": "202209", "deductibility": "1", "assets": 0, "income": 0, "revenue": 0}], "TOMASHOVER": [{"ein": "113056466", "name": "TOMASHOVER CONGREGATION AND YESHIVA KOL ARYEH", "city": "BROOKLYN", "state": "NY", "zip": "11230-2910", "ntee": "", "ruling": "199104", "deductibility": "1", "assets": 0, "income": 0, "revenue": 0}, {"ein": "113243501", "name": "FRIENDS OF TOMASHOVER INC", "city": "SCARSDALE", "state": "NY", "zip": "10583-7639", "ntee": "T99Z", "ruling": "199503", "deductibility": "1", "assets": 0, "income": 0, "revenue": 0}, {"ein": "743036701", "name": "TOMASHOVER CONGREGATION KOLLEL OHR SIMCHA", "city": "BROOKLYN", "state": "NY", "zip": "11230-2910", "ntee": "X30", "ruling": "200404", "deductibility": "1", "assets": 0, "income": 0, "revenue": 0}], "SOOORSO": [{"ein": "113091231", "name": "DURAZZANESE SOCIETA ITALO AMERICANO DIMUTUO SOOORSO INC", "city": "WESTBURY", "state": "NY", "zip": "11590-3216", "ntee": "A23", "ruling": "200503", "deductibility": "1", "assets": 142595, "income": 21052, "revenue": 10879}], "AHISAMAH": [{"ein": "113152762", "name": "AHISAMAH CENTER", "city": "BROOKLYN", "state": "NY", "zip": "11223-2339", "ntee": "", "ruling": "199305", "deductibility": "1", "assets": 0, "income": 0, "revenue": 0}], "CAKRA": [{"ein": "113194831", "name": "SADDHARMA CAKRA BUDDHIST ASSOCIATION", "city": "FLUSHING", "state": "NY", "zip": "11355-3288", "ntee": "X50", "ruling": "200004", "deductibility": "1", "assets": 0, "income": 0, "revenue": 0}], "CHAREIDEM": [{"ein": "113380408", "name": "CONG HISACHDUS CHAREIDEM DABIULI", "city": "BROOKLYN", "state": "NY", "zip": "11211-7371", "ntee": "X20I", "ruling": "199709", "deductibility": "1", "assets": 0, "income": 0, "revenue": 0}], "CAUMSETT": [{"ein": "113396186", "name": "CAUMSETT FOUNDATION INCORPORATED", "city": "LLOYD HARBOR", "state": "NY", "zip": "11743-9704", "ntee": "C30", "ruling": "199802", "deductibility": "1", "assets": 4829929, "income": 1248738, "revenue": 1149458}], "KARIM": [{"ein": "113434016", "name": "MASJID-E-BAITUL KARIM INC", "city": "BROOKLYN", "state": "NY", "zip": "11226-5776", "ntee": "X40Z", "ruling": "199812", "deductibility": "1", "assets": 0, "income": 0, "revenue": 0}, {"ein": "922650103", "name": "DR FARHAN KARIM FOUNDATION INC", "city": "ROSLYN HTS", "state": "NY", "zip": "11577-2508", "ntee": "B82", "ruling": "202305", "deductibility": "1", "assets": 0, "income": 0, "revenue": 0}], "CENTR": [{"ein": "113470603", "name": "REHOBOTH FELLOWSHIP CENTR INC", "city": "HEMPSTEAD", "state": "NY", "zip": "11550-3435", "ntee": "X20", "ruling": "199907", "deductibility": "1", "assets": 0, "income": 0, "revenue": 0}, {"ein": "133785416", "name": "INTERNATIONAL FEDERATION OF SETTLEMENTS AND NEIGHBORHOOD CENTR", "city": "NEW YORK", "state": "NY", "zip": "10002-2924", "ntee": "N31", "ruling": "202308", "deductibility": "1", "assets": 3896, "income": 5550, "revenue": 5550}, {"ein": "473953554", "name": "NIPPER KNOLLS EQUINE CENTR", "city": "GRANVILLE", "state": "NY", "zip": "12832-4727", "ntee": "N69", "ruling": "201507", "deductibility": "1", "assets": 7363, "income": 29218, "revenue": 24441}], "ROSEDORF": [{"ein": "113523188", "name": "ROSEDORF FOUNDATION", "city": "BROOKLYN", "state": "NY", "zip": "11219-0000", "ntee": "T22", "ruling": "200003", "deductibility": "1", "assets": 609326, "income": 235700, "revenue": 0}], "KEVORKIAN": [{"ein": "113536312", "name": "GEORGE AND ALICE KEVORKIAN FOUNDATION INC", "city": "CHAPPAQUA", "state": "NY", "zip": "10514-1805", "ntee": "T22", "ruling": "200005", "deductibility": "1", "assets": 569298, "income": 29031, "revenue": 0}, {"ein": "131839686", "name": "HAGOP KEVORKIAN FUND", "city": "BROOKLYN", "state": "NY", "zip": "11230-3030", "ntee": "", "ruling": "195211", "deductibility": "1", "assets": 395274, "income": 69904, "revenue": 0}], "ASHANA": [{"ein": "113558607", "name": "SRI KRI ASHANA BHAKTA SHANGHA ESAINC", "city": "JAMAICA", "state": "NY", "zip": "11432-3454", "ntee": "X70", "ruling": "200107", "deductibility": "1", "assets": 1154470, "income": 150404, "revenue": 150404}], "NEPONSIT": [{"ein": "116005067", "name": "DORIS & MORTIMER GROSSMAN FUND INC NEPONSIT", "city": "NEW ROCHELLE", "state": "NY", "zip": "10805-1123", "ntee": "", "ruling": "196205", "deductibility": "1", "assets": 36753, "income": 12957, "revenue": 0}, {"ein": "116039882", "name": "NEPONSIT PROPERTY OWNERS ASSOCIATION INC", "city": "NEPONSIT", "state": "NY", "zip": "11694-1107", "ntee": "L51Z", "ruling": "194301", "deductibility": "1", "assets": 0, "income": 85039, "revenue": 85039}], "DURST": [{"ein": "131656537", "name": "DURST FOUNDATION", "city": "NEW YORK", "state": "NY", "zip": "10036-2711", "ntee": "", "ruling": "194412", "deductibility": "1", "assets": 66656, "income": 1, "revenue": 0}, {"ein": "522262647", "name": "THE@DURST FAMILY FOUNDATION", "city": "NEW YORK", "state": "NY", "zip": "10036-2711", "ntee": "T20", "ruling": "200106", "deductibility": "1", "assets": 6096641, "income": 7600383, "revenue": 0}], "CONCEPTION": [{"ein": "131740277", "name": "IMMACULATE CONCEPTION CHURCH", "city": "BRONX", "state": "NY", "zip": "10455-2706", "ntee": "", "ruling": "194603", "deductibility": "0", "assets": 0, "income": 0, "revenue": 0}, {"ein": "131982783", "name": "PROVINCE OF THE IMMACULATE CONCEPTION", "city": "MT VERNON", "state": "NY", "zip": "10550-2509", "ntee": "", "ruling": "194603", "deductibility": "1", "assets": 0, "income": 0, "revenue": 0}, {"ein": "132693052", "name": "CHURCH OF THE IMMACULATE CONCEPTION SCHOOL", "city": "IRVINGTON", "state": "NY", "zip": "10533-1862", "ntee": "", "ruling": "194603", "deductibility": "1", "assets": 0, "income": 0, "revenue": 0}, {"ein": "133398853", "name": "IMMACULATE CONCEPTION HIGH SCHOOL ALUMNAE ASSOCIATION", "city": "LAURELTON", "state": "NY", "zip": "11413-2108", "ntee": "", "ruling": "198707", "deductibility": "1", "assets": 0, "income": 0, "revenue": 0}, {"ein": "141400573", "name": "IMMACULATE CONCEPTION CHURCH", "city": "HOOSICK FALLS", "state": "NY", "zip": "12090-2003", "ntee": "", "ruling": "194603", "deductibility": "1", "assets": 0, "income": 0, "revenue": 0}, {"ein": "150542692", "name": "IMMACULATE CONCEPTION", "city": "ITHACA", "state": "NY", "zip": "14850-4133", "ntee": "", "ruling": "194603", "deductibility": "1", "assets": 0, "income": 0, "revenue": 0}, {"ein": "160743259", "name": "IMMACULATE CONCEPTION ST BRIDGET CHURCH SOCIETY", "city": "ROCHESTER", "state": "NY", "zip": "14608-2467", "ntee": "", "ruling": "194603", "deductibility": "1", "assets": 0, "income": 0, "revenue": 0}, {"ein": "160755842", "name": "IMMACULATE CONCEPTION ST BRIDGET", "city": "ROCHESTER", "state": "NY", "zip": "14608-2467", "ntee": "", "ruling": "194603", "deductibility": "1", "assets": 0, "income": 0, "revenue": 0}, {"ein": "160763948", "name": "IMMACULATE CONCEPTION", "city": "EAST AURORA", "state": "NY", "zip": "14052-2304", "ntee": "", "ruling": "194603", "deductibility": "1", "assets": 0, "income": 0, "revenue": 0}, {"ein": "161421537", "name": "IMMACULATE CONCEPTION HOUSING INC", "city": "SYRACUSE", "state": "NY", "zip": "13203-2879", "ntee": "L20Z", "ruling": "199704", "deductibility": "1", "assets": 61249, "income": 17904, "revenue": 17904}, {"ein": "270357520", "name": "SACRED HEART-IMMACULATE CONCEPTION CHURCH HAINES FALLS", "city": "HAINES FALLS", "state": "NY", "zip": "12436-0379", "ntee": "", "ruling": "194603", "deductibility": "1", "assets": 0, "income": 0, "revenue": 0}, {"ein": "412271797", "name": "IMMACULATE CONCEPTION SCHOOL OF ALLEGANY COUNTY", "city": "WELLSVILLE", "state": "NY", "zip": "14895-1205", "ntee": "", "ruling": "194603", "deductibility": "1", "assets": 0, "income": 0, "revenue": 0}, {"ein": "474279572", "name": "IMMACULATE CONCEPTION CATHOLIC ACADEMY", "city": "JAMAICA", "state": "NY", "zip": "11432-0000", "ntee": "", "ruling": "194603", "deductibility": "0", "assets": 0, "income": 0, "revenue": 0}, {"ein": "812442602", "name": "ROMAN CATHOLIC CHURCH OF SAINT JOSEPH AND IMMACULATE CONCEPTION", "city": "MILLBROOK", "state": "NY", "zip": "12545-5951", "ntee": "", "ruling": "194603", "deductibility": "1", "assets": 0, "income": 0, "revenue": 0}, {"ein": "812442737", "name": "ROMAN CATHOLIC CHURCH OF IMMACULATE CONCEPTION AND SAINT ANTHONY", "city": "AMENIA", "state": "NY", "zip": "12501-5506", "ntee": "", "ruling": "194603", "deductibility": "1", "assets": 0, "income": 0, "revenue": 0}, {"ein": "812453614", "name": "ROMAN CATHOLIC CHURCH OF IMMACULATE CONCEPTION AND ASSUMPTION", "city": "TUCKAHOE", "state": "NY", "zip": "10707-4311", "ntee": "", "ruling": "194603", "deductibility": "1", "assets": 0, "income": 0, "revenue": 0}, {"ein": "812486769", "name": "ROMAN CATHOLIC CHURCH OF SAINT JOSEPH IMMACULATE CONCEPTION AND S", "city": "STATEN ISLAND", "state": "NY", "zip": "10305-1714", "ntee": "", "ruling": "194603", "deductibility": "1", "assets": 0, "income": 0, "revenue": 0}, {"ein": "821930141", "name": "IMMACULATE CONCEPTION CATHOLIC ACADEMY IN ASTORIA", "city": "ASTORIA", "state": "NY", "zip": "11105-2918", "ntee": "", "ruling": "194603", "deductibility": "1", "assets": 0, "income": 0, "revenue": 0}], "HAMMOND": [{"ein": "132362963", "name": "MUSAMA CHURCH NEW YORK INC C/O SOLO J DOWUONA-HAMMOND", "city": "NEW YORK", "state": "NY", "zip": "10113-1407", "ntee": "", "ruling": "199208", "deductibility": "1", "assets": 0, "income": 0, "revenue": 0}, {"ein": "136111418", "name": "HAMMOND MUSEUM INC", "city": "NORTH SALEM", "state": "NY", "zip": "10560-0326", "ntee": "A500", "ruling": "196310", "deductibility": "1", "assets": 659260, "income": 306436, "revenue": 306436}, {"ein": "141401797", "name": "HAMMOND PUBLIC LIBRARY", "city": "CROWN POINT", "state": "NY", "zip": "12928-0245", "ntee": "B70", "ruling": "201406", "deductibility": "1", "assets": 268343, "income": 66126, "revenue": 66126}, {"ein": "150350470", "name": "HAMMOND FREE LIBRARY", "city": "HAMMOND", "state": "NY", "zip": "13646-0229", "ntee": "", "ruling": "197205", "deductibility": "1", "assets": 0, "income": 0, "revenue": 0}, {"ein": "161402959", "name": "HAMMOND HOUSING DEVELOPMENT FUND COMPANY INC", "city": "HAMMOND", "state": "NY", "zip": "13646-3104", "ntee": "", "ruling": "199302", "deductibility": "1", "assets": 411444, "income": 123150, "revenue": 105671}, {"ein": "161501836", "name": "HAMMOND HISTORICAL MUSEUM", "city": "HAMMOND", "state": "NY", "zip": "13646-0107", "ntee": "A80", "ruling": "201706", "deductibility": "1", "assets": 0, "income": 0, "revenue": 0}, {"ein": "205135919", "name": "HAMMOND FIRE AND RESCUE INC", "city": "HAMMOND", "state": "NY", "zip": "13646-0202", "ntee": "M24", "ruling": "200608", "deductibility": "1", "assets": 390862, "income": 106564, "revenue": 106564}, {"ein": "236744410", "name": "WILLIAM B HAMMOND II TA", "city": "BUFFALO", "state": "NY", "zip": "14240-1504", "ntee": "B90", "ruling": "200608", "deductibility": "1", "assets": 395320, "income": 128642, "revenue": 0}, {"ein": "814208726", "name": "HAMMOND FAIR ASSOCIATION", "city": "HAMMOND", "state": "NY", "zip": "13646-0000", "ntee": "N52", "ruling": "201611", "deductibility": "1", "assets": 0, "income": 0, "revenue": 0}], "CORWIN": [{"ein": "132880747", "name": "ELIZA CORWIN FROST CHILD CENTER OF CHRIST CHURCH", "city": "BRONXVILLE", "state": "NY", "zip": "10708-1575", "ntee": "P33", "ruling": "200310", "deductibility": "1", "assets": 0, "income": 0, "revenue": 0}], "PELLS": [{"ein": "133187866", "name": "PELLS-MAYTON FOUNDATION INC", "city": "SCARSDALE", "state": "NY", "zip": "10583-0624", "ntee": "", "ruling": "198406", "deductibility": "1", "assets": 696058, "income": 430501, "revenue": 0}], "BARTENIEFF": [{"ein": "133206848", "name": "LABAN BARTENIEFF INSTITUTE OF MOVEMENT STUDIES INC", "city": "BROOKLYN", "state": "NY", "zip": "11217-1695", "ntee": "A6E0", "ruling": "198508", "deductibility": "1", "assets": 26220, "income": 182970, "revenue": 182970}], "105TH": [{"ein": "133210228", "name": "74 WEST 105TH STREET HOUSING DEVELOPMENT FUND CORPORATION", "city": "NEW YORK", "state": "NY", "zip": "10025-3222", "ntee": "L21", "ruling": "202002", "deductibility": "1", "assets": 149318, "income": 95658, "revenue": 95658}, {"ein": "352433476", "name": "105TH MILITARY POLICE COMPANY ALUMNI ASSOCIATION TROY NEW YORK", "city": "PETERSBURGH", "state": "NY", "zip": "12138-4900", "ntee": "W30", "ruling": "201406", "deductibility": "2", "assets": 0, "income": 0, "revenue": 0}, {"ein": "882419342", "name": "105TH PRECINCT CLUB", "city": "QUEENS VLG", "state": "NY", "zip": "11428-1474", "ntee": "N50", "ruling": "202301", "deductibility": "2", "assets": 0, "income": 0, "revenue": 0}], "SARADA": [{"ein": "133240952", "name": "SARADA RAMAKRISHNA VIVEKANANDA ASSOCIATION OF AMERICA", "city": "GREENVILLE", "state": "NY", "zip": "12083-2134", "ntee": "X70", "ruling": "201309", "deductibility": "1", "assets": 0, "income": 0, "revenue": 0}], "APROPOS": [{"ein": "133257307", "name": "APROPOS-HOUSING OPPORTUNITIES AND MANAGEMENT ENTERPRISES INC", "city": "MOUNT KISCO", "state": "NY", "zip": "10549-2816", "ntee": "L210", "ruling": "198607", "deductibility": "1", "assets": 3864597, "income": 1394744, "revenue": 1394744}], "BENENSON": [{"ein": "133267113", "name": "FRANCES AND BENJAMIN BENENSON FOUNDATION INC", "city": "NEW YORK", "state": "NY", "zip": "10017-4100", "ntee": "", "ruling": "198506", "deductibility": "1", "assets": 30850855, "income": 15703877, "revenue": 0}, {"ein": "136162730", "name": "EDWARD H BENENSON FOUNDATION INC", "city": "NEW YORK", "state": "NY", "zip": "10022-5403", "ntee": "", "ruling": "195708", "deductibility": "1", "assets": 15144263, "income": 6930693, "revenue": 0}, {"ein": "510173119", "name": "ROBERT AND NETTIE BENENSON FOUNDATION INC", "city": "NEW YORK", "state": "NY", "zip": "10022-5403", "ntee": "", "ruling": "197511", "deductibility": "1", "assets": 3269592, "income": 1730198, "revenue": 0}], "SWAPS": [{"ein": "133298818", "name": "INTERNATIONAL SWAPS AND DERIVATIVES ASSOCIATION INC", "city": "NEW YORK", "state": "NY", "zip": "10022-5240", "ntee": "", "ruling": "198602", "deductibility": "2", "assets": 154059460, "income": 73365553, "revenue": 73365532}], "NYE": [{"ein": "133368971", "name": "RICHARD & HETHEA NYE FOUNDATION", "city": "NEW YORK", "state": "NY", "zip": "10022-1304", "ntee": "", "ruling": "198701", "deductibility": "1", "assets": 27854, "income": 2545, "revenue": 0}], "DEAD": [{"ein": "133440279", "name": "GOD IS NOT DEAD HE IS STILL ALIVE MINISTRIES", "city": "WOODSIDE QUEENS", "state": "NY", "zip": "11377-6553", "ntee": "", "ruling": "198811", "deductibility": "1", "assets": 0, "income": 0, "revenue": 0}, {"ein": "824516795", "name": "NOT DEAD YETTI INC", "city": "BROOKLYN", "state": "NY", "zip": "11209-7742", "ntee": "P12", "ruling": "201803", "deductibility": "1", "assets": 0, "income": 0, "revenue": 0}], "SANTIS": [{"ein": "133566483", "name": "SOCIETA SAN ROCCO DI MORRA DE SANTIS GREENWICH CT", "city": "RYE BROOK", "state": "NY", "zip": "10573-2815", "ntee": "N50", "ruling": "201307", "deductibility": "2", "assets": 0, "income": 0, "revenue": 0}, {"ein": "476789783", "name": "ALEXANDRA DE SANTIS MEMORIAL FOUNDATION TR", "city": "NEW ROCHELLE", "state": "NY", "zip": "10805-1823", "ntee": "T22", "ruling": "201603", "deductibility": "1", "assets": 1, "income": 1, "revenue": 0}], "CITEC": [{"ein": "133673737", "name": "CITEC INC", "city": "POTSDAM", "state": "NY", "zip": "13699-9000", "ntee": "B99Z", "ruling": "199306", "deductibility": "1", "assets": 1561927, "income": 1086626, "revenue": 1086626}], "EVANGELICALS": [{"ein": "133693905", "name": "EVANGELICALS CONCERNED INC", "city": "NEW YORK", "state": "NY", "zip": "10021-4684", "ntee": "", "ruling": "199311", "deductibility": "1", "assets": 109850, "income": 2894, "revenue": 0}], "EARN": [{"ein": "133782233", "name": "I EARN INC", "city": "NEW YORK", "state": "NY", "zip": "10036-7329", "ntee": "Q300", "ruling": "199601", "deductibility": "1", "assets": 1435377, "income": 5094726, "revenue": 5094726}, {"ein": "141814734", "name": "ADIRONDACK LEARN TO EARN INC", "city": "WILLSBORO", "state": "NY", "zip": "12996-4908", "ntee": "B60", "ruling": "200101", "deductibility": "1", "assets": 0, "income": 0, "revenue": 0}, {"ein": "461053788", "name": "EARN & LEARN MENTORING FOUNDATION INC", "city": "HUNTINGTON", "state": "NY", "zip": "11743-6609", "ntee": "B92", "ruling": "201303", "deductibility": "1", "assets": 16693, "income": 309, "revenue": 309}, {"ein": "933015226", "name": "EARN AS YOU LEARN", "city": "WHITE PLAINS", "state": "NY", "zip": "10603-2310", "ntee": "O53", "ruling": "202309", "deductibility": "1", "assets": 0, "income": 0, "revenue": 0}], "DSHIKYN": [{"ein": "133819286", "name": "MERKAZ HAKOLILIM DSHIKYN SQUARE", "city": "SPRING VALLEY", "state": "NY", "zip": "10977-1922", "ntee": "X30Z", "ruling": "199604", "deductibility": "1", "assets": 0, "income": 0, "revenue": 0}], "AILEEN": [{"ein": "133835943", "name": "AILEEN AVERY HDFC", "city": "NEW YORK", "state": "NY", "zip": "10031-6166", "ntee": "L21", "ruling": "200612", "deductibility": "1", "assets": 1111696, "income": 334191, "revenue": 334191}, {"ein": "883873611", "name": "AILEEN OCONNELL MEMORIAL SCHOLARSHIP INC", "city": "GLEN HEAD", "state": "NY", "zip": "11545-1131", "ntee": "", "ruling": "202312", "deductibility": "1", "assets": 0, "income": 0, "revenue": 0}], "ROMANO": [{"ein": "133963390", "name": "UMBERTO ROMANO AND CLORINDA ROMANO FOUNDATION INC", "city": "NEW YORK", "state": "NY", "zip": "10016-1929", "ntee": "T20J", "ruling": "199802", "deductibility": "1", "assets": 2378071, "income": 954906, "revenue": 0}, {"ein": "141833603", "name": "THE MILLMAN-HARRIS-ROMANO", "city": "POUGHKEEPSIE", "state": "NY", "zip": "12601-4603", "ntee": "T20", "ruling": "200107", "deductibility": "1", "assets": 1110012, "income": 352086, "revenue": 0}, {"ein": "311777685", "name": "ORSA-ROMANO CULTURAL AND EDUCATIONAL FOUNDATION INC", "city": "MANHASSET", "state": "NY", "zip": "11030-3618", "ntee": "B82", "ruling": "200109", "deductibility": "1", "assets": 840736, "income": 124043, "revenue": 0}, {"ein": "611591286", "name": "FRANK J ROMANO FOUNDATION INC", "city": "GOSHEN", "state": "NY", "zip": "10924-5314", "ntee": "T99", "ruling": "202412", "deductibility": "1", "assets": 0, "income": 0, "revenue": 0}], "GBRG": [{"ein": "134072646", "name": "GBRG INC", "city": "NEW YORK", "state": "NY", "zip": "10022-6131", "ntee": "T20", "ruling": "200002", "deductibility": "1", "assets": 30113937, "income": 1106307, "revenue": 0}], "CHARATAN": [{"ein": "134126715", "name": "DEBRAH LEE CHARATAN HOLM FOUNDATION", "city": "NEW YORK", "state": "NY", "zip": "10065-5861", "ntee": "T21", "ruling": "200010", "deductibility": "1", "assets": 151004, "income": 150000, "revenue": 0}], "KOCHHAR": [{"ein": "134147472", "name": "MUNSHI BISHAN SINGH KOCHHAR FOUNDATION INC", "city": "NEW YORK", "state": "NY", "zip": "10016-2784", "ntee": "T20", "ruling": "200103", "deductibility": "1", "assets": 3750420, "income": 75000, "revenue": 0}], "BURNETT": [{"ein": "134183289", "name": "TOM AND HARRIET BURNETT FAMILY FOUNDATION", "city": "WOODBURY", "state": "NY", "zip": "11797-2530", "ntee": "T21", "ruling": "200112", "deductibility": "1", "assets": 428618, "income": 7842, "revenue": 0}, {"ein": "146018940", "name": "BELLE C BURNETT FOUNDATION", "city": "SALEM", "state": "NY", "zip": "12865-0573", "ntee": "", "ruling": "196503", "deductibility": "1", "assets": 152642, "income": 40073, "revenue": 0}, {"ein": "933620822", "name": "BURNETT AND EUGENIA SIMPSON FOUNDATION INC", "city": "ROSEDALE", "state": "NY", "zip": "11422-1215", "ntee": "P20", "ruling": "202310", "deductibility": "1", "assets": 0, "income": 0, "revenue": 0}], "PS166": [{"ein": "134193484", "name": "FRIENDS OF PS166 INC", "city": "NEW YORK", "state": "NY", "zip": "10024-1902", "ntee": "B11", "ruling": "200112", "deductibility": "1", "assets": 880885, "income": 554236, "revenue": 484144}], "SIOBHAN": [{"ein": "135563411", "name": "WEBSTER APARTMENTS SIOBHAN MCMANUS", "city": "CONGERS", "state": "NY", "zip": "10920-0120", "ntee": "L820", "ruling": "192411", "deductibility": "1", "assets": 54988528, "income": 1972963, "revenue": 1972963}, {"ein": "464114943", "name": "SIOBHAN OSULLIVAN FOUNDATION", "city": "LONG IS CITY", "state": "NY", "zip": "11101-3969", "ntee": "P20", "ruling": "201904", "deductibility": "1", "assets": 1, "income": 0, "revenue": 0}], "WINTERTHUR": [{"ein": "136041343", "name": "R BELKNAP TRUST WINTERTHUR MUSEUM & RESEARCH LIBRARY", "city": "NEW YORK", "state": "NY", "zip": "10008-1297", "ntee": "", "ruling": "197202", "deductibility": "1", "assets": 1424336, "income": 458085, "revenue": 0}], "WALTERS": [{"ein": "136107423", "name": "WALTERS FAMILY FOUNDATION INC", "city": "ASTORIA", "state": "NY", "zip": "11103-4901", "ntee": "", "ruling": "196202", "deductibility": "1", "assets": 2050456, "income": 436378, "revenue": 0}], "STEFANO": [{"ein": "136110920", "name": "STEFANO LA SALA FOUNDATION INC", "city": "BRONXVILLE", "state": "NY", "zip": "10708-3420", "ntee": "", "ruling": "195804", "deductibility": "1", "assets": 1472351, "income": 283042, "revenue": 0}], "ESSEL": [{"ein": "136191234", "name": "ESSEL FOUNDATION INC", "city": "PURCHASE", "state": "NY", "zip": "10577-2540", "ntee": "", "ruling": "196610", "deductibility": "1", "assets": 109687173, "income": 6400837, "revenue": 0}], "GOLTCHE": [{"ein": "137224915", "name": "S&Y GOLTCHE TR", "city": "FLUSHING", "state": "NY", "zip": "11367-2815", "ntee": "T22", "ruling": "200101", "deductibility": "1", "assets": 75810, "income": 26408, "revenue": 0}], "MALINSKY": [{"ein": "137462242", "name": "MALINSKY FAM CHARITABLE TR", "city": "NEW YORK", "state": "NY", "zip": "10003-6425", "ntee": "T20", "ruling": "200508", "deductibility": "1", "assets": 249883, "income": 265216, "revenue": 0}], "ELIZABETHTOWN": [{"ein": "141338389", "name": "ELIZABETHTOWN SOCIAL CENTER INC", "city": "ELIZABETHTOWN", "state": "NY", "zip": "12932-0000", "ntee": "", "ruling": "194012", "deductibility": "1", "assets": 4549895, "income": 2979544, "revenue": 0}, {"ein": "141364513", "name": "ELIZABETHTOWN COMMUNITY HOSPITAL", "city": "ELIZABETHTOWN", "state": "NY", "zip": "12932-0000", "ntee": "E22Z", "ruling": "193812", "deductibility": "1", "assets": 82871692, "income": 72621550, "revenue": 66517289}, {"ein": "141559499", "name": "ELIZABETHTOWN LIBRARY ASSOCIATION", "city": "ELIZABETHTOWN", "state": "NY", "zip": "12932-0007", "ntee": "B70", "ruling": "201408", "deductibility": "1", "assets": 0, "income": 0, "revenue": 0}, {"ein": "141591510", "name": "ELIZABETHTOWN-LEWIS EMERGENCY SQUAD", "city": "LEWIS", "state": "NY", "zip": "12950-2401", "ntee": "M23", "ruling": "200204", "deductibility": "1", "assets": 493835, "income": 841244, "revenue": 841244}, {"ein": "460666432", "name": "ELIZABETHTOWN THRIFT SHOP INC", "city": "ELIZABETHTOWN", "state": "NY", "zip": "12932-0361", "ntee": "P29", "ruling": "201708", "deductibility": "1", "assets": 10951, "income": 149864, "revenue": 149864}], "COBB": [{"ein": "141470072", "name": "COBB MEMORIAL SCHOOL", "city": "ALTAMONT", "state": "NY", "zip": "12009-0503", "ntee": "", "ruling": "194603", "deductibility": "1", "assets": 0, "income": 0, "revenue": 0}, {"ein": "650593216", "name": "COBB FOUNDATION INC", "city": "GARDEN CITY", "state": "NY", "zip": "11530-1650", "ntee": "T22Z", "ruling": "199603", "deductibility": "1", "assets": 14904560, "income": 4572081, "revenue": 0}], "GHENT": [{"ein": "141595248", "name": "GHENT VOLUNTEER FIRE COMPANY 1 INC", "city": "GHENT", "state": "NY", "zip": "12075-0032", "ntee": "M99", "ruling": "201407", "deductibility": "1", "assets": 1169769, "income": 286939, "revenue": 286939}, {"ein": "141630248", "name": "UNION CEMETERY OF GHENT", "city": "PHILMONT", "state": "NY", "zip": "12565-0336", "ntee": "Y50", "ruling": "201503", "deductibility": "1", "assets": 0, "income": 0, "revenue": 0}, {"ein": "141690975", "name": "GHENT SPORTSMANS ASSOCIATION INC", "city": "GHENT", "state": "NY", "zip": "12075-0070", "ntee": "N61", "ruling": "201605", "deductibility": "2", "assets": 488394, "income": 88072, "revenue": 88072}, {"ein": "146023186", "name": "GHENT REFORMED CHURCH", "city": "GHENT", "state": "NY", "zip": "12075-0000", "ntee": "", "ruling": "198601", "deductibility": "1", "assets": 0, "income": 0, "revenue": 0}, {"ein": "222543978", "name": "THE GHENT PLAYHOUSE INC", "city": "GHENT", "state": "NY", "zip": "12075-0064", "ntee": "A650", "ruling": "199112", "deductibility": "1", "assets": 218255, "income": 61287, "revenue": 61287}, {"ein": "222953019", "name": "WEST GHENT CEMETERY ASSOCIATION INC", "city": "STOTTVILLE", "state": "NY", "zip": "12172-0393", "ntee": "Y50", "ruling": "201506", "deductibility": "1", "assets": 0, "income": 0, "revenue": 0}, {"ein": "270489223", "name": "CAMPHILL GHENT INC", "city": "CHATHAM", "state": "NY", "zip": "12037-1815", "ntee": "L22", "ruling": "200910", "deductibility": "1", "assets": 21324850, "income": 3502001, "revenue": 3502001}, {"ein": "274185077", "name": "GHENT FOOD PANTRY INC", "city": "GHENT", "state": "NY", "zip": "12075-1260", "ntee": "K31", "ruling": "201104", "deductibility": "1", "assets": 129026, "income": 71589, "revenue": 71589}, {"ein": "475660447", "name": "WEST GHENT VOL FIRE CO INC", "city": "GHENT", "state": "NY", "zip": "12075-3328", "ntee": "M24", "ruling": "201901", "deductibility": "1", "assets": 1064626, "income": 150451, "revenue": 147503}], "BATTENKILL": [{"ein": "141774022", "name": "BATTENKILL CONSERVANCY-NEW YORK", "city": "CAMBRIDGE", "state": "NY", "zip": "12816-1168", "ntee": "V20E", "ruling": "199504", "deductibility": "1", "assets": 168458, "income": 14294, "revenue": 14294}, {"ein": "141810997", "name": "BATTENKILL COMMUNITY SERVICES INC", "city": "GREENWICH", "state": "NY", "zip": "12834-2301", "ntee": "P82", "ruling": "199912", "deductibility": "1", "assets": 1852380, "income": 2989906, "revenue": 2926806}, {"ein": "141827237", "name": "BATTENKILL CHORALE INC", "city": "CAMBRIDGE", "state": "NY", "zip": "12816-0402", "ntee": "A68", "ruling": "200103", "deductibility": "1", "assets": 44306, "income": 32447, "revenue": 30839}, {"ein": "820847419", "name": "BATTENKILL CULINARY SERVICES INC", "city": "GREENWICH", "state": "NY", "zip": "12834-3207", "ntee": "P19", "ruling": "201801", "deductibility": "1", "assets": 1, "income": 0, "revenue": 0}], "WIGAND": [{"ein": "146030572", "name": "WILLIAM F WIGAND MEMORIAL POST INC", "city": "ALBANY", "state": "NY", "zip": "12206-2322", "ntee": "W30", "ruling": "198701", "deductibility": "2", "assets": 0, "income": 0, "revenue": 0}], "BELNAP": [{"ein": "146155391", "name": "LEONA BELNAP TRUST U-W BANK OF AMERICA NY6-100-09-01", "city": "TROY", "state": "NY", "zip": "12180-3481", "ntee": "T11", "ruling": "200112", "deductibility": "1", "assets": 304729, "income": 27348, "revenue": 0}], "SEELY": [{"ein": "161115208", "name": "WALWORTH SEELY PUBLIC LIBRARY", "city": "WALWORTH", "state": "NY", "zip": "14568-9311", "ntee": "B80", "ruling": "200312", "deductibility": "1", "assets": 940290, "income": 336957, "revenue": 336957}], "FOKINE": [{"ein": "161346577", "name": "FOKINE BALLET COMPANY INC", "city": "ONEONTA", "state": "NY", "zip": "13820-2509", "ntee": "", "ruling": "199110", "deductibility": "1", "assets": 0, "income": 0, "revenue": 0}], "AXTELL": [{"ein": "166376529", "name": "KENNETH M AXTELL JR FOUNDATION", "city": "NORWICH", "state": "NY", "zip": "13815-0000", "ntee": "", "ruling": "199305", "deductibility": "1", "assets": 2783572, "income": 1543829, "revenue": 0}], "UBRACHA": [{"ein": "200082699", "name": "OHR MEIR UBRACHA", "city": "SPRING VALLEY", "state": "NY", "zip": "10977-2035", "ntee": "T12", "ruling": "200510", "deductibility": "1", "assets": 97522, "income": 1381117, "revenue": 1381117}, {"ein": "222948775", "name": "CONGREGATION CHAIM UBRACHA", "city": "MONSEY", "state": "NY", "zip": "10952-3011", "ntee": "", "ruling": "198902", "deductibility": "1", "assets": 0, "income": 0, "revenue": 0}], "ORTHODOXY": [{"ein": "200359862", "name": "FAITH AN ENDOWMENT FOR ORTHODOXY & HELLENISM", "city": "NEW YORK", "state": "NY", "zip": "10022-1875", "ntee": "X112", "ruling": "201209", "deductibility": "1", "assets": 25237124, "income": 1140621, "revenue": 1140621}, {"ein": "934767345", "name": "COALITION FOR ENGAGING ORTHODOXY INC", "city": "NEW YORK", "state": "NY", "zip": "10001-2402", "ntee": "X30", "ruling": "202402", "deductibility": "1", "assets": 0, "income": 0, "revenue": 0}], "OFFSPRING": [{"ein": "201488693", "name": "GOD OFFSPRING CHRISTIAN CHURCH INC", "city": "STATEN ISLAND", "state": "NY", "zip": "10309-1525", "ntee": "X21", "ruling": "200508", "deductibility": "1", "assets": 0, "income": 0, "revenue": 0}], "HUMPHREY": [{"ein": "202013794", "name": "JESSICA HUMPHREY PRIVATE FAMILY FOUNDATION INC", "city": "WHITE PLAINS", "state": "NY", "zip": "10605-5006", "ntee": "T22", "ruling": "200507", "deductibility": "1", "assets": 25487, "income": 50000, "revenue": 0}, {"ein": "454699034", "name": "GILLMORE-HUMPHREY RESIDENT ASSOCIATION", "city": "UTICA", "state": "NY", "zip": "13501-2450", "ntee": "L50", "ruling": "201702", "deductibility": "1", "assets": 1, "income": 62171, "revenue": 62171}, {"ein": "510436715", "name": "PETER G SALLY L AND CHRISTOPHER L HUMPHREY FOUNDATION", "city": "SCOTTSVILLE", "state": "NY", "zip": "14546-9638", "ntee": "T22", "ruling": "200303", "deductibility": "1", "assets": 280815, "income": 10518, "revenue": 0}, {"ein": "510655879", "name": "THE ANDREWS-HUMPHREY FAMILY FOUNDATION", "city": "BROOKLYN", "state": "NY", "zip": "11217-3019", "ntee": "T22", "ruling": "201003", "deductibility": "1", "assets": 14538079, "income": 304512, "revenue": 0}, {"ein": "823598527", "name": "HUMPHREY VOLUNTEER FIRE CO INC", "city": "GREAT VALLEY", "state": "NY", "zip": "14741-9648", "ntee": "M24", "ruling": "201801", "deductibility": "1", "assets": 0, "income": 0, "revenue": 0}], "ABUNDANTLY": [{"ein": "202556526", "name": "ABUNDANTLY BLESSED BAPTIST ASSEMBLY INC", "city": "CAMBRIA HTS", "state": "NY", "zip": "11411-0543", "ntee": "X20", "ruling": "200904", "deductibility": "1", "assets": 0, "income": 0, "revenue": 0}], "RENNA": [{"ein": "205063621", "name": "CHRISTINA RENNA FOUNDATION INC", "city": "LINDENHURST", "state": "NY", "zip": "11757-4435", "ntee": "G12", "ruling": "200912", "deductibility": "1", "assets": 129902, "income": 136614, "revenue": 77680}], "ZCW": [{"ein": "205197386", "name": "ZCW FOUNDATION", "city": "BROOKLYN", "state": "NY", "zip": "11204-0000", "ntee": "T20", "ruling": "200712", "deductibility": "1", "assets": 49770, "income": 13800, "revenue": 0}], "NEUROENDOCRINE": [{"ein": "205543641", "name": "NORTH AMERICAN NEUROENDOCRINE TUMOR SOCIETY", "city": "ALBANY", "state": "NY", "zip": "12205-1418", "ntee": "H120", "ruling": "200702", "deductibility": "1", "assets": 1504249, "income": 1085991, "revenue": 1085991}], "SITES": [{"ein": "223325284", "name": "FRIENDS OF THE STATE HISTORIC SITES OF THE HUDSON HIGHLANDS", "city": "NEWBURGH", "state": "NY", "zip": "12550-5603", "ntee": "A82Z", "ruling": "199502", "deductibility": "1", "assets": 0, "income": 0, "revenue": 0}, {"ein": "451690128", "name": "THE HUDSON VALLEY RIVERBANK HISTORIC SITES", "city": "CORNWALL HDSN", "state": "NY", "zip": "12520-1152", "ntee": "A50", "ruling": "201301", "deductibility": "1", "assets": 231934, "income": 182421, "revenue": 182421}, {"ein": "844105469", "name": "CLOTH SCATTERED SITES HOUSING DEVELOPMENT FUND CORPORATION", "city": "NEW YORK", "state": "NY", "zip": "10032-0512", "ntee": "L20", "ruling": "202005", "deductibility": "2", "assets": 0, "income": 0, "revenue": 0}], "KINGSLEY": [{"ein": "223976659", "name": "KINGSLEY PLACE ACADEMY & SERVICES INC", "city": "BROOKLYN", "state": "NY", "zip": "11230-1311", "ntee": "P20", "ruling": "200904", "deductibility": "1", "assets": 0, "income": 0, "revenue": 0}, {"ein": "853733576", "name": "KINGSLEY HOUSE II INC", "city": "WHITE PLAINS", "state": "NY", "zip": "10601-1608", "ntee": "L21", "ruling": "202306", "deductibility": "1", "assets": 350137, "income": 217079, "revenue": 217079}], "GOODE": [{"ein": "237175053", "name": "MAE STONE GOODE TRUST A 19 12-2-0892-0", "city": "NEW YORK", "state": "NY", "zip": "10001-2189", "ntee": "", "ruling": "197206", "deductibility": "0", "assets": 4091682, "income": 1933146, "revenue": 0}], "HEROD": [{"ein": "237257998", "name": "HEROD POINT CIVIC ASSOCIATION INC", "city": "WADING RIVER", "state": "NY", "zip": "11792-0008", "ntee": "S20", "ruling": "201603", "deductibility": "2", "assets": 0, "income": 0, "revenue": 0}], "MARTONE": [{"ein": "237283011", "name": "MARTONE FOUNDATION", "city": "GLEN COVE", "state": "NY", "zip": "11542-0791", "ntee": "", "ruling": "197304", "deductibility": "1", "assets": 420079, "income": 39929, "revenue": 0}], "ACWORTH": [{"ein": "260292873", "name": "ACWORTH FOUNDATION", "city": "HUNTINGTON", "state": "NY", "zip": "11743-7538", "ntee": "T22", "ruling": "201009", "deductibility": "1", "assets": 2596583, "income": 35617, "revenue": 0}], "JOK": [{"ein": "260750853", "name": "NEW YORK CHO SUN JOK CHURCH", "city": "FLUSHING", "state": "NY", "zip": "11355-1542", "ntee": "X20", "ruling": "201411", "deductibility": "1", "assets": 0, "income": 0, "revenue": 0}], "STELAC": [{"ein": "262833696", "name": "STELAC FOUNDATION", "city": "NEW YORK", "state": "NY", "zip": "10065-8434", "ntee": "T22", "ruling": "200810", "deductibility": "1", "assets": 450, "income": 1, "revenue": 0}], "SCHMIDT": [{"ein": "270325066", "name": "HENRI AND PESI SCHMIDT FAMILY CHARITABLE FOUNDATION", "city": "BROOKLYN", "state": "NY", "zip": "11210-3609", "ntee": "T22", "ruling": "200908", "deductibility": "1", "assets": 5737162, "income": 247984, "revenue": 0}, {"ein": "993719105", "name": "BENNETT-SCHMIDT PHILANTHROPIES", "city": "ALBANY", "state": "NY", "zip": "12212-5201", "ntee": "A20", "ruling": "202407", "deductibility": "1", "assets": 15903, "income": 48667, "revenue": 0}], "ZAENAHS": [{"ein": "272059458", "name": "ZAENAHS BLANKET FOUNDATION", "city": "BRONX", "state": "NY", "zip": "10451-3854", "ntee": "P40", "ruling": "201411", "deductibility": "1", "assets": 0, "income": 0, "revenue": 0}], "FRATERNIDAD": [{"ein": "272128780", "name": "MINISTERIO FRATERNIDAD CRISTIANA CORP", "city": "OCEANSIDE", "state": "NY", "zip": "11572-4102", "ntee": "X21", "ruling": "201606", "deductibility": "1", "assets": 535249, "income": 175068, "revenue": 175068}, {"ein": "461350949", "name": "MINISTERIOS FRATERNIDAD CRISTIANA NEW ROCHELLE INC", "city": "NEW ROCHELLE", "state": "NY", "zip": "10805-2511", "ntee": "X99", "ruling": "201407", "deductibility": "1", "assets": 76413, "income": 163383, "revenue": 163383}, {"ein": "461775519", "name": "FRATERNIDAD CRISTIANA DE SPRING VALLEY INC", "city": "SPRING VALLEY", "state": "NY", "zip": "10977-3715", "ntee": "X21", "ruling": "201502", "deductibility": "1", "assets": 19471, "income": 225264, "revenue": 225264}, {"ein": "582672102", "name": "FRATERNIDAD DE LOS ANGELES INC", "city": "NEW YORK", "state": "NY", "zip": "10040-4411", "ntee": "A99", "ruling": "200403", "deductibility": "1", "assets": 0, "income": 0, "revenue": 0}, {"ein": "770693044", "name": "MINISTERIO FRATERNIDAD CRISTIANA INTERNACIONAL INC", "city": "W HEMPSTEAD", "state": "NY", "zip": "11552-2528", "ntee": "X20", "ruling": "201704", "deductibility": "1", "assets": 289605, "income": 347296, "revenue": 347296}, {"ein": "821869500", "name": "MINISTERIO FRATERNIDAD CRISTIANA INC", "city": "GREENLAWN", "state": "NY", "zip": "11740-1715", "ntee": "X20", "ruling": "202110", "deductibility": "1", "assets": 0, "income": 0, "revenue": 0}, {"ein": "863605983", "name": "IGLESIA FRATERNIDAD CRISTIANA FIVE TOWN INC", "city": "OCEANSIDE", "state": "NY", "zip": "11572-0000", "ntee": "X21", "ruling": "202311", "deductibility": "1", "assets": 0, "income": 0, "revenue": 0}], "SQUIRRELWOOD": [{"ein": "272591980", "name": "SQUIRRELWOOD EQUINE SANCTUARY", "city": "MONTGOMERY", "state": "NY", "zip": "12549-1913", "ntee": "D20", "ruling": "201009", "deductibility": "1", "assets": 198775, "income": 572178, "revenue": 572178}], "AYELET": [{"ein": "273329571", "name": "AMERICAN FRIENDS OF AYELET HASHACHAR INC", "city": "BROOKLYN", "state": "NY", "zip": "11229-2530", "ntee": "Q30", "ruling": "201503", "deductibility": "1", "assets": 8549, "income": 154143, "revenue": 154143}], "ABRAMOVIC": [{"ein": "273916150", "name": "MARINA ABRAMOVIC INSTITUTE FOR PRESERVATION OF PERFORMANCE ART IN", "city": "NEW YORK", "state": "NY", "zip": "10018-0000", "ntee": "A20", "ruling": "201105", "deductibility": "1", "assets": 68173, "income": 7, "revenue": 7}], "JIGYASU": [{"ein": "274374454", "name": "DROPADI JIGYASU ASHRAM INC", "city": "FLUSHING", "state": "NY", "zip": "11355-2152", "ntee": "X70", "ruling": "201311", "deductibility": "1", "assets": 0, "income": 0, "revenue": 0}], "CCWA": [{"ein": "275058329", "name": "CCWA INC", "city": "ROCHESTER", "state": "NY", "zip": "14626-3408", "ntee": "O99", "ruling": "201405", "deductibility": "1", "assets": 0, "income": 0, "revenue": 0}], "CAMPGROUND": [{"ein": "300755905", "name": "GODS LITTLE CAMPGROUND INC", "city": "GHENT", "state": "NY", "zip": "12075-3504", "ntee": "X99", "ruling": "201404", "deductibility": "1", "assets": 0, "income": 0, "revenue": 0}, {"ein": "363685103", "name": "ILLINOIS CAMPGROUND ASSOCIATION", "city": "PITTSFORD", "state": "NY", "zip": "14534-0000", "ntee": "S41", "ruling": "200511", "deductibility": "2", "assets": 0, "income": 0, "revenue": 0}], "TURNBULL": [{"ein": "306670472", "name": "TURNBULL FOUNDATION TR", "city": "NELLISTON", "state": "NY", "zip": "13410-0111", "ntee": "", "ruling": "202204", "deductibility": "0", "assets": 3511874, "income": 179300, "revenue": 0}, {"ein": "814530487", "name": "TURNBULL FAMILY FOUNDATION", "city": "OYSTER BAY", "state": "NY", "zip": "11771-1200", "ntee": "T22", "ruling": "201710", "deductibility": "1", "assets": 1, "income": 1, "revenue": 0}], "FEXY": [{"ein": "311705315", "name": "LAUREN CRAMER FEXY PRIVATE FOUNDATION", "city": "WOODBURY", "state": "NY", "zip": "11797-0000", "ntee": "T22", "ruling": "200005", "deductibility": "1", "assets": 150535, "income": 146184, "revenue": 0}], "NATHALIE": [{"ein": "316671631", "name": "NATHALIE M KAPLAN FOUNDATION", "city": "NEW YORK", "state": "NY", "zip": "10022-1615", "ntee": "T202", "ruling": "200112", "deductibility": "1", "assets": 815208, "income": 33396, "revenue": 0}], "DOWNTOWNWATERFRONT": [{"ein": "320000310", "name": "THE DOWNTOWNWATERFRONT BUSINESS IMPROVEMENT DISTRICT INC OF", "city": "YONKERS", "state": "NY", "zip": "10701-2744", "ntee": "S20", "ruling": "200304", "deductibility": "1", "assets": 473605, "income": 1772195, "revenue": 1772195}], "BAOULE": [{"ein": "334530914", "name": "FRIENDS OF BAOULE KINGDOM INC", "city": "CHAMPLAIN", "state": "NY", "zip": "12919-5063", "ntee": "Q30", "ruling": "202507", "deductibility": "1", "assets": 0, "income": 0, "revenue": 0}], "CHEMLU": [{"ein": "352198039", "name": "CHEMLU DEVELOPMENTAL DISABILITIES CENTER INC", "city": "MONROE", "state": "NY", "zip": "10950-6026", "ntee": "P82", "ruling": "201708", "deductibility": "1", "assets": 1326008, "income": 4401329, "revenue": 4401329}], "JEREMIAHS": [{"ein": "352528343", "name": "JEREMIAHS LIFE CENTER", "city": "WYANDANCH", "state": "NY", "zip": "11798-0984", "ntee": "P20", "ruling": "201504", "deductibility": "1", "assets": 1, "income": 51613, "revenue": 51613}], "SPUD": [{"ein": "371839771", "name": "SOME PEOPLE UNDERSTAND DIFFERENTLY SPUD INC", "city": "BROOKLYN", "state": "NY", "zip": "11221-5050", "ntee": "O50", "ruling": "201611", "deductibility": "1", "assets": 0, "income": 0, "revenue": 0}], "JASENOVAC": [{"ein": "383410276", "name": "JASENOVAC RESEARCH INSTITUTE", "city": "BROOKLYN", "state": "NY", "zip": "11210-0674", "ntee": "Q20", "ruling": "201704", "deductibility": "1", "assets": 0, "income": 0, "revenue": 0}], "SPARKIDZ": [{"ein": "452633539", "name": "SPARKIDZ INC", "city": "NEW YORK", "state": "NY", "zip": "10022-7587", "ntee": "B90", "ruling": "201802", "deductibility": "1", "assets": 5754, "income": 100266, "revenue": 100266}], "LASTING": [{"ein": "454121916", "name": "LASTING LEGACY FIELD HOCKEY", "city": "NORTHPORT", "state": "NY", "zip": "11768-1332", "ntee": "N60", "ruling": "201302", "deductibility": "1", "assets": 25802, "income": 126080, "revenue": 126080}, {"ein": "464667487", "name": "A LASTING MARK INC", "city": "JERICHO", "state": "NY", "zip": "11753-2616", "ntee": "M99", "ruling": "201407", "deductibility": "1", "assets": 0, "income": 0, "revenue": 0}, {"ein": "861995653", "name": "LASTING CHANGE INC", "city": "ALBANY", "state": "NY", "zip": "12207-2922", "ntee": "W12", "ruling": "202111", "deductibility": "1", "assets": 0, "income": 0, "revenue": 0}, {"ein": "883975312", "name": "LASTING IMPACT INC", "city": "BROOKLYN", "state": "NY", "zip": "11219-4314", "ntee": "B80", "ruling": "202303", "deductibility": "1", "assets": 127021, "income": 133000, "revenue": 133000}, {"ein": "932193332", "name": "LASTING LIGHT FOUNDATION INC", "city": "NORTH BALDWIN", "state": "NY", "zip": "11510-2946", "ntee": "B84", "ruling": "202307", "deductibility": "1", "assets": 0, "income": 0, "revenue": 0}], "FRANKYS": [{"ein": "455605373", "name": "FRANKYS FIELD OF DREAMS FOUNDATION INC", "city": "SCARSDALE", "state": "NY", "zip": "10583-4710", "ntee": "T20", "ruling": "201304", "deductibility": "1", "assets": 133389, "income": 6222, "revenue": 0}], "RANK": [{"ein": "460819472", "name": "MOVEMENT OF RANK AND FILE EDUCATORS", "city": "JACKSON HTS", "state": "NY", "zip": "11372-7202", "ntee": "P99", "ruling": "202305", "deductibility": "2", "assets": 39735, "income": 40155, "revenue": 40155}], "I9": [{"ein": "461540334", "name": "I9 SPORTS ASSOCIATION CHAPTER 299 INC", "city": "NANUET", "state": "NY", "zip": "10954-2905", "ntee": "N70", "ruling": "201602", "deductibility": "1", "assets": 0, "income": 0, "revenue": 0}], "BERRETTAS": [{"ein": "462918114", "name": "VITO BERRETTAS CHANGE OF TOURS PROJECT INC", "city": "ROCKAWAY PARK", "state": "NY", "zip": "11694-1624", "ntee": "Z99", "ruling": "201406", "deductibility": "1", "assets": 0, "income": 0, "revenue": 0}], "OUFFEY": [{"ein": "462958486", "name": "OUFFEY LIFE DEVELOPMENT CENTER INC", "city": "BROOKLYN", "state": "NY", "zip": "11205-2606", "ntee": "P20", "ruling": "201602", "deductibility": "1", "assets": 0, "income": 0, "revenue": 0}], "SINAY": [{"ein": "463124559", "name": "SINAY PARAMOUNT FOUNDATION", "city": "BROOKLYN", "state": "NY", "zip": "11230-6506", "ntee": "T22", "ruling": "201309", "deductibility": "1", "assets": 186495, "income": 14, "revenue": 0}], "TALVE": [{"ein": "471117145", "name": "IKT IM KESEF TALVE", "city": "SPRING VALLEY", "state": "NY", "zip": "10977-6611", "ntee": "W60", "ruling": "201408", "deductibility": "1", "assets": 0, "income": 0, "revenue": 0}], "AUNTIE": [{"ein": "471660998", "name": "AUNTIE TERRIS HOUSE", "city": "NEW YORK", "state": "NY", "zip": "10030-1152", "ntee": "O50", "ruling": "201506", "deductibility": "1", "assets": 0, "income": 0, "revenue": 0}], "CONGREGARTION": [{"ein": "471696830", "name": "CONGREGARTION TIFERES TORAH INC", "city": "MONSEY", "state": "NY", "zip": "10952-2415", "ntee": "X30", "ruling": "202102", "deductibility": "1", "assets": 0, "income": 0, "revenue": 0}], "NADA": [{"ein": "471961149", "name": "SAILING NADA ADVENTURES INC", "city": "SOUTH SETAUKET", "state": "NY", "zip": "11720-1163", "ntee": "O50", "ruling": "201501", "deductibility": "1", "assets": 0, "income": 0, "revenue": 0}], "UBOKER": [{"ein": "471974792", "name": "KOLLEL EREV UBOKER ODEH HASHEM VIZNITZ INC", "city": "BROOKLYN", "state": "NY", "zip": "11211-7107", "ntee": "X30", "ruling": "201501", "deductibility": "1", "assets": 0, "income": 0, "revenue": 0}], "BOYUM": [{"ein": "474174717", "name": "HEATHER FRAZER BOYUM IRON ANGEL MEMORIAL FOUNDATION INC", "city": "FAIRPORT", "state": "NY", "zip": "14450-8820", "ntee": "T12", "ruling": "201607", "deductibility": "1", "assets": 0, "income": 0, "revenue": 0}], "AFIBADU": [{"ein": "474650113", "name": "AFIBADU", "city": "BRONX", "state": "NY", "zip": "10452-6754", "ntee": "A23", "ruling": "201510", "deductibility": "1", "assets": 0, "income": 0, "revenue": 0}], "TRENCH": [{"ein": "474890851", "name": "TRENCH TROPHY AWARD INC", "city": "BUFFALO", "state": "NY", "zip": "14227-2445", "ntee": "N99", "ruling": "201706", "deductibility": "1", "assets": 0, "income": 0, "revenue": 0}], "NDITO": [{"ein": "475370680", "name": "MBOHO IMA NDITO NSIT ATAI NORTH AMERICA INC", "city": "BRONX", "state": "NY", "zip": "10466-2113", "ntee": "P11", "ruling": "201806", "deductibility": "1", "assets": 0, "income": 0, "revenue": 0}], "TEKIAH": [{"ein": "541828860", "name": "TEKIAH COMMUNITY", "city": "SCHENECTADY", "state": "NY", "zip": "12305-1624", "ntee": "", "ruling": "199706", "deductibility": "0", "assets": 0, "income": 0, "revenue": 0}], "ROSCIGNO": [{"ein": "550854736", "name": "ROSCIGNO VECCHIA FOUNDATION", "city": "MINEOLA", "state": "NY", "zip": "11501-4310", "ntee": "T30", "ruling": "200412", "deductibility": "1", "assets": 0, "income": 0, "revenue": 0}], "WASYL": [{"ein": "593769200", "name": "DETECTIVE WASYL POTIENKO MEMORIAL FOUNDATION INC", "city": "CHEEKTOWAGA", "state": "NY", "zip": "14225-8932", "ntee": "B82", "ruling": "200308", "deductibility": "1", "assets": 174133, "income": 64124, "revenue": 31872}], "BOUTWELL": [{"ein": "811905909", "name": "BOUTWELL HILL SKI CLUB INC", "city": "CHERRY CREEK", "state": "NY", "zip": "14723-0182", "ntee": "N68", "ruling": "201811", "deductibility": "1", "assets": 0, "income": 0, "revenue": 0}], "LIBRARIAN": [{"ein": "822523121", "name": "HAITIAN AMERICAN LIBRARIAN ASSOCIATION INC", "city": "HEMPSTEAD", "state": "NY", "zip": "11550-5131", "ntee": "B70", "ruling": "201712", "deductibility": "1", "assets": 0, "income": 0, "revenue": 0}], "ADAMCZYK": [{"ein": "822658156", "name": "DANIEL J ADAMCZYK MEMORIAL FOUNDATION", "city": "CHEEKTOWAGA", "state": "NY", "zip": "14227-2372", "ntee": "B82", "ruling": "201709", "deductibility": "1", "assets": 0, "income": 0, "revenue": 0}], "CBM": [{"ein": "822697923", "name": "CORPORATE BET MIDRASH - CBM INC", "city": "BROOKLYN", "state": "NY", "zip": "11230-6607", "ntee": "X30", "ruling": "201711", "deductibility": "1", "assets": 6458, "income": 103004, "revenue": 103004}], "HSVS": [{"ein": "822726570", "name": "HSVS PROPERTY FOUNDATION LTD", "city": "BROOKLYN", "state": "NY", "zip": "11201-2935", "ntee": "P11", "ruling": "201903", "deductibility": "2", "assets": 5654420, "income": 331896, "revenue": 331896}, {"ein": "992536054", "name": "HSVS HOUSING CORPORATION", "city": "BROOKLYN", "state": "NY", "zip": "11201-5705", "ntee": "L41", "ruling": "202504", "deductibility": "1", "assets": 1, "income": 0, "revenue": 0}], "MOLAS": [{"ein": "824326106", "name": "SOCIEDAD MOLAS DE PANAMA INC", "city": "BROOKLYN", "state": "NY", "zip": "11221-4906", "ntee": "A20", "ruling": "201804", "deductibility": "1", "assets": 0, "income": 0, "revenue": 0}], "REANIMATE": [{"ein": "824493084", "name": "BUFFALO REANIMATE", "city": "NIAGARA FALLS", "state": "NY", "zip": "14304-4055", "ntee": "S31", "ruling": "201803", "deductibility": "1", "assets": 206, "income": 0, "revenue": 0}], "CURRICULAR": [{"ein": "824733603", "name": "LACKAWANNA EDUCATION EXTRA CURRICULAR FOUDATION INC", "city": "BUFFALO", "state": "NY", "zip": "14220-2263", "ntee": "B12", "ruling": "201807", "deductibility": "1", "assets": 24842, "income": 19045, "revenue": 0}], "HOGANS": [{"ein": "825174416", "name": "HOGANS HEROES SAVING SECOND BASE INC", "city": "NEWBURGH", "state": "NY", "zip": "12550-1285", "ntee": "H30", "ruling": "201806", "deductibility": "1", "assets": 0, "income": 0, "revenue": 0}], "CHARNIZON": [{"ein": "830963977", "name": "JP KOK CHARNIZON FOUNDATION", "city": "NEW YORK", "state": "NY", "zip": "10019-3170", "ntee": "T22", "ruling": "201902", "deductibility": "1", "assets": 325459, "income": 42918, "revenue": 0}], "STARRING": [{"ein": "831089172", "name": "STARRING BUFFALO INC", "city": "AMHERST", "state": "NY", "zip": "14226-3242", "ntee": "A60", "ruling": "201909", "deductibility": "1", "assets": 37120, "income": 155635, "revenue": 155635}], "TESOMAS": [{"ein": "831466170", "name": "TESOMAS CONSERVATION FOUNDATION INCORPORATED", "city": "ALBANY", "state": "NY", "zip": "12206-2125", "ntee": "C12", "ruling": "201809", "deductibility": "1", "assets": 0, "income": 0, "revenue": 0}], "ADE": [{"ein": "831986704", "name": "ADE JEMBE FOLA", "city": "BUFFALO", "state": "NY", "zip": "14209-2341", "ntee": "A20", "ruling": "202001", "deductibility": "1", "assets": 0, "income": 0, "revenue": 0}], "VERTEX": [{"ein": "834296806", "name": "VERTEX PARTNERSHIP ACADEMIES INC", "city": "NEW YORK", "state": "NY", "zip": "10035-2096", "ntee": "B02", "ruling": "202005", "deductibility": "1", "assets": 16728567, "income": 4650320, "revenue": 3339903}], "AGONA": [{"ein": "841697149", "name": "AGONA ABODOM DEVELOPMENT ASSOCIATION OF US", "city": "BRONX", "state": "NY", "zip": "10461-6118", "ntee": "A12", "ruling": "201108", "deductibility": "1", "assets": 0, "income": 0, "revenue": 0}], "ORTHOTIC": [{"ein": "841978588", "name": "COLLABORATIVE ORTHOTIC AND PROSTHETIC CARE ALLIANCE", "city": "LAKE PLACID", "state": "NY", "zip": "12946-1614", "ntee": "E60", "ruling": "202009", "deductibility": "1", "assets": 0, "income": 0, "revenue": 0}], "KSDP": [{"ein": "842485796", "name": "CONGREGATION KSDP", "city": "SPRING VALLEY", "state": "NY", "zip": "10977-7226", "ntee": "X30", "ruling": "202304", "deductibility": "1", "assets": 0, "income": 0, "revenue": 0}], "URUGUAY": [{"ein": "842642899", "name": "AMIGOS DEL HOGAR DE ANCIANOS ISRAELITA DEL URUGUAY INC", "city": "NEW YORK", "state": "NY", "zip": "10178-3499", "ntee": "P30", "ruling": "202005", "deductibility": "1", "assets": 1150257, "income": 603888, "revenue": 603888}, {"ein": "922971778", "name": "FRIENDS OF JABAD URUGUAY INC", "city": "MONSEY", "state": "NY", "zip": "10952-1600", "ntee": "X30", "ruling": "202304", "deductibility": "1", "assets": 77315, "income": 280146, "revenue": 280146}], "YIFROCH": [{"ein": "843500658", "name": "TZEMACH YIFROCH FOUNDATION", "city": "BROOKLYN", "state": "NY", "zip": "11211-8305", "ntee": "", "ruling": "202001", "deductibility": "1", "assets": 624378, "income": 158001, "revenue": 0}], "VISIONS2030": [{"ein": "853668830", "name": "IN-VISIONS NP CORP DBA VISIONS2030", "city": "NEW YORK CITY", "state": "NY", "zip": "10007-2504", "ntee": "A20", "ruling": "202505", "deductibility": "1", "assets": 0, "income": 0, "revenue": 0}], "EXTOLLIMUS": [{"ein": "854005164", "name": "EXTOLLIMUS FOUNDATION INC", "city": "FAIRPORT", "state": "NY", "zip": "14450-3584", "ntee": "T22", "ruling": "202104", "deductibility": "1", "assets": 325830, "income": 27849, "revenue": 0}], "TRANS4MATION": [{"ein": "862221794", "name": "TRANS4MATION BY DESIGN INC", "city": "KINGSTON", "state": "NY", "zip": "12401-4934", "ntee": "P20", "ruling": "202501", "deductibility": "1", "assets": 0, "income": 0, "revenue": 0}], "HUDNELL": [{"ein": "870846918", "name": "HUDNELL EDUCATION AND RECREATION CENTER INC", "city": "NEW YORK", "state": "NY", "zip": "10019-2621", "ntee": "P30", "ruling": "202111", "deductibility": "1", "assets": 0, "income": 0, "revenue": 0}], "MOIRIYU": [{"ein": "873418735", "name": "CONG MOIRIYU INC", "city": "MONSEY", "state": "NY", "zip": "10952-3198", "ntee": "X30", "ruling": "202207", "deductibility": "1", "assets": 0, "income": 0, "revenue": 0}], "MINCHOT": [{"ein": "874084676", "name": "CHASDEI MINCHOT YEHUDAH", "city": "BROOKLYN", "state": "NY", "zip": "11230-4435", "ntee": "P58", "ruling": "202208", "deductibility": "1", "assets": 0, "income": 6000, "revenue": 6000}], "RUTA": [{"ein": "881014427", "name": "RUTA - 27 PROGRAMA DE INGLES INC", "city": "EAST HAMPTON", "state": "NY", "zip": "11937-2469", "ntee": "B60", "ruling": "202204", "deductibility": "1", "assets": 0, "income": 0, "revenue": 0}], "CZARNECKI": [{"ein": "883280013", "name": "JENNIFER M CZARNECKI FDN INC", "city": "LAKEVIEW", "state": "NY", "zip": "14085-9570", "ntee": "P19", "ruling": "202209", "deductibility": "1", "assets": 0, "income": 0, "revenue": 0}], "DESIRAES": [{"ein": "923216417", "name": "DESIRAES DARLINGS INC", "city": "MERRICK", "state": "NY", "zip": "11566-2111", "ntee": "T11", "ruling": "202304", "deductibility": "1", "assets": 2878, "income": 32958, "revenue": 0}], "AHTERES": [{"ein": "923290074", "name": "AHTERES MOHARAN SPINKA INC", "city": "MONROE", "state": "NY", "zip": "10950-5486", "ntee": "X30", "ruling": "202401", "deductibility": "1", "assets": 0, "income": 0, "revenue": 0}], "MAF": [{"ein": "931655897", "name": "MAF FOUNDATION CORPORATION", "city": "KINGS PARK", "state": "NY", "zip": "11754-2226", "ntee": "G84", "ruling": "202403", "deductibility": "1", "assets": 0, "income": 0, "revenue": 0}], "SHARTSE": [{"ein": "931875417", "name": "GADEN SHARTSE LUNGTOK CHOKYI KYETSAL INC", "city": "ELMHURST", "state": "NY", "zip": "11373-3424", "ntee": "X50", "ruling": "202307", "deductibility": "1", "assets": 0, "income": 0, "revenue": 0}], "DAK": [{"ein": "932346581", "name": "LIN DAK BUDDHIST ASSOCIATION", "city": "NEW YORK", "state": "NY", "zip": "10002-6432", "ntee": "X50", "ruling": "202411", "deductibility": "1", "assets": 0, "income": 0, "revenue": 0}], "VERNICA": [{"ein": "932420743", "name": "PATRICIA VERNICA SMITH FOUNDATION", "city": "JAMAICA", "state": "NY", "zip": "11434-5929", "ntee": "P20", "ruling": "202506", "deductibility": "1", "assets": 0, "income": 0, "revenue": 0}], "KNYAW": [{"ein": "991601541", "name": "SYRACUSE KNYAW COMMUNITY INC", "city": "SYRACUSE", "state": "NY", "zip": "13208-2105", "ntee": "T40", "ruling": "202404", "deductibility": "1", "assets": 0, "income": 0, "revenue": 0}, {"ein": "992484356", "name": "I AM KNYAW INC", "city": "UTICA", "state": "NY", "zip": "13501-3613", "ntee": "S20", "ruling": "202409", "deductibility": "1", "assets": 0, "income": 0, "revenue": 0}], "PARTNERING": [{"ein": "991955904", "name": "FLYING STARS PARENTS PARTNERING FOR COMPETITIVE GYMNASTICS INC", "city": "ELMONT", "state": "NY", "zip": "11003-4108", "ntee": "O50", "ruling": "202405", "deductibility": "1", "assets": 0, "income": 0, "revenue": 0}], "KAINAT": [{"ein": "992236265", "name": "KAINAT UNITY PROJECT INC", "city": "BROOKLYN", "state": "NY", "zip": "11235-4458", "ntee": "E01", "ruling": "202404", "deductibility": "1", "assets": 0, "income": 0, "revenue": 0}], "KAIFAGNY": [{"ein": "992649151", "name": "KAIFAGNY INC", "city": "BAYSIDE", "state": "NY", "zip": "11361-2096", "ntee": "S41", "ruling": "202502", "deductibility": "2", "assets": 61202, "income": 88036, "revenue": 88036}], "VIRGINIAS": [{"ein": "993395520", "name": "VIRGINIAS FORGET ME NOT FOUNDATION", "city": "SAYVILLE", "state": "NY", "zip": "11782-1912", "ntee": "H83", "ruling": "202407", "deductibility": "1", "assets": 0, "income": 0, "revenue": 0}], "1MANSJUNK": [{"ein": "993509244", "name": "1MANSJUNK", "city": "BRONX", "state": "NY", "zip": "10451-1705", "ntee": "P80", "ruling": "202410", "deductibility": "1", "assets": 0, "income": 0, "revenue": 0}], "SCHUTZHUND": [{"ein": "993633315", "name": "SCHUTZHUND CLUB OF BUFFALO INC", "city": "CORFU", "state": "NY", "zip": "14036-9750", "ntee": "N50", "ruling": "202501", "deductibility": "2", "assets": 0, "income": 0, "revenue": 0}], "AMERICU": [{"ein": "993981468", "name": "AMERICU FOUNDATION INC", "city": "ROME", "state": "NY", "zip": "13440-2430", "ntee": "T12", "ruling": "202507", "deductibility": "1", "assets": 0, "income": 0, "revenue": 0}], "BHARATH": [{"ein": "994938926", "name": "BHARATH BOAT CLUB USA INC", "city": "CONGERS", "state": "NY", "zip": "10920-2515", "ntee": "N60", "ruling": "202409", "deductibility": "1", "assets": 0, "income": 0, "revenue": 0}]}