{"LOOP": [{"ein": "010677804", "name": "RETIREES OF DREISER LOOP INC", "city": "BRONX", "state": "NY", "zip": "10475-2705", "ntee": "T990", "ruling": "200809", "deductibility": "1", "assets": 7333, "income": 131702, "revenue": 131702}, {"ein": "133234804", "name": "HAMBURG LITTLE LOOP INC", "city": "HAMBURG", "state": "NY", "zip": "14075-0343", "ntee": "N65Z", "ruling": "198510", "deductibility": "1", "assets": 1, "income": 118406, "revenue": 87527}, {"ein": "261636959", "name": "LACKAWANNA LITTLE LOOP FOOTBALL INC", "city": "BUFFALO", "state": "NY", "zip": "14218-0328", "ntee": "N60", "ruling": "201605", "deductibility": "1", "assets": 6594, "income": 78082, "revenue": 60359}, {"ein": "264740287", "name": "WEST SENECA LITTLE LOOP FOOTBALL INC", "city": "BUFFALO", "state": "NY", "zip": "14224-0306", "ntee": "O50", "ruling": "201002", "deductibility": "1", "assets": 115032, "income": 172971, "revenue": 129495}, {"ein": "264830255", "name": "LOOP MINISTRIES", "city": "ROCHESTER", "state": "NY", "zip": "14607-2004", "ntee": "", "ruling": "198804", "deductibility": "1", "assets": 0, "income": 0, "revenue": 0}, {"ein": "272151031", "name": "OUTER LOOP THEATER EXPERIENCE", "city": "FAIRPORT", "state": "NY", "zip": "14450-7064", "ntee": "A65", "ruling": "201104", "deductibility": "1", "assets": 120217, "income": 193432, "revenue": 193432}, {"ein": "331042099", "name": "CHEEKTOWAGA LITTLE LOOP ATHLETIC ASSOCIATION INC", "city": "CHEEKTOWAGA", "state": "NY", "zip": "14225-1512", "ntee": "N65", "ruling": "202405", "deductibility": "1", "assets": 0, "income": 0, "revenue": 0}, {"ein": "462633348", "name": "LOCKPORT LITTLE LOOP FOOTBALL CLUB INC", "city": "LOCKPORT", "state": "NY", "zip": "14095-0286", "ntee": "N30", "ruling": "202501", "deductibility": "1", "assets": 0, "income": 0, "revenue": 0}, {"ein": "472452889", "name": "CLOSED LOOP FOUNDATION", "city": "NEW YORK", "state": "NY", "zip": "10106-1099", "ntee": "C022", "ruling": "201511", "deductibility": "1", "assets": 306324, "income": 151788, "revenue": 151788}, {"ein": "800696756", "name": "EDEN LITTLE LOOP FOOTBALL", "city": "EDEN", "state": "NY", "zip": "14057-0003", "ntee": "N65", "ruling": "201506", "deductibility": "1", "assets": 0, "income": 0, "revenue": 0}], "PRODUCTIONS": [{"ein": "010708733", "name": "DEMOCRACY NOW PRODUCTIONS INC", "city": "NEW YORK", "state": "NY", "zip": "10001-7161", "ntee": "A30", "ruling": "200303", "deductibility": "1", "assets": 36506351, "income": 14021297, "revenue": 10931413}, {"ein": "020536768", "name": "POSITIVE EXPOSURE PRODUCTIONS INC", "city": "NEW YORK", "state": "NY", "zip": "10003-1343", "ntee": "E86", "ruling": "200205", "deductibility": "1", "assets": 762138, "income": 720462, "revenue": 720462}, {"ein": "020617728", "name": "PIPER THEATRE PRODUCTIONS INC", "city": "BROOKLYN", "state": "NY", "zip": "11215-0613", "ntee": "A65", "ruling": "200208", "deductibility": "1", "assets": 21756, "income": 212121, "revenue": 212121}, {"ein": "030328686", "name": "KINGDOM COUNTY PRODUCTIONS", "city": "DELHI", "state": "NY", "zip": "13753-1124", "ntee": "A65Z", "ruling": "199407", "deductibility": "1", "assets": 192936, "income": 2168528, "revenue": 2168528}, {"ein": "030422472", "name": "DHARMA ROAD PRODUCTIONS INC", "city": "NEW YORK", "state": "NY", "zip": "10003-4602", "ntee": "A60", "ruling": "200401", "deductibility": "1", "assets": 0, "income": 0, "revenue": 0}, {"ein": "043153122", "name": "SOCIAL MEDIA PRODUCTIONS INC", "city": "BROOKLYN", "state": "NY", "zip": "11201-3040", "ntee": "A31Z", "ruling": "199402", "deductibility": "1", "assets": 46715, "income": 2349, "revenue": 2349}, {"ein": "050524220", "name": "DESIPINA PRODUCTIONS", "city": "BROOKLYN", "state": "NY", "zip": "11218-1812", "ntee": "A60", "ruling": "200311", "deductibility": "1", "assets": 0, "income": 0, "revenue": 0}, {"ein": "061263063", "name": "PLAYTIME PRODUCTIONS INC", "city": "DOBBS FERRY", "state": "NY", "zip": "10522-3206", "ntee": "A60Z", "ruling": "199404", "deductibility": "1", "assets": 0, "income": 0, "revenue": 0}, {"ein": "061622755", "name": "BROKEN WATCH PRODUCTIONS INC", "city": "BRONX", "state": "NY", "zip": "10471-2706", "ntee": "A65", "ruling": "200301", "deductibility": "1", "assets": 0, "income": 0, "revenue": 0}, {"ein": "061690150", "name": "INTERON PRODUCTIONS INC", "city": "QUEENS VILLAGE", "state": "NY", "zip": "11427-1725", "ntee": "B990", "ruling": "200707", "deductibility": "1", "assets": 4333, "income": 1123, "revenue": 1123}, {"ein": "061751999", "name": "IN GOOD COMPANY PRODUCTIONS INC", "city": "TONAWANDA", "state": "NY", "zip": "14151-0025", "ntee": "A65", "ruling": "200512", "deductibility": "1", "assets": 1564, "income": 2632, "revenue": 2254}, {"ein": "061754529", "name": "UP IN ONE PRODUCTIONS INC", "city": "HYDE PARK", "state": "NY", "zip": "12538-3529", "ntee": "A65", "ruling": "200606", "deductibility": "1", "assets": 14490, "income": 47029, "revenue": 47029}, {"ein": "112219446", "name": "THEATRE THREE PRODUCTIONS INC", "city": "PRT JEFFERSON", "state": "NY", "zip": "11777-0512", "ntee": "A65Z", "ruling": "197102", "deductibility": "1", "assets": 356959, "income": 1526710, "revenue": 1526710}, {"ein": "112532555", "name": "PROVIDENCE PRODUCTIONS INTERNATIONAL INC", "city": "BROOKLYN", "state": "NY", "zip": "11201-3439", "ntee": "A600", "ruling": "198403", "deductibility": "1", "assets": 0, "income": 0, "revenue": 0}, {"ein": "112928504", "name": "LOVE CREEK PRODUCTIONS INC", "city": "LONG ISLAND CITY", "state": "NY", "zip": "11101-4721", "ntee": "A650", "ruling": "199003", "deductibility": "1", "assets": 0, "income": 0, "revenue": 0}, {"ein": "113105457", "name": "RATTLESTICK PRODUCTIONS INC", "city": "NEW YORK", "state": "NY", "zip": "10014-2405", "ntee": "", "ruling": "199207", "deductibility": "1", "assets": 4468990, "income": 1106000, "revenue": 1106000}, {"ein": "113113539", "name": "STRAWBERRY LAKE PRODUCTIONS INC", "city": "GARDEN CITY", "state": "NY", "zip": "11530-5304", "ntee": "A60Z", "ruling": "199306", "deductibility": "1", "assets": 0, "income": 0, "revenue": 0}, {"ein": "113169640", "name": "MONTAUK THEATRE PRODUCTIONS INC", "city": "BROOKLYN", "state": "NY", "zip": "11201-3359", "ntee": "A65I", "ruling": "199804", "deductibility": "1", "assets": 0, "income": 0, "revenue": 0}, {"ein": "113199521", "name": "LIGHT & LOVE PRODUCTIONS INC", "city": "JAMAICA", "state": "NY", "zip": "11432-6058", "ntee": "P40", "ruling": "202305", "deductibility": "1", "assets": 0, "income": 0, "revenue": 0}, {"ein": "113220961", "name": "AKTINA PRODUCTIONS INC", "city": "ASTORIA", "state": "NY", "zip": "11105-3110", "ntee": "A230", "ruling": "199411", "deductibility": "1", "assets": 1, "income": 62765, "revenue": 62765}, {"ein": "113535891", "name": "MUSICA REGINAE PRODUCTIONS LTD", "city": "MASPETH", "state": "NY", "zip": "11378-2702", "ntee": "A68", "ruling": "200011", "deductibility": "1", "assets": 40310, "income": 66803, "revenue": 66803}, {"ein": "113551394", "name": "CRUCIAL ARTS PRODUCTIONS INCORPORATED", "city": "NEW YORK", "state": "NY", "zip": "10026-2508", "ntee": "A65", "ruling": "200012", "deductibility": "1", "assets": 0, "income": 0, "revenue": 0}, {"ein": "113719468", "name": "STEPPING STONE PRODUCTIONS INC", "city": "PORT JEFF STA", "state": "NY", "zip": "11776-3409", "ntee": "A65", "ruling": "200502", "deductibility": "1", "assets": 0, "income": 0, "revenue": 0}, {"ein": "132872380", "name": "MSO PRODUCTIONS INC", "city": "NEW YORK", "state": "NY", "zip": "10023-2277", "ntee": "", "ruling": "197701", "deductibility": "1", "assets": 0, "income": 0, "revenue": 0}, {"ein": "132881858", "name": "CIRCUIT PRODUCTIONS INC", "city": "BROOKLYN", "state": "NY", "zip": "11215-2001", "ntee": "A600", "ruling": "197706", "deductibility": "1", "assets": 2994, "income": 100, "revenue": 100}, {"ein": "132990372", "name": "CENTER FOR INDEPENDENT PRODUCTIONS INC", "city": "PLEASANTVILLE", "state": "NY", "zip": "10570-3502", "ntee": "A310", "ruling": "198002", "deductibility": "1", "assets": 122851, "income": 126882, "revenue": 126882}, {"ein": "133047553", "name": "STREET DANCE PRODUCTIONS INC", "city": "LONG ISLAND CITY", "state": "NY", "zip": "11101-4813", "ntee": "A60", "ruling": "201508", "deductibility": "1", "assets": 376123, "income": 12500, "revenue": 12500}, {"ein": "133047579", "name": "WENAR PRODUCTIONS LIMITED ACTORS CONSERVATORY THEATRE", "city": "MILLWOOD", "state": "NY", "zip": "10546-0605", "ntee": "A650", "ruling": "198103", "deductibility": "1", "assets": 129952, "income": 152059, "revenue": 152059}, {"ein": "133090412", "name": "TRIMTAB PRODUCTIONS INC", "city": "NEW YORK", "state": "NY", "zip": "10023-6108", "ntee": "", "ruling": "198203", "deductibility": "1", "assets": 100, "income": 100, "revenue": 100}, {"ein": "133123525", "name": "ALLIED PRODUCTIONS INC", "city": "NEW YORK", "state": "NY", "zip": "10009-8971", "ntee": "", "ruling": "198301", "deductibility": "1", "assets": 384449, "income": 173624, "revenue": 173219}, {"ein": "133130265", "name": "SKYSAVER PRODUCTIONS INC", "city": "NEW YORK", "state": "NY", "zip": "10003-0803", "ntee": "", "ruling": "198210", "deductibility": "1", "assets": 9082, "income": 122312, "revenue": 122312}, {"ein": "133178772", "name": "IRONDALE PRODUCTIONS INC", "city": "BROOKLYN", "state": "NY", "zip": "11217-1607", "ntee": "", "ruling": "198311", "deductibility": "1", "assets": 1431981, "income": 1037624, "revenue": 1037624}, {"ein": "133221709", "name": "KJK PRODUCTIONS INC", "city": "JEFFERSON VLY", "state": "NY", "zip": "10535-0827", "ntee": "A250", "ruling": "198501", "deductibility": "1", "assets": 79085, "income": 607726, "revenue": 607257}, {"ein": "133230452", "name": "PLAYWRIGHTS PREVIEW PRODUCTIONS LTD", "city": "NEW YORK", "state": "NY", "zip": "10018-4762", "ntee": "", "ruling": "198411", "deductibility": "1", "assets": 174927, "income": 807072, "revenue": 641064}, {"ein": "133261663", "name": "AMERICAN SOCIAL HISTORY PRODUCTIONS INCORPORATED", "city": "NEW YORK", "state": "NY", "zip": "10016-4309", "ntee": "A72Z", "ruling": "198609", "deductibility": "1", "assets": 310832, "income": 128931, "revenue": 78931}, {"ein": "133346540", "name": "JEZEBEL PRODUCTIONS INC", "city": "NEW YORK", "state": "NY", "zip": "10001-4754", "ntee": "A31Z", "ruling": "199111", "deductibility": "1", "assets": 89897, "income": 105154, "revenue": 105154}, {"ein": "133369451", "name": "THE WOMENS PROJECT & PRODUCTIONS", "city": "NEW YORK", "state": "NY", "zip": "10023-7842", "ntee": "A650", "ruling": "198610", "deductibility": "1", "assets": 3804315, "income": 3565026, "revenue": 1768862}, {"ein": "133502842", "name": "DAEDALUS PRODUCTIONS INC", "city": "NEW YORK", "state": "NY", "zip": "10024-3708", "ntee": "", "ruling": "198206", "deductibility": "1", "assets": 0, "income": 0, "revenue": 0}, {"ein": "133530544", "name": "LOTUS FINE ARTS PRODUCTIONS INC", "city": "NEW YORK", "state": "NY", "zip": "10025-4116", "ntee": "A600", "ruling": "198908", "deductibility": "1", "assets": 200471, "income": 361151, "revenue": 351271}, {"ein": "133585152", "name": "WHITE BIRD PRODUCTIONS INC", "city": "BROOKLYN", "state": "NY", "zip": "11217-1694", "ntee": "A650", "ruling": "199207", "deductibility": "1", "assets": 25614, "income": 450835, "revenue": 450835}, {"ein": "133665029", "name": "CARING ABOUT PEOPLE VISUAL PRODUCTIONS SLO-MO INC", "city": "STATEN ISLAND", "state": "NY", "zip": "10303-2516", "ntee": "Z99Z", "ruling": "199210", "deductibility": "1", "assets": 0, "income": 0, "revenue": 0}, {"ein": "133692139", "name": "LOOKING GLASS PRODUCTIONS OF NEW YORK INC", "city": "NEW YORK", "state": "NY", "zip": "10003-4848", "ntee": "A620", "ruling": "199311", "deductibility": "1", "assets": 231519, "income": 17379, "revenue": 17379}, {"ein": "133706567", "name": "THEATER TALK PRODUCTIONS INC", "city": "NEW YORK", "state": "NY", "zip": "10003-4214", "ntee": "A32Z", "ruling": "199806", "deductibility": "1", "assets": 0, "income": 0, "revenue": 0}, {"ein": "133757279", "name": "BLACKBERRY PRODUCTIONS INC", "city": "NEW YORK", "state": "NY", "zip": "10031-2443", "ntee": "A65", "ruling": "201407", "deductibility": "1", "assets": 0, "income": 0, "revenue": 0}, {"ein": "133759462", "name": "PROVENANCE PRODUCTIONS INC", "city": "NEW YORK", "state": "NY", "zip": "10023-6296", "ntee": "", "ruling": "199408", "deductibility": "1", "assets": 25181, "income": 1, "revenue": 0}, {"ein": "133784499", "name": "BREAK A LEG PRODUCTIONS INC", "city": "NEW YORK", "state": "NY", "zip": "10017-0005", "ntee": "A60", "ruling": "199412", "deductibility": "1", "assets": 915931, "income": 62586, "revenue": 62586}, {"ein": "133786051", "name": "SHOTGUN PRODUCTIONS INC", "city": "NEW YORK", "state": "NY", "zip": "10016-4136", "ntee": "A65", "ruling": "199503", "deductibility": "1", "assets": 5194, "income": 1566, "revenue": 1566}, {"ein": "133929841", "name": "SECOND GENERATION PRODUCTIONS INC", "city": "NEW YORK", "state": "NY", "zip": "10018-0007", "ntee": "A65Z", "ruling": "199803", "deductibility": "1", "assets": 49945, "income": 207000, "revenue": 207000}, {"ein": "133931803", "name": "SWEET JANE PRODUCTIONS INC", "city": "BROOKLYN", "state": "NY", "zip": "11205-1309", "ntee": "A65", "ruling": "199710", "deductibility": "1", "assets": 264211, "income": 465782, "revenue": 465782}, {"ein": "133966391", "name": "FULL CIRCLE PRODUCTIONS FCP INC", "city": "BRONX", "state": "NY", "zip": "10462-7312", "ntee": "A99", "ruling": "199803", "deductibility": "1", "assets": 155711, "income": 410546, "revenue": 410546}, {"ein": "133976925", "name": "DANISAR PRODUCTIONS INC", "city": "NEW YORK", "state": "NY", "zip": "10003-4183", "ntee": "A60Z", "ruling": "199805", "deductibility": "1", "assets": 0, "income": 0, "revenue": 0}, {"ein": "134043424", "name": "PARITY PRODUCTIONS INC", "city": "NEW YORK", "state": "NY", "zip": "10011-5818", "ntee": "A65", "ruling": "201904", "deductibility": "1", "assets": 724393, "income": 379443, "revenue": 0}, {"ein": "134059276", "name": "PAGE SEVENTY THREE PRODUCTIONS INC", "city": "BROOKLYN", "state": "NY", "zip": "11217-1506", "ntee": "A65", "ruling": "199907", "deductibility": "1", "assets": 618494, "income": 1253279, "revenue": 1150117}, {"ein": "134070195", "name": "OTHER SIDE PRODUCTIONS", "city": "NEW YORK", "state": "NY", "zip": "10001-6579", "ntee": "A65", "ruling": "199912", "deductibility": "1", "assets": 0, "income": 0, "revenue": 0}, {"ein": "134098868", "name": "ISLE OF SHOALS PRODUCTIONS INC", "city": "NEW YORK", "state": "NY", "zip": "10023-5805", "ntee": "A65", "ruling": "200204", "deductibility": "1", "assets": 0, "income": 0, "revenue": 0}, {"ein": "134122621", "name": "BANANA BOAT PRODUCTIONS INC", "city": "NEW YORK", "state": "NY", "zip": "10019-3732", "ntee": "A23", "ruling": "201111", "deductibility": "1", "assets": 0, "income": 0, "revenue": 0}, {"ein": "134138159", "name": "DRILLING COMPANY THEATRICAL PRODUCTIONS INC", "city": "NEW YORK", "state": "NY", "zip": "10024-5535", "ntee": "A65", "ruling": "200103", "deductibility": "1", "assets": 62753, "income": 27122, "revenue": 27122}, {"ein": "134161637", "name": "MACAYA PRODUCTIONS LTD", "city": "NEW YORK", "state": "NY", "zip": "10035-1028", "ntee": "A60", "ruling": "200201", "deductibility": "1", "assets": 0, "income": 0, "revenue": 0}, {"ein": "134200666", "name": "BIG TREE PRODUCTIONS INC", "city": "NEW YORK", "state": "NY", "zip": "10025-2007", "ntee": "A62", "ruling": "200212", "deductibility": "1", "assets": 15012, "income": 68820, "revenue": 68820}, {"ein": "141735882", "name": "UPSTAGE PRODUCTIONS INC", "city": "HUDSON", "state": "NY", "zip": "12534-0300", "ntee": "A65", "ruling": "200209", "deductibility": "1", "assets": 0, "income": 0, "revenue": 0}, {"ein": "141745940", "name": "ARM OF THE SEA PRODUCTIONS INC", "city": "MALDEN HUDSON", "state": "NY", "zip": "12453-0175", "ntee": "", "ruling": "199204", "deductibility": "1", "assets": 402640, "income": 237054, "revenue": 237054}, {"ein": "141823830", "name": "JEREMIAH PRODUCTIONS INC", "city": "ALBANY", "state": "NY", "zip": "12205-2432", "ntee": "A65", "ruling": "200312", "deductibility": "1", "assets": 0, "income": 0, "revenue": 0}, {"ein": "161525757", "name": "CREATIVE CULTURAL PRODUCTIONS INC", "city": "ROCHESTER", "state": "NY", "zip": "14612-2103", "ntee": "A01", "ruling": "201702", "deductibility": "1", "assets": 0, "income": 0, "revenue": 0}, {"ein": "200023339", "name": "PRISMATIC PRODUCTIONS INC", "city": "NEW YORK", "state": "NY", "zip": "10034-1323", "ntee": "A65", "ruling": "200401", "deductibility": "1", "assets": 0, "income": 0, "revenue": 0}, {"ein": "200253443", "name": "MJ PRODUCTIONS INC", "city": "NEW CITY", "state": "NY", "zip": "10956-5801", "ntee": "A23", "ruling": "202507", "deductibility": "1", "assets": 0, "income": 0, "revenue": 0}, {"ein": "200509240", "name": "PRODUCTIONS OVER THE RAINBOW INCORPORATED", "city": "HOLBROOK", "state": "NY", "zip": "11741-4302", "ntee": "A65", "ruling": "200606", "deductibility": "1", "assets": 70171, "income": 147248, "revenue": 147248}, {"ein": "201099216", "name": "OFF THE LEESH PRODUCTIONS INC", "city": "KATONAH", "state": "NY", "zip": "10536-3022", "ntee": "A65", "ruling": "200406", "deductibility": "1", "assets": 0, "income": 0, "revenue": 0}, {"ein": "201191900", "name": "LIGHT KEEPER PRODUCTIONS INC", "city": "NEW YORK", "state": "NY", "zip": "10001-1438", "ntee": "A65", "ruling": "201611", "deductibility": "1", "assets": 0, "income": 0, "revenue": 0}, {"ein": "202177323", "name": "RACOCO PRODUCTIONS INC", "city": "BROOKLYN", "state": "NY", "zip": "11249-1902", "ntee": "A65", "ruling": "200510", "deductibility": "1", "assets": 0, "income": 0, "revenue": 0}, {"ein": "202701574", "name": "WABI SABI PRODUCTIONS INC", "city": "BRONX", "state": "NY", "zip": "10455-1374", "ntee": "A31", "ruling": "200807", "deductibility": "1", "assets": 0, "income": 0, "revenue": 0}, {"ein": "202924921", "name": "MAGIC BOX PRODUCTIONS INC", "city": "PLEASANTVILLE", "state": "NY", "zip": "10570-2202", "ntee": "O50", "ruling": "200602", "deductibility": "1", "assets": 428706, "income": 544882, "revenue": 537277}, {"ein": "203463651", "name": "GRANDPARENTS AROUND THE WORLD PRODUCTIONS INC", "city": "BRONX", "state": "NY", "zip": "10461-5323", "ntee": "A23", "ruling": "201501", "deductibility": "1", "assets": 28990, "income": 13044, "revenue": 13044}, {"ein": "204667720", "name": "RIGHT DOWN BROADWAY PRODUCTIONS LTD", "city": "NEW YORK", "state": "NY", "zip": "10128-5892", "ntee": "A60", "ruling": "200703", "deductibility": "1", "assets": 0, "income": 0, "revenue": 0}, {"ein": "205081819", "name": "HEIRESS PRODUCTIONS INC", "city": "NEW YORK", "state": "NY", "zip": "10024-4022", "ntee": "A65", "ruling": "200607", "deductibility": "1", "assets": 0, "income": 0, "revenue": 0}, {"ein": "222402189", "name": "LUMEN PRODUCTIONS INC", "city": "COLD SPRING", "state": "NY", "zip": "10516-0000", "ntee": "", "ruling": "198207", "deductibility": "1", "assets": 30550, "income": 44702, "revenue": 44702}, {"ein": "222446279", "name": "WATERTOWN LYRIC THEATER PRODUCTIONS INC", "city": "WATERTOWN", "state": "NY", "zip": "13601-0532", "ntee": "A65", "ruling": "201409", "deductibility": "1", "assets": 0, "income": 0, "revenue": 0}, {"ein": "223137816", "name": "S R O PRODUCTIONS III OF BINGHAMPTON INC", "city": "BINGHAMTON", "state": "NY", "zip": "13905-2124", "ntee": "R00Z", "ruling": "199112", "deductibility": "1", "assets": 4445, "income": 52872, "revenue": 52872}, {"ein": "223886369", "name": "WATERWELL PRODUCTIONS INC", "city": "NEW YORK", "state": "NY", "zip": "10036-5453", "ntee": "A65", "ruling": "200303", "deductibility": "1", "assets": 378146, "income": 1398274, "revenue": 1293610}, {"ein": "260779914", "name": "ADIRONDACK PRODUCTIONS AND THEATERINC", "city": "QUEENSBURY", "state": "NY", "zip": "12804-0648", "ntee": "A65", "ruling": "200806", "deductibility": "1", "assets": 0, "income": 0, "revenue": 0}, {"ein": "261592072", "name": "LP STUDIO PRODUCTIONS INC", "city": "BROOKLYN", "state": "NY", "zip": "11235-4201", "ntee": "A23", "ruling": "201410", "deductibility": "1", "assets": 0, "income": 0, "revenue": 0}, {"ein": "261848414", "name": "ON THE ROAD PRODUCTIONS INTERNATIONAL INC", "city": "NEW YORK", "state": "NY", "zip": "10013-2713", "ntee": "A54", "ruling": "200808", "deductibility": "1", "assets": 781750, "income": 193093, "revenue": 193093}, {"ein": "262475359", "name": "MEMORY PROJECT PRODUCTIONS INC", "city": "NEW YORK", "state": "NY", "zip": "10014-2545", "ntee": "A82", "ruling": "200805", "deductibility": "1", "assets": 52201, "income": 90812, "revenue": 90812}, {"ein": "263118904", "name": "CONSILIENCE PRODUCTIONS INC", "city": "JACKSON HEIGHTS", "state": "NY", "zip": "11372-2744", "ntee": "A68", "ruling": "200903", "deductibility": "1", "assets": 0, "income": 0, "revenue": 0}, {"ein": "264638701", "name": "HELPMAN PRODUCTIONS", "city": "CROTON ON HUDSON", "state": "NY", "zip": "10520-3055", "ntee": "A31", "ruling": "201001", "deductibility": "1", "assets": 12318, "income": 5905, "revenue": 5905}, {"ein": "264647221", "name": "SILVER GLASS PRODUCTIONS", "city": "NEW YORK", "state": "NY", "zip": "10128-3646", "ntee": "A20", "ruling": "200912", "deductibility": "1", "assets": 0, "income": 0, "revenue": 0}, {"ein": "264704618", "name": "OCONNELL & COMPANY PRODUCTIONS INC", "city": "AMHERST", "state": "NY", "zip": "14226-2923", "ntee": "A60", "ruling": "201407", "deductibility": "1", "assets": 11571, "income": 54536, "revenue": 54536}, {"ein": "264772163", "name": "NO11 PRODUCTIONS INC", "city": "NEW YORK", "state": "NY", "zip": "10014-2743", "ntee": "A65", "ruling": "200906", "deductibility": "1", "assets": 0, "income": 0, "revenue": 0}, {"ein": "270453133", "name": "EMPOWERING PRODUCTIONS", "city": "NEW YORK", "state": "NY", "zip": "10040-3613", "ntee": "F20", "ruling": "200911", "deductibility": "1", "assets": 0, "income": 0, "revenue": 0}, {"ein": "272251367", "name": "ART DEFINED PRODUCTIONS", "city": "BRONX", "state": "NY", "zip": "10468-2221", "ntee": "A20", "ruling": "201409", "deductibility": "1", "assets": 0, "income": 0, "revenue": 0}, {"ein": "273007269", "name": "LIVELY PRODUCTIONS", "city": "NEW YORK", "state": "NY", "zip": "10025-3152", "ntee": "A65", "ruling": "201106", "deductibility": "1", "assets": 0, "income": 0, "revenue": 0}, {"ein": "273402327", "name": "BRAATA PRODUCTIONS CORP", "city": "SAINT ALBANS", "state": "NY", "zip": "11412-3522", "ntee": "A68", "ruling": "201201", "deductibility": "1", "assets": 689230, "income": 851715, "revenue": 851715}, {"ein": "274229192", "name": "POLARIS PRODUCTIONS", "city": "NEW YORK", "state": "NY", "zip": "10011-5804", "ntee": "A65", "ruling": "201209", "deductibility": "1", "assets": 0, "income": 0, "revenue": 0}, {"ein": "300432864", "name": "SRSC PRODUCTIONS INC", "city": "LARCHMONT", "state": "NY", "zip": "10538-2510", "ntee": "B90", "ruling": "200710", "deductibility": "1", "assets": 0, "income": 0, "revenue": 0}, {"ein": "300509015", "name": "4-SHO PRODUCTIONS", "city": "CHESTNUT RDG", "state": "NY", "zip": "10977-5740", "ntee": "X21", "ruling": "200903", "deductibility": "1", "assets": 0, "income": 0, "revenue": 0}, {"ein": "300713351", "name": "MARY AND COMPANY PRODUCTIONS INC", "city": "NEW YORK", "state": "NY", "zip": "10027-6043", "ntee": "B99", "ruling": "202211", "deductibility": "1", "assets": 0, "income": 0, "revenue": 0}, {"ein": "300716207", "name": "LIBRA-6 PRODUCTIONS INC", "city": "CONGERS", "state": "NY", "zip": "10920-2622", "ntee": "A20", "ruling": "202309", "deductibility": "1", "assets": 0, "income": 0, "revenue": 0}, {"ein": "311693404", "name": "PIECE BY PIECE PRODUCTIONS INC", "city": "NEW YORK", "state": "NY", "zip": "10036-0000", "ntee": "A20", "ruling": "200006", "deductibility": "1", "assets": 348284, "income": 902885, "revenue": 0}, {"ein": "320082799", "name": "FRANCESCO PRODUCTIONS INC", "city": "BRONX", "state": "NY", "zip": "10455-1232", "ntee": "P60", "ruling": "200405", "deductibility": "1", "assets": 0, "income": 0, "revenue": 0}, {"ein": "320092053", "name": "HEAVENLY PRODUCTIONS FOUNDATION", "city": "ARMONK", "state": "NY", "zip": "10504-1941", "ntee": "T12", "ruling": "200502", "deductibility": "1", "assets": 0, "income": 0, "revenue": 0}, {"ein": "320393124", "name": "DIVARIA PRODUCTIONS INC", "city": "SOUTHAMPTON", "state": "NY", "zip": "11968-2003", "ntee": "A68", "ruling": "201503", "deductibility": "1", "assets": 0, "income": 0, "revenue": 0}, {"ein": "331426665", "name": "SILVER STREAM PRODUCTIONS INC", "city": "STONE RIDGE", "state": "NY", "zip": "12484-5236", "ntee": "A31", "ruling": "202507", "deductibility": "1", "assets": 0, "income": 0, "revenue": 0}, {"ein": "332507908", "name": "KINSHOKU PRODUCTIONS INC", "city": "WILLIAMSVILLE", "state": "NY", "zip": "14221-5644", "ntee": "A20", "ruling": "202506", "deductibility": "1", "assets": 0, "income": 0, "revenue": 0}, {"ein": "332966248", "name": "LOOK TO THE STARS PRODUCTIONS INC", "city": "OCEANSIDE", "state": "NY", "zip": "11572-3526", "ntee": "A60", "ruling": "202501", "deductibility": "1", "assets": 0, "income": 0, "revenue": 0}, {"ein": "333123798", "name": "ECKACITTA PRODUCTIONS INC", "city": "NEW YORK", "state": "NY", "zip": "10012-2852", "ntee": "A31", "ruling": "202505", "deductibility": "1", "assets": 0, "income": 0, "revenue": 0}, {"ein": "334159269", "name": "BATTLEGROUNDS TEAM AND VS PRODUCTIONS INC", "city": "BRONX", "state": "NY", "zip": "10462-6615", "ntee": "N32", "ruling": "202505", "deductibility": "1", "assets": 0, "income": 0, "revenue": 0}, {"ein": "352759742", "name": "BOGARDUS PRODUCTIONS INC", "city": "SHERRILL", "state": "NY", "zip": "13461-1401", "ntee": "A60", "ruling": "202406", "deductibility": "1", "assets": 0, "income": 0, "revenue": 0}, {"ein": "371646881", "name": "STARLING PRODUCTIONS INC", "city": "KINGSTON", "state": "NY", "zip": "12401-4533", "ntee": "A60", "ruling": "201405", "deductibility": "1", "assets": 174769, "income": 567475, "revenue": 567475}, {"ein": "421727647", "name": "ILLUMINART PRODUCTIONS", "city": "STATEN ISLAND", "state": "NY", "zip": "10301-1114", "ntee": "", "ruling": "200705", "deductibility": "1", "assets": 276073, "income": 911859, "revenue": 911859}, {"ein": "453656292", "name": "WIDE EYED PRODUCTIONS INC", "city": "ASTORIA", "state": "NY", "zip": "11105-2926", "ntee": "A65", "ruling": "201304", "deductibility": "1", "assets": 0, "income": 0, "revenue": 0}, {"ein": "453739837", "name": "VOCAL PRODUCTIONS NYC CORP", "city": "NEW YORK", "state": "NY", "zip": "10014-3342", "ntee": "A65", "ruling": "201204", "deductibility": "1", "assets": 0, "income": 0, "revenue": 0}, {"ein": "454129648", "name": "HUDSON RIVER MUSIC HALL PRODUCTIONS", "city": "HUDSON FALLS", "state": "NY", "zip": "12839-1814", "ntee": "A20", "ruling": "201308", "deductibility": "1", "assets": 1228393, "income": 490618, "revenue": 483329}, {"ein": "460692076", "name": "BROOKLYNONE PRODUCTIONS INC", "city": "BROOKLYN", "state": "NY", "zip": "11228-2711", "ntee": "A60", "ruling": "201311", "deductibility": "1", "assets": 0, "income": 0, "revenue": 0}, {"ein": "461448362", "name": "NIKITA PRODUCTIONS INC", "city": "GHENT", "state": "NY", "zip": "12075-1600", "ntee": "A65", "ruling": "201306", "deductibility": "1", "assets": 0, "income": 0, "revenue": 0}, {"ein": "464685377", "name": "GREAT CIRCLE PRODUCTIONS INC", "city": "NEW YORK", "state": "NY", "zip": "10023-3477", "ntee": "A20", "ruling": "201412", "deductibility": "1", "assets": 0, "income": 0, "revenue": 0}, {"ein": "465553724", "name": "SINGERS PERFORMERS ACTORS REPERTORY ENSEMBLE PRODUCTIONS INCORPORATED", "city": "VESTAL", "state": "NY", "zip": "13851-0284", "ntee": "Z99", "ruling": "201407", "deductibility": "1", "assets": 0, "income": 0, "revenue": 0}, {"ein": "471027343", "name": "MISSING BOLTS PRODUCTIONS INC", "city": "NEW YORK", "state": "NY", "zip": "10017-4834", "ntee": "A65", "ruling": "201511", "deductibility": "1", "assets": 0, "income": 0, "revenue": 0}, {"ein": "471659200", "name": "FOUR DIMENSION PRODUCTIONS INC", "city": "N SYRACUSE", "state": "NY", "zip": "13212-2767", "ntee": "O11", "ruling": "201410", "deductibility": "1", "assets": 0, "income": 0, "revenue": 0}, {"ein": "472294609", "name": "PITCH HER PRODUCTIONS INC", "city": "ASTORIA", "state": "NY", "zip": "11103-2825", "ntee": "A31", "ruling": "201508", "deductibility": "1", "assets": 0, "income": 0, "revenue": 0}, {"ein": "472481993", "name": "INFINITE VARIETY PRODUCTIONS", "city": "BRONX", "state": "NY", "zip": "10451-2328", "ntee": "A65", "ruling": "201412", "deductibility": "1", "assets": 0, "income": 0, "revenue": 0}, {"ein": "473416692", "name": "WHITE KNUCKLES PRODUCTIONS INC", "city": "NEW YORK", "state": "NY", "zip": "10025-7687", "ntee": "A60", "ruling": "201503", "deductibility": "1", "assets": 1000, "income": 39860, "revenue": 39860}, {"ein": "474025845", "name": "STARS WITHIN REACH PRODUCTIONS INC", "city": "NEW YORK", "state": "NY", "zip": "10003-1502", "ntee": "A65", "ruling": "201603", "deductibility": "1", "assets": 0, "income": 0, "revenue": 0}, {"ein": "474533413", "name": "SCIENCE LIVE PRODUCTIONS INC", "city": "BROOKLYN", "state": "NY", "zip": "11218-4820", "ntee": "A99", "ruling": "201507", "deductibility": "1", "assets": 17509, "income": 57418, "revenue": 57418}, {"ein": "474867327", "name": "LA FEMME THEATRE PRODUCTIONS", "city": "NEW YORK", "state": "NY", "zip": "10036-4005", "ntee": "A65", "ruling": "201612", "deductibility": "1", "assets": 1810948, "income": 3450402, "revenue": 3450402}, {"ein": "475098793", "name": "CLUTCH PRODUCTIONS INC", "city": "NEW YORK", "state": "NY", "zip": "10034-2983", "ntee": "A65", "ruling": "201606", "deductibility": "1", "assets": 0, "income": 0, "revenue": 0}, {"ein": "521490194", "name": "WORLD MUSIC PRODUCTIONS INC", "city": "BROOKLYN", "state": "NY", "zip": "11232-2408", "ntee": "A34Z", "ruling": "198703", "deductibility": "1", "assets": 209170, "income": 353185, "revenue": 353185}, {"ein": "550873694", "name": "ONYX VIZION PRODUCTIONS INC", "city": "BRONX", "state": "NY", "zip": "10451-4843", "ntee": "A40", "ruling": "200608", "deductibility": "1", "assets": 0, "income": 0, "revenue": 0}, {"ein": "562283049", "name": "KENNETH COLE PRODUCTIONS FOUNDATION", "city": "NEW YORK", "state": "NY", "zip": "10011-2811", "ntee": "T22", "ruling": "200303", "deductibility": "1", "assets": 1579700, "income": 535603, "revenue": 0}, {"ein": "611943871", "name": "CONVERSATION PRODUCTIONS INC", "city": "NEW YORK", "state": "NY", "zip": "10019-0000", "ntee": "A32", "ruling": "202003", "deductibility": "1", "assets": 46948, "income": 186000, "revenue": 0}, {"ein": "651226927", "name": "ROAD LESS TRAVELED PRODUCTIONS LTD", "city": "BUFFALO", "state": "NY", "zip": "14202-3203", "ntee": "A65", "ruling": "200409", "deductibility": "1", "assets": 1042942, "income": 510205, "revenue": 510205}, {"ein": "711033240", "name": "FOOTHILLS FAMILY PRODUCTIONS INC", "city": "GLOVERSVILLE", "state": "NY", "zip": "12078-0004", "ntee": "A6E", "ruling": "200809", "deductibility": "1", "assets": 0, "income": 0, "revenue": 0}, {"ein": "742972176", "name": "WET INK MUSIC PRODUCTIONS INC", "city": "BROOKLYN", "state": "NY", "zip": "11226-1980", "ntee": "A68", "ruling": "200203", "deductibility": "1", "assets": 51387, "income": 152239, "revenue": 152239}, {"ein": "753041303", "name": "PARTIAL COMFORT PRODUCTIONS", "city": "NEW YORK", "state": "NY", "zip": "10018-6507", "ntee": "A65", "ruling": "202303", "deductibility": "1", "assets": 17595, "income": 32713, "revenue": 32713}, {"ein": "770663872", "name": "PRINCIPE PRODUCTIONS INC", "city": "NEW YORK", "state": "NY", "zip": "10025-1828", "ntee": "Q70", "ruling": "201409", "deductibility": "1", "assets": 239854, "income": 100781, "revenue": 100781}, {"ein": "800141971", "name": "STEP IT UP DANCE PRODUCTIONS", "city": "CORNWALL ON HUDSON", "state": "NY", "zip": "12520-1529", "ntee": "A62", "ruling": "201406", "deductibility": "1", "assets": 8197, "income": 70582, "revenue": 70107}, {"ein": "800262042", "name": "STATE OF PLAY PRODUCTIONS INC", "city": "OSSINING", "state": "NY", "zip": "10562-2123", "ntee": "A65", "ruling": "200910", "deductibility": "1", "assets": 0, "income": 0, "revenue": 0}, {"ein": "810982503", "name": "LAKE THEATRE PRODUCTIONS", "city": "SARATOGA SPGS", "state": "NY", "zip": "12866-5766", "ntee": "A65", "ruling": "201605", "deductibility": "1", "assets": 243041, "income": 386408, "revenue": 386408}, {"ein": "811419414", "name": "WILD PROJECT PRODUCTIONS INC", "city": "NEW YORK", "state": "NY", "zip": "10009-7424", "ntee": "A61", "ruling": "201604", "deductibility": "1", "assets": 553744, "income": 532038, "revenue": 518930}, {"ein": "813319166", "name": "SPECTRUM ARTS PRODUCTIONS", "city": "BROOKLYN", "state": "NY", "zip": "11231-3961", "ntee": "A20", "ruling": "202402", "deductibility": "1", "assets": 0, "income": 0, "revenue": 0}, {"ein": "813540107", "name": "TITAN PRODUCTIONS INCORPORATED", "city": "ASTORIA", "state": "NY", "zip": "11102-3331", "ntee": "A65", "ruling": "201609", "deductibility": "1", "assets": 83197, "income": 97000, "revenue": 97000}, {"ein": "813727995", "name": "ACUITY PRODUCTIONS", "city": "NEW YORK", "state": "NY", "zip": "10001-7604", "ntee": "A20", "ruling": "201609", "deductibility": "1", "assets": 0, "income": 0, "revenue": 0}, {"ein": "814757110", "name": "414 PRODUCTIONS INC", "city": "FLUSHING", "state": "NY", "zip": "11354-2504", "ntee": "X99", "ruling": "202006", "deductibility": "1", "assets": 0, "income": 0, "revenue": 0}, {"ein": "821969191", "name": "WAYLAND PRODUCTIONS LTD", "city": "NEW YORK", "state": "NY", "zip": "10003-1526", "ntee": "A40", "ruling": "201805", "deductibility": "1", "assets": 6273, "income": 3227, "revenue": 3227}, {"ein": "822254737", "name": "GREENGO PRODUCTIONS INC", "city": "HALFMOON", "state": "NY", "zip": "12065-2630", "ntee": "A60", "ruling": "201803", "deductibility": "1", "assets": 0, "income": 0, "revenue": 0}, {"ein": "822556522", "name": "POST-INDUSTRIAL PRODUCTIONS OF BUFFALO INC", "city": "BUFFALO", "state": "NY", "zip": "14226-7490", "ntee": "A60", "ruling": "201809", "deductibility": "1", "assets": 0, "income": 0, "revenue": 0}, {"ein": "823403842", "name": "MORE THAN CONQUERORS PRODUCTIONS", "city": "BROOKLYN", "state": "NY", "zip": "11233-4260", "ntee": "P20", "ruling": "201805", "deductibility": "1", "assets": 0, "income": 0, "revenue": 0}, {"ein": "823549846", "name": "WALKING ON WATER PRODUCTIONS INC", "city": "GROTON", "state": "NY", "zip": "13073-1102", "ntee": "A65", "ruling": "201903", "deductibility": "1", "assets": 0, "income": 0, "revenue": 0}, {"ein": "823645906", "name": "ROSE NOIRE PRODUCTIONS", "city": "MOUNT VERNON", "state": "NY", "zip": "10550-4507", "ntee": "O50", "ruling": "201803", "deductibility": "1", "assets": 0, "income": 0, "revenue": 0}, {"ein": "824441833", "name": "LIKE A GIRL PRODUCTIONS", "city": "NEW YORK", "state": "NY", "zip": "10035-2024", "ntee": "B01", "ruling": "201804", "deductibility": "1", "assets": 0, "income": 0, "revenue": 0}, {"ein": "824529153", "name": "BEYOND DOPE PRODUCTIONS INC", "city": "BROOKLYN", "state": "NY", "zip": "11233-6966", "ntee": "F01", "ruling": "201806", "deductibility": "1", "assets": 0, "income": 0, "revenue": 0}, {"ein": "824759756", "name": "GOJO CLAN PRODUCTIONS", "city": "HASTINGS HDSN", "state": "NY", "zip": "10706-3208", "ntee": "A65", "ruling": "201803", "deductibility": "1", "assets": 0, "income": 0, "revenue": 0}, {"ein": "830492484", "name": "ROYAL FAMILY PRODUCTIONS INC", "city": "NEW YORK", "state": "NY", "zip": "10036-8502", "ntee": "A65", "ruling": "200806", "deductibility": "1", "assets": 34967, "income": 135337, "revenue": 135337}, {"ein": "830908881", "name": "BALM2 PRODUCTIONS", "city": "BROOKLYN", "state": "NY", "zip": "11208-3623", "ntee": "A60", "ruling": "201808", "deductibility": "1", "assets": 0, "income": 0, "revenue": 0}, {"ein": "832139053", "name": "ROCK RISING PRODUCTIONS", "city": "ASTORIA", "state": "NY", "zip": "11106-2644", "ntee": "A20", "ruling": "202105", "deductibility": "1", "assets": 16816, "income": 83806, "revenue": 83806}, {"ein": "833234668", "name": "FALLEN CHANDELIER PRODUCTIONS INC", "city": "TROY", "state": "NY", "zip": "12180-8944", "ntee": "A65", "ruling": "201905", "deductibility": "1", "assets": 0, "income": 0, "revenue": 0}, {"ein": "833241769", "name": "CYPRUS NEW YORK PRODUCTIONS INC", "city": "ASTORIA", "state": "NY", "zip": "11102-2698", "ntee": "A20", "ruling": "202311", "deductibility": "1", "assets": 0, "income": 0, "revenue": 0}, {"ein": "834523112", "name": "A SKETCH OF NEW YORK PRODUCTIONS INC", "city": "NEW YORK", "state": "NY", "zip": "10036-0380", "ntee": "A60", "ruling": "202203", "deductibility": "1", "assets": 1369, "income": 50714, "revenue": 50714}, {"ein": "842028774", "name": "JUST HUMAN PRODUCTIONS INC", "city": "NEW YORK", "state": "NY", "zip": "10001-7212", "ntee": "A31", "ruling": "201911", "deductibility": "1", "assets": 20499, "income": 26192, "revenue": 26192}, {"ein": "842328153", "name": "BREADCRUMBS PRODUCTIONS INC", "city": "SYRACUSE", "state": "NY", "zip": "13203-1605", "ntee": "A60", "ruling": "201910", "deductibility": "1", "assets": 19151, "income": 76062, "revenue": 76062}, {"ein": "842768992", "name": "SHADOW TRAFFIC PRODUCTIONS INC", "city": "RIDGEWOOD", "state": "NY", "zip": "11385-3155", "ntee": "A40", "ruling": "202004", "deductibility": "1", "assets": 0, "income": 0, "revenue": 0}, {"ein": "842929502", "name": "LIGHTS UP PRODUCTIONS INC", "city": "EARLTON", "state": "NY", "zip": "12058-2110", "ntee": "A60", "ruling": "201909", "deductibility": "1", "assets": 0, "income": 0, "revenue": 0}, {"ein": "843501576", "name": "MOONLIGHT PRODUCTIONS NYC", "city": "STATEN ISLAND", "state": "NY", "zip": "10307-1827", "ntee": "A65", "ruling": "202001", "deductibility": "1", "assets": 2253, "income": 17549, "revenue": 17549}, {"ein": "843651392", "name": "ARLO ART PRODUCTIONS INC", "city": "STATEN ISLAND", "state": "NY", "zip": "10305-4765", "ntee": "A20", "ruling": "202003", "deductibility": "1", "assets": 0, "income": 0, "revenue": 0}, {"ein": "844841311", "name": "BARRIO INDEPENDENT PRODUCTIONS INC", "city": "NEW YORK", "state": "NY", "zip": "10001-1437", "ntee": "A23", "ruling": "202011", "deductibility": "1", "assets": 3844, "income": 39339, "revenue": 39339}, {"ein": "851207156", "name": "TGD PRODUCTIONS INC", "city": "NEW YORK", "state": "NY", "zip": "10011-2126", "ntee": "A65", "ruling": "202108", "deductibility": "1", "assets": 4971, "income": 12110, "revenue": 0}, {"ein": "851607360", "name": "BETH GRACZYK PRODUCTIONS INC", "city": "BROOKLYN", "state": "NY", "zip": "11225-2055", "ntee": "", "ruling": "202008", "deductibility": "1", "assets": 0, "income": 0, "revenue": 0}, {"ein": "853555333", "name": "LAYERHYTHM PRODUCTIONS INC", "city": "NEW YORK", "state": "NY", "zip": "10010-3172", "ntee": "A62", "ruling": "202101", "deductibility": "1", "assets": 85326, "income": 217152, "revenue": 217152}, {"ein": "861096866", "name": "TEN GRAND AND A BURGER PRODUCTIONS INC", "city": "STATEN ISLAND", "state": "NY", "zip": "10301-0000", "ntee": "A65", "ruling": "200407", "deductibility": "1", "assets": 0, "income": 0, "revenue": 0}, {"ein": "861159920", "name": "GROUND UP PRODUCTIONS", "city": "NEW YORK", "state": "NY", "zip": "10014-5717", "ntee": "A65", "ruling": "200707", "deductibility": "1", "assets": 16224, "income": 14495, "revenue": 14495}, {"ein": "862904148", "name": "ARACHNE THEATRICAL PRODUCTIONS", "city": "WOODSIDE", "state": "NY", "zip": "11377-5055", "ntee": "A65", "ruling": "202107", "deductibility": "1", "assets": 0, "income": 0, "revenue": 0}, {"ein": "863043032", "name": "OHM PRODUCTIONS FOUNDATION INC", "city": "NEW YORK", "state": "NY", "zip": "10019-0097", "ntee": "A65", "ruling": "202107", "deductibility": "1", "assets": 0, "income": 0, "revenue": 0}, {"ein": "871304682", "name": "CLIO PRODUCTIONS INC", "city": "WILLIAMSVILLE", "state": "NY", "zip": "14221-1748", "ntee": "A80", "ruling": "202302", "deductibility": "1", "assets": 0, "income": 0, "revenue": 0}, {"ein": "871931296", "name": "BELLISSIMA PRODUCTIONS INC", "city": "BUFFALO", "state": "NY", "zip": "14223-1055", "ntee": "A65", "ruling": "202112", "deductibility": "1", "assets": 0, "income": 0, "revenue": 0}, {"ein": "873395135", "name": "BIGGER DREAMS PRODUCTIONS INC", "city": "ONEONTA", "state": "NY", "zip": "13820-0918", "ntee": "A65", "ruling": "202404", "deductibility": "1", "assets": 6266, "income": 56653, "revenue": 56653}, {"ein": "873966743", "name": "CITY GATE PRODUCTIONS INC", "city": "FOREST HILLS", "state": "NY", "zip": "11375-9055", "ntee": "A65", "ruling": "202202", "deductibility": "1", "assets": 9752, "income": 23117, "revenue": 23117}, {"ein": "873986476", "name": "ROBLESWRITES PRODUCTIONS", "city": "BRONX", "state": "NY", "zip": "10466-1217", "ntee": "A20", "ruling": "202206", "deductibility": "1", "assets": 1, "income": 14326, "revenue": 14326}, {"ein": "874748824", "name": "ENCORE YOUTH PRODUCTIONS INC", "city": "LIVERPOOL", "state": "NY", "zip": "13088-0571", "ntee": "A25", "ruling": "202207", "deductibility": "1", "assets": 14355, "income": 86555, "revenue": 86555}, {"ein": "881649776", "name": "ALL ABILITIES PRODUCTIONS UPSTATE NEW YORK INC", "city": "GLENS FALLS", "state": "NY", "zip": "12801-4110", "ntee": "A60", "ruling": "202208", "deductibility": "1", "assets": 0, "income": 0, "revenue": 0}, {"ein": "881749857", "name": "I R D PRODUCTIONS CORP", "city": "ASTORIA", "state": "NY", "zip": "11103-3471", "ntee": "A60", "ruling": "202207", "deductibility": "1", "assets": 0, "income": 0, "revenue": 0}, {"ein": "883018840", "name": "ARTICLE 19 PRODUCTIONS", "city": "NIAGARA FALLS", "state": "NY", "zip": "14304-4552", "ntee": "A60", "ruling": "202208", "deductibility": "1", "assets": 0, "income": 0, "revenue": 0}, {"ein": "883439936", "name": "JEHOVAH JIREH MY PROVIDER PRODUCTIONS INC", "city": "BUFFALO", "state": "NY", "zip": "14202-2230", "ntee": "A20", "ruling": "202208", "deductibility": "1", "assets": 1, "income": 1, "revenue": 0}, {"ein": "921233101", "name": "SEOULFUL PRODUCTIONS INC", "city": "BROOKLYN", "state": "NY", "zip": "11233-2536", "ntee": "A31", "ruling": "202212", "deductibility": "1", "assets": 0, "income": 0, "revenue": 0}, {"ein": "921760555", "name": "FRONTIER STAGE PRODUCTIONS INC", "city": "BRONX", "state": "NY", "zip": "10463-3430", "ntee": "B99", "ruling": "202505", "deductibility": "1", "assets": 0, "income": 0, "revenue": 0}, {"ein": "921877273", "name": "FIVE4FIVE PRODUCTIONS", "city": "NEW YORK", "state": "NY", "zip": "10025-4135", "ntee": "A25", "ruling": "202311", "deductibility": "1", "assets": 0, "income": 0, "revenue": 0}, {"ein": "922228005", "name": "SALON SEANCE PRODUCTIONS INC", "city": "NEW YORK", "state": "NY", "zip": "10032-7298", "ntee": "A20", "ruling": "202404", "deductibility": "1", "assets": 0, "income": 0, "revenue": 0}, {"ein": "922415855", "name": "FIRST2FINAL PRODUCTIONS", "city": "MONTAUK", "state": "NY", "zip": "11954-5212", "ntee": "N12", "ruling": "202303", "deductibility": "1", "assets": 0, "income": 0, "revenue": 0}, {"ein": "923372576", "name": "WE RISE PRODUCTIONS", "city": "NEW YORK", "state": "NY", "zip": "10011-1132", "ntee": "A60", "ruling": "202305", "deductibility": "1", "assets": 32, "income": 150, "revenue": 150}, {"ein": "932260048", "name": "AMSTERDAM STUDENT DRAMA CLUB PRODUCTIONS INC", "city": "AMSTERDAM", "state": "NY", "zip": "12010-1846", "ntee": "A65", "ruling": "202307", "deductibility": "1", "assets": 0, "income": 0, "revenue": 0}, {"ein": "933096474", "name": "TIMOTHY ROAD PRODUCTIONS INC", "city": "NEW YORK", "state": "NY", "zip": "10028-2079", "ntee": "A31", "ruling": "202309", "deductibility": "1", "assets": 0, "income": 0, "revenue": 0}, {"ein": "933256363", "name": "HUMANS FIRST PRODUCTIONS", "city": "BROOKLYN", "state": "NY", "zip": "11225-3550", "ntee": "A30", "ruling": "202312", "deductibility": "1", "assets": 0, "income": 0, "revenue": 0}, {"ein": "933305357", "name": "ROYAL AMBASSADOR PRODUCTIONS ASSOCIATION", "city": "POMONA", "state": "NY", "zip": "10970-2014", "ntee": "A68", "ruling": "202311", "deductibility": "1", "assets": 0, "income": 0, "revenue": 0}, {"ein": "934540017", "name": "WILEY WATER PRODUCTIONS INC", "city": "BROOKLYN", "state": "NY", "zip": "11225-5885", "ntee": "A31", "ruling": "202403", "deductibility": "1", "assets": 0, "income": 0, "revenue": 0}, {"ein": "942499582", "name": "PARSIFALS PRODUCTIONS", "city": "NEW YORK", "state": "NY", "zip": "10024-1625", "ntee": "A650", "ruling": "197807", "deductibility": "1", "assets": 12243, "income": 9369, "revenue": 6156}, {"ein": "990542894", "name": "CONCH SHELL PRODUCTIONS INCORPORATED", "city": "FLUSHING", "state": "NY", "zip": "11367-3445", "ntee": "A20", "ruling": "202402", "deductibility": "1", "assets": 0, "income": 0, "revenue": 0}, {"ein": "991168327", "name": "AMOEBA PRODUCTIONS", "city": "NEW YORK", "state": "NY", "zip": "10019-5764", "ntee": "A65", "ruling": "202403", "deductibility": "1", "assets": 0, "income": 0, "revenue": 0}, {"ein": "993387069", "name": "HOUSE OF CHOW PRODUCTIONS INC", "city": "NEW YORK", "state": "NY", "zip": "10001-5404", "ntee": "", "ruling": "202406", "deductibility": "0", "assets": 0, "income": 0, "revenue": 0}], "FREDONIA": [{"ein": "010808835", "name": "FREDONIA COMMONS AFFORDABLE HOUSING INC", "city": "DUNKIRK", "state": "NY", "zip": "14048-2754", "ntee": "L20", "ruling": "202405", "deductibility": "1", "assets": 2064138, "income": 177291, "revenue": 177291}, {"ein": "160728535", "name": "FACULTY STUDENT ASSOCIATION STATE UNIVERSITY COLLEGE AT FREDONIA INC", "city": "FREDONIA", "state": "NY", "zip": "14063-0000", "ntee": "B80Z", "ruling": "195312", "deductibility": "1", "assets": 20927701, "income": 19134076, "revenue": 12054392}, {"ein": "160775231", "name": "FREDONIA BEAVER CLUB INC", "city": "FREDONIA", "state": "NY", "zip": "14063-0153", "ntee": "", "ruling": "195312", "deductibility": "2", "assets": 459945, "income": 674794, "revenue": 397421}, {"ein": "161188087", "name": "DUNKIRK-FREDONIA MEALS ON WHEELS INC", "city": "FREDONIA", "state": "NY", "zip": "14063-1332", "ntee": "", "ruling": "198404", "deductibility": "1", "assets": 303953, "income": 303915, "revenue": 303915}, {"ein": "161190579", "name": "FREDONIA ASSEMBLY OF GOD", "city": "FREDONIA", "state": "NY", "zip": "14063-1818", "ntee": "", "ruling": "196408", "deductibility": "1", "assets": 0, "income": 0, "revenue": 0}, {"ein": "161349919", "name": "STUDENT ASSOCIATION OF THE STATE UNIVERSITY OF N Y AT FREDONIA", "city": "FREDONIA", "state": "NY", "zip": "14063-0000", "ntee": "B800", "ruling": "199602", "deductibility": "1", "assets": 1679837, "income": 937143, "revenue": 937143}, {"ein": "161472177", "name": "1891 FREDONIA OPERA HOUSE", "city": "FREDONIA", "state": "NY", "zip": "14063-0384", "ntee": "A610", "ruling": "199601", "deductibility": "1", "assets": 786389, "income": 930747, "revenue": 925392}, {"ein": "166027999", "name": "FREDONIA VOLUNTEER FIRE DEPARTMENT INC", "city": "FREDONIA", "state": "NY", "zip": "14063-2140", "ntee": "", "ruling": "199503", "deductibility": "1", "assets": 0, "income": 0, "revenue": 0}, {"ein": "166028000", "name": "FREDONIA VOLUNTEER FIRE DEPARTMENT INC", "city": "FREDONIA", "state": "NY", "zip": "14063-2140", "ntee": "M24Z", "ruling": "199503", "deductibility": "1", "assets": 872273, "income": 224474, "revenue": 224474}, {"ein": "166028895", "name": "FREDONIA VOLUNTEER FIRE DEPARTMENT INC", "city": "FREDONIA", "state": "NY", "zip": "14063-2140", "ntee": "", "ruling": "199503", "deductibility": "1", "assets": 0, "income": 0, "revenue": 0}, {"ein": "166037778", "name": "FREDONIA VOLUNTEER FIRE DEPARTMENT INC", "city": "FREDONIA", "state": "NY", "zip": "14063-2140", "ntee": "", "ruling": "199503", "deductibility": "1", "assets": 0, "income": 0, "revenue": 0}, {"ein": "166040907", "name": "FREDONIA VOLUNTEER FIRE DEPARTMENT INC", "city": "FREDONIA", "state": "NY", "zip": "14063-2140", "ntee": "", "ruling": "199503", "deductibility": "1", "assets": 0, "income": 0, "revenue": 0}, {"ein": "166050972", "name": "STATE UNIVERSITY COLLEGE AT FREDONIA ALUMNI ASSOCIATION INC", "city": "FREDONIA", "state": "NY", "zip": "14063-1120", "ntee": "B84Z", "ruling": "196007", "deductibility": "1", "assets": 19294, "income": 103534, "revenue": 103534}, {"ein": "166054528", "name": "FREDONIA COLLEGE FOUNDATION OF STATE UNIVERSITY OF NEW YORK INC", "city": "FREDONIA", "state": "NY", "zip": "14063-1104", "ntee": "B11", "ruling": "196508", "deductibility": "1", "assets": 61055899, "income": 10966667, "revenue": 6310101}, {"ein": "222576597", "name": "FREDONIA PRESERVATION SOCIETY", "city": "FREDONIA", "state": "NY", "zip": "14063-0422", "ntee": "A82Z", "ruling": "198706", "deductibility": "1", "assets": 0, "income": 0, "revenue": 0}, {"ein": "222996388", "name": "NY STATE BAND DIRECTORS ASSOCIATION SUNY FREDONIA SCHOOL OF MUSIC", "city": "WEBSTER", "state": "NY", "zip": "14580-7696", "ntee": "", "ruling": "198912", "deductibility": "1", "assets": 90842, "income": 113181, "revenue": 113181}, {"ein": "237285987", "name": "FREDONIA BAPTIST CHURCH", "city": "FREDONIA", "state": "NY", "zip": "14063-0322", "ntee": "", "ruling": "195504", "deductibility": "1", "assets": 0, "income": 0, "revenue": 0}, {"ein": "271931007", "name": "FESTIVALS FREDONIA INC", "city": "FREDONIA", "state": "NY", "zip": "14063-0273", "ntee": "Z99", "ruling": "201408", "deductibility": "1", "assets": 9669, "income": 92008, "revenue": 92008}, {"ein": "464836143", "name": "FREDONIA FARMERS MARKET INC", "city": "FREDONIA", "state": "NY", "zip": "14063-1855", "ntee": "S41", "ruling": "201602", "deductibility": "2", "assets": 0, "income": 0, "revenue": 0}, {"ein": "850742088", "name": "THE FREDONIA BUSINESS CLUB INC", "city": "BUFFALO", "state": "NY", "zip": "14225-3739", "ntee": "", "ruling": "202008", "deductibility": "1", "assets": 0, "income": 0, "revenue": 0}, {"ein": "862141530", "name": "FREDONIA ELEMENTARY PTO", "city": "FREDONIA", "state": "NY", "zip": "14063-1451", "ntee": "B94", "ruling": "202106", "deductibility": "1", "assets": 0, "income": 0, "revenue": 0}, {"ein": "933670391", "name": "FREDONIA FIRST CHURCH", "city": "FREDONIA", "state": "NY", "zip": "14063-1741", "ntee": "X20", "ruling": "202406", "deductibility": "1", "assets": 0, "income": 0, "revenue": 0}], "OHEL": [{"ein": "020634274", "name": "CONGREGATION OHEL", "city": "BROOKLYN", "state": "NY", "zip": "11242-1115", "ntee": "X30", "ruling": "200307", "deductibility": "1", "assets": 0, "income": 0, "revenue": 0}, {"ein": "030526805", "name": "CONG ZICHRON OHEL ELIMELECH TOSH INC", "city": "SPRING VALLEY", "state": "NY", "zip": "10977-4783", "ntee": "X30", "ruling": "200402", "deductibility": "1", "assets": 0, "income": 0, "revenue": 0}, {"ein": "060959597", "name": "CONGREGATION OHEL YITZCHOK C O JUDITH WALDMAN", "city": "MONSEY", "state": "NY", "zip": "10952-2911", "ntee": "", "ruling": "197801", "deductibility": "1", "assets": 0, "income": 0, "revenue": 0}, {"ein": "110340116", "name": "OHEL SHOLMO DOV", "city": "BROOKLYN", "state": "NY", "zip": "11219-4117", "ntee": "", "ruling": "199103", "deductibility": "1", "assets": 0, "income": 0, "revenue": 0}, {"ein": "111687471", "name": "YESHIVAH OHEL MOSHE", "city": "BROOKLYN", "state": "NY", "zip": "11214-1911", "ntee": "", "ruling": "195209", "deductibility": "1", "assets": 0, "income": 0, "revenue": 0}, {"ein": "112023700", "name": "YESHIVA OHEL JACOB", "city": "BROOKLYN", "state": "NY", "zip": "11219-1610", "ntee": "", "ruling": "197108", "deductibility": "1", "assets": 0, "income": 0, "revenue": 0}, {"ein": "112306559", "name": "OHEL SARAH DAY CARE CENTER INC", "city": "BROOKLYN", "state": "NY", "zip": "11213-5424", "ntee": "", "ruling": "197406", "deductibility": "1", "assets": 0, "income": 0, "revenue": 0}, {"ein": "112393594", "name": "CONGREGATION OHEL REFOEL AHARON C O OSCAR ABRAHAM", "city": "BROOKLYN", "state": "NY", "zip": "11219-4344", "ntee": "", "ruling": "197705", "deductibility": "1", "assets": 0, "income": 0, "revenue": 0}, {"ein": "112422213", "name": "CONGREGATION OHEL RUCHEL", "city": "BROOKLYN", "state": "NY", "zip": "11211-8170", "ntee": "", "ruling": "197706", "deductibility": "1", "assets": 0, "income": 0, "revenue": 0}, {"ein": "112453132", "name": "KOLEL METZIYONIM OHEL YOSEF CHASIDEI AMSHINOV C O ICCHOK KALIS", "city": "BKLYN", "state": "NY", "zip": "11219-1603", "ntee": "", "ruling": "197804", "deductibility": "1", "assets": 0, "income": 0, "revenue": 0}, {"ein": "112489798", "name": "CONGREGATION OHEL YITZCHOK", "city": "BROOKLYN", "state": "NY", "zip": "11218-5765", "ntee": "", "ruling": "197904", "deductibility": "1", "assets": 0, "income": 0, "revenue": 0}, {"ein": "112513143", "name": "YESHIVA OHEL SHAIM D KAALEV INC", "city": "BROOKLYN", "state": "NY", "zip": "11211-8519", "ntee": "", "ruling": "197912", "deductibility": "1", "assets": 0, "income": 0, "revenue": 0}, {"ein": "112803674", "name": "CONGREGATION OHEL YAKOV CHAKEV", "city": "BROOKLYN", "state": "NY", "zip": "11211-8017", "ntee": "", "ruling": "198608", "deductibility": "1", "assets": 0, "income": 0, "revenue": 0}, {"ein": "112841408", "name": "CONGREGATION KRASNA OHEL BARUCH", "city": "BROOKLYN", "state": "NY", "zip": "11219-1406", "ntee": "", "ruling": "198805", "deductibility": "1", "assets": 0, "income": 0, "revenue": 0}, {"ein": "112856723", "name": "YESHIVAS OHEL SHIMON", "city": "BROOKLYN", "state": "NY", "zip": "11223-2222", "ntee": "", "ruling": "198705", "deductibility": "1", "assets": 0, "income": 0, "revenue": 0}, {"ein": "112952317", "name": "AMERICAN FRIENDS OF OHEL NAFTULI", "city": "BROOKLYN", "state": "NY", "zip": "11219-2025", "ntee": "", "ruling": "198904", "deductibility": "1", "assets": 0, "income": 0, "revenue": 0}, {"ein": "112980020", "name": "CONGREGATION OHEL TORAH OF WILLIAMSBURG", "city": "MONSEY", "state": "NY", "zip": "10952-3640", "ntee": "", "ruling": "198912", "deductibility": "1", "assets": 0, "income": 0, "revenue": 0}, {"ein": "113009058", "name": "OHEL JOSEPH BEIS FEIGE YELED SHAASHIYIM INST", "city": "HEIGHLAND MILLS", "state": "NY", "zip": "10930-0537", "ntee": "", "ruling": "199008", "deductibility": "1", "assets": 0, "income": 0, "revenue": 0}, {"ein": "113032178", "name": "KOLEL DERECH HCHAIM OHEL ALTA FIEGA", "city": "MONROE", "state": "NY", "zip": "10949-0128", "ntee": "", "ruling": "199103", "deductibility": "1", "assets": 0, "income": 0, "revenue": 0}, {"ein": "113048333", "name": "CONGREGATION OHEL YOSEPH", "city": "BROOKLYN", "state": "NY", "zip": "11210-3714", "ntee": "", "ruling": "199107", "deductibility": "1", "assets": 0, "income": 0, "revenue": 0}, {"ein": "113050300", "name": "CONG OHEL TORAH", "city": "BROOKLYN", "state": "NY", "zip": "11249-7507", "ntee": "", "ruling": "199107", "deductibility": "1", "assets": 0, "income": 0, "revenue": 0}, {"ein": "113058820", "name": "CONGREGATION KOLEL OHEL CHAVA", "city": "BROOKLYNN", "state": "NY", "zip": "11204-0000", "ntee": "", "ruling": "199106", "deductibility": "1", "assets": 0, "income": 0, "revenue": 0}, {"ein": "113064478", "name": "CONGREGATION CHESED LAVRAHAM VKOLLEL OHEL MOSHE SOCIETY", "city": "BROOKLYN", "state": "NY", "zip": "11223-3233", "ntee": "", "ruling": "199402", "deductibility": "1", "assets": 0, "income": 0, "revenue": 0}, {"ein": "113075981", "name": "OHEL DAVID", "city": "BROOKLYN", "state": "NY", "zip": "11210-3714", "ntee": "", "ruling": "199111", "deductibility": "1", "assets": 0, "income": 0, "revenue": 0}, {"ein": "113113736", "name": "OHEL YOSEF", "city": "NEW YORK", "state": "NY", "zip": "10001-3306", "ntee": "", "ruling": "199211", "deductibility": "1", "assets": 0, "income": 0, "revenue": 0}, {"ein": "113147746", "name": "MACHNE OHEL FEIGA INC", "city": "BROOKLYN", "state": "NY", "zip": "11211-7578", "ntee": "", "ruling": "199305", "deductibility": "1", "assets": 683, "income": 102256, "revenue": 102256}, {"ein": "113166718", "name": "CONG & YESHIVA OHEL YEHOSHEA INC", "city": "BROOKLYN", "state": "NY", "zip": "11219-2674", "ntee": "", "ruling": "199308", "deductibility": "1", "assets": 0, "income": 0, "revenue": 0}, {"ein": "113173276", "name": "CONGREGATION OHEL YONAH", "city": "BROOKLYN", "state": "NY", "zip": "11218-5559", "ntee": "X99Z", "ruling": "199604", "deductibility": "1", "assets": 0, "income": 0, "revenue": 0}, {"ein": "113179406", "name": "AMERICAN FRIENDS OF OHEL RABEINU YONOSSON UBLIMA INC", "city": "BROOKLYN", "state": "NY", "zip": "11219-2501", "ntee": "T22", "ruling": "202309", "deductibility": "1", "assets": 35123, "income": 1, "revenue": 0}, {"ein": "113201774", "name": "OHEL HARAV YEHOSHUA BORUCH FOUNDATION", "city": "BROOKLYN", "state": "NY", "zip": "11230-5915", "ntee": "", "ruling": "199408", "deductibility": "1", "assets": 32052818, "income": 6016851, "revenue": 0}, {"ein": "113246623", "name": "CONGREGATION ZICHRON SAMUEL-OHEL MOSHE INC", "city": "BROOKLYN", "state": "NY", "zip": "11210-4739", "ntee": "X30Z", "ruling": "199510", "deductibility": "1", "assets": 0, "income": 0, "revenue": 0}, {"ein": "113289707", "name": "CONG & KOLEL OHEL YESOCHOR DCHASEDI BELZ", "city": "BROOKLYN", "state": "NY", "zip": "11219-2637", "ntee": "X30Z", "ruling": "199512", "deductibility": "1", "assets": 0, "income": 0, "revenue": 0}, {"ein": "113294632", "name": "RABBINICAL STUDY - OHEL SHLOMO INC", "city": "BROOKLYN", "state": "NY", "zip": "11230-4166", "ntee": "X30Z", "ruling": "199603", "deductibility": "1", "assets": 154936, "income": 163774, "revenue": 133774}, {"ein": "113297139", "name": "OHEL ROCHEL LEAH", "city": "BROOKLYN", "state": "NY", "zip": "11230-5609", "ntee": "X30Z", "ruling": "199601", "deductibility": "1", "assets": 0, "income": 0, "revenue": 0}, {"ein": "113335344", "name": "YESHIVAT OHEL TORAH", "city": "BROOKLYN", "state": "NY", "zip": "11229-4507", "ntee": "X30P", "ruling": "199712", "deductibility": "1", "assets": 7634958, "income": 2850736, "revenue": 2850736}, {"ein": "113400862", "name": "CONG OHEL CHABAD LUBAVITCH", "city": "CAMBRIA HTS", "state": "NY", "zip": "11411-2139", "ntee": "X30Z", "ruling": "199808", "deductibility": "1", "assets": 0, "income": 0, "revenue": 0}, {"ein": "113460897", "name": "CONGREGATION OHEL SARA", "city": "FLUSHING", "state": "NY", "zip": "11367-3140", "ntee": "X30", "ruling": "199909", "deductibility": "1", "assets": 0, "income": 0, "revenue": 0}, {"ein": "113520310", "name": "CONGREGATION OHEL SHALOM OF BOROUGH PARK", "city": "BROOKLYN", "state": "NY", "zip": "11219-2015", "ntee": "X30", "ruling": "200003", "deductibility": "1", "assets": 0, "income": 0, "revenue": 0}, {"ein": "113633879", "name": "MACHNE OHEL MOSHE DKRASNA", "city": "BROOKLYN", "state": "NY", "zip": "11249-7981", "ntee": "X30", "ruling": "200112", "deductibility": "1", "assets": 0, "income": 0, "revenue": 0}, {"ein": "116043795", "name": "OHEL SHMUEL YESHIVAH", "city": "BEDFORD HILLS", "state": "NY", "zip": "10507-1207", "ntee": "", "ruling": "196508", "deductibility": "1", "assets": 0, "income": 0, "revenue": 0}, {"ein": "116078704", "name": "OHEL CHILDRENS HOME AND FAMILY SERVICES INC", "city": "BROOKLYN", "state": "NY", "zip": "11230-5241", "ntee": "P70", "ruling": "196710", "deductibility": "1", "assets": 96236458, "income": 90464221, "revenue": 88093660}, {"ein": "133300276", "name": "AMERICAN FRIENDS OF OHEL MOSHE", "city": "NEW YORK", "state": "NY", "zip": "10175-1799", "ntee": "", "ruling": "198601", "deductibility": "1", "assets": 1064346, "income": 31132, "revenue": 31132}, {"ein": "133316056", "name": "CONGREGATION OHEL YAAKOV", "city": "SPRING VALLEY", "state": "NY", "zip": "10977-6738", "ntee": "", "ruling": "198606", "deductibility": "1", "assets": 0, "income": 0, "revenue": 0}, {"ein": "133593042", "name": "AMERICAN FRIENDS OF YESHIVAS DERECH HATALMUD AND OHEL YOSEF INC", "city": "GREAT NECK", "state": "NY", "zip": "11021-4704", "ntee": "", "ruling": "199105", "deductibility": "1", "assets": 6717, "income": 41156, "revenue": 41156}, {"ein": "133641937", "name": "CONG MESIFTA OHEL TORAH INC", "city": "MONSEY", "state": "NY", "zip": "10952-0456", "ntee": "", "ruling": "199205", "deductibility": "1", "assets": 0, "income": 0, "revenue": 0}, {"ein": "133649190", "name": "KEREN OHEL FIEGA", "city": "HIGHLAND MLS", "state": "NY", "zip": "10930-0537", "ntee": "", "ruling": "199205", "deductibility": "1", "assets": 0, "income": 0, "revenue": 0}, {"ein": "133667316", "name": "BEIS JOEL-OHEL FEIGE INC", "city": "MONROE", "state": "NY", "zip": "10949-7349", "ntee": "", "ruling": "199209", "deductibility": "1", "assets": 0, "income": 0, "revenue": 0}, {"ein": "133707166", "name": "OHEL TORAH", "city": "MONROE", "state": "NY", "zip": "10950-8813", "ntee": "", "ruling": "199401", "deductibility": "1", "assets": 1000, "income": 124036, "revenue": 124036}, {"ein": "134045421", "name": "CONG OHEL YITZCHOK SVALIVA INC", "city": "MONSEY", "state": "NY", "zip": "10952-0259", "ntee": "X30", "ruling": "199905", "deductibility": "1", "assets": 0, "income": 0, "revenue": 0}, {"ein": "134154141", "name": "CONGREGATION BAIS YAAKOV OHEL VICHNA INC", "city": "MONSEY", "state": "NY", "zip": "10952-0898", "ntee": "X30", "ruling": "200201", "deductibility": "1", "assets": 0, "income": 0, "revenue": 0}, {"ein": "134164179", "name": "CONGREGATION OHEL MORDECHE DTOSH", "city": "MONROE", "state": "NY", "zip": "10950-5814", "ntee": "X30", "ruling": "200109", "deductibility": "1", "assets": 0, "income": 0, "revenue": 0}, {"ein": "134186881", "name": "CONGREGATION BEIS YOEL OHEL ALTE FAIGE INC", "city": "BROOKLYN", "state": "NY", "zip": "11205-0226", "ntee": "X30", "ruling": "200112", "deductibility": "1", "assets": 0, "income": 0, "revenue": 0}, {"ein": "136162976", "name": "YESHIVA OHEL SIMON OF JERUSALEM INC", "city": "BROOKLYN", "state": "NY", "zip": "11211-0000", "ntee": "X30Z", "ruling": "195707", "deductibility": "1", "assets": 126991, "income": 1188001, "revenue": 1188001}, {"ein": "137098609", "name": "YESHIVA OHEL CHABAD TR", "city": "NEW YORK", "state": "NY", "zip": "11213-4327", "ntee": "X99Z", "ruling": "199704", "deductibility": "1", "assets": 0, "income": 0, "revenue": 0}, {"ein": "141776400", "name": "CONGREGATION OHEL AVRAHAM LIEBER LIEBERMAN", "city": "STATEN ISLAND", "state": "NY", "zip": "10314-4119", "ntee": "X30Z", "ruling": "199605", "deductibility": "1", "assets": 0, "income": 0, "revenue": 0}, {"ein": "141803970", "name": "OHEL CHAI", "city": "BROOKLYN", "state": "NY", "zip": "11204-1526", "ntee": "X30", "ruling": "199902", "deductibility": "1", "assets": 0, "income": 0, "revenue": 0}, {"ein": "200318460", "name": "OHEL ELOZER", "city": "BROOKLYN", "state": "NY", "zip": "11211-0285", "ntee": "X30", "ruling": "200406", "deductibility": "1", "assets": 0, "income": 0, "revenue": 0}, {"ein": "205417792", "name": "OHEL RIVKAH FOUNDATION", "city": "WOODMERE", "state": "NY", "zip": "11598-2313", "ntee": "B82", "ruling": "200611", "deductibility": "1", "assets": 4018, "income": 124470, "revenue": 124470}, {"ein": "208479455", "name": "OHEL CHAYA", "city": "BROOKLYN", "state": "NY", "zip": "11206-4110", "ntee": "X30", "ruling": "200801", "deductibility": "1", "assets": 0, "income": 0, "revenue": 0}, {"ein": "223770928", "name": "BEIS CHINUCH L BONOIS OHEL CHANAH- DARKEI CHESED", "city": "BROOKLYN", "state": "NY", "zip": "11211-7474", "ntee": "X30", "ruling": "200106", "deductibility": "1", "assets": 0, "income": 0, "revenue": 0}, {"ein": "237239808", "name": "KOLEL OHEL ELIMELECH RABBINICAL SEMINARY INC", "city": "BROOKLYN", "state": "NY", "zip": "11219-2502", "ntee": "", "ruling": "197303", "deductibility": "1", "assets": 0, "income": 0, "revenue": 0}, {"ein": "237452665", "name": "CONGREGATION OHEL ABRAHAM INC", "city": "BRONX", "state": "NY", "zip": "10452-5816", "ntee": "", "ruling": "197510", "deductibility": "1", "assets": 0, "income": 0, "revenue": 0}, {"ein": "260152784", "name": "OHEL SARA CONGREGATION", "city": "BROOKLYN", "state": "NY", "zip": "11204-0000", "ntee": "X30", "ruling": "200809", "deductibility": "1", "assets": 0, "income": 0, "revenue": 0}, {"ein": "260170836", "name": "CONGREGATION OHEL YAAKOV", "city": "BROOKLYN", "state": "NY", "zip": "11219-4006", "ntee": "X30", "ruling": "200901", "deductibility": "1", "assets": 0, "income": 0, "revenue": 0}, {"ein": "263836867", "name": "CONG OHEL YESHIA", "city": "MONROE", "state": "NY", "zip": "10950-8420", "ntee": "X30", "ruling": "201008", "deductibility": "1", "assets": 0, "income": 0, "revenue": 0}, {"ein": "271394375", "name": "OHEL RACHEL VE LEAH FOUNDATION INC", "city": "BROOKLYN", "state": "NY", "zip": "11229-3311", "ntee": "T20", "ruling": "201004", "deductibility": "1", "assets": 1723, "income": 195690, "revenue": 0}, {"ein": "272129120", "name": "CONG OHEL SURA INC", "city": "BROOKLYN", "state": "NY", "zip": "11249-6615", "ntee": "X30", "ruling": "201307", "deductibility": "1", "assets": 0, "income": 0, "revenue": 0}, {"ein": "273352587", "name": "CAMP OHEL INC", "city": "FAR ROCKAWAY", "state": "NY", "zip": "11691-5636", "ntee": "P80", "ruling": "201010", "deductibility": "1", "assets": 7080688, "income": 5648181, "revenue": 5648181}, {"ein": "273598649", "name": "CAMP OHEL REALTY CORP", "city": "FAR ROCKAWAY", "state": "NY", "zip": "11691-5636", "ntee": "S47", "ruling": "201109", "deductibility": "2", "assets": 0, "income": 0, "revenue": 0}, {"ein": "274447356", "name": "MOSDOT OHEL YISROEL INC", "city": "BROOKLYN", "state": "NY", "zip": "11219-3201", "ntee": "Q30", "ruling": "201112", "deductibility": "1", "assets": 32999, "income": 79240, "revenue": 79240}, {"ein": "274713771", "name": "OHEL JOSEPH & BURHO TOXSUR INC", "city": "REGO PARK", "state": "NY", "zip": "11374-1979", "ntee": "X30", "ruling": "201201", "deductibility": "1", "assets": 0, "income": 0, "revenue": 0}, {"ein": "320646575", "name": "CONG OHEL YAKOV", "city": "SPRING VALLEY", "state": "NY", "zip": "10977-4809", "ntee": "X30", "ruling": "202207", "deductibility": "1", "assets": 0, "income": 0, "revenue": 0}, {"ein": "331057760", "name": "CONGREGATION KOLLEL OHEL YOSEF PUPA", "city": "BROOKLYN", "state": "NY", "zip": "11211-8031", "ntee": "X302", "ruling": "200403", "deductibility": "1", "assets": 0, "income": 0, "revenue": 0}, {"ein": "332516990", "name": "CONG MESIVTA OHEL NAFTULI", "city": "MONSEY", "state": "NY", "zip": "10952-2889", "ntee": "X30", "ruling": "202501", "deductibility": "1", "assets": 0, "income": 0, "revenue": 0}, {"ein": "352592859", "name": "KOLLEL OHEL TORAH", "city": "BROOKLYN", "state": "NY", "zip": "11230-5913", "ntee": "X30", "ruling": "202002", "deductibility": "1", "assets": 0, "income": 0, "revenue": 0}, {"ein": "384036160", "name": "OHEL CHAYA", "city": "SPRING VALLEY", "state": "NY", "zip": "10977-6319", "ntee": "X30", "ruling": "201802", "deductibility": "1", "assets": 0, "income": 0, "revenue": 0}, {"ein": "431980322", "name": "CONGREGATION OHEL MOSHE CHEVRA THILIM LUBAVITCH", "city": "BROOKLYN", "state": "NY", "zip": "11230-1122", "ntee": "X30", "ruling": "200311", "deductibility": "1", "assets": 0, "income": 0, "revenue": 0}, {"ein": "453977409", "name": "CONG OHEL YEHOSHUA OF BELZ", "city": "MONSEY", "state": "NY", "zip": "10952-8213", "ntee": "X30", "ruling": "201310", "deductibility": "1", "assets": 0, "income": 0, "revenue": 0}, {"ein": "470941998", "name": "CONGREGATION OHEL AVROHOM INC", "city": "MONSEY", "state": "NY", "zip": "10952-3335", "ntee": "X30", "ruling": "200407", "deductibility": "1", "assets": 0, "income": 0, "revenue": 0}, {"ein": "474369405", "name": "KOLLEL OHEL YISUCHER OF KASHO INC", "city": "BEDFORD HILLS", "state": "NY", "zip": "10507-1235", "ntee": "X30", "ruling": "202408", "deductibility": "1", "assets": 0, "income": 0, "revenue": 0}, {"ein": "474526182", "name": "CONG OHEL YAAKOV INC", "city": "BROOKLYN", "state": "NY", "zip": "11230-2180", "ntee": "X30", "ruling": "201601", "deductibility": "1", "assets": 0, "income": 0, "revenue": 0}, {"ein": "475681874", "name": "CONG OHEL RANZHEV INC", "city": "BROOKLYN", "state": "NY", "zip": "11205-1687", "ntee": "X20", "ruling": "201603", "deductibility": "1", "assets": 0, "income": 0, "revenue": 0}, {"ein": "521304847", "name": "AMERICAN FRIENDS OF OHEL SARAH INC", "city": "NEW YORK", "state": "NY", "zip": "10017-0000", "ntee": "Q113", "ruling": "198309", "deductibility": "1", "assets": 0, "income": 0, "revenue": 0}, {"ein": "562325311", "name": "TALMUD TORAH OHEL YOCHANAN", "city": "BROOKLYN", "state": "NY", "zip": "11218-3611", "ntee": "X30", "ruling": "200306", "deductibility": "1", "assets": 0, "income": 0, "revenue": 0}, {"ein": "651225083", "name": "TORATH HAIM OHEL SARA", "city": "FLUSHING", "state": "NY", "zip": "11367-3129", "ntee": "X30", "ruling": "200506", "deductibility": "1", "assets": 0, "income": 0, "revenue": 0}, {"ein": "742974622", "name": "CONGREGATION OHEL YOSEF", "city": "BROOKLYN", "state": "NY", "zip": "11230-1803", "ntee": "X20", "ruling": "200012", "deductibility": "1", "assets": 0, "income": 0, "revenue": 0}, {"ein": "770638751", "name": "OHEL CHAI INC", "city": "BROOKLYN", "state": "NY", "zip": "11204-0032", "ntee": "X30", "ruling": "200607", "deductibility": "1", "assets": 0, "income": 0, "revenue": 0}, {"ein": "800078320", "name": "CONGREGATION ATERES HATORAH OHEL YAAKOV", "city": "MONSEY", "state": "NY", "zip": "10952-2559", "ntee": "X30", "ruling": "200404", "deductibility": "1", "assets": 0, "income": 0, "revenue": 0}, {"ein": "813574183", "name": "MIDRASH OHEL MOED", "city": "BROOKLYN", "state": "NY", "zip": "11223-4829", "ntee": "X30", "ruling": "201803", "deductibility": "1", "assets": 0, "income": 0, "revenue": 0}, {"ein": "813586782", "name": "CONGREGATION OHEL YOSEF D OSTILLA", "city": "BROOKLYN", "state": "NY", "zip": "11219-1204", "ntee": "X30", "ruling": "201702", "deductibility": "1", "assets": 0, "income": 0, "revenue": 0}, {"ein": "813675526", "name": "CONGREGATION OHEL NOSSON", "city": "BROOKLYN", "state": "NY", "zip": "11213-2729", "ntee": "X30", "ruling": "201705", "deductibility": "1", "assets": 0, "income": 0, "revenue": 0}, {"ein": "814595690", "name": "OHEL MOED", "city": "FOREST HILLS", "state": "NY", "zip": "11375-1424", "ntee": "X30", "ruling": "202301", "deductibility": "1", "assets": 0, "income": 0, "revenue": 0}, {"ein": "831472849", "name": "OHEL SARA BUKHURIAN JEWISH CENTER INC", "city": "FLUSHING", "state": "NY", "zip": "11367-3129", "ntee": "X30", "ruling": "202005", "deductibility": "1", "assets": 8018, "income": 567619, "revenue": 567619}, {"ein": "831569565", "name": "CONGREGATION OHEL YISHAK INC", "city": "BROOKLYN", "state": "NY", "zip": "11230-4006", "ntee": "X20", "ruling": "201904", "deductibility": "1", "assets": 0, "income": 0, "revenue": 0}, {"ein": "831572606", "name": "CONGREGATION & YESHIVA OHEL YAAKOV", "city": "CHESTNUT RDG", "state": "NY", "zip": "10977-6738", "ntee": "X30", "ruling": "201911", "deductibility": "1", "assets": 0, "income": 0, "revenue": 0}, {"ein": "832822621", "name": "AMERICAN FRIENDS OF OHEL YOAV AND PNINA", "city": "FLUSHING", "state": "NY", "zip": "11367-1713", "ntee": "X30", "ruling": "202205", "deductibility": "1", "assets": 15571, "income": 227597, "revenue": 0}, {"ein": "832988520", "name": "OHR OHEL MOED LTD", "city": "REGO PARK", "state": "NY", "zip": "11374-1414", "ntee": "X30", "ruling": "201910", "deductibility": "1", "assets": 0, "income": 0, "revenue": 0}, {"ein": "834412554", "name": "CONGREGATION OHEL YAKOV", "city": "BROOKLYN", "state": "NY", "zip": "11219-3823", "ntee": "X30", "ruling": "202004", "deductibility": "1", "assets": 0, "income": 0, "revenue": 0}, {"ein": "841607933", "name": "CONGREGATION OF OHEL ABRAHAM", "city": "BRIARWOOD", "state": "NY", "zip": "11435-1109", "ntee": "X30", "ruling": "200210", "deductibility": "1", "assets": 0, "income": 0, "revenue": 0}, {"ein": "842262701", "name": "OHEL FAIGA INC", "city": "BROOKLYN", "state": "NY", "zip": "11249-7806", "ntee": "X30", "ruling": "201911", "deductibility": "1", "assets": 151980, "income": 315470, "revenue": 315470}, {"ein": "843713587", "name": "CONG OHEL TOV", "city": "MONROE", "state": "NY", "zip": "10950-9108", "ntee": "X30", "ruling": "202002", "deductibility": "1", "assets": 0, "income": 0, "revenue": 0}, {"ein": "844589219", "name": "OHEL NAFTOLY", "city": "BROOKLYN", "state": "NY", "zip": "11249-7683", "ntee": "T50", "ruling": "202006", "deductibility": "1", "assets": 24481, "income": 815000, "revenue": 0}, {"ein": "844840112", "name": "KOLLEL OHEL FEIGE INC", "city": "BROOKLYN", "state": "NY", "zip": "11211-7578", "ntee": "X30", "ruling": "202011", "deductibility": "1", "assets": 0, "income": 0, "revenue": 0}, {"ein": "851415043", "name": "AHABA VE AHVA CONGREFATION-OHEL YAAKOV SYNAGOGUE INC", "city": "BROOKLYN", "state": "NY", "zip": "11223-3149", "ntee": "X30", "ruling": "202112", "deductibility": "1", "assets": 0, "income": 0, "revenue": 0}, {"ein": "852480459", "name": "YESHIVA OHEL TORAH OSTROVTZA INC", "city": "BROOKLYN", "state": "NY", "zip": "11219-2076", "ntee": "X30", "ruling": "202212", "deductibility": "1", "assets": 0, "income": 0, "revenue": 0}, {"ein": "852685894", "name": "OHEL SARAH YAELLE INC", "city": "MONSEY", "state": "NY", "zip": "10952-1039", "ntee": "X30", "ruling": "202202", "deductibility": "1", "assets": 0, "income": 0, "revenue": 0}, {"ein": "861311159", "name": "CONGREGATION OHEL YANKEV INC", "city": "BROOKLYN", "state": "NY", "zip": "11218-4445", "ntee": "X30", "ruling": "202204", "deductibility": "1", "assets": 0, "income": 0, "revenue": 0}, {"ein": "861900387", "name": "CONGREGATION OHEL RUCHEL DKSHANIV", "city": "MONROE", "state": "NY", "zip": "10950-2817", "ntee": "X30", "ruling": "202207", "deductibility": "1", "assets": 0, "income": 0, "revenue": 0}, {"ein": "872266535", "name": "YESHIVA GEDOLA OHEL TORAH", "city": "WASHINGTONVLE", "state": "NY", "zip": "10992-2018", "ntee": "X30", "ruling": "202206", "deductibility": "1", "assets": 0, "income": 0, "revenue": 0}, {"ein": "874019504", "name": "CONG OHEL YITZCHOK", "city": "BROOKLYN", "state": "NY", "zip": "11219-4531", "ntee": "X30", "ruling": "202211", "deductibility": "1", "assets": 0, "income": 0, "revenue": 0}, {"ein": "881135878", "name": "OHEL MOSHE CONGREGATION", "city": "BROOKLYN", "state": "NY", "zip": "11229-1145", "ntee": "X30", "ruling": "202207", "deductibility": "1", "assets": 0, "income": 0, "revenue": 0}, {"ein": "881659904", "name": "BUS TO OHEL INC", "city": "BROOKLYN", "state": "NY", "zip": "11213-4710", "ntee": "X30", "ruling": "202204", "deductibility": "1", "assets": 37164, "income": 218570, "revenue": 218570}, {"ein": "882806537", "name": "CONG OHEL HENDEL INC", "city": "BROOKLYN", "state": "NY", "zip": "11218-5584", "ntee": "T30", "ruling": "202211", "deductibility": "1", "assets": 0, "income": 0, "revenue": 0}, {"ein": "884096652", "name": "CONGREGATION OHEL ESTHER", "city": "BROOKLYN", "state": "NY", "zip": "11205-3494", "ntee": "X30", "ruling": "202304", "deductibility": "1", "assets": 0, "income": 0, "revenue": 0}, {"ein": "900986756", "name": "CONGREGATION OHEL MOSHE", "city": "MONSEY", "state": "NY", "zip": "10952-2103", "ntee": "X30", "ruling": "201409", "deductibility": "1", "assets": 0, "income": 0, "revenue": 0}, {"ein": "923613996", "name": "FRIENDS OF OHEL TORA INC", "city": "NEW YORK", "state": "NY", "zip": "10001-3304", "ntee": "T50", "ruling": "202311", "deductibility": "1", "assets": 0, "income": 0, "revenue": 0}, {"ein": "932117762", "name": "CONG EZRAS NISSUIN OHEL FEIGA", "city": "MONROE", "state": "NY", "zip": "10949-0193", "ntee": "X30", "ruling": "202403", "deductibility": "1", "assets": 0, "income": 0, "revenue": 0}, {"ein": "933554759", "name": "CONGREGATION OHEL MOISHE", "city": "CHESTNUT RDG", "state": "NY", "zip": "10977-7226", "ntee": "X30", "ruling": "202407", "deductibility": "1", "assets": 0, "income": 0, "revenue": 0}, {"ein": "995103961", "name": "OHEL AVRAHAM INC", "city": "BROOKLYN", "state": "NY", "zip": "11219-4701", "ntee": "X30", "ruling": "202410", "deductibility": "1", "assets": 0, "income": 0, "revenue": 0}], "ELEMENTARY": [{"ein": "020703776", "name": "COMO PARK ELEMENTARY PTO", "city": "LANCASTER", "state": "NY", "zip": "14086-3020", "ntee": "B94", "ruling": "201505", "deductibility": "1", "assets": 0, "income": 0, "revenue": 0}, {"ein": "030475958", "name": "ALLEN ROAD ELEMENTARY PTO", "city": "SYRACUSE", "state": "NY", "zip": "13212-1999", "ntee": "B94", "ruling": "200304", "deductibility": "1", "assets": 28845, "income": 46924, "revenue": 46924}, {"ein": "061626527", "name": "AUSTIN ROAD ELEMENTARY SCHOOL PTO INC", "city": "MAHOPAC", "state": "NY", "zip": "10541-2700", "ntee": "B94", "ruling": "201512", "deductibility": "1", "assets": 114485, "income": 217733, "revenue": 217733}, {"ein": "112549680", "name": "MATHEMATICAL OLYMPIADS FOR ELEMENTARY SCHOOL INC", "city": "BELLMORE", "state": "NY", "zip": "11710-5645", "ntee": "B90", "ruling": "202109", "deductibility": "1", "assets": 667861, "income": 1186093, "revenue": 0}, {"ein": "132686763", "name": "OUR LADY OF SORROWS PAROCHIAL ELEMENTARY SCHOOL", "city": "NEW YORK", "state": "NY", "zip": "10002-1831", "ntee": "", "ruling": "194603", "deductibility": "1", "assets": 0, "income": 0, "revenue": 0}, {"ein": "132686765", "name": "ST AUGUSTINE PAROCHIAL ELEMENTARY SCHOOL", "city": "BRONX", "state": "NY", "zip": "10456-4305", "ntee": "", "ruling": "194603", "deductibility": "0", "assets": 0, "income": 0, "revenue": 0}, {"ein": "132687292", "name": "ST JUDE PAROCHIAL ELEMENTARY SCHOOL", "city": "NEW YORK", "state": "NY", "zip": "10034-3707", "ntee": "", "ruling": "194603", "deductibility": "1", "assets": 0, "income": 0, "revenue": 0}, {"ein": "132687430", "name": "ST CATHARINES PAROCHIAL ELEMENTARY SCHOOL", "city": "BLAUVELT", "state": "NY", "zip": "10913-2014", "ntee": "", "ruling": "194603", "deductibility": "1", "assets": 0, "income": 0, "revenue": 0}, {"ein": "132688384", "name": "ST CHARLES BORROMEO PAROCHIAL ELEMENTARY SCHOOL", "city": "NEW YORK", "state": "NY", "zip": "10030-1707", "ntee": "", "ruling": "194603", "deductibility": "1", "assets": 0, "income": 0, "revenue": 0}, {"ein": "132692428", "name": "ST ELIZABETH PAROCHIAL ELEMENTARY SCHOOL", "city": "NEW YORK", "state": "NY", "zip": "10033-2503", "ntee": "", "ruling": "194603", "deductibility": "0", "assets": 0, "income": 0, "revenue": 0}, {"ein": "132693063", "name": "ST PETERS PAROCHIAL ELEMENTARY SCHOOL", "city": "HAVERSTRAW", "state": "NY", "zip": "10927-1114", "ntee": "", "ruling": "194603", "deductibility": "1", "assets": 0, "income": 0, "revenue": 0}, {"ein": "132693072", "name": "ST BENEDICTS PAROCHIAL ELEMENTARY SCHOOL", "city": "BRONX", "state": "NY", "zip": "10465-3435", "ntee": "", "ruling": "194603", "deductibility": "1", "assets": 0, "income": 0, "revenue": 0}, {"ein": "132693073", "name": "STS PETER & PAUL PAROCHIAL ELEMENTARY SCHOOL", "city": "BRONX", "state": "NY", "zip": "10451-4620", "ntee": "", "ruling": "194603", "deductibility": "0", "assets": 0, "income": 0, "revenue": 0}, {"ein": "132693079", "name": "ST ADALBERT PAROCHIAL ELEMENTARY SCHOOL", "city": "STATEN ISLAND", "state": "NY", "zip": "10303-2830", "ntee": "", "ruling": "194603", "deductibility": "0", "assets": 0, "income": 0, "revenue": 0}, {"ein": "132695173", "name": "CHURCH OF ST STEPHEN OF HUNGARY PAROCHIAL ELEMENTARY SCHOOL", "city": "NEW YORK", "state": "NY", "zip": "10028-5902", "ntee": "", "ruling": "194603", "deductibility": "1", "assets": 0, "income": 0, "revenue": 0}, {"ein": "132943080", "name": "MOUNT KISCO ELEMENTARY SCHOOL ASSOC INC", "city": "MOUNT KISCO", "state": "NY", "zip": "10549-2817", "ntee": "B99Z", "ruling": "199801", "deductibility": "1", "assets": 146618, "income": 95771, "revenue": 95771}, {"ein": "133017713", "name": "BEDFORD HILLS ELEMENTARY SCHOOL ASSOCIATION INC", "city": "BEDFORD HILLS", "state": "NY", "zip": "10507-2006", "ntee": "B94Z", "ruling": "199601", "deductibility": "1", "assets": 132693, "income": 66867, "revenue": 66867}, {"ein": "133850542", "name": "BEDFORD VILLAGE ELEMENTARY SCHOOL ASSOCIATION INC", "city": "BEDFORD", "state": "NY", "zip": "10506-1256", "ntee": "B94", "ruling": "199601", "deductibility": "1", "assets": 157573, "income": 86821, "revenue": 86821}, {"ein": "133912870", "name": "HUNTER COLLEGE ELEMENTARY SCHOOL PARENT TEACHER ASSOCIATION INC", "city": "NEW YORK", "state": "NY", "zip": "10128-0779", "ntee": "B94", "ruling": "199612", "deductibility": "1", "assets": 1721366, "income": 983074, "revenue": 886345}, {"ein": "134023378", "name": "WEST PATENT ELEMENTARY SCHOOL ASSOCIATION", "city": "BEDFORD HILLS", "state": "NY", "zip": "10507-2223", "ntee": "B94", "ruling": "200011", "deductibility": "1", "assets": 140090, "income": 100657, "revenue": 100657}, {"ein": "141538846", "name": "HOLY TRINITY PAROCHIAL ELEMENTARY SCHOOL", "city": "POUGHKEEPSIE", "state": "NY", "zip": "12603-1838", "ntee": "", "ruling": "194603", "deductibility": "1", "assets": 0, "income": 0, "revenue": 0}, {"ein": "141622641", "name": "TACONIC HILLS ELEMENTARY PTO INC", "city": "CRARYVILLE", "state": "NY", "zip": "12521-5510", "ntee": "B94", "ruling": "200911", "deductibility": "1", "assets": 0, "income": 0, "revenue": 0}, {"ein": "141699403", "name": "CASTLETON ELEMENTARY SCHOOL PARENT-TEACHER ORGANIZATION", "city": "CASTLETON", "state": "NY", "zip": "12033-9644", "ntee": "B94", "ruling": "201603", "deductibility": "1", "assets": 0, "income": 0, "revenue": 0}, {"ein": "141755642", "name": "COXSACKIE ELEMENTARY P T O", "city": "COXSACKIE", "state": "NY", "zip": "12051-1132", "ntee": "B94", "ruling": "201905", "deductibility": "1", "assets": 0, "income": 0, "revenue": 0}, {"ein": "141775553", "name": "MATTHEW PATERSON ELEMENTARY SCHOOL PARENT TEACHER ORGANIZATION", "city": "PATTERSON", "state": "NY", "zip": "12563-3112", "ntee": "B94", "ruling": "199808", "deductibility": "1", "assets": 25468, "income": 60572, "revenue": 60572}, {"ein": "141830896", "name": "BRIGHTER CHOICE ELEMENTARY CHARTER SCHOOLS", "city": "ALBANY", "state": "NY", "zip": "12206-2610", "ntee": "B29", "ruling": "200105", "deductibility": "1", "assets": 22183573, "income": 13223361, "revenue": 13223361}, {"ein": "141978027", "name": "PENN YAN ELEMENTARY PARENT TEACHER GROUP", "city": "PENN YAN", "state": "NY", "zip": "14527-1081", "ntee": "B94", "ruling": "201805", "deductibility": "1", "assets": 0, "income": 0, "revenue": 0}, {"ein": "161157634", "name": "HERBERT HOOVER ELEMENTARY HOME SCHOOL ASSOCIATION INC", "city": "BUFFALO", "state": "NY", "zip": "14223-1241", "ntee": "B11", "ruling": "201410", "deductibility": "1", "assets": 54322, "income": 89667, "revenue": 43862}, {"ein": "161181412", "name": "WESTHILL ELEMENTARY SCHOOLS TOGETHER", "city": "SYRACUSE", "state": "NY", "zip": "13219-2214", "ntee": "B112", "ruling": "200909", "deductibility": "1", "assets": 0, "income": 0, "revenue": 0}, {"ein": "161266055", "name": "CICERO ELEMENTARY SCHOOL PARENT TEACHERS GROUP", "city": "CICERO", "state": "NY", "zip": "13039-7323", "ntee": "B112", "ruling": "200310", "deductibility": "1", "assets": 84816, "income": 67206, "revenue": 38124}, {"ein": "161289138", "name": "TRUMANSBURG ELEMENTARY SCHOOL PARENTS-TEACHER ORGANIZATION PTO", "city": "TRUMANSBURG", "state": "NY", "zip": "14886-9152", "ntee": "", "ruling": "198705", "deductibility": "1", "assets": 0, "income": 0, "revenue": 0}, {"ein": "161291770", "name": "CLARENCE CENTER ELEMENTARY PTO", "city": "CLARENCE CTR", "state": "NY", "zip": "14032-9748", "ntee": "", "ruling": "196912", "deductibility": "0", "assets": 0, "income": 0, "revenue": 0}, {"ein": "161338957", "name": "HERMAN AVENUE ELEMENTARY SCHOOL PARENT TEACHER ORGANIZATION", "city": "AUBURN", "state": "NY", "zip": "13021-2945", "ntee": "B94", "ruling": "200103", "deductibility": "1", "assets": 0, "income": 0, "revenue": 0}, {"ein": "161347413", "name": "MAROUN ELEMENTARY PFO", "city": "PHOENIX", "state": "NY", "zip": "13135-1922", "ntee": "B94", "ruling": "202211", "deductibility": "1", "assets": 0, "income": 0, "revenue": 0}, {"ein": "161361651", "name": "PEACHTOWN ELEMENTARY SCHOOL", "city": "AURORA", "state": "NY", "zip": "13026-0000", "ntee": "B24Z", "ruling": "199102", "deductibility": "1", "assets": 137157, "income": 266365, "revenue": 265356}, {"ein": "161405802", "name": "FRONTENAC ELEMENTARY SCHOOL", "city": "UNION SPRINGS", "state": "NY", "zip": "13160-3122", "ntee": "", "ruling": "194704", "deductibility": "1", "assets": 0, "income": 0, "revenue": 0}, {"ein": "161461643", "name": "MORGAN ROAD ELEMENTARY SCHOOL PTO", "city": "LIVERPOOL", "state": "NY", "zip": "13090-2405", "ntee": "B94", "ruling": "199509", "deductibility": "1", "assets": 0, "income": 0, "revenue": 0}, {"ein": "161463879", "name": "DIOCESAN ELEMENTARY TEACHERS ASSOC DETA", "city": "WILLIAMSVILLE", "state": "NY", "zip": "14221-5829", "ntee": "", "ruling": "199511", "deductibility": "2", "assets": 0, "income": 0, "revenue": 0}, {"ein": "161515877", "name": "NATHAN T HALL ELEMENTARY PARENTS AND TEACHERS FOR STUDENTS", "city": "NEWARK VALLEY", "state": "NY", "zip": "13811-2421", "ntee": "B94", "ruling": "202210", "deductibility": "1", "assets": 0, "income": 0, "revenue": 0}, {"ein": "161537278", "name": "OWEGO ELEMENTARY SCHOOL PARENT TEACHER ORGANIZATION", "city": "OWEGO", "state": "NY", "zip": "13827-1062", "ntee": "B94", "ruling": "202109", "deductibility": "1", "assets": 29566, "income": 33370, "revenue": 26152}, {"ein": "161556781", "name": "HORNELL ELEMENTARY PARENT TEACHER ORGANIZATION", "city": "HORNELL", "state": "NY", "zip": "14843-1910", "ntee": "B94", "ruling": "199902", "deductibility": "1", "assets": 0, "income": 0, "revenue": 0}, {"ein": "161563412", "name": "GREENFIELD HOME SCHOOL ASSOCIATION GREENFIELD ELEMENTARY SCHOOL", "city": "GREENFLD CTR", "state": "NY", "zip": "12833-1711", "ntee": "B94", "ruling": "202204", "deductibility": "1", "assets": 0, "income": 0, "revenue": 0}, {"ein": "161575267", "name": "EAST AURORA ELEMENTARY PTO", "city": "EAST AURORA", "state": "NY", "zip": "14052-1359", "ntee": "B94", "ruling": "200007", "deductibility": "1", "assets": 68674, "income": 53931, "revenue": 53931}, {"ein": "161581655", "name": "LIVERPOOL ELEMENTARY SCHOOL PARENT FACULTY ORGANIZATION", "city": "LIVERPOOL", "state": "NY", "zip": "13088-4425", "ntee": "B20", "ruling": "201512", "deductibility": "1", "assets": 0, "income": 0, "revenue": 0}, {"ein": "161582994", "name": "SOULE ROAD ELEMENTARY PTO INC", "city": "LIVERPOOL", "state": "NY", "zip": "13090-1322", "ntee": "B94", "ruling": "200212", "deductibility": "1", "assets": 0, "income": 0, "revenue": 0}, {"ein": "200228633", "name": "BROADALBIN-PERTH ELEMENTARY PARENT TEACHER STUDENT ORGANIZATION", "city": "AMSTERDAM", "state": "NY", "zip": "12010-6215", "ntee": "B94", "ruling": "201401", "deductibility": "1", "assets": 59140, "income": 70367, "revenue": 49637}, {"ein": "200584716", "name": "ROXBORO ROAD ELEMENTARY SCHOOL PARENT TEACHER GROUP", "city": "SYRACUSE", "state": "NY", "zip": "13211-1496", "ntee": "B94", "ruling": "200410", "deductibility": "1", "assets": 88344, "income": 38727, "revenue": 38727}, {"ein": "201154897", "name": "JEFFERSON ELEMENTARY PARENT TEACHER ORGANIZATION", "city": "SCHENECTADY", "state": "NY", "zip": "12306-1506", "ntee": "B112", "ruling": "200412", "deductibility": "1", "assets": 58933, "income": 81254, "revenue": 81254}, {"ein": "201965233", "name": "CATHOLIC ELEMENTARY SCHOOL ASSOCIATION OF NEW YORK", "city": "NEW YORK", "state": "NY", "zip": "10022-4112", "ntee": "", "ruling": "194603", "deductibility": "0", "assets": 0, "income": 0, "revenue": 0}, {"ein": "202733092", "name": "WOODLAND ELEMENTARY PTO INC", "city": "EAST SYRACUSE", "state": "NY", "zip": "13057-6000", "ntee": "B94", "ruling": "201712", "deductibility": "1", "assets": 0, "income": 0, "revenue": 0}, {"ein": "202945446", "name": "NORTH SALEM ELEMENTARY PTO", "city": "NORTH SALEM", "state": "NY", "zip": "10560-1202", "ntee": "B121", "ruling": "200806", "deductibility": "1", "assets": 41037, "income": 119411, "revenue": 110925}, {"ein": "203007083", "name": "UFT ELEMENTARY CHARTER SCHOOL", "city": "BROOKLYN", "state": "NY", "zip": "11207-7805", "ntee": "B29", "ruling": "200704", "deductibility": "1", "assets": 931620, "income": 9649, "revenue": 9649}, {"ein": "204161742", "name": "BIG FLATS ELEMENTARY PARENT TEACHERORGANIZATION", "city": "BIG FLATS", "state": "NY", "zip": "14814-9707", "ntee": "B94", "ruling": "200602", "deductibility": "1", "assets": 0, "income": 0, "revenue": 0}, {"ein": "205380891", "name": "ALL SAINTS ELEMENTARY OF TIPPERARYHILL", "city": "SYRACUSE", "state": "NY", "zip": "13204-2618", "ntee": "B24", "ruling": "200705", "deductibility": "1", "assets": 71038, "income": 513951, "revenue": 475487}, {"ein": "222302842", "name": "MOHONASEN ELEMENTARY SCHOOL PARENT- TEACHER ORGANIZATION", "city": "SCHENECTADY", "state": "NY", "zip": "12303-2703", "ntee": "", "ruling": "198612", "deductibility": "1", "assets": 29000, "income": 19004, "revenue": 11020}, {"ein": "222490753", "name": "BEAR ROAD ELEMENTARY SCHOOL PTO", "city": "N SYRACUSE", "state": "NY", "zip": "13212-1649", "ntee": "B24", "ruling": "202307", "deductibility": "1", "assets": 19462, "income": 42507, "revenue": 42507}, {"ein": "222520986", "name": "FAIRBANKS ROAD ELEMENTARY SCHOOL PARENTS ASSOCIATION INC", "city": "CHURCHVILLE", "state": "NY", "zip": "14428-9782", "ntee": "", "ruling": "198412", "deductibility": "1", "assets": 0, "income": 0, "revenue": 0}, {"ein": "222818533", "name": "ALLENDALE ELEMENTARY SCHOOL PARENT-TEACHER LEAGUE INC", "city": "WEST SENECA", "state": "NY", "zip": "14224-4017", "ntee": "", "ruling": "198708", "deductibility": "1", "assets": 0, "income": 0, "revenue": 0}, {"ein": "223007525", "name": "VOLUNTEER ELEMENTARY PARENT TEACHER ORGANIZATION", "city": "HILTON", "state": "NY", "zip": "14468-1242", "ntee": "", "ruling": "199005", "deductibility": "1", "assets": 0, "income": 0, "revenue": 0}, {"ein": "237054786", "name": "SKANEATELES ELEMENTARY SCHOOL PARENT TEACHERS CLUB", "city": "SKANEATELES", "state": "NY", "zip": "13152-9405", "ntee": "", "ruling": "197001", "deductibility": "1", "assets": 0, "income": 0, "revenue": 0}, {"ein": "237084330", "name": "FAYETTEVILLE ELEMENTARY HOME AND SCHOOL ASSOCIATION", "city": "FAYETTEVILLE", "state": "NY", "zip": "13066-2559", "ntee": "", "ruling": "197103", "deductibility": "1", "assets": 59300, "income": 36312, "revenue": 31592}, {"ein": "237088036", "name": "CHESTNUT HILL ELEMENTARY FACULTY & PARENT ORGANIZATION", "city": "LIVERPOOL", "state": "NY", "zip": "13088-6430", "ntee": "", "ruling": "197012", "deductibility": "1", "assets": 0, "income": 0, "revenue": 0}, {"ein": "237113946", "name": "PTO JOHN D GEORGE SR ELEMENTARY", "city": "VERONA", "state": "NY", "zip": "13478-0108", "ntee": "", "ruling": "197104", "deductibility": "1", "assets": 0, "income": 0, "revenue": 0}, {"ein": "260566508", "name": "LOCUST VALLEY ELEMENTARY PARENTS COUNCIL INC", "city": "LOCUST VALLEY", "state": "NY", "zip": "11560-1938", "ntee": "B94", "ruling": "200801", "deductibility": "1", "assets": 119688, "income": 83587, "revenue": 76853}, {"ein": "260724624", "name": "PAVILION ELEMENTARY PARENT TEACHERSORGANZIATION", "city": "PAVILION", "state": "NY", "zip": "14525-9117", "ntee": "B94", "ruling": "201606", "deductibility": "1", "assets": 0, "income": 0, "revenue": 0}, {"ein": "262364289", "name": "EAGLE ELEMENTARY SCHOOL PARENT TEACHER ORGANIZATION INC", "city": "DELMAR", "state": "NY", "zip": "12054-5112", "ntee": "B94", "ruling": "201403", "deductibility": "1", "assets": 0, "income": 0, "revenue": 0}, {"ein": "262647463", "name": "KENT ELEMENTARY SCHOOL PARENT TEACHER ORGANIZATION INC", "city": "CARMEL", "state": "NY", "zip": "10512-4735", "ntee": "B94", "ruling": "201012", "deductibility": "1", "assets": 16410, "income": 32705, "revenue": 32705}, {"ein": "270496542", "name": "LAKEVIEW ELEMENTARY SCHOOL PARENT TEACHER ORGANIZATION INCORPORATED", "city": "MAHOPAC", "state": "NY", "zip": "10541-0000", "ntee": "B112", "ruling": "201106", "deductibility": "1", "assets": 57662, "income": 128005, "revenue": 99107}, {"ein": "273632716", "name": "EASTSIDE ELEMENTARY SCHOOL PS 267 PARENT TEACHER ASSOCIATION", "city": "NEW YORK", "state": "NY", "zip": "10065-7442", "ntee": "B12", "ruling": "201103", "deductibility": "1", "assets": 147885, "income": 361906, "revenue": 235946}, {"ein": "273822343", "name": "LEDGEVIEW ELEMENTARY SCHOOL PTO INC", "city": "CLARENCE", "state": "NY", "zip": "14031-2406", "ntee": "B94", "ruling": "201103", "deductibility": "1", "assets": 0, "income": 0, "revenue": 0}, {"ein": "273822924", "name": "SHERIDAN HILL ELEMENTARY SCHOOL PTO INC", "city": "WILLIAMSVILLE", "state": "NY", "zip": "14221-6304", "ntee": "B94", "ruling": "201103", "deductibility": "1", "assets": 0, "income": 0, "revenue": 0}, {"ein": "274156108", "name": "GEORGE WASHINGTON ELEMENTARY PTO", "city": "KINGSTON", "state": "NY", "zip": "12401-4809", "ntee": "B94", "ruling": "201610", "deductibility": "1", "assets": 0, "income": 0, "revenue": 0}, {"ein": "274528702", "name": "GLENHAM ELEMENTARY SCHOOL PTO INC", "city": "FISHKILL", "state": "NY", "zip": "12524-1964", "ntee": "B11", "ruling": "201108", "deductibility": "1", "assets": 0, "income": 0, "revenue": 0}, {"ein": "300532931", "name": "MOTT ROAD ELEMENTARY SCHOOL HSA", "city": "FAYETTEVILLE", "state": "NY", "zip": "13066-1847", "ntee": "B94", "ruling": "202209", "deductibility": "1", "assets": 0, "income": 0, "revenue": 0}, {"ein": "300882793", "name": "PARENT TEACHER ORGANIZATION WALES ELEMENTARY", "city": "EAST AURORA", "state": "NY", "zip": "14052-9527", "ntee": "B94", "ruling": "201511", "deductibility": "1", "assets": 0, "income": 0, "revenue": 0}, {"ein": "352455602", "name": "MARCUS WHITMAN ELEMENTARY PTO", "city": "RUSHVILLE", "state": "NY", "zip": "14544-9692", "ntee": "B94", "ruling": "202103", "deductibility": "1", "assets": 0, "income": 0, "revenue": 0}, {"ein": "371651058", "name": "SLINGERLANDS ELEMENTARY PTO", "city": "DELMAR", "state": "NY", "zip": "12054-1610", "ntee": "B94", "ruling": "201206", "deductibility": "1", "assets": 66983, "income": 56927, "revenue": 47563}, {"ein": "383788061", "name": "HASTINGS-MALLORY ELEMENTARY PTO", "city": "CENTRAL SQ", "state": "NY", "zip": "13036-3460", "ntee": "B12", "ruling": "200902", "deductibility": "1", "assets": 0, "income": 0, "revenue": 0}, {"ein": "412058632", "name": "KATONAH ELEMENTARY SCHOOL PARENT TEACHER ORGANIZATION", "city": "KATONAH", "state": "NY", "zip": "10536-1913", "ntee": "B112", "ruling": "200402", "deductibility": "1", "assets": 194446, "income": 312851, "revenue": 285385}, {"ein": "421631755", "name": "BREWERTON ELEMENTARY PTO INC", "city": "BREWERTON", "state": "NY", "zip": "13029-9788", "ntee": "B11", "ruling": "200412", "deductibility": "1", "assets": 64260, "income": 22924, "revenue": 22924}, {"ein": "450509338", "name": "CENTRAL PARK EAST II ELEMENTARY SCHOOL PARENTS ASSOCIATION INC", "city": "NEW YORK", "state": "NY", "zip": "10029-6606", "ntee": "B94", "ruling": "202311", "deductibility": "1", "assets": 0, "income": 0, "revenue": 0}, {"ein": "451543834", "name": "SOUTH SALEM ELEMENTARY HOME & SCHOOL ASSOCIATION INC", "city": "PRT WASHINGTN", "state": "NY", "zip": "11050-4414", "ntee": "B11", "ruling": "201109", "deductibility": "1", "assets": 174413, "income": 145196, "revenue": 145196}, {"ein": "452726796", "name": "BAIS YAAKOV ELEMENTARY OF ROCKLAND COUNTY", "city": "MONSEY", "state": "NY", "zip": "10952-2851", "ntee": "B21", "ruling": "201311", "deductibility": "1", "assets": 0, "income": 0, "revenue": 0}, {"ein": "452850810", "name": "WAYNE PRIMARY AND ELEMENTARY PTO", "city": "ONTARIO", "state": "NY", "zip": "14519-0000", "ntee": "B24", "ruling": "201412", "deductibility": "1", "assets": 0, "income": 0, "revenue": 0}, {"ein": "453648824", "name": "ALLEGANY-LIMESTONE ELEMENTARY SCHOOL PTO CORP", "city": "ALLEGANY", "state": "NY", "zip": "14706-1058", "ntee": "B94", "ruling": "201212", "deductibility": "1", "assets": 0, "income": 0, "revenue": 0}, {"ein": "453671077", "name": "JOHN F KENNEDY ELEMENTARY SCHOOL PARENT TEACHER ORG INC", "city": "GREAT NECK", "state": "NY", "zip": "11024-1406", "ntee": "B94", "ruling": "201301", "deductibility": "1", "assets": 36173, "income": 75288, "revenue": 75288}, {"ein": "454080397", "name": "WALDEN ELEMENTARY SCHOOL PTO INC", "city": "WALDEN", "state": "NY", "zip": "12586-1705", "ntee": "B94", "ruling": "201510", "deductibility": "1", "assets": 0, "income": 0, "revenue": 0}, {"ein": "460803314", "name": "HOMER ELEMENTARY PTO INC", "city": "HOMER", "state": "NY", "zip": "13077-0185", "ntee": "B94", "ruling": "201212", "deductibility": "1", "assets": 0, "income": 0, "revenue": 0}, {"ein": "462828915", "name": "ROBERTS STREET ELEMENTARY SCHOOL PTO", "city": "CANASTOTA", "state": "NY", "zip": "13032-1127", "ntee": "B94", "ruling": "201412", "deductibility": "1", "assets": 0, "income": 0, "revenue": 0}, {"ein": "463945195", "name": "DOS PUENTES ELEMENTARY PTA", "city": "NEW YORK", "state": "NY", "zip": "10033-3836", "ntee": "B94", "ruling": "201503", "deductibility": "1", "assets": 54447, "income": 48540, "revenue": 35579}, {"ein": "465089503", "name": "CRISPUS ATTUCKS ELEMENTARY SCHOOL CS 21 PTA", "city": "BROOKLYN", "state": "NY", "zip": "11233-2108", "ntee": "B20", "ruling": "201601", "deductibility": "1", "assets": 0, "income": 0, "revenue": 0}, {"ein": "471384984", "name": "LONG BRANCH ELEMENTARY PARENT TEACHER CHILDRENS ORGANIZATION INC", "city": "LIVERPOOL", "state": "NY", "zip": "13090-3143", "ntee": "B94", "ruling": "201407", "deductibility": "1", "assets": 0, "income": 0, "revenue": 0}, {"ein": "472913721", "name": "JOHN A SCIOLE ELEMENTARY PARENT TEACHER ORGANIZATION", "city": "DEPEW", "state": "NY", "zip": "14043-0000", "ntee": "B94", "ruling": "201502", "deductibility": "1", "assets": 0, "income": 0, "revenue": 0}, {"ein": "474950967", "name": "BEREA ELEMENTARY SCHOOL PARENT TEACHER ORGANIZATION INC", "city": "MONTGOMERY", "state": "NY", "zip": "12549-2213", "ntee": "B94", "ruling": "201511", "deductibility": "1", "assets": 0, "income": 0, "revenue": 0}, {"ein": "582668371", "name": "ELMCREST ELEMENTARY PTO INC", "city": "LIVERPOOL", "state": "NY", "zip": "13090-2840", "ntee": "B112", "ruling": "200703", "deductibility": "1", "assets": 0, "income": 0, "revenue": 0}, {"ein": "753220191", "name": "CHURCHVILLE ELEMENTARY SCHOOL PARENT ASSOCIATION", "city": "CHURCHVILLE", "state": "NY", "zip": "14428-9598", "ntee": "B94", "ruling": "200706", "deductibility": "1", "assets": 0, "income": 0, "revenue": 0}, {"ein": "753264435", "name": "APALACHIN ELEMENTARY SCHOOL PARENTS GROUP", "city": "APALACHIN", "state": "NY", "zip": "13732-2411", "ntee": "B94", "ruling": "202208", "deductibility": "1", "assets": 0, "income": 0, "revenue": 0}, {"ein": "800004328", "name": "MOMOT ELEMENTARY PARENT TEACHER ORGANIZATION", "city": "PLATTSBURGH", "state": "NY", "zip": "12901-3730", "ntee": "B11", "ruling": "200408", "deductibility": "1", "assets": 0, "income": 0, "revenue": 0}, {"ein": "810820801", "name": "TULLY ELEMENTARY PARENT TEACHER ORGANIZATION", "city": "TULLY", "state": "NY", "zip": "13159-2455", "ntee": "B94", "ruling": "201703", "deductibility": "1", "assets": 0, "income": 0, "revenue": 0}, {"ein": "810929865", "name": "EXPLORATION ELEMENTARY CHARTER SCHOOL FOR SCIENCE AND TECHNOLOGY", "city": "ROCHESTER", "state": "NY", "zip": "14613-1720", "ntee": "B29", "ruling": "201703", "deductibility": "1", "assets": 5125990, "income": 6664424, "revenue": 6664424}, {"ein": "813292233", "name": "ONEIDA ELEMENTARY PTO INC", "city": "ONEIDA", "state": "NY", "zip": "13421-2026", "ntee": "B94", "ruling": "201904", "deductibility": "1", "assets": 0, "income": 0, "revenue": 0}, {"ein": "821031527", "name": "MILLARD HAWK ELEMENTARY PTO", "city": "CENTRAL SQUARE", "state": "NY", "zip": "13036-0000", "ntee": "B94", "ruling": "201707", "deductibility": "1", "assets": 0, "income": 0, "revenue": 0}, {"ein": "821720218", "name": "INCREASE MILLER ELEMENTARY SCHOOL PARENT TEACHER ORGANIZATION INC", "city": "GOLDENS BRG", "state": "NY", "zip": "10526-1403", "ntee": "B11", "ruling": "201709", "deductibility": "1", "assets": 131537, "income": 140436, "revenue": 140436}, {"ein": "822451508", "name": "ROSENDALE ELEMENTARY SCHOOL PARENT TEACHER ORGANIZATION INC", "city": "NISKAYUNA", "state": "NY", "zip": "12309-1309", "ntee": "B94", "ruling": "201902", "deductibility": "1", "assets": 0, "income": 0, "revenue": 0}, {"ein": "822457987", "name": "GLENCLIFF ELEMENTARY SCHOOL PARENT TEACHER ORGANIZATION INC", "city": "REXFORD", "state": "NY", "zip": "12148-1123", "ntee": "B94", "ruling": "201708", "deductibility": "1", "assets": 0, "income": 0, "revenue": 0}, {"ein": "822599720", "name": "BIRCHWOOD ELEMENTARY SCHOOL PARENT TEACHER ORGANIZATION", "city": "NISKAYUNA", "state": "NY", "zip": "12309-3111", "ntee": "B94", "ruling": "201709", "deductibility": "1", "assets": 21202, "income": 79616, "revenue": 0}, {"ein": "822763308", "name": "CRAIG ELEMENTARY PARENT TEACHER ORGANIZATION INC", "city": "NISKAYUNA", "state": "NY", "zip": "12309-0000", "ntee": "B11", "ruling": "201803", "deductibility": "1", "assets": 0, "income": 0, "revenue": 0}, {"ein": "823061154", "name": "PARENT TEACHER ORGANIZATION EDWARD R CROSBY ELEMENTARY SCHOOL", "city": "LAKE KATRINE", "state": "NY", "zip": "12449-5337", "ntee": "B94", "ruling": "201712", "deductibility": "1", "assets": 0, "income": 0, "revenue": 0}, {"ein": "831401042", "name": "CHENANGO FORKS ELEMENTARY PTO", "city": "BINGHAMTON", "state": "NY", "zip": "13901-5631", "ntee": "B94", "ruling": "202002", "deductibility": "1", "assets": 0, "income": 0, "revenue": 0}, {"ein": "831433135", "name": "SOLVAY ELEMENTARY SCHOOL PTO", "city": "SYRACUSE", "state": "NY", "zip": "13209-2044", "ntee": "B94", "ruling": "201904", "deductibility": "1", "assets": 0, "income": 0, "revenue": 0}, {"ein": "831780699", "name": "GUARDIANS OF SAINT PATRICKS ELEMENTARY SCHOOL FOUNDATION INC", "city": "CANASTOTA", "state": "NY", "zip": "13032-4614", "ntee": "B11", "ruling": "201905", "deductibility": "1", "assets": 107950, "income": 74226, "revenue": 74226}, {"ein": "832456272", "name": "GENESEE ELEMENTARY SCHOLARSHIP PROGRAM", "city": "AUBURN", "state": "NY", "zip": "13021-0000", "ntee": "B82", "ruling": "201904", "deductibility": "1", "assets": 0, "income": 0, "revenue": 0}, {"ein": "832848445", "name": "SOUTHAMPTON ELEMENTARY PTO", "city": "SOUTHAMPTON", "state": "NY", "zip": "11968-4960", "ntee": "B94", "ruling": "201902", "deductibility": "1", "assets": 0, "income": 0, "revenue": 0}, {"ein": "834699257", "name": "EAST SYRACUSE ELEMENTARY PARENT-TEACHER ORGANIZATION INC", "city": "EAST SYRACUSE", "state": "NY", "zip": "13057-2270", "ntee": "B94", "ruling": "201906", "deductibility": "1", "assets": 0, "income": 0, "revenue": 0}, {"ein": "841909221", "name": "MEADOW POND ELEMENTARY SCHOOL PARENT TEACHER ORGANIZATION INC", "city": "SOUTH SALEM", "state": "NY", "zip": "10590-1926", "ntee": "B94", "ruling": "202001", "deductibility": "1", "assets": 0, "income": 0, "revenue": 0}, {"ein": "842492372", "name": "BAYVILLE ELEMENTARY PARENTS COUNCIL INC", "city": "MILL NECK", "state": "NY", "zip": "11765-0203", "ntee": "B94", "ruling": "201908", "deductibility": "1", "assets": 16289, "income": 90814, "revenue": 6957}, {"ein": "852539266", "name": "MEXICO ELEMENTARY PARENT TEACHER ORGANIZATION INC", "city": "MEXICO", "state": "NY", "zip": "13114-3010", "ntee": "B94", "ruling": "202010", "deductibility": "1", "assets": 0, "income": 0, "revenue": 0}, {"ein": "853498171", "name": "NORTHWOOD VOLUNTEER ELEMENTARY PARENT TEACHER ORG", "city": "HILTON", "state": "NY", "zip": "14468-1255", "ntee": "B94", "ruling": "202105", "deductibility": "1", "assets": 0, "income": 0, "revenue": 0}, {"ein": "862141530", "name": "FREDONIA ELEMENTARY PTO", "city": "FREDONIA", "state": "NY", "zip": "14063-1451", "ntee": "B94", "ruling": "202106", "deductibility": "1", "assets": 0, "income": 0, "revenue": 0}, {"ein": "871269407", "name": "TIOGA HILLS ELEMENTARY PTO", "city": "APALACHIN", "state": "NY", "zip": "13732-4027", "ntee": "B94", "ruling": "202205", "deductibility": "1", "assets": 0, "income": 0, "revenue": 0}, {"ein": "873515655", "name": "MORICHES ELEMENTARY SCHOOL PTO", "city": "MORICHES", "state": "NY", "zip": "11955-1402", "ntee": "B11", "ruling": "202201", "deductibility": "1", "assets": 41755, "income": 97471, "revenue": 97471}, {"ein": "900642658", "name": "DRYDEN ELEMENTARY PTA", "city": "DRYDEN", "state": "NY", "zip": "13053-0000", "ntee": "B94", "ruling": "202405", "deductibility": "1", "assets": 0, "income": 0, "revenue": 0}, {"ein": "921801580", "name": "MCCONNELLSVILLE ELEMENTARY SCHOOL PARENT TEACHER ORGANIZATION", "city": "BLOSSVALE", "state": "NY", "zip": "13308-0000", "ntee": "B94", "ruling": "202301", "deductibility": "1", "assets": 0, "income": 0, "revenue": 0}, {"ein": "932470284", "name": "EJA ELEMENTARY PTO INC", "city": "COXSACKIE", "state": "NY", "zip": "12051-1132", "ntee": "B80", "ruling": "202308", "deductibility": "1", "assets": 0, "income": 0, "revenue": 0}, {"ein": "933627333", "name": "GOWANDA ELEMENTARY PARENT TEACHER ORGANIZATION", "city": "GOWANDA", "state": "NY", "zip": "14070-1032", "ntee": "B94", "ruling": "202310", "deductibility": "1", "assets": 0, "income": 0, "revenue": 0}, {"ein": "992424691", "name": "CENTER-STANTON ELEMENTARY PTO", "city": "CENTER", "state": "NY", "zip": "10001-0000", "ntee": "B94", "ruling": "202406", "deductibility": "1", "assets": 0, "income": 0, "revenue": 0}], "PLEIN": [{"ein": "020758260", "name": "GENESEE VALLEY PLEIN AIR PAINTERS INC", "city": "PITTSFORD", "state": "NY", "zip": "14534-3351", "ntee": "A25", "ruling": "200706", "deductibility": "2", "assets": 0, "income": 0, "revenue": 0}, {"ein": "113205432", "name": "LEGLISE DES ASSEMBLEES CHRETIENNES DU PLEIN EVANGILE", "city": "QUEENS", "state": "NY", "zip": "11373-3544", "ntee": "", "ruling": "199407", "deductibility": "1", "assets": 0, "income": 0, "revenue": 0}, {"ein": "460628924", "name": "FRIENDS OF PLEIN SOLEIL FOUNDATION INC", "city": "NYC", "state": "NY", "zip": "10128-6101", "ntee": "Q33", "ruling": "201408", "deductibility": "1", "assets": 0, "income": 0, "revenue": 0}], "SAVONA": [{"ein": "030597058", "name": "CAMPBELL-SAVONA BOOSTER CLUB", "city": "CAMPBELL", "state": "NY", "zip": "14821-9716", "ntee": "B112", "ruling": "200702", "deductibility": "1", "assets": 0, "income": 0, "revenue": 0}, {"ein": "160783524", "name": "SAVONA FEDERATED CHURCH", "city": "SAVONA", "state": "NY", "zip": "14879-9688", "ntee": "", "ruling": "195504", "deductibility": "1", "assets": 0, "income": 0, "revenue": 0}, {"ein": "333229263", "name": "CAMPBELL SAVONA PTO", "city": "SAVONA", "state": "NY", "zip": "14879-9714", "ntee": "B94", "ruling": "202502", "deductibility": "1", "assets": 0, "income": 0, "revenue": 0}, {"ein": "821934770", "name": "SAVONA V ROBERTS CHRISTIAN EDUCATION ACADEMY INC", "city": "POUGHKEEPSIE", "state": "NY", "zip": "12602-0904", "ntee": "B40", "ruling": "201902", "deductibility": "1", "assets": 14135, "income": 28759, "revenue": 28759}, {"ein": "831644347", "name": "CAMPBELL-SAVONA-BRADFORD YOUTH WRESTLING CLUB", "city": "CAMPBELL", "state": "NY", "zip": "14821-9715", "ntee": "N70", "ruling": "201901", "deductibility": "1", "assets": 0, "income": 0, "revenue": 0}], "LANDER": [{"ein": "043399527", "name": "LANDER FAMILY CHARITABLE FOUNDATION", "city": "GARDEN CITY", "state": "NY", "zip": "11530-0000", "ntee": "T20Z", "ruling": "199804", "deductibility": "1", "assets": 1163647, "income": 236733, "revenue": 0}], "NEIGHBOR": [{"ein": "043819342", "name": "LOVE THY NEIGHBOR OUT-REACH MINISTRY INC", "city": "BUFFALO", "state": "NY", "zip": "14211-1357", "ntee": "X20", "ruling": "200605", "deductibility": "1", "assets": 0, "income": 0, "revenue": 0}, {"ein": "113250547", "name": "GOOD NEIGHBOR CHURCH OF NEW YORK", "city": "FLUSHING", "state": "NY", "zip": "11355-3421", "ntee": "X21H", "ruling": "199702", "deductibility": "1", "assets": 0, "income": 0, "revenue": 0}, {"ein": "204140609", "name": "GOOD NEIGHBOR COMMUNITY CHURCH", "city": "WOODBURY", "state": "NY", "zip": "11797-0000", "ntee": "X21", "ruling": "200607", "deductibility": "1", "assets": 0, "income": 0, "revenue": 0}, {"ein": "205565344", "name": "I AM YOUR NEIGHBOR", "city": "BRONX", "state": "NY", "zip": "10469-5330", "ntee": "P40", "ruling": "200812", "deductibility": "1", "assets": 0, "income": 0, "revenue": 0}, {"ein": "223121056", "name": "GOOD NEIGHBOR NETWORK INC", "city": "MALONE", "state": "NY", "zip": "12953-1350", "ntee": "T70Z", "ruling": "199205", "deductibility": "1", "assets": 0, "income": 0, "revenue": 0}, {"ein": "452376790", "name": "GOOD NEIGHBOR FOOD PANTRY OF WOODSTOCK INC", "city": "WOODSTOCK", "state": "NY", "zip": "12498-0619", "ntee": "K31", "ruling": "201109", "deductibility": "1", "assets": 20812, "income": 111207, "revenue": 111207}, {"ein": "851687861", "name": "LOVE YOUR NEIGHBOR PROJECT INC", "city": "SEA CLIFF", "state": "NY", "zip": "11579-0222", "ntee": "Z99", "ruling": "202011", "deductibility": "1", "assets": 0, "income": 0, "revenue": 0}, {"ein": "852322618", "name": "GOOD NEIGHBOR COLLECTIVE INC", "city": "NEW YORK", "state": "NY", "zip": "10009-2114", "ntee": "S20", "ruling": "202009", "deductibility": "1", "assets": 2763, "income": 3708, "revenue": -203}, {"ein": "883478644", "name": "LOVE THY NEIGHBOR NY", "city": "NEW YORK", "state": "NY", "zip": "10029-6423", "ntee": "O50", "ruling": "202307", "deductibility": "1", "assets": 0, "income": 0, "revenue": 0}, {"ein": "931462084", "name": "PROJECT NEIGHBOR OF NEWARK VALLEY", "city": "NEWARK VALLEY", "state": "NY", "zip": "13811-2419", "ntee": "K31", "ruling": "202402", "deductibility": "1", "assets": 0, "income": 0, "revenue": 0}, {"ein": "993248251", "name": "FILM NEIGHBOR NETWORK INC", "city": "BUFFALO", "state": "NY", "zip": "14223-2909", "ntee": "A31", "ruling": "202408", "deductibility": "1", "assets": 0, "income": 0, "revenue": 0}], "DANA": [{"ein": "061360140", "name": "DANA ALLIANCE FOR BRAIN INITIATIVES INC", "city": "NEW YORK", "state": "NY", "zip": "10020-0075", "ntee": "", "ruling": "199306", "deductibility": "1", "assets": 121346, "income": 1, "revenue": 0}, {"ein": "066036761", "name": "CHARLES A DANA FDN INC", "city": "NEW YORK", "state": "NY", "zip": "10020-0075", "ntee": "", "ruling": "195108", "deductibility": "1", "assets": 258637512, "income": 60698958, "revenue": 0}, {"ein": "136160860", "name": "ARTHUR D DANA FOUNDATION INC", "city": "NEW YORK", "state": "NY", "zip": "10165-0000", "ntee": "", "ruling": "196303", "deductibility": "1", "assets": 20805, "income": 151075, "revenue": 0}, {"ein": "300491167", "name": "DANA MARIE@PALUMBO SCHOLARSHIP FUND TRUST", "city": "FAIRPORT", "state": "NY", "zip": "14450-8979", "ntee": "B82", "ruling": "201005", "deductibility": "1", "assets": 51671, "income": 15211, "revenue": 0}, {"ein": "331659308", "name": "DANA WALLACH JONES AND MICHAEL T M JONES FOUNDATION", "city": "PURCHASE", "state": "NY", "zip": "10577-0000", "ntee": "T20", "ruling": "202412", "deductibility": "1", "assets": 2112474, "income": 4090103, "revenue": 0}, {"ein": "462196598", "name": "DANA BROWN MINISTRIES INC", "city": "LOCKPORT", "state": "NY", "zip": "14094-5842", "ntee": "P99", "ruling": "201910", "deductibility": "1", "assets": 0, "income": 0, "revenue": 0}, {"ein": "844265994", "name": "DANA AND JOSEPH KEKST FAMILY FOUNDATION", "city": "NEW YORK", "state": "NY", "zip": "10028-3229", "ntee": "P99", "ruling": "202003", "deductibility": "1", "assets": 790935, "income": 15618, "revenue": 0}, {"ein": "873405569", "name": "DRIVE FOR DANA INC", "city": "RONKONKOMA", "state": "NY", "zip": "11779-4732", "ntee": "G12", "ruling": "202203", "deductibility": "1", "assets": 30384, "income": 44737, "revenue": 44737}], "BL": [{"ein": "112213686", "name": "BL GIRLS TOWN JERUSALEM INC", "city": "BROOKLYN", "state": "NY", "zip": "11214-2508", "ntee": "Z99Z", "ruling": "196308", "deductibility": "1", "assets": 477773, "income": 2696132, "revenue": 2676586}, {"ein": "137104062", "name": "BL SQUARED FOUNDATION TR", "city": "NEW YORK", "state": "NY", "zip": "10016-0466", "ntee": "T60J", "ruling": "199702", "deductibility": "1", "assets": 1703201, "income": 16363, "revenue": 0}, {"ein": "141777543", "name": "BH-BL BUSINESS & PROFESSIONAL ASSOCIATION INC", "city": "BALLSTON LAKE", "state": "NY", "zip": "12019-0043", "ntee": "S40", "ruling": "201810", "deductibility": "2", "assets": 0, "income": 0, "revenue": 0}, {"ein": "872260707", "name": "BH-BL GIVING TREE FOUNDATION INC", "city": "BURNT HILLS", "state": "NY", "zip": "12019-0000", "ntee": "B99", "ruling": "202302", "deductibility": "1", "assets": 32431, "income": 56586, "revenue": 45271}, {"ein": "994444733", "name": "BL NEXT INC", "city": "NEW YORK", "state": "NY", "zip": "10022-6834", "ntee": "B90", "ruling": "202503", "deductibility": "1", "assets": 0, "income": 0, "revenue": 0}], "DARKEI": [{"ein": "112490727", "name": "CONGREGATION NETSCH ISRAEL KOLEL DARKEI NOAM", "city": "BROOKLYN", "state": "NY", "zip": "11210-3736", "ntee": "", "ruling": "197904", "deductibility": "1", "assets": 0, "income": 0, "revenue": 0}, {"ein": "112642659", "name": "KAHAL DARKEI NOAM", "city": "BROOKLYN", "state": "NY", "zip": "11210-3736", "ntee": "", "ruling": "198309", "deductibility": "1", "assets": 0, "income": 0, "revenue": 0}, {"ein": "112661241", "name": "YESHIVA DARKEI EMUNAH", "city": "MONSEY", "state": "NY", "zip": "10952-8111", "ntee": "", "ruling": "198311", "deductibility": "1", "assets": 0, "income": 0, "revenue": 0}, {"ein": "112661778", "name": "CONGREGATION DARKEI SIMCHA INC", "city": "BROOKLYN", "state": "NY", "zip": "11219-1738", "ntee": "", "ruling": "198412", "deductibility": "1", "assets": 145864, "income": 316482, "revenue": 316482}, {"ein": "112814716", "name": "CONGREGATION & GMILAS CHESED OF DARKEI NOAM C/O HERSHEL HOROWITZ", "city": "BROOKLYN", "state": "NY", "zip": "11219-3605", "ntee": "", "ruling": "198703", "deductibility": "1", "assets": 0, "income": 0, "revenue": 0}, {"ein": "113055644", "name": "YESHIVA DARKEI TSHIVO OF MINKATSH", "city": "BROOKLYN", "state": "NY", "zip": "11206-5058", "ntee": "", "ruling": "197105", "deductibility": "1", "assets": 0, "income": 0, "revenue": 0}, {"ein": "113065813", "name": "CONGREGATION DARKEI TSHIVO OF DINOV", "city": "BROOKLYN", "state": "NY", "zip": "11218-5208", "ntee": "", "ruling": "199109", "deductibility": "1", "assets": 0, "income": 0, "revenue": 0}, {"ein": "113375125", "name": "CONGREGATION DARKEI LEVI INC", "city": "BROOKLYN", "state": "NY", "zip": "11230-1017", "ntee": "X99Z", "ruling": "199701", "deductibility": "1", "assets": 0, "income": 0, "revenue": 0}, {"ein": "113479528", "name": "CONGREGATION BETH MEDRASH DARKEI YOSHER", "city": "BROOKLYN", "state": "NY", "zip": "11230-6504", "ntee": "X30", "ruling": "200011", "deductibility": "1", "assets": 0, "income": 0, "revenue": 0}, {"ein": "205300835", "name": "CONG DARKEI CHAIM INC", "city": "BROOKLYN", "state": "NY", "zip": "11204-2321", "ntee": "X30", "ruling": "201005", "deductibility": "1", "assets": 0, "income": 0, "revenue": 0}, {"ein": "223770928", "name": "BEIS CHINUCH L BONOIS OHEL CHANAH- DARKEI CHESED", "city": "BROOKLYN", "state": "NY", "zip": "11211-7474", "ntee": "X30", "ruling": "200106", "deductibility": "1", "assets": 0, "income": 0, "revenue": 0}, {"ein": "261224172", "name": "DARKEI CHAIM", "city": "BROOKLYN", "state": "NY", "zip": "11219-1925", "ntee": "X30", "ruling": "200905", "deductibility": "1", "assets": 0, "income": 0, "revenue": 0}, {"ein": "274637516", "name": "CONGREGATION DARKEI AVOS SANZ INC", "city": "BROOKLYN", "state": "NY", "zip": "11211-8919", "ntee": "X30", "ruling": "201109", "deductibility": "1", "assets": 0, "income": 0, "revenue": 0}, {"ein": "472597990", "name": "TALMUD TORAH DARKEI AVOS - MONSEY", "city": "SPRING VALLEY", "state": "NY", "zip": "10977-4418", "ntee": "X30", "ruling": "201506", "deductibility": "1", "assets": 0, "income": 0, "revenue": 0}, {"ein": "475152704", "name": "CONGREGATION DARKEI AVOS SANZ OF BP", "city": "BROOKLYN", "state": "NY", "zip": "11219-3008", "ntee": "X30", "ruling": "201603", "deductibility": "1", "assets": 0, "income": 0, "revenue": 0}, {"ein": "522380846", "name": "DARKEI YOISUER CENTER", "city": "BROOKLYN", "state": "NY", "zip": "11219-4006", "ntee": "X30", "ruling": "200304", "deductibility": "1", "assets": 0, "income": 0, "revenue": 0}, {"ein": "833159424", "name": "CONGREGATION YESHIVA DARKEI CHAIM", "city": "BROOKLYN", "state": "NY", "zip": "11204-1425", "ntee": "X30", "ruling": "201909", "deductibility": "1", "assets": 0, "income": 0, "revenue": 0}, {"ein": "852422933", "name": "YESHIVA DARKEI EMUNAH OF MONSEY", "city": "MONSEY", "state": "NY", "zip": "10952-1834", "ntee": "X30", "ruling": "202102", "deductibility": "1", "assets": 0, "income": 0, "revenue": 0}, {"ein": "852757585", "name": "CONG DARKEI AVOS", "city": "BROOKLYN", "state": "NY", "zip": "11211-9608", "ntee": "X30", "ruling": "202104", "deductibility": "1", "assets": 0, "income": 0, "revenue": 0}, {"ein": "852758422", "name": "RABBINICAL COLLEGE DARKEI CHAIM", "city": "BROOKLYN", "state": "NY", "zip": "11204-0000", "ntee": "X30", "ruling": "202212", "deductibility": "1", "assets": 0, "income": 0, "revenue": 0}, {"ein": "871059387", "name": "YESHIVA DARKEI EMUNAH BNOS BINAH", "city": "SPRING VALLEY", "state": "NY", "zip": "10977-5635", "ntee": "X30", "ruling": "202303", "deductibility": "1", "assets": 0, "income": 0, "revenue": 0}, {"ein": "873161329", "name": "CONG DARKEI EMUNAH", "city": "BROOKLYN", "state": "NY", "zip": "11204-1504", "ntee": "X30", "ruling": "202204", "deductibility": "1", "assets": 0, "income": 0, "revenue": 0}, {"ein": "874678375", "name": "CONG DARKEI SHULEM INC", "city": "SUFFERN", "state": "NY", "zip": "10901-4014", "ntee": "X30", "ruling": "202303", "deductibility": "1", "assets": 0, "income": 0, "revenue": 0}, {"ein": "931699362", "name": "DARKEI YISROEL", "city": "STATEN ISLAND", "state": "NY", "zip": "10314-4254", "ntee": "X30", "ruling": "202312", "deductibility": "1", "assets": 0, "income": 0, "revenue": 0}], "RESERVE": [{"ein": "112518765", "name": "NASSAU COUNTY POLICE RESERVE ASSOCIATION SCHOLARSHIP FUND INC", "city": "SYOSSET", "state": "NY", "zip": "11791-0009", "ntee": "", "ruling": "198611", "deductibility": "1", "assets": 403879, "income": 44800, "revenue": 44800}, {"ein": "133349540", "name": "STABILIZATION RESERVE FUND OF THE UNIFORMED FIREFGHTERS ASSOCIATION", "city": "NEW YORK", "state": "NY", "zip": "10010-4628", "ntee": "", "ruling": "198701", "deductibility": "2", "assets": 13810228, "income": 5624075, "revenue": 5624075}, {"ein": "146019784", "name": "RESERVE OFFICERS ASSOCIATION OF THE UNITED STATES", "city": "BOWMANSVILLE", "state": "NY", "zip": "14026-1038", "ntee": "", "ruling": "201302", "deductibility": "1", "assets": 0, "income": 0, "revenue": 0}, {"ein": "160174354", "name": "RESERVE OFFICERS ASSOCIATION OF THE UNITED STATES", "city": "JAMESVILLE", "state": "NY", "zip": "13078-9431", "ntee": "", "ruling": "197512", "deductibility": "2", "assets": 0, "income": 0, "revenue": 0}, {"ein": "161549003", "name": "OWASCO FLATS NATURE RESERVE INC", "city": "MORAVIA", "state": "NY", "zip": "13118-3616", "ntee": "C32", "ruling": "200501", "deductibility": "1", "assets": 0, "income": 0, "revenue": 0}, {"ein": "166031761", "name": "RESERVE HOSE COMPANY 1 OF THE TOWN OF WEST SENECA", "city": "BUFFALO", "state": "NY", "zip": "14218-3784", "ntee": "M24I", "ruling": "199604", "deductibility": "1", "assets": 293941, "income": 111069, "revenue": 95107}, {"ein": "237172155", "name": "POLICE RESERVE ASSOCIATION OF THE CITY OF NEW YORK INC", "city": "NEW YORK", "state": "NY", "zip": "10006-3007", "ntee": "I600", "ruling": "197203", "deductibility": "1", "assets": 35303, "income": 65253, "revenue": 65253}, {"ein": "272821925", "name": "ROCKLAND COUNTY SHERIFFS RESERVE FORCE BENEVOLENT ASSOC INC", "city": "NEW CITY", "state": "NY", "zip": "10956-4208", "ntee": "I12", "ruling": "201609", "deductibility": "1", "assets": 0, "income": 0, "revenue": 0}, {"ein": "300507040", "name": "STEWART PARK & RESERVE COALITION INC", "city": "BLOOMING GRV", "state": "NY", "zip": "10914-0090", "ntee": "C01", "ruling": "202008", "deductibility": "1", "assets": 0, "income": 0, "revenue": 0}, {"ein": "331058583", "name": "LONGHOUSE RESERVE", "city": "EAST HAMPTON", "state": "NY", "zip": "11937-3807", "ntee": "B82", "ruling": "200408", "deductibility": "1", "assets": 9954487, "income": 3176617, "revenue": 1395136}, {"ein": "453546813", "name": "ISBI THE RESERVE LLC", "city": "NEW YORK", "state": "NY", "zip": "10169-0009", "ntee": "S470", "ruling": "201209", "deductibility": "2", "assets": 0, "income": 0, "revenue": 0}, {"ein": "463632300", "name": "FLEET RESERVE ASSOCIATION BRANCH 226 INC", "city": "STATEN ISLAND", "state": "NY", "zip": "10312-3338", "ntee": "W30", "ruling": "201309", "deductibility": "2", "assets": 0, "income": 0, "revenue": 0}, {"ein": "464132426", "name": "SUPPORT FOR GUARD AND RESERVE EMPLOYERS INC", "city": "SPENCERPORT", "state": "NY", "zip": "14559-0110", "ntee": "W12", "ruling": "201404", "deductibility": "1", "assets": 0, "income": 0, "revenue": 0}, {"ein": "474917503", "name": "COASTAL RESERVE CORP", "city": "RIVERHEAD", "state": "NY", "zip": "11901-3868", "ntee": "C32", "ruling": "201510", "deductibility": "1", "assets": 0, "income": 0, "revenue": 0}, {"ein": "510169694", "name": "RESERVE OFFICERS ASSOCIATION OF THE UNITED STATES CAPITAL DIST NO 002", "city": "GUILDERLAND", "state": "NY", "zip": "12084-9782", "ntee": "W30", "ruling": "201301", "deductibility": "1", "assets": 0, "income": 0, "revenue": 0}, {"ein": "510185065", "name": "RESERVE OFFICERS ASSOCIATION OF THE UNITED STATES", "city": "BOWMANSVILLE", "state": "NY", "zip": "14026-1038", "ntee": "", "ruling": "197512", "deductibility": "2", "assets": 0, "income": 0, "revenue": 0}, {"ein": "541636461", "name": "PAST REGIONAL PRESIDENTS OF THE FLEET RESERVE ASSOCIATION INC", "city": "STATEN ISLAND", "state": "NY", "zip": "10312-0000", "ntee": "", "ruling": "199802", "deductibility": "1", "assets": 502429, "income": 99356, "revenue": 33360}, {"ein": "550900101", "name": "RESERVE OFFICERS ASSOCIATION OF THE UNITED STATES", "city": "PITTSFORD", "state": "NY", "zip": "14534-4214", "ntee": "", "ruling": "197512", "deductibility": "2", "assets": 0, "income": 0, "revenue": 0}, {"ein": "582682672", "name": "THE BIO-RESERVE INC", "city": "ALBANY", "state": "NY", "zip": "12208-0975", "ntee": "C34", "ruling": "200508", "deductibility": "1", "assets": 833175, "income": 18808, "revenue": 0}, {"ein": "810665063", "name": "RESERVE ELDER SERVICE INC", "city": "NEW YORK", "state": "NY", "zip": "10017-6733", "ntee": "J20", "ruling": "200512", "deductibility": "1", "assets": 1621516, "income": 4950432, "revenue": 4950432}, {"ein": "831014914", "name": "TWO RIVERS RESERVE INC", "city": "SCHENECTADY", "state": "NY", "zip": "12306-7100", "ntee": "", "ruling": "201809", "deductibility": "1", "assets": 0, "income": 0, "revenue": 0}, {"ein": "853129772", "name": "FALLEN FIRST RESERVE INC", "city": "MERRICK", "state": "NY", "zip": "11566-2123", "ntee": "P58", "ruling": "202101", "deductibility": "1", "assets": 166110, "income": 164810, "revenue": 164810}, {"ein": "883927239", "name": "ECSO SCIENTIFIC RESERVE DIVISION", "city": "CHEEKTOWAGA", "state": "NY", "zip": "14227-2676", "ntee": "I20", "ruling": "202310", "deductibility": "1", "assets": 0, "income": 0, "revenue": 0}, {"ein": "911834057", "name": "RESERVE OFFICERS ASSOCIATION OF THE UNITED STATES", "city": "SINCLAIRVILLE", "state": "NY", "zip": "14782-9636", "ntee": "", "ruling": "197512", "deductibility": "2", "assets": 0, "income": 0, "revenue": 0}, {"ein": "991186532", "name": "BUFFALO POLICE RESERVE UNITS", "city": "BUFFALO", "state": "NY", "zip": "14213-1815", "ntee": "I12", "ruling": "202404", "deductibility": "1", "assets": 0, "income": 0, "revenue": 0}], "HOLTSVILLE": [{"ein": "112590524", "name": "JESUS IS LORD CHURCH OF HOLTSVILLE INC", "city": "HOLTSVILLE", "state": "NY", "zip": "11742-1809", "ntee": "X20", "ruling": "198211", "deductibility": "1", "assets": 0, "income": 0, "revenue": 0}, {"ein": "475531821", "name": "BOY SCOUT TROOP 100 HOLTSVILLE", "city": "FARMINGVILLE", "state": "NY", "zip": "11738-1615", "ntee": "O41", "ruling": "202112", "deductibility": "1", "assets": 0, "income": 0, "revenue": 0}], "VOLBROZ": [{"ein": "112744611", "name": "CONGREGATION VOLBROZ KRAKOW", "city": "BROOKLYN", "state": "NY", "zip": "11219-1299", "ntee": "", "ruling": "198509", "deductibility": "1", "assets": 0, "income": 0, "revenue": 0}], "RISHPEI": [{"ein": "112766411", "name": "ZIBO CONG RISHPEI EISH", "city": "BROOKLYN", "state": "NY", "zip": "11204-1418", "ntee": "", "ruling": "198607", "deductibility": "1", "assets": 0, "income": 0, "revenue": 0}], "ZAHARIS": [{"ein": "112801980", "name": "ATHAS ZAHARIS AGORIANI TR", "city": "BAYSIDE HILLS", "state": "NY", "zip": "11364-1827", "ntee": "", "ruling": "199008", "deductibility": "1", "assets": 40836, "income": 1, "revenue": 0}], "CON": [{"ein": "112832350", "name": "THE CON BRIO ENSEMBLE INC", "city": "FOREST HILLS", "state": "NY", "zip": "11375-2247", "ntee": "", "ruling": "198904", "deductibility": "1", "assets": 0, "income": 0, "revenue": 0}, {"ein": "113480267", "name": "CON EDISON ISLANDERS INC", "city": "SEA CLIFF", "state": "NY", "zip": "11579-2111", "ntee": "N50", "ruling": "199904", "deductibility": "2", "assets": 13750, "income": 13640, "revenue": 13640}, {"ein": "132937758", "name": "WESTCHESTER CON EDISON RETIREES INC", "city": "RYE", "state": "NY", "zip": "10580-1432", "ntee": "", "ruling": "198308", "deductibility": "2", "assets": 0, "income": 0, "revenue": 0}, {"ein": "133751052", "name": "CON EDISON POSTRETIREMENT LIFE INS VEBA TR FOR MANAGEMENT EMPLOYEES", "city": "NEW YORK", "state": "NY", "zip": "10003-3502", "ntee": "", "ruling": "199412", "deductibility": "2", "assets": 65658144, "income": 11069468, "revenue": 7024300}, {"ein": "161076272", "name": "NEW YORK ASSOCIATION OF SOIL CON DISTRICT INC", "city": "BATH", "state": "NY", "zip": "14810-1038", "ntee": "S41", "ruling": "201409", "deductibility": "2", "assets": 177025, "income": 78507, "revenue": 78507}, {"ein": "200701395", "name": "CON-SOLATIO", "city": "BROOKLYN", "state": "NY", "zip": "11211-3822", "ntee": "", "ruling": "194603", "deductibility": "1", "assets": 2857368, "income": 455495, "revenue": 446281}, {"ein": "332836064", "name": "CUENTOS CON SANTA INC", "city": "NEW YORK", "state": "NY", "zip": "10032-4709", "ntee": "A20", "ruling": "202507", "deductibility": "1", "assets": 0, "income": 0, "revenue": 0}, {"ein": "452772729", "name": "HERMANOS DE LA CARIDAD CON CRISTO", "city": "PORT JEFFERSON", "state": "NY", "zip": "11777-0000", "ntee": "Q33", "ruling": "201206", "deductibility": "1", "assets": 0, "income": 0, "revenue": 0}, {"ein": "460640748", "name": "CENTRO CRISTIANO RECONCILIANDO LA FAMILIA CON CRISTO", "city": "BRONX", "state": "NY", "zip": "10459-1408", "ntee": "X20", "ruling": "201409", "deductibility": "1", "assets": 0, "income": 0, "revenue": 0}, {"ein": "812417849", "name": "DE MANOS CON AMOR CORP", "city": "JACKSON HTS", "state": "NY", "zip": "11372-3116", "ntee": "Q33", "ruling": "201605", "deductibility": "1", "assets": 0, "income": 0, "revenue": 0}, {"ein": "822689463", "name": "DESVENDANDO CON LA BIBLIA INC", "city": "BRONX", "state": "NY", "zip": "10452-9421", "ntee": "X20", "ruling": "201807", "deductibility": "1", "assets": 0, "income": 0, "revenue": 0}, {"ein": "831101580", "name": "COMUNIDAD CON PROPOSITO INC", "city": "ELMHURST", "state": "NY", "zip": "11373-4408", "ntee": "P20", "ruling": "201810", "deductibility": "1", "assets": 0, "income": 0, "revenue": 0}, {"ein": "843007860", "name": "MANO A MANO CON LOS NINOS INC", "city": "BROOKLYN", "state": "NY", "zip": "11214-2002", "ntee": "P30", "ruling": "202002", "deductibility": "1", "assets": 1628, "income": 42700, "revenue": 42700}, {"ein": "871057535", "name": "CON TODO INC", "city": "LIDO BEACH", "state": "NY", "zip": "11561-5224", "ntee": "O55", "ruling": "202501", "deductibility": "1", "assets": 0, "income": 0, "revenue": 0}, {"ein": "874721836", "name": "UN SALTO CON DESTINO INCORPORATED", "city": "BROOKLYN", "state": "NY", "zip": "11221-4754", "ntee": "A65", "ruling": "202410", "deductibility": "1", "assets": 0, "income": 0, "revenue": 0}, {"ein": "934416713", "name": "FUNDACION DIVINA CON LA NINEZ INC", "city": "BRONX", "state": "NY", "zip": "10457-0000", "ntee": "P30", "ruling": "202402", "deductibility": "1", "assets": 0, "income": 0, "revenue": 0}, {"ein": "990701641", "name": "CAMINANDO CON JESUS MINESTERIOS CORP", "city": "NEW YORK", "state": "NY", "zip": "10039-3039", "ntee": "X20", "ruling": "202408", "deductibility": "1", "assets": 0, "income": 0, "revenue": 0}], "MOMMAS": [{"ein": "112865518", "name": "MOMMAS INC", "city": "LEVITTOWN", "state": "NY", "zip": "11756-8901", "ntee": "P400", "ruling": "198804", "deductibility": "1", "assets": 1594410, "income": 1229787, "revenue": 1190458}], "ELIMINATE": [{"ein": "113020495", "name": "COMMITTEE TO ELIMINATE MEDIA OFFENSES TO AFRICAN PEOPLE", "city": "SAINT ALBANS", "state": "NY", "zip": "11412-0340", "ntee": "A30", "ruling": "202410", "deductibility": "1", "assets": 66569, "income": 23701, "revenue": 23701}], "CHASIDIC": [{"ein": "113087314", "name": "CHASIDIC CENTER OF NASSAU COUNTY", "city": "LAWRENCE", "state": "NY", "zip": "11559-1311", "ntee": "X30Z", "ruling": "199806", "deductibility": "1", "assets": 0, "income": 0, "revenue": 0}], "RABBINIC": [{"ein": "113294533", "name": "WOMENS RABBINIC NETWORK LTD", "city": "SUFFERN", "state": "NY", "zip": "10901-4646", "ntee": "X30", "ruling": "201011", "deductibility": "1", "assets": 483195, "income": 304774, "revenue": 304774}, {"ein": "116077809", "name": "RABBINIC YESHIVA CHAIM AVROHOM", "city": "BROOKLYN", "state": "NY", "zip": "11219-3345", "ntee": "", "ruling": "196610", "deductibility": "1", "assets": 0, "income": 0, "revenue": 0}, {"ein": "270753313", "name": "INTERNATIONAL RABBINIC FELLOWSHIP", "city": "NEW YORK", "state": "NY", "zip": "10001-2402", "ntee": "X30", "ruling": "201008", "deductibility": "1", "assets": 277122, "income": 57834, "revenue": 57834}, {"ein": "510176395", "name": "TORAH INSTITUTE FOR RABBINIC STUDIES", "city": "LONG BEACH", "state": "NY", "zip": "11561-4119", "ntee": "", "ruling": "196904", "deductibility": "1", "assets": 0, "income": 0, "revenue": 0}], "CHARLOTTE": [{"ein": "113295712", "name": "CHARLOTTE & HARRY KATZ FOUNDATION INC", "city": "FLUSHING", "state": "NY", "zip": "11366-1418", "ntee": "T31J", "ruling": "199601", "deductibility": "1", "assets": 1576381, "income": 706717, "revenue": 0}, {"ein": "133057951", "name": "CHARLOTTE & JOSEPH GARDNER FOUNDATION INC", "city": "NEW YORK", "state": "NY", "zip": "10036-7221", "ntee": "", "ruling": "198103", "deductibility": "1", "assets": 274060, "income": 292132, "revenue": 0}, {"ein": "133694308", "name": "ALTER ISSAC AND CHARLOTTE GROSS IRREVOCABLE CHARITABLE TRUST", "city": "NEW YORK", "state": "NY", "zip": "10022-5707", "ntee": "", "ruling": "199303", "deductibility": "1", "assets": 885646, "income": 331946, "revenue": 0}, {"ein": "136193153", "name": "LAZARE & CHARLOTTE KAPLAN FOUNDATION INC", "city": "LIBERTY", "state": "NY", "zip": "12754-0000", "ntee": "", "ruling": "196601", "deductibility": "1", "assets": 13751, "income": 4011, "revenue": 0}, {"ein": "137154197", "name": "BARRY FRIEDBERG & CHARLOTTE MOSS FAM FOUNDATION", "city": "NEW YORK", "state": "NY", "zip": "10021-5011", "ntee": "T90", "ruling": "199912", "deductibility": "1", "assets": 4669200, "income": 1702800, "revenue": 0}, {"ein": "150545157", "name": "CHARLOTTE VALLEY CEMETERY ASSOCIATION", "city": "ONEONTA", "state": "NY", "zip": "13820-3240", "ntee": "", "ruling": "195106", "deductibility": "1", "assets": 0, "income": 0, "revenue": 0}, {"ein": "160996180", "name": "CHARLOTTE SOCIAL CLUB INC", "city": "ROCHESTER", "state": "NY", "zip": "14612-4739", "ntee": "", "ruling": "197311", "deductibility": "2", "assets": 98837, "income": 76803, "revenue": 41663}, {"ein": "161056555", "name": "CHARLOTTE VALLEY PRESBYTERIAN CHURCH", "city": "DAVENPORT", "state": "NY", "zip": "13750-0184", "ntee": "", "ruling": "000000", "deductibility": "0", "assets": 0, "income": 0, "revenue": 0}, {"ein": "161585549", "name": "CHARLOTTE VALLEY PRESBYTERIAN CHURCH", "city": "DAVENPORT", "state": "NY", "zip": "13750-0000", "ntee": "", "ruling": "196401", "deductibility": "0", "assets": 0, "income": 0, "revenue": 0}, {"ein": "161603582", "name": "CHARLOTTE YOUTH ATHLETIC ASSOCIATION", "city": "ROCHESTER", "state": "NY", "zip": "14612-0524", "ntee": "N63", "ruling": "200206", "deductibility": "1", "assets": 1, "income": 37253, "revenue": 31958}, {"ein": "161604404", "name": "CHARLOTTE COMMUNITY DEVELOPMENT CORPORATION", "city": "ROCHESTER", "state": "NY", "zip": "14612-0664", "ntee": "S05", "ruling": "200509", "deductibility": "1", "assets": 0, "income": 0, "revenue": 0}, {"ein": "222495781", "name": "CHARLOTTE-GENESEE LIGHTHOUSE HISTORICAL SOCIETY", "city": "ROCHESTER", "state": "NY", "zip": "14612-4710", "ntee": "", "ruling": "198404", "deductibility": "1", "assets": 193503, "income": 42243, "revenue": 38763}, {"ein": "237215233", "name": "CHARLOTTE CUNNEEN HACKET CHARITABLE TR", "city": "NEW YORK", "state": "NY", "zip": "10001-2189", "ntee": "", "ruling": "197206", "deductibility": "1", "assets": 1785096, "income": 193835, "revenue": 0}, {"ein": "256423660", "name": "CHARLOTTE L ROHRBACH TR UA", "city": "BUFFALO", "state": "NY", "zip": "14240-1504", "ntee": "X110", "ruling": "200110", "deductibility": "1", "assets": 400099, "income": 128284, "revenue": 0}, {"ein": "331595993", "name": "CHARLOTTE VALLEY BOOSTER", "city": "EAST MEREDITH", "state": "NY", "zip": "13757-1221", "ntee": "O50", "ruling": "202501", "deductibility": "1", "assets": 0, "income": 0, "revenue": 0}, {"ein": "561941509", "name": "CHARLOTTE TABERNACLE INC", "city": "BROOKLYN", "state": "NY", "zip": "11201-5111", "ntee": "X21Z", "ruling": "199603", "deductibility": "1", "assets": 0, "income": 0, "revenue": 0}, {"ein": "811309269", "name": "CHARLOTTE HOUSE INC", "city": "NORTH JAVA", "state": "NY", "zip": "14113-0123", "ntee": "E91", "ruling": "201609", "deductibility": "1", "assets": 401908, "income": 204814, "revenue": 192705}, {"ein": "813815591", "name": "CHARLOTTE COMMUNITY ASSOCIATION 23RD WARD INC", "city": "ROCHESTER", "state": "NY", "zip": "14612-0768", "ntee": "S20", "ruling": "201702", "deductibility": "1", "assets": 0, "income": 0, "revenue": 0}, {"ein": "816277730", "name": "ANTHONY FRANKLIN DEMARCO AND CHARLOTTE DEMARCO FOUNDATION", "city": "CANAAN", "state": "NY", "zip": "12029-0061", "ntee": "T50", "ruling": "201609", "deductibility": "1", "assets": 118777, "income": 30187, "revenue": 0}, {"ein": "870778970", "name": "DAVID & CHARLOTTE ECKERT FAMILY FOUNDATION", "city": "NEW YORK", "state": "NY", "zip": "10055-0002", "ntee": "T22", "ruling": "200609", "deductibility": "1", "assets": 682894, "income": 444896, "revenue": 0}, {"ein": "886123071", "name": "CHARLOTTE STAFFORD FBO TOWN OF OXFORD-STAFFORD HOUSE", "city": "NORWICH", "state": "NY", "zip": "13815-0000", "ntee": "T30", "ruling": "202403", "deductibility": "1", "assets": 379835, "income": 36073, "revenue": 20361}], "GARABED": [{"ein": "113347450", "name": "GARABED & AHAVNI KOUZOUJIAN BENEVOLENT FOUNDATION INC", "city": "HUNTINGTON", "state": "NY", "zip": "11743-4960", "ntee": "J00Z", "ruling": "199705", "deductibility": "1", "assets": 33614, "income": 2731, "revenue": 0}], "HOMEOWNERSHIP": [{"ein": "113440267", "name": "FAC HOMEOWNERSHIP HOUSING DEVELOPMENT FUND CORPORATION", "city": "BROOKLYN", "state": "NY", "zip": "11217-4596", "ntee": "L25", "ruling": "200002", "deductibility": "1", "assets": 503916, "income": 154553, "revenue": 154553}, {"ein": "132611472", "name": "URBAN HOMEOWNERSHIP CORP", "city": "NEW YORK", "state": "NY", "zip": "10018-0000", "ntee": "", "ruling": "196808", "deductibility": "1", "assets": 1867403, "income": 2230263, "revenue": 0}, {"ein": "201230579", "name": "TOUHEY HOMEOWNERSHIP FOUNDATION INC", "city": "ALBANY", "state": "NY", "zip": "12205-0000", "ntee": "L25", "ruling": "200502", "deductibility": "1", "assets": 0, "income": 0, "revenue": 0}, {"ein": "464616266", "name": "NYS COALITION FOR EXCELLENCE IN HOMEOWNERSHIP EDUCATION", "city": "HAUPPAUGE", "state": "NY", "zip": "11788-3736", "ntee": "B90", "ruling": "201410", "deductibility": "1", "assets": 0, "income": 0, "revenue": 0}, {"ein": "854283718", "name": "STEVENSON HOMEOWNERSHIP HOUSING DEVELOPMENT FUND CORPORATION", "city": "NEW YORK", "state": "NY", "zip": "10038-3101", "ntee": "L21", "ruling": "202211", "deductibility": "1", "assets": 1, "income": 0, "revenue": 0}, {"ein": "934844079", "name": "KS HOMEOWNERSHIP INC", "city": "SPRING VALLEY", "state": "NY", "zip": "10977-8905", "ntee": "L20", "ruling": "202404", "deductibility": "1", "assets": 1, "income": 0, "revenue": 0}], "CHOCHMAS": [{"ein": "113538531", "name": "CONGREGATION CHOCHMAS SHLOME", "city": "BROOKLYN", "state": "NY", "zip": "11204-1531", "ntee": "X30", "ruling": "200008", "deductibility": "1", "assets": 0, "income": 0, "revenue": 0}, {"ein": "352505846", "name": "AMERICAN FRIENDS OF CHOCHMAS HATORAH INC", "city": "BROOKLYN", "state": "NY", "zip": "11204-1226", "ntee": "X30", "ruling": "201411", "deductibility": "1", "assets": 26095, "income": 371259, "revenue": 371259}, {"ein": "562461100", "name": "TALMUD TORAH CHOCHMAS SHLOMO", "city": "NEW YORK", "state": "NY", "zip": "10025-5204", "ntee": "X12", "ruling": "200505", "deductibility": "1", "assets": 32735, "income": 723103, "revenue": 723103}, {"ein": "824323763", "name": "CONG CHOCHMAS SHLOMO", "city": "BROOKLYN", "state": "NY", "zip": "11204-1404", "ntee": "X30", "ruling": "201903", "deductibility": "1", "assets": 0, "income": 0, "revenue": 0}, {"ein": "852148141", "name": "CHOCHMAS LEV", "city": "BROOKLYN", "state": "NY", "zip": "11206-8023", "ntee": "T30", "ruling": "202010", "deductibility": "1", "assets": 38067, "income": 454677, "revenue": 454677}], "ABC": [{"ein": "113638950", "name": "ABC MINISTRY & COUNSELING CENTER INC", "city": "BROOKLYN", "state": "NY", "zip": "11236-0000", "ntee": "B90", "ruling": "200401", "deductibility": "1", "assets": 415902, "income": 0, "revenue": 0}, {"ein": "132739185", "name": "ABC OF METROPOLITAN NEW YORK", "city": "NEW YORK", "state": "NY", "zip": "10115-0091", "ntee": "", "ruling": "195504", "deductibility": "1", "assets": 0, "income": 0, "revenue": 0}, {"ein": "133171739", "name": "ABC NO RIO INC", "city": "NEW YORK", "state": "NY", "zip": "10002-3387", "ntee": "", "ruling": "199202", "deductibility": "1", "assets": 23845598, "income": 84737, "revenue": 84737}, {"ein": "134092579", "name": "ABC CHARITABLE FOUNDATION", "city": "NEW YORK", "state": "NY", "zip": "10025-8436", "ntee": "T20", "ruling": "200001", "deductibility": "1", "assets": 1131521, "income": 133377, "revenue": 0}, {"ein": "160743918", "name": "ABC OF THE ROCHESTER GENESEE REGION", "city": "ROCHESTER", "state": "NY", "zip": "14626-1133", "ntee": "", "ruling": "195504", "deductibility": "1", "assets": 0, "income": 0, "revenue": 0}, {"ein": "160775278", "name": "ABC OF THE NIAGARA FRONTIER", "city": "BUFFALO", "state": "NY", "zip": "14209-2401", "ntee": "", "ruling": "195504", "deductibility": "1", "assets": 0, "income": 0, "revenue": 0}, {"ein": "161033502", "name": "FAYETTEVILLE-MANLIUS ABC PROGRAM INC", "city": "MANLIUS", "state": "NY", "zip": "13104-1910", "ntee": "B25K", "ruling": "197408", "deductibility": "1", "assets": 416342, "income": 54314, "revenue": 54314}, {"ein": "237296910", "name": "CLINTON ABC PROGRAM INC", "city": "CLINTON", "state": "NY", "zip": "13323-0139", "ntee": "A99Z", "ruling": "197306", "deductibility": "1", "assets": 98233, "income": 32755, "revenue": 25168}, {"ein": "454579637", "name": "ABC STREETS NEIGHBORHOOD ASSOCIATION INC", "city": "ROCHESTER", "state": "NY", "zip": "14610-1505", "ntee": "S22", "ruling": "201403", "deductibility": "2", "assets": 0, "income": 0, "revenue": 0}, {"ein": "462487264", "name": "HAITI ABC FOUNDATION INC", "city": "NANUET", "state": "NY", "zip": "10954-5959", "ntee": "Q33", "ruling": "201712", "deductibility": "1", "assets": 0, "income": 0, "revenue": 0}, {"ein": "464048258", "name": "ABC BULLYFREE INC", "city": "MANHASSET", "state": "NY", "zip": "11030-2012", "ntee": "Z99", "ruling": "201409", "deductibility": "1", "assets": 0, "income": 0, "revenue": 0}, {"ein": "811255927", "name": "ABC CAYUGA INC", "city": "AUBURN", "state": "NY", "zip": "13021-2699", "ntee": "T30", "ruling": "201604", "deductibility": "1", "assets": 2538797, "income": 392640, "revenue": 392640}, {"ein": "841464423", "name": "ABC FOUNDATION", "city": "RHINEBECK", "state": "NY", "zip": "12572-2653", "ntee": "P20", "ruling": "199902", "deductibility": "1", "assets": 396820, "income": 110150, "revenue": 0}, {"ein": "872990369", "name": "IVY LEAGUE ABC", "city": "BROOKLYN", "state": "NY", "zip": "11239-1309", "ntee": "P40", "ruling": "202304", "deductibility": "1", "assets": 0, "income": 0, "revenue": 0}, {"ein": "881396406", "name": "ABC WILDLIFE REHAB INC", "city": "HEMLOCK", "state": "NY", "zip": "14466-9670", "ntee": "D20", "ruling": "202205", "deductibility": "1", "assets": 0, "income": 0, "revenue": 0}, {"ein": "886792687", "name": "ABC INC EMPIRE ST CH APPRENTICE- SHIP AND TRIANING TRUST FUND", "city": "EAST SYRACUSE", "state": "NY", "zip": "13057-1115", "ntee": "", "ruling": "202405", "deductibility": "0", "assets": 220694, "income": 376915, "revenue": 376915}, {"ein": "922323056", "name": "ABC ANIMAL RESCUE", "city": "BALLSTON SPA", "state": "NY", "zip": "12020-2630", "ntee": "D11", "ruling": "202306", "deductibility": "1", "assets": 0, "income": 0, "revenue": 0}, {"ein": "923025309", "name": "ABC CHILDREN NP INC", "city": "QUEENS", "state": "NY", "zip": "11368-5063", "ntee": "B21", "ruling": "202304", "deductibility": "1", "assets": 0, "income": 0, "revenue": 0}], "HATIKVA": [{"ein": "113667451", "name": "HATIKVA THE HOPE OF ZION MINISTRIES INC", "city": "E PATCHOGUE", "state": "NY", "zip": "11772-4223", "ntee": "X30", "ruling": "200309", "deductibility": "1", "assets": 0, "income": 0, "revenue": 0}], "STAMER": [{"ein": "116041806", "name": "FRANK R & EMILIE E STAMER FOUNDATION INC", "city": "NEW YORK", "state": "NY", "zip": "10025-0000", "ntee": "", "ruling": "196510", "deductibility": "1", "assets": 262691, "income": 49362, "revenue": 0}], "SEARS": [{"ein": "117040015", "name": "SEARS FAMILY FOUNDATION", "city": "LAKE PLACID", "state": "NY", "zip": "12946-5909", "ntee": "", "ruling": "198705", "deductibility": "1", "assets": 2434450, "income": 508621, "revenue": 0}, {"ein": "137039118", "name": "SEARS FAMILY FOUNDATION TR OF ROME NEW YORK", "city": "ROME", "state": "NY", "zip": "13440-2430", "ntee": "T21Z", "ruling": "199507", "deductibility": "1", "assets": 1773688, "income": 431526, "revenue": 0}], "DISTRIBUTION": [{"ein": "131656634", "name": "AMERICAN JEWISH JOINT DISTRIBUTION COMMITTEE INC", "city": "NEW YORK", "state": "NY", "zip": "10017-5833", "ntee": "Q330", "ruling": "193304", "deductibility": "1", "assets": 794620255, "income": 455102851, "revenue": 409844302}, {"ein": "161423019", "name": "NATIONAL FUEL GAS DISTRIBUTION-NEW YORK DIVISION VOLUNTARY EMPLOYEES", "city": "WILLIAMSVILLE", "state": "NY", "zip": "14221-5855", "ntee": "Y43", "ruling": "199309", "deductibility": "2", "assets": 175543828, "income": 11376915, "revenue": 11376915}, {"ein": "161438193", "name": "NATIONAL FUEL GAS DISTRIBUTION CORP -NY DIV VOL EMP BEN ASSOC FOR NON-", "city": "WILLIAMSVILLE", "state": "NY", "zip": "14221-5855", "ntee": "Y43", "ruling": "200506", "deductibility": "2", "assets": 43213825, "income": 2921738, "revenue": 2921738}, {"ein": "161438194", "name": "NATIONAL FUEL GAS DISTRIBUTION CORP PENN DIV VOL EMP BENE ASSOC FOR", "city": "WILLIAMSVILLE", "state": "NY", "zip": "14221-5855", "ntee": "Y43", "ruling": "200506", "deductibility": "2", "assets": 23358903, "income": 1487970, "revenue": 1487970}, {"ein": "161440169", "name": "NATIONAL FUEL GAS DISTRIBUTION CORP PENN DIVISION VEBA FOR C B E E U", "city": "WILLIAMSVILLE", "state": "NY", "zip": "14221-5855", "ntee": "Y43", "ruling": "199309", "deductibility": "2", "assets": 56441591, "income": 3616874, "revenue": 3616874}, {"ein": "521763569", "name": "CURTAIN UP DISTRIBUTION INC", "city": "BROOKLYN", "state": "NY", "zip": "11215-1783", "ntee": "A67Z", "ruling": "199507", "deductibility": "1", "assets": 0, "income": 0, "revenue": 0}, {"ein": "821961414", "name": "SPIRIT AND TRUTH DISTRIBUTION CENTER", "city": "NATURAL BRIDGE", "state": "NY", "zip": "13665-0000", "ntee": "P60", "ruling": "201708", "deductibility": "1", "assets": 0, "income": 0, "revenue": 0}], "TOLSTOY": [{"ein": "131661609", "name": "TOLSTOY FOUNDATION INC", "city": "VLY COTTAGE", "state": "NY", "zip": "10989-2339", "ntee": "", "ruling": "193911", "deductibility": "1", "assets": 1550143, "income": 528059, "revenue": 528059}, {"ein": "132590983", "name": "TOLSTOY FOUNDATION NURSING HOME COMPANY INC", "city": "VLY COTTAGE", "state": "NY", "zip": "10989-2339", "ntee": "", "ruling": "196710", "deductibility": "1", "assets": 2686073, "income": 11198763, "revenue": 11198763}], "ANTHROPOLOGICAL": [{"ein": "131813827", "name": "WENNER-GREN FOUNDATION FOR ANTHROPOLOGICAL RESEARCH INC", "city": "NEW YORK", "state": "NY", "zip": "10017-9136", "ntee": "", "ruling": "194107", "deductibility": "1", "assets": 204451756, "income": 20898202, "revenue": 0}, {"ein": "222377666", "name": "NORTHEASTERN ANTHROPOLOGICAL ASSOC NEAA", "city": "POTSDAM", "state": "NY", "zip": "13676-2200", "ntee": "A80Z", "ruling": "199508", "deductibility": "1", "assets": 17628, "income": 19, "revenue": 0}, {"ein": "320078139", "name": "COMITAS INSTITUTE FOR ANTHROPOLOGICAL STUDY INC", "city": "NEW YORK", "state": "NY", "zip": "10027-6605", "ntee": "V05", "ruling": "200312", "deductibility": "1", "assets": 1773232, "income": 764086, "revenue": 52050}], "OBSERVANCE": [{"ein": "131955838", "name": "SABBATH OBSERVANCE COUNCIL INC", "city": "NEW YORK", "state": "NY", "zip": "10018-7911", "ntee": "", "ruling": "194902", "deductibility": "1", "assets": 0, "income": 0, "revenue": 0}, {"ein": "237159966", "name": "COMMITTEE FOR THE FURTHERANCE OF TORAH OBSERVANCE", "city": "BROOKLYN", "state": "NY", "zip": "11213-5322", "ntee": "", "ruling": "197201", "deductibility": "1", "assets": 0, "income": 0, "revenue": 0}, {"ein": "456634258", "name": "FOUNDATION FOR THE ADVANCEMENT OF RELIGIOUS OBSERVANCE AND EDUCATION", "city": "BROOKLYN", "state": "NY", "zip": "11218-0000", "ntee": "T21", "ruling": "201203", "deductibility": "1", "assets": 822509, "income": 296915, "revenue": 0}], "FIREMAN": [{"ein": "132828665", "name": "STATIONARY ENGINEERS FIREMAN MNTNCE & BLDG SRVC UNION LOC 670 WLFR FND", "city": "NEW YORK", "state": "NY", "zip": "10007-1901", "ntee": "E81Z", "ruling": "197804", "deductibility": "2", "assets": 26938525, "income": 38970488, "revenue": 24391413}, {"ein": "454164419", "name": "ONEONTA FIREMAN INCORPORATED", "city": "ONEONTA", "state": "NY", "zip": "13820-2808", "ntee": "M99", "ruling": "201210", "deductibility": "2", "assets": 0, "income": 0, "revenue": 0}, {"ein": "812068549", "name": "VOLUNTEER AND EXEMPT FIREMAN BENEVOLENT ASSOCIATION OF VALHALLA", "city": "VALHALLA", "state": "NY", "zip": "10595-2003", "ntee": "Y44", "ruling": "201607", "deductibility": "2", "assets": 1056339, "income": 160324, "revenue": 103376}], "SENATE": [{"ein": "132842656", "name": "STUDENT SENATE ASSOCIATION OF PURCHASE INC-STATE U OF NY", "city": "PURCHASE", "state": "NY", "zip": "10577-1402", "ntee": "", "ruling": "197811", "deductibility": "1", "assets": 790520, "income": 740609, "revenue": 740609}, {"ein": "133267163", "name": "SENATE HOOK & LADDER CO NO 1 INC", "city": "OSSINING", "state": "NY", "zip": "10562-4609", "ntee": "M24", "ruling": "201908", "deductibility": "1", "assets": 0, "income": 0, "revenue": 0}, {"ein": "133351437", "name": "SENATE RESIDENCE OWNERS INC", "city": "NEW YORK", "state": "NY", "zip": "10025-2505", "ntee": "", "ruling": "198702", "deductibility": "1", "assets": 0, "income": 0, "revenue": 0}, {"ein": "141743827", "name": "FRIENDS OF SENATE HOUSE", "city": "KINGSTON", "state": "NY", "zip": "12402-3503", "ntee": "A8OZ", "ruling": "199702", "deductibility": "1", "assets": 0, "income": 0, "revenue": 0}, {"ein": "161088555", "name": "STUDENT SENATE OF THE STATE UNIV OF NY AGRICULTURA & TECH ET AL", "city": "ALFRED", "state": "NY", "zip": "14802-1153", "ntee": "", "ruling": "198712", "deductibility": "1", "assets": 629087, "income": 730030, "revenue": 730030}, {"ein": "223284046", "name": "SENATE PRESIDENTS FORUM", "city": "HASTINGS ON HUDSON", "state": "NY", "zip": "10706-1710", "ntee": "A20", "ruling": "199411", "deductibility": "1", "assets": 1451570, "income": 1500842, "revenue": 1500842}, {"ein": "320333736", "name": "SENATE OF THE ALBERT EINSTEIN COLLEGE OF MEDICINE", "city": "BRONX", "state": "NY", "zip": "10461-1900", "ntee": "B03", "ruling": "201511", "deductibility": "1", "assets": 0, "income": 0, "revenue": 0}, {"ein": "452940053", "name": "STUDENT SENATE OF THE STATE UNIVERSITY OF NEW YORK AT DELHI", "city": "DELHI", "state": "NY", "zip": "13753-0000", "ntee": "B80", "ruling": "201306", "deductibility": "1", "assets": 541181, "income": 632406, "revenue": 632406}], "POCANTICO": [{"ein": "132882275", "name": "POCANTICO HILLS RESIDENTS ASSOCIATION", "city": "SLEEPY HOLLOW", "state": "NY", "zip": "10591-1206", "ntee": "C50", "ruling": "201203", "deductibility": "1", "assets": 0, "income": 0, "revenue": 0}, {"ein": "133504095", "name": "POCANTICO HILLS TEACHERS ASSOC BENEFIT FUND", "city": "PEARL RIVER", "state": "NY", "zip": "10965-0930", "ntee": "", "ruling": "199004", "deductibility": "2", "assets": 116508, "income": 86554, "revenue": 86554}, {"ein": "133818311", "name": "POCANTICO HILLS SCHOOL FOUNDATION INC", "city": "SLEEPY HOLLOW", "state": "NY", "zip": "10591-1215", "ntee": "B90Z", "ruling": "199511", "deductibility": "1", "assets": 0, "income": 0, "revenue": 0}, {"ein": "136132498", "name": "JOHN D ROCKEFELLER JR MEMORIAL SCHOLARSHIP FUND OF POCANTICO HILL", "city": "TARRYTOWN", "state": "NY", "zip": "10591-1215", "ntee": "", "ruling": "196907", "deductibility": "1", "assets": 0, "income": 0, "revenue": 0}, {"ein": "452445614", "name": "POCANTICO RIVER WATERSHED CONSERVANCY INC", "city": "WHITE PLAINS", "state": "NY", "zip": "10603-3710", "ntee": "C32", "ruling": "201204", "deductibility": "1", "assets": 0, "income": 0, "revenue": 0}], "RING": [{"ein": "132903944", "name": "DANCE RING", "city": "NEW YORK", "state": "NY", "zip": "10003-7504", "ntee": "", "ruling": "197902", "deductibility": "1", "assets": 170335, "income": 889931, "revenue": 887569}, {"ein": "133015418", "name": "RING FOUNDATION INC", "city": "NEW YORK", "state": "NY", "zip": "10022-7023", "ntee": "", "ruling": "000000", "deductibility": "1", "assets": 5286556, "income": 288456, "revenue": 0}, {"ein": "134014418", "name": "CIRCLE LODGE-CAMP KINDER RING OF THE WORKMENS CIRCLE INCORPORATED", "city": "HOPEWELL JCT", "state": "NY", "zip": "12533-5428", "ntee": "A230", "ruling": "199903", "deductibility": "1", "assets": 6988515, "income": 5646052, "revenue": 5615236}, {"ein": "136178558", "name": "THE WORKMENS CIRCLE ARBETER RING INCORPORATED", "city": "NEW YORK", "state": "NY", "zip": "10018-5129", "ntee": "A230", "ruling": "196506", "deductibility": "1", "assets": 35402116, "income": 23311432, "revenue": 3390094}, {"ein": "823600481", "name": "THE RING FUND INC", "city": "NEW YORK", "state": "NY", "zip": "10022-7023", "ntee": "T22", "ruling": "201903", "deductibility": "1", "assets": 2694685, "income": 437298, "revenue": 0}, {"ein": "844618694", "name": "RING OF GHOSTI", "city": "DELMAR", "state": "NY", "zip": "12054-0033", "ntee": "X99", "ruling": "202007", "deductibility": "1", "assets": 0, "income": 0, "revenue": 0}, {"ein": "854137087", "name": "RING OF KEYS COALITION INC", "city": "NEW YORK", "state": "NY", "zip": "10018-0001", "ntee": "", "ruling": "202109", "deductibility": "1", "assets": 0, "income": 0, "revenue": 0}, {"ein": "923363283", "name": "RING OF HOPE CORPORATION", "city": "YONKERS", "state": "NY", "zip": "10701-7056", "ntee": "Q21", "ruling": "202304", "deductibility": "1", "assets": 0, "income": 0, "revenue": 0}], "LOONEY": [{"ein": "132937671", "name": "CHARLES LOONEY MEMORIAL FUND", "city": "NEW YORK", "state": "NY", "zip": "10010-4102", "ntee": "", "ruling": "197805", "deductibility": "1", "assets": 292709, "income": 17857, "revenue": 0}], "DRIBNITZ": [{"ein": "133165711", "name": "CHAIM VCHESED DRIBNITZ", "city": "MONSEY", "state": "NY", "zip": "10952-4018", "ntee": "", "ruling": "198308", "deductibility": "1", "assets": 0, "income": 0, "revenue": 0}], "HOGENKAMP": [{"ein": "133179408", "name": "MARTINUS HOGENKAMP CEMETERY", "city": "NEW CITY", "state": "NY", "zip": "10956-3112", "ntee": "Y50", "ruling": "201404", "deductibility": "2", "assets": 0, "income": 0, "revenue": 0}, {"ein": "831763231", "name": "HOGENKAMP ROTH FOUNDATION", "city": "HAMBURG", "state": "NY", "zip": "14075-5860", "ntee": "E60", "ruling": "201809", "deductibility": "1", "assets": 0, "income": 0, "revenue": 0}], "HELICON": [{"ein": "133228528", "name": "THE HELICON FOUNDATION INC", "city": "CORTLANDT MNR", "state": "NY", "zip": "10567-6613", "ntee": "", "ruling": "198501", "deductibility": "1", "assets": 273154, "income": 282911, "revenue": 134804}, {"ein": "134135555", "name": "HELICON INC", "city": "ELMHURST", "state": "NY", "zip": "11373-4117", "ntee": "B60", "ruling": "200011", "deductibility": "1", "assets": 0, "income": 0, "revenue": 0}], "ORTHDOX": [{"ein": "133517245", "name": "ST GREGORIOS ORTHDOX CHURCH OF INDIA", "city": "BRONX", "state": "NY", "zip": "10471-0178", "ntee": "", "ruling": "198911", "deductibility": "1", "assets": 0, "income": 0, "revenue": 0}], "NARRAGANSETT": [{"ein": "133685749", "name": "NARRAGANSETT HOUSING DEVELOPMENT FUND CORP", "city": "NEW YORK", "state": "NY", "zip": "10001-2812", "ntee": "L200", "ruling": "199301", "deductibility": "1", "assets": 9122703, "income": 2645034, "revenue": 2521649}, {"ein": "510462667", "name": "PINES AT NARRAGANSETT HOUSING DEVELOPMENT FUND COMPANY INC", "city": "CROTON HDSN", "state": "NY", "zip": "10520-1169", "ntee": "L11", "ruling": "201408", "deductibility": "1", "assets": 1628649, "income": 1134877, "revenue": 1134877}], "YEDEI": [{"ein": "133728771", "name": "YEDEI CHESED INC", "city": "CHESTNUT RDG", "state": "NY", "zip": "10977-5837", "ntee": "P80", "ruling": "199911", "deductibility": "1", "assets": 45331277, "income": 84411700, "revenue": 84411700}], "CHIL": [{"ein": "133885113", "name": "ST JOSEPHS SCHOOL FOR THE DEAF CHIL DRENS FUND", "city": "BRONX", "state": "NY", "zip": "10465-1899", "ntee": "", "ruling": "194603", "deductibility": "1", "assets": 604363, "income": 160556, "revenue": 39539}], "GRAYS": [{"ein": "133897846", "name": "GRAYS GREEN COMMUNITY CLUB OF AMERICA INC", "city": "BRONX", "state": "NY", "zip": "10456-7219", "ntee": "S80", "ruling": "202008", "deductibility": "1", "assets": 0, "income": 0, "revenue": 0}, {"ein": "272181325", "name": "NEW YORK GRAYS BASEBALL CLUB INC", "city": "NEW YORK", "state": "NY", "zip": "10024-1505", "ntee": "N63", "ruling": "201408", "deductibility": "1", "assets": 0, "income": 0, "revenue": 0}, {"ein": "823787321", "name": "GRAYS ANGEL HOUSE FOUNDATION INC", "city": "AUBURN", "state": "NY", "zip": "13021-9269", "ntee": "L21", "ruling": "201808", "deductibility": "1", "assets": 0, "income": 0, "revenue": 0}], "ROWLEY": [{"ein": "133915116", "name": "MARJORY S ROWLEY TRUST UW FBO ORANGE COUNTY CEREBRAL PALSY ASSN", "city": "GOSHEN", "state": "NY", "zip": "10924-1804", "ntee": "", "ruling": "199704", "deductibility": "1", "assets": 114285, "income": 50573, "revenue": 0}, {"ein": "834018429", "name": "BRIE ROWLEY FOUNDATION", "city": "BAY SHORE", "state": "NY", "zip": "11706-4729", "ntee": "B80", "ruling": "201905", "deductibility": "1", "assets": 0, "income": 0, "revenue": 0}], "OKINAWA": [{"ein": "133981668", "name": "OKINAWA AMERICAN ASSOCIATION OF NEW YORK INC", "city": "NEW YORK", "state": "NY", "zip": "10019-1574", "ntee": "A23", "ruling": "201805", "deductibility": "1", "assets": 23387, "income": 3107, "revenue": 0}, {"ein": "831791477", "name": "OKINAWA INSTITUTE OF SCIENCE AND TECHNOLOGY FOUNDATION INC", "city": "IRVINGTON", "state": "NY", "zip": "10533-1573", "ntee": "Q11", "ruling": "201907", "deductibility": "1", "assets": 461218, "income": 195547, "revenue": 195547}], "SONNENFELDT": [{"ein": "133997780", "name": "GOLDMAN-SONNENFELDT FOUNDATION INC", "city": "NEW YORK", "state": "NY", "zip": "10018-3709", "ntee": "Q117", "ruling": "200006", "deductibility": "1", "assets": 27195536, "income": 20498389, "revenue": 0}], "ALI": [{"ein": "134054675", "name": "MASJID ALI INC", "city": "BRONX", "state": "NY", "zip": "10458-7419", "ntee": "X40", "ruling": "200106", "deductibility": "1", "assets": 0, "income": 0, "revenue": 0}, {"ein": "161450136", "name": "IMAM ALI INSTITUTE INC", "city": "MEDINA", "state": "NY", "zip": "14103-1409", "ntee": "X40Z", "ruling": "199511", "deductibility": "1", "assets": 0, "income": 0, "revenue": 0}, {"ein": "223492215", "name": "ALI-PASHA MOSQUE", "city": "WURTSBORO", "state": "NY", "zip": "12790-0000", "ntee": "X99Z", "ruling": "199805", "deductibility": "1", "assets": 0, "income": 0, "revenue": 0}, {"ein": "300104507", "name": "ALI FORNEY CENTER", "city": "NEW YORK", "state": "NY", "zip": "10018-9500", "ntee": "L41", "ruling": "200212", "deductibility": "1", "assets": 21740660, "income": 26816843, "revenue": 25563928}, {"ein": "455238757", "name": "NORIN ALI MOHYUDDIN HELPING HAND", "city": "ROSLYN", "state": "NY", "zip": "11576-2908", "ntee": "S20", "ruling": "201308", "deductibility": "1", "assets": 15079, "income": 30305, "revenue": 30305}, {"ein": "815369833", "name": "ALI HASNAIN FOUNDATION INC", "city": "WESTBURY", "state": "NY", "zip": "11590-5315", "ntee": "T12", "ruling": "201808", "deductibility": "1", "assets": 5567, "income": 5010, "revenue": 0}, {"ein": "861854950", "name": "ALI SHIFA FOUNDATION INC", "city": "BALDWIN", "state": "NY", "zip": "11510-5100", "ntee": "P12", "ruling": "202111", "deductibility": "1", "assets": 2559, "income": 459, "revenue": 0}, {"ein": "874118829", "name": "BARKAT ALI FOUNDATION INC", "city": "JERICHO", "state": "NY", "zip": "11753-1615", "ntee": "B12", "ruling": "202202", "deductibility": "1", "assets": 20425, "income": 1, "revenue": 0}, {"ein": "883769549", "name": "F ALI FOUNDATION INC", "city": "BRONX", "state": "NY", "zip": "10451-4795", "ntee": "B82", "ruling": "202211", "deductibility": "1", "assets": 0, "income": 0, "revenue": 0}], "YASLA": [{"ein": "134132268", "name": "CONGREGATION YASLA", "city": "MONSEY", "state": "NY", "zip": "10952-3055", "ntee": "X30", "ruling": "200010", "deductibility": "1", "assets": 0, "income": 0, "revenue": 0}], "MOUNTED": [{"ein": "134139927", "name": "NYC PARKS MOUNTED AUXILLARY UNIT INC", "city": "NEW YORK", "state": "NY", "zip": "10028-6476", "ntee": "W99", "ruling": "202201", "deductibility": "1", "assets": 70870, "income": 12078, "revenue": 12078}, {"ein": "473761069", "name": "CHAUTAUQUA CO SHERIFFS OFFICE MOUNTED DIV ASSN INC", "city": "MAYVILLE", "state": "NY", "zip": "14757-9752", "ntee": "I60", "ruling": "201505", "deductibility": "1", "assets": 0, "income": 0, "revenue": 0}, {"ein": "900508628", "name": "MOUNTED POLICE ASSOCIATION OF GREATER NEW YORK", "city": "NEW YORK", "state": "NY", "zip": "10116-8639", "ntee": "N03", "ruling": "201503", "deductibility": "2", "assets": 0, "income": 0, "revenue": 0}], "UHAB": [{"ein": "134188404", "name": "UHAB HOUSING DEVELOPMENT FUND CORPORATION", "city": "NEW YORK", "state": "NY", "zip": "10005-3904", "ntee": "L112", "ruling": "200305", "deductibility": "1", "assets": 7034152, "income": 438510, "revenue": 438510}], "15B": [{"ein": "135159024", "name": "INTERNATIONAL UNION OF OPERATING ENGINEERS LOCAL 15 15A 15B 15C 15D", "city": "LONG IS CITY", "state": "NY", "zip": "11101-5105", "ntee": "", "ruling": "194408", "deductibility": "2", "assets": 88276140, "income": 61773382, "revenue": 25631489}], "LOPIN": [{"ein": "136275108", "name": "SAM & ANNA LOPIN FOUNDATION INC", "city": "NEW YORK", "state": "NY", "zip": "10017-1815", "ntee": "", "ruling": "196808", "deductibility": "1", "assets": 225000, "income": 800, "revenue": 0}], "ELISE": [{"ein": "136900303", "name": "ELISE & ANDREW BROWNSTEIN CHAR TR", "city": "NEW YORK", "state": "NY", "zip": "10019-0000", "ntee": "", "ruling": "198803", "deductibility": "1", "assets": 1058881, "income": 643736, "revenue": 0}, {"ein": "316348468", "name": "ELISE MINDY LYONS FOUNDATION TR", "city": "NEW YORK", "state": "NY", "zip": "10003-6119", "ntee": "", "ruling": "198812", "deductibility": "1", "assets": 27531, "income": 4148, "revenue": 0}, {"ein": "815041773", "name": "MARY ELISE MILLUS FOUNDATION INC", "city": "BELLEROSE VLG", "state": "NY", "zip": "11001-4153", "ntee": "T12", "ruling": "202105", "deductibility": "1", "assets": 0, "income": 0, "revenue": 0}, {"ein": "884308523", "name": "W ELISE FOUNDATION INC", "city": "WHITE PLAINS", "state": "NY", "zip": "10603-1113", "ntee": "B82", "ruling": "202301", "deductibility": "1", "assets": 0, "income": 0, "revenue": 0}], "KINGSONS": [{"ein": "141725671", "name": "KINGSONS EDUCATIONAL & AVIATION RESEARCH FOUNDATION", "city": "TIVOLI", "state": "NY", "zip": "12583-5508", "ntee": "", "ruling": "199303", "deductibility": "1", "assets": 1671, "income": 178, "revenue": 0}], "ENCOUNTERS": [{"ein": "141783014", "name": "CLOSE ENCOUNTERS WITH MUSIC INC", "city": "SPENCERTOWN", "state": "NY", "zip": "12165-0130", "ntee": "A680", "ruling": "199508", "deductibility": "1", "assets": 303162, "income": 284653, "revenue": 284653}, {"ein": "461828747", "name": "DIFFERENT ENCOUNTERS", "city": "MANHASSET", "state": "NY", "zip": "11030-1437", "ntee": "O50", "ruling": "201410", "deductibility": "1", "assets": 0, "income": 0, "revenue": 0}, {"ein": "861060452", "name": "TORAH ENCOUNTERS INC", "city": "POMONA", "state": "NY", "zip": "10970-0712", "ntee": "O99", "ruling": "200401", "deductibility": "1", "assets": 6121965, "income": 2565059, "revenue": 2565059}], "RIVERSO": [{"ein": "141851178", "name": "JOSEPH R RIVERSO MEMORIAL FOUNDATION INC", "city": "WHITE PLAINS", "state": "NY", "zip": "10605-1156", "ntee": "B82", "ruling": "200307", "deductibility": "1", "assets": 113283, "income": 59125, "revenue": 38241}], "MIDDLESETTLEMENT": [{"ein": "161009798", "name": "MEADOWS AT MIDDLESETTLEMENT INC", "city": "NEW HARTFORD", "state": "NY", "zip": "13413-0710", "ntee": "", "ruling": "197508", "deductibility": "1", "assets": 0, "income": 0, "revenue": 0}], "LYNCOURT": [{"ein": "161154798", "name": "LYNCOURT WESLEYAN CHURCH", "city": "SYRACUSE", "state": "NY", "zip": "13208-3232", "ntee": "", "ruling": "197005", "deductibility": "1", "assets": 0, "income": 0, "revenue": 0}, {"ein": "824706006", "name": "LYNCOURT COMMUNITY BAND INC", "city": "E SYRACUSE", "state": "NY", "zip": "13057-3215", "ntee": "A6C", "ruling": "202111", "deductibility": "1", "assets": 0, "income": 0, "revenue": 0}], "ENSEMBLES": [{"ein": "161483610", "name": "AMHERST CHAMBER ENSEMBLES INC", "city": "WILLIAMSVILLE", "state": "NY", "zip": "14221-3850", "ntee": "A60", "ruling": "199510", "deductibility": "1", "assets": 0, "income": 0, "revenue": 0}], "MALETTA": [{"ein": "161484555", "name": "MALETTA FOUNDATION", "city": "W HENRIETTA", "state": "NY", "zip": "14586-9679", "ntee": "T20Z", "ruling": "199509", "deductibility": "1", "assets": 235243, "income": 25357, "revenue": 0}], "NFADA": [{"ein": "166486097", "name": "NFADA CHARITABLE FOUNDATION TR", "city": "WILLIAMSVILLE", "state": "NY", "zip": "14221-7748", "ntee": "T31", "ruling": "200006", "deductibility": "1", "assets": 2143547, "income": 788268, "revenue": 0}], "WELKER": [{"ein": "166551582", "name": "DOROTHY WELKER TUW TR FBO SAINT MARKS LUTHERAN CHURCH 2001109", "city": "BUFFALO", "state": "NY", "zip": "14240-1504", "ntee": "T22", "ruling": "200703", "deductibility": "1", "assets": 554054, "income": 159516, "revenue": 0}], "LEIPNIK": [{"ein": "200484118", "name": "SYNAGOGUE BORUCH TA-AM LEIPNIK", "city": "BROOKLYN", "state": "NY", "zip": "11219-1300", "ntee": "X30", "ruling": "200602", "deductibility": "1", "assets": 0, "income": 0, "revenue": 0}, {"ein": "273202226", "name": "YESHIVAS LEIPNIK", "city": "BROOKLYN", "state": "NY", "zip": "11219-0000", "ntee": "X30", "ruling": "201312", "deductibility": "1", "assets": 0, "income": 0, "revenue": 0}], "BERDITCHEV": [{"ein": "201113175", "name": "KEDUSHAS LEVY OF BERDITCHEV", "city": "BROOKLYN", "state": "NY", "zip": "11219-5148", "ntee": "X30", "ruling": "200501", "deductibility": "1", "assets": 0, "income": 0, "revenue": 0}, {"ein": "933521587", "name": "KEDUSHAS LEVI BERDITCHEV INC", "city": "BROOKLYN", "state": "NY", "zip": "11206-5553", "ntee": "X30", "ruling": "202404", "deductibility": "1", "assets": 0, "income": 0, "revenue": 0}], "SOLVING": [{"ein": "201239616", "name": "ART OF PROBLEM SOLVING INITIATIVE INC", "city": "NEW YORK", "state": "NY", "zip": "10005-2012", "ntee": "", "ruling": "200412", "deductibility": "1", "assets": 15907337, "income": 10329422, "revenue": 10308727}, {"ein": "208735688", "name": "SOLVING KIDS CANCER INC", "city": "NEW YORK", "state": "NY", "zip": "10022-0000", "ntee": "H12", "ruling": "200708", "deductibility": "1", "assets": 2075323, "income": 830328, "revenue": 641068}, {"ein": "271491647", "name": "FUTURE PROBLEM SOLVING PROGRAM INTERNATIONAL INC", "city": "VALATIE", "state": "NY", "zip": "12184-5244", "ntee": "", "ruling": "199302", "deductibility": "1", "assets": 28505, "income": 2765, "revenue": 0}], "DKA": [{"ein": "201866593", "name": "DKA CHARITABLE TRUST", "city": "FOREST HILLS", "state": "NY", "zip": "11375-4701", "ntee": "T22", "ruling": "200509", "deductibility": "1", "assets": 3890613, "income": 224892, "revenue": 0}], "WISNER": [{"ein": "203272640", "name": "ALBERT WISNER PUBLIC LIBRARY FOUNDATION INC", "city": "WARWICK", "state": "NY", "zip": "10990-3585", "ntee": "B11", "ruling": "200606", "deductibility": "1", "assets": 1667729, "income": 212836, "revenue": 212836}], "DABBAH": [{"ein": "203378909", "name": "JOSEPH AND ALICE DABBAH CHARITABLE FOUNDATION", "city": "BROOKLYN", "state": "NY", "zip": "11223-1936", "ntee": "P12", "ruling": "200512", "deductibility": "1", "assets": 82004, "income": 2513, "revenue": 0}], "FURRY": [{"ein": "203732316", "name": "FURRY ANGELS INC", "city": "FRANKLIN SQ", "state": "NY", "zip": "11010-1934", "ntee": "O50", "ruling": "200609", "deductibility": "1", "assets": 0, "income": 0, "revenue": 0}, {"ein": "452641597", "name": "FRIENDS OF THE FEATHERED & FURRY WILDLIFE CENTER INC", "city": "HUNTER", "state": "NY", "zip": "12442-5525", "ntee": "", "ruling": "201110", "deductibility": "1", "assets": 47746, "income": 63087, "revenue": 63087}, {"ein": "465067987", "name": "BETHS FURRY FRIENDS FOUNDATION", "city": "NEW YORK", "state": "NY", "zip": "10153-0023", "ntee": "D20", "ruling": "201502", "deductibility": "1", "assets": 1586681, "income": 1287250, "revenue": 0}, {"ein": "471508228", "name": "HELPING HANDS FOR FURRY FRIENDS INC", "city": "NORTHPORT", "state": "NY", "zip": "11768-1814", "ntee": "D12", "ruling": "201504", "deductibility": "1", "assets": 0, "income": 0, "revenue": 0}, {"ein": "472344925", "name": "ZANIS FURRY FRIENDS ZFF INC", "city": "NEW YORK", "state": "NY", "zip": "10028-7547", "ntee": "D20", "ruling": "201502", "deductibility": "1", "assets": 154371, "income": 44957, "revenue": 44957}, {"ein": "991329367", "name": "FURRY BUDDY RESCUE INC", "city": "NEWARK VALLEY", "state": "NY", "zip": "13811-2416", "ntee": "D20", "ruling": "202506", "deductibility": "1", "assets": 0, "income": 0, "revenue": 0}], "TASMANIA": [{"ein": "204173622", "name": "UNIVERSITY OF TASMANIA FOUNDATIONUSA", "city": "NEW YORK", "state": "NY", "zip": "10019-4703", "ntee": "B90", "ruling": "200604", "deductibility": "1", "assets": 289453, "income": 570241, "revenue": 570241}], "YNINOS": [{"ein": "204187873", "name": "CASA DE ESPERANZA PARA MUJERES YNINOS INC", "city": "NEW WINDSOR", "state": "NY", "zip": "12553-6866", "ntee": "P850", "ruling": "200703", "deductibility": "1", "assets": 0, "income": 0, "revenue": 0}], "ENVIRONMENTS": [{"ein": "204778868", "name": "REWARDING ENVIRONMENTS FOR ADULTLIVING INC", "city": "ELMONT", "state": "NY", "zip": "11003-1805", "ntee": "N30", "ruling": "201212", "deductibility": "1", "assets": 5017491, "income": 5098539, "revenue": 5098539}, {"ein": "222360739", "name": "SOUTHERN TIER ENVIRONMENTS FOR LIVING INC", "city": "DUNKIRK", "state": "NY", "zip": "14048-2504", "ntee": "P730", "ruling": "198108", "deductibility": "1", "assets": 12728989, "income": 12043457, "revenue": 12043457}, {"ein": "272617454", "name": "VOLUNTEERS IMPROVING NEIGHBORHOOD ENVIRONMENTS VINES", "city": "BINGHAMTON", "state": "NY", "zip": "13902-3104", "ntee": "X99", "ruling": "201312", "deductibility": "1", "assets": 1622206, "income": 918607, "revenue": 841055}, {"ein": "462975228", "name": "MOTIVATIONAL RECOVERY ENVIRONMENTS INC", "city": "COPIAGUE", "state": "NY", "zip": "11726-0305", "ntee": "G30", "ruling": "201408", "deductibility": "1", "assets": 244734, "income": 629851, "revenue": 629851}], "KHOSHKISH": [{"ein": "206215226", "name": "MILLER KHOSHKISH FOUNDATION TR", "city": "NEW YORK", "state": "NY", "zip": "10024-1007", "ntee": "T20", "ruling": "200407", "deductibility": "1", "assets": 143702, "income": 345244, "revenue": 0}], "LINIADO": [{"ein": "208484005", "name": "STELLA LINIADO RAINBOW FOUNDATION INC", "city": "BROOKLYN", "state": "NY", "zip": "11230-2700", "ntee": "H12", "ruling": "200709", "deductibility": "1", "assets": 517691, "income": 252021, "revenue": 121972}], "RADA": [{"ein": "222604750", "name": "RADA CHARITABLE FOUNDATION INC", "city": "ROCHESTER", "state": "NY", "zip": "14623-1359", "ntee": "T22Z", "ruling": "198506", "deductibility": "1", "assets": 26758, "income": 24475, "revenue": 24475}, {"ein": "853146980", "name": "RADA COLLABORATIVE INC", "city": "BROOKLYN", "state": "NY", "zip": "11205-4009", "ntee": "A31", "ruling": "202109", "deductibility": "1", "assets": 193654, "income": 232207, "revenue": 232207}], "PHILOSOPHIC": [{"ein": "222724897", "name": "PAUL BRUNTON PHILOSOPHIC FOUNDATION INC", "city": "BURDETT", "state": "NY", "zip": "14818-9729", "ntee": "A77Z", "ruling": "198707", "deductibility": "1", "assets": 509949, "income": 400634, "revenue": 159210}], "FETTER": [{"ein": "236684355", "name": "TRUST UNDER POWER OF APPOINTMENT OF FANNIE FETTER", "city": "BUFFALO", "state": "NY", "zip": "14240-1504", "ntee": "T22", "ruling": "200207", "deductibility": "0", "assets": 480669, "income": 123317, "revenue": 0}], "CLEARVIEW": [{"ein": "237091630", "name": "CLEARVIEW CHRISTIAN AND MISSIONARY ALLIANCE CHURCH", "city": "CASTLETON", "state": "NY", "zip": "12033-3021", "ntee": "", "ruling": "197205", "deductibility": "1", "assets": 0, "income": 0, "revenue": 0}], "ROMMETT": [{"ein": "237092561", "name": "ZENA ROMMETT DANCE ASSOCIATION LTD", "city": "NEW YORK", "state": "NY", "zip": "10014-3654", "ntee": "", "ruling": "197101", "deductibility": "1", "assets": 18923, "income": 78900, "revenue": 74489}], "PILSUDSKI": [{"ein": "237164776", "name": "JOZEF PILSUDSKI INSTITUTE OF AMERIC A FOR RESEARCH IN THE MODERN HISTO", "city": "BROOKLYN", "state": "NY", "zip": "11222-2202", "ntee": "", "ruling": "195003", "deductibility": "1", "assets": 1598603, "income": 1003044, "revenue": 245873}], "CLERGYMEN": [{"ein": "237279145", "name": "CORP FOR RELIEF OF WIDOWS & CHLDRN OF CLERGYMEN OF PROT EPIS CH IN NY", "city": "NEW YORK", "state": "NY", "zip": "10021-9282", "ntee": "P60Z", "ruling": "193704", "deductibility": "1", "assets": 30345212, "income": 3195624, "revenue": 395151}], "LEBNEL": [{"ein": "237376072", "name": "KUPAT CHOLIM LEBNEL HOYESHIUTH", "city": "BROOKLYN", "state": "NY", "zip": "11211-7915", "ntee": "", "ruling": "197406", "deductibility": "1", "assets": 0, "income": 0, "revenue": 0}], "ILLUMINATI": [{"ein": "237378494", "name": "ILLUMINATI INC", "city": "NEW YORK", "state": "NY", "zip": "10021-5828", "ntee": "", "ruling": "197410", "deductibility": "1", "assets": 0, "income": 0, "revenue": 0}], "EI": [{"ein": "251725738", "name": "CERGE-EI FOUNDATION", "city": "NEW YORK", "state": "NY", "zip": "10004-1703", "ntee": "Q320", "ruling": "199501", "deductibility": "1", "assets": 12314135, "income": 4601475, "revenue": 3669896}], "DEMAIN": [{"ein": "256448960", "name": "EDITH DEMAIN TUW", "city": "BUFFALO", "state": "NY", "zip": "14240-1504", "ntee": "T90", "ruling": "200206", "deductibility": "1", "assets": 350989, "income": 110331, "revenue": 0}], "XPOSURE": [{"ein": "260160228", "name": "XPOSURE FOUNDATION INC", "city": "ROCHESTER", "state": "NY", "zip": "14609-4804", "ntee": "B122", "ruling": "200710", "deductibility": "1", "assets": 252945, "income": 1929284, "revenue": 1929284}], "MAILBOX": [{"ein": "261328279", "name": "MAILBOX MINISTRY INTERNATIONAL INC", "city": "STONE RIDGE", "state": "NY", "zip": "12484-0686", "ntee": "X20", "ruling": "200806", "deductibility": "1", "assets": 0, "income": 0, "revenue": 0}], "GLASSCOCK": [{"ein": "261546714", "name": "THE GLASSCOCK FAMILY FOUNDATION INC", "city": "ALBANY", "state": "NY", "zip": "12212-5201", "ntee": "T12", "ruling": "201003", "deductibility": "1", "assets": 9976659, "income": 3269109, "revenue": 0}], "JBD": [{"ein": "261670233", "name": "JBD FOUNDATION", "city": "BROOKLYN", "state": "NY", "zip": "11205-3505", "ntee": "T20", "ruling": "200912", "deductibility": "1", "assets": 132, "income": 1, "revenue": 0}], "FUNNY": [{"ein": "264398353", "name": "FUNNY FOR FIDO INC", "city": "NEW YORK", "state": "NY", "zip": "10011-2914", "ntee": "T31", "ruling": "200905", "deductibility": "1", "assets": 0, "income": 0, "revenue": 0}], "VENCEDORES": [{"ein": "270377349", "name": "MINISTERIO MAS QUE VENCEDORES INC", "city": "BAY SHORE", "state": "NY", "zip": "11706-1124", "ntee": "X20", "ruling": "201006", "deductibility": "1", "assets": 0, "income": 0, "revenue": 0}, {"ein": "352523471", "name": "IGLESIA MAS QUE VENCEDORES INC", "city": "EAST MARION", "state": "NY", "zip": "11939-1518", "ntee": "X20", "ruling": "201609", "deductibility": "1", "assets": 0, "income": 0, "revenue": 0}, {"ein": "461518725", "name": "IGLESIA DE CRISTO MAS QUE VENCEDORES", "city": "BRONX", "state": "NY", "zip": "10451-5102", "ntee": "X20", "ruling": "202210", "deductibility": "1", "assets": 0, "income": 0, "revenue": 0}, {"ein": "993570684", "name": "MAS QUE VENCEDORES ROM 8 28 INC", "city": "FREEPORT", "state": "NY", "zip": "11520-5442", "ntee": "X20", "ruling": "202409", "deductibility": "1", "assets": 0, "income": 0, "revenue": 0}], "NYMAC": [{"ein": "271802849", "name": "AMERICAN ASSOCIATION OF BLACKS IN ENERGY-NYMAC", "city": "NEW YORK", "state": "NY", "zip": "10276-1127", "ntee": "A05", "ruling": "202106", "deductibility": "1", "assets": 14942, "income": 17618, "revenue": 17618}], "AKL": [{"ein": "272592865", "name": "MICHAEL VINCENT AKL MEMORIAL SCHOLARSHIP FUND INC", "city": "STATEN ISLAND", "state": "NY", "zip": "10314-5177", "ntee": "B82", "ruling": "201205", "deductibility": "1", "assets": 0, "income": 0, "revenue": 0}], "GIVOS": [{"ein": "300193621", "name": "MECHON GIVOS OLAM", "city": "BROOKLYN", "state": "NY", "zip": "11219-2202", "ntee": "X21", "ruling": "200311", "deductibility": "1", "assets": 0, "income": 0, "revenue": 0}, {"ein": "874200543", "name": "CONGREGATION GIVOS OLAM INC", "city": "MONSEY", "state": "NY", "zip": "10952-5212", "ntee": "X30", "ruling": "202212", "deductibility": "1", "assets": 0, "income": 0, "revenue": 0}], "ANGIOGENESIS": [{"ein": "316670928", "name": "THE BIOFOUNDATION FOR ANGIOGENESIS RESEARCH AND DEVELOPMENT", "city": "NEW YORK", "state": "NY", "zip": "10022-0000", "ntee": "B60", "ruling": "200112", "deductibility": "1", "assets": 0, "income": 0, "revenue": 0}], "DEBEAUT": [{"ein": "331252495", "name": "DEBEAUT SOCIETY", "city": "BROOKLYN", "state": "NY", "zip": "11211-8511", "ntee": "E60", "ruling": "202411", "deductibility": "1", "assets": 0, "income": 0, "revenue": 0}], "BAE": [{"ein": "331883519", "name": "BAE FAMILY FOUNDATION", "city": "COHOES", "state": "NY", "zip": "12047-3846", "ntee": "T20", "ruling": "202507", "deductibility": "1", "assets": 0, "income": 0, "revenue": 0}], "AMANA": [{"ein": "333797179", "name": "AMANA GLOBAL FOUNDATION INC", "city": "ROCHESTER", "state": "NY", "zip": "14623-3200", "ntee": "W99", "ruling": "202504", "deductibility": "1", "assets": 0, "income": 0, "revenue": 0}, {"ein": "383989750", "name": "AL AMANA INTERNATIONAL INC", "city": "BRONXVILLE", "state": "NY", "zip": "10708-4811", "ntee": "X20", "ruling": "202006", "deductibility": "1", "assets": 36092, "income": 0, "revenue": 0}, {"ein": "873211726", "name": "AMANA WELFARE CORPORATION", "city": "BROOKLYN", "state": "NY", "zip": "11234-2308", "ntee": "K30", "ruling": "202301", "deductibility": "1", "assets": 0, "income": 0, "revenue": 0}], "REWARDS": [{"ein": "334362850", "name": "SERVICE REWARDS INC", "city": "BROOKLYN", "state": "NY", "zip": "11211-3542", "ntee": "T40", "ruling": "202505", "deductibility": "1", "assets": 0, "income": 0, "revenue": 0}], "EASTWEST": [{"ein": "334619670", "name": "EASTWEST ARTISTRY NYC INC", "city": "NEW YORK", "state": "NY", "zip": "10002-6162", "ntee": "A20", "ruling": "202506", "deductibility": "1", "assets": 0, "income": 0, "revenue": 0}], "VENISON": [{"ein": "341996608", "name": "VENISON DONATION COALITION INC", "city": "BATH", "state": "NY", "zip": "14810-1038", "ntee": "P99", "ruling": "200501", "deductibility": "1", "assets": 0, "income": 0, "revenue": 0}, {"ein": "932313594", "name": "EAST END VENISON INC", "city": "MATTITUCK", "state": "NY", "zip": "11952-0462", "ntee": "K30", "ruling": "202311", "deductibility": "1", "assets": 0, "income": 0, "revenue": 0}], "PICKEN": [{"ein": "342033502", "name": "EDWARD C PICKEN TROY HS ATHLETIC HALL OF FAME SCHOLARSHIP FUND INC", "city": "TROY", "state": "NY", "zip": "12182-0138", "ntee": "B82", "ruling": "200506", "deductibility": "1", "assets": 0, "income": 0, "revenue": 0}], "COMBATANTS": [{"ein": "364778519", "name": "AMERICAN FRIENDS OF COMBATANTS FOR PEACE INC", "city": "NEW YORK", "state": "NY", "zip": "10005-2907", "ntee": "B90", "ruling": "201409", "deductibility": "1", "assets": 400710, "income": 969193, "revenue": 969193}], "MACA": [{"ein": "367163882", "name": "ALLAN L MACA FOUNDATION", "city": "NEW YORK", "state": "NY", "zip": "10128-1034", "ntee": "Z99Z", "ruling": "199707", "deductibility": "1", "assets": 392646, "income": 295396, "revenue": 0}, {"ein": "990758519", "name": "MACA FOUNDATION INC", "city": "NEW YORK", "state": "NY", "zip": "10029-5662", "ntee": "R22", "ruling": "202412", "deductibility": "1", "assets": 0, "income": 0, "revenue": 0}], "UNDERSTAND": [{"ein": "371839771", "name": "SOME PEOPLE UNDERSTAND DIFFERENTLY SPUD INC", "city": "BROOKLYN", "state": "NY", "zip": "11221-5050", "ntee": "O50", "ruling": "201611", "deductibility": "1", "assets": 0, "income": 0, "revenue": 0}, {"ein": "472434857", "name": "MEN ALLIED FOR THE NEED TO UNDERSTAND PROSTATE CANCER MANUP I", "city": "BUFFALO", "state": "NY", "zip": "14263-0001", "ntee": "B03", "ruling": "201812", "deductibility": "1", "assets": 10760, "income": 17622, "revenue": 17622}], "BEASTLY": [{"ein": "452637048", "name": "BEASTLY RESCUE INC", "city": "NEW YORK", "state": "NY", "zip": "10021-3401", "ntee": "D20", "ruling": "201203", "deductibility": "1", "assets": 0, "income": 0, "revenue": 0}], "MMAC": [{"ein": "452831875", "name": "MMAC DRIZIN CHARITABLE FOUNDATION", "city": "BROOKLYN", "state": "NY", "zip": "11225-3119", "ntee": "T22", "ruling": "201205", "deductibility": "1", "assets": 307, "income": 1, "revenue": 0}], "KC": [{"ein": "454257276", "name": "LT KC ABRAHAM INA FOUNDATION INC", "city": "MIDDLE ISLAND", "state": "NY", "zip": "11953-2074", "ntee": "T31", "ruling": "201301", "deductibility": "1", "assets": 0, "income": 0, "revenue": 0}, {"ein": "931883863", "name": "DIL KUMARI KC MEMORIAL FOUNDATION INC", "city": "COLLEGE POINT", "state": "NY", "zip": "11356-2313", "ntee": "A27", "ruling": "202310", "deductibility": "1", "assets": 0, "income": 0, "revenue": 0}, {"ein": "932207250", "name": "CONG KC NANUET", "city": "SPRING VALLEY", "state": "NY", "zip": "10977-5907", "ntee": "X30", "ruling": "202409", "deductibility": "1", "assets": 0, "income": 0, "revenue": 0}], "ARBAB": [{"ein": "454800674", "name": "HALQA ARBAB-E-ZAUQ", "city": "JAMAICA", "state": "NY", "zip": "11432-3642", "ntee": "P20", "ruling": "201409", "deductibility": "1", "assets": 0, "income": 0, "revenue": 0}], "WEHEARYOUNET": [{"ein": "454866700", "name": "WEHEARYOUNET INC", "city": "NEW YORK", "state": "NY", "zip": "10003-2965", "ntee": "O50", "ruling": "201208", "deductibility": "1", "assets": 0, "income": 0, "revenue": 0}], "BELGOROD": [{"ein": "455063965", "name": "SAINT IOASAF OF BELGOROD LAND RUSSIAN ORTHODOX CHURCH INC", "city": "BROOKLYN", "state": "NY", "zip": "11204-4137", "ntee": "X20", "ruling": "201403", "deductibility": "1", "assets": 260751, "income": 80657, "revenue": 74066}], "HEALTHWORKS": [{"ein": "463282739", "name": "GLOBAL HEALTHWORKS FOUNDATION", "city": "NEW YORK", "state": "NY", "zip": "10003-5105", "ntee": "E60", "ruling": "202303", "deductibility": "1", "assets": 35563, "income": 77589, "revenue": 77589}], "PUENTES": [{"ein": "463945195", "name": "DOS PUENTES ELEMENTARY PTA", "city": "NEW YORK", "state": "NY", "zip": "10033-3836", "ntee": "B94", "ruling": "201503", "deductibility": "1", "assets": 54447, "income": 48540, "revenue": 35579}], "YAARA": [{"ein": "464294852", "name": "GABRIEL AND YAARA PLOTKIN FAMILY FOUNDATION", "city": "NEW YORK", "state": "NY", "zip": "10020-0000", "ntee": "W99", "ruling": "201407", "deductibility": "1", "assets": 3410890, "income": 3453788, "revenue": 0}], "RESPONSIVE": [{"ein": "465072793", "name": "RESPONSIVE TO OUR COMMUNITY INC", "city": "LIVERPOOL", "state": "NY", "zip": "13090-3938", "ntee": "L40", "ruling": "201801", "deductibility": "1", "assets": 414661, "income": 1117, "revenue": 1117}], "AHLI": [{"ein": "472439815", "name": "MARKAZ E AHLI E SUNNAT JAMIA MASJID NOOR UL QURAN INC", "city": "BROOKLYN", "state": "NY", "zip": "11214-4806", "ntee": "X40", "ruling": "201804", "deductibility": "1", "assets": 1344, "income": 51123, "revenue": 51123}], "ALPHONSO": [{"ein": "473682436", "name": "ALPHONSO JOHNSON ARCHIVES AND MUSEUM", "city": "ROME", "state": "NY", "zip": "13440-3309", "ntee": "A50", "ruling": "201511", "deductibility": "1", "assets": 0, "income": 0, "revenue": 0}], "OVERFLOW": [{"ein": "474228822", "name": "OVERFLOW CHRISTIAN CENTER", "city": "BROOKLYN", "state": "NY", "zip": "11221-1251", "ntee": "X20", "ruling": "202001", "deductibility": "1", "assets": 0, "income": 0, "revenue": 0}], "CELINA": [{"ein": "474292036", "name": "SONIA AND CELINA SOTOMAYOR JUDICIAL INTERNSHIP PROGRAM INC", "city": "NEW YORK", "state": "NY", "zip": "10023-6407", "ntee": "P20", "ruling": "201508", "deductibility": "1", "assets": 126922, "income": 80776, "revenue": 80776}, {"ein": "826726886", "name": "OSCHER AND CELINA MAJEWSKI FAMILY TRUST", "city": "OYSTER BAY", "state": "NY", "zip": "11771-4302", "ntee": "", "ruling": "201805", "deductibility": "1", "assets": 129266, "income": 34988, "revenue": 0}], "UMBANDA": [{"ein": "474602217", "name": "UMBANDA COMMUNITY CENTER", "city": "LYNBROOK", "state": "NY", "zip": "11563-2928", "ntee": "X20", "ruling": "201602", "deductibility": "1", "assets": 0, "income": 0, "revenue": 0}], "HASEFER": [{"ein": "474664419", "name": "HASEFER PUBLICATIONS INC", "city": "BROOKLYN", "state": "NY", "zip": "11204-2375", "ntee": "X83", "ruling": "201510", "deductibility": "1", "assets": 479060, "income": 484018, "revenue": 484018}], "KORABI": [{"ein": "474679965", "name": "KORABI SOCCER INC", "city": "STATEN ISLAND", "state": "NY", "zip": "10314-4907", "ntee": "N64", "ruling": "201603", "deductibility": "1", "assets": 9220, "income": 8400, "revenue": 8400}], "PRIESTS": [{"ein": "542190455", "name": "DIOCESE OF ROCHESTER PRIESTS RETIREMENT PLAN", "city": "ROCHESTER", "state": "NY", "zip": "14624-1823", "ntee": "", "ruling": "194603", "deductibility": "1", "assets": 0, "income": 0, "revenue": 0}, {"ein": "822049962", "name": "OKIGWE DIOCESAN PRIESTS ASSOCIATION NEW YORK INCORPORATED", "city": "SCHENECTADY", "state": "NY", "zip": "12303-1313", "ntee": "X22", "ruling": "202212", "deductibility": "1", "assets": 0, "income": 0, "revenue": 0}, {"ein": "824682535", "name": "ASSOCIATION OF NIGERIAN PRIESTS AND RELIGIOUS IN NEW YORK STATE", "city": "BELLMORE", "state": "NY", "zip": "11710-3617", "ntee": "X99", "ruling": "202007", "deductibility": "1", "assets": 5888, "income": 815, "revenue": 815}, {"ein": "990849659", "name": "OKIGWE DIOCESAN PRIESTS ASSOCIATION UNITED STATES OF AMERICA", "city": "SCHENECTADY", "state": "NY", "zip": "12303-1313", "ntee": "X22", "ruling": "202404", "deductibility": "1", "assets": 0, "income": 0, "revenue": 0}], "REEF": [{"ein": "562419049", "name": "LONG ISLAND REEF ASSOCIATION - LIRA INC", "city": "SMITHTOWN", "state": "NY", "zip": "11787-1290", "ntee": "P20", "ruling": "201612", "deductibility": "1", "assets": 0, "income": 0, "revenue": 0}, {"ein": "741969035", "name": "CORAL REEF FOUNDATION", "city": "NEW YORK", "state": "NY", "zip": "10017-0000", "ntee": "", "ruling": "197805", "deductibility": "1", "assets": 25709, "income": 380019, "revenue": 0}, {"ein": "842755808", "name": "REEF RENEWAL FOUNDATION INTERNATIONAL", "city": "LARCHMONT", "state": "NY", "zip": "10538-1136", "ntee": "C32", "ruling": "201909", "deductibility": "1", "assets": 142030, "income": 304500, "revenue": 304500}, {"ein": "843304186", "name": "CITY ISLAND OYSTER REEF INC", "city": "BRONX", "state": "NY", "zip": "10464-1673", "ntee": "C99", "ruling": "201912", "deductibility": "1", "assets": 321783, "income": 527157, "revenue": 527157}, {"ein": "874023450", "name": "LONG ISLAND ARTIFICIAL REEF SOCIETY LTD", "city": "FARMINGDALE", "state": "NY", "zip": "11735-0685", "ntee": "C32", "ruling": "202208", "deductibility": "1", "assets": 15466, "income": 87306, "revenue": 87306}, {"ein": "923062902", "name": "FREDS REEF CORP", "city": "CTR MORICHES", "state": "NY", "zip": "11934-0134", "ntee": "U21", "ruling": "202312", "deductibility": "1", "assets": 0, "income": 0, "revenue": 0}], "GLAZING": [{"ein": "591427054", "name": "SAFETY GLAZING CERTIFICATION COUNCIL INC", "city": "SACKETS HBR", "state": "NY", "zip": "13685-0730", "ntee": "E73Z", "ruling": "197310", "deductibility": "1", "assets": 3837987, "income": 4118836, "revenue": 4118836}], "BARREN": [{"ein": "611247108", "name": "GETHSEMANE BAPTIST CHURCH BARREN COUNTY KENTUCKY INC", "city": "GLASGOW", "state": "NY", "zip": "00501-0000", "ntee": "", "ruling": "199405", "deductibility": "1", "assets": 0, "income": 0, "revenue": 0}], "FRAY": [{"ein": "611649171", "name": "IN THE FRAY INC", "city": "NEW HYDE PARK", "state": "NY", "zip": "11040-3644", "ntee": "R30", "ruling": "201310", "deductibility": "1", "assets": 0, "income": 0, "revenue": 0}], "TORK": [{"ein": "651319097", "name": "DEPARTMENT OF NEW TORK VFW AUXILIARY", "city": "RAVENA", "state": "NY", "zip": "12143-1521", "ntee": "W30", "ruling": "200909", "deductibility": "2", "assets": 0, "income": 0, "revenue": 0}], "HASHLUCHIM": [{"ein": "752996920", "name": "YESHIVA YAALDEI HASHLUCHIM", "city": "BROOKLYN", "state": "NY", "zip": "11213-4447", "ntee": "X30", "ruling": "200207", "deductibility": "1", "assets": 0, "income": 0, "revenue": 0}, {"ein": "810583641", "name": "M Y KEREN HASHLUCHIM INC", "city": "BROOKLYN", "state": "NY", "zip": "11225-3006", "ntee": "X30", "ruling": "200302", "deductibility": "1", "assets": 0, "income": 0, "revenue": 0}], "APHRODITE": [{"ein": "813956690", "name": "PANCYPRIAN ASSOCIATION APHRODITE INC", "city": "STATEN ISLAND", "state": "NY", "zip": "10312-4101", "ntee": "A23", "ruling": "201708", "deductibility": "1", "assets": 0, "income": 0, "revenue": 0}], "IMB": [{"ein": "814782301", "name": "IMB FAMILY FOUNDATION INC", "city": "BROOKLYN", "state": "NY", "zip": "11204-3319", "ntee": "T20", "ruling": "201803", "deductibility": "1", "assets": 105301, "income": 100073, "revenue": 0}], "XXCODERS": [{"ein": "820915111", "name": "XXCODERS", "city": "MELVILLE", "state": "NY", "zip": "11747-5301", "ntee": "W99", "ruling": "201705", "deductibility": "1", "assets": 2031, "income": 5193, "revenue": 0}], "4NYC": [{"ein": "821711103", "name": "4NYC HOUSING INC", "city": "NEW YORK", "state": "NY", "zip": "10002-2374", "ntee": "L19", "ruling": "201904", "deductibility": "1", "assets": 2446953, "income": 287232, "revenue": 287232}], "SCHOLARSKILLS": [{"ein": "821826572", "name": "SCHOLARSKILLS FOR STARS", "city": "NEW WINDSOR", "state": "NY", "zip": "12553-5609", "ntee": "B90", "ruling": "201708", "deductibility": "1", "assets": 0, "income": 0, "revenue": 0}], "MARTHAS": [{"ein": "824662404", "name": "MARTHAS KAYAK INC", "city": "OCEANSIDE", "state": "NY", "zip": "11572-5637", "ntee": "G30", "ruling": "201904", "deductibility": "1", "assets": 19286, "income": 5362, "revenue": 5362}, {"ein": "991256131", "name": "FLORENCE AND MARTHAS HOUSE INC", "city": "NEW YORK", "state": "NY", "zip": "10027-5600", "ntee": "P20", "ruling": "202403", "deductibility": "1", "assets": 0, "income": 0, "revenue": 0}], "MRNY": [{"ein": "825474031", "name": "MRNY QALICB INC", "city": "BROOKLYN", "state": "NY", "zip": "11237-5664", "ntee": "T30", "ruling": "201906", "deductibility": "1", "assets": 35762804, "income": 3804614, "revenue": 3804614}], "CEFALU": [{"ein": "830604944", "name": "ALEX CEFALU MEMORIAL FOUNDATION INC", "city": "DIX HILLS", "state": "NY", "zip": "11746-6730", "ntee": "G12", "ruling": "201807", "deductibility": "1", "assets": 20680, "income": 35803, "revenue": 0}], "COWGIRLS": [{"ein": "831091833", "name": "THE NEO POLITICAL COWGIRLS INC", "city": "EAST HAMPTON", "state": "NY", "zip": "11937-1621", "ntee": "A60", "ruling": "201807", "deductibility": "1", "assets": 6951, "income": 147592, "revenue": 147592}], "WVI": [{"ein": "831512308", "name": "WVI DOLPHIN FOUNDATION", "city": "NEW YORK", "state": "NY", "zip": "10016-1115", "ntee": "T20", "ruling": "201904", "deductibility": "1", "assets": 154000, "income": 221259, "revenue": 187683}], "PACHMAN": [{"ein": "831814659", "name": "CHARLIE PACHMAN MEMORIAL FUND INC", "city": "BRONX", "state": "NY", "zip": "10463-1813", "ntee": "H80", "ruling": "201812", "deductibility": "1", "assets": 1, "income": 1, "revenue": 0}], "DC9": [{"ein": "831899508", "name": "DC9 REALTY CORP", "city": "NEW YORK", "state": "NY", "zip": "10011-7419", "ntee": "Y11", "ruling": "202206", "deductibility": "2", "assets": 8130001, "income": 1894246, "revenue": 1894246}], "YPE": [{"ein": "832832979", "name": "YPE NYC INC", "city": "BROOKLYN", "state": "NY", "zip": "11222-6798", "ntee": "W03", "ruling": "201904", "deductibility": "1", "assets": 321, "income": 1830, "revenue": 0}], "BRIDGEMUSIK": [{"ein": "833624467", "name": "BRIDGEMUSIK INC", "city": "TAPPAN", "state": "NY", "zip": "10983-1607", "ntee": "A25", "ruling": "201905", "deductibility": "1", "assets": 13442, "income": 58348, "revenue": 58348}], "REDEFINE": [{"ein": "833981830", "name": "FORM FOCUSED OPERATION REDEFINE MASCULINITY NYC", "city": "BROOKLYN", "state": "NY", "zip": "11226-2270", "ntee": "P20", "ruling": "202006", "deductibility": "1", "assets": 0, "income": 0, "revenue": 0}, {"ein": "863245278", "name": "REDEFINE POSSIBLE FOUNDATION INC", "city": "FULTON", "state": "NY", "zip": "13069-3448", "ntee": "T22", "ruling": "202111", "deductibility": "1", "assets": 0, "income": 0, "revenue": 0}, {"ein": "931478943", "name": "REDEFINE STRONG", "city": "BROOKLYN", "state": "NY", "zip": "11234-3222", "ntee": "F30", "ruling": "202307", "deductibility": "1", "assets": 0, "income": 0, "revenue": 0}], "FITNESSABILITY": [{"ein": "843001626", "name": "FITNESSABILITY INC", "city": "TONAWANDA", "state": "NY", "zip": "14217-2525", "ntee": "N30", "ruling": "201909", "deductibility": "1", "assets": 0, "income": 0, "revenue": 0}], "BEHAR": [{"ein": "843408534", "name": "BOSANSKI BEHAR INC", "city": "UTICA", "state": "NY", "zip": "13501-4659", "ntee": "A23", "ruling": "202003", "deductibility": "1", "assets": 0, "income": 0, "revenue": 0}], "HOPEEMMANUEL": [{"ein": "844019821", "name": "HOPEEMMANUEL INC", "city": "YONKERS", "state": "NY", "zip": "10704-2713", "ntee": "P20", "ruling": "202007", "deductibility": "1", "assets": 0, "income": 0, "revenue": 0}], "HTP": [{"ein": "844405778", "name": "HTP FOUNDATION", "city": "STATEN ISLAND", "state": "NY", "zip": "10306-4935", "ntee": "D20", "ruling": "202003", "deductibility": "1", "assets": 0, "income": 0, "revenue": 0}], "ITY": [{"ein": "844639795", "name": "DIVERS-ITY INITIATIVE INC", "city": "QUEENS", "state": "NY", "zip": "11377-7765", "ntee": "T50", "ruling": "202006", "deductibility": "1", "assets": 0, "income": 0, "revenue": 0}], "LATINX44": [{"ein": "844904359", "name": "LATINX44 SCHOLARSHIP PROGRAM INC", "city": "NEW YORK", "state": "NY", "zip": "10023-4709", "ntee": "B82", "ruling": "202104", "deductibility": "1", "assets": 0, "income": 0, "revenue": 0}], "KURD": [{"ein": "844910298", "name": "GULSUM AND GULSER KURD FOUNDATION", "city": "DELMAR", "state": "NY", "zip": "12054-0016", "ntee": "T20", "ruling": "202012", "deductibility": "1", "assets": 7890, "income": 1, "revenue": 0}], "HASDEI": [{"ein": "851498466", "name": "HASDEI YEHOSHUA INC", "city": "BROOKLYN", "state": "NY", "zip": "11235-0000", "ntee": "T22", "ruling": "202012", "deductibility": "1", "assets": 1, "income": 1, "revenue": 0}], "YERANEN": [{"ein": "851498578", "name": "YITZCHAK YERANEN INC", "city": "BROOKLYN", "state": "NY", "zip": "11235-1005", "ntee": "T22", "ruling": "202012", "deductibility": "1", "assets": 2304898, "income": 176187, "revenue": 0}], "BEYONDEARTHINSTITUTEINC": [{"ein": "852608178", "name": "BEYONDEARTHINSTITUTEINC", "city": "NEW YORK", "state": "NY", "zip": "10032-7453", "ntee": "A01", "ruling": "202207", "deductibility": "1", "assets": 36503, "income": 99386, "revenue": 99386}], "VALIENTE": [{"ein": "853544967", "name": "IGLESIA PENTECOSTAL ESFUERZATE Y SE VALIENTE JOSUE 1-9 INC", "city": "CORAM", "state": "NY", "zip": "11727-4140", "ntee": "X20", "ruling": "202110", "deductibility": "1", "assets": 0, "income": 0, "revenue": 0}], "VOLCANI": [{"ein": "853873125", "name": "VOLCANI INTERNATIONAL PARTNERSHIPS - US INC", "city": "NEW YORK", "state": "NY", "zip": "10017-6939", "ntee": "K20", "ruling": "202203", "deductibility": "1", "assets": 10493, "income": 92832, "revenue": 92832}], "HAMUKEM": [{"ein": "853922067", "name": "CONGREGATION KEDISHAS HAMUKEM INC", "city": "BROOKLYN", "state": "NY", "zip": "11219-1692", "ntee": "X30", "ruling": "202104", "deductibility": "1", "assets": 0, "income": 0, "revenue": 0}], "FEEDHAMBURG": [{"ein": "854150318", "name": "FEEDHAMBURG", "city": "HAMBURG", "state": "NY", "zip": "14075-0755", "ntee": "K31", "ruling": "202103", "deductibility": "1", "assets": 0, "income": 0, "revenue": 0}], "ELSEWHERE": [{"ein": "863442488", "name": "WORLDS ELSEWHERE THEATRE COMPANY INC", "city": "RYE BROOK", "state": "NY", "zip": "10573-2822", "ntee": "P20", "ruling": "202107", "deductibility": "1", "assets": 0, "income": 0, "revenue": 0}], "DRAWZ": [{"ein": "873080945", "name": "HEAVENS DRAWZ INC", "city": "BROOKLYN", "state": "NY", "zip": "11236-2531", "ntee": "T99", "ruling": "202506", "deductibility": "1", "assets": 0, "income": 3000, "revenue": 3000}], "OGBONNA": [{"ein": "873849858", "name": "CATHERINE OGBONNA MEMORIAL HEALTHCARE FOUNDATION INC", "city": "MONTICELLO", "state": "NY", "zip": "12701-1102", "ntee": "E12", "ruling": "202202", "deductibility": "1", "assets": 0, "income": 0, "revenue": 0}], "TCOOMH": [{"ein": "881386059", "name": "TCOOMH INC", "city": "FAR ROCKAWAY", "state": "NY", "zip": "11691-1234", "ntee": "P01", "ruling": "202204", "deductibility": "1", "assets": 0, "income": 0, "revenue": 0}], "10MINS1PAGE": [{"ein": "884301290", "name": "10MINS1PAGE INC", "city": "BRONX", "state": "NY", "zip": "10460-3096", "ntee": "S20", "ruling": "202302", "deductibility": "1", "assets": 0, "income": 0, "revenue": 0}], "MADIE": [{"ein": "886337774", "name": "MADIE NICPON 2-GETHER FOUNDATION TR", "city": "SUFFERN", "state": "NY", "zip": "10901-3510", "ntee": "T12", "ruling": "202205", "deductibility": "1", "assets": 109551, "income": 112363, "revenue": 112363}], "MASCH": [{"ein": "920933794", "name": "MASCH RISK MANAGEMENT FOUNDATION INC", "city": "EAST HAMPTON", "state": "NY", "zip": "11937-2091", "ntee": "V23", "ruling": "202301", "deductibility": "1", "assets": 0, "income": 0, "revenue": 0}], "AIOCCNY": [{"ein": "922765937", "name": "AIOCCNY", "city": "BROOKLYN", "state": "NY", "zip": "11234-1623", "ntee": "B60", "ruling": "202304", "deductibility": "1", "assets": 0, "income": 0, "revenue": 0}], "LUNAN": [{"ein": "931437663", "name": "LUNAN EDUCATIONAL ADVANCEMENT & DEVELOPMENT CORPORATION", "city": "CAMBRIA HTS", "state": "NY", "zip": "11411-2210", "ntee": "B90", "ruling": "202411", "deductibility": "1", "assets": 0, "income": 0, "revenue": 0}], "RHOAR": [{"ein": "932056972", "name": "RHOAR INC", "city": "ALBANY", "state": "NY", "zip": "12207-2922", "ntee": "L03", "ruling": "202401", "deductibility": "2", "assets": 0, "income": 0, "revenue": 0}], "SHELIAH": [{"ein": "934543868", "name": "SHELIAH LILLY FOUNDATION INC", "city": "BRONX", "state": "NY", "zip": "10473-4722", "ntee": "G30", "ruling": "202312", "deductibility": "1", "assets": 0, "income": 0, "revenue": 0}]}