{"JERSEY": [{"ein": "010685280", "name": "THE TIBETAN COMMUNITY OF NEW YORK AND NEW JERSEY INC", "city": "WOODSIDE", "state": "NY", "zip": "11377-1918", "ntee": "B99", "ruling": "200211", "deductibility": "1", "assets": 9043755, "income": 1328095, "revenue": 1189071}, {"ein": "113423916", "name": "FEDERATION OF MULTICULTURAL PROGRAM OF NEW JERSEY INC", "city": "BROOKLYN", "state": "NY", "zip": "11207-2302", "ntee": "F33", "ruling": "199808", "deductibility": "1", "assets": 1811660, "income": 3386877, "revenue": 3386877}, {"ein": "131641068", "name": "GOODWILL INDUSTRIES OF GREATER NEW YORK AND NORTHERN NEW JERSEY INC", "city": "BROOKLYN", "state": "NY", "zip": "11201-5826", "ntee": "J320", "ruling": "194207", "deductibility": "1", "assets": 135040171, "income": 154532059, "revenue": 107466170}, {"ein": "133678886", "name": "DIOCESE OF NEW YORK AND NEW JERSEY", "city": "BRONXVILLE", "state": "NY", "zip": "10708-2333", "ntee": "", "ruling": "197210", "deductibility": "1", "assets": 0, "income": 0, "revenue": 0}, {"ein": "133920232", "name": "CENTER FOR FAMILY SUPPORT NEW JERSEY INC", "city": "NEW YORK", "state": "NY", "zip": "10001-5004", "ntee": "P70", "ruling": "199701", "deductibility": "1", "assets": 8748326, "income": 22002799, "revenue": 18288358}, {"ein": "134011049", "name": "PSCH-NEW JERSEY INC", "city": "NEW HYDE PARK", "state": "NY", "zip": "11042-2025", "ntee": "P820", "ruling": "199812", "deductibility": "1", "assets": 28191, "income": 1, "revenue": 0}, {"ein": "141779168", "name": "MIDDLETOWN AND NEW JERSEY RAILWAY HISTORICAL SOCIETY", "city": "NEW HAMPTON", "state": "NY", "zip": "10958-0848", "ntee": "A80", "ruling": "201408", "deductibility": "1", "assets": 0, "income": 0, "revenue": 0}, {"ein": "146027037", "name": "NEW YORK STATE JERSEY CATTLE CLUB INC", "city": "COBLESKILL", "state": "NY", "zip": "12043-5131", "ntee": "", "ruling": "196310", "deductibility": "2", "assets": 40964, "income": 15068, "revenue": 15068}, {"ein": "201792589", "name": "NEW JERSEY COUNCIL FOR EXCEPTIONAL CHILDREN A NON PROFIT CORPORATION", "city": "LEVITTOWN", "state": "NY", "zip": "11756-3705", "ntee": "B03", "ruling": "201711", "deductibility": "1", "assets": 0, "income": 0, "revenue": 0}, {"ein": "202802817", "name": "NEW JERSEY ACORN HOUSING INC", "city": "BROOKLYN", "state": "NY", "zip": "11238-2208", "ntee": "L20", "ruling": "200606", "deductibility": "1", "assets": 0, "income": 0, "revenue": 0}, {"ein": "208669756", "name": "US ATTORNEYS ALUMNI ASSOCIATION OFNEW JERSEY INC", "city": "NEW YORK", "state": "NY", "zip": "10111-0100", "ntee": "S41", "ruling": "200808", "deductibility": "2", "assets": 0, "income": 0, "revenue": 0}, {"ein": "208709500", "name": "NORTHEASTERN ANATHESIA OF NEW JERSEY PC", "city": "WESTBURY", "state": "NY", "zip": "11590-1740", "ntee": "E30", "ruling": "202209", "deductibility": "1", "assets": 1529138, "income": 228503, "revenue": 228503}, {"ein": "208970506", "name": "REGIONAL TIBETAN WOMENS ASSOCIATION OF NEW YORK AND NEW JERSEY INC", "city": "ELMHURST", "state": "NY", "zip": "11373-2948", "ntee": "A20", "ruling": "201312", "deductibility": "1", "assets": 0, "income": 0, "revenue": 0}, {"ein": "221153230", "name": "NEW JERSEY LUMBER & BUILDING MATERIAL DEALERS ASSOCIATION INC", "city": "RENSSELAER", "state": "NY", "zip": "12144-8419", "ntee": "", "ruling": "194207", "deductibility": "2", "assets": 1115327, "income": 120942, "revenue": 102286}, {"ein": "221842435", "name": "NEW JERSEY EDUCATION ASSOCIATION", "city": "WARWICK", "state": "NY", "zip": "10990-3482", "ntee": "", "ruling": "197209", "deductibility": "2", "assets": 0, "income": 0, "revenue": 0}, {"ein": "222191668", "name": "BMW MOTORCYCLE CLUB OF NORTH JERSEY", "city": "NEW YORK", "state": "NY", "zip": "10010-1842", "ntee": "N50", "ruling": "201203", "deductibility": "2", "assets": 0, "income": 0, "revenue": 0}, {"ein": "222472384", "name": "KOREAN SCHOOL OF NEW JERSEY", "city": "NEW YORK", "state": "NY", "zip": "10016-6653", "ntee": "", "ruling": "198406", "deductibility": "1", "assets": 737477, "income": 516659, "revenue": 516659}, {"ein": "222487230", "name": "INTERNATIONAL COMMERCE CLUB OF NEW JERSEY INC", "city": "NYACK", "state": "NY", "zip": "10960-0000", "ntee": "", "ruling": "198601", "deductibility": "2", "assets": 1, "income": 0, "revenue": 0}, {"ein": "222525680", "name": "PRIVATE CAREER SCHOOLS ASSOCIATION OF NEW JERSEY", "city": "WHITE PLAINS", "state": "NY", "zip": "10604-3118", "ntee": "B99Z", "ruling": "198505", "deductibility": "2", "assets": 97114, "income": 0, "revenue": 0}, {"ein": "222768870", "name": "DETECTIVES CRIME CLINIC METROPOLITN NEW JERSEY-NEW YORK A NJ NNPFT CRP", "city": "BRONX", "state": "NY", "zip": "10451-1219", "ntee": "", "ruling": "199005", "deductibility": "1", "assets": 0, "income": 0, "revenue": 0}, {"ein": "222974158", "name": "YOUNG INSURANCE PROFESSIONALS OF NEW JERSEY INC", "city": "GLENMONT", "state": "NY", "zip": "12077-0997", "ntee": "", "ruling": "000000", "deductibility": "2", "assets": 193762, "income": 90491, "revenue": 84138}, {"ein": "223093754", "name": "UNITED KOREAN CHURCH OF GARFIELD NEW JERSEY INC", "city": "BETHPAGE", "state": "NY", "zip": "11714-3128", "ntee": "", "ruling": "199203", "deductibility": "1", "assets": 0, "income": 0, "revenue": 0}, {"ein": "223265423", "name": "NEW JERSEY INTELLECTUAL PROPERTY LAW ASSOCIATION INC", "city": "GARDEN CITY", "state": "NY", "zip": "11530-5766", "ntee": "", "ruling": "199801", "deductibility": "2", "assets": 86315, "income": 137417, "revenue": 137417}, {"ein": "223461497", "name": "GRACE PENTECOSTAL TABERNACLE OF NEW JERSEY INC", "city": "BROOKLYN", "state": "NY", "zip": "11201-4831", "ntee": "X20Z", "ruling": "199708", "deductibility": "1", "assets": 0, "income": 0, "revenue": 0}, {"ein": "223761361", "name": "NEW JERSEY JUNGTO SOCIETY INC", "city": "FLUSHING", "state": "NY", "zip": "11358-4150", "ntee": "X50", "ruling": "200012", "deductibility": "1", "assets": 0, "income": 0, "revenue": 0}, {"ein": "226062063", "name": "LOCAL 522 WELFARE FUND OF NEW YORK & NEW JERSEY", "city": "BROOKLYN", "state": "NY", "zip": "11234-3827", "ntee": "", "ruling": "196508", "deductibility": "2", "assets": 11196784, "income": 41473147, "revenue": 28895038}, {"ein": "237064218", "name": "FOUNTAIN HOUSE OF NEW JERSEY INCORPORATED", "city": "NEW YORK", "state": "NY", "zip": "10036-2304", "ntee": "F34Z", "ruling": "197004", "deductibility": "1", "assets": 1960021, "income": 50517, "revenue": 50517}, {"ein": "237100973", "name": "PROFESSIONAL INSURANCE AGENTS OF NEW JERSEY", "city": "GLENMONT", "state": "NY", "zip": "12077-0997", "ntee": "", "ruling": "194602", "deductibility": "2", "assets": 6651317, "income": 1636738, "revenue": 1473761}, {"ein": "237106933", "name": "NEW JERSEY EDUCATION ASSOCIATION", "city": "NEW PALTZ", "state": "NY", "zip": "12561-3415", "ntee": "", "ruling": "197209", "deductibility": "2", "assets": 0, "income": 0, "revenue": 0}, {"ein": "237353330", "name": "CARRIE STERN TR UW FBO JEWISH HOSP & REHABILITATION CTR OF NEW JERSEY", "city": "NEW YORK", "state": "NY", "zip": "10008-1297", "ntee": "", "ruling": "197402", "deductibility": "1", "assets": 151690, "income": 21544, "revenue": 0}, {"ein": "237439373", "name": "NEW YORK & NEW JERSEY MINORITY SUPPLIER DEVELOPMENT COUNCIL INC", "city": "NEW YORK", "state": "NY", "zip": "10018-7902", "ntee": "", "ruling": "197503", "deductibility": "1", "assets": 3929527, "income": 3134839, "revenue": 2859326}, {"ein": "262384371", "name": "METROPOLITAN SECTION OF NEW YORK AND NEW JERSEY INSTITUTE OF TRANSP", "city": "BABYLON", "state": "NY", "zip": "11702-3444", "ntee": "U03", "ruling": "200805", "deductibility": "1", "assets": 112657, "income": 148787, "revenue": 148787}, {"ein": "263814633", "name": "NEW JERSEY FRIENDS OF MANDEVILLE INC", "city": "JAMAICA", "state": "NY", "zip": "11432-2936", "ntee": "P60", "ruling": "201011", "deductibility": "1", "assets": 1806304, "income": 140529, "revenue": 140529}, {"ein": "300954667", "name": "NEW YORK NEW JERSEY REGIONAL JOINT BOARD HOLDING COMPANY INC", "city": "NEW YORK", "state": "NY", "zip": "10001-6443", "ntee": "S47", "ruling": "201804", "deductibility": "2", "assets": 8007866, "income": 240000, "revenue": 240000}, {"ein": "320268304", "name": "NEW JERSEY KOREAN CH NEW EGYPT NJ", "city": "STATEN ISLAND", "state": "NY", "zip": "10309-1774", "ntee": "", "ruling": "196408", "deductibility": "0", "assets": 0, "income": 0, "revenue": 0}, {"ein": "364851801", "name": "NEW JERSEY ANTIQUE RADIO CLUB WWWDOTNJARCDOTORG", "city": "PIERMONT", "state": "NY", "zip": "10968-1014", "ntee": "U40", "ruling": "201904", "deductibility": "1", "assets": 0, "income": 0, "revenue": 0}, {"ein": "371660097", "name": "EIHAB HUMAN SERVICES NEW JERSEY INC", "city": "JAMAICA", "state": "NY", "zip": "11434-4806", "ntee": "L20", "ruling": "201205", "deductibility": "1", "assets": 15274517, "income": 35824897, "revenue": 35824897}, {"ein": "465523557", "name": "CHRIST APOSTOLIC CHURCH OF UNITED STATES OF AMERICA NEW JERSEY PRINC", "city": "NEW YORK", "state": "NY", "zip": "10029-2814", "ntee": "X21", "ruling": "201410", "deductibility": "1", "assets": 0, "income": 0, "revenue": 0}, {"ein": "473090403", "name": "PROPELLER CLUB OF NEW YORK AND NEW JERSEY", "city": "WHT SPHR SPGS", "state": "NY", "zip": "12787-0398", "ntee": "S41", "ruling": "201506", "deductibility": "2", "assets": 0, "income": 0, "revenue": 0}, {"ein": "510646485", "name": "TOGETHER IN DANCE INC A NEW JERSEY NONPROFIT CORP", "city": "LONG ISLAND CITY", "state": "NY", "zip": "11101-2807", "ntee": "A6E0", "ruling": "200801", "deductibility": "1", "assets": 244856, "income": 193973, "revenue": 193973}, {"ein": "521432708", "name": "NEW JERSEY EDUCATION ASSOCIATION", "city": "STATEN ISLAND", "state": "NY", "zip": "10308-1864", "ntee": "", "ruling": "197209", "deductibility": "2", "assets": 0, "income": 0, "revenue": 0}, {"ein": "522449488", "name": "NEW YORK NEW JERSEY LAW ENFORCEMENT PARTNERSHIP INC", "city": "WOODSTOCK", "state": "NY", "zip": "12498-0333", "ntee": "M12", "ruling": "200504", "deductibility": "1", "assets": 0, "income": 0, "revenue": 0}, {"ein": "811738593", "name": "NEW YORK-NEW JERSEY SECTION OF THE NINETY-NINES INC", "city": "WATERVLIET", "state": "NY", "zip": "12189-1302", "ntee": "M40", "ruling": "201602", "deductibility": "1", "assets": 0, "income": 0, "revenue": 0}, {"ein": "812491412", "name": "EVERY NATION CHURCH NEW JERSEY", "city": "NEW YORK", "state": "NY", "zip": "10019-6594", "ntee": "", "ruling": "199907", "deductibility": "1", "assets": 0, "income": 0, "revenue": 0}, {"ein": "813264305", "name": "TIBETAN NURSES ASSOCIATION OF NEW YORK AND NEW JERSEY INC", "city": "JACKSON HTS", "state": "NY", "zip": "11372-5728", "ntee": "E03", "ruling": "201607", "deductibility": "1", "assets": 0, "income": 0, "revenue": 0}, {"ein": "821655623", "name": "FULL EFFECT GOSPEL MINISTRIES OF NEW JERSEY", "city": "BROOKLYN", "state": "NY", "zip": "11208-3623", "ntee": "X20", "ruling": "201912", "deductibility": "1", "assets": 0, "income": 0, "revenue": 0}, {"ein": "831504486", "name": "NEW YORK AND NEW JERSEY DOLCHOK TSOKPA INC", "city": "ELMHURST", "state": "NY", "zip": "11373-1806", "ntee": "S80", "ruling": "201909", "deductibility": "1", "assets": 0, "income": 0, "revenue": 0}, {"ein": "834680065", "name": "NEW YORK NEW JERSEY PAIN SYMPOSIUM INC", "city": "LAKE SUCCESS", "state": "NY", "zip": "11042-2057", "ntee": "S41", "ruling": "202001", "deductibility": "2", "assets": 595146, "income": 765572, "revenue": 765572}, {"ein": "842832673", "name": "THE JERSEY MANN NYC BASKETBALL TOURNAMENT INC", "city": "BROOKLYN", "state": "NY", "zip": "11210-2935", "ntee": "N60", "ruling": "202006", "deductibility": "1", "assets": 703, "income": 5000, "revenue": 5000}, {"ein": "844149675", "name": "SOUTH JERSEY PLAYERS INC", "city": "NEW YORK", "state": "NY", "zip": "10033-1131", "ntee": "A65", "ruling": "202002", "deductibility": "1", "assets": 3763, "income": 31221, "revenue": 0}, {"ein": "844819260", "name": "NEW JERSEY-NEW YORK COSTUMERS GUILD INC", "city": "ALBANY", "state": "NY", "zip": "12210-1811", "ntee": "B99", "ruling": "202304", "deductibility": "1", "assets": 0, "income": 0, "revenue": 0}, {"ein": "863939840", "name": "LIFE ADVOCATES OF NEW JERSEY INC", "city": "NANUET", "state": "NY", "zip": "10954-2905", "ntee": "P20", "ruling": "202111", "deductibility": "1", "assets": 11680, "income": 13797, "revenue": 13797}, {"ein": "874086497", "name": "BONEI OLAM DIVISION OF CENTRAL JERSEY INC", "city": "BROOKLYN", "state": "NY", "zip": "11204-1270", "ntee": "Q11", "ruling": "202408", "deductibility": "1", "assets": 4063866, "income": 4034206, "revenue": 4034206}, {"ein": "923999060", "name": "NEW JERSEY HEART LUNG PALLIATIVE HOSPICE", "city": "BROOKLYN", "state": "NY", "zip": "11234-3813", "ntee": "E12", "ruling": "202306", "deductibility": "1", "assets": 0, "income": 0, "revenue": 0}, {"ein": "990930996", "name": "NEW JERSEY HAMMERHEADS UNDERWATER RUGBY CLUB INC", "city": "NYACK", "state": "NY", "zip": "10960-1206", "ntee": "N60", "ruling": "202402", "deductibility": "1", "assets": 0, "income": 0, "revenue": 0}, {"ein": "991636879", "name": "RWANDAN COMMUNITY OF NEW YORK NEW JERSEY & CONNECTICUT INC", "city": "SYRACUSE", "state": "NY", "zip": "13208-2921", "ntee": "T40", "ruling": "202404", "deductibility": "1", "assets": 0, "income": 0, "revenue": 0}], "ARE": [{"ein": "010756152", "name": "AMERICANS WE ARE A FAMILY FOUNDATION INC", "city": "NEW YORK", "state": "NY", "zip": "10016-4129", "ntee": "T20", "ruling": "200310", "deductibility": "1", "assets": 13563, "income": 800, "revenue": 0}, {"ein": "116003010", "name": "BOBOWER SHA-ARE ZION CONG", "city": "BROOKLYN", "state": "NY", "zip": "11219-3250", "ntee": "", "ruling": "198201", "deductibility": "1", "assets": 0, "income": 0, "revenue": 0}, {"ein": "204817022", "name": "YOU ARE BEAUTIFUL PEOPLE INC", "city": "GOSHEN", "state": "NY", "zip": "10924-1518", "ntee": "O50", "ruling": "200607", "deductibility": "1", "assets": 202633, "income": 189665, "revenue": 167810}, {"ein": "222753716", "name": "HAMBURG ECONOMIC ARE REVITILIZATION TASKFORCE INC", "city": "HAMBURG", "state": "NY", "zip": "14075-3766", "ntee": "", "ruling": "199103", "deductibility": "2", "assets": 0, "income": 0, "revenue": 0}, {"ein": "262886703", "name": "WE ARE OUR WORLD INC", "city": "NEW YORK", "state": "NY", "zip": "10010-7502", "ntee": "T30", "ruling": "200812", "deductibility": "1", "assets": 0, "income": 0, "revenue": 0}, {"ein": "270010229", "name": "WE ARE FAMILY FOUNDATION", "city": "NEW YORK", "state": "NY", "zip": "10023-5001", "ntee": "R20", "ruling": "200303", "deductibility": "1", "assets": 2446090, "income": 1571678, "revenue": 1571678}, {"ein": "270213447", "name": "TOGETHER WE ARE", "city": "BROOKLYN", "state": "NY", "zip": "11219-2758", "ntee": "P20", "ruling": "201007", "deductibility": "1", "assets": 300106, "income": 426673, "revenue": 426673}, {"ein": "270303277", "name": "ANIMALS ARE A PART OF OUR LIVES CORPORATION", "city": "BRONX", "state": "NY", "zip": "10462-3201", "ntee": "D20", "ruling": "200912", "deductibility": "1", "assets": 675, "income": 3528, "revenue": 3528}, {"ein": "331337523", "name": "WE ARE LIFE INC", "city": "BROOKLYN", "state": "NY", "zip": "11233-4886", "ntee": "P28", "ruling": "202410", "deductibility": "1", "assets": 0, "income": 0, "revenue": 0}, {"ein": "334632936", "name": "REMEDY-WE ARE A REMEDY INCORPORATED", "city": "BROOKLYN", "state": "NY", "zip": "11221-5527", "ntee": "O50", "ruling": "202506", "deductibility": "1", "assets": 0, "income": 0, "revenue": 0}, {"ein": "364725606", "name": "PRISONERS ARE PEOPLE TOO INC", "city": "BUFFALO", "state": "NY", "zip": "14212-0273", "ntee": "R60", "ruling": "202107", "deductibility": "1", "assets": 0, "income": 0, "revenue": 0}, {"ein": "364945081", "name": "CHANCES ARE INC", "city": "SEAFORD", "state": "NY", "zip": "11783-2439", "ntee": "F54", "ruling": "201910", "deductibility": "1", "assets": 0, "income": 0, "revenue": 0}, {"ein": "451151323", "name": "WE ARE MANY FOUNDATION INC", "city": "HAUPPAUGE", "state": "NY", "zip": "11788-4429", "ntee": "P62", "ruling": "201302", "deductibility": "1", "assets": 0, "income": 0, "revenue": 0}, {"ein": "455476167", "name": "WE ARE WOMAN", "city": "NEW YORK", "state": "NY", "zip": "10014-2788", "ntee": "R20", "ruling": "201409", "deductibility": "1", "assets": 0, "income": 0, "revenue": 0}, {"ein": "463882253", "name": "YOU ARE NEVER ALONE FOUNDATION LTD", "city": "SPRING VALLEY", "state": "NY", "zip": "10977-1735", "ntee": "Z99", "ruling": "201407", "deductibility": "1", "assets": 13861, "income": 125106, "revenue": 125106}, {"ein": "464931826", "name": "WE ARE LADIES FIRST LTD", "city": "STATEN ISLAND", "state": "NY", "zip": "10301-0133", "ntee": "O30", "ruling": "201801", "deductibility": "1", "assets": 0, "income": 0, "revenue": 0}, {"ein": "471462033", "name": "WE ARE ONE YOUTH FOUNDATION INC", "city": "BROOKLYN", "state": "NY", "zip": "11213-4159", "ntee": "O20", "ruling": "201707", "deductibility": "1", "assets": 0, "income": 0, "revenue": 0}, {"ein": "472680265", "name": "ANIMALS ARE FOREVER INC", "city": "WURTSBORO", "state": "NY", "zip": "12790-5301", "ntee": "D20", "ruling": "201601", "deductibility": "1", "assets": 101, "income": 4561, "revenue": 4561}, {"ein": "475575835", "name": "ANGELS COVERING WOMEN WHO ARE TIRED MINISTRIES INC", "city": "BROOKLYN", "state": "NY", "zip": "11217-2626", "ntee": "P62", "ruling": "201702", "deductibility": "1", "assets": 0, "income": 0, "revenue": 0}, {"ein": "475644442", "name": "BLESSED ARE THE PEACEMAKERS INC", "city": "S FLORAL PARK", "state": "NY", "zip": "11001-3803", "ntee": "Q40", "ruling": "201512", "deductibility": "1", "assets": 0, "income": 0, "revenue": 0}, {"ein": "800233785", "name": "PETS ARE WONDERFUL SUPPORT INC", "city": "NEW YORK", "state": "NY", "zip": "10001-0157", "ntee": "D20", "ruling": "201210", "deductibility": "1", "assets": 889856, "income": 816026, "revenue": 760714}, {"ein": "800444929", "name": "AZZAHRA ASLAM QUIM THESE ARE THE LIGHTS KRST INC", "city": "BUFFALO", "state": "NY", "zip": "14222-2202", "ntee": "X99", "ruling": "201001", "deductibility": "1", "assets": 0, "income": 0, "revenue": 0}, {"ein": "811338580", "name": "PEOPLE ARE DIFFERENT INC", "city": "RIVERDALE", "state": "NY", "zip": "10463-1616", "ntee": "H99", "ruling": "201607", "deductibility": "1", "assets": 0, "income": 0, "revenue": 0}, {"ein": "812437036", "name": "PANDAS ARE COMING TO NYC INC", "city": "NEW YORK", "state": "NY", "zip": "10022-7655", "ntee": "D50", "ruling": "201611", "deductibility": "1", "assets": 73545, "income": 1, "revenue": 0}, {"ein": "814189494", "name": "WE ARE PHENOMENAL WOMEN", "city": "NEW YORK", "state": "NY", "zip": "10030-3452", "ntee": "I71", "ruling": "201809", "deductibility": "1", "assets": 0, "income": 0, "revenue": 0}, {"ein": "821571396", "name": "WE ARE HYPER INC", "city": "NEW YORK", "state": "NY", "zip": "10033-3832", "ntee": "W99", "ruling": "201706", "deductibility": "1", "assets": 0, "income": 0, "revenue": 0}, {"ein": "822548437", "name": "WE ARE ALL HUMAN FOUNDATION", "city": "NEW YORK", "state": "NY", "zip": "10013-3215", "ntee": "R99", "ruling": "201807", "deductibility": "1", "assets": 2119809, "income": 2436149, "revenue": 0}, {"ein": "832071012", "name": "BLOSSOM WHERE YOU ARE", "city": "BUFFALO", "state": "NY", "zip": "14214-2599", "ntee": "O50", "ruling": "201811", "deductibility": "1", "assets": 0, "income": 0, "revenue": 0}, {"ein": "832697152", "name": "WE ARE YOUR CHILDREN INC", "city": "BROOKLYN", "state": "NY", "zip": "11219-1344", "ntee": "P30", "ruling": "201911", "deductibility": "1", "assets": 167795, "income": 1798993, "revenue": 1798993}, {"ein": "833729270", "name": "WE ARE THEIR VOICE WILDLIFE CARE AND RESCUE LLC", "city": "NEWARK VALLEY", "state": "NY", "zip": "13811-3209", "ntee": "D99", "ruling": "202012", "deductibility": "1", "assets": 0, "income": 0, "revenue": 0}, {"ein": "834183195", "name": "NWALI CORP NO WOMEN ARE LEAST INTERNATIONAL", "city": "NEW YORK", "state": "NY", "zip": "10035-3425", "ntee": "P01", "ruling": "201905", "deductibility": "1", "assets": 0, "income": 0, "revenue": 0}, {"ein": "834647993", "name": "CHURCH OF CHRIST WE ARE LIGHT INC", "city": "ROCHESTER", "state": "NY", "zip": "14605-2577", "ntee": "X20", "ruling": "202008", "deductibility": "1", "assets": 0, "income": 0, "revenue": 0}, {"ein": "843462208", "name": "WE ARE NOT AFRAID COMMUNITY RESOURCE CENTER INC", "city": "NEW YORK", "state": "NY", "zip": "10026-0000", "ntee": "P20", "ruling": "202004", "deductibility": "1", "assets": 219699, "income": 372841, "revenue": 372841}, {"ein": "843703329", "name": "WE ARE THE PEOPLE INC", "city": "JACKSON HEIGHTS", "state": "NY", "zip": "11372-0000", "ntee": "R23", "ruling": "202211", "deductibility": "1", "assets": 10974, "income": 1306, "revenue": 0}, {"ein": "851990500", "name": "THE BLESSED ARE FOUNDATION INC", "city": "NEW YORK", "state": "NY", "zip": "10013-4814", "ntee": "T70", "ruling": "202105", "deductibility": "1", "assets": 0, "income": 0, "revenue": 0}, {"ein": "852022787", "name": "WE ARE FLOYD INC", "city": "BROOKLYN", "state": "NY", "zip": "11221-7231", "ntee": "R99", "ruling": "202410", "deductibility": "1", "assets": 0, "income": 0, "revenue": 0}, {"ein": "861493158", "name": "WE ARE QUEENS INC", "city": "NEW YORK", "state": "NY", "zip": "10036-6948", "ntee": "A62", "ruling": "202203", "deductibility": "1", "assets": 0, "income": 0, "revenue": 0}, {"ein": "862451761", "name": "WE ARE ALL HUMAN ALLIANCE ASSOC", "city": "NEW YORK CITY", "state": "NY", "zip": "10013-3215", "ntee": "R30", "ruling": "202203", "deductibility": "1", "assets": 0, "income": 0, "revenue": 0}, {"ein": "862963556", "name": "PITBULLS ARE FAMILY INC", "city": "BROOKLYN", "state": "NY", "zip": "11226-8802", "ntee": "D20", "ruling": "202108", "deductibility": "1", "assets": 0, "income": 0, "revenue": 0}, {"ein": "873668510", "name": "WE ARE WOMEN WARRIORS", "city": "BUFFALO", "state": "NY", "zip": "14215-0911", "ntee": "S20", "ruling": "202202", "deductibility": "1", "assets": 0, "income": 0, "revenue": 0}, {"ein": "874486115", "name": "WE ARE INSTRUMENTAL INC", "city": "TICONDEROGA", "state": "NY", "zip": "12883-0586", "ntee": "A68", "ruling": "202202", "deductibility": "1", "assets": 117638, "income": 193835, "revenue": 193835}, {"ein": "882457612", "name": "ARE YOU READY COMNUNITY OUTREACH INC", "city": "BROOKLYN", "state": "NY", "zip": "11205-4448", "ntee": "B90", "ruling": "202406", "deductibility": "1", "assets": 0, "income": 0, "revenue": 0}, {"ein": "900760087", "name": "BETTER DAYS ARE COMING DOG RESCUE INC", "city": "BUFFALO", "state": "NY", "zip": "14210-2328", "ntee": "D20", "ruling": "201204", "deductibility": "1", "assets": 0, "income": 0, "revenue": 0}, {"ein": "922244657", "name": "WE ARE DETECTIVES", "city": "BRONX", "state": "NY", "zip": "10455-3907", "ntee": "M40", "ruling": "202307", "deductibility": "1", "assets": 0, "income": 0, "revenue": 0}, {"ein": "923678424", "name": "WE ARE NEWSWORTHY TOO INC", "city": "ALBANY", "state": "NY", "zip": "12203-0812", "ntee": "R20", "ruling": "202307", "deductibility": "1", "assets": 0, "income": 0, "revenue": 0}, {"ein": "923906879", "name": "FATHERS ARE REAL INCORPORATED", "city": "NEW YORK", "state": "NY", "zip": "10030-2709", "ntee": "O50", "ruling": "202308", "deductibility": "1", "assets": 0, "income": 0, "revenue": 0}, {"ein": "931843519", "name": "I AM U ARE WORLD INC", "city": "BROOKLYN", "state": "NY", "zip": "11233-4515", "ntee": "Q20", "ruling": "202403", "deductibility": "1", "assets": 0, "income": 0, "revenue": 0}, {"ein": "933038096", "name": "TILL ALL PAWS ARE SAFE INC", "city": "YONKERS", "state": "NY", "zip": "10704-4303", "ntee": "D20", "ruling": "202309", "deductibility": "1", "assets": 0, "income": 0, "revenue": 0}, {"ein": "991526177", "name": "KIDS ARE FANTASTIC", "city": "MAYBROOK", "state": "NY", "zip": "12543-1337", "ntee": "P33", "ruling": "202505", "deductibility": "1", "assets": 1, "income": 98823, "revenue": 98823}, {"ein": "991957505", "name": "BUILDINGS ARE PEOPLE TOO", "city": "NEW YORK", "state": "NY", "zip": "10011-5201", "ntee": "A20", "ruling": "202410", "deductibility": "1", "assets": 0, "income": 0, "revenue": 0}, {"ein": "994348057", "name": "WE ARE SOUTHERN BROOKLYN", "city": "BROOKLYN", "state": "NY", "zip": "11235-5833", "ntee": "C01", "ruling": "202411", "deductibility": "1", "assets": 0, "income": 0, "revenue": 0}], "CENTERPOINTE": [{"ein": "020624297", "name": "CENTERPOINTE COMMUNITY CHURCH INC", "city": "DEPEW", "state": "NY", "zip": "14043-2504", "ntee": "X20", "ruling": "200601", "deductibility": "1", "assets": 0, "income": 0, "revenue": 0}], "COLUMBIA": [{"ein": "030384446", "name": "SUFFOLK COUNTY POLICE DEPT COLUMBIA ASSOCIATION", "city": "E NORTHPORT", "state": "NY", "zip": "11731-0146", "ntee": "R30", "ruling": "200312", "deductibility": "1", "assets": 125049, "income": 43549, "revenue": 43549}, {"ein": "030531329", "name": "PTA PUBLIC SCHOOL 58 SS COLUMBIA", "city": "STATEN ISLAND", "state": "NY", "zip": "10314-5901", "ntee": "B11", "ruling": "201203", "deductibility": "1", "assets": 39423, "income": 164363, "revenue": 54824}, {"ein": "030594755", "name": "THE S S COLUMBIA PROJECT", "city": "NEW YORK", "state": "NY", "zip": "10003-7301", "ntee": "A82", "ruling": "200705", "deductibility": "1", "assets": 2616405, "income": 65891, "revenue": 65891}, {"ein": "061620191", "name": "COLUMBIA ASSOCIATION OF THE US CUSTOMS & AFFILIATED FEDERAL", "city": "VALLEY STREAM", "state": "NY", "zip": "11581-3222", "ntee": "B82", "ruling": "200202", "deductibility": "1", "assets": 0, "income": 0, "revenue": 0}, {"ein": "061733146", "name": "MEDICAL SOCIETY OF THE COUNTY OF COLUMBIA", "city": "HUDSON", "state": "NY", "zip": "12534-3509", "ntee": "B90", "ruling": "200911", "deductibility": "2", "assets": 0, "income": 0, "revenue": 0}, {"ein": "112726617", "name": "COLUMBIA ASSOCIATION OF THE DEPARTMENT OF SANITATION INC", "city": "NEW YORK", "state": "NY", "zip": "10013-0216", "ntee": "C20", "ruling": "202310", "deductibility": "2", "assets": 38983, "income": 216305, "revenue": 88811}, {"ein": "112885980", "name": "COLUMBIA ENGINE CO 1 OF OCEANSIDE NY", "city": "OCEANSIDE", "state": "NY", "zip": "11572-2122", "ntee": "M24", "ruling": "200110", "deductibility": "1", "assets": 609185, "income": 43587, "revenue": 43587}, {"ein": "113227149", "name": "CLAYWORKS ON COLUMBIA INC", "city": "BROOKLYN", "state": "NY", "zip": "11231-1425", "ntee": "A47P", "ruling": "199612", "deductibility": "1", "assets": 151064, "income": 261199, "revenue": 0}, {"ein": "113442815", "name": "COLUMBIA ASSOCIATION OF THE POLICE DEPARTMENT CITY OF NEW YORK INC", "city": "REGO PARK", "state": "NY", "zip": "11374-7699", "ntee": "P40", "ruling": "199903", "deductibility": "1", "assets": 332139, "income": 299275, "revenue": 161114}, {"ein": "113562896", "name": "FUNDACION SIEMPRE COLUMBIA INC", "city": "WOODSIDE", "state": "NY", "zip": "11377-5226", "ntee": "Q33", "ruling": "200510", "deductibility": "1", "assets": 0, "income": 0, "revenue": 0}, {"ein": "130590970", "name": "COLUMBIA GRAMMAR & PREPARATORY SCHOOL", "city": "NEW YORK", "state": "NY", "zip": "10025-7602", "ntee": "B200", "ruling": "194112", "deductibility": "1", "assets": 156938275, "income": 256107839, "revenue": 92654188}, {"ein": "131623968", "name": "COLUMBIA UNIVERSITY PRESS", "city": "NEW YORK", "state": "NY", "zip": "10027-0000", "ntee": "A330", "ruling": "194601", "deductibility": "1", "assets": 1, "income": 0, "revenue": 0}, {"ein": "131624202", "name": "TEACHERS COLLEGE COLUMBIA UNIVERSITY", "city": "NEW YORK", "state": "NY", "zip": "10027-6605", "ntee": "B500", "ruling": "193501", "deductibility": "1", "assets": 772432889, "income": 382261770, "revenue": 267658455}, {"ein": "132596350", "name": "COLUMBIA JOURNAL OF LAW & SOCIAL PROBLEMS INC", "city": "NEW YORK", "state": "NY", "zip": "10027-7237", "ntee": "A33Z", "ruling": "196712", "deductibility": "1", "assets": 774429, "income": 638319, "revenue": 0}, {"ein": "132938878", "name": "COLUMBIA HOOK & LADDER CO NO 1", "city": "N TONAWANDA", "state": "NY", "zip": "14120-0357", "ntee": "", "ruling": "197806", "deductibility": "1", "assets": 0, "income": 0, "revenue": 0}, {"ein": "132947415", "name": "COLUMBIA JOURNAL OF TRANSNATIONAL LAW ASSOC INC", "city": "NEW YORK", "state": "NY", "zip": "10027-7237", "ntee": "B53Z", "ruling": "197809", "deductibility": "1", "assets": 188111, "income": 40988, "revenue": 7086}, {"ein": "133194659", "name": "COLUMBIA GREENHOUSE NURSERY SCHOOL", "city": "NEW YORK", "state": "NY", "zip": "10027-7202", "ntee": "B21Z", "ruling": "198107", "deductibility": "1", "assets": 1924094, "income": 1522087, "revenue": 1522087}, {"ein": "133204332", "name": "COLUMBIA ASSOCIATION N Y C FIRE DEPARTMENT SCHOLARSHIP FUND INC", "city": "PEARL RIVER", "state": "NY", "zip": "10965-1633", "ntee": "B82Z", "ruling": "198406", "deductibility": "1", "assets": 457236, "income": 98957, "revenue": 41945}, {"ein": "133737560", "name": "COLUMBIA JOURNAL OF ENVIRONMENTAL LAW INC", "city": "NEW YORK", "state": "NY", "zip": "10027-7237", "ntee": "B99", "ruling": "201308", "deductibility": "1", "assets": 0, "income": 0, "revenue": 0}, {"ein": "133800106", "name": "COLUMBIA UNIVERSITY RETIREE MEDICAL AND LIFE INS BENEFITS TR", "city": "NEW YORK", "state": "NY", "zip": "10027-0000", "ntee": "Y110", "ruling": "199508", "deductibility": "1", "assets": 241353087, "income": 280083976, "revenue": 7648004}, {"ein": "133832591", "name": "ASIAN COLUMBIA ALUMNI ASSOCIATION INC", "city": "ALBERTSON", "state": "NY", "zip": "11507-0253", "ntee": "", "ruling": "199609", "deductibility": "1", "assets": 0, "income": 0, "revenue": 0}, {"ein": "133907236", "name": "COLUMBIA SCHOOL LINGUISTIC SOCIETY INC", "city": "NEW YORK", "state": "NY", "zip": "10031-9101", "ntee": "B300", "ruling": "200004", "deductibility": "1", "assets": 352451, "income": 184641, "revenue": 184641}, {"ein": "133948652", "name": "COLUMBIA UNIVERSITY HEALTH CARE INC", "city": "NEW YORK", "state": "NY", "zip": "10027-0000", "ntee": "E32", "ruling": "199802", "deductibility": "1", "assets": 1200476, "income": 38416468, "revenue": 38416468}, {"ein": "134191011", "name": "COLUMBIA BUSINESS LAW REVIEW INC", "city": "NEW YORK", "state": "NY", "zip": "10027-7237", "ntee": "B99", "ruling": "200202", "deductibility": "1", "assets": 205638, "income": 11181, "revenue": 11181}, {"ein": "135598093", "name": "TRUSTEES OF COLUMBIA UNIVERSITY", "city": "NEW YORK", "state": "NY", "zip": "10027-7922", "ntee": "B430", "ruling": "197401", "deductibility": "1", "assets": 24801091365, "income": 9964855238, "revenue": 7314092533}, {"ein": "136052942", "name": "COLUMBIA PREBYTERIAN HOSPITAL TTEE", "city": "NEW YORK", "state": "NY", "zip": "10013-2362", "ntee": "", "ruling": "000000", "deductibility": "0", "assets": 6563250, "income": 1874170, "revenue": 0}, {"ein": "136094761", "name": "COLUMBIA ENGINEERING SCHOOL ALUMNI ASSOCIATION INC", "city": "NEW YORK", "state": "NY", "zip": "10115-0089", "ntee": "B84Z", "ruling": "196410", "deductibility": "1", "assets": 4829497, "income": 154610, "revenue": 154610}, {"ein": "136128728", "name": "COLUMBIA UNIVERSITY TRUST U/W E REUSSNER", "city": "NEW YORK", "state": "NY", "zip": "10010-0000", "ntee": "", "ruling": "193902", "deductibility": "1", "assets": 1485882, "income": 377914, "revenue": 0}, {"ein": "136161436", "name": "COLUMBIA LAW REVIEW ASSOCIATION INC", "city": "NEW YORK", "state": "NY", "zip": "10027-7237", "ntee": "B53Z", "ruling": "195702", "deductibility": "1", "assets": 20504828, "income": 853771, "revenue": 853771}, {"ein": "136162924", "name": "COLUMBIA-PRESBYTERIAN MEDICAL CENTER FUND INC", "city": "NEW YORK", "state": "NY", "zip": "10027-0000", "ntee": "E120", "ruling": "196111", "deductibility": "1", "assets": 25218009, "income": 1410028, "revenue": 1280419}, {"ein": "140576895", "name": "COLUMBIA GOLF & COUNTRY CLUB INC", "city": "CLAVERACK", "state": "NY", "zip": "12513-0646", "ntee": "N6AZ", "ruling": "196312", "deductibility": "2", "assets": 3013676, "income": 1900266, "revenue": 1900266}, {"ein": "140763850", "name": "CHILDRENS FOUNDATION OF COLUMBIA COUNTY INC", "city": "HUDSON", "state": "NY", "zip": "12534-2355", "ntee": "", "ruling": "194806", "deductibility": "1", "assets": 1349892, "income": 37734, "revenue": 0}, {"ein": "141253482", "name": "COLUMBIA COUNTY AGRICULTURAL SOCIETY", "city": "CHATHAM", "state": "NY", "zip": "12037-1321", "ntee": "N52", "ruling": "200808", "deductibility": "1", "assets": 1922321, "income": 1093730, "revenue": 1084576}, {"ein": "141338373", "name": "COLUMBIA MEMORIAL HOSPITAL", "city": "HUDSON", "state": "NY", "zip": "12534-2927", "ntee": "E21", "ruling": "201403", "deductibility": "1", "assets": 0, "income": 0, "revenue": 0}, {"ein": "141487056", "name": "COLUMBIA GREENE HUMANE SOCIETY INC", "city": "HUDSON", "state": "NY", "zip": "12534-3400", "ntee": "D200", "ruling": "197012", "deductibility": "1", "assets": 3961947, "income": 2210068, "revenue": 2207617}, {"ein": "141595821", "name": "CATHOLIC CHARITIES OF COLUMBIA AND GREENE COUNTIES", "city": "HUDSON", "state": "NY", "zip": "12534-2422", "ntee": "F20Z", "ruling": "194603", "deductibility": "1", "assets": 0, "income": 0, "revenue": 0}, {"ein": "141599033", "name": "CHAMBER OF COMMERCE OF COLUMBIA COUNTY INC", "city": "HUDSON", "state": "NY", "zip": "12534-2001", "ntee": "", "ruling": "199503", "deductibility": "2", "assets": 200955, "income": 381688, "revenue": 381688}, {"ein": "141604140", "name": "FAMILY SURVIVAL OF COLUMBIA COUNTY", "city": "CHATHAM", "state": "NY", "zip": "12037-0319", "ntee": "P41Z", "ruling": "198212", "deductibility": "1", "assets": 308330, "income": 66381, "revenue": 66381}, {"ein": "141616451", "name": "CSEA UNIT 676-380000 TRANSPORTATION REG 1 COLUMBIA DEPT OF TRANS", "city": "HILLSDALE", "state": "NY", "zip": "12529-5096", "ntee": "J40", "ruling": "202506", "deductibility": "2", "assets": 0, "income": 0, "revenue": 0}, {"ein": "141627038", "name": "COLUMBIA OPPORTUNITIES INC", "city": "HUDSON", "state": "NY", "zip": "12534-2507", "ntee": "P200", "ruling": "198312", "deductibility": "1", "assets": 1096202, "income": 2546498, "revenue": 2546498}, {"ein": "141683423", "name": "COLUMBIA-GREENE BOARD OF REALTORS INC", "city": "HUDSON", "state": "NY", "zip": "12534-1211", "ntee": "S47Z", "ruling": "199510", "deductibility": "2", "assets": 1514176, "income": 595942, "revenue": 353940}, {"ein": "141695703", "name": "CSEA UNIT 0811-650300 COLUMBIA COUNTY CITY OF HUDSON", "city": "HUDSON", "state": "NY", "zip": "12534-2802", "ntee": "", "ruling": "197007", "deductibility": "2", "assets": 0, "income": 0, "revenue": 0}, {"ein": "141717001", "name": "COLUMBIA FESTIVAL ORCHESTRA INC", "city": "HUDSON", "state": "NY", "zip": "12534-2912", "ntee": "", "ruling": "198910", "deductibility": "1", "assets": 0, "income": 0, "revenue": 0}, {"ein": "141755710", "name": "COLUMBIA ECONOMIC DEVELOPMENT CORPORATION", "city": "HUDSON", "state": "NY", "zip": "12534-2355", "ntee": "", "ruling": "199412", "deductibility": "1", "assets": 4825253, "income": 1181402, "revenue": 1181402}, {"ein": "141785275", "name": "COLUMBIA COUNTY ASSOCIATION OF TOWN SUPERINTENDENTS", "city": "GHENT", "state": "NY", "zip": "12075-0402", "ntee": "S40", "ruling": "202105", "deductibility": "2", "assets": 0, "income": 0, "revenue": 0}, {"ein": "141793189", "name": "CLARION CONCERTS IN COLUMBIA COUNTY", "city": "PHILMONT", "state": "NY", "zip": "12565-0462", "ntee": "A68", "ruling": "199907", "deductibility": "1", "assets": 50794, "income": 58210, "revenue": 47712}, {"ein": "141802680", "name": "COLUMBIA COUNTY COMMUNITY HEALTHCARE CONSORTIUM INC", "city": "HUDSON", "state": "NY", "zip": "12534-1902", "ntee": "E80", "ruling": "199806", "deductibility": "1", "assets": 1555407, "income": 1547239, "revenue": 1542000}, {"ein": "141815202", "name": "COLUMBIA COUNTY DEPUTY SHERIFFS BENEVOLENT ASSOCIATION INC", "city": "HUDSON", "state": "NY", "zip": "12534-1505", "ntee": "J40", "ruling": "200004", "deductibility": "2", "assets": 139851, "income": 66543, "revenue": 46669}, {"ein": "141822852", "name": "ROCK SOLID CHURCH OF COLUMBIA COUNTY", "city": "HUDSON", "state": "NY", "zip": "12534-0424", "ntee": "X21", "ruling": "200110", "deductibility": "1", "assets": 0, "income": 0, "revenue": 0}, {"ein": "141832004", "name": "LUTHERAN PARIS OF SOUTHERN COLUMBIA COUNTY", "city": "ELIZAVILLE", "state": "NY", "zip": "12523-1238", "ntee": "X20", "ruling": "200203", "deductibility": "1", "assets": 0, "income": 0, "revenue": 0}, {"ein": "146021853", "name": "COLUMBIA COUNTY HISTORICAL SOCIETY INC", "city": "KINDERHOOK", "state": "NY", "zip": "12106-2200", "ntee": "A82Z", "ruling": "195504", "deductibility": "1", "assets": 1672945, "income": 251002, "revenue": 249802}, {"ein": "146030796", "name": "MENTAL HEALTH ASSOCIATION OF COLUMBIA-GREENE COUNTIES INC", "city": "HUDSON", "state": "NY", "zip": "12534-3001", "ntee": "F80Z", "ruling": "196806", "deductibility": "1", "assets": 12555823, "income": 13923382, "revenue": 13923382}, {"ein": "146164893", "name": "RENSSELAER-COLUMBIA-GREENE HEALTH INS TR", "city": "CASTLETON ON HUDSON", "state": "NY", "zip": "12033-0000", "ntee": "", "ruling": "199503", "deductibility": "2", "assets": 27617993, "income": 122045155, "revenue": 122045155}, {"ein": "160983166", "name": "ALLENDALE COLUMBIA SCHOOL", "city": "ROCHESTER", "state": "NY", "zip": "14618-3405", "ntee": "B200", "ruling": "197110", "deductibility": "1", "assets": 13280476, "income": 11103459, "revenue": 11096225}, {"ein": "161661538", "name": "SOCIETY OF COLUMBIA GRADUATES", "city": "NEW YORK", "state": "NY", "zip": "10027-0000", "ntee": "T30", "ruling": "200604", "deductibility": "1", "assets": 0, "income": 0, "revenue": 0}, {"ein": "222159687", "name": "COLUMBIA COUNTY MENTAL RETARDATION REALTY COMPANY INC", "city": "MELLENVILLE", "state": "NY", "zip": "12544-0002", "ntee": "P190", "ruling": "198204", "deductibility": "1", "assets": 2738296, "income": 337615, "revenue": 332615}, {"ein": "222308614", "name": "COLUMBIA - GREENE COMMUNITY COLLEGE FOUNDATION INC", "city": "HUDSON", "state": "NY", "zip": "12534-0000", "ntee": "B41I", "ruling": "198107", "deductibility": "1", "assets": 5839212, "income": 1101310, "revenue": 1070929}, {"ein": "222403126", "name": "COLUMBIA CHILDRENS CENTER", "city": "HUDSON", "state": "NY", "zip": "12534-1513", "ntee": "P33Z", "ruling": "198209", "deductibility": "1", "assets": 208693, "income": 684916, "revenue": 684916}, {"ein": "222757332", "name": "COLUMBIA LAND CONSERVANCY INC", "city": "CHATHAM", "state": "NY", "zip": "12037-1225", "ntee": "C340", "ruling": "198702", "deductibility": "1", "assets": 31701273, "income": 5992086, "revenue": 4572886}, {"ein": "237077182", "name": "COLUMBIA BARNARD HILLEL INC", "city": "NEW YORK", "state": "NY", "zip": "10025-7721", "ntee": "X30Z", "ruling": "197012", "deductibility": "1", "assets": 32021850, "income": 5429178, "revenue": 5294631}, {"ein": "237326781", "name": "COLUMBIA ASSOCIATION OF WESTCHESTER CO INC", "city": "YONKERS", "state": "NY", "zip": "10703-0542", "ntee": "", "ruling": "197408", "deductibility": "2", "assets": 0, "income": 0, "revenue": 0}, {"ein": "260787265", "name": "THE PTA OF THE COLUMBIA SECONDARY SCHOOL FOR MATH SCIENCE & ENGINEER", "city": "NEW YORK", "state": "NY", "zip": "10027-5002", "ntee": "B94", "ruling": "202106", "deductibility": "1", "assets": 28281, "income": 101251, "revenue": 67886}, {"ein": "261146491", "name": "FRIENDS OF COLUMBIA SECONDARY SCHOOL FOR MATH SCIENCE AND", "city": "NEW YORK", "state": "NY", "zip": "10025-7722", "ntee": "B94", "ruling": "201811", "deductibility": "1", "assets": 122530, "income": 663012, "revenue": 663012}, {"ein": "264444776", "name": "BLACK ALUMNI COUNCIL OF COLUMBIA UNIVERSITY", "city": "BROOKLYN", "state": "NY", "zip": "11226-8571", "ntee": "B84", "ruling": "202010", "deductibility": "1", "assets": 0, "income": 0, "revenue": 0}, {"ein": "272923324", "name": "COLUMBIA COUNTY CHAMBER FOUNDATION INC", "city": "HUDSON", "state": "NY", "zip": "12534-2001", "ntee": "W70", "ruling": "202402", "deductibility": "1", "assets": 0, "income": 0, "revenue": 0}, {"ein": "274744454", "name": "COLUMBIA SUMMER WINDS INC", "city": "NEW YORK CITY", "state": "NY", "zip": "10012-5500", "ntee": "A6C", "ruling": "201903", "deductibility": "1", "assets": 0, "income": 0, "revenue": 0}, {"ein": "300705735", "name": "COOPERATIVE EXTENSION ASSOCIATION IN THE STATE OF NEW YORK COLUMBIA", "city": "ACRA", "state": "NY", "zip": "12405-0000", "ntee": "", "ruling": "195204", "deductibility": "1", "assets": 0, "income": 0, "revenue": 0}, {"ein": "320358926", "name": "NASSAU COUNTY SHERIFFS DEPT COLUMBIA ASSOCIATION", "city": "MASSAPEQUA", "state": "NY", "zip": "11758-7940", "ntee": "A23", "ruling": "201210", "deductibility": "1", "assets": 0, "income": 0, "revenue": 0}, {"ein": "331134732", "name": "COLUMBIA GREENE SPORTMANS ASSOCIATION INC", "city": "STUYVESANT", "state": "NY", "zip": "12173-2809", "ntee": "M12", "ruling": "200711", "deductibility": "1", "assets": 83048, "income": 97601, "revenue": 35142}, {"ein": "453843425", "name": "COLUMBIA UNIVERSITY MARCHING BAND ALUMNI COUNCIL", "city": "NEW YORK", "state": "NY", "zip": "10010-4700", "ntee": "A11", "ruling": "201306", "deductibility": "1", "assets": 0, "income": 0, "revenue": 0}, {"ein": "454307089", "name": "NAMI COLUMBIA COUNTY NY INC", "city": "VALATIE", "state": "NY", "zip": "12184-0269", "ntee": "F80", "ruling": "201208", "deductibility": "1", "assets": 0, "income": 0, "revenue": 0}, {"ein": "462035643", "name": "REENTRY TASK FORCE OF COLUMBIA COUNTY INC", "city": "HUDSON", "state": "NY", "zip": "12534-2364", "ntee": "I20", "ruling": "202504", "deductibility": "1", "assets": 79198, "income": 131178, "revenue": 131178}, {"ein": "462627343", "name": "ART SCHOOL OF COLUMBIA COUNTY INC", "city": "GHENT", "state": "NY", "zip": "12075-1239", "ntee": "A25", "ruling": "201408", "deductibility": "1", "assets": 269591, "income": 73803, "revenue": 73803}, {"ein": "465068166", "name": "COLUMBIA COUNTY SPORTSMENS FEDERATION INC", "city": "EAST CHATHAM", "state": "NY", "zip": "12060-0063", "ntee": "Z99", "ruling": "201408", "deductibility": "2", "assets": 47566, "income": 33257, "revenue": 33257}, {"ein": "465205312", "name": "COLUMBIA COACHING LEARNING ASSOCIATION", "city": "NEW YORK", "state": "NY", "zip": "10027-0000", "ntee": "B03", "ruling": "201408", "deductibility": "1", "assets": 227600, "income": 1130, "revenue": 1130}, {"ein": "471864334", "name": "COLUMBIA-GREENE BUILDING OFFICIALS CONFERENCE INC", "city": "FLEISCHMANNS", "state": "NY", "zip": "12430-1328", "ntee": "J22", "ruling": "201508", "deductibility": "1", "assets": 0, "income": 0, "revenue": 0}, {"ein": "473396383", "name": "COLUMBIA COUNTY YOUTH THEATRE INC", "city": "CHATHAM", "state": "NY", "zip": "12037-1428", "ntee": "A65", "ruling": "201505", "deductibility": "1", "assets": 42048, "income": 113181, "revenue": 113181}, {"ein": "510243890", "name": "COLUMBIA GREENE COMMUNITY COLLEGE ASSOCIATION INC", "city": "HUDSON", "state": "NY", "zip": "12534-0000", "ntee": "B80Z", "ruling": "197701", "deductibility": "1", "assets": 685332, "income": 485365, "revenue": 480360}, {"ein": "800496512", "name": "NY PRESBYTERIAN HOSPITAL COLUMBIA UNIVERSITY MEDICAL CENTER NEW YORK", "city": "NEW YORK", "state": "NY", "zip": "10017-3140", "ntee": "Y44", "ruling": "201408", "deductibility": "2", "assets": 19529347, "income": 2906677, "revenue": 671879}, {"ein": "810911852", "name": "COLUMBIA BARTENDING AGENCY INCORPORATED", "city": "NEW YORK", "state": "NY", "zip": "10027-0000", "ntee": "B60", "ruling": "201701", "deductibility": "1", "assets": 73160, "income": 248203, "revenue": 237790}, {"ein": "814367918", "name": "COLUMBIA PATHWAYS TO RECOVERY", "city": "GHENT", "state": "NY", "zip": "12075-0486", "ntee": "P20", "ruling": "201702", "deductibility": "1", "assets": 29429, "income": 102602, "revenue": 94070}, {"ein": "814759386", "name": "KNIGHT FIRST AMENDMENT INSTITUTE AT COLUMBIA UNIVERSITY", "city": "NEW YORK", "state": "NY", "zip": "10027-0000", "ntee": "B11", "ruling": "201706", "deductibility": "1", "assets": 14198925, "income": 9249223, "revenue": 7330170}, {"ein": "814779513", "name": "COLUMBIA GREENE SHARED SERVICES RESPONSE TEAM", "city": "HUDSON", "state": "NY", "zip": "12534-3902", "ntee": "M23", "ruling": "201704", "deductibility": "1", "assets": 0, "income": 0, "revenue": 0}, {"ein": "821804199", "name": "COLUMBIA COUNTY SANCTUARY MOVEMENT", "city": "HUDSON", "state": "NY", "zip": "12534-0785", "ntee": "P01", "ruling": "201712", "deductibility": "1", "assets": 819848, "income": 1042536, "revenue": 1042536}, {"ein": "822205643", "name": "COLUMBIA COUNTY MOUNTAIN BIKE ALLIANCE INC", "city": "AUSTERLITZ", "state": "NY", "zip": "12017-1710", "ntee": "N50", "ruling": "201710", "deductibility": "1", "assets": 0, "income": 0, "revenue": 0}, {"ein": "822423559", "name": "COLUMBIA CRICKET CLUB INC", "city": "NEW CITY", "state": "NY", "zip": "10956-6256", "ntee": "N60", "ruling": "201711", "deductibility": "1", "assets": 0, "income": 0, "revenue": 0}, {"ein": "831492639", "name": "COLUMBIA FRIENDS OF THE ELECTRIC TRAIL", "city": "VALATIE", "state": "NY", "zip": "12184-0011", "ntee": "N30", "ruling": "201810", "deductibility": "1", "assets": 0, "income": 0, "revenue": 0}, {"ein": "832740327", "name": "NEIGHBORS OF NORTHERN COLUMBIA COUNTY", "city": "VALATIE", "state": "NY", "zip": "12184-0582", "ntee": "P80", "ruling": "201902", "deductibility": "1", "assets": 0, "income": 0, "revenue": 0}, {"ein": "833638762", "name": "COLUMBIA LODGE 1754 - INC", "city": "FLUSHING", "state": "NY", "zip": "11358-2427", "ntee": "A03", "ruling": "202207", "deductibility": "1", "assets": 0, "income": 0, "revenue": 0}, {"ein": "833729795", "name": "COLUMBIA LACROSSE CLUB INC", "city": "E GREENBUSH", "state": "NY", "zip": "12061-2000", "ntee": "N60", "ruling": "201903", "deductibility": "1", "assets": 101935, "income": 125782, "revenue": 125782}, {"ein": "841712148", "name": "COLUMBIA GREENE REALTOR CHARITIES INC", "city": "HUDSON", "state": "NY", "zip": "12534-1211", "ntee": "T50", "ruling": "202408", "deductibility": "1", "assets": 17782, "income": 2142, "revenue": 2142}, {"ein": "842446804", "name": "FREE COLUMBIA INC", "city": "HILLSDALE", "state": "NY", "zip": "12529-5432", "ntee": "A99", "ruling": "202002", "deductibility": "1", "assets": 63904, "income": 107542, "revenue": 107542}, {"ein": "843498615", "name": "COLUMBIA BOYS LACROSSE BOOSTER CLUB", "city": "E GREENBUSH", "state": "NY", "zip": "12061-9602", "ntee": "N12", "ruling": "201911", "deductibility": "1", "assets": 0, "income": 0, "revenue": 0}, {"ein": "843631654", "name": "NEW YORK STATE COURTS COLUMBIA SOCIETY", "city": "STATEN ISLAND", "state": "NY", "zip": "10301-0372", "ntee": "A20", "ruling": "202111", "deductibility": "1", "assets": 0, "income": 0, "revenue": 0}, {"ein": "843909752", "name": "CHABAD AT COLUMBIA INC", "city": "NEW YORK", "state": "NY", "zip": "10025-7916", "ntee": "X30", "ruling": "202007", "deductibility": "1", "assets": 0, "income": 0, "revenue": 0}, {"ein": "853364199", "name": "COLUMBIA COUNTY RECOVERY KITCHEN INC", "city": "RHINEBECK", "state": "NY", "zip": "12572-1950", "ntee": "P20", "ruling": "202106", "deductibility": "1", "assets": 319558, "income": 378107, "revenue": 378107}, {"ein": "861284885", "name": "EVER HOME COLUMBIA INC", "city": "LATHAM", "state": "NY", "zip": "12110-1418", "ntee": "E92", "ruling": "202206", "deductibility": "1", "assets": 34532, "income": 150000, "revenue": 150000}, {"ein": "872706668", "name": "PORT AUTHORITY POLICE COLUMBIA ASSOCIATION", "city": "JAMAICA", "state": "NY", "zip": "11710-0000", "ntee": "T03", "ruling": "202112", "deductibility": "1", "assets": 0, "income": 0, "revenue": 0}, {"ein": "874294547", "name": "BLOCKCHAIN AT COLUMBIA INC", "city": "NEW YORK", "state": "NY", "zip": "10025-0000", "ntee": "B20", "ruling": "202203", "deductibility": "1", "assets": 30121, "income": 421690, "revenue": 421690}, {"ein": "882703979", "name": "COLUMBIA NEWYORK-PRESBYTERIAN ADVANCED IMAGING INC", "city": "NEW YORK", "state": "NY", "zip": "10032-3725", "ntee": "E30", "ruling": "202405", "deductibility": "1", "assets": 1, "income": 0, "revenue": 0}, {"ein": "911859360", "name": "TRUSTEES OF COLUMBIA UNIVERSITY IN THE CITY OF NEW YORK", "city": "NEW YORK", "state": "NY", "zip": "10027-7922", "ntee": "", "ruling": "197401", "deductibility": "1", "assets": 0, "income": 0, "revenue": 0}, {"ein": "920284975", "name": "COLUMBIA GIRLS LACROSSE BOOSTER CLUB", "city": "WYNANTSKILL", "state": "NY", "zip": "12198-7817", "ntee": "N11", "ruling": "202303", "deductibility": "1", "assets": 0, "income": 0, "revenue": 0}, {"ein": "921390260", "name": "CHABAD OF COLUMBIA COUNTY INC", "city": "HUDSON", "state": "NY", "zip": "12534-1267", "ntee": "X30", "ruling": "202403", "deductibility": "1", "assets": 0, "income": 0, "revenue": 0}, {"ein": "921657496", "name": "COLUMBIA-GREENE ADDICTION COALITION", "city": "HUDSON", "state": "NY", "zip": "12534-0845", "ntee": "S21", "ruling": "202301", "deductibility": "1", "assets": 145241, "income": 314537, "revenue": 314537}, {"ein": "922270826", "name": "COLUMBIA COUNTY LIBRARIES ASSOCIATION", "city": "HILLSDALE", "state": "NY", "zip": "12529-0669", "ntee": "B70", "ruling": "202302", "deductibility": "1", "assets": 38271, "income": 91757, "revenue": 91757}, {"ein": "931653732", "name": "COLUMBIA BIOMEDICAL ROUNDTABLE", "city": "NEW YORK", "state": "NY", "zip": "10022-5216", "ntee": "G99", "ruling": "202404", "deductibility": "2", "assets": 0, "income": 0, "revenue": 0}, {"ein": "931840189", "name": "METROPOLITAN TRANSPORTATION AUTHORITY POLICE COLUMBIA ASSOCIAT", "city": "MASSAPEQUA PK", "state": "NY", "zip": "11762-3520", "ntee": "W99", "ruling": "202306", "deductibility": "1", "assets": 0, "income": 0, "revenue": 0}, {"ein": "933872414", "name": "ANDREW COLUMBIA MINISTRIES INC", "city": "CARMEL", "state": "NY", "zip": "10512-1204", "ntee": "X20", "ruling": "202312", "deductibility": "1", "assets": 0, "income": 0, "revenue": 0}, {"ein": "934227266", "name": "COLUMBIA ENGINE & HOSE CO 2 CORP", "city": "MAMARONECK", "state": "NY", "zip": "10543-1608", "ntee": "M24", "ruling": "202401", "deductibility": "1", "assets": 31230, "income": 37972, "revenue": 35115}, {"ein": "934834192", "name": "COLUMBIA JEWISH ALUMNI ASSOCIATION INC", "city": "RYE", "state": "NY", "zip": "10580-1597", "ntee": "B84", "ruling": "202407", "deductibility": "1", "assets": 16683, "income": 17162, "revenue": 17162}, {"ein": "990643242", "name": "COLUMBIA COUNTY LAND BANK CORPORATION", "city": "HUDSON", "state": "NY", "zip": "12534-2355", "ntee": "W20", "ruling": "202409", "deductibility": "1", "assets": 0, "income": 0, "revenue": 0}, {"ein": "990729820", "name": "COLUMBIA GIFTED AND TALENTED YOUTH INC", "city": "NEW YORK", "state": "NY", "zip": "10025-2006", "ntee": "B90", "ruling": "202403", "deductibility": "1", "assets": 0, "income": 0, "revenue": 0}, {"ein": "991338342", "name": "FRIENDS OF COLUMBIA CROSS COUNTRY TRACK AND FIELD", "city": "EAST GREENBUSH", "state": "NY", "zip": "12061-0000", "ntee": "N12", "ruling": "202404", "deductibility": "1", "assets": 0, "income": 0, "revenue": 0}, {"ein": "993414291", "name": "AFRICAN AMERICAN ARCHIVE OF THE COLUMBIA COUNTY INC", "city": "CROTON HDSN", "state": "NY", "zip": "10520-1419", "ntee": "A23", "ruling": "202501", "deductibility": "1", "assets": 82630, "income": 85421, "revenue": 85421}, {"ein": "994405389", "name": "COLUMBIA COUNTY PLAYERS THEATRE INC", "city": "CRARYVILLE", "state": "NY", "zip": "12521-5441", "ntee": "A65", "ruling": "202408", "deductibility": "1", "assets": 0, "income": 0, "revenue": 0}], "THOMPSON": [{"ein": "061194385", "name": "THE THOMPSON FAMILY FOUNDATION INC", "city": "NEW YORK", "state": "NY", "zip": "10020-2003", "ntee": "", "ruling": "198801", "deductibility": "1", "assets": 453472181, "income": 179241165, "revenue": 0}, {"ein": "131739923", "name": "BOYCE THOMPSON INSTITUTE FOR PLANT RESEARCH INC", "city": "ITHACA", "state": "NY", "zip": "14853-7202", "ntee": "U500", "ruling": "193804", "deductibility": "1", "assets": 82750847, "income": 40130697, "revenue": 12819530}, {"ein": "133750834", "name": "WALTER THOMPSON ORCHESTRA INC", "city": "WOODSTOCK", "state": "NY", "zip": "12498-0000", "ntee": "A69", "ruling": "201402", "deductibility": "1", "assets": 0, "income": 0, "revenue": 0}, {"ein": "133942201", "name": "THOMPSON DEAN FAMILY FOUNDATION", "city": "NEW YORK", "state": "NY", "zip": "10018-0000", "ntee": "T20Z", "ruling": "199811", "deductibility": "1", "assets": 35741, "income": 1305465, "revenue": 0}, {"ein": "136020644", "name": "J WALTER THOMPSON COMPANY FUND INC", "city": "NEW YORK", "state": "NY", "zip": "10007-0000", "ntee": "", "ruling": "195708", "deductibility": "1", "assets": 1584233, "income": 637680, "revenue": 0}, {"ein": "136089682", "name": "WM B THOMPSON FUND", "city": "GARDEN CITY", "state": "NY", "zip": "11530-4874", "ntee": "", "ruling": "195005", "deductibility": "1", "assets": 105803, "income": 48114, "revenue": 0}, {"ein": "141809264", "name": "FRIENDS OF THACHER-THOMPSON LAKE STATE PARKS INC", "city": "ALBANY", "state": "NY", "zip": "12203-4715", "ntee": "C99", "ruling": "199903", "deductibility": "1", "assets": 0, "income": 0, "revenue": 0}, {"ein": "160743024", "name": "THE FREDERICK FERRIS THOMPSON HOSPI TAL", "city": "CANANDAIGUA", "state": "NY", "zip": "14424-1731", "ntee": "E220", "ruling": "194108", "deductibility": "1", "assets": 195076012, "income": 211679303, "revenue": 211238461}, {"ein": "161416787", "name": "THOMPSON PARK CONSERVANCY INC", "city": "WATERTOWN", "state": "NY", "zip": "13601-3500", "ntee": "A80Z", "ruling": "199302", "deductibility": "1", "assets": 2052697, "income": 849135, "revenue": 808596}, {"ein": "166043464", "name": "ROBERT B & ADDIE P THOMPSON TRUST FUND", "city": "DELHI", "state": "NY", "zip": "13753-1213", "ntee": "", "ruling": "196511", "deductibility": "1", "assets": 1243562, "income": 216872, "revenue": 0}, {"ein": "166046540", "name": "OTIS A THOMPSON FOUNDATION INC", "city": "NORWICH", "state": "NY", "zip": "13815-0000", "ntee": "", "ruling": "196506", "deductibility": "1", "assets": 1519625, "income": 249016, "revenue": 0}, {"ein": "166053299", "name": "FREDERICK FERRIS THOMPSON HOSPITAL GUILD", "city": "CANANDAIGUA", "state": "NY", "zip": "14424-8719", "ntee": "", "ruling": "195308", "deductibility": "0", "assets": 370064, "income": 345718, "revenue": 135277}, {"ein": "166210686", "name": "THERESA & BELLE THOMPSON TR FBO UNITED CHURCH OF CHRIST FIRST CONG", "city": "NORWICH", "state": "NY", "zip": "13815-0000", "ntee": "", "ruling": "197703", "deductibility": "1", "assets": 3454820, "income": 585318, "revenue": 0}, {"ein": "166210688", "name": "THERESA F & BELLA G THOMPSON TRUST FBO YMCA NATL BANK & TRUST CO OF N", "city": "NORWICH", "state": "NY", "zip": "13815-0000", "ntee": "", "ruling": "197803", "deductibility": "1", "assets": 2915552, "income": 564937, "revenue": 0}, {"ein": "166212833", "name": "OTIS THOMPSON FBO UNITED FUND OF NORWICH", "city": "NORWICH", "state": "NY", "zip": "13815-0000", "ntee": "", "ruling": "197801", "deductibility": "1", "assets": 64537, "income": 15662, "revenue": 0}, {"ein": "166212834", "name": "OTIS THOMPSON FBO CHENANGO MEMORIAL HOSPITAL", "city": "NORWICH", "state": "NY", "zip": "13815-0000", "ntee": "", "ruling": "197710", "deductibility": "1", "assets": 385303, "income": 71608, "revenue": 0}, {"ein": "166217822", "name": "THERESA & BELLE THOMPSON TR FBO UNITED CHURCH OF CHRIST FIRST CONG", "city": "NORWICH", "state": "NY", "zip": "13815-0000", "ntee": "", "ruling": "197703", "deductibility": "1", "assets": 2490612, "income": 702705, "revenue": 0}, {"ein": "166217823", "name": "THERESA & BELLE THOMPSON TRUST", "city": "NORWICH", "state": "NY", "zip": "13815-0000", "ntee": "", "ruling": "197803", "deductibility": "1", "assets": 2816171, "income": 627319, "revenue": 0}, {"ein": "222451622", "name": "LILLIAN THOMPSON SCHOLARSHIP FUND INC", "city": "NORWICH", "state": "NY", "zip": "13815-0000", "ntee": "", "ruling": "198307", "deductibility": "1", "assets": 59670, "income": 13374, "revenue": 0}, {"ein": "222959984", "name": "F F THOMPSON HOSPITAL FOUNDATION INC", "city": "CANANDAIGUA", "state": "NY", "zip": "14424-1731", "ntee": "", "ruling": "198905", "deductibility": "1", "assets": 18000183, "income": 5535238, "revenue": 5436643}, {"ein": "222959987", "name": "F F THOMPSON HEALTH SYSTEM INC", "city": "CANANDAIGUA", "state": "NY", "zip": "14424-1731", "ntee": "", "ruling": "198905", "deductibility": "1", "assets": 6382762, "income": 5831288, "revenue": 5264504}, {"ein": "270646479", "name": "63 THOMPSON STREET HOUSING DEVELOPMENT FUND CORPORATION", "city": "NEW YORK", "state": "NY", "zip": "10010-6033", "ntee": "L20", "ruling": "200911", "deductibility": "2", "assets": 8268766, "income": 485891, "revenue": 485891}, {"ein": "332276478", "name": "ANA IRMA THOMPSON PEREZ FUNDACION DE LA TIERRA PROMETIDA", "city": "SYRACUSE", "state": "NY", "zip": "13205-1130", "ntee": "A23", "ruling": "202506", "deductibility": "1", "assets": 0, "income": 0, "revenue": 0}, {"ein": "453323105", "name": "BETTY E AND CHESTER C THOMPSON FOUNDATION INC", "city": "ROSLYN HTS", "state": "NY", "zip": "11577-1617", "ntee": "T20", "ruling": "201307", "deductibility": "1", "assets": 47554, "income": 3, "revenue": 0}, {"ein": "464104553", "name": "TAYLOR WILSON THOMPSON FAMILY FOUNDATION", "city": "ALBANY", "state": "NY", "zip": "12212-5201", "ntee": "T20", "ruling": "201509", "deductibility": "1", "assets": 1986037, "income": 1598866, "revenue": 0}, {"ein": "843174097", "name": "THOMPSON LEGACY FOUNDATION", "city": "NEW YORK", "state": "NY", "zip": "10007-2285", "ntee": "Q30", "ruling": "201912", "deductibility": "1", "assets": 250, "income": 192000, "revenue": 192000}, {"ein": "921202213", "name": "THOMPSON & TROUPE FOUNDATION", "city": "ROSEDALE", "state": "NY", "zip": "11422-2803", "ntee": "B99", "ruling": "202301", "deductibility": "0", "assets": 0, "income": 0, "revenue": 0}, {"ein": "931517111", "name": "JAMIE THOMPSON ARTS FOUNDATION INC", "city": "BRONX", "state": "NY", "zip": "10454-4588", "ntee": "A60", "ruling": "202310", "deductibility": "1", "assets": 0, "income": 0, "revenue": 0}], "PHILOPOPHICAL": [{"ein": "061535469", "name": "AMERICAN PHILOPOPHICAL PRACTIONERS ASSOCIATION", "city": "NEW YORK", "state": "NY", "zip": "10031-9101", "ntee": "V20", "ruling": "199908", "deductibility": "1", "assets": 98456, "income": 44453, "revenue": 44453}], "HORACE": [{"ein": "066035912", "name": "HORACE HURLBUTT MEMORIAL FUND TRUST 2815030414", "city": "BUFFALO", "state": "NY", "zip": "14202-1812", "ntee": "", "ruling": "197012", "deductibility": "0", "assets": 584392, "income": 189816, "revenue": 0}, {"ein": "066085965", "name": "JOHN DORR NATURE LABORATORY OF HORACE MANN SCHOOL INC", "city": "BRONX", "state": "NY", "zip": "10471-3430", "ntee": "", "ruling": "196702", "deductibility": "1", "assets": 1, "income": 1, "revenue": 0}, {"ein": "131740455", "name": "HORACE MANN SCHOOL", "city": "BRONX", "state": "NY", "zip": "10471-3430", "ntee": "B200", "ruling": "194901", "deductibility": "1", "assets": 512054660, "income": 207421495, "revenue": 144942370}, {"ein": "134002464", "name": "HORACE GREELEY SPORTS BOOSTERS INC", "city": "CHAPPAQUA", "state": "NY", "zip": "10514-0669", "ntee": "B112", "ruling": "199807", "deductibility": "1", "assets": 131989, "income": 157071, "revenue": 157071}, {"ein": "136107758", "name": "HORACE W GOLDSMITH FOUNDATION", "city": "NEW YORK", "state": "NY", "zip": "10152-3700", "ntee": "", "ruling": "195704", "deductibility": "1", "assets": 753425740, "income": 222661082, "revenue": 0}, {"ein": "136175844", "name": "HORACE GREELEY SCHOLARSHIP FUND INC", "city": "CHAPPAQUA", "state": "NY", "zip": "10514-0242", "ntee": "B99", "ruling": "196511", "deductibility": "1", "assets": 1240722, "income": 559880, "revenue": 529966}, {"ein": "141673711", "name": "HORACE J INMAN SENIOR CENTER INC", "city": "AMSTERDAM", "state": "NY", "zip": "12010-4165", "ntee": "P81Z", "ruling": "198606", "deductibility": "1", "assets": 290959, "income": 307368, "revenue": 307368}, {"ein": "342002675", "name": "HORACE GREELEY FOOTBALL ASSOCIATION", "city": "CHAPPAQUA", "state": "NY", "zip": "10514-0185", "ntee": "B112", "ruling": "200409", "deductibility": "1", "assets": 0, "income": 0, "revenue": 0}], "OBERNIER": [{"ein": "066462350", "name": "OBERNIER FAM FOUNDATION", "city": "HARRISON", "state": "NY", "zip": "10528-1635", "ntee": "T20Z", "ruling": "199807", "deductibility": "1", "assets": 23746, "income": 11231, "revenue": 0}], "VILNA": [{"ein": "110054122", "name": "THE VILNA PROJECT INC", "city": "NEW YORK", "state": "NY", "zip": "10019-3303", "ntee": "", "ruling": "199404", "deductibility": "1", "assets": 0, "income": 0, "revenue": 0}], "BKLYN": [{"ein": "111839302", "name": "ALUMNI ASSOC COLL OF MED ST UNIV OF NY HEALTH SCI CENTER AT BKLYN INC", "city": "BROOKLYN", "state": "NY", "zip": "11203-2012", "ntee": "B84", "ruling": "201311", "deductibility": "1", "assets": 36126, "income": 552898, "revenue": 432067}, {"ein": "112547268", "name": "BRIC ARTS MEDIA BKLYN INC", "city": "BROOKLYN", "state": "NY", "zip": "11217-1152", "ntee": "A600", "ruling": "198101", "deductibility": "1", "assets": 15923373, "income": 13370285, "revenue": 13325985}, {"ein": "113208616", "name": "KAPPA ALPHA PSI BKLYN-LI ALUMNI SCHOLARSHIP FOUNDATION INC", "city": "JAMAICA", "state": "NY", "zip": "11433-2625", "ntee": "B82", "ruling": "201512", "deductibility": "1", "assets": 0, "income": 0, "revenue": 0}, {"ein": "136058184", "name": "TR BKLYN SOC FOR PREVENTION", "city": "NEW YORK", "state": "NY", "zip": "10013-2362", "ntee": "", "ruling": "198209", "deductibility": "0", "assets": 542950, "income": 166652, "revenue": 0}, {"ein": "300085525", "name": "FRIENDS OF THE BKLYN NEW SCHOOL- BKLYN SCHOOL FOR COLLAB STUDIES", "city": "BROOKLYN", "state": "NY", "zip": "11231-2612", "ntee": "Z99", "ruling": "200206", "deductibility": "1", "assets": 309099, "income": 234415, "revenue": 234415}, {"ein": "844252155", "name": "ART YARD BKLYN", "city": "NEW YORK", "state": "NY", "zip": "10023-7216", "ntee": "A25", "ruling": "202104", "deductibility": "1", "assets": 1420, "income": 71715, "revenue": 71715}], "GLORIA": [{"ein": "111881880", "name": "GLORIA DEI EVANGELICAL LUTHERAN CHURCH", "city": "HANTINGTON STATEW", "state": "NY", "zip": "11746-0000", "ntee": "", "ruling": "198804", "deductibility": "1", "assets": 0, "income": 0, "revenue": 0}, {"ein": "113502781", "name": "HARVEY & GLORIA KAYLIE FOUNDATION INC", "city": "NEW YORK", "state": "NY", "zip": "10017-0000", "ntee": "T20", "ruling": "200003", "deductibility": "1", "assets": 115541626, "income": 27193499, "revenue": 0}, {"ein": "113562809", "name": "GLORIA & HARVEY L LEVINE CHARITABLE FOUNDATION INC", "city": "HEWLETT", "state": "NY", "zip": "11557-2528", "ntee": "T22", "ruling": "200010", "deductibility": "1", "assets": 1705340, "income": 107193, "revenue": 0}, {"ein": "134132864", "name": "GLORIA AND HILLIARD FARBER FOUNDATION", "city": "NEW YORK", "state": "NY", "zip": "10075-0191", "ntee": "B99", "ruling": "202204", "deductibility": "1", "assets": 483700, "income": 98017, "revenue": 0}, {"ein": "161177453", "name": "GLORIA FUSTINOS LIVING WORD MINISTRIES INC", "city": "NIAGARA FALLS", "state": "NY", "zip": "14304-3802", "ntee": "", "ruling": "198303", "deductibility": "1", "assets": 0, "income": 0, "revenue": 0}, {"ein": "161573157", "name": "GRACE CATHEDRAL GLORIA BATTLE PASTOR", "city": "SODUS", "state": "NY", "zip": "14551-9726", "ntee": "X21", "ruling": "200002", "deductibility": "1", "assets": 0, "income": 0, "revenue": 0}, {"ein": "205170517", "name": "GLORIA INTERNATIONAL INCORPORATED", "city": "PINE ISLAND", "state": "NY", "zip": "10969-0490", "ntee": "X20", "ruling": "201912", "deductibility": "1", "assets": 0, "income": 0, "revenue": 0}, {"ein": "208766121", "name": "SHEKINAH GLORIA MINISTRIES INC", "city": "LIVERPOOL", "state": "NY", "zip": "13088-5513", "ntee": "P99", "ruling": "200805", "deductibility": "1", "assets": 20561, "income": 922455, "revenue": 922455}, {"ein": "260282864", "name": "CENTRO MISIONERO INTERNACIONAL REY DE GLORIA", "city": "FREEPORT", "state": "NY", "zip": "11520-3830", "ntee": "X20", "ruling": "200804", "deductibility": "1", "assets": 0, "income": 0, "revenue": 0}, {"ein": "261267667", "name": "RAYMOND AND GLORIA NAFTALI FOUNDATION", "city": "NEW YORK", "state": "NY", "zip": "10158-0000", "ntee": "T22", "ruling": "200802", "deductibility": "1", "assets": 4574112, "income": 3219905, "revenue": 0}, {"ein": "261397530", "name": "GLORIA AND RICHARD KUSHEL FOUNDATION", "city": "ALBANY", "state": "NY", "zip": "12212-5201", "ntee": "T21", "ruling": "200803", "deductibility": "2", "assets": 49180, "income": 1115870, "revenue": 0}, {"ein": "263198307", "name": "IGLESIA TEMPLO DE GLORIA", "city": "HEMPSTEAD", "state": "NY", "zip": "11550-3048", "ntee": "X20", "ruling": "200905", "deductibility": "1", "assets": 0, "income": 0, "revenue": 0}, {"ein": "263407344", "name": "SHERMAN AND GLORIA H COHEN FAMILY FOUNDATION INC", "city": "NEW YORK", "state": "NY", "zip": "10022-9805", "ntee": "T22", "ruling": "200903", "deductibility": "1", "assets": 4172875, "income": 224366, "revenue": 0}, {"ein": "274358855", "name": "IGLESIA CRISTIANA LA GLORIA DE DIOS", "city": "BRONX", "state": "NY", "zip": "10456-2661", "ntee": "X20", "ruling": "201402", "deductibility": "1", "assets": 0, "income": 0, "revenue": 0}, {"ein": "320012728", "name": "GLORIA WISE COMMUNITY CENTER", "city": "BRONX", "state": "NY", "zip": "10466-2901", "ntee": "N31", "ruling": "200405", "deductibility": "1", "assets": 0, "income": 145362, "revenue": 145362}, {"ein": "332201977", "name": "JOHN W AND GLORIA KIDD GOLDEN CHARITABLE TRUST", "city": "HYDE PARK", "state": "NY", "zip": "12538-1323", "ntee": "T99", "ruling": "202504", "deductibility": "1", "assets": 0, "income": 0, "revenue": 0}, {"ein": "333009752", "name": "GLORIA FOUNDATION", "city": "ROCHESTER", "state": "NY", "zip": "14606-1949", "ntee": "T30", "ruling": "202501", "deductibility": "1", "assets": 0, "income": 0, "revenue": 0}, {"ein": "352582161", "name": "IGLESIA CRISTIANA LA ESPERANZA DE GLORIA INC", "city": "NEW YORK", "state": "NY", "zip": "10037-1309", "ntee": "X20", "ruling": "201708", "deductibility": "1", "assets": 0, "income": 0, "revenue": 0}, {"ein": "352675068", "name": "IGLESIA TABERNACULO DE GLORIA INC", "city": "BREWSTER", "state": "NY", "zip": "10509-2805", "ntee": "X20", "ruling": "202004", "deductibility": "1", "assets": 0, "income": 0, "revenue": 0}, {"ein": "384135020", "name": "IGLESIA DE DIOS PENTECOSTAL MI 2DA REY DE GLORIA", "city": "ASTORIA", "state": "NY", "zip": "11102-3548", "ntee": "X20", "ruling": "202204", "deductibility": "1", "assets": 0, "income": 0, "revenue": 0}, {"ein": "454106063", "name": "IGLESIA RESPLANDOR DE GLORIA", "city": "NEW YORK", "state": "NY", "zip": "10032-5232", "ntee": "X21", "ruling": "201204", "deductibility": "1", "assets": 0, "income": 0, "revenue": 0}, {"ein": "465550973", "name": "JEHOVA JIREH PENTECOSTAL CHURCH CORONA DE GLORIA IS 62 2 4 INC", "city": "BRONX", "state": "NY", "zip": "10453-4615", "ntee": "X20", "ruling": "202203", "deductibility": "1", "assets": 4822, "income": 64508, "revenue": 64508}, {"ein": "471091399", "name": "RADIO LA GLORIA ES DE DIOS", "city": "BROOKLYN", "state": "NY", "zip": "11220-1117", "ntee": "X84", "ruling": "201505", "deductibility": "1", "assets": 0, "income": 0, "revenue": 0}, {"ein": "474505847", "name": "UN NUEVO TIEMPO BAJO SU GLORIA", "city": "RIDGEWOOD", "state": "NY", "zip": "11385-1596", "ntee": "X20", "ruling": "201608", "deductibility": "1", "assets": 0, "income": 0, "revenue": 0}, {"ein": "753120234", "name": "GLORIA EVE PERFORMING ARTS FOUNDATION", "city": "GARDEN CITY", "state": "NY", "zip": "11530-1693", "ntee": "A60", "ruling": "202001", "deductibility": "1", "assets": 19266, "income": 35400, "revenue": 35400}, {"ein": "824186861", "name": "CASA DE RESTAURACION LA GLORIA DE DIOS", "city": "NEW CITY", "state": "NY", "zip": "10956-1227", "ntee": "X20", "ruling": "201809", "deductibility": "1", "assets": 237626, "income": 177914, "revenue": 177914}, {"ein": "842952665", "name": "GLORIA GARFINKEL ARTS FOUNDATION INC", "city": "NEW YORK", "state": "NY", "zip": "10024-6054", "ntee": "T22", "ruling": "202004", "deductibility": "1", "assets": 1, "income": 1, "revenue": 0}, {"ein": "873688356", "name": "GLORIA E SIMPSON FOUNDATION INC", "city": "BROOKLYN", "state": "NY", "zip": "11226-4882", "ntee": "B01", "ruling": "202202", "deductibility": "1", "assets": 0, "income": 0, "revenue": 0}, {"ein": "874355908", "name": "GLORIA SCHONBERGER CHARITABLE TRUST", "city": "BROOKLYN", "state": "NY", "zip": "11219-4523", "ntee": "T90", "ruling": "202204", "deductibility": "1", "assets": 1537836, "income": 222184, "revenue": 0}, {"ein": "882514702", "name": "CASA DE GLORIA USA A LAS NACIONES", "city": "CENTRAL ISLIP", "state": "NY", "zip": "11722-4319", "ntee": "X19", "ruling": "202207", "deductibility": "1", "assets": 0, "income": 0, "revenue": 0}, {"ein": "993469993", "name": "GLORIA PROJECT INC", "city": "NEW YORK", "state": "NY", "zip": "10027-5364", "ntee": "P20", "ruling": "202406", "deductibility": "1", "assets": 0, "income": 0, "revenue": 0}], "HARBOTZAS": [{"ein": "112225179", "name": "YESHIVA HARBOTZAS TORAH ZICHRON SCHNEUR", "city": "BROOKLYN", "state": "NY", "zip": "11230-4407", "ntee": "", "ruling": "199107", "deductibility": "1", "assets": 0, "income": 0, "revenue": 0}, {"ein": "260002708", "name": "HARBOTZAS HATORAH", "city": "MONROE", "state": "NY", "zip": "10950-8500", "ntee": "X21", "ruling": "200203", "deductibility": "1", "assets": 0, "income": 0, "revenue": 0}, {"ein": "473392405", "name": "TORAH TAVLIN HARBOTZAS TORAH NETWORK TTHTN INC", "city": "MONSEY", "state": "NY", "zip": "10952-1616", "ntee": "X30", "ruling": "201505", "deductibility": "1", "assets": 422395, "income": 782374, "revenue": 782374}], "CARDELLA": [{"ein": "112328536", "name": "PETER CARDELLA SENIOR CITIZEN CENTER INC", "city": "RIDGEWOOD", "state": "NY", "zip": "11385-5230", "ntee": "", "ruling": "197701", "deductibility": "1", "assets": 1515326, "income": 2945746, "revenue": 2945746}], "YOLLES": [{"ein": "112542645", "name": "OR ELAZAR SAMBORER TORAH CENTERSINCC/O HERSHEL YOLLES", "city": "BROOKLYN", "state": "NY", "zip": "11219-2249", "ntee": "", "ruling": "198010", "deductibility": "1", "assets": 0, "income": 0, "revenue": 0}], "RADIOLOGY": [{"ein": "112548304", "name": "STONY BROOK RADIOLOGY UNIVERSITY FACULTY PRACTICE CORPORATION", "city": "STONYBROOK", "state": "NY", "zip": "11790-0988", "ntee": "E20", "ruling": "200802", "deductibility": "1", "assets": 3466229, "income": 50239792, "revenue": 50239792}, {"ein": "112833588", "name": "BROOKLYN HOSPITAL RADIOLOGY P C", "city": "BROOKLYN", "state": "NY", "zip": "11201-5425", "ntee": "E220", "ruling": "201309", "deductibility": "1", "assets": 493637, "income": 3285459, "revenue": 3285459}, {"ein": "113423162", "name": "BROOKLYN RADIOLOGY SERVICES P C", "city": "BROOKLYN", "state": "NY", "zip": "11215-3609", "ntee": "E20", "ruling": "201007", "deductibility": "2", "assets": 17417, "income": 0, "revenue": 0}, {"ein": "161605145", "name": "UNIVERSITY RADIOLOGY AT BUFFALO INC", "city": "BUFFALO", "state": "NY", "zip": "14215-1129", "ntee": "E24", "ruling": "200205", "deductibility": "1", "assets": 0, "income": 0, "revenue": 0}, {"ein": "223970667", "name": "NORTH SHORE-LIJ RADIOLOGY SERVICES P C", "city": "WESTBURY", "state": "NY", "zip": "11590-1740", "ntee": "E60", "ruling": "201709", "deductibility": "1", "assets": 9694546, "income": 20444935, "revenue": 20444935}, {"ein": "461258794", "name": "INTERNATIONAL FRIENDS OF THE EUROPEAN SOCIETY OF RADIOLOGY", "city": "NEW YORK", "state": "NY", "zip": "10128-0000", "ntee": "Q11", "ruling": "202405", "deductibility": "1", "assets": 3012, "income": 1, "revenue": 0}], "FEDERATIONS": [{"ein": "112631262", "name": "AMERICAN FEDERATIONS OF TEACHERS", "city": "SMITHTOWN", "state": "NY", "zip": "11787-3135", "ntee": "S40", "ruling": "201409", "deductibility": "2", "assets": 0, "income": 0, "revenue": 0}, {"ein": "131624240", "name": "THE JEWISH FEDERATIONS OF NORTH AMERICA INC", "city": "NEW YORK", "state": "NY", "zip": "10004-1015", "ntee": "T700", "ruling": "193602", "deductibility": "1", "assets": 504221551, "income": 703102175, "revenue": 702409132}, {"ein": "166181755", "name": "AMERICAN FEDERATIONS OF TEACHERS", "city": "ALBION", "state": "NY", "zip": "14411-1617", "ntee": "J40", "ruling": "196711", "deductibility": "2", "assets": 0, "income": 0, "revenue": 0}, {"ein": "222182605", "name": "AMERICAN FEDERATIONS OF TEACHERS", "city": "ENDICOTT", "state": "NY", "zip": "13760-3021", "ntee": "", "ruling": "196711", "deductibility": "2", "assets": 231368, "income": 472408, "revenue": 441240}, {"ein": "237016716", "name": "AMERICAN FEDERATIONS OF TEACHERS", "city": "SHRUB OAK", "state": "NY", "zip": "10588-1422", "ntee": "J40", "ruling": "196711", "deductibility": "2", "assets": 144252, "income": 505613, "revenue": 505613}, {"ein": "237016747", "name": "AMERICAN FEDERATIONS OF TEACHERS", "city": "SUFFERN", "state": "NY", "zip": "10901-3620", "ntee": "S80", "ruling": "196711", "deductibility": "2", "assets": 391969, "income": 66931, "revenue": 66931}, {"ein": "824307931", "name": "AMERICAN FEDERATIONS OF TEACHERS", "city": "AKRON", "state": "NY", "zip": "14001-1113", "ntee": "", "ruling": "196711", "deductibility": "2", "assets": 0, "income": 0, "revenue": 0}, {"ein": "900537849", "name": "AMERICAN FEDERATIONS OF TEACHERS", "city": "HASTINGS HDSN", "state": "NY", "zip": "10706-0051", "ntee": "J40", "ruling": "196711", "deductibility": "2", "assets": 0, "income": 0, "revenue": 0}], "SOCIETA": [{"ein": "112670111", "name": "SOCIETA FIGLT DI RAGUSA INC", "city": "BROOKLYN", "state": "NY", "zip": "11204-5686", "ntee": "", "ruling": "199107", "deductibility": "2", "assets": 111198, "income": 31585, "revenue": 31585}, {"ein": "112938389", "name": "SOCIETA DI SAN CALOGERO DI TORRE TTA", "city": "BROOKLYN", "state": "NY", "zip": "11214-1226", "ntee": "", "ruling": "199001", "deductibility": "2", "assets": 49225, "income": 56794, "revenue": 56794}, {"ein": "113091231", "name": "DURAZZANESE SOCIETA ITALO AMERICANO DIMUTUO SOOORSO INC", "city": "WESTBURY", "state": "NY", "zip": "11590-3216", "ntee": "A23", "ruling": "200503", "deductibility": "1", "assets": 142595, "income": 21052, "revenue": 10879}, {"ein": "133566483", "name": "SOCIETA SAN ROCCO DI MORRA DE SANTIS GREENWICH CT", "city": "RYE BROOK", "state": "NY", "zip": "10573-2815", "ntee": "N50", "ruling": "201307", "deductibility": "2", "assets": 0, "income": 0, "revenue": 0}, {"ein": "824054283", "name": "SOCIETA DANTE ALIGHIERI OF NEW YORK CITY INC", "city": "NEW YORK", "state": "NY", "zip": "10036-7406", "ntee": "A70", "ruling": "201802", "deductibility": "1", "assets": 0, "income": 0, "revenue": 0}], "BIBLICA": [{"ein": "112850307", "name": "IGLESIA BIBLICA CRISTIANA", "city": "NEW YORK", "state": "NY", "zip": "11208-2444", "ntee": "", "ruling": "199412", "deductibility": "1", "assets": 0, "income": 0, "revenue": 0}, {"ein": "113447053", "name": "IGLESIA BIBLICA RESTAURACION INC", "city": "SUNNYSIDE", "state": "NY", "zip": "11104-2209", "ntee": "X21", "ruling": "200008", "deductibility": "1", "assets": 0, "income": 0, "revenue": 0}, {"ein": "133439777", "name": "IGLESIA BIBLICA EVANGELICA INC", "city": "BRONX", "state": "NY", "zip": "10460-2501", "ntee": "", "ruling": "197205", "deductibility": "1", "assets": 0, "income": 0, "revenue": 0}, {"ein": "453450843", "name": "IGLESIA BIBLICA CASA DE REFUGIO", "city": "POUGHKEEPSIE", "state": "NY", "zip": "12601-0000", "ntee": "", "ruling": "196408", "deductibility": "1", "assets": 0, "income": 0, "revenue": 0}, {"ein": "473790637", "name": "IGLESIA BIBLICA EMANUEL INC", "city": "MINEOLA", "state": "NY", "zip": "11501-0903", "ntee": "X20", "ruling": "201509", "deductibility": "1", "assets": 0, "income": 0, "revenue": 0}, {"ein": "814729044", "name": "IGLESIA BIBLICA BAUTISTA CORP", "city": "W HEMPSTEAD", "state": "NY", "zip": "11552-1455", "ntee": "X20", "ruling": "202207", "deductibility": "1", "assets": 0, "income": 0, "revenue": 0}, {"ein": "843243846", "name": "IGLESIA BIBLICA SENDA CELESTIAL INTERNACIONAL INC", "city": "FLUSHING", "state": "NY", "zip": "11354-2925", "ntee": "X20", "ruling": "202001", "deductibility": "1", "assets": 0, "income": 0, "revenue": 0}, {"ein": "862760167", "name": "IGLESIA CRISTIANA BIBLICA LA NUEVA COSECHA INC", "city": "WESTBURY", "state": "NY", "zip": "11590-2548", "ntee": "X20", "ruling": "202203", "deductibility": "1", "assets": 0, "income": 0, "revenue": 0}], "CLUSTER": [{"ein": "113085995", "name": "BROOKLYN BRIDGES CONFERENCE CLUSTER E L C A", "city": "BROOKLYN", "state": "NY", "zip": "11215-5417", "ntee": "", "ruling": "198704", "deductibility": "1", "assets": 0, "income": 0, "revenue": 0}, {"ein": "133401322", "name": "WESTSIDE CLUSTER 902-904 AMSTERDAM AVENUE HOUSING DEVELOPMENT FUND CO", "city": "NEW YORK", "state": "NY", "zip": "10018-3055", "ntee": "", "ruling": "198706", "deductibility": "1", "assets": 9111752, "income": 668803, "revenue": 668803}, {"ein": "133571302", "name": "WEST HARLEM CLUSTER OF CHURCHES", "city": "NEW YORK", "state": "NY", "zip": "10032-5089", "ntee": "", "ruling": "199312", "deductibility": "1", "assets": 0, "income": 0, "revenue": 0}, {"ein": "133627919", "name": "CYPRESS CLUSTER APARTMENTS HOUSING DEVELOPMENT FUND CORPORATION", "city": "BRONX", "state": "NY", "zip": "10463-2410", "ntee": "L20Z", "ruling": "199303", "deductibility": "1", "assets": 0, "income": 0, "revenue": 0}, {"ein": "141969131", "name": "SCHENECTADY PAGAN CLUSTER", "city": "TROY", "state": "NY", "zip": "12180-1606", "ntee": "X99", "ruling": "200707", "deductibility": "1", "assets": 0, "income": 0, "revenue": 0}, {"ein": "161526328", "name": "CLUSTER 13 INC", "city": "CAMDEN", "state": "NY", "zip": "13316-1338", "ntee": "L81", "ruling": "200109", "deductibility": "1", "assets": 232251, "income": 82635, "revenue": 82635}, {"ein": "161572490", "name": "ROCHESTER REGIONAL PHOTONICS CLUSTER", "city": "ROCHESTER", "state": "NY", "zip": "14623-3190", "ntee": "S41", "ruling": "200007", "deductibility": "2", "assets": 111070, "income": 89881, "revenue": 89881}, {"ein": "202911456", "name": "PATCHEN AVENUE CLUSTER HOUSING DEVELOPMENT FUND CORPORATION", "city": "BROOKLYN", "state": "NY", "zip": "11221-4005", "ntee": "L21", "ruling": "200709", "deductibility": "2", "assets": 1736315, "income": 224805, "revenue": 224805}, {"ein": "833785295", "name": "FAC CLUSTER HOUSING DEVELOPMENT FUND CORPORATION", "city": "BROOKLYN", "state": "NY", "zip": "11217-4596", "ntee": "L21", "ruling": "202411", "deductibility": "1", "assets": 0, "income": 0, "revenue": 0}], "INTERCESSORY": [{"ein": "113354351", "name": "INTERCESSORY PRAYER MINISTRY INTERNATIONAL INC", "city": "BROOKLYN", "state": "NY", "zip": "11236-0000", "ntee": "X21", "ruling": "199805", "deductibility": "1", "assets": 14816, "income": 88705, "revenue": 58106}, {"ein": "453048994", "name": "INTERCESSORY COMMUNITY OUTREACH MINISTRIES CHURCH OF GOD 7TH DAY", "city": "BROOKLYN", "state": "NY", "zip": "11208-3283", "ntee": "X20", "ruling": "201608", "deductibility": "1", "assets": 0, "income": 0, "revenue": 0}, {"ein": "800598375", "name": "COME UP HIGHER INTERCESSORY MINISTRY", "city": "BROOKLYN", "state": "NY", "zip": "11212-2705", "ntee": "X21", "ruling": "201203", "deductibility": "1", "assets": 0, "income": 0, "revenue": 0}, {"ein": "874531110", "name": "AMERICA INTERCESSORY PRAYER GROUP", "city": "VALLEY STREAM", "state": "NY", "zip": "11581-1629", "ntee": "P12", "ruling": "202205", "deductibility": "1", "assets": 0, "income": 0, "revenue": 0}], "FISHMAN": [{"ein": "113402788", "name": "DAVID & PAULA FISHMAN CHARITABLE TR", "city": "NEW YORK", "state": "NY", "zip": "10016-0000", "ntee": "T20Z", "ruling": "199712", "deductibility": "1", "assets": 1, "income": 1, "revenue": 0}, {"ein": "113579520", "name": "YALE FISHMAN FOUNDATION", "city": "WOODMERE", "state": "NY", "zip": "11598-1766", "ntee": "T22", "ruling": "200103", "deductibility": "1", "assets": 7448487, "income": 2247893, "revenue": 0}, {"ein": "133039721", "name": "AARON AND SONIA FISHMAN FOUNDATION YIDDISH CULTURE INC", "city": "NEW YORK", "state": "NY", "zip": "10027-6851", "ntee": "", "ruling": "198010", "deductibility": "1", "assets": 98566, "income": 16401, "revenue": 0}, {"ein": "204737364", "name": "FISHMAN FAMILY FOUNDATION", "city": "WOODMERE", "state": "NY", "zip": "11598-1766", "ntee": "T20", "ruling": "200609", "deductibility": "1", "assets": 1311298, "income": 87073, "revenue": 0}, {"ein": "454159301", "name": "LOUISE FISHMAN FOUNDATION INC", "city": "NEW YORK", "state": "NY", "zip": "10017-6939", "ntee": "T20", "ruling": "201410", "deductibility": "1", "assets": 493180, "income": 512857, "revenue": 0}, {"ein": "472464589", "name": "FELSTEN FISHMAN FAMILY FOUNDATION", "city": "LARCHMONT", "state": "NY", "zip": "10538-1136", "ntee": "T90", "ruling": "201504", "deductibility": "1", "assets": 860988, "income": 255200, "revenue": 0}, {"ein": "473149659", "name": "FISHMAN FAMILY FOUNDATION", "city": "NEW YORK", "state": "NY", "zip": "10022-0000", "ntee": "", "ruling": "201708", "deductibility": "1", "assets": 17771936, "income": 4947033, "revenue": 0}], "NEGES": [{"ein": "113424266", "name": "NEGES FOUNDATION INC", "city": "BROOKLYN", "state": "NY", "zip": "11215-4010", "ntee": "J22", "ruling": "201402", "deductibility": "1", "assets": 0, "income": 0, "revenue": 0}], "MEIDAN": [{"ein": "113436983", "name": "CONGREGATION NACHLAS YEHUDA OF MEIDAN", "city": "MONROE", "state": "NY", "zip": "10950-3838", "ntee": "X30Z", "ruling": "199812", "deductibility": "1", "assets": 0, "income": 0, "revenue": 0}], "TANG": [{"ein": "113437676", "name": "HSING-YI SHENG TANG TEMPLE", "city": "FLUSHING", "state": "NY", "zip": "11355-2164", "ntee": "X50", "ruling": "199905", "deductibility": "1", "assets": 0, "income": 0, "revenue": 0}, {"ein": "204223569", "name": "NEW YORK HANG TANG CULTURE AND ARTCENTER INC", "city": "FOREST HILLS", "state": "NY", "zip": "11375-1263", "ntee": "A6A", "ruling": "200612", "deductibility": "1", "assets": 8598, "income": 0, "revenue": 0}, {"ein": "331682833", "name": "LI TANG COMMUNITY INC", "city": "NEW YORK", "state": "NY", "zip": "10003-1502", "ntee": "A20", "ruling": "202411", "deductibility": "1", "assets": 0, "income": 0, "revenue": 0}, {"ein": "383973256", "name": "TANG FUND", "city": "NEW YORK", "state": "NY", "zip": "10176-3399", "ntee": "T20", "ruling": "201508", "deductibility": "1", "assets": 43613253, "income": 6304152, "revenue": 0}, {"ein": "811273600", "name": "TANG INSTITUTE FOR MUSICAL EXCELLENCE INTERNATIONAL INC", "city": "SYOSSET", "state": "NY", "zip": "11791-0000", "ntee": "A68", "ruling": "201604", "deductibility": "1", "assets": 0, "income": 0, "revenue": 0}, {"ein": "843823716", "name": "GIAO HOI PHAT GIAO TANG GIA KHAT SI TINH XA NGOC DIEN", "city": "UTICA", "state": "NY", "zip": "13502-2339", "ntee": "X50", "ruling": "202111", "deductibility": "1", "assets": 1, "income": 108716, "revenue": 106080}, {"ein": "853221018", "name": "TANG ENDOWMENT FOR ADVANCEMENT OF ARTS JUSTICE EDUCATION AND SCIENCE", "city": "NEW YORK", "state": "NY", "zip": "10176-0000", "ntee": "T23", "ruling": "202112", "deductibility": "1", "assets": 355, "income": 160, "revenue": 0}, {"ein": "994127982", "name": "WU-TANG FOR THE CHILDREN INC", "city": "BROOKLYN", "state": "NY", "zip": "11239-2899", "ntee": "O50", "ruling": "202408", "deductibility": "1", "assets": 0, "income": 0, "revenue": 0}], "MONSIGNOR": [{"ein": "113440265", "name": "MONSIGNOR HENRY J REEL II SENIOR HOUSING DEVELOPMENT FUND CO INC", "city": "HICKSVILLE", "state": "NY", "zip": "11801-6232", "ntee": "L22", "ruling": "199811", "deductibility": "1", "assets": 2545088, "income": 544711, "revenue": 544711}, {"ein": "133174636", "name": "MONSIGNOR ALEXIS JARKA HALL HOUSING DEVELOPMENT FUND COMPANY INC", "city": "BROOKLYN", "state": "NY", "zip": "11249-2804", "ntee": "", "ruling": "198311", "deductibility": "1", "assets": 8466854, "income": 625006, "revenue": 625006}, {"ein": "161115950", "name": "MONSIGNOR CARR INSTITUTE", "city": "BUFFALO", "state": "NY", "zip": "14209-2201", "ntee": "", "ruling": "194603", "deductibility": "1", "assets": 2636519, "income": 5828335, "revenue": 5828335}, {"ein": "161295356", "name": "MONSIGNOR ADAMSKI VILLAGE HOUSING DEVELOPMENT FUND COMPANY INC", "city": "SYRACUSE", "state": "NY", "zip": "13203-2879", "ntee": "", "ruling": "194603", "deductibility": "1", "assets": 1235083, "income": 619643, "revenue": 619643}, {"ein": "161458680", "name": "MONSIGNOR KIRBY HOUSING DEVELOPMENT FUND COMPANY INC", "city": "BUFFALO", "state": "NY", "zip": "14203-1711", "ntee": "", "ruling": "194603", "deductibility": "1", "assets": 1081490, "income": 239604, "revenue": 239604}, {"ein": "161614582", "name": "MONSIGNOR RONALD C BILL SCHOLORSHIP", "city": "CICERO", "state": "NY", "zip": "13039-0000", "ntee": "B82", "ruling": "201907", "deductibility": "1", "assets": 113389, "income": 58044, "revenue": 0}, {"ein": "237035411", "name": "MONSIGNOR DAVID C GILDEA FOUNDATION FOR BISHOP LUDDEN HIGH SCHOOL", "city": "SYRACUSE", "state": "NY", "zip": "13202-2608", "ntee": "", "ruling": "194603", "deductibility": "1", "assets": 0, "income": 0, "revenue": 0}, {"ein": "237544007", "name": "MONSIGNOR FRANCIS MAGUIRE COUNCIL 2309 KNIGHTS OF COLUMBUS", "city": "NORWOOD", "state": "NY", "zip": "13668-1116", "ntee": "Y40", "ruling": "201310", "deductibility": "1", "assets": 0, "income": 0, "revenue": 0}, {"ein": "270671459", "name": "MONSIGNOR FARRELL HIGH SCHOOL", "city": "STATEN ISLAND", "state": "NY", "zip": "10306-2005", "ntee": "", "ruling": "194603", "deductibility": "1", "assets": 0, "income": 0, "revenue": 0}, {"ein": "474932411", "name": "MONSIGNOR SCANLAN HIGH SCHOOL", "city": "BRONX", "state": "NY", "zip": "10465-1819", "ntee": "", "ruling": "194603", "deductibility": "1", "assets": 0, "income": 0, "revenue": 0}, {"ein": "836628899", "name": "MONSIGNOR JAMES F COX CHARITABLE TR", "city": "NORWICH", "state": "NY", "zip": "13815-0000", "ntee": "T22", "ruling": "201910", "deductibility": "1", "assets": 853401, "income": 160077, "revenue": 0}], "ION": [{"ein": "113593293", "name": "POLICE SURGEONS BEVEVOLENT ASSOCIAT ION INC", "city": "WOODBURY", "state": "NY", "zip": "11797-0000", "ntee": "", "ruling": "200601", "deductibility": "1", "assets": 25708, "income": 28894, "revenue": 28894}, {"ein": "161360438", "name": "MECKLENBURG UNION CEMETERY ASSOCIAT ION", "city": "TRUMANSBURG", "state": "NY", "zip": "14886-9759", "ntee": "Y50", "ruling": "202206", "deductibility": "1", "assets": 0, "income": 0, "revenue": 0}, {"ein": "883321883", "name": "COMBAT VETERANS MOTORCYCLE ASSOCIAT ION- NEW YORK CHAPTER 1910", "city": "WAVERLY", "state": "NY", "zip": "14892-0374", "ntee": "W30", "ruling": "202211", "deductibility": "1", "assets": 0, "income": 0, "revenue": 0}], "JAMEE": [{"ein": "113639258", "name": "AL IMAN JAMEE MASJID", "city": "JAMAICA", "state": "NY", "zip": "11435-5118", "ntee": "X40", "ruling": "200208", "deductibility": "1", "assets": 0, "income": 0, "revenue": 0}], "GESUALDO": [{"ein": "116432843", "name": "GESUALDO A COSTANZO TR UA 092793 152158", "city": "NEW YORK", "state": "NY", "zip": "10013-2362", "ntee": "", "ruling": "199403", "deductibility": "1", "assets": 2137033, "income": 1746650, "revenue": 0}], "LAADT": [{"ein": "116448577", "name": "JOHN T LAADT TRUST 101394", "city": "REMSENBURG", "state": "NY", "zip": "11960-0666", "ntee": "S30", "ruling": "200003", "deductibility": "1", "assets": 0, "income": 0, "revenue": 0}], "FURNISHINGS": [{"ein": "131589580", "name": "NEW YORK CHAPTER INTERNATIONAL FURNISHINGS & DESIGN ASSOCIATION", "city": "NEW YORK", "state": "NY", "zip": "10016-6742", "ntee": "", "ruling": "194906", "deductibility": "2", "assets": 148804, "income": 14451, "revenue": 14451}, {"ein": "132857251", "name": "DECORATIVE FURNISHINGS ASSOCIATION INC", "city": "SMITHTOWN", "state": "NY", "zip": "11787-0527", "ntee": "", "ruling": "197708", "deductibility": "2", "assets": 9514, "income": 58725, "revenue": 58725}, {"ein": "320542526", "name": "HEARTS TO HOMES FURNISHINGS INC", "city": "YONKERS", "state": "NY", "zip": "10707-2232", "ntee": "T50", "ruling": "201802", "deductibility": "1", "assets": 335480, "income": 626186, "revenue": 552899}], "SAGE": [{"ein": "131635303", "name": "RUSSELL SAGE FOUNDATION", "city": "NEW YORK", "state": "NY", "zip": "10065-7307", "ntee": "", "ruling": "195906", "deductibility": "1", "assets": 466906661, "income": 48066860, "revenue": 0}, {"ein": "141338488", "name": "RUSSELL SAGE COLLEGE", "city": "TROY", "state": "NY", "zip": "12180-4013", "ntee": "B420", "ruling": "194501", "deductibility": "1", "assets": 106307119, "income": 88900222, "revenue": 75843599}, {"ein": "146021764", "name": "RUSSELL SAGE COLLEGE ALUMNAE ASSOC", "city": "TROY", "state": "NY", "zip": "12180-4013", "ntee": "", "ruling": "196209", "deductibility": "1", "assets": 0, "income": 0, "revenue": 0}, {"ein": "161540763", "name": "SAGE-UPSTATE", "city": "SYRACUSE", "state": "NY", "zip": "13202-1902", "ntee": "R26", "ruling": "200204", "deductibility": "1", "assets": 231290, "income": 354016, "revenue": 354016}, {"ein": "203545252", "name": "GLEN COVE SAGE FOUNDATION", "city": "GLEN COVE", "state": "NY", "zip": "11542-3363", "ntee": "B82", "ruling": "200512", "deductibility": "1", "assets": 222484, "income": 111816, "revenue": 110866}, {"ein": "205940154", "name": "PARENTS ASSOCIATION OF RUSSELL SAGE JUNIOR HIGH SCHOOL 190Q", "city": "FOREST HILLS", "state": "NY", "zip": "11375-4237", "ntee": "B94", "ruling": "202207", "deductibility": "1", "assets": 0, "income": 0, "revenue": 0}, {"ein": "454331760", "name": "RPI-SAGE HILLEL", "city": "TROY", "state": "NY", "zip": "12180-0000", "ntee": "X30", "ruling": "201411", "deductibility": "1", "assets": 0, "income": 0, "revenue": 0}, {"ein": "465158863", "name": "SAGE BROOK HORSE FOUNDATION & YOUTH PROGRAM", "city": "MEXICO", "state": "NY", "zip": "13114-4300", "ntee": "O50", "ruling": "201501", "deductibility": "1", "assets": 0, "income": 0, "revenue": 0}, {"ein": "872455062", "name": "SAGE OPS INC", "city": "HARRISON", "state": "NY", "zip": "10528-3755", "ntee": "B01", "ruling": "202203", "deductibility": "1", "assets": 0, "income": 0, "revenue": 0}, {"ein": "872544981", "name": "SAGE INSIGHTS INC", "city": "W HEMPSTEAD", "state": "NY", "zip": "11552-0371", "ntee": "B80", "ruling": "202207", "deductibility": "1", "assets": 0, "income": 0, "revenue": 0}, {"ein": "873038137", "name": "GLACIER SAGE INC", "city": "NEW YORK", "state": "NY", "zip": "10020-1104", "ntee": "S47", "ruling": "202209", "deductibility": "2", "assets": 60091191, "income": 5271584, "revenue": -572199}, {"ein": "921125144", "name": "VOLUNTEER SAGE FOUNDATION INC", "city": "BREWSTER", "state": "NY", "zip": "10509-6402", "ntee": "T30", "ruling": "202302", "deductibility": "1", "assets": 0, "income": 0, "revenue": 0}, {"ein": "993095453", "name": "NEW YORK SAGE CENTER LIMITED", "city": "FLUSHING", "state": "NY", "zip": "11354-3406", "ntee": "R05", "ruling": "202406", "deductibility": "1", "assets": 0, "income": 0, "revenue": 0}], "WAREHOUSEMENS": [{"ein": "131943895", "name": "N Y S MOVERS & WAREHOUSEMENS ASSOCIATION INC", "city": "CLIFTON PARK", "state": "NY", "zip": "12065-0853", "ntee": "", "ruling": "196807", "deductibility": "2", "assets": 193109, "income": 124936, "revenue": 124936}], "CHILEAN": [{"ein": "132934887", "name": "NORTH AMERICAN CHILEAN CHAMBER OF COMMERCE INC", "city": "NEW YORK", "state": "NY", "zip": "10111-3193", "ntee": "", "ruling": "197907", "deductibility": "0", "assets": 78167, "income": 54991, "revenue": 54991}], "FENCERS": [{"ein": "132959888", "name": "FENCERS CLUB INC", "city": "NEW YORK", "state": "NY", "zip": "10001-3305", "ntee": "", "ruling": "198001", "deductibility": "1", "assets": 13105547, "income": 1278575, "revenue": 1252671}, {"ein": "134034787", "name": "WESTCHESTER FENCERS CLUB INC", "city": "YORKTOWN HTS", "state": "NY", "zip": "10598-2007", "ntee": "N60", "ruling": "200003", "deductibility": "2", "assets": 0, "income": 0, "revenue": 0}, {"ein": "372063287", "name": "LONG ISLAND FENCERS CLUB INC", "city": "MOUNT SINAI", "state": "NY", "zip": "11766-2019", "ntee": "N60", "ruling": "202211", "deductibility": "1", "assets": 0, "income": 0, "revenue": 0}], "PHILHARMONIA": [{"ein": "132971607", "name": "PHILHARMONIA FOUNDATION", "city": "NEW YORK", "state": "NY", "zip": "10018-0126", "ntee": "A110", "ruling": "197903", "deductibility": "1", "assets": 312404, "income": 181368, "revenue": 181368}, {"ein": "824446901", "name": "NASSAU PHILHARMONIA INC", "city": "GREENLAWN", "state": "NY", "zip": "11740-0000", "ntee": "A69", "ruling": "201906", "deductibility": "1", "assets": 12664, "income": 2717, "revenue": 0}], "INSURED": [{"ein": "133101792", "name": "MOUNT PLEASANT TEACHERS BENEFIT FUND SELF INSURED ADMIN", "city": "HAWTHORNE", "state": "NY", "zip": "10532-1736", "ntee": "", "ruling": "198302", "deductibility": "2", "assets": 359790, "income": 516449, "revenue": 516449}, {"ein": "160420210", "name": "ELECTRICAL ASSOCIATION OF ROCHESTER INC INSURED BENEFIT TRUST", "city": "ROCHESTER", "state": "NY", "zip": "14602-0219", "ntee": "", "ruling": "194511", "deductibility": "2", "assets": 154700, "income": 126838, "revenue": 19142}, {"ein": "161443688", "name": "NEW YORK STATE ASSOCIATION OF SELF- INSURED COUNTIES INC", "city": "ALBION", "state": "NY", "zip": "14411-9301", "ntee": "S41", "ruling": "200411", "deductibility": "2", "assets": 27538, "income": 63813, "revenue": 63813}], "FORSHAY": [{"ein": "133508515", "name": "CONGREGATION SHOMREI TORAH OF FORSHAY", "city": "BRONX", "state": "NY", "zip": "10451-2721", "ntee": "", "ruling": "198908", "deductibility": "1", "assets": 0, "income": 0, "revenue": 0}], "ACCUEIL": [{"ein": "133568037", "name": "ACCUEIL NEW YORK INC", "city": "NEW YORK", "state": "NY", "zip": "10022-1762", "ntee": "", "ruling": "199108", "deductibility": "1", "assets": 59216, "income": 27984, "revenue": 27984}], "BACHMANN": [{"ein": "133804248", "name": "THE BACHMANN-STRAUSS DYSTONIA & PARKINSON FOUNDATION OF MOUNT", "city": "NEW YORK", "state": "NY", "zip": "10017-5612", "ntee": "T99", "ruling": "199505", "deductibility": "1", "assets": 204234, "income": 1037, "revenue": 1037}, {"ein": "136043497", "name": "BACHMANN STRAUSS FAMILY FUND INC", "city": "ALBANY", "state": "NY", "zip": "12203-8016", "ntee": "", "ruling": "194911", "deductibility": "1", "assets": 10605093, "income": 1948275, "revenue": 0}], "EDAH": [{"ein": "133841793", "name": "EDAH INC", "city": "NEW YORK", "state": "NY", "zip": "10156-1574", "ntee": "X992", "ruling": "199512", "deductibility": "1", "assets": 99189, "income": 587666, "revenue": 0}], "PENNER": [{"ein": "133935352", "name": "ARNOLD S PENNER FOUNDATION INC", "city": "NEW YORK", "state": "NY", "zip": "10065-0000", "ntee": "T90Z", "ruling": "199805", "deductibility": "1", "assets": 2407422, "income": 1473097, "revenue": 0}], "SAFEGUARD": [{"ein": "134011201", "name": "SAFEGUARD CREDIT COUNSELING SERVICES INC", "city": "NORTHPORT", "state": "NY", "zip": "11768-2851", "ntee": "P51", "ruling": "199901", "deductibility": "1", "assets": 4943481, "income": 1226931, "revenue": 1226931}, {"ein": "830704620", "name": "SAFEGUARD THE SEAS INC", "city": "NEW YORK", "state": "NY", "zip": "10021-3553", "ntee": "C30", "ruling": "201806", "deductibility": "1", "assets": 0, "income": 0, "revenue": 0}], "HIDALGO": [{"ein": "134014406", "name": "TIGHE HIDALGO FOUNDATION INC", "city": "SOUTHAMPTON", "state": "NY", "zip": "11968-0000", "ntee": "T20Z", "ruling": "199811", "deductibility": "1", "assets": 623182, "income": 29447, "revenue": 0}], "HOW": [{"ein": "134067655", "name": "GEE HOW OAK TIN ASSOCIATION INC", "city": "NEW YORK", "state": "NY", "zip": "10013-4960", "ntee": "N99", "ruling": "200006", "deductibility": "2", "assets": 149157, "income": 126555, "revenue": 126555}, {"ein": "273111044", "name": "WHITE PLAINS HOW IT WORK GROUP LTD", "city": "WHITE PLAINS", "state": "NY", "zip": "10606-0000", "ntee": "F20", "ruling": "201609", "deductibility": "1", "assets": 0, "income": 0, "revenue": 0}, {"ein": "461020254", "name": "HOW OUR LIVES LINK ALTOGETHER", "city": "NEW YORK", "state": "NY", "zip": "10030-2900", "ntee": "O50", "ruling": "201601", "deductibility": "1", "assets": 273685, "income": 895850, "revenue": 895850}, {"ein": "472057434", "name": "TORRES E-HOW COMMUNITY DEVELOPMENT INC", "city": "MIDDLE VLG", "state": "NY", "zip": "11379-2917", "ntee": "S20", "ruling": "202001", "deductibility": "1", "assets": 0, "income": 0, "revenue": 0}, {"ein": "510553160", "name": "HOW CLUB INC", "city": "STATEN ISLAND", "state": "NY", "zip": "10302-1722", "ntee": "F20", "ruling": "200606", "deductibility": "1", "assets": 0, "income": 0, "revenue": 0}, {"ein": "711039020", "name": "HOW CAN I HELP INC", "city": "HEMPSTEAD", "state": "NY", "zip": "11551-0493", "ntee": "P81", "ruling": "200801", "deductibility": "1", "assets": 0, "income": 0, "revenue": 0}, {"ein": "812508655", "name": "HOW INSTITUTE FOR SOCIETY", "city": "NEW YORK", "state": "NY", "zip": "10038-3703", "ntee": "B90", "ruling": "201606", "deductibility": "1", "assets": 2663666, "income": 2517359, "revenue": 2517359}, {"ein": "832308653", "name": "HOW TO DRAW A LION INC", "city": "RIDGEWOOD", "state": "NY", "zip": "11385-4709", "ntee": "A20", "ruling": "201811", "deductibility": "1", "assets": 0, "income": 0, "revenue": 0}, {"ein": "882560551", "name": "HOW WOULD YOU DESCRIBE ME INC", "city": "BROOKLYN", "state": "NY", "zip": "11215-7601", "ntee": "B99", "ruling": "202206", "deductibility": "1", "assets": 0, "income": 0, "revenue": 0}, {"ein": "923111488", "name": "HOW EVERYONE ACCOMPLISHES LOVE INC", "city": "MEDFORD", "state": "NY", "zip": "11763-1116", "ntee": "W01", "ruling": "202407", "deductibility": "1", "assets": 0, "income": 0, "revenue": 0}, {"ein": "934124990", "name": "REFUSE HOW TO NOT BE A VICTIM INC", "city": "SYRACUSE", "state": "NY", "zip": "13202-2629", "ntee": "I20", "ruling": "202401", "deductibility": "1", "assets": 0, "income": 0, "revenue": 0}], "BRANDWEIN": [{"ein": "134079668", "name": "PAUL F BRANDWEIN INSTITUTE INC", "city": "PORT JERVIS", "state": "NY", "zip": "12771-3346", "ntee": "C026", "ruling": "200002", "deductibility": "1", "assets": 611228, "income": 160819, "revenue": 160819}, {"ein": "137039092", "name": "BRANDWEIN-MORHOLT TR", "city": "PORT JERVIS", "state": "NY", "zip": "12771-3346", "ntee": "Z99Z", "ruling": "199501", "deductibility": "1", "assets": 3011405, "income": 853945, "revenue": 0}], "DIRK": [{"ein": "134083748", "name": "THE NATASHA AND DIRK ZIFF FOUNDATION", "city": "NEW YORK", "state": "NY", "zip": "10018-0941", "ntee": "T22", "ruling": "200005", "deductibility": "1", "assets": 718649, "income": 50444, "revenue": 0}], "LT": [{"ein": "134125358", "name": "LT JOSEPH R GRILLO MEMORIAL ASSOCIATION INC", "city": "HARRISON", "state": "NY", "zip": "10528-0101", "ntee": "W30", "ruling": "201709", "deductibility": "1", "assets": 0, "income": 0, "revenue": 0}, {"ein": "150519261", "name": "LT CYRUS GARNSEY III VFW POST 1323", "city": "SENECA FALLS", "state": "NY", "zip": "13148-0181", "ntee": "", "ruling": "195109", "deductibility": "1", "assets": 11296, "income": 32824, "revenue": 26458}, {"ein": "161730124", "name": "LT MICHAEL P MURPHY USN MEMORIAL SCHOLARSHIP FOUNDATION", "city": "RIVERHEAD", "state": "NY", "zip": "11901-0000", "ntee": "B12", "ruling": "200604", "deductibility": "1", "assets": 943389, "income": 183642, "revenue": 183642}, {"ein": "237304418", "name": "VETERANS OF FOREIGN WARS OF THE U S DEPT OF NY 6292 LT HARRY PRUDEN JR", "city": "JEFFERSON", "state": "NY", "zip": "12093-3127", "ntee": "", "ruling": "197210", "deductibility": "1", "assets": 0, "income": 0, "revenue": 0}, {"ein": "262857195", "name": "LT JOHN MARTINSON MEMORIAL FOUNDATION", "city": "STATEN ISLAND", "state": "NY", "zip": "10306-3004", "ntee": "T12", "ruling": "201003", "deductibility": "1", "assets": 0, "income": 0, "revenue": 0}, {"ein": "454257276", "name": "LT KC ABRAHAM INA FOUNDATION INC", "city": "MIDDLE ISLAND", "state": "NY", "zip": "11953-2074", "ntee": "T31", "ruling": "201301", "deductibility": "1", "assets": 0, "income": 0, "revenue": 0}, {"ein": "454776209", "name": "TWENTIETH CENTURY CLUB OF BUFFALO PRESERVATION FOUNDATION LT", "city": "BUFFALO", "state": "NY", "zip": "14202-1201", "ntee": "A80", "ruling": "201208", "deductibility": "1", "assets": 278062, "income": 240361, "revenue": 227561}, {"ein": "474052154", "name": "LT COL TODD J CLARK MEMORIAL GOLF TOURNAMENT", "city": "SCHENECTADY", "state": "NY", "zip": "12303-5640", "ntee": "P12", "ruling": "201506", "deductibility": "1", "assets": 18582, "income": 69251, "revenue": 69251}, {"ein": "562531360", "name": "LT JOSEPH G LEAVEY EDUCATIONAL FOUNDATION", "city": "PELHAM", "state": "NY", "zip": "10803-1424", "ntee": "B82", "ruling": "201510", "deductibility": "1", "assets": 0, "income": 0, "revenue": 0}, {"ein": "814063345", "name": "LT MICHAEL MURPHY DIVISION OF THE USNSCC", "city": "WEST SAYVILLE", "state": "NY", "zip": "11796-1908", "ntee": "O50", "ruling": "201701", "deductibility": "1", "assets": 0, "income": 0, "revenue": 0}, {"ein": "814132284", "name": "LT MICHAEL P MURPHY NAVY SEAL MUSEUM", "city": "WEST SAYVILLE", "state": "NY", "zip": "11796-1908", "ntee": "A50", "ruling": "201704", "deductibility": "1", "assets": 3244880, "income": 795963, "revenue": 632259}, {"ein": "881447067", "name": "LT JOHN M RODRIGUEZ MEMORIAL FOUNDATION INC", "city": "HARTSDALE", "state": "NY", "zip": "10530-1161", "ntee": "T20", "ruling": "202302", "deductibility": "1", "assets": 3066, "income": 42231, "revenue": 25277}], "NEUROPLEX": [{"ein": "134145551", "name": "NEUROPLEX INC", "city": "STATEN ISLAND", "state": "NY", "zip": "10314-2836", "ntee": "E03", "ruling": "201405", "deductibility": "1", "assets": 0, "income": 0, "revenue": 0}], "GENREAL": [{"ein": "136056781", "name": "ARMENIAN GENREAL BENEVOLENT UNION", "city": "NEW YORK", "state": "NY", "zip": "10022-1112", "ntee": "", "ruling": "199105", "deductibility": "1", "assets": 0, "income": 0, "revenue": 0}], "MOSTYN": [{"ein": "136171217", "name": "MOSTYN FOUNDATION INC", "city": "NEW YORK", "state": "NY", "zip": "10019-5434", "ntee": "", "ruling": "196502", "deductibility": "1", "assets": 5468299, "income": 2775684, "revenue": 0}], "CLASSICALLY": [{"ein": "136202532", "name": "CLASSICALLY CONNECTED INC", "city": "NEW YORK", "state": "NY", "zip": "10023-6083", "ntee": "A68Z", "ruling": "197411", "deductibility": "1", "assets": 726642, "income": 255178, "revenue": 199100}], "ELLENBURG": [{"ein": "141701264", "name": "ELLENBURG HOUSING DEVELOPEMENT FUND COMPANY INC", "city": "ELLENBURG CTR", "state": "NY", "zip": "12934-2980", "ntee": "L21Z", "ruling": "199308", "deductibility": "1", "assets": 353708, "income": 212855, "revenue": 212855}, {"ein": "990950204", "name": "ELLENBURG BOBCATS YOUTH WRESTLING", "city": "ELLENBURG DEP", "state": "NY", "zip": "12935-1707", "ntee": "O20", "ruling": "202404", "deductibility": "1", "assets": 0, "income": 0, "revenue": 0}], "ETC": [{"ein": "141724406", "name": "ETC HOUSING CORPORATION", "city": "PLATTSBURGH", "state": "NY", "zip": "12901-0239", "ntee": "L21Z", "ruling": "199402", "deductibility": "1", "assets": 1989658, "income": 763041, "revenue": 763041}], "BONNER": [{"ein": "156014221", "name": "JAY BONNER GAYLORD TRUST", "city": "BUFFALO", "state": "NY", "zip": "14240-1504", "ntee": "T20", "ruling": "200903", "deductibility": "1", "assets": 7342602, "income": 1885074, "revenue": 0}, {"ein": "166273334", "name": "CORA GAYLORD TRUST UWO FBO JAY BONNER", "city": "BUFFALO", "state": "NY", "zip": "14240-1504", "ntee": "T20", "ruling": "200907", "deductibility": "1", "assets": 1224867, "income": 332041, "revenue": 0}], "CAFETERIA": [{"ein": "156025763", "name": "SETON CATHOLIC MIDDLE SCHOOL CAFETERIA", "city": "ENDICOTT", "state": "NY", "zip": "13760-5204", "ntee": "", "ruling": "194603", "deductibility": "1", "assets": 0, "income": 0, "revenue": 0}, {"ein": "900786044", "name": "WAPPINGERS CAFETERIA WELFARE TR FUND", "city": "FISHKILL", "state": "NY", "zip": "12524-2922", "ntee": "Y43", "ruling": "201508", "deductibility": "2", "assets": 0, "income": 0, "revenue": 0}], "RJ": [{"ein": "161499447", "name": "RJ BARRETT MANOR HOUSING DEVELOPMENT FUND CO INC", "city": "SYRACUSE", "state": "NY", "zip": "13203-2879", "ntee": "L21", "ruling": "194603", "deductibility": "1", "assets": 1585651, "income": 454905, "revenue": 454905}], "ELLWOOD": [{"ein": "161543228", "name": "ELLWOOD VOLUNTEER FIRE CO NO 1", "city": "BUFFALO", "state": "NY", "zip": "14223-2016", "ntee": "P80Z", "ruling": "199803", "deductibility": "1", "assets": 154503, "income": 105197, "revenue": 79697}], "ELDERLIFE": [{"ein": "161557404", "name": "ELDERLIFE INC", "city": "UTICA", "state": "NY", "zip": "13501-5054", "ntee": "P81", "ruling": "199903", "deductibility": "1", "assets": 3004940, "income": 2553179, "revenue": 2541585}], "NORTHMORE": [{"ein": "166093010", "name": "NORTHM0RE FAMILY LIFE STUDY CLUB NORTHMORE NURSERY SCHOOL", "city": "KENMORE", "state": "NY", "zip": "14217-1810", "ntee": "B21Z", "ruling": "196801", "deductibility": "1", "assets": 91368, "income": 190251, "revenue": 184756}], "RENE": [{"ein": "201155157", "name": "THE RENE ACADEMY OF CREATIVE ARTS INC", "city": "ELMONT", "state": "NY", "zip": "11003-4314", "ntee": "A20", "ruling": "201912", "deductibility": "1", "assets": 0, "income": 0, "revenue": 0}, {"ein": "363729186", "name": "CHARLES AND RENE LIPSHITZ FAMILY FOUNDATION", "city": "NEW YORK", "state": "NY", "zip": "10024-4956", "ntee": "T20Z", "ruling": "199811", "deductibility": "1", "assets": 336813, "income": 804334, "revenue": 0}], "SWEDEN": [{"ein": "203064108", "name": "SWEDEN COMMUNITY RECREATION FOUNDATION INC", "city": "BROCKPORT", "state": "NY", "zip": "14420-1922", "ntee": "T31", "ruling": "200611", "deductibility": "1", "assets": 0, "income": 0, "revenue": 0}, {"ein": "205251022", "name": "SWEDEN SENIOR ASSOCIATION INC", "city": "BROCKPORT", "state": "NY", "zip": "14420-9779", "ntee": "P11", "ruling": "200610", "deductibility": "1", "assets": 0, "income": 0, "revenue": 0}, {"ein": "821501817", "name": "AMERICAN FRIENDS OF THE NATIONALMUSEUM OF SWEDEN FOUNDATIO", "city": "NEW YORK", "state": "NY", "zip": "10021-4169", "ntee": "A12", "ruling": "201708", "deductibility": "1", "assets": 99114, "income": 52625, "revenue": 52625}], "TAXDEDUXTIBLETHEATRE": [{"ein": "203344231", "name": "TAXDEDUXTIBLETHEATRE INC", "city": "ASTORIA", "state": "NY", "zip": "11106-3940", "ntee": "A65", "ruling": "200606", "deductibility": "1", "assets": 0, "income": 0, "revenue": 0}], "TUMORFOUNDATION": [{"ein": "204390622", "name": "ISRAELI PEDIATRIC BRAIN TUMORFOUNDATION LTD", "city": "NEW YORK", "state": "NY", "zip": "10023-0000", "ntee": "E12", "ruling": "200702", "deductibility": "1", "assets": 77810, "income": 30109, "revenue": 30109}], "ADULTLEARNING": [{"ein": "205614308", "name": "FRANZ E WINKLER CENTER FOR ADULTLEARNING INC", "city": "GARDEN CITY", "state": "NY", "zip": "11530-0000", "ntee": "B60", "ruling": "200810", "deductibility": "1", "assets": 16734, "income": 275, "revenue": 275}], "PINK": [{"ein": "208890755", "name": "THE PINK AGENDA INC", "city": "NEW YORK", "state": "NY", "zip": "10036-7422", "ntee": "H12", "ruling": "200804", "deductibility": "1", "assets": 1160479, "income": 2312951, "revenue": 1649738}, {"ein": "331703894", "name": "PINK CADILLAC GROUP INC", "city": "BROOKLYN", "state": "NY", "zip": "11206-1030", "ntee": "J22", "ruling": "202412", "deductibility": "1", "assets": 0, "income": 0, "revenue": 0}, {"ein": "352443557", "name": "MISSION IN PINK INC", "city": "NEW YORK", "state": "NY", "zip": "10021-9804", "ntee": "H99", "ruling": "201405", "deductibility": "1", "assets": 88088, "income": 187151, "revenue": 182151}, {"ein": "421766709", "name": "PINK RIBBON INC", "city": "LAKE SUCCESS", "state": "NY", "zip": "11042-1009", "ntee": "P12", "ruling": "202502", "deductibility": "1", "assets": 33540, "income": 4519, "revenue": 4519}, {"ein": "453201317", "name": "FIRST COMPANY PINK INC", "city": "HICKSVILLE", "state": "NY", "zip": "11801-6500", "ntee": "G123", "ruling": "201203", "deductibility": "1", "assets": 0, "income": 0, "revenue": 0}, {"ein": "463459187", "name": "PINK PILLOW PROJECT INC", "city": "EAST AMHERST", "state": "NY", "zip": "14051-2803", "ntee": "G99", "ruling": "201405", "deductibility": "1", "assets": 0, "income": 0, "revenue": 0}, {"ein": "471076126", "name": "SIMPLE PINK RETREAT CENTERS INC", "city": "BARNEVELD", "state": "NY", "zip": "13304-3104", "ntee": "B60", "ruling": "201506", "deductibility": "1", "assets": 0, "income": 0, "revenue": 0}, {"ein": "472355088", "name": "GOD LOVES PINK MINISTRIES INC", "city": "MIDDLETOWN", "state": "NY", "zip": "10940-5808", "ntee": "X99", "ruling": "201412", "deductibility": "1", "assets": 0, "income": 0, "revenue": 0}, {"ein": "812652020", "name": "WORLD OF PINK FOUNDATION INC", "city": "MERRICK", "state": "NY", "zip": "11566-5336", "ntee": "P20", "ruling": "201605", "deductibility": "1", "assets": 167556, "income": 189774, "revenue": 189774}, {"ein": "821175370", "name": "PINK LADIES LIVE", "city": "JAMAICA", "state": "NY", "zip": "11434-1102", "ntee": "P20", "ruling": "202408", "deductibility": "1", "assets": 0, "income": 0, "revenue": 0}, {"ein": "822407366", "name": "PINK CLEATS COACHES AGAINST CANCER", "city": "WHITE PLAINS", "state": "NY", "zip": "10605-4511", "ntee": "G12", "ruling": "201711", "deductibility": "1", "assets": 0, "income": 0, "revenue": 0}, {"ein": "822803043", "name": "FRIENDS WHO THINK PINK BREAST CANCE R AWARENESS ORGANIZATION", "city": "STATEN ISLAND", "state": "NY", "zip": "10310-1400", "ntee": "G99", "ruling": "201806", "deductibility": "1", "assets": 0, "income": 0, "revenue": 0}, {"ein": "823355886", "name": "SULLY AND THE LADIES IN PINK INC", "city": "DALTON", "state": "NY", "zip": "14836-9752", "ntee": "G12", "ruling": "201802", "deductibility": "1", "assets": 38278, "income": 117986, "revenue": 97434}, {"ein": "824031518", "name": "POSITIVELY PINK INC", "city": "STONY BROOK", "state": "NY", "zip": "11790-1715", "ntee": "G30", "ruling": "201804", "deductibility": "1", "assets": 0, "income": 0, "revenue": 0}, {"ein": "830408377", "name": "THINK POSITIVELY PINK INC", "city": "FAYETTEVILLE", "state": "NY", "zip": "13066-2239", "ntee": "E80", "ruling": "200502", "deductibility": "1", "assets": 0, "income": 0, "revenue": 0}, {"ein": "832602037", "name": "PINK BLUE AND PURPLE VILLAGE HOUSE INCORPORATED", "city": "WHEATLEY HTS", "state": "NY", "zip": "11798-1818", "ntee": "P20", "ruling": "201907", "deductibility": "1", "assets": 724, "income": 5471, "revenue": 5471}, {"ein": "931552231", "name": "PINK PACK FOUNDATION", "city": "LLOYD HARBOR", "state": "NY", "zip": "11743-1718", "ntee": "B90", "ruling": "202309", "deductibility": "1", "assets": 0, "income": 0, "revenue": 0}, {"ein": "933664263", "name": "PINK ASSEMBLY INC", "city": "BROOKLYN", "state": "NY", "zip": "11233-2822", "ntee": "O01", "ruling": "202310", "deductibility": "1", "assets": 0, "income": 0, "revenue": 0}, {"ein": "992424238", "name": "PINK HOPE FOUNDATION", "city": "YONKERS", "state": "NY", "zip": "10701-8823", "ntee": "G32", "ruling": "202406", "deductibility": "1", "assets": 0, "income": 0, "revenue": 0}], "EVANGELICALCHURCH": [{"ein": "208930667", "name": "ST MARY ON THE HILL EVANGELICALCHURCH INC", "city": "BRONX", "state": "NY", "zip": "10466-4817", "ntee": "X20", "ruling": "200804", "deductibility": "1", "assets": 0, "income": 0, "revenue": 0}, {"ein": "260603278", "name": "INDONESIAN CHRISTIAN EVANGELICALCHURCH", "city": "ELMHURST", "state": "NY", "zip": "11373-3457", "ntee": "X21", "ruling": "200902", "deductibility": "1", "assets": 0, "income": 0, "revenue": 0}], "EMPLOYEEES": [{"ein": "222217887", "name": "LOURDES EMPLOYEEES CHARITABLE CONTRIBUTION ORGANIZATION", "city": "BINGHAMTON", "state": "NY", "zip": "13905-4246", "ntee": "", "ruling": "198003", "deductibility": "1", "assets": 11326, "income": 34071, "revenue": 34071}], "HUTHER": [{"ein": "222238075", "name": "HUTHER-DOYLE MEMORIAL INSTITUTE INC", "city": "ROCHESTER", "state": "NY", "zip": "14604-2638", "ntee": "F22Z", "ruling": "199006", "deductibility": "1", "assets": 2529256, "income": 5105076, "revenue": 5081541}], "MEMORIALL": [{"ein": "222545789", "name": "KETCHUM GRANDE MEMORIALL SCHOOL", "city": "BURNT HILLS", "state": "NY", "zip": "12027-0047", "ntee": "", "ruling": "198704", "deductibility": "2", "assets": 5025781, "income": 3275912, "revenue": 3275912}], "LIBRE": [{"ein": "223862111", "name": "IGLESIA METODISTA LIBRE EL REMANENTE", "city": "BRONX", "state": "NY", "zip": "10456-2208", "ntee": "", "ruling": "195806", "deductibility": "1", "assets": 0, "income": 0, "revenue": 0}, {"ein": "843704927", "name": "IGLESIA METODISTA LIBRE MANANTIAL DE VIDA", "city": "YORKTOWN HGTS", "state": "NY", "zip": "10598-2104", "ntee": "", "ruling": "195806", "deductibility": "1", "assets": 0, "income": 0, "revenue": 0}, {"ein": "851944234", "name": "ELLA LIBRE INC", "city": "MERRICK", "state": "NY", "zip": "11566-4428", "ntee": "F01", "ruling": "202009", "deductibility": "1", "assets": 0, "income": 0, "revenue": 0}], "HARTS": [{"ein": "237367676", "name": "HARTS HILL BAPTIST CHURCH", "city": "WHITESBORO", "state": "NY", "zip": "13492-0000", "ntee": "", "ruling": "197405", "deductibility": "1", "assets": 0, "income": 0, "revenue": 0}, {"ein": "473101260", "name": "HEALING HARTS EQUESTRIAN CENTER INC", "city": "UNION SPRINGS", "state": "NY", "zip": "13160-3193", "ntee": "E99", "ruling": "201506", "deductibility": "1", "assets": 47722, "income": 75074, "revenue": 74874}, {"ein": "934815284", "name": "HARTS KING INC", "city": "SCHENECTADY", "state": "NY", "zip": "12309-2014", "ntee": "D20", "ruling": "202410", "deductibility": "1", "assets": 0, "income": 0, "revenue": 0}], "SCHAAL": [{"ein": "256160466", "name": "MINERVA SCHAAL TRUST UW FBO JOHN & MINERVA SCHAAL MEMORIAL", "city": "BUFFALO", "state": "NY", "zip": "14240-1504", "ntee": "T20", "ruling": "200507", "deductibility": "1", "assets": 790793, "income": 219881, "revenue": 0}], "SHIVTEI": [{"ein": "260074154", "name": "AMERICAN FRIENDS OF KEHILLAS SHIVTEI YESHURUN INC", "city": "SUFFERN", "state": "NY", "zip": "10901-3830", "ntee": "X12", "ruling": "200410", "deductibility": "1", "assets": 32163, "income": 83695, "revenue": 83695}, {"ein": "852105699", "name": "CONGREGATION SHIVTEI YISRUEL", "city": "SPRING VALLEY", "state": "NY", "zip": "10977-1932", "ntee": "X30", "ruling": "202104", "deductibility": "1", "assets": 0, "income": 0, "revenue": 0}], "ANDEMPOWERMENT": [{"ein": "260306398", "name": "TRINITY COMMUNITY DEVELOPMENT ANDEMPOWERMENT GROUP INC", "city": "JAMAICA", "state": "NY", "zip": "11432-6150", "ntee": "I31", "ruling": "200711", "deductibility": "1", "assets": 13438, "income": 444085, "revenue": 444085}], "PUSHKIN": [{"ein": "260837381", "name": "PUSHKIN RUSSIAN SOCIETY", "city": "NEW YORK", "state": "NY", "zip": "10021-2911", "ntee": "A23", "ruling": "201407", "deductibility": "1", "assets": 0, "income": 0, "revenue": 0}], "ZONG": [{"ein": "263992628", "name": "GUANG HUAN MI ZONG INC", "city": "FULTONVILLE", "state": "NY", "zip": "12072-0585", "ntee": "X50", "ruling": "200903", "deductibility": "1", "assets": 0, "income": 0, "revenue": 0}], "MACCABI": [{"ein": "264296212", "name": "MACCABI WORLD UNION INC", "city": "NEW YORK", "state": "NY", "zip": "10018-4393", "ntee": "O50", "ruling": "200909", "deductibility": "1", "assets": 5020472, "income": 5557484, "revenue": 5482964}], "MASSIVE": [{"ein": "271668898", "name": "MASSIVE GLOBAL IMPACT", "city": "HOLLIS", "state": "NY", "zip": "11423-3420", "ntee": "P28", "ruling": "201605", "deductibility": "1", "assets": 0, "income": 0, "revenue": 0}, {"ein": "473876402", "name": "RAGA MASSIVE INC", "city": "BROOKLYN", "state": "NY", "zip": "11238-4004", "ntee": "A20", "ruling": "201506", "deductibility": "1", "assets": 119129, "income": 411821, "revenue": 410789}], "DITALIA": [{"ein": "272197268", "name": "SANTA MARIA FIGLI DITALIA", "city": "BRONX", "state": "NY", "zip": "10461-2903", "ntee": "S80", "ruling": "201905", "deductibility": "2", "assets": 0, "income": 0, "revenue": 0}], "FOXEN": [{"ein": "272396571", "name": "BILL FOXEN MEMORIAL FOUNDATION INC", "city": "HUNTINGTON", "state": "NY", "zip": "11743-2401", "ntee": "B82", "ruling": "201008", "deductibility": "1", "assets": 0, "income": 0, "revenue": 0}], "QUALIANA": [{"ein": "272442092", "name": "QUALIANA INCORPORATED", "city": "LOCKPORT", "state": "NY", "zip": "14094-5532", "ntee": "L40", "ruling": "201011", "deductibility": "1", "assets": 0, "income": 0, "revenue": 0}], "KURMEMAJ": [{"ein": "274022589", "name": "THE KAYLA & JENNA KURMEMAJ CHILDREN FOUNDATION INC", "city": "WOODBURY", "state": "NY", "zip": "11797-1502", "ntee": "K31", "ruling": "201202", "deductibility": "1", "assets": 3065, "income": 1, "revenue": 0}], "LATA": [{"ein": "274090009", "name": "RAVI & LATA HOTCHANDANI FOUNDATION INC", "city": "POUGHKEEPSIE", "state": "NY", "zip": "12603-6230", "ntee": "T20", "ruling": "201109", "deductibility": "1", "assets": 1295718, "income": 119906, "revenue": 0}], "CHASADIM": [{"ein": "300265950", "name": "CONGREGATION CHASADIM TOVIM INC", "city": "MONSEY", "state": "NY", "zip": "10952-3031", "ntee": "X30", "ruling": "200601", "deductibility": "1", "assets": 0, "income": 0, "revenue": 0}, {"ein": "874198666", "name": "GEMILAS CHASADIM INC", "city": "BROOKLYN", "state": "NY", "zip": "11219-5221", "ntee": "T20", "ruling": "202212", "deductibility": "1", "assets": 145923, "income": 100000, "revenue": 0}], "BEUKENDAAL": [{"ein": "300760231", "name": "BEUKENDAAL TEMPLE ASSOCIATION", "city": "SCOTIA", "state": "NY", "zip": "12302-2537", "ntee": "Z99", "ruling": "201311", "deductibility": "2", "assets": 94420, "income": 229837, "revenue": 229837}, {"ein": "824678949", "name": "BEUKENDAAL FIRE COMPANY", "city": "GLENVILLE", "state": "NY", "zip": "12302-6021", "ntee": "M24", "ruling": "202301", "deductibility": "1", "assets": 0, "income": 0, "revenue": 0}, {"ein": "995053734", "name": "BEUKENDAAL VOLUNTEER FIRE DEPARTMENT AUXILIARY", "city": "SCOTIA", "state": "NY", "zip": "12302-6021", "ntee": "M11", "ruling": "202505", "deductibility": "1", "assets": 0, "income": 0, "revenue": 0}], "KOEHLER": [{"ein": "320358089", "name": "CHRISTIAN KOEHLER FOUNDATION INC", "city": "EAST ISLIP", "state": "NY", "zip": "11730-3516", "ntee": "E86", "ruling": "201204", "deductibility": "1", "assets": 16493, "income": 71648, "revenue": 31920}], "LONGHOUSE": [{"ein": "331058583", "name": "LONGHOUSE RESERVE", "city": "EAST HAMPTON", "state": "NY", "zip": "11937-3807", "ntee": "B82", "ruling": "200408", "deductibility": "1", "assets": 9954487, "income": 3176617, "revenue": 1395136}], "TRUBOB": [{"ein": "331980491", "name": "TRUBOB FUND", "city": "NEW YORK", "state": "NY", "zip": "10075-0282", "ntee": "T20", "ruling": "202506", "deductibility": "1", "assets": 0, "income": 0, "revenue": 0}], "DECECCO": [{"ein": "332043422", "name": "JOE DECECCO MEMORIAL FOUNDATION INC", "city": "BUFFALO", "state": "NY", "zip": "14217-0000", "ntee": "B82", "ruling": "202502", "deductibility": "1", "assets": 0, "income": 0, "revenue": 0}], "SAMARKAND": [{"ein": "332090534", "name": "SAMARKAND MILLIY MARKAZI INC", "city": "FRESH MEADOWS", "state": "NY", "zip": "11365-3774", "ntee": "X99", "ruling": "202502", "deductibility": "1", "assets": 0, "income": 0, "revenue": 0}, {"ein": "463340638", "name": "CHARITABLE FUND SAMARKAND INC", "city": "FOREST HILLS", "state": "NY", "zip": "11375-2937", "ntee": "Y50", "ruling": "201908", "deductibility": "1", "assets": 0, "income": 0, "revenue": 0}], "SMALLS": [{"ein": "332210333", "name": "KEVIN SMALLS KIDNEY TRANSPLANT FUND INC", "city": "BROOKLYN", "state": "NY", "zip": "11231-4404", "ntee": "G44", "ruling": "202412", "deductibility": "1", "assets": 0, "income": 0, "revenue": 0}, {"ein": "743044727", "name": "SMALLS WASHINGTON FAMILY REUNION", "city": "EAST MEADOW", "state": "NY", "zip": "11554-2289", "ntee": "N50", "ruling": "200304", "deductibility": "2", "assets": 0, "income": 0, "revenue": 0}], "WARHAWKS": [{"ein": "333406807", "name": "WARHAWKS BASKETBALL INC", "city": "BUFFALO", "state": "NY", "zip": "14224-5025", "ntee": "N62", "ruling": "202502", "deductibility": "1", "assets": 0, "income": 0, "revenue": 0}], "HELPER": [{"ein": "334006625", "name": "AXES MUNDI HELPER CORPORATION", "city": "NEW YORK", "state": "NY", "zip": "10003-1502", "ntee": "L41", "ruling": "202506", "deductibility": "1", "assets": 0, "income": 0, "revenue": 0}, {"ein": "770640371", "name": "HELPER MINISTRIES INTERNATIONAL INC", "city": "BROOKLYN", "state": "NY", "zip": "11217-0605", "ntee": "", "ruling": "200707", "deductibility": "0", "assets": 0, "income": 0, "revenue": 0}], "BIRDIES": [{"ein": "352593380", "name": "NEW YORK BIRDIES GOLF CLUB INC", "city": "SPRNGFLD GDNS", "state": "NY", "zip": "11413-0495", "ntee": "N6A", "ruling": "201907", "deductibility": "1", "assets": 0, "income": 0, "revenue": 0}, {"ein": "871513213", "name": "BIRDIES AND BOGEYS FOR BOB", "city": "SOMERS", "state": "NY", "zip": "10589-1974", "ntee": "E60", "ruling": "202201", "deductibility": "1", "assets": 75864, "income": 53864, "revenue": 20527}, {"ein": "874498220", "name": "CNY BIRDIES FORE BABIES INC", "city": "UTICA", "state": "NY", "zip": "13502-1422", "ntee": "E40", "ruling": "202206", "deductibility": "1", "assets": 0, "income": 0, "revenue": 0}], "DANOFF": [{"ein": "356932749", "name": "DANOFF FAM PRIVATE CHARITABLE FOUNDATION TR", "city": "ALBANY", "state": "NY", "zip": "12212-5201", "ntee": "T21", "ruling": "201201", "deductibility": "1", "assets": 129209844, "income": 12230637, "revenue": 0}], "STRONGER": [{"ein": "384326035", "name": "STRONGER TOGETHER INC", "city": "NEW YORK", "state": "NY", "zip": "10013-3067", "ntee": "N40", "ruling": "202505", "deductibility": "1", "assets": 0, "income": 0, "revenue": 0}, {"ein": "853705984", "name": "HARRISON 5 STRONGER TOGETHER FOUNDATION INC", "city": "NEW YORK", "state": "NY", "zip": "10168-0000", "ntee": "T20", "ruling": "202105", "deductibility": "1", "assets": 903145, "income": 343293, "revenue": 0}, {"ein": "991253563", "name": "STRONGER COMMUNITIES NY INC", "city": "ALBANY", "state": "NY", "zip": "12205-3852", "ntee": "E02", "ruling": "202407", "deductibility": "1", "assets": 0, "income": 0, "revenue": 0}], "CORETTA": [{"ein": "451534613", "name": "CORETTA SCOTT KING HOUSING DEVELOPMENT FUND CORPORATION", "city": "BROOKLYN", "state": "NY", "zip": "11206-4628", "ntee": "L22", "ruling": "201512", "deductibility": "1", "assets": 12247123, "income": 888270, "revenue": 888270}], "OMARA": [{"ein": "455236425", "name": "BRIAN J OMARA FOUNDATION INC", "city": "CTR MORICHES", "state": "NY", "zip": "11934-1016", "ntee": "B82", "ruling": "201312", "deductibility": "1", "assets": 25941, "income": 67221, "revenue": 0}], "BUSTERS": [{"ein": "465291572", "name": "ARCADIA BARK BUSTERS", "city": "PHELPS", "state": "NY", "zip": "14532-9521", "ntee": "M40", "ruling": "202101", "deductibility": "1", "assets": 19426, "income": 81894, "revenue": 81894}], "EICHNER": [{"ein": "466458104", "name": "IAN BRUCE EICHNER FOUNDATION", "city": "NEW YORK", "state": "NY", "zip": "10022-5460", "ntee": "T22", "ruling": "201308", "deductibility": "1", "assets": 250, "income": 1, "revenue": 0}], "PAUSE": [{"ein": "471493156", "name": "PAUSE 4 ALL PAWS INC", "city": "LITTLE FALLS", "state": "NY", "zip": "13365-1132", "ntee": "D20", "ruling": "201412", "deductibility": "1", "assets": 0, "income": 0, "revenue": 0}, {"ein": "471667735", "name": "KITTEN PAUSE TRAP-NEUTER-RETURN ORGANIZATION", "city": "MASSENA", "state": "NY", "zip": "13662-2307", "ntee": "D20", "ruling": "201605", "deductibility": "1", "assets": 0, "income": 0, "revenue": 0}], "MAALOT": [{"ein": "472059755", "name": "MAALOT", "city": "LAWRENCE", "state": "NY", "zip": "11559-1263", "ntee": "X30", "ruling": "201909", "deductibility": "1", "assets": 16483492, "income": 7877044, "revenue": 7819596}], "RELUME": [{"ein": "472249676", "name": "RELUME FOUNDATION INC", "city": "FAR ROCKAWAY", "state": "NY", "zip": "11691-2402", "ntee": "P20", "ruling": "201412", "deductibility": "1", "assets": 121821, "income": 440171, "revenue": 440171}], "LIBERTYS": [{"ein": "472286525", "name": "DAUGHTERS OF LIBERTYS LEGACY INC", "city": "WHITE PLAINS", "state": "NY", "zip": "10603-2506", "ntee": "T50", "ruling": "201501", "deductibility": "1", "assets": 25886, "income": 12237, "revenue": 10479}, {"ein": "582672551", "name": "ASSEMBLY FOR LIBERTYS INVESTMENT IN VISUAL ENHANCEMENT INC", "city": "LIBERTY", "state": "NY", "zip": "12754-1864", "ntee": "S30", "ruling": "200405", "deductibility": "1", "assets": 0, "income": 0, "revenue": 0}], "FORO": [{"ein": "472478188", "name": "FRIENDS OF FORO CULTURAL 81", "city": "NEW YORK", "state": "NY", "zip": "10033-1121", "ntee": "T20", "ruling": "201412", "deductibility": "1", "assets": 60322, "income": 14454, "revenue": 0}], "VGAN": [{"ein": "472611386", "name": "BAYIT VGAN FUND", "city": "NEW YORK", "state": "NY", "zip": "10038-3114", "ntee": "B12", "ruling": "201709", "deductibility": "1", "assets": 4960, "income": 25000, "revenue": 25000}], "DISPENSING": [{"ein": "473666096", "name": "NATIONAL COMMUNITY ONCOLOGY DISPENSING ASSOCIATION", "city": "CAZENOVIA", "state": "NY", "zip": "13035-0468", "ntee": "P20", "ruling": "201605", "deductibility": "1", "assets": 19667082, "income": 12798721, "revenue": 12717001}], "POINSETTIA": [{"ein": "474843129", "name": "RED POINSETTIA CHARITABLE FOUNDATION INC", "city": "BAYSIDE", "state": "NY", "zip": "11361-3317", "ntee": "Q33", "ruling": "201601", "deductibility": "1", "assets": 0, "income": 0, "revenue": 0}], "ITTLESON": [{"ein": "510172757", "name": "ITTLESON FOUNDATION INC", "city": "NEW YORK", "state": "NY", "zip": "10020-1401", "ntee": "", "ruling": "197512", "deductibility": "1", "assets": 8716982, "income": 4303373, "revenue": 0}], "DELMAS": [{"ein": "510193884", "name": "GLADYS KRIEBLE DELMAS FOUNDATION", "city": "NEW YORK", "state": "NY", "zip": "10016-1133", "ntee": "", "ruling": "197607", "deductibility": "1", "assets": 44992548, "income": 2107292, "revenue": 0}], "BELLMANS": [{"ein": "527224364", "name": "BELLMANS UNITED CH OF CHRIST TUA", "city": "BUFFALO", "state": "NY", "zip": "14240-1504", "ntee": "T22", "ruling": "200212", "deductibility": "1", "assets": 356606, "income": 98756, "revenue": 0}], "NOE": [{"ein": "611440531", "name": "IGLESIA PENTECOSTAL ARCA DE NOE INC", "city": "BROOKLYN", "state": "NY", "zip": "11220-4509", "ntee": "X21", "ruling": "201209", "deductibility": "1", "assets": 0, "income": 0, "revenue": 0}, {"ein": "821119617", "name": "IGLESIA FAMILIAR CRISTIANA ARCA DE NOE", "city": "BRONX", "state": "NY", "zip": "10474-5315", "ntee": "X21", "ruling": "201911", "deductibility": "1", "assets": 0, "income": 0, "revenue": 0}, {"ein": "863763749", "name": "CASA DE ORACION EL ARCA DE NOE", "city": "BRONX", "state": "NY", "zip": "10468-1338", "ntee": "X20", "ruling": "202201", "deductibility": "1", "assets": 0, "income": 0, "revenue": 0}], "HERBAN": [{"ein": "800915955", "name": "HERBAN FARMERS MARKET INC", "city": "NEW YORK", "state": "NY", "zip": "10039-2706", "ntee": "K40", "ruling": "201507", "deductibility": "1", "assets": 0, "income": 0, "revenue": 0}], "MLBPA": [{"ein": "811328663", "name": "MLB-MLBPA YOUTH DEVELOPMENT FOUNDATION", "city": "NEW YORK", "state": "NY", "zip": "10020-1300", "ntee": "N63", "ruling": "201706", "deductibility": "1", "assets": 13113054, "income": 6670371, "revenue": 0}], "MAKOR": [{"ein": "812097033", "name": "MAKOR CHAIM USA INC", "city": "BROOKLYN", "state": "NY", "zip": "11230-5604", "ntee": "Q12", "ruling": "201707", "deductibility": "1", "assets": 30567, "income": 1114539, "revenue": 1114539}], "ROCH": [{"ein": "813260950", "name": "ROMAN CATHOLIC CHURCH OF SAINT ANSELM AND SAINT ROCH", "city": "BRONX", "state": "NY", "zip": "10455-2201", "ntee": "", "ruling": "194603", "deductibility": "1", "assets": 0, "income": 0, "revenue": 0}, {"ein": "813277525", "name": "ROMAN CATHOLIC CHURCH OF SAINT ADALBERT AND SAINT ROCH", "city": "STATEN ISLAND", "state": "NY", "zip": "10303-2830", "ntee": "", "ruling": "194603", "deductibility": "1", "assets": 0, "income": 0, "revenue": 0}], "TALLAJ": [{"ein": "813538487", "name": "DR RAMON TALLAJ FOUNDATION INC", "city": "BRONX", "state": "NY", "zip": "10463-7104", "ntee": "T30", "ruling": "201803", "deductibility": "1", "assets": 1115591, "income": 424754, "revenue": 0}], "CATTARA": [{"ein": "814133536", "name": "ABUNDANT LIFE MINISTRIES OF CATTARA UGUS COUNTY INC", "city": "WESTONS MILLS", "state": "NY", "zip": "14788-0196", "ntee": "X20", "ruling": "201704", "deductibility": "1", "assets": 0, "income": 0, "revenue": 0}], "TAWAKKUL": [{"ein": "821617338", "name": "TAWAKKUL FOUNDATION INC", "city": "JAMAICA", "state": "NY", "zip": "11432-6054", "ntee": "T30", "ruling": "201803", "deductibility": "1", "assets": 0, "income": 0, "revenue": 0}], "ALTRU": [{"ein": "822035174", "name": "ALTRU CENTER NY", "city": "JACKSON HTS", "state": "NY", "zip": "11372-2625", "ntee": "B99", "ruling": "202001", "deductibility": "1", "assets": 48899, "income": 335311, "revenue": 335311}], "HAMIVTAR": [{"ein": "822098127", "name": "KUPAT GIVAT HAMIVTAR INC", "city": "LAWRENCE", "state": "NY", "zip": "11559-1446", "ntee": "P20", "ruling": "201712", "deductibility": "1", "assets": 0, "income": 457346, "revenue": 457346}], "MARASH": [{"ein": "822438458", "name": "UNION OF MARASH ARMENIANS STUDENT FUND INC", "city": "LITTLE NECK", "state": "NY", "zip": "11362-1849", "ntee": "B82", "ruling": "201708", "deductibility": "1", "assets": 0, "income": 0, "revenue": 0}], "GY": [{"ein": "822957235", "name": "GY FOUNDATION", "city": "SPRING VALLEY", "state": "NY", "zip": "10977-1952", "ntee": "T20", "ruling": "201806", "deductibility": "1", "assets": 30894, "income": 15369, "revenue": 0}], "COUNTRIES": [{"ein": "824482352", "name": "INTERNATIONAL CONFRATERNITY OF UNITED COUNTRIES INC", "city": "NEW YORK", "state": "NY", "zip": "10026-3807", "ntee": "T30", "ruling": "202104", "deductibility": "1", "assets": 0, "income": 0, "revenue": 0}], "GALORE": [{"ein": "824587839", "name": "GALORE URBAN TECH", "city": "ROSEDALE", "state": "NY", "zip": "11422-2325", "ntee": "", "ruling": "201805", "deductibility": "1", "assets": 0, "income": 0, "revenue": 0}], "NSSP": [{"ein": "824938466", "name": "CONGREGATION OF THE INFANT JESUS NSSP INC CHARITABLE TRUST", "city": "ROCKVILLE CTR", "state": "NY", "zip": "11570-1002", "ntee": "E12", "ruling": "201908", "deductibility": "1", "assets": 0, "income": 0, "revenue": 0}], "YIELDSTREET": [{"ein": "831006415", "name": "YIELDSTREET FOUNDATION CORP", "city": "NEW YORK", "state": "NY", "zip": "10022-7410", "ntee": "T20", "ruling": "201812", "deductibility": "1", "assets": 29734, "income": 145654, "revenue": 0}], "BAAH": [{"ein": "831636314", "name": "BAAH AFRICAN DEVELOPMENT INC", "city": "NANUET", "state": "NY", "zip": "10954-2458", "ntee": "W99", "ruling": "201812", "deductibility": "1", "assets": 0, "income": 0, "revenue": 0}], "HOOMANITIES": [{"ein": "831750245", "name": "HOOMANITIES INC", "city": "ROSLYN HTS", "state": "NY", "zip": "11577-1809", "ntee": "O50", "ruling": "201906", "deductibility": "1", "assets": 637, "income": 6170, "revenue": 6170}], "DINIZULU": [{"ein": "831878795", "name": "DINIZULU CULTRAL ARTS INSTITUTE INC", "city": "JAMAICA", "state": "NY", "zip": "11433-1227", "ntee": "A20", "ruling": "201902", "deductibility": "1", "assets": 0, "income": 0, "revenue": 0}], "AVEN": [{"ein": "832174365", "name": "AVEN SESHIYU FOUNDATION", "city": "BROOKLYN", "state": "NY", "zip": "11211-8235", "ntee": "T20", "ruling": "201902", "deductibility": "1", "assets": 631889, "income": 65607, "revenue": 0}, {"ein": "851625663", "name": "CONGREGATION AVEN SHLEIMA", "city": "AIRMONT", "state": "NY", "zip": "10952-3409", "ntee": "X30", "ruling": "202403", "deductibility": "1", "assets": 0, "income": 0, "revenue": 0}], "DISBROW": [{"ein": "832520327", "name": "DISBROW PARK CONSERVANCY", "city": "RYE", "state": "NY", "zip": "10580-2629", "ntee": "N01", "ruling": "201904", "deductibility": "1", "assets": 0, "income": 0, "revenue": 0}], "WORT": [{"ein": "833430405", "name": "DOGS OF WORT INC", "city": "YORKTOWN HTS", "state": "NY", "zip": "10598-3131", "ntee": "U33", "ruling": "201903", "deductibility": "1", "assets": 0, "income": 0, "revenue": 0}], "MINH": [{"ein": "842895286", "name": "TINH XA MINH DANG QUANG INC", "city": "SYRACUSE", "state": "NY", "zip": "13208-1619", "ntee": "X50", "ruling": "202109", "deductibility": "1", "assets": 0, "income": 0, "revenue": 0}], "FEKUW": [{"ein": "845029254", "name": "OKUAPEMMAN FEKUW OF NEW YORK INC", "city": "BRONX", "state": "NY", "zip": "10451-1707", "ntee": "N64", "ruling": "202004", "deductibility": "1", "assets": 0, "income": 0, "revenue": 0}], "OCBUA": [{"ein": "861472994", "name": "OCBUA INC", "city": "MONTGOMERY", "state": "NY", "zip": "12549-1712", "ntee": "N03", "ruling": "202206", "deductibility": "1", "assets": 4021, "income": 19255, "revenue": 0}], "TROJAN": [{"ein": "871584737", "name": "TROJAN ELITE INC", "city": "NEWFIELD", "state": "NY", "zip": "14867-9486", "ntee": "N65", "ruling": "202202", "deductibility": "1", "assets": 0, "income": 0, "revenue": 0}, {"ein": "883256593", "name": "TROJAN MIDGET FOOTBALL AND CHEER", "city": "LAKEWOOD", "state": "NY", "zip": "14750-0123", "ntee": "N99", "ruling": "202209", "deductibility": "1", "assets": 0, "income": 0, "revenue": 0}], "SMB": [{"ein": "872154324", "name": "JIN SHIN JYUTSU SMB INC", "city": "WOODSTOCK", "state": "NY", "zip": "12498-1725", "ntee": "A20", "ruling": "202111", "deductibility": "1", "assets": 30917, "income": 46014, "revenue": 46014}], "BEVERAGES": [{"ein": "872966299", "name": "CRAFT BEVERAGES OF THE CATSKILLS TRAIL INC", "city": "SAUGERTIES", "state": "NY", "zip": "12477-8162", "ntee": "S41", "ruling": "202205", "deductibility": "2", "assets": 0, "income": 0, "revenue": 0}], "SESTRANOW": [{"ein": "881616950", "name": "SESTRANOW FOUNDATION", "city": "EAST ELMHURST", "state": "NY", "zip": "11369-1901", "ntee": "P40", "ruling": "202205", "deductibility": "1", "assets": 1, "income": 0, "revenue": 0}], "ABLM": [{"ein": "881638308", "name": "ABLM INCORPORATED", "city": "BRONX", "state": "NY", "zip": "10453-8241", "ntee": "B12", "ruling": "202209", "deductibility": "1", "assets": 0, "income": 0, "revenue": 0}], "NXT": [{"ein": "882043499", "name": "NXT LEVEL LIVING INC", "city": "MOUNT VERNON", "state": "NY", "zip": "10552-3113", "ntee": "F60", "ruling": "202207", "deductibility": "1", "assets": 0, "income": 0, "revenue": 0}], "STELLAS": [{"ein": "882238378", "name": "STELLAS ART AND CULTURAL ORGANIZATION INC", "city": "BROOKLYN", "state": "NY", "zip": "11226-7189", "ntee": "A20", "ruling": "202206", "deductibility": "1", "assets": 0, "income": 0, "revenue": 0}], "HAADAM": [{"ein": "883023115", "name": "ROMEMUT HAADAM INC", "city": "BROOKLYN", "state": "NY", "zip": "11230-6610", "ntee": "P20", "ruling": "202301", "deductibility": "1", "assets": 0, "income": 0, "revenue": 0}], "RETACHED": [{"ein": "883622690", "name": "RETACHED INC", "city": "HOLLIS", "state": "NY", "zip": "11423-2427", "ntee": "E60", "ruling": "202412", "deductibility": "1", "assets": 0, "income": 0, "revenue": 0}], "YERUSHALAIM": [{"ein": "884240576", "name": "YESHIVA TIFERES AVRAHAM YERUSHALAIM", "city": "MONSEY", "state": "NY", "zip": "10952-2714", "ntee": "X30", "ruling": "202307", "deductibility": "1", "assets": 0, "income": 0, "revenue": 0}], "HUSTLERS": [{"ein": "923085296", "name": "HUSTLERS ANONYMOUS TRANSITIONAL INC", "city": "ALBANY", "state": "NY", "zip": "12202-1018", "ntee": "P20", "ruling": "202305", "deductibility": "1", "assets": 0, "income": 0, "revenue": 0}], "BOAR": [{"ein": "931628304", "name": "INTERNATIONAL ASSOCIATION OF APPROVED BASKETBALL OFFICIALS BOAR", "city": "BRONX", "state": "NY", "zip": "10460-3112", "ntee": "N03", "ruling": "202309", "deductibility": "1", "assets": 0, "income": 0, "revenue": 0}], "PARDON": [{"ein": "933713989", "name": "PARDON MY GLOW FOUNDATION", "city": "NEW YORK", "state": "NY", "zip": "10029-3021", "ntee": "R24", "ruling": "202310", "deductibility": "1", "assets": 0, "income": 0, "revenue": 0}], "PAKATAKAN": [{"ein": "934604802", "name": "HEALTHY PAKATAKAN INC", "city": "FLEISCHMANNS", "state": "NY", "zip": "12430-0000", "ntee": "T31", "ruling": "202404", "deductibility": "1", "assets": 0, "income": 0, "revenue": 0}], "DAGYAB": [{"ein": "934786579", "name": "DAGYAB COMMUNITY OF AMERICA INC", "city": "EAST ELMHURST", "state": "NY", "zip": "11369-2310", "ntee": "A23", "ruling": "202312", "deductibility": "1", "assets": 0, "income": 0, "revenue": 0}], "49Q": [{"ein": "990919105", "name": "PSIS 49Q PARENT TEACHER ASSOCIATION", "city": "MIDDLE VLG", "state": "NY", "zip": "11379-1309", "ntee": "B94", "ruling": "202411", "deductibility": "1", "assets": 0, "income": 0, "revenue": 0}]}