{"CIRCLES": [{"ein": "010589987", "name": "CIRCLES OF MERCY INC", "city": "RENSSELAER", "state": "NY", "zip": "12144-2821", "ntee": "", "ruling": "194603", "deductibility": "0", "assets": 0, "income": 0, "revenue": 0}, {"ein": "300553213", "name": "HEBREW LEARNING CIRCLES INC", "city": "NYACK", "state": "NY", "zip": "10960-0212", "ntee": "X20", "ruling": "201709", "deductibility": "1", "assets": 0, "income": 125118, "revenue": 125118}, {"ein": "522306252", "name": "CIRCLES EDGE INC", "city": "COHOES", "state": "NY", "zip": "12047-0000", "ntee": "F60", "ruling": "200111", "deductibility": "1", "assets": 0, "income": 0, "revenue": 0}], "SCHOOLS": [{"ein": "010905592", "name": "NEW YORK STATE MODEL SCHOOLS CONSORTIUM", "city": "WEST SENECA", "state": "NY", "zip": "14224-1825", "ntee": "B03", "ruling": "201111", "deductibility": "1", "assets": 22853, "income": 8100, "revenue": 8100}, {"ein": "030547067", "name": "INTERNATIONALS NETWORK FOR PUBLIC SCHOOLS INC", "city": "LONG ISLAND CITY", "state": "NY", "zip": "11101-2813", "ntee": "", "ruling": "200504", "deductibility": "1", "assets": 6970066, "income": 3684742, "revenue": 3684742}, {"ein": "030598674", "name": "WESTERN NEW YORK CHARTER SCHOOLS COALITION INC", "city": "BUFFALO", "state": "NY", "zip": "14209-2010", "ntee": "B29", "ruling": "200712", "deductibility": "1", "assets": 0, "income": 0, "revenue": 0}, {"ein": "043739991", "name": "SCIENCE ACADEMIES OF NEW YORK CHARTER SCHOOLS", "city": "SYRACUSE", "state": "NY", "zip": "13204-2191", "ntee": "", "ruling": "200306", "deductibility": "1", "assets": 65783682, "income": 50684983, "revenue": 50684983}, {"ein": "061581474", "name": "DEMOCRACY PREP NEW YORK CHARTER SCHOOLS", "city": "BRONX", "state": "NY", "zip": "10457-8266", "ntee": "B24", "ruling": "200011", "deductibility": "1", "assets": 205450358, "income": 88750732, "revenue": 88750732}, {"ein": "112145199", "name": "OUR LADY OF GUADALUPE SCHOOLS", "city": "BROOKLYN", "state": "NY", "zip": "11228-2107", "ntee": "", "ruling": "194603", "deductibility": "1", "assets": 0, "income": 0, "revenue": 0}, {"ein": "112329134", "name": "LUTHERAN CHURCH SCHOOLS OF FLUSHING AND BAYSIDE INC", "city": "BAYSIDE", "state": "NY", "zip": "11361-2031", "ntee": "", "ruling": "194107", "deductibility": "1", "assets": 0, "income": 0, "revenue": 0}, {"ein": "112600743", "name": "SOCIETY ENCOURAGING THE ARTS IN THE BAYPORT BLUE POINT SCHOOLS", "city": "BAYPORT", "state": "NY", "zip": "11705-0130", "ntee": "A25", "ruling": "201401", "deductibility": "1", "assets": 0, "income": 0, "revenue": 0}, {"ein": "112656137", "name": "FUND FOR PUBLIC SCHOOLS INC", "city": "NEW YORK", "state": "NY", "zip": "10007-1222", "ntee": "", "ruling": "198401", "deductibility": "1", "assets": 66572563, "income": 86212160, "revenue": 44624645}, {"ein": "113313259", "name": "BAY SHORE SCHOOLS ARTS ENDOWMENT FUND INC", "city": "BABYLON", "state": "NY", "zip": "11702-0699", "ntee": "E99Z", "ruling": "199605", "deductibility": "1", "assets": 168802, "income": 35455, "revenue": 35455}, {"ein": "113484514", "name": "FRIENDS OF CHABAD VOCATIONAL SCHOOLS INC", "city": "BROOKLYN", "state": "NY", "zip": "11213-5244", "ntee": "Q123", "ruling": "200003", "deductibility": "1", "assets": 53752, "income": 89084, "revenue": 89084}, {"ein": "113572559", "name": "LONG BEACH PUBLIC SCHOOLS GROUP", "city": "LIDO BEACH", "state": "NY", "zip": "11561-5092", "ntee": "J40", "ruling": "200312", "deductibility": "2", "assets": 84890, "income": 181570, "revenue": 181570}, {"ein": "116036655", "name": "PUBLIC SCHOOLS ATHLETIC LEAGUE", "city": "STATEN ISLAND", "state": "NY", "zip": "10310-2816", "ntee": "", "ruling": "195309", "deductibility": "1", "assets": 462704, "income": 30358, "revenue": 0}, {"ein": "131965385", "name": "TORAH SCHOOLS FOR ISRAEL", "city": "BROOKLYN", "state": "NY", "zip": "11204-1075", "ntee": "Q300", "ruling": "196006", "deductibility": "1", "assets": 295577, "income": 1605513, "revenue": 1605513}, {"ein": "132720462", "name": "FEDERATED COUNCIL OF BETH JACOB SCHOOLS INC", "city": "BROOKLYN", "state": "NY", "zip": "11204-1202", "ntee": "", "ruling": "000000", "deductibility": "1", "assets": 0, "income": 0, "revenue": 0}, {"ein": "132751872", "name": "DALTON SCHOOLS INC", "city": "NEW YORK", "state": "NY", "zip": "10128-1502", "ntee": "B200", "ruling": "197311", "deductibility": "1", "assets": 289382113, "income": 140739221, "revenue": 107368051}, {"ein": "132830124", "name": "MONTESSORI FAMILY SCHOOLS OF MANHATTAN", "city": "NEW YORK", "state": "NY", "zip": "10017-2313", "ntee": "B21Z", "ruling": "197909", "deductibility": "1", "assets": 1998908, "income": 3945630, "revenue": 3905046}, {"ein": "132923681", "name": "FIRST-NIGHTERS OF YORKTOWN SCHOOLS INC", "city": "YORKTOWN HTS", "state": "NY", "zip": "10598-0431", "ntee": "A60", "ruling": "202207", "deductibility": "1", "assets": 0, "income": 0, "revenue": 0}, {"ein": "133044041", "name": "COALITION OF NEW YORK STATE CAREER SCHOOLS", "city": "LONG IS CITY", "state": "NY", "zip": "11101-5107", "ntee": "", "ruling": "198702", "deductibility": "1", "assets": 788346, "income": 284638, "revenue": 284638}, {"ein": "133227027", "name": "LUTHERAN SCHOOLS ASSOCIATION", "city": "NEW YORK", "state": "NY", "zip": "10018-6118", "ntee": "", "ruling": "198506", "deductibility": "1", "assets": 0, "income": 0, "revenue": 0}, {"ein": "133335171", "name": "FRIENDS OF MUSIC AND THE ARTS IN SCARSDALE SCHOOLS INC", "city": "SCARSDALE", "state": "NY", "zip": "10583-8671", "ntee": "", "ruling": "198608", "deductibility": "1", "assets": 0, "income": 0, "revenue": 0}, {"ein": "133460383", "name": "THE NATIONAL ASSOCIATION FOR KOREAN SCHOOLS NORTH EAST CHAPTER", "city": "FLUSHING", "state": "NY", "zip": "11355-1709", "ntee": "A230", "ruling": "199308", "deductibility": "1", "assets": 24926, "income": 79665, "revenue": 79665}, {"ein": "133521371", "name": "INDEPENDENT SCHOOLS ADMISSIONS ASSOCIATION OF GREATER NEW YORK", "city": "MASSAPEQUA PARK", "state": "NY", "zip": "11762-2911", "ntee": "B20D", "ruling": "199312", "deductibility": "1", "assets": 72023, "income": 182625, "revenue": 182625}, {"ein": "133538961", "name": "NEW VISIONS FOR PUBLIC SCHOOLS INC", "city": "NEW YORK", "state": "NY", "zip": "10017-5749", "ntee": "B190", "ruling": "199409", "deductibility": "1", "assets": 80235921, "income": 41855227, "revenue": 31752150}, {"ein": "133637647", "name": "COUNSELING IN SCHOOLS INC", "city": "NEW YORK", "state": "NY", "zip": "10018-4537", "ntee": "F60Z", "ruling": "198803", "deductibility": "1", "assets": 8082789, "income": 11505772, "revenue": 11410889}, {"ein": "133757973", "name": "DOBBS FERRY SCHOOLS FOUNDATIONS INC", "city": "DOBBS FERRY", "state": "NY", "zip": "10522-1143", "ntee": "B11", "ruling": "201203", "deductibility": "1", "assets": 339414, "income": 111554, "revenue": 108463}, {"ein": "133831327", "name": "GREEN SCHOOLS ALLIANCE INC", "city": "NEW YORK", "state": "NY", "zip": "10002-3182", "ntee": "C010", "ruling": "199510", "deductibility": "1", "assets": 41054, "income": 28132, "revenue": 28132}, {"ein": "133882939", "name": "MAMARONECK SCHOOLS FOUNDATION INC", "city": "LARCHMONT", "state": "NY", "zip": "10538-0123", "ntee": "B94", "ruling": "199604", "deductibility": "1", "assets": 1080502, "income": 387271, "revenue": 332839}, {"ein": "133965487", "name": "FRIENDS OF WHITE PLAINS PUBLIC SCHOOLS INC", "city": "WHITE PLAINS", "state": "NY", "zip": "10602-1133", "ntee": "T22", "ruling": "199711", "deductibility": "1", "assets": 0, "income": 0, "revenue": 0}, {"ein": "133976873", "name": "PARTNERSHIP SCHOOLS", "city": "NEW YORK", "state": "NY", "zip": "10163-9500", "ntee": "T30", "ruling": "199801", "deductibility": "1", "assets": 35477430, "income": 19185394, "revenue": 10913733}, {"ein": "134004600", "name": "EXPANDED SCHOOLS INC", "city": "NEW YORK", "state": "NY", "zip": "10036-8002", "ntee": "P80", "ruling": "199806", "deductibility": "1", "assets": 16832556, "income": 20459742, "revenue": 15578838}, {"ein": "134164378", "name": "VALHALLA SCHOOLS FOUNDATION INC", "city": "VALHALLA", "state": "NY", "zip": "10595-0091", "ntee": "B112", "ruling": "200107", "deductibility": "1", "assets": 0, "income": 0, "revenue": 0}, {"ein": "135563003", "name": "TRINITY EPISCOPAL SCHOOLS CORPORATION", "city": "NEW YORK", "state": "NY", "zip": "10024-1326", "ntee": "B200", "ruling": "194203", "deductibility": "1", "assets": 268027899, "income": 100630112, "revenue": 86000677}, {"ein": "135564128", "name": "NATIONAL SOCIETY FOR HEBREW DAY SCHOOLS", "city": "BROOKLYN", "state": "NY", "zip": "11230-1399", "ntee": "X300", "ruling": "200308", "deductibility": "1", "assets": 63077863, "income": 74596783, "revenue": 71084116}, {"ein": "136078015", "name": "MARIST BROTHERS OF THE SCHOOLS INC", "city": "BRONX", "state": "NY", "zip": "10466-1928", "ntee": "X20", "ruling": "201412", "deductibility": "1", "assets": 0, "income": 0, "revenue": 0}, {"ein": "136119036", "name": "CHESS-IN-THE-SCHOOLS INC", "city": "NEW YORK", "state": "NY", "zip": "10018-6507", "ntee": "N50Z", "ruling": "195605", "deductibility": "1", "assets": 18959462, "income": 7929495, "revenue": 3113464}, {"ein": "136161189", "name": "BRITISH SCHOOLS AND UNIVERSITIES FOUNDATION INC", "city": "NEW YORK", "state": "NY", "zip": "10022-4503", "ntee": "Q300", "ruling": "196404", "deductibility": "1", "assets": 4443460, "income": 16159471, "revenue": 15338164}, {"ein": "136181427", "name": "NATIONAL ASSOCIATION OF EPISCOPAL SCHOOLS INC", "city": "NEW YORK", "state": "NY", "zip": "10017-4503", "ntee": "", "ruling": "196507", "deductibility": "1", "assets": 5084696, "income": 3080727, "revenue": 2039735}, {"ein": "136214887", "name": "ASSOCIATED MEDICAL SCHOOLS OF NEW YORK", "city": "NEW YORK", "state": "NY", "zip": "10016-1343", "ntee": "B54A", "ruling": "197010", "deductibility": "1", "assets": 8236495, "income": 6993892, "revenue": 6993892}, {"ein": "141419492", "name": "ALBANY ROMAN CATHOLIC DIOCESE SUPT OF SCHOOLS", "city": "ALBANY", "state": "NY", "zip": "12203-1410", "ntee": "", "ruling": "194603", "deductibility": "1", "assets": 0, "income": 0, "revenue": 0}, {"ein": "141504908", "name": "NEW YORK STATE ASSOCIATION OF INDEPENDENT SCHOOLS", "city": "ALBANY", "state": "NY", "zip": "12207-1035", "ntee": "", "ruling": "196903", "deductibility": "1", "assets": 2927879, "income": 3237766, "revenue": 3237766}, {"ein": "141829436", "name": "NEW YORK COALITION OF 853 SCHOOLS INC", "city": "NEW YORK", "state": "NY", "zip": "10001-2813", "ntee": "R01", "ruling": "200108", "deductibility": "2", "assets": 373727, "income": 202150, "revenue": 202150}, {"ein": "141830896", "name": "BRIGHTER CHOICE ELEMENTARY CHARTER SCHOOLS", "city": "ALBANY", "state": "NY", "zip": "12206-2610", "ntee": "B29", "ruling": "200105", "deductibility": "1", "assets": 22183573, "income": 13223361, "revenue": 13223361}, {"ein": "146168576", "name": "CAPITAL AREA SCHOOLS HEALTH INSUR CONSORTIUM", "city": "SCOTIA", "state": "NY", "zip": "12302-1048", "ntee": "", "ruling": "199503", "deductibility": "2", "assets": 87312475, "income": 270832204, "revenue": 270832204}, {"ein": "161012786", "name": "CATHOLIC SCHOOLS OF BROOME COUNTY", "city": "BINGHAMTON", "state": "NY", "zip": "13903-0000", "ntee": "", "ruling": "194603", "deductibility": "1", "assets": 0, "income": 0, "revenue": 0}, {"ein": "161181412", "name": "WESTHILL ELEMENTARY SCHOOLS TOGETHER", "city": "SYRACUSE", "state": "NY", "zip": "13219-2214", "ntee": "B112", "ruling": "200909", "deductibility": "1", "assets": 0, "income": 0, "revenue": 0}, {"ein": "166076874", "name": "LOCKPORT SCHOOLS & COMMUNITY FEDERAL CREDIT UNION", "city": "LOCKPORT", "state": "NY", "zip": "14094-4848", "ntee": "", "ruling": "202208", "deductibility": "0", "assets": 0, "income": 0, "revenue": 0}, {"ein": "166099575", "name": "BAND BOOSTERS ASSOCIATION OF THE SENECA FALLS SCHOOLS", "city": "SENECA FALLS", "state": "NY", "zip": "13148-1137", "ntee": "", "ruling": "196804", "deductibility": "1", "assets": 0, "income": 0, "revenue": 0}, {"ein": "200247649", "name": "YESHIVA UNIVERSITY HIGH SCHOOLS", "city": "NEW YORK", "state": "NY", "zip": "10033-2807", "ntee": "B25", "ruling": "200405", "deductibility": "1", "assets": 27229629, "income": 20932940, "revenue": 19599357}, {"ein": "200870866", "name": "NORTH SHORE SCHOOLS FEDERATED EMPLOYEES BENEFIT TRUST FD", "city": "GLEN HEAD", "state": "NY", "zip": "11545-1839", "ntee": "Y43", "ruling": "200606", "deductibility": "2", "assets": 591496, "income": 683051, "revenue": 683051}, {"ein": "202482906", "name": "VALHALLA PUBLIC SCHOOLS JOY DISTENFELD FUND EST 01311984", "city": "VALHALLA", "state": "NY", "zip": "10595-1308", "ntee": "B82", "ruling": "201408", "deductibility": "1", "assets": 0, "income": 0, "revenue": 0}, {"ein": "202629354", "name": "DEMOCRACY PREP PUBLIC SCHOOLS", "city": "NEW YORK", "state": "NY", "zip": "10035-1901", "ntee": "A12", "ruling": "200706", "deductibility": "1", "assets": 58853134, "income": 25958756, "revenue": 25903442}, {"ein": "203505981", "name": "UNCOMMON NEW YORK CITY CHARTER SCHOOLS", "city": "NEW YORK", "state": "NY", "zip": "10007-2650", "ntee": "B29", "ruling": "200706", "deductibility": "1", "assets": 152886256, "income": 165217898, "revenue": 165217898}, {"ein": "204241997", "name": "PAVE SCHOOLS INC", "city": "BROOKLYN", "state": "NY", "zip": "11231-3229", "ntee": "B112", "ruling": "200802", "deductibility": "1", "assets": 29421674, "income": 16174, "revenue": 16174}, {"ein": "204778564", "name": "PARENTS FOR PUBLIC CHARTER SCHOOLS INC", "city": "ALBANY", "state": "NY", "zip": "12205-1138", "ntee": "B99", "ruling": "200809", "deductibility": "2", "assets": 0, "income": 0, "revenue": 0}, {"ein": "204920772", "name": "MORTIMER J PROPP LEGACY FOR ORTHODOX HEBREW DAY SCHOOLS INC", "city": "NEW YORK", "state": "NY", "zip": "10038-5114", "ntee": "T22", "ruling": "200708", "deductibility": "1", "assets": 3436871, "income": 3891724, "revenue": 0}, {"ein": "205298861", "name": "SUCCESS ACADEMY CHARTER SCHOOLS INC", "city": "NEW YORK", "state": "NY", "zip": "10005-0054", "ntee": "B990", "ruling": "200708", "deductibility": "1", "assets": 527307780, "income": 236850974, "revenue": 211032479}, {"ein": "222510734", "name": "SCHOOLS OUT INC", "city": "DELMAR", "state": "NY", "zip": "12054-1404", "ntee": "B900", "ruling": "198509", "deductibility": "1", "assets": 3019970, "income": 1866954, "revenue": 1866954}, {"ein": "222525680", "name": "PRIVATE CAREER SCHOOLS ASSOCIATION OF NEW JERSEY", "city": "WHITE PLAINS", "state": "NY", "zip": "10604-3118", "ntee": "B99Z", "ruling": "198505", "deductibility": "2", "assets": 97114, "income": 0, "revenue": 0}, {"ein": "222544684", "name": "AMHERST CENTRAL SCHOOLS FOUNDATION INC", "city": "AMHERST", "state": "NY", "zip": "14226-3504", "ntee": "", "ruling": "198506", "deductibility": "1", "assets": 1188408, "income": 54544, "revenue": 54544}, {"ein": "223161513", "name": "NEW YORK ASSOCIATION OF CHRISTIAN SCHOOLS INC", "city": "PRATTSBURGH", "state": "NY", "zip": "14873-9489", "ntee": "B20Z", "ruling": "199305", "deductibility": "1", "assets": 0, "income": 0, "revenue": 0}, {"ein": "223449692", "name": "ORCHARD PARK CENTRAL SCHOOLS ALUMNI ASSOCIATION", "city": "ORCHARD PARK", "state": "NY", "zip": "14127-0928", "ntee": "B82", "ruling": "199902", "deductibility": "1", "assets": 0, "income": 0, "revenue": 0}, {"ein": "237241915", "name": "NEW YORK STATE ASSOCIATION OF DEANS OF SOCIAL WORK SCHOOLS INC", "city": "ALBANY", "state": "NY", "zip": "12222-0001", "ntee": "", "ruling": "197212", "deductibility": "1", "assets": 21686, "income": 34001, "revenue": 34001}, {"ein": "251798587", "name": "SCHUTZ AMERICAN SCHOOLS OF ALEXANDRIA FOUNDATION", "city": "HUNT", "state": "NY", "zip": "14846-9604", "ntee": "B84", "ruling": "201510", "deductibility": "1", "assets": 14675, "income": 2185, "revenue": 0}, {"ein": "251919494", "name": "WELLNESS IN THE SCHOOLS INC", "city": "NEW YORK", "state": "NY", "zip": "10027-4597", "ntee": "E70", "ruling": "200604", "deductibility": "1", "assets": 5095426, "income": 7081293, "revenue": 7015884}, {"ein": "260492682", "name": "FRIENDS OF ISRAEL SCI-TECH SCHOOLS INC", "city": "NEW YORK CITY", "state": "NY", "zip": "10022-5827", "ntee": "B12", "ruling": "200902", "deductibility": "1", "assets": 374075, "income": 472876, "revenue": 472876}, {"ein": "260754883", "name": "FOUNDATION TO INSPIRE EXCELLENCE IN NYACK SCHOOLS INC", "city": "GRND VW HUDSN", "state": "NY", "zip": "10960-3015", "ntee": "T20", "ruling": "200711", "deductibility": "1", "assets": 37970, "income": 245, "revenue": 0}, {"ein": "261478250", "name": "TAISHAN SCHOOLS ALUMNI ASSOCIATION INC", "city": "FLUSHING", "state": "NY", "zip": "11354-6315", "ntee": "A23", "ruling": "200808", "deductibility": "1", "assets": 0, "income": 0, "revenue": 0}, {"ein": "262391169", "name": "UNIVERSITY PREP PUBLIC CHARTER SCHOOLS", "city": "BRONX", "state": "NY", "zip": "10455-2800", "ntee": "B29", "ruling": "201007", "deductibility": "1", "assets": 9908977, "income": 19828081, "revenue": 19828081}, {"ein": "263142685", "name": "CONSORTIUM OF JEWISH DAY SCHOOLS INC", "city": "NEW YORK", "state": "NY", "zip": "10019-9000", "ntee": "X30", "ruling": "200910", "deductibility": "1", "assets": 1691572, "income": 3973104, "revenue": 3973104}, {"ein": "263282250", "name": "EXPLORE SCHOOLS INC", "city": "BROOKLYN", "state": "NY", "zip": "11201-8319", "ntee": "B99", "ruling": "201004", "deductibility": "1", "assets": 1975279, "income": 4912689, "revenue": 4912689}, {"ein": "263502662", "name": "ASSOCIATION OF ADMINISTRATORS OF THE EAST WILLISTON PUBLIC SCHOOLS", "city": "WILLISTON PK", "state": "NY", "zip": "11596-2555", "ntee": "Y44", "ruling": "202005", "deductibility": "2", "assets": 6946, "income": 101700, "revenue": 101700}, {"ein": "263536601", "name": "SMITHTOWN SCHOOLS ADMINISTRATORS ASSOCIATION", "city": "SAINT JAMES", "state": "NY", "zip": "11780-1833", "ntee": "J40", "ruling": "201607", "deductibility": "2", "assets": 0, "income": 0, "revenue": 0}, {"ein": "264212756", "name": "THE COALITION OF COMMUNITY CHARTER SCHOOLS INC", "city": "LONG IS CITY", "state": "NY", "zip": "11106-5002", "ntee": "B99", "ruling": "201304", "deductibility": "1", "assets": 56115, "income": 0, "revenue": 0}, {"ein": "270443756", "name": "SPRING VALLEY ROTARY SCHOOLS TO END POVERTY STEP INC", "city": "AIRMONT", "state": "NY", "zip": "10952-4407", "ntee": "Q33", "ruling": "200909", "deductibility": "1", "assets": 104571, "income": 56294, "revenue": 54379}, {"ein": "273828671", "name": "ST JOHN BOSCO SCHOOLS", "city": "E ROCHESTER", "state": "NY", "zip": "14445-1834", "ntee": "B24", "ruling": "201101", "deductibility": "1", "assets": 1342789, "income": 1174883, "revenue": 1160881}, {"ein": "300185167", "name": "ST GEORGE UKRAINIAN CATHOLIC SCHOOLS FOUNDATION LTD", "city": "NEW YORK", "state": "NY", "zip": "10003-0000", "ntee": "B11", "ruling": "200307", "deductibility": "1", "assets": 875112, "income": 27960, "revenue": 27960}, {"ein": "311488698", "name": "UNCOMMON SCHOOLS INC", "city": "NEW YORK", "state": "NY", "zip": "10007-2650", "ntee": "B90", "ruling": "199704", "deductibility": "1", "assets": 292915824, "income": 90303624, "revenue": 90303624}, {"ein": "320290523", "name": "NY SCHOOLS DATA ANALYSIS TECHNICAL ASSISTANCE GROUP DATAG INC", "city": "LATHAM", "state": "NY", "zip": "12110-6420", "ntee": "B90", "ruling": "201608", "deductibility": "1", "assets": 168530, "income": 182310, "revenue": 182310}, {"ein": "331174065", "name": "PROSPECT SCHOOLS INC", "city": "BROOKLYN", "state": "NY", "zip": "11201-5247", "ntee": "B122", "ruling": "200811", "deductibility": "1", "assets": 5175027, "income": 10722948, "revenue": 10660191}, {"ein": "332186685", "name": "FRIENDS OF LAUREL HILL SCHOOLS INC", "city": "NEW YORK", "state": "NY", "zip": "10013-2237", "ntee": "B11", "ruling": "202412", "deductibility": "1", "assets": 0, "income": 0, "revenue": 0}, {"ein": "352700401", "name": "POUGHKEEPSIE PUBLIC SCHOOLS FOUNDATION CORP", "city": "POUGHKEEPSIE", "state": "NY", "zip": "12602-5151", "ntee": "B12", "ruling": "202105", "deductibility": "1", "assets": 93155, "income": 215202, "revenue": 215202}, {"ein": "364268793", "name": "SCHOOLS THAT CAN", "city": "NEW YORK", "state": "NY", "zip": "10022-2991", "ntee": "B12", "ruling": "199907", "deductibility": "1", "assets": 1728342, "income": 2256377, "revenue": 830607}, {"ein": "364629540", "name": "SUCCESS ACADEMY CHARTER SCHOOLS - NYC", "city": "NEW YORK", "state": "NY", "zip": "10005-0054", "ntee": "B29", "ruling": "200911", "deductibility": "1", "assets": 361127629, "income": 452629748, "revenue": 452629748}, {"ein": "364844384", "name": "SCHOOLS INC", "city": "NEW YORK", "state": "NY", "zip": "10004-3869", "ntee": "B12", "ruling": "201702", "deductibility": "1", "assets": 0, "income": 0, "revenue": 0}, {"ein": "383690706", "name": "ALLIANCE OF PSYCHOANALYTIC SCHOOLS", "city": "NEW YORK", "state": "NY", "zip": "10025-6647", "ntee": "B022", "ruling": "201805", "deductibility": "1", "assets": 12432, "income": 1000, "revenue": 1000}, {"ein": "383835379", "name": "BRINGING UNDER-RESOURCED SCHOOLS SUPPLIES BUSS INC", "city": "NEW YORK", "state": "NY", "zip": "10128-0648", "ntee": "B12", "ruling": "201106", "deductibility": "1", "assets": 0, "income": 0, "revenue": 0}, {"ein": "450522191", "name": "EXCELLENCE COMMUNITY SCHOOLS INC", "city": "BRONX", "state": "NY", "zip": "10462-4404", "ntee": "B122", "ruling": "200402", "deductibility": "1", "assets": 102337219, "income": 18440207, "revenue": 12555469}, {"ein": "452849094", "name": "DIVERSE CHARTER SCHOOLS COALITION INC", "city": "NEW YORK", "state": "NY", "zip": "10004-1744", "ntee": "B90", "ruling": "201202", "deductibility": "1", "assets": 331378, "income": 1256755, "revenue": 1256755}, {"ein": "453023036", "name": "20 20 VISION FOR SCHOOLS INC", "city": "BROOKLYN", "state": "NY", "zip": "11209-4508", "ntee": "B19", "ruling": "201301", "deductibility": "1", "assets": 644679, "income": 1472546, "revenue": 1472546}, {"ein": "453576364", "name": "FENCING IN THE SCHOOLS INC", "city": "NEW YORK", "state": "NY", "zip": "10018-1144", "ntee": "N60", "ruling": "201202", "deductibility": "1", "assets": 60386, "income": 42499, "revenue": 42499}, {"ein": "453957158", "name": "ASCEND CHARTER SCHOOLS", "city": "BROOKLYN", "state": "NY", "zip": "11212-3444", "ntee": "B29", "ruling": "201409", "deductibility": "1", "assets": 482019155, "income": 139253884, "revenue": 139253884}, {"ein": "455505184", "name": "SCARSDALE SCHOOLS EDUCATION FOUNDATION", "city": "SCARSDALE", "state": "NY", "zip": "10583-2320", "ntee": "B12", "ruling": "201208", "deductibility": "1", "assets": 0, "income": 0, "revenue": 0}, {"ein": "460625647", "name": "CLASSICAL CHARTER SCHOOLS", "city": "BRONX", "state": "NY", "zip": "10459-3320", "ntee": "B29", "ruling": "201409", "deductibility": "1", "assets": 141003587, "income": 46255780, "revenue": 44230485}, {"ein": "461227433", "name": "UNITED COMMUNITY SCHOOLS INC", "city": "NEW YORK", "state": "NY", "zip": "10004-1603", "ntee": "B19", "ruling": "201408", "deductibility": "1", "assets": 16936798, "income": 8676342, "revenue": 8676342}, {"ein": "461741040", "name": "FOUNDATION FOR BEDFORD CENTRAL SCHOOLS A NOT-FOR-PROFIT-CORPORATI", "city": "BEDFORD HILLS", "state": "NY", "zip": "10507-0807", "ntee": "B122", "ruling": "201307", "deductibility": "1", "assets": 53011, "income": 79532, "revenue": 79532}, {"ein": "461966050", "name": "RURAL SCHOOLS ASSOCIATION OF NEW YORK STATE INC", "city": "LATHAM", "state": "NY", "zip": "12110-2133", "ntee": "S41", "ruling": "201306", "deductibility": "2", "assets": 354333, "income": 481850, "revenue": 481850}, {"ein": "462339783", "name": "UNITED CHARTER HIGH SCHOOLS", "city": "NEW YORK", "state": "NY", "zip": "10115-1000", "ntee": "B20", "ruling": "201502", "deductibility": "1", "assets": 6573492, "income": 20818909, "revenue": 20818909}, {"ein": "464341617", "name": "BROOKLYN LABORATORY CHARTER SCHOOLS", "city": "BROOKLYN", "state": "NY", "zip": "11201-1431", "ntee": "B29", "ruling": "201407", "deductibility": "1", "assets": 25571400, "income": 21843982, "revenue": 21843825}, {"ein": "465771070", "name": "AMBER SCHOOLS FOUNDATION INC", "city": "NEW YORK", "state": "NY", "zip": "10035-0780", "ntee": "B11", "ruling": "201502", "deductibility": "1", "assets": 73208955, "income": 6262741, "revenue": 1768597}, {"ein": "471504209", "name": "ATMOSPHERE ACADEMY PUBLIC CHARTER SCHOOLS", "city": "BRONX", "state": "NY", "zip": "10463-6943", "ntee": "B24", "ruling": "201503", "deductibility": "1", "assets": 31078101, "income": 34384800, "revenue": 34369800}, {"ein": "472459523", "name": "INTEGRATION CHARTER SCHOOLS", "city": "STATEN ISLAND", "state": "NY", "zip": "10311-1007", "ntee": "B25", "ruling": "201504", "deductibility": "1", "assets": 170113751, "income": 46998469, "revenue": 46998469}, {"ein": "472684532", "name": "EXAM SCHOOLS PARTNERSHIP INITIATIVE", "city": "NEW YORK", "state": "NY", "zip": "10025-3919", "ntee": "B90", "ruling": "201505", "deductibility": "1", "assets": 82076, "income": 300751, "revenue": 266501}, {"ein": "473824643", "name": "PROMOTING ACCESS TO SPECIALIZED SCHOOLS IN NEW YORK CITY", "city": "FOREST HILLS", "state": "NY", "zip": "11375-3603", "ntee": "B99", "ruling": "201603", "deductibility": "1", "assets": 7882, "income": 0, "revenue": 0}, {"ein": "475111187", "name": "SCHOOLS IN SLUMS", "city": "BROOKLYN", "state": "NY", "zip": "11211-1838", "ntee": "O50", "ruling": "201510", "deductibility": "1", "assets": 0, "income": 0, "revenue": 0}, {"ein": "475683669", "name": "PROTECT EDUCATION AND RELIGIOUS LIBERTY IN SCHOOLS INC", "city": "BROOKLYN", "state": "NY", "zip": "11249-7903", "ntee": "S41", "ruling": "201701", "deductibility": "2", "assets": 305061, "income": 233121, "revenue": 233121}, {"ein": "521193103", "name": "ASSOCIATION OF ADVANCED RABBINICAL AND TALMUDIC SCHOOLS INC", "city": "BROOKLYN", "state": "NY", "zip": "11210-3936", "ntee": "B20Z", "ruling": "198012", "deductibility": "1", "assets": 2308935, "income": 2042259, "revenue": 2042259}, {"ein": "521497617", "name": "AMERICAN FRIENDS OF RAMOT TORAH SCHOOLS INC", "city": "BROOKLYN", "state": "NY", "zip": "11214-3363", "ntee": "B40J", "ruling": "198710", "deductibility": "1", "assets": 90553, "income": 1536070, "revenue": 1536070}, {"ein": "562529708", "name": "WORLD SCHOOLS FOUNDATION INC", "city": "NEW YORK", "state": "NY", "zip": "10011-8634", "ntee": "B122", "ruling": "200606", "deductibility": "1", "assets": 0, "income": 0, "revenue": 0}, {"ein": "742952223", "name": "NORTHEAST CHARTER SCHOOLS NETWORK INC", "city": "ALBANY", "state": "NY", "zip": "12205-1138", "ntee": "B022", "ruling": "200008", "deductibility": "1", "assets": 1870632, "income": 4223414, "revenue": 4223414}, {"ein": "760628210", "name": "ASSOCIATION OF LUTHERAN SECONDARY SCHOOLS", "city": "SARATOGA SPGS", "state": "NY", "zip": "12866-8707", "ntee": "B192", "ruling": "200201", "deductibility": "1", "assets": 0, "income": 0, "revenue": 0}, {"ein": "760805859", "name": "INTERNATIONAL SCHOOLS OF EAST-WEST UNITY GURUKULA INC", "city": "MONROE", "state": "NY", "zip": "10950-5536", "ntee": "B28", "ruling": "200705", "deductibility": "1", "assets": 50232, "income": 52568, "revenue": 52568}, {"ein": "810627385", "name": "RURAL SCHOOLS FOUNDATION OF NEW YORK STATE INC", "city": "LATHAM", "state": "NY", "zip": "12110-2133", "ntee": "B112", "ruling": "200801", "deductibility": "1", "assets": 0, "income": 0, "revenue": 0}, {"ein": "811750864", "name": "PRIZMAH CENTER FOR JEWISH DAY SCHOOLS INC", "city": "NEW YORK", "state": "NY", "zip": "10004-1015", "ntee": "B99", "ruling": "201608", "deductibility": "1", "assets": 4159500, "income": 7206243, "revenue": 7206243}, {"ein": "812958000", "name": "NYC AUTISM CHARTER SCHOOLS", "city": "NEW YORK", "state": "NY", "zip": "10029-6606", "ntee": "B29", "ruling": "201702", "deductibility": "1", "assets": 6765748, "income": 8460588, "revenue": 8460588}, {"ein": "813081969", "name": "BRILLA COLLEGE PREPARATORY CHARTER SCHOOLS", "city": "BRONX", "state": "NY", "zip": "10454-1004", "ntee": "", "ruling": "201704", "deductibility": "1", "assets": 245646397, "income": 54150973, "revenue": 54150973}, {"ein": "821888771", "name": "ZETA CHARTER SCHOOLS INC", "city": "BRONX", "state": "NY", "zip": "10455-1795", "ntee": "B90", "ruling": "201803", "deductibility": "1", "assets": 414514224, "income": 32139512, "revenue": 32139512}, {"ein": "822023126", "name": "FRIENDS OF@ASCEND CHARTER SCHOOLS INC", "city": "BROOKLYN", "state": "NY", "zip": "11212-3444", "ntee": "B11", "ruling": "201709", "deductibility": "1", "assets": 293327451, "income": 31213423, "revenue": 31213423}, {"ein": "823452377", "name": "ZETA CHARTER SCHOOLS - NEW YORK CITY", "city": "BRONX", "state": "NY", "zip": "10455-1795", "ntee": "B29", "ruling": "201808", "deductibility": "1", "assets": 284568342, "income": 73499796, "revenue": 73499796}, {"ein": "823456707", "name": "STEM IN SCHOOLS", "city": "FOREST HILLS", "state": "NY", "zip": "11375-3958", "ntee": "B90", "ruling": "201712", "deductibility": "1", "assets": 23856, "income": 0, "revenue": 0}, {"ein": "825209932", "name": "FRIENDS OF@PROSPECT SCHOOLS NY INC", "city": "BROOKLYN", "state": "NY", "zip": "11201-5247", "ntee": "B12", "ruling": "201906", "deductibility": "1", "assets": 200264507, "income": 17047846, "revenue": 17047846}, {"ein": "832371297", "name": "AUXILIARY SERVICES FOR HIGH SCHOOLS LEGACY FOUNDATION", "city": "NANUET", "state": "NY", "zip": "10954-1025", "ntee": "T99", "ruling": "201908", "deductibility": "1", "assets": 0, "income": 0, "revenue": 0}, {"ein": "832539799", "name": "FRIENDS OF CLASSICAL CHARTER SCHOOLS INC", "city": "BRONX", "state": "NY", "zip": "10459-3320", "ntee": "B29", "ruling": "201905", "deductibility": "1", "assets": 86286002, "income": 6425170, "revenue": 6425170}, {"ein": "833008296", "name": "FRIENDS OF NORTH SALEM NURSERY SCHOOLS INC", "city": "NORTH SALEM", "state": "NY", "zip": "10560-1321", "ntee": "T30", "ruling": "201902", "deductibility": "1", "assets": 0, "income": 0, "revenue": 0}, {"ein": "833207178", "name": "MARYVALE SCHOOLS PARENT TEACHER ORGANIZATION INC", "city": "CHEEKTOWAGA", "state": "NY", "zip": "14225-2324", "ntee": "B94", "ruling": "201904", "deductibility": "1", "assets": 1, "income": 105732, "revenue": 29206}, {"ein": "833915942", "name": "BOLD SCHOOLS INC", "city": "BRONX", "state": "NY", "zip": "10460-4340", "ntee": "B12", "ruling": "201906", "deductibility": "1", "assets": 9672642, "income": 2301148, "revenue": 840815}, {"ein": "834247585", "name": "KIPP NYC PUBLIC CHARTER SCHOOLS II", "city": "NEW YORK", "state": "NY", "zip": "10036-5601", "ntee": "B29", "ruling": "202005", "deductibility": "1", "assets": 353462676, "income": 186133849, "revenue": 186133849}, {"ein": "842501482", "name": "TECH IN SCHOOLS INITIATIVE INC", "city": "BROOKLYN", "state": "NY", "zip": "11209-4707", "ntee": "O50", "ruling": "201909", "deductibility": "1", "assets": 113797, "income": 127105, "revenue": 127105}, {"ein": "844553376", "name": "FRIENDS OF CLAY ACADEMY CHARTER SCHOOLS INC", "city": "DOBBS FERRY", "state": "NY", "zip": "10522-3419", "ntee": "B11", "ruling": "202007", "deductibility": "1", "assets": 0, "income": 0, "revenue": 0}, {"ein": "851596185", "name": "HELLENIC CLASSICAL CHARTER SCHOOLS", "city": "BROOKLYN", "state": "NY", "zip": "11215-5401", "ntee": "B29", "ruling": "202009", "deductibility": "1", "assets": 103101900, "income": 19094118, "revenue": 19094118}, {"ein": "852067033", "name": "FRIENDS OF HELLENIC CLASSICAL CHARTER SCHOOLS INC", "city": "BROOKLYN", "state": "NY", "zip": "11215-5401", "ntee": "B19", "ruling": "202011", "deductibility": "1", "assets": 88898038, "income": 4285621, "revenue": 4285621}, {"ein": "861614912", "name": "BETTER SCHOOLS FOR A BETTER FUTURE INC", "city": "NEW YORK", "state": "NY", "zip": "10026-0980", "ntee": "B90", "ruling": "202504", "deductibility": "2", "assets": 1956387, "income": 1250, "revenue": 1250}, {"ein": "863749037", "name": "FOUNDATION FOR BEACON SCHOOLS INC", "city": "BEACON", "state": "NY", "zip": "12508-0456", "ntee": "B90", "ruling": "202110", "deductibility": "1", "assets": 0, "income": 0, "revenue": 0}, {"ein": "870790139", "name": "ARTS HOUSE SCHOOLS INC", "city": "BROOKLYN", "state": "NY", "zip": "11224-1307", "ntee": "A25", "ruling": "200806", "deductibility": "1", "assets": 33119, "income": 299492, "revenue": 299492}, {"ein": "871569845", "name": "TUCKAHOE SCHOOLS ATHLETIC BOOSTER CLUB INC", "city": "EASTCHESTER", "state": "NY", "zip": "10709-3722", "ntee": "N12", "ruling": "202109", "deductibility": "1", "assets": 0, "income": 0, "revenue": 0}, {"ein": "874235497", "name": "LONG ISLAND STRONG SCHOOLS ALLIANCE", "city": "STONY BROOK", "state": "NY", "zip": "11790-1108", "ntee": "S21", "ruling": "202402", "deductibility": "2", "assets": 7469, "income": 96967, "revenue": 96967}, {"ein": "880624742", "name": "YONKERS PUBLIC SCHOOLS FOUNDATION FOR EDUCATION INC", "city": "YONKERS", "state": "NY", "zip": "10701-7044", "ntee": "B90", "ruling": "202207", "deductibility": "1", "assets": 220773, "income": 330835, "revenue": 330835}, {"ein": "883847830", "name": "CITY SCHOOLS SPORTS ASSOCIATION INC", "city": "CONGERS", "state": "NY", "zip": "10920-2202", "ntee": "O50", "ruling": "202304", "deductibility": "1", "assets": 211230, "income": 291513, "revenue": 291513}, {"ein": "900591008", "name": "HALDANE SCHOOLS BENEFIT TRUST FUND", "city": "COLD SPRING", "state": "NY", "zip": "10516-0316", "ntee": "Y43", "ruling": "201907", "deductibility": "2", "assets": 139163, "income": 121041, "revenue": 121041}, {"ein": "921285371", "name": "TRANS FORMATIVE SCHOOLS INC", "city": "NEW YORK", "state": "NY", "zip": "10003-5213", "ntee": "B05", "ruling": "202305", "deductibility": "1", "assets": 3305, "income": 83419, "revenue": 83419}, {"ein": "931600332", "name": "SCHOOLS CONSENT PROJECT", "city": "BROOKLYN", "state": "NY", "zip": "11231-4740", "ntee": "I73", "ruling": "202401", "deductibility": "1", "assets": 127021, "income": 337878, "revenue": 237328}, {"ein": "934026181", "name": "EASTERN SCHOOLS FOR THE DEAF ATHLETIC ASSOCIATION", "city": "EAST ELMHURST", "state": "NY", "zip": "11370-1441", "ntee": "N31", "ruling": "202311", "deductibility": "1", "assets": 0, "income": 0, "revenue": 0}, {"ein": "991436360", "name": "FRIENDS OF DIAMOND CHARTER SCHOOLS INC", "city": "NEW YORK", "state": "NY", "zip": "10022-4806", "ntee": "B19", "ruling": "202502", "deductibility": "1", "assets": 0, "income": 0, "revenue": 0}, {"ein": "992490472", "name": "PROTECTED SCHOOLS FOUNDATION", "city": "SAYVILLE", "state": "NY", "zip": "11782-1513", "ntee": "B90", "ruling": "202502", "deductibility": "1", "assets": 0, "income": 0, "revenue": 0}], "GEAR": [{"ein": "042724256", "name": "GEAR MOTIONS FOUNDATION", "city": "SYRACUSE", "state": "NY", "zip": "13209-1686", "ntee": "", "ruling": "198105", "deductibility": "1", "assets": 1, "income": 1, "revenue": 0}, {"ein": "116076993", "name": "INTERNATIONAL CARGO GEAR BUREAU INC", "city": "NEW YORK", "state": "NY", "zip": "10001-1862", "ntee": "", "ruling": "196608", "deductibility": "2", "assets": 519036, "income": 682702, "revenue": 682702}, {"ein": "134055952", "name": "CAREER GEAR INC", "city": "NEW YORK", "state": "NY", "zip": "10020-1504", "ntee": "P60", "ruling": "200002", "deductibility": "1", "assets": 0, "income": 0, "revenue": 0}, {"ein": "815459483", "name": "GEAR UP FOR YOUR FUTURE INC", "city": "NEW YORK", "state": "NY", "zip": "10025-1982", "ntee": "O50", "ruling": "201703", "deductibility": "1", "assets": 0, "income": 0, "revenue": 0}, {"ein": "873272698", "name": "MRS HUDSONS GEAR TABLE INC", "city": "CRAGSMOOR", "state": "NY", "zip": "12420-0321", "ntee": "C03", "ruling": "202204", "deductibility": "1", "assets": 0, "income": 0, "revenue": 0}, {"ein": "994191345", "name": "PLAY IT FORWARD SPORTS GEAR INC", "city": "WANTAGH", "state": "NY", "zip": "11793-3520", "ntee": "O12", "ruling": "202408", "deductibility": "1", "assets": 0, "income": 0, "revenue": 0}], "INCARNATE": [{"ein": "043242480", "name": "INSTITUTE OF THE INCARNATE WORD INC", "city": "NEW YORK", "state": "NY", "zip": "10035-4602", "ntee": "", "ruling": "194603", "deductibility": "1", "assets": 0, "income": 0, "revenue": 0}, {"ein": "160763154", "name": "LUTHERAN CHURCH OF THE INCARNATE WORD", "city": "ROCHESTER", "state": "NY", "zip": "14607-2004", "ntee": "", "ruling": "198804", "deductibility": "1", "assets": 0, "income": 0, "revenue": 0}], "CROSSROADS": [{"ein": "043594116", "name": "CROSSROADS STORY CENTER INC", "city": "BUFFALO", "state": "NY", "zip": "14214-1001", "ntee": "P30", "ruling": "200207", "deductibility": "1", "assets": 0, "income": 0, "revenue": 0}, {"ein": "043809796", "name": "CROSSROADS CONNECTION INC", "city": "BRONX", "state": "NY", "zip": "10451-5253", "ntee": "O50", "ruling": "202107", "deductibility": "1", "assets": 843, "income": 16145, "revenue": 16145}, {"ein": "112600311", "name": "CROSSROADS CHRISTIAN CHURCH", "city": "BROOKLYN", "state": "NY", "zip": "11209-1501", "ntee": "", "ruling": "198205", "deductibility": "1", "assets": 0, "income": 0, "revenue": 0}, {"ein": "112645043", "name": "CROSSROADS MINISTRY OF THE CITY OF NEW YORK STATE OF NEW YORK", "city": "BROOKLYN", "state": "NY", "zip": "11211-0000", "ntee": "", "ruling": "198606", "deductibility": "1", "assets": 0, "income": 0, "revenue": 0}, {"ein": "113049309", "name": "CROSSROADS CHRISTIAN CENTER INC", "city": "WOODHAVEN", "state": "NY", "zip": "11421-1842", "ntee": "", "ruling": "198807", "deductibility": "1", "assets": 0, "income": 0, "revenue": 0}, {"ein": "133216607", "name": "CROSSROADS TABERNACLE", "city": "BRONX", "state": "NY", "zip": "10462-4807", "ntee": "", "ruling": "198410", "deductibility": "1", "assets": 0, "income": 0, "revenue": 0}, {"ein": "133562651", "name": "CROSSROADS COMMUNITY SERVICES INC", "city": "NEW YORK", "state": "NY", "zip": "10022-6814", "ntee": "", "ruling": "199009", "deductibility": "1", "assets": 1045271, "income": 1468348, "revenue": 1462790}, {"ein": "141809027", "name": "CROSSROADS CENTER FOR CHILDREN INC", "city": "SCHENECTADY", "state": "NY", "zip": "12306-5804", "ntee": "B28", "ruling": "200003", "deductibility": "1", "assets": 7849444, "income": 5596223, "revenue": 5596223}, {"ein": "150311959", "name": "CROSSROADS UNITED LODGE NO 93", "city": "SOLVAY", "state": "NY", "zip": "13209-2012", "ntee": "Y41", "ruling": "202002", "deductibility": "1", "assets": 0, "income": 0, "revenue": 0}, {"ein": "161251206", "name": "CROSSROADS COMMUNITY CHURCH", "city": "WEBSTER", "state": "NY", "zip": "14580-8704", "ntee": "", "ruling": "195806", "deductibility": "1", "assets": 0, "income": 0, "revenue": 0}, {"ein": "161505042", "name": "CROSSROADS HOUSE", "city": "BATAVIA", "state": "NY", "zip": "14021-0403", "ntee": "E80", "ruling": "199702", "deductibility": "1", "assets": 1306908, "income": 479239, "revenue": 442872}, {"ein": "200768846", "name": "CROSSROADS COMMUNITY CHURCH", "city": "CHITTENANGO", "state": "NY", "zip": "13037-9514", "ntee": "X20", "ruling": "200407", "deductibility": "1", "assets": 0, "income": 0, "revenue": 0}, {"ein": "208559859", "name": "CROSSROADS COMMUNITY CHURCH INC", "city": "AMSTERDAM", "state": "NY", "zip": "12010-0881", "ntee": "X21", "ruling": "201308", "deductibility": "1", "assets": 0, "income": 0, "revenue": 0}, {"ein": "222518577", "name": "CROSSROADS ASSEMBLY OF GOD", "city": "NEWBURGH", "state": "NY", "zip": "12550-7204", "ntee": "", "ruling": "196408", "deductibility": "1", "assets": 0, "income": 0, "revenue": 0}, {"ein": "222582917", "name": "THE CROSSROADS TABERNACLE MINSTRIES", "city": "FULTON", "state": "NY", "zip": "13069-0443", "ntee": "", "ruling": "198504", "deductibility": "1", "assets": 0, "income": 0, "revenue": 0}, {"ein": "262222906", "name": "CROSSROADS COMPASS OF CARE", "city": "STANLEY", "state": "NY", "zip": "14561-9541", "ntee": "L40", "ruling": "200910", "deductibility": "1", "assets": 0, "income": 0, "revenue": 0}, {"ein": "271804827", "name": "CNY CROSSROADS INC", "city": "SYRACUSE", "state": "NY", "zip": "13203-2588", "ntee": "X20", "ruling": "201010", "deductibility": "1", "assets": 1510056, "income": 329063, "revenue": 329063}, {"ein": "272771211", "name": "CROSSROADS MINISTRIES", "city": "WESTDALE", "state": "NY", "zip": "13483-0000", "ntee": "X21", "ruling": "201808", "deductibility": "1", "assets": 0, "income": 0, "revenue": 0}, {"ein": "274104711", "name": "CROSSROADS CHURCH", "city": "LIMA", "state": "NY", "zip": "14485-9419", "ntee": "X20", "ruling": "202303", "deductibility": "1", "assets": 0, "income": 0, "revenue": 0}, {"ein": "330824843", "name": "CROSSROADS AT ANTIGUA FOUNDATION", "city": "NEW YORK", "state": "NY", "zip": "10024-5715", "ntee": "T20", "ruling": "199811", "deductibility": "1", "assets": 4429327, "income": 8096188, "revenue": 1358664}, {"ein": "453363798", "name": "CROSSROADS CHURCH", "city": "EAST ISLIP", "state": "NY", "zip": "11730-3310", "ntee": "X20", "ruling": "202008", "deductibility": "1", "assets": 0, "income": 0, "revenue": 0}, {"ein": "542180699", "name": "CROSSROADS CHURCH", "city": "LIVERPOOL", "state": "NY", "zip": "13090-2778", "ntee": "X20", "ruling": "200608", "deductibility": "1", "assets": 0, "income": 0, "revenue": 0}, {"ein": "581901488", "name": "CROSSROADS CHURCH OF GOD BY FAITH", "city": "SYRACUSE", "state": "NY", "zip": "13205-1518", "ntee": "", "ruling": "199007", "deductibility": "1", "assets": 0, "income": 0, "revenue": 0}, {"ein": "710967724", "name": "CROSSROADS UNLIMITED INC", "city": "STATEN ISLAND", "state": "NY", "zip": "10301-2715", "ntee": "P70", "ruling": "200511", "deductibility": "1", "assets": 1266208, "income": 3944475, "revenue": 3889300}, {"ein": "743069994", "name": "CROSSROADS BAPTIST MISSION", "city": "ELMHURST", "state": "NY", "zip": "11373-3179", "ntee": "X21", "ruling": "200506", "deductibility": "1", "assets": 0, "income": 0, "revenue": 0}, {"ein": "812251572", "name": "MEET ME AT THE CROSSROADS", "city": "BRONX", "state": "NY", "zip": "10457-7658", "ntee": "P30", "ruling": "201802", "deductibility": "1", "assets": 0, "income": 0, "revenue": 0}, {"ein": "833843892", "name": "CROSSROADS SALVATION MINISTRIES INC", "city": "ELMONT", "state": "NY", "zip": "11003-2023", "ntee": "X21", "ruling": "202003", "deductibility": "1", "assets": 0, "income": 0, "revenue": 0}, {"ein": "834218219", "name": "CROSSROADS CHRISTIAN CENTER", "city": "GLENDALE", "state": "NY", "zip": "11385-6155", "ntee": "X20", "ruling": "202503", "deductibility": "1", "assets": 0, "income": 0, "revenue": 0}, {"ein": "862699276", "name": "CROSSROADS OF CARING INC", "city": "ROCHESTER", "state": "NY", "zip": "14609-5340", "ntee": "X20", "ruling": "202201", "deductibility": "1", "assets": 44304, "income": 74164, "revenue": 74164}, {"ein": "862879061", "name": "CROSSROADS BAPTIST CHURCH OF NEW YORK INC", "city": "NEWBURGH", "state": "NY", "zip": "12550-3351", "ntee": "X21", "ruling": "202202", "deductibility": "1", "assets": 0, "income": 0, "revenue": 0}, {"ein": "882267245", "name": "NY CROSSROADS INC", "city": "RHINEBECK", "state": "NY", "zip": "12572-3726", "ntee": "S30", "ruling": "202401", "deductibility": "1", "assets": 0, "income": 0, "revenue": 0}, {"ein": "920313665", "name": "CROSSROADS WAY", "city": "GLENS FALLS", "state": "NY", "zip": "12801-0000", "ntee": "O50", "ruling": "202306", "deductibility": "1", "assets": 0, "income": 0, "revenue": 0}, {"ein": "921640714", "name": "LIMA CROSSROADS COUNCIL INC", "city": "LIMA", "state": "NY", "zip": "14485-9623", "ntee": "S20", "ruling": "202305", "deductibility": "1", "assets": 48349, "income": 90653, "revenue": 86869}, {"ein": "953426592", "name": "CROSSROADS CHRISTIAN COMMUNICATIONS INC", "city": "NIAGARA FALLS", "state": "NY", "zip": "14302-0486", "ntee": "", "ruling": "197807", "deductibility": "1", "assets": 0, "income": 0, "revenue": 0}], "BUILDETH": [{"ein": "061227074", "name": "CHURCH JESUS CHRIST BUILDETH USA INCORPORATED", "city": "NEW CITY", "state": "NY", "zip": "10956-6526", "ntee": "X21Z", "ruling": "199208", "deductibility": "1", "assets": 0, "income": 0, "revenue": 0}], "WESTBURY": [{"ein": "111847129", "name": "WESTBURY FRIENDS SCHOOL", "city": "WESTBURY", "state": "NY", "zip": "11590-1220", "ntee": "B20", "ruling": "197012", "deductibility": "1", "assets": 1462267, "income": 1420655, "revenue": 1315336}, {"ein": "111875760", "name": "OLD WESTBURY HEBREW CONGREGATION INC", "city": "OLD WESTBURY", "state": "NY", "zip": "11568-1628", "ntee": "", "ruling": "198108", "deductibility": "1", "assets": 0, "income": 0, "revenue": 0}, {"ein": "111902968", "name": "OLD WESTBURY GARDENS INC", "city": "OLD WESTBURY", "state": "NY", "zip": "11568-0430", "ntee": "", "ruling": "200301", "deductibility": "1", "assets": 38928764, "income": 6529659, "revenue": 4814359}, {"ein": "111903681", "name": "SISTERS OF THE HOLY CHILD JESUS AT OLD WESTBURY NEW YORK INC", "city": "OLD WESTBURY", "state": "NY", "zip": "11568-1201", "ntee": "", "ruling": "194603", "deductibility": "1", "assets": 0, "income": 0, "revenue": 0}, {"ein": "111967540", "name": "OLD WESTBURY GOLF & COUNTRY CLUB INC", "city": "OLD WESTBURY", "state": "NY", "zip": "11568-1000", "ntee": "", "ruling": "196701", "deductibility": "2", "assets": 29217083, "income": 21548177, "revenue": 19634049}, {"ein": "112162880", "name": "OLD WESTBURY COLLEGE FOUNDATION INC", "city": "OLD WESTBURY", "state": "NY", "zip": "11568-0210", "ntee": "", "ruling": "198202", "deductibility": "1", "assets": 3261415, "income": 697201, "revenue": 646996}, {"ein": "112347437", "name": "SENIOR CITIZENS OF WESTBURY INC", "city": "WESTBURY", "state": "NY", "zip": "11590-2238", "ntee": "", "ruling": "197702", "deductibility": "1", "assets": 178298, "income": 352053, "revenue": 352053}, {"ein": "112532692", "name": "WESTBURY DIVINE CHURCH OF GOD", "city": "WESTBURY", "state": "NY", "zip": "11590-0048", "ntee": "", "ruling": "196007", "deductibility": "1", "assets": 0, "income": 0, "revenue": 0}, {"ein": "112599347", "name": "SHERWOOD CIVIC ASSOCIATION OF WESTBURY INC", "city": "WESTBURY", "state": "NY", "zip": "11590-1523", "ntee": "S22", "ruling": "201408", "deductibility": "2", "assets": 0, "income": 0, "revenue": 0}, {"ein": "112685056", "name": "GENESIS ASSEMBLY OF GOD OF WESTBURY", "city": "WESTBURY", "state": "NY", "zip": "11590-3230", "ntee": "", "ruling": "196408", "deductibility": "1", "assets": 0, "income": 0, "revenue": 0}, {"ein": "112748955", "name": "HOLY TRINITY BAPTIST CHURCH OF WESTBURY NEW YORK", "city": "WESTBURY", "state": "NY", "zip": "11590-3532", "ntee": "", "ruling": "198512", "deductibility": "1", "assets": 0, "income": 0, "revenue": 0}, {"ein": "112780554", "name": "STUDENT GOVERNMENTAL ASSOCIATION AT SUNY COLLEGE AT OLD WESTBURY", "city": "OLD WESTBURY", "state": "NY", "zip": "11568-0210", "ntee": "B80", "ruling": "201111", "deductibility": "1", "assets": 639197, "income": 699500, "revenue": 699500}, {"ein": "113066640", "name": "WESTBURY-CARLE PLACE CHAMBER OF COMMERCE INC", "city": "WESTBURY", "state": "NY", "zip": "11590-0064", "ntee": "S41", "ruling": "201106", "deductibility": "2", "assets": 0, "income": 0, "revenue": 0}, {"ein": "113085821", "name": "IGLESIA EVANGELICA APOSTLES Y PROFETAS EFE 2 20 OF WESTBURY INC", "city": "WESTBURY", "state": "NY", "zip": "11590-0806", "ntee": "", "ruling": "199409", "deductibility": "1", "assets": 0, "income": 0, "revenue": 0}, {"ein": "113173596", "name": "WESTBURY DISTRICT MANAGEMENT ASSOCIATION INC", "city": "WESTBURY", "state": "NY", "zip": "11590-0807", "ntee": "C50", "ruling": "202205", "deductibility": "1", "assets": 0, "income": 0, "revenue": 0}, {"ein": "113179928", "name": "EBEN-EZER HAITIAN BAPTIST CHURCH OF WESTBURY INC", "city": "WESTBURY", "state": "NY", "zip": "11590-3795", "ntee": "X21", "ruling": "201101", "deductibility": "1", "assets": 0, "income": 0, "revenue": 0}, {"ein": "113523001", "name": "OLD WESTBURY GOLF AND COUNTRY CLUB FOUNDATION INC", "city": "OLD WESTBURY", "state": "NY", "zip": "11568-0000", "ntee": "T122", "ruling": "200005", "deductibility": "1", "assets": 22364, "income": 301625, "revenue": 301625}, {"ein": "202915014", "name": "CALVARY OF WESTBURY", "city": "WESTBURY", "state": "NY", "zip": "11590-0092", "ntee": "X21", "ruling": "200606", "deductibility": "1", "assets": 0, "income": 0, "revenue": 0}, {"ein": "273112075", "name": "ST PIO PRAYER GROUP OF WESTBURY", "city": "WESTBURY", "state": "NY", "zip": "11590-0802", "ntee": "X99", "ruling": "201103", "deductibility": "1", "assets": 47203, "income": 66764, "revenue": 31824}, {"ein": "333338880", "name": "SOCIETY OF SAINT ANTHONY OF WESTBURY INC", "city": "WESTBURY", "state": "NY", "zip": "11590-0631", "ntee": "X22", "ruling": "202506", "deductibility": "1", "assets": 0, "income": 0, "revenue": 0}, {"ein": "383757933", "name": "BETHEL AFRICAN METHODIST EPISCOPAL CHURCH OF WESTBURY INC", "city": "WESTBURY", "state": "NY", "zip": "11590-0000", "ntee": "X21", "ruling": "200808", "deductibility": "1", "assets": 0, "income": 0, "revenue": 0}, {"ein": "383830655", "name": "PEARLS AND IVY FOUNDATION OF WESTBURY INC", "city": "WESTBURY", "state": "NY", "zip": "11590-0804", "ntee": "B82", "ruling": "201412", "deductibility": "1", "assets": 0, "income": 0, "revenue": 0}, {"ein": "463871888", "name": "WESTBURY ARTS INC", "city": "WESTBURY", "state": "NY", "zip": "11590-3039", "ntee": "A26", "ruling": "201407", "deductibility": "1", "assets": 17849, "income": 146253, "revenue": 146253}, {"ein": "472597534", "name": "WESTBURY YOUTH SOCCER CLUB INC", "city": "WESTBURY", "state": "NY", "zip": "11590-3820", "ntee": "N64", "ruling": "202203", "deductibility": "1", "assets": 23309, "income": 61935, "revenue": 61935}, {"ein": "474604143", "name": "ALUMNI ASSOCIATION OF SUNY OLD WESTBURY INC", "city": "WESTBURY", "state": "NY", "zip": "11568-1714", "ntee": "", "ruling": "201507", "deductibility": "1", "assets": 0, "income": 0, "revenue": 0}, {"ein": "820722695", "name": "LIFE LUTHERAN CHURCH OF OLD WESTBURY", "city": "OLD WESTBURY", "state": "NY", "zip": "11568-1603", "ntee": "", "ruling": "194107", "deductibility": "1", "assets": 0, "income": 0, "revenue": 0}, {"ein": "821191741", "name": "FRIENDS OF OLD WESTBURY INC", "city": "OLD WESTBURY", "state": "NY", "zip": "11568-0227", "ntee": "C50", "ruling": "201706", "deductibility": "1", "assets": 70136, "income": 66796, "revenue": 66796}, {"ein": "862813347", "name": "WESTBURY UNITED CRICKET CLUB", "city": "WESTBURY", "state": "NY", "zip": "11590-3644", "ntee": "N50", "ruling": "202301", "deductibility": "1", "assets": 0, "income": 0, "revenue": 0}, {"ein": "882718890", "name": "WESTBURY HISPANIC UNITED ASSOCIATION INC", "city": "WESTBURY", "state": "NY", "zip": "11590-1914", "ntee": "S20", "ruling": "202206", "deductibility": "1", "assets": 0, "income": 0, "revenue": 0}, {"ein": "932758985", "name": "OLD WESTBURY PBA INC", "city": "OLD WESTBURY", "state": "NY", "zip": "11568-1233", "ntee": "W99", "ruling": "202308", "deductibility": "1", "assets": 28023, "income": 139700, "revenue": 139700}], "MARBEATZE": [{"ein": "112231116", "name": "MARBEATZE TORAH INSTITUTE", "city": "BROOKLYN", "state": "NY", "zip": "11229-1205", "ntee": "", "ruling": "195804", "deductibility": "1", "assets": 0, "income": 0, "revenue": 0}], "ADVISORY": [{"ein": "112285494", "name": "ADVISORY COUNCIL FOR THE YOUTH OF MINEOLA INC", "city": "MINEOLA", "state": "NY", "zip": "11501-1135", "ntee": "P46", "ruling": "201406", "deductibility": "1", "assets": 0, "income": 0, "revenue": 0}, {"ein": "112327136", "name": "GLENRIDGE SENIOR CITIZEN MULTISERVICE & ADVISORY CENTER INC", "city": "RIDGEWOOD", "state": "NY", "zip": "11385-5032", "ntee": "P81Z", "ruling": "197411", "deductibility": "1", "assets": 0, "income": 0, "revenue": 0}, {"ein": "112574360", "name": "ENVIRONMENTAL EDUCATION ADVISORY COUNCIL INC", "city": "NEW YORK", "state": "NY", "zip": "10003-6674", "ntee": "C60", "ruling": "201502", "deductibility": "1", "assets": 0, "income": 0, "revenue": 0}, {"ein": "112943863", "name": "SACHEM YOUTH ADVISORY GROUP INC", "city": "LAKE GROVE", "state": "NY", "zip": "11755-0165", "ntee": "", "ruling": "199111", "deductibility": "1", "assets": 239546, "income": 445816, "revenue": 445816}, {"ein": "113617213", "name": "SOCCER ADVISORY COMMITTEE OF NORTH HEMPSTEAD", "city": "NEW HYDE PARK", "state": "NY", "zip": "11040-8131", "ntee": "N64", "ruling": "200112", "deductibility": "1", "assets": 41419, "income": 64570, "revenue": 64570}, {"ein": "131201745", "name": "REALTY ADVISORY BOARD ON LABOR RELATIONS INCORPORATED", "city": "NEW YORK", "state": "NY", "zip": "10119-2202", "ntee": "", "ruling": "193705", "deductibility": "2", "assets": 34316061, "income": 9738514, "revenue": 9738514}, {"ein": "131699461", "name": "BRONX REALTY ADVISORY BOARD INC", "city": "TUCKAHOE", "state": "NY", "zip": "10707-4037", "ntee": "", "ruling": "195911", "deductibility": "2", "assets": 480653, "income": 298357, "revenue": 261959}, {"ein": "132724492", "name": "HIGHBRIDGE ADVISORY COUNCIL DAY CARE & SENIOR CITIZENS CENTER INC", "city": "YONKERS", "state": "NY", "zip": "10710-2828", "ntee": "P82Z", "ruling": "197702", "deductibility": "1", "assets": 1815255, "income": 19182764, "revenue": 19182764}, {"ein": "133093969", "name": "MURRY BERGTRAUM HIGH SCHOOL BUSINESS ADVISORY COUNCIL", "city": "NEW YORK", "state": "NY", "zip": "10018-0000", "ntee": "B82Z", "ruling": "198201", "deductibility": "1", "assets": 0, "income": 0, "revenue": 0}, {"ein": "133795001", "name": "WASHINGTON IRVING HIGH SCHOOL BUSINESS ADVISORY COUNCIL LTD", "city": "NEW YORK", "state": "NY", "zip": "10018-4161", "ntee": "J20", "ruling": "199509", "deductibility": "1", "assets": 0, "income": 0, "revenue": 0}, {"ein": "134052918", "name": "MANHATTAN EAST PARENT ADVISORY COUNCIL INC", "city": "NEW YORK", "state": "NY", "zip": "10029-6604", "ntee": "T112", "ruling": "199905", "deductibility": "1", "assets": 0, "income": 0, "revenue": 0}, {"ein": "136401104", "name": "THE ADVISORY BOARD OF THE HIGH SCHOOL OF FASHION INDUSTRIES", "city": "NEW YORK", "state": "NY", "zip": "10011-1741", "ntee": "B82Z", "ruling": "195706", "deductibility": "1", "assets": 433303, "income": 97506, "revenue": 97506}, {"ein": "161445810", "name": "ADIRONDACK COMMUNITIES ADVISORY LEAGUE INC", "city": "BOONVILLE", "state": "NY", "zip": "13309-0202", "ntee": "", "ruling": "199312", "deductibility": "1", "assets": 0, "income": 0, "revenue": 0}, {"ein": "161507331", "name": "RSVP ADVISORY COUNCIL", "city": "BATH", "state": "NY", "zip": "14810-1557", "ntee": "Z99", "ruling": "199812", "deductibility": "2", "assets": 0, "income": 0, "revenue": 0}, {"ein": "201575132", "name": "SACANDAGA-HUDSON ADVISORY COUNCIL INC", "city": "HADLEY", "state": "NY", "zip": "12835-0001", "ntee": "C32", "ruling": "200507", "deductibility": "1", "assets": 81765, "income": 14158, "revenue": 14158}, {"ein": "222567856", "name": "ADVISORY BOARD FOR SENIOR CITIZEN CENTER INC", "city": "MONTGOMERY", "state": "NY", "zip": "12549-0222", "ntee": "P81Z", "ruling": "199410", "deductibility": "1", "assets": 119796, "income": 43645, "revenue": 43645}, {"ein": "262268148", "name": "LONG ISLAND LABOR ADVISORY COUNCIL", "city": "MELVILLE", "state": "NY", "zip": "11747-3600", "ntee": "J40", "ruling": "200807", "deductibility": "2", "assets": 111166, "income": 38500, "revenue": 18784}, {"ein": "263390853", "name": "VILLAGE BUSINESS ADVISORY COUNCIL", "city": "HAMBURG", "state": "NY", "zip": "14075-4905", "ntee": "S41", "ruling": "201104", "deductibility": "2", "assets": 0, "income": 0, "revenue": 0}, {"ein": "273498675", "name": "ROYAL CONSERVATOIRE OF SCOTLAND INTERNATIONAL ADVISORY BOARD INC", "city": "NEW YORK", "state": "NY", "zip": "10019-0000", "ntee": "A12", "ruling": "201012", "deductibility": "1", "assets": 98217, "income": 74185, "revenue": 74185}, {"ein": "383709826", "name": "TOWN OF HAMBURG DOMESTIC VIOLENCE CITIZENS ADVISORY BOARD INC", "city": "HAMBURG", "state": "NY", "zip": "14075-3766", "ntee": "P46", "ruling": "200607", "deductibility": "1", "assets": 0, "income": 0, "revenue": 0}, {"ein": "452024182", "name": "HAMBURG FINANCE ACADEMY ADVISORY BOARD INC", "city": "HAMBURG", "state": "NY", "zip": "14075-4313", "ntee": "B82", "ruling": "201108", "deductibility": "1", "assets": 0, "income": 0, "revenue": 0}, {"ein": "461874630", "name": "SENIOR CITIZENS ADVISORY COMMITTEE OF WHITE PLAINS", "city": "WHITE PLAINS", "state": "NY", "zip": "10601-4301", "ntee": "P81", "ruling": "201408", "deductibility": "2", "assets": 0, "income": 0, "revenue": 0}, {"ein": "473303721", "name": "WNY REGIONAL NAF ADVISORY BOARD", "city": "WEST SENECA", "state": "NY", "zip": "14224-7099", "ntee": "B80", "ruling": "201506", "deductibility": "1", "assets": 0, "income": 0, "revenue": 0}, {"ein": "475217900", "name": "CONSTRUCTION SAFETY ADVISORY COMMITTEE OF NEW YORK INC", "city": "LONG ISLAND CITY", "state": "NY", "zip": "11101-1702", "ntee": "S41", "ruling": "201808", "deductibility": "2", "assets": 48214, "income": 35500, "revenue": 35500}, {"ein": "510243480", "name": "LONG ISLAND REGIONAL ADVISORY COUNCIL ON HIGHER EDUCATION", "city": "BROOKVILLE", "state": "NY", "zip": "11548-1319", "ntee": "", "ruling": "197310", "deductibility": "1", "assets": 44982, "income": 0, "revenue": 0}, {"ein": "522371585", "name": "ADVISORY COUNCIL OF QUEENS CHILDRENS PSYCHIATRIC CENTER", "city": "BELLEROSE", "state": "NY", "zip": "11426-1839", "ntee": "E19", "ruling": "200707", "deductibility": "1", "assets": 0, "income": 0, "revenue": 0}, {"ein": "611997859", "name": "ALBANIAN AMERICAN ADVISORY COUNCIL INC", "city": "YONKERS", "state": "NY", "zip": "10704-4100", "ntee": "A23", "ruling": "202203", "deductibility": "1", "assets": 0, "income": 0, "revenue": 0}, {"ein": "753257163", "name": "ADVISORY BOARD OF THE ORCHARD PARK ACADEMY OF FINANCE INC", "city": "ORCHARD PARK", "state": "NY", "zip": "14127-2052", "ntee": "B90", "ruling": "200805", "deductibility": "1", "assets": 0, "income": 0, "revenue": 0}, {"ein": "811183268", "name": "KOREAN AMERICAN ADVISORY COUNCIL FOR LAW ENFORCEMENT INC", "city": "ELMHURST", "state": "NY", "zip": "11380-0052", "ntee": "W24", "ruling": "201602", "deductibility": "1", "assets": 2652, "income": 1500, "revenue": 1500}, {"ein": "820755318", "name": "GROTON AGRICULTURAL ADVISORY BOARD", "city": "GROTON", "state": "NY", "zip": "13073-9207", "ntee": "B20", "ruling": "201706", "deductibility": "1", "assets": 0, "income": 0, "revenue": 0}, {"ein": "822497374", "name": "AURENE RESIDENTS ADVISORY INC", "city": "PAINTED POST", "state": "NY", "zip": "14870-0014", "ntee": "L50", "ruling": "201804", "deductibility": "2", "assets": 0, "income": 0, "revenue": 0}, {"ein": "844421159", "name": "WAPPINGER VETERANS ADVISORY", "city": "WAPPINGERS FALLS", "state": "NY", "zip": "12590-0000", "ntee": "W12", "ruling": "202104", "deductibility": "1", "assets": 0, "income": 0, "revenue": 0}, {"ein": "871436274", "name": "ASIAN AMERICAN ADVISORY COUNCIL OF USA CORP", "city": "NEW YORK", "state": "NY", "zip": "10013-4554", "ntee": "P84", "ruling": "202201", "deductibility": "1", "assets": 0, "income": 0, "revenue": 0}, {"ein": "883311347", "name": "ASIAN AMERICAN LAW ENFORCEMENT ADVISORY COUNCIL INC", "city": "ELMHURST", "state": "NY", "zip": "11373-3189", "ntee": "P99", "ruling": "202406", "deductibility": "1", "assets": 0, "income": 0, "revenue": 0}, {"ein": "921172212", "name": "HIMAN BROWN 60 PLUS ADVISORY COUNCIL", "city": "NEW YORK", "state": "NY", "zip": "10128-1612", "ntee": "P81", "ruling": "202307", "deductibility": "1", "assets": 0, "income": 0, "revenue": 0}, {"ein": "934277486", "name": "MAGICAL MUSICAL SQUAD ADVISORY BOARD", "city": "SYRACUSE", "state": "NY", "zip": "13210-1736", "ntee": "A60", "ruling": "202312", "deductibility": "1", "assets": 0, "income": 0, "revenue": 0}], "IMMIGRANTS": [{"ein": "112543150", "name": "JEWISH UNION OF RUSSIAN IMMIGRANTS", "city": "BROOKLYN", "state": "NY", "zip": "11230-5402", "ntee": "", "ruling": "198609", "deductibility": "0", "assets": 1260, "income": 68561, "revenue": 68561}, {"ein": "112845295", "name": "ATIFA D B A MASJIDI HAZARAT-I- ABUBAKR IMMIGRANTS OF AFGHANISTAN", "city": "OLD BETHPAGE", "state": "NY", "zip": "11804-0536", "ntee": "X40", "ruling": "201410", "deductibility": "1", "assets": 0, "income": 0, "revenue": 0}, {"ein": "112871104", "name": "AFGHAN IMMIGRANTS ISLAMIC CENTER", "city": "HAUPPAUGE", "state": "NY", "zip": "11788-0718", "ntee": "", "ruling": "198707", "deductibility": "1", "assets": 0, "income": 0, "revenue": 0}, {"ein": "112972292", "name": "IMMIGRANTS THEATRE PROJECT INC", "city": "BROOKLYN", "state": "NY", "zip": "11226-4778", "ntee": "A61", "ruling": "202401", "deductibility": "1", "assets": 1, "income": 225, "revenue": 225}, {"ein": "113475151", "name": "WORLD OF WOMEN IMMIGRANTS INC", "city": "GREAT NECK", "state": "NY", "zip": "11023-2140", "ntee": "P80", "ruling": "201108", "deductibility": "1", "assets": 22960, "income": 34827, "revenue": 34827}, {"ein": "133255591", "name": "NORTHERN MANHATTAN COALITION FOR IMMIGRANTS RIGHTS", "city": "NEW YORK", "state": "NY", "zip": "10034-1611", "ntee": "S80Z", "ruling": "199412", "deductibility": "1", "assets": 354360, "income": 1339425, "revenue": 1339425}, {"ein": "134197115", "name": "COALITION PRO IMMIGRANTS CORP", "city": "NEW YORK", "state": "NY", "zip": "10033-5826", "ntee": "P84", "ruling": "201908", "deductibility": "1", "assets": 1, "income": 58485, "revenue": 0}, {"ein": "273523036", "name": "IMMIGRANTS IN AMERICA FOUNDATION", "city": "NISKAYUNA", "state": "NY", "zip": "12309-4416", "ntee": "P80", "ruling": "201104", "deductibility": "1", "assets": 0, "income": 0, "revenue": 0}, {"ein": "320701053", "name": "IMMIGRANTS INTERNATIONAL INC", "city": "WOODSIDE", "state": "NY", "zip": "11377-0189", "ntee": "A23", "ruling": "202503", "deductibility": "1", "assets": 0, "income": 0, "revenue": 0}, {"ein": "371964314", "name": "VENEZUELANS AND IMMIGRANTS AID INC", "city": "NEW YORK", "state": "NY", "zip": "10030-2635", "ntee": "S20", "ruling": "202007", "deductibility": "1", "assets": 33167, "income": 185590, "revenue": 185590}, {"ein": "831247159", "name": "NEW IMMIGRANTS FOR PROSPERITY OF AMERICA -NIPA INC", "city": "BROOKLYN", "state": "NY", "zip": "11235-6407", "ntee": "P84", "ruling": "202012", "deductibility": "1", "assets": 1, "income": 0, "revenue": 0}, {"ein": "850738610", "name": "IMMIGRANTS LIKE US INC", "city": "NEW YORK", "state": "NY", "zip": "10003-1502", "ntee": "I80", "ruling": "202012", "deductibility": "1", "assets": 0, "income": 0, "revenue": 0}, {"ein": "863184342", "name": "AMERICAN VOLUNTEER CENTER FOR IMMIGRANTS INC", "city": "BAYSIDE", "state": "NY", "zip": "11361-3580", "ntee": "P99", "ruling": "202111", "deductibility": "1", "assets": 0, "income": 0, "revenue": 0}, {"ein": "863530163", "name": "HELPING IMMIGRANTS THRIVE INC", "city": "BRONX", "state": "NY", "zip": "10459-3572", "ntee": "P20", "ruling": "202204", "deductibility": "1", "assets": 63397, "income": 114539, "revenue": 114539}, {"ein": "872348781", "name": "UNITED IMMIGRANTS AND MIGRANTS ASSIMILATION PROJECT INC", "city": "BROOKLYN", "state": "NY", "zip": "11208-2412", "ntee": "P20", "ruling": "202111", "deductibility": "1", "assets": 0, "income": 0, "revenue": 0}, {"ein": "921770572", "name": "INFORMATION FOR CHINESE IMMIGRANTS INC", "city": "REGO PARK", "state": "NY", "zip": "11374-5036", "ntee": "P84", "ruling": "202302", "deductibility": "1", "assets": 0, "income": 0, "revenue": 0}, {"ein": "923115844", "name": "ALLIANCE FOR REFUGEES AND IMMIGRANTS INC", "city": "ALBANY", "state": "NY", "zip": "12207-2843", "ntee": "Q71", "ruling": "202304", "deductibility": "1", "assets": 0, "income": 0, "revenue": 0}, {"ein": "932162763", "name": "ASSOCIATION FOR ASIAN IMMIGRANTS OF NEW YORK INC", "city": "FLUSHING", "state": "NY", "zip": "11354-4031", "ntee": "P20", "ruling": "202310", "deductibility": "1", "assets": 0, "income": 0, "revenue": 0}, {"ein": "933615066", "name": "IMMIGRANTS ADVOCATES PROTECTION INC", "city": "NEW YORK", "state": "NY", "zip": "10039-3138", "ntee": "I80", "ruling": "202310", "deductibility": "1", "assets": 0, "income": 0, "revenue": 0}, {"ein": "934308828", "name": "SELF RELIANCE NEW WAVE OF IMMIGRANTS INC", "city": "NEW YORK", "state": "NY", "zip": "10036-4314", "ntee": "P20", "ruling": "202312", "deductibility": "1", "assets": 1005, "income": 10282, "revenue": 0}, {"ein": "991089070", "name": "BIG APPLE NEW IMMIGRANTS CENTER INC", "city": "NEW YORK", "state": "NY", "zip": "10038-1813", "ntee": "P84", "ruling": "202402", "deductibility": "1", "assets": 0, "income": 0, "revenue": 0}], "TICONDEROGA": [{"ein": "112573430", "name": "TICONDEROGA FESTIVAL GUILD INC", "city": "TICONDEROGA", "state": "NY", "zip": "12883-0125", "ntee": "A680", "ruling": "198109", "deductibility": "1", "assets": 17461, "income": 45336, "revenue": 45135}, {"ein": "141118480", "name": "TICONDEROGA CHAMBER OF COMMERCE", "city": "TICONDEROGA", "state": "NY", "zip": "12883-1464", "ntee": "", "ruling": "199001", "deductibility": "2", "assets": 141087, "income": 257438, "revenue": 236305}, {"ein": "141258744", "name": "VALLEY VIEW CEMETERY ASSOCIATION OF TICONDEROGA N Y INC", "city": "TICONDEROGA", "state": "NY", "zip": "12883-0000", "ntee": "", "ruling": "194701", "deductibility": "1", "assets": 1499797, "income": 419989, "revenue": 302411}, {"ein": "141440924", "name": "THE FORT TICONDEROGA ASSOCIATION INC", "city": "TICONDEROGA", "state": "NY", "zip": "12883-2714", "ntee": "A800", "ruling": "195106", "deductibility": "1", "assets": 25833075, "income": 10951156, "revenue": 7661070}, {"ein": "141666190", "name": "PRIDE OF TICONDEROGA INC", "city": "TICONDEROGA", "state": "NY", "zip": "12883-1548", "ntee": "S32Z", "ruling": "198509", "deductibility": "1", "assets": 403819, "income": 984547, "revenue": 984547}, {"ein": "141717039", "name": "TICONDEROGA HERITAGE MUSEUM MONTCALM ST", "city": "TICONDEROGA", "state": "NY", "zip": "12883-0172", "ntee": "", "ruling": "199404", "deductibility": "1", "assets": 0, "income": 0, "revenue": 0}, {"ein": "141803957", "name": "KIWANIS CLUB OF TICONDEROGA SCHOLERSHIP FUND INC", "city": "TICONDEROGA", "state": "NY", "zip": "12883-0071", "ntee": "B82", "ruling": "199806", "deductibility": "1", "assets": 611352, "income": 101065, "revenue": 101065}, {"ein": "146038052", "name": "EMPLOYEES MUTUAL ASSOCIATION TICONDEROGA NEW YORK INC", "city": "TICONDEROGA", "state": "NY", "zip": "12883-0000", "ntee": "", "ruling": "194302", "deductibility": "2", "assets": 174701, "income": 431607, "revenue": 245869}, {"ein": "201489708", "name": "TICONDEROGA ALUMNI ASSOCIATION", "city": "TICONDEROGA", "state": "NY", "zip": "12883-0644", "ntee": "B82", "ruling": "200412", "deductibility": "1", "assets": 374412, "income": 82006, "revenue": 82006}, {"ein": "222325974", "name": "TICONDEROGA AREA ADULT CENTER INC", "city": "TICONDEROGA", "state": "NY", "zip": "12883-1200", "ntee": "P81", "ruling": "201803", "deductibility": "1", "assets": 0, "income": 0, "revenue": 0}, {"ein": "222525536", "name": "TICONDEROGA AG", "city": "TICONDEROGA", "state": "NY", "zip": "12883-1600", "ntee": "", "ruling": "196408", "deductibility": "1", "assets": 0, "income": 0, "revenue": 0}, {"ein": "237211780", "name": "TICONDEROGA EMERGENCY SQUAD INC", "city": "TICONDEROGA", "state": "NY", "zip": "12883-1301", "ntee": "E63Z", "ruling": "197206", "deductibility": "1", "assets": 2314937, "income": 692169, "revenue": 692169}, {"ein": "237332866", "name": "VETERANS FOREIGN WARS UNITED STATES DEPT NY 146 FORT TICONDEROGA", "city": "HAGUE", "state": "NY", "zip": "12836-2513", "ntee": "", "ruling": "197210", "deductibility": "1", "assets": 0, "income": 0, "revenue": 0}, {"ein": "260829544", "name": "TICONDEROGA MAIN STREET PARTNERSHIP INC", "city": "TICONDEROGA", "state": "NY", "zip": "12883-0379", "ntee": "S20", "ruling": "201001", "deductibility": "1", "assets": 10774, "income": 76076, "revenue": 76076}, {"ein": "262637198", "name": "TICONDEROGA ARTS INC", "city": "TICONDEROGA", "state": "NY", "zip": "12883-0335", "ntee": "A20", "ruling": "201004", "deductibility": "1", "assets": 32679, "income": 63271, "revenue": 29873}, {"ein": "331335853", "name": "TICONDEROGA LITTLE LEAGUE", "city": "TICONDEROGA", "state": "NY", "zip": "12883-0000", "ntee": "N63", "ruling": "202501", "deductibility": "1", "assets": 0, "income": 0, "revenue": 0}, {"ein": "364629080", "name": "LADIES AUXILIARY OF THE TICONDEROGA VOLUNTEER FIRE COMPANY NO 1", "city": "TICONDEROGA", "state": "NY", "zip": "12883-0127", "ntee": "T70", "ruling": "201605", "deductibility": "1", "assets": 0, "income": 0, "revenue": 0}, {"ein": "800586125", "name": "TICONDEROGA VOLUNTEER FIRE COMPANY 1 INC", "city": "TICONDEROGA", "state": "NY", "zip": "12883-0000", "ntee": "M24", "ruling": "201806", "deductibility": "1", "assets": 113406, "income": 40476, "revenue": 0}, {"ein": "822956478", "name": "TICONDEROGA AREA BACKPACK PROGRAM", "city": "TICONDEROGA", "state": "NY", "zip": "12883-2601", "ntee": "P30", "ruling": "201802", "deductibility": "1", "assets": 711347, "income": 143668, "revenue": 143668}, {"ein": "851747934", "name": "TICONDEROGA AREA VETERAN HOMETOWN HEROES", "city": "TICONDEROGA", "state": "NY", "zip": "12883-3701", "ntee": "A80", "ruling": "202108", "deductibility": "1", "assets": 0, "income": 0, "revenue": 0}, {"ein": "900642083", "name": "TICONDEROGA REVITALIZATION ALLIANCE INC", "city": "TICONDEROGA", "state": "NY", "zip": "12883-0247", "ntee": "S30", "ruling": "201311", "deductibility": "1", "assets": 4424839, "income": 778565, "revenue": 778565}], "FORBES": [{"ein": "112623146", "name": "FORBES TEMPLE INC", "city": "HOLLIS", "state": "NY", "zip": "11423-2528", "ntee": "", "ruling": "198310", "deductibility": "1", "assets": 0, "income": 0, "revenue": 0}, {"ein": "141494087", "name": "FORBES RIFLE & PISTOL CLUB INC", "city": "ELIZAVILLE", "state": "NY", "zip": "12523-0157", "ntee": "", "ruling": "197208", "deductibility": "2", "assets": 336611, "income": 26586, "revenue": 26586}, {"ein": "161102929", "name": "NEW FAITH MISSIONARY BAPTIST CHURCHC/O REV E FORBES", "city": "ROCHESTER", "state": "NY", "zip": "14605-2456", "ntee": "", "ruling": "198011", "deductibility": "1", "assets": 0, "income": 0, "revenue": 0}, {"ein": "843357113", "name": "FORBES HALL DEVELOPMENT FOUNDATION", "city": "POUGHKEEPSIE", "state": "NY", "zip": "12601-4464", "ntee": "S01", "ruling": "201911", "deductibility": "1", "assets": 0, "income": 0, "revenue": 0}], "AV": [{"ein": "112661780", "name": "BETH MEDROSH AV RUHOM INC", "city": "BROOKLYN", "state": "NY", "zip": "11211-7974", "ntee": "", "ruling": "198602", "deductibility": "1", "assets": 0, "income": 0, "revenue": 0}, {"ein": "113472950", "name": "AMERICAN FRIENDS OF BINYAN-AV FOUNDATION", "city": "NEW YORK", "state": "NY", "zip": "10018-2247", "ntee": "T22", "ruling": "200006", "deductibility": "1", "assets": 53998, "income": 2294566, "revenue": 0}, {"ein": "274384817", "name": "ZICHRON AV TRUST", "city": "MONSEY", "state": "NY", "zip": "10952-1949", "ntee": "T22", "ruling": "201302", "deductibility": "1", "assets": 824, "income": 1000, "revenue": 0}, {"ein": "367511142", "name": "AV HACHESED NONEXEMPT SECTION 4947A1 CHARITABLE TR", "city": "LAWRENCE", "state": "NY", "zip": "11559-1721", "ntee": "T22", "ruling": "201004", "deductibility": "1", "assets": 108590, "income": 23350, "revenue": 0}, {"ein": "834631525", "name": "CONGREGATION ZICHRON MENACHEM AV INC", "city": "MONSEY", "state": "NY", "zip": "10952-1226", "ntee": "X30", "ruling": "201910", "deductibility": "1", "assets": 0, "income": 0, "revenue": 0}, {"ein": "931369732", "name": "MORESHET BINYAN AV INC", "city": "NEW YORK", "state": "NY", "zip": "10018-2247", "ntee": "X30", "ruling": "202310", "deductibility": "1", "assets": 0, "income": 0, "revenue": 0}], "VURKA": [{"ein": "112695241", "name": "MERKAZ CHASIDEI VURKA", "city": "BROOKLYN", "state": "NY", "zip": "11204-1404", "ntee": "", "ruling": "198610", "deductibility": "1", "assets": 0, "income": 0, "revenue": 0}], "DFLATBUSH": [{"ein": "112796274", "name": "CONGREGATION TORATH CHAIM DFLATBUSH", "city": "BROOKLYN", "state": "NY", "zip": "11230-5402", "ntee": "", "ruling": "198607", "deductibility": "1", "assets": 0, "income": 0, "revenue": 0}], "STOREHOUSE": [{"ein": "112884291", "name": "STOREHOUSE MINISTRIES INC", "city": "FREEPORT", "state": "NY", "zip": "11520-0753", "ntee": "", "ruling": "198903", "deductibility": "1", "assets": 0, "income": 0, "revenue": 0}, {"ein": "300468693", "name": "STOREHOUSE MISSION SUPPORT INC", "city": "WEST SENECA", "state": "NY", "zip": "14224-3925", "ntee": "Q33", "ruling": "200903", "deductibility": "1", "assets": 180444, "income": 150011, "revenue": 150011}, {"ein": "300551465", "name": "STOREHOUSE INC", "city": "WORCESTER", "state": "NY", "zip": "12197-0133", "ntee": "P29", "ruling": "201105", "deductibility": "1", "assets": 0, "income": 0, "revenue": 0}, {"ein": "461705323", "name": "STOREHOUSE OF HOPE", "city": "WARWICK", "state": "NY", "zip": "10990-3851", "ntee": "P20", "ruling": "201307", "deductibility": "1", "assets": 0, "income": 0, "revenue": 0}], "MEAH": [{"ein": "112908992", "name": "AMERICAN FRIENDS OF YESHIVA MEAH SHEARIM INC", "city": "FLUSHING", "state": "NY", "zip": "11367-1943", "ntee": "", "ruling": "199205", "deductibility": "1", "assets": 21701, "income": 887713, "revenue": 887713}, {"ein": "113625124", "name": "CONGREGATION MEAH SHAORIM", "city": "BROOKLYN", "state": "NY", "zip": "11219-2202", "ntee": "X30", "ruling": "200311", "deductibility": "1", "assets": 0, "income": 0, "revenue": 0}], "ACHVA": [{"ein": "112960235", "name": "ACHVA V REIS INC", "city": "SPRING VALLEY", "state": "NY", "zip": "10977-8954", "ntee": "", "ruling": "198911", "deductibility": "1", "assets": 0, "income": 0, "revenue": 0}, {"ein": "133550691", "name": "KEREN ACHVA", "city": "BROOKLYN", "state": "NY", "zip": "11230-4457", "ntee": "T30J", "ruling": "199007", "deductibility": "1", "assets": 198710, "income": 20666, "revenue": 20666}, {"ein": "133800118", "name": "CONGREGATION ACHVA", "city": "SPRING VALLEY", "state": "NY", "zip": "10977-1911", "ntee": "X99Z", "ruling": "199611", "deductibility": "1", "assets": 0, "income": 0, "revenue": 0}], "BOXING": [{"ein": "113055594", "name": "NEW BED-STY BOXING CENTER INC", "city": "BROOKLYN", "state": "NY", "zip": "11221-6692", "ntee": "N60", "ruling": "201206", "deductibility": "1", "assets": 1067, "income": 2760, "revenue": 2760}, {"ein": "113485168", "name": "ELECTCHESTER BOXING CLUB INC", "city": "FLORAL PARK", "state": "NY", "zip": "11001-2663", "ntee": "O23", "ruling": "200105", "deductibility": "1", "assets": 0, "income": 0, "revenue": 0}, {"ein": "113692319", "name": "EL BARRIO BOXING ASSOCIATION", "city": "NEW YORK", "state": "NY", "zip": "10029-0000", "ntee": "N70", "ruling": "201510", "deductibility": "1", "assets": 0, "income": 0, "revenue": 0}, {"ein": "113731446", "name": "COMMUNITY BOXING CENTER INC", "city": "LINDENHURST", "state": "NY", "zip": "11757-6328", "ntee": "O50", "ruling": "201412", "deductibility": "1", "assets": 0, "income": 0, "revenue": 0}, {"ein": "141966867", "name": "SCHENECTADY YOUTH BOXING & FITNESS INC", "city": "ALBANY", "state": "NY", "zip": "12205-1161", "ntee": "O500", "ruling": "200712", "deductibility": "1", "assets": 38154, "income": 241745, "revenue": 241745}, {"ein": "161190035", "name": "UNITED STATES AMATEUR BOXING INC", "city": "BUFFALO", "state": "NY", "zip": "14207-1707", "ntee": "", "ruling": "198311", "deductibility": "1", "assets": 0, "income": 0, "revenue": 0}, {"ein": "161229381", "name": "THE INTERNATIONAL BOXING HALL OF FAME INC", "city": "CANASTOTA", "state": "NY", "zip": "13032-1175", "ntee": "A50", "ruling": "198603", "deductibility": "1", "assets": 1155173, "income": 803924, "revenue": 803924}, {"ein": "161581402", "name": "GENEVA BOXING TEAM INC", "city": "GENEVA", "state": "NY", "zip": "14456-2544", "ntee": "N60", "ruling": "201009", "deductibility": "1", "assets": 1, "income": 0, "revenue": 0}, {"ein": "161592471", "name": "HERKIMER BOXING CLUB", "city": "HERKIMER", "state": "NY", "zip": "13350-1424", "ntee": "N70", "ruling": "200307", "deductibility": "1", "assets": 0, "income": 0, "revenue": 0}, {"ein": "205934216", "name": "WATERTOWN AREA BOXING CLUB INC", "city": "WATERTOWN", "state": "NY", "zip": "13601-0000", "ntee": "O20", "ruling": "202401", "deductibility": "1", "assets": 0, "income": 0, "revenue": 0}, {"ein": "222334362", "name": "ROCHESTER ST MARTIN BOXING CLUB INC", "city": "ROCHESTER", "state": "NY", "zip": "14620-2425", "ntee": "", "ruling": "197707", "deductibility": "1", "assets": 0, "income": 0, "revenue": 0}, {"ein": "260414380", "name": "ANASTA HUDSON BOXING CLUB INC", "city": "HUDSON", "state": "NY", "zip": "12534-1213", "ntee": "N60", "ruling": "200807", "deductibility": "1", "assets": 0, "income": 0, "revenue": 0}, {"ein": "263728923", "name": "FUTURE BOXING CLUB", "city": "ROCHESTER", "state": "NY", "zip": "14611-2021", "ntee": "N60", "ruling": "201004", "deductibility": "1", "assets": 1, "income": 71040, "revenue": 71040}, {"ein": "352665062", "name": "BRONX LEGENDS BOXING INC", "city": "NEW YORK", "state": "NY", "zip": "10002-5488", "ntee": "O20", "ruling": "202104", "deductibility": "1", "assets": 190460, "income": 150164, "revenue": 150164}, {"ein": "454929997", "name": "STARRETT CITY BOXING INC", "city": "WEST BABYLON", "state": "NY", "zip": "11704-5812", "ntee": "O50", "ruling": "201302", "deductibility": "1", "assets": 0, "income": 0, "revenue": 0}, {"ein": "462542484", "name": "FDNY BOXING INC", "city": "HOWARD BEACH", "state": "NY", "zip": "11414-3819", "ntee": "N70", "ruling": "201410", "deductibility": "1", "assets": 46666, "income": 180580, "revenue": 0}, {"ein": "464347474", "name": "BEYOND BOXING INC", "city": "BROOKLYN", "state": "NY", "zip": "11226-5455", "ntee": "B19", "ruling": "201803", "deductibility": "1", "assets": 0, "income": 0, "revenue": 0}, {"ein": "473602031", "name": "MOHAWK VALLEY BOXING ASSOCIATION INC", "city": "UTICA", "state": "NY", "zip": "13501-6216", "ntee": "N99", "ruling": "202006", "deductibility": "1", "assets": 0, "income": 0, "revenue": 0}, {"ein": "822274572", "name": "YOUTH BOXING FOR CHANGE", "city": "NEW YORK", "state": "NY", "zip": "10012-2607", "ntee": "O50", "ruling": "201708", "deductibility": "1", "assets": 0, "income": 0, "revenue": 0}, {"ein": "823993263", "name": "HITTERS BOXING ACADEMY", "city": "ALBANY", "state": "NY", "zip": "12203-1310", "ntee": "O50", "ruling": "201802", "deductibility": "1", "assets": 0, "income": 0, "revenue": 0}, {"ein": "824436548", "name": "HOOK ELITE BOXING MINISTRIES LIFE SKILLS", "city": "NEWBURGH", "state": "NY", "zip": "12550-5319", "ntee": "O50", "ruling": "201803", "deductibility": "1", "assets": 0, "income": 0, "revenue": 0}, {"ein": "832320332", "name": "CUS D AMATOS KO BOXING GYM INC", "city": "CATSKILL", "state": "NY", "zip": "12414-1717", "ntee": "N60", "ruling": "202111", "deductibility": "1", "assets": 0, "income": 0, "revenue": 0}, {"ein": "844202897", "name": "LONG ISLAND BOXING CHARITIES INC", "city": "CTR MORICHES", "state": "NY", "zip": "11934-3724", "ntee": "N03", "ruling": "202002", "deductibility": "1", "assets": 0, "income": 0, "revenue": 0}, {"ein": "874561277", "name": "ALL MIGHTY BOXING FITNESS", "city": "SYRACUSE", "state": "NY", "zip": "13205-1044", "ntee": "O50", "ruling": "202203", "deductibility": "1", "assets": 0, "income": 0, "revenue": 0}, {"ein": "922867436", "name": "BROOKLYN YOUTH BOXING FUND INC", "city": "NEW YORK", "state": "NY", "zip": "10022-8606", "ntee": "C12", "ruling": "202303", "deductibility": "1", "assets": 6243, "income": 10005, "revenue": 10005}, {"ein": "932470076", "name": "NY BOXING GYM", "city": "MOUNT VERNON", "state": "NY", "zip": "10550-1206", "ntee": "N30", "ruling": "202308", "deductibility": "1", "assets": 0, "income": 0, "revenue": 0}, {"ein": "934155851", "name": "BOXING IQ INC", "city": "GLENS FALLS", "state": "NY", "zip": "12801-3806", "ntee": "O50", "ruling": "202311", "deductibility": "1", "assets": 0, "income": 0, "revenue": 0}, {"ein": "993055548", "name": "GLOVE CITY SLUGGERS BOXING INC", "city": "GLOVERSVILLE", "state": "NY", "zip": "12078-3001", "ntee": "O03", "ruling": "202410", "deductibility": "1", "assets": 0, "income": 0, "revenue": 0}, {"ein": "993179959", "name": "LETS GO CHAMP BOXING FOUNDATION", "city": "BROOKLYN", "state": "NY", "zip": "11212-6707", "ntee": "B90", "ruling": "202412", "deductibility": "1", "assets": 0, "income": 0, "revenue": 0}, {"ein": "993383645", "name": "DSNY BOXING TEAM CORP", "city": "STATEN ISLAND", "state": "NY", "zip": "10309-2855", "ntee": "P20", "ruling": "202409", "deductibility": "1", "assets": 0, "income": 6000, "revenue": 6000}], "CHAREDIM": [{"ein": "113097790", "name": "MOSDOS ARGENTINA DKHAL CHAREDIM", "city": "BROOKLYN", "state": "NY", "zip": "11210-3714", "ntee": "", "ruling": "199211", "deductibility": "1", "assets": 0, "income": 0, "revenue": 0}, {"ein": "237365219", "name": "BAIS MEDROSH KHAL CHAREDIM OF MONSEY INC", "city": "SPRING VALLEY", "state": "NY", "zip": "10977-3824", "ntee": "", "ruling": "197404", "deductibility": "1", "assets": 0, "income": 0, "revenue": 0}], "ASHE": [{"ein": "113185372", "name": "ARTHUR ASHE INSTITUTE FOR URBAN HEALTH INC", "city": "BROOKLYN", "state": "NY", "zip": "11203-2012", "ntee": "E70Z", "ruling": "199408", "deductibility": "1", "assets": 4097851, "income": 2510001, "revenue": 2240757}, {"ein": "201365509", "name": "RAFAEL BRENNER ASHE FOUNDATION", "city": "HALESITE", "state": "NY", "zip": "11743-1208", "ntee": "T22", "ruling": "200410", "deductibility": "1", "assets": 331256, "income": 25591, "revenue": 0}], "UMEITOV": [{"ein": "113327626", "name": "CONG TOV UMEITOV", "city": "BROOKLYN", "state": "NY", "zip": "11204-1404", "ntee": "X30Z", "ruling": "199612", "deductibility": "1", "assets": 0, "income": 0, "revenue": 0}], "YOMIM": [{"ein": "113402793", "name": "LORECH YOMIM-CENTER FOR HEALTHY LIVING INC", "city": "FLUSHING", "state": "NY", "zip": "11367-1936", "ntee": "E70", "ruling": "199803", "deductibility": "1", "assets": 0, "income": 0, "revenue": 0}, {"ein": "237167071", "name": "YESHIVA ORECH YOMIM", "city": "BROOKLYN", "state": "NY", "zip": "11211-7911", "ntee": "", "ruling": "197203", "deductibility": "1", "assets": 0, "income": 0, "revenue": 0}], "ANDROS": [{"ein": "113406285", "name": "ANDROS SOCIETY OF USA INC", "city": "FLUSHING", "state": "NY", "zip": "11358-0439", "ntee": "N50", "ruling": "200712", "deductibility": "2", "assets": 76861, "income": 56163, "revenue": 28776}], "MATER": [{"ein": "113425704", "name": "MATER DEI INC", "city": "BOHEMIA", "state": "NY", "zip": "11716-0100", "ntee": "X99", "ruling": "200002", "deductibility": "1", "assets": 235659, "income": 35964, "revenue": 32173}, {"ein": "203214687", "name": "MAETREUM OF CYBELE MAGNA MATER INC", "city": "PALENVILLE", "state": "NY", "zip": "12463-2312", "ntee": "X99", "ruling": "200703", "deductibility": "1", "assets": 0, "income": 0, "revenue": 0}, {"ein": "270221761", "name": "PARISH OF MATER CHRISTI", "city": "ALBANY", "state": "NY", "zip": "12208-1505", "ntee": "", "ruling": "194603", "deductibility": "1", "assets": 0, "income": 0, "revenue": 0}, {"ein": "832183995", "name": "TERRA MATER INC", "city": "STORMVILLE", "state": "NY", "zip": "12582-5805", "ntee": "T20", "ruling": "202406", "deductibility": "1", "assets": 707473, "income": 707408, "revenue": 0}, {"ein": "832811630", "name": "BROOKLYN DIOCESAN MISSIONARY HOUSE OF FORMATION REDEMPTORS MATER", "city": "BROOKLYN", "state": "NY", "zip": "11215-6214", "ntee": "", "ruling": "194603", "deductibility": "1", "assets": 0, "income": 0, "revenue": 0}], "CHHANDAYAN": [{"ein": "113429169", "name": "CHHANDAYAN INC", "city": "NEW YORK", "state": "NY", "zip": "10036-7416", "ntee": "B99", "ruling": "199908", "deductibility": "1", "assets": 156492, "income": 298546, "revenue": 290551}], "DEVELOMENT": [{"ein": "113442366", "name": "ST ANNES GARDENS HOUSING DEVELOMENT FUND COMPANY INC", "city": "HICKSVILLE", "state": "NY", "zip": "11801-6232", "ntee": "L22", "ruling": "199810", "deductibility": "1", "assets": 5457829, "income": 1132199, "revenue": 1132199}], "FOX": [{"ein": "113574904", "name": "VIRGIL FOX SOCIETY INC", "city": "RIDGEWOOD", "state": "NY", "zip": "11386-0179", "ntee": "A68", "ruling": "200106", "deductibility": "1", "assets": 0, "income": 0, "revenue": 0}, {"ein": "131603684", "name": "FOX MEADOW TENNIS CLUB", "city": "SCARSDALE", "state": "NY", "zip": "10583-2908", "ntee": "", "ruling": "194302", "deductibility": "2", "assets": 1740604, "income": 1045453, "revenue": 1045453}, {"ein": "132925845", "name": "FOX LANE MIDDLE SCHOOL ASSOCIATION INC", "city": "BEDFORD", "state": "NY", "zip": "10506-0000", "ntee": "T30Z", "ruling": "199804", "deductibility": "1", "assets": 130965, "income": 74930, "revenue": 74930}, {"ein": "133124818", "name": "FAN FOX & LESLIE R SAMUELS FOUNDATION INC", "city": "NEW YORK", "state": "NY", "zip": "10016-1101", "ntee": "", "ruling": "196104", "deductibility": "1", "assets": 149091596, "income": 15140595, "revenue": 0}, {"ein": "133304130", "name": "MSGR ROBERT FOX MEMORIAL SHELTER INC", "city": "STATEN ISLAND", "state": "NY", "zip": "10314-6400", "ntee": "", "ruling": "198608", "deductibility": "1", "assets": 69168, "income": 0, "revenue": 0}, {"ein": "133368998", "name": "MSGR ROBERT FOX MEMORIAL SHELTER FOX HOUSE", "city": "NEW YORK", "state": "NY", "zip": "10035-4602", "ntee": "L410", "ruling": "198706", "deductibility": "1", "assets": 101379, "income": 10013, "revenue": 10013}, {"ein": "133631257", "name": "WILLIAM FOX JR FOUNDATION", "city": "NEW YORK", "state": "NY", "zip": "10075-0383", "ntee": "", "ruling": "199111", "deductibility": "1", "assets": 1908979, "income": 457584, "revenue": 0}, {"ein": "133644188", "name": "760 762 763 FOX STREET HOUSING DEVELOPMENT FUND CORPORATION", "city": "BRONX", "state": "NY", "zip": "10455-4000", "ntee": "L99", "ruling": "198806", "deductibility": "1", "assets": 0, "income": 0, "revenue": 0}, {"ein": "134141945", "name": "MICHAEL J FOX FOUNDATION FOR PARKINSONS RESEARCH", "city": "NEW YORK", "state": "NY", "zip": "10163-4777", "ntee": "H48", "ruling": "200012", "deductibility": "1", "assets": 439010892, "income": 1471853058, "revenue": 505288760}, {"ein": "150539039", "name": "AURELIA OSBORN FOX MEMORIAL HOSPITAL SOCIETY", "city": "ONEONTA", "state": "NY", "zip": "13820-2629", "ntee": "E220", "ruling": "198511", "deductibility": "1", "assets": 59864117, "income": 96297599, "revenue": 96297599}, {"ein": "166182160", "name": "FOX MEMORIAL HOSPITAL TRUST UNDER WILL OF ANNE E SCOTT", "city": "ONEONTA", "state": "NY", "zip": "13820-2502", "ntee": "T11", "ruling": "199910", "deductibility": "1", "assets": 894778, "income": 316751, "revenue": 0}, {"ein": "208670847", "name": "SILVER FOX SENIOR SOCIAL CLUB INC", "city": "BALDWINSVILLE", "state": "NY", "zip": "13027-2502", "ntee": "P81", "ruling": "201405", "deductibility": "1", "assets": 279382, "income": 1163770, "revenue": 1163770}, {"ein": "223213107", "name": "FOX WOOD WILDLIFE RESCUE INC", "city": "EAST CONCORD", "state": "NY", "zip": "14055-9716", "ntee": "D34Z", "ruling": "199704", "deductibility": "1", "assets": 0, "income": 0, "revenue": 0}, {"ein": "261885179", "name": "FOX LANE BASEBALL BOOSTERS CLUB", "city": "BEDFORD", "state": "NY", "zip": "10506-0000", "ntee": "B11", "ruling": "201412", "deductibility": "1", "assets": 55235, "income": 124411, "revenue": 124411}, {"ein": "261897200", "name": "DARIEN FOX MINISTRIES", "city": "WEST ISLIP", "state": "NY", "zip": "11795-2619", "ntee": "Q33", "ruling": "200807", "deductibility": "1", "assets": 1047, "income": 11123, "revenue": 11123}, {"ein": "264603127", "name": "FOX LANE SPORTS BOOSTERS CLUB", "city": "BEDFORD", "state": "NY", "zip": "10506-0247", "ntee": "B12", "ruling": "201609", "deductibility": "1", "assets": 138116, "income": 91006, "revenue": 91006}, {"ein": "270333073", "name": "FOX STREET HOUSING DEVELOPMENT FUND CORPORATION", "city": "BRONX", "state": "NY", "zip": "10455-5007", "ntee": "L20", "ruling": "201007", "deductibility": "1", "assets": 1791701, "income": 411100, "revenue": 411100}, {"ein": "271136617", "name": "WALLACE FOX FOUNDATION", "city": "NEW YORK", "state": "NY", "zip": "10165-0000", "ntee": "T22", "ruling": "201007", "deductibility": "1", "assets": 1524365, "income": 6170754, "revenue": 0}, {"ein": "274109274", "name": "FOX LANE HIGH SCHOOL ASSOCIATION", "city": "BEDFORD", "state": "NY", "zip": "10506-0000", "ntee": "B82", "ruling": "201210", "deductibility": "1", "assets": 62745, "income": 26759, "revenue": 26759}, {"ein": "300625567", "name": "FOX LANE YOUTH LACROSSE INC", "city": "BEDFORD", "state": "NY", "zip": "10506-0192", "ntee": "O50", "ruling": "201011", "deductibility": "1", "assets": 98893, "income": 148668, "revenue": 148668}, {"ein": "306079215", "name": "NELSON FOX TR", "city": "ELMIRA", "state": "NY", "zip": "14902-1522", "ntee": "", "ruling": "000000", "deductibility": "0", "assets": 54533, "income": 3609, "revenue": 0}, {"ein": "352316590", "name": "AH FOX COLLECTORS ASSOCIATION INC", "city": "FAIRPORT", "state": "NY", "zip": "14450-0652", "ntee": "A80", "ruling": "200802", "deductibility": "1", "assets": 0, "income": 0, "revenue": 0}, {"ein": "454293819", "name": "SEYMOUR FOX MEMORIAL FOUNDATION INC", "city": "TROY", "state": "NY", "zip": "12180-8546", "ntee": "T22", "ruling": "201203", "deductibility": "1", "assets": 9926258, "income": 5391358, "revenue": 0}, {"ein": "473264645", "name": "KENNETH A FOX FOUNDATION", "city": "NEW YORK", "state": "NY", "zip": "10014-0000", "ntee": "T22", "ruling": "201512", "deductibility": "1", "assets": 6212, "income": 4390, "revenue": 0}, {"ein": "815153641", "name": "CM FOX CHARITY INC", "city": "GUILDERLAND", "state": "NY", "zip": "12084-9780", "ntee": "T12", "ruling": "201811", "deductibility": "1", "assets": 0, "income": 0, "revenue": 0}, {"ein": "821404844", "name": "FOX LANE HALL OF FAME INC", "city": "BEDFORD", "state": "NY", "zip": "10506-0000", "ntee": "N11", "ruling": "201707", "deductibility": "1", "assets": 11585, "income": 3025, "revenue": 3025}, {"ein": "822591505", "name": "FOX WHOLE FAMILY FOUNDATION", "city": "GARDEN CITY", "state": "NY", "zip": "11530-0000", "ntee": "G30", "ruling": "201803", "deductibility": "1", "assets": 28850, "income": 8629, "revenue": 5523}, {"ein": "831906817", "name": "ELYSE FOX CLUB INC", "city": "BROOKLYN", "state": "NY", "zip": "11208-1224", "ntee": "F01", "ruling": "201809", "deductibility": "1", "assets": 9771, "income": 0, "revenue": 0}, {"ein": "833254727", "name": "FOX-ROSENBERG FAMILY CIRCLE INC", "city": "IRVINGTON", "state": "NY", "zip": "10533-1007", "ntee": "N50", "ruling": "201912", "deductibility": "2", "assets": 0, "income": 0, "revenue": 0}, {"ein": "842389353", "name": "SILVER FOX SPORTSMENS ASSOCIATION", "city": "MIDDLETOWN", "state": "NY", "zip": "10940-7253", "ntee": "N61", "ruling": "202212", "deductibility": "2", "assets": 0, "income": 0, "revenue": 0}, {"ein": "844545685", "name": "FOR FOX SAKE SANCTUARY", "city": "LINDLEY", "state": "NY", "zip": "14858-9643", "ntee": "D20", "ruling": "202003", "deductibility": "1", "assets": 0, "income": 0, "revenue": 0}, {"ein": "853867645", "name": "ARCTIC FOX DAILY WILDLIFE RESCUE INC", "city": "WILLIAMSON", "state": "NY", "zip": "14589-9348", "ntee": "D30", "ruling": "202102", "deductibility": "1", "assets": 236751, "income": 166356, "revenue": 166356}, {"ein": "931855565", "name": "AVON NY AHRENS FOX FULL CIRCLE PRESERVATION SOCIETY", "city": "AVON", "state": "NY", "zip": "14414-1311", "ntee": "A80", "ruling": "202308", "deductibility": "1", "assets": 0, "income": 0, "revenue": 0}, {"ein": "933891157", "name": "PURPLE FOX FOUNDATION INC", "city": "NEW YORK", "state": "NY", "zip": "10065-6469", "ntee": "W99", "ruling": "202404", "deductibility": "1", "assets": 72400, "income": 152392, "revenue": 152392}], "ADJUSTERS": [{"ein": "116021189", "name": "NEW YORK ASSOCIATION OF INDEPENDENT ADJUSTERS INC", "city": "FARMINGDALE", "state": "NY", "zip": "11735-4800", "ntee": "", "ruling": "198704", "deductibility": "2", "assets": 14628, "income": 55465, "revenue": 11120}, {"ein": "452767917", "name": "ASSOCIATION OF AVERAGE ADJUSTERS OF THE UNITED STATES AND CANADA INC", "city": "WHT SPHR SPGS", "state": "NY", "zip": "12787-0398", "ntee": "S41", "ruling": "201208", "deductibility": "2", "assets": 0, "income": 0, "revenue": 0}], "JAN": [{"ein": "131635255", "name": "JAN HUS PRESBYTERIAN CHURCH", "city": "NEW YORK", "state": "NY", "zip": "10128-5202", "ntee": "", "ruling": "196401", "deductibility": "1", "assets": 0, "income": 0, "revenue": 0}, {"ein": "133448939", "name": "JAN AND NILES DAVIES LEARNING CENTER", "city": "W HAVERSTRAW", "state": "NY", "zip": "10993-1127", "ntee": "Z99", "ruling": "199501", "deductibility": "1", "assets": 209876, "income": 2128774, "revenue": 2128774}, {"ein": "141613558", "name": "ROE-JAN CREEK BOAT CLUB", "city": "GERMANTOWN", "state": "NY", "zip": "12526-0144", "ntee": "N50", "ruling": "202006", "deductibility": "2", "assets": 0, "income": 0, "revenue": 0}, {"ein": "364740290", "name": "JAN KARSKI EDUCATIONAL FOUNDATION", "city": "BROOKLYN", "state": "NY", "zip": "11201-2181", "ntee": "A80", "ruling": "201303", "deductibility": "1", "assets": 34125, "income": 100900, "revenue": 100900}, {"ein": "832393115", "name": "ROE JAN WATERSHED COMMUNITY INC", "city": "GERMANTOWN", "state": "NY", "zip": "12526-5106", "ntee": "C32", "ruling": "201909", "deductibility": "1", "assets": 0, "income": 0, "revenue": 0}, {"ein": "832782300", "name": "ROE JAN FOOD PANTRY INC", "city": "HILLSDALE", "state": "NY", "zip": "12529-0475", "ntee": "K31", "ruling": "201906", "deductibility": "1", "assets": 219302, "income": 43757, "revenue": 43757}, {"ein": "900863903", "name": "THE CLAIRE AND JAN ART FOUNDATION CORP", "city": "SHOREHAM", "state": "NY", "zip": "11786-1946", "ntee": "A99", "ruling": "201410", "deductibility": "1", "assets": 0, "income": 0, "revenue": 0}], "NINTH": [{"ein": "131723084", "name": "NINTH DISTRICT DENTAL ASSOCIATION", "city": "HAWTHORNE", "state": "NY", "zip": "10532-1283", "ntee": "", "ruling": "194211", "deductibility": "2", "assets": 2046467, "income": 516018, "revenue": 453702}, {"ein": "132874643", "name": "THE NEW 600 BC EAST NINTH STREET BLOCK AND NEIGHBORHOOD ASSOCIATION", "city": "NEW YORK", "state": "NY", "zip": "10009-5224", "ntee": "C50", "ruling": "201111", "deductibility": "1", "assets": 0, "income": 0, "revenue": 0}, {"ein": "133065721", "name": "NINTH JUDICIAL DISTRICT COURT EMPLOYEES ASSOCIATION", "city": "WHITE PLAINS", "state": "NY", "zip": "10601-1717", "ntee": "", "ruling": "198104", "deductibility": "2", "assets": 89335, "income": 111300, "revenue": 111300}, {"ein": "133433779", "name": "SEVENTY NINTH STREET WORKSHOP INC", "city": "NEW YORK", "state": "NY", "zip": "10075-1001", "ntee": "F22Z", "ruling": "199206", "deductibility": "1", "assets": 51269, "income": 109038, "revenue": 109038}, {"ein": "133953359", "name": "THE NOBLE NINTH INC", "city": "WHITESTONE", "state": "NY", "zip": "11357-1720", "ntee": "L22", "ruling": "199708", "deductibility": "1", "assets": 4287862, "income": 681566, "revenue": 681566}, {"ein": "136222627", "name": "NINTH DISTRICT DENTAL SOCIETY RELIEF FUND", "city": "HAWTHORNE", "state": "NY", "zip": "10532-1283", "ntee": "", "ruling": "196707", "deductibility": "1", "assets": 0, "income": 0, "revenue": 0}, {"ein": "237126422", "name": "NINTH DISTRICT OF FEDERATED GARDEN CLUBS OF NYS INC", "city": "OSSINING", "state": "NY", "zip": "10562-3938", "ntee": "C42", "ruling": "202112", "deductibility": "1", "assets": 0, "income": 0, "revenue": 0}, {"ein": "237298101", "name": "NINTH AVENUE ASSOCIATION OF NY", "city": "NEW YORK", "state": "NY", "zip": "10036-3721", "ntee": "", "ruling": "197310", "deductibility": "2", "assets": 37800, "income": 166487, "revenue": 166487}, {"ein": "464358130", "name": "WEST OF NINTH 2 HOUSING DEVELOPMENT FUND CORP", "city": "ROSLYN", "state": "NY", "zip": "11576-1588", "ntee": "L20", "ruling": "201612", "deductibility": "1", "assets": 21645761, "income": 0, "revenue": 0}, {"ein": "836295575", "name": "SIXTY-NINTH INFANTRY REGIMENT HISTORICAL TR", "city": "WOODSIDE", "state": "NY", "zip": "11377-0000", "ntee": "P20", "ruling": "201903", "deductibility": "1", "assets": 0, "income": 0, "revenue": 0}, {"ein": "923140903", "name": "NINTH JUDICIAL DISTRICT COURT EMPLOYEES ASSOC CHARITABLE FUND", "city": "WHITE PLAINS", "state": "NY", "zip": "10605-1511", "ntee": "W12", "ruling": "202304", "deductibility": "1", "assets": 0, "income": 0, "revenue": 0}, {"ein": "990673213", "name": "3816 NINTH AVENUE HOUSING DEVELOPMENT FUND COMPANY INC", "city": "NEW YORK", "state": "NY", "zip": "10027-4991", "ntee": "L21", "ruling": "202502", "deductibility": "0", "assets": 0, "income": 0, "revenue": 0}, {"ein": "992438021", "name": "NINTH LIFE SANCTUARY INC", "city": "MIDDLE ISLAND", "state": "NY", "zip": "11953-1443", "ntee": "P99", "ruling": "202406", "deductibility": "1", "assets": 0, "income": 0, "revenue": 0}], "OPENGATE": [{"ein": "132634269", "name": "OPENGATE INC", "city": "ARMONK", "state": "NY", "zip": "10504-0419", "ntee": "P73Z", "ruling": "196911", "deductibility": "1", "assets": 22804402, "income": 23079614, "revenue": 23054077}], "HUSSIANIAH": [{"ein": "133005664", "name": "HUSSIANIAH ISLAMIC CENTER OF THE UNITED STATES OF AMERICA INC", "city": "NEW YORK", "state": "NY", "zip": "10032-2955", "ntee": "", "ruling": "198002", "deductibility": "1", "assets": 0, "income": 0, "revenue": 0}], "SOHOPHOTO": [{"ein": "133054277", "name": "SOHOPHOTO FOUNDATION INC", "city": "NEW YORK", "state": "NY", "zip": "10013-2406", "ntee": "A400", "ruling": "198811", "deductibility": "1", "assets": 205078, "income": 213238, "revenue": 213238}], "SAC": [{"ein": "133062103", "name": "SAC SUTTON AREA COMMUNITY INC", "city": "NEW YORK", "state": "NY", "zip": "10022-4168", "ntee": "", "ruling": "198304", "deductibility": "1", "assets": 0, "income": 0, "revenue": 0}, {"ein": "863884407", "name": "SAC-O-LAIT KEITH SONNIER FOUNDATION INC", "city": "SAGAPONACK", "state": "NY", "zip": "11962-0086", "ntee": "A40", "ruling": "202202", "deductibility": "1", "assets": 1, "income": 1, "revenue": 0}], "CELEBRITY": [{"ein": "133239797", "name": "CHURCH OF SCIENTOLOGY CELEBRITY CENTRE NEW YORK", "city": "NEW YORK", "state": "NY", "zip": "10028-0000", "ntee": "", "ruling": "199310", "deductibility": "1", "assets": 0, "income": 0, "revenue": 0}, {"ein": "141804129", "name": "CELEBRITY ENTERTAINMENT CORPORATION", "city": "MALVERNE", "state": "NY", "zip": "11565-0266", "ntee": "T123", "ruling": "200006", "deductibility": "1", "assets": 0, "income": 0, "revenue": 0}, {"ein": "923643695", "name": "CELEBRITY MEDIA FOUNDATION INC", "city": "BROOKLYN", "state": "NY", "zip": "11235-6713", "ntee": "A30", "ruling": "202309", "deductibility": "1", "assets": 0, "income": 0, "revenue": 0}, {"ein": "992668779", "name": "CELEBRITY MEDIA ALLIANCE INC", "city": "BROOKLYN", "state": "NY", "zip": "11235-6713", "ntee": "A30", "ruling": "202405", "deductibility": "1", "assets": 0, "income": 0, "revenue": 0}, {"ein": "992720336", "name": "CELEBRITY MEDIA AI ACADEMY INC", "city": "BROOKLYN", "state": "NY", "zip": "11235-6713", "ntee": "B90", "ruling": "202411", "deductibility": "1", "assets": 0, "income": 0, "revenue": 0}, {"ein": "994887863", "name": "CELEBRITY CHARITY GAMES INC", "city": "YONKERS", "state": "NY", "zip": "10710-3432", "ntee": "P20", "ruling": "202411", "deductibility": "1", "assets": 0, "income": 0, "revenue": 0}], "DELIVER": [{"ein": "133366846", "name": "GODS LOVE WE DELIVER INC", "city": "NEW YORK", "state": "NY", "zip": "10013-1207", "ntee": "K36Z", "ruling": "198704", "deductibility": "1", "assets": 60128998, "income": 50987644, "revenue": 47382467}, {"ein": "264462256", "name": "WOMEN DELIVER INC", "city": "NEW YORK", "state": "NY", "zip": "10022-5596", "ntee": "B90", "ruling": "200907", "deductibility": "1", "assets": 6909587, "income": 16077387, "revenue": 16077387}, {"ein": "850537204", "name": "INVISIBLE HANDS DELIVER INC", "city": "LITTLE NECK", "state": "NY", "zip": "11362-2530", "ntee": "M19", "ruling": "202007", "deductibility": "1", "assets": 86865, "income": 0, "revenue": 0}, {"ein": "851062454", "name": "NEW YORKERS DELIVER INC", "city": "NEW YORK", "state": "NY", "zip": "10021-0095", "ntee": "E12", "ruling": "202006", "deductibility": "1", "assets": 0, "income": 0, "revenue": 0}, {"ein": "871970205", "name": "SERVE EQUIP EXALT DELIVER INC", "city": "ALBANY", "state": "NY", "zip": "12203-5066", "ntee": "P20", "ruling": "202301", "deductibility": "1", "assets": 0, "income": 0, "revenue": 0}, {"ein": "932536480", "name": "READY ENLIGHTEN DELIVER INC", "city": "ROSEDALE", "state": "NY", "zip": "11422-2740", "ntee": "P30", "ruling": "202309", "deductibility": "1", "assets": 0, "income": 0, "revenue": 0}], "BATTERY": [{"ein": "133449909", "name": "BATTERY PARK CITY PARKS CONSERVANCY CORPORATION", "city": "NEW YORK", "state": "NY", "zip": "10280-1500", "ntee": "N32Z", "ruling": "199109", "deductibility": "1", "assets": 0, "income": 0, "revenue": 0}, {"ein": "133769101", "name": "BATTERY CONSERVANCY INC", "city": "NEW YORK", "state": "NY", "zip": "10004-2261", "ntee": "A800", "ruling": "199407", "deductibility": "1", "assets": 15096090, "income": 12752338, "revenue": 2424952}, {"ein": "202509781", "name": "REYNOLDS BATTERY L FIRST NY LIGHT ARTILLERY", "city": "LOCKPORT", "state": "NY", "zip": "14094-5715", "ntee": "A80", "ruling": "200512", "deductibility": "1", "assets": 0, "income": 0, "revenue": 0}, {"ein": "237418859", "name": "BATTERY DANCE CORPORATION", "city": "NEW YORK", "state": "NY", "zip": "10013-6027", "ntee": "", "ruling": "197412", "deductibility": "1", "assets": 705260, "income": 1359161, "revenue": 1319565}, {"ein": "251801436", "name": "CUSHINGS BATTERY A 4TH U S LIGHT ARTILLERY & INFANTRY INC", "city": "ONTARIO", "state": "NY", "zip": "14519-9792", "ntee": "A80", "ruling": "199611", "deductibility": "1", "assets": 0, "income": 0, "revenue": 0}, {"ein": "272619304", "name": "NEW YORK BATTERY AND ENERGY STORAGE TECHNOLOGY CONSORTIUM", "city": "ALBANY", "state": "NY", "zip": "12203-5319", "ntee": "S46", "ruling": "201101", "deductibility": "2", "assets": 5116487, "income": 1948150, "revenue": 1948150}, {"ein": "274529444", "name": "CHABAD OF BATTERY PARK CITY INC", "city": "NEW YORK", "state": "NY", "zip": "10280-1043", "ntee": "", "ruling": "201705", "deductibility": "1", "assets": 0, "income": 0, "revenue": 0}, {"ein": "465296396", "name": "BATTERY PARK RESIDENTS ACTION CORPORATION", "city": "NEW YORK", "state": "NY", "zip": "10038-0000", "ntee": "D99", "ruling": "201407", "deductibility": "1", "assets": 0, "income": 0, "revenue": 0}, {"ein": "853548434", "name": "BATTERY ALLIANCE INC", "city": "NEW YORK", "state": "NY", "zip": "10280-1437", "ntee": "L50", "ruling": "202103", "deductibility": "1", "assets": 0, "income": 0, "revenue": 0}], "ALAI": [{"ein": "133512990", "name": "ALAI-USA INC", "city": "NEW YORK", "state": "NY", "zip": "10027-0000", "ntee": "", "ruling": "199004", "deductibility": "1", "assets": 73116, "income": 4030, "revenue": 4030}], "KEETOOWAH": [{"ein": "133569930", "name": "NUYAGI KEETOOWAH SOCIETY INC", "city": "NEW YORK CITY", "state": "NY", "zip": "10023-4324", "ntee": "X21", "ruling": "200208", "deductibility": "1", "assets": 0, "income": 0, "revenue": 0}], "LAVENDER": [{"ein": "133652071", "name": "LAVENDER LIGHT THE BLACK & PEOPLE OF ALL COLORS LESBIAN & GAY CHOIR", "city": "NEW YORK", "state": "NY", "zip": "10014-3817", "ntee": "A23I", "ruling": "199705", "deductibility": "1", "assets": 37638, "income": 54479, "revenue": 0}, {"ein": "815159323", "name": "LAVENDER CREST FOUNDATION INC", "city": "PENN YAN", "state": "NY", "zip": "14527-8700", "ntee": "E50", "ruling": "201702", "deductibility": "1", "assets": 0, "income": 0, "revenue": 0}], "TETH": [{"ein": "133705251", "name": "CONGREGATION OF TETH", "city": "BROOKLYN", "state": "NY", "zip": "11206-5412", "ntee": "", "ruling": "199308", "deductibility": "1", "assets": 0, "income": 0, "revenue": 0}], "MVP": [{"ein": "133760575", "name": "MVP HOUSING DEVELOPMENT FUND COMPANY INC", "city": "FLUSHING", "state": "NY", "zip": "11354-4110", "ntee": "L22", "ruling": "199410", "deductibility": "1", "assets": 3823866, "income": 988567, "revenue": 988567}, {"ein": "141640868", "name": "MVP HEALTH PLAN INC", "city": "SCHENECTADY", "state": "NY", "zip": "12305-2111", "ntee": "", "ruling": "198404", "deductibility": "2", "assets": 915432292, "income": 3205104770, "revenue": 3039847348}, {"ein": "161318351", "name": "MVP HEALTH CARE INC", "city": "SCHENECTADY", "state": "NY", "zip": "12305-2111", "ntee": "", "ruling": "199202", "deductibility": "2", "assets": 505754902, "income": 44631, "revenue": 44631}, {"ein": "332025457", "name": "DOMINIQUE WILKINS MVP WELLNESS FOUNDATION INC", "city": "ALBANY", "state": "NY", "zip": "12207-2834", "ntee": "P12", "ruling": "202412", "deductibility": "1", "assets": 0, "income": 0, "revenue": 0}, {"ein": "462690306", "name": "MVP MEDICAL PRACTICE PC", "city": "BROOKLYN", "state": "NY", "zip": "11217-4383", "ntee": "G81", "ruling": "201412", "deductibility": "1", "assets": 3661971, "income": 2950277, "revenue": 2950277}, {"ein": "810763216", "name": "MVP MIRACLE HOUSE FOUNDATION INC", "city": "FREEPORT", "state": "NY", "zip": "11520-2638", "ntee": "T31", "ruling": "201601", "deductibility": "1", "assets": 4403, "income": 90131, "revenue": 0}, {"ein": "810877018", "name": "MVP ACCELERATOR INC", "city": "BROOKLYN", "state": "NY", "zip": "11203-2910", "ntee": "S43", "ruling": "202001", "deductibility": "1", "assets": 0, "income": 0, "revenue": 0}, {"ein": "922440697", "name": "MVP SWIMMERS INC", "city": "BRONX", "state": "NY", "zip": "10467-7947", "ntee": "N30", "ruling": "202303", "deductibility": "1", "assets": 55003, "income": 58017, "revenue": 58017}], "JONGG": [{"ein": "133791092", "name": "NATIONAL MAH JONGG LEAGUE FOUNDATION INC", "city": "HARRISON", "state": "NY", "zip": "10528-0000", "ntee": "T30J", "ruling": "199505", "deductibility": "1", "assets": 14308401, "income": 1767821, "revenue": 0}], "VIENNESE": [{"ein": "133874026", "name": "VIENNESE OPERA BALL", "city": "NEW YORK", "state": "NY", "zip": "10018-2794", "ntee": "A120", "ruling": "199409", "deductibility": "1", "assets": 36923, "income": 449878, "revenue": 186037}], "ACUPUNCTURISTS": [{"ein": "133902753", "name": "UNITED ALLIANCE OF NEW YORK STATE LICENSE ACUPUNCTURISTS INC", "city": "WILLISTON PK", "state": "NY", "zip": "11596-2304", "ntee": "S41", "ruling": "200506", "deductibility": "2", "assets": 211895, "income": 80148, "revenue": 80148}], "BYRUCH": [{"ein": "134136161", "name": "CONG BYRUCH MOUSHE INC", "city": "MONROE", "state": "NY", "zip": "10950-6427", "ntee": "X30", "ruling": "200112", "deductibility": "1", "assets": 0, "income": 0, "revenue": 0}], "TUBULAR": [{"ein": "136132759", "name": "TUBULAR EXCHANGER MFRS ASSN INC", "city": "TARRYTOWN", "state": "NY", "zip": "10591-3221", "ntee": "S41", "ruling": "200003", "deductibility": "2", "assets": 731869, "income": 366212, "revenue": 359163}], "FOODS": [{"ein": "140923745", "name": "NORTHEAST DAIRY FOODS ASSOCIATION INC", "city": "CICERO", "state": "NY", "zip": "13039-8623", "ntee": "", "ruling": "194508", "deductibility": "2", "assets": 235323, "income": 368937, "revenue": 368937}, {"ein": "222996324", "name": "SENECA FOODS FOUNDATION", "city": "FAIRPORT", "state": "NY", "zip": "14450-4222", "ntee": "", "ruling": "198909", "deductibility": "1", "assets": 9512719, "income": 1001705, "revenue": 0}, {"ein": "474107660", "name": "AMERICAN FOODS MERCHANTS ALLIANCE", "city": "MASPETH", "state": "NY", "zip": "11378-3013", "ntee": "S41", "ruling": "201607", "deductibility": "2", "assets": 337386, "income": 21752, "revenue": 21752}, {"ein": "810996695", "name": "SECOND CHANCE FOODS", "city": "CARMEL", "state": "NY", "zip": "10512-0093", "ntee": "K30", "ruling": "201603", "deductibility": "1", "assets": 345913, "income": 1392027, "revenue": 1392027}, {"ein": "824540319", "name": "LEMONTREE FOODS INC", "city": "NEW YORK", "state": "NY", "zip": "10003-1502", "ntee": "", "ruling": "201808", "deductibility": "1", "assets": 1224634, "income": 869053, "revenue": 869053}, {"ein": "831812242", "name": "LOCAL FOODS INCUBATOR INC", "city": "LITTLE FALLS", "state": "NY", "zip": "13365-2026", "ntee": "K01", "ruling": "202409", "deductibility": "1", "assets": 14560, "income": 18294, "revenue": 18294}, {"ein": "931488692", "name": "FORGOTTEN FOODS INC", "city": "STATEN ISLAND", "state": "NY", "zip": "10310-2518", "ntee": "W70", "ruling": "202306", "deductibility": "1", "assets": 93813, "income": 112565, "revenue": 112565}, {"ein": "994500148", "name": "EVERYONE FOODS CORP", "city": "NEW YORK", "state": "NY", "zip": "10003-1502", "ntee": "K35", "ruling": "202408", "deductibility": "1", "assets": 0, "income": 0, "revenue": 0}], "WILLSBORO": [{"ein": "141550945", "name": "CATHOLIC COMMUNITY OF ST PHILIP OF JESUS AND ST JOSEPH OF WILLSBORO", "city": "WILLSBORO", "state": "NY", "zip": "12996-0607", "ntee": "", "ruling": "194603", "deductibility": "1", "assets": 0, "income": 0, "revenue": 0}, {"ein": "141730476", "name": "WILLSBORO SENIOR HOUSING CORP", "city": "WILLSBORO", "state": "NY", "zip": "12996-3956", "ntee": "", "ruling": "199105", "deductibility": "1", "assets": 496266, "income": 126254, "revenue": 126254}, {"ein": "141765608", "name": "WILLSBORO DEVELOPMENT CORPORATION", "city": "WILLSBORO", "state": "NY", "zip": "12996-0063", "ntee": "", "ruling": "199403", "deductibility": "2", "assets": 0, "income": 0, "revenue": 0}, {"ein": "141784119", "name": "WILLSBORO HERITAGE SOCIETY INC", "city": "WILLSBORO", "state": "NY", "zip": "12996-0212", "ntee": "A80", "ruling": "200503", "deductibility": "1", "assets": 0, "income": 0, "revenue": 0}, {"ein": "452551915", "name": "WILLSBORO-ESSEX EMS INC", "city": "ESSEX", "state": "NY", "zip": "12936-0055", "ntee": "E62", "ruling": "201609", "deductibility": "1", "assets": 554529, "income": 375431, "revenue": 375431}], "DRILLERS": [{"ein": "141586346", "name": "EMPIRE STATE WATER WELL DRILLERS ASSOCIATION INC", "city": "GOSHEN", "state": "NY", "zip": "10924-0000", "ntee": "", "ruling": "197703", "deductibility": "2", "assets": 454486, "income": 144240, "revenue": 144240}], "TENDERCARE": [{"ein": "141734545", "name": "TENDERCARE TOT CENTER INC", "city": "RAY BROOK", "state": "NY", "zip": "12977-0303", "ntee": "P33Z", "ruling": "199209", "deductibility": "1", "assets": 20124, "income": 266442, "revenue": 266442}], "TUSKEGEE": [{"ein": "141803183", "name": "TUSKEGEE AIRMEN INC", "city": "NEW WINDSOR", "state": "NY", "zip": "12553-8488", "ntee": "", "ruling": "198410", "deductibility": "0", "assets": 410033, "income": 106571, "revenue": 75485}, {"ein": "222716676", "name": "TUSKEGEE AIRMEN INC", "city": "NEW YORK", "state": "NY", "zip": "10037-1602", "ntee": "B20J", "ruling": "198410", "deductibility": "1", "assets": 0, "income": 0, "revenue": 0}, {"ein": "880835741", "name": "NEW YORK TUSKEGEE ALUMNI ASSOCIATION", "city": "CENTRAL ISLIP", "state": "NY", "zip": "11722-3844", "ntee": "B84", "ruling": "202506", "deductibility": "1", "assets": 0, "income": 0, "revenue": 0}], "GARTLAND": [{"ein": "146050628", "name": "JAMES J MCCANN TRUST UW C/0 JOHN J GARTLAND JR & WM J GARDNER", "city": "POUGHKEEPSIE", "state": "NY", "zip": "12601-3092", "ntee": "", "ruling": "196906", "deductibility": "1", "assets": 29447581, "income": 6206265, "revenue": 0}], "INTERSCHOLASTIC": [{"ein": "160811967", "name": "ERIE COUNTY INTERSCHOLASTIC CONFERENCE", "city": "WEST SENECA", "state": "NY", "zip": "14224-1825", "ntee": "B80", "ruling": "202006", "deductibility": "1", "assets": 108031, "income": 91606, "revenue": 91606}, {"ein": "461906423", "name": "NASSAU COUNTY INTERSCHOLASTIC MATHEMATICS LEAGUE", "city": "EAST SETAUKET", "state": "NY", "zip": "11733-0438", "ntee": "T23", "ruling": "202307", "deductibility": "1", "assets": 40236, "income": 49690, "revenue": 0}, {"ein": "832016120", "name": "INTERSCHOLASTIC ATHLETIC CONFERENCE INC", "city": "WHITNEY POINT", "state": "NY", "zip": "13862-1817", "ntee": "N60", "ruling": "201905", "deductibility": "1", "assets": 747574, "income": 1110936, "revenue": 1110936}], "SAXON": [{"ein": "160960711", "name": "SAXON INN INC", "city": "ALFRED", "state": "NY", "zip": "14802-1205", "ntee": "", "ruling": "197003", "deductibility": "2", "assets": 0, "income": 0, "revenue": 0}, {"ein": "271799881", "name": "WILLIAM SAXON JR FOUNDATION INC", "city": "NEW YORK", "state": "NY", "zip": "10027-6175", "ntee": "B90", "ruling": "201011", "deductibility": "1", "assets": 0, "income": 0, "revenue": 0}], "BLOODCARE": [{"ein": "160965865", "name": "WESTERN NEW YORK BLOODCARE INC", "city": "BUFFALO", "state": "NY", "zip": "14202-1449", "ntee": "E32", "ruling": "199604", "deductibility": "1", "assets": 30311803, "income": 37403612, "revenue": 37381010}, {"ein": "464703683", "name": "WESTERN NEW YORK BLOODCARE FOUNDATION INC", "city": "BUFFALO", "state": "NY", "zip": "14202-1449", "ntee": "E11", "ruling": "201410", "deductibility": "1", "assets": 30731210, "income": 14787911, "revenue": 14740914}], "RANDALLSVILLE": [{"ein": "161135841", "name": "RANDALLSVILLE BAPTIST CHURCH", "city": "RANDALLSVILLE", "state": "NY", "zip": "13346-0000", "ntee": "", "ruling": "195504", "deductibility": "1", "assets": 0, "income": 0, "revenue": 0}, {"ein": "222511892", "name": "RANDALLSVILLE NEW LIFE CHURCH", "city": "HAMILTON", "state": "NY", "zip": "13346-2622", "ntee": "", "ruling": "195504", "deductibility": "1", "assets": 0, "income": 0, "revenue": 0}], "OKWEHOWEH": [{"ein": "161416509", "name": "NETOHATINAWKE OKWEHOWEH INC", "city": "BUFFALO", "state": "NY", "zip": "14216-2202", "ntee": "Z99I", "ruling": "199306", "deductibility": "1", "assets": 0, "income": 0, "revenue": 0}], "BEATTY": [{"ein": "161447310", "name": "LOUIS E AND FRANCES BEATTY CHARITABLE FOUNDATION", "city": "NORWICH", "state": "NY", "zip": "13815-0000", "ntee": "", "ruling": "199401", "deductibility": "1", "assets": 1016063, "income": 102633, "revenue": 0}, {"ein": "821538627", "name": "ALISON COOK BEATTY DANCE INC", "city": "NEW YORK", "state": "NY", "zip": "10028-9622", "ntee": "A62", "ruling": "201802", "deductibility": "1", "assets": 3920, "income": 115525, "revenue": 115525}], "TIKVAT": [{"ein": "200793556", "name": "TIKVAT YISRAEL INCORPORATED", "city": "NEW YORK", "state": "NY", "zip": "10025-1513", "ntee": "X30", "ruling": "200601", "deductibility": "1", "assets": 0, "income": 0, "revenue": 0}, {"ein": "883105830", "name": "TIKVAT LIBEINU INC", "city": "NEW YORK", "state": "NY", "zip": "10002-1090", "ntee": "X30", "ruling": "202208", "deductibility": "1", "assets": 0, "income": 0, "revenue": 0}], "BAYREUTHER": [{"ein": "201382490", "name": "ERIC J BAYREUTHER MEMORIAL FOUNDATION", "city": "JAMAICA", "state": "NY", "zip": "11434-3405", "ntee": "T30", "ruling": "200411", "deductibility": "1", "assets": 0, "income": 0, "revenue": 0}], "MADEB": [{"ein": "201622434", "name": "MADEB FAMILY FOUNDATION", "city": "BROOKLYN", "state": "NY", "zip": "11223-4821", "ntee": "T22", "ruling": "200412", "deductibility": "1", "assets": 22566, "income": 172500, "revenue": 0}], "SUPPPORT": [{"ein": "201759302", "name": "WESTERN NEW YORK GLUTEN-FREE DIET SUPPPORT GROUP INC", "city": "WILLIAMSVILLE", "state": "NY", "zip": "14231-1835", "ntee": "E60", "ruling": "200501", "deductibility": "1", "assets": 0, "income": 0, "revenue": 0}, {"ein": "274061223", "name": "PARKINSONS DISEASE SUPPPORT GROUP OF THE MID-HUDSON VALLEY INC", "city": "LAGRANGEVILLE", "state": "NY", "zip": "12540-0304", "ntee": "E86", "ruling": "201102", "deductibility": "1", "assets": 0, "income": 0, "revenue": 0}], "MEDICS": [{"ein": "204209205", "name": "NYC MEDICS", "city": "NEW YORK", "state": "NY", "zip": "10036-0000", "ntee": "M99", "ruling": "200612", "deductibility": "1", "assets": 21654, "income": 42763, "revenue": 42763}, {"ein": "272482083", "name": "MEDICS ON A MISSION INC", "city": "NEW YORK", "state": "NY", "zip": "10011-0000", "ntee": "Q33", "ruling": "201102", "deductibility": "1", "assets": 0, "income": 0, "revenue": 0}], "SIREN": [{"ein": "204793848", "name": "SIREN-PROTECTORS OF THE RAINFOREST INC", "city": "BROOKLYN", "state": "NY", "zip": "11216-1311", "ntee": "A20", "ruling": "201712", "deductibility": "1", "assets": 2186, "income": 240987, "revenue": 240987}], "BUSINESSASSOCIATION": [{"ein": "204854777", "name": "DOWNTOWN NIAGARA FALLS BUSINESSASSOCIATION INC", "city": "NIAGARA FALLS", "state": "NY", "zip": "14303-1132", "ntee": "S30", "ruling": "200612", "deductibility": "1", "assets": 23985, "income": 9423, "revenue": 9423}], "OFPROPHECY": [{"ein": "204907170", "name": "SEA CLIFF SPANISH CHURCH OF GOD OFPROPHECY", "city": "SEA CLIFF", "state": "NY", "zip": "11579-1816", "ntee": "X21", "ruling": "201010", "deductibility": "1", "assets": 0, "income": 0, "revenue": 0}], "CANDI": [{"ein": "205299890", "name": "CANDI-CATS & DOGS INTERNATIONAL INC", "city": "BALLSTON SPA", "state": "NY", "zip": "12020-2121", "ntee": "D20", "ruling": "200802", "deductibility": "1", "assets": 0, "income": 0, "revenue": 0}, {"ein": "932575512", "name": "CANDI SPRINGS RESCUE", "city": "BURKE", "state": "NY", "zip": "12917-2104", "ntee": "D20", "ruling": "202312", "deductibility": "1", "assets": 0, "income": 0, "revenue": 0}], "HOUSINGINITIATIVE": [{"ein": "205692537", "name": "ST JOSEPH NEIGHBORHOOD HOUSINGINITIATIVE INC", "city": "BUFFALO", "state": "NY", "zip": "14214-1224", "ntee": "L25", "ruling": "200706", "deductibility": "1", "assets": 0, "income": 0, "revenue": 0}], "BRUMM": [{"ein": "206647122", "name": "BRUMM-PATEL CHARITABLE TRUST", "city": "NEW YORK", "state": "NY", "zip": "10010-5539", "ntee": "B82", "ruling": "200510", "deductibility": "1", "assets": 278878, "income": 193004, "revenue": 0}], "SATRIANO": [{"ein": "206952088", "name": "SUSAN SATRIANO MEMORIAL CHARITABLEFOUNDATION TRUST", "city": "OCEANSIDE", "state": "NY", "zip": "11572-2722", "ntee": "B82", "ruling": "201504", "deductibility": "1", "assets": 24051, "income": 46051, "revenue": 0}], "MERISON": [{"ein": "208076628", "name": "MERISON FAMILY FOUNDATION", "city": "PINE PLAINS", "state": "NY", "zip": "12567-6111", "ntee": "T20", "ruling": "200903", "deductibility": "1", "assets": 105321, "income": 95248, "revenue": 0}], "GIVEAWAY": [{"ein": "208423949", "name": "CNY FAMILY BICYCLE GIVEAWAY INC", "city": "LIVERPOOL", "state": "NY", "zip": "13090-1002", "ntee": "N99", "ruling": "201407", "deductibility": "1", "assets": 0, "income": 0, "revenue": 0}], "OFWESTERN": [{"ein": "208429321", "name": "AMERICAN REPERTORY THEATER OFWESTERN NEW YORK INC", "city": "AMHERST", "state": "NY", "zip": "14228-1012", "ntee": "A65", "ruling": "200705", "deductibility": "1", "assets": 0, "income": 0, "revenue": 0}], "MCKINNLY": [{"ein": "222186495", "name": "SHILOH BAPTIST CHURCH OF ROCHESTER NEW YORK C O REV MCKINNLY LUNDY", "city": "ROCHESTER", "state": "NY", "zip": "14605-2544", "ntee": "", "ruling": "197110", "deductibility": "1", "assets": 0, "income": 0, "revenue": 0}], "DOWNSVILLE": [{"ein": "222223486", "name": "DOWNSVILLE LIONS CLUB", "city": "DOWNSVILLE", "state": "NY", "zip": "13755-2213", "ntee": "", "ruling": "194603", "deductibility": "1", "assets": 0, "income": 0, "revenue": 0}], "BIRMAN": [{"ein": "222931324", "name": "NATIONAL BIRMAN FANCIERS NBF", "city": "CENTEREACH", "state": "NY", "zip": "11720-4030", "ntee": "", "ruling": "199007", "deductibility": "2", "assets": 54157, "income": 1479, "revenue": 1479}], "PRITCHARD": [{"ein": "223147319", "name": "GEORGE R PRITCHARD POST NO 2338 VETERANS OF FOREIGN WARS OF THE", "city": "WEST WINFIELD", "state": "NY", "zip": "13491-0474", "ntee": "W30", "ruling": "201409", "deductibility": "1", "assets": 0, "income": 0, "revenue": 0}], "WABO": [{"ein": "223805240", "name": "WABO INC", "city": "WEBSTER", "state": "NY", "zip": "14580-2551", "ntee": "N11", "ruling": "200107", "deductibility": "1", "assets": 95641, "income": 140157, "revenue": 44932}], "NACHAL": [{"ein": "237101064", "name": "NACHAL NOVEA MEKOR CHOCHMA", "city": "NEW YORK", "state": "NY", "zip": "10002-6628", "ntee": "", "ruling": "197103", "deductibility": "1", "assets": 0, "income": 0, "revenue": 0}, {"ein": "476425917", "name": "NACHAL NVEI FOUNDATION", "city": "BROOKLYN", "state": "NY", "zip": "11206-1710", "ntee": "T22", "ruling": "201502", "deductibility": "1", "assets": 1207343, "income": 25049, "revenue": 0}, {"ein": "842513637", "name": "NACHAL AVRAHAM", "city": "BROOKLYN", "state": "NY", "zip": "11219-3823", "ntee": "T30", "ruling": "202110", "deductibility": "1", "assets": 17326, "income": 147681, "revenue": 147681}], "DON": [{"ein": "237250667", "name": "DON MONTI MEMORIAL RESEARCH FOUNDATION", "city": "JERICHO", "state": "NY", "zip": "11753-1318", "ntee": "", "ruling": "197302", "deductibility": "1", "assets": 160253, "income": 536106, "revenue": 509606}, {"ein": "311470430", "name": "DON KING FOUNDATION INC", "city": "NEW YORK", "state": "NY", "zip": "10111-2497", "ntee": "T22Z", "ruling": "199608", "deductibility": "1", "assets": 4737, "income": 300, "revenue": 0}, {"ein": "450949250", "name": "DON SCOTT MEMORIAL FOUNDATION INC", "city": "MANHASSET", "state": "NY", "zip": "11030-6235", "ntee": "B82", "ruling": "201107", "deductibility": "1", "assets": 38439, "income": 4, "revenue": 4}, {"ein": "454059273", "name": "DON AND MAGGIE BUCHWALD FOUNDATION", "city": "NEW YORK", "state": "NY", "zip": "10018-0000", "ntee": "T20", "ruling": "201212", "deductibility": "1", "assets": 6516662, "income": 3421213, "revenue": 0}, {"ein": "460594429", "name": "DON LITZELMAN FOUNDATION", "city": "ROCHESTER", "state": "NY", "zip": "14606-5124", "ntee": "Z99", "ruling": "201406", "deductibility": "1", "assets": 0, "income": 0, "revenue": 0}, {"ein": "461046925", "name": "DON BOSCO WORKERS INC", "city": "PORT CHESTER", "state": "NY", "zip": "10573-0000", "ntee": "", "ruling": "194603", "deductibility": "1", "assets": 0, "income": 0, "revenue": 0}, {"ein": "461138563", "name": "DON DE SOI FOUNDATION", "city": "NEW YORK", "state": "NY", "zip": "10030-1365", "ntee": "P99", "ruling": "201609", "deductibility": "1", "assets": 0, "income": 0, "revenue": 0}, {"ein": "461810459", "name": "BAIS SHMUEL DON INC", "city": "BROOKLYN", "state": "NY", "zip": "11210-3752", "ntee": "X30", "ruling": "201406", "deductibility": "1", "assets": 0, "income": 0, "revenue": 0}, {"ein": "464807278", "name": "DON AND LINDA IHDE FAMILY FOUNDATION INC", "city": "NEW YORK", "state": "NY", "zip": "10075-0779", "ntee": "", "ruling": "201407", "deductibility": "1", "assets": 23522, "income": 14707, "revenue": 0}, {"ein": "473833551", "name": "DON H LIU SCHOLARS PROGRAM INC", "city": "NEW YORK", "state": "NY", "zip": "10166-0000", "ntee": "B82", "ruling": "201506", "deductibility": "1", "assets": 0, "income": 0, "revenue": 0}, {"ein": "822401570", "name": "DON BOSCO CHARITABLE FOUNDATION INC", "city": "MELVILLE", "state": "NY", "zip": "11747-0499", "ntee": "P99", "ruling": "201812", "deductibility": "1", "assets": 55, "income": 0, "revenue": 0}, {"ein": "833831721", "name": "DON T FEED THE BEAST INC", "city": "BROOKLYN", "state": "NY", "zip": "11226-3511", "ntee": "P20", "ruling": "202005", "deductibility": "1", "assets": 0, "income": 0, "revenue": 0}, {"ein": "854073491", "name": "ALLIANCE DES ANCIENS ELEVES DON DE DIRELAN DUMERLIN POUR LEDUCATION", "city": "SPRING VALLEY", "state": "NY", "zip": "10977-5048", "ntee": "B80", "ruling": "202102", "deductibility": "1", "assets": 0, "income": 0, "revenue": 0}, {"ein": "854243225", "name": "VETERAN DON MICHAELSEN CANCER FUND", "city": "GRANVILLE", "state": "NY", "zip": "12832-1121", "ntee": "G12", "ruling": "202208", "deductibility": "1", "assets": 0, "income": 0, "revenue": 0}, {"ein": "933079701", "name": "DON & TAY FOUNDATION INC", "city": "ALBANY", "state": "NY", "zip": "12207-2834", "ntee": "P12", "ruling": "202309", "deductibility": "1", "assets": 0, "income": 0, "revenue": 0}], "PROSTHODONTICS": [{"ein": "237349704", "name": "AMERICAN ACADEMY OF FIXED PROSTHODONTICS", "city": "ORCHARD PARK", "state": "NY", "zip": "14127-2617", "ntee": "", "ruling": "198508", "deductibility": "2", "assets": 1064359, "income": 997292, "revenue": 912547}], "ROUNDUP": [{"ein": "260005667", "name": "SALT CITY MID-WINTER ROUNDUP", "city": "MANLIUS", "state": "NY", "zip": "13104-0007", "ntee": "F22", "ruling": "200806", "deductibility": "1", "assets": 0, "income": 0, "revenue": 0}, {"ein": "331727315", "name": "HERE QUEER SOBER ROUNDUP", "city": "BEDFORD", "state": "NY", "zip": "10506-1005", "ntee": "P99", "ruling": "202411", "deductibility": "1", "assets": 0, "income": 0, "revenue": 0}], "BACHCOMPETITION": [{"ein": "260581307", "name": "TURECK INTERNATIONAL BACHCOMPETITION INC", "city": "NEW YORK", "state": "NY", "zip": "10023-3104", "ntee": "A68", "ruling": "200811", "deductibility": "1", "assets": 0, "income": 0, "revenue": 0}], "HMT": [{"ein": "261102256", "name": "HMT CHARITABLE FOUNDATION", "city": "BROOKLYN", "state": "NY", "zip": "11230-5106", "ntee": "T20", "ruling": "200811", "deductibility": "1", "assets": 369216, "income": 400000, "revenue": 0}], "HAMEIRI": [{"ein": "261604021", "name": "AMERICAN FRIENDS OF YESHIVAT HAMEIRI INC", "city": "FRESH MEADOWS", "state": "NY", "zip": "11366-1618", "ntee": "T22", "ruling": "201102", "deductibility": "1", "assets": 1, "income": 0, "revenue": 0}], "IMAMS": [{"ein": "262315935", "name": "COUNCIL OF AFRICAN IMAMS IN AMERICA INC", "city": "NEW YORK", "state": "NY", "zip": "10026-0000", "ntee": "X40", "ruling": "201002", "deductibility": "1", "assets": 0, "income": 0, "revenue": 0}], "REIA": [{"ein": "262761904", "name": "FREEDOM FIRST REIA LTD", "city": "WEBSTER", "state": "NY", "zip": "14580-1934", "ntee": "S41", "ruling": "200902", "deductibility": "2", "assets": 42317, "income": 85853, "revenue": 85853}], "MIDWEST": [{"ein": "263794774", "name": "WAAAUB-MIDWEST CHAPTER", "city": "NEW YORK", "state": "NY", "zip": "10017-2322", "ntee": "B84", "ruling": "201411", "deductibility": "1", "assets": 0, "income": 0, "revenue": 0}], "WALNUT": [{"ein": "264587444", "name": "WALNUT HOUSING CORP", "city": "WILLIAMSVILLE", "state": "NY", "zip": "14221-3230", "ntee": "", "ruling": "199401", "deductibility": "1", "assets": 0, "income": 0, "revenue": 0}, {"ein": "384042531", "name": "WALNUT GROVE CEMETERY ASSOCIATION", "city": "WAMPSVILLE", "state": "NY", "zip": "13163-0084", "ntee": "Y50", "ruling": "201803", "deductibility": "1", "assets": 0, "income": 0, "revenue": 0}, {"ein": "521982708", "name": "WALNUT AFFORDABLE HOUSING INC", "city": "NEW YORK", "state": "NY", "zip": "10168-0002", "ntee": "L80I", "ruling": "199608", "deductibility": "1", "assets": 1266667, "income": 66667, "revenue": 66667}], "COLAGIURI": [{"ein": "266359638", "name": "PATRICK M COLAGIURI COLLECTION", "city": "NEW YORK", "state": "NY", "zip": "10007-0000", "ntee": "T20", "ruling": "200809", "deductibility": "1", "assets": 424000, "income": 1, "revenue": 0}], "2GETHER": [{"ein": "270285299", "name": "2GETHER WII CAN INC", "city": "HOWARD BEACH", "state": "NY", "zip": "11414-2323", "ntee": "B60", "ruling": "200907", "deductibility": "1", "assets": 0, "income": 0, "revenue": 0}], "GUREVICH": [{"ein": "271231865", "name": "GUREVICH FAMILY FOUNDATION", "city": "BEACON", "state": "NY", "zip": "12508-0067", "ntee": "T21", "ruling": "201002", "deductibility": "1", "assets": 1243230, "income": 246258, "revenue": 0}], "GAFAR": [{"ein": "271974527", "name": "ISLAMIC COUNCIL OF NEW YORK MASJID AL GAFAR", "city": "BRONX", "state": "NY", "zip": "10472-3802", "ntee": "X40", "ruling": "201603", "deductibility": "1", "assets": 0, "income": 0, "revenue": 0}], "REVERSIBLE": [{"ein": "273097425", "name": "REVERSIBLE DESTINY FOUNDATION INC", "city": "BROOKLYN", "state": "NY", "zip": "11205-1072", "ntee": "V20", "ruling": "201103", "deductibility": "1", "assets": 5615534, "income": 6663492, "revenue": 0}], "CAS": [{"ein": "274199898", "name": "FRIENDS OF CAS INCORPORATED", "city": "NEW YORK", "state": "NY", "zip": "10025-7530", "ntee": "T30", "ruling": "201207", "deductibility": "1", "assets": 0, "income": 0, "revenue": 0}, {"ein": "454116886", "name": "CAS FAMILY FOUNDATION", "city": "BROOKLYN", "state": "NY", "zip": "11204-0000", "ntee": "T22", "ruling": "201209", "deductibility": "1", "assets": 2271, "income": 1, "revenue": 0}], "ACHIEZER": [{"ein": "274592919", "name": "ACHIEZER COMMUNITY RESOURCE CENTER INC", "city": "LAWRENCE", "state": "NY", "zip": "11559-1668", "ntee": "P40", "ruling": "201206", "deductibility": "1", "assets": 1550891, "income": 2834302, "revenue": 2834302}, {"ein": "841997377", "name": "CONG ACHIEZER KY", "city": "MONROE", "state": "NY", "zip": "10950-6047", "ntee": "X30", "ruling": "202004", "deductibility": "1", "assets": 0, "income": 0, "revenue": 0}], "NZK": [{"ein": "300152932", "name": "NZK CHARITABLE FOUNDATION INC", "city": "W HEMPSTEAD", "state": "NY", "zip": "11552-3234", "ntee": "E20", "ruling": "200306", "deductibility": "1", "assets": 0, "income": 0, "revenue": 0}], "PETRAPLACE": [{"ein": "300456737", "name": "PETRAPLACE INC", "city": "ROCHESTER", "state": "NY", "zip": "14612-6203", "ntee": "F60", "ruling": "200901", "deductibility": "1", "assets": 0, "income": 0, "revenue": 0}], "CAPA": [{"ein": "301031703", "name": "CARIBBEAN AMERICAN POETRY ASSOCIATION CAPA", "city": "HUNTINGTN STA", "state": "NY", "zip": "11746-0266", "ntee": "A20", "ruling": "202404", "deductibility": "1", "assets": 0, "income": 0, "revenue": 0}, {"ein": "871260200", "name": "CAPA SPACE INC", "city": "YORKTOWN HTS", "state": "NY", "zip": "10598-3918", "ntee": "", "ruling": "202105", "deductibility": "1", "assets": 111654, "income": 64668, "revenue": 64668}], "TRY": [{"ein": "311629033", "name": "TRY JESUS INC", "city": "BUFFALO", "state": "NY", "zip": "14210-1238", "ntee": "X20", "ruling": "199911", "deductibility": "1", "assets": 0, "income": 0, "revenue": 0}], "WORKFIRST": [{"ein": "320161008", "name": "WORKFIRST FOUNDATION", "city": "NEW YORK", "state": "NY", "zip": "10017-3333", "ntee": "J22", "ruling": "200610", "deductibility": "1", "assets": 201815, "income": 528240, "revenue": 528240}], "SYDROME": [{"ein": "331054617", "name": "DOWN SYDROME ADVOCACY FOUNDATION", "city": "HAUPPAUGE", "state": "NY", "zip": "11788-0848", "ntee": "P82", "ruling": "200310", "deductibility": "1", "assets": 49556, "income": 63716, "revenue": 44353}], "TASED": [{"ein": "331261457", "name": "TASED INC", "city": "RONKONKOMA", "state": "NY", "zip": "11779-3548", "ntee": "L11", "ruling": "202502", "deductibility": "1", "assets": 0, "income": 0, "revenue": 0}], "FEMINEM": [{"ein": "332429725", "name": "FEMINEM FOUNDATION", "city": "SCARSDALE", "state": "NY", "zip": "10583-2929", "ntee": "E01", "ruling": "202505", "deductibility": "1", "assets": 0, "income": 0, "revenue": 0}], "RICO": [{"ein": "332471454", "name": "FRIENDS OF PUERTO RICO IMPACT INC", "city": "NEW YORK", "state": "NY", "zip": "10003-0000", "ntee": "R01", "ruling": "202501", "deductibility": "1", "assets": 0, "income": 0, "revenue": 0}, {"ein": "464966129", "name": "ACACIA PUERTO RICO INC", "city": "BRONX", "state": "NY", "zip": "10457-5833", "ntee": "L21", "ruling": "201411", "deductibility": "1", "assets": 421342, "income": 460398, "revenue": 0}, {"ein": "660860800", "name": "PUERTO RICO LACROSSE", "city": "N BELLMORE", "state": "NY", "zip": "11710-2311", "ntee": "N99", "ruling": "202406", "deductibility": "1", "assets": 63580, "income": 217376, "revenue": 217376}, {"ein": "660861498", "name": "MUSEO DE LA INDUMENTARIA DE PUERTO RICO MINDU-MINDUPR", "city": "REGO PARK", "state": "NY", "zip": "11374-1575", "ntee": "A51", "ruling": "201808", "deductibility": "1", "assets": 0, "income": 0, "revenue": 0}, {"ein": "660947566", "name": "ARCHIVO COMUNITARIO LGBTQ DE PUERTO RICO", "city": "NEW YORK", "state": "NY", "zip": "10035-2771", "ntee": "A80", "ruling": "202007", "deductibility": "1", "assets": 0, "income": 0, "revenue": 0}, {"ein": "810600701", "name": "A R E RICO MEMORIAL FOUNDATION", "city": "CTR MORICHES", "state": "NY", "zip": "11934-2411", "ntee": "T30", "ruling": "200309", "deductibility": "1", "assets": 63646, "income": 106628, "revenue": 78020}, {"ein": "822853993", "name": "AYUDA PUERTO RICO INC", "city": "BRONX", "state": "NY", "zip": "10457-5833", "ntee": "M20", "ruling": "201711", "deductibility": "1", "assets": 0, "income": 0, "revenue": 0}, {"ein": "824274470", "name": "DIASPORA FOR PUERTO RICO INC", "city": "BRONX", "state": "NY", "zip": "10469-3219", "ntee": "W99", "ruling": "201803", "deductibility": "1", "assets": 0, "income": 0, "revenue": 0}, {"ein": "830588897", "name": "HELPING HANDS FOR PUERTO RICO INC", "city": "CAMPBELL HALL", "state": "NY", "zip": "10916-2610", "ntee": "T50", "ruling": "201809", "deductibility": "1", "assets": 0, "income": 0, "revenue": 0}, {"ein": "843868036", "name": "PUERTO RICO ENVIRONMENTAL ACTION LAB INC", "city": "BROOKLYN", "state": "NY", "zip": "11230-3118", "ntee": "C60", "ruling": "202408", "deductibility": "1", "assets": 0, "income": 0, "revenue": 0}, {"ein": "932063358", "name": "POWER 4 PUERTO RICO EDUCATION INC", "city": "NEW YORK", "state": "NY", "zip": "10029-4214", "ntee": "P12", "ruling": "202307", "deductibility": "1", "assets": 0, "income": 0, "revenue": 0}], "UGO": [{"ein": "334453039", "name": "DALINGTON UGO IMPACT FOUNDATION CORPORATION", "city": "FAR ROCKAWAY", "state": "NY", "zip": "11691-2417", "ntee": "P12", "ruling": "202506", "deductibility": "1", "assets": 0, "income": 0, "revenue": 0}, {"ein": "842586288", "name": "UGO RONDINONE FOUNDATION", "city": "NEW YORK", "state": "NY", "zip": "10035-1513", "ntee": "T20", "ruling": "201910", "deductibility": "1", "assets": 10358, "income": 1, "revenue": 0}], "STRAPHANGER": [{"ein": "334593242", "name": "STRAPHANGER THEATER LIMITED", "city": "MALVERNE", "state": "NY", "zip": "11565-1135", "ntee": "A65", "ruling": "202506", "deductibility": "1", "assets": 0, "income": 0, "revenue": 0}], "FANCY": [{"ein": "371784834", "name": "DEVONS FANCY AMAGANSETT INC", "city": "AMAGANSETT", "state": "NY", "zip": "11930-0726", "ntee": "S47", "ruling": "201608", "deductibility": "2", "assets": 0, "income": 0, "revenue": 0}, {"ein": "833960277", "name": "FANCY FRENZ JAMAICA INC", "city": "BALDWIN", "state": "NY", "zip": "11510-4112", "ntee": "P99", "ruling": "201907", "deductibility": "1", "assets": 0, "income": 0, "revenue": 0}], "JIMMYS": [{"ein": "384092198", "name": "JIMMYS HELPING HANDS INC", "city": "WALDEN", "state": "NY", "zip": "12586-2902", "ntee": "T30", "ruling": "201902", "deductibility": "1", "assets": 0, "income": 0, "revenue": 0}], "NCOIL": [{"ein": "391872308", "name": "INDUSTRY EDUCATION COUNCIL TO NCOIL INC", "city": "ALBANY", "state": "NY", "zip": "12208-0856", "ntee": "", "ruling": "199711", "deductibility": "2", "assets": 174012, "income": 88112, "revenue": 88112}], "DEIERLEIN": [{"ein": "412255430", "name": "TOM DEIERLEIN FOUNDATION INC", "city": "GARDEN CITY", "state": "NY", "zip": "11530-3103", "ntee": "Q30", "ruling": "200903", "deductibility": "1", "assets": 81477, "income": 476143, "revenue": 317718}], "ROSENQUIST": [{"ein": "452483492", "name": "JAMES ROSENQUIST FOUNDATION INC", "city": "WOODBURY", "state": "NY", "zip": "11797-2018", "ntee": "T23", "ruling": "201107", "deductibility": "1", "assets": 690451, "income": 136480, "revenue": 0}], "MEDINOVA": [{"ein": "454181200", "name": "MEDINOVA NY INC", "city": "BROOKLYN", "state": "NY", "zip": "11232-0000", "ntee": "Q30", "ruling": "201403", "deductibility": "1", "assets": 471184, "income": 146886, "revenue": 146886}], "PERSICO": [{"ein": "463299080", "name": "JOSH PERSICO MEMORIAL GOLF FUND INCORPORATED", "city": "SAUGERTIES", "state": "NY", "zip": "12477-0795", "ntee": "N6A", "ruling": "202208", "deductibility": "1", "assets": 0, "income": 0, "revenue": 0}], "CHARLEIGH": [{"ein": "463376803", "name": "CHARLEIGH CHARITABLE TRUST", "city": "MINEOLA", "state": "NY", "zip": "11501-4240", "ntee": "T22", "ruling": "201407", "deductibility": "1", "assets": 330137, "income": 1600812, "revenue": 0}], "SHTEINMAN": [{"ein": "464160517", "name": "AMERICAN FRIENDS OF ORCHOT TORAH DRAV SHTEINMAN INC", "city": "BROOKLYN", "state": "NY", "zip": "11204-1228", "ntee": "T11", "ruling": "201409", "deductibility": "1", "assets": 38780, "income": 3502820, "revenue": 3502820}], "VBONOS": [{"ein": "464312961", "name": "ZICHRON BONIM VBONOS FOUNDATION", "city": "BROOKLYN", "state": "NY", "zip": "11204-1050", "ntee": "T22", "ruling": "201409", "deductibility": "1", "assets": 4205070, "income": 754564, "revenue": 0}], "IMPACCT": [{"ein": "474063003", "name": "IMPACCT HOUSING DEVELOPMENT FUND CORPORATION", "city": "BROOKLYN", "state": "NY", "zip": "11238-3386", "ntee": "L20", "ruling": "201507", "deductibility": "2", "assets": 6296505, "income": 0, "revenue": 0}], "RENFIELD": [{"ein": "510156925", "name": "BEATRICE RENFIELD FOUNDATION", "city": "NEW YORK", "state": "NY", "zip": "10128-1311", "ntee": "", "ruling": "197601", "deductibility": "1", "assets": 11924940, "income": 4636872, "revenue": 0}], "PAULON": [{"ein": "522277543", "name": "DOMENICO PAULON FOUNDATION", "city": "BRONX", "state": "NY", "zip": "10471-1898", "ntee": "T22", "ruling": "200101", "deductibility": "1", "assets": 1169567, "income": 56304, "revenue": 0}], "BIOCITIES": [{"ein": "800760763", "name": "BIOCITIES INC", "city": "NEW YORK", "state": "NY", "zip": "10002-2864", "ntee": "C02", "ruling": "201405", "deductibility": "1", "assets": 0, "income": 0, "revenue": 0}], "CARNER": [{"ein": "800818318", "name": "CARNER ETMAN SMITH POST 6340 VFW OF THE", "city": "GRAFTON", "state": "NY", "zip": "12082-0361", "ntee": "W30", "ruling": "202311", "deductibility": "1", "assets": 0, "income": 0, "revenue": 0}, {"ein": "854308424", "name": "CARNER FAMILY TRUST", "city": "EAST AURORA", "state": "NY", "zip": "14052-9516", "ntee": "T22", "ruling": "202109", "deductibility": "1", "assets": 7219582, "income": 1773826, "revenue": 0}], "QFT": [{"ein": "810823143", "name": "QFT WORSHIP CENTER CORP", "city": "FLUSHING", "state": "NY", "zip": "11355-2445", "ntee": "X50", "ruling": "201807", "deductibility": "1", "assets": 0, "income": 0, "revenue": 0}], "PRIZMAH": [{"ein": "811750864", "name": "PRIZMAH CENTER FOR JEWISH DAY SCHOOLS INC", "city": "NEW YORK", "state": "NY", "zip": "10004-1015", "ntee": "B99", "ruling": "201608", "deductibility": "1", "assets": 4159500, "income": 7206243, "revenue": 7206243}], "CSGF": [{"ein": "812336296", "name": "CSGF ALUMNI ASSOCIATION INC", "city": "CORAM", "state": "NY", "zip": "11727-5162", "ntee": "S41", "ruling": "201607", "deductibility": "2", "assets": 0, "income": 0, "revenue": 0}], "NUBUWWAT": [{"ein": "813396710", "name": "MASJID KHATM E NUBUWWAT INC", "city": "BROOKLYN", "state": "NY", "zip": "11219-5308", "ntee": "X40", "ruling": "201608", "deductibility": "1", "assets": 0, "income": 0, "revenue": 0}], "NK": [{"ein": "813929625", "name": "NK FOUNDATION", "city": "BROOKLYN", "state": "NY", "zip": "11205-1567", "ntee": "T20", "ruling": "201705", "deductibility": "1", "assets": 72872, "income": 8823, "revenue": 0}], "NAMATH": [{"ein": "813941360", "name": "JOE NAMATH CHARITABLE FOUNDATION", "city": "NEW YORK", "state": "NY", "zip": "10022-7810", "ntee": "T20", "ruling": "201709", "deductibility": "1", "assets": 2601814, "income": 2230399, "revenue": 0}], "SHLICHUS": [{"ein": "820803817", "name": "ISRAEL SHLICHUS PROGRAM INC", "city": "BROOKLYN", "state": "NY", "zip": "11203-1210", "ntee": "X30", "ruling": "201703", "deductibility": "1", "assets": 0, "income": 0, "revenue": 0}, {"ein": "823865388", "name": "CONGREGATION LAMPLIGHTERS SHLICHUS CENTER", "city": "BROOKLYN", "state": "NY", "zip": "11213-3452", "ntee": "X30", "ruling": "201805", "deductibility": "1", "assets": 0, "income": 0, "revenue": 0}], "JUSTE": [{"ein": "821154265", "name": "MARIE R PAUL ST-JUSTE FOUNDATION INC", "city": "SAINT ALBANS", "state": "NY", "zip": "11412-2618", "ntee": "T12", "ruling": "201803", "deductibility": "1", "assets": 0, "income": 0, "revenue": 0}, {"ein": "852485131", "name": "JUSTE DESERTS", "city": "WOODSIDE", "state": "NY", "zip": "11377-3633", "ntee": "B30", "ruling": "202412", "deductibility": "1", "assets": 0, "income": 0, "revenue": 0}], "TRASNACIONALES": [{"ein": "822237105", "name": "TRANSNATIONAL VILLAGES NETWORK- REDDE PUEBLOS TRASNACIONALES", "city": "NEW YORK", "state": "NY", "zip": "10035-3624", "ntee": "P99", "ruling": "202506", "deductibility": "1", "assets": 1, "income": 0, "revenue": 0}], "JAMA": [{"ein": "822421800", "name": "MASJID AL JAMA", "city": "OZONE PARK", "state": "NY", "zip": "11416-1728", "ntee": "X40", "ruling": "201803", "deductibility": "1", "assets": 0, "income": 0, "revenue": 0}], "SHARQUI": [{"ein": "825397282", "name": "SISTERS IN SHARQUI", "city": "NEW YORK", "state": "NY", "zip": "10040-2311", "ntee": "A62", "ruling": "202109", "deductibility": "1", "assets": 0, "income": 0, "revenue": 0}], "YESHARA": [{"ein": "830772886", "name": "KEHILAT DERECH YESHARA INC", "city": "BROOKLYN", "state": "NY", "zip": "11229-3505", "ntee": "X30", "ruling": "202107", "deductibility": "1", "assets": 21822, "income": 80443, "revenue": 80443}], "JAMIL": [{"ein": "831944715", "name": "JAMIL FOUNDATION FOR CHILDREN & YOUTH CORP", "city": "WOODSIDE", "state": "NY", "zip": "11377-5730", "ntee": "B90", "ruling": "202104", "deductibility": "1", "assets": 5437, "income": 149489, "revenue": 149489}], "MOLESKINE": [{"ein": "833156749", "name": "MOLESKINE FOUNDATION INC", "city": "NEW YORK", "state": "NY", "zip": "10011-5024", "ntee": "A25", "ruling": "201910", "deductibility": "1", "assets": 189841, "income": 378027, "revenue": 378027}], "LESLIN": [{"ein": "833210412", "name": "LESLIN HEALTHCARE LEADERSHIP FOUNDATION INC", "city": "BRONX", "state": "NY", "zip": "10469-6102", "ntee": "B90", "ruling": "201906", "deductibility": "1", "assets": 1409, "income": 7000, "revenue": 7000}], "REIMAGINATION": [{"ein": "834012097", "name": "REIMAGINATION LAB INC", "city": "BROOKLYN", "state": "NY", "zip": "11217-5146", "ntee": "A02", "ruling": "202201", "deductibility": "1", "assets": 222403, "income": 1156872, "revenue": 1156872}], "FARRELLY": [{"ein": "834219618", "name": "NOAH FARRELLY MEMORIAL FUND LTD", "city": "BINGHAMTON", "state": "NY", "zip": "13903-1555", "ntee": "B12", "ruling": "202002", "deductibility": "1", "assets": 77243, "income": 74577, "revenue": 74577}], "PAWSITIVELY": [{"ein": "834384444", "name": "PAWSITIVELY CUTE PET RESCUE INC", "city": "ROCHESTER", "state": "NY", "zip": "14623-5128", "ntee": "D20", "ruling": "201905", "deductibility": "1", "assets": 0, "income": 0, "revenue": 0}], "GETZEL": [{"ein": "834701159", "name": "KHAL ZICHRON CHANINA GETZEL", "city": "POMONA", "state": "NY", "zip": "10970-3607", "ntee": "X30", "ruling": "202108", "deductibility": "1", "assets": 0, "income": 0, "revenue": 0}], "CORNERSTOME": [{"ein": "842826579", "name": "TABERNACLE OF THE CORNERSTOME", "city": "JOHNSON CITY", "state": "NY", "zip": "13790-1935", "ntee": "X20", "ruling": "202202", "deductibility": "1", "assets": 0, "income": 0, "revenue": 0}], "ZURICH": [{"ein": "843180130", "name": "ETH ZURICH FOUNDATION USA INC", "city": "NEW YORK", "state": "NY", "zip": "10005-3701", "ntee": "U12", "ruling": "202007", "deductibility": "1", "assets": 1603154, "income": 1579724, "revenue": 1579724}], "SYLLABUS": [{"ein": "843255967", "name": "OPEN SYLLABUS INC", "city": "NEW YORK", "state": "NY", "zip": "10025-5300", "ntee": "B02", "ruling": "202008", "deductibility": "1", "assets": 1243335, "income": 832431, "revenue": 832431}], "COWORKING": [{"ein": "843577618", "name": "PURPOSE COWORKING INC", "city": "PHILMONT", "state": "NY", "zip": "12565-0546", "ntee": "S20", "ruling": "202006", "deductibility": "1", "assets": 0, "income": 0, "revenue": 0}], "JPATIBLE": [{"ein": "843846408", "name": "JPATIBLE INC", "city": "BROOKLYN", "state": "NY", "zip": "11229-0000", "ntee": "E60", "ruling": "202003", "deductibility": "1", "assets": 15200, "income": 154080, "revenue": 154080}], "DIVERSIFY": [{"ein": "843902258", "name": "DIVERSIFY STEM CONFERENCES INCORPORATED", "city": "NEW YORK", "state": "NY", "zip": "10002-4545", "ntee": "W01", "ruling": "202002", "deductibility": "1", "assets": 0, "income": 0, "revenue": 0}, {"ein": "880964865", "name": "DIVERSIFY SOCIAL MEDIA INC", "city": "BROOKLYN", "state": "NY", "zip": "11220-4903", "ntee": "B60", "ruling": "202203", "deductibility": "1", "assets": 0, "income": 0, "revenue": 0}], "LUCA": [{"ein": "844284191", "name": "LUCA S CALANNI FOUNDATION", "city": "HAMBURG", "state": "NY", "zip": "14075-0614", "ntee": "T30", "ruling": "202005", "deductibility": "1", "assets": 0, "income": 0, "revenue": 0}, {"ein": "853477070", "name": "LUCA GARGIULO PEARSON FOUNDATION INC", "city": "WEST ISLIP", "state": "NY", "zip": "11795-5011", "ntee": "H20", "ruling": "202101", "deductibility": "1", "assets": 0, "income": 0, "revenue": 0}], "SALEMS": [{"ein": "844339195", "name": "SALEMS OUTREACH CENTER INC", "city": "BROOKLYN", "state": "NY", "zip": "11226-3911", "ntee": "O20", "ruling": "202502", "deductibility": "1", "assets": 0, "income": 0, "revenue": 0}, {"ein": "844991280", "name": "SALEMS COMMUNITY CATS", "city": "QUEENSBURY", "state": "NY", "zip": "12804-8027", "ntee": "D20", "ruling": "202005", "deductibility": "1", "assets": 0, "income": 0, "revenue": 0}], "ZANZIPER": [{"ein": "846780254", "name": "NAFTALI AND NATALIE ZANZIPER FOUNDATION", "city": "BROOKLYN", "state": "NY", "zip": "11210-5226", "ntee": "T22", "ruling": "202107", "deductibility": "1", "assets": 99149, "income": 2116000, "revenue": 0}], "GENUINE": [{"ein": "850522274", "name": "GENUINE GEMS INCORPORATED", "city": "BROOKLYN", "state": "NY", "zip": "11212-5627", "ntee": "", "ruling": "202404", "deductibility": "1", "assets": 0, "income": 0, "revenue": 0}], "BRIGLE": [{"ein": "852228739", "name": "BRIGLE FOUNDATION TRUST", "city": "MONROE", "state": "NY", "zip": "10950-2980", "ntee": "T20", "ruling": "202012", "deductibility": "1", "assets": 724522, "income": 589529, "revenue": 0}], "PWR4": [{"ein": "852717572", "name": "PWR4 INC", "city": "POUGHKEEPSIE", "state": "NY", "zip": "12603-1742", "ntee": "P20", "ruling": "202010", "deductibility": "1", "assets": 34423, "income": 13000, "revenue": 13000}], "TOSIN": [{"ein": "853005626", "name": "TOSIN OJEYEMI FOUNDATION", "city": "CENTRAL ISLIP", "state": "NY", "zip": "11722-3546", "ntee": "F03", "ruling": "202011", "deductibility": "1", "assets": 0, "income": 0, "revenue": 0}], "FRIMET": [{"ein": "853460532", "name": "ALTE FRIMET INC", "city": "BROOKLYN", "state": "NY", "zip": "11206-5060", "ntee": "X30", "ruling": "202104", "deductibility": "1", "assets": 0, "income": 0, "revenue": 0}], "EQUILIBRIO": [{"ein": "862383924", "name": "EQUILIBRIO HEALTH & WELLNESS FOUNDATION", "city": "NEW YORK", "state": "NY", "zip": "10033-3506", "ntee": "B90", "ruling": "202202", "deductibility": "1", "assets": 0, "income": 0, "revenue": 0}, {"ein": "882060059", "name": "EQUILIBRIO PROJECT INC", "city": "WANTAGH", "state": "NY", "zip": "11793-4146", "ntee": "O99", "ruling": "202205", "deductibility": "1", "assets": 291, "income": 1325, "revenue": 1325}], "BERKOVIC": [{"ein": "874185204", "name": "JOEL & MIRIAM BERKOVIC FOUNDATION", "city": "BROOKLYN", "state": "NY", "zip": "11204-2303", "ntee": "T20", "ruling": "202208", "deductibility": "1", "assets": 419120, "income": 101864, "revenue": 0}], "SOLOVEY": [{"ein": "874778221", "name": "SOLOVEY FAMILY FOUNDATION INC", "city": "MELVILLE", "state": "NY", "zip": "11747-2731", "ntee": "P20", "ruling": "202301", "deductibility": "1", "assets": 641483, "income": 1000000, "revenue": 0}], "FALCOES": [{"ein": "880617971", "name": "GERANDO FALCOES INTERNATIONAL INC", "city": "NEW YORK", "state": "NY", "zip": "10036-4277", "ntee": "Q11", "ruling": "202305", "deductibility": "1", "assets": 501017, "income": 673152, "revenue": 531405}], "DOOR3": [{"ein": "881178119", "name": "DOOR3 QUALIFIED DISASTER RELIEF FUND", "city": "NEW YORK", "state": "NY", "zip": "10003-1502", "ntee": "P20", "ruling": "202203", "deductibility": "1", "assets": 10928, "income": 103, "revenue": 0}], "MEKOIR": [{"ein": "881380936", "name": "YESHIVAS MEKOIR CHAIM", "city": "MONSEY", "state": "NY", "zip": "10952-2922", "ntee": "X30", "ruling": "202404", "deductibility": "1", "assets": 0, "income": 0, "revenue": 0}], "SARABANDE": [{"ein": "881472256", "name": "AMERICAN FRIENDS OF SARABANDE INC", "city": "BROOKLYN", "state": "NY", "zip": "11237-2327", "ntee": "A99", "ruling": "202305", "deductibility": "1", "assets": 22984, "income": 41434, "revenue": 41434}], "UTTARA": [{"ein": "882028471", "name": "NORTH AMERICAN UTTARA KARNATAKA ASSOCIATION", "city": "SYOSSET", "state": "NY", "zip": "11791-4920", "ntee": "A23", "ruling": "202205", "deductibility": "1", "assets": 0, "income": 0, "revenue": 0}], "ABEDA": [{"ein": "882944619", "name": "ABEDA CARES INC", "city": "HOLLIS", "state": "NY", "zip": "11423-1106", "ntee": "F60", "ruling": "202208", "deductibility": "1", "assets": 0, "income": 0, "revenue": 0}], "SHERSHAHI": [{"ein": "883283652", "name": "HAIDERI QADRI QALANDARI CHISHTI BALANOSHI SHERSHAHI CORPORATION", "city": "JAMAICA", "state": "NY", "zip": "11436-1105", "ntee": "T30", "ruling": "202208", "deductibility": "1", "assets": 1, "income": 1, "revenue": 1}], "NAFTULA": [{"ein": "920362464", "name": "CONG SHAAR NAFTULA", "city": "MONROE", "state": "NY", "zip": "10950-2316", "ntee": "X30", "ruling": "202301", "deductibility": "1", "assets": 0, "income": 0, "revenue": 0}], "BIOSCIENCES": [{"ein": "920593344", "name": "BIOSCIENCES LEBANESE INTERNATIONAL NETWORK INC", "city": "NEW YORK", "state": "NY", "zip": "10005-1993", "ntee": "P20", "ruling": "202210", "deductibility": "1", "assets": 133002, "income": 137363, "revenue": 137363}], "LZEH": [{"ein": "920989380", "name": "CONGREGATION ZEH LZEH", "city": "MONSEY", "state": "NY", "zip": "10952-8131", "ntee": "X30", "ruling": "202304", "deductibility": "1", "assets": 0, "income": 0, "revenue": 0}], "MAFRIKA": [{"ein": "933052404", "name": "MAFRIKA MUSIC SOCIETY INC", "city": "BRONX", "state": "NY", "zip": "10460-5904", "ntee": "A68", "ruling": "202310", "deductibility": "1", "assets": 0, "income": 0, "revenue": 0}], "HARLEMPLUS": [{"ein": "933312933", "name": "HARLEMPLUS INC", "city": "NEW YORK", "state": "NY", "zip": "10027-4569", "ntee": "P99", "ruling": "202405", "deductibility": "1", "assets": 0, "income": 0, "revenue": 0}], "BMB": [{"ein": "933538854", "name": "BMB PARENT ASSOCIATION INC", "city": "N BELLMORE", "state": "NY", "zip": "11710-3029", "ntee": "B94", "ruling": "202404", "deductibility": "1", "assets": 0, "income": 0, "revenue": 0}], "RIGERMAN": [{"ein": "933981396", "name": "RIGERMAN FOUNDATION", "city": "BROOKLYN", "state": "NY", "zip": "11202-1041", "ntee": "T20", "ruling": "202407", "deductibility": "1", "assets": 25000, "income": 275000, "revenue": 0}], "QUEERLY": [{"ein": "991953024", "name": "QUEERLY", "city": "NEW YORK", "state": "NY", "zip": "10023-6555", "ntee": "S99", "ruling": "202405", "deductibility": "1", "assets": 0, "income": 0, "revenue": 0}], "FARIDI": [{"ein": "994514815", "name": "UMAR & FARIDI FOUNDATION INC", "city": "N BELLMORE", "state": "NY", "zip": "11710-2865", "ntee": "B12", "ruling": "202501", "deductibility": "1", "assets": 32000, "income": 32000, "revenue": 0}], "KRISTOFER": [{"ein": "994817064", "name": "ALEXANDER KRISTOFER GRIFFIN FOUNDATION", "city": "JAMAICA", "state": "NY", "zip": "11434-5928", "ntee": "O99", "ruling": "202504", "deductibility": "1", "assets": 0, "income": 0, "revenue": 0}]}