{"SORORITY": [{"ein": "010875342", "name": "KAPPA DELTA SORORITY", "city": "NEW YORK", "state": "NY", "zip": "10038-1508", "ntee": "", "ruling": "197003", "deductibility": "2", "assets": 20721, "income": 50228, "revenue": 48655}, {"ein": "061557955", "name": "GAMMA PHI BETA SORORITY", "city": "QUEENS", "state": "NY", "zip": "11439-9000", "ntee": "", "ruling": "194011", "deductibility": "0", "assets": 85111, "income": 60909, "revenue": 60909}, {"ein": "112501517", "name": "NATL SORORITY PHI DLTA KPPA BTA OMC RN CHPT BIG SISTER ED ACTN SRV CT", "city": "JAMAICA", "state": "NY", "zip": "11434-2236", "ntee": "B83Z", "ruling": "202312", "deductibility": "1", "assets": 0, "income": 29426, "revenue": 29426}, {"ein": "112962685", "name": "NU PHI ZETA CHAPTER OF ZETA PHI BETA SORORITY", "city": "SMITHTOWN", "state": "NY", "zip": "11787-0205", "ntee": "", "ruling": "202103", "deductibility": "2", "assets": 0, "income": 0, "revenue": 0}, {"ein": "113082295", "name": "SIGMA GAMMA RHO SORORITY INC", "city": "BROOKLYN", "state": "NY", "zip": "11201-5301", "ntee": "", "ruling": "198201", "deductibility": "2", "assets": 0, "income": 0, "revenue": 0}, {"ein": "113121744", "name": "DELTA SIGMA THETA SORORITY INC", "city": "MEDFORD", "state": "NY", "zip": "11763-1528", "ntee": "", "ruling": "195207", "deductibility": "0", "assets": 0, "income": 0, "revenue": 0}, {"ein": "113601948", "name": "DELTA SIGMA THETA SORORITY INC", "city": "WESTBURY", "state": "NY", "zip": "11590-2344", "ntee": "", "ruling": "195207", "deductibility": "2", "assets": 0, "income": 0, "revenue": 0}, {"ein": "116080500", "name": "ZETA PHI BETA SORORITY INC", "city": "JAMAICA", "state": "NY", "zip": "11434-0848", "ntee": "", "ruling": "196612", "deductibility": "2", "assets": 0, "income": 0, "revenue": 0}, {"ein": "116111169", "name": "DELTA SIGMA THETA SORORITY INC", "city": "GARDEN CITY", "state": "NY", "zip": "11530-0021", "ntee": "", "ruling": "195207", "deductibility": "2", "assets": 0, "income": 0, "revenue": 0}, {"ein": "133090172", "name": "ZETA DELTA PHI SORORITY INC", "city": "ARVERNE", "state": "NY", "zip": "11692-2001", "ntee": "W01", "ruling": "201507", "deductibility": "1", "assets": 0, "income": 0, "revenue": 0}, {"ein": "133617856", "name": "SIGMA GAMMA RHO SORORITY INC", "city": "BROOKLYN", "state": "NY", "zip": "11212-4522", "ntee": "", "ruling": "196707", "deductibility": "2", "assets": 0, "income": 0, "revenue": 0}, {"ein": "133813250", "name": "SIGMA LAMBDA UPSILON SENORITAS LATINAS UNIDAS SORORITY INC", "city": "NEW YORK", "state": "NY", "zip": "10163-3842", "ntee": "B83", "ruling": "201906", "deductibility": "2", "assets": 242335, "income": 85885, "revenue": 85885}, {"ein": "133875643", "name": "DELTA SIGMA THETA SORORITY INC", "city": "STATEN ISLAND", "state": "NY", "zip": "10304-0514", "ntee": "", "ruling": "195207", "deductibility": "2", "assets": 0, "income": 0, "revenue": 0}, {"ein": "134013158", "name": "ZETA PHI BETA SORORITY", "city": "BRONX", "state": "NY", "zip": "10475-9953", "ntee": "", "ruling": "196001", "deductibility": "2", "assets": 0, "income": 0, "revenue": 0}, {"ein": "134278741", "name": "BETA SIGMA ZETA SORORITY INCORPORATED", "city": "BRONX", "state": "NY", "zip": "10475-5009", "ntee": "Y40", "ruling": "201405", "deductibility": "2", "assets": 0, "income": 0, "revenue": 0}, {"ein": "136167988", "name": "DELTA SIGMA THETA SORORITY INC", "city": "NEW YORK", "state": "NY", "zip": "10027-5588", "ntee": "", "ruling": "195207", "deductibility": "2", "assets": 0, "income": 0, "revenue": 0}, {"ein": "136213598", "name": "ZETA PHI BETA SORORITY", "city": "ELMSFORD", "state": "NY", "zip": "10523-0257", "ntee": "", "ruling": "196612", "deductibility": "2", "assets": 0, "income": 0, "revenue": 0}, {"ein": "136272592", "name": "DELTA SIGMA THETA SORORITY INC", "city": "WHITE PLAINS", "state": "NY", "zip": "10602-0268", "ntee": "", "ruling": "195207", "deductibility": "2", "assets": 0, "income": 0, "revenue": 0}, {"ein": "136272593", "name": "DELTA SIGMA THETA SORORITY INC", "city": "BRONX", "state": "NY", "zip": "10467-0102", "ntee": "", "ruling": "196905", "deductibility": "2", "assets": 0, "income": 0, "revenue": 0}, {"ein": "141678130", "name": "GAMMA PHI BETA SORORITY", "city": "SCHENECTADY", "state": "NY", "zip": "12308-3256", "ntee": "", "ruling": "195202", "deductibility": "2", "assets": 76624, "income": 61716, "revenue": 61716}, {"ein": "141788523", "name": "SIGMA GAMMA RHO SORORITY INC", "city": "ALBANY", "state": "NY", "zip": "12203-0835", "ntee": "", "ruling": "198201", "deductibility": "2", "assets": 0, "income": 0, "revenue": 0}, {"ein": "146049318", "name": "DELTA SIGMA THETA SORORITY INC", "city": "ALBANY", "state": "NY", "zip": "12205-0187", "ntee": "", "ruling": "196804", "deductibility": "2", "assets": 0, "income": 0, "revenue": 0}, {"ein": "150533613", "name": "ALPHA EPSILON PHI SORORITY", "city": "EAST SYRACUSE", "state": "NY", "zip": "13057-9215", "ntee": "B83", "ruling": "201102", "deductibility": "2", "assets": 1206335, "income": 635965, "revenue": 635965}, {"ein": "150533618", "name": "GAMMA PHI BETA SORORITY INC", "city": "MANLIUS", "state": "NY", "zip": "13104-1724", "ntee": "", "ruling": "194011", "deductibility": "2", "assets": 1759310, "income": 545281, "revenue": 545255}, {"ein": "150622331", "name": "KAPPA DELTA SORORITY", "city": "ITHACA", "state": "NY", "zip": "14850-0000", "ntee": "", "ruling": "000000", "deductibility": "2", "assets": 301737, "income": 666899, "revenue": 133464}, {"ein": "161353643", "name": "SIGMA GAMMA RHO SORORITY INC", "city": "SYRACUSE", "state": "NY", "zip": "13224-1399", "ntee": "", "ruling": "196203", "deductibility": "2", "assets": 0, "income": 0, "revenue": 0}, {"ein": "161376892", "name": "SIGMA GAMMA RHO SORORITY", "city": "SYRACUSE", "state": "NY", "zip": "13212-1429", "ntee": "B83", "ruling": "202502", "deductibility": "2", "assets": 0, "income": 0, "revenue": 0}, {"ein": "161378941", "name": "GAMMA PHI BETA SORORITY INC", "city": "ROCHESTER", "state": "NY", "zip": "14627-0000", "ntee": "", "ruling": "194011", "deductibility": "2", "assets": 0, "income": 0, "revenue": 0}, {"ein": "161381134", "name": "DELTA SIGMA THETA SORORITY INC", "city": "ROCHESTER", "state": "NY", "zip": "14627-2106", "ntee": "", "ruling": "195207", "deductibility": "0", "assets": 0, "income": 0, "revenue": 0}, {"ein": "161384616", "name": "GAMMA PHI BETA SORORITY INC", "city": "HAMILTON", "state": "NY", "zip": "13346-0208", "ntee": "", "ruling": "194011", "deductibility": "2", "assets": 450280, "income": 40241, "revenue": 40241}, {"ein": "161453333", "name": "GAMMA PHI BETA SORORITY INC", "city": "MACEDON", "state": "NY", "zip": "14502-8938", "ntee": "", "ruling": "194011", "deductibility": "2", "assets": 0, "income": 0, "revenue": 0}, {"ein": "161509776", "name": "MALIKA KAMBE UMFAZI SORORITY INC", "city": "BROOKLYN", "state": "NY", "zip": "11249-6127", "ntee": "B83", "ruling": "200808", "deductibility": "1", "assets": 0, "income": 0, "revenue": 0}, {"ein": "166051909", "name": "SIGMA PHI GAMMA INTERNATIONAL SORORITY INC", "city": "TONAWANDA", "state": "NY", "zip": "14150-8540", "ntee": "", "ruling": "194204", "deductibility": "2", "assets": 0, "income": 0, "revenue": 0}, {"ein": "166052144", "name": "GAMMA PHI BETA SORORITY INC", "city": "PITTSFORD", "state": "NY", "zip": "14534-2138", "ntee": "", "ruling": "195910", "deductibility": "2", "assets": 0, "income": 0, "revenue": 0}, {"ein": "166052234", "name": "SIGMA PHI GAMMA INTERNATIONAL SORORITY INC", "city": "GRAND ISLAND", "state": "NY", "zip": "14072-1297", "ntee": "", "ruling": "196702", "deductibility": "2", "assets": 0, "income": 0, "revenue": 0}, {"ein": "166053098", "name": "KAPPA DELTA SORORITY", "city": "ITHACA", "state": "NY", "zip": "14850-0000", "ntee": "", "ruling": "194504", "deductibility": "2", "assets": 141196, "income": 162473, "revenue": 160571}, {"ein": "166061214", "name": "PHI BETA PSI SORORITY", "city": "GENEVA", "state": "NY", "zip": "14456-1971", "ntee": "B83", "ruling": "200111", "deductibility": "1", "assets": 0, "income": 0, "revenue": 0}, {"ein": "166063856", "name": "SIGMA PHI GAMMA INTERNATIONAL SORORITY INC", "city": "GETSVILLE", "state": "NY", "zip": "14068-0000", "ntee": "", "ruling": "196702", "deductibility": "2", "assets": 0, "income": 0, "revenue": 0}, {"ein": "166090109", "name": "GAMMA PHI BETA SORORITY INC", "city": "MANLIUS", "state": "NY", "zip": "13104-1129", "ntee": "", "ruling": "194011", "deductibility": "2", "assets": 0, "income": 0, "revenue": 0}, {"ein": "166090186", "name": "GAMMA PHI BETA SORORITY INC", "city": "SYRACUSE", "state": "NY", "zip": "13210-2427", "ntee": "", "ruling": "195910", "deductibility": "2", "assets": 26984, "income": 248959, "revenue": 248959}, {"ein": "166094112", "name": "ALPHA DELTA KAPPA SORORITY INC", "city": "BUFFALO", "state": "NY", "zip": "14223-3122", "ntee": "", "ruling": "197010", "deductibility": "2", "assets": 0, "income": 0, "revenue": 0}, {"ein": "166098017", "name": "DELTA SIGMA THETA SORORITY INC", "city": "JAMAICA", "state": "NY", "zip": "11434-0132", "ntee": "", "ruling": "196804", "deductibility": "2", "assets": 0, "income": 0, "revenue": 0}, {"ein": "166098028", "name": "DELTA SIGMA THETA SORORITY INC", "city": "BUFFALO", "state": "NY", "zip": "14213-2415", "ntee": "", "ruling": "196804", "deductibility": "2", "assets": 0, "income": 0, "revenue": 0}, {"ein": "200873666", "name": "ZETA PHI BETA SORORITY", "city": "BROOKLYN", "state": "NY", "zip": "11221-4012", "ntee": "B82", "ruling": "196001", "deductibility": "2", "assets": 0, "income": 0, "revenue": 0}, {"ein": "203607376", "name": "SIGMA GAMMA RHO SORORITY INC", "city": "BUFFALO", "state": "NY", "zip": "14215-6617", "ntee": "", "ruling": "196203", "deductibility": "2", "assets": 0, "income": 0, "revenue": 0}, {"ein": "204950797", "name": "SIGMA PHI GAMMA INTERNATIONAL SORORITY INC", "city": "N TONAWANDA", "state": "NY", "zip": "14120-9514", "ntee": "", "ruling": "196702", "deductibility": "2", "assets": 0, "income": 0, "revenue": 0}, {"ein": "205441648", "name": "DELTA SIGMA THETA SORORITY INC", "city": "GARDEN CITY", "state": "NY", "zip": "11530-0014", "ntee": "", "ruling": "195207", "deductibility": "2", "assets": 0, "income": 0, "revenue": 0}, {"ein": "205789573", "name": "ZETA PHI BETA SORORITY NEW YORK & SCHOLARSHIP FUND INC", "city": "BRONX", "state": "NY", "zip": "10475-9953", "ntee": "B82", "ruling": "201004", "deductibility": "1", "assets": 0, "income": 0, "revenue": 0}, {"ein": "208822032", "name": "SIGMA GAMMA RHO SORORITY INC", "city": "VALLEY STREAM", "state": "NY", "zip": "11582-1644", "ntee": "", "ruling": "196203", "deductibility": "2", "assets": 0, "income": 0, "revenue": 0}, {"ein": "222171515", "name": "GAMMA PHI BETA SORORITY INC", "city": "NEW YORK", "state": "NY", "zip": "10010-6401", "ntee": "", "ruling": "194011", "deductibility": "2", "assets": 141122, "income": 534672, "revenue": 534672}, {"ein": "222547491", "name": "ALPHA KAPPA ALPHA SORORITY EPSILON PI OMEGA CHAPTER DCC INC", "city": "S OZONE PARK", "state": "NY", "zip": "11436-1613", "ntee": "", "ruling": "199501", "deductibility": "1", "assets": 423432, "income": 1059541, "revenue": 1059541}, {"ein": "222628783", "name": "GAMMA PHI BETA SORORITY INC", "city": "HAMILTON", "state": "NY", "zip": "13346-0208", "ntee": "", "ruling": "194011", "deductibility": "2", "assets": 62928, "income": 143658, "revenue": 143658}, {"ein": "222917350", "name": "DELTA SIGMA THETA SORORITY INC", "city": "NANUET", "state": "NY", "zip": "10954-0720", "ntee": "", "ruling": "195207", "deductibility": "0", "assets": 0, "income": 0, "revenue": 0}, {"ein": "223665378", "name": "SIGMA PSI ZETA SORORITY INC", "city": "ALBANY", "state": "NY", "zip": "12204-1000", "ntee": "B83", "ruling": "200005", "deductibility": "2", "assets": 484595, "income": 209853, "revenue": 203195}, {"ein": "236434431", "name": "ALPHA IOTA SORORITY", "city": "CLAY", "state": "NY", "zip": "13041-9134", "ntee": "", "ruling": "194408", "deductibility": "2", "assets": 0, "income": 0, "revenue": 0}, {"ein": "237038544", "name": "ALPHA SIGMA ALPHA SORORITY", "city": "LOCKPORT", "state": "NY", "zip": "14094-1634", "ntee": "", "ruling": "196809", "deductibility": "2", "assets": 0, "income": 0, "revenue": 0}, {"ein": "237086464", "name": "DELTA SIGMA THETA SORORITY INC", "city": "POUGHKEEPSIE", "state": "NY", "zip": "12602-0989", "ntee": "", "ruling": "195207", "deductibility": "2", "assets": 0, "income": 0, "revenue": 0}, {"ein": "237337479", "name": "DELTA SIGMA THETA SORORITY", "city": "ROCHESTER", "state": "NY", "zip": "14692-3855", "ntee": "", "ruling": "195207", "deductibility": "2", "assets": 0, "income": 0, "revenue": 0}, {"ein": "237357018", "name": "DELTA SIGMA THETA SORORITY INC", "city": "SYRACUSE", "state": "NY", "zip": "13217-6578", "ntee": "", "ruling": "195207", "deductibility": "2", "assets": 0, "income": 0, "revenue": 0}, {"ein": "237357034", "name": "DELTA SIGMA THETA SORORITY INC", "city": "SYRACUSE", "state": "NY", "zip": "13235-0885", "ntee": "", "ruling": "195207", "deductibility": "2", "assets": 0, "income": 0, "revenue": 0}, {"ein": "237382875", "name": "IOTA PHI LAMBDA SORORITY INC", "city": "BRONX", "state": "NY", "zip": "10460-5876", "ntee": "S41", "ruling": "202212", "deductibility": "2", "assets": 0, "income": 0, "revenue": 0}, {"ein": "264169533", "name": "GAMMA PHI BETA SORORITY INC", "city": "SCHENECTADY", "state": "NY", "zip": "12303-5408", "ntee": "", "ruling": "194011", "deductibility": "2", "assets": 0, "income": 0, "revenue": 0}, {"ein": "270327631", "name": "SIGMA GAMMA RHO SORORITY INC", "city": "HEMPSTEAD", "state": "NY", "zip": "11549-0001", "ntee": "", "ruling": "196203", "deductibility": "2", "assets": 0, "income": 0, "revenue": 0}, {"ein": "270428329", "name": "DELTA SIGMA THETA SORORITY INC", "city": "BINGHAMTON", "state": "NY", "zip": "13902-0000", "ntee": "", "ruling": "195207", "deductibility": "2", "assets": 0, "income": 0, "revenue": 0}, {"ein": "300059380", "name": "THETA NU XI MULTICULTURAL SORORITY INC", "city": "STATEN ISLAND", "state": "NY", "zip": "10301-4021", "ntee": "B83", "ruling": "200308", "deductibility": "2", "assets": 0, "income": 0, "revenue": 0}, {"ein": "300585258", "name": "SIGMA GAMMA RHO SORORITY INC", "city": "TONAWANDA", "state": "NY", "zip": "14150-4609", "ntee": "", "ruling": "198201", "deductibility": "2", "assets": 0, "income": 0, "revenue": 0}, {"ein": "301105706", "name": "OMICRON CHAPTER CHI ETA PHI SORORITY INC", "city": "BRONX", "state": "NY", "zip": "10475-3039", "ntee": "E03", "ruling": "201902", "deductibility": "1", "assets": 13221, "income": 58405, "revenue": 0}, {"ein": "301129764", "name": "OMEGA CHI CHAPTER OF KAPPA DELTA SORORITY FOUNDATION CORP", "city": "ITHACA", "state": "NY", "zip": "14850-0000", "ntee": "B99", "ruling": "202001", "deductibility": "1", "assets": 0, "income": 0, "revenue": 0}, {"ein": "311015760", "name": "SIGMA GAMMA RHO SORORITY INC", "city": "MOUNT VERNON", "state": "NY", "zip": "10553-3367", "ntee": "", "ruling": "196203", "deductibility": "2", "assets": 0, "income": 0, "revenue": 0}, {"ein": "311321568", "name": "SIGMA GAMMA RHO SORORITY INC DBA KAPPA XI", "city": "PORT JEFF STA", "state": "NY", "zip": "11776-3090", "ntee": "B83", "ruling": "202305", "deductibility": "2", "assets": 0, "income": 0, "revenue": 0}, {"ein": "320038177", "name": "SIGMA GAMMA RHO SORORITY INC", "city": "WAPPINGERS FL", "state": "NY", "zip": "12590-3875", "ntee": "", "ruling": "198201", "deductibility": "2", "assets": 0, "income": 0, "revenue": 0}, {"ein": "320070315", "name": "ZETA PHI BETA SORORITY INC", "city": "NANUET", "state": "NY", "zip": "10954-4428", "ntee": "S81", "ruling": "200404", "deductibility": "1", "assets": 0, "income": 0, "revenue": 0}, {"ein": "320698953", "name": "SIGMA GAMMA RHO SORORITY", "city": "MONROE", "state": "NY", "zip": "10950-1049", "ntee": "", "ruling": "196203", "deductibility": "2", "assets": 0, "income": 0, "revenue": 0}, {"ein": "383641890", "name": "KAPPA PHI LAMBDA SORORITY INC", "city": "NEW YORK", "state": "NY", "zip": "10003-5504", "ntee": "B83", "ruling": "200512", "deductibility": "2", "assets": 376813, "income": 212051, "revenue": 212051}, {"ein": "383713774", "name": "DELTA SIGMA THETA SORORITY INC", "city": "ROCKVILLE CTR", "state": "NY", "zip": "11570-3402", "ntee": "", "ruling": "195207", "deductibility": "2", "assets": 0, "income": 0, "revenue": 0}, {"ein": "421764716", "name": "SIGMA LAMBDA PSI SORORITY INC", "city": "BUFFALO", "state": "NY", "zip": "14216-2103", "ntee": "N03", "ruling": "200812", "deductibility": "2", "assets": 0, "income": 0, "revenue": 0}, {"ein": "453021349", "name": "DELTA ZETA SORORITY", "city": "NEW YORK", "state": "NY", "zip": "10005-3201", "ntee": "", "ruling": "197012", "deductibility": "2", "assets": 0, "income": 0, "revenue": 0}, {"ein": "453651552", "name": "DELTA ZETA SORORITY", "city": "DEPEW", "state": "NY", "zip": "14043-1306", "ntee": "", "ruling": "197012", "deductibility": "2", "assets": 0, "income": 0, "revenue": 0}, {"ein": "460858817", "name": "TAU PHI CHAPTER CHI ETA PHI SORORITY INC", "city": "SPRING VALLEY", "state": "NY", "zip": "10977-0442", "ntee": "S03", "ruling": "201702", "deductibility": "1", "assets": 0, "income": 0, "revenue": 0}, {"ein": "471003041", "name": "SIGMA PHI GAMMA INTERNATIONAL SORORITY INC", "city": "STATEN ISLAND", "state": "NY", "zip": "10301-3554", "ntee": "", "ruling": "196702", "deductibility": "2", "assets": 0, "income": 0, "revenue": 0}, {"ein": "471686735", "name": "KAPPA IOTA SIGMA SORORITY", "city": "ROOSEVELT", "state": "NY", "zip": "11575-0465", "ntee": "P20", "ruling": "201903", "deductibility": "1", "assets": 0, "income": 0, "revenue": 0}, {"ein": "473876601", "name": "GAMMA PHI BETA SORORITY INC", "city": "NEW YORK", "state": "NY", "zip": "10027-7164", "ntee": "", "ruling": "194011", "deductibility": "2", "assets": 0, "income": 0, "revenue": 0}, {"ein": "474139857", "name": "SIGMA GAMMA RHO SORORITY INC", "city": "NEW YORK", "state": "NY", "zip": "10012-1019", "ntee": "", "ruling": "198201", "deductibility": "2", "assets": 0, "income": 0, "revenue": 0}, {"ein": "510142600", "name": "DELTA SIGMA THETA SORORITY INC", "city": "ITHACA", "state": "NY", "zip": "14852-4507", "ntee": "", "ruling": "195207", "deductibility": "2", "assets": 0, "income": 0, "revenue": 0}, {"ein": "510165382", "name": "DELTA BETA SIGMA NATIONAL SORORITY", "city": "POUGHKEEPSIE", "state": "NY", "zip": "12604-0001", "ntee": "N50", "ruling": "201405", "deductibility": "2", "assets": 288490, "income": 86924, "revenue": 86924}, {"ein": "510189621", "name": "NATIONAL SORORITY OF PHI DELTA KAPPA INC", "city": "JAMAICA", "state": "NY", "zip": "11434-2236", "ntee": "", "ruling": "197605", "deductibility": "1", "assets": 0, "income": 0, "revenue": 0}, {"ein": "510189625", "name": "NATIONAL SORORITY OF PHI DELTA KAPPA INC", "city": "NEW YORK", "state": "NY", "zip": "10039-4325", "ntee": "B03", "ruling": "197605", "deductibility": "1", "assets": 0, "income": 0, "revenue": 0}, {"ein": "510453346", "name": "DELTA SIGMA THETA SORORITY INC", "city": "ITHACA", "state": "NY", "zip": "14851-6853", "ntee": "", "ruling": "195207", "deductibility": "2", "assets": 0, "income": 0, "revenue": 0}, {"ein": "521329217", "name": "DELTA SIGMA THETA SORORITY INC", "city": "FRESH MEADOWS", "state": "NY", "zip": "11366-0014", "ntee": "", "ruling": "195207", "deductibility": "2", "assets": 0, "income": 0, "revenue": 0}, {"ein": "521329225", "name": "DELTA SIGMA THETA SORORITY INC", "city": "NEW PALTZ", "state": "NY", "zip": "12561-2447", "ntee": "", "ruling": "195207", "deductibility": "2", "assets": 0, "income": 0, "revenue": 0}, {"ein": "521329236", "name": "DELTA SIGMA THETA SORORITY INC", "city": "ENDICOTT", "state": "NY", "zip": "13761-0062", "ntee": "", "ruling": "195207", "deductibility": "2", "assets": 0, "income": 0, "revenue": 0}, {"ein": "521329238", "name": "DELTA SIGMA THETA SORORITY INC", "city": "BROOKLYN", "state": "NY", "zip": "11247-0913", "ntee": "", "ruling": "195207", "deductibility": "2", "assets": 0, "income": 0, "revenue": 0}, {"ein": "521329253", "name": "DELTA SIGMA THETA SORORITY INC", "city": "NEW YORK", "state": "NY", "zip": "10163-3570", "ntee": "", "ruling": "195207", "deductibility": "2", "assets": 0, "income": 0, "revenue": 0}, {"ein": "521345580", "name": "DELTA ALPHA ZETA CHAPTER ZETA PHI BETA SORORITY INC", "city": "BROOKLYN", "state": "NY", "zip": "11202-5527", "ntee": "B83", "ruling": "202201", "deductibility": "2", "assets": 0, "income": 0, "revenue": 0}, {"ein": "521345683", "name": "ZETA PHI BETA SORORITY INC", "city": "POUGHKEEPSIE", "state": "NY", "zip": "12602-5303", "ntee": "", "ruling": "196001", "deductibility": "2", "assets": 0, "income": 0, "revenue": 0}, {"ein": "521345901", "name": "ZETA PHI BETA SORORITY INC", "city": "BRONX", "state": "NY", "zip": "10467-0722", "ntee": "", "ruling": "196001", "deductibility": "2", "assets": 0, "income": 0, "revenue": 0}, {"ein": "521345910", "name": "ZETA PHI BETA SORORITY", "city": "SYRACUSE", "state": "NY", "zip": "13217-6284", "ntee": "B83", "ruling": "196001", "deductibility": "2", "assets": 0, "income": 0, "revenue": 0}, {"ein": "521345917", "name": "ZETA PHI BETA SORORITY INC", "city": "BUFFALO", "state": "NY", "zip": "14215-7002", "ntee": "N50", "ruling": "196001", "deductibility": "2", "assets": 0, "income": 0, "revenue": 0}, {"ein": "542075191", "name": "SIGMA GAMMA RHO SORORITY INC", "city": "BROOKLYN", "state": "NY", "zip": "11247-2802", "ntee": "", "ruling": "198201", "deductibility": "2", "assets": 173246, "income": 83823, "revenue": 83823}, {"ein": "562662501", "name": "ZETA PHI BETA SORORITY", "city": "NORTH BALDWIN", "state": "NY", "zip": "11510-1914", "ntee": "B83", "ruling": "196001", "deductibility": "2", "assets": 0, "income": 0, "revenue": 0}, {"ein": "611769405", "name": "ZETA PHI BETA SORORITY INC ALPHA ALPHA UPSILON ZETA", "city": "NEW YORK", "state": "NY", "zip": "10116-7187", "ntee": "", "ruling": "202001", "deductibility": "2", "assets": 0, "income": 0, "revenue": 0}, {"ein": "731625485", "name": "ZETA PHI BETA SORORITY INC", "city": "BROOKLYN", "state": "NY", "zip": "11217-2813", "ntee": "B83", "ruling": "202302", "deductibility": "2", "assets": 88096, "income": 108321, "revenue": 102492}, {"ein": "742088828", "name": "KAPPA DELTA SORORITY", "city": "ROCHESTER", "state": "NY", "zip": "14627-0001", "ntee": "", "ruling": "197003", "deductibility": "2", "assets": 26946, "income": 51343, "revenue": 49002}, {"ein": "753126717", "name": "ZETA PHI BETA SORORITY INC", "city": "NANUET", "state": "NY", "zip": "10954-4428", "ntee": "", "ruling": "196001", "deductibility": "2", "assets": 0, "income": 0, "revenue": 0}, {"ein": "753244965", "name": "NATIONAL SORORITY OF PHI DELTA KAPPA INC", "city": "POMONA", "state": "NY", "zip": "10970-0692", "ntee": "", "ruling": "197605", "deductibility": "1", "assets": 0, "income": 0, "revenue": 0}, {"ein": "770676295", "name": "DELTA SIGMA THETA SORORITY INC", "city": "BROOKLYN", "state": "NY", "zip": "11221-7179", "ntee": "", "ruling": "195207", "deductibility": "2", "assets": 0, "income": 0, "revenue": 0}, {"ein": "800636183", "name": "SIGMA GAMMA RHO SORORITY INC", "city": "NEW ROCHELLE", "state": "NY", "zip": "10805-3708", "ntee": "", "ruling": "196203", "deductibility": "2", "assets": 0, "income": 0, "revenue": 0}, {"ein": "813991275", "name": "SIGMA PHI GAMMA INTERNATIONAL SORORITY INC", "city": "BUFFALO", "state": "NY", "zip": "14223-1157", "ntee": "", "ruling": "196702", "deductibility": "2", "assets": 0, "income": 0, "revenue": 0}, {"ein": "820624482", "name": "WHATS NEXT SORORITY INC", "city": "ROCHESTER", "state": "NY", "zip": "14618-0727", "ntee": "O99", "ruling": "201703", "deductibility": "1", "assets": 177077, "income": 39168, "revenue": 33474}, {"ein": "822171896", "name": "PHI SIGMA RHO NATIONAL SORORITY", "city": "BUFFALO", "state": "NY", "zip": "14228-0000", "ntee": "B83", "ruling": "201003", "deductibility": "2", "assets": 0, "income": 0, "revenue": 0}, {"ein": "822712012", "name": "ALPHA OMEGA EPSILON SORORITY BETA CHI CHAPTER", "city": "ITHACA", "state": "NY", "zip": "14853-8201", "ntee": "N50", "ruling": "202306", "deductibility": "2", "assets": 0, "income": 0, "revenue": 0}, {"ein": "861643671", "name": "SIGMA GAMMA RHO SORORITY INC", "city": "QUEENS VLG", "state": "NY", "zip": "11428-0651", "ntee": "", "ruling": "196203", "deductibility": "2", "assets": 15979, "income": 99895, "revenue": 99895}, {"ein": "871588984", "name": "NATIONAL SORORITY OF PHI DELTA KAPPA", "city": "W HENRIETTA", "state": "NY", "zip": "14586-9804", "ntee": "", "ruling": "197605", "deductibility": "1", "assets": 0, "income": 0, "revenue": 0}, {"ein": "872130213", "name": "NATIONAL SORORITY OF PHI DELTA KAPPA", "city": "MOUNT VERNON", "state": "NY", "zip": "10553-3764", "ntee": "", "ruling": "197605", "deductibility": "1", "assets": 0, "income": 0, "revenue": 0}, {"ein": "883886714", "name": "KAPPA ETA ETA CHAPTER OF CHI ETA PHI SORORITY INCORPORATED", "city": "NEWBURGH", "state": "NY", "zip": "12550-3442", "ntee": "G03", "ruling": "202409", "deductibility": "1", "assets": 0, "income": 0, "revenue": 0}, {"ein": "900056308", "name": "ALPHA IOTA SORORITY", "city": "CLAY", "state": "NY", "zip": "13041-9134", "ntee": "", "ruling": "197111", "deductibility": "2", "assets": 0, "income": 0, "revenue": 0}, {"ein": "900755975", "name": "ZETA PHI BETA SORORITY", "city": "ROCHESTER", "state": "NY", "zip": "14609-0496", "ntee": "", "ruling": "196001", "deductibility": "2", "assets": 0, "income": 0, "revenue": 0}, {"ein": "911928424", "name": "ALPHA DELTA KAPPA SORORITY INC", "city": "CHAUMONT", "state": "NY", "zip": "13622-2252", "ntee": "", "ruling": "197010", "deductibility": "2", "assets": 0, "income": 0, "revenue": 0}, {"ein": "911940160", "name": "SIGMA GAMMA RHO SORORITY INC", "city": "BRONX", "state": "NY", "zip": "10451-1707", "ntee": "", "ruling": "198201", "deductibility": "2", "assets": 0, "income": 0, "revenue": 0}, {"ein": "912009219", "name": "THETA OMEGA SIGMA CHAPTER OF SIGMA GAMMA RHO SORORITY INCORPORATED", "city": "ROCHESTER", "state": "NY", "zip": "14619-0315", "ntee": "B83", "ruling": "198201", "deductibility": "2", "assets": 0, "income": 0, "revenue": 0}, {"ein": "912114790", "name": "SIGMA GAMMA RHO SORORITY INC", "city": "ALBANY", "state": "NY", "zip": "12222-0100", "ntee": "", "ruling": "198201", "deductibility": "2", "assets": 0, "income": 0, "revenue": 0}, {"ein": "912131137", "name": "NATIONAL SORORITY OF PHI DELTA KAPPA", "city": "SAINT ALBANS", "state": "NY", "zip": "11412-0532", "ntee": "", "ruling": "197605", "deductibility": "1", "assets": 0, "income": 447606, "revenue": 447606}, {"ein": "920871994", "name": "SIGMA GAMMA RHO SORORITY INC", "city": "UTICA", "state": "NY", "zip": "13502-5304", "ntee": "", "ruling": "196203", "deductibility": "2", "assets": 0, "income": 0, "revenue": 0}, {"ein": "923529373", "name": "TAU BETA SIGMA NATIONAL HONORARY BAND SORORITY", "city": "MANHATTAN NEW YORK", "state": "NY", "zip": "10034-2830", "ntee": "", "ruling": "197610", "deductibility": "1", "assets": 0, "income": 0, "revenue": 0}, {"ein": "934815990", "name": "SIGMA GAMMA RHO SORORITY INC", "city": "BINGHAMTON", "state": "NY", "zip": "13901-3168", "ntee": "", "ruling": "196203", "deductibility": "2", "assets": 0, "income": 0, "revenue": 0}, {"ein": "942555747", "name": "NATIONAL SORORITY OF PHI DELTA KAPPA INC", "city": "LAURELTON", "state": "NY", "zip": "11413-1244", "ntee": "", "ruling": "197605", "deductibility": "1", "assets": 35114, "income": 39343, "revenue": 39343}, {"ein": "994735384", "name": "ZETA PHI ALPHA SORORITY INC", "city": "BRONX", "state": "NY", "zip": "10463-6501", "ntee": "B83", "ruling": "202409", "deductibility": "1", "assets": 0, "income": 0, "revenue": 0}], "RELATIONS": [{"ein": "020736675", "name": "COUNCIL FOR AMERICAN IRELAND RELATIONS INC", "city": "NEW YORK", "state": "NY", "zip": "10007-1229", "ntee": "Q40", "ruling": "201208", "deductibility": "1", "assets": 0, "income": 0, "revenue": 0}, {"ein": "050468581", "name": "PUBLIC RELATIONS SOCIETY OF AMERICA INC", "city": "NEW YORK", "state": "NY", "zip": "10005-3904", "ntee": "", "ruling": "195405", "deductibility": "2", "assets": 0, "income": 0, "revenue": 0}, {"ein": "112594802", "name": "LABOR AND EMPLOYEE RELATIONS ASSOCIATION", "city": "GARDEN CITY", "state": "NY", "zip": "11530-4874", "ntee": "S41E", "ruling": "197708", "deductibility": "1", "assets": 0, "income": 0, "revenue": 0}, {"ein": "112693623", "name": "PLANNING AND COMMUNITY RELATIONS CORPORATION OF SOUTHERN BROOKLYN I", "city": "BROOKLYN", "state": "NY", "zip": "11218-5708", "ntee": "", "ruling": "198412", "deductibility": "1", "assets": 70551, "income": 39776, "revenue": 0}, {"ein": "113220812", "name": "PUBLIC RELATIONS PROFESSIONALS OF LONG ISLAND INC", "city": "CENTERPORT", "state": "NY", "zip": "11721-0086", "ntee": "S41", "ruling": "200405", "deductibility": "2", "assets": 0, "income": 0, "revenue": 0}, {"ein": "113450777", "name": "COUNCIL ON AMERICAN-ISLAMIC RELATIONS NY INC", "city": "NEW YORK", "state": "NY", "zip": "10279-0815", "ntee": "R30", "ruling": "201402", "deductibility": "1", "assets": 1117551, "income": 877196, "revenue": 832687}, {"ein": "131201745", "name": "REALTY ADVISORY BOARD ON LABOR RELATIONS INCORPORATED", "city": "NEW YORK", "state": "NY", "zip": "10119-2202", "ntee": "", "ruling": "193705", "deductibility": "2", "assets": 34316061, "income": 9738514, "revenue": 9738514}, {"ein": "131582190", "name": "PUBLIC RELATIONS SOCIETY OF AMERICA INC", "city": "NEW YORK", "state": "NY", "zip": "10005-4031", "ntee": "", "ruling": "195405", "deductibility": "2", "assets": 9012271, "income": 12730422, "revenue": 11513312}, {"ein": "131624043", "name": "INDUSTRIAL RELATIONS COUNSELORS INC", "city": "BROOKLYN", "state": "NY", "zip": "11217-2218", "ntee": "", "ruling": "193207", "deductibility": "1", "assets": 9161058, "income": 2164615, "revenue": 0}, {"ein": "131628168", "name": "COUNCIL ON FOREIGN RELATIONS INC", "city": "NEW YORK", "state": "NY", "zip": "10065-5953", "ntee": "Q055", "ruling": "192701", "deductibility": "1", "assets": 755521700, "income": 173497100, "revenue": 79154300}, {"ein": "132566973", "name": "NATIONAL COMMITTEE ON UNITED STATES CHINA RELATIONS INC", "city": "NEW YORK", "state": "NY", "zip": "10017-4650", "ntee": "Q230", "ruling": "196701", "deductibility": "1", "assets": 21141024, "income": 12585745, "revenue": 9347675}, {"ein": "132847092", "name": "FRENCH AMERICAN FOUNDATION FOR THE DEVEL OF RELATIONS BTWN FRNC & US", "city": "NEW YORK", "state": "NY", "zip": "10036-7414", "ntee": "Q050", "ruling": "197512", "deductibility": "1", "assets": 4087262, "income": 2512354, "revenue": 1346837}, {"ein": "132869041", "name": "JEWISH COMMUNITY RELATIONS COUNCIL OF NEW YORK INC", "city": "NEW YORK", "state": "NY", "zip": "10018-6541", "ntee": "R30Z", "ruling": "197705", "deductibility": "1", "assets": 8481371, "income": 14348365, "revenue": 14022248}, {"ein": "133316941", "name": "NEW YORK ASSOCIATION FOR AMERICAN RUSSIAN RELATIONS", "city": "STATEN ISLAND", "state": "NY", "zip": "10306-3926", "ntee": "A23", "ruling": "201202", "deductibility": "1", "assets": 0, "income": 0, "revenue": 0}, {"ein": "133556137", "name": "PUBLIC RELATIONS SOCIETY OF AMERICA FOUNDATION INC", "city": "NEW YORK", "state": "NY", "zip": "10005-4031", "ntee": "B82Z", "ruling": "199005", "deductibility": "1", "assets": 1198286, "income": 446740, "revenue": 208403}, {"ein": "133697333", "name": "OBJECT RELATIONS INSTITUTE TRAINING FOUNDATION", "city": "FRESH MEADOWS", "state": "NY", "zip": "11366-1725", "ntee": "", "ruling": "199306", "deductibility": "1", "assets": 37472, "income": 126171, "revenue": 126171}, {"ein": "134011840", "name": "COUNCIL OF PUBLIC RELATIONS FIRMS", "city": "NEW YORK", "state": "NY", "zip": "10036-7329", "ntee": "S41", "ruling": "200008", "deductibility": "2", "assets": 2897566, "income": 1980011, "revenue": 1980011}, {"ein": "141746727", "name": "PUBLIC RELATIONS SOCIETY OF AMERICA INC", "city": "LATHAM", "state": "NY", "zip": "12110-0000", "ntee": "", "ruling": "195405", "deductibility": "2", "assets": 0, "income": 0, "revenue": 0}, {"ein": "160981856", "name": "CONSTRUCTION EMPLOYERS LABOR RELATIONS ASSOCIATION OF NEW YORK", "city": "SYRACUSE", "state": "NY", "zip": "13206-1202", "ntee": "", "ruling": "197212", "deductibility": "2", "assets": 0, "income": 0, "revenue": 0}, {"ein": "161126926", "name": "YOUTH COMMUNITY RELATIONS", "city": "BUFFALO", "state": "NY", "zip": "14208-1713", "ntee": "", "ruling": "198211", "deductibility": "1", "assets": 0, "income": 0, "revenue": 0}, {"ein": "161172403", "name": "LABOR AND EMPLOYEE RELATIONS ASSOCIATION", "city": "CLAY", "state": "NY", "zip": "13041-8941", "ntee": "S41E", "ruling": "197708", "deductibility": "1", "assets": 0, "income": 0, "revenue": 0}, {"ein": "166061762", "name": "PUBLIC RELATIONS SOCIETY OF AMERICA INC", "city": "ROCHESTER", "state": "NY", "zip": "14618-5619", "ntee": "", "ruling": "194907", "deductibility": "2", "assets": 68654, "income": 70831, "revenue": 70831}, {"ein": "166069651", "name": "PUBLIC RELATIONS SOCIETY OF AMERICA INC", "city": "SYRACUSE", "state": "NY", "zip": "13218-1606", "ntee": "", "ruling": "196504", "deductibility": "2", "assets": 0, "income": 0, "revenue": 0}, {"ein": "166069652", "name": "PUBLIC RELATIONS SOCIETY OF AMERICA INC", "city": "BUFFALO", "state": "NY", "zip": "14225-8114", "ntee": "", "ruling": "196504", "deductibility": "2", "assets": 0, "income": 0, "revenue": 0}, {"ein": "205820495", "name": "NEPALI PUBLIC RELATIONS COMMITTEE AMERICA", "city": "WOODSIDE", "state": "NY", "zip": "11377-5761", "ntee": "Q33", "ruling": "201610", "deductibility": "1", "assets": 0, "income": 0, "revenue": 0}, {"ein": "208024347", "name": "BLACK PUBLIC RELATIONS SOCIETY-NEWYORK INC", "city": "BROOKLYN", "state": "NY", "zip": "11212-1768", "ntee": "B12", "ruling": "200805", "deductibility": "1", "assets": 0, "income": 0, "revenue": 0}, {"ein": "222121864", "name": "LABOR AND EMPLOYMENT RELATIONS ASSOCIATION", "city": "CROTON HDSN", "state": "NY", "zip": "10520-3536", "ntee": "S41E", "ruling": "197708", "deductibility": "1", "assets": 0, "income": 0, "revenue": 0}, {"ein": "237150122", "name": "PUBLIC RELATIONS SOCIETY OF AMERICA INC", "city": "NEW YORK", "state": "NY", "zip": "10007-0098", "ntee": "S41Z", "ruling": "195405", "deductibility": "2", "assets": 284137, "income": 118075, "revenue": 118075}, {"ein": "237193312", "name": "THE COUNCIL FOR CANADIAN AMERICAN RELATIONS INC", "city": "NEW YORK", "state": "NY", "zip": "10065-7044", "ntee": "", "ruling": "197206", "deductibility": "1", "assets": 4513583, "income": 6851433, "revenue": 4263994}, {"ein": "237212492", "name": "INTERNATIONAL ARTS RELATIONS INC", "city": "NEW YORK", "state": "NY", "zip": "10108-0679", "ntee": "A230", "ruling": "197208", "deductibility": "1", "assets": 877507, "income": 1503024, "revenue": 1503024}, {"ein": "237389215", "name": "INSTITUTE OF HUMAN RELATIONS OF THE AMERICAN JEWISH COMMITTEE", "city": "NEW YORK", "state": "NY", "zip": "10022-2709", "ntee": "Q99", "ruling": "201602", "deductibility": "1", "assets": 635239, "income": 293143, "revenue": 11612}, {"ein": "262544703", "name": "CATHOLIC COMMUNITY RELATIONS COUNCIL OF NEW YORK INC", "city": "BROOKYLN", "state": "NY", "zip": "11201-4306", "ntee": "S20", "ruling": "200906", "deductibility": "2", "assets": 93403, "income": 450000, "revenue": 450000}, {"ein": "272792389", "name": "ELEPHANT HUMAN RELATIONS AID USA INC", "city": "WAINSCOTT", "state": "NY", "zip": "11975-0272", "ntee": "D30", "ruling": "201102", "deductibility": "1", "assets": 0, "income": 0, "revenue": 0}, {"ein": "465065212", "name": "FRIENDS OF THE CENTER FOR INTERNATIONAL RELATIONS AND SUSTAI", "city": "NEW YORK", "state": "NY", "zip": "10019-0000", "ntee": "Q32", "ruling": "201409", "deductibility": "1", "assets": 32732, "income": 0, "revenue": 0}, {"ein": "474192249", "name": "BROOKLYN MEDICAL RELATIONS COUNCIL INC", "city": "BROOKLYN", "state": "NY", "zip": "11205-2786", "ntee": "E60", "ruling": "201511", "deductibility": "1", "assets": 120884, "income": 114000, "revenue": 114000}, {"ein": "510182948", "name": "PUBLIC RELATIONS SOCIETY OF AMERICA INC", "city": "HORSEHEADS", "state": "NY", "zip": "14845-9204", "ntee": "", "ruling": "195405", "deductibility": "2", "assets": 0, "income": 0, "revenue": 0}, {"ein": "800796221", "name": "MUSEUM OF PUBLIC RELATIONS", "city": "NEW YORK", "state": "NY", "zip": "10005-4031", "ntee": "A50", "ruling": "201302", "deductibility": "1", "assets": 75570, "income": 131501, "revenue": 131501}, {"ein": "823079902", "name": "HAVERSTRAW ASSOCIATION FOR LANDLORD TENANT RELATIONS INC", "city": "W HAVERSTRAW", "state": "NY", "zip": "10993-0189", "ntee": "L50", "ruling": "201902", "deductibility": "1", "assets": 0, "income": 0, "revenue": 0}, {"ein": "852145134", "name": "GLOBAL IMPACT RELATIONS NETWORK INC", "city": "ALBANY", "state": "NY", "zip": "12207-1704", "ntee": "A30", "ruling": "202103", "deductibility": "1", "assets": 0, "income": 0, "revenue": 0}, {"ein": "883134979", "name": "THE NATIONAL COUNCIL FOR US-CHINA RELATIONS INC", "city": "BAYSIDE", "state": "NY", "zip": "11361-3499", "ntee": "P99", "ruling": "202207", "deductibility": "1", "assets": 0, "income": 0, "revenue": 0}, {"ein": "934817847", "name": "PREMIER COMMUNITY RELATIONS INC", "city": "ROCHESTER", "state": "NY", "zip": "14606-5362", "ntee": "N12", "ruling": "202401", "deductibility": "1", "assets": 0, "income": 0, "revenue": 0}, {"ein": "992177374", "name": "ALBANIAN AMERICAN RELATIONS COUNCIL", "city": "NEW YORK", "state": "NY", "zip": "10017-8909", "ntee": "P20", "ruling": "202504", "deductibility": "1", "assets": 0, "income": 0, "revenue": 0}, {"ein": "993312742", "name": "JEWISH ZIONIST PUBLIC RELATIONS COUNCIL INC", "city": "KATONAH", "state": "NY", "zip": "10536-7042", "ntee": "B01", "ruling": "202407", "deductibility": "1", "assets": 0, "income": 0, "revenue": 0}], "YESHIA": [{"ein": "030434587", "name": "KEREN YESHIA", "city": "BROOKLYN", "state": "NY", "zip": "11206-4916", "ntee": "X30", "ruling": "200301", "deductibility": "1", "assets": 41598, "income": 191720, "revenue": 191720}, {"ein": "030445711", "name": "CONG ZICHRON YESHIA INC", "city": "BROOKLYN", "state": "NY", "zip": "11219-2202", "ntee": "X30", "ruling": "200307", "deductibility": "1", "assets": 0, "income": 0, "revenue": 0}, {"ein": "112610093", "name": "CONGREGATION ZICHRON YESHIA TZVI INC", "city": "BROOKLYN", "state": "NY", "zip": "11211-7204", "ntee": "", "ruling": "198208", "deductibility": "1", "assets": 0, "income": 0, "revenue": 0}, {"ein": "112681906", "name": "CONGREGATION BNAI YESHIA", "city": "BROOKLYN", "state": "NY", "zip": "11206-5408", "ntee": "", "ruling": "198406", "deductibility": "1", "assets": 0, "income": 0, "revenue": 0}, {"ein": "112813859", "name": "YESHIVAS NESIVIM LETORAH C/O YESHIA WEINBERGER", "city": "BROOKLYN", "state": "NY", "zip": "11211-7737", "ntee": "", "ruling": "198609", "deductibility": "1", "assets": 0, "income": 0, "revenue": 0}, {"ein": "263836867", "name": "CONG OHEL YESHIA", "city": "MONROE", "state": "NY", "zip": "10950-8420", "ntee": "X30", "ruling": "201008", "deductibility": "1", "assets": 0, "income": 0, "revenue": 0}, {"ein": "475357361", "name": "KEREN TEFERES YESHIA", "city": "BROOKLYN", "state": "NY", "zip": "11219-2032", "ntee": "X30", "ruling": "201512", "deductibility": "1", "assets": 0, "income": 0, "revenue": 0}, {"ein": "881650724", "name": "CONG PNEI YESHIA", "city": "BROOKLYN", "state": "NY", "zip": "11211-7578", "ntee": "X30", "ruling": "202206", "deductibility": "1", "assets": 0, "income": 0, "revenue": 0}], "FENCE": [{"ein": "030571621", "name": "AMERICAN FENCE ASSOCIATION INC", "city": "BAY SHORE", "state": "NY", "zip": "11706-6605", "ntee": "", "ruling": "199510", "deductibility": "0", "assets": 0, "income": 0, "revenue": 0}, {"ein": "134007764", "name": "FENCE MAGAZINE INCORPORATED", "city": "ASTORIA", "state": "NY", "zip": "11103-4518", "ntee": "A33", "ruling": "199811", "deductibility": "1", "assets": 77018, "income": 137700, "revenue": 53882}], "78TH": [{"ein": "043618973", "name": "PSCH 78TH ST OZPK HOUSING DEVELOPMENT FUND CORP", "city": "NEW HYDE PARK", "state": "NY", "zip": "11042-2025", "ntee": "P70", "ruling": "200404", "deductibility": "1", "assets": 753977, "income": 119770, "revenue": 119770}, {"ein": "112947101", "name": "78TH PRECINCT YOUTH COUNCIL INC", "city": "BROOKLYN", "state": "NY", "zip": "11215-1783", "ntee": "", "ruling": "198910", "deductibility": "1", "assets": 139175, "income": 1058972, "revenue": 0}, {"ein": "460542371", "name": "WEST 78TH STREET MUSEUM BLOCK ASSOCIATION", "city": "NEW YORK", "state": "NY", "zip": "10024-6721", "ntee": "S22", "ruling": "201605", "deductibility": "1", "assets": 0, "income": 0, "revenue": 0}], "SANTA": [{"ein": "043675294", "name": "IGLESIA DE LA SANTA CRUZ", "city": "BROOKLYN", "state": "NY", "zip": "11237-4457", "ntee": "", "ruling": "197206", "deductibility": "1", "assets": 0, "income": 0, "revenue": 0}, {"ein": "113568616", "name": "SANTA MARIA CLUB INC", "city": "SOUTHAMPTON", "state": "NY", "zip": "11969-0500", "ntee": "N200", "ruling": "200204", "deductibility": "1", "assets": 240617, "income": 11597, "revenue": 0}, {"ein": "133855524", "name": "IGLESIA PENTECOSTAL LA SANTA CIUDAD INC", "city": "NEW YORK", "state": "NY", "zip": "10035-0000", "ntee": "X20Z", "ruling": "199510", "deductibility": "1", "assets": 0, "income": 0, "revenue": 0}, {"ein": "134093817", "name": "SANTA MADDALENA FOUNDATION INC", "city": "NEW YORK", "state": "NY", "zip": "10022-6445", "ntee": "A70", "ruling": "200005", "deductibility": "1", "assets": 88559, "income": 170077, "revenue": 170077}, {"ein": "161235269", "name": "SANTA MARIA TOWERS HOUSING DEVELOPMENT FUND COMPANY INC", "city": "BUFFALO", "state": "NY", "zip": "14203-1711", "ntee": "", "ruling": "194603", "deductibility": "1", "assets": 3133780, "income": 1218818, "revenue": 1218818}, {"ein": "161336872", "name": "LA SANTA CRUZ LUTHERAN CHURCH", "city": "BUFFALO", "state": "NY", "zip": "14220-1304", "ntee": "", "ruling": "194107", "deductibility": "1", "assets": 0, "income": 0, "revenue": 0}, {"ein": "161386467", "name": "SENECA SANTA INCORPORATED", "city": "WATKINS GLEN", "state": "NY", "zip": "14891-0022", "ntee": "P58", "ruling": "202406", "deductibility": "1", "assets": 0, "income": 0, "revenue": 0}, {"ein": "201594488", "name": "CITY SANTA INC", "city": "NEW YORK", "state": "NY", "zip": "10003-0000", "ntee": "P58", "ruling": "200412", "deductibility": "1", "assets": 49244, "income": 11050, "revenue": 11050}, {"ein": "203213485", "name": "VALATIE SANTA CLAUS CLUB INC", "city": "VALATIE", "state": "NY", "zip": "12184-0602", "ntee": "P20", "ruling": "201403", "deductibility": "1", "assets": 492882, "income": 28530, "revenue": 28530}, {"ein": "263081618", "name": "IGLESIA CRISTIANA NACION SANTA", "city": "FLUSHING", "state": "NY", "zip": "11354-2925", "ntee": "X20", "ruling": "200902", "deductibility": "1", "assets": 0, "income": 0, "revenue": 0}, {"ein": "272197268", "name": "SANTA MARIA FIGLI DITALIA", "city": "BRONX", "state": "NY", "zip": "10461-2903", "ntee": "S80", "ruling": "201905", "deductibility": "2", "assets": 0, "income": 0, "revenue": 0}, {"ein": "332836064", "name": "CUENTOS CON SANTA INC", "city": "NEW YORK", "state": "NY", "zip": "10032-4709", "ntee": "A20", "ruling": "202507", "deductibility": "1", "assets": 0, "income": 0, "revenue": 0}, {"ein": "471011716", "name": "SANTA HAT SOCIETY INC", "city": "DANSVILLE", "state": "NY", "zip": "14437-9025", "ntee": "P30", "ruling": "201509", "deductibility": "1", "assets": 18659, "income": 63214, "revenue": 63214}, {"ein": "473550134", "name": "MISION SANTA ROSA DE AGUAN INC", "city": "BRONX", "state": "NY", "zip": "10472-3801", "ntee": "X21", "ruling": "201604", "deductibility": "1", "assets": 0, "income": 0, "revenue": 0}, {"ein": "800839763", "name": "FIGLI DI SANTA ROSALIA INC", "city": "BROOKLYN", "state": "NY", "zip": "11214-0000", "ntee": "S20", "ruling": "201401", "deductibility": "2", "assets": 0, "income": 58400, "revenue": 58400}, {"ein": "815418325", "name": "IGLESIA NACION SANTA INC", "city": "BROOKLYN", "state": "NY", "zip": "11215-5389", "ntee": "X99", "ruling": "202401", "deductibility": "1", "assets": 0, "income": 0, "revenue": 0}, {"ein": "832434733", "name": "CITI SANTA INC", "city": "NANUET", "state": "NY", "zip": "10954-2423", "ntee": "P30", "ruling": "201811", "deductibility": "1", "assets": 60274, "income": 42063, "revenue": 42063}, {"ein": "834247411", "name": "ROCKIN WITH SANTA INC", "city": "TONAWANDA", "state": "NY", "zip": "14150-4023", "ntee": "P30", "ruling": "201906", "deductibility": "1", "assets": 7751, "income": 7288, "revenue": 7288}, {"ein": "844652475", "name": "FUND FOR SANTA MADDALENA INC", "city": "NEW YORK", "state": "NY", "zip": "10022-6445", "ntee": "A11", "ruling": "202104", "deductibility": "1", "assets": 548590, "income": 950000, "revenue": 950000}, {"ein": "863466721", "name": "SANTA LAND 365 INC", "city": "BROOKLYN", "state": "NY", "zip": "11238-4048", "ntee": "O20", "ruling": "202109", "deductibility": "1", "assets": 0, "income": 0, "revenue": 0}, {"ein": "871431668", "name": "SANTA TEAM", "city": "LEWISTON", "state": "NY", "zip": "14092-1108", "ntee": "P01", "ruling": "202202", "deductibility": "1", "assets": 0, "income": 0, "revenue": 0}, {"ein": "874040751", "name": "SANTA FOR SENIORS INC", "city": "HARTSDALE", "state": "NY", "zip": "10530-1732", "ntee": "P81", "ruling": "202212", "deductibility": "1", "assets": 0, "income": 0, "revenue": 0}, {"ein": "981486281", "name": "COMEDOR SANTA MARIA AC", "city": "NEW YORK", "state": "NY", "zip": "10006-0000", "ntee": "Q33", "ruling": "202108", "deductibility": "4", "assets": 6811631, "income": 6070042, "revenue": 6070042}, {"ein": "993695496", "name": "FUNDACION SANTA LA MILAGROSA INC", "city": "BRONX", "state": "NY", "zip": "10460-1077", "ntee": "P40", "ruling": "202408", "deductibility": "1", "assets": 0, "income": 0, "revenue": 0}], "BENEFICIARY": [{"ein": "043691620", "name": "ROCKEFELLER FDN VOLUNTARY EMPLOYEE BENEFICIARY ASSOCIATION TR", "city": "NEW YORK", "state": "NY", "zip": "10018-2729", "ntee": "Y43", "ruling": "200306", "deductibility": "2", "assets": 1750656, "income": 83705, "revenue": 83705}, {"ein": "112690737", "name": "J DADDARIO & CO INC VOLUNTARY EMPLOYEES BENEFICIARY ASSOCIATION", "city": "FARMINGDALE", "state": "NY", "zip": "11735-1116", "ntee": "", "ruling": "198904", "deductibility": "2", "assets": 0, "income": 0, "revenue": 0}, {"ein": "161493650", "name": "ESL FEDERAL CREDIT UNION EMPLOYEES BENEFICIARY ASSOCIATION", "city": "ROCHESTER", "state": "NY", "zip": "14604-2426", "ntee": "Y44", "ruling": "201605", "deductibility": "2", "assets": 7690382, "income": 1376471, "revenue": 413644}, {"ein": "825054217", "name": "LALOR DENTAL LLC VOLUNTARY EMPLOYEES BENEFICIARY ASSOC TRUST", "city": "JOHNSON CITY", "state": "NY", "zip": "13790-1018", "ntee": "Y43", "ruling": "202005", "deductibility": "2", "assets": 886583, "income": 816037, "revenue": 816037}], "CHANGING": [{"ein": "043787207", "name": "CHANGING LIVES CHRISTIAN CENTER INC", "city": "BROOKLYN", "state": "NY", "zip": "11207-6738", "ntee": "X21", "ruling": "200408", "deductibility": "1", "assets": 0, "income": 0, "revenue": 0}, {"ein": "113250482", "name": "CHANGING LIVES MINISTRIES INC", "city": "HEMPSTEAD", "state": "NY", "zip": "11550-6512", "ntee": "X20Z", "ruling": "199502", "deductibility": "1", "assets": 0, "income": 0, "revenue": 0}, {"ein": "113314704", "name": "CHANGING WAYS ASSOCIATION INC", "city": "BROOKLYN", "state": "NY", "zip": "11210-2935", "ntee": "T50", "ruling": "202212", "deductibility": "1", "assets": 0, "income": 0, "revenue": 0}, {"ein": "113451538", "name": "LA-EL LIFE CHANGING MINISTRIES", "city": "BROOKLYN", "state": "NY", "zip": "11208-4436", "ntee": "X21", "ruling": "200104", "deductibility": "1", "assets": 0, "income": 0, "revenue": 0}, {"ein": "132997956", "name": "CHANGING TIMES TAP DANCING CO", "city": "NEW YORK", "state": "NY", "zip": "10013-2740", "ntee": "", "ruling": "197912", "deductibility": "1", "assets": 115896, "income": 60501, "revenue": 60501}, {"ein": "205693722", "name": "LIFE CHANGING EVANGELICAL CHURCHINC", "city": "BRONX", "state": "NY", "zip": "10469-3229", "ntee": "X20", "ruling": "200706", "deductibility": "1", "assets": 0, "income": 0, "revenue": 0}, {"ein": "341978622", "name": "LIFE CHANGING MINISTRIES INC", "city": "W HENRIETTA", "state": "NY", "zip": "14586-9302", "ntee": "X212", "ruling": "200704", "deductibility": "1", "assets": 0, "income": 0, "revenue": 0}, {"ein": "452559769", "name": "CHANGING THE COMMUNITY INC", "city": "ROCHESTER", "state": "NY", "zip": "14611-2444", "ntee": "N20", "ruling": "201903", "deductibility": "1", "assets": 1, "income": 33600, "revenue": 0}, {"ein": "452710378", "name": "CHANGING OUR CONSCIOUSNESS INC", "city": "NEW YORK", "state": "NY", "zip": "10025-5164", "ntee": "R30", "ruling": "201107", "deductibility": "1", "assets": 0, "income": 0, "revenue": 0}, {"ein": "461249624", "name": "LIFE CHANGING GOSPEL CHURCH INC", "city": "NEW YORK", "state": "NY", "zip": "10027-2070", "ntee": "X20", "ruling": "201406", "deductibility": "1", "assets": 0, "income": 0, "revenue": 0}, {"ein": "461996169", "name": "CHANGING HANDS CORP", "city": "RIDGE", "state": "NY", "zip": "11961-1606", "ntee": "", "ruling": "201304", "deductibility": "1", "assets": 0, "income": 0, "revenue": 0}, {"ein": "473883306", "name": "HRP LIFE CHANGING MINISTRIES OF NEW YORK INC", "city": "NEW WINDSOR", "state": "NY", "zip": "12553-7900", "ntee": "X20", "ruling": "201511", "deductibility": "1", "assets": 0, "income": 0, "revenue": 0}, {"ein": "474378427", "name": "CHANGING THE MINDSET OUT REACH MINISTRIES INC", "city": "BRONX", "state": "NY", "zip": "10460-4912", "ntee": "X99", "ruling": "201608", "deductibility": "1", "assets": 0, "income": 0, "revenue": 0}, {"ein": "475673329", "name": "LIFE CHANGING LABS FOUNDATION", "city": "ITHACA", "state": "NY", "zip": "14850-6701", "ntee": "B80", "ruling": "202308", "deductibility": "1", "assets": 44935, "income": 59202, "revenue": 59202}, {"ein": "721514220", "name": "LIFE CHANGING OUTREACH MINISTRY", "city": "BROOKLYN", "state": "NY", "zip": "11233-4230", "ntee": "X21", "ruling": "200312", "deductibility": "1", "assets": 0, "income": 0, "revenue": 0}, {"ein": "743099329", "name": "LIFE CHANGING MINISTRIES INC", "city": "W HEMPSTEAD", "state": "NY", "zip": "11552-4118", "ntee": "X21", "ruling": "200909", "deductibility": "1", "assets": 0, "income": 0, "revenue": 0}, {"ein": "770712612", "name": "LIFE CHANGING MINISTRIES", "city": "FAR ROCKAWAY", "state": "NY", "zip": "11691-2234", "ntee": "X21", "ruling": "200909", "deductibility": "1", "assets": 0, "income": 0, "revenue": 0}, {"ein": "800840315", "name": "CHANGING LIVES COMMUNITY DEVELOPMENT CORPORATION", "city": "W HEMPSTEAD", "state": "NY", "zip": "11552-4118", "ntee": "O30", "ruling": "201508", "deductibility": "1", "assets": 0, "income": 0, "revenue": 0}, {"ein": "811990533", "name": "CHANGING MARKETS FOUNDATION INC", "city": "NEW YORK", "state": "NY", "zip": "10018-7311", "ntee": "C30", "ruling": "201612", "deductibility": "1", "assets": 29440, "income": 425720, "revenue": 425720}, {"ein": "823647878", "name": "CHANGING ROOM11", "city": "NEW YORK", "state": "NY", "zip": "10014-7510", "ntee": "P43", "ruling": "201808", "deductibility": "1", "assets": 0, "income": 0, "revenue": 0}, {"ein": "825367184", "name": "CHANGING YOUTH BASKETBALL", "city": "MONTGOMERY", "state": "NY", "zip": "12549-2341", "ntee": "P20", "ruling": "202208", "deductibility": "1", "assets": 0, "income": 0, "revenue": 0}, {"ein": "833844303", "name": "CHANGING NORMS INC", "city": "JAMAICA", "state": "NY", "zip": "11434-2002", "ntee": "O01", "ruling": "201904", "deductibility": "1", "assets": 0, "income": 0, "revenue": 0}, {"ein": "845046384", "name": "INSTITUTE FOR LIFE CHANGING MEDICINES", "city": "NEW YORK", "state": "NY", "zip": "10154-0008", "ntee": "H99", "ruling": "202004", "deductibility": "1", "assets": 908529, "income": 0, "revenue": 0}, {"ein": "912161967", "name": "HRP LIFE CHANGING MINISTRIES INC", "city": "NEWBURGH", "state": "NY", "zip": "12550-5518", "ntee": "", "ruling": "199207", "deductibility": "1", "assets": 0, "income": 0, "revenue": 0}, {"ein": "921110945", "name": "CHANGING METAPHORS INC", "city": "GERMANTOWN", "state": "NY", "zip": "12526-5825", "ntee": "X80", "ruling": "202212", "deductibility": "1", "assets": 0, "income": 0, "revenue": 0}, {"ein": "922933225", "name": "CHANGING THE COURSE OF THE RIVER", "city": "STATEN ISLAND", "state": "NY", "zip": "10303-2478", "ntee": "A65", "ruling": "202402", "deductibility": "1", "assets": 0, "income": 0, "revenue": 0}, {"ein": "934111763", "name": "LIFE CHANGING WORD CHURCH OF ORANGE COUNTY INC", "city": "ROCK TAVERN", "state": "NY", "zip": "12575-5560", "ntee": "X20", "ruling": "202405", "deductibility": "1", "assets": 0, "income": 0, "revenue": 0}, {"ein": "992201201", "name": "ONE WOMAN AT A TIME CHANGING LIVES INC", "city": "SCHENECTADY", "state": "NY", "zip": "12304-3029", "ntee": "P60", "ruling": "202406", "deductibility": "1", "assets": 0, "income": 0, "revenue": 0}], "YANKEE": [{"ein": "050527676", "name": "YANKEE LAKE PRESERVATION ALLIANCE INC", "city": "WURTSBORO", "state": "NY", "zip": "12790-0558", "ntee": "N50", "ruling": "200412", "deductibility": "2", "assets": 843099, "income": 154744, "revenue": 141283}, {"ein": "141979116", "name": "THE NEW YANKEE STADIUM COMMUNITY BENEFITS FUND INC", "city": "BRONX", "state": "NY", "zip": "10455-0000", "ntee": "T21", "ruling": "200709", "deductibility": "1", "assets": 454941, "income": 835000, "revenue": 0}, {"ein": "562449652", "name": "PENNSYLVANIA YANKEE THEATRE COMPANY INC", "city": "PENN YAN", "state": "NY", "zip": "14527-0106", "ntee": "A65", "ruling": "200410", "deductibility": "1", "assets": 469166, "income": 78466, "revenue": 76982}], "RESURRECTION": [{"ein": "050607115", "name": "RESURRECTION BROOKLYN PRESBYTERIAN CHURCH EPC", "city": "BROOKLYN", "state": "NY", "zip": "11215-4501", "ntee": "", "ruling": "198205", "deductibility": "1", "assets": 0, "income": 0, "revenue": 0}, {"ein": "061240617", "name": "RESURRECTION CHURCH", "city": "BROOKLYN", "state": "NY", "zip": "11232-3704", "ntee": "", "ruling": "198909", "deductibility": "1", "assets": 0, "income": 0, "revenue": 0}, {"ein": "061808652", "name": "CHURCH OF THE RESURRECTION", "city": "NEW YORK", "state": "NY", "zip": "10029-6401", "ntee": "", "ruling": "197507", "deductibility": "1", "assets": 0, "income": 0, "revenue": 0}, {"ein": "111631754", "name": "CHURCH OF THE RESURRECTION", "city": "KEW GARDENS", "state": "NY", "zip": "11415-2907", "ntee": "", "ruling": "197206", "deductibility": "1", "assets": 0, "income": 0, "revenue": 0}, {"ein": "111672761", "name": "EVANGELICAL LUTHERAN CHURCH OF THE RESURRECTION", "city": "JAMAICA", "state": "NY", "zip": "11412-2408", "ntee": "", "ruling": "198804", "deductibility": "1", "assets": 0, "income": 0, "revenue": 0}, {"ein": "111999237", "name": "RESURRECTION LUTHERAN CHURCH", "city": "FLUSHING", "state": "NY", "zip": "11358-3434", "ntee": "", "ruling": "194107", "deductibility": "1", "assets": 0, "income": 0, "revenue": 0}, {"ein": "112022909", "name": "LUTHERAN CHURCH OF THE RESURRECTION", "city": "GARDEN CITY", "state": "NY", "zip": "11530-4620", "ntee": "", "ruling": "194107", "deductibility": "1", "assets": 0, "income": 0, "revenue": 0}, {"ein": "112641109", "name": "RESURRECTION HOUSE INC", "city": "WHEATLEY HTS", "state": "NY", "zip": "11798-0493", "ntee": "L41Z", "ruling": "198411", "deductibility": "1", "assets": 669817, "income": 883507, "revenue": 883507}, {"ein": "112680744", "name": "CHURCH OF THE RESURRECTION", "city": "EAST ELMHURST", "state": "NY", "zip": "11369-2501", "ntee": "", "ruling": "197206", "deductibility": "1", "assets": 0, "income": 0, "revenue": 0}, {"ein": "112693683", "name": "RESURRECTION CATHOLIC COPTIC CHURCH", "city": "BROOKLYN", "state": "NY", "zip": "11215-5010", "ntee": "", "ruling": "194603", "deductibility": "1", "assets": 0, "income": 0, "revenue": 0}, {"ein": "112947886", "name": "RESURRECTION TEMPLE OF OUR LORD", "city": "BROOKLYN", "state": "NY", "zip": "11203-6602", "ntee": "", "ruling": "199104", "deductibility": "1", "assets": 0, "income": 0, "revenue": 0}, {"ein": "113397721", "name": "NEW LIGHT CHURCH OF RESURRECTION", "city": "QUEENS VLG", "state": "NY", "zip": "11427-1031", "ntee": "X99Z", "ruling": "199801", "deductibility": "1", "assets": 0, "income": 0, "revenue": 0}, {"ein": "113400588", "name": "RESURRECTION LIFE MINISTRIES INC", "city": "FRANKLIN SQ", "state": "NY", "zip": "11010-3247", "ntee": "P20", "ruling": "199709", "deductibility": "1", "assets": 0, "income": 0, "revenue": 0}, {"ein": "113507969", "name": "THE RESURRECTION CELEBRATION CENTER INC", "city": "SAINT ALBANS", "state": "NY", "zip": "11412-8025", "ntee": "X20", "ruling": "200407", "deductibility": "1", "assets": 0, "income": 0, "revenue": 0}, {"ein": "131809276", "name": "CHURCH OF THE RESURRECTION", "city": "NEW YORK", "state": "NY", "zip": "10021-3201", "ntee": "", "ruling": "197206", "deductibility": "1", "assets": 0, "income": 0, "revenue": 0}, {"ein": "132735131", "name": "RESURRECTION LUTHERAN CHURCH", "city": "BRONX", "state": "NY", "zip": "10452-3741", "ntee": "", "ruling": "198804", "deductibility": "1", "assets": 0, "income": 0, "revenue": 0}, {"ein": "132758224", "name": "RESURRECTION CHRISTIAN CHURCH", "city": "PATCHOGUE", "state": "NY", "zip": "11772-3817", "ntee": "", "ruling": "196401", "deductibility": "1", "assets": 0, "income": 0, "revenue": 0}, {"ein": "132859250", "name": "OUR LADY OF THE RESURRECTION MONASTERY INC C O BENEDICTINE MONK", "city": "COLD SPRINGS", "state": "NY", "zip": "10516-0000", "ntee": "", "ruling": "197704", "deductibility": "1", "assets": 0, "income": 0, "revenue": 0}, {"ein": "133182625", "name": "THE UNITED METHODIST CHURCH OF THE THE RESURRECTION", "city": "HAVERSTRAW", "state": "NY", "zip": "10927-0036", "ntee": "", "ruling": "198502", "deductibility": "1", "assets": 0, "income": 0, "revenue": 0}, {"ein": "133395338", "name": "RESURRECTION CHRISTIAN CENTER INC", "city": "BRONX", "state": "NY", "zip": "10475-0033", "ntee": "", "ruling": "198904", "deductibility": "1", "assets": 0, "income": 0, "revenue": 0}, {"ein": "133714127", "name": "RESURRECTION AND LIFE PENTECOSTAL CHURCH OF AMERICA INC", "city": "BRONX", "state": "NY", "zip": "10451-1708", "ntee": "", "ruling": "199407", "deductibility": "1", "assets": 1, "income": 124964, "revenue": 124964}, {"ein": "133782690", "name": "RESURRECTION COMMUNITY WORSHIP CENTER", "city": "MOUNT VERNON", "state": "NY", "zip": "10553-1006", "ntee": "", "ruling": "197210", "deductibility": "1", "assets": 0, "income": 0, "revenue": 0}, {"ein": "141510598", "name": "RESURRECTION LUTHERAN CHURCH", "city": "LATHAM", "state": "NY", "zip": "12110-3622", "ntee": "", "ruling": "194107", "deductibility": "1", "assets": 0, "income": 0, "revenue": 0}, {"ein": "141515753", "name": "RESURRECTION LUTHERAN CHURCH", "city": "CAIRO", "state": "NY", "zip": "12413-0563", "ntee": "", "ruling": "194107", "deductibility": "1", "assets": 0, "income": 0, "revenue": 0}, {"ein": "141908695", "name": "RESURRECTION PRESBYTERIAN CHURCH", "city": "BROOKLYN", "state": "NY", "zip": "11215-5223", "ntee": "", "ruling": "197404", "deductibility": "1", "assets": 0, "income": 0, "revenue": 0}, {"ein": "161119301", "name": "CHRISTIAN CHURCH OF THE RESURRECTION", "city": "EAST SYRACUSE", "state": "NY", "zip": "13057-9776", "ntee": "", "ruling": "196408", "deductibility": "1", "assets": 0, "income": 0, "revenue": 0}, {"ein": "161281750", "name": "RESURRECTION BIBLE CHURCH", "city": "ROCHESTER", "state": "NY", "zip": "14622-2604", "ntee": "", "ruling": "198705", "deductibility": "1", "assets": 0, "income": 0, "revenue": 0}, {"ein": "161487397", "name": "RESURRECTION LIFE MINISTRIES INC", "city": "ROCHESTER", "state": "NY", "zip": "14611-0000", "ntee": "X20Z", "ruling": "199608", "deductibility": "1", "assets": 0, "income": 0, "revenue": 0}, {"ein": "166028190", "name": "LUTHERAN CHURCH OF THE RESURRECTION", "city": "ROCHESTER", "state": "NY", "zip": "14617-2737", "ntee": "", "ruling": "198804", "deductibility": "1", "assets": 0, "income": 0, "revenue": 0}, {"ein": "204289014", "name": "RESURRECTION DELIVERANCE CHURCHINTERNATIONAL INC", "city": "YONKERS", "state": "NY", "zip": "10705-0272", "ntee": "X21", "ruling": "201709", "deductibility": "1", "assets": 0, "income": 0, "revenue": 0}, {"ein": "222315944", "name": "CHURCH OF THE RESURRECTION", "city": "E SYRACUSE", "state": "NY", "zip": "13057-9776", "ntee": "", "ruling": "196408", "deductibility": "1", "assets": 0, "income": 0, "revenue": 0}, {"ein": "222561812", "name": "RESURRECTION LIFE FELLOWSHIP AKA JOHN TONELLI MINSTRIES INC", "city": "CHEEKTOWAGA", "state": "NY", "zip": "14227-2722", "ntee": "X20Z", "ruling": "198508", "deductibility": "1", "assets": 0, "income": 0, "revenue": 0}, {"ein": "222780788", "name": "RESURRECTION LIFE FELLOWSHIP", "city": "MADISON", "state": "NY", "zip": "13402-0000", "ntee": "", "ruling": "198704", "deductibility": "1", "assets": 0, "income": 0, "revenue": 0}, {"ein": "223464878", "name": "RESURRECTION POWER AND LIVING BREAD", "city": "BRONX", "state": "NY", "zip": "10457-6017", "ntee": "X20Z", "ruling": "199805", "deductibility": "1", "assets": 0, "income": 0, "revenue": 0}, {"ein": "237317829", "name": "CHURCH OF THE RESURRECTION", "city": "FAIRPORT", "state": "NY", "zip": "14450-9545", "ntee": "", "ruling": "194603", "deductibility": "1", "assets": 0, "income": 0, "revenue": 0}, {"ein": "264766892", "name": "RESURRECTION EPISCOPAL DAY SCHOOL", "city": "NEW YORK", "state": "NY", "zip": "10021-3201", "ntee": "B21", "ruling": "200909", "deductibility": "1", "assets": 10398489, "income": 7158658, "revenue": 4093708}, {"ein": "271782477", "name": "CHURCH OF THE RESURRECTION", "city": "WILLISTON PK", "state": "NY", "zip": "11596-1606", "ntee": "", "ruling": "197206", "deductibility": "1", "assets": 0, "income": 0, "revenue": 0}, {"ein": "311637150", "name": "RESURRECTION POWER MINISTRIES", "city": "DEPEW", "state": "NY", "zip": "14043-1027", "ntee": "O01", "ruling": "199905", "deductibility": "1", "assets": 0, "income": 0, "revenue": 0}, {"ein": "311753667", "name": "RESURRECTION BAPTIST CHURCH OF CHRIST INC", "city": "BROOKLYN", "state": "NY", "zip": "11221-1898", "ntee": "X20", "ruling": "200105", "deductibility": "1", "assets": 0, "income": 0, "revenue": 0}, {"ein": "371526711", "name": "CHURCH OF THE RESURRECTION INTERNATIONAL INC", "city": "ROCHESTER", "state": "NY", "zip": "14619-1216", "ntee": "X21", "ruling": "200909", "deductibility": "1", "assets": 0, "income": 0, "revenue": 0}, {"ein": "812027782", "name": "RESURRECTION LIFE NYC", "city": "NEW YORK", "state": "NY", "zip": "10128-0022", "ntee": "", "ruling": "197005", "deductibility": "1", "assets": 0, "income": 0, "revenue": 0}, {"ein": "812756467", "name": "RESURRECTION ASCENSION CATHOLIC ACADEMY", "city": "REGO PARK", "state": "NY", "zip": "11374-2733", "ntee": "", "ruling": "194603", "deductibility": "1", "assets": 0, "income": 0, "revenue": 0}, {"ein": "812943095", "name": "CHURCH OF GRACE AND RESURRECTION", "city": "EAST ELMHURST", "state": "NY", "zip": "11369-2501", "ntee": "", "ruling": "197206", "deductibility": "1", "assets": 0, "income": 0, "revenue": 0}, {"ein": "822187111", "name": "ENDTIME RESURRECTION FAITH MINISTRY", "city": "BRONX", "state": "NY", "zip": "10468-1154", "ntee": "X20", "ruling": "201805", "deductibility": "1", "assets": 0, "income": 0, "revenue": 0}, {"ein": "833683041", "name": "RESURRECTION POWER & LIVING BREAD MIN INT NORTH BRONX NEW YORK INC", "city": "BRONX", "state": "NY", "zip": "10456-7202", "ntee": "X20", "ruling": "202103", "deductibility": "1", "assets": 0, "income": 0, "revenue": 0}, {"ein": "854162392", "name": "RESURRECTION POWER NEW GENERATION CHURCH INTERNATIONAL INC", "city": "BRONX", "state": "NY", "zip": "10452-3100", "ntee": "X21", "ruling": "202204", "deductibility": "1", "assets": 0, "income": 0, "revenue": 0}], "WISH": [{"ein": "050625092", "name": "RYANS WISH FOUNDATION", "city": "GOUVERNEUR", "state": "NY", "zip": "13642-0326", "ntee": "G12", "ruling": "201209", "deductibility": "1", "assets": 81907, "income": 71253, "revenue": 70263}, {"ein": "112645641", "name": "MAKE-A-WISH FOUNDATION OF METRO NEW YORK AND WESTERN NEW YORK", "city": "NEW YORK", "state": "NY", "zip": "10110-0002", "ntee": "", "ruling": "198309", "deductibility": "1", "assets": 27369776, "income": 17807063, "revenue": 13524147}, {"ein": "113265960", "name": "CARLITOS WISH FOUNDATION", "city": "NEW YORK", "state": "NY", "zip": "10008-1997", "ntee": "Z99", "ruling": "199607", "deductibility": "1", "assets": 18275, "income": 93789, "revenue": 28483}, {"ein": "133344306", "name": "MAKE-A-WISH FOUNDATION OF THE HUDSON VALLEY INC", "city": "TARRYTOWN", "state": "NY", "zip": "10591-6602", "ntee": "", "ruling": "198703", "deductibility": "1", "assets": 3096871, "income": 3869584, "revenue": 3127179}, {"ein": "133778403", "name": "A WISH & A SMILE INC", "city": "CORNWALL", "state": "NY", "zip": "12518-1901", "ntee": "T70Z", "ruling": "199701", "deductibility": "1", "assets": 39763, "income": 8260, "revenue": 5903}, {"ein": "141703503", "name": "MAKE-A-WISH FOUNDATION OF NORTHEAST NEW YORK", "city": "ALBANY", "state": "NY", "zip": "12205-5530", "ntee": "E86Z", "ruling": "199211", "deductibility": "1", "assets": 5362509, "income": 2720502, "revenue": 1813947}, {"ein": "200919179", "name": "HAITIAN ORPHANS WISH", "city": "UNIONDALE", "state": "NY", "zip": "11553-0774", "ntee": "Q33", "ruling": "200905", "deductibility": "1", "assets": 35652, "income": 71885, "revenue": 71885}, {"ein": "222490128", "name": "CHRISTMAS WISH CAMPAIGN INC", "city": "LATHAM", "state": "NY", "zip": "12110-1046", "ntee": "O12", "ruling": "202407", "deductibility": "1", "assets": 8045, "income": 153260, "revenue": 153260}, {"ein": "222572086", "name": "MAKE-A-WISH FOUNDATION OF CENTRAL NEW YORK INC", "city": "EAST SYRACUSE", "state": "NY", "zip": "13057-1222", "ntee": "", "ruling": "198907", "deductibility": "1", "assets": 2769000, "income": 4559677, "revenue": 3002342}, {"ein": "264595056", "name": "DANNYS WISH", "city": "SOUTHOLD", "state": "NY", "zip": "11971-1000", "ntee": "T31", "ruling": "200906", "deductibility": "1", "assets": 1, "income": 0, "revenue": 0}, {"ein": "270418989", "name": "WISH DREAMER FOUNDATION INC", "city": "FLUSHING", "state": "NY", "zip": "11355-2350", "ntee": "P71", "ruling": "201005", "deductibility": "1", "assets": 0, "income": 0, "revenue": 0}, {"ein": "271720380", "name": "ANNAS WISH INC", "city": "NORTH CHILI", "state": "NY", "zip": "14514-0027", "ntee": "E86", "ruling": "201005", "deductibility": "1", "assets": 0, "income": 0, "revenue": 0}, {"ein": "320397616", "name": "WISH OF ROCKAWAY INC", "city": "BELLE HARBOR", "state": "NY", "zip": "11694-1770", "ntee": "S20", "ruling": "201302", "deductibility": "1", "assets": 126783, "income": 75697, "revenue": 57632}, {"ein": "475445387", "name": "WILLYS WISH FOUNDATION INC", "city": "MOUNT KISCO", "state": "NY", "zip": "10549-2525", "ntee": "T20", "ruling": "201610", "deductibility": "1", "assets": 893272, "income": 32054, "revenue": 0}, {"ein": "475512716", "name": "MATTHEWS WISH FOUNDATION INC", "city": "MANORVILLE", "state": "NY", "zip": "11949-2827", "ntee": "T12", "ruling": "201511", "deductibility": "1", "assets": 0, "income": 0, "revenue": 0}, {"ein": "650720792", "name": "BARRY AND OBLIO WISH FAMILY FOUNDATION", "city": "PEARL RIVER", "state": "NY", "zip": "10965-0930", "ntee": "T22Z", "ruling": "199801", "deductibility": "1", "assets": 3411299, "income": 2148105, "revenue": 0}, {"ein": "813375806", "name": "JESSES WISH", "city": "NEW YORK", "state": "NY", "zip": "10128-5342", "ntee": "G30", "ruling": "201608", "deductibility": "1", "assets": 0, "income": 0, "revenue": 0}, {"ein": "820949505", "name": "MELISSAS WISH INC", "city": "KINGS PARK", "state": "NY", "zip": "11754-0045", "ntee": "P60", "ruling": "201805", "deductibility": "1", "assets": 0, "income": 0, "revenue": 0}, {"ein": "831761484", "name": "BODHISATTVA WISH TEMPLE INC", "city": "FLUSHING", "state": "NY", "zip": "11354-1927", "ntee": "X50", "ruling": "202001", "deductibility": "1", "assets": 270534, "income": 457899, "revenue": 457899}, {"ein": "863502215", "name": "TJ S WISH INC", "city": "HALESITE", "state": "NY", "zip": "11743-1203", "ntee": "P30", "ruling": "202305", "deductibility": "1", "assets": 0, "income": 0, "revenue": 0}, {"ein": "883219863", "name": "JOEYS WISH INC", "city": "ELBRIDGE", "state": "NY", "zip": "13060-0372", "ntee": "F12", "ruling": "202207", "deductibility": "1", "assets": 29268, "income": 19357, "revenue": 19357}], "CHAIN": [{"ein": "061543111", "name": "FULTON CHAIN OF LAKES PERFORMING ARTS COUNCIL INC", "city": "INLET", "state": "NY", "zip": "13360-0680", "ntee": "A26", "ruling": "200003", "deductibility": "1", "assets": 40845, "income": 89163, "revenue": 89163}, {"ein": "112666042", "name": "THE UNBROKEN CHAIN FELLOWSHIP INC", "city": "BROOKLYN", "state": "NY", "zip": "11224-1308", "ntee": "", "ruling": "198503", "deductibility": "1", "assets": 0, "income": 0, "revenue": 0}, {"ein": "133849152", "name": "DI GOLDENE KEYT THE GOLDEN CHAIN LTD", "city": "NEW YORK", "state": "NY", "zip": "10113-1597", "ntee": "A23Z", "ruling": "199601", "deductibility": "1", "assets": 2106, "income": 142433, "revenue": 0}, {"ein": "134129284", "name": "CONGREGATION TESHIAS CHAIN INC", "city": "SPRING VALLEY", "state": "NY", "zip": "10977-1910", "ntee": "X30", "ruling": "200009", "deductibility": "1", "assets": 0, "income": 0, "revenue": 0}, {"ein": "222322515", "name": "FULTON CHAIN OF LAKES IMPROVEMENTASSOCIATION INCORPORATE", "city": "OLD FORGE", "state": "NY", "zip": "13420-0564", "ntee": "", "ruling": "198102", "deductibility": "1", "assets": 0, "income": 0, "revenue": 0}, {"ein": "222568281", "name": "CHAIN PHARMACY ASSOCIATION OF NEW YORK STATE INC", "city": "ALBANY", "state": "NY", "zip": "12210-2822", "ntee": "", "ruling": "198504", "deductibility": "2", "assets": 65679, "income": 130400, "revenue": 130400}, {"ein": "383815173", "name": "CHAIN OF HOPE INC", "city": "BRONX", "state": "NY", "zip": "10466-4808", "ntee": "Q33", "ruling": "201312", "deductibility": "1", "assets": 0, "income": 0, "revenue": 0}, {"ein": "650328165", "name": "CHAIN RESTAURANT COMPENSATION ASSOCIATION INC", "city": "NEW YORK", "state": "NY", "zip": "10018-8403", "ntee": "S40", "ruling": "201208", "deductibility": "2", "assets": 427555, "income": 225805, "revenue": 225805}, {"ein": "844373150", "name": "CHAIN OF OUR GOOD", "city": "BROOKLYN", "state": "NY", "zip": "11216-3605", "ntee": "A99", "ruling": "202002", "deductibility": "1", "assets": 0, "income": 0, "revenue": 0}, {"ein": "850937773", "name": "GLOBAL PEACE CHAIN FOUNDATION", "city": "BRONX", "state": "NY", "zip": "10462-3680", "ntee": "", "ruling": "202505", "deductibility": "1", "assets": 0, "income": 0, "revenue": 0}, {"ein": "870688662", "name": "CHAIN VCHESED", "city": "MONROE", "state": "NY", "zip": "10950-2195", "ntee": "X30", "ruling": "200309", "deductibility": "1", "assets": 0, "income": 0, "revenue": 0}], "RESIDENTS": [{"ein": "061756910", "name": "EAST 86TH STREET MERCHANTS RESIDENTS ASSOCIATION INC", "city": "NEW YORK", "state": "NY", "zip": "10075-0855", "ntee": "S20", "ruling": "200609", "deductibility": "1", "assets": 0, "income": 0, "revenue": 0}, {"ein": "113115119", "name": "ASTORIA RESIDENTS RECLAIMING OUR WORLD INC", "city": "BROOKLYN", "state": "NY", "zip": "11211-4063", "ntee": "C410", "ruling": "199601", "deductibility": "1", "assets": 0, "income": 0, "revenue": 0}, {"ein": "113288877", "name": "COOPER PARK RESIDENTS COUNCIL INC", "city": "BROOKLYN", "state": "NY", "zip": "11211-1636", "ntee": "P50", "ruling": "201002", "deductibility": "1", "assets": 0, "income": 0, "revenue": 0}, {"ein": "113556000", "name": "RESIDENTS ASSOCIATION OF LAFAYETTE GARDENS INC", "city": "BROOKLYN", "state": "NY", "zip": "11205-4337", "ntee": "L50", "ruling": "200605", "deductibility": "1", "assets": 0, "income": 0, "revenue": 0}, {"ein": "132647330", "name": "ANCHORAGE RESIDENTS ASSOCIATION INC", "city": "NEW ROCHELLE", "state": "NY", "zip": "10805-2108", "ntee": "L51Z", "ruling": "197003", "deductibility": "2", "assets": 74093, "income": 60452, "revenue": 60452}, {"ein": "132736659", "name": "BOWERY RESIDENTS COMMITTEE INC", "city": "NEW YORK", "state": "NY", "zip": "10001-7243", "ntee": "P200", "ruling": "197307", "deductibility": "1", "assets": 315709299, "income": 185172879, "revenue": 184820254}, {"ein": "132771401", "name": "COMMITTEE OF INTERNS & RESIDENTS", "city": "LONG ISLAND", "state": "NY", "zip": "11101-5245", "ntee": "", "ruling": "196403", "deductibility": "2", "assets": 16674528, "income": 23732135, "revenue": 23166260}, {"ein": "132882275", "name": "POCANTICO HILLS RESIDENTS ASSOCIATION", "city": "SLEEPY HOLLOW", "state": "NY", "zip": "10591-1206", "ntee": "C50", "ruling": "201203", "deductibility": "1", "assets": 0, "income": 0, "revenue": 0}, {"ein": "133045148", "name": "PATIENT CARE TRUST FUND OF THE COMMITTEE OF INTERNS & RESIDENTS", "city": "LONG ISLAND CITY", "state": "NY", "zip": "11101-5245", "ntee": "E21I", "ruling": "198206", "deductibility": "1", "assets": 3773646, "income": 2022372, "revenue": 802970}, {"ein": "133154253", "name": "WESTBETH ARTISTS-RESIDENTS COUNCIL INC", "city": "NEW YORK", "state": "NY", "zip": "10014-2040", "ntee": "", "ruling": "199408", "deductibility": "1", "assets": 48720, "income": 103639, "revenue": 103639}, {"ein": "133284659", "name": "THE RESIDENTS OF SYLVAN TERRACE", "city": "NEW YORK", "state": "NY", "zip": "10032-5305", "ntee": "L50", "ruling": "201707", "deductibility": "2", "assets": 0, "income": 0, "revenue": 0}, {"ein": "133418264", "name": "GROUP RESIDENTS OF WESTCHESTER INC", "city": "WHITE PLAINS", "state": "NY", "zip": "10602-1692", "ntee": "", "ruling": "198506", "deductibility": "1", "assets": 0, "income": 0, "revenue": 0}, {"ein": "133749556", "name": "BLEECKER AREA MERCHANTS AND RESIDENTS ASSOCIATION INC", "city": "NEW YORK", "state": "NY", "zip": "10012-1360", "ntee": "S20Z", "ruling": "199508", "deductibility": "1", "assets": 0, "income": 0, "revenue": 0}, {"ein": "134071468", "name": "COMMITTEE OF INTERNS AND RESIDENTS EDUCATIONAL EXPENSES REIMBURSTMENT", "city": "LONG ISLAND CITY", "state": "NY", "zip": "11101-5245", "ntee": "Y43", "ruling": "200007", "deductibility": "2", "assets": 7428182, "income": 3576581, "revenue": 2824348}, {"ein": "141827249", "name": "ROCHESTER RESIDENTS ASSOCIATION INC", "city": "ACCORD", "state": "NY", "zip": "12404-0003", "ntee": "S20", "ruling": "200102", "deductibility": "1", "assets": 0, "income": 0, "revenue": 0}, {"ein": "161518521", "name": "RESIDENTS ASSOCIATION OF KENDAL AT ITHACA", "city": "ITHACA", "state": "NY", "zip": "14850-6513", "ntee": "P81Z", "ruling": "199806", "deductibility": "1", "assets": 214209, "income": 302618, "revenue": 297665}, {"ein": "161534210", "name": "CITYWIDE COUNCIL OF SYRACUSE LOW INCOME HOUSING RESIDENTS INC", "city": "SYRACUSE", "state": "NY", "zip": "13202-0000", "ntee": "L20Z", "ruling": "199710", "deductibility": "1", "assets": 31200, "income": 108523, "revenue": 108523}, {"ein": "200502490", "name": "ROOSEVELT ISLAND RESIDENTS ASSOCIATION", "city": "ROOSEVELT ISLAND", "state": "NY", "zip": "10044-0190", "ntee": "P20", "ruling": "200403", "deductibility": "2", "assets": 0, "income": 0, "revenue": 0}, {"ein": "203784683", "name": "KENDAL ON HUDSON RESIDENTS ASSOCIATION", "city": "SLEEPY HOLLOW", "state": "NY", "zip": "10591-1055", "ntee": "P75", "ruling": "200609", "deductibility": "1", "assets": 711170, "income": 260134, "revenue": 160270}, {"ein": "237148060", "name": "RESIDENTS FOR A MORE BEAUTIFUL PORT WASHINGTON INC", "city": "PRT WASHINGTN", "state": "NY", "zip": "11050-0864", "ntee": "C500", "ruling": "197110", "deductibility": "1", "assets": 248482, "income": 193635, "revenue": 163124}, {"ein": "237388148", "name": "WOODHAVEN RESIDENTS BLOCK ASSOCIATION INC", "city": "WOODHAVEN", "state": "NY", "zip": "11421-1920", "ntee": "P20", "ruling": "201705", "deductibility": "1", "assets": 96373, "income": 42685, "revenue": 41263}, {"ein": "271571818", "name": "DORRENCE BROOKS PROPERTY OWNERS & RESIDENTS ASSOC", "city": "NEW YORK", "state": "NY", "zip": "10030-0227", "ntee": "W99", "ruling": "202303", "deductibility": "1", "assets": 1593, "income": 1715, "revenue": 1715}, {"ein": "300176215", "name": "GALLATIN RESIDENTS ASSOCIATION", "city": "PINE PLAINS", "state": "NY", "zip": "12567-8613", "ntee": "W24", "ruling": "200311", "deductibility": "1", "assets": 0, "income": 0, "revenue": 0}, {"ein": "331151962", "name": "FARMINGVILLE RESIDENTS ASSOCIATION INC", "city": "FARMINGVILLE", "state": "NY", "zip": "11738-0302", "ntee": "P84", "ruling": "200707", "deductibility": "1", "assets": 17467, "income": 26528, "revenue": 26528}, {"ein": "334707254", "name": "BETTER WITH BETTY RESIDENTS INC", "city": "BAY SHORE", "state": "NY", "zip": "11706-1928", "ntee": "B90", "ruling": "202506", "deductibility": "1", "assets": 0, "income": 0, "revenue": 0}, {"ein": "352182698", "name": "PUTNAM VALLEY RESIDENTS COALITION CORP", "city": "PUTNAM VALLEY", "state": "NY", "zip": "10579-2400", "ntee": "S32", "ruling": "200301", "deductibility": "1", "assets": 0, "income": 0, "revenue": 0}, {"ein": "465296396", "name": "BATTERY PARK RESIDENTS ACTION CORPORATION", "city": "NEW YORK", "state": "NY", "zip": "10038-0000", "ntee": "D99", "ruling": "201407", "deductibility": "1", "assets": 0, "income": 0, "revenue": 0}, {"ein": "472791597", "name": "OCEANSIDE RESIDENTS COUNCIL", "city": "ARVERNE", "state": "NY", "zip": "11692-1702", "ntee": "L80", "ruling": "202401", "deductibility": "1", "assets": 0, "income": 0, "revenue": 0}, {"ein": "522387665", "name": "RESIDENTS FOR RESPONSIBLE GOVERNMENT INC", "city": "YOUNGSTOWN", "state": "NY", "zip": "14174-0262", "ntee": "C05", "ruling": "200306", "deductibility": "1", "assets": 0, "income": 0, "revenue": 0}, {"ein": "800558407", "name": "FRIENDS & RESIDENTS OF THE GREATER GOWANUS", "city": "BROOKLYN", "state": "NY", "zip": "11202-5521", "ntee": "C20", "ruling": "201102", "deductibility": "1", "assets": 0, "income": 0, "revenue": 0}, {"ein": "811869442", "name": "ST GEORGE SENIOR RESIDENTS APARTMENTS INC", "city": "BROOKLYN", "state": "NY", "zip": "11219-5205", "ntee": "L22", "ruling": "201609", "deductibility": "1", "assets": 0, "income": 0, "revenue": 0}, {"ein": "822497374", "name": "AURENE RESIDENTS ADVISORY INC", "city": "PAINTED POST", "state": "NY", "zip": "14870-0014", "ntee": "L50", "ruling": "201804", "deductibility": "2", "assets": 0, "income": 0, "revenue": 0}, {"ein": "843110055", "name": "NEW YORK RESIDENTS ALLIANCE", "city": "BAYSIDE", "state": "NY", "zip": "11364-0000", "ntee": "S01", "ruling": "201909", "deductibility": "1", "assets": 76050, "income": 57644, "revenue": 57644}, {"ein": "850552162", "name": "SUMMERVILLE WHITE CITY WINDSOR AND BEITRY BEACH RESIDENTS ASSOCIATION", "city": "ROCHESTER", "state": "NY", "zip": "14617-1230", "ntee": "S22", "ruling": "202205", "deductibility": "1", "assets": 0, "income": 0, "revenue": 0}, {"ein": "861116144", "name": "GUN HILL RESIDENTS ASSOCIATION", "city": "BRONX", "state": "NY", "zip": "10467-5716", "ntee": "P20", "ruling": "201509", "deductibility": "1", "assets": 0, "income": 0, "revenue": 0}, {"ein": "920990832", "name": "OZONE PARK RESIDENTS BLOCK ASSOCIATION-OZPKRBA INC", "city": "OZONE PARK", "state": "NY", "zip": "11416-1314", "ntee": "B01", "ruling": "202301", "deductibility": "1", "assets": 1, "income": 67298, "revenue": 67298}, {"ein": "931543527", "name": "HUNT GALLERY ARTISTS AND RESIDENTS", "city": "DEPEW", "state": "NY", "zip": "14043-1819", "ntee": "A90", "ruling": "202407", "deductibility": "1", "assets": 298, "income": 5541, "revenue": 5541}, {"ein": "932345840", "name": "SOUTHEAST QUEENS RESIDENTS ENVIRONMENTAL JUSTICE COALITION", "city": "JAMAICA", "state": "NY", "zip": "11434-1415", "ntee": "C20", "ruling": "202402", "deductibility": "1", "assets": 0, "income": 0, "revenue": 0}, {"ein": "990627673", "name": "RESIDENTS TO PRESERVE PUBLIC HOUSING", "city": "NEW YORK", "state": "NY", "zip": "10035-4278", "ntee": "B01", "ruling": "202401", "deductibility": "1", "assets": 0, "income": 0, "revenue": 0}], "ELMONT": [{"ein": "110717250", "name": "ELMONT CEMETERY INC", "city": "ELMONT", "state": "NY", "zip": "11003-1600", "ntee": "", "ruling": "195701", "deductibility": "1", "assets": 159126490, "income": 16701508, "revenue": 11741139}, {"ein": "112144865", "name": "EMANUEL BAPTIST CHURCH OF ELMONT", "city": "ELMONT", "state": "NY", "zip": "11003-1230", "ntee": "", "ruling": "198206", "deductibility": "1", "assets": 0, "income": 0, "revenue": 0}, {"ein": "112843872", "name": "ELMONT CARDINALS SPORTS CLUB INC", "city": "ELMONT", "state": "NY", "zip": "11003-0469", "ntee": "N60", "ruling": "202311", "deductibility": "1", "assets": 0, "income": 0, "revenue": 0}, {"ein": "113475298", "name": "ELMONT CHAMBER OF COMMERCE INC", "city": "ELMONT", "state": "NY", "zip": "11003-3532", "ntee": "S41", "ruling": "201311", "deductibility": "2", "assets": 0, "income": 0, "revenue": 0}, {"ein": "113809930", "name": "ELMONT EAST END CHEMICAL ENGINE AND HOSE COMPANY INC", "city": "ELMONT", "state": "NY", "zip": "11003-3241", "ntee": "M24", "ruling": "201405", "deductibility": "1", "assets": 1258534, "income": 126624, "revenue": 126624}, {"ein": "116003255", "name": "ELMONT JEWISH CENTER", "city": "ELMONT", "state": "NY", "zip": "11003-3533", "ntee": "", "ruling": "196302", "deductibility": "1", "assets": 0, "income": 0, "revenue": 0}, {"ein": "262910527", "name": "EGLISE BAPTISTE D EXPRESSION FRANCAISE D ELMONT", "city": "ELMONT", "state": "NY", "zip": "11003-3218", "ntee": "X20", "ruling": "200905", "deductibility": "1", "assets": 0, "income": 0, "revenue": 0}, {"ein": "453843602", "name": "SANCTUARY UNITED PENTECOSTAL CHURCH OF ELMONT INC", "city": "ELMONT", "state": "NY", "zip": "11003-2436", "ntee": "X21", "ruling": "201802", "deductibility": "1", "assets": 0, "income": 0, "revenue": 0}, {"ein": "471455869", "name": "VOLUNTEER & EXEMPT FIREMENS BENEVOLENT ASSOCIATION OF ELMONT N", "city": "ELMONT", "state": "NY", "zip": "11003-2431", "ntee": "M19", "ruling": "201501", "deductibility": "2", "assets": 2657415, "income": 264596, "revenue": 264596}, {"ein": "800638108", "name": "ZION YOUTH & FAMILY COMMUNITY CENTER OF ELMONT INC", "city": "ELMONT", "state": "NY", "zip": "11003-2950", "ntee": "P28", "ruling": "201401", "deductibility": "1", "assets": 0, "income": 0, "revenue": 0}, {"ein": "814109031", "name": "ELMONT ISLAMIC CENTER CORP", "city": "ELMONT", "state": "NY", "zip": "11003-1906", "ntee": "X40", "ruling": "202209", "deductibility": "1", "assets": 479591, "income": 143941, "revenue": 143941}, {"ein": "824728116", "name": "ELMONT CULTURAL CENTER", "city": "ELMONT", "state": "NY", "zip": "11003-4214", "ntee": "P20", "ruling": "201906", "deductibility": "1", "assets": 0, "income": 0, "revenue": 0}], "CARLE": [{"ein": "111992142", "name": "CARLE PLACE HOOK LADDER & HOSE CO 1", "city": "CARLE PLACE", "state": "NY", "zip": "11514-1423", "ntee": "M99", "ruling": "201106", "deductibility": "1", "assets": 6606984, "income": 1707496, "revenue": 1700237}, {"ein": "112377803", "name": "VOLUNTEER AND EXEMPT FIREMANS BENEVOLENT ASSO OF CARLE NASSAU", "city": "CARLE PLACE", "state": "NY", "zip": "11514-0017", "ntee": "E62I", "ruling": "199803", "deductibility": "1", "assets": 338434, "income": 311027, "revenue": 310895}, {"ein": "112885875", "name": "CARLE PLACE SOCCER CLUB INC", "city": "WESTBURY", "state": "NY", "zip": "11590-2929", "ntee": "O50", "ruling": "201103", "deductibility": "1", "assets": 63873, "income": 232541, "revenue": 232541}, {"ein": "113066640", "name": "WESTBURY-CARLE PLACE CHAMBER OF COMMERCE INC", "city": "WESTBURY", "state": "NY", "zip": "11590-0064", "ntee": "S41", "ruling": "201106", "deductibility": "2", "assets": 0, "income": 0, "revenue": 0}, {"ein": "113327307", "name": "CARLE PLACE EDUCATION FOUNDATION INC", "city": "CARLE PLACE", "state": "NY", "zip": "11514-0149", "ntee": "B99", "ruling": "199712", "deductibility": "1", "assets": 7223, "income": 8362, "revenue": 6867}, {"ein": "205054594", "name": "CARLE PLACE ATHLETIC BOOSTER ANDPHYSICAL EDUCATION FOUNDATION", "city": "CARLE PLACE", "state": "NY", "zip": "11514-1415", "ntee": "B122", "ruling": "200610", "deductibility": "1", "assets": 0, "income": 0, "revenue": 0}, {"ein": "237316714", "name": "CARLE PL TCHRS ASSN HEALTH & WELFARE", "city": "CARLE PLACE", "state": "NY", "zip": "11514-0000", "ntee": "Y43", "ruling": "202211", "deductibility": "2", "assets": 365068, "income": 299438, "revenue": 299438}, {"ein": "994593266", "name": "CARLE PLACE FOOTBALL CLUB INC", "city": "CARLE PLACE", "state": "NY", "zip": "11514-1611", "ntee": "N11", "ruling": "202409", "deductibility": "1", "assets": 0, "income": 0, "revenue": 0}], "AFL": [{"ein": "112250544", "name": "COUNCIL OF ADMINISTRATORS & SUPERVISORS 12 SASOC AFL-CIO", "city": "HAUPPAUGE", "state": "NY", "zip": "11788-3078", "ntee": "", "ruling": "197411", "deductibility": "2", "assets": 671186, "income": 900235, "revenue": 900235}, {"ein": "116036850", "name": "UTILITY WORKERS UNION OF AMERICA AFL-CIO", "city": "MERRICK", "state": "NY", "zip": "11566-3402", "ntee": "", "ruling": "194411", "deductibility": "2", "assets": 302850, "income": 54640, "revenue": 54640}, {"ein": "116036852", "name": "UTILITY WORKERS UNION OF AMERICA AFL-CIO", "city": "VALLEY STREAM", "state": "NY", "zip": "11581-1809", "ntee": "", "ruling": "194411", "deductibility": "2", "assets": 274158, "income": 87579, "revenue": 87579}, {"ein": "116046507", "name": "UTILITY WORKERS UNION OF AMERICA AFL-CIO", "city": "PATCHOGUE", "state": "NY", "zip": "11772-1220", "ntee": "", "ruling": "194411", "deductibility": "2", "assets": 1086541, "income": 457985, "revenue": 457985}, {"ein": "116177702", "name": "UTILITY WORKERS UNION OF AMERICA AFL-CIO", "city": "HICKSVILLE", "state": "NY", "zip": "11801-5802", "ntee": "", "ruling": "194411", "deductibility": "2", "assets": 0, "income": 0, "revenue": 0}, {"ein": "131098484", "name": "HOTEL AND GAMING TRADES COUNCIL AFL-CIO", "city": "NEW YORK", "state": "NY", "zip": "10036-0000", "ntee": "J40", "ruling": "194606", "deductibility": "2", "assets": 69864769, "income": 48122008, "revenue": 48122008}, {"ein": "131122317", "name": "UTILITY WORKERS UNION OF AMERICA AFL CIO", "city": "NEW YORK", "state": "NY", "zip": "10016-0000", "ntee": "", "ruling": "194411", "deductibility": "2", "assets": 8622150, "income": 9397380, "revenue": 8632622}, {"ein": "132830730", "name": "LOCAL 1101 OF THE COMMUNICATIONS WKRS OF AMER AFL CIO RTRMNT TR PLN", "city": "NEW YORK", "state": "NY", "zip": "10001-2726", "ntee": "", "ruling": "197602", "deductibility": "2", "assets": 5514076, "income": 452173, "revenue": 83967}, {"ein": "132974140", "name": "LOCAL 300 SEIU AFL-CIO CIVIL SVCE FORUM RETIRED EMPLS WELFARE FUND", "city": "LONG IS CITY", "state": "NY", "zip": "11106-2329", "ntee": "", "ruling": "197905", "deductibility": "2", "assets": 2230252, "income": 1469999, "revenue": 1262180}, {"ein": "133736860", "name": "ASIAN PACIFIC AMERICAN LABOR ALLIANCE AFL-CIO", "city": "FLUSHING", "state": "NY", "zip": "11365-3085", "ntee": "J40", "ruling": "199402", "deductibility": "2", "assets": 0, "income": 0, "revenue": 0}, {"ein": "135668062", "name": "LOCAL 1190 COMMUNICATION WORKERS OF AMERICA AFL CIO", "city": "MEDFORD", "state": "NY", "zip": "11763-0871", "ntee": "", "ruling": "196001", "deductibility": "2", "assets": 13433, "income": 1224, "revenue": 1224}, {"ein": "136106076", "name": "NEW YORK CITY DEPARTMENT OF TRAFFIC EMPLOYEES LOCAL NUMBER 1455 OF AFL", "city": "NEW YORK", "state": "NY", "zip": "10007-2233", "ntee": "J40", "ruling": "202308", "deductibility": "2", "assets": 27920, "income": 203182, "revenue": 203182}, {"ein": "150347910", "name": "INTERNATIONAL ASSN OF BRIDGE STRCTL & ORNAMENTAL IRONWKRS 60 AFL-CIO", "city": "SYRACUSE", "state": "NY", "zip": "13204-2302", "ntee": "", "ruling": "194603", "deductibility": "2", "assets": 3437030, "income": 2008367, "revenue": 874757}, {"ein": "166051044", "name": "BUILDING AND CONSTRUCTION TRADES DEPARTMENT AFL CIO ITHACA COUNCIL", "city": "ITHACA", "state": "NY", "zip": "14850-3309", "ntee": "", "ruling": "196203", "deductibility": "2", "assets": 123475, "income": 129647, "revenue": 129647}, {"ein": "384105519", "name": "HOTEL AND MOTEL TRADES COUNCIL AFL-CIO LABOR MANAGEMENT CORP F TR", "city": "NEW YORK", "state": "NY", "zip": "10036-5407", "ntee": "J40", "ruling": "201910", "deductibility": "2", "assets": 3102721, "income": 1167681, "revenue": 1167681}, {"ein": "510243473", "name": "UTILITY WORKERS UNION OF AMERICA AFL-CIO", "city": "BELLMORE", "state": "NY", "zip": "11710-4308", "ntee": "J40", "ruling": "194411", "deductibility": "2", "assets": 0, "income": 0, "revenue": 0}, {"ein": "822998411", "name": "NEW YORK HOTEL & MOTEL TRADES COUNCIL AFL-CIO RELIEF FUND INC", "city": "NEW YORK", "state": "NY", "zip": "10036-7102", "ntee": "P20", "ruling": "201812", "deductibility": "1", "assets": 0, "income": 0, "revenue": 0}, {"ein": "832748561", "name": "LOCAL 7 IBOTU UMD ILA AFL-CIO", "city": "CARLE PLACE", "state": "NY", "zip": "11514-1748", "ntee": "J40", "ruling": "201912", "deductibility": "2", "assets": 3105786, "income": 4572067, "revenue": 3396743}], "LEMUDEI": [{"ein": "112488016", "name": "YESHIVA BAIS LEMUDEI HASHEM", "city": "BROOKLYN", "state": "NY", "zip": "11214-2513", "ntee": "", "ruling": "197903", "deductibility": "1", "assets": 0, "income": 0, "revenue": 0}], "ANIYIM": [{"ein": "112500464", "name": "TOMCHEI ANIYIM-RAV CHESED INC", "city": "BROOKLYN", "state": "NY", "zip": "11204-0000", "ntee": "", "ruling": "197907", "deductibility": "1", "assets": 0, "income": 0, "revenue": 0}, {"ein": "112606526", "name": "KEREN ANIYIM INC", "city": "BROOKLYN", "state": "NY", "zip": "11204-0000", "ntee": "P600", "ruling": "198304", "deductibility": "1", "assets": 187945, "income": 548357, "revenue": 548357}], "FRUMA": [{"ein": "112536959", "name": "BAIS FRUMA INC", "city": "BROOKLYN", "state": "NY", "zip": "11219-2622", "ntee": "", "ruling": "198009", "deductibility": "1", "assets": 0, "income": 0, "revenue": 0}], "DESALES": [{"ein": "112613196", "name": "DESALES MEDIA GROUP INC", "city": "BROOKLYN", "state": "NY", "zip": "11238-3118", "ntee": "X22Z", "ruling": "194603", "deductibility": "1", "assets": 0, "income": 0, "revenue": 0}, {"ein": "131623955", "name": "CHURCH OF SAINT FRANCIS DESALES", "city": "NEW YORK", "state": "NY", "zip": "10128-2508", "ntee": "", "ruling": "194603", "deductibility": "1", "assets": 0, "income": 0, "revenue": 0}, {"ein": "134350899", "name": "DESALES CENTER INC", "city": "UTICA", "state": "NY", "zip": "13502-3418", "ntee": "S47", "ruling": "200707", "deductibility": "2", "assets": 876106, "income": 96653, "revenue": 96653}, {"ein": "161270869", "name": "ST FRANCIS DESALES", "city": "GENEVA", "state": "NY", "zip": "14456-2212", "ntee": "", "ruling": "194603", "deductibility": "1", "assets": 0, "income": 0, "revenue": 0}, {"ein": "260497962", "name": "DESALES RESOURCES AND MINISTRIESINC", "city": "STELA NIAGARA", "state": "NY", "zip": "14144-1001", "ntee": "X22", "ruling": "200808", "deductibility": "1", "assets": 170555, "income": 104381, "revenue": 104381}, {"ein": "471083958", "name": "ST FRANCIS DESALES CATHOLIC ACADEMY", "city": "BELLE HARBOR", "state": "NY", "zip": "11694-1621", "ntee": "", "ruling": "194603", "deductibility": "1", "assets": 0, "income": 0, "revenue": 0}], "PATH": [{"ein": "112630779", "name": "STRAIGHT PATH CHRISTIAN MINISTRY INC", "city": "ELMONT", "state": "NY", "zip": "11003-1325", "ntee": "", "ruling": "198504", "deductibility": "1", "assets": 0, "income": 0, "revenue": 0}, {"ein": "113282804", "name": "PATH OF RECONCILIATION AND HOLISTIC LIVING", "city": "QUEENS VLG", "state": "NY", "zip": "11429-2510", "ntee": "X20Z", "ruling": "199601", "deductibility": "1", "assets": 0, "income": 0, "revenue": 0}, {"ein": "113578851", "name": "PIN OAK PATH HOMEOWNERS ASSOCIATION INC", "city": "EAST QUOGUE", "state": "NY", "zip": "11942-0282", "ntee": "L50", "ruling": "200108", "deductibility": "2", "assets": 0, "income": 0, "revenue": 0}, {"ein": "113588899", "name": "FISHERS ISLAND RECREATIONAL PATH FOUNDATION", "city": "FISHERS ISLE", "state": "NY", "zip": "06390-0619", "ntee": "N32", "ruling": "200202", "deductibility": "1", "assets": 2394383, "income": 120193, "revenue": 120193}, {"ein": "132952606", "name": "PLAIN PATH CHURCH OF OUR LORD JESUS CHRIST APOSTOLIC INC", "city": "NEW YORK", "state": "NY", "zip": "10029-0243", "ntee": "", "ruling": "197901", "deductibility": "1", "assets": 0, "income": 0, "revenue": 0}, {"ein": "133629516", "name": "PATH TO PEACE FOUNDATION", "city": "NEW YORK", "state": "NY", "zip": "10016-0903", "ntee": "", "ruling": "199201", "deductibility": "1", "assets": 7274863, "income": 3073191, "revenue": 571973}, {"ein": "133717962", "name": "PATH OF BLESSINGS MINISTRIES INC", "city": "BRONX", "state": "NY", "zip": "10454-4502", "ntee": "", "ruling": "199305", "deductibility": "1", "assets": 0, "income": 0, "revenue": 0}, {"ein": "133970669", "name": "PENTECOSTAL CHURCH THE PATH OF LIFE IN CHRIST INC", "city": "BRONX", "state": "NY", "zip": "10456-7868", "ntee": "X20", "ruling": "201007", "deductibility": "1", "assets": 0, "income": 0, "revenue": 0}, {"ein": "134038495", "name": "JOB PATH INC", "city": "NEW YORK", "state": "NY", "zip": "10018-9130", "ntee": "J40", "ruling": "199904", "deductibility": "1", "assets": 7699870, "income": 14172985, "revenue": 12132151}, {"ein": "134187953", "name": "NARROW PATH", "city": "NEW YORK", "state": "NY", "zip": "10026-2335", "ntee": "", "ruling": "198011", "deductibility": "0", "assets": 0, "income": 0, "revenue": 0}, {"ein": "166062792", "name": "PATH OF LIFE RECREATIONAL ASSOCIATION INC", "city": "PORT CRANE", "state": "NY", "zip": "13833-1617", "ntee": "", "ruling": "196910", "deductibility": "0", "assets": 431892, "income": 292544, "revenue": 244030}, {"ein": "201453375", "name": "PATH OF LIFE MINISTRIES INC", "city": "PENFIELD", "state": "NY", "zip": "14526-2312", "ntee": "X90", "ruling": "200511", "deductibility": "1", "assets": 0, "income": 0, "revenue": 0}, {"ein": "260266025", "name": "PATH FUND INC", "city": "NEW YORK", "state": "NY", "zip": "10025-4323", "ntee": "T30", "ruling": "200710", "deductibility": "1", "assets": 71107, "income": 188987, "revenue": 127945}, {"ein": "260360987", "name": "SPANISH CHURCH OF GOD PATH TOHEAVEN", "city": "BUFFALO", "state": "NY", "zip": "14213-2424", "ntee": "X200", "ruling": "200803", "deductibility": "1", "assets": 204440, "income": 92824, "revenue": 92824}, {"ein": "262041156", "name": "NOBLE PATH BUDDHIST EDUCATION FELLOWSHIP INCORPORATED", "city": "GUILDERLAND", "state": "NY", "zip": "12084-9717", "ntee": "X20", "ruling": "200904", "deductibility": "1", "assets": 0, "income": 0, "revenue": 0}, {"ein": "275206513", "name": "CLEAR PATH FOR VETERANS INC", "city": "CHITTENANGO", "state": "NY", "zip": "13037-9795", "ntee": "P99", "ruling": "201108", "deductibility": "1", "assets": 4340268, "income": 4527464, "revenue": 4430137}, {"ein": "332709746", "name": "LONG PATH NORTH HIKING CLUB INC", "city": "SCHOHARIE", "state": "NY", "zip": "12157-0855", "ntee": "C30", "ruling": "202501", "deductibility": "1", "assets": 0, "income": 0, "revenue": 0}, {"ein": "333667080", "name": "FOUNDATION FOR A PATH FORWARD USA INC", "city": "NEW YORK", "state": "NY", "zip": "10013-2562", "ntee": "R22", "ruling": "202505", "deductibility": "1", "assets": 0, "income": 0, "revenue": 0}, {"ein": "334372384", "name": "KEE PATH FOUNDATION", "city": "QUEENS", "state": "NY", "zip": "11430-2550", "ntee": "B11", "ruling": "202506", "deductibility": "1", "assets": 0, "income": 0, "revenue": 0}, {"ein": "371691542", "name": "PATH LIGHT COMMUNITY FELLOWSHIP INC", "city": "WOLCOTT", "state": "NY", "zip": "14590-1025", "ntee": "X20", "ruling": "201911", "deductibility": "1", "assets": 0, "income": 0, "revenue": 0}, {"ein": "452310182", "name": "PATH OF BLISS INC", "city": "CAIRO", "state": "NY", "zip": "12413-3267", "ntee": "X50", "ruling": "201509", "deductibility": "1", "assets": 0, "income": 0, "revenue": 0}, {"ein": "452869008", "name": "HEAVENLY PATH USA INC", "city": "ELMHURST", "state": "NY", "zip": "11373-4106", "ntee": "X01", "ruling": "201505", "deductibility": "1", "assets": 0, "income": 0, "revenue": 0}, {"ein": "471561927", "name": "HEALTHY PATH FOUNDATION INC", "city": "STATEN ISLAND", "state": "NY", "zip": "10308-3234", "ntee": "B90", "ruling": "201504", "deductibility": "1", "assets": 24135, "income": 66905, "revenue": 16021}, {"ein": "474440128", "name": "PEOPLES PATH INC", "city": "STATEN ISLAND", "state": "NY", "zip": "10301-2910", "ntee": "L41", "ruling": "201605", "deductibility": "1", "assets": 815616, "income": 1389074, "revenue": 1389074}, {"ein": "542150364", "name": "PENTECOSTAL CHURCH THE PATH OF LIFE IN CHRIST INC", "city": "EAST ELMHURST", "state": "NY", "zip": "11369-1219", "ntee": "X20", "ruling": "201007", "deductibility": "1", "assets": 0, "income": 0, "revenue": 0}, {"ein": "611722430", "name": "PATH TO JOBS INC", "city": "NEW YORK", "state": "NY", "zip": "10001-2201", "ntee": "J20", "ruling": "201801", "deductibility": "1", "assets": 298938, "income": 933000, "revenue": 933000}, {"ein": "811438676", "name": "PATH FORWARD", "city": "NEW YORK", "state": "NY", "zip": "10001-2538", "ntee": "J22", "ruling": "201603", "deductibility": "1", "assets": 142224, "income": 180330, "revenue": 180330}, {"ein": "811807743", "name": "NEW PATH HORSE ACADEMY INC", "city": "BRONX", "state": "NY", "zip": "10467-7020", "ntee": "D20", "ruling": "202108", "deductibility": "1", "assets": 0, "income": 0, "revenue": 0}, {"ein": "815252323", "name": "MALIKS PATH INC", "city": "WYANDANCH", "state": "NY", "zip": "11798-3423", "ntee": "N99", "ruling": "201703", "deductibility": "1", "assets": 0, "income": 0, "revenue": 0}, {"ein": "820913183", "name": "MOBIUS PATH INC", "city": "OWEGO", "state": "NY", "zip": "13827-2428", "ntee": "D20", "ruling": "201703", "deductibility": "1", "assets": 0, "income": 0, "revenue": 0}, {"ein": "832299128", "name": "MY PATH PROGRAMS INC", "city": "POMONA", "state": "NY", "zip": "10970-2804", "ntee": "O01", "ruling": "201906", "deductibility": "1", "assets": 0, "income": 0, "revenue": 0}, {"ein": "842979038", "name": "LITE YOUR PATH", "city": "WHEATLEY HEIGHTS", "state": "NY", "zip": "11798-0000", "ntee": "X19", "ruling": "202001", "deductibility": "1", "assets": 0, "income": 0, "revenue": 0}, {"ein": "850570504", "name": "FLIGHT PATH DANCE FOUNDATION INC", "city": "NEW YORK", "state": "NY", "zip": "10010-7632", "ntee": "A62", "ruling": "202106", "deductibility": "1", "assets": 46805, "income": 328741, "revenue": 328741}, {"ein": "923333403", "name": "FRIENDS OF THE OFF THE BEATEN PATH FESTIVAL", "city": "NEW YORK", "state": "NY", "zip": "10036-6336", "ntee": "A68", "ruling": "202305", "deductibility": "1", "assets": 3823, "income": 15277, "revenue": 15277}, {"ein": "934045027", "name": "PATH 2 TECH INC", "city": "BROOKLYN", "state": "NY", "zip": "11203-5502", "ntee": "Q30", "ruling": "202311", "deductibility": "1", "assets": 0, "income": 0, "revenue": 0}, {"ein": "992003666", "name": "STRIDE-PATH TO INDEPENDENCE", "city": "LYNBROOK", "state": "NY", "zip": "11563-3704", "ntee": "B30", "ruling": "202410", "deductibility": "1", "assets": 1, "income": 0, "revenue": 0}, {"ein": "993809443", "name": "CREATING A PATH INC", "city": "ROCKVILLE CTR", "state": "NY", "zip": "11570-3225", "ntee": "B80", "ruling": "202407", "deductibility": "1", "assets": 0, "income": 0, "revenue": 0}], "BOILMAKERS": [{"ein": "112705752", "name": "INTERNATIONAL BROTHERHOOD OF BOILMAKERS IRON SHIP BUILDERS BLAC", "city": "KINGS PARK", "state": "NY", "zip": "11754-2711", "ntee": "", "ruling": "195407", "deductibility": "2", "assets": 210039, "income": 312741, "revenue": 312741}], "COBRE": [{"ein": "112731213", "name": "COMMUNITY CHURCH SONS OF LA CARIDAD DEL COBRE", "city": "BROOKLYN", "state": "NY", "zip": "11206-6122", "ntee": "", "ruling": "198903", "deductibility": "1", "assets": 0, "income": 0, "revenue": 0}], "HERTZ": [{"ein": "112780528", "name": "CHEVRA ZICHRON NAFTALI HERTZ", "city": "BROOKLYN", "state": "NY", "zip": "11213-5110", "ntee": "P60", "ruling": "200208", "deductibility": "1", "assets": 0, "income": 0, "revenue": 0}, {"ein": "116579799", "name": "HERTZ AND LIBBY HASENFELD CHARITABLE FOUNDATION TR", "city": "BROOKLYN", "state": "NY", "zip": "11219-4228", "ntee": "T22", "ruling": "200305", "deductibility": "1", "assets": 181733, "income": 494413, "revenue": 0}], "SOUTHBAY": [{"ein": "112833518", "name": "GREAT SOUTHBAY AMATEUR RADIO CLUB", "city": "N MASSAPEQUA", "state": "NY", "zip": "11758-1628", "ntee": "U20", "ruling": "201506", "deductibility": "1", "assets": 0, "income": 0, "revenue": 0}], "OHEIV": [{"ein": "112862380", "name": "KOLLEL OHEIV YISROEL", "city": "BROOKLYN", "state": "NY", "zip": "11211-7204", "ntee": "", "ruling": "198708", "deductibility": "1", "assets": 0, "income": 0, "revenue": 0}, {"ein": "208048043", "name": "MOSDOS OHEIV ISRAEL KAPITSHNITZ", "city": "BROOKLYN", "state": "NY", "zip": "11204-1531", "ntee": "X30", "ruling": "200804", "deductibility": "1", "assets": 0, "income": 0, "revenue": 0}], "LEBANESE": [{"ein": "112880336", "name": "SEPHARDIC LEBANESE CONGREGATION INC", "city": "BROOKLYN", "state": "NY", "zip": "11223-3341", "ntee": "", "ruling": "198909", "deductibility": "1", "assets": 0, "income": 0, "revenue": 0}, {"ein": "201303440", "name": "FRIENDS OF THE CENTER OF THE SYRIAN AND LEBANESE TRADITIONS", "city": "BROOKLYN", "state": "NY", "zip": "11223-3339", "ntee": "T113", "ruling": "200808", "deductibility": "1", "assets": 576927, "income": 479391, "revenue": 479391}, {"ein": "450594440", "name": "WORLD LEBANESE CULTURAL UNION INC", "city": "STATEN ISLAND", "state": "NY", "zip": "10305-4616", "ntee": "A23", "ruling": "200905", "deductibility": "1", "assets": 2101, "income": 8600, "revenue": 8600}, {"ein": "510189468", "name": "WORLD LEBANESE CULTURAL UNION OF NEW YORK INC", "city": "WOODBOURNE", "state": "NY", "zip": "12788-0000", "ntee": "", "ruling": "197605", "deductibility": "1", "assets": 1, "income": 25865, "revenue": 25865}, {"ein": "920593344", "name": "BIOSCIENCES LEBANESE INTERNATIONAL NETWORK INC", "city": "NEW YORK", "state": "NY", "zip": "10005-1993", "ntee": "P20", "ruling": "202210", "deductibility": "1", "assets": 133002, "income": 137363, "revenue": 137363}, {"ein": "981109293", "name": "LEBANESE INTERNATIONAL FINANCE EXECUTIVES", "city": "NEW YORK", "state": "NY", "zip": "10028-4305", "ntee": "S40", "ruling": "201502", "deductibility": "2", "assets": 1, "income": 0, "revenue": 0}, {"ein": "986001269", "name": "LEBANESE AMERICAN UNIVERSITY", "city": "NEW YORK", "state": "NY", "zip": "10017-2935", "ntee": "B430", "ruling": "196401", "deductibility": "1", "assets": 1285614914, "income": 274892328, "revenue": 262151442}], "RICHU": [{"ein": "113189198", "name": "SHAMAI & RICHU HARTMAN FAMILY FOUNDATION", "city": "BROOKLYN", "state": "NY", "zip": "11204-1419", "ntee": "", "ruling": "199410", "deductibility": "1", "assets": 3193474, "income": 2567393, "revenue": 0}], "KABIR": [{"ein": "113214779", "name": "KABIR MANDIR INC", "city": "WOODHAVEN", "state": "NY", "zip": "11421-1101", "ntee": "", "ruling": "199412", "deductibility": "1", "assets": 0, "income": 0, "revenue": 0}, {"ein": "922287971", "name": "AMIR KABIR FOUNDATION", "city": "NEW YORK", "state": "NY", "zip": "10019-6108", "ntee": "X40", "ruling": "202404", "deductibility": "1", "assets": 9200, "income": 9200, "revenue": 9200}], "UTRECHT": [{"ein": "113407104", "name": "FRIENDS OF HISTORIC NEW UTRECHT", "city": "BROOKLYN", "state": "NY", "zip": "11214-2914", "ntee": "A80", "ruling": "200003", "deductibility": "1", "assets": 0, "income": 0, "revenue": 0}], "RIOS": [{"ein": "113512974", "name": "IGLESIA CHRISTIANA RIOS DE AGUA VIVA INC", "city": "HEMPSTEAD", "state": "NY", "zip": "11550-4526", "ntee": "", "ruling": "200501", "deductibility": "1", "assets": 0, "income": 0, "revenue": 0}, {"ein": "133738157", "name": "RIOS SENIOR RESIDENCE HOUSING DEVELOPMENT FUND CORPORATION", "city": "NEW YORK", "state": "NY", "zip": "10029-4916", "ntee": "E91Z", "ruling": "199401", "deductibility": "1", "assets": 6374920, "income": 1940639, "revenue": 1940639}, {"ein": "133778629", "name": "IGLESIA RIOS DE AGUA VIVA INC", "city": "YONKERS", "state": "NY", "zip": "10701-3910", "ntee": "", "ruling": "199407", "deductibility": "1", "assets": 0, "income": 0, "revenue": 0}, {"ein": "133918993", "name": "IGLESIA RIOS DE AGUA VIVA-LA SENDA ANTIGUA INC", "city": "NEW YORK", "state": "NY", "zip": "10040-0000", "ntee": "X20", "ruling": "200105", "deductibility": "1", "assets": 0, "income": 0, "revenue": 0}, {"ein": "372066186", "name": "IGLESIA CRISTIANA RIOS DE AGUA VIVA INC", "city": "JAMAICA", "state": "NY", "zip": "11432-0000", "ntee": "X21", "ruling": "202310", "deductibility": "1", "assets": 0, "income": 0, "revenue": 0}, {"ein": "462164422", "name": "IGLESIA PENTECOSTAL RIOS DE AGUA VIVA", "city": "YONKERS", "state": "NY", "zip": "10705-3732", "ntee": "", "ruling": "196408", "deductibility": "2", "assets": 0, "income": 0, "revenue": 0}, {"ein": "821778929", "name": "MINISTERIOS RIOS DE LIBERACION INC", "city": "FRESH MEADOWS", "state": "NY", "zip": "11365-1013", "ntee": "X20", "ruling": "202402", "deductibility": "1", "assets": 0, "income": 0, "revenue": 0}], "ORAYSA": [{"ein": "113531426", "name": "MOSDOS ORAYSA INC", "city": "BROOKLYN", "state": "NY", "zip": "11219-3527", "ntee": "X30", "ruling": "200012", "deductibility": "1", "assets": 0, "income": 0, "revenue": 0}, {"ein": "472708778", "name": "CONGREGATION ORAYSA", "city": "FAR ROCKAWAY", "state": "NY", "zip": "11691-4433", "ntee": "X30", "ruling": "201504", "deductibility": "1", "assets": 0, "income": 0, "revenue": 0}], "ASSURANCE": [{"ein": "113573755", "name": "BLESSED ASSURANCE CHURCH INTERNATIONAL", "city": "SAINT ALBANS", "state": "NY", "zip": "11412-2109", "ntee": "X212", "ruling": "200404", "deductibility": "1", "assets": 0, "income": 0, "revenue": 0}, {"ein": "256523497", "name": "FLORENCE H FLUKE TW FBO BETHANY VILLAGE CARE ASSURANCE FUND TR", "city": "BUFFALO", "state": "NY", "zip": "14240-1504", "ntee": "T112", "ruling": "200106", "deductibility": "1", "assets": 374219, "income": 117919, "revenue": 0}, {"ein": "341976221", "name": "ECCLESIA ASSURANCE COMPANY", "city": "ROCKVILLE CTR", "state": "NY", "zip": "11570-4129", "ntee": "Y990", "ruling": "200504", "deductibility": "1", "assets": 0, "income": 0, "revenue": 0}, {"ein": "582400697", "name": "BLESSED ASSURANCE CHURCH OF GOD BLESSED ASSURANCE CHARITY INC", "city": "BROOKLYN", "state": "NY", "zip": "11233-3331", "ntee": "X21", "ruling": "199907", "deductibility": "1", "assets": 0, "income": 0, "revenue": 0}], "STOCKHOLN": [{"ein": "113577110", "name": "FRIENDS OF CHABAD OF STOCKHOLN INC", "city": "BROOKLYN", "state": "NY", "zip": "11225-3217", "ntee": "X110", "ruling": "200107", "deductibility": "1", "assets": 0, "income": 0, "revenue": 0}], "LHORUAH": [{"ein": "113578366", "name": "KOLLEL LHORUAH", "city": "BROOKLYN", "state": "NY", "zip": "11249-7814", "ntee": "X30", "ruling": "200105", "deductibility": "1", "assets": 0, "income": 0, "revenue": 0}], "REMU": [{"ein": "113579136", "name": "KOLLEL REMU", "city": "BROOKLYN", "state": "NY", "zip": "11218-3765", "ntee": "X30", "ruling": "200103", "deductibility": "1", "assets": 0, "income": 0, "revenue": 0}], "MAGOUN": [{"ein": "116036403", "name": "MAGOUN LANDING CIVIC ASSOCIATION INC", "city": "WEST ISLIP", "state": "NY", "zip": "11795-5203", "ntee": "", "ruling": "196407", "deductibility": "2", "assets": 0, "income": 0, "revenue": 0}], "PYTHIAN": [{"ein": "131663322", "name": "PYTHIAN CAMP", "city": "VALLEY STREAM", "state": "NY", "zip": "11580-5495", "ntee": "N20Z", "ruling": "194301", "deductibility": "1", "assets": 1668802, "income": 507471, "revenue": 98055}, {"ein": "133482528", "name": "PYTHIAN HUMANITARIAN FUND", "city": "VALLEY STREAM", "state": "NY", "zip": "11580-5495", "ntee": "", "ruling": "198902", "deductibility": "1", "assets": 0, "income": 0, "revenue": 0}, {"ein": "237089116", "name": "LONG ISLAND PYTHIAN COUNCIL", "city": "OCEANSIDE", "state": "NY", "zip": "11572-0000", "ntee": "", "ruling": "197012", "deductibility": "1", "assets": 19739, "income": 0, "revenue": 0}], "HACKLEY": [{"ein": "131740452", "name": "HACKLEY SCHOOL", "city": "TARRYTOWN", "state": "NY", "zip": "10591-4327", "ntee": "E200", "ruling": "194112", "deductibility": "1", "assets": 300465630, "income": 95797257, "revenue": 62513236}, {"ein": "136068876", "name": "HACKLEY ALUMNI ENDOWMENT FUND", "city": "TARRYTOWN", "state": "NY", "zip": "10591-4327", "ntee": "T20", "ruling": "200703", "deductibility": "1", "assets": 3300194, "income": 147244, "revenue": 147244}, {"ein": "831158892", "name": "A BROOKLYN CHILD-THE JUSTIN HACKLEY FOUNDATION", "city": "BROOKLYN", "state": "NY", "zip": "11205-4221", "ntee": "I20", "ruling": "202410", "deductibility": "1", "assets": 0, "income": 0, "revenue": 0}], "BTWN": [{"ein": "132847092", "name": "FRENCH AMERICAN FOUNDATION FOR THE DEVEL OF RELATIONS BTWN FRNC & US", "city": "NEW YORK", "state": "NY", "zip": "10036-7414", "ntee": "Q050", "ruling": "197512", "deductibility": "1", "assets": 4087262, "income": 2512354, "revenue": 1346837}], "TEANECK": [{"ein": "132903848", "name": "CONGREGATION BETH HAMEDRASH HAGODOL OF TEANECK", "city": "NEW YORK", "state": "NY", "zip": "10040-3635", "ntee": "", "ruling": "197801", "deductibility": "1", "assets": 0, "income": 0, "revenue": 0}], "CHRISTINE": [{"ein": "132905417", "name": "LOUIS PAUL AND CHRISTINE PADULA FOUNDATION", "city": "PURCHASE", "state": "NY", "zip": "10577-0000", "ntee": "", "ruling": "197709", "deductibility": "1", "assets": 1054840, "income": 84028, "revenue": 0}, {"ein": "133966046", "name": "MARIE-CHRISTINE GIORDANO DANCE COMPANY INC", "city": "BROOKLYN", "state": "NY", "zip": "11232-1391", "ntee": "A62Z", "ruling": "199804", "deductibility": "1", "assets": 566, "income": 38370, "revenue": 38370}, {"ein": "137548509", "name": "JOHN & CHRISTINE FITZGIBBONS FOUNDATION", "city": "NEW YORK", "state": "NY", "zip": "10011-1802", "ntee": "T22", "ruling": "200904", "deductibility": "1", "assets": 28860, "income": 1865289, "revenue": 0}, {"ein": "207273243", "name": "CHRISTINE NICOLE PERRY MEMORIAL TR", "city": "BOLTON LNDG", "state": "NY", "zip": "12814-3604", "ntee": "B82", "ruling": "200910", "deductibility": "1", "assets": 0, "income": 0, "revenue": 0}, {"ein": "271398381", "name": "CHRISTINE ELIZABETH BURROWS FOUNDATION", "city": "PRT WASHINGTN", "state": "NY", "zip": "11050-3713", "ntee": "T30", "ruling": "201003", "deductibility": "1", "assets": 0, "income": 0, "revenue": 0}, {"ein": "366756150", "name": "J SPENCER & CHRISTINE L STANDISH CHARITABLE TRUST UA 07 08 82", "city": "LOUDONVILLE", "state": "NY", "zip": "12211-1423", "ntee": "", "ruling": "000000", "deductibility": "0", "assets": 0, "income": 0, "revenue": 0}, {"ein": "470976068", "name": "CHRISTINE CARMICHIEL INTERNATIONAL INC", "city": "BROCKPORT", "state": "NY", "zip": "14420-1005", "ntee": "X20", "ruling": "201410", "deductibility": "1", "assets": 0, "income": 0, "revenue": 0}, {"ein": "651269388", "name": "CHRISTINE MELTON-SIMPSON PKA CHRISTINE MELTON-JORDAN", "city": "NEW YORK", "state": "NY", "zip": "10027-2014", "ntee": "A20", "ruling": "201903", "deductibility": "1", "assets": 0, "income": 0, "revenue": 0}, {"ein": "831453616", "name": "MARIE CHRISTINE FOUNDATION", "city": "NEW YORK", "state": "NY", "zip": "10020-1300", "ntee": "T22", "ruling": "201908", "deductibility": "1", "assets": 11511100, "income": 4307149, "revenue": 0}, {"ein": "861425664", "name": "DAVID G AND CHRISTINE M STACK FAMILY FOUNDATION INC", "city": "BALLSTON SPA", "state": "NY", "zip": "12020-2104", "ntee": "", "ruling": "000000", "deductibility": "0", "assets": 110172, "income": 5817, "revenue": 5817}], "MOZARTEAN": [{"ein": "132961164", "name": "MOZARTEAN PLAYERS INC", "city": "BRONX", "state": "NY", "zip": "10471-2612", "ntee": "A20", "ruling": "201410", "deductibility": "1", "assets": 0, "income": 0, "revenue": 0}], "TANYA": [{"ein": "133098744", "name": "TANYA TOWERS INC", "city": "NEW YORK", "state": "NY", "zip": "10012-0000", "ntee": "L21", "ruling": "200501", "deductibility": "1", "assets": 9014400, "income": 2253696, "revenue": 2253696}, {"ein": "850864553", "name": "TANYA - JEWISH MINDFULNESS CENTER INC", "city": "BROOKLYN", "state": "NY", "zip": "11203-1002", "ntee": "X30", "ruling": "202005", "deductibility": "1", "assets": 132855, "income": 130953, "revenue": 130953}, {"ein": "873914123", "name": "MIVTZA TANYA INC", "city": "BROOKLYN", "state": "NY", "zip": "11203-1006", "ntee": "X30", "ruling": "202202", "deductibility": "1", "assets": 0, "income": 0, "revenue": 0}], "CINTRON": [{"ein": "133103029", "name": "ASSOCIATION ARK OF REFUGEES INC C/O MARIA CINTRON", "city": "BRONX", "state": "NY", "zip": "10462-3502", "ntee": "", "ruling": "199308", "deductibility": "1", "assets": 0, "income": 0, "revenue": 0}], "HERMETIC": [{"ein": "133203975", "name": "DARIO SALAS INSTITUTE FOR HERMETIC SCIENCE INC", "city": "NEW YORK", "state": "NY", "zip": "10001-8208", "ntee": "H99", "ruling": "198502", "deductibility": "1", "assets": 351502, "income": 130438, "revenue": 130438}], "BULGARIAN": [{"ein": "133321008", "name": "BULGARIAN EASTERN ORTHODOX DIOCESE OF THE USA CANADA AND AUSTRALIA", "city": "NEW YORK", "state": "NY", "zip": "10019-7001", "ntee": "", "ruling": "199009", "deductibility": "1", "assets": 0, "income": 0, "revenue": 0}, {"ein": "273694969", "name": "BULGARIAN CHILDRENS CHORUS AND SCHOOL GERGANA INC", "city": "NEW YORK", "state": "NY", "zip": "10029-4551", "ntee": "B20", "ruling": "201206", "deductibility": "1", "assets": 57166, "income": 193758, "revenue": 193758}], "SULZBERGER": [{"ein": "133385799", "name": "EDWARD SULZBERGER FOUNDATION INC", "city": "NEW YORK", "state": "NY", "zip": "10001-0032", "ntee": "", "ruling": "198802", "deductibility": "1", "assets": 43688, "income": 75000, "revenue": 0}], "BIRNAM": [{"ein": "133756602", "name": "BIRNAM WOOD ASSOCIATES LTD", "city": "WHITE PLAINS", "state": "NY", "zip": "10605-1830", "ntee": "L80", "ruling": "199511", "deductibility": "1", "assets": 434211, "income": 0, "revenue": 0}], "LIPP": [{"ein": "133921302", "name": "BARI LIPP FOUNDATION", "city": "ALBANY", "state": "NY", "zip": "12212-5201", "ntee": "T22J", "ruling": "199704", "deductibility": "1", "assets": 40491540, "income": 6399211, "revenue": 0}], "BRADLEY": [{"ein": "133967577", "name": "BRADLEY SPENSER PARLO CHARITABLE FOUNDATION INC", "city": "GARDEN CITY", "state": "NY", "zip": "11530-1650", "ntee": "T00Z", "ruling": "199801", "deductibility": "1", "assets": 429020, "income": 64314, "revenue": 0}, {"ein": "133986715", "name": "THOMAS & REGINA BRADLEY FOUNDATION INC", "city": "NEW YORK", "state": "NY", "zip": "10006-2744", "ntee": "T20", "ruling": "199903", "deductibility": "1", "assets": 563608, "income": 118690, "revenue": 0}, {"ein": "136847767", "name": "BRADLEY L GOLDBERG FAMILY FOUNDATIO", "city": "MAMARONECK", "state": "NY", "zip": "10543-0737", "ntee": "", "ruling": "198508", "deductibility": "1", "assets": 6954022, "income": 844508, "revenue": 0}, {"ein": "137489040", "name": "BRADLEY FAM CHARITABLE FOUNDATION TR", "city": "NEW CITY", "state": "NY", "zip": "10956-6115", "ntee": "T22", "ruling": "200709", "deductibility": "1", "assets": 5851381, "income": 2569925, "revenue": 0}, {"ein": "141953934", "name": "TABERNACLE OF TESTIMONY INC CURTIS BRADLEY", "city": "CAMBRIA HTS", "state": "NY", "zip": "11411-1828", "ntee": "X20", "ruling": "200709", "deductibility": "1", "assets": 0, "income": 0, "revenue": 0}, {"ein": "203017676", "name": "BRADLEY ZANKEL FOUNDATION INC", "city": "MELVILLE", "state": "NY", "zip": "11747-0000", "ntee": "H30", "ruling": "200603", "deductibility": "1", "assets": 272252, "income": 159982, "revenue": 0}, {"ein": "392008597", "name": "JAMES BRADLEY PEACE FOUNDATION INC", "city": "NEW YORK", "state": "NY", "zip": "10018-0000", "ntee": "B82", "ruling": "200102", "deductibility": "1", "assets": 4821, "income": 470, "revenue": 0}, {"ein": "455105196", "name": "HATCH BRADLEY BROOK LAKES ASSN", "city": "WEST EATON", "state": "NY", "zip": "13484-0057", "ntee": "C32", "ruling": "201702", "deductibility": "1", "assets": 0, "income": 0, "revenue": 0}, {"ein": "510244205", "name": "PLATT MEAD HANFORD-JENNIE BRADLEY HANFORD MEMORIAL FUND", "city": "ONEONTA", "state": "NY", "zip": "13820-0430", "ntee": "", "ruling": "197204", "deductibility": "1", "assets": 532863, "income": 116939, "revenue": 0}, {"ein": "920270691", "name": "JIMMY BRADLEY MEMORIAL FOUNDATION INC", "city": "STATEN ISLAND", "state": "NY", "zip": "10314-1970", "ntee": "T30", "ruling": "202209", "deductibility": "1", "assets": 0, "income": 0, "revenue": 0}], "REFORMERS": [{"ein": "134075143", "name": "REFORMERS MINISTRIES INTERNATIONAL INC", "city": "BRONX", "state": "NY", "zip": "10462-3302", "ntee": "X99", "ruling": "199910", "deductibility": "1", "assets": 0, "income": 0, "revenue": 0}, {"ein": "824877641", "name": "THE REFORMERS MINISTRIES INC", "city": "ELMONT", "state": "NY", "zip": "11003-1520", "ntee": "", "ruling": "202107", "deductibility": "1", "assets": 0, "income": 0, "revenue": 0}, {"ein": "882862920", "name": "TROY MUNICIPAL BUILDERS & REFORMERS CORPORATION", "city": "TROY", "state": "NY", "zip": "12180-5304", "ntee": "R05", "ruling": "202304", "deductibility": "2", "assets": 0, "income": 0, "revenue": 0}], "BRODERICK": [{"ein": "134116503", "name": "BRODERICK BRAIN FOUNDATION", "city": "BRONX", "state": "NY", "zip": "10465-0618", "ntee": "H48", "ruling": "200207", "deductibility": "1", "assets": 3270, "income": 3525, "revenue": 3525}, {"ein": "141624475", "name": "BISHOP BRODERICK APARTMENTS HOUSING DEVELOPMENT FUND COMPANY INC", "city": "ALBANY", "state": "NY", "zip": "12205-4444", "ntee": "L210", "ruling": "194603", "deductibility": "1", "assets": 3066325, "income": 990687, "revenue": 990687}, {"ein": "273999473", "name": "BRODERICK COMMUNITY SERVICE ORGANIZATION", "city": "ALBANY", "state": "NY", "zip": "12203-1481", "ntee": "", "ruling": "194603", "deductibility": "1", "assets": 0, "income": 0, "revenue": 0}, {"ein": "871479578", "name": "FRIENDS OF BRODERICK PARK", "city": "BUFFALO", "state": "NY", "zip": "14215-6306", "ntee": "B99", "ruling": "202110", "deductibility": "1", "assets": 0, "income": 0, "revenue": 0}], "PS4R": [{"ein": "134153568", "name": "PS4R PARENT TEACHER ASSOCIATION", "city": "STATEN ISLAND", "state": "NY", "zip": "10312-1736", "ntee": "B11", "ruling": "201012", "deductibility": "1", "assets": 36466, "income": 32513, "revenue": 10719}], "ARMAND": [{"ein": "136085594", "name": "ARMAND G ERPF FUND", "city": "ARKVILLE", "state": "NY", "zip": "12406-0000", "ntee": "", "ruling": "195412", "deductibility": "1", "assets": 7015072, "income": 24261740, "revenue": 0}, {"ein": "301244557", "name": "ST ARMAND VETERANS MEMORIAL PARK TASK FORCE INC", "city": "BLOOMINGDALE", "state": "NY", "zip": "12913-0259", "ntee": "W30", "ruling": "202207", "deductibility": "1", "assets": 7876, "income": 50076, "revenue": 37565}, {"ein": "611990508", "name": "ST ARMAND YOUTH TASK FORCE INC", "city": "BLOOMINGDALE", "state": "NY", "zip": "12913-0259", "ntee": "N31", "ruling": "202203", "deductibility": "1", "assets": 19206, "income": 29115, "revenue": 13550}], "AUERBACH": [{"ein": "136201358", "name": "HERMAN AUERBACH MEMORIAL TRUST FUND", "city": "NEW YORK", "state": "NY", "zip": "10008-1297", "ntee": "", "ruling": "197212", "deductibility": "1", "assets": 225868, "income": 71107, "revenue": 0}, {"ein": "136307278", "name": "HERMAN AUERBACH MEMORIAL FUND TRUST 2", "city": "NEW YORK", "state": "NY", "zip": "10008-1297", "ntee": "", "ruling": "197208", "deductibility": "1", "assets": 2843788, "income": 2639492, "revenue": 0}], "SURROGATES": [{"ein": "136217854", "name": "ASSOCIATION OF SURROGATES SUPREME COURT REPORTERS WITHIN THE CITY OF", "city": "NEW YORK", "state": "NY", "zip": "10007-1402", "ntee": "", "ruling": "197701", "deductibility": "2", "assets": 1278880, "income": 628630, "revenue": 462425}], "BARNBAS": [{"ein": "136821315", "name": "CHARLES RUHL TRUST UW FBO ST BARNBAS HOSPITAL", "city": "NEW YORK", "state": "NY", "zip": "10013-2362", "ntee": "", "ruling": "000000", "deductibility": "0", "assets": 189254, "income": 56586, "revenue": 0}], "SABLE": [{"ein": "141423924", "name": "AU SABLE FORKS FREE LIBRARY", "city": "AU SABLE FRKS", "state": "NY", "zip": "12912-0179", "ntee": "B71Z", "ruling": "199508", "deductibility": "1", "assets": 628171, "income": 68877, "revenue": 68877}, {"ein": "166035197", "name": "JOHN C SABLE MEMORIAL HEART FUND INC", "city": "ROCHESTER", "state": "NY", "zip": "14620-1306", "ntee": "", "ruling": "196210", "deductibility": "1", "assets": 0, "income": 0, "revenue": 0}, {"ein": "334741223", "name": "AU SABLE FORKS ACTION CORPORATION", "city": "AU SABLE FRKS", "state": "NY", "zip": "12912-5110", "ntee": "P29", "ruling": "202506", "deductibility": "1", "assets": 0, "income": 0, "revenue": 0}, {"ein": "842466023", "name": "SABLE SANDS SANCTUARY", "city": "ROCHESTER", "state": "NY", "zip": "14613-2236", "ntee": "P20", "ruling": "202002", "deductibility": "1", "assets": 0, "income": 0, "revenue": 0}, {"ein": "854165061", "name": "AU SABLE RIVER VALLEY BUSINESS ASSOCIATION", "city": "AU SABLE FRKS", "state": "NY", "zip": "12912-0055", "ntee": "S41", "ruling": "202206", "deductibility": "2", "assets": 0, "income": 0, "revenue": 0}], "FORKS": [{"ein": "141423924", "name": "AU SABLE FORKS FREE LIBRARY", "city": "AU SABLE FRKS", "state": "NY", "zip": "12912-0179", "ntee": "B71Z", "ruling": "199508", "deductibility": "1", "assets": 628171, "income": 68877, "revenue": 68877}, {"ein": "141798052", "name": "AUSABLE FORKS VOLUNTEER AMBULANCE SERVICE CORPORATION", "city": "AU SABLE FRKS", "state": "NY", "zip": "12912-0835", "ntee": "M24", "ruling": "200311", "deductibility": "1", "assets": 320641, "income": 685815, "revenue": 685815}, {"ein": "146031129", "name": "AUSABLE FORKS KNIGHTS OF COLUMBUS HOME ASSOCIATION INC", "city": "AU SABLE FRKS", "state": "NY", "zip": "12912-0719", "ntee": "", "ruling": "193901", "deductibility": "2", "assets": 0, "income": 0, "revenue": 0}, {"ein": "146049889", "name": "AUSABLE FORKS FIRE DEPARTMENT INC", "city": "AU SABLE FRKS", "state": "NY", "zip": "12912-0785", "ntee": "M24", "ruling": "200903", "deductibility": "1", "assets": 238158, "income": 281806, "revenue": 277098}, {"ein": "161172607", "name": "FORKS SPORTMENS CLUB INC", "city": "CLARENCE", "state": "NY", "zip": "14031-1117", "ntee": "N50", "ruling": "200902", "deductibility": "2", "assets": 0, "income": 0, "revenue": 0}, {"ein": "161512087", "name": "CHENANGO FORKS BAND BOOSTERS", "city": "BINGHAMTON", "state": "NY", "zip": "13901-5405", "ntee": "B80I", "ruling": "199710", "deductibility": "1", "assets": 0, "income": 0, "revenue": 0}, {"ein": "200765572", "name": "CHENANGO FORKS COMMUNITY ASSOCIATION INCORPORATED", "city": "CHENANGO BRG", "state": "NY", "zip": "13745-0534", "ntee": "N60", "ruling": "201608", "deductibility": "1", "assets": 0, "income": 0, "revenue": 0}, {"ein": "222530613", "name": "PITCAIRN FORKS CHURCH OF CHRIST INC", "city": "HARRISVILLE", "state": "NY", "zip": "13648-0408", "ntee": "", "ruling": "198408", "deductibility": "1", "assets": 0, "income": 0, "revenue": 0}, {"ein": "334741223", "name": "AU SABLE FORKS ACTION CORPORATION", "city": "AU SABLE FRKS", "state": "NY", "zip": "12912-5110", "ntee": "P29", "ruling": "202506", "deductibility": "1", "assets": 0, "income": 0, "revenue": 0}, {"ein": "371554068", "name": "UNADILLA FORKS VOLUNTEER FIRE DEPARTMENT INC", "city": "WEST WINFIELD", "state": "NY", "zip": "13491-3719", "ntee": "M24", "ruling": "200902", "deductibility": "1", "assets": 189737, "income": 81593, "revenue": 81593}, {"ein": "812622028", "name": "CHENANGO FORKS FOOTBALL BOOSTER CLUB", "city": "BINGHAMTON", "state": "NY", "zip": "13901-6109", "ntee": "N11", "ruling": "202005", "deductibility": "1", "assets": 9449, "income": 43497, "revenue": 23381}, {"ein": "831401042", "name": "CHENANGO FORKS ELEMENTARY PTO", "city": "BINGHAMTON", "state": "NY", "zip": "13901-5631", "ntee": "B94", "ruling": "202002", "deductibility": "1", "assets": 0, "income": 0, "revenue": 0}, {"ein": "884416906", "name": "CHENANGO FORKS CENTRAL SCHOOL DISTRICT BETTERMENT FOUNDATION", "city": "BINGHAMTON", "state": "NY", "zip": "13901-5620", "ntee": "B12", "ruling": "202302", "deductibility": "1", "assets": 0, "income": 0, "revenue": 0}], "HAGAMAN": [{"ein": "141735612", "name": "HAGAMAN VOLUNTEER FIRE DEPARTMENT INC", "city": "HAGAMAN", "state": "NY", "zip": "12086-0000", "ntee": "", "ruling": "199411", "deductibility": "1", "assets": 2355415, "income": 572012, "revenue": 572012}, {"ein": "146025059", "name": "CALVARY REFORMED CHURCH OF HAGAMAN NEW YORK", "city": "HAGAMAN", "state": "NY", "zip": "12086-0548", "ntee": "", "ruling": "198601", "deductibility": "1", "assets": 0, "income": 0, "revenue": 0}], "ANTIQUA": [{"ein": "141834260", "name": "ARS ANTIQUA INC", "city": "PATTERSON", "state": "NY", "zip": "12563-2521", "ntee": "A68", "ruling": "201107", "deductibility": "1", "assets": 0, "income": 0, "revenue": 0}], "USANYC": [{"ein": "141868735", "name": "USANYC CHINATOWN CHRISTIAN CHURCH INC", "city": "NEW YORK", "state": "NY", "zip": "10002-8400", "ntee": "X21", "ruling": "200306", "deductibility": "1", "assets": 198926, "income": 86169, "revenue": 86169}], "SATURN": [{"ein": "160623120", "name": "SATURN CLUB", "city": "BUFFALO", "state": "NY", "zip": "14209-1805", "ntee": "", "ruling": "194104", "deductibility": "2", "assets": 4106401, "income": 3491147, "revenue": 1645998}, {"ein": "201840639", "name": "SATURN CLUB HISTORIC PRESERVATION FOUNDATION", "city": "BUFFALO", "state": "NY", "zip": "14209-1436", "ntee": "A80", "ruling": "200512", "deductibility": "1", "assets": 238300, "income": 99317, "revenue": 99317}], "LONGVIEW": [{"ein": "160743081", "name": "GATEWAY-LONGVIEW", "city": "WILLIAMSVILLE", "state": "NY", "zip": "14221-5821", "ntee": "P82Z", "ruling": "194506", "deductibility": "1", "assets": 28259819, "income": 27657214, "revenue": 27657214}, {"ein": "160835951", "name": "LONGVIEW MINISTRIES INC", "city": "ARCADE", "state": "NY", "zip": "14009-9714", "ntee": "X20", "ruling": "201611", "deductibility": "1", "assets": 1188064, "income": 227281, "revenue": 223864}, {"ein": "161559402", "name": "GATEWAY-LONGVIEW FOUNDATION", "city": "WILLIAMSVILLE", "state": "NY", "zip": "14221-5821", "ntee": "T110", "ruling": "199903", "deductibility": "1", "assets": 14012266, "income": 1244743, "revenue": 1222375}, {"ein": "261648371", "name": "LONGVIEW SCHOOL", "city": "BREWSTER", "state": "NY", "zip": "10509-1264", "ntee": "B25", "ruling": "200901", "deductibility": "1", "assets": 1371382, "income": 341391, "revenue": 341391}], "CYC": [{"ein": "161201865", "name": "CYC JUNIOR DIVISION INC", "city": "CHAUMONT", "state": "NY", "zip": "13622-0000", "ntee": "N67", "ruling": "201010", "deductibility": "1", "assets": 440743, "income": 78185, "revenue": 78185}, {"ein": "924019129", "name": "SOLVAY GEDDES CYC SERVICE ORGANIZATION INC", "city": "SYRACUSE", "state": "NY", "zip": "13209-1545", "ntee": "P30", "ruling": "202307", "deductibility": "1", "assets": 0, "income": 0, "revenue": 0}], "SHADY": [{"ein": "161211215", "name": "SHADY GROVE WESLEYAN CHURCH", "city": "CORNING", "state": "NY", "zip": "14830-9429", "ntee": "", "ruling": "197005", "deductibility": "1", "assets": 0, "income": 0, "revenue": 0}, {"ein": "822463867", "name": "SHADY BROOK RESCUE INC", "city": "NEW YORK", "state": "NY", "zip": "10003-2893", "ntee": "D20", "ruling": "201710", "deductibility": "1", "assets": 0, "income": 0, "revenue": 0}, {"ein": "881799951", "name": "SHADY STRONG INC", "city": "NEWARK VALLEY", "state": "NY", "zip": "13811-3410", "ntee": "G12", "ruling": "202204", "deductibility": "1", "assets": 29507, "income": 20456, "revenue": 0}], "SIEGLE": [{"ein": "161341056", "name": "SIEGLE FOUNDATION INC", "city": "HOMER", "state": "NY", "zip": "13077-1624", "ntee": "", "ruling": "198909", "deductibility": "1", "assets": 135291, "income": 32376, "revenue": 0}], "RTA": [{"ein": "161446647", "name": "RTA LEADERSHIP FOR REFORM INSTITUTE INC", "city": "ROCHESTER", "state": "NY", "zip": "14607-1345", "ntee": "", "ruling": "199501", "deductibility": "1", "assets": 0, "income": 0, "revenue": 0}], "HOSKINS": [{"ein": "161490629", "name": "HOSKINS FAMILY FOUNDATION", "city": "BUFFALO", "state": "NY", "zip": "14202-4014", "ntee": "", "ruling": "199606", "deductibility": "1", "assets": 55051, "income": 13461, "revenue": 0}], "HORSEMEN": [{"ein": "161497915", "name": "ONONDAGA HARNESS HORSEMEN", "city": "SOLVAY", "state": "NY", "zip": "13209-0277", "ntee": "D03", "ruling": "201810", "deductibility": "1", "assets": 0, "income": 0, "revenue": 0}, {"ein": "271579496", "name": "TEAMSTER HORSEMEN MOTORCYCLE ASSOCIATION INC", "city": "CHEEKTOWAGA", "state": "NY", "zip": "14225-0194", "ntee": "N50", "ruling": "201009", "deductibility": "2", "assets": 0, "income": 0, "revenue": 0}, {"ein": "472321452", "name": "TEAMSTER HORSEMEN MOTORCYCLE ASSOCIATION INC", "city": "CICERO", "state": "NY", "zip": "13039-7005", "ntee": "N50", "ruling": "201009", "deductibility": "2", "assets": 0, "income": 0, "revenue": 0}, {"ein": "542201960", "name": "TEAMSTER HORSEMEN MOTORCYCLE ASSOCIATION INC", "city": "MONTGOMERY", "state": "NY", "zip": "12549-2054", "ntee": "N50", "ruling": "201009", "deductibility": "2", "assets": 0, "income": 0, "revenue": 0}, {"ein": "822971935", "name": "TARRYTOWN AND SLEEPY HOLLOW JUNIOR HORSEMEN INC", "city": "SLEEPY HOLLOW", "state": "NY", "zip": "10591-1041", "ntee": "N99", "ruling": "202309", "deductibility": "1", "assets": 0, "income": 0, "revenue": 0}, {"ein": "830472565", "name": "TEAMSTER HORSEMEN MOTORCYCLE ASSOCIATION INC", "city": "LEVITTOWN", "state": "NY", "zip": "11756-5203", "ntee": "N50", "ruling": "201009", "deductibility": "2", "assets": 0, "income": 0, "revenue": 0}], "MCENT": [{"ein": "166217689", "name": "WILLIAM H HODGE TRUST UW FBO NIAG MEN MCENT", "city": "NORWICH", "state": "NY", "zip": "13815-1646", "ntee": "", "ruling": "000000", "deductibility": "0", "assets": 92668, "income": 4876, "revenue": 0}], "LAWLER": [{"ein": "166464903", "name": "BERNARD J & JEANNE M LAWLER FAMILY CHARITABLE FOUNDATION", "city": "FAYETTEVILLE", "state": "NY", "zip": "13066-2563", "ntee": "T22", "ruling": "199902", "deductibility": "1", "assets": 78934, "income": 17140, "revenue": 0}], "INDUS": [{"ein": "201072118", "name": "LAUNDRY DRY CLEANING WORKERS & ALLD INDUS EDUC & LEGAL FUND WRKRS UNTD", "city": "WHITE PLAINS", "state": "NY", "zip": "10604-2910", "ntee": "Y44", "ruling": "200608", "deductibility": "2", "assets": 1154112, "income": 226741, "revenue": 226741}, {"ein": "261496848", "name": "INDUS CHARITABLE FOUNDATION INC", "city": "NEW YORK", "state": "NY", "zip": "10019-5933", "ntee": "T22", "ruling": "201006", "deductibility": "1", "assets": 1414219, "income": 157542, "revenue": 0}], "FROLIC": [{"ein": "201388471", "name": "FREESTYLE FROLIC DANCE COLLECTIVE INC", "city": "NEW PALTZ", "state": "NY", "zip": "12561-1143", "ntee": "A62", "ruling": "201301", "deductibility": "2", "assets": 0, "income": 0, "revenue": 0}], "FLAX": [{"ein": "202436280", "name": "FRIENDS OF FLAX POND INC", "city": "LK RONKONKOMA", "state": "NY", "zip": "11779-1645", "ntee": "C32", "ruling": "201910", "deductibility": "1", "assets": 0, "income": 0, "revenue": 0}, {"ein": "251482764", "name": "THE FLAX TRUST", "city": "NEW YORK", "state": "NY", "zip": "10022-6815", "ntee": "Q320", "ruling": "198506", "deductibility": "1", "assets": 307467, "income": 169695, "revenue": 156374}], "IAM": [{"ein": "206095388", "name": "SPECIAL METALS CORPORATION IAM RETIREE VEBA TR", "city": "NEW HARTFORD", "state": "NY", "zip": "13413-5317", "ntee": "Y43", "ruling": "200510", "deductibility": "2", "assets": 429806, "income": 566694, "revenue": 566694}, {"ein": "371736068", "name": "TRANSPORTATION COMMUNICATIONS UNION -IAM", "city": "HUNTINGTN STA", "state": "NY", "zip": "11746-4417", "ntee": "", "ruling": "194408", "deductibility": "2", "assets": 66633, "income": 73911, "revenue": 73911}, {"ein": "473146807", "name": "IAM CREST METROPOLITAN INC", "city": "LONG IS CITY", "state": "NY", "zip": "11101-1731", "ntee": "J40", "ruling": "201908", "deductibility": "2", "assets": 390711, "income": 400204, "revenue": 400204}], "HOODA": [{"ein": "207382229", "name": "HOODA GERMACK TR FBO BRAVO VOLUNTEER AMBULANCE SERVICE", "city": "BROOKLYN", "state": "NY", "zip": "11209-8618", "ntee": "", "ruling": "000000", "deductibility": "0", "assets": 1159903, "income": 194568, "revenue": 0}], "AWARENESSINC": [{"ein": "208965756", "name": "ADELINA & FRIENDS SIDS AWARENESSINC", "city": "NEWBURGH", "state": "NY", "zip": "12550-2228", "ntee": "G80", "ruling": "200712", "deductibility": "1", "assets": 0, "income": 0, "revenue": 0}], "BASKETBALLBOOSTER": [{"ein": "208976090", "name": "GIRLS BALDWINSVILLE BASKETBALLBOOSTER CLUB", "city": "BALDWINSVILLE", "state": "NY", "zip": "13027-2480", "ntee": "N62", "ruling": "200709", "deductibility": "1", "assets": 0, "income": 0, "revenue": 0}], "COMAPNY": [{"ein": "222603266", "name": "SPARTA CENTER VOLUNTEER FIRE COMAPNY INC", "city": "DANSVILLE", "state": "NY", "zip": "14437-9620", "ntee": "M24Z", "ruling": "198508", "deductibility": "2", "assets": 378343, "income": 158160, "revenue": 126411}], "XXXVI": [{"ein": "223791633", "name": "KNICKERBOCKER PROPERTIES INC XXXVI", "city": "NEW YORK", "state": "NY", "zip": "10020-1104", "ntee": "S470", "ruling": "200310", "deductibility": "2", "assets": 124822604, "income": 11261897, "revenue": 4785582}], "LAMPLIGHTER": [{"ein": "232864283", "name": "LAMPLIGHTER MINISTRIES INTERNATIONAL INC", "city": "MOUNT MORRIS", "state": "NY", "zip": "14510-1144", "ntee": "X20", "ruling": "199704", "deductibility": "1", "assets": 3463208, "income": 2320660, "revenue": 2077768}, {"ein": "262199680", "name": "LAMPLIGHTER FOUNDATION INC", "city": "ALBANY", "state": "NY", "zip": "12210-2203", "ntee": "A80", "ruling": "200808", "deductibility": "1", "assets": 108598, "income": 63761, "revenue": 63761}], "IMAGI": [{"ein": "237149915", "name": "GREATER NEW YORK CHAPTER SOCIETY OF NUCLEAR MEDICINE & MOLECULAR IMAGI", "city": "BLUE POINT", "state": "NY", "zip": "11772-6515", "ntee": "", "ruling": "200302", "deductibility": "1", "assets": 145925, "income": 182483, "revenue": 182483}], "LINDENWOOD": [{"ein": "237295865", "name": "LINDENWOOD COMMUNITY VOLUNTEER AMBULANCE CORPS INC", "city": "OZONE PARK", "state": "NY", "zip": "11417-0191", "ntee": "E620", "ruling": "197312", "deductibility": "1", "assets": 410570, "income": 107952, "revenue": 83207}, {"ein": "465145713", "name": "HOWARD BEACH LINDENWOOD CIVIC ASSOCIATION", "city": "HOWARD BEACH", "state": "NY", "zip": "11414-0271", "ntee": "W01", "ruling": "201503", "deductibility": "1", "assets": 0, "income": 0, "revenue": 0}], "SHAPELL": [{"ein": "237336683", "name": "DAVID SHAPELL JEWISH CENTER", "city": "BROOKLYN", "state": "NY", "zip": "11204-1260", "ntee": "", "ruling": "197312", "deductibility": "1", "assets": 0, "income": 0, "revenue": 0}], "TIES": [{"ein": "260005881", "name": "FAMILY TIES OF WEST CHESTER INC", "city": "WHITE PLAINS", "state": "NY", "zip": "10601-5113", "ntee": "P40", "ruling": "200205", "deductibility": "1", "assets": 1050209, "income": 1946925, "revenue": 1946925}, {"ein": "272993188", "name": "TIES TO THE FUTURE FOUNDATION INC", "city": "HIGH FALLS", "state": "NY", "zip": "12440-5523", "ntee": "B82", "ruling": "201009", "deductibility": "1", "assets": 0, "income": 0, "revenue": 0}, {"ein": "843282722", "name": "BROKEN TIES INC", "city": "BROOKLYN", "state": "NY", "zip": "11219-3782", "ntee": "F60", "ruling": "201912", "deductibility": "1", "assets": 0, "income": 0, "revenue": 0}], "GOAL": [{"ein": "262477976", "name": "GOAL CLUB FOUNDATION", "city": "DOBBS FERRY", "state": "NY", "zip": "10522-3029", "ntee": "N64", "ruling": "200903", "deductibility": "1", "assets": 0, "income": 0, "revenue": 0}, {"ein": "300588283", "name": "COMMON GOAL USA INC", "city": "BROOKLYN", "state": "NY", "zip": "11201-1123", "ntee": "N64", "ruling": "201007", "deductibility": "1", "assets": 427473, "income": 1388742, "revenue": 1388742}, {"ein": "352318634", "name": "ONE COMMON GOAL", "city": "CAMBRIA HTS", "state": "NY", "zip": "11411-1725", "ntee": "P50", "ruling": "200905", "deductibility": "1", "assets": 11500, "income": 11507, "revenue": 11507}, {"ein": "465445417", "name": "DOBBS FERRY LAX GOAL CLUB INC", "city": "DOBBS FERRY", "state": "NY", "zip": "10522-2467", "ntee": "N99", "ruling": "201412", "deductibility": "1", "assets": 0, "income": 0, "revenue": 0}, {"ein": "814343253", "name": "GOAL PROJECT FUND", "city": "NEW YORK", "state": "NY", "zip": "10128-1000", "ntee": "B90", "ruling": "201907", "deductibility": "1", "assets": 0, "income": 0, "revenue": 0}, {"ein": "825403458", "name": "GOAL CLUB INC", "city": "HOLBROOK", "state": "NY", "zip": "11741-0856", "ntee": "N64", "ruling": "201807", "deductibility": "1", "assets": 0, "income": 0, "revenue": 0}], "INLOVE": [{"ein": "262529192", "name": "SPEAKING TRUTH INLOVE MINISTRIES INC", "city": "ADDISON", "state": "NY", "zip": "14801-0314", "ntee": "I73", "ruling": "201303", "deductibility": "1", "assets": 222267, "income": 268278, "revenue": 268278}], "FOUTA": [{"ein": "263409225", "name": "POTTAL FII BHANTAL FOUTA DJALLON", "city": "BRONX", "state": "NY", "zip": "10456-1160", "ntee": "P84", "ruling": "201008", "deductibility": "1", "assets": 24513, "income": 44811, "revenue": 44811}, {"ein": "352422542", "name": "UNION FOUTA NY", "city": "BRONX", "state": "NY", "zip": "10456-5355", "ntee": "P84", "ruling": "201312", "deductibility": "1", "assets": 0, "income": 0, "revenue": 0}], "XU": [{"ein": "263804585", "name": "FRANK XU FAMILY FOUNDATION INC", "city": "NEW YORK", "state": "NY", "zip": "10028-7912", "ntee": "T22", "ruling": "200902", "deductibility": "1", "assets": 123247, "income": 15700, "revenue": 0}, {"ein": "833863438", "name": "AMERICAN LIN ZE XU FOUNDATION", "city": "FLUSHING", "state": "NY", "zip": "11355-2464", "ntee": "P99", "ruling": "201904", "deductibility": "1", "assets": 0, "income": 0, "revenue": 0}], "JENIFER": [{"ein": "264382503", "name": "ADAM AND JENIFER GELLER FOUNDATION INC", "city": "NEW YORK", "state": "NY", "zip": "10024-3139", "ntee": "T20", "ruling": "201008", "deductibility": "1", "assets": 203772, "income": 206113, "revenue": 0}, {"ein": "462886635", "name": "JENIFER T BECKER FOUNDATION", "city": "BROOKLYN", "state": "NY", "zip": "11218-4648", "ntee": "B28", "ruling": "201405", "deductibility": "1", "assets": 0, "income": 0, "revenue": 0}], "INFOSYS": [{"ein": "264592537", "name": "INFOSYS FOUNDATION USA", "city": "NEW YORK", "state": "NY", "zip": "10007-0089", "ntee": "T30", "ruling": "201009", "deductibility": "1", "assets": 123055, "income": 3865141, "revenue": 0}], "HELPMAN": [{"ein": "264638701", "name": "HELPMAN PRODUCTIONS", "city": "CROTON ON HUDSON", "state": "NY", "zip": "10520-3055", "ntee": "A31", "ruling": "201001", "deductibility": "1", "assets": 12318, "income": 5905, "revenue": 5905}], "MBOA": [{"ein": "270474637", "name": "ASSOCIATION MBOA SAWA O NEW YORK INC", "city": "CORONA", "state": "NY", "zip": "11368-4171", "ntee": "A99", "ruling": "202409", "deductibility": "1", "assets": 0, "income": 0, "revenue": 0}], "DEMPSEY": [{"ein": "271313121", "name": "DEMPSEY APARTMENTS HOUSING DEVELOPMENT FUND CORPORATION", "city": "NEW YORK", "state": "NY", "zip": "10010-6002", "ntee": "L21", "ruling": "201011", "deductibility": "2", "assets": 0, "income": 0, "revenue": 0}], "LEIGH": [{"ein": "272526724", "name": "SAMUEL C LEIGH MEMORIAL SCHOLARSHIP FUND INC", "city": "GANSEVOORT", "state": "NY", "zip": "12831-1454", "ntee": "B82", "ruling": "201104", "deductibility": "1", "assets": 0, "income": 0, "revenue": 0}, {"ein": "452450540", "name": "HEATHER LEIGH COLON SCHOLORSHIP FUND", "city": "NANUET", "state": "NY", "zip": "10954-3417", "ntee": "B82", "ruling": "201210", "deductibility": "1", "assets": 0, "income": 0, "revenue": 0}, {"ein": "881563642", "name": "SIMONE LEIGH FOUNDATION", "city": "NEW YORK", "state": "NY", "zip": "10022-2247", "ntee": "T20", "ruling": "202307", "deductibility": "1", "assets": 1293033, "income": 1080394, "revenue": 0}], "NOUVEAU": [{"ein": "273869286", "name": "NOUVEAU CLASSICAL PROJECT INC", "city": "BROOKLYN", "state": "NY", "zip": "11215-6799", "ntee": "A68", "ruling": "201102", "deductibility": "1", "assets": 30850, "income": 27250, "revenue": 27250}], "VEHODOR": [{"ein": "274553750", "name": "BAIS YAAKOV OZ VEHODOR", "city": "BROOKLYN", "state": "NY", "zip": "11204-1806", "ntee": "X30", "ruling": "201304", "deductibility": "1", "assets": 0, "income": 0, "revenue": 0}], "MAON": [{"ein": "311689936", "name": "MAON NOAM INC", "city": "POMONA", "state": "NY", "zip": "10970-3204", "ntee": "T22", "ruling": "200204", "deductibility": "1", "assets": 3905, "income": 104855, "revenue": 0}, {"ein": "832289069", "name": "MAON LATZMA INC", "city": "BROOKLYN", "state": "NY", "zip": "11213-3677", "ntee": "X30", "ruling": "201905", "deductibility": "1", "assets": 0, "income": 0, "revenue": 0}], "PALACES": [{"ein": "311780833", "name": "HISTORIC ROYAL PALACES INC", "city": "NEW YORK", "state": "NY", "zip": "10019-4703", "ntee": "A128", "ruling": "200107", "deductibility": "1", "assets": 86298, "income": 171790, "revenue": 171790}], "ERNEE": [{"ein": "331418031", "name": "ERNEE PEPPERS FOUNDATION INC", "city": "BROOKLYN", "state": "NY", "zip": "11226-5972", "ntee": "P20", "ruling": "202410", "deductibility": "1", "assets": 0, "income": 0, "revenue": 0}], "LEVANA": [{"ein": "332709004", "name": "KHAL OHR LEVANA", "city": "BROOKLYN", "state": "NY", "zip": "11230-6327", "ntee": "X30", "ruling": "202507", "deductibility": "1", "assets": 0, "income": 0, "revenue": 0}], "PORCRISTO": [{"ein": "332733347", "name": "PORCRISTO INTERNATIONAL INC", "city": "AVOCA", "state": "NY", "zip": "14809-9755", "ntee": "X99", "ruling": "202501", "deductibility": "1", "assets": 0, "income": 0, "revenue": 0}], "HUSTLE": [{"ein": "334260903", "name": "SUNSET HUSTLE FOUNDATION INC", "city": "NEW YORK", "state": "NY", "zip": "10031-3913", "ntee": "A23", "ruling": "202505", "deductibility": "1", "assets": 0, "income": 0, "revenue": 0}, {"ein": "883695077", "name": "HUSTLE PRESENTS INC", "city": "NEW YORK", "state": "NY", "zip": "10003-5208", "ntee": "B80", "ruling": "202303", "deductibility": "1", "assets": 0, "income": 0, "revenue": 0}, {"ein": "934113583", "name": "HUSTLE CLUB BROOKLYN INC", "city": "BROOKLYN", "state": "NY", "zip": "11216-4244", "ntee": "A62", "ruling": "202311", "deductibility": "1", "assets": 0, "income": 0, "revenue": 0}, {"ein": "990801170", "name": "HUSTLE FASTPITCH OF NEW YORK INC", "city": "WESTBURY", "state": "NY", "zip": "11590-6123", "ntee": "B99", "ruling": "202402", "deductibility": "1", "assets": 0, "income": 0, "revenue": 0}], "EMPRESSES": [{"ein": "334577708", "name": "UNSUNG YUTES & EMPRESSES", "city": "MOUNT VERNON", "state": "NY", "zip": "10550-3014", "ntee": "N62", "ruling": "202506", "deductibility": "1", "assets": 0, "income": 0, "revenue": 0}], "DYNAMIK": [{"ein": "334823035", "name": "DYNAMIK FOUNDATION INC", "city": "NEW ROCHELLE", "state": "NY", "zip": "10801-5711", "ntee": "B90", "ruling": "202507", "deductibility": "1", "assets": 0, "income": 0, "revenue": 0}], "ELECTRICIAN": [{"ein": "364941184", "name": "JOB SECURITY FUND OF THE ELECTRICIAN INDUSTRY", "city": "FLUSHING", "state": "NY", "zip": "11365-3085", "ntee": "J40", "ruling": "202009", "deductibility": "2", "assets": 73469949, "income": 19438057, "revenue": 19438057}], "JIN": [{"ein": "371489681", "name": "AMERICAN JIN FENG FEDERATION INC", "city": "NEW YORK", "state": "NY", "zip": "10002-6873", "ntee": "P80", "ruling": "200410", "deductibility": "1", "assets": 100584, "income": 3560, "revenue": 3560}, {"ein": "872154324", "name": "JIN SHIN JYUTSU SMB INC", "city": "WOODSTOCK", "state": "NY", "zip": "12498-1725", "ntee": "A20", "ruling": "202111", "deductibility": "1", "assets": 30917, "income": 46014, "revenue": 46014}], "FLOR": [{"ein": "392063508", "name": "MOVIMIENTO PENTECOSTAL INTERNACIONAL FLOR DE JERUSALEM", "city": "RIDGEWOOD", "state": "NY", "zip": "11385-2264", "ntee": "X21", "ruling": "201102", "deductibility": "1", "assets": 0, "income": 0, "revenue": 0}], "MANTLE": [{"ein": "392068292", "name": "BETHLEHEM MICKEY MANTLE INC", "city": "GLENMONT", "state": "NY", "zip": "12077-3310", "ntee": "N63", "ruling": "200809", "deductibility": "1", "assets": 0, "income": 0, "revenue": 0}, {"ein": "830934318", "name": "MANTLE OF CHRIST INTERNATIONAL MINISTRIES INC", "city": "BROOKLYN", "state": "NY", "zip": "11212-5743", "ntee": "X20", "ruling": "202003", "deductibility": "1", "assets": 0, "income": 0, "revenue": 0}], "SINCLAIR": [{"ein": "411451279", "name": "CLAN SINCLAIR ASSOCIATION INC", "city": "MARCELLUS", "state": "NY", "zip": "13108-8714", "ntee": "N50", "ruling": "201410", "deductibility": "2", "assets": 0, "income": 0, "revenue": 0}, {"ein": "411949804", "name": "CLAN SINCLAIR U S A CHARITABLE TRUST INC", "city": "MARCELLUS", "state": "NY", "zip": "13108-8714", "ntee": "A23", "ruling": "199911", "deductibility": "1", "assets": 0, "income": 0, "revenue": 0}], "SEW": [{"ein": "412111909", "name": "SEW REDI BUFFALO INC", "city": "BUFFALO", "state": "NY", "zip": "14220-2019", "ntee": "T99", "ruling": "200807", "deductibility": "1", "assets": 0, "income": 0, "revenue": 0}, {"ein": "862897509", "name": "SEW WHAT OF CNY INC", "city": "AUBURN", "state": "NY", "zip": "13021-2608", "ntee": "P29", "ruling": "202107", "deductibility": "1", "assets": 101554, "income": 98229, "revenue": 98229}, {"ein": "934351686", "name": "SEW SO FRESH", "city": "BROOKLYN", "state": "NY", "zip": "11207-0000", "ntee": "A99", "ruling": "202407", "deductibility": "1", "assets": 0, "income": 0, "revenue": 0}], "BELGIUM": [{"ein": "412193039", "name": "BELGIUM COLD SPRINGS FIRE DEPARTMENT INC", "city": "BALDWINSVILLE", "state": "NY", "zip": "13027-1304", "ntee": "M24", "ruling": "200603", "deductibility": "1", "assets": 193894, "income": 82884, "revenue": 71785}, {"ein": "562446476", "name": "AMERICAN FRIENDS OF THE INTL JEWISH CENTER OF BELGIUM", "city": "SLEEPY HOLLOW", "state": "NY", "zip": "10591-8314", "ntee": "T30", "ruling": "200501", "deductibility": "1", "assets": 0, "income": 0, "revenue": 0}, {"ein": "986001286", "name": "FONDATION FRANCQUI BELGIUM", "city": "NEW YORK", "state": "NY", "zip": "10176-0000", "ntee": "", "ruling": "193811", "deductibility": "1", "assets": 58585112, "income": 513970, "revenue": 0}], "LONGYEAR": [{"ein": "412251144", "name": "THE LONGYEAR GALLERY INC", "city": "MARGARETVILLE", "state": "NY", "zip": "12455-1102", "ntee": "A20", "ruling": "200904", "deductibility": "1", "assets": 14338, "income": 53126, "revenue": 0}], "CURRENCY": [{"ein": "452547457", "name": "NATIONAL CURRENCY FOUNDATION", "city": "NEW YORK", "state": "NY", "zip": "10001-0000", "ntee": "A80", "ruling": "201207", "deductibility": "1", "assets": 96172, "income": 83505, "revenue": 0}, {"ein": "874080784", "name": "CURRENCY FOUNDATION INC", "city": "BROOKLYN", "state": "NY", "zip": "11223-5464", "ntee": "T12", "ruling": "202411", "deductibility": "2", "assets": 255530, "income": 1, "revenue": 0}], "BASSMAN": [{"ein": "453191770", "name": "BASSMAN FAMILY CHARITABLE TRUST", "city": "NEW YORK", "state": "NY", "zip": "10024-3211", "ntee": "T20", "ruling": "201207", "deductibility": "1", "assets": 5671, "income": 200208, "revenue": 0}], "DWARFISM": [{"ein": "455271694", "name": "UNDERSTANDING DWARFISM INC", "city": "BLOOMINGBURG", "state": "NY", "zip": "12721-3043", "ntee": "P80", "ruling": "201407", "deductibility": "1", "assets": 0, "income": 0, "revenue": 0}], "SEEGER": [{"ein": "461452734", "name": "AIDAN JACK SEEGER FOUNDATION INC", "city": "BROOKLYN", "state": "NY", "zip": "11218-1140", "ntee": "G48", "ruling": "201310", "deductibility": "1", "assets": 12538, "income": 129752, "revenue": 129752}, {"ein": "526241137", "name": "ELSIE SEEGER BARTON TRUST", "city": "AMHERST", "state": "NY", "zip": "14228-2307", "ntee": "D110", "ruling": "199304", "deductibility": "1", "assets": 3660941, "income": 807761, "revenue": 0}, {"ein": "993998849", "name": "TOSHI AND PETE SEEGER FUND", "city": "NEWBURGH", "state": "NY", "zip": "12550-4635", "ntee": "R99", "ruling": "202408", "deductibility": "1", "assets": 0, "income": 0, "revenue": 0}], "XIX": [{"ein": "461671263", "name": "REGION XIX NJCAA INC", "city": "HOMER", "state": "NY", "zip": "13077-8402", "ntee": "N60", "ruling": "201305", "deductibility": "1", "assets": 0, "income": 0, "revenue": 0}, {"ein": "680367474", "name": "KNICKERBOCKER PROPERTIES INC XIX", "city": "NEW YORK", "state": "NY", "zip": "10020-1104", "ntee": "", "ruling": "199706", "deductibility": "2", "assets": 64377033, "income": 5363705, "revenue": 2158969}], "SBR": [{"ein": "461733791", "name": "SENT BY RAVENS SBR FOOD PANTRY INC", "city": "LIVONIA", "state": "NY", "zip": "14487-9703", "ntee": "K31", "ruling": "201302", "deductibility": "1", "assets": 0, "income": 0, "revenue": 0}], "BRUEGGEMANN": [{"ein": "463485764", "name": "LILLIAN S BRUEGGEMANN EDUCATIONAL SCHOLARSHIP FUND", "city": "E NORTHPORT", "state": "NY", "zip": "11731-4202", "ntee": "B82", "ruling": "201503", "deductibility": "1", "assets": 0, "income": 0, "revenue": 0}], "PS118": [{"ein": "463968128", "name": "PS118 THE MAURICE SENDAK COMMUNITY SCHOOL", "city": "BROOKLYN", "state": "NY", "zip": "11215-3211", "ntee": "B94", "ruling": "201410", "deductibility": "1", "assets": 350841, "income": 239627, "revenue": 239627}], "SEGRETO": [{"ein": "464965099", "name": "LOUIS SEGRETO 26 FOUNDATION", "city": "MILLER PLACE", "state": "NY", "zip": "11764-0026", "ntee": "P99", "ruling": "201408", "deductibility": "1", "assets": 24930, "income": 117062, "revenue": 117062}], "MATCH": [{"ein": "471010726", "name": "LITTLE MATCH GIRL FOUNDATION LIMITED", "city": "DEPEW", "state": "NY", "zip": "14043-5011", "ntee": "T12", "ruling": "202211", "deductibility": "1", "assets": 0, "income": 0, "revenue": 0}, {"ein": "810714904", "name": "RE-MATCH", "city": "BROOKLYN", "state": "NY", "zip": "11222-1591", "ntee": "O30", "ruling": "201603", "deductibility": "1", "assets": 0, "income": 0, "revenue": 0}, {"ein": "852802401", "name": "A BETTER MATCH INC", "city": "TAPPAN", "state": "NY", "zip": "10983-1231", "ntee": "P50", "ruling": "202101", "deductibility": "1", "assets": 0, "income": 0, "revenue": 0}, {"ein": "862200220", "name": "MATCH DEVELOPMENT FOUNDATION", "city": "NEW YORK", "state": "NY", "zip": "10019-8722", "ntee": "N66", "ruling": "202501", "deductibility": "1", "assets": 0, "income": 0, "revenue": 0}, {"ein": "874501382", "name": "CHAVRUSA MATCH", "city": "BROOKLYN", "state": "NY", "zip": "11211-7326", "ntee": "P40", "ruling": "202202", "deductibility": "1", "assets": 0, "income": 0, "revenue": 0}, {"ein": "954231508", "name": "MATCH INTERACTIVE INC", "city": "OCEANSIDE", "state": "NY", "zip": "11572-5502", "ntee": "", "ruling": "199411", "deductibility": "1", "assets": 0, "income": 0, "revenue": 0}], "BOLD": [{"ein": "471286557", "name": "BOLD MYNDS INC", "city": "ELMONT", "state": "NY", "zip": "11003-2032", "ntee": "O50", "ruling": "201804", "deductibility": "1", "assets": 159, "income": 44239, "revenue": 44239}, {"ein": "474044578", "name": "BOLD START CORPORATION", "city": "NEW YORK", "state": "NY", "zip": "10016-2418", "ntee": "I40", "ruling": "201705", "deductibility": "1", "assets": 0, "income": 0, "revenue": 0}, {"ein": "813674930", "name": "BOLD CAPITAL FUND INC", "city": "ALBERTSON", "state": "NY", "zip": "11507-0253", "ntee": "S12", "ruling": "201808", "deductibility": "1", "assets": 0, "income": 0, "revenue": 0}, {"ein": "831419644", "name": "BOLD CHARTER SCHOOL", "city": "BRONX", "state": "NY", "zip": "10460-4340", "ntee": "B29", "ruling": "201906", "deductibility": "1", "assets": 13958653, "income": 12188349, "revenue": 12188349}, {"ein": "833915942", "name": "BOLD SCHOOLS INC", "city": "BRONX", "state": "NY", "zip": "10460-4340", "ntee": "B12", "ruling": "201906", "deductibility": "1", "assets": 9672642, "income": 2301148, "revenue": 840815}, {"ein": "853724664", "name": "BEYOND BOLD AND BRAVE", "city": "NEW YORK", "state": "NY", "zip": "10037-3120", "ntee": "P80", "ruling": "202109", "deductibility": "1", "assets": 0, "income": 0, "revenue": 0}], "GENG": [{"ein": "471819542", "name": "REVEREND GENG MING SHIH FOUNDATION INC", "city": "SOMERS", "state": "NY", "zip": "10589-2305", "ntee": "X12", "ruling": "201510", "deductibility": "1", "assets": 21324779, "income": 6905094, "revenue": 0}], "TOUBA": [{"ein": "472498630", "name": "TOUBA FAMILY FOUNDATION INC", "city": "GLENS FALLS", "state": "NY", "zip": "12801-4526", "ntee": "T90", "ruling": "201506", "deductibility": "1", "assets": 1279548, "income": 222266, "revenue": 0}, {"ein": "862069116", "name": "TOUBA CA KANAM USA", "city": "NEW YORK", "state": "NY", "zip": "10030-2589", "ntee": "S12", "ruling": "202505", "deductibility": "1", "assets": 0, "income": 0, "revenue": 0}], "STYLE": [{"ein": "473087599", "name": "OPEN STYLE LAB INC", "city": "GREAT NECK", "state": "NY", "zip": "11020-1145", "ntee": "P50", "ruling": "201507", "deductibility": "1", "assets": 183196, "income": 248337, "revenue": 248337}, {"ein": "834176737", "name": "REPURPOSE WARDROBE STYLE FOR GOOD CHARITABLE CONCEPT INC", "city": "NEW YORK", "state": "NY", "zip": "10024-6343", "ntee": "P29", "ruling": "202003", "deductibility": "1", "assets": 103634, "income": 697198, "revenue": 48721}, {"ein": "991145275", "name": "SUSTAINING STYLE NETWORK", "city": "NEW YORK", "state": "NY", "zip": "10001-5404", "ntee": "C27", "ruling": "202402", "deductibility": "1", "assets": 0, "income": 0, "revenue": 0}], "MATTY": [{"ein": "474999423", "name": "MILES FOR MATTY INC", "city": "BUFFALO", "state": "NY", "zip": "14216-2436", "ntee": "G12", "ruling": "201903", "deductibility": "1", "assets": 14250, "income": 138, "revenue": 138}, {"ein": "921825208", "name": "MATTY FRANKEL FOUNDATION", "city": "SARATOGA SPGS", "state": "NY", "zip": "12866-9724", "ntee": "F12", "ruling": "202302", "deductibility": "1", "assets": 8039, "income": 27700, "revenue": 0}], "DREAMDOER": [{"ein": "475169314", "name": "DREAMMAKER DREAMDOER DREAMSUPPORTER", "city": "BROOKLYN", "state": "NY", "zip": "11201-1548", "ntee": "A20", "ruling": "201610", "deductibility": "1", "assets": 31126, "income": 134655, "revenue": 134655}], "KONOV": [{"ein": "556148129", "name": "KONOV TRUST ART 6 31P019016", "city": "BUFFALO", "state": "NY", "zip": "14240-1504", "ntee": "T90", "ruling": "201907", "deductibility": "1", "assets": 253183, "income": 41099, "revenue": 0}], "BENANAV": [{"ein": "571154382", "name": "BENANAV FAMILY FOUNDATION", "city": "WOODMERE", "state": "NY", "zip": "11598-1753", "ntee": "T22", "ruling": "200304", "deductibility": "1", "assets": 49047, "income": 43357, "revenue": 0}], "MCCOOEY": [{"ein": "651260666", "name": "MCCOOEY CHARITABLE FOUNDATION", "city": "HARRISON", "state": "NY", "zip": "10528-0000", "ntee": "T22", "ruling": "200512", "deductibility": "1", "assets": 799981, "income": 228049, "revenue": 0}], "CHASDEIYOSEF": [{"ein": "752992950", "name": "CONGREGATION GOMLEI CHESED CHASDEIYOSEF ELIZER OF BOYAN", "city": "SPRING VALLEY", "state": "NY", "zip": "10977-2507", "ntee": "X30", "ruling": "200203", "deductibility": "1", "assets": 0, "income": 0, "revenue": 0}], "THEATRICS": [{"ein": "811995164", "name": "OUT OF THE BOX THEATRICS INC", "city": "NEW YORK", "state": "NY", "zip": "10014-2840", "ntee": "A65", "ruling": "201712", "deductibility": "1", "assets": 45499, "income": 354479, "revenue": 354479}], "IITK": [{"ein": "812209935", "name": "IITK FUND INC", "city": "NEW YORK", "state": "NY", "zip": "10005-1547", "ntee": "Q33", "ruling": "201609", "deductibility": "1", "assets": 0, "income": 0, "revenue": 0}], "REMIX": [{"ein": "812618086", "name": "REMIX -- CULTURE INC", "city": "SPARROW BUSH", "state": "NY", "zip": "12780-5007", "ntee": "A68", "ruling": "201609", "deductibility": "1", "assets": 94281, "income": 168738, "revenue": 168738}], "ANDREI": [{"ein": "812658324", "name": "SAINT ANDREI ROMANIAN ORTHODOX CHURCH OF QUEENS NEW YORK", "city": "JAMAICA", "state": "NY", "zip": "11435-0000", "ntee": "X20", "ruling": "201605", "deductibility": "1", "assets": 0, "income": 0, "revenue": 0}], "SWANTZ": [{"ein": "814312810", "name": "SWANTZ FAMILY FOUNDATION", "city": "RED HOOK", "state": "NY", "zip": "12571-1790", "ntee": "T12", "ruling": "201702", "deductibility": "1", "assets": 649062, "income": 568881, "revenue": 0}], "UNSHATTERED": [{"ein": "814627998", "name": "UNSHATTERED INC", "city": "HOPEWELL JCT", "state": "NY", "zip": "12533-6723", "ntee": "J99", "ruling": "201703", "deductibility": "1", "assets": 1557743, "income": 971415, "revenue": 939789}], "LIPTAK": [{"ein": "814647233", "name": "THE LIPTAK FAMILY FOUNDATION", "city": "NEW YORK", "state": "NY", "zip": "10065-8030", "ntee": "T90", "ruling": "201702", "deductibility": "1", "assets": 3211794, "income": 107965, "revenue": 0}], "SP": [{"ein": "814670993", "name": "SOCIETY FOR THE CREATION OF SANCTUARIES FOR ENDANGERED BIRD SP", "city": "GREAT NECK", "state": "NY", "zip": "11021-4704", "ntee": "D32", "ruling": "201711", "deductibility": "1", "assets": 647399, "income": 22173, "revenue": 22173}, {"ein": "831793744", "name": "ROGERS STADIUM PHYSICAL CULTURAL SP ORTING CLUB", "city": "YONKERS", "state": "NY", "zip": "10710-1033", "ntee": "B90", "ruling": "202402", "deductibility": "1", "assets": 0, "income": 0, "revenue": 0}, {"ein": "851094167", "name": "LIMINAL SP INC", "city": "NEW YORK", "state": "NY", "zip": "10017-4458", "ntee": "C50", "ruling": "202104", "deductibility": "1", "assets": 0, "income": 0, "revenue": 0}], "DOCTA": [{"ein": "814925482", "name": "NEW DOCTA INC", "city": "NEW YORK", "state": "NY", "zip": "10023-6752", "ntee": "A68", "ruling": "201708", "deductibility": "1", "assets": 0, "income": 0, "revenue": 0}], "FILMMAKERS": [{"ein": "820886241", "name": "BRONX FILMMAKERS COLLECTIVE INC", "city": "BRONX", "state": "NY", "zip": "10451-4368", "ntee": "A31", "ruling": "201712", "deductibility": "1", "assets": 0, "income": 0, "revenue": 0}, {"ein": "822620819", "name": "POLISH FILMMAKERS NYC", "city": "NEW YORK", "state": "NY", "zip": "10003-0000", "ntee": "A31", "ruling": "201710", "deductibility": "1", "assets": 0, "income": 0, "revenue": 0}, {"ein": "833163523", "name": "SPARK FILMMAKERS COLLABORATIVE INCORPORATED", "city": "BUFFALO", "state": "NY", "zip": "14214-1942", "ntee": "A25", "ruling": "201908", "deductibility": "1", "assets": 3131, "income": 13249, "revenue": 13249}, {"ein": "844692112", "name": "ASTORIA FILMMAKERS CLUB INC", "city": "GOSHEN", "state": "NY", "zip": "10924-2206", "ntee": "A31", "ruling": "202009", "deductibility": "1", "assets": 0, "income": 0, "revenue": 0}], "PHILOXENIA": [{"ein": "822311640", "name": "PHILOXENIA INC", "city": "BRONXVILLE", "state": "NY", "zip": "10708-0162", "ntee": "P12", "ruling": "201710", "deductibility": "1", "assets": 29493, "income": 16562, "revenue": 16562}], "TERENZI": [{"ein": "822458643", "name": "VICTORIA TERENZI FOUNDATION INC", "city": "HUNTINGTN STA", "state": "NY", "zip": "11746-1135", "ntee": "H12", "ruling": "201808", "deductibility": "1", "assets": 0, "income": 0, "revenue": 0}], "YIBANEI": [{"ein": "823746619", "name": "HESED YIBANEI OLAM", "city": "FOREST HILLS", "state": "NY", "zip": "11375-6640", "ntee": "X30", "ruling": "202301", "deductibility": "1", "assets": 0, "income": 0, "revenue": 0}], "TSB": [{"ein": "823749132", "name": "TSB FOUNDATION INC", "city": "SPENCER", "state": "NY", "zip": "14883-9100", "ntee": "B12", "ruling": "201902", "deductibility": "1", "assets": 992080, "income": 383110, "revenue": 0}], "FK": [{"ein": "823823545", "name": "FK CHARITABLE FOUNDATION", "city": "HIGHLAND MLS", "state": "NY", "zip": "10930-2141", "ntee": "T19", "ruling": "201908", "deductibility": "1", "assets": 380623, "income": 10000, "revenue": 0}], "LAYESHARIM": [{"ein": "825372566", "name": "OR LAYESHARIM", "city": "BROOKLYN", "state": "NY", "zip": "11223-2041", "ntee": "X30", "ruling": "201810", "deductibility": "1", "assets": 0, "income": 0, "revenue": 0}], "STANDUP": [{"ein": "832785728", "name": "STANDUP AND VOICE EMPOWERMENT INC SAVE", "city": "BROOKHAVEN", "state": "NY", "zip": "11719-9655", "ntee": "F60", "ruling": "202309", "deductibility": "1", "assets": 0, "income": 0, "revenue": 0}, {"ein": "873309610", "name": "STANDUP FOR TEENS ORG INC", "city": "DIX HILLS", "state": "NY", "zip": "11746-5639", "ntee": "T50", "ruling": "202204", "deductibility": "1", "assets": 0, "income": 0, "revenue": 0}], "ASOT": [{"ein": "833264132", "name": "AMERICAN FRIENDS OF ASOT MISHPAT VEAHAVAT HESED", "city": "BROOKLYN", "state": "NY", "zip": "11209-7624", "ntee": "I12", "ruling": "201904", "deductibility": "1", "assets": 0, "income": 0, "revenue": 0}], "ROJAVA": [{"ein": "833367395", "name": "EMERGENCY COMMITTEE FOR ROJAVA", "city": "BROOKLYN", "state": "NY", "zip": "11209-2513", "ntee": "Q02", "ruling": "201904", "deductibility": "1", "assets": 0, "income": 0, "revenue": 0}], "PEGUERO": [{"ein": "833503859", "name": "PEGUERO FAMILY FOUNDATION INC", "city": "SAINT ALBANS", "state": "NY", "zip": "11412-3720", "ntee": "W99", "ruling": "201903", "deductibility": "1", "assets": 1200, "income": 500, "revenue": 500}], "SHAZUR": [{"ein": "841809507", "name": "SHAZUR INTERWOVEN INC", "city": "BRONX", "state": "NY", "zip": "10463-3530", "ntee": "A23", "ruling": "201911", "deductibility": "2", "assets": 144160, "income": 617265, "revenue": 617265}], "CAYENA": [{"ein": "842504143", "name": "CAYENA PRESS", "city": "EAST ELMHURST", "state": "NY", "zip": "11369-1714", "ntee": "A33", "ruling": "201909", "deductibility": "1", "assets": 1, "income": 22787, "revenue": 0}], "JAQUES": [{"ein": "842889055", "name": "WARREN JAQUES COMMITTEE INC", "city": "STATEN ISLAND", "state": "NY", "zip": "10312-4108", "ntee": "N99", "ruling": "202002", "deductibility": "1", "assets": 46694, "income": 85521, "revenue": 55896}], "TECHBUFFALO": [{"ein": "844191247", "name": "TECHBUFFALO INC", "city": "BUFFALO", "state": "NY", "zip": "14203-2734", "ntee": "J99", "ruling": "202005", "deductibility": "1", "assets": 445080, "income": 55338, "revenue": 55338}], "CAMBREE": [{"ein": "851362930", "name": "CAMBREE PARENT EMPOWERMENT NETWORK INC", "city": "LONG ISLAND CITY", "state": "NY", "zip": "11103-0000", "ntee": "P42", "ruling": "202010", "deductibility": "1", "assets": 0, "income": 0, "revenue": 0}], "LUDTKA": [{"ein": "871481954", "name": "JOANNE LUDTKA FOUNDATION INC", "city": "LANCASTER", "state": "NY", "zip": "14086-1164", "ntee": "H12", "ruling": "202109", "deductibility": "1", "assets": 14643, "income": 18255, "revenue": 0}], "VARNUM": [{"ein": "872424840", "name": "HENRY VARNUM POOR FOUNDATION", "city": "TAPPAN", "state": "NY", "zip": "10983-2004", "ntee": "A70", "ruling": "202308", "deductibility": "1", "assets": 0, "income": 0, "revenue": 0}], "BAHAVA": [{"ein": "874079040", "name": "BAHAVA", "city": "FAR ROCKAWAY", "state": "NY", "zip": "11691-4435", "ntee": "X30", "ruling": "202202", "deductibility": "1", "assets": 0, "income": 0, "revenue": 0}], "GARAGECO": [{"ein": "880573052", "name": "MNH GARAGECO INC", "city": "NYACK", "state": "NY", "zip": "10960-1912", "ntee": "W11", "ruling": "202504", "deductibility": "1", "assets": 21212608, "income": 400705, "revenue": 400705}], "ROCKATS": [{"ein": "880912429", "name": "ROCKATS INC", "city": "ROCHESTER", "state": "NY", "zip": "14610-0125", "ntee": "D20", "ruling": "202204", "deductibility": "1", "assets": 6585, "income": 78692, "revenue": 78692}], "QUALTEK": [{"ein": "883556761", "name": "QUALTEK FOUNDATION INC", "city": "OSSINING", "state": "NY", "zip": "10562-2012", "ntee": "P99", "ruling": "202211", "deductibility": "1", "assets": 0, "income": 0, "revenue": 0}], "KEELEY": [{"ein": "920992869", "name": "KEELEY KARES FOR KIDS INC", "city": "EAST AMHERST", "state": "NY", "zip": "14051-1430", "ntee": "T50", "ruling": "202212", "deductibility": "1", "assets": 0, "income": 0, "revenue": 0}], "STROHM": [{"ein": "921014321", "name": "STROHM FOUNDATION LTD", "city": "SMITHTOWN", "state": "NY", "zip": "11787-2804", "ntee": "G30", "ruling": "202211", "deductibility": "1", "assets": 0, "income": 0, "revenue": 0}], "VIDMA": [{"ein": "933851148", "name": "VIDMA CARE MISSION INC", "city": "SAINT ALBANS", "state": "NY", "zip": "11412-1222", "ntee": "P70", "ruling": "202312", "deductibility": "1", "assets": 0, "income": 0, "revenue": 0}], "SAIBAAN": [{"ein": "991283759", "name": "SAIBAAN INC", "city": "VALLEY STREAM", "state": "NY", "zip": "11580-1135", "ntee": "P20", "ruling": "202402", "deductibility": "1", "assets": 0, "income": 0, "revenue": 0}], "URBANISM": [{"ein": "994170563", "name": "SYRACUSE URBANISM COLLECTIVE LTD", "city": "SYRACUSE", "state": "NY", "zip": "13201-0035", "ntee": "S20", "ruling": "202409", "deductibility": "1", "assets": 0, "income": 0, "revenue": 0}]}