{"SYSTE": [{"ein": "010720842", "name": "CENTRAL NEW YORK CHAPTER OF THE NEW YORK STATE COUNCIL OF HEALTH-SYSTE", "city": "DEWITT", "state": "NY", "zip": "13214-0142", "ntee": "", "ruling": "200302", "deductibility": "0", "assets": 0, "income": 0, "revenue": 0}], "POTSDAM": [{"ein": "010776526", "name": "POTSDAM YOUTH RECREATION ASSOCIATION INC", "city": "POTSDAM", "state": "NY", "zip": "13676-0936", "ntee": "N60", "ruling": "200810", "deductibility": "1", "assets": 29923, "income": 16138, "revenue": 16138}, {"ein": "043752499", "name": "POTSDAM HOLIDAY FUND INC", "city": "POTSDAM", "state": "NY", "zip": "13676-0827", "ntee": "T30", "ruling": "200307", "deductibility": "1", "assets": 55710, "income": 87426, "revenue": 78996}, {"ein": "133719503", "name": "FRIENDS OF THE POTSDAM PUBLIC LIBRARY INC", "city": "POTSDAM", "state": "NY", "zip": "13676-2289", "ntee": "T50I", "ruling": "199506", "deductibility": "1", "assets": 0, "income": 0, "revenue": 0}, {"ein": "141798498", "name": "SOCIETY OF SAINT PIUS X POTSDAM NEW YORK INC", "city": "NICHOLVILLE", "state": "NY", "zip": "12965-0000", "ntee": "", "ruling": "198304", "deductibility": "1", "assets": 0, "income": 0, "revenue": 0}, {"ein": "150532293", "name": "POTSDAM AUXILIARY & COLLEGE EDUCATIONAL SERVICES INC", "city": "POTSDAM", "state": "NY", "zip": "13676-2200", "ntee": "B99Z", "ruling": "195304", "deductibility": "1", "assets": 5290633, "income": 8720510, "revenue": 8720510}, {"ein": "150539071", "name": "ROMAN CATHOLIC CHURCH OF ST MARYS IN POTSDAM NY", "city": "POTSDAM", "state": "NY", "zip": "13676-0000", "ntee": "", "ruling": "194603", "deductibility": "1", "assets": 0, "income": 0, "revenue": 0}, {"ein": "161012691", "name": "CANTON-POTSDAM HOSPITAL", "city": "POTSDAM", "state": "NY", "zip": "13676-1786", "ntee": "E22Z", "ruling": "197309", "deductibility": "1", "assets": 268048575, "income": 262375569, "revenue": 262367355}, {"ein": "161031056", "name": "POTSDAM FIGURE SKATING CLUB", "city": "POTSDAM", "state": "NY", "zip": "13676-0334", "ntee": "N68", "ruling": "200103", "deductibility": "1", "assets": 96102, "income": 114832, "revenue": 114832}, {"ein": "161092845", "name": "POTSDAM HUMANE SOCIETY INC", "city": "POTSDAM", "state": "NY", "zip": "13676-1001", "ntee": "D200", "ruling": "198805", "deductibility": "1", "assets": 1726045, "income": 611875, "revenue": 597602}, {"ein": "161108364", "name": "POTSDAM HOSPITAL GUILD INC", "city": "POTSDAM", "state": "NY", "zip": "13676-5184", "ntee": "", "ruling": "197810", "deductibility": "1", "assets": 80876, "income": 45949, "revenue": 37954}, {"ein": "161145247", "name": "POTSDAM CHAMBER OF COMMERCE", "city": "POTSDAM", "state": "NY", "zip": "13676-1878", "ntee": "", "ruling": "199405", "deductibility": "2", "assets": 124863, "income": 98232, "revenue": 98232}, {"ein": "161279472", "name": "CANTON-POTSDAM HOSPITAL FOUNDATION INC", "city": "POTSDAM", "state": "NY", "zip": "13676-1602", "ntee": "E112", "ruling": "198701", "deductibility": "1", "assets": 34229630, "income": 9805607, "revenue": 2552931}, {"ein": "161369711", "name": "SUNY POTSDAM CHILD CARE CENTER INC", "city": "POTSDAM", "state": "NY", "zip": "13676-4447", "ntee": "P33Z", "ruling": "199010", "deductibility": "1", "assets": 1096137, "income": 1075567, "revenue": 1073569}, {"ein": "161412399", "name": "POTSDAM LODGE 2397 LOYAL ORDER OF MOOSE", "city": "POTSDAM", "state": "NY", "zip": "13676-0640", "ntee": "", "ruling": "197209", "deductibility": "0", "assets": 251959, "income": 181994, "revenue": 68980}, {"ein": "161760369", "name": "POTSDAM PUBLIC LIBRARY", "city": "POTSDAM", "state": "NY", "zip": "13676-2289", "ntee": "B70", "ruling": "200904", "deductibility": "1", "assets": 1628431, "income": 646611, "revenue": 646611}, {"ein": "166051465", "name": "POTSDAM VOLUNTEER RESCUE SQUAD INC", "city": "POTSDAM", "state": "NY", "zip": "13676-0700", "ntee": "M23", "ruling": "200403", "deductibility": "1", "assets": 3484287, "income": 1164839, "revenue": 1164839}, {"ein": "222234084", "name": "POTSDAM SANDSTONE SENIOR CITIZENS CLUB INC", "city": "POTSDAM", "state": "NY", "zip": "13676-1201", "ntee": "", "ruling": "199403", "deductibility": "1", "assets": 4133242, "income": 649865, "revenue": 649865}, {"ein": "223798288", "name": "POTSDAM COMMUNITY CHORUS INC", "city": "POTSDAM", "state": "NY", "zip": "13676-1816", "ntee": "A6B", "ruling": "201612", "deductibility": "1", "assets": 0, "income": 0, "revenue": 0}, {"ein": "237054774", "name": "ALUMNI ASSOCIATION OF THE STATE UNIVERSITY COLLEGE AT POTSDAM", "city": "POTSDAM", "state": "NY", "zip": "13676-2200", "ntee": "", "ruling": "197002", "deductibility": "1", "assets": 0, "income": 0, "revenue": 0}, {"ein": "237088021", "name": "POTSDAM COLLEGE FOUNDATION INC", "city": "POTSDAM", "state": "NY", "zip": "13676-2200", "ntee": "B110", "ruling": "197012", "deductibility": "1", "assets": 63686172, "income": 8304446, "revenue": 6783492}, {"ein": "237088764", "name": "POTSDAM JUNIOR HOCKEY ASSOCIATION INC", "city": "POTSDAM", "state": "NY", "zip": "13676-0635", "ntee": "", "ruling": "197012", "deductibility": "1", "assets": 38743, "income": 76737, "revenue": 76737}, {"ein": "332978328", "name": "POTSDAM SNACK PACK PROGRAM", "city": "POTSDAM", "state": "NY", "zip": "13676-1752", "ntee": "K30", "ruling": "202502", "deductibility": "1", "assets": 0, "income": 0, "revenue": 0}, {"ein": "460714367", "name": "CANTON-POTSDAM MEDICAL PRACTICE PLLC", "city": "POTSDAM", "state": "NY", "zip": "13676-0000", "ntee": "G90", "ruling": "201502", "deductibility": "1", "assets": 447097, "income": 848336, "revenue": 848336}, {"ein": "542114491", "name": "POTSDAM BOOSTER CLUB INC", "city": "POTSDAM", "state": "NY", "zip": "13676-0806", "ntee": "B11", "ruling": "200308", "deductibility": "1", "assets": 62730, "income": 71737, "revenue": 71228}, {"ein": "550855809", "name": "POTSDAM VOLUNTEER FIRE DEPARTMENT INC", "city": "POTSDAM", "state": "NY", "zip": "13676-0893", "ntee": "M24", "ruling": "200506", "deductibility": "1", "assets": 1649367, "income": 238422, "revenue": 215635}, {"ein": "743199193", "name": "WEST POTSDAM VOLUNTEER FIRE DEPARTMENT", "city": "POTSDAM", "state": "NY", "zip": "13676-3537", "ntee": "M24", "ruling": "201104", "deductibility": "1", "assets": 594998, "income": 173294, "revenue": 162992}, {"ein": "753128977", "name": "HELPING HANDS OF POTSDAM INC", "city": "HANNAWA FALLS", "state": "NY", "zip": "13647-0000", "ntee": "P60", "ruling": "200311", "deductibility": "1", "assets": 188136, "income": 99225, "revenue": 90906}, {"ein": "822664401", "name": "POTSDAM COMMUNITY DOG PARK AT THE POTSDAM HUMANE SOCIETY INC", "city": "POTSDAM", "state": "NY", "zip": "13676-4245", "ntee": "D60", "ruling": "201709", "deductibility": "1", "assets": 0, "income": 0, "revenue": 0}, {"ein": "831059248", "name": "STUDENT GOVERNMENT ASSOCIATION OF SUNY POTSDAM", "city": "POTSDAM", "state": "NY", "zip": "13676-2200", "ntee": "B80", "ruling": "201909", "deductibility": "1", "assets": 672147, "income": 315460, "revenue": 315460}], "YESHIVOS": [{"ein": "010842718", "name": "IGGUD MENAHALEI YESHIVOS INC", "city": "BROOKLYN", "state": "NY", "zip": "11225-1605", "ntee": "X30", "ruling": "201211", "deductibility": "1", "assets": 57084, "income": 245222, "revenue": 245222}, {"ein": "111752027", "name": "YESHIVOS KARLIN STOLIN BETH ARON VEISRAEL RABBINICAL INSTITUTE INC", "city": "BROOKLYN", "state": "NY", "zip": "11204-1545", "ntee": "", "ruling": "195308", "deductibility": "1", "assets": 0, "income": 0, "revenue": 0}, {"ein": "112444046", "name": "UNITED KALIVER YESHIVOS C O JACK WEISS", "city": "BKLYN", "state": "NY", "zip": "11218-0000", "ntee": "", "ruling": "197801", "deductibility": "1", "assets": 0, "income": 0, "revenue": 0}, {"ein": "237193852", "name": "UNITED MUNKACSER YESHIVOS", "city": "BROOKLYN", "state": "NY", "zip": "11219-2622", "ntee": "", "ruling": "197212", "deductibility": "1", "assets": 0, "income": 0, "revenue": 0}, {"ein": "872985013", "name": "UNITED LUBAVITCHER YESHIVOS", "city": "BROOKLYN", "state": "NY", "zip": "11225-3005", "ntee": "T20", "ruling": "202206", "deductibility": "1", "assets": 0, "income": 0, "revenue": 0}], "SOLIDARITY": [{"ein": "020579885", "name": "SOLIDARITY AND ACTION AGAINST THE HIV INFECTION IN INDIA INC", "city": "BROOKLYN", "state": "NY", "zip": "11238-4955", "ntee": "H81", "ruling": "200501", "deductibility": "1", "assets": 0, "income": 0, "revenue": 0}, {"ein": "460639838", "name": "REFUGEE SOLIDARITY NETWORK INC", "city": "MONTEBELLO", "state": "NY", "zip": "10901-4256", "ntee": "Q059", "ruling": "201312", "deductibility": "1", "assets": 434801, "income": 2413869, "revenue": 2413341}, {"ein": "800535772", "name": "SOLIDARITY OF TOGOLESE & ALLIES", "city": "BRONX", "state": "NY", "zip": "10451-0378", "ntee": "Q30", "ruling": "201111", "deductibility": "1", "assets": 0, "income": 0, "revenue": 0}, {"ein": "811343379", "name": "NYC MUSLIM-JEWISH SOLIDARITY COMMITTEE INC", "city": "NEWBURGH", "state": "NY", "zip": "12550-6014", "ntee": "A23", "ruling": "201612", "deductibility": "1", "assets": 0, "income": 0, "revenue": 0}, {"ein": "834347520", "name": "SOS CAMEROON SOLIDARITY INC", "city": "NEW YORK", "state": "NY", "zip": "10108-1532", "ntee": "A12", "ruling": "202309", "deductibility": "1", "assets": 0, "income": 0, "revenue": 0}, {"ein": "843356267", "name": "SOLIDARITY GROUP INC", "city": "FREEPORT", "state": "NY", "zip": "11520-4029", "ntee": "P20", "ruling": "202004", "deductibility": "1", "assets": 26460, "income": 45848, "revenue": 45848}, {"ein": "862087277", "name": "NORTH CENTRAL COMMUNITY SOLIDARITY GROUP INC", "city": "TROY", "state": "NY", "zip": "12180-3816", "ntee": "P20", "ruling": "202105", "deductibility": "1", "assets": 0, "income": 0, "revenue": 0}, {"ein": "880650528", "name": "TWW NYC SOLIDARITY INC", "city": "BROOKLYN", "state": "NY", "zip": "11217-3399", "ntee": "S31", "ruling": "202504", "deductibility": "1", "assets": 313240, "income": 205658, "revenue": 205658}, {"ein": "900653622", "name": "COMMUNITY SOLIDARITY INC", "city": "HUNTINGTON", "state": "NY", "zip": "11743-0208", "ntee": "P20", "ruling": "201105", "deductibility": "1", "assets": 365499, "income": 35189882, "revenue": 35189882}, {"ein": "932623853", "name": "REEL SOLIDARITY", "city": "NEW YORK", "state": "NY", "zip": "10075-0491", "ntee": "A68", "ruling": "202408", "deductibility": "1", "assets": 0, "income": 0, "revenue": 0}], "BLVD": [{"ein": "030477010", "name": "FRANCIS LEWIS BLVD-HAITIAN CHURCH OF GOD", "city": "QUEENS VLG", "state": "NY", "zip": "11429-2234", "ntee": "", "ruling": "197210", "deductibility": "1", "assets": 0, "income": 0, "revenue": 0}, {"ein": "112523375", "name": "160 MINEOLA BLVD CORP", "city": "MINEOLA", "state": "NY", "zip": "11501-3937", "ntee": "", "ruling": "199302", "deductibility": "2", "assets": 1638841, "income": 160355, "revenue": 160355}, {"ein": "132547456", "name": "3708 HYLAN BLVD CORPORATION", "city": "STATEN ISLAND", "state": "NY", "zip": "10308-3522", "ntee": "", "ruling": "000000", "deductibility": "2", "assets": 0, "income": 0, "revenue": 0}, {"ein": "133993229", "name": "CHURCH OF GOD OF SOUTHERN BLVD INC", "city": "BRONX", "state": "NY", "zip": "10460-0241", "ntee": "X20Z", "ruling": "199808", "deductibility": "1", "assets": 0, "income": 0, "revenue": 0}, {"ein": "364695775", "name": "JUNCTION BLVD MERCHANTS CIVIC ASSOCIATION INC", "city": "CORONA", "state": "NY", "zip": "11368-5362", "ntee": "S41", "ruling": "201308", "deductibility": "2", "assets": 5376, "income": 5167, "revenue": 5167}, {"ein": "474007198", "name": "CHV 603 MOTHER GASTON BLVD HOUSING DEVELOPMENT FUND CORPORATION", "city": "BROOKLYN", "state": "NY", "zip": "11226-0000", "ntee": "L20", "ruling": "201506", "deductibility": "2", "assets": 0, "income": 0, "revenue": 0}], "ELLISON": [{"ein": "036008456", "name": "ELLISON ADA A 41C001017", "city": "BUFFALO", "state": "NY", "zip": "14240-1504", "ntee": "T20", "ruling": "201906", "deductibility": "1", "assets": 537628, "income": 518545, "revenue": 0}, {"ein": "203460356", "name": "ELLISON BALLET FOUNDATION INC", "city": "NEW YORK", "state": "NY", "zip": "10023-7403", "ntee": "B30", "ruling": "200701", "deductibility": "1", "assets": 581873, "income": 2395990, "revenue": 1568831}, {"ein": "207029909", "name": "RALPH AND FANNY ELLISON CHARITABLE TR", "city": "HARRISON", "state": "NY", "zip": "10528-0000", "ntee": "T22", "ruling": "200801", "deductibility": "1", "assets": 3631669, "income": 610803, "revenue": 0}], "MARIE": [{"ein": "036040021", "name": "MARIE R CROVAT TR UW", "city": "BUFFALO", "state": "NY", "zip": "14240-1504", "ntee": "B82", "ruling": "201212", "deductibility": "1", "assets": 1522542, "income": 1403219, "revenue": 0}, {"ein": "061612068", "name": "DENISE MARIE SALVATORE MEMORIAL FOUNDATION", "city": "LK PEEKSKILL", "state": "NY", "zip": "10537-1107", "ntee": "P80", "ruling": "200111", "deductibility": "1", "assets": 0, "income": 0, "revenue": 0}, {"ein": "113396485", "name": "MARIE SKLODOWSKA-CURIE PROFESSIONAL WOMENS ASSOCIATION INC", "city": "BROOKLYN", "state": "NY", "zip": "11222-0421", "ntee": "B99", "ruling": "200006", "deductibility": "1", "assets": 0, "income": 0, "revenue": 0}, {"ein": "113575711", "name": "WHITNEY MARIE FOUNDATION", "city": "GARDEN CITY", "state": "NY", "zip": "11530-3207", "ntee": "T20", "ruling": "200201", "deductibility": "1", "assets": 39747, "income": 1826, "revenue": 0}, {"ein": "113579374", "name": "MARIE GUBITOSI FOUNDATION INC", "city": "FARMINGDALE", "state": "NY", "zip": "11735-1972", "ntee": "T30", "ruling": "200106", "deductibility": "1", "assets": 10986, "income": 0, "revenue": 0}, {"ein": "133140202", "name": "ANNA MARIE & ROBERT F SHAPIRO FAMILY FOUNDATION INC", "city": "NEW YORK", "state": "NY", "zip": "10006-0000", "ntee": "", "ruling": "198212", "deductibility": "1", "assets": 2659213, "income": 1163780, "revenue": 0}, {"ein": "133925559", "name": "MARIE H BRIEHL PRIVATE FOUNDATION INC", "city": "WACCABUC", "state": "NY", "zip": "10597-1005", "ntee": "F30Z", "ruling": "199704", "deductibility": "1", "assets": 24877, "income": 1820, "revenue": 0}, {"ein": "133966046", "name": "MARIE-CHRISTINE GIORDANO DANCE COMPANY INC", "city": "BROOKLYN", "state": "NY", "zip": "11232-1391", "ntee": "A62Z", "ruling": "199804", "deductibility": "1", "assets": 566, "income": 38370, "revenue": 38370}, {"ein": "136105676", "name": "SIMON AND MARIE JAGLOM FOUNDATION INC", "city": "NEW YORK", "state": "NY", "zip": "10023-5906", "ntee": "", "ruling": "196401", "deductibility": "1", "assets": 11897009, "income": 272902, "revenue": 0}, {"ein": "136158767", "name": "MARIE AND JOHN ZIMMERMANN FUND INC", "city": "NEW YORK", "state": "NY", "zip": "10018-3496", "ntee": "", "ruling": "194407", "deductibility": "1", "assets": 9054826, "income": 7224553, "revenue": 0}, {"ein": "161563069", "name": "MARIE A RUSSO NEIGHBORHOOD CENTER INSTITUTE INC", "city": "UTICA", "state": "NY", "zip": "13501-2413", "ntee": "T11", "ruling": "199912", "deductibility": "1", "assets": 2229812, "income": 191596, "revenue": 177629}, {"ein": "223160372", "name": "HARMON & MARIE DUTTON MEMORIAL TRUST", "city": "NORWICH", "state": "NY", "zip": "13815-0000", "ntee": "", "ruling": "000000", "deductibility": "1", "assets": 422006, "income": 45686, "revenue": 0}, {"ein": "223952443", "name": "THE KELLY MARIE MOULTON FOUNDATION", "city": "SOUTHAMPTON", "state": "NY", "zip": "11968-3508", "ntee": "T30", "ruling": "200706", "deductibility": "1", "assets": 0, "income": 0, "revenue": 0}, {"ein": "226424440", "name": "GAY & MARIE MILBRANDT CHARITABLE TRUST", "city": "KATONAH", "state": "NY", "zip": "10536-3706", "ntee": "", "ruling": "198712", "deductibility": "1", "assets": 153607, "income": 120, "revenue": 0}, {"ein": "272965950", "name": "STEPHANIE MARIE BURGOS SCHOLARSHIP INC", "city": "BROOKLYN", "state": "NY", "zip": "11237-3403", "ntee": "B82", "ruling": "201101", "deductibility": "1", "assets": 8437, "income": 2066, "revenue": 2066}, {"ein": "273637538", "name": "AMY MARIE CRABTREE FOUNDATION", "city": "POUND RIDGE", "state": "NY", "zip": "10576-1321", "ntee": "T20", "ruling": "201105", "deductibility": "1", "assets": 8438, "income": 82, "revenue": 0}, {"ein": "276376650", "name": "JEANINE MARIE DIBENEDETTO FOUNDATION FOR NIGERIAN HEALTHCARE", "city": "BRONX", "state": "NY", "zip": "10461-1404", "ntee": "T23", "ruling": "201407", "deductibility": "1", "assets": 34315, "income": 25255, "revenue": 0}, {"ein": "300491167", "name": "DANA MARIE@PALUMBO SCHOLARSHIP FUND TRUST", "city": "FAIRPORT", "state": "NY", "zip": "14450-8979", "ntee": "B82", "ruling": "201005", "deductibility": "1", "assets": 51671, "income": 15211, "revenue": 0}, {"ein": "320439794", "name": "MARIO & MARIE BIAGGI MEMORIAL SCHOLARSHIP FOUNDATION INC", "city": "NEW YORK", "state": "NY", "zip": "10001-7708", "ntee": "W12", "ruling": "201708", "deductibility": "1", "assets": 0, "income": 0, "revenue": 0}, {"ein": "332984810", "name": "SUSAN MARIE OLSON DANCE FOUNDATION INC", "city": "POUGHKEEPSIE", "state": "NY", "zip": "12601-3206", "ntee": "A60", "ruling": "202501", "deductibility": "1", "assets": 0, "income": 0, "revenue": 0}, {"ein": "333271580", "name": "TAWN MARIE DANCE CENTRE BOOSTER CLUB INC", "city": "LIVERPOOL", "state": "NY", "zip": "13090-4522", "ntee": "A62", "ruling": "202503", "deductibility": "1", "assets": 0, "income": 0, "revenue": 0}, {"ein": "346523819", "name": "CYRIL F & MARIE E ONEIL FOUNDATION", "city": "NEW YORK", "state": "NY", "zip": "10016-0000", "ntee": "", "ruling": "196003", "deductibility": "1", "assets": 5537442, "income": 734452, "revenue": 0}, {"ein": "461054742", "name": "SARA MARIE SCHOOL", "city": "CLIFTON PARK", "state": "NY", "zip": "12065-3614", "ntee": "B20", "ruling": "201404", "deductibility": "1", "assets": 353882, "income": 1051299, "revenue": 1011494}, {"ein": "462087526", "name": "DEANNA MARIE RIVERS FOUNDATION INC", "city": "CLIFTON PARK", "state": "NY", "zip": "12065-7732", "ntee": "N99", "ruling": "201405", "deductibility": "1", "assets": 0, "income": 0, "revenue": 0}, {"ein": "471961992", "name": "SISTER OF MARIE DE FATIMA FOUNDATION INC", "city": "BALDWIN", "state": "NY", "zip": "11510-0000", "ntee": "Q33", "ruling": "201508", "deductibility": "1", "assets": 18634, "income": 61778, "revenue": 32855}, {"ein": "510556361", "name": "SR MARIE DE MANDAT GRANCEY FOUNDATION", "city": "COLD SPG HBR", "state": "NY", "zip": "11724-1013", "ntee": "X99", "ruling": "200711", "deductibility": "1", "assets": 83353, "income": 2113, "revenue": 2113}, {"ein": "522256192", "name": "JOHN MARIE AND JOSEPH WHALEN FOUNDATION INC", "city": "TROY", "state": "NY", "zip": "12181-1302", "ntee": "T20", "ruling": "200208", "deductibility": "1", "assets": 5713743, "income": 5538386, "revenue": 0}, {"ein": "821154265", "name": "MARIE R PAUL ST-JUSTE FOUNDATION INC", "city": "SAINT ALBANS", "state": "NY", "zip": "11412-2618", "ntee": "T12", "ruling": "201803", "deductibility": "1", "assets": 0, "income": 0, "revenue": 0}, {"ein": "831453616", "name": "MARIE CHRISTINE FOUNDATION", "city": "NEW YORK", "state": "NY", "zip": "10020-1300", "ntee": "T22", "ruling": "201908", "deductibility": "1", "assets": 11511100, "income": 4307149, "revenue": 0}, {"ein": "834116266", "name": "MARIE COLVIN MEMORIAL FOUNDATION", "city": "BAYVILLE", "state": "NY", "zip": "11709-1207", "ntee": "P20", "ruling": "202104", "deductibility": "1", "assets": 0, "income": 0, "revenue": 0}, {"ein": "843582646", "name": "MARIE C AND JOSEPH C WILSON FOUNDATION INC", "city": "ROCHESTER", "state": "NY", "zip": "14620-1327", "ntee": "T20", "ruling": "202005", "deductibility": "1", "assets": 18674628, "income": 8392315, "revenue": 0}, {"ein": "874192366", "name": "MARIE BERBICK MINISTRIES INTERNATIONAL INC", "city": "ARVERNE", "state": "NY", "zip": "11692-1851", "ntee": "P40", "ruling": "202207", "deductibility": "1", "assets": 0, "income": 0, "revenue": 0}, {"ein": "912129566", "name": "MARIE OBRTLIK SCHOLARSHIP FUND", "city": "BUFFALO", "state": "NY", "zip": "14240-1504", "ntee": "B82", "ruling": "200206", "deductibility": "1", "assets": 532006, "income": 176837, "revenue": 0}, {"ein": "991145896", "name": "OLIVIA MARIE HILL FOUNDATION INC", "city": "JOHNSON CITY", "state": "NY", "zip": "13790-6321", "ntee": "T31", "ruling": "202403", "deductibility": "1", "assets": 0, "income": 0, "revenue": 0}], "MAX": [{"ein": "036064670", "name": "MAX Y SEATON MEMORIAL TR UA", "city": "BUFFALO", "state": "NY", "zip": "14240-1504", "ntee": "T30Z", "ruling": "199801", "deductibility": "1", "assets": 665846, "income": 55084, "revenue": 30110}, {"ein": "116005709", "name": "MAX B COHN FAMILY FOUNDATION", "city": "MANHASSET", "state": "NY", "zip": "11030-1623", "ntee": "", "ruling": "195211", "deductibility": "1", "assets": 1195174, "income": 502015, "revenue": 0}, {"ein": "116021912", "name": "MAX GRUBER FOUNDATION INC", "city": "WESTBURY", "state": "NY", "zip": "11590-0000", "ntee": "", "ruling": "195707", "deductibility": "1", "assets": 1714154, "income": 1258108, "revenue": 0}, {"ein": "133980892", "name": "MAX WEINTRAUB FOUNDATION INC", "city": "NEW YORK", "state": "NY", "zip": "10024-2605", "ntee": "T90Z", "ruling": "199803", "deductibility": "1", "assets": 1013990, "income": 31313, "revenue": 0}, {"ein": "134033889", "name": "SONIA AND MAX SILVERSTEIN HEBREW ACADEMY", "city": "GREAT NECK", "state": "NY", "zip": "11021-3101", "ntee": "B21", "ruling": "199902", "deductibility": "1", "assets": 1728956, "income": 2786083, "revenue": 2786083}, {"ein": "135658082", "name": "MAX KADE FOUNDATION", "city": "NEW YORK", "state": "NY", "zip": "10128-0505", "ntee": "", "ruling": "194612", "deductibility": "1", "assets": 49557511, "income": 25259800, "revenue": 0}, {"ein": "136125549", "name": "MAX BROOKS FOUNDATION INC", "city": "NEW YORK", "state": "NY", "zip": "10018-7604", "ntee": "T23", "ruling": "202209", "deductibility": "1", "assets": 164296, "income": 6658, "revenue": 0}, {"ein": "136260339", "name": "MAX J & WINNIE S ROSENSHEIN FOUNDATION", "city": "NEW YORK", "state": "NY", "zip": "10165-0048", "ntee": "", "ruling": "196805", "deductibility": "1", "assets": 8010387, "income": 1367389, "revenue": 0}, {"ein": "156012139", "name": "SYRACUSE HEBREW DAY SCHOOL MAX GILBERT HEBREW ACADEMY", "city": "DEWITT", "state": "NY", "zip": "13214-1234", "ntee": "B24Z", "ruling": "196206", "deductibility": "1", "assets": 1368114, "income": 1217536, "revenue": 1180928}, {"ein": "160961112", "name": "MAX A ADLER CHARITABLE FOUNDATION INC", "city": "ROCHESTER", "state": "NY", "zip": "14604-2714", "ntee": "", "ruling": "197304", "deductibility": "1", "assets": 392298, "income": 320912, "revenue": 0}, {"ein": "166023772", "name": "TRUST UW MAX OPPENHEIM FOR TEMPLE BETHEL NECT", "city": "NORWICH", "state": "NY", "zip": "13815-0000", "ntee": "", "ruling": "197012", "deductibility": "2", "assets": 22259, "income": 3294, "revenue": 0}, {"ein": "222948675", "name": "MAX AND MARIAN FARASH CHARITABLE FOUNDATION", "city": "ROCHESTER", "state": "NY", "zip": "14604-2625", "ntee": "T22", "ruling": "201410", "deductibility": "1", "assets": 326670285, "income": 56335147, "revenue": 0}, {"ein": "226063995", "name": "MAX AND ELIZABETH BLUME SILVERSTEIN FOUNDATION INC", "city": "NEW YORK", "state": "NY", "zip": "10016-0000", "ntee": "", "ruling": "195811", "deductibility": "1", "assets": 19530, "income": 2, "revenue": 0}, {"ein": "263862577", "name": "MAX CURE FOUNDATION INC", "city": "NEW YORK", "state": "NY", "zip": "10005-3749", "ntee": "P122", "ruling": "200902", "deductibility": "1", "assets": 11987, "income": 416994, "revenue": -51823}, {"ein": "273130549", "name": "MAX AND SUNNY HOWARD MEMORIAL FOUNDATION", "city": "NEW YORK", "state": "NY", "zip": "10017-6603", "ntee": "T20", "ruling": "201010", "deductibility": "1", "assets": 8703502, "income": 4353090, "revenue": 0}, {"ein": "461612011", "name": "THE DALE AND MAX BERGER FAMILY FOUNDATION", "city": "NEW YORK", "state": "NY", "zip": "10020-0000", "ntee": "T22", "ruling": "201307", "deductibility": "1", "assets": 16523528, "income": 15394793, "revenue": 0}, {"ein": "870915550", "name": "MAX ALEXANDER FOUNDATION", "city": "BRONX", "state": "NY", "zip": "10463-3202", "ntee": "B12", "ruling": "202109", "deductibility": "1", "assets": 54938, "income": 194993, "revenue": 194993}, {"ein": "881910778", "name": "MAX & THERESE CADET DENTAL FUND INC", "city": "NEW YORK", "state": "NY", "zip": "10027-5038", "ntee": "E12", "ruling": "202205", "deductibility": "1", "assets": 40244, "income": 32484, "revenue": 32484}], "STAEDEL": [{"ein": "043789287", "name": "STAEDEL FRIENDS INC", "city": "NEW YORK", "state": "NY", "zip": "10022-8521", "ntee": "A20", "ruling": "202212", "deductibility": "1", "assets": 1, "income": 1, "revenue": 0}], "SPECIALS": [{"ein": "061362795", "name": "ROMIMU SPECIALS PROGRAMS INC", "city": "MONTICELLO", "state": "NY", "zip": "12701-4708", "ntee": "N20Z", "ruling": "199308", "deductibility": "1", "assets": 9324989, "income": 4452348, "revenue": 4452348}], "ACCESSORY": [{"ein": "061405246", "name": "ACCESSORY COUNCIL INC", "city": "NEW YORK", "state": "NY", "zip": "10001-4937", "ntee": "", "ruling": "199704", "deductibility": "2", "assets": 493353, "income": 1273020, "revenue": 1273020}], "INVESTIGATORS": [{"ein": "061412386", "name": "NEW YORK STATE POLICE INVESTIGATORS ASSOCIATION", "city": "ALBANY", "state": "NY", "zip": "12211-1722", "ntee": "", "ruling": "199703", "deductibility": "2", "assets": 1830259, "income": 2243783, "revenue": 2243783}, {"ein": "112408846", "name": "SUFFOLK COUNTY DETECTIVE INVESTIGATORS PBA INC", "city": "BOHEMIA", "state": "NY", "zip": "11716-5021", "ntee": "", "ruling": "198802", "deductibility": "2", "assets": 501494, "income": 294912, "revenue": 294912}, {"ein": "133227409", "name": "NEW YORK WELFARE FRAUD INVESTIGATORS ASSOCIATION", "city": "WEBSTER", "state": "NY", "zip": "14580-0836", "ntee": "", "ruling": "198507", "deductibility": "1", "assets": 0, "income": 0, "revenue": 0}, {"ein": "134048122", "name": "DETECTIVE INVESTIGATORS ASSN OF THE D A OFFICES OF THE CITY N Y INC", "city": "NEW YORK", "state": "NY", "zip": "10013-0995", "ntee": "", "ruling": "199903", "deductibility": "2", "assets": 989423, "income": 309298, "revenue": 309298}, {"ein": "136162688", "name": "SOCIETY OF PROFESSIONAL INVESTIGATORS INC", "city": "NEW YORK", "state": "NY", "zip": "10008-0000", "ntee": "", "ruling": "195712", "deductibility": "2", "assets": 31658, "income": 78223, "revenue": 43708}, {"ein": "141758451", "name": "CAPITAL DISTRICT FIRE INVESTIGATORS ASSOCIATION INC", "city": "VOORHEESVILLE", "state": "NY", "zip": "12186-4316", "ntee": "M03", "ruling": "202203", "deductibility": "1", "assets": 0, "income": 0, "revenue": 0}, {"ein": "222651257", "name": "DISTRICT ATTORNEYS INVESTIGATORS", "city": "SCARSDALE", "state": "NY", "zip": "10583-6502", "ntee": "", "ruling": "199009", "deductibility": "2", "assets": 344337, "income": 247584, "revenue": 247584}, {"ein": "301414029", "name": "CAPITAL DISTRICT FIRE INVESTIGATORS ASSOCIATION INC", "city": "CLIFTON PARK", "state": "NY", "zip": "12065-0817", "ntee": "M24", "ruling": "202407", "deductibility": "1", "assets": 0, "income": 0, "revenue": 0}, {"ein": "473200506", "name": "ORANGE COUNTY DISTRICT ATTORNEYS CRIMINAL INVESTIGATORS ASSOCIATION", "city": "GOSHEN", "state": "NY", "zip": "10924-1824", "ntee": "", "ruling": "201605", "deductibility": "0", "assets": 0, "income": 0, "revenue": 0}, {"ein": "521273746", "name": "FEDERAL INVESTIGATORS ASSOCIATION ENDOWMENT FUND", "city": "STATEN ISLAND", "state": "NY", "zip": "10306-1257", "ntee": "B82", "ruling": "198305", "deductibility": "1", "assets": 0, "income": 0, "revenue": 0}, {"ein": "743097897", "name": "NASSAU COUNTY INVESTIGATORS POLICE BENEVOLENT ASSOCIATION INC", "city": "MINEOLA", "state": "NY", "zip": "11501-0222", "ntee": "J40", "ruling": "200605", "deductibility": "2", "assets": 321587, "income": 115449, "revenue": 115449}, {"ein": "811124854", "name": "GENESEE VALLEY PARANORMAL INVESTIGATORS", "city": "AVON", "state": "NY", "zip": "14414-9773", "ntee": "U20", "ruling": "201602", "deductibility": "1", "assets": 0, "income": 0, "revenue": 0}, {"ein": "842425025", "name": "NEW YORK STATE POLICE INVESTIGATORS FOUNDATION INC", "city": "ALBANY", "state": "NY", "zip": "12211-1722", "ntee": "I60", "ruling": "202005", "deductibility": "1", "assets": 509668, "income": 363188, "revenue": 206506}, {"ein": "900959650", "name": "DETECTIVE INVESTIGATORS ASSOCIATION OF THE DISTRICT ATTORNEYS OFFICES", "city": "NEW YORK", "state": "NY", "zip": "10013-0995", "ntee": "B03", "ruling": "201409", "deductibility": "1", "assets": 0, "income": 0, "revenue": 0}], "KPOKPLOKU": [{"ein": "061753105", "name": "KPOKPLOKU SOCIAL AND CULTURAL CLUB OF AMERICA INC", "city": "BRONX", "state": "NY", "zip": "10453-1014", "ntee": "P30", "ruling": "201210", "deductibility": "1", "assets": 0, "income": 0, "revenue": 0}], "COMMERDINGER": [{"ein": "061806502", "name": "W S COMMERDINGER JR COUNTY PARK PRESERVATION SOCIETY INC", "city": "LAKE GROVE", "state": "NY", "zip": "11755-3211", "ntee": "C50", "ruling": "200805", "deductibility": "1", "assets": 97767, "income": 1272, "revenue": 1272}], "HURLBUTT": [{"ein": "066035912", "name": "HORACE HURLBUTT MEMORIAL FUND TRUST 2815030414", "city": "BUFFALO", "state": "NY", "zip": "14202-1812", "ntee": "", "ruling": "197012", "deductibility": "0", "assets": 584392, "income": 189816, "revenue": 0}], "BAYVILLE": [{"ein": "110518530", "name": "BAYVILLE FIRE COMPANY INC", "city": "BAYVILLE", "state": "NY", "zip": "11709-1619", "ntee": "", "ruling": "198906", "deductibility": "1", "assets": 6653864, "income": 4324, "revenue": 4324}, {"ein": "111807507", "name": "BAYVILLE FREE LIBRARY", "city": "BAYVILLE", "state": "NY", "zip": "11709-1955", "ntee": "B71Z", "ruling": "198010", "deductibility": "1", "assets": 4007288, "income": 686772, "revenue": 686772}, {"ein": "112623791", "name": "UCP BAYVILLE INCORPORATED", "city": "ROOSEVELT", "state": "NY", "zip": "11575-1845", "ntee": "", "ruling": "198404", "deductibility": "1", "assets": 1724848, "income": 10546532, "revenue": 10546532}, {"ein": "205812260", "name": "LOCUST VALLEY BAYVILLE SOCCER CLUB", "city": "LOCUST VALLEY", "state": "NY", "zip": "11560-0115", "ntee": "O50", "ruling": "201312", "deductibility": "1", "assets": 50317, "income": 201226, "revenue": 201226}, {"ein": "464455507", "name": "FRIENDS OF THE BAYVILLE FREE LIBRARY INC", "city": "BAYVILLE", "state": "NY", "zip": "11709-1955", "ntee": "B11", "ruling": "201409", "deductibility": "1", "assets": 0, "income": 0, "revenue": 0}, {"ein": "473866723", "name": "BAYVILLE BEAUTIFICATION CORP", "city": "BAYVILLE", "state": "NY", "zip": "11709-0354", "ntee": "C50", "ruling": "201510", "deductibility": "1", "assets": 0, "income": 0, "revenue": 0}, {"ein": "842492372", "name": "BAYVILLE ELEMENTARY PARENTS COUNCIL INC", "city": "MILL NECK", "state": "NY", "zip": "11765-0203", "ntee": "B94", "ruling": "201908", "deductibility": "1", "assets": 16289, "income": 90814, "revenue": 6957}, {"ein": "992784258", "name": "RKMCNYXX BAYVILLE", "city": "BAYVILLE", "state": "NY", "zip": "11709-1333", "ntee": "N12", "ruling": "202405", "deductibility": "1", "assets": 0, "income": 0, "revenue": 0}], "QUANTUCK": [{"ein": "111211700", "name": "QUANTUCK BEACH CLUB INC", "city": "W HAMPTON BCH", "state": "NY", "zip": "11978-7088", "ntee": "", "ruling": "196608", "deductibility": "2", "assets": 3098900, "income": 1331975, "revenue": 1331975}], "SURF": [{"ein": "112154379", "name": "SURF CLUB OF QUOGUE INC", "city": "QUOGUE", "state": "NY", "zip": "11959-0844", "ntee": "", "ruling": "195006", "deductibility": "2", "assets": 2585037, "income": 1182833, "revenue": 1098793}, {"ein": "203454874", "name": "SURF CLUB OF QUOGUE SCHOLARSHIP FUND", "city": "QUOGUE", "state": "NY", "zip": "11959-4227", "ntee": "B99", "ruling": "200704", "deductibility": "1", "assets": 97685, "income": 48992, "revenue": 0}, {"ein": "205437122", "name": "SURF GARDENS HOUSING DEVELOPMENT FUND COMPANY INC", "city": "NEW YORK", "state": "NY", "zip": "10007-2817", "ntee": "L20", "ruling": "200806", "deductibility": "1", "assets": 0, "income": 0, "revenue": 0}, {"ein": "272966599", "name": "SURF FOR ALL", "city": "LONG BEACH", "state": "NY", "zip": "11561-3521", "ntee": "N67", "ruling": "201209", "deductibility": "1", "assets": 93195, "income": 224031, "revenue": 224031}, {"ein": "814561235", "name": "SABABA SURF CAMP INC", "city": "LITTLE NECK", "state": "NY", "zip": "11362-2530", "ntee": "X11", "ruling": "201711", "deductibility": "1", "assets": 207811, "income": 0, "revenue": 0}, {"ein": "851542057", "name": "RAD SURF AND BOARD CORP", "city": "BROOKLYN", "state": "NY", "zip": "11231-1722", "ntee": "N50", "ruling": "202009", "deductibility": "1", "assets": 602, "income": 14693, "revenue": 14693}, {"ein": "993881143", "name": "HAPPY DOGS SURF SHOP INCORPORATED", "city": "EAST SETAUKET", "state": "NY", "zip": "11733-3703", "ntee": "T50", "ruling": "202408", "deductibility": "1", "assets": 0, "income": 0, "revenue": 0}], "CORNERS": [{"ein": "112288235", "name": "HAWTHORNE CORNERS DAY CARE CENTER", "city": "BROOKLYN", "state": "NY", "zip": "11225-5713", "ntee": "", "ruling": "197701", "deductibility": "1", "assets": 17124, "income": 676761, "revenue": 676761}, {"ein": "113548856", "name": "MIRACLE CORNERS OF THE WORLD INC", "city": "NEW YORK", "state": "NY", "zip": "10016-7369", "ntee": "Q330", "ruling": "200109", "deductibility": "1", "assets": 2351057, "income": 1051983, "revenue": 1051983}, {"ein": "133206982", "name": "MEKEELS CORNERS CHAPEL ASSOCATION INC", "city": "COLD SPRING", "state": "NY", "zip": "10516-3669", "ntee": "A80", "ruling": "200103", "deductibility": "1", "assets": 0, "income": 0, "revenue": 0}, {"ein": "141553739", "name": "CHAPEL CORNERS CLUB INC", "city": "HYDE PARK", "state": "NY", "zip": "12538-2074", "ntee": "", "ruling": "197603", "deductibility": "2", "assets": 0, "income": 0, "revenue": 0}, {"ein": "141821806", "name": "CENTRAL BAPTIST CHURCH OF CLINTON CORNERS", "city": "SALT POINT", "state": "NY", "zip": "12578-2514", "ntee": "X21", "ruling": "200210", "deductibility": "1", "assets": 0, "income": 0, "revenue": 0}, {"ein": "150617970", "name": "ROSS CORNERS CHRISTIAN ACADEMY OF THE ROSS CORNERS BAPTIST CHURCH", "city": "VESTAL", "state": "NY", "zip": "13850-1123", "ntee": "B20", "ruling": "201210", "deductibility": "1", "assets": 0, "income": 0, "revenue": 0}, {"ein": "160748322", "name": "ABBOTTS CORNERS CEMETERY ASSN INC", "city": "HAMBURG", "state": "NY", "zip": "14075-1625", "ntee": "", "ruling": "198802", "deductibility": "2", "assets": 4084431, "income": 2219654, "revenue": 749981}, {"ein": "160770053", "name": "MOYERS CORNERS FIRE DEPARTMENT INC", "city": "LIVERPOOL", "state": "NY", "zip": "13090-2436", "ntee": "E62Z", "ruling": "199504", "deductibility": "1", "assets": 3582916, "income": 2427320, "revenue": 2084352}, {"ein": "160985064", "name": "TWELVE CORNERS DAY CARE CENTER", "city": "ROCHESTER", "state": "NY", "zip": "14623-2808", "ntee": "P33Z", "ruling": "197201", "deductibility": "1", "assets": 862813, "income": 946507, "revenue": 946507}, {"ein": "161029693", "name": "WRIGHTS CORNERS FIRE COMPANY INC", "city": "LOCKPORT", "state": "NY", "zip": "14094-1115", "ntee": "M24Z", "ruling": "199602", "deductibility": "1", "assets": 3346722, "income": 722772, "revenue": 672914}, {"ein": "161165662", "name": "OAKS CORNERS VOLUNTEER FIRE COMPANY INC", "city": "OAKS CORNERS", "state": "NY", "zip": "14518-0000", "ntee": "M24", "ruling": "200203", "deductibility": "1", "assets": 780627, "income": 224871, "revenue": 204748}, {"ein": "161173641", "name": "OAKS CORNERS PRESBYTERIAN", "city": "OAKS CORNERS", "state": "NY", "zip": "14518-0006", "ntee": "", "ruling": "196401", "deductibility": "1", "assets": 0, "income": 0, "revenue": 0}, {"ein": "161211459", "name": "TERRYS CORNERS VOLUNTEER FIRE CO INC", "city": "GASPORT", "state": "NY", "zip": "14067-9503", "ntee": "M24", "ruling": "200404", "deductibility": "1", "assets": 1693637, "income": 350980, "revenue": 267339}, {"ein": "161330375", "name": "MORTONS CORNERS VOLUNTEER FIRE DEPARTMENT", "city": "SPRINGVILLE", "state": "NY", "zip": "14141-0003", "ntee": "M24", "ruling": "200903", "deductibility": "1", "assets": 582112, "income": 293342, "revenue": 292961}, {"ein": "161544871", "name": "HARMONY CORNERS VOLUNTEER FIRE DEPA RTMENT INC", "city": "BALLSTON SPA", "state": "NY", "zip": "12020-3113", "ntee": "M24", "ruling": "201409", "deductibility": "1", "assets": 0, "income": 0, "revenue": 0}, {"ein": "161560298", "name": "WEST CORNERS CHARITABLE FOUNDATION INC", "city": "ENDICOTT", "state": "NY", "zip": "13760-4050", "ntee": "T30", "ruling": "201206", "deductibility": "1", "assets": 0, "income": 0, "revenue": 0}, {"ein": "166033802", "name": "REED CORNERS FEDERATED CH", "city": "CANANDAIGUA", "state": "NY", "zip": "14424-9559", "ntee": "", "ruling": "195504", "deductibility": "1", "assets": 0, "income": 0, "revenue": 0}, {"ein": "166035689", "name": "HARDYS CORNERS CEMETERY INC", "city": "ORCHARD PARK", "state": "NY", "zip": "14127-2958", "ntee": "Y50", "ruling": "201112", "deductibility": "1", "assets": 0, "income": 0, "revenue": 0}, {"ein": "166064066", "name": "BIBLE CHURCH OF HAYTS CORNERS NEW YORK", "city": "HAYTS CORNERS", "state": "NY", "zip": "14465-0000", "ntee": "", "ruling": "196512", "deductibility": "1", "assets": 0, "income": 0, "revenue": 0}, {"ein": "222507507", "name": "COOKS CORNERS WESLEYAN CHURCH", "city": "BRUSHTON", "state": "NY", "zip": "12916-3400", "ntee": "", "ruling": "197005", "deductibility": "1", "assets": 0, "income": 0, "revenue": 0}, {"ein": "222544890", "name": "CROFT CORNERS FIRE COMPANY INC", "city": "POUGHKEEPSIE", "state": "NY", "zip": "12603-5312", "ntee": "M24Z", "ruling": "199601", "deductibility": "1", "assets": 593296, "income": 138163, "revenue": 61663}, {"ein": "222554166", "name": "OAKS CORNERS IMPROVEMENT ASSOCIATION INC", "city": "OAKS CORNERS", "state": "NY", "zip": "14518-0000", "ntee": "N30Z", "ruling": "199608", "deductibility": "1", "assets": 0, "income": 0, "revenue": 0}, {"ein": "262883163", "name": "COURTLANDT CORNERS II HOUSING DEVELOPMENT CORPORATION", "city": "NEW YORK", "state": "NY", "zip": "10010-6002", "ntee": "L20", "ruling": "200908", "deductibility": "2", "assets": 0, "income": 0, "revenue": 0}, {"ein": "262883270", "name": "COURTLANDT CORNERS I HOUSING DEVELOPMENT FUND CORPORATION", "city": "NEW YORK", "state": "NY", "zip": "10010-6002", "ntee": "L20", "ruling": "200908", "deductibility": "2", "assets": 0, "income": 0, "revenue": 0}, {"ein": "300995109", "name": "PORTER CORNERS VOLUNTEER FIRE COMPANY INC", "city": "PORTER CORS", "state": "NY", "zip": "12859-0031", "ntee": "M24", "ruling": "201710", "deductibility": "1", "assets": 0, "income": 0, "revenue": 0}, {"ein": "454913833", "name": "CALKINS CORNERS HOUSING DEVELOPMENT FUND COMPANY INC", "city": "FAIRPORT", "state": "NY", "zip": "14450-3405", "ntee": "L20", "ruling": "202001", "deductibility": "1", "assets": 0, "income": 0, "revenue": 0}, {"ein": "465427460", "name": "TOMPKINS CORNERS CULTURAL CENTER INC", "city": "PUTNAM VALLEY", "state": "NY", "zip": "10579-1700", "ntee": "A99", "ruling": "201407", "deductibility": "1", "assets": 206584, "income": 98315, "revenue": 98315}, {"ein": "474410541", "name": "4 CORNERS PROJECT INC", "city": "KEW GARDENS", "state": "NY", "zip": "11415-2534", "ntee": "A68", "ruling": "201604", "deductibility": "1", "assets": 0, "income": 0, "revenue": 0}, {"ein": "474893115", "name": "MOYERS CORNERS VOLUNTEER FIRE DEPARTMENT AUXILIARY INC", "city": "LIVERPOOL", "state": "NY", "zip": "13090-0000", "ntee": "M11", "ruling": "201602", "deductibility": "1", "assets": 0, "income": 0, "revenue": 0}, {"ein": "521614085", "name": "WEST CORNERS FIRE CO NO 1 INC", "city": "ENDICOTT", "state": "NY", "zip": "13760-2011", "ntee": "W99", "ruling": "201408", "deductibility": "1", "assets": 0, "income": 0, "revenue": 0}, {"ein": "832918476", "name": "FIVE CORNERS COLLECTIVE", "city": "NEW YORK", "state": "NY", "zip": "10014-1730", "ntee": "A99", "ruling": "201907", "deductibility": "1", "assets": 0, "income": 0, "revenue": 0}, {"ein": "900067503", "name": "HOAGS CORNERS VOLUNTEER FIRE COMPANY INC", "city": "EAST NASSAU", "state": "NY", "zip": "12062-2534", "ntee": "M24", "ruling": "201504", "deductibility": "1", "assets": 0, "income": 0, "revenue": 0}, {"ein": "900129814", "name": "BARNES CORNERS SNO PALS INC", "city": "RODMAN", "state": "NY", "zip": "13682-0533", "ntee": "N68", "ruling": "200701", "deductibility": "1", "assets": 1088660, "income": 311013, "revenue": 240897}, {"ein": "923820877", "name": "HARTLAND CORNERS COMMUNITY CHURCH", "city": "GASPORT", "state": "NY", "zip": "14067-0098", "ntee": "X20", "ruling": "202401", "deductibility": "1", "assets": 0, "income": 0, "revenue": 0}], "CLARKE": [{"ein": "112414404", "name": "W T CLARKE HIGH SCHOOL PARENTS AND BOOSTER CLUB C O ARTHUR CURLEY", "city": "WESTBURY", "state": "NY", "zip": "11590-6513", "ntee": "B94", "ruling": "201804", "deductibility": "1", "assets": 0, "income": 0, "revenue": 0}, {"ein": "113477715", "name": "CLARKE INSTITUTE FOR COMMUNITY INCLUSION INC", "city": "BROOKLYN", "state": "NY", "zip": "11208-1234", "ntee": "P82", "ruling": "199912", "deductibility": "1", "assets": 5103712, "income": 6035695, "revenue": 6035695}, {"ein": "331205277", "name": "MICHAEL ARTHUR CLARKE FOUNDATION", "city": "SPRNGFLD GDNS", "state": "NY", "zip": "11413-2210", "ntee": "B99", "ruling": "200810", "deductibility": "1", "assets": 0, "income": 0, "revenue": 0}, {"ein": "800309328", "name": "WILFRED VERNON CLARKE MEMORIAL FUND INC", "city": "DIX HILLS", "state": "NY", "zip": "11746-4926", "ntee": "B82", "ruling": "200911", "deductibility": "1", "assets": 0, "income": 0, "revenue": 0}, {"ein": "811639783", "name": "NMAH CLARKE FAMILY HUMANITARIAN AID INC", "city": "BROOKLYN", "state": "NY", "zip": "11212-6045", "ntee": "Q33", "ruling": "201706", "deductibility": "1", "assets": 0, "income": 0, "revenue": 0}, {"ein": "831998284", "name": "COLLEEN CLARKE BUCKET WISHES INC", "city": "MASSAPEQUA", "state": "NY", "zip": "11758-3108", "ntee": "T50", "ruling": "201812", "deductibility": "1", "assets": 105938, "income": 63081, "revenue": 54052}, {"ein": "933456259", "name": "DR UNA CLARKE WOMEN IN GOVERNMENT LECTURE SERIES INCORPOR", "city": "BROOKLYN", "state": "NY", "zip": "11225-2010", "ntee": "O50", "ruling": "202410", "deductibility": "1", "assets": 0, "income": 0, "revenue": 0}, {"ein": "993373748", "name": "ANNE CLARKE FOUNDATION INC", "city": "NEW YORK", "state": "NY", "zip": "10030-9002", "ntee": "T30", "ruling": "202406", "deductibility": "1", "assets": 0, "income": 0, "revenue": 0}], "KANN": [{"ein": "112449331", "name": "NEW YORK ZEN CENTER OF RINZAI-JI INC C O EDGAR KANN", "city": "SETAUKET", "state": "NY", "zip": "11733-1424", "ntee": "", "ruling": "197812", "deductibility": "1", "assets": 0, "income": 0, "revenue": 0}, {"ein": "462283123", "name": "THE V KANN RASMUSSEN FOUNDATION INC", "city": "NEW YORK", "state": "NY", "zip": "10115-0066", "ntee": "T20", "ruling": "201408", "deductibility": "1", "assets": 88235809, "income": 9260895, "revenue": 0}], "CSEA": [{"ein": "112566575", "name": "CSEA UNITY 882-755600 NASSAU CO MUNICIPAL EMP VILLAGE OF FREEPORT", "city": "FREEPORT", "state": "NY", "zip": "11520-5907", "ntee": "Y44", "ruling": "197007", "deductibility": "2", "assets": 0, "income": 0, "revenue": 0}, {"ein": "112932208", "name": "JUDICIARY UNIT-CSEA LOCAL 010", "city": "BROOKLYN", "state": "NY", "zip": "11201-4407", "ntee": "J40", "ruling": "201807", "deductibility": "2", "assets": 0, "income": 0, "revenue": 0}, {"ein": "133314509", "name": "CSEA 860 822600 WESTCHESTER COUNTY TOWN OF NORTH CASTLE", "city": "ARMONK", "state": "NY", "zip": "10504-1874", "ntee": "", "ruling": "197007", "deductibility": "2", "assets": 0, "income": 0, "revenue": 0}, {"ein": "133411502", "name": "CSEA 0860-922600", "city": "NORTH SALEM", "state": "NY", "zip": "10560-3714", "ntee": "J40", "ruling": "201408", "deductibility": "2", "assets": 0, "income": 0, "revenue": 0}, {"ein": "133492775", "name": "HARRISON SCHOOL UNIT BENEFIT FUND CSEA NY LOCAL 860 UNIT 9180", "city": "HARRISON", "state": "NY", "zip": "10528-2008", "ntee": "", "ruling": "199001", "deductibility": "2", "assets": 486086, "income": 189606, "revenue": 189606}, {"ein": "136007231", "name": "CSEA 0860-821500 TOWN OF GREENBUGH", "city": "WHITE PLAINS", "state": "NY", "zip": "10605-3303", "ntee": "S99", "ruling": "201408", "deductibility": "2", "assets": 0, "income": 0, "revenue": 0}, {"ein": "141610554", "name": "CSEA EMPLOYEE BENEFIT FUND", "city": "LATHAM", "state": "NY", "zip": "12110-2313", "ntee": "", "ruling": "198001", "deductibility": "2", "assets": 289891471, "income": 284726523, "revenue": 163271362}, {"ein": "141616451", "name": "CSEA UNIT 676-380000 TRANSPORTATION REG 1 COLUMBIA DEPT OF TRANS", "city": "HILLSDALE", "state": "NY", "zip": "12529-5096", "ntee": "J40", "ruling": "202506", "deductibility": "2", "assets": 0, "income": 0, "revenue": 0}, {"ein": "141650403", "name": "CSEA 0842-826700CITY OF RENSSELAER DEPT OF PUBLIC WORKS", "city": "RENSSELAER", "state": "NY", "zip": "12144-2218", "ntee": "Z99", "ruling": "201409", "deductibility": "2", "assets": 0, "income": 0, "revenue": 0}, {"ein": "141695703", "name": "CSEA UNIT 0811-650300 COLUMBIA COUNTY CITY OF HUDSON", "city": "HUDSON", "state": "NY", "zip": "12534-2802", "ntee": "", "ruling": "197007", "deductibility": "2", "assets": 0, "income": 0, "revenue": 0}, {"ein": "141781075", "name": "CSEA 0858-905600 WASHINGTON COUNTY FORT ANN CENTRAL SCHOOL DISTRICT", "city": "FORT ANN", "state": "NY", "zip": "12827-5039", "ntee": "J40", "ruling": "201608", "deductibility": "2", "assets": 0, "income": 0, "revenue": 0}, {"ein": "161159133", "name": "CSEA UNIT 0859-911100 WAYNE COUNTY TOWN OF ONTARIO", "city": "WILLIAMSON", "state": "NY", "zip": "14589-9548", "ntee": "J40", "ruling": "201807", "deductibility": "2", "assets": 0, "income": 0, "revenue": 0}, {"ein": "161448868", "name": "CSEA UNIT 815-676501 ERIE CO TOWN OF ORCHARD PARK WHITE COLLAR", "city": "BUFFALO", "state": "NY", "zip": "14218-3767", "ntee": "J40", "ruling": "202202", "deductibility": "2", "assets": 0, "income": 0, "revenue": 0}, {"ein": "161463640", "name": "CSEA UNIT 804-615601 BROOME CO VILLAGE OF ENDICOTT WHITE COLLAR", "city": "ENDICOTT", "state": "NY", "zip": "13760-5248", "ntee": "J40", "ruling": "197007", "deductibility": "2", "assets": 0, "income": 0, "revenue": 0}, {"ein": "161601610", "name": "CSEA UNIT 0834-782302 ONONDAGA COUNTY TOWN OF DEWITT BLUE COLLAR", "city": "EAST SYRACUSE", "state": "NY", "zip": "13057-9518", "ntee": "J40", "ruling": "201606", "deductibility": "2", "assets": 0, "income": 0, "revenue": 0}, {"ein": "166268139", "name": "CSEA 0868-670100 IROQUOIS CSD", "city": "ELMA", "state": "NY", "zip": "14059-9685", "ntee": "J40", "ruling": "201409", "deductibility": "2", "assets": 0, "income": 0, "revenue": 0}, {"ein": "222501534", "name": "CSEA UNIT 819-695300 GENESEE COUNTY OAKFIELD ALABAMA SD", "city": "OAKFIELD", "state": "NY", "zip": "14125-1121", "ntee": "", "ruling": "202101", "deductibility": "2", "assets": 0, "income": 0, "revenue": 0}, {"ein": "222533326", "name": "CSEA 0807-631900 RIPLEY CENTRAL SCHOOL NON-TEACHING", "city": "ALBANY", "state": "NY", "zip": "12210-2303", "ntee": "", "ruling": "191007", "deductibility": "2", "assets": 0, "income": 0, "revenue": 0}, {"ein": "237074888", "name": "CSEA UNIT 0836-790400 ORANGE COUNTY CITY OF PORT JERVIS", "city": "PORT JERVIS", "state": "NY", "zip": "12771-2410", "ntee": "J40", "ruling": "202312", "deductibility": "2", "assets": 0, "income": 0, "revenue": 0}, {"ein": "320312583", "name": "CSEA UNIT 0872-178603 NORTH TONAWANDA SCHOOL BUS DRIVERS &", "city": "NORTH TONAWANDA", "state": "NY", "zip": "14120-3349", "ntee": "", "ruling": "197007", "deductibility": "2", "assets": 0, "income": 0, "revenue": 0}, {"ein": "320364683", "name": "CSEA UNIT 829-750000 MONTGOMERY CO DEPT OF PUBLIC WORKS", "city": "FULTONVILLE", "state": "NY", "zip": "12072-1826", "ntee": "J40", "ruling": "197007", "deductibility": "2", "assets": 0, "income": 0, "revenue": 0}, {"ein": "334506420", "name": "CSEA UNIT 852-83360 BRENTWOOD PUBLIC LIBRARY", "city": "WEST ISLIP", "state": "NY", "zip": "11795-3233", "ntee": "", "ruling": "197007", "deductibility": "2", "assets": 0, "income": 0, "revenue": 0}, {"ein": "334844784", "name": "CSEA UNIT 758700 HICKSVILLE UFSD CUSTODIAL", "city": "FARMINGDALE", "state": "NY", "zip": "11735-5416", "ntee": "", "ruling": "197007", "deductibility": "2", "assets": 0, "income": 0, "revenue": 0}, {"ein": "383894084", "name": "CSEA LAWYERS UNION", "city": "CLIFTON PARK", "state": "NY", "zip": "12065-1620", "ntee": "S40", "ruling": "201508", "deductibility": "2", "assets": 0, "income": 0, "revenue": 0}, {"ein": "462012985", "name": "CSEA UNIT 857-900300 WARREN COUNTY TOWN OF CHESTER", "city": "QUEENSBURY", "state": "NY", "zip": "12804-0000", "ntee": "J40", "ruling": "201905", "deductibility": "2", "assets": 0, "income": 0, "revenue": 0}, {"ein": "800340460", "name": "CSEA UNIT 0870-831603 SUFFOLK CTY EASTPORT SOUTH MANOR CSD CLERICAL", "city": "WEST BABYLON", "state": "NY", "zip": "11704-3930", "ntee": "J40", "ruling": "201410", "deductibility": "2", "assets": 0, "income": 0, "revenue": 0}, {"ein": "800347586", "name": "CSEA SECTION 815-670005 ERIE COUNTY PROBATION SECTION", "city": "WEST FALLS", "state": "NY", "zip": "14170-9734", "ntee": "J40", "ruling": "201905", "deductibility": "2", "assets": 0, "income": 0, "revenue": 0}, {"ein": "800350434", "name": "CSEA UNIT 0865-757402 NASSAU CO EDUC FARMINGDALE UFSD FOOD SERVICE", "city": "ALBANY", "state": "NY", "zip": "12210-2303", "ntee": "J40", "ruling": "201907", "deductibility": "2", "assets": 0, "income": 0, "revenue": 0}, {"ein": "812197772", "name": "CSEA CHILD CARE PROVIDERS TRUST FUND", "city": "LATHAM", "state": "NY", "zip": "12110-2313", "ntee": "J40", "ruling": "201709", "deductibility": "2", "assets": 355019, "income": 2505221, "revenue": 2505221}, {"ein": "832763637", "name": "CSEA INC", "city": "CORAM", "state": "NY", "zip": "11727-0031", "ntee": "", "ruling": "194708", "deductibility": "2", "assets": 0, "income": 0, "revenue": 0}, {"ein": "833450869", "name": "CSEA UNIT 0801-600005 ALBANY COUNTY DEPARTMENT OF GENERAL SERVICES", "city": "WATERFORD", "state": "NY", "zip": "12188-2631", "ntee": "J40", "ruling": "202312", "deductibility": "2", "assets": 0, "income": 0, "revenue": 0}, {"ein": "844208190", "name": "CSEA UNIT 852-875800 SUFFOLK CO TOWN OF RIVERHEAD", "city": "RIVERHEAD", "state": "NY", "zip": "11901-5002", "ntee": "", "ruling": "194708", "deductibility": "2", "assets": 0, "income": 0, "revenue": 0}, {"ein": "853598943", "name": "CSEA UNIT 840-815100 TOWN OF PUTNAM VALLEY", "city": "PUTNAM VALLEY", "state": "NY", "zip": "10579-2004", "ntee": "", "ruling": "197007", "deductibility": "2", "assets": 0, "income": 0, "revenue": 0}, {"ein": "853998814", "name": "CSEA UNIT 837-79500 ORLEANS CO COUNTY UNIT", "city": "MEDINA", "state": "NY", "zip": "14103-1321", "ntee": "", "ruling": "197007", "deductibility": "2", "assets": 0, "income": 0, "revenue": 0}, {"ein": "863150332", "name": "CSEA UNIT 870-878301 AMITYLLE SD TEACHER AIDES", "city": "AMITYVILLE", "state": "NY", "zip": "11701-2334", "ntee": "", "ruling": "197007", "deductibility": "2", "assets": 0, "income": 0, "revenue": 0}, {"ein": "900488460", "name": "CSEA UNIT 818-691100 FULTON CO OPPENHEIM EPHRATAH ST JOHNSVILLE", "city": "SAINT JOHNSVILLE", "state": "NY", "zip": "13452-0000", "ntee": "", "ruling": "197007", "deductibility": "2", "assets": 0, "income": 0, "revenue": 0}, {"ein": "991937827", "name": "CSEA UNIT 865-760002 ISLAND TREES SD TEACHER AIDES UNIT", "city": "ALBANY", "state": "NY", "zip": "12210-2303", "ntee": "", "ruling": "197007", "deductibility": "0", "assets": 0, "income": 0, "revenue": 0}, {"ein": "993041518", "name": "CSEA UNIT 886-850904 SCHENECTADY CSD SAFETY OFFICERS", "city": "SCOTIA", "state": "NY", "zip": "12302-1933", "ntee": "", "ruling": "197007", "deductibility": "2", "assets": 0, "income": 0, "revenue": 0}, {"ein": "993308148", "name": "CSEA UNIT 852-834401 SUFFOLK COUNTY LONGWOOD PUBLIC LIBRARY PART TIME", "city": "ALBANY", "state": "NY", "zip": "12210-2303", "ntee": "", "ruling": "197007", "deductibility": "2", "assets": 0, "income": 0, "revenue": 0}], "TOTS": [{"ein": "112576935", "name": "TINY TOTS LEARNING CENTER", "city": "SAYVILLE", "state": "NY", "zip": "11782-2622", "ntee": "B21Z", "ruling": "198404", "deductibility": "1", "assets": 6809, "income": 209688, "revenue": 209688}, {"ein": "113080437", "name": "INDEPENDENT BIKERS OF QUEENS TOYS FOR TOTS INC", "city": "EAST MEADOW", "state": "NY", "zip": "11554-0654", "ntee": "Z99Z", "ruling": "199207", "deductibility": "1", "assets": 4599, "income": 2149, "revenue": 2149}, {"ein": "134123681", "name": "MASONIC TOYS FOR TOTS FOUNDATION INC", "city": "WHITE PLAINS", "state": "NY", "zip": "10601-2310", "ntee": "P58", "ruling": "201412", "deductibility": "1", "assets": 136256, "income": 99868, "revenue": 0}, {"ein": "134176962", "name": "PHILLIPS TEE-OFF FOR TOTS FOUNDATION", "city": "STONY POINT", "state": "NY", "zip": "10980-2746", "ntee": "T30", "ruling": "200109", "deductibility": "1", "assets": 5328, "income": 67393, "revenue": 46396}, {"ein": "141702795", "name": "JOYS FOR TOTS INC", "city": "KINGSTON", "state": "NY", "zip": "12401-2110", "ntee": "", "ruling": "198810", "deductibility": "1", "assets": 0, "income": 0, "revenue": 0}, {"ein": "271095844", "name": "TOYS FOR FREEPORT TOTS INC", "city": "FREEPORT", "state": "NY", "zip": "11520-0130", "ntee": "O50", "ruling": "201308", "deductibility": "1", "assets": 12887, "income": 12250, "revenue": -18}, {"ein": "272113272", "name": "SHOREFRONT TOYS FOR TOTS INC", "city": "STATEN ISLAND", "state": "NY", "zip": "10314-3867", "ntee": "W99", "ruling": "201908", "deductibility": "1", "assets": 0, "income": 0, "revenue": 0}, {"ein": "300611336", "name": "FRIENDSHIP FOR TOTS INC", "city": "MOUNT VERNON", "state": "NY", "zip": "10552-2222", "ntee": "P33", "ruling": "201007", "deductibility": "1", "assets": 343287, "income": 1704722, "revenue": 150000}, {"ein": "474192903", "name": "LOTS TO THE TOTS INC", "city": "ROCHESTER", "state": "NY", "zip": "14612-4123", "ntee": "P58", "ruling": "201508", "deductibility": "1", "assets": 0, "income": 0, "revenue": 0}, {"ein": "510188494", "name": "TOYS FOR TOTS INC", "city": "BINGHAMTON", "state": "NY", "zip": "13901-3767", "ntee": "", "ruling": "197605", "deductibility": "1", "assets": 197376, "income": 135429, "revenue": 135429}, {"ein": "562330690", "name": "DOCS FOR TOTS", "city": "ROSLYN", "state": "NY", "zip": "11576-1153", "ntee": "P01", "ruling": "200306", "deductibility": "1", "assets": 466827, "income": 1125574, "revenue": 1055173}, {"ein": "850936329", "name": "TOTS & TYKES", "city": "BROOKLYN", "state": "NY", "zip": "11204-1523", "ntee": "X30", "ruling": "202105", "deductibility": "1", "assets": 0, "income": 0, "revenue": 0}, {"ein": "991108139", "name": "HEAVENS TINY TOTS FAMILY ENRICHMENT CHILD DEVELOPMENT CENTER INC", "city": "NEW YORK", "state": "NY", "zip": "10027-1920", "ntee": "P20", "ruling": "202403", "deductibility": "1", "assets": 0, "income": 0, "revenue": 0}], "BLUEPOINT": [{"ein": "112596816", "name": "BAYPORT BLUEPOINT CHAMBER OF COMMERCE", "city": "BAYPORT", "state": "NY", "zip": "11705-0201", "ntee": "S41", "ruling": "200601", "deductibility": "2", "assets": 102660, "income": 117361, "revenue": 117361}], "MOSDOT": [{"ein": "112654984", "name": "MOSDOT NADVORNA MAMAR MORDECHAI INC", "city": "BROOKLYN", "state": "NY", "zip": "11232-0124", "ntee": "", "ruling": "198312", "deductibility": "1", "assets": 0, "income": 0, "revenue": 0}, {"ein": "112668795", "name": "MOSDOT BOTOSHAN INC", "city": "BROOKLYN", "state": "NY", "zip": "11219-2904", "ntee": "", "ruling": "198402", "deductibility": "1", "assets": 0, "income": 0, "revenue": 0}, {"ein": "113117797", "name": "AMERICAN FRIENDS OF MOSDOT BEER YITZCHAK INC", "city": "BROOKLYN", "state": "NY", "zip": "11223-1931", "ntee": "T99Z", "ruling": "199210", "deductibility": "1", "assets": 30863, "income": 1292406, "revenue": 1292406}, {"ein": "113527819", "name": "AMERICAN FRIENDS OF MOSDOT MEIR OF ISRAEL INC", "city": "BROOKLYN", "state": "NY", "zip": "11230-3921", "ntee": "T30", "ruling": "200003", "deductibility": "1", "assets": 9588420, "income": 1587978, "revenue": 1587978}, {"ein": "113578024", "name": "MOSDOT MERKAZ LE TORAH", "city": "BROOKLYN", "state": "NY", "zip": "11219-2703", "ntee": "X30", "ruling": "200104", "deductibility": "1", "assets": 0, "income": 0, "revenue": 0}, {"ein": "133065542", "name": "FRIENDS OF MOSDOT GOOR INC", "city": "BROOKLYN", "state": "NY", "zip": "11218-3750", "ntee": "B58J", "ruling": "199112", "deductibility": "1", "assets": 394947, "income": 17043912, "revenue": 17043912}, {"ein": "200039489", "name": "MOSDOT SHUVA ISRAEL", "city": "NEW YORK", "state": "NY", "zip": "10022-1909", "ntee": "X30", "ruling": "200402", "deductibility": "1", "assets": 0, "income": 0, "revenue": 0}, {"ein": "200429293", "name": "MOSDOT BETH YAAKOV", "city": "BROOKLYN", "state": "NY", "zip": "11229-0000", "ntee": "X30", "ruling": "200501", "deductibility": "1", "assets": 43955, "income": 971052, "revenue": 971052}, {"ein": "200793026", "name": "AMERICAN FRIENDS OF MOSDOT ZERA YITZCHAK INC", "city": "BROOKLYN", "state": "NY", "zip": "11230-6509", "ntee": "T30", "ruling": "200501", "deductibility": "1", "assets": 199675, "income": 831398, "revenue": 831398}, {"ein": "223456288", "name": "AMERICAN FRIENDS OF MOSDOT MAGEN AVOT INC", "city": "KEW GARDENS", "state": "NY", "zip": "11415-1713", "ntee": "B90Z", "ruling": "199812", "deductibility": "1", "assets": 0, "income": 0, "revenue": 0}, {"ein": "237417681", "name": "ICHUD MOSDOT GUR", "city": "BROOKLYN", "state": "NY", "zip": "11219-3153", "ntee": "", "ruling": "197412", "deductibility": "1", "assets": 0, "income": 0, "revenue": 0}, {"ein": "274447356", "name": "MOSDOT OHEL YISROEL INC", "city": "BROOKLYN", "state": "NY", "zip": "11219-3201", "ntee": "Q30", "ruling": "201112", "deductibility": "1", "assets": 32999, "income": 79240, "revenue": 79240}, {"ein": "463846086", "name": "FRIENDS OF MOSDOT NAHALAT YTZHAQ INC", "city": "BROOKLYN", "state": "NY", "zip": "11234-4203", "ntee": "X20", "ruling": "201406", "deductibility": "1", "assets": 1972, "income": 395815, "revenue": 395815}, {"ein": "475474360", "name": "MOSDOT ROSH HAGIVA FUND INC", "city": "BROOKLYN", "state": "NY", "zip": "11218-4966", "ntee": "B11", "ruling": "201511", "deductibility": "1", "assets": 0, "income": 0, "revenue": 0}, {"ein": "841908373", "name": "MOSDOT RASHI INC", "city": "BROOKLYN", "state": "NY", "zip": "11219-1349", "ntee": "T30", "ruling": "202402", "deductibility": "1", "assets": 0, "income": 0, "revenue": 0}, {"ein": "923072834", "name": "MOSDOT KEHILOT HAAVRECHIM", "city": "BROOKLYN", "state": "NY", "zip": "11223-3150", "ntee": "X30", "ruling": "202304", "deductibility": "1", "assets": 0, "income": 0, "revenue": 0}], "MEDROSH": [{"ein": "112661780", "name": "BETH MEDROSH AV RUHOM INC", "city": "BROOKLYN", "state": "NY", "zip": "11211-7974", "ntee": "", "ruling": "198602", "deductibility": "1", "assets": 0, "income": 0, "revenue": 0}, {"ein": "112891182", "name": "BETH MEDROSH GOHOVA OF ISRAEL", "city": "BROOKLYN", "state": "NY", "zip": "11204-1408", "ntee": "", "ruling": "198803", "deductibility": "1", "assets": 0, "income": 0, "revenue": 0}, {"ein": "133002067", "name": "CONGREGATION BETH MEDROSH OF MONSEY NEW YORK", "city": "MONSEY", "state": "NY", "zip": "10952-2946", "ntee": "", "ruling": "197911", "deductibility": "1", "assets": 0, "income": 0, "revenue": 0}, {"ein": "237192469", "name": "KOL YERUSHULAIM-BEIS MEDROSH GEVOAH OHR OLAM", "city": "BROOKLYN", "state": "NY", "zip": "11219-3242", "ntee": "", "ruling": "197205", "deductibility": "1", "assets": 0, "income": 0, "revenue": 0}, {"ein": "237219489", "name": "BAIS MEDROSH TOLAAS YAKOV", "city": "BROOKLYN", "state": "NY", "zip": "11211-9236", "ntee": "", "ruling": "197210", "deductibility": "1", "assets": 0, "income": 0, "revenue": 0}, {"ein": "237365219", "name": "BAIS MEDROSH KHAL CHAREDIM OF MONSEY INC", "city": "SPRING VALLEY", "state": "NY", "zip": "10977-3824", "ntee": "", "ruling": "197404", "deductibility": "1", "assets": 0, "income": 0, "revenue": 0}, {"ein": "237454098", "name": "BETH MEDROSH AYN YAAKOV", "city": "BROOKLYN", "state": "NY", "zip": "11249-6900", "ntee": "", "ruling": "197604", "deductibility": "1", "assets": 0, "income": 0, "revenue": 0}, {"ein": "462159395", "name": "BAIS MEDROSH HAGUDOL DCHASIDEI SQUARE", "city": "SPRING VALLEY", "state": "NY", "zip": "10977-8940", "ntee": "X30", "ruling": "201311", "deductibility": "1", "assets": 0, "income": 0, "revenue": 0}], "ERIN": [{"ein": "112686593", "name": "MONTAUK FRIENDS OF ERIN INC", "city": "MONTAUK", "state": "NY", "zip": "11954-0501", "ntee": "", "ruling": "199504", "deductibility": "2", "assets": 27861, "income": 164830, "revenue": 57689}, {"ein": "274393982", "name": "JONATHAN & ERIN SCHILLER FAMILY FOUNDATION", "city": "CARMEL", "state": "NY", "zip": "10512-3862", "ntee": "T20", "ruling": "201102", "deductibility": "1", "assets": 261048, "income": 66439, "revenue": 0}, {"ein": "465675365", "name": "DAUGHTERS OF ERIN COURT 5", "city": "BUFFALO", "state": "NY", "zip": "14220-1305", "ntee": "A23", "ruling": "201806", "deductibility": "1", "assets": 0, "income": 0, "revenue": 0}, {"ein": "473460336", "name": "DAUGHTERS OF ERIN DIVISION NO 1 OF THE LAOH INC OF STEUBEN COUNTY NY", "city": "BROOKLYN", "state": "NY", "zip": "11229-4111", "ntee": "Y42", "ruling": "201808", "deductibility": "1", "assets": 0, "income": 0, "revenue": 0}], "ORHEIM": [{"ein": "112746008", "name": "HANNAH TAWIL HACNSAT ORHEIM", "city": "BROOKLYN", "state": "NY", "zip": "11223-4030", "ntee": "", "ruling": "198508", "deductibility": "1", "assets": 0, "income": 0, "revenue": 0}], "PENSION": [{"ein": "112758544", "name": "HOLLOW METAL PENSION FUND", "city": "NEW YORK", "state": "NY", "zip": "10014-7450", "ntee": "Y34Z", "ruling": "000000", "deductibility": "0", "assets": 0, "income": 0, "revenue": 0}, {"ein": "130891045", "name": "PENSION COMM JOINT INDUSTRY BOARD OF THE ELECTRICAL INDUSTRY", "city": "FLUSHING", "state": "NY", "zip": "11365-3085", "ntee": "", "ruling": "194410", "deductibility": "2", "assets": 252335115, "income": 875562054, "revenue": 466330019}, {"ein": "135562193", "name": "CHURCH PENSION FUND", "city": "NEW YORK", "state": "NY", "zip": "10016-4304", "ntee": "X022", "ruling": "200304", "deductibility": "1", "assets": 0, "income": 0, "revenue": 0}, {"ein": "135562403", "name": "PENSION BOARDS-UNITED CHURCH OF CHRIST INC", "city": "NEW YORK", "state": "NY", "zip": "10115-0002", "ntee": "", "ruling": "197804", "deductibility": "1", "assets": 0, "income": 0, "revenue": 0}, {"ein": "141742654", "name": "ASSOCIATION OF PUBLIC PENSION FUND AUDITORS INC", "city": "ALBANY", "state": "NY", "zip": "12211-0057", "ntee": "Z99Z", "ruling": "199201", "deductibility": "1", "assets": 52988, "income": 121970, "revenue": 121970}, {"ein": "260397960", "name": "PENSION GROUP EAST INC", "city": "PORT CHESTER", "state": "NY", "zip": "10573-2613", "ntee": "S40", "ruling": "200804", "deductibility": "2", "assets": 0, "income": 0, "revenue": 0}, {"ein": "510152361", "name": "UNITED CHURCH BOARD FOR PENSION ASSETS MANAGEMENT", "city": "NEW YORK", "state": "NY", "zip": "10001-3406", "ntee": "X20", "ruling": "200011", "deductibility": "1", "assets": 0, "income": 0, "revenue": 0}, {"ein": "522159658", "name": "CHURCH PENSION FUND", "city": "NEW YORK", "state": "NY", "zip": "10016-4304", "ntee": "X022", "ruling": "200304", "deductibility": "1", "assets": 0, "income": 0, "revenue": 0}, {"ein": "753089458", "name": "CHURCH PENSION GROUP SERVICES CORPORATION", "city": "NEW YORK", "state": "NY", "zip": "10016-4304", "ntee": "X112", "ruling": "200306", "deductibility": "1", "assets": 0, "income": 0, "revenue": 0}, {"ein": "821795001", "name": "POLISH PENSION HELP INC", "city": "BRONX", "state": "NY", "zip": "10463-1731", "ntee": "T99", "ruling": "201801", "deductibility": "1", "assets": 0, "income": 0, "revenue": 0}, {"ein": "832846758", "name": "PAVERS PENSION FUND HOLDING CORP", "city": "WHITESTONE", "state": "NY", "zip": "11357-3065", "ntee": "S47", "ruling": "201907", "deductibility": "2", "assets": 30273237, "income": 2968855, "revenue": 2968855}, {"ein": "862730214", "name": "CEMENT & CONCRETE WORKERS PENSION FUND HOLDING CORP", "city": "BAYSIDE", "state": "NY", "zip": "11361-2950", "ntee": "", "ruling": "202206", "deductibility": "0", "assets": 20665955, "income": 748092, "revenue": 748092}, {"ein": "871631229", "name": "DRYWALL PENSION BUILDING FUND", "city": "LONG IS CITY", "state": "NY", "zip": "11106-2327", "ntee": "S47", "ruling": "202206", "deductibility": "2", "assets": 5595433, "income": 146743, "revenue": 146743}, {"ein": "900421851", "name": "NIMO RETIREES PENSION CLUB", "city": "SYRACUSE", "state": "NY", "zip": "13219-2832", "ntee": "N50", "ruling": "201507", "deductibility": "2", "assets": 0, "income": 0, "revenue": 0}], "VERDADERO": [{"ein": "112760250", "name": "IGLESIA PENTECOSTAL JESUS EL CAMINO VERDADERO", "city": "BROOKLYN", "state": "NY", "zip": "11226-5010", "ntee": "X20Z", "ruling": "199703", "deductibility": "1", "assets": 0, "income": 0, "revenue": 0}], "EFRAIM": [{"ein": "112831693", "name": "KOLEL MATEH EFRAIM", "city": "BKLYN", "state": "NY", "zip": "11219-4505", "ntee": "", "ruling": "198612", "deductibility": "1", "assets": 0, "income": 0, "revenue": 0}, {"ein": "112922260", "name": "KOLLEL OLLELOS EFRAIM C/O SOFFER", "city": "BROOKLYN", "state": "NY", "zip": "11211-7536", "ntee": "", "ruling": "198808", "deductibility": "1", "assets": 0, "income": 0, "revenue": 0}, {"ein": "113015366", "name": "CHEVRAS TZIRIM YAD EFRAIM OSTROWCE OF BOYAN INC", "city": "BROOKLYN", "state": "NY", "zip": "11211-7923", "ntee": "", "ruling": "199006", "deductibility": "1", "assets": 0, "income": 0, "revenue": 0}, {"ein": "113360598", "name": "CONGREGATION ZICHRON EFRAIM", "city": "BROOKLYN", "state": "NY", "zip": "11219-3746", "ntee": "X30Z", "ruling": "199705", "deductibility": "1", "assets": 0, "income": 0, "revenue": 0}, {"ein": "113541284", "name": "CONGREGATION CHASDEI EFRAIM INC", "city": "BROOKLYN", "state": "NY", "zip": "11211-8142", "ntee": "X30", "ruling": "200006", "deductibility": "1", "assets": 0, "income": 0, "revenue": 0}, {"ein": "113565315", "name": "TIKVAS EFRAIM INC", "city": "BROOKLYN", "state": "NY", "zip": "11218-3503", "ntee": "P82", "ruling": "200101", "deductibility": "1", "assets": 0, "income": 0, "revenue": 0}, {"ein": "116535559", "name": "EFRAIM & JUDITH SCHWARTZ FOUNDATION", "city": "BROOKLYN", "state": "NY", "zip": "11210-3609", "ntee": "T22", "ruling": "200003", "deductibility": "1", "assets": 121918, "income": 75000, "revenue": 0}, {"ein": "133018840", "name": "CONGREGATION IKVEI YOSEF INC C/O EFRAIM LEMBERGER", "city": "BROOKLYN", "state": "NY", "zip": "11211-7607", "ntee": "", "ruling": "198004", "deductibility": "1", "assets": 0, "income": 0, "revenue": 0}, {"ein": "133981519", "name": "KEREN YISROEL EFRAIM FISHEL Z L CHARITABLE FOUNDATION", "city": "NEW YORK", "state": "NY", "zip": "10001-3317", "ntee": "T20Z", "ruling": "199805", "deductibility": "1", "assets": 1, "income": 1, "revenue": 0}, {"ein": "201242980", "name": "KOLLEL ZICHRON EFRAIM TZVI INC", "city": "BROOKLYN", "state": "NY", "zip": "11219-3895", "ntee": "X30", "ruling": "200510", "deductibility": "1", "assets": 0, "income": 0, "revenue": 0}, {"ein": "201944382", "name": "EFRAIM GRINBERG FAMILY FOUNDATION", "city": "NEW YORK", "state": "NY", "zip": "10023-4250", "ntee": "T22", "ruling": "200504", "deductibility": "1", "assets": 1301075, "income": 197104, "revenue": 0}, {"ein": "300158267", "name": "AMERICAN FRIENDS OF BIRKAT EFRAIM", "city": "FLUSHING", "state": "NY", "zip": "11367-1708", "ntee": "T30", "ruling": "200306", "deductibility": "1", "assets": 3026, "income": 477422, "revenue": 477422}, {"ein": "332834362", "name": "CONG EITZ EFRAIM SENDRA", "city": "BROOKLYN", "state": "NY", "zip": "11249-7911", "ntee": "X30", "ruling": "202507", "deductibility": "1", "assets": 0, "income": 0, "revenue": 0}, {"ein": "461430193", "name": "CONGREGATION BAIS EFRAIM I", "city": "MONSEY", "state": "NY", "zip": "10952-2692", "ntee": "X30", "ruling": "201307", "deductibility": "1", "assets": 0, "income": 0, "revenue": 0}, {"ein": "861939906", "name": "TOLDAS EFRAIM", "city": "BROOKLYN", "state": "NY", "zip": "11219-2610", "ntee": "X30", "ruling": "202108", "deductibility": "1", "assets": 0, "income": 0, "revenue": 0}], "WHITMAN": [{"ein": "112843920", "name": "WALT WHITMAN HOUSES TENANTS ASSOC INC", "city": "BROOKLYN", "state": "NY", "zip": "11205-2202", "ntee": "B60", "ruling": "201403", "deductibility": "1", "assets": 0, "income": 0, "revenue": 0}, {"ein": "208216371", "name": "MARCUS WHITMAN JUNIOR WILDCATS INC", "city": "RUSHVILLE", "state": "NY", "zip": "14544-0534", "ntee": "N600", "ruling": "200807", "deductibility": "2", "assets": 0, "income": 0, "revenue": 0}, {"ein": "311634598", "name": "WALT WHITMAN WILDCAT BAND PARENTS ASSOCIATION INC", "city": "HUNTINGTN STA", "state": "NY", "zip": "11746-3617", "ntee": "B11", "ruling": "199906", "deductibility": "1", "assets": 74302, "income": 81327, "revenue": 72391}, {"ein": "352455602", "name": "MARCUS WHITMAN ELEMENTARY PTO", "city": "RUSHVILLE", "state": "NY", "zip": "14544-9692", "ntee": "B94", "ruling": "202103", "deductibility": "1", "assets": 0, "income": 0, "revenue": 0}, {"ein": "510159009", "name": "WALT WHITMAN BIRTHPLACE ASSOCIATION", "city": "HUNTINGTN STA", "state": "NY", "zip": "11746-4148", "ntee": "", "ruling": "197510", "deductibility": "1", "assets": 278162, "income": 428867, "revenue": 426932}, {"ein": "821178652", "name": "WALT WHITMAN INITIATIVE INC", "city": "BROOKLYN", "state": "NY", "zip": "11201-3949", "ntee": "A20", "ruling": "202504", "deductibility": "1", "assets": 0, "income": 0, "revenue": 0}, {"ein": "995099334", "name": "WHITMAN FOUNDATION INC", "city": "WILTON", "state": "NY", "zip": "12831-2505", "ntee": "A12", "ruling": "202412", "deductibility": "1", "assets": 0, "income": 0, "revenue": 0}], "YAAKOW": [{"ein": "112938704", "name": "KEREN CHESED ASHER YAAKOW", "city": "BROOKLYN", "state": "NY", "zip": "11229-3505", "ntee": "", "ruling": "198910", "deductibility": "1", "assets": 240687, "income": 134565, "revenue": 134565}], "GROSSMAN": [{"ein": "112994863", "name": "GROSSMAN FAMILY FOUNDATION", "city": "BROOKLYN", "state": "NY", "zip": "11219-3949", "ntee": "", "ruling": "199005", "deductibility": "1", "assets": 2458277, "income": 200000, "revenue": 0}, {"ein": "116005067", "name": "DORIS & MORTIMER GROSSMAN FUND INC NEPONSIT", "city": "NEW ROCHELLE", "state": "NY", "zip": "10805-1123", "ntee": "", "ruling": "196205", "deductibility": "1", "assets": 36753, "income": 12957, "revenue": 0}, {"ein": "133800204", "name": "STANLEY AND NANCY GROSSMAN FAMILY FOUNDATION", "city": "NEW YORK", "state": "NY", "zip": "10016-0000", "ntee": "T60Z", "ruling": "199510", "deductibility": "1", "assets": 202218, "income": 160868, "revenue": 0}, {"ein": "205147463", "name": "GROSSMAN FAMILY PHILANTHROPIC FOUNDATION", "city": "ARMONK", "state": "NY", "zip": "10504-1352", "ntee": "T20", "ruling": "200608", "deductibility": "1", "assets": 12080925, "income": 4548534, "revenue": 0}, {"ein": "206937203", "name": "GROSSMAN FAMILY CHARITABLE TRUST", "city": "NEW YORK", "state": "NY", "zip": "10021-5252", "ntee": "T20", "ruling": "200708", "deductibility": "1", "assets": 266261, "income": 74097, "revenue": 0}, {"ein": "237077822", "name": "LOOMIS J GROSSMAN JR FOUNDATION INC", "city": "TARRYTOWN", "state": "NY", "zip": "10591-5535", "ntee": "", "ruling": "197012", "deductibility": "1", "assets": 57528, "income": 20180, "revenue": 0}, {"ein": "237093493", "name": "RICHARD A GROSSMAN FOUNDATION INC", "city": "TARRYTOWN", "state": "NY", "zip": "10591-5535", "ntee": "", "ruling": "197012", "deductibility": "1", "assets": 99742, "income": 33234, "revenue": 0}, {"ein": "464427899", "name": "ARON AND SHAINDY GROSSMAN FOUNDATION", "city": "MONSEY", "state": "NY", "zip": "10952-2629", "ntee": "T20", "ruling": "201502", "deductibility": "1", "assets": 619646, "income": 1700017, "revenue": 0}, {"ein": "874208723", "name": "S GROSSMAN FAMILY FOUNDATION INC", "city": "BROOKLYN", "state": "NY", "zip": "11219-5856", "ntee": "T20", "ruling": "202202", "deductibility": "1", "assets": 3304, "income": 13000, "revenue": 0}], "VIVA": [{"ein": "113079460", "name": "IGLESIA PENTECOSTAL LA PIEDRA VIVA", "city": "BROOKLYN", "state": "NY", "zip": "11220-3505", "ntee": "", "ruling": "196408", "deductibility": "1", "assets": 0, "income": 0, "revenue": 0}, {"ein": "113122656", "name": "SILVANA MAGDAS VIVA BRAZIL DANCE CO INC", "city": "NEW YORK", "state": "NY", "zip": "10185-0129", "ntee": "A62Z", "ruling": "199306", "deductibility": "1", "assets": 382, "income": 3917, "revenue": 937}, {"ein": "113319889", "name": "FUENTE VIVA ASAMBLEAS DE DIOS", "city": "BROOKLYN", "state": "NY", "zip": "11223-0074", "ntee": "", "ruling": "196408", "deductibility": "1", "assets": 0, "income": 0, "revenue": 0}, {"ein": "113512974", "name": "IGLESIA CHRISTIANA RIOS DE AGUA VIVA INC", "city": "HEMPSTEAD", "state": "NY", "zip": "11550-4526", "ntee": "", "ruling": "200501", "deductibility": "1", "assets": 0, "income": 0, "revenue": 0}, {"ein": "133677082", "name": "MUSICA VIVA INC", "city": "NEW YORK", "state": "NY", "zip": "10075-0440", "ntee": "P00Z", "ruling": "199210", "deductibility": "1", "assets": 143214, "income": 240642, "revenue": 235946}, {"ein": "133778629", "name": "IGLESIA RIOS DE AGUA VIVA INC", "city": "YONKERS", "state": "NY", "zip": "10701-3910", "ntee": "", "ruling": "199407", "deductibility": "1", "assets": 0, "income": 0, "revenue": 0}, {"ein": "133895635", "name": "VIVA VOCE CHAMBER ENSEMBLE INC", "city": "STATEN ISLAND", "state": "NY", "zip": "10301-2004", "ntee": "Z99", "ruling": "199611", "deductibility": "1", "assets": 0, "income": 0, "revenue": 0}, {"ein": "133918993", "name": "IGLESIA RIOS DE AGUA VIVA-LA SENDA ANTIGUA INC", "city": "NEW YORK", "state": "NY", "zip": "10040-0000", "ntee": "X20", "ruling": "200105", "deductibility": "1", "assets": 0, "income": 0, "revenue": 0}, {"ein": "204227522", "name": "IGLESIA DE DIOS PENTECOSTAL MIFUENTE DE AGUA VIVA", "city": "MOUNT VERNON", "state": "NY", "zip": "10550-2735", "ntee": "X20", "ruling": "200701", "deductibility": "1", "assets": 0, "income": 0, "revenue": 0}, {"ein": "275192401", "name": "UNA ESPERANZA VIVA PARA LAS NACIONES", "city": "PLEASANTVILLE", "state": "NY", "zip": "10570-3131", "ntee": "X20", "ruling": "201411", "deductibility": "1", "assets": 0, "income": 0, "revenue": 0}, {"ein": "352637848", "name": "VIVA BROOKLYN FESTIVAL", "city": "BROOKLYN", "state": "NY", "zip": "11201-3548", "ntee": "A6B", "ruling": "202308", "deductibility": "1", "assets": 0, "income": 0, "revenue": 0}, {"ein": "372066186", "name": "IGLESIA CRISTIANA RIOS DE AGUA VIVA INC", "city": "JAMAICA", "state": "NY", "zip": "11432-0000", "ntee": "X21", "ruling": "202310", "deductibility": "1", "assets": 0, "income": 0, "revenue": 0}, {"ein": "462164422", "name": "IGLESIA PENTECOSTAL RIOS DE AGUA VIVA", "city": "YONKERS", "state": "NY", "zip": "10705-3732", "ntee": "", "ruling": "196408", "deductibility": "2", "assets": 0, "income": 0, "revenue": 0}, {"ein": "462763608", "name": "TEMPLO DE LA FE VIVA INC", "city": "BRONX", "state": "NY", "zip": "10457-4248", "ntee": "X21", "ruling": "201309", "deductibility": "1", "assets": 0, "income": 0, "revenue": 0}, {"ein": "810696357", "name": "AGUA VIVA IGLESIA PENTECOSTAL - LIVING WATER PENTECOSTAL CHURCH IN", "city": "BRONX", "state": "NY", "zip": "10459-3207", "ntee": "X20", "ruling": "201604", "deductibility": "1", "assets": 0, "income": 0, "revenue": 0}, {"ein": "820694269", "name": "VIVA UPTOWN", "city": "NEW YORK", "state": "NY", "zip": "10033-1908", "ntee": "P20", "ruling": "201802", "deductibility": "1", "assets": 0, "income": 0, "revenue": 0}, {"ein": "823539982", "name": "VIVA LAGO ATITLAN", "city": "NEW YORK", "state": "NY", "zip": "10029-2105", "ntee": "C32", "ruling": "201801", "deductibility": "1", "assets": 0, "income": 0, "revenue": 0}, {"ein": "833496648", "name": "VIVA GLOBAL ACADEMY LTD", "city": "NEW YORK", "state": "NY", "zip": "10025-7041", "ntee": "E70", "ruling": "201905", "deductibility": "1", "assets": 0, "income": 0, "revenue": 0}, {"ein": "844961768", "name": "VIVA HUMAN INC", "city": "BROOKLYN", "state": "NY", "zip": "11226-1480", "ntee": "A20", "ruling": "202004", "deductibility": "1", "assets": 0, "income": 0, "revenue": 0}, {"ein": "862835413", "name": "IGLESIA EVANGELICA BAUTISTA KICHWA PIEDRA VIVA", "city": "BRONX", "state": "NY", "zip": "10459-2306", "ntee": "X99", "ruling": "202403", "deductibility": "1", "assets": 0, "income": 0, "revenue": 0}, {"ein": "921362246", "name": "JESUS PALABRA VIVA INC", "city": "BRENTWOOD", "state": "NY", "zip": "11717-1032", "ntee": "X20", "ruling": "202307", "deductibility": "1", "assets": 0, "income": 0, "revenue": 0}], "SHEVES": [{"ein": "113085696", "name": "CONG SHEVES ACHIM", "city": "BROOKLYN", "state": "NY", "zip": "11210-3714", "ntee": "", "ruling": "199201", "deductibility": "1", "assets": 0, "income": 0, "revenue": 0}, {"ein": "452830130", "name": "SHEVES ACHIM CHARITABLE FOUNDATION INC", "city": "BROOKLYN", "state": "NY", "zip": "11229-2807", "ntee": "T50", "ruling": "201512", "deductibility": "1", "assets": 0, "income": 0, "revenue": 0}], "JOURNEYMEN": [{"ein": "113108169", "name": "UNITED ASSOCIATION OF JOURNEYMEN & APPRENTICES OF THE PLUMBING & PIPE", "city": "RONKONKOMA", "state": "NY", "zip": "11779-6908", "ntee": "", "ruling": "000000", "deductibility": "0", "assets": 4144553, "income": 3319255, "revenue": 3319255}, {"ein": "131739740", "name": "UNITED ASSOCIATION OF JOURNEYMEN & APPRENTICES OF THE PLUMBING & PIPE", "city": "MOUNTAINVILLE", "state": "NY", "zip": "10953-0000", "ntee": "J40Z", "ruling": "194101", "deductibility": "2", "assets": 4661077, "income": 1859023, "revenue": 1848205}, {"ein": "131935212", "name": "JOURNEYMEN & APPRENTICESHIP TRAINING & EDUCATIONAL FUND", "city": "MOUNTAINVILLE", "state": "NY", "zip": "10953-0000", "ntee": "", "ruling": "197110", "deductibility": "2", "assets": 241362, "income": 387710, "revenue": 387710}, {"ein": "133964242", "name": "UNITED ASSOCIATION OF JOURNEYMEN & APPRENTICES OF THE PLUMBING & PIPE", "city": "PEEKSKILL", "state": "NY", "zip": "10566-5604", "ntee": "", "ruling": "194101", "deductibility": "2", "assets": 8113702, "income": 3801781, "revenue": 3801781}, {"ein": "140771975", "name": "UNITED ASSOCIATION OF JOURNEYMEN & APPRENTICES OF THE PLUMBING & PIPE", "city": "LATHAM", "state": "NY", "zip": "12110-2605", "ntee": "", "ruling": "194101", "deductibility": "2", "assets": 5828923, "income": 3836138, "revenue": 3722292}, {"ein": "141056009", "name": "UNITED ASSOC OF JOURNEYMEN AND APPRENTICES OF PLUMBING & PIPEFIT", "city": "GLENS FALLS", "state": "NY", "zip": "12801-0312", "ntee": "", "ruling": "194101", "deductibility": "2", "assets": 20350000, "income": 6316405, "revenue": 3240330}, {"ein": "146029960", "name": "UNITED ASSOCIATION OF JOURNEYMEN & APPRENTICES OF THE PLUMBING & PIPE", "city": "SCHENECTADY", "state": "NY", "zip": "12306-6102", "ntee": "", "ruling": "194101", "deductibility": "2", "assets": 91137, "income": 58489, "revenue": 58489}, {"ein": "150417845", "name": "UNITED ASSOCIATION OF JOURNEYMEN & APPRENTICES OF THE PLUMBING & PIPE", "city": "BINGHAMTON", "state": "NY", "zip": "13904-1511", "ntee": "", "ruling": "194101", "deductibility": "2", "assets": 2586778, "income": 1781131, "revenue": 1781131}, {"ein": "160669780", "name": "UNITED ASSOCIATION OF JOURNEYMEN & APPRENTICES OF THE PLUMBING & PIPE", "city": "ROCHESTER", "state": "NY", "zip": "14615-3703", "ntee": "J40", "ruling": "194101", "deductibility": "2", "assets": 3567107, "income": 2673963, "revenue": 2673963}, {"ein": "161541485", "name": "UNITED ASSOCIATION OF JOURNEYMEN & APPRENTICES OF THE PLUMBING & PIPE", "city": "WEST SENECA", "state": "NY", "zip": "14224-1324", "ntee": "", "ruling": "194101", "deductibility": "2", "assets": 4865372, "income": 2948361, "revenue": 2948361}, {"ein": "166053604", "name": "UNITED ASSOCIATION OF JOURNEYMEN & APPRENTICES OF THE PLUMBING & PIPE", "city": "GLENS FALLS", "state": "NY", "zip": "12801-0312", "ntee": "", "ruling": "194101", "deductibility": "2", "assets": 2079290, "income": 1988153, "revenue": 1923738}, {"ein": "651217025", "name": "JOURNEYMEN WRESTLING CLUB LTD", "city": "CLIFTON PARK", "state": "NY", "zip": "12065-1516", "ntee": "N60", "ruling": "200409", "deductibility": "1", "assets": 72467, "income": 550470, "revenue": 533223}], "HUMANITARIANS": [{"ein": "113119342", "name": "HUMANITARIANS OF THE WORLD INC", "city": "ELMHURST", "state": "NY", "zip": "11373-1845", "ntee": "", "ruling": "199210", "deductibility": "1", "assets": 22382, "income": 32150, "revenue": 32150}], "EATONS": [{"ein": "113125660", "name": "EATONS NECK YOUTH CLUB INC", "city": "E NORTHPORT", "state": "NY", "zip": "11731-0221", "ntee": "N99Z", "ruling": "199301", "deductibility": "1", "assets": 14970, "income": 199613, "revenue": 199613}], "AWB": [{"ein": "113134198", "name": "AWB FOOD BANK INC", "city": "ALBERTSON", "state": "NY", "zip": "11507-1138", "ntee": "T99", "ruling": "201407", "deductibility": "1", "assets": 0, "income": 0, "revenue": 0}], "IRA": [{"ein": "113189660", "name": "IRA WALTER MEMORIAL FUND", "city": "SEAFORD", "state": "NY", "zip": "11783-2651", "ntee": "B122", "ruling": "199403", "deductibility": "1", "assets": 0, "income": 0, "revenue": 0}, {"ein": "133775995", "name": "IRA M RESNICK FOUNDATION INC", "city": "NEW YORK", "state": "NY", "zip": "10022-1140", "ntee": "T60Z", "ruling": "199505", "deductibility": "1", "assets": 1206064, "income": 1106610, "revenue": 0}, {"ein": "134092955", "name": "BETH AND IRA LEVENTHAL FOUNDATION", "city": "PURCHASE", "state": "NY", "zip": "10577-0000", "ntee": "T20", "ruling": "200012", "deductibility": "1", "assets": 11630605, "income": 19570226, "revenue": 0}, {"ein": "134195292", "name": "IRA ZASLOW FOUNDATION INC", "city": "NEW YORK", "state": "NY", "zip": "10018-3614", "ntee": "B82", "ruling": "201406", "deductibility": "1", "assets": 0, "income": 0, "revenue": 0}, {"ein": "136051637", "name": "LILLIAN & IRA N LANGSAN FOUNDATION INC", "city": "NEW YORK", "state": "NY", "zip": "10170-0000", "ntee": "T23", "ruling": "202401", "deductibility": "1", "assets": 1462577, "income": 555681, "revenue": 0}, {"ein": "136053366", "name": "IRA M COBE TRUST UW 117342", "city": "NEW YORK", "state": "NY", "zip": "10013-2362", "ntee": "", "ruling": "000000", "deductibility": "2", "assets": 3622234, "income": 1077125, "revenue": 0}, {"ein": "160835446", "name": "IRA DAVENPORT MEMORIAL HOSPITAL INC", "city": "BATH", "state": "NY", "zip": "14810-9504", "ntee": "E220", "ruling": "195902", "deductibility": "1", "assets": 15779394, "income": 22714037, "revenue": 22357523}, {"ein": "161496729", "name": "CATO IRA MERIDIAN VICTORY AMBULANCE CORPS INC", "city": "CATO", "state": "NY", "zip": "13033-3171", "ntee": "E32", "ruling": "199802", "deductibility": "1", "assets": 546858, "income": 318622, "revenue": 318622}, {"ein": "161571436", "name": "CATO IRA MERIDIAN AREA RECREATIONAL FACILITY INC", "city": "CATO", "state": "NY", "zip": "13033-0261", "ntee": "N31", "ruling": "200805", "deductibility": "1", "assets": 0, "income": 0, "revenue": 0}, {"ein": "161700550", "name": "IGL PENTECOSTAL AD IRA JUAN 4 7", "city": "BROOKLYN", "state": "NY", "zip": "11226-2777", "ntee": "X20", "ruling": "196408", "deductibility": "1", "assets": 0, "income": 0, "revenue": 0}, {"ein": "166014614", "name": "IRA M OLSAN PERP CHARITABLE TR UW", "city": "AMHERST", "state": "NY", "zip": "14228-2307", "ntee": "", "ruling": "197012", "deductibility": "0", "assets": 217800, "income": 13004, "revenue": 0}, {"ein": "166185002", "name": "TRUST UWO MURRAY WALKER PAR 4 FBO IRA DAVENPORT HOSPITAL", "city": "PITTSFORD", "state": "NY", "zip": "14534-3838", "ntee": "T22", "ruling": "200909", "deductibility": "1", "assets": 141200, "income": 16554, "revenue": 0}, {"ein": "204694054", "name": "IRA SOHN CONFERENCE FOUNDATION INC", "city": "NEW YORK", "state": "NY", "zip": "10028-4305", "ntee": "H12", "ruling": "200606", "deductibility": "1", "assets": 578068, "income": 906755, "revenue": 769065}, {"ein": "462825518", "name": "IRA SCHNEIDER MEMORIAL CANCER FOUNDATION INC", "city": "MERRICK", "state": "NY", "zip": "11566-4607", "ntee": "E99", "ruling": "201408", "deductibility": "1", "assets": 615842, "income": 23497, "revenue": 23497}, {"ein": "473405312", "name": "IRA AND EDGRA RINGLER FAMILY FOUNDATION INC", "city": "NEW YORK", "state": "NY", "zip": "10021-5510", "ntee": "T22", "ruling": "201509", "deductibility": "1", "assets": 2067898, "income": 2158382, "revenue": 0}, {"ein": "836593633", "name": "JODY AND IRA SCHWARTZ CHARITABLE TR", "city": "NEW YORK", "state": "NY", "zip": "10018-0000", "ntee": "", "ruling": "202208", "deductibility": "1", "assets": 1074022, "income": 767246, "revenue": 0}], "GIMEL": [{"ein": "113271056", "name": "CONG & YESHIVA GIMEL DALED INC", "city": "BROOKLYN", "state": "NY", "zip": "11210-3714", "ntee": "X30Z", "ruling": "199507", "deductibility": "1", "assets": 0, "income": 0, "revenue": 0}], "CBS": [{"ein": "113322845", "name": "IGLESIA BAUTISTA FARO DE LUZ CBS INC", "city": "JAMAICA", "state": "NY", "zip": "11435-3613", "ntee": "X99", "ruling": "202501", "deductibility": "1", "assets": 0, "income": 0, "revenue": 0}, {"ein": "136099759", "name": "CBS FOUNDATION INC", "city": "NEW YORK", "state": "NY", "zip": "10036-0000", "ntee": "", "ruling": "195505", "deductibility": "1", "assets": 1, "income": 1, "revenue": 0}, {"ein": "832234699", "name": "CBS FUND INC", "city": "WOODMERE", "state": "NY", "zip": "11598-1607", "ntee": "T30", "ruling": "202201", "deductibility": "1", "assets": 287808, "income": 95846, "revenue": 95846}], "SHABAZI": [{"ein": "113334780", "name": "BETH SHALOM SHABAZI", "city": "BROOKLYN", "state": "NY", "zip": "11219-2015", "ntee": "X30Z", "ruling": "199711", "deductibility": "1", "assets": 0, "income": 0, "revenue": 0}, {"ein": "133762751", "name": "CONGREGATION ABU SHOLEM SHABAZI INC", "city": "SPRING VALLEY", "state": "NY", "zip": "10977-3813", "ntee": "K12", "ruling": "201505", "deductibility": "1", "assets": 0, "income": 4336, "revenue": 4336}], "TORTOLANI": [{"ein": "113350489", "name": "BETH C TORTOLANI FOUNDATION LTD", "city": "EAST ROCKAWAY", "state": "NY", "zip": "11518-0000", "ntee": "G30", "ruling": "200301", "deductibility": "1", "assets": 1002, "income": 8859, "revenue": 8859}], "YORUBA": [{"ein": "113363525", "name": "YORUBA-ORISHA BAPTIST CHURCH INC", "city": "BROOKLYN", "state": "NY", "zip": "11210-2549", "ntee": "X20Z", "ruling": "199804", "deductibility": "1", "assets": 0, "income": 0, "revenue": 0}, {"ein": "133670236", "name": "YORUBA CULTURAL CENTER OF NEW YORK INC", "city": "NEW YORK", "state": "NY", "zip": "10032-6401", "ntee": "A99", "ruling": "202506", "deductibility": "1", "assets": 0, "income": 0, "revenue": 0}, {"ein": "134103638", "name": "EGBE OMO YORUBA NEW YORK CHAPTER INC", "city": "STATEN ISLAND", "state": "NY", "zip": "10301-2708", "ntee": "A23", "ruling": "202008", "deductibility": "1", "assets": 0, "income": 0, "revenue": 0}, {"ein": "264408697", "name": "YORUBA HOUSE OF WORSHIP INC", "city": "BROOKLYN", "state": "NY", "zip": "11216-6138", "ntee": "X99", "ruling": "201010", "deductibility": "1", "assets": 0, "income": 0, "revenue": 0}, {"ein": "300114541", "name": "THE IJO ORISHA YORUBA CHURCH", "city": "BROOKLYN", "state": "NY", "zip": "11238-0498", "ntee": "X21", "ruling": "200301", "deductibility": "1", "assets": 0, "income": 0, "revenue": 0}, {"ein": "320146096", "name": "EGBE OMO YORUBA GREATER NEW YORK CHAPTER INC", "city": "ELMONT", "state": "NY", "zip": "11003-7038", "ntee": "A01", "ruling": "202410", "deductibility": "1", "assets": 0, "income": 0, "revenue": 0}, {"ein": "452710036", "name": "YORUBA SPIRITUAL INSTITUTE INC", "city": "BROOKLYN", "state": "NY", "zip": "11238-1202", "ntee": "X99", "ruling": "201109", "deductibility": "1", "assets": 0, "income": 0, "revenue": 0}, {"ein": "463780398", "name": "ILE OSA KANRAN YORUBA CULTURAL AND SPIRITUAL TEMPLE INC", "city": "BROOKLYN", "state": "NY", "zip": "11216-1315", "ntee": "B90", "ruling": "201407", "deductibility": "1", "assets": 0, "income": 0, "revenue": 0}, {"ein": "920551952", "name": "ISOKAN OMO YORUBA INC", "city": "BROOKLYN", "state": "NY", "zip": "11233-2711", "ntee": "A20", "ruling": "202309", "deductibility": "1", "assets": 0, "income": 0, "revenue": 0}], "BAYBERRY": [{"ein": "113378915", "name": "BAYBERRY FOUNDATION INC", "city": "LAWRENCE", "state": "NY", "zip": "11559-2724", "ntee": "T20Z", "ruling": "199710", "deductibility": "1", "assets": 615634, "income": 59703, "revenue": 0}, {"ein": "116015133", "name": "BAYBERRY COVE ASSOC INC", "city": "SETAUKET", "state": "NY", "zip": "11733-3212", "ntee": "", "ruling": "196212", "deductibility": "2", "assets": 0, "income": 0, "revenue": 0}, {"ein": "133060084", "name": "BAYBERRY ASSN OF NEW ROCHELLE INC", "city": "LARCHMONT", "state": "NY", "zip": "10538-2437", "ntee": "", "ruling": "195608", "deductibility": "2", "assets": 303091, "income": 516587, "revenue": 516587}, {"ein": "237201133", "name": "BAYBERRY COMMUNITY ASSOCIATION INC", "city": "LIVERPOOL", "state": "NY", "zip": "13089-2184", "ntee": "", "ruling": "197404", "deductibility": "2", "assets": 0, "income": 0, "revenue": 0}], "CORRINNE": [{"ein": "113440361", "name": "JOHN L AND CORRINNE ALPERT FOUNDATION", "city": "NEW YORK", "state": "NY", "zip": "10012-2742", "ntee": "T90Z", "ruling": "199807", "deductibility": "1", "assets": 66480, "income": 10270, "revenue": 0}], "GEREJA": [{"ein": "113502156", "name": "GEREJA PRESBYTERIAN INDONESIA INC", "city": "ALBANY", "state": "NY", "zip": "12208-3120", "ntee": "X21", "ruling": "200002", "deductibility": "1", "assets": 319015, "income": 81733, "revenue": 81733}], "ACOMPORA": [{"ein": "113539342", "name": "LOUIS J ACOMPORA MEMORIAL FOUNDATION", "city": "NORTHPORT", "state": "NY", "zip": "11768-0767", "ntee": "M40", "ruling": "200204", "deductibility": "1", "assets": 980058, "income": 206664, "revenue": 88775}], "LEASE": [{"ein": "113600098", "name": "ONE YEAR LEASE INC", "city": "BROOKLYN", "state": "NY", "zip": "11217-1695", "ntee": "A60", "ruling": "200203", "deductibility": "1", "assets": 3311, "income": 324664, "revenue": 324664}, {"ein": "273902049", "name": "NEW LEASE ON LIFE", "city": "LONG IS CITY", "state": "NY", "zip": "11101-0464", "ntee": "B01", "ruling": "202008", "deductibility": "1", "assets": 0, "income": 0, "revenue": 0}], "BAYKEEPER": [{"ein": "113617329", "name": "PECONIC BAYKEEPER INC", "city": "HAMPTON BAYS", "state": "NY", "zip": "11946-0801", "ntee": "C32", "ruling": "200108", "deductibility": "1", "assets": 642255, "income": 357066, "revenue": 327883}], "ARTICLE": [{"ein": "116554869", "name": "SMITHTOWN COMMUNTY TR UNDER CE ROCKWELL TR UA 110599 ARTICLE 4", "city": "BUFFALO", "state": "NY", "zip": "14240-1504", "ntee": "T22", "ruling": "201812", "deductibility": "1", "assets": 188957, "income": 24733, "revenue": 0}, {"ein": "156014371", "name": "ERNEST I WHITE TRUST UNDER ARTICLE SECOND UA  FBO", "city": "BUFFALO", "state": "NY", "zip": "14240-1504", "ntee": "", "ruling": "196003", "deductibility": "1", "assets": 258683, "income": 63677, "revenue": 63677}, {"ein": "883018840", "name": "ARTICLE 19 PRODUCTIONS", "city": "NIAGARA FALLS", "state": "NY", "zip": "14304-4552", "ntee": "A60", "ruling": "202208", "deductibility": "1", "assets": 0, "income": 0, "revenue": 0}], "TZUI": [{"ein": "119623333", "name": "ATERES TZUI D KHAL BEREKSAZ CONG INC", "city": "BROOKLYN", "state": "NY", "zip": "11211-7705", "ntee": "", "ruling": "197610", "deductibility": "1", "assets": 0, "income": 0, "revenue": 0}], "SRROGTS": [{"ein": "132850187", "name": "WELFARE FUND OF THE ASSOCIATION OF SRROGTS&SPRME CRT REPRTRS W/IN NYC", "city": "NEW YORK", "state": "NY", "zip": "10007-1402", "ntee": "", "ruling": "197701", "deductibility": "2", "assets": 3534087, "income": 1029115, "revenue": 803247}], "TOLENTINE": [{"ein": "133131888", "name": "TOLENTINE ZEISER COMMUNITY LIFE CENTER INC", "city": "BRONX", "state": "NY", "zip": "10468-6102", "ntee": "P28Z", "ruling": "198501", "deductibility": "1", "assets": 3627983, "income": 7366914, "revenue": 7366914}], "COMMONWEAL": [{"ein": "133174407", "name": "COMMONWEAL FOUNDATION", "city": "NEW YORK", "state": "NY", "zip": "10115-0013", "ntee": "", "ruling": "198309", "deductibility": "1", "assets": 3266753, "income": 3008953, "revenue": 2312170}], "THEATRETWEED": [{"ein": "133204608", "name": "THEATRETWEED INC", "city": "NEW YORK", "state": "NY", "zip": "10009-7455", "ntee": "A650", "ruling": "198405", "deductibility": "1", "assets": 47566, "income": 35752, "revenue": 35752}], "GREENBURGER": [{"ein": "133406046", "name": "FRANCIS J GREENBURGER FOUNDATION INC", "city": "NEW YORK", "state": "NY", "zip": "10003-0000", "ntee": "A40", "ruling": "200106", "deductibility": "1", "assets": 12946755, "income": 1998342, "revenue": 0}, {"ein": "133641609", "name": "ALEXANDER JEROME WILLOWS GREENBURGER MEMORIAL FIELDS INC", "city": "NEW YORK", "state": "NY", "zip": "10003-0000", "ntee": "", "ruling": "199302", "deductibility": "1", "assets": 58609, "income": 1, "revenue": 0}, {"ein": "464188973", "name": "GREENBURGER CENTER FOR SOCIAL AND CRIMINAL JUSTICE", "city": "NEW YORK", "state": "NY", "zip": "10003-4301", "ntee": "I40", "ruling": "201409", "deductibility": "1", "assets": 14181710, "income": 3844734, "revenue": 3844734}, {"ein": "933130093", "name": "GREENBURGER CENTER INC", "city": "NEW YORK", "state": "NY", "zip": "10003-4301", "ntee": "P20", "ruling": "202405", "deductibility": "1", "assets": 0, "income": 0, "revenue": 0}], "WESTBROOK": [{"ein": "133412917", "name": "PETER WESTBROOK FOUNDATION INC", "city": "NEW YORK", "state": "NY", "zip": "10116-0000", "ntee": "", "ruling": "198707", "deductibility": "1", "assets": 14857537, "income": 559067, "revenue": 559067}], "HOLLAND": [{"ein": "133712838", "name": "HOLLAND HOTEL HOUSING DEVELOPMENT FUND CORPORATION", "city": "NEW YORK", "state": "NY", "zip": "10014-4810", "ntee": "L20Z", "ruling": "199310", "deductibility": "1", "assets": 0, "income": 0, "revenue": 0}, {"ein": "135145420", "name": "HOLLAND SOCIETY OF NEW YORK", "city": "NEW YORK", "state": "NY", "zip": "10024-3411", "ntee": "A83Z", "ruling": "194909", "deductibility": "1", "assets": 6349749, "income": 1800723, "revenue": 255282}, {"ein": "136126132", "name": "HOLLAND LODGE FOUNDATION INC", "city": "NEW YORK", "state": "NY", "zip": "10128-0752", "ntee": "", "ruling": "193401", "deductibility": "1", "assets": 1886883, "income": 674240, "revenue": 0}, {"ein": "136163969", "name": "SOCIETY OF DAUGHTERS OF HOLLAND DAMES", "city": "NEW YORK", "state": "NY", "zip": "10023-4250", "ntee": "", "ruling": "194211", "deductibility": "1", "assets": 926728, "income": 106714, "revenue": 0}, {"ein": "156022689", "name": "HOLLAND PATENT FREE LIBRARY ASSOCIATION", "city": "HOLLAND PATNT", "state": "NY", "zip": "13354-0187", "ntee": "", "ruling": "195302", "deductibility": "1", "assets": 507530, "income": 152517, "revenue": 131935}, {"ein": "160868727", "name": "HOLLAND PURCHASE HISTORIC SOCIETY", "city": "BATAVIA", "state": "NY", "zip": "14020-2021", "ntee": "", "ruling": "194303", "deductibility": "1", "assets": 550766, "income": 97041, "revenue": 88683}, {"ein": "161255612", "name": "HOLLAND PARENT TEACHER ORGANIZATION", "city": "HOLLAND", "state": "NY", "zip": "14080-9806", "ntee": "", "ruling": "198806", "deductibility": "1", "assets": 0, "income": 0, "revenue": 0}, {"ein": "223214997", "name": "HOLLAND YOUTH BASEBALL INC", "city": "HOLLAND", "state": "NY", "zip": "14080-9554", "ntee": "N63Z", "ruling": "199710", "deductibility": "1", "assets": 0, "income": 0, "revenue": 0}, {"ein": "237129495", "name": "BOYS AND GIRLS CLUB OF HOLLAND INC", "city": "HOLLAND", "state": "NY", "zip": "14080-9729", "ntee": "O23Z", "ruling": "197109", "deductibility": "1", "assets": 1201455, "income": 621106, "revenue": 590752}, {"ein": "261996351", "name": "HOLLAND FIRE DEPARTMENT", "city": "HOLLAND", "state": "NY", "zip": "14080-9509", "ntee": "M24", "ruling": "202306", "deductibility": "1", "assets": 0, "income": 0, "revenue": 0}, {"ein": "450538268", "name": "HOLLAND COMMUNITY CHOIR", "city": "STRYKERSVILLE", "state": "NY", "zip": "14145-9402", "ntee": "A6B", "ruling": "201302", "deductibility": "1", "assets": 0, "income": 0, "revenue": 0}, {"ein": "471228612", "name": "HOLLAND YOUTH SPORTS INC", "city": "HOLLAND", "state": "NY", "zip": "14080-0131", "ntee": "N60", "ruling": "201412", "deductibility": "1", "assets": 0, "income": 0, "revenue": 0}, {"ein": "821454494", "name": "KIWANIS OF HOLLAND FOUNDATION INC", "city": "HOLLAND", "state": "NY", "zip": "14080-0297", "ntee": "A12", "ruling": "202109", "deductibility": "1", "assets": 26033, "income": 100573, "revenue": 62369}, {"ein": "841816607", "name": "HOLLAND FUNHAB INC", "city": "TARRYTOWN", "state": "NY", "zip": "10591-6521", "ntee": "P82", "ruling": "202203", "deductibility": "1", "assets": 0, "income": 0, "revenue": 0}, {"ein": "861914991", "name": "HOLLAND HISTORICAL SOCIETY", "city": "HOLLAND", "state": "NY", "zip": "14080-0095", "ntee": "A80", "ruling": "202105", "deductibility": "1", "assets": 0, "income": 0, "revenue": 0}, {"ein": "900439660", "name": "HOLLAND LODGE HISTORICAL SOCIETY", "city": "NEW YORK", "state": "NY", "zip": "10010-3510", "ntee": "A80", "ruling": "201212", "deductibility": "1", "assets": 489663, "income": 129684, "revenue": 129684}, {"ein": "933625439", "name": "HOLLAND ATHLETICS BOOSTERS INC", "city": "HOLLAND", "state": "NY", "zip": "14080-0175", "ntee": "N12", "ruling": "202312", "deductibility": "1", "assets": 0, "income": 0, "revenue": 0}], "SHAANAN": [{"ein": "133798548", "name": "NEVE SHAANAN FUND", "city": "NEW YORK", "state": "NY", "zip": "10017-0000", "ntee": "T99J", "ruling": "199506", "deductibility": "1", "assets": 6732, "income": 23500, "revenue": 0}], "GUTMAN": [{"ein": "133798838", "name": "GUTMAN FAMILY FOUNDATION INC", "city": "NEW YORK", "state": "NY", "zip": "10021-0104", "ntee": "J99Z", "ruling": "199601", "deductibility": "1", "assets": 657582, "income": 10638, "revenue": 0}, {"ein": "136094013", "name": "EDNA & MONROE C GUTMAN FOUNDATION INC", "city": "NEW YORK", "state": "NY", "zip": "10022-6131", "ntee": "", "ruling": "194810", "deductibility": "1", "assets": 3241056, "income": 302523, "revenue": 0}], "VIVIR": [{"ein": "133908796", "name": "SOBRE VIVIR INC", "city": "COLD SPRING", "state": "NY", "zip": "10516-4364", "ntee": "E99", "ruling": "199701", "deductibility": "1", "assets": 0, "income": 0, "revenue": 0}, {"ein": "921102741", "name": "ECO BUEN VIVIR NY INC", "city": "BRONX", "state": "NY", "zip": "10462-4833", "ntee": "C30", "ruling": "202301", "deductibility": "1", "assets": 1, "income": 2500, "revenue": 2500}], "DOLORES": [{"ein": "133960677", "name": "DOLORES AND THEODORE EHRENREICH FOUNDATION INC", "city": "MELVILLE", "state": "NY", "zip": "11747-0000", "ntee": "T20J", "ruling": "199711", "deductibility": "1", "assets": 1268420, "income": 632035, "revenue": 0}, {"ein": "270839152", "name": "JEROME AND DOLORES ZUCKERMAN GEWIRTZ CHARITABLE TRUST", "city": "BROOKLYN", "state": "NY", "zip": "11217-3606", "ntee": "T22", "ruling": "201106", "deductibility": "1", "assets": 796083, "income": 105404, "revenue": 0}, {"ein": "826697499", "name": "DOLORES M FINLEY CHARITABLE FOUNDATION TR AGREEMENT", "city": "LAGRANGEVILLE", "state": "NY", "zip": "12540-5989", "ntee": "T22", "ruling": "201806", "deductibility": "1", "assets": 1843018, "income": 1463149, "revenue": 0}], "TRENDS": [{"ein": "133963325", "name": "INSTITUTE FOR THE STUDY OF LONG-TERM ECONOMIC TRENDS", "city": "FOREST HILLS", "state": "NY", "zip": "11375-6109", "ntee": "A33E", "ruling": "199712", "deductibility": "1", "assets": 50682, "income": 112447, "revenue": 0}, {"ein": "141906515", "name": "SOCIAL TRENDS INSTITUTE INC", "city": "NEW YORK", "state": "NY", "zip": "10019-0000", "ntee": "V03", "ruling": "200510", "deductibility": "1", "assets": 10667498, "income": 228775, "revenue": 228775}], "TEISLER": [{"ein": "133978114", "name": "VIVAVEGIE SOCIETY INC PAMELA TEISLER RICE", "city": "NEW YORK", "state": "NY", "zip": "10012-5718", "ntee": "Z99", "ruling": "201406", "deductibility": "1", "assets": 0, "income": 0, "revenue": 0}], "SILLCOX": [{"ein": "134088705", "name": "TORTORA SILLCOX FAMILY FOUNDATION", "city": "GLEN SPEY", "state": "NY", "zip": "12737-0000", "ntee": "B82", "ruling": "200012", "deductibility": "1", "assets": 12855970, "income": 7978909, "revenue": 0}], "PREE": [{"ein": "134092953", "name": "PREE TZADIK", "city": "MONSEY", "state": "NY", "zip": "10977-3806", "ntee": "X30", "ruling": "200003", "deductibility": "1", "assets": 0, "income": 0, "revenue": 0}], "TOLNA": [{"ein": "134156580", "name": "CONGREGATION TRISK TOLNA INC", "city": "MONSEY", "state": "NY", "zip": "10952-1309", "ntee": "X30", "ruling": "200106", "deductibility": "1", "assets": 0, "income": 0, "revenue": 0}], "ROUMANIAN": [{"ein": "135602323", "name": "FIRST ROUMANIAN AMERICAN CONGREGATION", "city": "NEW YORK", "state": "NY", "zip": "10002-5602", "ntee": "", "ruling": "193912", "deductibility": "1", "assets": 0, "income": 0, "revenue": 0}], "INISFAD": [{"ein": "136157475", "name": "INISFAD FOUNDATION INC", "city": "NEW YORK", "state": "NY", "zip": "10018-3496", "ntee": "", "ruling": "194206", "deductibility": "1", "assets": 657751, "income": 201422, "revenue": 0}], "SWIECA": [{"ein": "137437179", "name": "SWIECA FAMILY FOUNDATION", "city": "NEW YORK", "state": "NY", "zip": "10022-2876", "ntee": "T20", "ruling": "200705", "deductibility": "1", "assets": 66351435, "income": 9135248, "revenue": 0}, {"ein": "464310665", "name": "SWIECA CHILDREN FOUNDATION", "city": "NEW YORK", "state": "NY", "zip": "10022-2876", "ntee": "T30", "ruling": "201409", "deductibility": "1", "assets": 70989840, "income": 9429330, "revenue": 0}], "EDMUNDS": [{"ein": "141480263", "name": "ST BERNARDS AND ST EDMUNDS PARISH", "city": "ELLENBURG CTR", "state": "NY", "zip": "12934-2904", "ntee": "", "ruling": "194603", "deductibility": "1", "assets": 0, "income": 0, "revenue": 0}, {"ein": "166052924", "name": "WILLIAM C EDMUNDS FIRE COMPANY", "city": "EAST OTTO", "state": "NY", "zip": "14729-9700", "ntee": "M99", "ruling": "201405", "deductibility": "1", "assets": 426214, "income": 89535, "revenue": 66015}], "DP": [{"ein": "141793742", "name": "TR UW DP CORBIN ART 6 BO WILDLIFE", "city": "ALBANY", "state": "NY", "zip": "12205-5941", "ntee": "", "ruling": "199612", "deductibility": "1", "assets": 555276, "income": 77834, "revenue": 0}, {"ein": "921428958", "name": "DP FAMILY FOUNDATION INC", "city": "BROOKLYN", "state": "NY", "zip": "11219-4117", "ntee": "T20", "ruling": "202308", "deductibility": "1", "assets": 808654, "income": 446751, "revenue": 0}], "CARILLON": [{"ein": "141804989", "name": "FRIENDS OF ALBANY CITY CARILLON", "city": "ALBANY", "state": "NY", "zip": "12207-1907", "ntee": "A68", "ruling": "199911", "deductibility": "1", "assets": 0, "income": 0, "revenue": 0}, {"ein": "300213539", "name": "TOWER OF MEMORIES CARILLON FUND INC", "city": "VESTAL", "state": "NY", "zip": "13850-2309", "ntee": "C99", "ruling": "200409", "deductibility": "1", "assets": 0, "income": 0, "revenue": 0}, {"ein": "832370368", "name": "CARILLON GARDEN CLUB INC", "city": "TICONDEROGA", "state": "NY", "zip": "12883-2412", "ntee": "C42", "ruling": "201811", "deductibility": "1", "assets": 0, "income": 0, "revenue": 0}], "CRUISERS": [{"ein": "141813001", "name": "CHAMPLAIN VALLEY CLASSIC CRUISERS INC", "city": "PLATTSBURGH", "state": "NY", "zip": "12901-0270", "ntee": "Z99", "ruling": "201005", "deductibility": "2", "assets": 0, "income": 0, "revenue": 0}, {"ein": "161424519", "name": "ELLERY SNO-CRUISERS INC", "city": "BEMUS POINT", "state": "NY", "zip": "14712-0089", "ntee": "N32", "ruling": "200703", "deductibility": "1", "assets": 33011, "income": 43108, "revenue": 35620}, {"ein": "812698280", "name": "CONKEY CRUISERS INC", "city": "ROCHESTER", "state": "NY", "zip": "14617-8380", "ntee": "N30", "ruling": "201704", "deductibility": "1", "assets": 0, "income": 0, "revenue": 0}, {"ein": "873646018", "name": "WEEKEND CRUISERS INC", "city": "ALBANY", "state": "NY", "zip": "12205-4508", "ntee": "N12", "ruling": "202309", "deductibility": "1", "assets": 1015, "income": 2385, "revenue": 0}, {"ein": "882385241", "name": "CRUISERS SPORTSBIKES INTEGRATED INC", "city": "JAMAICA", "state": "NY", "zip": "11433-3415", "ntee": "P58", "ruling": "202208", "deductibility": "1", "assets": 0, "income": 0, "revenue": 0}], "MULDOON": [{"ein": "146030191", "name": "MARY MULDOON FUND", "city": "LATHAM", "state": "NY", "zip": "12110-2424", "ntee": "", "ruling": "196105", "deductibility": "1", "assets": 1319412, "income": 233785, "revenue": 0}], "BERNARDINE": [{"ein": "161012804", "name": "BERNARDINE APARTMENTS INC", "city": "SYRACUSE", "state": "NY", "zip": "13205-2201", "ntee": "L22Z", "ruling": "194603", "deductibility": "1", "assets": 10599014, "income": 1520304, "revenue": 1520304}], "HOMEFRONT": [{"ein": "161065303", "name": "HOMEFRONT INC", "city": "BUFFALO", "state": "NY", "zip": "14212-1342", "ntee": "L20Z", "ruling": "197607", "deductibility": "1", "assets": 527542, "income": 134, "revenue": 134}, {"ein": "562669244", "name": "SUFFOLK COUNTY HOMEFRONT INC", "city": "RIDGE", "state": "NY", "zip": "11961-0001", "ntee": "W30", "ruling": "200903", "deductibility": "1", "assets": 0, "income": 0, "revenue": 0}, {"ein": "934859130", "name": "HOMEFRONT HARVEST INC", "city": "COXSACKIE", "state": "NY", "zip": "12051-0000", "ntee": "K20", "ruling": "202404", "deductibility": "1", "assets": 0, "income": 0, "revenue": 0}], "CENTERSTATE": [{"ein": "161165469", "name": "CENTERSTATE DEVELOPMENT FOUNDATION INC", "city": "SYRACUSE", "state": "NY", "zip": "13202-1305", "ntee": "S31Z", "ruling": "198204", "deductibility": "1", "assets": 3698191, "income": 1572849, "revenue": 1572849}, {"ein": "222305294", "name": "CENTERSTATE CEO FOUNDATION INC", "city": "SYRACUSE", "state": "NY", "zip": "13202-1305", "ntee": "W11", "ruling": "198007", "deductibility": "1", "assets": 2218921, "income": 754823, "revenue": 754823}, {"ein": "272620882", "name": "CENTERSTATE CORPORATION FOR ECONOMIC OPPORTUNITY", "city": "SYRACUSE", "state": "NY", "zip": "13202-1305", "ntee": "S20", "ruling": "201106", "deductibility": "2", "assets": 33076792, "income": 21475852, "revenue": 16514261}], "DETA": [{"ein": "161463879", "name": "DIOCESAN ELEMENTARY TEACHERS ASSOC DETA", "city": "WILLIAMSVILLE", "state": "NY", "zip": "14221-5829", "ntee": "", "ruling": "199511", "deductibility": "2", "assets": 0, "income": 0, "revenue": 0}], "FILLMORE": [{"ein": "161559494", "name": "FILLMORE CHAPEL METHODIST CHURCH", "city": "RANSOMVILLE", "state": "NY", "zip": "14131-9666", "ntee": "", "ruling": "197410", "deductibility": "1", "assets": 0, "income": 0, "revenue": 0}, {"ein": "166033879", "name": "PINE GROVE CEMETERY ASSOCIATION OF FILLMORE INC", "city": "FILLMORE", "state": "NY", "zip": "14735-0242", "ntee": "", "ruling": "197503", "deductibility": "2", "assets": 0, "income": 0, "revenue": 0}, {"ein": "222512763", "name": "FILLMORE WESLEYAN CHURCH", "city": "FILLMORE", "state": "NY", "zip": "14735-8690", "ntee": "", "ruling": "197005", "deductibility": "1", "assets": 0, "income": 0, "revenue": 0}, {"ein": "464835822", "name": "FILLMORE CARES INC", "city": "BROOKLYN", "state": "NY", "zip": "11234-3709", "ntee": "G30", "ruling": "201407", "deductibility": "1", "assets": 2465, "income": 1780, "revenue": 1780}, {"ein": "472264715", "name": "FILLMORE POWERHOUSE YOUTH CENTER INC", "city": "FILLMORE", "state": "NY", "zip": "14735-9807", "ntee": "P28", "ruling": "201412", "deductibility": "1", "assets": 7927, "income": 46708, "revenue": 0}, {"ein": "811321280", "name": "FILLMORE FORWARD", "city": "BUFFALO", "state": "NY", "zip": "14212-1342", "ntee": "S30", "ruling": "201604", "deductibility": "1", "assets": 14100, "income": 5000, "revenue": 5000}, {"ein": "824273892", "name": "FRIENDS OF FILLMORE GLEN STATE PARK", "city": "LOCKE", "state": "NY", "zip": "13092-0185", "ntee": "N32", "ruling": "201803", "deductibility": "1", "assets": 0, "income": 0, "revenue": 0}, {"ein": "831554168", "name": "FILLMORE YOUTH SOCCER", "city": "CANEADEA", "state": "NY", "zip": "14717-8710", "ntee": "N64", "ruling": "201811", "deductibility": "1", "assets": 0, "income": 0, "revenue": 0}], "ECKLER": [{"ein": "166282095", "name": "TRUST UW LEOPOLD ECKLER FOR THE BENEFIT OF BINGHAMTON BOYS CLUB IN", "city": "AMHERST", "state": "NY", "zip": "14228-2307", "ntee": "", "ruling": "198703", "deductibility": "1", "assets": 243740, "income": 45527, "revenue": 0}, {"ein": "166282096", "name": "LEOPOLD ECKLER TRUST UW FBO BING HAMTON GENL HOSP FOUND INC", "city": "AMHERST", "state": "NY", "zip": "14228-2307", "ntee": "", "ruling": "198703", "deductibility": "1", "assets": 219948, "income": 42166, "revenue": 0}, {"ein": "166282098", "name": "LEOPOLD ECKLER TRUST UW  FBO UNITED HEALTH SERV FND", "city": "BUFFALO", "state": "NY", "zip": "14240-1504", "ntee": "", "ruling": "199104", "deductibility": "1", "assets": 212992, "income": 39430, "revenue": 0}, {"ein": "222644263", "name": "LEOPOLD ECKLER SCHOLARSHIP TRUST", "city": "BUFFALO", "state": "NY", "zip": "14240-1504", "ntee": "", "ruling": "198510", "deductibility": "1", "assets": 3841522, "income": 1373269, "revenue": 0}], "FETZER": [{"ein": "200417173", "name": "MATTHEW FETZER FOUNDATION INC", "city": "BAYVILLE", "state": "NY", "zip": "11709-1816", "ntee": "G128", "ruling": "201002", "deductibility": "1", "assets": 8324, "income": 102410, "revenue": 18410}], "JOU": [{"ein": "202785087", "name": "WAN JOU FAMILY FOUNDATION", "city": "ROCHESTER", "state": "NY", "zip": "14623-0000", "ntee": "T22", "ruling": "200506", "deductibility": "1", "assets": 862951, "income": 42802, "revenue": 0}], "VENTUREDEVELOPMENT2004INC": [{"ein": "203293388", "name": "VENTUREDEVELOPMENT2004INC", "city": "NANUET", "state": "NY", "zip": "10954-2970", "ntee": "L21", "ruling": "200509", "deductibility": "1", "assets": 591300, "income": 51129, "revenue": 51129}], "LGBTQ": [{"ein": "203721531", "name": "HUDSON VALLEY LGBTQ COMMUNITY CENTER INC", "city": "KINGSTON", "state": "NY", "zip": "12401-3820", "ntee": "P99", "ruling": "200603", "deductibility": "1", "assets": 1299360, "income": 572428, "revenue": 572428}, {"ein": "660947566", "name": "ARCHIVO COMUNITARIO LGBTQ DE PUERTO RICO", "city": "NEW YORK", "state": "NY", "zip": "10035-2771", "ntee": "A80", "ruling": "202007", "deductibility": "1", "assets": 0, "income": 0, "revenue": 0}, {"ein": "810798630", "name": "LGBTQ FOCUS FOUNDATION CORPORATION", "city": "NEW YORK", "state": "NY", "zip": "10022-6539", "ntee": "S80", "ruling": "201604", "deductibility": "1", "assets": 46260, "income": 74514, "revenue": 63526}, {"ein": "811352107", "name": "HARLEM SGL LGBTQ CENTER INCORPORATED", "city": "NEW YORK", "state": "NY", "zip": "10026-2508", "ntee": "P99", "ruling": "201603", "deductibility": "1", "assets": 0, "income": 0, "revenue": 0}, {"ein": "822505771", "name": "HARLEM LGBTQ TASK FORCE INCORPORATED", "city": "NEW YORK", "state": "NY", "zip": "10026-2508", "ntee": "R26", "ruling": "201708", "deductibility": "1", "assets": 0, "income": 0, "revenue": 0}, {"ein": "822952715", "name": "BLACK AND LATINO LGBTQ COALITION INCORPORATED", "city": "NEW YORK", "state": "NY", "zip": "10026-2508", "ntee": "R01", "ruling": "201710", "deductibility": "1", "assets": 0, "income": 0, "revenue": 0}, {"ein": "842976420", "name": "BUFFALO NIAGARA LGBTQ HISTORY PROJECT INC", "city": "BUFFALO", "state": "NY", "zip": "14205-0268", "ntee": "A80", "ruling": "202001", "deductibility": "1", "assets": 0, "income": 0, "revenue": 0}, {"ein": "844334508", "name": "LGBTQ HISTORY PROJECT INC", "city": "NEW YORK", "state": "NY", "zip": "10276-0351", "ntee": "V20", "ruling": "202004", "deductibility": "1", "assets": 0, "income": 0, "revenue": 0}, {"ein": "852848269", "name": "JAPAN LGBTQ ALLIANCE", "city": "BALLSTON SPA", "state": "NY", "zip": "12020-2529", "ntee": "P20", "ruling": "202106", "deductibility": "1", "assets": 0, "income": 0, "revenue": 0}, {"ein": "871108609", "name": "SUFFOLK COUNTY POLICE LGBTQ SOCIETY", "city": "BELLMORE", "state": "NY", "zip": "11710-0546", "ntee": "W01", "ruling": "202109", "deductibility": "1", "assets": 0, "income": 0, "revenue": 0}, {"ein": "883859648", "name": "RUSA LGBTQ CORP", "city": "LONG BEACH", "state": "NY", "zip": "11561-1101", "ntee": "P84", "ruling": "202212", "deductibility": "1", "assets": 66486, "income": 141268, "revenue": 141268}, {"ein": "920833033", "name": "ASSOCIATION OF LGBTQ CORPORATE DIRECTORS", "city": "NEW YORK", "state": "NY", "zip": "10024-2131", "ntee": "R26", "ruling": "202405", "deductibility": "1", "assets": 1, "income": 70000, "revenue": 70000}, {"ein": "993864110", "name": "WESTCHESTER LGBTQ EDUCATION FUND", "city": "DOBBS FERRY", "state": "NY", "zip": "10522-2023", "ntee": "B82", "ruling": "202407", "deductibility": "1", "assets": 0, "income": 0, "revenue": 0}], "SOHN": [{"ein": "204694054", "name": "IRA SOHN CONFERENCE FOUNDATION INC", "city": "NEW YORK", "state": "NY", "zip": "10028-4305", "ntee": "H12", "ruling": "200606", "deductibility": "1", "assets": 578068, "income": 906755, "revenue": 769065}], "AKUFFO": [{"ein": "205839604", "name": "FRIENDS OF AKUFFO TOM SCHOOLCOMPLEX", "city": "GLENVILLE", "state": "NY", "zip": "12302-3923", "ntee": "Q330", "ruling": "200712", "deductibility": "1", "assets": 0, "income": 0, "revenue": 0}], "KENYON": [{"ein": "207535967", "name": "KENYON CHARITABLE FOUNDATION", "city": "CHAPPAQUA", "state": "NY", "zip": "10514-1923", "ntee": "T22", "ruling": "200709", "deductibility": "1", "assets": 70827, "income": 191059, "revenue": 0}, {"ein": "237336116", "name": "H RUSSELL KENYON POST NO 5808 VETERANS OF FOREIGN WARS", "city": "COCHECTON", "state": "NY", "zip": "12726-5046", "ntee": "W30", "ruling": "201706", "deductibility": "2", "assets": 0, "income": 0, "revenue": 0}], "CYKER": [{"ein": "222488837", "name": "MICHAEL & HELEN R CYKER CHARITABLE FOUNDATION", "city": "ITHACA", "state": "NY", "zip": "14850-1003", "ntee": "", "ruling": "198404", "deductibility": "1", "assets": 1898279, "income": 250115, "revenue": 0}], "AMP": [{"ein": "223880439", "name": "SF DUMITRU ROMANIAN MONASTERY AND C AMP", "city": "MIDDLETOWN", "state": "NY", "zip": "10940-7122", "ntee": "", "ruling": "200502", "deductibility": "1", "assets": 0, "income": 0, "revenue": 0}], "STRAWBRIDGE": [{"ein": "232371943", "name": "MARGARET DORRANCE STRAWBRIDGE FDN OF PA 11 INC", "city": "GARDEN CITY", "state": "NY", "zip": "11530-0000", "ntee": "", "ruling": "198704", "deductibility": "1", "assets": 481035, "income": 7959, "revenue": 0}], "WILLETTS": [{"ein": "237052141", "name": "WILLETTS POINT CLUB INC", "city": "WEST ISLIP", "state": "NY", "zip": "11795-0055", "ntee": "S22", "ruling": "200303", "deductibility": "2", "assets": 207584, "income": 31375, "revenue": 31375}], "BROOKTONDALE": [{"ein": "237088033", "name": "BROOKTONDALE COMMUNITY CENTER INC", "city": "BROOKTONDALE", "state": "NY", "zip": "14817-0135", "ntee": "", "ruling": "197012", "deductibility": "1", "assets": 86034, "income": 127811, "revenue": 127811}, {"ein": "900260212", "name": "BROOKTONDALE VOLUNTEER FIRE COMPANY INC", "city": "BROOKTONDALE", "state": "NY", "zip": "14817-0025", "ntee": "M24", "ruling": "202307", "deductibility": "1", "assets": 316014, "income": 42311, "revenue": 36759}], "CHATIE": [{"ein": "237111999", "name": "CHATIE MAC CLUB", "city": "LATHAM", "state": "NY", "zip": "12110-4063", "ntee": "", "ruling": "196905", "deductibility": "2", "assets": 214276, "income": 127637, "revenue": 127637}], "DSHLOMO": [{"ein": "237419568", "name": "CONGREGATION ZLUSEI DSHLOMO", "city": "BROOKLYN", "state": "NY", "zip": "11211-8112", "ntee": "", "ruling": "198403", "deductibility": "1", "assets": 0, "income": 0, "revenue": 0}, {"ein": "270008975", "name": "CONGREGATION TZLOSA DSHLOMO", "city": "BROOKLYN", "state": "NY", "zip": "11219-3102", "ntee": "X30", "ruling": "200206", "deductibility": "1", "assets": 0, "income": 0, "revenue": 0}], "ROTTER": [{"ein": "261444241", "name": "STEVEN J AND ROBIN ROTTER FAMILY FOUNDATION", "city": "NEW YORK", "state": "NY", "zip": "10022-1308", "ntee": "T20", "ruling": "200808", "deductibility": "1", "assets": 4501971, "income": 345275, "revenue": 0}], "VISIONARIES": [{"ein": "264200477", "name": "VISIONARIES WOMEN ON THE MOVE INC", "city": "QUEENS VLG", "state": "NY", "zip": "11429-2841", "ntee": "P80", "ruling": "201002", "deductibility": "1", "assets": 0, "income": 0, "revenue": 0}, {"ein": "921250217", "name": "BLACK VISIONARIES INC", "city": "BROOKLYN", "state": "NY", "zip": "11226-4442", "ntee": "R20", "ruling": "202301", "deductibility": "1", "assets": 0, "income": 0, "revenue": 0}, {"ein": "993104308", "name": "LI15 VISIONARIES FOR PEACE AND ABUNDANCE INC", "city": "S RICHMOND HL", "state": "NY", "zip": "11419-1720", "ntee": "P12", "ruling": "202408", "deductibility": "1", "assets": 0, "income": 0, "revenue": 0}], "KULTURE": [{"ein": "271601952", "name": "UKRAINIAN SELF-KULTURE ASSOCIATION OF SPRING VALLEY INC", "city": "SPRING VALLEY", "state": "NY", "zip": "10977-3949", "ntee": "A23", "ruling": "201007", "deductibility": "1", "assets": 85949, "income": 19530, "revenue": 18983}], "TRIBUTARY": [{"ein": "271880991", "name": "LAKE ONTARIO TRIBUTARY ANGLERS COUNCIL", "city": "BREWERTON", "state": "NY", "zip": "13029-8663", "ntee": "C32", "ruling": "201107", "deductibility": "1", "assets": 0, "income": 0, "revenue": 0}], "ECONOMID": [{"ein": "273469226", "name": "NDC HOUSING AND ECONOMID DEVELOPMENT CORPORATION", "city": "NEW YORK", "state": "NY", "zip": "10004-0000", "ntee": "", "ruling": "198811", "deductibility": "1", "assets": 0, "income": 0, "revenue": 0}], "CANONS": [{"ein": "274607930", "name": "CANONS REGULAR OF SAINT AUGUSTINE USA INC", "city": "GLEN COVE", "state": "NY", "zip": "11542-3059", "ntee": "X22", "ruling": "201408", "deductibility": "1", "assets": 0, "income": 0, "revenue": 0}, {"ein": "800867613", "name": "CANONS REGULAR OF THE LATERAN - NEW YORK COMMUNITY", "city": "NEW YORK", "state": "NY", "zip": "10034-0000", "ntee": "X20", "ruling": "201904", "deductibility": "1", "assets": 0, "income": 0, "revenue": 0}], "BONS": [{"ein": "274944479", "name": "LES BONS SAMARITAINS 12", "city": "BROOKLYN", "state": "NY", "zip": "11236-4709", "ntee": "X20", "ruling": "201304", "deductibility": "1", "assets": 0, "income": 0, "revenue": 0}], "RHINO": [{"ein": "311758236", "name": "SAVE THE RHINO INTERNATIONAL INC", "city": "NEW YORK", "state": "NY", "zip": "10019-0000", "ntee": "D31", "ruling": "200107", "deductibility": "1", "assets": 297546, "income": 2057306, "revenue": 2057306}, {"ein": "826779885", "name": "RHINO FOUNDATION", "city": "SUFFERN", "state": "NY", "zip": "10901-2401", "ntee": "T22", "ruling": "201902", "deductibility": "1", "assets": 5780, "income": 93000, "revenue": 0}], "KNOWTERN": [{"ein": "331283619", "name": "KNOWTERN", "city": "SUNNYSIDE", "state": "NY", "zip": "11104-3823", "ntee": "B80", "ruling": "202501", "deductibility": "1", "assets": 0, "income": 0, "revenue": 0}], "DZUPNICK": [{"ein": "332553622", "name": "CONGREGATION YETEV LEV DZUPNICK", "city": "BROOKLYN", "state": "NY", "zip": "11211-7578", "ntee": "X30", "ruling": "202503", "deductibility": "1", "assets": 0, "income": 0, "revenue": 0}], "INCLUDED": [{"ein": "334100435", "name": "INCLUDED CPG", "city": "NEW YORK", "state": "NY", "zip": "10035-4276", "ntee": "K11", "ruling": "202504", "deductibility": "1", "assets": 0, "income": 0, "revenue": 0}, {"ein": "465027911", "name": "FITNESS TECH INCLUDED", "city": "JAMAICA", "state": "NY", "zip": "11435-5118", "ntee": "N11", "ruling": "201503", "deductibility": "1", "assets": 0, "income": 0, "revenue": 0}, {"ein": "933807519", "name": "INCLUDED INC", "city": "NEW YORK", "state": "NY", "zip": "10035-4276", "ntee": "S41", "ruling": "202406", "deductibility": "2", "assets": 0, "income": 0, "revenue": 0}], "MORUS": [{"ein": "342013556", "name": "MORUS EDUCATIONAL & CULTURAL ADVANCEMENT CENTER INC", "city": "NEW YORK", "state": "NY", "zip": "10002-7414", "ntee": "B90", "ruling": "200607", "deductibility": "1", "assets": 85452, "income": 43910, "revenue": 43910}], "SOARS": [{"ein": "412171830", "name": "EAGLE SOARS MINISTRIES", "city": "BUFFALO", "state": "NY", "zip": "14215-1528", "ntee": "W30", "ruling": "202404", "deductibility": "1", "assets": 0, "income": 0, "revenue": 0}, {"ein": "814108150", "name": "SOARS", "city": "PITTSFORD", "state": "NY", "zip": "14534-2735", "ntee": "P01", "ruling": "201704", "deductibility": "1", "assets": 0, "income": 0, "revenue": 0}], "MARTINE": [{"ein": "453962662", "name": "MARTINE YOUTH FOUNDATION INC", "city": "VALLEY STREAM", "state": "NY", "zip": "11580-4105", "ntee": "T50", "ruling": "201601", "deductibility": "1", "assets": 0, "income": 0, "revenue": 0}], "PROTOTYPE": [{"ein": "454518312", "name": "PROTOTYPE 180", "city": "NEW YORK", "state": "NY", "zip": "10011-2163", "ntee": "A40", "ruling": "201302", "deductibility": "1", "assets": 0, "income": 0, "revenue": 0}], "BARDEN": [{"ein": "462633612", "name": "DANIEL BARDEN ANNUAL MUDFEST INC", "city": "DEANSBORO", "state": "NY", "zip": "13328-1405", "ntee": "M40", "ruling": "201611", "deductibility": "1", "assets": 0, "income": 0, "revenue": 0}], "KANDIE": [{"ein": "463347539", "name": "KANDIE FOUNDATION INC", "city": "CAMBRIA HTS", "state": "NY", "zip": "11411-1921", "ntee": "Z99", "ruling": "201405", "deductibility": "1", "assets": 0, "income": 0, "revenue": 0}], "KIDZLICIOUS": [{"ein": "464171425", "name": "KIDZLICIOUS KITCHEN", "city": "BRONX", "state": "NY", "zip": "10473-0312", "ntee": "O99", "ruling": "201509", "deductibility": "1", "assets": 0, "income": 0, "revenue": 0}], "VENERABLE": [{"ein": "465421012", "name": "CAUSE OF VENERABLE ANTHONY VINCENT GALLO INC", "city": "MANHASSET", "state": "NY", "zip": "11030-2233", "ntee": "X22", "ruling": "201407", "deductibility": "1", "assets": 0, "income": 0, "revenue": 0}, {"ein": "812851672", "name": "VENERABLE ELDER GABRIEL GEORGIAN CHRISTIAN ORTHODOX CHURCH IN MONRO", "city": "HARRIMAN", "state": "NY", "zip": "10926-3223", "ntee": "X20", "ruling": "202303", "deductibility": "1", "assets": 0, "income": 0, "revenue": 0}, {"ein": "852861142", "name": "NORTH AMERICAN FRIENDS OF THE VENERABLE ENGLISH COLLEGE", "city": "NEW YORK", "state": "NY", "zip": "10017-2185", "ntee": "X22", "ruling": "202104", "deductibility": "1", "assets": 0, "income": 0, "revenue": 0}], "CPE": [{"ein": "465427445", "name": "CAMP CPE INC", "city": "BROOKLYN", "state": "NY", "zip": "11218-5580", "ntee": "X30", "ruling": "201501", "deductibility": "1", "assets": 0, "income": 0, "revenue": 0}], "BUCHALTER": [{"ein": "465499975", "name": "THE BUCHALTER RESEARCH FOUNDATION INC", "city": "FOREST HILLS", "state": "NY", "zip": "11375-5952", "ntee": "T20", "ruling": "201502", "deductibility": "1", "assets": 22563, "income": 20625, "revenue": 0}], "MOTORCYLE": [{"ein": "472483543", "name": "WILD HORSE INDIAN MOTORCYLE RIDERS GROUP CHAPTER 1920", "city": "MALTA", "state": "NY", "zip": "12020-0000", "ntee": "N50", "ruling": "201904", "deductibility": "1", "assets": 0, "income": 0, "revenue": 0}], "LONE": [{"ein": "472550735", "name": "FRIENDS OF EMEK LONE SOLDIERS INC", "city": "NEW CITY", "state": "NY", "zip": "10956-1900", "ntee": "K12", "ruling": "201501", "deductibility": "1", "assets": 101917, "income": 445659, "revenue": 445659}, {"ein": "473798721", "name": "MICHAEL LEVIN LONE SOLDIER FOUNDATION INC", "city": "NEW YORK", "state": "NY", "zip": "10036-4055", "ntee": "Q11", "ruling": "201512", "deductibility": "1", "assets": 822795, "income": 1189473, "revenue": 1189473}, {"ein": "823249807", "name": "INTERNATIONAL LONE SOLDIERS INC", "city": "SPRING VALLEY", "state": "NY", "zip": "10977-2540", "ntee": "F80", "ruling": "201812", "deductibility": "1", "assets": 1067779, "income": 503741, "revenue": 503741}, {"ein": "853162089", "name": "FRIENDS OF THE LONE SOLDIER INC", "city": "NEW YORK", "state": "NY", "zip": "10030-2877", "ntee": "T50", "ruling": "202101", "deductibility": "1", "assets": 547099, "income": 609614, "revenue": 609614}], "CHOP": [{"ein": "472632755", "name": "STOP THE CHOP NYNJ INC", "city": "NEW YORK", "state": "NY", "zip": "10024-6581", "ntee": "C20", "ruling": "201709", "deductibility": "1", "assets": 0, "income": 0, "revenue": 0}], "AVATAMSAKA": [{"ein": "474380866", "name": "AVATAMSAKA BUDDHIST ASSOCIATION OF AMERICA", "city": "BROOKLYN", "state": "NY", "zip": "11220-4312", "ntee": "X50", "ruling": "201510", "deductibility": "1", "assets": 0, "income": 0, "revenue": 0}], "13TH": [{"ein": "542074318", "name": "WEST 13TH STREET 100 BLOCK ASSOCIATION INC", "city": "NEW YORK", "state": "NY", "zip": "10011-7814", "ntee": "S22", "ruling": "201602", "deductibility": "1", "assets": 0, "income": 0, "revenue": 0}, {"ein": "854224748", "name": "13TH FLOOR ANIMAL RESCUE INC", "city": "NEW YORK", "state": "NY", "zip": "10014-3708", "ntee": "D99", "ruling": "202312", "deductibility": "1", "assets": 0, "income": 0, "revenue": 0}], "NURUDEEN": [{"ein": "582665481", "name": "NURUDEEN ISLAMIC CHARITY ORGANIZATION OF NEW YORK INC", "city": "BRONX", "state": "NY", "zip": "10456-5355", "ntee": "X40", "ruling": "200209", "deductibility": "1", "assets": 0, "income": 0, "revenue": 0}], "UFARATZTA": [{"ein": "612106878", "name": "FRIENDS OF UFARATZTA CENTER OF JERUSALEM INC", "city": "LAWRENCE", "state": "NY", "zip": "11559-1558", "ntee": "X11", "ruling": "202309", "deductibility": "1", "assets": 0, "income": 0, "revenue": 0}, {"ein": "833344828", "name": "UFARATZTA FUND", "city": "BROOKLYN", "state": "NY", "zip": "11213-0000", "ntee": "Q33", "ruling": "201907", "deductibility": "1", "assets": 5374, "income": 97877, "revenue": 97877}, {"ein": "880988759", "name": "UFARATZTA CENTER", "city": "STATEN ISLAND", "state": "NY", "zip": "10305-3776", "ntee": "X30", "ruling": "202310", "deductibility": "1", "assets": 0, "income": 0, "revenue": 0}], "FIEL": [{"ein": "814762455", "name": "IGLESIA CRISTIANA DIOS ES FIEL INC", "city": "BRONX", "state": "NY", "zip": "10460-1314", "ntee": "X20", "ruling": "201711", "deductibility": "1", "assets": 0, "income": 0, "revenue": 0}], "MEIPIAO": [{"ein": "822595034", "name": "MEIPIAO INC", "city": "NEW YORK", "state": "NY", "zip": "10005-1817", "ntee": "A23", "ruling": "201710", "deductibility": "1", "assets": 0, "income": 0, "revenue": 0}], "CAPELLI": [{"ein": "822669320", "name": "MICKEY CAPELLI FOUNDATION INC", "city": "PIERMONT", "state": "NY", "zip": "10968-1014", "ntee": "T20", "ruling": "201809", "deductibility": "1", "assets": 4736579, "income": 1290735, "revenue": 0}], "MALKY": [{"ein": "822769961", "name": "YAD MALKY LEGACY INC", "city": "BROOKLYN", "state": "NY", "zip": "11219-4523", "ntee": "P20", "ruling": "201803", "deductibility": "1", "assets": 202832, "income": 16514, "revenue": 16514}], "MCQUAY": [{"ein": "823829340", "name": "MCQUAY FAMILY FOUNDATION", "city": "SARATOGA SPGS", "state": "NY", "zip": "12866-6525", "ntee": "", "ruling": "201810", "deductibility": "1", "assets": 440698, "income": 451699, "revenue": 0}], "PAPPY": [{"ein": "831103609", "name": "PAPPY MARTIN LEGACY JAZZ COLLECTIVE", "city": "BUFFALO", "state": "NY", "zip": "14214-1812", "ntee": "A68", "ruling": "201809", "deductibility": "1", "assets": 158914, "income": 399278, "revenue": 399278}], "ELZBIETA": [{"ein": "831298430", "name": "ELZBIETA & DAVID GROVE PRIVATE FOUNDATION INC", "city": "ARMONK", "state": "NY", "zip": "10504-1356", "ntee": "T20", "ruling": "202502", "deductibility": "1", "assets": 7557833, "income": 121889, "revenue": 0}], "BERNTHAL": [{"ein": "832713007", "name": "SANDBERG GOLDBERG BERNTHAL FAMILY CHARITABLE FOUNDATION", "city": "NEW YORK", "state": "NY", "zip": "10005-1531", "ntee": "T20", "ruling": "201907", "deductibility": "1", "assets": 210879190, "income": 26282278, "revenue": 0}], "MOES": [{"ein": "833203312", "name": "MOES TLC INC", "city": "SCHENECTADY", "state": "NY", "zip": "12303-4907", "ntee": "D20", "ruling": "201904", "deductibility": "1", "assets": 0, "income": 0, "revenue": 0}], "MARTINISI": [{"ein": "833560312", "name": "LOVE FROM HEAVEN - CHRISTIAN MARTINISI MEMORIAL FUND INC", "city": "NEW WINDSOR", "state": "NY", "zip": "12553-3901", "ntee": "T12", "ruling": "201903", "deductibility": "1", "assets": 0, "income": 0, "revenue": 0}], "MARLOKAI": [{"ein": "841959942", "name": "MARLOKAI EQUINE AND ANIMAL RESCUE INC", "city": "SYOSSET", "state": "NY", "zip": "11791-0234", "ntee": "D20", "ruling": "202011", "deductibility": "1", "assets": 0, "income": 0, "revenue": 0}], "HUE": [{"ein": "842635028", "name": "MUSEUM HUE INC", "city": "BROOKLYN", "state": "NY", "zip": "11225-3706", "ntee": "A50", "ruling": "202105", "deductibility": "1", "assets": 906484, "income": 1314169, "revenue": 1314169}, {"ein": "853835168", "name": "HUE COMMUNITY INC", "city": "BROOKLYN", "state": "NY", "zip": "11225-4913", "ntee": "J20", "ruling": "202106", "deductibility": "1", "assets": 14091, "income": 60787, "revenue": 60787}], "AVACY": [{"ein": "844053307", "name": "AVACY INITIATIVES INC", "city": "NEW YORK", "state": "NY", "zip": "10013-1691", "ntee": "R40", "ruling": "202109", "deductibility": "2", "assets": 44621, "income": 0, "revenue": 0}], "EROCK": [{"ein": "852573757", "name": "EROCK FOUNDATION", "city": "ROCHESTER", "state": "NY", "zip": "14617-3335", "ntee": "F01", "ruling": "202209", "deductibility": "1", "assets": 0, "income": 0, "revenue": 0}], "BREZIV": [{"ein": "853931677", "name": "CONGREGATION BREZIV", "city": "MONROE", "state": "NY", "zip": "10950-8512", "ntee": "X30", "ruling": "202103", "deductibility": "1", "assets": 0, "income": 0, "revenue": 0}], "COULTER": [{"ein": "871695854", "name": "THE DAVID A COULTER AND SUSAN C WEEKS CHARITABLE FOUNDATION", "city": "ALBANY", "state": "NY", "zip": "12212-5201", "ntee": "S30", "ruling": "202204", "deductibility": "1", "assets": 5387094, "income": 11051869, "revenue": 0}], "BLONDELL": [{"ein": "873767866", "name": "CFH BLONDELL HOUSING DEVELOPMENT FUND CORPORATION", "city": "NEW YORK", "state": "NY", "zip": "10016-5337", "ntee": "S47", "ruling": "202209", "deductibility": "1", "assets": 204956, "income": 0, "revenue": 0}], "WIMC": [{"ein": "880887216", "name": "WIMC GLOBAL MINISTRIES INC", "city": "ALBANY", "state": "NY", "zip": "12207-2922", "ntee": "X20", "ruling": "202211", "deductibility": "1", "assets": 670, "income": 191616, "revenue": 191616}], "INGLES": [{"ein": "881014427", "name": "RUTA - 27 PROGRAMA DE INGLES INC", "city": "EAST HAMPTON", "state": "NY", "zip": "11937-2469", "ntee": "B60", "ruling": "202204", "deductibility": "1", "assets": 0, "income": 0, "revenue": 0}], "HUGHSONVILLE": [{"ein": "881438842", "name": "HUGHSONVILLE & WHEELER HILL COMMUNITY ASSOCIATION", "city": "HUGHSONVILLE", "state": "NY", "zip": "12537-0492", "ntee": "C99", "ruling": "202207", "deductibility": "1", "assets": 0, "income": 0, "revenue": 0}], "AMEESA": [{"ein": "921633239", "name": "AFRICAN & MIDDLE EAST ECONOMIC SUSTAINABILITY ALLIANCE AMEESA INC", "city": "NEW YORK", "state": "NY", "zip": "10037-9415", "ntee": "P20", "ruling": "202301", "deductibility": "1", "assets": 0, "income": 0, "revenue": 0}], "LUMLEY": [{"ein": "922709729", "name": "TABATHA R LUMLEY FOUNDATION", "city": "BUFFALO", "state": "NY", "zip": "14216-1719", "ntee": "O50", "ruling": "202312", "deductibility": "1", "assets": 0, "income": 0, "revenue": 0}], "LEDAAS": [{"ein": "923317139", "name": "FRIENDS OF LEV LEDAAS INC", "city": "MANHATTAN", "state": "NY", "zip": "10005-4301", "ntee": "P20", "ruling": "202304", "deductibility": "1", "assets": 0, "income": 0, "revenue": 0}], "CONNECTIONZ": [{"ein": "932582397", "name": "CLASSY CONNECTIONZ CORP", "city": "SAINT ALBANS", "state": "NY", "zip": "11412-1325", "ntee": "P20", "ruling": "202308", "deductibility": "1", "assets": 0, "income": 0, "revenue": 0}], "MESHEJIAN": [{"ein": "934152154", "name": "DENISE MESHEJIAN-TOM LAZICKY MEMORIAL FOUNDATION", "city": "ALBERTSON", "state": "NY", "zip": "11507-1217", "ntee": "A68", "ruling": "202312", "deductibility": "1", "assets": 0, "income": 0, "revenue": 0}], "TSEGAYE": [{"ein": "934400613", "name": "ADEY TSEGAYE FOUNDATION INC", "city": "NEW YORK", "state": "NY", "zip": "10040-3680", "ntee": "E60", "ruling": "202312", "deductibility": "1", "assets": 0, "income": 0, "revenue": 0}], "GREEDY": [{"ein": "991216735", "name": "GREEDY FOR DA ROC", "city": "BROOKLYN", "state": "NY", "zip": "11208-2232", "ntee": "N62", "ruling": "202412", "deductibility": "1", "assets": 0, "income": 0, "revenue": 0}], "WALKS": [{"ein": "991859101", "name": "IRONDEQUOIT GARDEN WALKS", "city": "ROCHESTER", "state": "NY", "zip": "14617-3332", "ntee": "C42", "ruling": "202411", "deductibility": "1", "assets": 0, "income": 0, "revenue": 0}, {"ein": "993032498", "name": "WALKS OF LIGHT WOL CORP", "city": "MOUNT VERNON", "state": "NY", "zip": "10552-2720", "ntee": "P20", "ruling": "202405", "deductibility": "1", "assets": 0, "income": 0, "revenue": 0}], "KOKOMO": [{"ein": "993795969", "name": "KOKOMO CHARITABLE FOUNDATION INC", "city": "BROOKLYN", "state": "NY", "zip": "11236-3304", "ntee": "A23", "ruling": "202410", "deductibility": "1", "assets": 0, "income": 0, "revenue": 0}], "AMPISRAEL": [{"ein": "994875099", "name": "AMPISRAEL INC", "city": "W HEMPSTEAD", "state": "NY", "zip": "11552-2929", "ntee": "B01", "ruling": "202501", "deductibility": "1", "assets": 0, "income": 0, "revenue": 0}]}