{"MELTON": [{"ein": "010725179", "name": "FLORENCE MELTON ADULT MINI-SCHOOL CORPORATION", "city": "NEW YORK", "state": "NY", "zip": "10019-6050", "ntee": "X30", "ruling": "200302", "deductibility": "1", "assets": 1268492, "income": 1781728, "revenue": 1781728}, {"ein": "651269388", "name": "CHRISTINE MELTON-SIMPSON PKA CHRISTINE MELTON-JORDAN", "city": "NEW YORK", "state": "NY", "zip": "10027-2014", "ntee": "A20", "ruling": "201903", "deductibility": "1", "assets": 0, "income": 0, "revenue": 0}], "BAR": [{"ein": "030543924", "name": "MINORITY BAR FOUNDATION INC", "city": "BUFFALO", "state": "NY", "zip": "14201-0393", "ntee": "B82", "ruling": "200410", "deductibility": "1", "assets": 0, "income": 0, "revenue": 0}, {"ein": "061016586", "name": "PUERTO RICAN BAR ASSOCIATION SCHOLARSHIP FUND INC", "city": "NEW YORK", "state": "NY", "zip": "10036-7424", "ntee": "B82Z", "ruling": "198206", "deductibility": "1", "assets": 207497, "income": 178175, "revenue": 83313}, {"ein": "111212513", "name": "QUEENS COUNTY BAR ASSOCIATION", "city": "JAMAICA", "state": "NY", "zip": "11435-3711", "ntee": "", "ruling": "196903", "deductibility": "2", "assets": 107377, "income": 680074, "revenue": 680074}, {"ein": "111503886", "name": "BROOKLYN BAR ASSOCIATION", "city": "BROOKLYN", "state": "NY", "zip": "11201-4212", "ntee": "", "ruling": "194106", "deductibility": "2", "assets": 311706, "income": 815477, "revenue": 815477}, {"ein": "111517970", "name": "BAR ASSOCIATION OF NASSAU COUNTY NEW YORK INC", "city": "MINEOLA", "state": "NY", "zip": "11501-0000", "ntee": "", "ruling": "194601", "deductibility": "2", "assets": 2550462, "income": 1779913, "revenue": 1606156}, {"ein": "111712129", "name": "QUEENS COUNTY BAR ASSOCIATION FUND INC", "city": "JAMAICA", "state": "NY", "zip": "11435-3711", "ntee": "I80Z", "ruling": "199911", "deductibility": "1", "assets": 486354, "income": 0, "revenue": 0}, {"ein": "112035658", "name": "SUFFOLK COUNTY BAR ASSOCIATION", "city": "HAUPPAUGE", "state": "NY", "zip": "11788-4354", "ntee": "", "ruling": "196909", "deductibility": "2", "assets": 1357082, "income": 996760, "revenue": 824618}, {"ein": "112164392", "name": "NASSAU COUNTY BAR ASSN ASSIGNED COUNSEL DEFENDER PLAN INC", "city": "MINEOLA", "state": "NY", "zip": "11501-0000", "ntee": "I80", "ruling": "200703", "deductibility": "1", "assets": 357885, "income": 725067, "revenue": 725067}, {"ein": "112429570", "name": "CONGREGATION GEMILAS CHESED ZICHRON YAAKOV BAR MAYER INC C O M METH", "city": "BKLYN", "state": "NY", "zip": "11219-3527", "ntee": "", "ruling": "197711", "deductibility": "1", "assets": 0, "income": 0, "revenue": 0}, {"ein": "112522326", "name": "TZEDAKAH UMARPE CHARITY FUND RIBBI SHIMEON BAR YOHAY", "city": "BROOKLYN", "state": "NY", "zip": "11223-2040", "ntee": "E83J", "ruling": "198008", "deductibility": "1", "assets": 1466733, "income": 158746, "revenue": 158746}, {"ein": "113008388", "name": "SUFFOLK COUNTY BAR PRO BONO FOUNDATION", "city": "HAUPPAUGE", "state": "NY", "zip": "11788-4354", "ntee": "I83Z", "ruling": "199106", "deductibility": "1", "assets": 194575, "income": 69779, "revenue": 13581}, {"ein": "113107302", "name": "LAWYER ASSISTANCE FOUNDATION OF THE SUFFOLK COUNTY BAR ASSOCIATION INC", "city": "HAUPPAUGE", "state": "NY", "zip": "11788-4354", "ntee": "B99Z", "ruling": "199210", "deductibility": "1", "assets": 62561, "income": 1594, "revenue": 1594}, {"ein": "113429769", "name": "CONG BAR PACHSEI CHAVAS DAAS LAGMITZ JAAC CHARITABLE FOUNDATION", "city": "BROOKLYN", "state": "NY", "zip": "11219-4647", "ntee": "X30Z", "ruling": "199807", "deductibility": "1", "assets": 0, "income": 0, "revenue": 0}, {"ein": "113531941", "name": "DOUBLE D BAR RANCH INC", "city": "MANORVILLE", "state": "NY", "zip": "11949-3444", "ntee": "D20", "ruling": "200006", "deductibility": "1", "assets": 0, "income": 61856, "revenue": 61856}, {"ein": "116077968", "name": "BROOKLYN BAR ASSOCIATION FOUNDATION INC", "city": "BROOKLYN", "state": "NY", "zip": "11201-4212", "ntee": "", "ruling": "196610", "deductibility": "1", "assets": 186392, "income": 144567, "revenue": 144567}, {"ein": "130453095", "name": "ASSOCIATION OF THE BAR OF THE CITY OF NEW YORK", "city": "NEW YORK", "state": "NY", "zip": "10036-6604", "ntee": "", "ruling": "193808", "deductibility": "2", "assets": 21978623, "income": 17713513, "revenue": 16423894}, {"ein": "131699417", "name": "BRONX COUNTY BAR ASSOCIATION", "city": "BRONX", "state": "NY", "zip": "10451-2937", "ntee": "I80C", "ruling": "194909", "deductibility": "2", "assets": 356076, "income": 469325, "revenue": 257230}, {"ein": "131970940", "name": "FEDERAL BAR COUNCIL", "city": "NEW YORK", "state": "NY", "zip": "10038-4338", "ntee": "", "ruling": "196312", "deductibility": "2", "assets": 3179961, "income": 2648189, "revenue": 2648189}, {"ein": "132502255", "name": "WESTCHESTER COUNTY BAR ASSOCIATION", "city": "WHITE PLAINS", "state": "NY", "zip": "10604-3431", "ntee": "", "ruling": "198504", "deductibility": "2", "assets": 1477684, "income": 818186, "revenue": 497417}, {"ein": "132581876", "name": "RICHMOND COUNTY BAR ASSOCIATION", "city": "STATEN ISLAND", "state": "NY", "zip": "10301-1877", "ntee": "", "ruling": "198305", "deductibility": "2", "assets": 287287, "income": 224667, "revenue": 224667}, {"ein": "132590315", "name": "BAR HARBOR FESTIVAL CORPORATION", "city": "NEW YORK", "state": "NY", "zip": "10025-8610", "ntee": "A680", "ruling": "196712", "deductibility": "1", "assets": 565644, "income": 251930, "revenue": 251930}, {"ein": "132703640", "name": "ROCKLAND COUNTY BAR ASSOCIATION", "city": "NEW CITY", "state": "NY", "zip": "10956-4318", "ntee": "", "ruling": "197601", "deductibility": "2", "assets": 170977, "income": 289689, "revenue": 280439}, {"ein": "132819941", "name": "REAL ESTATE TAX REVIEW BAR ASSN", "city": "NEW YORK", "state": "NY", "zip": "10018-0000", "ntee": "S47Z", "ruling": "199211", "deductibility": "2", "assets": 14957, "income": 23000, "revenue": 23000}, {"ein": "132848584", "name": "PUERTO RICAN BAR ASSOCIATION INC", "city": "NEW YORK", "state": "NY", "zip": "10036-7424", "ntee": "", "ruling": "197703", "deductibility": "2", "assets": 87008, "income": 46904, "revenue": 46904}, {"ein": "132913178", "name": "NEW YORK CRIMINAL BAR ASSOCIATION INC", "city": "BROOKLYN", "state": "NY", "zip": "11211-6128", "ntee": "", "ruling": "197711", "deductibility": "2", "assets": 131962, "income": 91535, "revenue": 29624}, {"ein": "133024057", "name": "NEW YORK CRIMINAL & CIVIL COURTS BAR ASSOCIATION", "city": "NEW YORK", "state": "NY", "zip": "10018-3354", "ntee": "", "ruling": "199804", "deductibility": "2", "assets": 76973, "income": 11364, "revenue": 11364}, {"ein": "133076621", "name": "WOMENS BAR ASSOCIATION OF THE STATE OF NEW YORK", "city": "NEW YORK", "state": "NY", "zip": "10024-0546", "ntee": "", "ruling": "198207", "deductibility": "2", "assets": 1805929, "income": 1370415, "revenue": 1370415}, {"ein": "133171380", "name": "WESTCHESTER COUNTY BAR FOUNDATION", "city": "WHITE PLAINS", "state": "NY", "zip": "10604-3431", "ntee": "", "ruling": "198407", "deductibility": "1", "assets": 376202, "income": 118064, "revenue": 88804}, {"ein": "133315471", "name": "NEW ROCHELLE BAR ASSOCIATION INC", "city": "NEW ROCHELLE", "state": "NY", "zip": "10801-0000", "ntee": "P20", "ruling": "201309", "deductibility": "1", "assets": 114926, "income": 59815, "revenue": 59815}, {"ein": "133482353", "name": "METROPOLITAN BLACK BAR ASSOC", "city": "NEW YORK", "state": "NY", "zip": "10036-7424", "ntee": "S41", "ruling": "200401", "deductibility": "2", "assets": 1, "income": 0, "revenue": 0}, {"ein": "133546484", "name": "ASIAN AMERICAN BAR ASSOCIATION OF NEW YORK", "city": "NEW YORK", "state": "NY", "zip": "10111-3193", "ntee": "", "ruling": "199101", "deductibility": "2", "assets": 2296403, "income": 1217708, "revenue": 701210}, {"ein": "133823609", "name": "FOUNDATION OF THE ROCKLAND COUNTY BAR ASSOCIATION INC", "city": "NEW CITY", "state": "NY", "zip": "10956-4318", "ntee": "B60", "ruling": "199603", "deductibility": "1", "assets": 124738, "income": 90449, "revenue": 51144}, {"ein": "133841519", "name": "CAPITAL DISTRICT WOMENS BAR ASSOCIATION LEGAL PROJECT INC", "city": "SCHENECTADY", "state": "NY", "zip": "12305-2406", "ntee": "I80", "ruling": "199508", "deductibility": "1", "assets": 1504354, "income": 3029099, "revenue": 3010744}, {"ein": "133877078", "name": "NEW YORK WOMENS BAR ASSOCIATION FOUNDATION INC", "city": "NEW YORK", "state": "NY", "zip": "10022-0000", "ntee": "R30", "ruling": "199706", "deductibility": "1", "assets": 73446, "income": 13251, "revenue": 13251}, {"ein": "134029939", "name": "WESTCHESTER WOMENS BAR ASSOCIATION FOUNDATION INC", "city": "WHITE PLAINS", "state": "NY", "zip": "10601-0000", "ntee": "B82", "ruling": "199908", "deductibility": "1", "assets": 92934, "income": 45430, "revenue": 38880}, {"ein": "134354023", "name": "NASSAU COUNTY WOMENS BAR FOUNDATION INC", "city": "GARDEN CITY", "state": "NY", "zip": "11530-0395", "ntee": "B82", "ruling": "200901", "deductibility": "1", "assets": 23400, "income": 35068, "revenue": 29508}, {"ein": "136003018", "name": "ASSOCIATION OF THE BAR OF THE CITY OF NEW YORK FUND INC", "city": "NEW YORK", "state": "NY", "zip": "10036-6604", "ntee": "V26", "ruling": "194804", "deductibility": "1", "assets": 16426733, "income": 10032891, "revenue": 8979292}, {"ein": "136138186", "name": "BRONX COUNTY BAR ENDOWMENT INC", "city": "BRONX", "state": "NY", "zip": "10451-2937", "ntee": "", "ruling": "196406", "deductibility": "1", "assets": 641122, "income": 150513, "revenue": 150513}, {"ein": "136157258", "name": "FOUNDATION OF THE FEDERAL BAR COUNCIL INC", "city": "NEW YORK", "state": "NY", "zip": "10038-4338", "ntee": "I038", "ruling": "196503", "deductibility": "1", "assets": 1176888, "income": 628679, "revenue": 628679}, {"ein": "136192275", "name": "BAR ILAN UNIVERSITY IN ISRAEL", "city": "NEW YORK", "state": "NY", "zip": "10022-3609", "ntee": "", "ruling": "196509", "deductibility": "1", "assets": 528622241, "income": 478485822, "revenue": 478485822}, {"ein": "140923640", "name": "NEW YORK STATE BAR ASSOCIATION", "city": "ALBANY", "state": "NY", "zip": "12207-1002", "ntee": "", "ruling": "194412", "deductibility": "2", "assets": 76445135, "income": 33668484, "revenue": 22477520}, {"ein": "141375568", "name": "ALBANY COUNTY BAR ASSOCIATION", "city": "ALBANY", "state": "NY", "zip": "12207-2107", "ntee": "", "ruling": "199211", "deductibility": "2", "assets": 73712, "income": 314650, "revenue": 314650}, {"ein": "141469019", "name": "BENTON BAR CEMETERY ASSOCIATION", "city": "STONE RIDGE", "state": "NY", "zip": "12484-0236", "ntee": "Y50", "ruling": "201511", "deductibility": "1", "assets": 371948, "income": 14213, "revenue": 14213}, {"ein": "141585212", "name": "ORANGE COUNTY BAR ASSOCIATION", "city": "GOSHEN", "state": "NY", "zip": "10924-0088", "ntee": "S41", "ruling": "202410", "deductibility": "2", "assets": 114184, "income": 60937, "revenue": 60937}, {"ein": "141597979", "name": "WARREN COUNTY BAR ASSOC INC", "city": "GLENS FALLS", "state": "NY", "zip": "12801-7488", "ntee": "", "ruling": "198305", "deductibility": "2", "assets": 0, "income": 0, "revenue": 0}, {"ein": "141629189", "name": "DUTCHESS COUNTY BAR ASSOCIATION", "city": "POUGHKEEPSIE", "state": "NY", "zip": "12601-0837", "ntee": "", "ruling": "198603", "deductibility": "2", "assets": 52093, "income": 87472, "revenue": 87472}, {"ein": "141636333", "name": "WARREN COUNTY BAR FOUNDATION INC", "city": "GLENS FALLS", "state": "NY", "zip": "12801-7488", "ntee": "I128", "ruling": "199209", "deductibility": "1", "assets": 258368, "income": 115291, "revenue": 35440}, {"ein": "141738603", "name": "CAPITAL REGION BANKRUPTCY BAR ASSOCIATION", "city": "SARATOGA SPGS", "state": "NY", "zip": "12866-8031", "ntee": "B60", "ruling": "200112", "deductibility": "1", "assets": 27090, "income": 130, "revenue": 130}, {"ein": "141768261", "name": "ALBANY COUNTY BAR FOUNDATION INC", "city": "ALBANY", "state": "NY", "zip": "12207-2107", "ntee": "I80", "ruling": "201304", "deductibility": "1", "assets": 0, "income": 0, "revenue": 0}, {"ein": "141768740", "name": "CLINTON COUNTY BAR ASSOCIATION DOTTIE HARVEY MEMORIAL SCHOLARSHIP", "city": "PLATTSBURGH", "state": "NY", "zip": "12901-1833", "ntee": "B82Z", "ruling": "199506", "deductibility": "1", "assets": 0, "income": 0, "revenue": 0}, {"ein": "141798722", "name": "SARATOGA COUNTY BAR ASSOCIATION", "city": "SARATOGA SPGS", "state": "NY", "zip": "12866-0994", "ntee": "W03", "ruling": "200101", "deductibility": "2", "assets": 30555, "income": 19552, "revenue": 19552}, {"ein": "146029915", "name": "NEW YORK BAR FOUNDATION", "city": "ALBANY", "state": "NY", "zip": "12207-1002", "ntee": "I128", "ruling": "195801", "deductibility": "1", "assets": 13106895, "income": 5434514, "revenue": 2640656}, {"ein": "146076946", "name": "RENSSELAER COUNTY BAR ASSOCIATION", "city": "TROY", "state": "NY", "zip": "12181-0395", "ntee": "S41", "ruling": "201402", "deductibility": "2", "assets": 0, "income": 0, "revenue": 0}, {"ein": "150516089", "name": "BROOME COUNTY BAR ASSOCIATION", "city": "BINGHAMTON", "state": "NY", "zip": "13905-4562", "ntee": "I80C", "ruling": "197504", "deductibility": "2", "assets": 11017, "income": 98236, "revenue": 91195}, {"ein": "150616915", "name": "ONONDAGA COUNTY BAR ASSOCIATION", "city": "SYRACUSE", "state": "NY", "zip": "13202-1955", "ntee": "", "ruling": "193910", "deductibility": "2", "assets": 0, "income": 0, "revenue": 0}, {"ein": "160341905", "name": "BAR ASSOCIATION OF ERIE COUNTY", "city": "BUFFALO", "state": "NY", "zip": "14202-3206", "ntee": "", "ruling": "196701", "deductibility": "2", "assets": 1992641, "income": 1041986, "revenue": 956451}, {"ein": "160834505", "name": "MONROE COUNTY BAR ASSOCIATION", "city": "ROCHESTER", "state": "NY", "zip": "14604-2624", "ntee": "", "ruling": "197712", "deductibility": "2", "assets": 1317495, "income": 795127, "revenue": 728701}, {"ein": "160864675", "name": "ERIE COUNTY BAR ASSOCIATION AID TO INDIGENT PRISONERS SOCIETY INC", "city": "BUFFALO", "state": "NY", "zip": "14203-2114", "ntee": "I80Z", "ruling": "199001", "deductibility": "1", "assets": 15246774, "income": 21485390, "revenue": 21485390}, {"ein": "160955912", "name": "ROME TWIGS SNACK BAR & GIFT SHOP", "city": "ROME", "state": "NY", "zip": "13440-2844", "ntee": "E22I", "ruling": "196908", "deductibility": "1", "assets": 52530, "income": 70835, "revenue": 48034}, {"ein": "160976225", "name": "PRE-TRIAL SERVICES CORPORATION OF THE MONROE COUNTY BAR ASSOCIATION", "city": "ROCHESTER", "state": "NY", "zip": "14614-1293", "ntee": "", "ruling": "197201", "deductibility": "1", "assets": 1018369, "income": 1266581, "revenue": 1266581}, {"ein": "161071982", "name": "ONONDAGA COUNTY BAR FOUNDATION INC", "city": "SYRACUSE", "state": "NY", "zip": "13202-1955", "ntee": "I128", "ruling": "197506", "deductibility": "1", "assets": 0, "income": 0, "revenue": 0}, {"ein": "161078845", "name": "ONEIDA COUNTY BAR ASSOCIATION", "city": "UTICA", "state": "NY", "zip": "13502-4638", "ntee": "", "ruling": "198803", "deductibility": "2", "assets": 133875, "income": 120058, "revenue": 93312}, {"ein": "161192008", "name": "BROOME COUNTY BAR FOUNDATION", "city": "BINGHAMTON", "state": "NY", "zip": "13905-4562", "ntee": "I038", "ruling": "198605", "deductibility": "1", "assets": 0, "income": 0, "revenue": 0}, {"ein": "161337417", "name": "ERIE COUNTY BAR ASSOCIATION", "city": "BUFFALO", "state": "NY", "zip": "14202-3207", "ntee": "I83Z", "ruling": "199001", "deductibility": "1", "assets": 3487321, "income": 5831675, "revenue": 5812508}, {"ein": "161418862", "name": "CENTRAL NEW YORK BANKRUPTCY BAR ASSOCIATION INC", "city": "SYRACUSE", "state": "NY", "zip": "13261-7003", "ntee": "B99", "ruling": "200305", "deductibility": "2", "assets": 0, "income": 0, "revenue": 0}, {"ein": "161438455", "name": "ERIE COUNTY BAR INSTITUTE OF LAW", "city": "BUFFALO", "state": "NY", "zip": "14202-3208", "ntee": "Z99Z", "ruling": "199402", "deductibility": "1", "assets": 68685, "income": 146326, "revenue": 146326}, {"ein": "161471888", "name": "ONONDAGA COUNTY BAR ASSOCIATION ASSIGNED COUNSEL PROGRAM INC", "city": "SYRACUSE", "state": "NY", "zip": "13202-4740", "ntee": "I80Z", "ruling": "199709", "deductibility": "1", "assets": 2379907, "income": 15509691, "revenue": 15509691}, {"ein": "161522449", "name": "INJURED WORKERS BAR ASSOCIATION INC", "city": "ALBANY", "state": "NY", "zip": "12210-1367", "ntee": "", "ruling": "199808", "deductibility": "2", "assets": 194700, "income": 240358, "revenue": 240358}, {"ein": "161549562", "name": "WOMENS BAR ASSOCIATION OF THE STATE OF NEW YORK FOUNDATION INC", "city": "NEW YORK", "state": "NY", "zip": "10017-6506", "ntee": "R24", "ruling": "201407", "deductibility": "1", "assets": 0, "income": 0, "revenue": 0}, {"ein": "161601349", "name": "MONROE COUNTY BAR CENTER FOR EDUCATION", "city": "ROCHESTER", "state": "NY", "zip": "14604-2624", "ntee": "B99", "ruling": "200106", "deductibility": "1", "assets": 77619, "income": 216590, "revenue": 191617}, {"ein": "166052602", "name": "ERIE COUNTY BAR FOUNDATION INC", "city": "BUFFALO", "state": "NY", "zip": "14202-3208", "ntee": "I128", "ruling": "196701", "deductibility": "1", "assets": 1707105, "income": 839309, "revenue": 406783}, {"ein": "166073110", "name": "FOUNDATION OF THE MONROE COUNTY BAR", "city": "ROCHESTER", "state": "NY", "zip": "14604-2624", "ntee": "I80I", "ruling": "196701", "deductibility": "1", "assets": 837914, "income": 274648, "revenue": 127316}, {"ein": "166503425", "name": "BROOKS BAR-B-QUE CHARTIABLE FOUNDATION", "city": "ONEONTA", "state": "NY", "zip": "13820-6612", "ntee": "T22", "ruling": "200005", "deductibility": "1", "assets": 8675, "income": 27115, "revenue": 0}, {"ein": "200034830", "name": "NDNY FEDRAL COURT BAR ASSOCIATION INC", "city": "SYRACUSE", "state": "NY", "zip": "13261-7067", "ntee": "I03", "ruling": "200311", "deductibility": "1", "assets": 99611, "income": 153394, "revenue": 153394}, {"ein": "202881407", "name": "WESTCHESTER BLACK BAR ASSOCIATION INC", "city": "YONKERS", "state": "NY", "zip": "10701-0000", "ntee": "S41", "ruling": "200610", "deductibility": "2", "assets": 0, "income": 0, "revenue": 0}, {"ein": "205509305", "name": "MUSLIM BAR ASSOCIATION OF NEW YORKINC", "city": "NEW YORK", "state": "NY", "zip": "10185-2244", "ntee": "S46", "ruling": "200907", "deductibility": "2", "assets": 73097, "income": 93638, "revenue": 93638}, {"ein": "223315057", "name": "THE MINORITY BAR ASSOCIATION OF WESTERN NEW YORK", "city": "BUFFALO", "state": "NY", "zip": "14201-0211", "ntee": "S41", "ruling": "201702", "deductibility": "2", "assets": 0, "income": 0, "revenue": 0}, {"ein": "237336685", "name": "NASSAU BAR FOUNDATION INC", "city": "MINEOLA", "state": "NY", "zip": "11501-0000", "ntee": "", "ruling": "194905", "deductibility": "1", "assets": 1304130, "income": 1498776, "revenue": 1260257}, {"ein": "237439425", "name": "CIVIL SERVICE BAR ASSOCIATION SECURITY BENEFITS FUND", "city": "NEW YORK", "state": "NY", "zip": "10016-6912", "ntee": "", "ruling": "197504", "deductibility": "2", "assets": 4308120, "income": 2158680, "revenue": 2158680}, {"ein": "260250582", "name": "FRENCH AMERICAN BAR ASSOCIATION INC", "city": "JACKSON HEIGHTS", "state": "NY", "zip": "11372-2222", "ntee": "S03", "ruling": "201002", "deductibility": "2", "assets": 0, "income": 0, "revenue": 0}, {"ein": "260291189", "name": "BAR CHUMA FOUNDATION INC", "city": "BROOKLYN", "state": "NY", "zip": "11206-8039", "ntee": "T20", "ruling": "200808", "deductibility": "1", "assets": 2489268, "income": 144963, "revenue": 0}, {"ein": "262895048", "name": "SEVEN BAR FOUNDATION", "city": "NEW YORK", "state": "NY", "zip": "10025-5642", "ntee": "", "ruling": "200903", "deductibility": "0", "assets": 208017, "income": 9995, "revenue": 0}, {"ein": "263541989", "name": "HARON DAHON FUND FOR BAR ILAN UNIVERSITY IN ISRAEL INC", "city": "NEW YORK", "state": "NY", "zip": "10022-3609", "ntee": "B112", "ruling": "200905", "deductibility": "1", "assets": 43255240, "income": 17497273, "revenue": 2331158}, {"ein": "263955919", "name": "WOMENS BAR ASSOCIATION OF ORANGE AND SULLIVAN COUNTIES FOUND", "city": "NEW WINDSOR", "state": "NY", "zip": "12553-6150", "ntee": "I99", "ruling": "201104", "deductibility": "1", "assets": 0, "income": 0, "revenue": 0}, {"ein": "264603705", "name": "CANADIAN AMERCIAN BAR ASSOCIATION", "city": "NEW YORK", "state": "NY", "zip": "10014-3693", "ntee": "Y03", "ruling": "201606", "deductibility": "2", "assets": 0, "income": 0, "revenue": 0}, {"ein": "271233782", "name": "LONG ISLAND HISPANIC BAR ASSOCIATION", "city": "GARDEN CITY", "state": "NY", "zip": "11530-0418", "ntee": "S41", "ruling": "201903", "deductibility": "2", "assets": 41713, "income": 98750, "revenue": 48290}, {"ein": "272664414", "name": "NASSAU COUNTY CRIMINAL COURTS BAR FOUNDATION", "city": "MINEOLA", "state": "NY", "zip": "11501-0668", "ntee": "L12", "ruling": "201502", "deductibility": "1", "assets": 0, "income": 0, "revenue": 0}, {"ein": "273922718", "name": "SOUTH ASIAN BAR ASSOCIATION OF NEW YORK FUND INC", "city": "NEW YORK", "state": "NY", "zip": "10036-2714", "ntee": "B82", "ruling": "201106", "deductibility": "1", "assets": 67585, "income": 72051, "revenue": 72051}, {"ein": "455300933", "name": "FRIENDS OF THE METROPOLITAN BLACK BAR ASSOCIATION INC", "city": "NEW YORK", "state": "NY", "zip": "10036-0000", "ntee": "B82", "ruling": "202305", "deductibility": "1", "assets": 75018, "income": 57619, "revenue": -5424}, {"ein": "461884440", "name": "EZRA CORNMAN BAR MITZVAH FOUNDATION INC", "city": "BROOKLYN", "state": "NY", "zip": "11223-0686", "ntee": "Z99", "ruling": "201406", "deductibility": "1", "assets": 53388, "income": 8563, "revenue": 0}, {"ein": "463936881", "name": "CNY BANKRUPTCY BAR ASSOCIATION INC", "city": "SYRACUSE", "state": "NY", "zip": "13261-7003", "ntee": "B03", "ruling": "201901", "deductibility": "1", "assets": 0, "income": 0, "revenue": 0}, {"ein": "464070183", "name": "ROCHESTER BLACK BAR ASSOCIATION FOUNDATION INC", "city": "EAST ROCHESTER", "state": "NY", "zip": "14445-1718", "ntee": "B90", "ruling": "201912", "deductibility": "1", "assets": 0, "income": 0, "revenue": 0}, {"ein": "464198975", "name": "AMERICAN FRIENDS OF BAR-ILAN UNIVERSITY INC", "city": "NEW YORK", "state": "NY", "zip": "10022-3609", "ntee": "B194", "ruling": "201409", "deductibility": "1", "assets": 246537522, "income": 280167286, "revenue": 277228798}, {"ein": "464944390", "name": "BAR MITZVAH FUND INC", "city": "CEDARHURST", "state": "NY", "zip": "11516-1828", "ntee": "X99", "ruling": "201408", "deductibility": "1", "assets": 0, "income": 0, "revenue": 0}, {"ein": "510252549", "name": "C BAINBRIDGE SMITH FUND UW ALGA LAW BAR ASSOCIATION OF NYC 117886", "city": "NEW YORK", "state": "NY", "zip": "10013-2362", "ntee": "", "ruling": "000000", "deductibility": "0", "assets": 1204297, "income": 369117, "revenue": 0}, {"ein": "522135510", "name": "SIMON BAR YOCHAI", "city": "BROOKLYN", "state": "NY", "zip": "11204-1410", "ntee": "X30", "ruling": "200106", "deductibility": "1", "assets": 0, "income": 0, "revenue": 0}, {"ein": "651196952", "name": "CHINESE AMERICAN BAR ASSOCIATION", "city": "NEW YORK", "state": "NY", "zip": "10038-0367", "ntee": "I038", "ruling": "200310", "deductibility": "2", "assets": 0, "income": 0, "revenue": 0}, {"ein": "651278594", "name": "CONFERENCE OF METROPOLITAN BAR ASSOCIATION INC", "city": "BUFFALO", "state": "NY", "zip": "14202-3208", "ntee": "S41", "ruling": "200609", "deductibility": "2", "assets": 0, "income": 0, "revenue": 0}, {"ein": "721598936", "name": "SOUTH ASIAN BAR ASSOCIATION OF NEW YORK", "city": "NEW YORK", "state": "NY", "zip": "10036-2714", "ntee": "S41", "ruling": "200706", "deductibility": "2", "assets": 507743, "income": 466676, "revenue": 466676}, {"ein": "800012302", "name": "SOCIETY OF NEW YORK WORKERS COMPENSATION BAR ASSOCIATION", "city": "NEW YORK", "state": "NY", "zip": "10007-2601", "ntee": "I80", "ruling": "200210", "deductibility": "2", "assets": 23376, "income": 195690, "revenue": 195690}, {"ein": "811570243", "name": "NYS LATINO RESTAURANT BAR AND LOUNGE ASSOCIATION INC", "city": "COLLEGE POINT", "state": "NY", "zip": "11356-1957", "ntee": "S41", "ruling": "202205", "deductibility": "2", "assets": 0, "income": 0, "revenue": 0}, {"ein": "813144098", "name": "WILLIAM HERBERT JOHNSON BAR ASSOCIATION OF CENTRAL NEW YORK", "city": "FAYETTEVILLE", "state": "NY", "zip": "13066-1434", "ntee": "I03", "ruling": "202312", "deductibility": "2", "assets": 0, "income": 0, "revenue": 0}, {"ein": "821337493", "name": "NEW YORK MEDICAL DEFENSE BAR ASSOCIATION", "city": "POUND RIDGE", "state": "NY", "zip": "10576-1622", "ntee": "S41", "ruling": "201808", "deductibility": "2", "assets": 0, "income": 0, "revenue": 0}, {"ein": "822170634", "name": "ONEIDA COUNTY BAR ASSOCIATION FOUNDATION INC", "city": "UTICA", "state": "NY", "zip": "13502-4638", "ntee": "T30", "ruling": "201707", "deductibility": "1", "assets": 3141, "income": 103, "revenue": 103}, {"ein": "823137656", "name": "BROOKLYN WOMENS BAR ASSOCIATION FOUNDATION INC", "city": "NEW YORK", "state": "NY", "zip": "10007-0000", "ntee": "T30", "ruling": "201807", "deductibility": "1", "assets": 31768, "income": 55977, "revenue": 55977}, {"ein": "823980991", "name": "SOUTH ASIAN AND INDO-CARIBBEAN BAR ASSOCIATION OF QUEENS INC", "city": "GLEN OAKS", "state": "NY", "zip": "11004-0169", "ntee": "S41", "ruling": "202202", "deductibility": "2", "assets": 0, "income": 0, "revenue": 0}, {"ein": "825140777", "name": "CRIMINAL COURTS BAR ASSOCIATION OF NASSAU COUNTY INC", "city": "MINEOLA", "state": "NY", "zip": "11501-0668", "ntee": "I03", "ruling": "201804", "deductibility": "2", "assets": 20890, "income": 43221, "revenue": 43221}, {"ein": "833844908", "name": "UNIVERSITY AT BUFFALO STUDENT BAR ASSOCIATION INC", "city": "BUFFALO", "state": "NY", "zip": "14260-1100", "ntee": "B80", "ruling": "202110", "deductibility": "1", "assets": 186991, "income": 179598, "revenue": 179598}, {"ein": "833873629", "name": "RAISING THE BAR FOR FAMILIES INC", "city": "MANHASSET", "state": "NY", "zip": "11030-3437", "ntee": "P40", "ruling": "201911", "deductibility": "1", "assets": 0, "income": 0, "revenue": 0}, {"ein": "843731818", "name": "YOUNG WOMEN RAISING THE BAR MENTORING AND FELLOWSHIP CLUB INC", "city": "BROOKLYN", "state": "NY", "zip": "11206-5303", "ntee": "O20", "ruling": "202001", "deductibility": "1", "assets": 0, "income": 0, "revenue": 0}, {"ein": "870775928", "name": "SUFFOLK COUNTY BAR ASSOCIATION CHARITY FOUNDATION", "city": "HAUPPAUGE", "state": "NY", "zip": "11788-4354", "ntee": "T20", "ruling": "201005", "deductibility": "1", "assets": 140405, "income": 80880, "revenue": 0}, {"ein": "900422670", "name": "RICHMOND COUNTY BAR ASSOCIATION VOLUNTEER LAWYERS PROJECT INC", "city": "STATEN ISLAND", "state": "NY", "zip": "10306-1944", "ntee": "I80", "ruling": "200905", "deductibility": "1", "assets": 31920, "income": 82232, "revenue": 82232}, {"ein": "921067369", "name": "MECHON MAHARI BAR CHAI INC", "city": "HIGHLAND MLS", "state": "NY", "zip": "10930-2142", "ntee": "X30", "ruling": "202305", "deductibility": "1", "assets": 0, "income": 0, "revenue": 0}, {"ein": "993069139", "name": "BAR EXAM VIP INC", "city": "PLAINVIEW", "state": "NY", "zip": "11803-3421", "ntee": "B60", "ruling": "202501", "deductibility": "1", "assets": 1, "income": 0, "revenue": 0}, {"ein": "994752525", "name": "WESTERN NEW YORK DISABILITY AND NEURODIVERSITY BAR ASSOCIATION", "city": "GASPORT", "state": "NY", "zip": "14067-9381", "ntee": "I03", "ruling": "202412", "deductibility": "1", "assets": 0, "income": 0, "revenue": 0}], "PROTECTION": [{"ein": "042718182", "name": "WORLD ANIMAL PROTECTION", "city": "NEW YORK", "state": "NY", "zip": "10018-2552", "ntee": "D200", "ruling": "198107", "deductibility": "1", "assets": 13833273, "income": 7273221, "revenue": 7250863}, {"ein": "112818272", "name": "GREEK ORTHODOX CHURCH OF THE HOLY PROTECTION OF THE MOTHER OF GOD", "city": "ASTORIA", "state": "NY", "zip": "11102-3723", "ntee": "X01", "ruling": "202002", "deductibility": "1", "assets": 0, "income": 0, "revenue": 0}, {"ein": "112839688", "name": "LEAGUE FOR ANIMAL PROTECTION OF HUNTINGTON INC", "city": "HUNTINGTON", "state": "NY", "zip": "11743-0390", "ntee": "D20", "ruling": "201707", "deductibility": "1", "assets": 1784826, "income": 809548, "revenue": 68722}, {"ein": "112975550", "name": "PORT WASHINGTON PROTECTION FIRE ENGINE COMPANY NUMBER ONE", "city": "PRT WASHINGTN", "state": "NY", "zip": "11050-3216", "ntee": "M24", "ruling": "201602", "deductibility": "1", "assets": 2832155, "income": 943426, "revenue": 638786}, {"ein": "132545508", "name": "UNIFORMED FIRE OFFICERS ASSOCIATION FAMILY PROTECTION PLAN LOCAL 854 I", "city": "NEW YORK", "state": "NY", "zip": "10038-4772", "ntee": "", "ruling": "196507", "deductibility": "2", "assets": 8479010, "income": 12352960, "revenue": 4703117}, {"ein": "133099462", "name": "UNIFORMED FIRE OFFICERS ASSOC FAMILY PROTECTION PLAN", "city": "YONKERS", "state": "NY", "zip": "10701-1667", "ntee": "", "ruling": "198208", "deductibility": "2", "assets": 695262, "income": 626776, "revenue": 626776}, {"ein": "133329865", "name": "BRIDGE & TUNNEL OFFICERS BENEVOLENT ASSOC FAMILY PROTECTION PLAN", "city": "MASSAPEQUA", "state": "NY", "zip": "11758-6243", "ntee": "", "ruling": "198510", "deductibility": "2", "assets": 2229770, "income": 4803178, "revenue": 4209957}, {"ein": "133572915", "name": "PROTECTION OF THE HOLY VIRGIN CATHEDRAL", "city": "NEW YORK", "state": "NY", "zip": "10003-9270", "ntee": "", "ruling": "197210", "deductibility": "1", "assets": 0, "income": 0, "revenue": 0}, {"ein": "133614533", "name": "THE YONKERS SOCIETY FOR AID LOVE PROTECTION HELP FOR ANIMALS INC", "city": "YONKERS", "state": "NY", "zip": "10710-3111", "ntee": "D20", "ruling": "201302", "deductibility": "1", "assets": 0, "income": 0, "revenue": 0}, {"ein": "133723189", "name": "VOLUNTARY PROTECTION PROGRAMS PARTICIPANTS ASSOCIATION", "city": "LATHAM", "state": "NY", "zip": "12110-2209", "ntee": "", "ruling": "199610", "deductibility": "1", "assets": 0, "income": 0, "revenue": 0}, {"ein": "133860152", "name": "RUSSIAN-AMERICAN SOCIETY FOR THE PROTECTION OF ANIMALS INC", "city": "NEW YORK", "state": "NY", "zip": "10075-1128", "ntee": "D200", "ruling": "199604", "deductibility": "1", "assets": 5252, "income": 25, "revenue": 25}, {"ein": "134192842", "name": "ALLIANCE FOR HUMAN RESEARCH PROTECTION INC", "city": "NEW YORK", "state": "NY", "zip": "10023-6123", "ntee": "E80", "ruling": "200112", "deductibility": "1", "assets": 73551, "income": 31814, "revenue": 31814}, {"ein": "141732051", "name": "PROTECTION ENGINE COMPANY NO 1 FISHKILL INC", "city": "FISHKILL", "state": "NY", "zip": "12524-3665", "ntee": "M24", "ruling": "200604", "deductibility": "1", "assets": 0, "income": 0, "revenue": 0}, {"ein": "204942020", "name": "GUARANTEED ASSET PROTECTION ALLIANCE INC", "city": "ALBANY", "state": "NY", "zip": "12203-5390", "ntee": "S41", "ruling": "201404", "deductibility": "2", "assets": 584636, "income": 682297, "revenue": 682297}, {"ein": "223257579", "name": "NEW YORK EMPIRE CHAPTER OF THE SOCIETY OF FIRE PROTECTION", "city": "ALBANY", "state": "NY", "zip": "12205-3809", "ntee": "S41", "ruling": "202407", "deductibility": "2", "assets": 0, "income": 0, "revenue": 0}, {"ein": "270760766", "name": "SACANDAGA PROTECTION CORPORATION", "city": "GLOVERSVILLE", "state": "NY", "zip": "12078-3004", "ntee": "S20", "ruling": "201006", "deductibility": "2", "assets": 265187, "income": 100602, "revenue": 100602}, {"ein": "273037382", "name": "NEW YORK STATE ANIMAL PROTECTION FEDERATION INC", "city": "ALBANY", "state": "NY", "zip": "12201-1115", "ntee": "D01", "ruling": "201304", "deductibility": "2", "assets": 56837, "income": 54680, "revenue": 54680}, {"ein": "300144468", "name": "SPECS-SPECIAL PROTECTION OF THE EN VIRONMENT FOR THE CNTY SULLIVAN", "city": "MONTICELLO", "state": "NY", "zip": "12701-1709", "ntee": "C30", "ruling": "200307", "deductibility": "1", "assets": 0, "income": 0, "revenue": 0}, {"ein": "320600343", "name": "PROTECTION ENGINE COMPANY OF HASTINGS ON THE HUDSON", "city": "HASTINGS HDSN", "state": "NY", "zip": "10706-1516", "ntee": "M24", "ruling": "202306", "deductibility": "1", "assets": 0, "income": 0, "revenue": 0}, {"ein": "352414025", "name": "MOTOR VEHICLE PROTECTION PRODUCTS ASSOCITION INC", "city": "ALBANY", "state": "NY", "zip": "12203-5390", "ntee": "S41", "ruling": "201203", "deductibility": "2", "assets": 271257, "income": 574125, "revenue": 574125}, {"ein": "352625666", "name": "WORLD INTANGIBLE CULTURAL HERITAGE PROTECTION & DEVELOPMENT FOUNDATIO", "city": "NEW YORK", "state": "NY", "zip": "10020-0075", "ntee": "A23", "ruling": "202006", "deductibility": "1", "assets": 5922, "income": 100654, "revenue": 100536}, {"ein": "372106747", "name": "ASSOCIATION FOR THE PROTECTION OF ASIAN WOMEN IN AMERICA INC", "city": "FLUSHING", "state": "NY", "zip": "11354-4652", "ntee": "H05", "ruling": "202503", "deductibility": "1", "assets": 1, "income": 1, "revenue": 0}, {"ein": "451257384", "name": "EQUAL PROTECTION FOUNDATION", "city": "NEW YORK", "state": "NY", "zip": "10028-0936", "ntee": "P20", "ruling": "201407", "deductibility": "1", "assets": 0, "income": 0, "revenue": 0}, {"ein": "510150132", "name": "TRANSPORTATION CONSUMER PROTECTION COUNCIL INC", "city": "HUNTINGTON", "state": "NY", "zip": "11743-8001", "ntee": "", "ruling": "198106", "deductibility": "2", "assets": 83988, "income": 332665, "revenue": 332665}, {"ein": "510199738", "name": "UNIFORMED FIRE OFFICERS FAMILY PROTECTION PLAN", "city": "NEW YORK", "state": "NY", "zip": "10038-4772", "ntee": "", "ruling": "197609", "deductibility": "2", "assets": 36180440, "income": 46480809, "revenue": 17859606}, {"ein": "510224770", "name": "NEW YORK STATE ASSOCIATION FOR FOOD PROTECTION", "city": "CAPE VINCENT", "state": "NY", "zip": "13618-2100", "ntee": "", "ruling": "196405", "deductibility": "2", "assets": 19669, "income": 40741, "revenue": 40741}, {"ein": "521467954", "name": "AMERICAN SOCIETY FOR THE PROTECTION OF NATURE ISRAEL INC", "city": "NEW YORK", "state": "NY", "zip": "10016-0410", "ntee": "", "ruling": "198609", "deductibility": "1", "assets": 620746, "income": 2189415, "revenue": 2189415}, {"ein": "821433077", "name": "NEW YORK STATE ANIMAL PROTECTION FEDERATION EDUCATION FUND", "city": "ALBANY", "state": "NY", "zip": "12201-1115", "ntee": "D02", "ruling": "201709", "deductibility": "1", "assets": 86167, "income": 77491, "revenue": 77491}, {"ein": "830549268", "name": "ACCABONAC PROTECTION COMMITTEE INC", "city": "EAST HAMPTON", "state": "NY", "zip": "11937-0253", "ntee": "C01", "ruling": "201806", "deductibility": "1", "assets": 65147, "income": 26100, "revenue": 25141}, {"ein": "830730002", "name": "SAVE-A-DOG ANIMAL PROTECTION SERVICE", "city": "WEST BABYLON", "state": "NY", "zip": "11704-4754", "ntee": "D20", "ruling": "201811", "deductibility": "1", "assets": 0, "income": 0, "revenue": 0}, {"ein": "831443373", "name": "PHYSICIANS FOR PATIENT PROTECTION INC", "city": "MASSAPEQUA PARK", "state": "NY", "zip": "11762-3803", "ntee": "E01", "ruling": "202308", "deductibility": "1", "assets": 963735, "income": 309950, "revenue": 205703}, {"ein": "832155468", "name": "CAT PROTECTION COUNCIL OF WESTCHESTER INC", "city": "MARYKNOLL", "state": "NY", "zip": "10545-0073", "ntee": "D20", "ruling": "202009", "deductibility": "1", "assets": 0, "income": 0, "revenue": 0}, {"ein": "834685393", "name": "NATIONAL SAFETY AND SECURITY PROTECTION ASSOCIATION INC", "city": "SYRACUSE", "state": "NY", "zip": "13206-2276", "ntee": "M40", "ruling": "201911", "deductibility": "1", "assets": 0, "income": 0, "revenue": 0}, {"ein": "841843656", "name": "PATIENT PROTECTION COALITION", "city": "LEVITTOWN", "state": "NY", "zip": "11756-5228", "ntee": "E99", "ruling": "201908", "deductibility": "2", "assets": 789, "income": 1200, "revenue": 1200}, {"ein": "843779390", "name": "GOOD WORLD ANIMAL RESCUE AND PROTECTION INC", "city": "NEW YORK", "state": "NY", "zip": "10004-2783", "ntee": "D20", "ruling": "202402", "deductibility": "1", "assets": 672, "income": 820947, "revenue": 820947}, {"ein": "852839813", "name": "LATINO VOTER PROTECTION INC", "city": "PITTSFORD", "state": "NY", "zip": "14534-2116", "ntee": "R40", "ruling": "202011", "deductibility": "1", "assets": 335, "income": 0, "revenue": 0}, {"ein": "871202157", "name": "PROTECTION HOOK & LADDER COMPANY INC", "city": "HUNTINGTON", "state": "NY", "zip": "11743-2048", "ntee": "M24", "ruling": "202109", "deductibility": "1", "assets": 0, "income": 0, "revenue": 0}, {"ein": "872346999", "name": "ASSOCIATION FOR THE PROTECTION OF THE ART OF HORSEMANSHIP IN AMERICA", "city": "GERMANTOWN", "state": "NY", "zip": "12526-5026", "ntee": "A20", "ruling": "202112", "deductibility": "1", "assets": 0, "income": 0, "revenue": 0}, {"ein": "881667500", "name": "PROTECTION FIRE HOSE CO NO I INC", "city": "HUNTINGTON", "state": "NY", "zip": "11743-2048", "ntee": "M24", "ruling": "202210", "deductibility": "1", "assets": 0, "income": 0, "revenue": 0}, {"ein": "882135886", "name": "ASIAN AMERICAN CULTURE PROTECTION FOUNDATION INC", "city": "BROOKLYN", "state": "NY", "zip": "11214-3735", "ntee": "A20", "ruling": "202205", "deductibility": "1", "assets": 0, "income": 0, "revenue": 0}, {"ein": "882151260", "name": "ASIAN AMERICAN CHILDREN PROTECTION FOUNDATION INC", "city": "BROOKLYN", "state": "NY", "zip": "11214-3735", "ntee": "A20", "ruling": "202206", "deductibility": "1", "assets": 0, "income": 0, "revenue": 0}, {"ein": "933615066", "name": "IMMIGRANTS ADVOCATES PROTECTION INC", "city": "NEW YORK", "state": "NY", "zip": "10039-3138", "ntee": "I80", "ruling": "202310", "deductibility": "1", "assets": 0, "income": 0, "revenue": 0}, {"ein": "990505072", "name": "ST MICHAELS FAMILY PROTECTION INSTITUTE INC", "city": "ROCHESTER", "state": "NY", "zip": "14622-2473", "ntee": "B60", "ruling": "202401", "deductibility": "1", "assets": 0, "income": 0, "revenue": 0}, {"ein": "993117085", "name": "INTEGRITY IDENTIFICATION PROTECTION INC", "city": "NEW YORK", "state": "NY", "zip": "10116-9046", "ntee": "S99", "ruling": "202406", "deductibility": "1", "assets": 0, "income": 0, "revenue": 0}, {"ein": "994920620", "name": "CHILD PROTECTION GLOBAL NETWORK INC", "city": "NEW YORK", "state": "NY", "zip": "10023-9672", "ntee": "I72", "ruling": "202506", "deductibility": "1", "assets": 0, "income": 0, "revenue": 0}], "NMJ": [{"ein": "042736803", "name": "ANCIENT ACCEPTED SCOTTISH RITE OF FREE MASONRY NMJ", "city": "BINGHAMTON", "state": "NY", "zip": "13903-0025", "ntee": "", "ruling": "194012", "deductibility": "1", "assets": 0, "income": 0, "revenue": 0}, {"ein": "111018996", "name": "ANCIENT ACCEPTED SCOTTISH RITE OF FREE MASONRY NMJ", "city": "ROCKVILLE CTR", "state": "NY", "zip": "11570-5783", "ntee": "", "ruling": "194012", "deductibility": "1", "assets": 1618080, "income": 443062, "revenue": 213690}, {"ein": "150232118", "name": "ANCIENT ACCEPTED SCOTTISH RITE OF FREE MASONRY NMJ", "city": "UTICA", "state": "NY", "zip": "13501-3401", "ntee": "", "ruling": "194012", "deductibility": "1", "assets": 1836649, "income": 597147, "revenue": 188269}, {"ein": "150264995", "name": "ANCIENT ACCEPTED SCOTTISH RITE OF FREE MASONRY NMJ", "city": "N SYRACUSE", "state": "NY", "zip": "13212-2366", "ntee": "", "ruling": "194012", "deductibility": "1", "assets": 1231545, "income": 219992, "revenue": 78423}, {"ein": "160365840", "name": "ANCIENT ACCEPTED SCOTTISH RITE OF FREE MASONRY NMJ", "city": "CHEEKTOWAGA", "state": "NY", "zip": "14227-2234", "ntee": "", "ruling": "194012", "deductibility": "1", "assets": 1000978, "income": 280228, "revenue": 105189}, {"ein": "160495453", "name": "ANCIENT ACCEPTED SCOTTISH RITE OF FREE MASONRY NMJ", "city": "FINDLEY LAKE", "state": "NY", "zip": "14736-0406", "ntee": "", "ruling": "194012", "deductibility": "1", "assets": 617394, "income": 44738, "revenue": 44738}, {"ein": "160611675", "name": "ANCIENT ACCEPTED SCOTTISH RITE OF FREE MASONRY NMJ", "city": "FAIRPORT", "state": "NY", "zip": "14450-8964", "ntee": "", "ruling": "194012", "deductibility": "1", "assets": 4983696, "income": 3806374, "revenue": 1883645}, {"ein": "160863479", "name": "ANCIENT ACCEPTED SCOTTISH RITE OF FREE MASONRY NMJ", "city": "ROCHESTER", "state": "NY", "zip": "14618-1338", "ntee": "", "ruling": "194012", "deductibility": "1", "assets": 577027, "income": 133159, "revenue": 29077}, {"ein": "222488365", "name": "ANCIENT ACCEPTED SCOTTISH RITE OF FREE MASONRY NMJ", "city": "ALBANY", "state": "NY", "zip": "12207-0000", "ntee": "", "ruling": "194012", "deductibility": "1", "assets": 0, "income": 0, "revenue": 0}, {"ein": "237390956", "name": "ANCIENT ACCEPTED SCOTTISH RITE OF FREE MASONRY NMJ", "city": "CANTON", "state": "NY", "zip": "13617-3732", "ntee": "", "ruling": "194012", "deductibility": "1", "assets": 0, "income": 0, "revenue": 0}, {"ein": "237615692", "name": "ANCIENT ACCEPTED SCOTTISH RITE OF FREE MASONRY NMJ", "city": "PLATTSBURGH", "state": "NY", "zip": "12901-0257", "ntee": "", "ruling": "197211", "deductibility": "1", "assets": 0, "income": 0, "revenue": 0}, {"ein": "237615742", "name": "ANCIENT ACCEPTED SCOTT RITE OF FREE MASON USA NMJ", "city": "SCHENECTADY", "state": "NY", "zip": "12325-0771", "ntee": "", "ruling": "197211", "deductibility": "1", "assets": 2382152, "income": 919682, "revenue": 425256}], "MUZI": [{"ein": "043254104", "name": "FREDERICK O J MUZI FOUNDATION", "city": "HUNTINGTON", "state": "NY", "zip": "11743-1508", "ntee": "T22J", "ruling": "199505", "deductibility": "1", "assets": 39165, "income": 5, "revenue": 0}], "EYE": [{"ein": "043815653", "name": "F Y EYE INC", "city": "NEW YORK", "state": "NY", "zip": "10163-0000", "ntee": "T19", "ruling": "200608", "deductibility": "1", "assets": 3541323, "income": 1073162, "revenue": 757049}, {"ein": "113225793", "name": "OPEN EYE CHURCH MISSION AND CENTER OF THEOLOGICAL TEACHING", "city": "BROOKLYN", "state": "NY", "zip": "11225-1703", "ntee": "X20", "ruling": "199903", "deductibility": "1", "assets": 0, "income": 0, "revenue": 0}, {"ein": "113602102", "name": "LONG ISLAND LIONS EYE FOUNDATION INC", "city": "VALLEY STREAM", "state": "NY", "zip": "11580-2145", "ntee": "T30", "ruling": "201208", "deductibility": "1", "assets": 1213, "income": 51293, "revenue": 51293}, {"ein": "131623998", "name": "EYE BANK FOR SIGHT RESTORATION INC", "city": "NEW YORK", "state": "NY", "zip": "10005-3912", "ntee": "", "ruling": "194508", "deductibility": "1", "assets": 81420040, "income": 20441807, "revenue": 11665358}, {"ein": "131992063", "name": "EYE SURGERY FUND INC", "city": "EASTCHESTER", "state": "NY", "zip": "10709-2701", "ntee": "", "ruling": "193906", "deductibility": "1", "assets": 4202486, "income": 1859611, "revenue": 0}, {"ein": "132749631", "name": "FOUNDATION FOR THE OPEN EYE INC", "city": "MARGARETVILLE", "state": "NY", "zip": "12455-0959", "ntee": "T22Z", "ruling": "197309", "deductibility": "1", "assets": 51024, "income": 102698, "revenue": 102698}, {"ein": "133358601", "name": "INDO-AMERICAN EYE CARE SOCIETY INC", "city": "ROCHESTER", "state": "NY", "zip": "14618-2113", "ntee": "G41J", "ruling": "198608", "deductibility": "1", "assets": 9309915, "income": 963052, "revenue": 632862}, {"ein": "133367965", "name": "ALBERT MEDOW EYE FOUNDATION", "city": "NEW YORK", "state": "NY", "zip": "10021-4032", "ntee": "", "ruling": "198803", "deductibility": "1", "assets": 75648, "income": 36215, "revenue": 0}, {"ein": "134012469", "name": "NEW YORK EYE AND EAR INFIRMARY FOUNDATION", "city": "NEW YORK", "state": "NY", "zip": "10003-4284", "ntee": "T20Z", "ruling": "199810", "deductibility": "1", "assets": 11316884, "income": 1927505, "revenue": 0}, {"ein": "134015076", "name": "THE EYE CANCER FOUNDATION INC", "city": "NEW YORK", "state": "NY", "zip": "10065-8183", "ntee": "G41", "ruling": "199810", "deductibility": "1", "assets": 2712929, "income": 509277, "revenue": 332867}, {"ein": "134353185", "name": "THIRD EYE THEATRE COMPANY INC", "city": "EAST HAMPTON", "state": "NY", "zip": "11937-5151", "ntee": "A65", "ruling": "200709", "deductibility": "1", "assets": 0, "income": 0, "revenue": 0}, {"ein": "135562304", "name": "NEW YORK EYE & EAR INFIRMARY", "city": "NEW YORK", "state": "NY", "zip": "10003-4284", "ntee": "E240", "ruling": "193507", "deductibility": "1", "assets": 146201172, "income": 126804498, "revenue": 126804498}, {"ein": "204354337", "name": "THIRD EYE THEATRE", "city": "NEW YORK CITY", "state": "NY", "zip": "10034-0447", "ntee": "A65", "ruling": "200612", "deductibility": "1", "assets": 0, "income": 0, "revenue": 0}, {"ein": "273093876", "name": "THIRD EYE INSIGHT - FITNESS FOR THE BLIND INC", "city": "WEST ISLIP", "state": "NY", "zip": "11795-2907", "ntee": "P86", "ruling": "201011", "deductibility": "1", "assets": 0, "income": 0, "revenue": 0}, {"ein": "364695071", "name": "EYE OF A DREAM INC", "city": "NEW YORK", "state": "NY", "zip": "10031-6882", "ntee": "B82", "ruling": "201712", "deductibility": "1", "assets": 1, "income": 7600, "revenue": 7600}, {"ein": "383532410", "name": "ARAVIND EYE FOUNDATION", "city": "MANHATTAN", "state": "NY", "zip": "10022-3064", "ntee": "E112", "ruling": "200010", "deductibility": "1", "assets": 7087513, "income": 4636372, "revenue": 4636372}, {"ein": "412082491", "name": "EYE & I INC", "city": "BROOKLYN", "state": "NY", "zip": "11225-1889", "ntee": "A40", "ruling": "200307", "deductibility": "1", "assets": 0, "income": 0, "revenue": 0}, {"ein": "453596602", "name": "HONDURAS EYE & LIFE PROGRAM INC", "city": "SYRACUSE", "state": "NY", "zip": "13214-0048", "ntee": "Q33", "ruling": "201202", "deductibility": "1", "assets": 0, "income": 0, "revenue": 0}, {"ein": "454921435", "name": "EYE OF TRUTH MINISTRIES", "city": "ALBION", "state": "NY", "zip": "14411-9434", "ntee": "X20", "ruling": "202502", "deductibility": "1", "assets": 0, "income": 0, "revenue": 0}, {"ein": "462315236", "name": "OPEN EYE CHURCH", "city": "BROOKLYN", "state": "NY", "zip": "11210-1462", "ntee": "X21", "ruling": "201310", "deductibility": "1", "assets": 0, "income": 0, "revenue": 0}, {"ein": "510243492", "name": "MANHATTAN EYE FOUNDATION INC", "city": "NEW YORK", "state": "NY", "zip": "10122-1506", "ntee": "G41", "ruling": "197804", "deductibility": "1", "assets": 2076997, "income": 517486, "revenue": 0}, {"ein": "510570498", "name": "EYE TO EYE INC", "city": "NEW YORK", "state": "NY", "zip": "10017-0000", "ntee": "", "ruling": "200701", "deductibility": "1", "assets": 3848054, "income": 2212876, "revenue": 2212876}, {"ein": "542117808", "name": "LIONS EYE INSTITUTE AT ALBANY NEW YORK INC", "city": "SLINGERLANDS", "state": "NY", "zip": "12159-2183", "ntee": "", "ruling": "199306", "deductibility": "1", "assets": 0, "income": 0, "revenue": 0}, {"ein": "812593089", "name": "SEETA EYE FOUNDATION INC", "city": "NEWBURGH", "state": "NY", "zip": "12550-1347", "ntee": "E12", "ruling": "201702", "deductibility": "1", "assets": 0, "income": 0, "revenue": 0}, {"ein": "833040993", "name": "EAGLE EYE CHARITIES INC", "city": "NEW YORK", "state": "NY", "zip": "10044-0129", "ntee": "A25", "ruling": "201910", "deductibility": "1", "assets": 0, "income": 0, "revenue": 0}, {"ein": "834544060", "name": "EYE GOT THIS INC", "city": "LIVERPOOL", "state": "NY", "zip": "13090-3438", "ntee": "N01", "ruling": "201905", "deductibility": "1", "assets": 0, "income": 0, "revenue": 0}, {"ein": "842840052", "name": "BE THE APPLE OF GODS EYE INC", "city": "FREEPORT", "state": "NY", "zip": "11520-3131", "ntee": "X20", "ruling": "202312", "deductibility": "1", "assets": 0, "income": 0, "revenue": 0}, {"ein": "872599997", "name": "RED EYE COLLECTIVE INC", "city": "ROCHESTER", "state": "NY", "zip": "14607-3215", "ntee": "N50", "ruling": "202206", "deductibility": "2", "assets": 0, "income": 0, "revenue": 0}, {"ein": "883154203", "name": "EYE CARE BEQUIA LTD", "city": "FISHKILL", "state": "NY", "zip": "12524-2701", "ntee": "G41", "ruling": "202208", "deductibility": "1", "assets": 1596, "income": 2448, "revenue": 2448}, {"ein": "933424079", "name": "HOOK & EYE THEATER INC", "city": "BROOKLYN", "state": "NY", "zip": "11218-1451", "ntee": "A65", "ruling": "202402", "deductibility": "1", "assets": 0, "income": 0, "revenue": 0}, {"ein": "993934311", "name": "EYE CARE ABOUT SICKLE CELL INC", "city": "BRONX", "state": "NY", "zip": "10451-4842", "ntee": "E60", "ruling": "202408", "deductibility": "1", "assets": 0, "income": 0, "revenue": 0}], "DEFENDER": [{"ein": "061296692", "name": "NEIGHBORHOOD DEFENDER SERVICE INC", "city": "NEW YORK", "state": "NY", "zip": "10027-4461", "ntee": "", "ruling": "199110", "deductibility": "1", "assets": 8728977, "income": 46618630, "revenue": 46618630}, {"ein": "112164392", "name": "NASSAU COUNTY BAR ASSN ASSIGNED COUNSEL DEFENDER PLAN INC", "city": "MINEOLA", "state": "NY", "zip": "11501-0000", "ntee": "I80", "ruling": "200703", "deductibility": "1", "assets": 357885, "income": 725067, "revenue": 725067}, {"ein": "113305406", "name": "BROOKLYN DEFENDER SERVICES", "city": "BROOKLYN", "state": "NY", "zip": "11201-7000", "ntee": "R20", "ruling": "199608", "deductibility": "1", "assets": 43814123, "income": 89252808, "revenue": 89249810}, {"ein": "113361008", "name": "NEW YORK COUNTY DEFENDER SERVICES INC", "city": "NEW YORK", "state": "NY", "zip": "10038-4512", "ntee": "I80Z", "ruling": "199707", "deductibility": "1", "assets": 15946288, "income": 25689333, "revenue": 25689333}, {"ein": "116076043", "name": "DEFENDER HOSE COMPANY NO 1", "city": "ROCKVILLE CTR", "state": "NY", "zip": "11570-5717", "ntee": "M24", "ruling": "201505", "deductibility": "1", "assets": 0, "income": 0, "revenue": 0}, {"ein": "133468351", "name": "OFFICE OF THE APPELLATE DEFENDER INC", "city": "NEW YORK", "state": "NY", "zip": "10007-2815", "ntee": "I83Z", "ruling": "198808", "deductibility": "1", "assets": 7153219, "income": 6800060, "revenue": 6734303}, {"ein": "202110306", "name": "NATIONAL DEFENDER TRAINING PROJECT INC", "city": "SARATOGA SPGS", "state": "NY", "zip": "12866-1028", "ntee": "B03", "ruling": "200508", "deductibility": "1", "assets": 0, "income": 3, "revenue": 3}, {"ein": "811205357", "name": "ASSIGNED COUNSEL DEFENDER PLAN OF SUFFOLK COUNTY INC", "city": "CENTRAL ISLIP", "state": "NY", "zip": "11722-0000", "ntee": "I80", "ruling": "201803", "deductibility": "1", "assets": 583023, "income": 2626306, "revenue": 2626306}], "ETERNA": [{"ein": "061479290", "name": "IGL CHRISTIANA FUENTE DE VIDA ETERNA", "city": "MOUNT KISCO", "state": "NY", "zip": "10549-3518", "ntee": "X21", "ruling": "196408", "deductibility": "1", "assets": 0, "income": 0, "revenue": 0}, {"ein": "113132263", "name": "IGLESIA DE DIOS MANANTIALES DE VIDA ETERNA INC", "city": "ROOSEVELT", "state": "NY", "zip": "11575-2116", "ntee": "", "ruling": "199401", "deductibility": "1", "assets": 2570364, "income": 302176, "revenue": 302176}, {"ein": "113260472", "name": "IGLESIA PENECOSTAL ROCA ETERNA INC", "city": "BROOKLYN", "state": "NY", "zip": "11211-5401", "ntee": "X20", "ruling": "200204", "deductibility": "1", "assets": 0, "income": 0, "revenue": 0}, {"ein": "133764072", "name": "IGLESIA CRISTIANA FUENTE ETERNA INC", "city": "BRONX", "state": "NY", "zip": "10462-5315", "ntee": "X21", "ruling": "200308", "deductibility": "1", "assets": 0, "income": 0, "revenue": 0}, {"ein": "141770749", "name": "IGLESIA DE DIOS FUENTE DE VIDA ETERNA", "city": "NEWBURGH", "state": "NY", "zip": "12550-4040", "ntee": "", "ruling": "197210", "deductibility": "1", "assets": 0, "income": 0, "revenue": 0}, {"ein": "262532724", "name": "IGLESIA PENTECOSTAL UNIDA ROCA ETERNA INC", "city": "HEMPSTEAD", "state": "NY", "zip": "11550-3906", "ntee": "X21", "ruling": "200902", "deductibility": "1", "assets": 0, "income": 0, "revenue": 0}, {"ein": "272385947", "name": "IGLESIA DE CRISTO EMMANUEL MINISTERIO ROCA ETERNA", "city": "VLY COTTAGE", "state": "NY", "zip": "10989-1320", "ntee": "X21", "ruling": "202303", "deductibility": "1", "assets": 0, "income": 0, "revenue": 0}, {"ein": "320784993", "name": "IGLESIA CRISTIANA SENDA DE VIDA ETERNA INC", "city": "PATCHOGUE", "state": "NY", "zip": "11772-3420", "ntee": "X99", "ruling": "202505", "deductibility": "1", "assets": 0, "income": 0, "revenue": 0}, {"ein": "453085148", "name": "CHURCH MANNA OF ETERNAL LIFE IGLESIA MANA DE VIDA ETERNA", "city": "OSSINING", "state": "NY", "zip": "10562-1446", "ntee": "X20", "ruling": "201604", "deductibility": "1", "assets": 0, "income": 0, "revenue": 0}, {"ein": "455043841", "name": "IGLESIA PENTECOSTAL MINISTERIO CORONA ETERNA", "city": "BRENTWOOD", "state": "NY", "zip": "11717-4103", "ntee": "X20", "ruling": "201303", "deductibility": "1", "assets": 0, "income": 0, "revenue": 0}, {"ein": "821801869", "name": "IGLESIA PENTECOSTAL UNIDA ROCA ETERNA II DE FREEPORT INC", "city": "FREEPORT", "state": "NY", "zip": "11520-3638", "ntee": "X21", "ruling": "201909", "deductibility": "1", "assets": 0, "income": 0, "revenue": 0}, {"ein": "832829076", "name": "IGLESIA DE DIOS FUENTE DE VIDA ETERNA INC", "city": "NEWBURGH", "state": "NY", "zip": "12550-3724", "ntee": "X21", "ruling": "202408", "deductibility": "1", "assets": 0, "income": 0, "revenue": 0}, {"ein": "843134450", "name": "IGLESIA DE DIOS MANANTIAL DE VIDA ETERNA INC", "city": "DOVER PLAINS", "state": "NY", "zip": "12522-0593", "ntee": "X20", "ruling": "202209", "deductibility": "1", "assets": 35155, "income": 71756, "revenue": 71756}, {"ein": "844044206", "name": "IGLESIA PENTECOSTAL UNIDA ROCA ETERNA FIVE TOWNS INC", "city": "VALLEY STREAM", "state": "NY", "zip": "11580-2831", "ntee": "X99", "ruling": "202205", "deductibility": "1", "assets": 0, "income": 0, "revenue": 0}, {"ein": "880981591", "name": "IGLESIA PENTECOSTAL JESUS ES EL CAMINO A LA VIDA ETERNA INC", "city": "HUNTINGTN STA", "state": "NY", "zip": "11746-3120", "ntee": "X99", "ruling": "202404", "deductibility": "1", "assets": 0, "income": 0, "revenue": 0}], "TEXTILE": [{"ein": "061600686", "name": "TEXTILE STUDY GROUP OF NEW YORK", "city": "BROOKLYN", "state": "NY", "zip": "11231-4801", "ntee": "A20", "ruling": "200209", "deductibility": "1", "assets": 54249, "income": 18931, "revenue": 18931}, {"ein": "132921469", "name": "TEXTILE CONSERVATION WORKSHOP INC", "city": "SOUTH SALEM", "state": "NY", "zip": "10590-1413", "ntee": "", "ruling": "197801", "deductibility": "1", "assets": 1773846, "income": 1644978, "revenue": 529449}, {"ein": "136092225", "name": "TEXTILE CONVERTERS LIQUIDATION BENEFIT FUND", "city": "PELHAM", "state": "NY", "zip": "10803-0000", "ntee": "", "ruling": "196312", "deductibility": "2", "assets": 119195, "income": 5362, "revenue": 5362}, {"ein": "611788612", "name": "CREATIVE SEWING TEXTILE ARTS SCHOLARSHIP INC", "city": "STONY POINT", "state": "NY", "zip": "10980-1738", "ntee": "B82", "ruling": "201611", "deductibility": "1", "assets": 0, "income": 0, "revenue": 0}, {"ein": "823468500", "name": "HUDSON VALLEY TEXTILE PROJECT INC", "city": "CORNWALL", "state": "NY", "zip": "12518-2124", "ntee": "P01", "ruling": "201906", "deductibility": "1", "assets": 130188, "income": 202043, "revenue": 196741}, {"ein": "931419490", "name": "NEW YORK TEXTILE MONTH INC", "city": "NEW YORK", "state": "NY", "zip": "10018-3612", "ntee": "B90", "ruling": "202311", "deductibility": "1", "assets": 0, "income": 0, "revenue": 0}, {"ein": "994185106", "name": "BLACK FIBER & TEXTILE NETWORK", "city": "BROOKLYN", "state": "NY", "zip": "11216-5080", "ntee": "C03", "ruling": "202502", "deductibility": "1", "assets": 0, "income": 0, "revenue": 0}], "SEHERR": [{"ein": "066399636", "name": "SEHERR-THOSS CHARITABLE TR", "city": "GARDEN CITY", "state": "NY", "zip": "11530-0000", "ntee": "P11", "ruling": "201408", "deductibility": "1", "assets": 19205684, "income": 12088127, "revenue": 0}, {"ein": "136959146", "name": "SEHERR THOSS FOUNDATION C/O BESSEMER TRUST COMPANY NA", "city": "NEW YORK", "state": "NY", "zip": "10020-0000", "ntee": "", "ruling": "199103", "deductibility": "1", "assets": 3416424, "income": 2004325, "revenue": 0}], "QUEENSBOROUGH": [{"ein": "111214973", "name": "QUEENSBOROUGH ELKS BUILDING CORP", "city": "ELMHURST", "state": "NY", "zip": "11373-4243", "ntee": "", "ruling": "194507", "deductibility": "2", "assets": 9645908, "income": 145231, "revenue": 121333}, {"ein": "112037770", "name": "QUEENSBOROUGH COMMUNITY COLLEGE AUXILIARY ENTERPRISE ASSOC INC", "city": "BAYSIDE", "state": "NY", "zip": "11364-1432", "ntee": "Z99Z", "ruling": "196805", "deductibility": "1", "assets": 7500185, "income": 3656653, "revenue": 3656653}, {"ein": "112386540", "name": "QUEENSBOROUGH COMMUNITY COLLEGE FUND INC", "city": "BAYSIDE", "state": "NY", "zip": "11364-1432", "ntee": "B41I", "ruling": "197702", "deductibility": "1", "assets": 20001076, "income": 3354947, "revenue": 1247452}, {"ein": "112708120", "name": "QUEENSBOROUGH COMMUNITY COLLEGE STUDENT ACTIVITIES ASSOCIATION INC", "city": "BAYSIDE", "state": "NY", "zip": "11364-1432", "ntee": "B41I", "ruling": "199308", "deductibility": "1", "assets": 641815, "income": 885584, "revenue": 885584}, {"ein": "812763230", "name": "QUEENSBOROUGH UNITED SOCCER CLUB INCORPORATED", "city": "KEW GARDENS", "state": "NY", "zip": "11415-3425", "ntee": "N64", "ruling": "201608", "deductibility": "1", "assets": 5389, "income": 157147, "revenue": 157147}], "OPPORTUNITY": [{"ein": "112116931", "name": "MANHASSET GREAT NECK ECONOMIC OPPORTUNITY COUNCIL", "city": "MANHASSET", "state": "NY", "zip": "11030-2906", "ntee": "P99", "ruling": "200008", "deductibility": "1", "assets": 1172597, "income": 972734, "revenue": 972734}, {"ein": "112141197", "name": "ECONOMIC OPPORTUNITY COUNCIL OF SUFFOLK INC", "city": "PATCHOGUE", "state": "NY", "zip": "11772-3034", "ntee": "S20Z", "ruling": "196710", "deductibility": "1", "assets": 15370613, "income": 32810362, "revenue": 32796846}, {"ein": "112195458", "name": "ECONOMIC OPPORTUNITY COMMISSION OF NASSAU COUNTY INC", "city": "HEMPSTEAD", "state": "NY", "zip": "11550-2413", "ntee": "S200", "ruling": "197112", "deductibility": "1", "assets": 9199753, "income": 15051916, "revenue": 15051916}, {"ein": "112709067", "name": "THE OPPORTUNITY PRE-SCHOOL CO", "city": "HAUPPAUGE", "state": "NY", "zip": "11788-3102", "ntee": "", "ruling": "198703", "deductibility": "1", "assets": 956072, "income": 3344992, "revenue": 3344992}, {"ein": "132547122", "name": "WESTCHESTER COMMUNITY OPPORTUNITY PROGRAM INC", "city": "ELMSFORD", "state": "NY", "zip": "10523-1607", "ntee": "S200", "ruling": "196611", "deductibility": "1", "assets": 5763628, "income": 23956833, "revenue": 23886469}, {"ein": "132578670", "name": "SPONSORS FOR EDUCATIONAL OPPORTUNITY INC", "city": "NEW YORK", "state": "NY", "zip": "10005-3301", "ntee": "B900", "ruling": "196508", "deductibility": "1", "assets": 112908312, "income": 80880583, "revenue": 78291084}, {"ein": "132696660", "name": "COUNCIL FOR AIRPORT OPPORTUNITY INC", "city": "JAMAICA", "state": "NY", "zip": "11432-6144", "ntee": "S41Z", "ruling": "197312", "deductibility": "2", "assets": 3706287, "income": 3579280, "revenue": 3579280}, {"ein": "133241979", "name": "COMM OPPORTUNITY CTR OF THE TARRY TOWNS", "city": "TARRYTOWN", "state": "NY", "zip": "10591-0000", "ntee": "P28Z", "ruling": "196712", "deductibility": "1", "assets": 0, "income": 0, "revenue": 0}, {"ein": "133676459", "name": "ROCKLAND OPPORTUNITY DEVELOPMENT ASSOC INC", "city": "MONSEY", "state": "NY", "zip": "10952-0781", "ntee": "P200", "ruling": "199301", "deductibility": "1", "assets": 3379998, "income": 351555, "revenue": 351555}, {"ein": "136220593", "name": "CITY UNIVERSITY OF NEW YORK AND EDUCATIONAL OPPORTUNITY CENTER", "city": "NEW YORK", "state": "NY", "zip": "10007-2233", "ntee": "J40", "ruling": "202504", "deductibility": "2", "assets": 251112, "income": 1184269, "revenue": 1184269}, {"ein": "141490509", "name": "COMMISSION ON ECONOMIC OPPORTUNITY FOR THE RENSSELAER COUNTY AREA INC", "city": "TROY", "state": "NY", "zip": "12180-2221", "ntee": "S200", "ruling": "196512", "deductibility": "1", "assets": 26271694, "income": 20302123, "revenue": 20258818}, {"ein": "141493746", "name": "WARREN-HAMILTON COUNTIES ACTION COMMITTEE FOR ECONOMIC OPPORTUNITY", "city": "GLENS FALLS", "state": "NY", "zip": "12801-3735", "ntee": "S210", "ruling": "196705", "deductibility": "1", "assets": 987547, "income": 2904278, "revenue": 2904278}, {"ein": "141494402", "name": "WASHINGTON COUNTY ECONOMIC OPPORTUNITY COUNCIL INC", "city": "FORT EDWARD", "state": "NY", "zip": "12828-1001", "ntee": "P200", "ruling": "196707", "deductibility": "1", "assets": 2295659, "income": 6863259, "revenue": 6855774}, {"ein": "141494810", "name": "JOINT COUNCIL FOR ECONOMIC OPPORTUNITY OF CLINTON & FRANKLIN", "city": "PLATTSBURGH", "state": "NY", "zip": "12901-2925", "ntee": "", "ruling": "196710", "deductibility": "1", "assets": 5473069, "income": 9121689, "revenue": 9113384}, {"ein": "146037204", "name": "ALBANY COUNTY OPPORTUNITY INCORPORATED", "city": "ALBANY", "state": "NY", "zip": "12206-3133", "ntee": "P200", "ruling": "196701", "deductibility": "1", "assets": 11073634, "income": 12623445, "revenue": 11233123}, {"ein": "160906941", "name": "ECONOMIC OPPORTUNITY PROGRAM INC OF CHEMUNG COUNTY", "city": "ELMIRA", "state": "NY", "zip": "14901-2216", "ntee": "P200", "ruling": "196702", "deductibility": "1", "assets": 2952383, "income": 7675322, "revenue": 7675322}, {"ein": "161165155", "name": "CITIZENS OPPORTUNITY FOR DEVELOPMENT & EQUALITY INC", "city": "JAMESTOWN", "state": "NY", "zip": "14702-3311", "ntee": "S20Z", "ruling": "198304", "deductibility": "1", "assets": 1849386, "income": 502478, "revenue": 502478}, {"ein": "161439516", "name": "SCHUYLER HOUSING OPPORTUNITY COUNCIL INC", "city": "WATKINS GLEN", "state": "NY", "zip": "14891-0371", "ntee": "P80Z", "ruling": "199605", "deductibility": "1", "assets": 0, "income": 0, "revenue": 0}, {"ein": "161549946", "name": "OPPORTUNITY HEADQUARTERS INC", "city": "SYRACUSE", "state": "NY", "zip": "13204-2424", "ntee": "L25", "ruling": "200003", "deductibility": "1", "assets": 545599, "income": 2120047, "revenue": 2120047}, {"ein": "201157094", "name": "OPPORTUNITY CHARTER SCHOOL", "city": "NEW YORK", "state": "NY", "zip": "10026-3306", "ntee": "B29", "ruling": "200507", "deductibility": "1", "assets": 6937404, "income": 11874253, "revenue": 11874253}, {"ein": "222456389", "name": "HIGHER EDUCATION OPPORTUNITY", "city": "FRANKFORT", "state": "NY", "zip": "13340-0000", "ntee": "", "ruling": "198308", "deductibility": "1", "assets": 45594, "income": 39571, "revenue": 39571}, {"ein": "271829677", "name": "ART INDUSTRY OPPORTUNITY INC", "city": "GENEVA", "state": "NY", "zip": "14456-1072", "ntee": "A90", "ruling": "201012", "deductibility": "1", "assets": 0, "income": 0, "revenue": 0}, {"ein": "272620882", "name": "CENTERSTATE CORPORATION FOR ECONOMIC OPPORTUNITY", "city": "SYRACUSE", "state": "NY", "zip": "13202-1305", "ntee": "S20", "ruling": "201106", "deductibility": "2", "assets": 33076792, "income": 21475852, "revenue": 16514261}, {"ein": "273996529", "name": "THE WOMANS OPPORTUNITY REHABILITATION CENTER INC", "city": "HEMPSTEAD", "state": "NY", "zip": "11550-3951", "ntee": "I40", "ruling": "201110", "deductibility": "1", "assets": 211665, "income": 741525, "revenue": 741525}, {"ein": "431984494", "name": "THE NEW YORK OPPORTUNITY NETWORK INC", "city": "NEW YORK", "state": "NY", "zip": "10004-2794", "ntee": "B90", "ruling": "200301", "deductibility": "1", "assets": 12778098, "income": 17660933, "revenue": 17341797}, {"ein": "453686069", "name": "IRCS CENTER FOR ECONOMIC OPPORTUNITY INC", "city": "NEW YORK", "state": "NY", "zip": "10168-1299", "ntee": "P84", "ruling": "201408", "deductibility": "1", "assets": 18295231, "income": 6039414, "revenue": 6039414}, {"ein": "454335123", "name": "GALEWILL CENTER FOR OPPORTUNITY & PROGRESS INC", "city": "HASTINGS HDSN", "state": "NY", "zip": "10706-1643", "ntee": "V20", "ruling": "201312", "deductibility": "1", "assets": 2532, "income": 0, "revenue": 0}, {"ein": "455280487", "name": "GOLDEN OPPORTUNITY GO INC", "city": "ITHACA", "state": "NY", "zip": "14850-3764", "ntee": "B90", "ruling": "201208", "deductibility": "1", "assets": 294474, "income": 88551, "revenue": 88551}, {"ein": "463194216", "name": "VISIONS TO OPPORTUNITY INC", "city": "HEMPSTEAD", "state": "NY", "zip": "11550-3917", "ntee": "B90", "ruling": "201606", "deductibility": "1", "assets": 16154, "income": 133802, "revenue": 133802}, {"ein": "463720737", "name": "OPPORTUNITY MUSIC PROJECT INC", "city": "NEW YORK", "state": "NY", "zip": "10128-5792", "ntee": "A70", "ruling": "201407", "deductibility": "1", "assets": 69450, "income": 151590, "revenue": 151590}, {"ein": "471639112", "name": "HOWARD OTWAY AND FLORENCE OTWAY OPPORTUNITY PROJECT INC", "city": "GRAND GORGE", "state": "NY", "zip": "12434-1358", "ntee": "A65", "ruling": "201501", "deductibility": "1", "assets": 0, "income": 0, "revenue": 0}, {"ein": "473616566", "name": "HOPE GRACE OPPORTUNITY INCORPORATED", "city": "JAMAICA", "state": "NY", "zip": "11434-1006", "ntee": "P80", "ruling": "201505", "deductibility": "1", "assets": 0, "income": 0, "revenue": 0}, {"ein": "475101241", "name": "HAVING PEOPLE UNITING TO RESTORE PROSPERITY OPPORTUNITY SECURITY &", "city": "BROOKLYN", "state": "NY", "zip": "11233-4504", "ntee": "P20", "ruling": "201602", "deductibility": "1", "assets": 0, "income": 0, "revenue": 0}, {"ein": "475601281", "name": "CREATING HOPE THROUGH OPPORTUNITY PARTICIPATION AND EMPOWERMENT INC", "city": "BUFFALO", "state": "NY", "zip": "14217-1094", "ntee": "P82", "ruling": "201604", "deductibility": "1", "assets": 0, "income": 0, "revenue": 0}, {"ein": "811439504", "name": "PRIME TIME LACROSSE ATHLETIC OPPORTUNITY FUND INC", "city": "CROSS RIVER", "state": "NY", "zip": "10518-1127", "ntee": "N12", "ruling": "201609", "deductibility": "1", "assets": 0, "income": 0, "revenue": 0}, {"ein": "811450439", "name": "CREATING OPPORTUNITY TO REACH EMPOWERMENT INC", "city": "BROOKLYN", "state": "NY", "zip": "11213-1854", "ntee": "A20", "ruling": "201904", "deductibility": "1", "assets": 0, "income": 0, "revenue": 0}, {"ein": "812494293", "name": "DRYDEN YOUTH OPPORTUNITY FUND", "city": "DRYDEN", "state": "NY", "zip": "13053-1076", "ntee": "T12", "ruling": "201606", "deductibility": "1", "assets": 0, "income": 0, "revenue": 0}, {"ein": "812891028", "name": "FINGER LAKES OPPORTUNITY FOR TOURISM GROWTH INC", "city": "PENN YAN", "state": "NY", "zip": "14527-1806", "ntee": "S31", "ruling": "201607", "deductibility": "1", "assets": 4175, "income": 150, "revenue": 150}, {"ein": "813704165", "name": "COMMUNITY OPPORTUNITY FUND", "city": "COLD SPRING", "state": "NY", "zip": "10516-2852", "ntee": "L80", "ruling": "201701", "deductibility": "1", "assets": 17102198, "income": 4183827, "revenue": 4183827}, {"ein": "815290087", "name": "EAST END FOR OPPORTUNITY INC", "city": "EAST HAMPTON", "state": "NY", "zip": "11937-1025", "ntee": "I80", "ruling": "201703", "deductibility": "1", "assets": 0, "income": 0, "revenue": 0}, {"ein": "832346048", "name": "HENRY CHANG ENGINEERS EDUCATION & OPPORTUNITY FOUNDATION INC", "city": "STATEN ISLAND", "state": "NY", "zip": "10309-3612", "ntee": "J20", "ruling": "201902", "deductibility": "1", "assets": 60823, "income": 45654, "revenue": 45654}, {"ein": "842271387", "name": "GOLD OPPORTUNITY DEVELOPMENT INC", "city": "FRESH MEADOWS", "state": "NY", "zip": "11366-1515", "ntee": "L20", "ruling": "201911", "deductibility": "1", "assets": 0, "income": 0, "revenue": 0}, {"ein": "843935514", "name": "OPPORTUNITY AGENDA INC", "city": "NEW YORK", "state": "NY", "zip": "10018-3011", "ntee": "A01", "ruling": "202005", "deductibility": "1", "assets": 11889337, "income": 8545813, "revenue": 8545813}, {"ein": "844147906", "name": "CHINESE AMERICAN OPPORTUNITY ASSOCIATION", "city": "WHITESTONE", "state": "NY", "zip": "11357-3017", "ntee": "A20", "ruling": "202003", "deductibility": "1", "assets": 0, "income": 0, "revenue": 0}, {"ein": "844262222", "name": "HUMANITY OPTIMISM OPPORTUNITY & DIVERSITY INC", "city": "BRONX", "state": "NY", "zip": "10452-5203", "ntee": "O50", "ruling": "202005", "deductibility": "1", "assets": 0, "income": 0, "revenue": 0}, {"ein": "850515951", "name": "WOMENS EMPOWERMENTGROWTH OPPORTUNITY & DEVELOPMENT INC", "city": "WYANDANCH", "state": "NY", "zip": "11798-4504", "ntee": "P20", "ruling": "202009", "deductibility": "1", "assets": 0, "income": 0, "revenue": 0}, {"ein": "851375765", "name": "NATIONAL ORGANIZATION FOR MINORITY OPPORTUNITY AND REAL EQUALITY", "city": "JAMAICA", "state": "NY", "zip": "11433-3918", "ntee": "P99", "ruling": "202011", "deductibility": "1", "assets": 0, "income": 0, "revenue": 0}, {"ein": "863348840", "name": "BETTER OPPORTUNITY FUND", "city": "NEW YORK", "state": "NY", "zip": "10007-2450", "ntee": "W60", "ruling": "202201", "deductibility": "1", "assets": 861441, "income": 25957, "revenue": 25957}, {"ein": "863756053", "name": "UPSTATE ECONOMIC OPPORTUNITY INC", "city": "BUFFALO", "state": "NY", "zip": "14204-1963", "ntee": "S30", "ruling": "202202", "deductibility": "1", "assets": 1228413, "income": 0, "revenue": 0}, {"ein": "871785363", "name": "MORNINGSIDE OPPORTUNITY FUND INC", "city": "NEW YORK", "state": "NY", "zip": "10025-2180", "ntee": "T22", "ruling": "202205", "deductibility": "1", "assets": 4161, "income": 12687, "revenue": 0}, {"ein": "873470848", "name": "OPPORTUNITY PROJECT FUND", "city": "NEW YORK", "state": "NY", "zip": "10010-4402", "ntee": "B82", "ruling": "202207", "deductibility": "1", "assets": 0, "income": 0, "revenue": 0}, {"ein": "874097394", "name": "APOLLO OPPORTUNITY FOUNDATION", "city": "NEW YORK", "state": "NY", "zip": "10019-2700", "ntee": "T21", "ruling": "202206", "deductibility": "1", "assets": 147337152, "income": 51080815, "revenue": 0}, {"ein": "874678188", "name": "EDUCATIONAL OPPORTUNITY FUND FOR THE LAKE PLACID CENTRAL SCHOOL DIS", "city": "LAKE PLACID", "state": "NY", "zip": "12946-0364", "ntee": "T70", "ruling": "202205", "deductibility": "1", "assets": 0, "income": 0, "revenue": 0}, {"ein": "881409494", "name": "OPPORTUNITY ACCESS INC", "city": "NORTH BALDWIN", "state": "NY", "zip": "11510-1638", "ntee": "", "ruling": "202204", "deductibility": "0", "assets": 0, "income": 0, "revenue": 0}, {"ein": "922242376", "name": "STATE OF OPPORTUNITY NY CORP", "city": "BRONX", "state": "NY", "zip": "10472-6066", "ntee": "P99", "ruling": "202307", "deductibility": "1", "assets": 0, "income": 0, "revenue": 0}, {"ein": "923537680", "name": "RYAN RECTOR YOUTH OPPORTUNITY FOUNDATION INC", "city": "NAPLES", "state": "NY", "zip": "14512-0522", "ntee": "O50", "ruling": "202504", "deductibility": "1", "assets": 0, "income": 0, "revenue": 0}, {"ein": "991713451", "name": "INTERNATIONAL WORKFORCE INNOVATION OPPORTUNITY CENTER", "city": "BRONX", "state": "NY", "zip": "10469-2967", "ntee": "A23", "ruling": "202411", "deductibility": "1", "assets": 0, "income": 0, "revenue": 0}, {"ein": "992005390", "name": "TECHNICAL OPPORTUNITY OF LEARNING SERVICES INCORPORATED", "city": "BROOKLYN", "state": "NY", "zip": "11203-5120", "ntee": "P20", "ruling": "202404", "deductibility": "1", "assets": 0, "income": 0, "revenue": 0}], "INAS": [{"ein": "112518980", "name": "INAS USA CISL CENTRO LUIGI ANTONINI INC", "city": "ASTORIA", "state": "NY", "zip": "11105-1578", "ntee": "P80", "ruling": "200707", "deductibility": "2", "assets": 36371, "income": 408646, "revenue": 408646}], "OSEH": [{"ein": "112533711", "name": "OSEH CHESED", "city": "BROOKLYN", "state": "NY", "zip": "11211-7926", "ntee": "", "ruling": "198801", "deductibility": "1", "assets": 0, "income": 0, "revenue": 0}, {"ein": "113420145", "name": "AMERICAN FRIENDS OF OSEH CHAYIL", "city": "NEW YORK", "state": "NY", "zip": "10017-0000", "ntee": "X113", "ruling": "200509", "deductibility": "1", "assets": 520660, "income": 164002, "revenue": 164002}, {"ein": "113479948", "name": "OSEH CHESED", "city": "BROOKLYN", "state": "NY", "zip": "11211-7525", "ntee": "X30", "ruling": "199905", "deductibility": "1", "assets": 0, "income": 0, "revenue": 0}, {"ein": "113583199", "name": "GEMACH OSEH CHESED", "city": "BROOKLYN", "state": "NY", "zip": "11211-8036", "ntee": "X30", "ruling": "200103", "deductibility": "1", "assets": 0, "income": 0, "revenue": 0}, {"ein": "833342812", "name": "CONGREGATION OSEH CHOYIL INC", "city": "MONSEY", "state": "NY", "zip": "10952-3031", "ntee": "X20", "ruling": "202004", "deductibility": "1", "assets": 0, "income": 0, "revenue": 0}, {"ein": "932695297", "name": "OSEH CHESED TWO", "city": "BROOKLYN", "state": "NY", "zip": "11211-8919", "ntee": "T12", "ruling": "202311", "deductibility": "1", "assets": 142, "income": 250, "revenue": 0}], "SERENITY": [{"ein": "112541393", "name": "SERENITY TEMPLE INCORPORTED INC", "city": "ST ALBANS", "state": "NY", "zip": "11434-2740", "ntee": "", "ruling": "198103", "deductibility": "1", "assets": 0, "income": 0, "revenue": 0}, {"ein": "161535985", "name": "SERENITY HOUSE OF VICTOR INC", "city": "VICTOR", "state": "NY", "zip": "14564-9302", "ntee": "E91", "ruling": "199802", "deductibility": "1", "assets": 175482, "income": 300982, "revenue": 263335}, {"ein": "222869617", "name": "EASTSIDE SERENITY INC", "city": "SYRACUSE", "state": "NY", "zip": "13206-2358", "ntee": "", "ruling": "198702", "deductibility": "1", "assets": 0, "income": 0, "revenue": 0}, {"ein": "301173469", "name": "PORT CITY SERENITY HALL INC", "city": "OSWEGO", "state": "NY", "zip": "13126-0795", "ntee": "Z99", "ruling": "202211", "deductibility": "1", "assets": 9150, "income": 15191, "revenue": 0}, {"ein": "352627862", "name": "A AND J SERENITY FUND INC", "city": "NEW YORK", "state": "NY", "zip": "10128-3250", "ntee": "T22", "ruling": "201812", "deductibility": "1", "assets": 5829375, "income": 511245, "revenue": 0}, {"ein": "452938143", "name": "NYC FAMILY SERENITY INC", "city": "REGO PARK", "state": "NY", "zip": "11374-1607", "ntee": "P20", "ruling": "201110", "deductibility": "1", "assets": 5285, "income": 0, "revenue": 0}, {"ein": "463120148", "name": "39 SERENITY PLACE", "city": "MASSENA", "state": "NY", "zip": "13662-1472", "ntee": "F22", "ruling": "201808", "deductibility": "1", "assets": 0, "income": 0, "revenue": 0}, {"ein": "463253230", "name": "SERENITY RESTORATION MINISTRY INCORPORATED", "city": "BRONX", "state": "NY", "zip": "10456-0000", "ntee": "X20", "ruling": "201407", "deductibility": "1", "assets": 0, "income": 0, "revenue": 0}, {"ein": "465118412", "name": "SERENITY WOMENS CENTER INC", "city": "MANLIUS", "state": "NY", "zip": "13104-1802", "ntee": "P20", "ruling": "201410", "deductibility": "1", "assets": 0, "income": 0, "revenue": 0}, {"ein": "812399697", "name": "PLACE OF SERENITY INC", "city": "TILLSON", "state": "NY", "zip": "12486-0048", "ntee": "P80", "ruling": "201706", "deductibility": "1", "assets": 0, "income": 0, "revenue": 0}, {"ein": "850597709", "name": "SERENITY YOUTH DEVELOPMENT INC", "city": "E NORTHPORT", "state": "NY", "zip": "11731-3310", "ntee": "N01", "ruling": "202102", "deductibility": "1", "assets": 1, "income": 73125, "revenue": 73125}, {"ein": "881871914", "name": "DIAMOND SERENITY HOMES INC", "city": "BROOKLYN", "state": "NY", "zip": "11233-3125", "ntee": "F99", "ruling": "202206", "deductibility": "1", "assets": 0, "income": 0, "revenue": 0}, {"ein": "990671731", "name": "GLOBAL SERENITY INC", "city": "BROOKLYN", "state": "NY", "zip": "11225-5821", "ntee": "L41", "ruling": "202402", "deductibility": "1", "assets": 0, "income": 0, "revenue": 0}, {"ein": "991967891", "name": "SERENITY ACRES EQUINE THERAPY AND RESCUE INC", "city": "ARGYLE", "state": "NY", "zip": "12809-7797", "ntee": "D20", "ruling": "202406", "deductibility": "1", "assets": 0, "income": 0, "revenue": 0}], "DEVELOP": [{"ein": "112576019", "name": "WEST END GARDENS HOUSING DEVELOP- MENT FUND COMPANY INC", "city": "BROOKLYN", "state": "NY", "zip": "11218-5708", "ntee": "L21Z", "ruling": "198109", "deductibility": "1", "assets": 3623950, "income": 139140, "revenue": 139140}, {"ein": "113492432", "name": "S&D COMMUNITY DEVELOP CORP", "city": "WYANDANCH", "state": "NY", "zip": "11798-0086", "ntee": "L20", "ruling": "199911", "deductibility": "1", "assets": 0, "income": 0, "revenue": 0}, {"ein": "133453944", "name": "347 EAST 4TH STREET HOUSING DEVELOP MENT FUND COMPANY", "city": "NEW YORK", "state": "NY", "zip": "10004-1561", "ntee": "", "ruling": "198908", "deductibility": "1", "assets": 1, "income": 0, "revenue": 0}, {"ein": "133563705", "name": "INSTITUTE FOR MULTICULTURAL COMMUNICATIONS COOP & DEVELOP", "city": "BRONX", "state": "NY", "zip": "10472-6432", "ntee": "A230", "ruling": "199101", "deductibility": "1", "assets": 0, "income": 0, "revenue": 0}, {"ein": "161132952", "name": "METRO INTERFAITH HOUSING DEVELOP- MENT FUND COMPANY INC", "city": "BINGHAMTON", "state": "NY", "zip": "13903-1759", "ntee": "", "ruling": "198003", "deductibility": "1", "assets": 1, "income": 1, "revenue": 0}, {"ein": "222757318", "name": "ST LAWRENCE COUNTY INDUST DEVELOP AGENCY LOCAL DEVELOP CORPORATION", "city": "CANTON", "state": "NY", "zip": "13617-3759", "ntee": "", "ruling": "198704", "deductibility": "1", "assets": 15940002, "income": 415654, "revenue": 415654}, {"ein": "275252111", "name": "GENESEE VALLEY ASSOCIATION FOR SUPERVISION AND CURRICULUM DEVELOP", "city": "PITTSFORD", "state": "NY", "zip": "14534-1088", "ntee": "B03", "ruling": "201408", "deductibility": "2", "assets": 0, "income": 0, "revenue": 0}], "FRANKEL": [{"ein": "112643090", "name": "FRANKEL BROTHERS FOUNDATION LLC", "city": "BROOKLYN", "state": "NY", "zip": "11201-4404", "ntee": "", "ruling": "198406", "deductibility": "1", "assets": 952433, "income": 260000, "revenue": 0}, {"ein": "133615586", "name": "ARTHUR F & ARNOLD M FRANKEL FOUNDATION INC", "city": "NEW YORK", "state": "NY", "zip": "10178-4499", "ntee": "", "ruling": "199107", "deductibility": "1", "assets": 7237473, "income": 295926, "revenue": 0}, {"ein": "134026241", "name": "FRANKEL FAMILY FOUNDATION INC", "city": "GREAT NECK", "state": "NY", "zip": "11021-3104", "ntee": "T20Z", "ruling": "199811", "deductibility": "1", "assets": 297954, "income": 82736, "revenue": 0}, {"ein": "203955291", "name": "GREGG & JEAN FRANKEL FOUNDATION INC", "city": "NEW YORK", "state": "NY", "zip": "10036-0000", "ntee": "T20", "ruling": "200603", "deductibility": "1", "assets": 362322, "income": 14235, "revenue": 0}, {"ein": "223490807", "name": "RANDY & BARBARA ANN FRANKEL FOUNDATION INC", "city": "LAKE SUCCESS", "state": "NY", "zip": "11042-0000", "ntee": "T20Z", "ruling": "199804", "deductibility": "1", "assets": 2623887, "income": 670447, "revenue": 0}, {"ein": "363012367", "name": "MARSHALL FRANKEL FOUNDATION", "city": "NEW YORK", "state": "NY", "zip": "10017-3204", "ntee": "", "ruling": "197903", "deductibility": "1", "assets": 7215376, "income": 2748491, "revenue": 0}, {"ein": "432033721", "name": "ETHEL AND DAVID FRANKEL FAMILY FOUNDATION INC", "city": "NEW YORK", "state": "NY", "zip": "10036-4031", "ntee": "T22", "ruling": "200403", "deductibility": "1", "assets": 18106, "income": 812, "revenue": 0}, {"ein": "846034580", "name": "LULU FRANKEL FOUNDATION", "city": "NEW YORK", "state": "NY", "zip": "10014-3462", "ntee": "", "ruling": "195512", "deductibility": "1", "assets": 355102, "income": 107049, "revenue": 0}, {"ein": "921825208", "name": "MATTY FRANKEL FOUNDATION", "city": "SARATOGA SPGS", "state": "NY", "zip": "12866-9724", "ntee": "F12", "ruling": "202302", "deductibility": "1", "assets": 8039, "income": 27700, "revenue": 0}, {"ein": "932358643", "name": "RONALD AND SUSAN FRANKEL FAMILY FOUNDATION", "city": "NEW YORK", "state": "NY", "zip": "10022-1287", "ntee": "T20", "ruling": "202409", "deductibility": "1", "assets": 1603473, "income": 3003473, "revenue": 0}], "BUGLE": [{"ein": "112730039", "name": "LONG ISLAND BLUE JAYS JR DRUM AND BUGLE CORPS INC", "city": "SMITHTOWN", "state": "NY", "zip": "11787-2324", "ntee": "", "ruling": "198706", "deductibility": "1", "assets": 0, "income": 0, "revenue": 0}, {"ein": "161431383", "name": "MIGHTY ST JOES ALUMNI PARADE DRUM AND BUGLE INC", "city": "ROCHESTER", "state": "NY", "zip": "14624-5326", "ntee": "A68", "ruling": "201610", "deductibility": "1", "assets": 0, "income": 0, "revenue": 0}, {"ein": "204284665", "name": "BROOKLYN UNITED DRUM & BUGLE CORPS INC", "city": "BROOKLYN", "state": "NY", "zip": "11209-2542", "ntee": "A6C", "ruling": "200804", "deductibility": "1", "assets": 0, "income": 0, "revenue": 0}, {"ein": "542145188", "name": "SIDNEY E AUSTIN ACADEMY CADETS JUNIOR DRUM & BUGLE CORPS INC", "city": "BROOKLYN", "state": "NY", "zip": "11233-4823", "ntee": "A68", "ruling": "200708", "deductibility": "1", "assets": 0, "income": 0, "revenue": 0}, {"ein": "743228311", "name": "PURPLE LANCERS DRUM & BUGLE CORPS OF AUBURN NY INC", "city": "AUBURN", "state": "NY", "zip": "13021-1082", "ntee": "A20", "ruling": "200805", "deductibility": "1", "assets": 135629, "income": 244897, "revenue": 142880}, {"ein": "831137039", "name": "WARRIORS ALUMNI DRUM & BUGLE CORPS INC", "city": "NEW YORK", "state": "NY", "zip": "10030-3315", "ntee": "A6C", "ruling": "201912", "deductibility": "1", "assets": 0, "income": 0, "revenue": 0}], "BEZALEL": [{"ein": "112886892", "name": "BEZALEL PROPERTIES INC", "city": "FAR ROCKAWAY", "state": "NY", "zip": "11691-1947", "ntee": "", "ruling": "198802", "deductibility": "2", "assets": 95940, "income": 0, "revenue": 0}, {"ein": "132952614", "name": "FRIENDS OF BEZALEL ACADEMY OF ARTS AND DESIGNS INC", "city": "NEW YORK", "state": "NY", "zip": "10001-7604", "ntee": "A110", "ruling": "197811", "deductibility": "1", "assets": 1202329, "income": 4947479, "revenue": 4947479}, {"ein": "237253912", "name": "BEZALEL NURSING HOME COMPANY", "city": "FAR ROCKAWAY", "state": "NY", "zip": "11691-1947", "ntee": "E91Z", "ruling": "197302", "deductibility": "1", "assets": 30164663, "income": 16784797, "revenue": 16784797}], "ISLE": [{"ein": "112932528", "name": "EMERALD ISLE IMMIGRATION CENTER INC", "city": "WOODSIDE", "state": "NY", "zip": "11377-4374", "ntee": "P840", "ruling": "198902", "deductibility": "1", "assets": 3709365, "income": 2785311, "revenue": 2781025}, {"ein": "116049111", "name": "MANHASSET ISLE CIVIC ASSOCIATION INC", "city": "PRT WASHINGTN", "state": "NY", "zip": "11050-2015", "ntee": "", "ruling": "196009", "deductibility": "2", "assets": 0, "income": 0, "revenue": 0}, {"ein": "134052538", "name": "SENIOR ISLE INN INC", "city": "NEW YORK", "state": "NY", "zip": "10003-7115", "ntee": "L22", "ruling": "200103", "deductibility": "1", "assets": 263481, "income": 163326, "revenue": 163326}, {"ein": "134098868", "name": "ISLE OF SHOALS PRODUCTIONS INC", "city": "NEW YORK", "state": "NY", "zip": "10023-5805", "ntee": "A65", "ruling": "200204", "deductibility": "1", "assets": 0, "income": 0, "revenue": 0}, {"ein": "222313929", "name": "MURRAY ISLE ASSOCIATION INC", "city": "VALATIE", "state": "NY", "zip": "12184-4713", "ntee": "", "ruling": "199308", "deductibility": "2", "assets": 0, "income": 0, "revenue": 0}], "TLC": [{"ein": "112940875", "name": "THE TLC STARFISH FOUNDATION LTD", "city": "GLEN COVE", "state": "NY", "zip": "11542-1323", "ntee": "", "ruling": "199102", "deductibility": "1", "assets": 21579, "income": 300000, "revenue": 0}, {"ein": "141749360", "name": "TLC CHRISTIAN DAYCARE CENTER", "city": "TROY", "state": "NY", "zip": "12180-7387", "ntee": "", "ruling": "196401", "deductibility": "0", "assets": 0, "income": 0, "revenue": 0}, {"ein": "160743301", "name": "BROOKS-TLC HOSPITAL SYSTEM INC", "city": "DUNKIRK", "state": "NY", "zip": "14048-2514", "ntee": "E220", "ruling": "194911", "deductibility": "1", "assets": 49627640, "income": 68898182, "revenue": 68875844}, {"ein": "222412251", "name": "BROOKS-TLC HOSPITAL FOUNDATION INC", "city": "DUNKIRK", "state": "NY", "zip": "14048-2514", "ntee": "", "ruling": "198209", "deductibility": "1", "assets": 116545, "income": 74777, "revenue": 74777}, {"ein": "371720024", "name": "ROME CAT ASSISTANCE TLC SOCIETY INC", "city": "ROME", "state": "NY", "zip": "13442-0341", "ntee": "D20", "ruling": "201411", "deductibility": "1", "assets": 0, "income": 0, "revenue": 0}, {"ein": "383819908", "name": "TLC & STUFF INC", "city": "SKANEATELES", "state": "NY", "zip": "13152-8804", "ntee": "P60", "ruling": "201104", "deductibility": "1", "assets": 0, "income": 0, "revenue": 0}, {"ein": "453997921", "name": "CONGREGATION TLC INC", "city": "MONSEY", "state": "NY", "zip": "10952-0007", "ntee": "X30", "ruling": "201409", "deductibility": "1", "assets": 0, "income": 0, "revenue": 0}, {"ein": "474129070", "name": "FEEDING WITH TLC INC", "city": "STATEN ISLAND", "state": "NY", "zip": "10304-2217", "ntee": "K30", "ruling": "201506", "deductibility": "1", "assets": 71911, "income": 31201, "revenue": 31201}, {"ein": "833203312", "name": "MOES TLC INC", "city": "SCHENECTADY", "state": "NY", "zip": "12303-4907", "ntee": "D20", "ruling": "201904", "deductibility": "1", "assets": 0, "income": 0, "revenue": 0}, {"ein": "883609707", "name": "TLC AT OISHEI CORP", "city": "OLEAN", "state": "NY", "zip": "14760-1409", "ntee": "E11", "ruling": "202209", "deductibility": "1", "assets": 0, "income": 0, "revenue": 0}], "DERMATOLOGY": [{"ein": "113011790", "name": "STONY BROOK DERMATOLOGY ASSOCIATES UNIVERSITY FACULTY PRACTICE CORPOR", "city": "STONYBROOK", "state": "NY", "zip": "11790-0988", "ntee": "E20", "ruling": "200802", "deductibility": "1", "assets": 2173247, "income": 14573119, "revenue": 14573119}, {"ein": "133459880", "name": "DERMATOLOGY & MEDICAL RESEARCH ASSOCIATES PC", "city": "VALHALLA", "state": "NY", "zip": "10595-0000", "ntee": "", "ruling": "199101", "deductibility": "1", "assets": 0, "income": 0, "revenue": 0}, {"ein": "205125301", "name": "EINSTEIN DERMATOLOGY ATTENDING PHYSICIAN ASSOCIATION", "city": "BRONX", "state": "NY", "zip": "10467-2401", "ntee": "B03", "ruling": "201711", "deductibility": "1", "assets": 0, "income": 0, "revenue": 0}, {"ein": "237363421", "name": "NEW YORK STATE SOCIETY OF DERMATOLOGY INC", "city": "ALBANY", "state": "NY", "zip": "12207-2540", "ntee": "", "ruling": "197405", "deductibility": "1", "assets": 39604, "income": 7549, "revenue": 7549}, {"ein": "473916544", "name": "DERMATOLOGY NURSES ASSOCIATION", "city": "ROCHESTER", "state": "NY", "zip": "14624-5811", "ntee": "", "ruling": "198403", "deductibility": "2", "assets": 0, "income": 0, "revenue": 0}, {"ein": "800921947", "name": "UBMD DERMATOLOGY INC", "city": "BUFFALO", "state": "NY", "zip": "14203-1243", "ntee": "B40", "ruling": "201411", "deductibility": "1", "assets": 12574, "income": 2702, "revenue": 2702}], "PETRINE": [{"ein": "113068098", "name": "ST AUGUSTINES AMERICAN CATHOLIC CHURCH INC PETRINE ANTICOHEAN", "city": "BROOKLYN", "state": "NY", "zip": "11213-4901", "ntee": "X99Z", "ruling": "199508", "deductibility": "1", "assets": 0, "income": 0, "revenue": 0}], "ROXBURY": [{"ein": "113084367", "name": "ROXBURY VOLUNTEER EMERGENCY SERVICES INC", "city": "ROCKAWAY PT", "state": "NY", "zip": "11697-2203", "ntee": "E62Z", "ruling": "199611", "deductibility": "1", "assets": 0, "income": 0, "revenue": 0}, {"ein": "141605368", "name": "ROXBURY ARTS GROUP INC", "city": "ROXBURY", "state": "NY", "zip": "12474-1739", "ntee": "A200", "ruling": "198207", "deductibility": "1", "assets": 414795, "income": 533735, "revenue": 525545}, {"ein": "150434095", "name": "ROXBURY CEMETERY ASSOCIATION", "city": "ROXBURY", "state": "NY", "zip": "12474-0000", "ntee": "", "ruling": "194212", "deductibility": "1", "assets": 0, "income": 0, "revenue": 0}, {"ein": "150626386", "name": "JAY GOULD MEMORIAL REFORMED CHURCH OF ROXBURY NY", "city": "ROXBURY", "state": "NY", "zip": "12474-0267", "ntee": "", "ruling": "198601", "deductibility": "1", "assets": 0, "income": 0, "revenue": 0}, {"ein": "166287264", "name": "KIRKSIDE OF ROXBURY INC ENDOWMENT FUND", "city": "NORWICH", "state": "NY", "zip": "13815-0000", "ntee": "", "ruling": "198811", "deductibility": "1", "assets": 57977, "income": 3513, "revenue": 0}, {"ein": "166473412", "name": "ROXBURY ARTS GROUP ENDOWMENT FUND", "city": "ONEONTA", "state": "NY", "zip": "13820-0000", "ntee": "T30", "ruling": "199809", "deductibility": "1", "assets": 273800, "income": 89901, "revenue": 18621}, {"ein": "222360234", "name": "KIRKSIDE OF ROXBURY", "city": "ROXBURY", "state": "NY", "zip": "12474-0520", "ntee": "L22Z", "ruling": "198201", "deductibility": "1", "assets": 0, "income": 0, "revenue": 0}, {"ein": "237339644", "name": "ROXBURY LIBRARY", "city": "ROXBURY", "state": "NY", "zip": "12474-0186", "ntee": "", "ruling": "197401", "deductibility": "1", "assets": 314793, "income": 94926, "revenue": 94041}, {"ein": "883891887", "name": "ROXBURY PREP FOUNDATION", "city": "NEW YORK", "state": "NY", "zip": "10007-2650", "ntee": "B11", "ruling": "202210", "deductibility": "1", "assets": 35910876, "income": 13992, "revenue": 13992}], "ALBERTA": [{"ein": "113120846", "name": "ALBERTA WOODS HOUSING DEVELOPMENT FUND CORPORATION", "city": "BROOKLYN", "state": "NY", "zip": "11233-1773", "ntee": "L20Z", "ruling": "199609", "deductibility": "1", "assets": 563201, "income": 407337, "revenue": 407337}, {"ein": "113407602", "name": "DR ALBERTA HERSEY FOUNDATION INC", "city": "GLEN COVE", "state": "NY", "zip": "11542-3525", "ntee": "P60", "ruling": "199802", "deductibility": "1", "assets": 0, "income": 0, "revenue": 0}, {"ein": "146022154", "name": "MARGARET B MONAHAN AND ALBERTA W LAIGHTON MEMORIAL FUND", "city": "PAWLING", "state": "NY", "zip": "12564-0668", "ntee": "", "ruling": "198509", "deductibility": "0", "assets": 422812, "income": 149677, "revenue": 0}, {"ein": "146029908", "name": "ESTHERVILLE THE ALBERTA AND WINONICA MEMORIAL ANIMAL SHELTER I", "city": "GREENFIELD CENTER", "state": "NY", "zip": "12833-0000", "ntee": "D200", "ruling": "195510", "deductibility": "1", "assets": 271982, "income": 229057, "revenue": 229057}], "AIDER": [{"ein": "113187168", "name": "CONGREGATION AIDER HIZIM", "city": "BROOKLYN", "state": "NY", "zip": "11211-8009", "ntee": "", "ruling": "199412", "deductibility": "1", "assets": 0, "income": 0, "revenue": 0}], "UNDENOMINATIONAL": [{"ein": "113417302", "name": "GOSPEL ASSEMBLY CHURCH UNDENOMINATIONAL MINISTRY INC", "city": "WESTBURY", "state": "NY", "zip": "11590-3709", "ntee": "X20", "ruling": "201811", "deductibility": "1", "assets": 0, "income": 0, "revenue": 0}], "CHEDVE": [{"ein": "113431024", "name": "SHAREY CHEDVE", "city": "BROOKLYN", "state": "NY", "zip": "11211-6615", "ntee": "X30Z", "ruling": "199806", "deductibility": "1", "assets": 0, "income": 0, "revenue": 0}], "VULCAN": [{"ein": "113629005", "name": "VULCAN HALL FOUNDATION INC", "city": "LAURELTON", "state": "NY", "zip": "11413-1823", "ntee": "M20", "ruling": "201603", "deductibility": "1", "assets": 0, "income": 0, "revenue": 0}], "EXTENSION": [{"ein": "116002404", "name": "NASSAU COUNTY VOCATIONAL EDUCATION & EXTENSION BOARD", "city": "HICKSVILLE", "state": "NY", "zip": "11801-4302", "ntee": "B30", "ruling": "201202", "deductibility": "1", "assets": 0, "income": 0, "revenue": 0}, {"ein": "116081423", "name": "COOPERATIVE EXTENSION ASSOCIATION IN THE STATE OF NEW YORK", "city": "JERICHO", "state": "NY", "zip": "11753-1205", "ntee": "", "ruling": "195204", "deductibility": "1", "assets": 0, "income": 0, "revenue": 0}, {"ein": "116081424", "name": "COOPERATIVE EXTENSION ASSOCIATION IN THE STATE OF N Y", "city": "RIVERHEAD", "state": "NY", "zip": "11901-3071", "ntee": "", "ruling": "196609", "deductibility": "1", "assets": 0, "income": 0, "revenue": 0}, {"ein": "131623985", "name": "MANAGERS OF THE DIOCESAN MISSIONARY AND CHURCH EXTENSION SOCIETY", "city": "NEW YORK", "state": "NY", "zip": "10025-1747", "ntee": "", "ruling": "196605", "deductibility": "0", "assets": 0, "income": 0, "revenue": 0}, {"ein": "133378578", "name": "UNITED HELP-SELFHELP SHELTERED EXTENSION INC", "city": "NEW YORK", "state": "NY", "zip": "10018-6553", "ntee": "L220", "ruling": "198702", "deductibility": "1", "assets": 16401680, "income": 700101, "revenue": 700101}, {"ein": "136108278", "name": "LIFE EXTENSION FOUNDATION INC", "city": "HARRISON", "state": "NY", "zip": "10528-1648", "ntee": "", "ruling": "195501", "deductibility": "1", "assets": 2426293, "income": 1425320, "revenue": 0}, {"ein": "136210461", "name": "COOPERATIVE EXTENSION ASSOCIATION IN THE STATE OF N Y", "city": "STONY POINT", "state": "NY", "zip": "10980-3535", "ntee": "", "ruling": "196609", "deductibility": "1", "assets": 0, "income": 0, "revenue": 0}, {"ein": "136210462", "name": "COOPERATIVE EXTENSION ASSOCIATION IN THE STATE OF N Y", "city": "ELMSFORD", "state": "NY", "zip": "10523-2414", "ntee": "", "ruling": "195204", "deductibility": "1", "assets": 0, "income": 0, "revenue": 0}, {"ein": "146036878", "name": "COOPERATIVE EXTENSION ASSOCIATION IN THE STATE OF NEW YORK", "city": "BREWSTER", "state": "NY", "zip": "10509-0000", "ntee": "", "ruling": "195204", "deductibility": "1", "assets": 0, "income": 0, "revenue": 0}, {"ein": "146036880", "name": "COOPERATIVE EXTENSION ASSOCIATION IN THE STATE OF N Y", "city": "WARRENSBURG", "state": "NY", "zip": "12885-4807", "ntee": "", "ruling": "196609", "deductibility": "1", "assets": 0, "income": 0, "revenue": 0}, {"ein": "146036881", "name": "COOPERATIVE EXTENSION ASSOC IN THE STATE OF NEW YORK", "city": "VOORHEESVILLE", "state": "NY", "zip": "12186-4814", "ntee": "", "ruling": "196609", "deductibility": "1", "assets": 0, "income": 0, "revenue": 0}, {"ein": "146036882", "name": "COOPERATIVE EXTENSION ASSOC IN THE STATE OF NEW YORK", "city": "MILLBROOK", "state": "NY", "zip": "12545-5566", "ntee": "", "ruling": "196609", "deductibility": "1", "assets": 0, "income": 0, "revenue": 0}, {"ein": "146036884", "name": "COOPERATIVE EXTENSION ASSOCIATION IN THE STATE OF N Y", "city": "SCHENECTADY", "state": "NY", "zip": "12308-3170", "ntee": "", "ruling": "195204", "deductibility": "1", "assets": 0, "income": 0, "revenue": 0}, {"ein": "146036885", "name": "COOPERATIVE EXTENSION ASSOCIATION IN THE STATE OF N Y", "city": "PLATTSBURGH", "state": "NY", "zip": "12901-6264", "ntee": "", "ruling": "196609", "deductibility": "1", "assets": 0, "income": 0, "revenue": 0}, {"ein": "146036889", "name": "COOPERATIVE EXTENSION ASSOCIATION IN THE STATE OF N Y", "city": "MIDDLETOWN", "state": "NY", "zip": "10940-1919", "ntee": "", "ruling": "196609", "deductibility": "1", "assets": 0, "income": 0, "revenue": 0}, {"ein": "146036890", "name": "COOPERATIVE EXTENSION ASSOCIATION IN THE STATE OF N Y", "city": "E GREENBUSH", "state": "NY", "zip": "12061-1029", "ntee": "", "ruling": "195204", "deductibility": "1", "assets": 0, "income": 0, "revenue": 0}, {"ein": "146036892", "name": "COOPERATIVE EXTENSION ASSOCIATION IN THE STATE OF N Y", "city": "BALLSTON SPA", "state": "NY", "zip": "12020-1979", "ntee": "", "ruling": "195204", "deductibility": "1", "assets": 0, "income": 0, "revenue": 0}, {"ein": "146036893", "name": "COOPERATIVE EXTENSION ASSOCIATION IN THE STATE OF NEW YORK", "city": "KINGSTON", "state": "NY", "zip": "12401-2973", "ntee": "", "ruling": "195204", "deductibility": "1", "assets": 0, "income": 0, "revenue": 0}, {"ein": "146036894", "name": "COOPERATIVE EXTENSION ASSOC IN THE STATE OF NEW YORK", "city": "LIBERTY", "state": "NY", "zip": "12754-2902", "ntee": "", "ruling": "196609", "deductibility": "1", "assets": 0, "income": 0, "revenue": 0}, {"ein": "146037202", "name": "COOPERATIVE EXTENSION ASSOCIATION IN THE STATE OF NEW YORK", "city": "CANTON", "state": "NY", "zip": "13617-3407", "ntee": "", "ruling": "195204", "deductibility": "1", "assets": 0, "income": 0, "revenue": 0}, {"ein": "146037203", "name": "COOPERATIVE EXTENSION ASSOCIATION IN THE STATE OF N Y", "city": "MALONE", "state": "NY", "zip": "12953-1826", "ntee": "", "ruling": "196609", "deductibility": "1", "assets": 0, "income": 0, "revenue": 0}, {"ein": "146048677", "name": "COOPERATIVE EXTENSION ASSOCIATION IN THE STATE OF NEW YORK", "city": "LEWIS", "state": "NY", "zip": "12950-2407", "ntee": "", "ruling": "195201", "deductibility": "1", "assets": 0, "income": 0, "revenue": 0}, {"ein": "161159507", "name": "COOPERATIVE EXTENSION ASSOC IN THE STATE OF NEW YORK", "city": "ITHACA", "state": "NY", "zip": "14853-0000", "ntee": "", "ruling": "194311", "deductibility": "1", "assets": 0, "income": 0, "revenue": 0}, {"ein": "161521620", "name": "COOPERATIVE EXTENSION ASSOC IN THE STATE OF NEW YORK", "city": "FONDA", "state": "NY", "zip": "12068-4830", "ntee": "", "ruling": "194311", "deductibility": "1", "assets": 0, "income": 0, "revenue": 0}, {"ein": "166072872", "name": "COOPERATIVE EXTENSION ASSOCIATION IN THE STATE OF NEW YORK", "city": "BINGHAMTON", "state": "NY", "zip": "13905-1542", "ntee": "", "ruling": "196609", "deductibility": "1", "assets": 0, "income": 0, "revenue": 0}, {"ein": "166072873", "name": "COOPERATIVE EXTENSION ASSOCIATION IN THE STATE OF N Y", "city": "AUBURN", "state": "NY", "zip": "13021-3031", "ntee": "", "ruling": "196609", "deductibility": "1", "assets": 0, "income": 0, "revenue": 0}, {"ein": "166072874", "name": "COOPERATIVE EXTENSION ASSOCIATION IN THE STATE OF N Y", "city": "JAMESTOWN", "state": "NY", "zip": "14702-0020", "ntee": "", "ruling": "196609", "deductibility": "1", "assets": 0, "income": 0, "revenue": 0}, {"ein": "166072875", "name": "COOPERATIVE EXTENSION ASSOCIATION IN THE STATE OF NEW YORK", "city": "ELMIRA", "state": "NY", "zip": "14904-1762", "ntee": "", "ruling": "195204", "deductibility": "1", "assets": 0, "income": 0, "revenue": 0}, {"ein": "166072876", "name": "COOPERATIVE EXTENSION ASSOCIATION IN THE STATE OF NEW YORK", "city": "NORWICH", "state": "NY", "zip": "13815-1149", "ntee": "", "ruling": "196609", "deductibility": "1", "assets": 0, "income": 0, "revenue": 0}, {"ein": "166072877", "name": "COOPERATIVE EXTENSION ASSOC IN THE STATE OF NEW YORK", "city": "CORTLAND", "state": "NY", "zip": "13045-2795", "ntee": "", "ruling": "195204", "deductibility": "1", "assets": 0, "income": 0, "revenue": 0}, {"ein": "166072878", "name": "COOPERATIVE EXTENSION ASSOC IN THE STATE OF NEW YORK", "city": "HAMDEN", "state": "NY", "zip": "13782-1120", "ntee": "", "ruling": "196609", "deductibility": "1", "assets": 0, "income": 0, "revenue": 0}, {"ein": "166072879", "name": "COOPERATIVE EXTENSION ASSOCIATION IN THE STATE OF N Y", "city": "E AURORA", "state": "NY", "zip": "14052-2345", "ntee": "", "ruling": "196609", "deductibility": "1", "assets": 0, "income": 0, "revenue": 0}, {"ein": "166072880", "name": "COOPERATIVE EXTENSION ASSOCIATION IN THE STATE OF NY", "city": "BATAVIA", "state": "NY", "zip": "14020-2521", "ntee": "", "ruling": "195204", "deductibility": "1", "assets": 0, "income": 0, "revenue": 0}, {"ein": "166072881", "name": "COOPERATIVE EXTENSION ASSOCIATION IN THE STATE OF NEW YORK", "city": "HERKIMER", "state": "NY", "zip": "13350-3516", "ntee": "", "ruling": "195201", "deductibility": "1", "assets": 0, "income": 0, "revenue": 0}, {"ein": "166072882", "name": "COOPERATIVE EXTENSION ASSOC IN THE STATE OF NEW YORK", "city": "WATERTOWN", "state": "NY", "zip": "13601-3193", "ntee": "", "ruling": "195204", "deductibility": "1", "assets": 0, "income": 0, "revenue": 0}, {"ein": "166072883", "name": "COOPERATIVE EXTENSION ASSOC IN THE STATE OF NEW YORK", "city": "LOWVILLE", "state": "NY", "zip": "13367-1590", "ntee": "", "ruling": "196609", "deductibility": "1", "assets": 0, "income": 0, "revenue": 0}, {"ein": "166072884", "name": "COOPERATIVE EXTENSION ASSOCIATION IN THE STATE OF N Y", "city": "MOUNT MORRIS", "state": "NY", "zip": "14510-1153", "ntee": "", "ruling": "196609", "deductibility": "1", "assets": 0, "income": 0, "revenue": 0}, {"ein": "166072885", "name": "COOPERATIVE EXTENSION ASSOC IN THE STATE OF NEW YORK", "city": "MORRISVILLE", "state": "NY", "zip": "13408-1209", "ntee": "", "ruling": "195204", "deductibility": "1", "assets": 0, "income": 0, "revenue": 0}, {"ein": "166072886", "name": "COOPERATIVE EXTENSION ASSOCIATION IN THE STATE OF NEW YORK", "city": "ROCHESTER", "state": "NY", "zip": "14617-4537", "ntee": "", "ruling": "195204", "deductibility": "1", "assets": 0, "income": 0, "revenue": 0}, {"ein": "166072887", "name": "COOPERATIVE EXTENSION ASSOCIATION IN THE STATE OF NEW YORK", "city": "LOCKPORT", "state": "NY", "zip": "14094-1139", "ntee": "", "ruling": "195204", "deductibility": "1", "assets": 0, "income": 0, "revenue": 0}, {"ein": "166072888", "name": "COOPERATIVE EXTENSION ASSOCIATION IN THE STATE OF N Y", "city": "ORISKANY", "state": "NY", "zip": "13424-3921", "ntee": "", "ruling": "195204", "deductibility": "1", "assets": 0, "income": 0, "revenue": 0}, {"ein": "166072889", "name": "COOPERATIVE EXTENSION ASSOCIATION IN THE STATE OF NEW YORK", "city": "EAST SYRACUSE", "state": "NY", "zip": "13057-1029", "ntee": "", "ruling": "195204", "deductibility": "1", "assets": 0, "income": 0, "revenue": 0}, {"ein": "166072890", "name": "COOPERATIVE EXTENSION ASSOCIATION IN THE STATE OF N Y", "city": "ALBION", "state": "NY", "zip": "14411-0000", "ntee": "", "ruling": "196609", "deductibility": "1", "assets": 0, "income": 0, "revenue": 0}, {"ein": "166072891", "name": "COOPERATIVE EXTENSION ASSOCIATION IN THE STATE OF NEW YORK", "city": "MEXICO", "state": "NY", "zip": "13114-3456", "ntee": "", "ruling": "195204", "deductibility": "1", "assets": 0, "income": 0, "revenue": 0}, {"ein": "166072893", "name": "COOPERATIVE EXTENSION ASSOCIATION IN THE STATE OF N Y", "city": "MONTOUR FALLS", "state": "NY", "zip": "14865-9625", "ntee": "", "ruling": "195204", "deductibility": "1", "assets": 0, "income": 0, "revenue": 0}, {"ein": "166072894", "name": "COOPERATIVE EXTENSION ASSOC IN THE STATE OF NEW YORK", "city": "WATERLOO", "state": "NY", "zip": "13165-1654", "ntee": "", "ruling": "195204", "deductibility": "1", "assets": 0, "income": 0, "revenue": 0}, {"ein": "166072895", "name": "COOPERATIVE EXTENSION ASSOCIATION IN THE STATE OF NEW YORK", "city": "BATH", "state": "NY", "zip": "14810-1617", "ntee": "", "ruling": "195204", "deductibility": "1", "assets": 0, "income": 0, "revenue": 0}, {"ein": "166072896", "name": "COOPERATIVE EXTENSION ASSOCIATION IN THE STATE OF N Y", "city": "CANDOR", "state": "NY", "zip": "13743-1810", "ntee": "", "ruling": "195204", "deductibility": "1", "assets": 0, "income": 0, "revenue": 0}, {"ein": "166072897", "name": "COOPERATIVE EXTENSION ASSOCIATION IN THE STATE OF N Y", "city": "ITHACA", "state": "NY", "zip": "14850-3555", "ntee": "", "ruling": "195204", "deductibility": "1", "assets": 0, "income": 0, "revenue": 0}, {"ein": "166072898", "name": "COOPERATIVE EXTENSION ASSOCIATION IN THE STATE OF N Y", "city": "NEWARK", "state": "NY", "zip": "14513-0000", "ntee": "", "ruling": "195204", "deductibility": "1", "assets": 0, "income": 0, "revenue": 0}, {"ein": "166072899", "name": "COOPERATIVE EXTENSION ASSOCIATION IN THE STATE OF N Y", "city": "WARSAW", "state": "NY", "zip": "14569-1471", "ntee": "", "ruling": "196609", "deductibility": "1", "assets": 0, "income": 0, "revenue": 0}, {"ein": "166072900", "name": "COOPERATIVE EXTENSION ASSOCIATION IN THE STATE OF N Y", "city": "PENN YAN", "state": "NY", "zip": "14527-1100", "ntee": "", "ruling": "195204", "deductibility": "1", "assets": 0, "income": 0, "revenue": 0}, {"ein": "166098242", "name": "COOPERATIVE EXTENSION ASSOCIATION IN THE STATE OF NEW YORK", "city": "CANANDAIGUA", "state": "NY", "zip": "14424-1049", "ntee": "", "ruling": "195204", "deductibility": "1", "assets": 0, "income": 0, "revenue": 0}, {"ein": "204216264", "name": "ERIE COUNTY EXTENSION FOUNDATIONINC", "city": "ELMA", "state": "NY", "zip": "14059-9281", "ntee": "S12", "ruling": "200703", "deductibility": "1", "assets": 296903, "income": 19189, "revenue": 19189}, {"ein": "222701738", "name": "COOPERATIVE EXTENSION ASSOC IN THE STATE OF NEW YORK", "city": "PISECO", "state": "NY", "zip": "12139-0007", "ntee": "", "ruling": "195204", "deductibility": "1", "assets": 0, "income": 0, "revenue": 0}, {"ein": "237039404", "name": "COOPERATIVE EXTENSION ASSOCIATION IN THE STATE OF N Y", "city": "ITHACA", "state": "NY", "zip": "14853-0000", "ntee": "", "ruling": "194311", "deductibility": "1", "assets": 0, "income": 0, "revenue": 0}, {"ein": "300705735", "name": "COOPERATIVE EXTENSION ASSOCIATION IN THE STATE OF NEW YORK COLUMBIA", "city": "ACRA", "state": "NY", "zip": "12405-0000", "ntee": "", "ruling": "195204", "deductibility": "1", "assets": 0, "income": 0, "revenue": 0}, {"ein": "371639568", "name": "CITIZENS FOR EXTENSION OF THE JAMES ZADROGA ACT INC", "city": "ALBANY", "state": "NY", "zip": "12210-1939", "ntee": "S20", "ruling": "201107", "deductibility": "2", "assets": 232606, "income": 0, "revenue": 0}, {"ein": "452989970", "name": "EDUCATION FOUNDATION FOR SUFFOLK COUNTY EXTENSION INC", "city": "NORTHPORT", "state": "NY", "zip": "11768-2642", "ntee": "B12", "ruling": "201112", "deductibility": "1", "assets": 238008, "income": 17556, "revenue": 17556}, {"ein": "453680676", "name": "COOPERATIVE EXTENSION ASSN IN STATE OF NEW YORK SCHOHARIE & OTSEGO CO", "city": "COBLESKILL", "state": "NY", "zip": "12043-4649", "ntee": "", "ruling": "195204", "deductibility": "1", "assets": 0, "income": 0, "revenue": 0}, {"ein": "465328762", "name": "LIFESPAN EXTENSION ADVOCACY FOUNDATION INC", "city": "SEAFORD", "state": "NY", "zip": "11783-2532", "ntee": "H12", "ruling": "201407", "deductibility": "1", "assets": 737240, "income": 1156944, "revenue": 923776}, {"ein": "475316252", "name": "COOPERATIVE EXTENSION SERVICE IN THE STATE OF NEW YORK", "city": "ELLICOTTVILLE", "state": "NY", "zip": "14731-9707", "ntee": "", "ruling": "195204", "deductibility": "1", "assets": 0, "income": 0, "revenue": 0}, {"ein": "475368304", "name": "COOPERATIVE EXTENSION SERVICE IN THE STATE OF NEW YORK", "city": "BELMONT", "state": "NY", "zip": "14813-9747", "ntee": "", "ruling": "195204", "deductibility": "1", "assets": 0, "income": 0, "revenue": 0}, {"ein": "510165782", "name": "NATIONAL EXTENSION ASSOC OF FAMILY AND CONSUMER SCIENCES NY AFFLIATE", "city": "BALLSTON SPA", "state": "NY", "zip": "12020-1982", "ntee": "J03", "ruling": "201504", "deductibility": "2", "assets": 0, "income": 0, "revenue": 0}, {"ein": "811863396", "name": "EXTENSION OF CHRIST MINISTRIES INTERNATIONAL", "city": "SCHENECTADY", "state": "NY", "zip": "12306-6204", "ntee": "X20", "ruling": "201603", "deductibility": "1", "assets": 0, "income": 0, "revenue": 0}, {"ein": "873548224", "name": "CP EXTENSION INC", "city": "NEW YORK", "state": "NY", "zip": "10006-1066", "ntee": "G80", "ruling": "202202", "deductibility": "1", "assets": 26156, "income": 10946, "revenue": 10946}], "COPEN": [{"ein": "116018654", "name": "COPEN FOUNDATION INC", "city": "JERICHO", "state": "NY", "zip": "11753-1162", "ntee": "", "ruling": "195508", "deductibility": "1", "assets": 49996, "income": 3767, "revenue": 0}], "FIRMAN": [{"ein": "116035636", "name": "THE JAY AND LIUBA FIRMAN FAMILY FOUNDATION", "city": "DIX HILLS", "state": "NY", "zip": "11746-6404", "ntee": "", "ruling": "196209", "deductibility": "1", "assets": 23520, "income": 40003, "revenue": 0}], "SHOLAUM": [{"ein": "131632515", "name": "CONGREGATION OHAV SHOLAUM", "city": "NEW YORK", "state": "NY", "zip": "10040-2102", "ntee": "", "ruling": "196504", "deductibility": "1", "assets": 0, "income": 0, "revenue": 0}], "HUGUENOT": [{"ein": "131713046", "name": "HUGUENOT YACHT CLUB", "city": "NEW ROCHELLE", "state": "NY", "zip": "10805-0000", "ntee": "N50", "ruling": "196402", "deductibility": "2", "assets": 3803521, "income": 1534040, "revenue": 1328110}, {"ein": "136117102", "name": "HUGUENOT SOCIETY OF AMERICA", "city": "NEW YORK", "state": "NY", "zip": "10036-6603", "ntee": "", "ruling": "194209", "deductibility": "1", "assets": 4935892, "income": 492325, "revenue": 0}, {"ein": "136137576", "name": "REFORMED CHURCH OF HUGUENOT PARK", "city": "STATEN ISLAND", "state": "NY", "zip": "10312-3930", "ntee": "", "ruling": "198601", "deductibility": "1", "assets": 0, "income": 0, "revenue": 0}, {"ein": "136213135", "name": "HUGUENOT HISTORICAL ASSOCIATION OF NEW ROCHELLE FOUNDATION", "city": "NEW ROCHELLE", "state": "NY", "zip": "10804-4131", "ntee": "", "ruling": "196701", "deductibility": "1", "assets": 128283, "income": 19656, "revenue": 0}, {"ein": "141757734", "name": "HUGUENOT FIRE COMPANY INC", "city": "HUGUENOT", "state": "NY", "zip": "12746-0195", "ntee": "", "ruling": "200804", "deductibility": "2", "assets": 1067591, "income": 337231, "revenue": 337231}, {"ein": "146030196", "name": "HUGUENOT HISTORICAL SOCIETY NEW PALTZ N Y INC", "city": "NEW PALTZ", "state": "NY", "zip": "12561-1415", "ntee": "A80", "ruling": "201106", "deductibility": "1", "assets": 5715874, "income": 3987251, "revenue": 3655712}], "QUAILE": [{"ein": "131843420", "name": "DILLER-QUAILE SCHOOL OF MUSIC INC", "city": "NEW YORK", "state": "NY", "zip": "10128-0702", "ntee": "A6E0", "ruling": "195904", "deductibility": "1", "assets": 8121723, "income": 3759378, "revenue": 3633079}], "APPR": [{"ein": "131968055", "name": "INTERNATIONAL UNION OF OPRTNG ENGNR LOC137 137A B&C APPR & SKL IMP FND", "city": "BRIARCLIFF", "state": "NY", "zip": "10510-1620", "ntee": "", "ruling": "196309", "deductibility": "1", "assets": 3274440, "income": 2213578, "revenue": 1134829}, {"ein": "223132674", "name": "EMPIRE ST CONST APPR & TRAIN TRUST FUND", "city": "EAST SYRACUSE", "state": "NY", "zip": "13057-1115", "ntee": "", "ruling": "199112", "deductibility": "1", "assets": 0, "income": 0, "revenue": 0}, {"ein": "237379398", "name": "UNITED ASSOCIATION OF JRNYMN & APPR OF THE PLBG & PIPE FITTING IND", "city": "LATHAM", "state": "NY", "zip": "12110-2605", "ntee": "", "ruling": "194101", "deductibility": "2", "assets": 881230, "income": 171183, "revenue": 171183}], "BRICK": [{"ein": "132537834", "name": "ASSOCIATED BRICK MASON CONTRACTORS OF GREATER NEW YORK INC", "city": "OSSINING", "state": "NY", "zip": "10562-4207", "ntee": "J40Z", "ruling": "196510", "deductibility": "2", "assets": 333359, "income": 134504, "revenue": 134504}, {"ein": "133939698", "name": "HAVERSTRAW BRICK MUSEUM", "city": "HAVERSTRAW", "state": "NY", "zip": "10927-1908", "ntee": "Z99", "ruling": "201406", "deductibility": "1", "assets": 44273, "income": 73551, "revenue": 0}, {"ein": "141332185", "name": "BRICK CHURCH CEMETERY ASSOC", "city": "MONTGOMERY", "state": "NY", "zip": "12549-2128", "ntee": "", "ruling": "201202", "deductibility": "1", "assets": 0, "income": 0, "revenue": 0}, {"ein": "161570557", "name": "BRICK BY BRICK FELLOWSHIP", "city": "WILLIAMSVILLE", "state": "NY", "zip": "14221-7158", "ntee": "X21", "ruling": "200108", "deductibility": "1", "assets": 0, "income": 0, "revenue": 0}, {"ein": "263650873", "name": "BRICK FOUNDATION", "city": "GRAND ISLAND", "state": "NY", "zip": "14072-2906", "ntee": "Q30", "ruling": "201102", "deductibility": "1", "assets": 0, "income": 0, "revenue": 0}, {"ein": "352179695", "name": "BRICK THEATER INC", "city": "BROOKLYN", "state": "NY", "zip": "11211-3501", "ntee": "A65", "ruling": "200402", "deductibility": "1", "assets": 512061, "income": 575312, "revenue": 575312}, {"ein": "814632387", "name": "LITTLE BRICK HOUSE INTERNATIONAL INC", "city": "CAMILLUS", "state": "NY", "zip": "13031-2327", "ntee": "E86", "ruling": "201711", "deductibility": "1", "assets": 0, "income": 0, "revenue": 0}, {"ein": "815174141", "name": "BRICK STUDIO RP INC", "city": "SAINT JAMES", "state": "NY", "zip": "11780-0000", "ntee": "A20", "ruling": "201705", "deductibility": "1", "assets": 427452, "income": 273999, "revenue": 273999}, {"ein": "861374111", "name": "BRICK GIVERS INC", "city": "RYE", "state": "NY", "zip": "10580-1112", "ntee": "P58", "ruling": "202104", "deductibility": "1", "assets": 0, "income": 0, "revenue": 0}, {"ein": "921489391", "name": "BRICK BUFFALO ACADEMY", "city": "BUFFALO", "state": "NY", "zip": "14211-3020", "ntee": "B29", "ruling": "202308", "deductibility": "1", "assets": 2505334, "income": 2405383, "revenue": 2405383}], "GREENACRES": [{"ein": "132573870", "name": "GREENACRES ASSOCIATION OF SCARSDALE INC", "city": "SCARSDALE", "state": "NY", "zip": "10583-2033", "ntee": "S20", "ruling": "201412", "deductibility": "2", "assets": 0, "income": 0, "revenue": 0}], "MIZE": [{"ein": "132972532", "name": "ROBERT MIZE AND ISA WHITE TRIMBLE FAMILY FOUNDATION", "city": "NEW YORK", "state": "NY", "zip": "10165-0908", "ntee": "", "ruling": "197904", "deductibility": "1", "assets": 5019345, "income": 991730, "revenue": 0}], "JBS": [{"ein": "132974957", "name": "JEWISH EDUCATION IN MEDIA INC DBA JBS JEWISH BROADCASTING SERVIC", "city": "NEW YORK", "state": "NY", "zip": "10036-2501", "ntee": "A30Z", "ruling": "197906", "deductibility": "1", "assets": 2081653, "income": 2061097, "revenue": 2061097}], "REMINGTON": [{"ein": "133179600", "name": "FREDERIC REMINGTON ART MUSEUM", "city": "OGDENSBURG", "state": "NY", "zip": "13669-1517", "ntee": "A510", "ruling": "199506", "deductibility": "1", "assets": 4554530, "income": 557105, "revenue": 461891}, {"ein": "150538317", "name": "REMINGTON FEDERAL CREDIT UNION", "city": "ILION", "state": "NY", "zip": "13357-0388", "ntee": "", "ruling": "201907", "deductibility": "0", "assets": 0, "income": 0, "revenue": 0}, {"ein": "161389092", "name": "FREDERIC REMINGTON ART MUSEUM FOUNDATION", "city": "OGDENSBURG", "state": "NY", "zip": "13669-1517", "ntee": "A115", "ruling": "000000", "deductibility": "1", "assets": 1407044, "income": 261777, "revenue": 134823}, {"ein": "456420217", "name": "DEBORAH REMINGTON CHARITABLE TR FOR THE VISUAL ARTS", "city": "NEW YORK", "state": "NY", "zip": "10019-0000", "ntee": "T22", "ruling": "201209", "deductibility": "1", "assets": 885687, "income": 875820, "revenue": 0}], "KAGANOFF": [{"ein": "133206671", "name": "FRIENDS OF WASHINGTON HEIGHTS HATZOLOH INC C/O KAGANOFF", "city": "NEW YORK", "state": "NY", "zip": "10033-2353", "ntee": "E62I", "ruling": "198411", "deductibility": "1", "assets": 653363, "income": 221286, "revenue": 221286}], "CALDER": [{"ein": "133466986", "name": "CALDER FOUNDATION", "city": "NEW YORK", "state": "NY", "zip": "10001-7162", "ntee": "", "ruling": "199109", "deductibility": "1", "assets": 349184039, "income": 29767022, "revenue": 0}], "2NDA": [{"ein": "133525280", "name": "IGL MONTE CALVARIO 2NDA", "city": "NEW YORK", "state": "NY", "zip": "10040-0150", "ntee": "", "ruling": "196408", "deductibility": "1", "assets": 0, "income": 0, "revenue": 0}, {"ein": "264256105", "name": "2NDA IGLESIA LA MISION ASAMBLEAS DE DIOS", "city": "KINGSTON", "state": "NY", "zip": "12401-3424", "ntee": "", "ruling": "196408", "deductibility": "1", "assets": 0, "income": 0, "revenue": 0}], "LEIBER": [{"ein": "133680342", "name": "GERSON AND JUDITH LEIBER FOUNDATION INC", "city": "GARDEN CITY", "state": "NY", "zip": "11530-2045", "ntee": "", "ruling": "199401", "deductibility": "1", "assets": 1, "income": 1, "revenue": 0}, {"ein": "134197644", "name": "JUDITH AND GERSON LEIBER FOUNDATION INC", "city": "GARDEN CITY", "state": "NY", "zip": "11530-2010", "ntee": "T21", "ruling": "200204", "deductibility": "1", "assets": 260551, "income": 17938, "revenue": 0}], "OBJECT": [{"ein": "133697333", "name": "OBJECT RELATIONS INSTITUTE TRAINING FOUNDATION", "city": "FRESH MEADOWS", "state": "NY", "zip": "11366-1725", "ntee": "", "ruling": "199306", "deductibility": "1", "assets": 37472, "income": 126171, "revenue": 126171}], "HEPZIBAH": [{"ein": "133864563", "name": "HEPZIBAH JOHN 3 16", "city": "YONKERS", "state": "NY", "zip": "10705-3449", "ntee": "", "ruling": "196408", "deductibility": "1", "assets": 0, "income": 0, "revenue": 0}], "HEADWAY": [{"ein": "133906297", "name": "MAKING HEADWAY FOUNDATION INC", "city": "CHAPPAQUA", "state": "NY", "zip": "10514-3460", "ntee": "H99", "ruling": "199610", "deductibility": "1", "assets": 4189209, "income": 2783145, "revenue": 1042536}], "FALCONHEAD": [{"ein": "133946281", "name": "FALCONHEAD FOUNDATION INC", "city": "NEW YORK", "state": "NY", "zip": "10005-0000", "ntee": "T20", "ruling": "199908", "deductibility": "1", "assets": 3259007, "income": 716999, "revenue": 0}], "SEVENTEENTH": [{"ein": "134004190", "name": "SEVENTEENTH STREET HOUSING DEVELOPMENT CORPORATION", "city": "NEW YORK", "state": "NY", "zip": "10018-0092", "ntee": "L20", "ruling": "201908", "deductibility": "2", "assets": 3041766, "income": 339735, "revenue": 339735}, {"ein": "431739848", "name": "SOCIETY FOR SEVENTEENTH-CENTURY MUSIC", "city": "NEW YORK", "state": "NY", "zip": "10005-4301", "ntee": "A68", "ruling": "201407", "deductibility": "1", "assets": 0, "income": 0, "revenue": 0}], "AKASHA": [{"ein": "134084288", "name": "AKASHA INC", "city": "BROOKLYN", "state": "NY", "zip": "11216-2105", "ntee": "A60", "ruling": "200003", "deductibility": "1", "assets": 0, "income": 0, "revenue": 0}], "OHRMOSHE": [{"ein": "134095574", "name": "CONGREGATION OHRMOSHE", "city": "MONSEY", "state": "NY", "zip": "10952-0272", "ntee": "X30", "ruling": "200003", "deductibility": "1", "assets": 0, "income": 0, "revenue": 0}], "CHANDRA": [{"ein": "134138180", "name": "PARES CHANDRA AND SIVANICHAKRAVORTY MEMORIAL RURAL EDUCATION PROJECT I", "city": "NEW YORK", "state": "NY", "zip": "10032-5490", "ntee": "B92", "ruling": "200307", "deductibility": "1", "assets": 831265, "income": 97070, "revenue": 0}], "PATRIGNANO": [{"ein": "134182204", "name": "FRIENDS OF SAN PATRIGNANO INC", "city": "NEW YORK", "state": "NY", "zip": "10022-1906", "ntee": "I44", "ruling": "200209", "deductibility": "1", "assets": 7447, "income": 230087, "revenue": 230087}], "CHAPPARD": [{"ein": "134187568", "name": "DANIELA CHAPPARD FOUNDATION", "city": "NEW YORK", "state": "NY", "zip": "10012-3241", "ntee": "G81", "ruling": "200111", "deductibility": "1", "assets": 2258200, "income": 3057, "revenue": 0}], "AWAKENING": [{"ein": "134266455", "name": "AWAKENING CONSCIOUSNESS FELLOWSHIP", "city": "N SYRACUSE", "state": "NY", "zip": "13212-1253", "ntee": "X20", "ruling": "201605", "deductibility": "1", "assets": 0, "income": 0, "revenue": 0}, {"ein": "452303104", "name": "SISTER TO SISTER AWAKENING INC", "city": "ALBANY", "state": "NY", "zip": "12209-1828", "ntee": "P99", "ruling": "201908", "deductibility": "1", "assets": 0, "income": 0, "revenue": 0}, {"ein": "853718590", "name": "CHINATOWN ORGANIZATION FOR MEDIA AWAKENING INC", "city": "NEW YORK", "state": "NY", "zip": "10013-5002", "ntee": "A23", "ruling": "202109", "deductibility": "1", "assets": 22574, "income": 9994, "revenue": 9994}, {"ein": "922419552", "name": "AWAKENING LION MEDIA INC", "city": "WOODSIDE", "state": "NY", "zip": "11377-5541", "ntee": "X83", "ruling": "202307", "deductibility": "1", "assets": 0, "income": 0, "revenue": 0}, {"ein": "994037805", "name": "AWAKENING MINISTRY INC", "city": "SCARSDALE", "state": "NY", "zip": "10583-0694", "ntee": "X20", "ruling": "202407", "deductibility": "1", "assets": 0, "income": 0, "revenue": 0}], "TEXAS": [{"ein": "136041682", "name": "J P DREIBELBIS TRUST FOR UNIVERSITY OF TEXAS", "city": "NEW YORK", "state": "NY", "zip": "10008-1297", "ntee": "", "ruling": "000000", "deductibility": "1", "assets": 914788, "income": 294019, "revenue": 0}, {"ein": "263345397", "name": "WAAAUB-NORTH TEXAS - DALLAS - CHAPTER", "city": "NEW YORK", "state": "NY", "zip": "10017-2322", "ntee": "B84", "ruling": "201503", "deductibility": "1", "assets": 0, "income": 0, "revenue": 0}, {"ein": "463336735", "name": "TEXAS EXES NEW YORK CHAPTER INC", "city": "WHITE PLAINS", "state": "NY", "zip": "10601-3347", "ntee": "B82", "ruling": "201408", "deductibility": "1", "assets": 242393, "income": 149186, "revenue": 79736}, {"ein": "750808811", "name": "EASTER SEALS-CENTRAL TEXAS INC", "city": "NEW YORK", "state": "NY", "zip": "10017-6733", "ntee": "E50Z", "ruling": "196901", "deductibility": "1", "assets": 4394078, "income": 7472682, "revenue": 7472682}, {"ein": "820588462", "name": "TEXAS ALLIANCE FOUNDATION", "city": "NEW YORK", "state": "NY", "zip": "10011-1968", "ntee": "T22", "ruling": "200405", "deductibility": "1", "assets": 2878, "income": 3580, "revenue": 0}, {"ein": "842130763", "name": "TEXAS ISRAEL TECHNOLOGY PARTNERSHIP INC", "city": "NEW YORK", "state": "NY", "zip": "10013-2562", "ntee": "E19", "ruling": "202001", "deductibility": "1", "assets": 4832, "income": 0, "revenue": 0}, {"ein": "932967186", "name": "TEXAS RAILWAY PRESERVATION ASSOCIATION", "city": "BLOOMFIELD", "state": "NY", "zip": "14469-9226", "ntee": "A82", "ruling": "202312", "deductibility": "1", "assets": 0, "income": 0, "revenue": 0}], "EDWARDH": [{"ein": "136057248", "name": "EDWARDH SMITH TR UW 105708 FBO FIRST UNIVERSALIST CHURCH", "city": "NEW YORK", "state": "NY", "zip": "10013-2362", "ntee": "", "ruling": "198301", "deductibility": "0", "assets": 390194, "income": 119792, "revenue": 0}], "FRAN": [{"ein": "136149942", "name": "FRAN-MAN FOUNDATION INC", "city": "NEW YORK", "state": "NY", "zip": "10075-0000", "ntee": "", "ruling": "195712", "deductibility": "1", "assets": 64193, "income": 2078, "revenue": 0}], "HENKIND": [{"ein": "136165710", "name": "HENKIND FOUNDATION", "city": "NEW YORK", "state": "NY", "zip": "10022-0000", "ntee": "", "ruling": "196005", "deductibility": "1", "assets": 1463443, "income": 599650, "revenue": 0}], "ORVIS": [{"ein": "136217675", "name": "THE ARTHUR AND MAE ORVIS FOUNDATION INC", "city": "NEW YORK", "state": "NY", "zip": "10158-2199", "ntee": "", "ruling": "196707", "deductibility": "1", "assets": 8659420, "income": 324065, "revenue": 0}], "REFRIGERATING": [{"ein": "136274518", "name": "AMERICAN SOCIETY OF HEATING REFRIGERATING & A-C ENGINEERS", "city": "BETHPAGE", "state": "NY", "zip": "11714-4505", "ntee": "S41Z", "ruling": "197311", "deductibility": "1", "assets": 158261, "income": 195807, "revenue": 195807}, {"ein": "166071509", "name": "AMERICAN SOCIETY OF HEATING REFRIGERATING & A-C ENGINEERS", "city": "ROCHESTER", "state": "NY", "zip": "14607-2101", "ntee": "", "ruling": "197311", "deductibility": "1", "assets": 104534, "income": 111379, "revenue": 50942}, {"ein": "222182126", "name": "AMERICAN SOCIETY OF HEATING REFRIGERATING & A-C ENGINEERS", "city": "ITHACA", "state": "NY", "zip": "14851-6706", "ntee": "", "ruling": "197311", "deductibility": "1", "assets": 0, "income": 0, "revenue": 0}, {"ein": "231302765", "name": "AMERICAN SOCIETY OF HEATING REFRIGERATING & A-C ENGINEERS", "city": "COMMACK", "state": "NY", "zip": "11725-0079", "ntee": "U42", "ruling": "197311", "deductibility": "1", "assets": 63828, "income": 157135, "revenue": 43684}, {"ein": "237366206", "name": "AMERICAN SOCIETY OF HEATING REFRIGERATING & A-C ENGINEERS", "city": "ALBANY", "state": "NY", "zip": "12212-3933", "ntee": "", "ruling": "197311", "deductibility": "1", "assets": 111385, "income": 141539, "revenue": 100744}, {"ein": "263497957", "name": "AMERICAN SOCIETY OF HEATING REFRIGERATING & A-C ENGINEERS", "city": "STERLING", "state": "NY", "zip": "13156-4253", "ntee": "", "ruling": "197311", "deductibility": "1", "assets": 0, "income": 0, "revenue": 0}, {"ein": "510195497", "name": "AMERICAN SOCIETY OF HEATING REFRIGERATING & A-C ENGINEERS", "city": "TONAWANDA", "state": "NY", "zip": "14150-1210", "ntee": "", "ruling": "197311", "deductibility": "1", "assets": 0, "income": 0, "revenue": 0}], "MEYERS": [{"ein": "137353902", "name": "UAW LOCAL 259 SAM@MEYERS SCHOLARSHIP TRUST FUND", "city": "HICKSVILLE", "state": "NY", "zip": "11801-4904", "ntee": "T20", "ruling": "200309", "deductibility": "1", "assets": 71095, "income": 6323, "revenue": 0}, {"ein": "166094037", "name": "AMERICAN LEGION MEYERS INGRAHAM POST 428", "city": "ONTARIO", "state": "NY", "zip": "14519-0428", "ntee": "", "ruling": "194603", "deductibility": "1", "assets": 0, "income": 0, "revenue": 0}, {"ein": "260864957", "name": "MEYERS INGRAHAM MEMORIAL CORP", "city": "ONTARIO", "state": "NY", "zip": "14519-0428", "ntee": "N50", "ruling": "200801", "deductibility": "2", "assets": 60860, "income": 227282, "revenue": 71446}, {"ein": "306049569", "name": "HUNTER MEYERS REDUS FOUNDATION", "city": "BUFFALO", "state": "NY", "zip": "14240-1504", "ntee": "T22", "ruling": "200305", "deductibility": "1", "assets": 1241607, "income": 363943, "revenue": 0}, {"ein": "383914387", "name": "JONATHAN GRANT MEYERS LEGACY FOUNDATION LTD", "city": "RYE BROOK", "state": "NY", "zip": "10573-5403", "ntee": "T12", "ruling": "201408", "deductibility": "1", "assets": 0, "income": 0, "revenue": 0}, {"ein": "461262258", "name": "JOAN S AND LEON MEYERS FOUNDATION", "city": "WHITE PLAINS", "state": "NY", "zip": "10606-3604", "ntee": "T99", "ruling": "201409", "deductibility": "1", "assets": 14524587, "income": -1830357, "revenue": 0}], "EWEN": [{"ein": "140757390", "name": "REFORMED CHURCH OF PORT EWEN", "city": "PORT EWEN", "state": "NY", "zip": "12466-0000", "ntee": "", "ruling": "196801", "deductibility": "1", "assets": 0, "income": 0, "revenue": 0}, {"ein": "141782928", "name": "PORT EWEN FIRE DEPT INC", "city": "PORT EWEN", "state": "NY", "zip": "12466-0832", "ntee": "M24", "ruling": "201603", "deductibility": "1", "assets": 198797, "income": 33043, "revenue": 28604}, {"ein": "364757539", "name": "PORT EWEN FIRE DEPT LADIES AUXILIARY", "city": "PORT EWEN", "state": "NY", "zip": "12466-0832", "ntee": "Y42", "ruling": "201409", "deductibility": "1", "assets": 0, "income": 0, "revenue": 0}, {"ein": "464772380", "name": "FREDERIC EWEN FOUNDATION INC", "city": "LAWRENCE", "state": "NY", "zip": "11559-8507", "ntee": "X90", "ruling": "201410", "deductibility": "1", "assets": 310841, "income": 87756, "revenue": 0}], "EQUINOX": [{"ein": "141437421", "name": "EQUINOX INC", "city": "ALBANY", "state": "NY", "zip": "12206-2213", "ntee": "L21", "ruling": "200612", "deductibility": "1", "assets": 8992739, "income": 12014600, "revenue": 10375764}, {"ein": "222329398", "name": "EQUINOX SHELTER INC", "city": "ALBANY", "state": "NY", "zip": "12206-2213", "ntee": "L190", "ruling": "198104", "deductibility": "1", "assets": 0, "income": 0, "revenue": 0}], "LIVINGSTON": [{"ein": "141442702", "name": "LIVINGSTON LAKE CLUB INC", "city": "SYRACUSE", "state": "NY", "zip": "13202-0000", "ntee": "", "ruling": "196004", "deductibility": "2", "assets": 0, "income": 0, "revenue": 0}, {"ein": "141497122", "name": "LIVINGSTON MANOR-ROSCOE LIBRARY", "city": "ROSCOE", "state": "NY", "zip": "12776-0339", "ntee": "", "ruling": "197804", "deductibility": "1", "assets": 250875, "income": 117710, "revenue": 117710}, {"ein": "141707606", "name": "LIVINGSTON MANOR COMMUNITY CENTER INC", "city": "LIVINGSTN MNR", "state": "NY", "zip": "12758-1096", "ntee": "S20", "ruling": "199412", "deductibility": "1", "assets": 0, "income": 0, "revenue": 0}, {"ein": "141848335", "name": "LIVINGSTON COUNTY EDUCATION ALLIANCE", "city": "GENESEO", "state": "NY", "zip": "14454-1197", "ntee": "B90", "ruling": "200504", "deductibility": "1", "assets": 715084, "income": 236069, "revenue": 228369}, {"ein": "145962600", "name": "AGUDAS ACHIM OF LIVINGSTON MANOR INC", "city": "LIBERTY", "state": "NY", "zip": "12754-1301", "ntee": "X21", "ruling": "200410", "deductibility": "1", "assets": 0, "income": 0, "revenue": 0}, {"ein": "146021045", "name": "LIVINGSTON PUMPER NO 1", "city": "LIVINGSTON", "state": "NY", "zip": "12541-0077", "ntee": "M24", "ruling": "200401", "deductibility": "1", "assets": 846722, "income": 99333, "revenue": 99333}, {"ein": "146021199", "name": "LIVINGSTON MANOR FREE LIBRARY", "city": "LIVINGSTN MNR", "state": "NY", "zip": "12758-5113", "ntee": "B70Z", "ruling": "199507", "deductibility": "1", "assets": 403212, "income": 283945, "revenue": 283945}, {"ein": "146025500", "name": "LIVINGSTON FREE LIBRARY", "city": "LIVINGSTON", "state": "NY", "zip": "12541-0105", "ntee": "B70", "ruling": "201411", "deductibility": "1", "assets": 0, "income": 0, "revenue": 0}, {"ein": "146027919", "name": "VOLUNTEER AMBULANCE CORPS OF LIVINGSTON MANOR INC", "city": "LIVINGSTN MNR", "state": "NY", "zip": "12758-0001", "ntee": "", "ruling": "198805", "deductibility": "1", "assets": 745366, "income": 489627, "revenue": 489627}, {"ein": "160970666", "name": "LIVINGSTON COUNTY CHAMBER OF COMMER CE INC", "city": "GENESEO", "state": "NY", "zip": "14454-1197", "ntee": "", "ruling": "197212", "deductibility": "2", "assets": 565544, "income": 1129786, "revenue": 1129786}, {"ein": "161022565", "name": "GENESEE LIVINGSTON ORLEANS WYOMING COUNTIES CHAPTER NYSARC INC", "city": "MOUNT MORRIS", "state": "NY", "zip": "14510-1036", "ntee": "P820", "ruling": "195405", "deductibility": "1", "assets": 27537011, "income": 55323183, "revenue": 54325714}, {"ein": "161344384", "name": "HUMANE SOCIETY OF LIVINGSTON COUNTY INC", "city": "AVON", "state": "NY", "zip": "14414-0233", "ntee": "", "ruling": "199012", "deductibility": "1", "assets": 52643, "income": 117801, "revenue": 115633}, {"ein": "161426444", "name": "LIVINGSTON COUNTY DEVELOPMENT CORP", "city": "GENESEO", "state": "NY", "zip": "14454-1276", "ntee": "S30", "ruling": "201008", "deductibility": "2", "assets": 0, "income": 0, "revenue": 0}, {"ein": "161455240", "name": "LIVINGSTON HEALTH CARE SYSTEM INC", "city": "DANSVILLE", "state": "NY", "zip": "14437-9503", "ntee": "E21", "ruling": "201209", "deductibility": "1", "assets": 1, "income": 0, "revenue": 0}, {"ein": "161573863", "name": "LIVINGSTON COUNTY AGRICULTURAL SOCIETY AND FAIR AT CALEDONIA INC", "city": "CALEDONIA", "state": "NY", "zip": "14423-1206", "ntee": "K20", "ruling": "200009", "deductibility": "1", "assets": 486412, "income": 33926, "revenue": 33926}, {"ein": "161598259", "name": "LIVINGSTON COUNTY COALITION OF PATROL SERVICES INC", "city": "GENESEO", "state": "NY", "zip": "14454-0911", "ntee": "J40", "ruling": "200205", "deductibility": "2", "assets": 0, "income": 0, "revenue": 0}, {"ein": "166049755", "name": "LIVINGSTON COUNTY HISTORICAL SOCIETY", "city": "GENESEO", "state": "NY", "zip": "14454-1204", "ntee": "", "ruling": "199208", "deductibility": "1", "assets": 521708, "income": 118526, "revenue": 116576}, {"ein": "205425146", "name": "LIVINGSTON COUNTY CARES INC", "city": "GENESEO", "state": "NY", "zip": "14454-1203", "ntee": "M20", "ruling": "200702", "deductibility": "1", "assets": 117054, "income": 52659, "revenue": 49876}, {"ein": "222537182", "name": "MONROE-LIVINGSTON REGIONAL EMERGENCY SERVICES COUNCIL", "city": "ROCHESTER", "state": "NY", "zip": "14642-0001", "ntee": "E030", "ruling": "198611", "deductibility": "1", "assets": 605545, "income": 204345, "revenue": 204345}, {"ein": "222541420", "name": "LIVINGSTON COUNTY FIRE CHIEFS ASSOCIATION INC", "city": "DANSVILLE", "state": "NY", "zip": "14437-1336", "ntee": "M032", "ruling": "200810", "deductibility": "2", "assets": 0, "income": 0, "revenue": 0}, {"ein": "222549080", "name": "LIVINGSTON MEMORIAL CHURCH", "city": "GERMANTOWN", "state": "NY", "zip": "12526-0000", "ntee": "", "ruling": "198601", "deductibility": "1", "assets": 0, "income": 0, "revenue": 0}, {"ein": "260171687", "name": "LIVINGSTON MANOR TEACHERS ASSOCIATION BENEFIT TRUST", "city": "LIVINGSTN MNR", "state": "NY", "zip": "12758-5004", "ntee": "J40", "ruling": "200805", "deductibility": "2", "assets": 32557, "income": 22925, "revenue": 22925}, {"ein": "261116774", "name": "COURT-LIVINGSTON-SCHERMERHORN DISTRICT MANAGEMENT ASSOCIATION", "city": "BROOKLYN", "state": "NY", "zip": "11201-3874", "ntee": "S310", "ruling": "200709", "deductibility": "0", "assets": 363098, "income": 1649080, "revenue": 1649080}, {"ein": "383721031", "name": "LIVINGSTON COUNTY CHILDRENS PROTECTIVE ASSOCIATION", "city": "MOUNT MORRIS", "state": "NY", "zip": "14510-9603", "ntee": "P40", "ruling": "200602", "deductibility": "1", "assets": 0, "income": 0, "revenue": 0}, {"ein": "550840853", "name": "LIVINGSTON COUNTY SEARCH AND RESCUE TEAM INC", "city": "GROVELAND", "state": "NY", "zip": "14462-9551", "ntee": "M23", "ruling": "200406", "deductibility": "1", "assets": 0, "income": 0, "revenue": 0}, {"ein": "611636185", "name": "LIVINGSTON STREET EARLY CHILDHOOD COMMUNITY INC", "city": "KINGSTON", "state": "NY", "zip": "12401-0000", "ntee": "P33", "ruling": "201503", "deductibility": "1", "assets": 171581, "income": 235567, "revenue": 235567}, {"ein": "811377354", "name": "ALLEGANY-LIVINGSTON BOARD OF SOCCER REFEREES INC", "city": "GENESEO", "state": "NY", "zip": "14454-1165", "ntee": "N03", "ruling": "202407", "deductibility": "1", "assets": 0, "income": 0, "revenue": 0}, {"ein": "814500225", "name": "LIVINGSTON MANOR FIRE DEPARTMENT INC", "city": "LIVINGSTN MNR", "state": "NY", "zip": "12758-0926", "ntee": "M24", "ruling": "201701", "deductibility": "1", "assets": 0, "income": 0, "revenue": 0}, {"ein": "814974233", "name": "ALEX LIVINGSTON SCHOLARSHIP FUND INC", "city": "NEW YORK", "state": "NY", "zip": "10021-4038", "ntee": "B82", "ruling": "201808", "deductibility": "1", "assets": 285113, "income": 68611, "revenue": 68611}, {"ein": "821562677", "name": "LIVINGSTON COUNTY SHERIFFS FOUNDATION", "city": "GENESEO", "state": "NY", "zip": "14454-0252", "ntee": "M99", "ruling": "201804", "deductibility": "1", "assets": 200485, "income": 97422, "revenue": 86182}, {"ein": "821857301", "name": "PARISH OF SAINT MARTIN DE PORRES LIVINGSTON COUNTY NY", "city": "CALEDONIA", "state": "NY", "zip": "14423-1035", "ntee": "", "ruling": "194603", "deductibility": "1", "assets": 0, "income": 0, "revenue": 0}, {"ein": "822728668", "name": "LIVINGSTON COUNTY LAND BANK CORPORATION", "city": "GENESEO", "state": "NY", "zip": "14454-1043", "ntee": "S31", "ruling": "201909", "deductibility": "1", "assets": 0, "income": 0, "revenue": 0}, {"ein": "843592125", "name": "GENESEE LIVINGSTON ORLEANS WYOMING OUT INC", "city": "BATAVIA", "state": "NY", "zip": "14021-1615", "ntee": "R26", "ruling": "201911", "deductibility": "1", "assets": 0, "income": 0, "revenue": 0}, {"ein": "862141524", "name": "GENESEE LIVINGSTON ORLEANS WYOMING WORKS INC", "city": "BATAVIA", "state": "NY", "zip": "14020-2750", "ntee": "J22", "ruling": "202111", "deductibility": "1", "assets": 59317, "income": 88551, "revenue": 88551}, {"ein": "863020494", "name": "LIVINGSTON COUNTY TOURISM INC", "city": "GENESEO", "state": "NY", "zip": "14454-0000", "ntee": "S41", "ruling": "202403", "deductibility": "2", "assets": 420644, "income": 687641, "revenue": 669137}, {"ein": "882235643", "name": "ROTARY CLUB OF LIVINGSTON MANOR NEW YORK CHARITIES INC", "city": "LIVINGSTN MNR", "state": "NY", "zip": "12758-1111", "ntee": "W12", "ruling": "202211", "deductibility": "1", "assets": 6482, "income": 6382, "revenue": 0}, {"ein": "933434551", "name": "FRIENDS OF JERRY LIVINGSTON", "city": "BUFFALO", "state": "NY", "zip": "14215-2616", "ntee": "O50", "ruling": "202311", "deductibility": "1", "assets": 0, "income": 0, "revenue": 0}, {"ein": "934308508", "name": "LIVINGSTON PLACE SYNAGOGUE INC", "city": "CEDARHURST", "state": "NY", "zip": "11516-1427", "ntee": "X30", "ruling": "202505", "deductibility": "1", "assets": 0, "income": 0, "revenue": 0}, {"ein": "992645654", "name": "LIVINGSTON COUNTY LACROSSE CLUB INC", "city": "LIVONIA", "state": "NY", "zip": "14487-0449", "ntee": "N60", "ruling": "202404", "deductibility": "1", "assets": 0, "income": 0, "revenue": 0}], "FULMONT": [{"ein": "141493100", "name": "FULMONT COMMUNITY ACTION AGENCY INC", "city": "FONDA", "state": "NY", "zip": "12068-0835", "ntee": "", "ruling": "198006", "deductibility": "1", "assets": 1180829, "income": 5693504, "revenue": 5693504}, {"ein": "141504841", "name": "FULMONT COLLEGE ASSOCIATION INC", "city": "JOHNSTOWN", "state": "NY", "zip": "12095-3749", "ntee": "B42I", "ruling": "197111", "deductibility": "1", "assets": 787499, "income": 279225, "revenue": 279225}, {"ein": "141821078", "name": "FULMONT COMMUNITY CHURCH INC", "city": "GLOVERSVILLE", "state": "NY", "zip": "12078-2902", "ntee": "X20", "ruling": "201408", "deductibility": "1", "assets": 0, "income": 0, "revenue": 0}, {"ein": "843019299", "name": "FULMONT VOLLEYBALL CLUB", "city": "GLOVERSVILLE", "state": "NY", "zip": "12078-3726", "ntee": "N60", "ruling": "202001", "deductibility": "1", "assets": 0, "income": 0, "revenue": 0}, {"ein": "853905462", "name": "EASTERN FULMONT AMATEUR RADIO CLUB", "city": "AMSTERDAM", "state": "NY", "zip": "12010-6230", "ntee": "", "ruling": "202202", "deductibility": "1", "assets": 0, "income": 0, "revenue": 0}], "SHOREOWNERS": [{"ein": "141611367", "name": "LAKE KIWASSA SHOREOWNERS ASSOCIATION INC", "city": "SARANAC LAKE", "state": "NY", "zip": "12983-8312", "ntee": "S20", "ruling": "200911", "deductibility": "2", "assets": 0, "income": 0, "revenue": 0}], "GROOMS": [{"ein": "141832888", "name": "FRIENDS OF HISTORIC GROOMS TAVERN", "city": "CLIFTON PARK", "state": "NY", "zip": "12065-0804", "ntee": "A54", "ruling": "200308", "deductibility": "1", "assets": 0, "income": 0, "revenue": 0}], "3ROSES": [{"ein": "141886930", "name": "TEMPLE DES 3ROSES", "city": "BROOKLYN", "state": "NY", "zip": "11236-4717", "ntee": "X99", "ruling": "200404", "deductibility": "1", "assets": 0, "income": 0, "revenue": 0}], "ROWE": [{"ein": "146018708", "name": "ELLIS L ROWE & THE EASTERN ORTHPDC FUND TA2-0474-0", "city": "NORWICH", "state": "NY", "zip": "13815-0000", "ntee": "", "ruling": "196908", "deductibility": "1", "assets": 203255, "income": 18534, "revenue": 0}, {"ein": "146018710", "name": "FANNIE A ROWE", "city": "BUFFALO", "state": "NY", "zip": "14240-4203", "ntee": "", "ruling": "190012", "deductibility": "0", "assets": 0, "income": 0, "revenue": 0}, {"ein": "932346846", "name": "BENJAMIN X ROWE PROJECT INC", "city": "ALBANY", "state": "NY", "zip": "12203-4730", "ntee": "A68", "ruling": "202308", "deductibility": "1", "assets": 12453, "income": 5164, "revenue": 0}], "CHOPIN": [{"ein": "160381860", "name": "FREDERICK CHOPIN SINGING SOCIETY OF BUFFALO NY", "city": "BUFFALO", "state": "NY", "zip": "14222-2103", "ntee": "", "ruling": "198212", "deductibility": "2", "assets": 146537, "income": 44512, "revenue": 24816}, {"ein": "161291040", "name": "FREDERICK CHOPIN SINGING SOCIETY CULTURAL FOUNDATION INC", "city": "BUFFALO", "state": "NY", "zip": "14222-2103", "ntee": "A6BZ", "ruling": "198806", "deductibility": "1", "assets": 6245, "income": 51105, "revenue": 39785}, {"ein": "844193486", "name": "KATE CHOPIN INTERNATIONAL SOCIETY", "city": "BREWSTER", "state": "NY", "zip": "10509-6142", "ntee": "A70", "ruling": "202004", "deductibility": "1", "assets": 0, "income": 0, "revenue": 0}], "DEPEW": [{"ein": "160531570", "name": "DEPEW LODGE NO 1605 LOYAL ORDER OF MOOSE", "city": "LANCASTER", "state": "NY", "zip": "14086-2123", "ntee": "", "ruling": "193508", "deductibility": "1", "assets": 370436, "income": 385299, "revenue": 202896}, {"ein": "161313581", "name": "DEPEW-LANCASTER BOYS & GIRLS CLUB", "city": "DEPEW", "state": "NY", "zip": "14043-3241", "ntee": "", "ruling": "196101", "deductibility": "1", "assets": 3074274, "income": 1129900, "revenue": 964040}, {"ein": "161367504", "name": "LANCASTER-DEPEW PONYTAILS GIRLS SOFTBALL INC", "city": "LANCASTER", "state": "NY", "zip": "14086-0207", "ntee": "N63", "ruling": "200410", "deductibility": "1", "assets": 423578, "income": 243276, "revenue": 243276}, {"ein": "161504554", "name": "LANCASTER-DEPEW BASEBALL LEAGUE INC", "city": "LANCASTER", "state": "NY", "zip": "14086-0521", "ntee": "N63", "ruling": "199704", "deductibility": "1", "assets": 255899, "income": 412204, "revenue": 361185}, {"ein": "166074506", "name": "ST MARTHA ROMAN CATHOLIC PARISH OF DEPEW N Y", "city": "DEPEW", "state": "NY", "zip": "14043-2129", "ntee": "", "ruling": "194603", "deductibility": "1", "assets": 0, "income": 0, "revenue": 0}, {"ein": "205697107", "name": "DEPEW LANCASTER CHAPT NO 2323 WOMEN OF THE MOOSE", "city": "LANCASTER", "state": "NY", "zip": "14086-2123", "ntee": "", "ruling": "194005", "deductibility": "1", "assets": 0, "income": 0, "revenue": 0}, {"ein": "222534657", "name": "DEPEW POLICE BENEVOLENT ASSOCIATION INC", "city": "DEPEW", "state": "NY", "zip": "14043-0052", "ntee": "J40", "ruling": "199911", "deductibility": "2", "assets": 320163, "income": 89917, "revenue": 73785}, {"ein": "273650115", "name": "DEPEW LACROSSE CLUB INCORPORATED", "city": "WEST SENECA", "state": "NY", "zip": "14224-1528", "ntee": "N60", "ruling": "201302", "deductibility": "1", "assets": 0, "income": 0, "revenue": 0}, {"ein": "472665043", "name": "DEPEW HIGH SCHOOL ACADEMY OF FINANCE", "city": "DEPEW", "state": "NY", "zip": "14043-4335", "ntee": "B99", "ruling": "201501", "deductibility": "1", "assets": 0, "income": 0, "revenue": 0}, {"ein": "510204495", "name": "DEPEW ROD & GUN CLUB INC", "city": "DEPEW", "state": "NY", "zip": "14043-0011", "ntee": "", "ruling": "197611", "deductibility": "2", "assets": 78389, "income": 99577, "revenue": 51498}, {"ein": "823330366", "name": "DEPEW VOLUNTEER FIRE DEPARTMENT INC", "city": "DEPEW", "state": "NY", "zip": "14043-0021", "ntee": "M24", "ruling": "201904", "deductibility": "1", "assets": 286265, "income": 250062, "revenue": 182645}, {"ein": "832346541", "name": "DEPEW COMMUNITY ACTION TEAM", "city": "DEPEW", "state": "NY", "zip": "14043-3746", "ntee": "S20", "ruling": "201811", "deductibility": "1", "assets": 448777, "income": 196694, "revenue": 190691}], "CRADLE": [{"ein": "160743025", "name": "CRADLE BEACH INC", "city": "ANGOLA", "state": "NY", "zip": "14006-9758", "ntee": "N200", "ruling": "194208", "deductibility": "1", "assets": 6774004, "income": 2563517, "revenue": 2428345}], "AENON": [{"ein": "161089959", "name": "AENON BAPTIST CHURCH", "city": "ROCHESTER", "state": "NY", "zip": "14611-3424", "ntee": "", "ruling": "195504", "deductibility": "1", "assets": 0, "income": 0, "revenue": 0}, {"ein": "992067048", "name": "AENON COMMUNITY DEVELOPMENT INC", "city": "ROCHESTER", "state": "NY", "zip": "14611-3424", "ntee": "S20", "ruling": "202408", "deductibility": "1", "assets": 299, "income": 1000, "revenue": 1000}], "FEADAN": [{"ein": "161474910", "name": "FEADAN OR INC", "city": "FARMINGTON", "state": "NY", "zip": "14425-8905", "ntee": "A6C", "ruling": "200003", "deductibility": "1", "assets": 0, "income": 0, "revenue": 0}], "MERIDIAN": [{"ein": "161496729", "name": "CATO IRA MERIDIAN VICTORY AMBULANCE CORPS INC", "city": "CATO", "state": "NY", "zip": "13033-3171", "ntee": "E32", "ruling": "199802", "deductibility": "1", "assets": 546858, "income": 318622, "revenue": 318622}, {"ein": "161571436", "name": "CATO IRA MERIDIAN AREA RECREATIONAL FACILITY INC", "city": "CATO", "state": "NY", "zip": "13033-0261", "ntee": "N31", "ruling": "200805", "deductibility": "1", "assets": 0, "income": 0, "revenue": 0}, {"ein": "161575603", "name": "CATO-MERIDIAN COMMUNITY RECREATION CENTER FOUNDATION INC", "city": "CATO", "state": "NY", "zip": "13033-0416", "ntee": "N11", "ruling": "201407", "deductibility": "1", "assets": 467296, "income": 159630, "revenue": 45915}, {"ein": "356943076", "name": "MERIDIAN CAPITAL FOUNDATION", "city": "NEW YORK", "state": "NY", "zip": "10004-1432", "ntee": "T20", "ruling": "201402", "deductibility": "1", "assets": 21105052, "income": 813606, "revenue": 0}, {"ein": "815086187", "name": "BLUE MERIDIAN PARTNERS INC", "city": "NEW YORK", "state": "NY", "zip": "10022-5827", "ntee": "P12", "ruling": "201704", "deductibility": "1", "assets": 2261435517, "income": 9688330109, "revenue": 353322309}, {"ein": "991514718", "name": "CATO-MERIDIAN OTTERS SWIM CLUB INC", "city": "CATO", "state": "NY", "zip": "13033-3384", "ntee": "O12", "ruling": "202505", "deductibility": "1", "assets": 0, "income": 0, "revenue": 0}, {"ein": "992998245", "name": "MERIDIAN TRIANGLE 71", "city": "RIVERHEAD", "state": "NY", "zip": "11901-0000", "ntee": "O50", "ruling": "202408", "deductibility": "1", "assets": 3030, "income": 1, "revenue": 0}], "GRAYCE": [{"ein": "166315029", "name": "HOWARD R & GRAYCE B BENDIXEN MEMORIAL TR", "city": "AMHERST", "state": "NY", "zip": "14228-2307", "ntee": "", "ruling": "199003", "deductibility": "1", "assets": 368354, "income": 67113, "revenue": 0}], "MUNSEY": [{"ein": "200234272", "name": "MUNSEY PARK WOMENS CLUB PHILANTHROPIC INC", "city": "MASSAPEQUA PK", "state": "NY", "zip": "11762-2927", "ntee": "T30", "ruling": "200311", "deductibility": "1", "assets": 0, "income": 0, "revenue": 0}, {"ein": "200673394", "name": "MUNSEY PARK WOMENS CLUB INC", "city": "MASSAPEQUA PARK", "state": "NY", "zip": "11762-2911", "ntee": "N50", "ruling": "200411", "deductibility": "2", "assets": 0, "income": 0, "revenue": 0}], "PULIC": [{"ein": "200328922", "name": "NATIONAL PULIC EMPLOYEES UNION", "city": "RONKONKOMA", "state": "NY", "zip": "11779-7636", "ntee": "J40", "ruling": "201302", "deductibility": "2", "assets": 514205, "income": 1598549, "revenue": 1598549}], "TRANSFORMED": [{"ein": "202398515", "name": "TRANSFORMED CHRISTIAN FELLOWSHIP INC", "city": "BROOKLYN", "state": "NY", "zip": "11211-3315", "ntee": "X20", "ruling": "200706", "deductibility": "1", "assets": 0, "income": 0, "revenue": 0}], "BROOM": [{"ein": "202949028", "name": "SILVER BROOM MINISTERIES", "city": "COPIAGUE", "state": "NY", "zip": "11726-3715", "ntee": "X99", "ruling": "200603", "deductibility": "1", "assets": 0, "income": 0, "revenue": 0}, {"ein": "883775040", "name": "LAKE ONTARIO BROOM RIDERS INC", "city": "HANNIBAL", "state": "NY", "zip": "13074-9633", "ntee": "A12", "ruling": "202310", "deductibility": "1", "assets": 0, "income": 0, "revenue": 0}], "FUTURISTS": [{"ein": "203613986", "name": "NEW YORK NEO-FUTURISTS", "city": "NEW YORK", "state": "NY", "zip": "10003-0000", "ntee": "A65", "ruling": "200708", "deductibility": "1", "assets": 31581, "income": 289528, "revenue": 286730}], "PUBLICINTEREST": [{"ein": "204321812", "name": "CENTER FOR MEDICINES IN THE PUBLICINTEREST", "city": "NEW YORK", "state": "NY", "zip": "10022-0000", "ntee": "G90", "ruling": "200605", "deductibility": "1", "assets": 168328, "income": 535000, "revenue": 535000}], "OASES": [{"ein": "204954900", "name": "FEDERATION OF OASES OF KOINONIAJOHN THE BAPTIST", "city": "BROOKLYN", "state": "NY", "zip": "11215-4803", "ntee": "X22", "ruling": "200612", "deductibility": "1", "assets": 0, "income": 0, "revenue": 0}, {"ein": "833025258", "name": "OASES FOUNDATION", "city": "HOOSICK FALLS", "state": "NY", "zip": "12090-1510", "ntee": "W99", "ruling": "201903", "deductibility": "1", "assets": 0, "income": 0, "revenue": 0}], "PAGADALA": [{"ein": "205716193", "name": "JEFFERY PAGADALA CHARTIABLEFOUNDATION INC", "city": "SLINGERLANDS", "state": "NY", "zip": "12159-9525", "ntee": "T22", "ruling": "200706", "deductibility": "1", "assets": 321637, "income": 156695, "revenue": 0}], "100B": [{"ein": "222581855", "name": "FRANKLINVILLE ARISTROCRATS INC CHAPTER 1517 100B", "city": "FRANKLINVILLE", "state": "NY", "zip": "14737-1124", "ntee": "", "ruling": "199807", "deductibility": "2", "assets": 347503, "income": 817605, "revenue": 180125}], "BASHA": [{"ein": "222986620", "name": "BASHA KILL AREA ASSOCIATION INC", "city": "WURTSBORO", "state": "NY", "zip": "12790-1121", "ntee": "", "ruling": "198912", "deductibility": "1", "assets": 110528, "income": 33866, "revenue": 31631}], "PHILANTROPIC": [{"ein": "223692921", "name": "WELLSPRING PHILANTROPIC FUND INC", "city": "NEW YORK", "state": "NY", "zip": "10018-1849", "ntee": "T22", "ruling": "200011", "deductibility": "1", "assets": 180009489, "income": 374958422, "revenue": 0}], "BOHORAD": [{"ein": "236627730", "name": "ANNA C BOHORAD TRUST B", "city": "AMHERST", "state": "NY", "zip": "14228-2307", "ntee": "", "ruling": "197601", "deductibility": "1", "assets": 867840, "income": 555136, "revenue": 0}], "CHAUMONT": [{"ein": "237334072", "name": "CHAUMONT LODGE NO 172 FREE AND ACCEPTED MASONS", "city": "CHAUMONT", "state": "NY", "zip": "13622-0115", "ntee": "", "ruling": "201610", "deductibility": "1", "assets": 0, "income": 0, "revenue": 0}, {"ein": "237543993", "name": "LE RAY DE CHAUMONT COUNCIL 2148 KNIGHTS OF COLUMBUS", "city": "CAPE VINCENT", "state": "NY", "zip": "13618-2178", "ntee": "Y40", "ruling": "202006", "deductibility": "1", "assets": 0, "income": 0, "revenue": 0}, {"ein": "320223076", "name": "CHAUMONT VOLUNTEER FIRE DEPARTMENT", "city": "CHAUMONT", "state": "NY", "zip": "13622-0129", "ntee": "M24", "ruling": "202308", "deductibility": "1", "assets": 162482, "income": 192953, "revenue": 188344}], "BONOS": [{"ein": "260415131", "name": "BAYIS LEPLEITOS ATERES BONOS INC", "city": "BROOKLYN", "state": "NY", "zip": "11211-1872", "ntee": "Q129", "ruling": "200810", "deductibility": "1", "assets": 2206492, "income": 8034962, "revenue": 8034962}], "LENNYS": [{"ein": "260595266", "name": "LENNYS LIGHTHOUSE INC", "city": "BROOKLYN", "state": "NY", "zip": "11229-4431", "ntee": "P20", "ruling": "200904", "deductibility": "1", "assets": 0, "income": 0, "revenue": 0}], "GOLGOTHA": [{"ein": "262357539", "name": "LA RESPECTABLE LOGE LE GOLGOTHA INC", "city": "BROOKLYN", "state": "NY", "zip": "11212-2039", "ntee": "B11", "ruling": "201210", "deductibility": "1", "assets": 0, "income": 0, "revenue": 0}, {"ein": "832902929", "name": "GOLGOTHA HEALING MINISTRIES", "city": "MIDDLETOWN", "state": "NY", "zip": "10941-1813", "ntee": "Q30", "ruling": "201904", "deductibility": "1", "assets": 0, "income": 0, "revenue": 0}], "FLANBWAYAN": [{"ein": "270974276", "name": "FLANBWAYAN HAITIAN LITERACY PROJECT", "city": "BROOKLYN", "state": "NY", "zip": "11226-8394", "ntee": "B60", "ruling": "201009", "deductibility": "1", "assets": 0, "income": 0, "revenue": 0}], "CURRICULUM": [{"ein": "275252111", "name": "GENESEE VALLEY ASSOCIATION FOR SUPERVISION AND CURRICULUM DEVELOP", "city": "PITTSFORD", "state": "NY", "zip": "14534-1088", "ntee": "B03", "ruling": "201408", "deductibility": "2", "assets": 0, "income": 0, "revenue": 0}, {"ein": "842361083", "name": "AMERICAN EMERGENT CURRICULUM INC", "city": "E NORTHPORT", "state": "NY", "zip": "11731-1429", "ntee": "", "ruling": "202001", "deductibility": "1", "assets": 329993, "income": 2738326, "revenue": 2738326}, {"ein": "853704771", "name": "CURRICULUM WORLD INC", "city": "BROOKLYN", "state": "NY", "zip": "11219-2543", "ntee": "B90", "ruling": "202109", "deductibility": "1", "assets": 0, "income": 0, "revenue": 0}], "VASSALAGE": [{"ein": "300064167", "name": "VASSALAGE OF HOPE CENTER INC", "city": "NIAGARA FALLS", "state": "NY", "zip": "14305-0528", "ntee": "X20", "ruling": "200204", "deductibility": "1", "assets": 0, "income": 0, "revenue": 0}], "SHAVER": [{"ein": "316617961", "name": "MORRIS SHAVER SCHOLARSHIP FUND 24-296750", "city": "NORWICH", "state": "NY", "zip": "13815-0000", "ntee": "B82", "ruling": "199907", "deductibility": "1", "assets": 204543, "income": 16582, "revenue": 0}], "BOLING": [{"ein": "331251075", "name": "MELCHER BOLING CARES CORP", "city": "LANCASTER", "state": "NY", "zip": "14086-1317", "ntee": "T12", "ruling": "202504", "deductibility": "1", "assets": 0, "income": 0, "revenue": 0}], "CONQUER": [{"ein": "331834279", "name": "GRACE GET RIGHT AND CONQUER EVERYTHING INCV", "city": "NEW YORK", "state": "NY", "zip": "10002-5682", "ntee": "E99", "ruling": "202505", "deductibility": "1", "assets": 0, "income": 0, "revenue": 0}, {"ein": "333891426", "name": "CONQUER NON-PROFIT INC", "city": "NEW YORK", "state": "NY", "zip": "10016-6800", "ntee": "N30", "ruling": "202504", "deductibility": "1", "assets": 0, "income": 0, "revenue": 0}, {"ein": "854151477", "name": "CHRIST TO CONQUER THE NATIONS INC", "city": "NORTH BABYLON", "state": "NY", "zip": "11703-1930", "ntee": "T50", "ruling": "202109", "deductibility": "1", "assets": 9372, "income": 13342, "revenue": 13342}], "UPEACE": [{"ein": "332292077", "name": "UPEACE NY", "city": "NEW YORK", "state": "NY", "zip": "10163-9608", "ntee": "Q01", "ruling": "202504", "deductibility": "1", "assets": 0, "income": 0, "revenue": 0}], "TBM": [{"ein": "332832339", "name": "BEAUTIFUL MIND TBM FOUNDATION INC", "city": "BRONX", "state": "NY", "zip": "10463-1466", "ntee": "G12", "ruling": "202505", "deductibility": "1", "assets": 0, "income": 0, "revenue": 0}], "GROWHOUSE": [{"ein": "332916497", "name": "GROWHOUSE DESIGN AND DEVELOPMENT GROUP", "city": "BROOKLYN", "state": "NY", "zip": "11213-5654", "ntee": "A99", "ruling": "202501", "deductibility": "1", "assets": 0, "income": 0, "revenue": 0}], "BURROW": [{"ein": "333271984", "name": "5 BURROW RABBIT RESCUE INC", "city": "NEW YORK", "state": "NY", "zip": "10023-2987", "ntee": "D20", "ruling": "202502", "deductibility": "1", "assets": 0, "income": 0, "revenue": 0}], "PSYCHOPATHOLOGY": [{"ein": "333726492", "name": "HIERARCHICAL TAXONOMY OF PSYCHOPATHOLOGY SOCIETY INC", "city": "PRT JEFFERSON", "state": "NY", "zip": "11777-1423", "ntee": "U03", "ruling": "202505", "deductibility": "1", "assets": 0, "income": 0, "revenue": 0}], "FREDEREKA": [{"ein": "416524138", "name": "FREDEREKA LINDER TR UW", "city": "MASSENA", "state": "NY", "zip": "13662-0145", "ntee": "", "ruling": "000000", "deductibility": "0", "assets": 932090, "income": 141888, "revenue": 40030}], "TYPES": [{"ein": "450592788", "name": "NEW TYPES FOUNDATION INC", "city": "BROOKLYN", "state": "NY", "zip": "11216-5550", "ntee": "P20", "ruling": "200809", "deductibility": "1", "assets": 0, "income": 0, "revenue": 0}], "GEEKS": [{"ein": "451583281", "name": "GEEKS OUT", "city": "NEW YORK", "state": "NY", "zip": "10011-0005", "ntee": "S20", "ruling": "201311", "deductibility": "1", "assets": 154546, "income": 222601, "revenue": 0}, {"ein": "471801035", "name": "GEEKS RULE INC", "city": "MONTGOMERY", "state": "NY", "zip": "12549-2306", "ntee": "O50", "ruling": "201410", "deductibility": "1", "assets": 142671, "income": 68439, "revenue": 68439}], "SALVE": [{"ein": "452731819", "name": "SALVE REGINA CATHOLIC ACADEMY", "city": "BROOKLYN", "state": "NY", "zip": "11207-3209", "ntee": "", "ruling": "194603", "deductibility": "1", "assets": 0, "income": 0, "revenue": 0}, {"ein": "822329037", "name": "FRIENDS OF SALVE BASEBALL INC", "city": "PRT WASHINGTN", "state": "NY", "zip": "11050-3115", "ntee": "N63", "ruling": "201708", "deductibility": "1", "assets": 0, "income": 0, "revenue": 0}], "CASONY": [{"ein": "452796896", "name": "THE CARIBBEAN AMERICAN SOCIETY OF NEW YORK CASONY INC", "city": "SPRNGFLD GDNS", "state": "NY", "zip": "11413-0233", "ntee": "B82", "ruling": "202109", "deductibility": "1", "assets": 54570, "income": 17115, "revenue": 17115}], "PROFESSIONA": [{"ein": "453568957", "name": "ASIAN ASSOCIATION OF ALTERNATIVE INVESTMENT PROFESSIONA", "city": "FOREST HILLS", "state": "NY", "zip": "11375-2983", "ntee": "S41", "ruling": "201303", "deductibility": "2", "assets": 0, "income": 0, "revenue": 0}], "ENCOURAGED": [{"ein": "453811483", "name": "ENCOURAGED WELLNESS", "city": "MOUNT VERNON", "state": "NY", "zip": "10550-3330", "ntee": "J20", "ruling": "201210", "deductibility": "1", "assets": 0, "income": 0, "revenue": 0}, {"ein": "852559117", "name": "STAY ENCOURAGED INC", "city": "NORTH CHILI", "state": "NY", "zip": "14514-0384", "ntee": "X20", "ruling": "202107", "deductibility": "1", "assets": 0, "income": 0, "revenue": 0}, {"ein": "861822777", "name": "ENCOURAGED GROUP", "city": "WEST BABYLON", "state": "NY", "zip": "11704-2306", "ntee": "X20", "ruling": "201408", "deductibility": "1", "assets": 0, "income": 0, "revenue": 0}], "BEAM": [{"ein": "454273449", "name": "BEAM CENTER INC", "city": "BROOKLYN", "state": "NY", "zip": "11231-1412", "ntee": "", "ruling": "201302", "deductibility": "1", "assets": 612890, "income": 3997939, "revenue": 3997939}, {"ein": "861269873", "name": "A GREAT BEAM OF LIGHT THE AMIR HALL FOUNDATION INC", "city": "BROOKLYN", "state": "NY", "zip": "11234-2353", "ntee": "P20", "ruling": "202103", "deductibility": "1", "assets": 0, "income": 0, "revenue": 0}], "JUNKET": [{"ein": "454378535", "name": "JUNKET INC", "city": "BROOKLYN", "state": "NY", "zip": "11201-3022", "ntee": "O30", "ruling": "201407", "deductibility": "1", "assets": 68607, "income": 117309, "revenue": 117309}], "HAOLAMI": [{"ein": "455122325", "name": "VAAD HATMIMIM HAOLAMI INC", "city": "BROOKLYN", "state": "NY", "zip": "11213-3409", "ntee": "X30", "ruling": "201407", "deductibility": "1", "assets": 710934, "income": 1517502, "revenue": 1517502}], "SOI": [{"ein": "461138563", "name": "DON DE SOI FOUNDATION", "city": "NEW YORK", "state": "NY", "zip": "10030-1365", "ntee": "P99", "ruling": "201609", "deductibility": "1", "assets": 0, "income": 0, "revenue": 0}], "PFISTER": [{"ein": "461619178", "name": "LOUISE PFISTER CHARITABLE FOUNDATION INC", "city": "NEW YORK", "state": "NY", "zip": "10022-2511", "ntee": "T20", "ruling": "201408", "deductibility": "1", "assets": 3275781, "income": 3109966, "revenue": 0}], "EWORKS": [{"ein": "463300410", "name": "EWORKS ELECTRONICS SERVICES INC", "city": "FREEPORT", "state": "NY", "zip": "11520-4648", "ntee": "P20", "ruling": "201409", "deductibility": "1", "assets": 4169435, "income": 6018294, "revenue": 4886056}], "MIRABAI": [{"ein": "463593727", "name": "ANNA MIRABAI LYTTON FOUNDATION", "city": "AMAGANSETT", "state": "NY", "zip": "11930-0625", "ntee": "O50", "ruling": "201402", "deductibility": "1", "assets": 1464171, "income": 532078, "revenue": 88350}], "RIFKY": [{"ein": "463596714", "name": "ZELIG AND RIFKY WEISS FAMILY FOUNDATION INC", "city": "BROOKLYN", "state": "NY", "zip": "11205-1512", "ntee": "T99", "ruling": "201408", "deductibility": "1", "assets": 190743, "income": 1248378, "revenue": 0}], "KEREV": [{"ein": "463908601", "name": "KEREV ZEV ARYEH INC", "city": "BROOKLYN", "state": "NY", "zip": "11213-3463", "ntee": "X30", "ruling": "201405", "deductibility": "1", "assets": 0, "income": 0, "revenue": 0}], "ALLENIUS": [{"ein": "471594910", "name": "AO ALLENIUS FAMILY FOUNDATION INC", "city": "GREENVALE", "state": "NY", "zip": "11548-1118", "ntee": "T20", "ruling": "201412", "deductibility": "1", "assets": 218830, "income": 29373, "revenue": 0}], "MADDIX": [{"ein": "471968468", "name": "SHELDON MADDIX MINISTRIES INC", "city": "BROOKLYN", "state": "NY", "zip": "11203-2307", "ntee": "X99", "ruling": "201802", "deductibility": "1", "assets": 0, "income": 0, "revenue": 0}], "HEROINES": [{"ein": "472561765", "name": "HEROINES INC", "city": "BROOKLYN", "state": "NY", "zip": "11236-3900", "ntee": "S81", "ruling": "201812", "deductibility": "1", "assets": 0, "income": 0, "revenue": 0}], "TERRESTRIAL": [{"ein": "473204519", "name": "EXTRA TERRESTRIAL PROJECTS INC", "city": "NEW YORK", "state": "NY", "zip": "10013-3624", "ntee": "A99", "ruling": "201503", "deductibility": "1", "assets": 13105, "income": 16000, "revenue": 16000}, {"ein": "821664264", "name": "TERRESTRIAL ANGELS RESCUE INC", "city": "BRONX", "state": "NY", "zip": "10451-2462", "ntee": "D20", "ruling": "201706", "deductibility": "1", "assets": 0, "income": 0, "revenue": 0}], "COUNTRYSIDE": [{"ein": "474170089", "name": "CONGREGATION COUNTRYSIDE ACRES", "city": "BROOKLYN", "state": "NY", "zip": "11234-4340", "ntee": "X30", "ruling": "201601", "deductibility": "1", "assets": 0, "income": 0, "revenue": 0}], "ARIYAMAGGA": [{"ein": "474339381", "name": "ARIYAMAGGA VIHARA BUDDHIST CENTER INCORPORATED", "city": "GLENMONT", "state": "NY", "zip": "12077-2918", "ntee": "X50", "ruling": "201506", "deductibility": "1", "assets": 325029, "income": 31034, "revenue": 31034}], "FUNDKNOWLEDGE": [{"ein": "474719876", "name": "FUNDKNOWLEDGE", "city": "PURDYS", "state": "NY", "zip": "10578-1428", "ntee": "O12", "ruling": "201511", "deductibility": "1", "assets": 0, "income": 0, "revenue": 0}], "AMBERATIONS": [{"ein": "760757588", "name": "AMBERATIONS INC", "city": "MARIETTA", "state": "NY", "zip": "13110-3173", "ntee": "P80", "ruling": "200409", "deductibility": "1", "assets": 0, "income": 0, "revenue": 0}], "LAMICRO": [{"ein": "770608611", "name": "LAMICRO THEATER INC", "city": "SUNNYSIDE", "state": "NY", "zip": "11104-3321", "ntee": "A61", "ruling": "200504", "deductibility": "1", "assets": 23851, "income": 402, "revenue": 402}], "UNCAPD": [{"ein": "810826190", "name": "UNCAPD INC", "city": "MELVILLE", "state": "NY", "zip": "11747-3502", "ntee": "T20", "ruling": "201608", "deductibility": "1", "assets": 132111, "income": 12, "revenue": 0}], "FABIEN": [{"ein": "811548424", "name": "FABIEN COUSTEAU OCEAN LEARNING CENTER INC", "city": "NEW YORK", "state": "NY", "zip": "10019-3702", "ntee": "C30", "ruling": "201605", "deductibility": "1", "assets": 826671, "income": 231005, "revenue": 231005}], "ENVERITAS": [{"ein": "811681880", "name": "ENVERITAS INC", "city": "NEW YORK", "state": "NY", "zip": "10018-2794", "ntee": "T30", "ruling": "201612", "deductibility": "1", "assets": 34227719, "income": 30802279, "revenue": 30802279}], "INSITUTE": [{"ein": "811816788", "name": "NEKUDAH INSITUTE INC", "city": "SPRING VALLEY", "state": "NY", "zip": "10977-3838", "ntee": "X30", "ruling": "201605", "deductibility": "1", "assets": 0, "income": 0, "revenue": 0}], "KSE": [{"ein": "812354082", "name": "KSE AA AT SUNY DELHI INC", "city": "SCOTTSVILLE", "state": "NY", "zip": "14546-9730", "ntee": "B82", "ruling": "201712", "deductibility": "1", "assets": 223480, "income": 80361, "revenue": 80361}], "LECET": [{"ein": "815334168", "name": "CONSTRUCTION & GENERAL LABORERS LOCAL 190 - LECET FUND", "city": "GLENMONT", "state": "NY", "zip": "12077-4010", "ntee": "J40", "ruling": "201711", "deductibility": "2", "assets": 113053, "income": 49267, "revenue": 49267}, {"ein": "994249092", "name": "LABORERS LOCAL 235 LECET FUND", "city": "ELMSFORD", "state": "NY", "zip": "10523-2813", "ntee": "B99", "ruling": "202505", "deductibility": "1", "assets": 0, "income": 0, "revenue": 0}], "THENEW": [{"ein": "820729998", "name": "THENEW 3RS INC", "city": "NYC", "state": "NY", "zip": "10023-0003", "ntee": "B20", "ruling": "201706", "deductibility": "1", "assets": 0, "income": 0, "revenue": 0}], "ALBONAPARTE": [{"ein": "823352325", "name": "ALBONAPARTE MINISTRIES INC", "city": "NEW YORK", "state": "NY", "zip": "10018-2794", "ntee": "W99", "ruling": "202506", "deductibility": "1", "assets": 0, "income": 0, "revenue": 0}], "BEARTEAM": [{"ein": "825230221", "name": "CNY BEARTEAM INC", "city": "PULASKI", "state": "NY", "zip": "13142-2557", "ntee": "P40", "ruling": "201805", "deductibility": "1", "assets": 0, "income": 0, "revenue": 0}], "AJOY": [{"ein": "832039366", "name": "MADHU & AJOY SINHA FOUNDATION INC", "city": "MUTTONTOWN", "state": "NY", "zip": "11791-3053", "ntee": "P12", "ruling": "201812", "deductibility": "1", "assets": 65745, "income": 1, "revenue": 0}], "BVITB": [{"ein": "832618809", "name": "BVITB INC", "city": "NEW YORK", "state": "NY", "zip": "10017-4707", "ntee": "C30", "ruling": "202002", "deductibility": "1", "assets": 0, "income": 0, "revenue": 0}], "DIRECTIVE": [{"ein": "833873500", "name": "PHILANTHROPIC DIRECTIVE SUPPORTING ORGANIZATION INC", "city": "FOREST HILLS", "state": "NY", "zip": "11375-4526", "ntee": "T11", "ruling": "201912", "deductibility": "1", "assets": 2144480, "income": 209564, "revenue": 86401}], "AROOSTOOK": [{"ein": "834075018", "name": "AROOSTOOK UNITED", "city": "ODESSA", "state": "NY", "zip": "14869-9766", "ntee": "X20", "ruling": "202006", "deductibility": "1", "assets": 0, "income": 0, "revenue": 0}], "MOUNTAINEERING": [{"ein": "853537483", "name": "ADK WINTER MOUNTAINEERING SCHOOL", "city": "DELMAR", "state": "NY", "zip": "12054-1215", "ntee": "B60", "ruling": "202107", "deductibility": "1", "assets": 0, "income": 0, "revenue": 0}], "REDFINCH": [{"ein": "861051742", "name": "REDFINCH FOUNDATION INC", "city": "NEW YORK", "state": "NY", "zip": "10018-3394", "ntee": "", "ruling": "000000", "deductibility": "0", "assets": 260047, "income": 211, "revenue": 0}], "WAYZ": [{"ein": "861301108", "name": "WAYZ FOUNDATION INC", "city": "BROOKLYN", "state": "NY", "zip": "11230-6506", "ntee": "T50", "ruling": "202103", "deductibility": "1", "assets": 0, "income": 0, "revenue": 0}], "REMAKE": [{"ein": "861350650", "name": "RETAKE REMAKE INCORPORATED", "city": "CORTLANDT MNR", "state": "NY", "zip": "10567-6213", "ntee": "A40", "ruling": "202105", "deductibility": "1", "assets": 113988, "income": 193633, "revenue": 193633}], "BACHMORE": [{"ein": "863073016", "name": "ABIGAIL C BACHMORE MEMORIAL FOUNDATION INC", "city": "BAYPORT", "state": "NY", "zip": "11705-2221", "ntee": "P40", "ruling": "202108", "deductibility": "1", "assets": 0, "income": 0, "revenue": 0}], "LISMORE": [{"ein": "863255649", "name": "LISMORE ROAD INC", "city": "NEW YORK", "state": "NY", "zip": "10001-2163", "ntee": "A31", "ruling": "202203", "deductibility": "1", "assets": 210603, "income": 798489, "revenue": 798489}], "ORATO": [{"ein": "871298822", "name": "ORATO WORLD MEDIA FOUNDATION INC", "city": "BLASDELL", "state": "NY", "zip": "14219-2122", "ntee": "B01", "ruling": "202203", "deductibility": "1", "assets": 150, "income": 150, "revenue": 150}], "IMRE": [{"ein": "871438778", "name": "IMRE ESH INC", "city": "NEW YORK", "state": "NY", "zip": "10024-4352", "ntee": "X99", "ruling": "202411", "deductibility": "1", "assets": 0, "income": 0, "revenue": 0}], "TIEMBALA": [{"ein": "873703372", "name": "ALL UNITED FOR TIEMBALA CORPORATION", "city": "BRONX", "state": "NY", "zip": "10455-2866", "ntee": "K30", "ruling": "202211", "deductibility": "1", "assets": 0, "income": 0, "revenue": 0}], "SIGNATURES": [{"ein": "881280601", "name": "CATHOLIC SIGNATURES INC", "city": "GOSHEN", "state": "NY", "zip": "10924-2608", "ntee": "X22", "ruling": "202303", "deductibility": "1", "assets": 0, "income": 0, "revenue": 0}], "KT": [{"ein": "881473569", "name": "COSMOPOLITAN KT INC", "city": "BROOKLYN", "state": "NY", "zip": "11238-2110", "ntee": "O50", "ruling": "202208", "deductibility": "1", "assets": 44816, "income": 316, "revenue": 316}, {"ein": "993215376", "name": "KT STRONG CORPORATION", "city": "NEW YORK", "state": "NY", "zip": "10065-7289", "ntee": "E12", "ruling": "202406", "deductibility": "1", "assets": 0, "income": 0, "revenue": 0}], "NEGATIVE": [{"ein": "882418671", "name": "RAYNE REPLACING ALL YOUR NEGATIVE ENERGY INC", "city": "NEWBURGH", "state": "NY", "zip": "12550-7011", "ntee": "P99", "ruling": "202206", "deductibility": "1", "assets": 0, "income": 0, "revenue": 0}], "SOMAIYA": [{"ein": "882702674", "name": "SOMAIYA FOUNDATION", "city": "ITHACA", "state": "NY", "zip": "14850-0000", "ntee": "B12", "ruling": "202409", "deductibility": "1", "assets": 8539, "income": 25000, "revenue": 25000}], "MAR5": [{"ein": "883535916", "name": "MAR5 GRATITUDE FOUNDATION", "city": "NEW YORK", "state": "NY", "zip": "10004-1501", "ntee": "W12", "ruling": "202208", "deductibility": "1", "assets": 445794, "income": 650503, "revenue": 650503}], "DASA": [{"ein": "912070454", "name": "FIRST METHODIST CHURCH OF OTEGO TUW DASA E HARRIS", "city": "ONEONTA", "state": "NY", "zip": "13820-0000", "ntee": "T11", "ruling": "199910", "deductibility": "1", "assets": 150743, "income": 41204, "revenue": 0}], "BOHIO": [{"ein": "920541193", "name": "COMMUNITY BOHIO", "city": "HEMPSTEAD", "state": "NY", "zip": "11550-7128", "ntee": "S21", "ruling": "202210", "deductibility": "1", "assets": 0, "income": 0, "revenue": 0}], "OSHHA": [{"ein": "920812553", "name": "OSHHA CARES INC", "city": "NEW YORK", "state": "NY", "zip": "10035-0780", "ntee": "", "ruling": "202501", "deductibility": "1", "assets": 0, "income": 0, "revenue": 0}], "HOPELESS": [{"ein": "921430637", "name": "HOPE FOR THE HOPELESS A LITTLE BIT OF HOPE GOES A LONG WAY INC", "city": "NEW YORK", "state": "NY", "zip": "10030-1639", "ntee": "S20", "ruling": "202301", "deductibility": "1", "assets": 1, "income": 1, "revenue": 0}], "ZHUANG": [{"ein": "921848710", "name": "SY HAN ZHUANG APPAREL ARTISTRY INC", "city": "PORT JERVIS", "state": "NY", "zip": "12771-3829", "ntee": "A25", "ruling": "202306", "deductibility": "1", "assets": 0, "income": 0, "revenue": 0}], "EKO": [{"ein": "922159083", "name": "EKO ORGANIZATION INCORPORATED", "city": "LAURELTON", "state": "NY", "zip": "11413-2334", "ntee": "B12", "ruling": "202302", "deductibility": "1", "assets": 0, "income": 0, "revenue": 0}], "TEMACHTIANI": [{"ein": "923780055", "name": "CHINAMPA TEMACHTIANI", "city": "BROOKLYN", "state": "NY", "zip": "11216-3425", "ntee": "Q21", "ruling": "202305", "deductibility": "1", "assets": 0, "income": 0, "revenue": 0}], "SONE": [{"ein": "931466032", "name": "SONE YAY FOUNDATION", "city": "NORTH BALDWIN", "state": "NY", "zip": "11510-2502", "ntee": "T99", "ruling": "202308", "deductibility": "1", "assets": 0, "income": 0, "revenue": 0}], "IPAAL": [{"ein": "990702400", "name": "IPAAL INC", "city": "N TONAWANDA", "state": "NY", "zip": "14120-2206", "ntee": "A99", "ruling": "202408", "deductibility": "1", "assets": 0, "income": 0, "revenue": 0}], "WASONTHA": [{"ein": "991715581", "name": "WASONTHA SANCTUARY", "city": "SPRAKERS", "state": "NY", "zip": "12166-4217", "ntee": "A25", "ruling": "202403", "deductibility": "1", "assets": 0, "income": 0, "revenue": 0}], "YCART": [{"ein": "991743403", "name": "YCART FOUNDATION CORPORATION", "city": "NEW YORK", "state": "NY", "zip": "10016-2418", "ntee": "S11", "ruling": "202406", "deductibility": "1", "assets": 0, "income": 0, "revenue": 0}], "ENDEAVORDS": [{"ein": "992812468", "name": "GOOD ENDEAVORDS INC", "city": "BROOKLYN", "state": "NY", "zip": "11219-3537", "ntee": "W99", "ruling": "202406", "deductibility": "1", "assets": 0, "income": 0, "revenue": 0}], "MYOPIA": [{"ein": "993970468", "name": "MYOPIA VISION CHARITY CORP", "city": "NEW YORK", "state": "NY", "zip": "10013-4554", "ntee": "G41", "ruling": "202407", "deductibility": "1", "assets": 0, "income": 0, "revenue": 0}], "RANDIS": [{"ein": "994079784", "name": "RANDIS CARE INC", "city": "BROOKLYN", "state": "NY", "zip": "11234-4203", "ntee": "X30", "ruling": "202408", "deductibility": "1", "assets": 0, "income": 0, "revenue": 0}], "COMMUNITATIS": [{"ein": "994610299", "name": "LUMEN COMMUNITATIS INC", "city": "BRONX", "state": "NY", "zip": "10472-4935", "ntee": "B01", "ruling": "202501", "deductibility": "1", "assets": 0, "income": 0, "revenue": 0}], "4TK": [{"ein": "994816504", "name": "4TK FUNDRAISING SOLUTIONS INC", "city": "WEST BABYLON", "state": "NY", "zip": "11704-5239", "ntee": "O12", "ruling": "202409", "deductibility": "1", "assets": 0, "income": 0, "revenue": 0}]}