{"PHILADELPHIA": [{"ein": "010758163", "name": "MIRACLE CHRISTIAN CENTER OF PHILADELPHIA", "city": "WHEATLEY HTS", "state": "NY", "zip": "11798-1848", "ntee": "X21", "ruling": "200404", "deductibility": "1", "assets": 0, "income": 0, "revenue": 0}, {"ein": "112571565", "name": "NEW YORK PHILADELPHIA PRESBYTERIAN CHURCH", "city": "PRT WASHINGTN", "state": "NY", "zip": "11050-3004", "ntee": "", "ruling": "198108", "deductibility": "1", "assets": 0, "income": 0, "revenue": 0}, {"ein": "112957050", "name": "PHILADELPHIA - THE CHURCH OF UNIVERSAL BROTHERHOOD SEVENTH DAY", "city": "HOLLIS", "state": "NY", "zip": "11423-2636", "ntee": "X21Z", "ruling": "199811", "deductibility": "1", "assets": 0, "income": 0, "revenue": 0}, {"ein": "113504873", "name": "PHILADELPHIA BIBLE WAY COMMUNITY CHURCH OF APOSTOLIC FAITH INC", "city": "BELLPORT", "state": "NY", "zip": "11713-1907", "ntee": "X21", "ruling": "200206", "deductibility": "1", "assets": 0, "income": 0, "revenue": 0}, {"ein": "113629797", "name": "PHILADELPHIA ASSEMBLY OF GOD PENTECOSTAL MINISTRY", "city": "ROOSEVELT ISLAND", "state": "NY", "zip": "10044-0000", "ntee": "X212", "ruling": "200310", "deductibility": "1", "assets": 31544, "income": 35789, "revenue": 35789}, {"ein": "133848387", "name": "PHILADELPHIA CHRISTIAN CHURCH", "city": "NEW YORK", "state": "NY", "zip": "10001-7203", "ntee": "X99Z", "ruling": "199510", "deductibility": "1", "assets": 0, "income": 0, "revenue": 0}, {"ein": "146037719", "name": "PHILADELPHIA CHURCH INC", "city": "ALBANY", "state": "NY", "zip": "12203-0000", "ntee": "", "ruling": "196703", "deductibility": "1", "assets": 0, "income": 0, "revenue": 0}, {"ein": "262189467", "name": "PHILADELPHIA SQL SERVER USERS GROUP", "city": "GLEN COVE", "state": "NY", "zip": "11542-1517", "ntee": "J03", "ruling": "201009", "deductibility": "1", "assets": 0, "income": 0, "revenue": 0}, {"ein": "264174985", "name": "WAAAUB-PHILADELPHIA CHAPTER", "city": "NEW YORK", "state": "NY", "zip": "10017-2322", "ntee": "B84", "ruling": "201410", "deductibility": "1", "assets": 0, "income": 0, "revenue": 0}, {"ein": "275244592", "name": "GMDC PHILADELPHIA", "city": "BROOKLYN", "state": "NY", "zip": "11222-6102", "ntee": "E60", "ruling": "201406", "deductibility": "1", "assets": 0, "income": 0, "revenue": 0}, {"ein": "331206951", "name": "PHILADELPHIA HISTORICAL SOCIETY", "city": "PHILADELPHIA", "state": "NY", "zip": "13673-0000", "ntee": "A80", "ruling": "201102", "deductibility": "1", "assets": 0, "income": 0, "revenue": 0}, {"ein": "462232504", "name": "PHILADELPHIA VOLUNTEER FIRE DEPARTMENT", "city": "PHILADELPHIA", "state": "NY", "zip": "13673-4156", "ntee": "M24", "ruling": "201407", "deductibility": "1", "assets": 0, "income": 0, "revenue": 0}, {"ein": "841617083", "name": "DIV NO 39 LADIES ANCIENT ORDER OF HIBERNIANS INC OF PHILADELPHIA", "city": "BROOKLYN", "state": "NY", "zip": "11229-4111", "ntee": "", "ruling": "201611", "deductibility": "1", "assets": 0, "income": 0, "revenue": 0}], "BOYS": [{"ein": "020541300", "name": "BOYS AND GIRLS CLUB OF WOODLEAN", "city": "BRONX", "state": "NY", "zip": "10470-0271", "ntee": "O23", "ruling": "201406", "deductibility": "1", "assets": 79375, "income": 81423, "revenue": 81423}, {"ein": "111660855", "name": "GRENVILLE BAKER BOYS AND GIRLS CLUB INC", "city": "LOCUST VALLEY", "state": "NY", "zip": "11560-2123", "ntee": "O230", "ruling": "198606", "deductibility": "1", "assets": 26425816, "income": 11236654, "revenue": 6190490}, {"ein": "111673938", "name": "GLEN COVE BOYS AND GIRLS CLUB AT LINCOLN HOUSE INC", "city": "GLEN COVE", "state": "NY", "zip": "11542-3438", "ntee": "O23Z", "ruling": "195302", "deductibility": "1", "assets": 7053438, "income": 1642572, "revenue": 1470329}, {"ein": "111966067", "name": "BOYS & GIRLS CLUB OF METRO QUEENS INC", "city": "S RICHMOND HL", "state": "NY", "zip": "11419-1026", "ntee": "O23Z", "ruling": "195810", "deductibility": "1", "assets": 10838391, "income": 7754969, "revenue": 7754969}, {"ein": "112136505", "name": "BOYS & GIRLS CLUB OF OYSTER BAY- EAST NORWICH", "city": "OYSTER BAY", "state": "NY", "zip": "11771-4701", "ntee": "O230", "ruling": "199312", "deductibility": "1", "assets": 10758892, "income": 2937519, "revenue": 2672156}, {"ein": "112676095", "name": "KINGSTON COLLEGE OLD BOYS ASSOC USA INC", "city": "NEW WINDSOR", "state": "NY", "zip": "12553-8127", "ntee": "", "ruling": "199409", "deductibility": "1", "assets": 233294, "income": 276310, "revenue": 210685}, {"ein": "113033139", "name": "GRENADA BOYS SECONDARY SCHOOL ALUMNI ASSOCIATION OF NEW YORK INC", "city": "BROOKLYN", "state": "NY", "zip": "11213-0000", "ntee": "B84Z", "ruling": "199502", "deductibility": "1", "assets": 1, "income": 0, "revenue": 0}, {"ein": "113192887", "name": "CORNWALL COLLEGE OLD BOYS ASSOCIATION OF NEW YORK INC", "city": "BROOKLYN", "state": "NY", "zip": "11201-4881", "ntee": "B90", "ruling": "200309", "deductibility": "1", "assets": 0, "income": 0, "revenue": 0}, {"ein": "113307242", "name": "ST JOHNS RESIDENCE FOR BOYS INC", "city": "ROCKAWAY PARK", "state": "NY", "zip": "11694-2505", "ntee": "P70", "ruling": "201501", "deductibility": "1", "assets": 17155889, "income": 12023852, "revenue": 12009452}, {"ein": "113349975", "name": "SUFFOLK COUNTY BOYS SOCCER COACHES ASSOCIATION INC", "city": "MANORVILLE", "state": "NY", "zip": "11949-3346", "ntee": "B99", "ruling": "199912", "deductibility": "1", "assets": 41146, "income": 83234, "revenue": 83234}, {"ein": "115324002", "name": "BOYS TOWN JERUSALEM FOUNDATION OF AMERICA INC", "city": "NEW YORK", "state": "NY", "zip": "10001-5580", "ntee": "T70Z", "ruling": "198604", "deductibility": "1", "assets": 33303813, "income": 32864831, "revenue": 9854138}, {"ein": "116014770", "name": "VARIETY BOYS AND GIRLS CLUB OF QUEENS INC", "city": "LONG IS CITY", "state": "NY", "zip": "11102-3331", "ntee": "O23", "ruling": "195107", "deductibility": "1", "assets": 9404810, "income": 5598208, "revenue": 5584146}, {"ein": "116036778", "name": "BALDWIN BOYS ASSOCIATION INC", "city": "NORTH BALDWIN", "state": "NY", "zip": "11510-2630", "ntee": "A80", "ruling": "200911", "deductibility": "1", "assets": 0, "income": 0, "revenue": 0}, {"ein": "116037025", "name": "SHERIDAN BOYS CLUB INC", "city": "BROOKLYN", "state": "NY", "zip": "11228-3236", "ntee": "", "ruling": "195705", "deductibility": "1", "assets": 0, "income": 0, "revenue": 0}, {"ein": "116075963", "name": "BONNIE BOYS CLUB INC", "city": "BROOKLYN", "state": "NY", "zip": "11218-4304", "ntee": "", "ruling": "199103", "deductibility": "1", "assets": 96416, "income": 309000, "revenue": 282651}, {"ein": "131623850", "name": "KIPS BAY BOYS AND GIRLS CLUB INC", "city": "BRONX", "state": "NY", "zip": "10473-2608", "ntee": "O230", "ruling": "192311", "deductibility": "1", "assets": 36164791, "income": 22699630, "revenue": 15789239}, {"ein": "131739924", "name": "BOYS CLUB OF MOUNT KISCO INC", "city": "MOUNT KISCO", "state": "NY", "zip": "10549-0000", "ntee": "O230", "ruling": "194011", "deductibility": "1", "assets": 13589002, "income": 7322491, "revenue": 7101553}, {"ein": "131739925", "name": "BOYS & GIRLS CLUB OF MOUNT VERNON NY INC", "city": "MOUNT VERNON", "state": "NY", "zip": "10550-4114", "ntee": "", "ruling": "195608", "deductibility": "1", "assets": 2578974, "income": 1951463, "revenue": 1700855}, {"ein": "131943644", "name": "BOYS AND GIRLS CLUB OF NEW ROCHELLE INC", "city": "NEW ROCHELLE", "state": "NY", "zip": "10801-4859", "ntee": "O23Z", "ruling": "196306", "deductibility": "1", "assets": 20285500, "income": 6061369, "revenue": 5994007}, {"ein": "131958475", "name": "ST RAYMONDS BOYS HIGH SCHOOL", "city": "BRONX", "state": "NY", "zip": "10462-0000", "ntee": "", "ruling": "194603", "deductibility": "1", "assets": 0, "income": 0, "revenue": 0}, {"ein": "132990982", "name": "BOYS HOPE GIRLS HOPE", "city": "BROOKLYN", "state": "NY", "zip": "11238-1001", "ntee": "", "ruling": "197912", "deductibility": "1", "assets": 3409917, "income": 4356974, "revenue": 4057681}, {"ein": "133019299", "name": "BRONX JEWISH BOYS", "city": "BROOKLYN", "state": "NY", "zip": "11229-3634", "ntee": "", "ruling": "198106", "deductibility": "1", "assets": 0, "income": 0, "revenue": 0}, {"ein": "133102951", "name": "BOYS & GIRLS CLUB OF HARLEM INC", "city": "NEW YORK", "state": "NY", "zip": "10031-5101", "ntee": "", "ruling": "198711", "deductibility": "1", "assets": 2426921, "income": 2990902, "revenue": 2990902}, {"ein": "133491746", "name": "NEW AMSTERDAM BOYS CHOIR INC", "city": "NEW YORK", "state": "NY", "zip": "10029-0099", "ntee": "O99", "ruling": "199601", "deductibility": "1", "assets": 48100, "income": 63867, "revenue": 63867}, {"ein": "133741014", "name": "TOWN OF WALLKILL BOYS AND GIRLS CLUB INC", "city": "CIRCLEVILLE", "state": "NY", "zip": "10919-0014", "ntee": "O20Z", "ruling": "199411", "deductibility": "1", "assets": 1065356, "income": 1930499, "revenue": 1930499}, {"ein": "134065411", "name": "BOYS & GIRLS CLUBS OF AMERICA", "city": "BUFFALO", "state": "NY", "zip": "14210-1541", "ntee": "", "ruling": "199908", "deductibility": "1", "assets": 0, "income": 0, "revenue": 0}, {"ein": "135562975", "name": "BOYS AND GIRLS REPUBLIC INC", "city": "NEW YORK", "state": "NY", "zip": "10002-4808", "ntee": "O210", "ruling": "194207", "deductibility": "1", "assets": 0, "income": 0, "revenue": 0}, {"ein": "135591750", "name": "BOYS CLUB OF NEW YORK INC", "city": "NEW YORK", "state": "NY", "zip": "10003-3039", "ntee": "O210", "ruling": "194408", "deductibility": "1", "assets": 107901233, "income": 42565030, "revenue": 19660341}, {"ein": "135596792", "name": "MADISON SQUARE BOYS & GIRLS CLUB INC", "city": "NEW YORK", "state": "NY", "zip": "10039-1401", "ntee": "O230", "ruling": "194301", "deductibility": "1", "assets": 92745692, "income": 11771205, "revenue": 8711959}, {"ein": "141338445", "name": "LANSINGBURGH BOYS AND GIRLS CLUB IN", "city": "TROY", "state": "NY", "zip": "12182-2703", "ntee": "", "ruling": "194406", "deductibility": "1", "assets": 1176669, "income": 822340, "revenue": 735858}, {"ein": "141338574", "name": "BOYS & GIRLS CLUBS OF THE CAPITAL AREA INC", "city": "TROY", "state": "NY", "zip": "12180-3411", "ntee": "O230", "ruling": "193502", "deductibility": "1", "assets": 9082016, "income": 8606019, "revenue": 6920717}, {"ein": "141364595", "name": "BOYS AND GIRLS CLUBS OF SCHENECTADY INC", "city": "SCHENECTADY", "state": "NY", "zip": "12301-0466", "ntee": "O230", "ruling": "194205", "deductibility": "1", "assets": 20211554, "income": 3851221, "revenue": 3725570}, {"ein": "141374487", "name": "BOYS & GIRLS CLUB OF KINGSTON INC", "city": "KINGSTON", "state": "NY", "zip": "12402-2271", "ntee": "O23Z", "ruling": "196711", "deductibility": "1", "assets": 3778478, "income": 1710603, "revenue": 1479210}, {"ein": "141466038", "name": "SAINT GREGORYS SCHOOL FOR BOYS", "city": "ALBANY", "state": "NY", "zip": "12211-1301", "ntee": "", "ruling": "198311", "deductibility": "1", "assets": 5720298, "income": 4057355, "revenue": 3165747}, {"ein": "141471475", "name": "RENSSELAER BOYS CLUB INCORPORATED", "city": "RENSSELAER", "state": "NY", "zip": "12144-2607", "ntee": "O21Z", "ruling": "196709", "deductibility": "1", "assets": 1067025, "income": 695086, "revenue": 685255}, {"ein": "141506144", "name": "BOYS & GIRLS CLUB OF NEWBURGH INC", "city": "NEWBURGH", "state": "NY", "zip": "12550-4624", "ntee": "P28Z", "ruling": "197105", "deductibility": "1", "assets": 9450704, "income": 3628561, "revenue": 3169822}, {"ein": "146092280", "name": "SCHENECTADY BOYS CLUB INC TRUST UA 07-23-75", "city": "ALBANY", "state": "NY", "zip": "12205-5941", "ntee": "", "ruling": "000000", "deductibility": "0", "assets": 955250, "income": 34201, "revenue": 34125}, {"ein": "146183090", "name": "TRUST UNDER THE WILL OF S WELLFORD CORBIN B/O SCHENECTADY BOYS AND", "city": "ALBANY", "state": "NY", "zip": "12205-5941", "ntee": "T20Z", "ruling": "199707", "deductibility": "1", "assets": 2938335, "income": 243961, "revenue": 0}, {"ein": "150532240", "name": "BOYS & GIRLS CLUB OF SYRACUSE", "city": "SYRACUSE", "state": "NY", "zip": "13224-1017", "ntee": "", "ruling": "193805", "deductibility": "1", "assets": 1596273, "income": 1120120, "revenue": 1082490}, {"ein": "150539040", "name": "BINGHAMTON BOYS CLUB INC", "city": "BINGHAMTON", "state": "NY", "zip": "13905-2322", "ntee": "", "ruling": "194704", "deductibility": "1", "assets": 4194301, "income": 1427245, "revenue": 1387445}, {"ein": "150563429", "name": "LAKE DELAWARE BOYS CAMP INC", "city": "DELHI", "state": "NY", "zip": "13753-0031", "ntee": "", "ruling": "194106", "deductibility": "1", "assets": 3292876, "income": 605197, "revenue": 355904}, {"ein": "150610883", "name": "TIOGA COUNTY BOYS AND GIRLS CLUB INC", "city": "OWEGO", "state": "NY", "zip": "13827-1109", "ntee": "O2EZ", "ruling": "196302", "deductibility": "1", "assets": 1762338, "income": 793948, "revenue": 747618}, {"ein": "160743055", "name": "WINIFRED CRAWFORD DIBERT BOYS AND GIRLS CLUB OF JAMESTOWN INC", "city": "JAMESTOWN", "state": "NY", "zip": "14701-0000", "ntee": "", "ruling": "195003", "deductibility": "1", "assets": 2718586, "income": 1192365, "revenue": 966330}, {"ein": "160743093", "name": "NIAGARA FALLS BOYS & GIRLS CLUB", "city": "NIAGARA FALLS", "state": "NY", "zip": "14301-2205", "ntee": "O21Z", "ruling": "194210", "deductibility": "1", "assets": 2784778, "income": 1879320, "revenue": 1879320}, {"ein": "160755732", "name": "THE BOYS & GIRLS CLUB OF EAST AURORA INC", "city": "EAST AURORA", "state": "NY", "zip": "14052-2308", "ntee": "", "ruling": "195105", "deductibility": "1", "assets": 5348039, "income": 2516910, "revenue": 1820674}, {"ein": "160755733", "name": "THE BOYS & GIRLS CLUBS OF THE NORTHTOWNS OF WNY INC", "city": "BUFFALO", "state": "NY", "zip": "14207-1035", "ntee": "O21", "ruling": "194005", "deductibility": "1", "assets": 2850685, "income": 1849871, "revenue": 1796513}, {"ein": "160844107", "name": "THE BOYS & GIRLS CLUB OF THE NORTHTOWNS FOUNDATION INC", "city": "BUFFALO", "state": "NY", "zip": "14207-1035", "ntee": "O21", "ruling": "196108", "deductibility": "1", "assets": 367632, "income": 25559, "revenue": 24559}, {"ein": "160849516", "name": "BOYS & GIRLS CLUBS OF BUFFALO INC", "city": "BUFFALO", "state": "NY", "zip": "14210-1541", "ntee": "O23Z", "ruling": "193303", "deductibility": "1", "assets": 4154815, "income": 3579924, "revenue": 3553088}, {"ein": "160874412", "name": "OGDENSBURG BOYS & GIRLS CLUB", "city": "OGDENSBURG", "state": "NY", "zip": "13669-3420", "ntee": "O23Z", "ruling": "197005", "deductibility": "1", "assets": 5016603, "income": 866561, "revenue": 563417}, {"ein": "160921669", "name": "ONEONTA BOYS CLUB INC", "city": "ONEONTA", "state": "NY", "zip": "13820-2358", "ntee": "O210", "ruling": "196703", "deductibility": "1", "assets": 30606090, "income": 5922762, "revenue": 2473152}, {"ein": "161001619", "name": "BOYS AND GIRLS CLUB OF ROCHESTER INC", "city": "ROCHESTER", "state": "NY", "zip": "14611-3622", "ntee": "O23Z", "ruling": "197202", "deductibility": "1", "assets": 6908693, "income": 2026495, "revenue": 1939522}, {"ein": "161023305", "name": "BOYS & GIRLS CLUB OF ELMA MARILLA & WALES INC", "city": "ELMA", "state": "NY", "zip": "14059-9224", "ntee": "O23Z", "ruling": "197304", "deductibility": "1", "assets": 2023343, "income": 911435, "revenue": 794120}, {"ein": "161094894", "name": "BOYS & GIRLS CLUB OF ORCHARD PARK", "city": "ORCHARD PARK", "state": "NY", "zip": "14127-2655", "ntee": "", "ruling": "197803", "deductibility": "1", "assets": 437790, "income": 671890, "revenue": 631954}, {"ein": "161200165", "name": "THE JOLLY BOYS OF WILLIAMSVILLE NEW YORK INC", "city": "WILLIAMSVILLE", "state": "NY", "zip": "14231-0531", "ntee": "E20", "ruling": "199811", "deductibility": "1", "assets": 159039, "income": 337093, "revenue": 118199}, {"ein": "161313581", "name": "DEPEW-LANCASTER BOYS & GIRLS CLUB", "city": "DEPEW", "state": "NY", "zip": "14043-3241", "ntee": "", "ruling": "196101", "deductibility": "1", "assets": 3074274, "income": 1129900, "revenue": 964040}, {"ein": "161481026", "name": "BOYS & GIRLS CLUBS OF GENEVA INC", "city": "GENEVA", "state": "NY", "zip": "14456-1020", "ntee": "Z99", "ruling": "199508", "deductibility": "1", "assets": 4583771, "income": 1916645, "revenue": 1883532}, {"ein": "161523653", "name": "BOYS AND GIRLS CLUB OF EAST AURORA FOUNDATION INC", "city": "EAST AURORA", "state": "NY", "zip": "14052-2308", "ntee": "O23", "ruling": "199712", "deductibility": "1", "assets": 15635, "income": 0, "revenue": 0}, {"ein": "161532389", "name": "BOYS AND GIRLS CLUB OF NORTHERN CHAUTAUGUA COUNTY", "city": "DUNKIRK", "state": "NY", "zip": "14048-2505", "ntee": "O23", "ruling": "199801", "deductibility": "1", "assets": 148645, "income": 415689, "revenue": 386107}, {"ein": "161571555", "name": "BALDWINSVILLE BOYS BASKETBALL BOOSTER CLUB", "city": "PHOENIX", "state": "NY", "zip": "13135-1535", "ntee": "B11", "ruling": "200811", "deductibility": "1", "assets": 0, "income": 0, "revenue": 0}, {"ein": "161607731", "name": "AKWESASNE BOYS & GIRLS CLUB ST REGIS MOHAWK TRIBE", "city": "HOGANSBURG", "state": "NY", "zip": "13655-0000", "ntee": "B83", "ruling": "200301", "deductibility": "1", "assets": 2681811, "income": 3889523, "revenue": 3873980}, {"ein": "166282095", "name": "TRUST UW LEOPOLD ECKLER FOR THE BENEFIT OF BINGHAMTON BOYS CLUB IN", "city": "AMHERST", "state": "NY", "zip": "14228-2307", "ntee": "", "ruling": "198703", "deductibility": "1", "assets": 243740, "income": 45527, "revenue": 0}, {"ein": "166304094", "name": "THE BINGHAMTON BOYS AND GIRLS CLUB FOUNDATION", "city": "BINGHAMTON", "state": "NY", "zip": "13905-2322", "ntee": "", "ruling": "198803", "deductibility": "1", "assets": 1694802, "income": 1148366, "revenue": 0}, {"ein": "208017249", "name": "BOYS AND GIRLS CLUB OF MOSHOLUMONTEFIORE COMMUNITY CENTER INC", "city": "BRONX", "state": "NY", "zip": "10467-2302", "ntee": "", "ruling": "200701", "deductibility": "1", "assets": 2815455, "income": 688102, "revenue": 688102}, {"ein": "208086846", "name": "SOUTH COLONIE BOYS SOCCER BOOSTER CLUB INC", "city": "ALBANY", "state": "NY", "zip": "12205-0882", "ntee": "O21", "ruling": "202504", "deductibility": "1", "assets": 0, "income": 0, "revenue": 0}, {"ein": "222946919", "name": "BOYS CLUB OF ST FRANCIS INC", "city": "BUFFALO", "state": "NY", "zip": "14204-1920", "ntee": "", "ruling": "198904", "deductibility": "1", "assets": 0, "income": 0, "revenue": 0}, {"ein": "237036512", "name": "HUNTINGTON BOYS CLUB INC", "city": "MELVILLE", "state": "NY", "zip": "11747-0436", "ntee": "", "ruling": "196911", "deductibility": "1", "assets": 605621, "income": 453527, "revenue": 453527}, {"ein": "237069323", "name": "SOUTH SHORE BOYS CLUB INC", "city": "WEST ISLIP", "state": "NY", "zip": "11795-0105", "ntee": "O21Z", "ruling": "197012", "deductibility": "1", "assets": 0, "income": 0, "revenue": 0}, {"ein": "237103128", "name": "AMERICAN FRIENDS OF TIFERET SHLOMO BOYS ORPHANAGE INC", "city": "GREAT NECK", "state": "NY", "zip": "11021-2156", "ntee": "T1", "ruling": "201502", "deductibility": "1", "assets": 65493, "income": 107731, "revenue": 107731}, {"ein": "237129495", "name": "BOYS AND GIRLS CLUB OF HOLLAND INC", "city": "HOLLAND", "state": "NY", "zip": "14080-9729", "ntee": "O23Z", "ruling": "197109", "deductibility": "1", "assets": 1201455, "income": 621106, "revenue": 590752}, {"ein": "237200669", "name": "ALL AMERICAN BOYS CLUB INC", "city": "BROOKLYN", "state": "NY", "zip": "11229-5946", "ntee": "", "ruling": "197308", "deductibility": "1", "assets": 37885, "income": 37088, "revenue": 37088}, {"ein": "237255828", "name": "COLTS BOYS CLUB INC", "city": "YONKERS", "state": "NY", "zip": "10703-1047", "ntee": "O21", "ruling": "201405", "deductibility": "1", "assets": 24056, "income": 63896, "revenue": 63896}, {"ein": "237376060", "name": "BOYS AND GIRLS CLUB OF THE BELLPORT AREA INC", "city": "BELLPORT", "state": "NY", "zip": "11713-1707", "ntee": "P36Z", "ruling": "197402", "deductibility": "1", "assets": 4684165, "income": 2246098, "revenue": 2246098}, {"ein": "262291688", "name": "BALDWINSVILLE BOYS LACROSSE BOOSTER CLUB INC", "city": "BALDWINSVILLE", "state": "NY", "zip": "13027-0564", "ntee": "B122", "ruling": "200807", "deductibility": "1", "assets": 49593, "income": 166719, "revenue": 166719}, {"ein": "263058309", "name": "BALDWINSVILLE BOYS SOCCER BOOSTER CLUB INC", "city": "BALDWINSVILLE", "state": "NY", "zip": "13027-2480", "ntee": "B94", "ruling": "201509", "deductibility": "1", "assets": 0, "income": 0, "revenue": 0}, {"ein": "263550021", "name": "SUFFERN BOYS BASKETBALL BOOSTER CLUB", "city": "SLOATSBURG", "state": "NY", "zip": "10974-1842", "ntee": "N62", "ruling": "201605", "deductibility": "1", "assets": 0, "income": 0, "revenue": 0}, {"ein": "264088078", "name": "MARCELLUS BOYS LACROSSE CLUB INC", "city": "MARCELLUS", "state": "NY", "zip": "13108-9775", "ntee": "N60", "ruling": "202302", "deductibility": "1", "assets": 0, "income": 0, "revenue": 0}, {"ein": "270452725", "name": "HARRISON BOYS LACROSSE BOOSTER CLUB", "city": "WHITE PLAINS", "state": "NY", "zip": "10605-5123", "ntee": "N11", "ruling": "200909", "deductibility": "1", "assets": 0, "income": 0, "revenue": 0}, {"ein": "330996412", "name": "BOYS & GIRLS CLUB OF EDEN INC", "city": "EDEN", "state": "NY", "zip": "14057-1104", "ntee": "O23", "ruling": "200208", "deductibility": "1", "assets": 365270, "income": 543968, "revenue": 514944}, {"ein": "331588587", "name": "ALEXANDER PEMBROKE BOYS WRESTLING CLUB", "city": "CORFU", "state": "NY", "zip": "14036-9306", "ntee": "N60", "ruling": "202501", "deductibility": "1", "assets": 0, "income": 0, "revenue": 0}, {"ein": "331678419", "name": "NTS BOYS BASKETBALL INC", "city": "N TONAWANDA", "state": "NY", "zip": "14120-2254", "ntee": "S12", "ruling": "202411", "deductibility": "1", "assets": 0, "income": 0, "revenue": 0}, {"ein": "352327671", "name": "S THOMAS COLLEGE OLD BOYS ASSN GREATER NY INC", "city": "RYE", "state": "NY", "zip": "10580-1956", "ntee": "B82", "ruling": "201401", "deductibility": "1", "assets": 0, "income": 0, "revenue": 0}, {"ein": "450637578", "name": "GUILDERLAND BOYS YOUTH LACROSSE", "city": "GUILDERLAND", "state": "NY", "zip": "12084-0851", "ntee": "N60", "ruling": "201406", "deductibility": "1", "assets": 61326, "income": 77629, "revenue": 77629}, {"ein": "461028482", "name": "NORTHERN DUTCHESS BOYS YOUTH LACROSSE ASSOCIATION", "city": "RED HOOK", "state": "NY", "zip": "12571-2365", "ntee": "N40", "ruling": "201610", "deductibility": "1", "assets": 0, "income": 0, "revenue": 0}, {"ein": "463299217", "name": "IRAISE GIRLS & BOYS INTERNATIONAL CORPORATION", "city": "BRONX", "state": "NY", "zip": "10467-5726", "ntee": "O50", "ruling": "201411", "deductibility": "1", "assets": 467709, "income": 668106, "revenue": 668106}, {"ein": "463563497", "name": "NORTHSTARS BOYS LACROSSE BOOSTER CLUB INC", "city": "CICERO", "state": "NY", "zip": "13039-7854", "ntee": "N50", "ruling": "201409", "deductibility": "1", "assets": 0, "income": 0, "revenue": 0}, {"ein": "464399255", "name": "FRIENDS OF PITTSFORD SWIMMING HIGH SCHOOL BOYS BOOSTER CLUB", "city": "ROCHESTER", "state": "NY", "zip": "14618-3516", "ntee": "B12", "ruling": "202404", "deductibility": "1", "assets": 0, "income": 0, "revenue": 0}, {"ein": "464682661", "name": "BOYS ON THE RIGHT TRACK INCORPORATED", "city": "BUFFALO", "state": "NY", "zip": "14222-1903", "ntee": "O21", "ruling": "201412", "deductibility": "1", "assets": 190259, "income": 134115, "revenue": 130722}, {"ein": "470883784", "name": "SHENENDEHOWA BOYS VOLLEYBALL BOOSTER CLUB", "city": "CLIFTON PARK", "state": "NY", "zip": "12065-0806", "ntee": "N11", "ruling": "201507", "deductibility": "1", "assets": 0, "income": 0, "revenue": 0}, {"ein": "472625518", "name": "GUILDERLAND HIGH SCHOOL BOYS TENNIS BOOSTER CLUB INC", "city": "GUILDRLND CTR", "state": "NY", "zip": "12085-7702", "ntee": "N12", "ruling": "201501", "deductibility": "1", "assets": 0, "income": 0, "revenue": 0}, {"ein": "473119340", "name": "SACHEM NORTH BOYS LACROSSE BOOSTER CLUB INC", "city": "HOLBROOK", "state": "NY", "zip": "11741-0000", "ntee": "B84", "ruling": "201505", "deductibility": "1", "assets": 15113, "income": 59678, "revenue": 59678}, {"ein": "473181109", "name": "RUSH-HENRIETTA BOYS LACROSSE CLUB", "city": "HENRIETTA", "state": "NY", "zip": "14467-0388", "ntee": "N60", "ruling": "201503", "deductibility": "1", "assets": 25137, "income": 61820, "revenue": 57503}, {"ein": "474113549", "name": "BOYS RUN ON INC", "city": "ORCHARD PARK", "state": "NY", "zip": "14127-2611", "ntee": "O50", "ruling": "201506", "deductibility": "1", "assets": 52, "income": 14492, "revenue": 14492}, {"ein": "522405877", "name": "THE SUDANESE LOST BOYS FOUNDATION OF NEW YORK INC", "city": "SYRACUSE", "state": "NY", "zip": "13203-1444", "ntee": "P84", "ruling": "200501", "deductibility": "1", "assets": 0, "income": 0, "revenue": 0}, {"ein": "562638351", "name": "GARDEN CITY RAMS BOYS LACROSSE PROGRAM INC", "city": "GARDEN CITY", "state": "NY", "zip": "11530-2650", "ntee": "N60", "ruling": "200803", "deductibility": "2", "assets": 108943, "income": 320093, "revenue": 320093}, {"ein": "811086546", "name": "RYE HIGH SCHOOL BOYS SQUASH BOOSTERS", "city": "RYE", "state": "NY", "zip": "10580-4214", "ntee": "N66", "ruling": "201607", "deductibility": "1", "assets": 0, "income": 0, "revenue": 0}, {"ein": "813695489", "name": "SAVE OUR BOYS AND GIRLS FOUNDATION", "city": "YONKERS", "state": "NY", "zip": "10704-2409", "ntee": "Q33", "ruling": "201909", "deductibility": "1", "assets": 1, "income": 0, "revenue": 0}, {"ein": "814119089", "name": "MOMS OF BLACK BOYS UNITED INC", "city": "NEW YORK", "state": "NY", "zip": "10035-1932", "ntee": "P20", "ruling": "201706", "deductibility": "1", "assets": 360128, "income": 0, "revenue": 0}, {"ein": "814712225", "name": "ST GEORGES COLLEGE OLD BOYS ASSOCIATION OF THE NORTH EAST INC", "city": "FAR ROCKAWAY", "state": "NY", "zip": "11691-3017", "ntee": "B25", "ruling": "201706", "deductibility": "1", "assets": 0, "income": 0, "revenue": 0}, {"ein": "814762422", "name": "RHS BOYS SOCCER BOOSTERS", "city": "RYE", "state": "NY", "zip": "10580-3505", "ntee": "B12", "ruling": "201701", "deductibility": "1", "assets": 0, "income": 0, "revenue": 0}, {"ein": "823591396", "name": "NORTHPORT BOYS LACROSSE BOOSTER CLUB", "city": "NORTHPORT", "state": "NY", "zip": "11768-3346", "ntee": "N11", "ruling": "201906", "deductibility": "1", "assets": 0, "income": 0, "revenue": 0}, {"ein": "824119597", "name": "STRADFORD PREPARATORY CHARTER SCHOOL FOR BOYS", "city": "BRONX", "state": "NY", "zip": "10459-3320", "ntee": "B29", "ruling": "201912", "deductibility": "1", "assets": 0, "income": 0, "revenue": 0}, {"ein": "831357433", "name": "SUFFOLK COUNTY BOYS BASKETBALL COACHING ALLIANCE", "city": "E NORTHPORT", "state": "NY", "zip": "11731-3901", "ntee": "B01", "ruling": "202203", "deductibility": "1", "assets": 0, "income": 0, "revenue": 0}, {"ein": "831845369", "name": "WEST GENESEE BOYS LACROSSE BOOSTERS", "city": "CAMILLUS", "state": "NY", "zip": "13031-8696", "ntee": "N99", "ruling": "201905", "deductibility": "1", "assets": 10882, "income": 31032, "revenue": 18377}, {"ein": "831891270", "name": "GUILDERLAND HIGH SCHOOL BOYS SOCCER BOOSTER CLUB INC", "city": "SCHENECTADY", "state": "NY", "zip": "12303-6009", "ntee": "N01", "ruling": "201903", "deductibility": "1", "assets": 0, "income": 0, "revenue": 0}, {"ein": "832400968", "name": "WORLD OF GIRLS & BOYS LEADERSHIP", "city": "BUFFALO", "state": "NY", "zip": "14215-0411", "ntee": "O50", "ruling": "201906", "deductibility": "1", "assets": 1, "income": 80379, "revenue": 80379}, {"ein": "832561676", "name": "WNY BOYS DA BOOSTER CLUB INC", "city": "ROCHESTER", "state": "NY", "zip": "14625-2054", "ntee": "N12", "ruling": "201812", "deductibility": "1", "assets": 0, "income": 0, "revenue": 0}, {"ein": "834402310", "name": "MENTORS INSPIRING BOYS & GIRLS", "city": "ROCHESTER", "state": "NY", "zip": "14611-2427", "ntee": "A90", "ruling": "201909", "deductibility": "1", "assets": 51382, "income": 189208, "revenue": 189208}, {"ein": "842373159", "name": "NORTH COLONIE BOYS TRAVEL BASKETBALL INC", "city": "COHOES", "state": "NY", "zip": "12047-1480", "ntee": "N62", "ruling": "201909", "deductibility": "1", "assets": 0, "income": 0, "revenue": 0}, {"ein": "843071428", "name": "EAHS BOYS VOLLEYBALL BOOSTER CLUB", "city": "EAST AURORA", "state": "NY", "zip": "14052-9418", "ntee": "O12", "ruling": "202207", "deductibility": "1", "assets": 0, "income": 0, "revenue": 0}, {"ein": "843113120", "name": "CNS BOYS SOCCER BOOSTER CLUB INC", "city": "LIVERPOOL", "state": "NY", "zip": "13090-3626", "ntee": "N11", "ruling": "201912", "deductibility": "1", "assets": 0, "income": 0, "revenue": 0}, {"ein": "843208275", "name": "MEN OF BOYS HIGH INC", "city": "BROOKLYN", "state": "NY", "zip": "11203-1901", "ntee": "B82", "ruling": "201912", "deductibility": "1", "assets": 0, "income": 0, "revenue": 0}, {"ein": "843239183", "name": "SUFFERN BOYS LACROSSE BOOSTER CLUB INC", "city": "WEST NYACK", "state": "NY", "zip": "10994-1768", "ntee": "N12", "ruling": "201910", "deductibility": "1", "assets": 0, "income": 0, "revenue": 0}, {"ein": "843498615", "name": "COLUMBIA BOYS LACROSSE BOOSTER CLUB", "city": "E GREENBUSH", "state": "NY", "zip": "12061-9602", "ntee": "N12", "ruling": "201911", "deductibility": "1", "assets": 0, "income": 0, "revenue": 0}, {"ein": "843578229", "name": "BUILD UP BOYS", "city": "NEW YORK", "state": "NY", "zip": "10005-3500", "ntee": "V20", "ruling": "202002", "deductibility": "1", "assets": 3502, "income": 16272, "revenue": 16272}, {"ein": "852215725", "name": "BLACK BOYS LEADERSHIP ALLIANCE FOR CHANGE B-BLAC INC", "city": "JAMAICA", "state": "NY", "zip": "11433-1484", "ntee": "O50", "ruling": "202010", "deductibility": "1", "assets": 0, "income": 0, "revenue": 0}, {"ein": "854129850", "name": "MADISON SQUARE BOYS & GIRLS CLUB FOUNDATION INC", "city": "NEW YORK", "state": "NY", "zip": "10039-1401", "ntee": "O11", "ruling": "202105", "deductibility": "1", "assets": 637659, "income": 8245204, "revenue": 6608621}, {"ein": "863248138", "name": "BOYS TEAM CHARITY INC", "city": "KATONAH", "state": "NY", "zip": "10536-2915", "ntee": "", "ruling": "200207", "deductibility": "1", "assets": 0, "income": 0, "revenue": 0}, {"ein": "863427582", "name": "JACKIE BOYS CREW FOUNDATION INC", "city": "OCEANSIDE", "state": "NY", "zip": "11572-3021", "ntee": "P20", "ruling": "202109", "deductibility": "1", "assets": 61291, "income": 75175, "revenue": 75175}, {"ein": "863749062", "name": "COMSEWOGUE BOYS SOCCER BOOSTER CLUB", "city": "PORT JEFF STA", "state": "NY", "zip": "11776-6113", "ntee": "N64", "ruling": "202108", "deductibility": "1", "assets": 0, "income": 0, "revenue": 0}, {"ein": "872978694", "name": "SHERWOOD BOYS COLLEGE FUND FOUNDATION INC", "city": "STAFFORD", "state": "NY", "zip": "14143-9501", "ntee": "O20", "ruling": "202302", "deductibility": "1", "assets": 0, "income": 0, "revenue": 0}, {"ein": "874531968", "name": "PATCHOGUE MEDFORD HIGH SCHOOL BOYS VOLLEYBALL", "city": "MEDFORD", "state": "NY", "zip": "11763-4042", "ntee": "N12", "ruling": "202203", "deductibility": "1", "assets": 0, "income": 0, "revenue": 0}, {"ein": "921539519", "name": "SSHS BOYS BASKETBALL BOOSTER CLUB INC", "city": "SARATOGA SPGS", "state": "NY", "zip": "12866-5952", "ntee": "N12", "ruling": "202301", "deductibility": "1", "assets": 0, "income": 0, "revenue": 0}, {"ein": "921569185", "name": "BRYN MAWR BOYS & GIRLS CLUB INC", "city": "YONKERS", "state": "NY", "zip": "10701-5658", "ntee": "N70", "ruling": "202301", "deductibility": "1", "assets": 58735, "income": 116676, "revenue": 116676}, {"ein": "932377836", "name": "BHBL-SG BOYS AND GIRLS SWIM BOOSTER CLUB", "city": "GLENVILLE", "state": "NY", "zip": "12302-5633", "ntee": "N67", "ruling": "202308", "deductibility": "1", "assets": 0, "income": 0, "revenue": 0}, {"ein": "933933562", "name": "HONEOYE BOYS BASKETBALL INC", "city": "SPRINGWATER", "state": "NY", "zip": "14560-9676", "ntee": "N62", "ruling": "202310", "deductibility": "1", "assets": 0, "income": 0, "revenue": 0}, {"ein": "934583356", "name": "SWEET HOME BOYS LACROSSE BOOSTER CLUB INC", "city": "AMHERST", "state": "NY", "zip": "14226-7003", "ntee": "N11", "ruling": "202401", "deductibility": "1", "assets": 0, "income": 0, "revenue": 0}, {"ein": "992075946", "name": "BLUE WAVES BOYS BASKETBALL BOOSTER CLUB INC", "city": "RIVERHEAD", "state": "NY", "zip": "11901-2780", "ntee": "N62", "ruling": "202506", "deductibility": "1", "assets": 0, "income": 0, "revenue": 0}, {"ein": "992725821", "name": "BETHPAGE HIGH SCHOOL BOYS LACROSSE BOOSTER CLUB", "city": "BETHPAGE", "state": "NY", "zip": "11714-1201", "ntee": "N60", "ruling": "202405", "deductibility": "1", "assets": 0, "income": 0, "revenue": 0}, {"ein": "994668831", "name": "BOOBEE BOYS FOUNDATION INC", "city": "LAURELTON", "state": "NY", "zip": "11413-1245", "ntee": "X20", "ruling": "202410", "deductibility": "1", "assets": 0, "income": 0, "revenue": 0}], "ARCHIVES": [{"ein": "020749266", "name": "CARLOS LEZAMA ARCHIVES AND CARIBBEAN CULTURAL CENTER", "city": "DOUGLASTON", "state": "NY", "zip": "11362-2649", "ntee": "A23", "ruling": "200511", "deductibility": "1", "assets": 147442, "income": 114999, "revenue": 114999}, {"ein": "131820180", "name": "SIGMUND FREUD ARCHIVES INC", "city": "NEW YORK", "state": "NY", "zip": "10033-3429", "ntee": "", "ruling": "195207", "deductibility": "1", "assets": 0, "income": 0, "revenue": 0}, {"ein": "132896424", "name": "LIVING ARCHIVES INC", "city": "NEW YORK", "state": "NY", "zip": "10024-1125", "ntee": "", "ruling": "197710", "deductibility": "1", "assets": 67514, "income": 83258, "revenue": 83258}, {"ein": "132996513", "name": "ABRAHAM LINCOLN BRIGADE ARCHIVES", "city": "NEW YORK", "state": "NY", "zip": "10011-7139", "ntee": "", "ruling": "197911", "deductibility": "1", "assets": 2109177, "income": 837060, "revenue": 395874}, {"ein": "133204997", "name": "ARCHIVES FOR RESEARCH IN ARCHETYPAL SYMBOLISM INC", "city": "NEW YORK", "state": "NY", "zip": "10016-2555", "ntee": "V23", "ruling": "198506", "deductibility": "1", "assets": 3850904, "income": 901517, "revenue": 616665}, {"ein": "133937106", "name": "HARRY SMITH ARCHIVES INC", "city": "NEW YORK", "state": "NY", "zip": "10009-9326", "ntee": "A310", "ruling": "199809", "deductibility": "1", "assets": 13801, "income": 17935, "revenue": 17935}, {"ein": "133969097", "name": "CENTURY ASSOCIATION ARCHIVES FOUNDATION", "city": "NEW YORK", "state": "NY", "zip": "10036-7402", "ntee": "B99", "ruling": "199803", "deductibility": "1", "assets": 764792, "income": 224960, "revenue": 224960}, {"ein": "134078761", "name": "AFRICANA LITERATURE ARCHIVES INC", "city": "WHITE PLAINS", "state": "NY", "zip": "10603-3309", "ntee": "A23", "ruling": "200101", "deductibility": "1", "assets": 0, "income": 0, "revenue": 0}, {"ein": "136227423", "name": "ANTHOLOGY FILM ARCHIVES", "city": "NEW YORK", "state": "NY", "zip": "10003-8631", "ntee": "B77Z", "ruling": "196709", "deductibility": "1", "assets": 3545423, "income": 987933, "revenue": 907021}, {"ein": "141776509", "name": "NEW YORK STATE ARCHIVES PARTNERSHIP TR", "city": "ALBANY", "state": "NY", "zip": "12230-0001", "ntee": "A82Z", "ruling": "199601", "deductibility": "1", "assets": 5819650, "income": 1909730, "revenue": 1057192}, {"ein": "161429755", "name": "NEW YORK ARCHIVES CONFERENCE", "city": "APULIA STA", "state": "NY", "zip": "13020-0112", "ntee": "Z99Z", "ruling": "199501", "deductibility": "1", "assets": 0, "income": 0, "revenue": 0}, {"ein": "203565745", "name": "BLUES ARCHIVES PROJECT", "city": "TULLY", "state": "NY", "zip": "13159-0503", "ntee": "A68", "ruling": "201401", "deductibility": "1", "assets": 0, "income": 0, "revenue": 0}, {"ein": "300471547", "name": "HARLEM CULTURAL ARCHIVES", "city": "NEW YORK", "state": "NY", "zip": "10037-1602", "ntee": "A80", "ruling": "200810", "deductibility": "1", "assets": 0, "income": 0, "revenue": 0}, {"ein": "334619029", "name": "CHERRY GROVE ARCHIVES COLLECTION INC", "city": "CHERRY GROVE", "state": "NY", "zip": "11782-0000", "ntee": "A23", "ruling": "202506", "deductibility": "1", "assets": 0, "income": 0, "revenue": 0}, {"ein": "352725009", "name": "UJIMA PAN AFRICAN MEDIA ARCHIVES INC", "city": "NEW YORK", "state": "NY", "zip": "10027-6324", "ntee": "A80", "ruling": "202206", "deductibility": "1", "assets": 0, "income": 0, "revenue": 0}, {"ein": "463774882", "name": "SENECA FALLS ITS A WONDERFUL LIFE MUSEUM & ARCHIVES", "city": "SENECA FALLS", "state": "NY", "zip": "13148-0642", "ntee": "A99", "ruling": "201408", "deductibility": "1", "assets": 434179, "income": 236130, "revenue": 159755}, {"ein": "473682436", "name": "ALPHONSO JOHNSON ARCHIVES AND MUSEUM", "city": "ROME", "state": "NY", "zip": "13440-3309", "ntee": "A50", "ruling": "201511", "deductibility": "1", "assets": 0, "income": 0, "revenue": 0}, {"ein": "850795119", "name": "TATTER BLUE ARCHIVES INSTITUTE", "city": "BROOKLYN", "state": "NY", "zip": "11215-1087", "ntee": "A50", "ruling": "202103", "deductibility": "1", "assets": 267602, "income": 539401, "revenue": 539401}, {"ein": "872582361", "name": "PHAROS THE INTERNATIONAL PHOTO ARCHIVES ASSOCIATION", "city": "BROOKLYN", "state": "NY", "zip": "11215-2901", "ntee": "A20", "ruling": "202204", "deductibility": "1", "assets": 54676, "income": 343867, "revenue": 343867}, {"ein": "932873775", "name": "CHINA UNOFFICIAL ARCHIVES INC", "city": "NEW YORK", "state": "NY", "zip": "10024-1221", "ntee": "A80", "ruling": "202311", "deductibility": "1", "assets": 60379, "income": 121000, "revenue": 121000}, {"ein": "933329565", "name": "AMERICAN ARCHIVES OF COUNTERCULTURE INC", "city": "MERRICK", "state": "NY", "zip": "11566-2656", "ntee": "A12", "ruling": "202404", "deductibility": "1", "assets": 0, "income": 0, "revenue": 0}], "WILLIAMSON": [{"ein": "043679517", "name": "GREG WILLIAMSON MINISTRIES INC", "city": "HOPEWELL JCT", "state": "NY", "zip": "12533-6172", "ntee": "X20", "ruling": "202402", "deductibility": "1", "assets": 0, "income": 0, "revenue": 0}, {"ein": "133861293", "name": "REVEREND LINNETTE C WILLIAMSON MEMORIAL PARK ASSOCIATION", "city": "NEW YORK", "state": "NY", "zip": "10030-2236", "ntee": "C99Z", "ruling": "199701", "deductibility": "1", "assets": 1275048, "income": 40340, "revenue": 40340}, {"ein": "161023729", "name": "WILLIAMSON DRIFTRIDERS SNOWMOBILE CLUB INC", "city": "WILLIAMSON", "state": "NY", "zip": "14589-0761", "ntee": "B90", "ruling": "201002", "deductibility": "1", "assets": 163942, "income": 76659, "revenue": 55105}, {"ein": "161076741", "name": "WILLIAMSON-PULTNEYVILLE HISTORICAL SOCIETY", "city": "PULTNEYVILLE", "state": "NY", "zip": "14538-0092", "ntee": "A80Z", "ruling": "199109", "deductibility": "1", "assets": 0, "income": 0, "revenue": 0}, {"ein": "161190838", "name": "EAST WILLIAMSON FREE METHODIST CHURCH", "city": "WILLIAMSON", "state": "NY", "zip": "14589-9380", "ntee": "", "ruling": "195806", "deductibility": "1", "assets": 0, "income": 0, "revenue": 0}, {"ein": "161491746", "name": "WILLIAMSON FIRE COMPANY NO 1", "city": "WILLIAMSON", "state": "NY", "zip": "14589-0129", "ntee": "M24", "ruling": "200909", "deductibility": "1", "assets": 189372, "income": 76604, "revenue": 49835}, {"ein": "161536897", "name": "WILLIAMSON RECREATION COMMITTEE", "city": "WILLIAMSON", "state": "NY", "zip": "14589-0152", "ntee": "N31", "ruling": "201101", "deductibility": "1", "assets": 148611, "income": 78163, "revenue": 75717}, {"ein": "161548057", "name": "WILLIAMSON WILDCATS SOCCER CLUB INC", "city": "WILLIAMSON", "state": "NY", "zip": "14589-9501", "ntee": "O99", "ruling": "200906", "deductibility": "1", "assets": 0, "income": 0, "revenue": 0}, {"ein": "166093697", "name": "WILLIAMSON POST NO 394 THE AMERICAN LEGION WAYNE COUNTY DEPT OF NY", "city": "WILLIAMSON", "state": "NY", "zip": "14589-0158", "ntee": "W30", "ruling": "202408", "deductibility": "1", "assets": 329918, "income": 178104, "revenue": 129965}, {"ein": "237129588", "name": "WILLIAMSON VOLUNTEER AMBULANCE SERVICE INC", "city": "WILLIAMSON", "state": "NY", "zip": "14589-0099", "ntee": "", "ruling": "197109", "deductibility": "1", "assets": 141239, "income": 754767, "revenue": 713436}, {"ein": "384084063", "name": "FRIENDS OF THE WILLIAMSON PUBLIC LIBRARY INC", "city": "WILLIAMSON", "state": "NY", "zip": "14589-0000", "ntee": "B70", "ruling": "202005", "deductibility": "1", "assets": 0, "income": 0, "revenue": 0}, {"ein": "455374818", "name": "B ROBERT WILLIAMSON JR FOUNDATION", "city": "NEW YORK", "state": "NY", "zip": "10022-0000", "ntee": "T20", "ruling": "201209", "deductibility": "1", "assets": 2314784, "income": 2596927, "revenue": 0}, {"ein": "461986359", "name": "EAST WILLIAMSON FIRE DEPARTMENT INC", "city": "WILLIAMSON", "state": "NY", "zip": "14589-9310", "ntee": "M24", "ruling": "201309", "deductibility": "1", "assets": 86819, "income": 245286, "revenue": 239950}, {"ein": "814253350", "name": "WILLIAMSON BOOSTER CLUB INC", "city": "WILLIAMSON", "state": "NY", "zip": "14589-0177", "ntee": "O50", "ruling": "202002", "deductibility": "1", "assets": 0, "income": 0, "revenue": 0}, {"ein": "931978660", "name": "ALEC WILLIAMSON MEMORIAL FUND", "city": "WATERTOWN", "state": "NY", "zip": "13601-2308", "ntee": "B82", "ruling": "202311", "deductibility": "1", "assets": 0, "income": 0, "revenue": 0}], "WATERSHED": [{"ein": "043754615", "name": "CHAMPLAIN WATERSHED IMPROVEMENT COALITION OF NEW YORK INC", "city": "PLATTSBURGH", "state": "NY", "zip": "12901-0000", "ntee": "C32", "ruling": "200306", "deductibility": "1", "assets": 60893, "income": 28654, "revenue": 28654}, {"ein": "141798021", "name": "CATSKILL WATERSHED CORPORATION", "city": "ARKVILLE", "state": "NY", "zip": "12406-0000", "ntee": "C320", "ruling": "199803", "deductibility": "1", "assets": 183990303, "income": 25790393, "revenue": 25790393}, {"ein": "141830055", "name": "CATSKILL WATERSHED PARTNERSHIP MUSEUM", "city": "ARKVILLE", "state": "NY", "zip": "12406-1119", "ntee": "A50", "ruling": "200103", "deductibility": "1", "assets": 0, "income": 0, "revenue": 0}, {"ein": "161071349", "name": "CANANDAIGUA LAKE WATERSHED ASSOCIATION", "city": "CANANDAIGUA", "state": "NY", "zip": "14424-2037", "ntee": "", "ruling": "197110", "deductibility": "1", "assets": 476270, "income": 273877, "revenue": 266346}, {"ein": "161389010", "name": "CHAUTAUQUA WATERSHED CONSERVANCY INC", "city": "LAKEWOOD", "state": "NY", "zip": "14750-0045", "ntee": "C320", "ruling": "199002", "deductibility": "1", "assets": 4133216, "income": 652906, "revenue": 652906}, {"ein": "161447322", "name": "WATERSHED AGRICULTURAL COUNCIL OF THE NEW YORK CITY WATERSHEDS INC", "city": "WALTON", "state": "NY", "zip": "13856-2159", "ntee": "B99Z", "ruling": "199404", "deductibility": "1", "assets": 12294288, "income": 17300361, "revenue": 17300361}, {"ein": "161556541", "name": "CAYUGA LAKE WATERSHED NETWORK", "city": "AUBURN", "state": "NY", "zip": "13021-0000", "ntee": "C013", "ruling": "199909", "deductibility": "1", "assets": 196349, "income": 231768, "revenue": 206879}, {"ein": "203856978", "name": "FINDLEY LAKE WATERSHED FOUNDATION", "city": "FINDLEY LAKE", "state": "NY", "zip": "14736-0000", "ntee": "C30", "ruling": "200604", "deductibility": "1", "assets": 237528, "income": 146817, "revenue": 146034}, {"ein": "222921543", "name": "OWASCO WATERSHED LAKE ASSOC INC", "city": "AUBURN", "state": "NY", "zip": "13021-3650", "ntee": "", "ruling": "199403", "deductibility": "1", "assets": 158765, "income": 57468, "revenue": 57468}, {"ein": "223130062", "name": "FAIRVIEW LAKE & WATERSHED CONSERVATION FOUNDATION INC", "city": "SIDNEY CENTER", "state": "NY", "zip": "13839-2105", "ntee": "", "ruling": "199203", "deductibility": "1", "assets": 0, "income": 0, "revenue": 0}, {"ein": "261697078", "name": "WEST CANADA WATERSHED ALLIANCE INC", "city": "BARNEVELD", "state": "NY", "zip": "13304-0272", "ntee": "C32", "ruling": "201108", "deductibility": "1", "assets": 0, "income": 0, "revenue": 0}, {"ein": "264694337", "name": "KIRK LAKE WATERSHED ASSOCIATION INC", "city": "MAHOPAC FALLS", "state": "NY", "zip": "10542-0191", "ntee": "C32", "ruling": "201108", "deductibility": "1", "assets": 29168, "income": 18423, "revenue": 18423}, {"ein": "276951127", "name": "WATERSHED AGRICULTURAL CONSERVATION EASEMENT STEWARDSHIP ENDOWMENT FU", "city": "WALTON", "state": "NY", "zip": "13856-2159", "ntee": "C111", "ruling": "201202", "deductibility": "1", "assets": 7815291, "income": 1717562, "revenue": 868285}, {"ein": "331070623", "name": "WATERSHED ASSOCIATES INC", "city": "STATEN ISLAND", "state": "NY", "zip": "10302-1440", "ntee": "P192", "ruling": "200402", "deductibility": "2", "assets": 2350425, "income": 58715, "revenue": 58715}, {"ein": "364624060", "name": "THE WATERSHED CENTER INC", "city": "MILLERTON", "state": "NY", "zip": "12546-5026", "ntee": "S99", "ruling": "200807", "deductibility": "1", "assets": 1209558, "income": 563834, "revenue": 563834}, {"ein": "371568605", "name": "MIRROR LAKE WATERSHED ACCOCIATION", "city": "LAKE PLACID", "state": "NY", "zip": "12946-5300", "ntee": "C32", "ruling": "200904", "deductibility": "1", "assets": 0, "income": 0, "revenue": 0}, {"ein": "452445614", "name": "POCANTICO RIVER WATERSHED CONSERVANCY INC", "city": "WHITE PLAINS", "state": "NY", "zip": "10603-3710", "ntee": "C32", "ruling": "201204", "deductibility": "1", "assets": 0, "income": 0, "revenue": 0}, {"ein": "452480866", "name": "FINGER LAKES REGIONAL WATERSHED ALLIANCE INC", "city": "MARIETTA", "state": "NY", "zip": "13110-0000", "ntee": "C32", "ruling": "201112", "deductibility": "1", "assets": 0, "income": 0, "revenue": 0}, {"ein": "452772407", "name": "HUDSON RIVER WATERSHED ALLIANCE INC", "city": "KINGSTON", "state": "NY", "zip": "12402-1734", "ntee": "C32", "ruling": "201201", "deductibility": "1", "assets": 57776, "income": 163892, "revenue": 163892}, {"ein": "453809317", "name": "EAST OF HUDSON WATERSHED CORPORATION", "city": "PATTERSON", "state": "NY", "zip": "12563-2813", "ntee": "C30", "ruling": "201501", "deductibility": "1", "assets": 13852639, "income": 3126098, "revenue": 3126098}, {"ein": "460813136", "name": "ST LAWRENCE RIVER WATERSHED PROJECT INC", "city": "MALONE", "state": "NY", "zip": "12953-9445", "ntee": "C32", "ruling": "201408", "deductibility": "1", "assets": 0, "income": 0, "revenue": 0}, {"ein": "463677090", "name": "LOON LAKE WATERSHED IMPROVEMENT ALLIANCE INC", "city": "WAYLAND", "state": "NY", "zip": "14572-0372", "ntee": "Z99", "ruling": "201407", "deductibility": "1", "assets": 0, "income": 0, "revenue": 0}, {"ein": "471180481", "name": "SPARKILL CREEK WATERSHED ALLIANCE INC", "city": "SPARKILL", "state": "NY", "zip": "10976-0221", "ntee": "C99", "ruling": "201511", "deductibility": "1", "assets": 0, "income": 0, "revenue": 0}, {"ein": "471643734", "name": "CHAUTAUQUA LAKE AND WATERSHED MANAGEMENT ALLIANCE INC", "city": "JAMESTOWN", "state": "NY", "zip": "14701-4972", "ntee": "C32", "ruling": "201501", "deductibility": "1", "assets": 1096559, "income": 1849837, "revenue": 1849837}, {"ein": "800329603", "name": "FRIENDS OF THE CHEMUNG RIVER WATERSHED", "city": "ELMIRA", "state": "NY", "zip": "14901-2910", "ntee": "C32", "ruling": "200903", "deductibility": "1", "assets": 270083, "income": 143952, "revenue": 143952}, {"ein": "800721962", "name": "OWASCO LAKE WATERSHED MANAGEMENT COUNCIL INC", "city": "AUBURN", "state": "NY", "zip": "13021-5669", "ntee": "C32", "ruling": "201612", "deductibility": "1", "assets": 410317, "income": 323160, "revenue": 323160}, {"ein": "812938005", "name": "WATERSHED COLLABORATIVE INC", "city": "BROOKLYN", "state": "NY", "zip": "11205-3835", "ntee": "B90", "ruling": "201702", "deductibility": "1", "assets": 1589, "income": 91776, "revenue": 91776}, {"ein": "832393115", "name": "ROE JAN WATERSHED COMMUNITY INC", "city": "GERMANTOWN", "state": "NY", "zip": "12526-5106", "ntee": "C32", "ruling": "201909", "deductibility": "1", "assets": 0, "income": 0, "revenue": 0}, {"ein": "833258770", "name": "UPPER HUDSON RIVER WATERSHED COALITION INC", "city": "BALLSTON SPA", "state": "NY", "zip": "12020-1982", "ntee": "C30", "ruling": "201904", "deductibility": "1", "assets": 0, "income": 0, "revenue": 0}, {"ein": "842763710", "name": "WALLKILL RIVER WATERSHED ALLIANCE", "city": "NEW PALTZ", "state": "NY", "zip": "12561-0428", "ntee": "C01", "ruling": "201912", "deductibility": "1", "assets": 0, "income": 0, "revenue": 0}, {"ein": "842794083", "name": "CANANDAIGUA LAKE WATERSHED COUNCIL", "city": "CANANDAIGUA", "state": "NY", "zip": "14424-8301", "ntee": "C32", "ruling": "202106", "deductibility": "1", "assets": 0, "income": 0, "revenue": 0}], "BRESLOV": [{"ein": "043781045", "name": "ANSHE BRESLOV D MIDWOOD", "city": "BROOKLYN", "state": "NY", "zip": "11219-3026", "ntee": "X30", "ruling": "200402", "deductibility": "1", "assets": 0, "income": 0, "revenue": 0}, {"ein": "113443777", "name": "BRESLOV INTERNATIONAL INC", "city": "LIBERTY", "state": "NY", "zip": "12754-3112", "ntee": "X30", "ruling": "200107", "deductibility": "1", "assets": 0, "income": 0, "revenue": 0}, {"ein": "133073196", "name": "CONGREGATION ANSHEI BRESLOV INC", "city": "BROOKLYN", "state": "NY", "zip": "11211-7724", "ntee": "", "ruling": "198106", "deductibility": "1", "assets": 0, "income": 0, "revenue": 0}, {"ein": "237090200", "name": "CONG DCHACIDEI BRESLOV", "city": "BROOKLYN", "state": "NY", "zip": "11204-1806", "ntee": "", "ruling": "197102", "deductibility": "1", "assets": 0, "income": 0, "revenue": 0}, {"ein": "463372496", "name": "CONGREGATION HEICHAL HAKODESH BRESLOV MONSEY INC", "city": "MONSEY", "state": "NY", "zip": "10952-2819", "ntee": "X99", "ruling": "201409", "deductibility": "1", "assets": 0, "income": 0, "revenue": 0}, {"ein": "810788676", "name": "CONGREGATION BRESLOV INC", "city": "BROOKLYN", "state": "NY", "zip": "11211-7409", "ntee": "X30", "ruling": "201603", "deductibility": "1", "assets": 0, "income": 0, "revenue": 0}, {"ein": "844021330", "name": "CONG BRESLOV 43 INC", "city": "BROOKLYN", "state": "NY", "zip": "11219-1442", "ntee": "X30", "ruling": "202004", "deductibility": "1", "assets": 0, "income": 0, "revenue": 0}, {"ein": "920923716", "name": "BINYAN BRESLOV", "city": "POMONA", "state": "NY", "zip": "10970-2856", "ntee": "X30", "ruling": "202404", "deductibility": "1", "assets": 0, "income": 0, "revenue": 0}, {"ein": "920949864", "name": "CONGREGATION CHASIDEI BRESLOV", "city": "MONROE", "state": "NY", "zip": "10950-6430", "ntee": "X30", "ruling": "202402", "deductibility": "1", "assets": 0, "income": 0, "revenue": 0}, {"ein": "933237878", "name": "BRESLOV OF SPRING VALLEY INC", "city": "SPRING VALLEY", "state": "NY", "zip": "10977-4744", "ntee": "X30", "ruling": "202404", "deductibility": "1", "assets": 0, "income": 0, "revenue": 0}], "STOLIN": [{"ein": "050545482", "name": "TIFERES YOCHONON OF KARLIN STOLIN", "city": "BROOKLYN", "state": "NY", "zip": "11204-1545", "ntee": "X30", "ruling": "200403", "deductibility": "1", "assets": 0, "income": 0, "revenue": 0}, {"ein": "111752027", "name": "YESHIVOS KARLIN STOLIN BETH ARON VEISRAEL RABBINICAL INSTITUTE INC", "city": "BROOKLYN", "state": "NY", "zip": "11204-1545", "ntee": "", "ruling": "195308", "deductibility": "1", "assets": 0, "income": 0, "revenue": 0}, {"ein": "112713176", "name": "BAIS BROCHO DKARLIN STOLIN", "city": "BROOKLYN", "state": "NY", "zip": "11219-1853", "ntee": "", "ruling": "198505", "deductibility": "1", "assets": 0, "income": 0, "revenue": 0}, {"ein": "113244089", "name": "YESHIVA KARLIN STOLIN", "city": "BROOKLYN", "state": "NY", "zip": "11204-1545", "ntee": "X30", "ruling": "200005", "deductibility": "1", "assets": 0, "income": 0, "revenue": 0}, {"ein": "133018807", "name": "UNITED INSTITUTIONS OF KARLIN STOLIN JERUSALEM INC", "city": "BROOKLYN", "state": "NY", "zip": "11219-1501", "ntee": "Q123", "ruling": "198004", "deductibility": "1", "assets": 74256, "income": 471360, "revenue": 471360}, {"ein": "133847986", "name": "CONGREGATION YESHIVA KARLIN STOLIN OF MONSEY", "city": "MONSEY", "state": "NY", "zip": "10952-3608", "ntee": "X20Z", "ruling": "199510", "deductibility": "1", "assets": 0, "income": 0, "revenue": 0}, {"ein": "134116566", "name": "CONGREGATION BETH ARON DKARLIN STOLIN OF MONSEY", "city": "MONSEY", "state": "NY", "zip": "10952-3602", "ntee": "X30", "ruling": "200006", "deductibility": "1", "assets": 0, "income": 0, "revenue": 0}, {"ein": "471143490", "name": "CONGREGATION BETH ARON VISRAEL KARLIN STOLIN INC OF BORO PARK", "city": "BROOKLYN", "state": "NY", "zip": "11204-1105", "ntee": "X30", "ruling": "201608", "deductibility": "1", "assets": 0, "income": 0, "revenue": 0}], "SHREE": [{"ein": "050619253", "name": "SHREE RAMSHARNAM ASHRAM INC", "city": "NEW HYDE PARK", "state": "NY", "zip": "11040-3406", "ntee": "X70", "ruling": "200608", "deductibility": "1", "assets": 0, "income": 0, "revenue": 0}, {"ein": "112804787", "name": "SHREE SWAMINARAYAN MISSION", "city": "MERRICK", "state": "NY", "zip": "11566-2234", "ntee": "", "ruling": "198609", "deductibility": "1", "assets": 0, "income": 0, "revenue": 0}, {"ein": "113411434", "name": "SHREE SWAMINARAYAN SATSANG MANDAL", "city": "BELLEROSE", "state": "NY", "zip": "11426-1618", "ntee": "X99", "ruling": "199907", "deductibility": "1", "assets": 0, "income": 0, "revenue": 0}, {"ein": "113551237", "name": "SHREE MAHA KALI TEMPLE", "city": "JAMAICA", "state": "NY", "zip": "11433-3617", "ntee": "X030", "ruling": "200204", "deductibility": "1", "assets": 0, "income": 0, "revenue": 0}, {"ein": "262283400", "name": "BHAGWAN SHREE LAKSMI NARAYAN DHAM INC", "city": "ELMHURST", "state": "NY", "zip": "11373-1153", "ntee": "X70", "ruling": "200906", "deductibility": "1", "assets": 0, "income": 0, "revenue": 0}, {"ein": "461962505", "name": "SHREE SUNDAR GOPAL MANDIR INC", "city": "OZONE PARK", "state": "NY", "zip": "11416-2633", "ntee": "X70", "ruling": "201407", "deductibility": "1", "assets": 0, "income": 0, "revenue": 0}, {"ein": "465480001", "name": "SHREE SHREE RADHA MADHAB MANDIR", "city": "BROOKLYN", "state": "NY", "zip": "11218-4208", "ntee": "X40", "ruling": "201703", "deductibility": "1", "assets": 59589, "income": 45565, "revenue": 45565}, {"ein": "841987755", "name": "SHREE DHARMBHAKTI MISSION", "city": "WAPPINGERS FL", "state": "NY", "zip": "12590-7017", "ntee": "P30", "ruling": "201907", "deductibility": "1", "assets": 0, "income": 0, "revenue": 0}, {"ein": "873948266", "name": "THE SHREE FOUNDATION INC", "city": "GLENDALE", "state": "NY", "zip": "11385-7852", "ntee": "M40", "ruling": "202205", "deductibility": "1", "assets": 0, "income": 0, "revenue": 0}], "MIFAL": [{"ein": "061696130", "name": "MIFAL SHAVAS ACHIM", "city": "BROOKLYN", "state": "NY", "zip": "11219-3011", "ntee": "X30", "ruling": "200309", "deductibility": "1", "assets": 69700, "income": 100000, "revenue": 100000}, {"ein": "110339113", "name": "MIFAL HAMEITIV", "city": "BROOKLYN", "state": "NY", "zip": "11211-6728", "ntee": "", "ruling": "199103", "deductibility": "1", "assets": 0, "income": 0, "revenue": 0}, {"ein": "111966729", "name": "MIFAL CHESED INC", "city": "BROOKLYN", "state": "NY", "zip": "11204-1313", "ntee": "", "ruling": "198908", "deductibility": "1", "assets": 0, "income": 0, "revenue": 0}, {"ein": "112506776", "name": "MIFAL EZRA V CHESED", "city": "BROOKLYN", "state": "NY", "zip": "11219-1609", "ntee": "", "ruling": "198002", "deductibility": "1", "assets": 0, "income": 0, "revenue": 0}, {"ein": "112536960", "name": "MIFAL MATAN BASESER INC", "city": "BKLYN", "state": "NY", "zip": "11219-2622", "ntee": "", "ruling": "198009", "deductibility": "1", "assets": 0, "income": 0, "revenue": 0}, {"ein": "112676639", "name": "MIFAL GEMILAS CHASODIM VHACHNOSAS KALLA", "city": "BROOKLYN", "state": "NY", "zip": "11218-4603", "ntee": "", "ruling": "198404", "deductibility": "1", "assets": 0, "income": 0, "revenue": 0}, {"ein": "112812025", "name": "MIFAL LEMAAN YERUSHALAYIM", "city": "BROOKLYN", "state": "NY", "zip": "11219-4503", "ntee": "", "ruling": "198608", "deductibility": "1", "assets": 0, "income": 0, "revenue": 0}, {"ein": "112812352", "name": "CONGREGATION BAIS MIFAL YOSEF C/O ZEV YOSEF", "city": "BROOKLYN", "state": "NY", "zip": "11219-1604", "ntee": "", "ruling": "198609", "deductibility": "1", "assets": 0, "income": 0, "revenue": 0}, {"ein": "112844762", "name": "MIFAL TZEDAKAH VCHESED BIRCHAS AVROHOM", "city": "BROOKLYN", "state": "NY", "zip": "11210-5129", "ntee": "", "ruling": "198706", "deductibility": "1", "assets": 0, "income": 0, "revenue": 0}, {"ein": "113124434", "name": "MIFAL KEREN YESOMIM", "city": "BROOKLYN", "state": "NY", "zip": "11210-3714", "ntee": "", "ruling": "199301", "deductibility": "1", "assets": 0, "income": 0, "revenue": 0}, {"ein": "113161020", "name": "MIFAL HADAF", "city": "BROOKLYN", "state": "NY", "zip": "11210-3714", "ntee": "", "ruling": "199308", "deductibility": "1", "assets": 0, "income": 0, "revenue": 0}, {"ein": "113600850", "name": "MIFAL YISMACH LEV MEVAKSHEI HASHEM", "city": "BROOKLYN", "state": "NY", "zip": "11205-0226", "ntee": "X30", "ruling": "200203", "deductibility": "1", "assets": 0, "income": 0, "revenue": 0}, {"ein": "113602332", "name": "MIFAL HACHESED SHEFA CHAYIM VRACHMIM", "city": "BROOKLYN", "state": "NY", "zip": "11205-0226", "ntee": "X30", "ruling": "200109", "deductibility": "1", "assets": 0, "income": 0, "revenue": 0}, {"ein": "116332288", "name": "MIFAL HATRUMA", "city": "BROOKLYN", "state": "NY", "zip": "11230-5811", "ntee": "", "ruling": "198804", "deductibility": "1", "assets": 2753, "income": 130518, "revenue": 130518}, {"ein": "205610538", "name": "MIFAL TOV VECHESED", "city": "SPRING VALLEY", "state": "NY", "zip": "10977-3843", "ntee": "X30", "ruling": "200801", "deductibility": "1", "assets": 0, "income": 0, "revenue": 0}, {"ein": "237323028", "name": "MIFAL ZICHRON LEDAVID", "city": "BROOKLYN", "state": "NY", "zip": "11219-3964", "ntee": "", "ruling": "197311", "deductibility": "1", "assets": 0, "income": 0, "revenue": 0}, {"ein": "271291791", "name": "MIFAL CHAVRUSA", "city": "SPRING VALLEY", "state": "NY", "zip": "10977-8954", "ntee": "B90", "ruling": "201008", "deductibility": "1", "assets": 0, "income": 0, "revenue": 0}, {"ein": "331561879", "name": "MIFAL YAZOIRY INC", "city": "BLOOMINGBURG", "state": "NY", "zip": "12721-0214", "ntee": "X30", "ruling": "202506", "deductibility": "1", "assets": 0, "income": 0, "revenue": 0}, {"ein": "352192137", "name": "MIFAL EZRA ZICHRON YEHIDE", "city": "BROOKLYN", "state": "NY", "zip": "11205-1673", "ntee": "X30", "ruling": "200309", "deductibility": "1", "assets": 0, "income": 0, "revenue": 0}, {"ein": "462985601", "name": "MIFAL CHESED FOUNDATION INC", "city": "BROOKLYN", "state": "NY", "zip": "11218-4408", "ntee": "T90", "ruling": "201408", "deductibility": "1", "assets": 59203, "income": 305362, "revenue": 305362}, {"ein": "510202058", "name": "MIFAL TZEDUKA VCHESED", "city": "BROOKLYN", "state": "NY", "zip": "11219-2622", "ntee": "", "ruling": "197610", "deductibility": "1", "assets": 0, "income": 0, "revenue": 0}, {"ein": "814447249", "name": "MIFAL MAYUNES INC", "city": "SPRING VALLEY", "state": "NY", "zip": "10977-1913", "ntee": "X99", "ruling": "201708", "deductibility": "1", "assets": 1380522, "income": 1956028, "revenue": 1956028}, {"ein": "823911931", "name": "MIFAL HAFATZA INC", "city": "BROOKLYN", "state": "NY", "zip": "11219-2268", "ntee": "B80", "ruling": "201810", "deductibility": "1", "assets": 96582, "income": 302143, "revenue": 302143}, {"ein": "884095113", "name": "MIFAL TZEDAKA VCHESED CHASDEI AHARON", "city": "BROOKLYN", "state": "NY", "zip": "11211-8919", "ntee": "T30", "ruling": "202309", "deductibility": "1", "assets": 57038, "income": 1705075, "revenue": 1705075}, {"ein": "920891158", "name": "MIFAL BEER HACHAIM INC", "city": "SPRING VALLEY", "state": "NY", "zip": "10977-1920", "ntee": "P20", "ruling": "202212", "deductibility": "1", "assets": 99951, "income": 1633628, "revenue": 1633628}, {"ein": "923273227", "name": "MIFAL KOL HATORAH KULAH INC", "city": "BROOKLYN", "state": "NY", "zip": "11210-2810", "ntee": "X30", "ruling": "202310", "deductibility": "1", "assets": 0, "income": 0, "revenue": 0}, {"ein": "932967775", "name": "MIFAL KAV INC", "city": "MONSEY", "state": "NY", "zip": "10952-7207", "ntee": "X30", "ruling": "202309", "deductibility": "1", "assets": 0, "income": 0, "revenue": 0}, {"ein": "995129108", "name": "MIFAL CHAYEI OLAM INC", "city": "SPRING VALLEY", "state": "NY", "zip": "10977-2417", "ntee": "P20", "ruling": "202501", "deductibility": "1", "assets": 0, "income": 0, "revenue": 0}], "ARMENIAN": [{"ein": "111733759", "name": "NEW YORK ARMENIAN HOME INC", "city": "FOREST HILLS", "state": "NY", "zip": "11375-9098", "ntee": "P750", "ruling": "195003", "deductibility": "1", "assets": 601970, "income": 246081, "revenue": 0}, {"ein": "111819339", "name": "ARMENIAN CHURCH OF THE HOLY MARTYRS", "city": "BAYSIDE", "state": "NY", "zip": "11364-1721", "ntee": "X99Z", "ruling": "194909", "deductibility": "1", "assets": 0, "income": 0, "revenue": 0}, {"ein": "112492685", "name": "HOLY MARTYRS ARMENIAN DAY SCHOOL", "city": "BAYSIDE", "state": "NY", "zip": "11364-1721", "ntee": "", "ruling": "198105", "deductibility": "1", "assets": 1558176, "income": 891932, "revenue": 775770}, {"ein": "112573664", "name": "ST SARKIS ARMENIAN APOSTOLIC CHURCH OF LONG ISLAND INC", "city": "DOUGLASTON", "state": "NY", "zip": "11363-1534", "ntee": "X21", "ruling": "200311", "deductibility": "1", "assets": 0, "income": 0, "revenue": 0}, {"ein": "112775942", "name": "THE ARMENIAN CENTER INC", "city": "NEW YORK", "state": "NY", "zip": "10163-4042", "ntee": "A230", "ruling": "198605", "deductibility": "1", "assets": 883027, "income": 49758, "revenue": 0}, {"ein": "131628202", "name": "DIOCESE OF THE ARMENIAN CHURCH OF AMERICA", "city": "NEW YORK", "state": "NY", "zip": "10016-4806", "ntee": "", "ruling": "194909", "deductibility": "1", "assets": 0, "income": 0, "revenue": 0}, {"ein": "132552354", "name": "THE ARMENIAN APOSTOLIC CHURCH OF AMERICA INC", "city": "NEW YORK", "state": "NY", "zip": "10016-0914", "ntee": "X21", "ruling": "200311", "deductibility": "1", "assets": 0, "income": 0, "revenue": 0}, {"ein": "133706646", "name": "FUND FOR ARMENIAN RELIEF INC", "city": "NEW YORK", "state": "NY", "zip": "10016-4806", "ntee": "Q300", "ruling": "199308", "deductibility": "1", "assets": 27945385, "income": 16806871, "revenue": 8556205}, {"ein": "133877381", "name": "ARMENIAN CENTER FOR CONTEMPORARY EXPERIMENTAL ART INC", "city": "NEW YORK", "state": "NY", "zip": "10007-0000", "ntee": "A600", "ruling": "199608", "deductibility": "1", "assets": 1, "income": 0, "revenue": 0}, {"ein": "134079849", "name": "ARMENIAN JEWELERS ASSOCIATION EAST COAST U S A INC", "city": "NEW YORK", "state": "NY", "zip": "10036-1805", "ntee": "S41", "ruling": "200409", "deductibility": "2", "assets": 11831, "income": 3250, "revenue": 3250}, {"ein": "135600421", "name": "ARMENIAN GENERAL BENEVOLENT UNION", "city": "NEW YORK", "state": "NY", "zip": "10022-1112", "ntee": "", "ruling": "195911", "deductibility": "1", "assets": 310428110, "income": 254624612, "revenue": 38112370}, {"ein": "136056738", "name": "ARMENIAN GENERAL BENEVOLENT UNION", "city": "NEW YORK", "state": "NY", "zip": "10022-1112", "ntee": "", "ruling": "199105", "deductibility": "1", "assets": 0, "income": 0, "revenue": 0}, {"ein": "136056779", "name": "ARMENIAN GENERAL BENEVOLENT UNION", "city": "NEW YORK", "state": "NY", "zip": "10022-1112", "ntee": "", "ruling": "199105", "deductibility": "1", "assets": 0, "income": 0, "revenue": 0}, {"ein": "136056780", "name": "ARMENIAN GENRERAL BENEVOLENT UNION", "city": "NEW YORK", "state": "NY", "zip": "10022-1112", "ntee": "", "ruling": "199105", "deductibility": "1", "assets": 0, "income": 0, "revenue": 0}, {"ein": "136056781", "name": "ARMENIAN GENREAL BENEVOLENT UNION", "city": "NEW YORK", "state": "NY", "zip": "10022-1112", "ntee": "", "ruling": "199105", "deductibility": "1", "assets": 0, "income": 0, "revenue": 0}, {"ein": "136125023", "name": "UNITED ARMENIAN CHARITIES INC", "city": "NEW YORK", "state": "NY", "zip": "10013-4510", "ntee": "", "ruling": "195201", "deductibility": "1", "assets": 28579997, "income": 8399232, "revenue": 0}, {"ein": "136177716", "name": "CONSTANTINOPLE ARMENIAN RELIEF SOCIETY INC", "city": "NEW YORK", "state": "NY", "zip": "10108-0769", "ntee": "Q330", "ruling": "195707", "deductibility": "1", "assets": 1002513, "income": 207681, "revenue": 185797}, {"ein": "141644272", "name": "ST PETER ARMENIAN APOSTOLIC CHURCH", "city": "WATERVLIET", "state": "NY", "zip": "12189-1643", "ntee": "", "ruling": "194909", "deductibility": "1", "assets": 0, "income": 0, "revenue": 0}, {"ein": "146026179", "name": "UNITED ARMENIAN CALVARY CONGREGATIONAL CHURCH", "city": "TROY", "state": "NY", "zip": "12180-2916", "ntee": "", "ruling": "197804", "deductibility": "1", "assets": 0, "income": 0, "revenue": 0}, {"ein": "161098086", "name": "ST JOHN THE BAPTIST ARMENIAN APOSTOLIC CHURCH", "city": "JAMESVILLE", "state": "NY", "zip": "13078-9727", "ntee": "X21", "ruling": "200311", "deductibility": "1", "assets": 0, "income": 0, "revenue": 0}, {"ein": "161137127", "name": "ST SARKIS ARMENIAN APOSTOLIC CHURCH", "city": "NIAGARA FALLS", "state": "NY", "zip": "14303-1358", "ntee": "", "ruling": "194909", "deductibility": "1", "assets": 0, "income": 0, "revenue": 0}, {"ein": "202821426", "name": "ARMENIAN CHURCH ENDOWMENT FUND INC", "city": "NEW YORK", "state": "NY", "zip": "10016-4806", "ntee": "X90", "ruling": "200508", "deductibility": "1", "assets": 146847942, "income": 31177756, "revenue": 4363783}, {"ein": "223475076", "name": "ST PAUL ARMENIAN CHURCH", "city": "SYRACUSE", "state": "NY", "zip": "13204-2202", "ntee": "", "ruling": "194909", "deductibility": "1", "assets": 0, "income": 0, "revenue": 0}, {"ein": "223475079", "name": "ST GREGORY THE ILLUMINATOR ARMENIAN CHURCH OF BINGHAMPTON NEW YORK", "city": "BINGHAMPTON", "state": "NY", "zip": "13903-3232", "ntee": "", "ruling": "194909", "deductibility": "0", "assets": 0, "income": 0, "revenue": 0}, {"ein": "237168859", "name": "IRANIAN-ARMENIAN SOCIETY INC", "city": "LITTLE NECK", "state": "NY", "zip": "11363-1429", "ntee": "A230", "ruling": "195606", "deductibility": "1", "assets": 515374, "income": 120852, "revenue": 120852}, {"ein": "237346244", "name": "ST GREGORY THE ENLIGHTENER ARMENIAN CHURCH", "city": "WHITE PLAINS", "state": "NY", "zip": "10605-5102", "ntee": "", "ruling": "194909", "deductibility": "1", "assets": 0, "income": 0, "revenue": 0}, {"ein": "462486890", "name": "HAROLD AND JOSEPHINE GULAMERIAN ARMENIAN ORPHAN FUND", "city": "CENTERPORT", "state": "NY", "zip": "11721-1228", "ntee": "T22", "ruling": "201311", "deductibility": "1", "assets": 4391092, "income": 1569817, "revenue": 0}, {"ein": "471380711", "name": "ARMENIAN EVANGELICAL CHURCH OF BROOKLYN", "city": "BROOKLYN", "state": "NY", "zip": "11235-5659", "ntee": "X20", "ruling": "201501", "deductibility": "1", "assets": 0, "income": 0, "revenue": 0}, {"ein": "510198454", "name": "ST NERSESS ARMENIAN SEMINARY INC", "city": "ARMONK", "state": "NY", "zip": "10504-2533", "ntee": "", "ruling": "197609", "deductibility": "1", "assets": 21472243, "income": 2837687, "revenue": 2720936}, {"ein": "830666955", "name": "ARMENIAN HOME OF NEW YORK INC", "city": "FOREST HILLS", "state": "NY", "zip": "11375-9098", "ntee": "E91", "ruling": "201911", "deductibility": "1", "assets": 13828231, "income": 2181559, "revenue": 448031}, {"ein": "830680158", "name": "FOUNDATION OF THE NEW YORK ARMENIAN HOME INC", "city": "FOREST HILLS", "state": "NY", "zip": "11375-9098", "ntee": "T31", "ruling": "201911", "deductibility": "1", "assets": 37357731, "income": 4963971, "revenue": 1530970}, {"ein": "834123496", "name": "ARMENIAN CULTURAL ASSOCIATION OF NEW YORK INC", "city": "BAYSIDE", "state": "NY", "zip": "11361-2409", "ntee": "A23", "ruling": "201911", "deductibility": "1", "assets": 10675064, "income": 221418, "revenue": 221418}, {"ein": "854242282", "name": "WNY ARMENIAN COMMUNITY LTD", "city": "CLARENCE", "state": "NY", "zip": "14031-1705", "ntee": "A23", "ruling": "202408", "deductibility": "1", "assets": 6894, "income": 9085, "revenue": 9085}, {"ein": "862735646", "name": "INTERNATIONAL ARMENIAN LITERARY ALLIANCE INC", "city": "NEW YORK", "state": "NY", "zip": "10036-7703", "ntee": "A70", "ruling": "202108", "deductibility": "1", "assets": 0, "income": 0, "revenue": 0}, {"ein": "900171925", "name": "DIOCESE OF ST VARTAN ARMENIAN CHURCH", "city": "NEW YORK", "state": "NY", "zip": "10016-4806", "ntee": "", "ruling": "194909", "deductibility": "0", "assets": 0, "income": 0, "revenue": 0}, {"ein": "900181840", "name": "ST HAGOP ARMENIAN APOSTOLIC CHURCH", "city": "NIAGARA FALLS", "state": "NY", "zip": "14303-1358", "ntee": "X21", "ruling": "200311", "deductibility": "1", "assets": 0, "income": 0, "revenue": 0}, {"ein": "911865902", "name": "ARMENIAN CHURCH OF ROCHESTER", "city": "FAIRPORT", "state": "NY", "zip": "14450-1138", "ntee": "", "ruling": "194909", "deductibility": "1", "assets": 0, "income": 0, "revenue": 0}, {"ein": "912138597", "name": "ARMENIAN GENERAL BENVOLENT UNION", "city": "NEW YORK", "state": "NY", "zip": "10022-1112", "ntee": "A230", "ruling": "195911", "deductibility": "1", "assets": 13522659, "income": 4530844, "revenue": 576384}, {"ein": "921142087", "name": "LITTLE BIRD ARMENIAN DEVELOPMENT INC", "city": "NEW YORK", "state": "NY", "zip": "10002-1478", "ntee": "S12", "ruling": "202212", "deductibility": "1", "assets": 93501, "income": 60988, "revenue": 60988}], "RIVKA": [{"ein": "112163504", "name": "ASSOCIATED BETH RIVKA SCHOOL FOR GIRLS INC", "city": "BROOKLYN", "state": "NY", "zip": "11225-0000", "ntee": "", "ruling": "196909", "deductibility": "1", "assets": 28212138, "income": 29651601, "revenue": 29651601}, {"ein": "112500467", "name": "KEREN SHABSE V RIVKA WEINSTEIN INC", "city": "BROOKLYN", "state": "NY", "zip": "11235-4115", "ntee": "", "ruling": "197908", "deductibility": "1", "assets": 0, "income": 0, "revenue": 0}, {"ein": "113332844", "name": "RIVKA AND AARON M SCHREIBER FAMILY FOUNDATION INC", "city": "LAWRENCE", "state": "NY", "zip": "11559-1504", "ntee": "T20", "ruling": "201611", "deductibility": "1", "assets": 292915, "income": 8264, "revenue": 0}, {"ein": "113453728", "name": "CHASDEI BRACHA RIVKA INC", "city": "BROOKLYN", "state": "NY", "zip": "11229-2439", "ntee": "P40", "ruling": "202109", "deductibility": "1", "assets": 0, "income": 0, "revenue": 0}, {"ein": "226726579", "name": "BENJAMIN AND RIVKA GELBTUCH CHARITABLE TRUST", "city": "BRONX", "state": "NY", "zip": "10471-3611", "ntee": "T20Z", "ruling": "199802", "deductibility": "1", "assets": 504586, "income": 50745, "revenue": 0}, {"ein": "273994829", "name": "KHAL BEIS RIVKA", "city": "BROOKLYN", "state": "NY", "zip": "11213-4335", "ntee": "X30", "ruling": "201302", "deductibility": "1", "assets": 0, "income": 0, "revenue": 0}, {"ein": "800638219", "name": "CAMP RIVKA", "city": "SPRING VALLEY", "state": "NY", "zip": "10977-2130", "ntee": "N20", "ruling": "201011", "deductibility": "1", "assets": 0, "income": 0, "revenue": 0}, {"ein": "825240524", "name": "BNEI BINYAMIN & RIVKA KALATY CHARITABLE FOUNDATION INC", "city": "HICKSVILLE", "state": "NY", "zip": "11801-3640", "ntee": "T22", "ruling": "202001", "deductibility": "1", "assets": 3401, "income": 261000, "revenue": 0}, {"ein": "882983048", "name": "BEER RIVKA MIRIAM INC", "city": "NEW CITY", "state": "NY", "zip": "10956-1343", "ntee": "X30", "ruling": "202212", "deductibility": "1", "assets": 1201037, "income": 154217, "revenue": 154217}], "ADGONQUAIN": [{"ein": "112444561", "name": "PAUMANOK ADGONQUAIN FOUNDATION INC POOSEPATUCK INDIAN RESERVATION", "city": "MASTIC", "state": "NY", "zip": "11950-5204", "ntee": "", "ruling": "198008", "deductibility": "1", "assets": 0, "income": 0, "revenue": 0}], "SHAAR": [{"ein": "112449817", "name": "YESHIVA SHAAR HATORAH INC", "city": "RICHMOND HILL", "state": "NY", "zip": "11418-1419", "ntee": "", "ruling": "198103", "deductibility": "1", "assets": 0, "income": 0, "revenue": 0}, {"ein": "112599268", "name": "YESHIVA SHAAR YERUSHALAYM INC", "city": "BROOKLYN", "state": "NY", "zip": "11218-5675", "ntee": "", "ruling": "198205", "deductibility": "1", "assets": 0, "income": 0, "revenue": 0}, {"ein": "112604113", "name": "SHAAR HATALMUD INC", "city": "BROOKLYN", "state": "NY", "zip": "11230-6905", "ntee": "", "ruling": "198207", "deductibility": "1", "assets": 0, "income": 0, "revenue": 0}, {"ein": "113425936", "name": "SHAAR HAEMET INC", "city": "REGO PARK", "state": "NY", "zip": "11374-4209", "ntee": "X30Z", "ruling": "199809", "deductibility": "1", "assets": 0, "income": 0, "revenue": 0}, {"ein": "113579688", "name": "CONGREGATION SHAAR HATFILAH", "city": "BROOKLYN", "state": "NY", "zip": "11206-4340", "ntee": "X30", "ruling": "200106", "deductibility": "1", "assets": 0, "income": 0, "revenue": 0}, {"ein": "133582262", "name": "SHAAR EPHRAIM", "city": "MONSEY", "state": "NY", "zip": "10952-0253", "ntee": "", "ruling": "199101", "deductibility": "1", "assets": 0, "income": 0, "revenue": 0}, {"ein": "134034360", "name": "YESHIVA SHAAR HATALMUD", "city": "BROOKLYN", "state": "NY", "zip": "11204-1524", "ntee": "X30", "ruling": "199907", "deductibility": "1", "assets": 0, "income": 0, "revenue": 0}, {"ein": "204605420", "name": "CONGREGATION SHAAR HASHAMAYIM", "city": "SPRING VALLEY", "state": "NY", "zip": "10977-1116", "ntee": "X30", "ruling": "200704", "deductibility": "1", "assets": 0, "income": 0, "revenue": 0}, {"ein": "237007436", "name": "SHAAR HATALMUD INSTITUTE", "city": "BROOKLYN", "state": "NY", "zip": "11214-1983", "ntee": "B58Z", "ruling": "196901", "deductibility": "1", "assets": 1383607, "income": 102043, "revenue": 102043}, {"ein": "237259941", "name": "SHAAR BINYANIN", "city": "BROOKLYN", "state": "NY", "zip": "11219-4747", "ntee": "", "ruling": "197303", "deductibility": "1", "assets": 0, "income": 0, "revenue": 0}, {"ein": "237379947", "name": "CONGREGATION SHAAR EPHRAIM", "city": "BELLE HARBOR", "state": "NY", "zip": "11694-1323", "ntee": "", "ruling": "197407", "deductibility": "1", "assets": 0, "income": 0, "revenue": 0}, {"ein": "454211797", "name": "CONG SHAAR HAMELECH INC", "city": "BROOKLYN", "state": "NY", "zip": "11219-3949", "ntee": "X30", "ruling": "201508", "deductibility": "1", "assets": 0, "income": 0, "revenue": 0}, {"ein": "472350450", "name": "CONGREGATION SHAAR TEFILA", "city": "BROOKLYN", "state": "NY", "zip": "11211-8919", "ntee": "X30", "ruling": "201503", "deductibility": "1", "assets": 0, "income": 0, "revenue": 0}, {"ein": "813831933", "name": "CONGREGATION SHAAR EPHRAIM OF MONSEY", "city": "MONSEY", "state": "NY", "zip": "10952-0856", "ntee": "X30", "ruling": "201705", "deductibility": "1", "assets": 0, "income": 0, "revenue": 0}, {"ein": "814171336", "name": "SHAAR HAMELECH", "city": "GREAT NECK", "state": "NY", "zip": "11023-1123", "ntee": "X30", "ruling": "201701", "deductibility": "1", "assets": 0, "income": 0, "revenue": 0}, {"ein": "853613546", "name": "CONGREGATION SHAAR HAMELECH", "city": "BROOKLYN", "state": "NY", "zip": "11218-2077", "ntee": "X30", "ruling": "202103", "deductibility": "1", "assets": 0, "income": 0, "revenue": 0}, {"ein": "920362464", "name": "CONG SHAAR NAFTULA", "city": "MONROE", "state": "NY", "zip": "10950-2316", "ntee": "X30", "ruling": "202301", "deductibility": "1", "assets": 0, "income": 0, "revenue": 0}, {"ein": "923067923", "name": "CONGREGATION SHAAR TEFILA CHERNOWITZ", "city": "MONROE", "state": "NY", "zip": "10950-0000", "ntee": "X30", "ruling": "202311", "deductibility": "1", "assets": 0, "income": 0, "revenue": 0}], "BURGLAR": [{"ein": "112463258", "name": "METROPOLITAN BURGLAR & FIRE ALARM ASSOCIATION INC", "city": "BROOKLYN", "state": "NY", "zip": "11204-0054", "ntee": "", "ruling": "197905", "deductibility": "2", "assets": 46250, "income": 139934, "revenue": 139934}], "BABCOCK": [{"ein": "112496305", "name": "DOUBLEDAY BABCOCK SENIOR CENTER INC", "city": "OYSTER BAY", "state": "NY", "zip": "11771-2410", "ntee": "P810", "ruling": "198007", "deductibility": "1", "assets": 5991540, "income": 1488112, "revenue": 1437827}, {"ein": "141586223", "name": "BABCOCK LAKE ESTATES INC", "city": "PETERSBURGH", "state": "NY", "zip": "12138-6427", "ntee": "", "ruling": "197908", "deductibility": "2", "assets": 273550, "income": 79795, "revenue": 78795}, {"ein": "333386794", "name": "BABCOCK MOVIE THEATER PRESERVATION SOCIETY INC", "city": "WELLSVILLE", "state": "NY", "zip": "14895-1206", "ntee": "A31", "ruling": "202505", "deductibility": "1", "assets": 0, "income": 0, "revenue": 0}], "PENIEL": [{"ein": "112546765", "name": "PENIEL HAITIAN CHURCH OF THE CHRISTIAN AND MISSIONARY ALLIANCE", "city": "W HEMPSTEAD", "state": "NY", "zip": "11552-4126", "ntee": "", "ruling": "197205", "deductibility": "1", "assets": 0, "income": 0, "revenue": 0}, {"ein": "113123307", "name": "PENIEL BAPTIST CHURCH INC", "city": "LONG IS CITY", "state": "NY", "zip": "11105-1121", "ntee": "X20Z", "ruling": "199412", "deductibility": "1", "assets": 0, "income": 0, "revenue": 0}, {"ein": "113141135", "name": "PENIEL PENTECOSTAL GOSPEL TEMPLE APOSTOLIC INC", "city": "CENTRAL ISLIP", "state": "NY", "zip": "11722-4820", "ntee": "X20", "ruling": "200102", "deductibility": "1", "assets": 0, "income": 0, "revenue": 0}, {"ein": "113264069", "name": "IGLESIA PENTECOSTAL PENIEL INTERNACIONAL INC", "city": "FAR ROCKAWAY", "state": "NY", "zip": "11691-4643", "ntee": "X20Z", "ruling": "199604", "deductibility": "1", "assets": 0, "income": 0, "revenue": 0}, {"ein": "113504247", "name": "IGLESIA DE CRISTO PENIEL MINISTERIO ELIM", "city": "JAMAICA", "state": "NY", "zip": "11435-4301", "ntee": "X21", "ruling": "200010", "deductibility": "1", "assets": 0, "income": 0, "revenue": 0}, {"ein": "113631699", "name": "GOOD SHEPHERD BAPTIST CHURCH OF PENIEL INC", "city": "BROOKLYN", "state": "NY", "zip": "11226-7133", "ntee": "X20", "ruling": "200204", "deductibility": "1", "assets": 0, "income": 0, "revenue": 0}, {"ein": "133711904", "name": "SECOND PENIEL PENTECOSTAL CHRISTIAN CHURCH INC", "city": "BRONX", "state": "NY", "zip": "10458-6662", "ntee": "", "ruling": "199306", "deductibility": "1", "assets": 0, "income": 0, "revenue": 0}, {"ein": "141364579", "name": "PENIEL BIBLE CONFERENCE INC", "city": "LAKE LUZERNE", "state": "NY", "zip": "12846-2405", "ntee": "", "ruling": "196106", "deductibility": "1", "assets": 0, "income": 0, "revenue": 0}, {"ein": "274426605", "name": "IGLESIA PENTECOSTAL PENIEL", "city": "SYRACUSE", "state": "NY", "zip": "13205-1353", "ntee": "X20", "ruling": "202505", "deductibility": "1", "assets": 0, "income": 0, "revenue": 0}, {"ein": "364663390", "name": "PENIEL TABERNACLE OF GOD", "city": "BRONX", "state": "NY", "zip": "10466-2427", "ntee": "X20", "ruling": "201210", "deductibility": "1", "assets": 0, "income": 0, "revenue": 0}, {"ein": "550804202", "name": "PENIEL MISSION INC", "city": "QUEENS VLG", "state": "NY", "zip": "11427-1209", "ntee": "P60", "ruling": "200305", "deductibility": "1", "assets": 51682, "income": 165155, "revenue": 165155}, {"ein": "812033448", "name": "IGLESIA CRISTIANA MISIONERA SEGUNDA PENIEL INC", "city": "BRONX", "state": "NY", "zip": "10463-7457", "ntee": "X20", "ruling": "202004", "deductibility": "1", "assets": 0, "income": 0, "revenue": 0}, {"ein": "883758728", "name": "IGLESIA PENIEL NEW YORK INC", "city": "HEMPSTEAD", "state": "NY", "zip": "11550-1407", "ntee": "X20", "ruling": "202307", "deductibility": "1", "assets": 0, "income": 0, "revenue": 0}, {"ein": "923384122", "name": "PENIEL INTERNATIONAL MISSIONS INC", "city": "JERICHO", "state": "NY", "zip": "11753-2527", "ntee": "X12", "ruling": "202307", "deductibility": "1", "assets": 1901, "income": 35601, "revenue": 0}], "BHARATIYA": [{"ein": "112558552", "name": "BHARATIYA VIDYA BHAVAN USA INC", "city": "NEW YORK", "state": "NY", "zip": "10001-6116", "ntee": "A230", "ruling": "198503", "deductibility": "1", "assets": 24237, "income": 160752, "revenue": 160752}, {"ein": "882880448", "name": "BHARATIYA KALA KENDRA INCORPORATED", "city": "NANUET", "state": "NY", "zip": "10954-3036", "ntee": "A23", "ruling": "202301", "deductibility": "1", "assets": 0, "income": 0, "revenue": 0}], "CARROLL": [{"ein": "112573432", "name": "CARROLL GARDENS ASSOCIATION INCORPORATED", "city": "BROOKLYN", "state": "NY", "zip": "11231-1466", "ntee": "L20Z", "ruling": "198110", "deductibility": "1", "assets": 1439628, "income": 1058254, "revenue": 1058254}, {"ein": "112592742", "name": "COMMITTEE TO IMPROVE CARROLL PARK INC", "city": "BROOKLYN", "state": "NY", "zip": "11231-4283", "ntee": "", "ruling": "198204", "deductibility": "1", "assets": 0, "income": 0, "revenue": 0}, {"ein": "112611384", "name": "BERKELEY-CARROLL STREET SCHOOL", "city": "BROOKLYN", "state": "NY", "zip": "11217-3307", "ntee": "B200", "ruling": "198306", "deductibility": "1", "assets": 107965847, "income": 63902746, "revenue": 63856307}, {"ein": "132850138", "name": "CARROLL AND PERCY KLINGENSTEIN FOUNDATION INC", "city": "NEW YORK", "state": "NY", "zip": "10036-4031", "ntee": "", "ruling": "197509", "deductibility": "1", "assets": 2401434, "income": 664975, "revenue": 0}, {"ein": "132904564", "name": "LEWIS CARROLL SOCIETY OF NORTH AMERICA INC", "city": "NEW YORK", "state": "NY", "zip": "10025-8844", "ntee": "A33", "ruling": "199108", "deductibility": "1", "assets": 170067, "income": 52365, "revenue": 52365}, {"ein": "141814529", "name": "ROGERS-CARROLL FAMILY FOUNDATION", "city": "WESTPORT", "state": "NY", "zip": "12993-0413", "ntee": "T20", "ruling": "200002", "deductibility": "1", "assets": 1084632, "income": 447384, "revenue": 0}, {"ein": "161576461", "name": "CARROLL HISTORICAL SOCIETY", "city": "FREWSBURG", "state": "NY", "zip": "14738-9624", "ntee": "A80", "ruling": "200003", "deductibility": "1", "assets": 0, "income": 0, "revenue": 0}, {"ein": "201451752", "name": "THE CARROLL AND MILTON PETRIE FOUNDATION INC", "city": "BROOKLYN", "state": "NY", "zip": "11217-1160", "ntee": "T20", "ruling": "200410", "deductibility": "1", "assets": 102889545, "income": 54650914, "revenue": 0}, {"ein": "464806190", "name": "CARROLL ROD & GUN CLUB INC OF FREWSBURG NEW YORK", "city": "FREWSBURG", "state": "NY", "zip": "14738-0000", "ntee": "N61", "ruling": "201803", "deductibility": "1", "assets": 207859, "income": 109271, "revenue": 66950}, {"ein": "510552367", "name": "NATALIE L CARROLL CHARITABLE FOUNDATION", "city": "SUFFERN", "state": "NY", "zip": "10901-3825", "ntee": "D20", "ruling": "200604", "deductibility": "1", "assets": 293104, "income": 10675, "revenue": 0}, {"ein": "871375266", "name": "CARROLL-BURKE HOUSING DEVELOPMENT FUND CORPORATION", "city": "BRONX", "state": "NY", "zip": "10460-4351", "ntee": "L21", "ruling": "202207", "deductibility": "1", "assets": 3167230, "income": 0, "revenue": 0}, {"ein": "992439327", "name": "PATRICK CARROLL MEMORIAL FOUNDATION INC", "city": "PAWLING", "state": "NY", "zip": "12564-1079", "ntee": "B82", "ruling": "202405", "deductibility": "1", "assets": 1, "income": 0, "revenue": 0}], "HAMISHPACHA": [{"ein": "112586154", "name": "AGUDSA TAHARAS HAMISHPACHA OF CROW HEIGHTS-CROWN HEIGHTS MIKVAH INC", "city": "BROOKLYN", "state": "NY", "zip": "11213-4446", "ntee": "X30", "ruling": "201302", "deductibility": "1", "assets": 205342, "income": 118667, "revenue": 118667}, {"ein": "133244347", "name": "AMERICAN FRIENDS OF THE CNTRL COMM FOR TAHARAS HAMISHPACHA IN ISRAEL", "city": "BROOKLYN", "state": "NY", "zip": "11219-1604", "ntee": "X30I", "ruling": "198503", "deductibility": "1", "assets": 372630, "income": 858058, "revenue": 858058}, {"ein": "273035475", "name": "TAHARAS HAMISHPACHA ORGANIZATION INC", "city": "BROOKLYN", "state": "NY", "zip": "11213-4328", "ntee": "X19", "ruling": "201106", "deductibility": "1", "assets": 477027, "income": 428756, "revenue": 370426}, {"ein": "464614175", "name": "TORAS HAMISHPACHA", "city": "SPRING VALLEY", "state": "NY", "zip": "10977-1975", "ntee": "X99", "ruling": "201407", "deductibility": "1", "assets": 133674, "income": 1071679, "revenue": 1071679}], "HA": [{"ein": "112594766", "name": "CONGREGATION SHEVAT HA CHIM INC", "city": "SELDEN", "state": "NY", "zip": "11784-2529", "ntee": "", "ruling": "198204", "deductibility": "1", "assets": 0, "income": 0, "revenue": 0}, {"ein": "112623713", "name": "KOLLEL HA-GRAW", "city": "BK", "state": "NY", "zip": "11230-6326", "ntee": "", "ruling": "198212", "deductibility": "1", "assets": 0, "income": 0, "revenue": 0}, {"ein": "112892487", "name": "TA HA MASJID INC", "city": "ROOSEVELT", "state": "NY", "zip": "11575-1746", "ntee": "", "ruling": "199012", "deductibility": "1", "assets": 0, "income": 0, "revenue": 0}, {"ein": "113059669", "name": "N F H NETIVOIS FAAGI HA CHESED", "city": "BROOKLYN", "state": "NY", "zip": "11210-3714", "ntee": "", "ruling": "199403", "deductibility": "1", "assets": 0, "income": 0, "revenue": 0}, {"ein": "113400475", "name": "HA OR THE LIGHT MINISTRIES INC", "city": "NEW CITY", "state": "NY", "zip": "10956-2105", "ntee": "X99", "ruling": "199712", "deductibility": "1", "assets": 0, "income": 0, "revenue": 0}, {"ein": "133143711", "name": "HA-AUR B MIZRAIM ISREALITE CONGREGATION INC", "city": "MT VERNON", "state": "NY", "zip": "10550-3105", "ntee": "X30", "ruling": "200203", "deductibility": "1", "assets": 0, "income": 0, "revenue": 0}, {"ein": "133153665", "name": "CONGREGATION DOR HA-SHALOM", "city": "NEW YORK", "state": "NY", "zip": "10021-6912", "ntee": "", "ruling": "198305", "deductibility": "1", "assets": 0, "income": 0, "revenue": 0}, {"ein": "133915552", "name": "COMMUNITY KOLLEL-BAAL HA BATIM OF WILLOW BROOK INC", "city": "STATEN ISLAND", "state": "NY", "zip": "10314-5017", "ntee": "B80", "ruling": "199709", "deductibility": "1", "assets": 0, "income": 0, "revenue": 0}, {"ein": "133995829", "name": "MISHKAN HA AM", "city": "HASTINGS HDSN", "state": "NY", "zip": "10706-2305", "ntee": "X30", "ruling": "200301", "deductibility": "1", "assets": 0, "income": 0, "revenue": 0}, {"ein": "146075558", "name": "GUAN HO HA FISH & GAME CLUB INC", "city": "SCOTIA", "state": "NY", "zip": "12302-6713", "ntee": "", "ruling": "198209", "deductibility": "2", "assets": 683944, "income": 328234, "revenue": 225666}, {"ein": "237287540", "name": "YESHIVA HA-RAMA", "city": "BROOKLYN", "state": "NY", "zip": "11235-5121", "ntee": "", "ruling": "197311", "deductibility": "1", "assets": 0, "income": 0, "revenue": 0}, {"ein": "237333343", "name": "AGUDAS HA RABBANIM OF U S A AND CANADA INC", "city": "NEW YORK", "state": "NY", "zip": "10002-5600", "ntee": "", "ruling": "197406", "deductibility": "1", "assets": 0, "income": 0, "revenue": 0}, {"ein": "260231863", "name": "HA OR BEACON SCHOOL", "city": "BROOKLYN", "state": "NY", "zip": "11229-1887", "ntee": "B28", "ruling": "200711", "deductibility": "1", "assets": 20744918, "income": 4350415, "revenue": 4350415}, {"ein": "270701815", "name": "HA YE SUNG CHURCH OF NY", "city": "FLUSHING", "state": "NY", "zip": "11354-1500", "ntee": "X20", "ruling": "201008", "deductibility": "1", "assets": 0, "income": 0, "revenue": 0}, {"ein": "275434024", "name": "HA KOL KOL YAKOV INC", "city": "BROOKLYN", "state": "NY", "zip": "11206-2300", "ntee": "X30", "ruling": "201208", "deductibility": "1", "assets": 0, "income": 0, "revenue": 0}, {"ein": "366507144", "name": "JEWISH FLAME-HA ASH", "city": "NEW ROCHELLE", "state": "NY", "zip": "10804-3615", "ntee": "", "ruling": "197307", "deductibility": "1", "assets": 0, "income": 0, "revenue": 0}, {"ein": "464730200", "name": "ESTHER HA FOUNDATION INC", "city": "BAYSIDE", "state": "NY", "zip": "11361-3577", "ntee": "F40", "ruling": "201502", "deductibility": "1", "assets": 226881, "income": 414802, "revenue": 414802}, {"ein": "470904812", "name": "CONGREGATION AIM HA BA NIM", "city": "BROOKLYN", "state": "NY", "zip": "11229-1101", "ntee": "X30", "ruling": "200303", "deductibility": "1", "assets": 0, "income": 0, "revenue": 0}, {"ein": "542137148", "name": "TEMPLO CRISTIANO JESUS HA RESUCITADO INC", "city": "ELMHURST", "state": "NY", "zip": "11373-5130", "ntee": "X20", "ruling": "200407", "deductibility": "1", "assets": 0, "income": 0, "revenue": 0}, {"ein": "592007554", "name": "BET HA LEVI INC", "city": "MT VERNON NY", "state": "NY", "zip": "10552-0334", "ntee": "", "ruling": "198010", "deductibility": "1", "assets": 0, "income": 0, "revenue": 0}, {"ein": "833272328", "name": "HA MINISTRIES INC", "city": "CENTEREACH", "state": "NY", "zip": "11720-1913", "ntee": "X99", "ruling": "202112", "deductibility": "1", "assets": 0, "income": 0, "revenue": 0}, {"ein": "852156060", "name": "BETH HA MISHPAHOT", "city": "NEW YORK", "state": "NY", "zip": "10023-7842", "ntee": "X30", "ruling": "202009", "deductibility": "1", "assets": 0, "income": 0, "revenue": 0}, {"ein": "932358730", "name": "TROY HA DEVELOPMENT CORPORATION", "city": "TROY", "state": "NY", "zip": "12180-1423", "ntee": "L21", "ruling": "202405", "deductibility": "1", "assets": 0, "income": 0, "revenue": 0}, {"ein": "990953257", "name": "ALBANY HA DEVELOPMENT CORPORATION", "city": "ALBANY", "state": "NY", "zip": "12202-1834", "ntee": "L21", "ruling": "202404", "deductibility": "1", "assets": 0, "income": 0, "revenue": 0}], "ADJUNCT": [{"ein": "112605238", "name": "ADJUNCT FACULTY ASSOCIATION AT NASSAU COMMUNITY COLLEGE", "city": "GARDEN CITY", "state": "NY", "zip": "11530-6719", "ntee": "", "ruling": "199301", "deductibility": "2", "assets": 452439, "income": 352755, "revenue": 352755}, {"ein": "320387394", "name": "CWA LOCAL 1101-C W POST ADJUNCT TEACHERS MEDICAL REIMB PLAN TR", "city": "NEW YORK", "state": "NY", "zip": "10001-2726", "ntee": "Y43", "ruling": "201406", "deductibility": "2", "assets": 3724, "income": 2, "revenue": 2}, {"ein": "991186326", "name": "UNION OF ADJUNCT FACULTY AT PACE", "city": "NEW YORK", "state": "NY", "zip": "10038-2594", "ntee": "J40", "ruling": "202412", "deductibility": "2", "assets": 0, "income": 0, "revenue": 0}], "FERRINI": [{"ein": "112663197", "name": "FERRINI WELFARE LEAGUE", "city": "OZONE PARK", "state": "NY", "zip": "11417-0000", "ntee": "", "ruling": "194603", "deductibility": "1", "assets": 0, "income": 0, "revenue": 0}], "KARO": [{"ein": "112675678", "name": "MARAN RABBI JOSEF KARO CENTER INCORPORATED", "city": "BROOKLYN", "state": "NY", "zip": "11223-5265", "ntee": "", "ruling": "198506", "deductibility": "1", "assets": 0, "income": 0, "revenue": 0}, {"ein": "815376568", "name": "KARO FOUNDATION", "city": "ROSLYN HTS", "state": "NY", "zip": "11577-1820", "ntee": "T22", "ruling": "201708", "deductibility": "1", "assets": 1244643, "income": 45850, "revenue": 0}], "PREMISLA": [{"ein": "112731438", "name": "CONGREGATION TEHILAS MOSHE OF PREMISLA", "city": "BROOKLYN", "state": "NY", "zip": "11210-3739", "ntee": "", "ruling": "198508", "deductibility": "1", "assets": 0, "income": 0, "revenue": 0}], "VAN": [{"ein": "112803482", "name": "HARRY VAN ARSDALE JR MEMORIAL ASSOCIATION INC", "city": "FLUSHING", "state": "NY", "zip": "11365-3085", "ntee": "", "ruling": "198803", "deductibility": "1", "assets": 0, "income": 0, "revenue": 0}, {"ein": "131655152", "name": "VAN ALEN INSTITUTE PROJECTS IN PUBLIC ARCHITECTURE", "city": "BROOKLYN", "state": "NY", "zip": "11231-5011", "ntee": "A40", "ruling": "193804", "deductibility": "1", "assets": 39887285, "income": 1432541, "revenue": 1432541}, {"ein": "133097905", "name": "KINGSBRIDGE RIVERDALE VAN CORTLAND DEVELOPMENT CORPORATION", "city": "BRONX", "state": "NY", "zip": "10463-1701", "ntee": "S20Z", "ruling": "198207", "deductibility": "1", "assets": 107904, "income": 461026, "revenue": 461026}, {"ein": "133843182", "name": "VAN CORTLANDT PARK ALLIANCE INC", "city": "BRONX", "state": "NY", "zip": "10463-3044", "ntee": "N113", "ruling": "199602", "deductibility": "1", "assets": 1006162, "income": 674397, "revenue": 660918}, {"ein": "134122015", "name": "OLDENBURG VAN BRUGGEN FOUNDATION INC", "city": "BROOKLYN", "state": "NY", "zip": "11201-4614", "ntee": "T22", "ruling": "200011", "deductibility": "1", "assets": 1328504, "income": 1271881, "revenue": 0}, {"ein": "136065514", "name": "VAN ITALLIE FOUNDATION INC", "city": "NEW YORK", "state": "NY", "zip": "10024-1021", "ntee": "", "ruling": "196306", "deductibility": "1", "assets": 716739, "income": 593224, "revenue": 0}, {"ein": "136125699", "name": "VAN AMERINGEN FOUNDATION INC", "city": "NEW YORK", "state": "NY", "zip": "10018-6505", "ntee": "", "ruling": "195307", "deductibility": "1", "assets": 75596358, "income": 24557681, "revenue": 0}, {"ein": "141365186", "name": "RIP VAN WINKLE FOUNDATION", "city": "NEW YORK", "state": "NY", "zip": "10016-2404", "ntee": "", "ruling": "194604", "deductibility": "1", "assets": 710962, "income": 508865, "revenue": 0}, {"ein": "141469024", "name": "VAN VECHTEN CEMETERY ASSOCIATION", "city": "AMSTERDAM", "state": "NY", "zip": "12010-8712", "ntee": "Y50", "ruling": "201405", "deductibility": "1", "assets": 0, "income": 0, "revenue": 0}, {"ein": "141593759", "name": "VAN WYCK COUNCIL ON THE ARTS AND CULTURE INC", "city": "BEACON", "state": "NY", "zip": "12508-3305", "ntee": "", "ruling": "197912", "deductibility": "1", "assets": 434917, "income": 178799, "revenue": 166133}, {"ein": "141597487", "name": "VAN CORTLANDTVILLE HISTORICAL SOCIETY INC", "city": "CORTLANDT MNR", "state": "NY", "zip": "10567-1308", "ntee": "", "ruling": "199401", "deductibility": "1", "assets": 0, "income": 0, "revenue": 0}, {"ein": "141766346", "name": "RIP VAN WINKLE AMATEUR RADIO SOCIETY INC", "city": "EAST CHATHAM", "state": "NY", "zip": "12060-0096", "ntee": "B99", "ruling": "200610", "deductibility": "1", "assets": 0, "income": 0, "revenue": 0}, {"ein": "150509709", "name": "AMERICAN LEGION WARNER VAN RIPER POST NO 435 DEPT OF NEW YORK INC", "city": "WATERLOO", "state": "NY", "zip": "13165-1410", "ntee": "", "ruling": "194603", "deductibility": "1", "assets": 218834, "income": 100003, "revenue": 75378}, {"ein": "156013999", "name": "TRINITY CHURCH VAN CLEVE", "city": "BUFFALO", "state": "NY", "zip": "14240-1504", "ntee": "", "ruling": "000000", "deductibility": "0", "assets": 108198, "income": 30973, "revenue": 8374}, {"ein": "156024464", "name": "VAN HORNESVILLE COMMUNITY CORPORATION", "city": "VAN HORNESVLE", "state": "NY", "zip": "13475-0016", "ntee": "", "ruling": "194809", "deductibility": "1", "assets": 645021, "income": 59514, "revenue": 59514}, {"ein": "160975386", "name": "ARCHIE VAN PATTEN POST NO 141 THE AMERICAN LEGION DEPARTMENT OF", "city": "MANLIUS", "state": "NY", "zip": "13104-1801", "ntee": "W30", "ruling": "201909", "deductibility": "1", "assets": 149534, "income": 146283, "revenue": 48240}, {"ein": "161245186", "name": "VAN ALSTYNE HOMESTEAD SOCIETY INC", "city": "CANAJOHARIE", "state": "NY", "zip": "13317-0372", "ntee": "", "ruling": "198712", "deductibility": "1", "assets": 0, "income": 0, "revenue": 0}, {"ein": "161445705", "name": "SPENCER-VAN ETTEN YOUTH ASSOCIATION INC", "city": "SPENCER", "state": "NY", "zip": "14883-0162", "ntee": "O20Z", "ruling": "199408", "deductibility": "1", "assets": 59350, "income": 73563, "revenue": 73563}, {"ein": "200405936", "name": "CARE-A-VAN MINISTRIES INC", "city": "BATAVIA", "state": "NY", "zip": "14021-1611", "ntee": "K36", "ruling": "200403", "deductibility": "1", "assets": 25789, "income": 104198, "revenue": 104198}, {"ein": "202696999", "name": "VAN HANH BUDDHIST MEDITATION ASSOCIATION INC", "city": "ROCHESTER", "state": "NY", "zip": "14611-3402", "ntee": "X50", "ruling": "200911", "deductibility": "1", "assets": 0, "income": 0, "revenue": 0}, {"ein": "204602627", "name": "VAN HOESEN HOUSE HISTORICALFOUNDATION INC", "city": "CHATHAM", "state": "NY", "zip": "12037-0089", "ntee": "A80", "ruling": "201304", "deductibility": "1", "assets": 0, "income": 0, "revenue": 0}, {"ein": "221529071", "name": "VAN NEST ASSEMBLY OF GOD", "city": "BRONX", "state": "NY", "zip": "10462-3225", "ntee": "", "ruling": "196408", "deductibility": "1", "assets": 0, "income": 0, "revenue": 0}, {"ein": "222188191", "name": "VAN PELT BASS FOUNDATION", "city": "NEW YORK", "state": "NY", "zip": "10028-0000", "ntee": "", "ruling": "197804", "deductibility": "1", "assets": 1559160, "income": 525511, "revenue": 0}, {"ein": "222505121", "name": "VAN R RHODES VOLUNTEER FIRE COMPANY", "city": "LAKE LUZERNE", "state": "NY", "zip": "12846-0000", "ntee": "", "ruling": "198405", "deductibility": "1", "assets": 223443, "income": 45915, "revenue": 39688}, {"ein": "273997531", "name": "VAN NEST NEIGHBORHOOD ALLIANCE INC", "city": "BRONX", "state": "NY", "zip": "10460-2709", "ntee": "S20", "ruling": "201408", "deductibility": "1", "assets": 0, "income": 0, "revenue": 0}, {"ein": "300075550", "name": "VAN STEEN FOUNDATION", "city": "OSSINING", "state": "NY", "zip": "10562-5614", "ntee": "T22", "ruling": "202410", "deductibility": "1", "assets": 55666, "income": 49574, "revenue": 0}, {"ein": "301004774", "name": "VAN ANTWERP MIDDLE SCHOOL PARENT TEACHER ORGANIZATION INC", "city": "NISKAYUNA", "state": "NY", "zip": "12309-5315", "ntee": "B94", "ruling": "201803", "deductibility": "1", "assets": 0, "income": 0, "revenue": 0}, {"ein": "320420611", "name": "VAN CORTLANDT TITANS YOUTH FOOTBALL PROGRAM", "city": "NEW YORK", "state": "NY", "zip": "10040-3073", "ntee": "N99", "ruling": "201408", "deductibility": "1", "assets": 0, "income": 0, "revenue": 0}, {"ein": "462044555", "name": "VAN WYCK-LEFFERTS TIDE MILL SANCTUARY INC", "city": "HUNTINGTON", "state": "NY", "zip": "11743-0747", "ntee": "C32", "ruling": "201312", "deductibility": "1", "assets": 196490, "income": 66739, "revenue": 66739}, {"ein": "473129011", "name": "NEW YORK STATE ARCHAEOLOGICAL ASSOCIATION VAN EPPS-HARTLEY", "city": "REXFORD", "state": "NY", "zip": "12148-1615", "ntee": "A03", "ruling": "201810", "deductibility": "1", "assets": 0, "income": 0, "revenue": 0}, {"ein": "526209682", "name": "W A VAN ORMER TR FUND", "city": "AMHERST", "state": "NY", "zip": "14228-2307", "ntee": "", "ruling": "000000", "deductibility": "0", "assets": 182729, "income": 36422, "revenue": 0}, {"ein": "611746994", "name": "SPENCER VAN ETTEN ALUMNI ASSOCIATION INC", "city": "SPENCER", "state": "NY", "zip": "14883-0216", "ntee": "B84", "ruling": "201506", "deductibility": "1", "assets": 0, "income": 0, "revenue": 0}, {"ein": "861092340", "name": "VAN CORTLANDT BASEBALL LEAGUE INC", "city": "BRONX", "state": "NY", "zip": "10463-0344", "ntee": "N63", "ruling": "200604", "deductibility": "1", "assets": 5747, "income": 30600, "revenue": 30600}, {"ein": "861426127", "name": "PS MS 498 VAN NEST ACADEMY PTA", "city": "BRONX", "state": "NY", "zip": "10462-3302", "ntee": "A12", "ruling": "202105", "deductibility": "1", "assets": 1475, "income": 33013, "revenue": 33013}, {"ein": "863841642", "name": "VAN NORTON FAMILY FOUNDATION INC", "city": "BURNT HILLS", "state": "NY", "zip": "12027-9524", "ntee": "T20", "ruling": "202201", "deductibility": "1", "assets": 181627, "income": 123382, "revenue": 0}, {"ein": "866413759", "name": "HENRY C VAN ACKER JR SCHOLARSHIP TR", "city": "GLENS FALLS", "state": "NY", "zip": "12801-2161", "ntee": "T22", "ruling": "202108", "deductibility": "1", "assets": 2609393, "income": 710018, "revenue": 0}, {"ein": "882960127", "name": "VAN RENSSELAER GARDEN CLUB INC", "city": "RENSSELAER", "state": "NY", "zip": "12144-9742", "ntee": "C42", "ruling": "202207", "deductibility": "1", "assets": 0, "income": 0, "revenue": 0}, {"ein": "933644685", "name": "BOOK VAN-GO INC", "city": "LIVERPOOL", "state": "NY", "zip": "13090-2408", "ntee": "B92", "ruling": "202401", "deductibility": "1", "assets": 0, "income": 0, "revenue": 0}], "TENANTS": [{"ein": "112843920", "name": "WALT WHITMAN HOUSES TENANTS ASSOC INC", "city": "BROOKLYN", "state": "NY", "zip": "11205-2202", "ntee": "B60", "ruling": "201403", "deductibility": "1", "assets": 0, "income": 0, "revenue": 0}, {"ein": "113471383", "name": "PARK CITY ESTATES TENANTS ASSOC INC", "city": "REGO PARK", "state": "NY", "zip": "11374-1439", "ntee": "N50", "ruling": "199908", "deductibility": "2", "assets": 0, "income": 0, "revenue": 0}, {"ein": "113559394", "name": "CYPRESS HILLS TENANTS ASSOCIATION", "city": "BROOKLYN", "state": "NY", "zip": "11208-3871", "ntee": "S20", "ruling": "201411", "deductibility": "1", "assets": 0, "income": 0, "revenue": 0}, {"ein": "132681414", "name": "BRONXDALE TENANTS LEAGUE DAY CARE CENTER INC", "city": "BRONX", "state": "NY", "zip": "10472-4503", "ntee": "P33Z", "ruling": "197605", "deductibility": "1", "assets": 1501490, "income": 4169781, "revenue": 4169781}, {"ein": "133101238", "name": "ALLERTON AVENUE HOMEOWNERS AND TENANTS ASSOCIATION INC", "city": "BRONX", "state": "NY", "zip": "10469-5641", "ntee": "L50", "ruling": "201203", "deductibility": "1", "assets": 0, "income": 0, "revenue": 0}, {"ein": "133167370", "name": "GATEWAY PLAZA TENANTS ASSOCIATION INC", "city": "NEW YORK", "state": "NY", "zip": "10008-3266", "ntee": "L50", "ruling": "201604", "deductibility": "2", "assets": 0, "income": 0, "revenue": 0}, {"ein": "133332438", "name": "NEW YORK STATE TENANTS AND NEIGHBORS COALITION INC", "city": "NEW YORK", "state": "NY", "zip": "10018-7731", "ntee": "", "ruling": "199408", "deductibility": "2", "assets": 0, "income": 0, "revenue": 0}, {"ein": "133457202", "name": "MOUNT VERNON UNITED TENANTS INC", "city": "MOUNT VERNON", "state": "NY", "zip": "10550-3216", "ntee": "L52Z", "ruling": "202501", "deductibility": "1", "assets": 76627, "income": 372721, "revenue": 372721}, {"ein": "133665051", "name": "INDEPENDENCE PLAZA NORTH TENANTS ASSOCIATION", "city": "NEW YORK", "state": "NY", "zip": "10013-2700", "ntee": "L50", "ruling": "200203", "deductibility": "2", "assets": 34762, "income": 5889, "revenue": 5889}, {"ein": "133771737", "name": "CLAY AVENUE TENANTS ASSOCIATION INC", "city": "BRONX", "state": "NY", "zip": "10456-3332", "ntee": "S20", "ruling": "200007", "deductibility": "1", "assets": 1, "income": 0, "revenue": 0}, {"ein": "133848449", "name": "WEST VILLAGE HOUSES TENANTS ASSOC", "city": "EAST MEADOW", "state": "NY", "zip": "11554-1571", "ntee": "L50", "ruling": "200705", "deductibility": "2", "assets": 547, "income": 19, "revenue": 19}, {"ein": "141557371", "name": "UNITED TENANTS OF ALBANY INC", "city": "ALBANY", "state": "NY", "zip": "12210-2432", "ntee": "L50Z", "ruling": "198405", "deductibility": "1", "assets": 534354, "income": 939786, "revenue": 939786}, {"ein": "141745839", "name": "GREATER SYRACUSE TENANTS NETWORK", "city": "SYRACUSE", "state": "NY", "zip": "13217-6908", "ntee": "L80Z", "ruling": "199812", "deductibility": "1", "assets": 12253, "income": 71998, "revenue": 71998}, {"ein": "141761209", "name": "NEW YORK STATE TENANTS & NEIGHBORS INFORMATION SERVICE INC", "city": "NEW YORK", "state": "NY", "zip": "10018-7555", "ntee": "S41Z", "ruling": "199310", "deductibility": "1", "assets": 488569, "income": 446783, "revenue": 446783}, {"ein": "161021416", "name": "FRUITBELT HOMEOWNERS & TENANTS COUNCIL INC", "city": "BUFFALO", "state": "NY", "zip": "14204-1111", "ntee": "L51Z", "ruling": "197408", "deductibility": "1", "assets": 0, "income": 0, "revenue": 0}, {"ein": "223517500", "name": "NATIONAL RETAIL TENANTS ASSOCIATION INC", "city": "CARMEL", "state": "NY", "zip": "10512-2007", "ntee": "", "ruling": "199709", "deductibility": "2", "assets": 544758, "income": 698172, "revenue": 698172}, {"ein": "274554330", "name": "STPCV TENANTS ASSOCIATION FOUNDATION INC", "city": "NEW YORK", "state": "NY", "zip": "10009-1202", "ntee": "L50", "ruling": "201608", "deductibility": "1", "assets": 0, "income": 0, "revenue": 0}, {"ein": "332553014", "name": "SAVOY PARK TENANTS UNION INC", "city": "NEW YORK", "state": "NY", "zip": "10037-1514", "ntee": "R60", "ruling": "202501", "deductibility": "1", "assets": 0, "income": 0, "revenue": 0}, {"ein": "333703813", "name": "LONDON TERRACE TENANTS ASSOCIATION INC", "city": "NEW YORK", "state": "NY", "zip": "10011-0008", "ntee": "L50", "ruling": "202507", "deductibility": "1", "assets": 0, "income": 0, "revenue": 0}, {"ein": "456715799", "name": "CHELSEA TENANTS ASSOCIATION HISTORIC PRESERVATION CHARITABLE T", "city": "NEW YORK", "state": "NY", "zip": "10011-0000", "ntee": "C99", "ruling": "201309", "deductibility": "1", "assets": 0, "income": 0, "revenue": 0}, {"ein": "800700084", "name": "HOWARD HOUSES TENANTS COUNCIL INC", "city": "BROOKLYN", "state": "NY", "zip": "11212-6861", "ntee": "B90", "ruling": "201304", "deductibility": "1", "assets": 0, "income": 0, "revenue": 0}, {"ein": "842438262", "name": "TWO BUILDINGS TENANTS UNITED HOUSING DEVELOPMENT FUND COMPANY", "city": "NEW YORK", "state": "NY", "zip": "10003-8963", "ntee": "L20", "ruling": "202008", "deductibility": "1", "assets": 2817041, "income": 408108, "revenue": 408108}, {"ein": "870755900", "name": "99 TENANTS ORGANIZATION", "city": "ASTORIA", "state": "NY", "zip": "11106-0516", "ntee": "L50", "ruling": "201604", "deductibility": "2", "assets": 0, "income": 0, "revenue": 0}, {"ein": "881317358", "name": "TENANTS ADVOCATING FOR TOMORROW INC", "city": "NEW YORK", "state": "NY", "zip": "10029-1809", "ntee": "P40", "ruling": "202210", "deductibility": "1", "assets": 0, "income": 0, "revenue": 0}], "KRANZLER": [{"ein": "112872065", "name": "NORTH SHORE POPS INC C/O ROBERT KRANZLER", "city": "GLEN COVE", "state": "NY", "zip": "11542-0052", "ntee": "A680", "ruling": "199603", "deductibility": "1", "assets": 0, "income": 0, "revenue": 0}], "YOUTHOOP": [{"ein": "112931023", "name": "YOUTHOOP OF SAG HARBOR INC", "city": "SAG HARBOR", "state": "NY", "zip": "11963-0024", "ntee": "N62", "ruling": "201905", "deductibility": "1", "assets": 56015, "income": 55077, "revenue": 55077}], "HARAMBAM": [{"ein": "112938742", "name": "FRIENDS CIRCLE ORGANIZATION OF YESHIVA HARAMBAM U BEIT YOSEF INC", "city": "FRESH MEADOWS", "state": "NY", "zip": "11366-0076", "ntee": "", "ruling": "199308", "deductibility": "1", "assets": 147506, "income": 22567, "revenue": 22567}], "TEFILO": [{"ein": "112970632", "name": "KAHAL TEFILO LEMOSHE", "city": "BROOKLYN", "state": "NY", "zip": "11210-3736", "ntee": "", "ruling": "198908", "deductibility": "1", "assets": 0, "income": 0, "revenue": 0}, {"ein": "934696884", "name": "CONGREGATION TEFILO LDUVID", "city": "BROOKLYN", "state": "NY", "zip": "11219-2502", "ntee": "X30", "ruling": "202405", "deductibility": "1", "assets": 0, "income": 0, "revenue": 0}], "TEFFILAH": [{"ein": "113200712", "name": "CONGREGATION TORAH U-TEFFILAH INC", "city": "BROOKLYN", "state": "NY", "zip": "11210-2833", "ntee": "X30Z", "ruling": "199509", "deductibility": "1", "assets": 0, "income": 0, "revenue": 0}], "EVANGILE": [{"ein": "113205432", "name": "LEGLISE DES ASSEMBLEES CHRETIENNES DU PLEIN EVANGILE", "city": "QUEENS", "state": "NY", "zip": "11373-3544", "ntee": "", "ruling": "199407", "deductibility": "1", "assets": 0, "income": 0, "revenue": 0}], "BAHNIK": [{"ein": "113216930", "name": "BAHNIK FOUNDATION INC", "city": "OYSTER BAY", "state": "NY", "zip": "11771-4704", "ntee": "", "ruling": "199411", "deductibility": "1", "assets": 81010907, "income": 85031457, "revenue": 0}], "BATTERED": [{"ein": "113302911", "name": "BATTERED WOMENS RESOURCE CENTER INC", "city": "BROOKLYN", "state": "NY", "zip": "11201-1186", "ntee": "P43", "ruling": "199608", "deductibility": "1", "assets": 55444, "income": 191997, "revenue": 191997}, {"ein": "833815656", "name": "HELP FOR BATTERED WOMAN INC", "city": "WOODBURY", "state": "NY", "zip": "11797-3113", "ntee": "R01", "ruling": "202012", "deductibility": "1", "assets": 0, "income": 0, "revenue": 0}], "GANG": [{"ein": "113354735", "name": "PEANUT BUTTER GANG HOSPITALITY TOO INC", "city": "BRENTWOOD", "state": "NY", "zip": "11717-0514", "ntee": "T30", "ruling": "200012", "deductibility": "1", "assets": 28725, "income": 51993, "revenue": 51993}, {"ein": "113377740", "name": "GANG SUNG PRESBYTERIAN CHURCH OF NEW YORK INC", "city": "BAYSIDE", "state": "NY", "zip": "11361-1755", "ntee": "X21", "ruling": "200207", "deductibility": "1", "assets": 0, "income": 0, "revenue": 0}, {"ein": "141720094", "name": "THOMAS GANG INC", "city": "SCHENECTADY", "state": "NY", "zip": "12305-1763", "ntee": "", "ruling": "199110", "deductibility": "2", "assets": 0, "income": 0, "revenue": 0}, {"ein": "161219679", "name": "DALTON GANG SPORTSMAN CLUB INC", "city": "HUNT", "state": "NY", "zip": "14846-9777", "ntee": "", "ruling": "198907", "deductibility": "2", "assets": 0, "income": 0, "revenue": 0}, {"ein": "166185875", "name": "FOREST VIEW GANG MILLS FIRE DEPARTMENT INC", "city": "PAINTED POST", "state": "NY", "zip": "14870-9018", "ntee": "M24", "ruling": "201603", "deductibility": "1", "assets": 0, "income": 0, "revenue": 0}, {"ein": "204721661", "name": "OVER THE HILL GANG SOFTBALL LEAGUELTD", "city": "FARMINGDALE", "state": "NY", "zip": "11735-1814", "ntee": "N63", "ruling": "200610", "deductibility": "2", "assets": 0, "income": 0, "revenue": 0}, {"ein": "454836683", "name": "PYUNG GANG CHURCH", "city": "FLUSHING", "state": "NY", "zip": "11358-1633", "ntee": "X20", "ruling": "201204", "deductibility": "1", "assets": 0, "income": 0, "revenue": 0}, {"ein": "464107301", "name": "OVER THE HILL GANG CHARITY", "city": "FARMINGDALE", "state": "NY", "zip": "11735-1814", "ntee": "T12", "ruling": "201408", "deductibility": "1", "assets": 0, "income": 0, "revenue": 0}, {"ein": "470878897", "name": "BROOME COUNTY GANG PREVENTION", "city": "BINGHAMTON", "state": "NY", "zip": "13901-0000", "ntee": "", "ruling": "200710", "deductibility": "1", "assets": 82858, "income": 466648, "revenue": 466648}, {"ein": "743138320", "name": "KELLY GANG INC", "city": "NEW YORK", "state": "NY", "zip": "10009-2212", "ntee": "S11", "ruling": "200509", "deductibility": "1", "assets": 0, "income": 0, "revenue": 0}, {"ein": "882476728", "name": "BUNNY GANG RUNNING CLUB INC", "city": "N TONAWANDA", "state": "NY", "zip": "14120-2956", "ntee": "N60", "ruling": "202208", "deductibility": "1", "assets": 0, "income": 0, "revenue": 0}, {"ein": "990916459", "name": "LUCKY GANG RANCH INC", "city": "FREEVILLE", "state": "NY", "zip": "13068-9541", "ntee": "D20", "ruling": "202402", "deductibility": "1", "assets": 0, "income": 0, "revenue": 0}], "ARBORETUM": [{"ein": "113450641", "name": "WOODBOURNE ARBORETUM INC", "city": "NEW HYDE PARK", "state": "NY", "zip": "11040-1708", "ntee": "T23", "ruling": "200101", "deductibility": "1", "assets": 29334684, "income": 2513418, "revenue": 0}, {"ein": "133370037", "name": "THE CROTON ARBORETUM & SANCTUARY INC", "city": "CROTON HDSN", "state": "NY", "zip": "10520-0631", "ntee": "C410", "ruling": "199410", "deductibility": "1", "assets": 0, "income": 0, "revenue": 0}, {"ein": "133675884", "name": "FRIENDS OF LASDON ARBORETUM INC", "city": "KATONAH", "state": "NY", "zip": "10536-3034", "ntee": "", "ruling": "199308", "deductibility": "1", "assets": 345474, "income": 244247, "revenue": 244247}, {"ein": "141804703", "name": "FRIENDS OF THE ORANGE COUNTY ARBORETUM INC", "city": "MONTGOMERY", "state": "NY", "zip": "12549-0000", "ntee": "C114", "ruling": "199809", "deductibility": "1", "assets": 248356, "income": 180511, "revenue": 128226}, {"ein": "146038896", "name": "GEORGE LANDIS ARBORETUM INC", "city": "ESPERANCE", "state": "NY", "zip": "12066-3419", "ntee": "C410", "ruling": "196711", "deductibility": "1", "assets": 1339339, "income": 797634, "revenue": 797634}, {"ein": "161464714", "name": "WEBSTER ARBORETUM ASSOCIATION INC", "city": "WEBSTER", "state": "NY", "zip": "14580-0000", "ntee": "C99", "ruling": "199602", "deductibility": "1", "assets": 281023, "income": 29046, "revenue": 29046}, {"ein": "222240075", "name": "MOUNTAIN TOP ARBORETUM INC", "city": "TANNERSVILLE", "state": "NY", "zip": "12485-0379", "ntee": "", "ruling": "197904", "deductibility": "1", "assets": 4384468, "income": 1125313, "revenue": 0}, {"ein": "261815321", "name": "PINE HOLLOW ARBORETUM", "city": "SLINGERLANDS", "state": "NY", "zip": "12159-0446", "ntee": "C41", "ruling": "200808", "deductibility": "1", "assets": 1273068, "income": 125225, "revenue": 94881}, {"ein": "464731072", "name": "NANNEN ARBORETUM SOCIETY", "city": "ELLICOTTVILLE", "state": "NY", "zip": "14731-1016", "ntee": "C41", "ruling": "201503", "deductibility": "1", "assets": 0, "income": 0, "revenue": 0}, {"ein": "510190936", "name": "FRIENDS OF NASSAU COUNTY BAILEY ARBORETUM", "city": "LOCUST VALLEY", "state": "NY", "zip": "11560-2017", "ntee": "C410", "ruling": "197605", "deductibility": "1", "assets": 2497823, "income": 360065, "revenue": 340051}, {"ein": "830528218", "name": "DRAVES ARBORETUM", "city": "DARIEN CENTER", "state": "NY", "zip": "14040-9718", "ntee": "B99", "ruling": "201807", "deductibility": "1", "assets": 0, "income": 0, "revenue": 0}, {"ein": "833618594", "name": "HORTUS ARBORETUM AND BOTANICAL GARDENS INC", "city": "STONE RIDGE", "state": "NY", "zip": "12484-5310", "ntee": "C41", "ruling": "201904", "deductibility": "1", "assets": 0, "income": 0, "revenue": 0}, {"ein": "862605413", "name": "FLYING TRILLIUM ARBORETUM AND PRESERVE INC", "city": "LIBERTY", "state": "NY", "zip": "12754-2635", "ntee": "C41", "ruling": "202206", "deductibility": "1", "assets": 44373, "income": 124157, "revenue": 0}, {"ein": "932136653", "name": "LIMELEDGE BOTANICAL GARDEN AND ARBORETUM", "city": "ELBRIDGE", "state": "NY", "zip": "13060-9759", "ntee": "C41", "ruling": "202307", "deductibility": "1", "assets": 0, "income": 0, "revenue": 0}], "PETITE": [{"ein": "113508684", "name": "CARRIACOU AND PETITE MARTINQUE ACTION COMMITTEE INC", "city": "BROOKLYN", "state": "NY", "zip": "11203-2903", "ntee": "S20", "ruling": "200012", "deductibility": "1", "assets": 0, "income": 0, "revenue": 0}, {"ein": "994445181", "name": "MON PETITE MARINGOUIN INC", "city": "NEW YORK", "state": "NY", "zip": "10024-6021", "ntee": "T12", "ruling": "202408", "deductibility": "1", "assets": 0, "income": 0, "revenue": 0}], "ICARIAN": [{"ein": "113529125", "name": "PAN ICARIAN BROTHERHOOD OF NEW YORK INC", "city": "FLUSHING", "state": "NY", "zip": "11373-3938", "ntee": "A23", "ruling": "200908", "deductibility": "1", "assets": 446541, "income": 79411, "revenue": 79411}, {"ein": "874365201", "name": "PAN-ICARIAN BROTHERHOOD OF AMERICA NEA ICARIA PORT JEFFERSON INC", "city": "PORT JEFF STA", "state": "NY", "zip": "11776-0077", "ntee": "A23", "ruling": "202311", "deductibility": "1", "assets": 65963, "income": 25197, "revenue": 18353}], "ASAR": [{"ein": "113537621", "name": "KOCHI KONTHER ASAR INC", "city": "JAMAICA", "state": "NY", "zip": "11432-2627", "ntee": "O30", "ruling": "201607", "deductibility": "1", "assets": 0, "income": 85912, "revenue": 85912}], "APPRECIATION": [{"ein": "113557633", "name": "ASSOCIATION FOR THE ADVANCEMENT AND APPRECIATION OF CULTURAL AND", "city": "SETAUKET", "state": "NY", "zip": "11733-1406", "ntee": "A33", "ruling": "200202", "deductibility": "1", "assets": 0, "income": 0, "revenue": 0}, {"ein": "161095975", "name": "JAZZ APPRECIATION SOCIETY OF SYRACUSE INC", "city": "SYRACUSE", "state": "NY", "zip": "13207-1621", "ntee": "", "ruling": "198704", "deductibility": "1", "assets": 0, "income": 0, "revenue": 0}, {"ein": "813083595", "name": "MALTA VETERANS APPRECIATION PROGRAM", "city": "MALTA", "state": "NY", "zip": "12020-4206", "ntee": "W30", "ruling": "201806", "deductibility": "1", "assets": 0, "income": 0, "revenue": 0}, {"ein": "813411566", "name": "BOULEVARD APPRECIATION NEIGHBORHOOD ASSOCIATION INC", "city": "SCHENECTADY", "state": "NY", "zip": "12309-0306", "ntee": "S11", "ruling": "201804", "deductibility": "2", "assets": 0, "income": 0, "revenue": 0}, {"ein": "934138466", "name": "ROUNDABOUT APPRECIATION SOCIETY OF AMERICA INC", "city": "NEW YORK", "state": "NY", "zip": "10016-7419", "ntee": "M42", "ruling": "202406", "deductibility": "1", "assets": 0, "income": 0, "revenue": 0}], "JMF": [{"ein": "113602012", "name": "JMF CHARITABLE FOUNDATION", "city": "BROOKLYN", "state": "NY", "zip": "11230-4703", "ntee": "T22", "ruling": "200207", "deductibility": "1", "assets": 77458, "income": 28540, "revenue": 0}, {"ein": "990656782", "name": "JMF SPORTS FOUNDATION INC", "city": "LEVITTOWN", "state": "NY", "zip": "11756-2623", "ntee": "N99", "ruling": "202401", "deductibility": "1", "assets": 0, "income": 0, "revenue": 0}], "LIBAA": [{"ein": "113616111", "name": "LONG ISLAND BUSINESS AVIATION ASSOCIATION LIBAA", "city": "HUNTINGTON", "state": "NY", "zip": "11743-2060", "ntee": "S41", "ruling": "200305", "deductibility": "0", "assets": 322324, "income": 151503, "revenue": 93046}], "PARROTS": [{"ein": "113616258", "name": "MONK PARROTS INC", "city": "BRONX", "state": "NY", "zip": "10471-2241", "ntee": "A65", "ruling": "200209", "deductibility": "1", "assets": 3029, "income": 14933, "revenue": 14933}, {"ein": "454701891", "name": "PARROTS FOR PEACE INC", "city": "RUBY", "state": "NY", "zip": "12475-0241", "ntee": "D11", "ruling": "201903", "deductibility": "1", "assets": 0, "income": 0, "revenue": 0}], "EUREKA": [{"ein": "113640820", "name": "EUREKA CHRISTIAN FELLOWSHIP INC", "city": "BROOKLYN", "state": "NY", "zip": "11203-2808", "ntee": "X20", "ruling": "200204", "deductibility": "1", "assets": 0, "income": 0, "revenue": 0}, {"ein": "222365633", "name": "EUREKA LODGE NO 36 EDUCATIONAL AND CHARITABLE TRUST", "city": "ROCHESTER", "state": "NY", "zip": "14611-2306", "ntee": "", "ruling": "198110", "deductibility": "1", "assets": 0, "income": 0, "revenue": 0}], "FURTHERANCE": [{"ein": "116003180", "name": "NATIONAL COMMITTEE FOR THE FURTHERANCE OF JEWISH ED", "city": "BROOKLYN", "state": "NY", "zip": "11213-3502", "ntee": "", "ruling": "197301", "deductibility": "1", "assets": 11743563, "income": 7850145, "revenue": 7362440}, {"ein": "136195082", "name": "FURTHERANCE FUND INC", "city": "NEW YORK", "state": "NY", "zip": "10165-3802", "ntee": "", "ruling": "196603", "deductibility": "1", "assets": 4791447, "income": 413539, "revenue": 0}, {"ein": "237159966", "name": "COMMITTEE FOR THE FURTHERANCE OF TORAH OBSERVANCE", "city": "BROOKLYN", "state": "NY", "zip": "11213-5322", "ntee": "", "ruling": "197201", "deductibility": "1", "assets": 0, "income": 0, "revenue": 0}], "RACQUET": [{"ein": "131194010", "name": "RACQUET & TENNIS CLUB", "city": "NEW YORK", "state": "NY", "zip": "10022-5909", "ntee": "", "ruling": "193903", "deductibility": "2", "assets": 25058593, "income": 18204293, "revenue": 15790513}, {"ein": "131726413", "name": "RACQUET CLUB ON PARK HILL INC", "city": "YONKERS", "state": "NY", "zip": "10705-1601", "ntee": "", "ruling": "198902", "deductibility": "2", "assets": 272831, "income": 389740, "revenue": 389740}, {"ein": "132833306", "name": "CENTURY TOWER RACQUET CLUB INC", "city": "NEW YORK", "state": "NY", "zip": "10022-2134", "ntee": "", "ruling": "000000", "deductibility": "0", "assets": 46925, "income": 146823, "revenue": -2771}, {"ein": "133165187", "name": "NEW YORK HEALTH AND RACQUET CLUB FOUNDATION INC", "city": "NEW YORK", "state": "NY", "zip": "10022-0000", "ntee": "", "ruling": "198509", "deductibility": "1", "assets": 1386673, "income": 1050240, "revenue": 0}, {"ein": "161093566", "name": "HAMBURG RACQUET CLUB INC", "city": "ATHOL SPRINGS", "state": "NY", "zip": "14010-0014", "ntee": "", "ruling": "197801", "deductibility": "2", "assets": 0, "income": 0, "revenue": 0}, {"ein": "166007352", "name": "BUFFALO RACQUET CLUB INC", "city": "BUFFALO", "state": "NY", "zip": "14223-1526", "ntee": "", "ruling": "195508", "deductibility": "2", "assets": 82317, "income": 56607, "revenue": 56607}, {"ein": "237111487", "name": "HUNTINGTON HILLS SWIM AND RACQUET CLUB INC", "city": "MELVILLE", "state": "NY", "zip": "11747-3305", "ntee": "", "ruling": "197109", "deductibility": "2", "assets": 332577, "income": 168722, "revenue": 168722}], "EASTCHESTER": [{"ein": "131852829", "name": "COMMUNITY FUND OF BRONXVILLE EASTCHESTER TUCKAHOE INC", "city": "BRONXVILLE", "state": "NY", "zip": "10708-1575", "ntee": "", "ruling": "198202", "deductibility": "1", "assets": 2581056, "income": 660524, "revenue": 593261}, {"ein": "132666867", "name": "SENIOR CITIZENS COORDINATING COUNCIL OF EASTCHESTER", "city": "BRONXVILLE", "state": "NY", "zip": "10708-0024", "ntee": "", "ruling": "197101", "deductibility": "1", "assets": 530127, "income": 245165, "revenue": 222004}, {"ein": "132920265", "name": "EASTCHESTER SOCCER CLUB INC", "city": "EASTCHESTER", "state": "NY", "zip": "10709-0213", "ntee": "N64Z", "ruling": "197905", "deductibility": "1", "assets": 959232, "income": 843510, "revenue": 843510}, {"ein": "133149580", "name": "EASTCHESTER VOLUNTEER AMBULANCE CORPS INC", "city": "EASTCHESTER", "state": "NY", "zip": "10709-2901", "ntee": "E62Z", "ruling": "198304", "deductibility": "1", "assets": 2636555, "income": 2809987, "revenue": 2809987}, {"ein": "133679300", "name": "EASTCHESTER PROFESSIONAL FIREFIGHTERS WELFARE FUND", "city": "TUCKAHOE", "state": "NY", "zip": "10707-0424", "ntee": "", "ruling": "199311", "deductibility": "2", "assets": 1081016, "income": 441722, "revenue": 441722}, {"ein": "133839855", "name": "EASTCHESTER IRISH-AMERICAN SOCIAL CLUB INC", "city": "EASTCHESTER", "state": "NY", "zip": "10707-0449", "ntee": "N52", "ruling": "200701", "deductibility": "2", "assets": 0, "income": 0, "revenue": 0}, {"ein": "134046768", "name": "EASTCHESTER SCHOOL FOUNDATION", "city": "EASTCHESTER", "state": "NY", "zip": "10709-5506", "ntee": "T70", "ruling": "199912", "deductibility": "1", "assets": 44925, "income": 15152, "revenue": 13485}, {"ein": "134170012", "name": "EASTCHESTER LITTLE LEAGUE INCORPORATED", "city": "EASTCHESTER", "state": "NY", "zip": "10709-0292", "ntee": "", "ruling": "196701", "deductibility": "0", "assets": 219988, "income": 388354, "revenue": 363678}, {"ein": "136161585", "name": "EASTCHESTER HISTORICAL SOCIETY INC", "city": "EASTCHESTER", "state": "NY", "zip": "10709-0000", "ntee": "", "ruling": "196110", "deductibility": "1", "assets": 192244, "income": 54325, "revenue": 54325}, {"ein": "136375690", "name": "EASTCHESTER ITALIAN AMERICAN CITIZENS CLUB INC", "city": "SCARSDALE", "state": "NY", "zip": "10583-5010", "ntee": "", "ruling": "199608", "deductibility": "2", "assets": 199849, "income": 298336, "revenue": 206477}, {"ein": "201882294", "name": "TOWN OF EASTCHESTER POLICE OFFICERS UNION INC", "city": "EASTCHESTER", "state": "NY", "zip": "10709-1523", "ntee": "J40", "ruling": "202001", "deductibility": "2", "assets": 54654, "income": 104008, "revenue": 104008}, {"ein": "203326972", "name": "EASTCHESTER VETERANS FOUNDATION", "city": "EASTCHESTER", "state": "NY", "zip": "10709-2803", "ntee": "W30", "ruling": "200512", "deductibility": "1", "assets": 0, "income": 0, "revenue": 0}, {"ein": "237175372", "name": "EASTCHESTER BEAUTIFICATION FOUNDATION INC", "city": "EASTCHESTER", "state": "NY", "zip": "10709-0311", "ntee": "", "ruling": "197209", "deductibility": "2", "assets": 0, "income": 0, "revenue": 0}, {"ein": "237450440", "name": "FRIENDS OF THE EASTCHESTER PUBLIC LIBRARY", "city": "EASTCHESTER", "state": "NY", "zip": "10709-2012", "ntee": "", "ruling": "197704", "deductibility": "1", "assets": 1155326, "income": 1633922, "revenue": 995902}, {"ein": "264454531", "name": "EASTCHESTER GARDENS DEVELOPMENT CORPORATION", "city": "BRONX", "state": "NY", "zip": "10469-5138", "ntee": "P99", "ruling": "201902", "deductibility": "1", "assets": 0, "income": 0, "revenue": 0}, {"ein": "454810149", "name": "EASTCHESTER ROTARY CLUB FOUNDATION INC", "city": "EASTCHESTER", "state": "NY", "zip": "10709-2605", "ntee": "T90", "ruling": "201208", "deductibility": "1", "assets": 80411, "income": 123744, "revenue": 80164}, {"ein": "510551415", "name": "EASTCHESTER SCHOOL MONITORS ASSOCIATION", "city": "BRONXVILLE", "state": "NY", "zip": "10708-1806", "ntee": "J40", "ruling": "201911", "deductibility": "2", "assets": 0, "income": 0, "revenue": 0}, {"ein": "813198946", "name": "EASTCHESTER 5K", "city": "EASTCHESTER", "state": "NY", "zip": "10709-2014", "ntee": "N12", "ruling": "201607", "deductibility": "1", "assets": 0, "income": 0, "revenue": 0}, {"ein": "854258275", "name": "EASTCHESTER BAY STRAY CAT PROJECT INC", "city": "BRONX", "state": "NY", "zip": "10464-1482", "ntee": "D20", "ruling": "202202", "deductibility": "1", "assets": 0, "income": 0, "revenue": 0}, {"ein": "920308392", "name": "FREEDOM TO LEARN-EASTCHESTER INC", "city": "EASTCHESTER", "state": "NY", "zip": "10709-1539", "ntee": "P20", "ruling": "202210", "deductibility": "1", "assets": 0, "income": 0, "revenue": 0}, {"ein": "990729589", "name": "EASTCHESTER CHINESE PARENTS ASSOCIATION", "city": "SCARSDALE", "state": "NY", "zip": "10583-4902", "ntee": "A23", "ruling": "202408", "deductibility": "1", "assets": 0, "income": 0, "revenue": 0}], "SPACES": [{"ein": "132808114", "name": "PROJECT FOR PUBLIC SPACES INC", "city": "BROOKLYN", "state": "NY", "zip": "11217-2043", "ntee": "C015", "ruling": "197509", "deductibility": "1", "assets": 1385223, "income": 1652231, "revenue": 1652231}, {"ein": "208939341", "name": "ASSOCIATION FOR CONSERVATION OFRECREATIONAL AND NATURAL SPACES INC", "city": "STAFFORD", "state": "NY", "zip": "14143-0787", "ntee": "N99", "ruling": "200805", "deductibility": "1", "assets": 0, "income": 0, "revenue": 0}, {"ein": "461631894", "name": "AUTISM FRIENDLY SPACES INC", "city": "NEW YORK", "state": "NY", "zip": "10128-6213", "ntee": "G84", "ruling": "201410", "deductibility": "1", "assets": 0, "income": 0, "revenue": 0}, {"ein": "922675460", "name": "IMPACT SPACES INC", "city": "NEW YORK", "state": "NY", "zip": "10017-2422", "ntee": "S99", "ruling": "202304", "deductibility": "1", "assets": 35143, "income": 0, "revenue": 0}, {"ein": "931704763", "name": "GATED SPACES INC", "city": "BROOKLYN", "state": "NY", "zip": "11226-6111", "ntee": "P30", "ruling": "202404", "deductibility": "1", "assets": 0, "income": 0, "revenue": 0}, {"ein": "991763823", "name": "GREEN SPACES ALBANY INC", "city": "ALBANY", "state": "NY", "zip": "12211-1604", "ntee": "C34", "ruling": "202404", "deductibility": "1", "assets": 0, "income": 0, "revenue": 0}], "MAILING": [{"ein": "132903205", "name": "POETRY MAILING LIST INC", "city": "EAST ROCKAWAY", "state": "NY", "zip": "11518-0206", "ntee": "", "ruling": "197709", "deductibility": "1", "assets": 0, "income": 0, "revenue": 0}], "ALCOTT": [{"ein": "132918250", "name": "ALCOTT SCHOOL SCHOLARSHIP FUND INC", "city": "DOBBS FERRY", "state": "NY", "zip": "10522-1118", "ntee": "", "ruling": "197904", "deductibility": "1", "assets": 70398, "income": 15100, "revenue": 15100}, {"ein": "132939938", "name": "ALCOTT SCHOOL", "city": "DOBBS FERRY", "state": "NY", "zip": "10522-1118", "ntee": "", "ruling": "197905", "deductibility": "1", "assets": 1060366, "income": 5290515, "revenue": 5290515}], "PANAMERICAN": [{"ein": "133229941", "name": "PANAMERICAN MUSICAL ART RESEARCH INC", "city": "WEST ISLIP", "state": "NY", "zip": "11795-3613", "ntee": "", "ruling": "198909", "deductibility": "1", "assets": 0, "income": 0, "revenue": 0}, {"ein": "800761896", "name": "PANAMERICAN PHOTODYNAMIC ASSOCIATION", "city": "KENMORE", "state": "NY", "zip": "14217-2154", "ntee": "P99", "ruling": "202506", "deductibility": "1", "assets": 0, "income": 0, "revenue": 0}], "PERIDANCE": [{"ein": "133236256", "name": "PERIDANCE ENSEMBLE LTD", "city": "NEW YORK", "state": "NY", "zip": "10003-5306", "ntee": "A6CZ", "ruling": "198503", "deductibility": "1", "assets": 57444, "income": 339893, "revenue": 339893}], "MABEL": [{"ein": "133252077", "name": "THE MABEL MERCER FOUNDATION INC", "city": "NEW YORK", "state": "NY", "zip": "10036-3708", "ntee": "", "ruling": "198606", "deductibility": "1", "assets": 321477, "income": 442999, "revenue": 442999}, {"ein": "146022040", "name": "MABEL J SMITH TRUST UW", "city": "NORWICH", "state": "NY", "zip": "13815-0000", "ntee": "", "ruling": "000000", "deductibility": "0", "assets": 312164, "income": 31092, "revenue": 0}, {"ein": "146030197", "name": "LEWIS M AND MABEL C FOWLER MEMORIAL FOUNDATION INC", "city": "GLOVERSVILLE", "state": "NY", "zip": "12078-2901", "ntee": "", "ruling": "195412", "deductibility": "1", "assets": 1140396, "income": 341765, "revenue": 0}, {"ein": "166177664", "name": "MABEL LAMBERSON TRUST", "city": "NORWICH", "state": "NY", "zip": "13815-0000", "ntee": "", "ruling": "199210", "deductibility": "1", "assets": 428821, "income": 120143, "revenue": 0}, {"ein": "256308012", "name": "MARTIN & MABEL GOODMAN TRUST UA FBO CITY OF ALTOONA 24375008", "city": "BUFFALO", "state": "NY", "zip": "14240-1504", "ntee": "T20", "ruling": "200506", "deductibility": "1", "assets": 184396, "income": 51690, "revenue": 0}], "MODELL": [{"ein": "133380237", "name": "JEFFREY MODELL FOUNDATION INC", "city": "NEW YORK", "state": "NY", "zip": "10017-2024", "ntee": "", "ruling": "198703", "deductibility": "1", "assets": 42921915, "income": 11900335, "revenue": 9602449}, {"ein": "814703110", "name": "LESLIE M MODELL I FAMILY FOUNDATION", "city": "NEW YORK", "state": "NY", "zip": "10021-0000", "ntee": "T20", "ruling": "201703", "deductibility": "1", "assets": 1613471, "income": 2208138, "revenue": 0}], "PAKISTAN": [{"ein": "133491677", "name": "PAKISTAN INDEPENDENCE DAY PARADE & FAIR COMMITTEE INC", "city": "STATEN ISLAND", "state": "NY", "zip": "10312-4112", "ntee": "A23", "ruling": "201408", "deductibility": "1", "assets": 520, "income": 63001, "revenue": 63001}, {"ein": "133651897", "name": "ALL PAKISTAN WOMENS ASSOCIATION INC", "city": "NEW YORK", "state": "NY", "zip": "10128-2909", "ntee": "", "ruling": "199306", "deductibility": "1", "assets": 0, "income": 0, "revenue": 0}, {"ein": "133803696", "name": "PROMOTION OF EDUCATION IN PAKISTAN FOUNDATION INC", "city": "STATEN ISLAND", "state": "NY", "zip": "10314-2408", "ntee": "Q30", "ruling": "201407", "deductibility": "1", "assets": 1115564, "income": 148582, "revenue": 12946}, {"ein": "141674684", "name": "PAKISTAN-AMERICAN PHARMACEUTICAL ASSOCIATION INC", "city": "YONKERS", "state": "NY", "zip": "10704-1111", "ntee": "S40", "ruling": "201804", "deductibility": "2", "assets": 482303, "income": 108808, "revenue": 108808}, {"ein": "141679747", "name": "PAKISTAN ASSOCIATION OF NY CAPITAL DISTRICT INC", "city": "ALBANY", "state": "NY", "zip": "12205-3731", "ntee": "A23", "ruling": "201504", "deductibility": "1", "assets": 0, "income": 0, "revenue": 0}, {"ein": "223244651", "name": "PAKISTAN AMERICAN SOCIETY OF ROCHESTER", "city": "ROCHESTER", "state": "NY", "zip": "14618-2213", "ntee": "B99", "ruling": "201408", "deductibility": "1", "assets": 0, "income": 0, "revenue": 0}, {"ein": "464052556", "name": "NATIONAL YOUTH ORGANIZATION OF PAKISTAN INC", "city": "BROOKLYN", "state": "NY", "zip": "11230-1748", "ntee": "O50", "ruling": "201409", "deductibility": "1", "assets": 0, "income": 0, "revenue": 0}, {"ein": "814291117", "name": "PAKISTAN CHILDRENS HEART FOUNDATION NORTH AMERICA INC", "city": "SCARSDALE", "state": "NY", "zip": "10583-7425", "ntee": "G43", "ruling": "201706", "deductibility": "1", "assets": 1341719, "income": 1756044, "revenue": 1756044}], "HARLOW": [{"ein": "133577252", "name": "HARLOW G FARMER MEMORIA WATN-YMCA 24-295440", "city": "BUFFALO", "state": "NY", "zip": "14203-2842", "ntee": "", "ruling": "000000", "deductibility": "0", "assets": 0, "income": 0, "revenue": 0}, {"ein": "166240533", "name": "HARLOW G FARMER TR UW FBO NORTH NY COMM FDN 24296740", "city": "NORWICH", "state": "NY", "zip": "13815-0000", "ntee": "A01", "ruling": "200811", "deductibility": "1", "assets": 60145, "income": 4962, "revenue": 0}, {"ein": "166243186", "name": "THE HARLOW G FARMER MEMORIAL FUND FOR THE YWCA OF WATERTOWN NY", "city": "NORWICH", "state": "NY", "zip": "13815-0000", "ntee": "", "ruling": "199306", "deductibility": "1", "assets": 54227, "income": 4325, "revenue": 0}, {"ein": "166246710", "name": "THE HARLOW G FARMER MEMORIAL FUND FBO FIRST PRESBYTERIAN CHURCH", "city": "NORWICH", "state": "NY", "zip": "13815-1646", "ntee": "", "ruling": "000000", "deductibility": "0", "assets": 110456, "income": 30661, "revenue": 0}], "NAZARENES": [{"ein": "133615628", "name": "MANHATTAN INDO-PAK CHURCH OF THE NAZARENES", "city": "BRONX", "state": "NY", "zip": "10467-1517", "ntee": "", "ruling": "199301", "deductibility": "1", "assets": 0, "income": 0, "revenue": 0}], "WHARTON": [{"ein": "133634653", "name": "NATHANIEL WHARTON FUND FOR RESEARCH IN BRAIN BODY AND BEHAVIOR INC", "city": "NEW YORK", "state": "NY", "zip": "10032-3725", "ntee": "H48", "ruling": "202405", "deductibility": "1", "assets": 4892704, "income": 1692354, "revenue": 447360}, {"ein": "166295815", "name": "R & M WHARTON MEM TR EDUCATIONAL FUND", "city": "NORWICH", "state": "NY", "zip": "13815-1646", "ntee": "", "ruling": "000000", "deductibility": "1", "assets": 1569971, "income": 411021, "revenue": 0}, {"ein": "166296590", "name": "RAEBURN J WHARTON CHARITABLE TRUST", "city": "NORWICH", "state": "NY", "zip": "13815-0000", "ntee": "", "ruling": "199104", "deductibility": "1", "assets": 448002, "income": 45378, "revenue": 0}, {"ein": "223692830", "name": "NAIDA S WHARTON FOUNDATION", "city": "GARDEN CITY", "state": "NY", "zip": "11530-0000", "ntee": "T22", "ruling": "200103", "deductibility": "1", "assets": 6484273, "income": 366650, "revenue": 0}, {"ein": "237167711", "name": "WHARTON BUSINESS SCHOOL CLUB OF NEW YORK INC", "city": "NEW YORK", "state": "NY", "zip": "10128-3622", "ntee": "B84", "ruling": "197201", "deductibility": "1", "assets": 1054548, "income": 77699, "revenue": 77699}, {"ein": "331605175", "name": "WHARTON ALLEN FOUNDATION", "city": "PEARL RIVER", "state": "NY", "zip": "10965-0570", "ntee": "B82", "ruling": "202411", "deductibility": "1", "assets": 0, "income": 0, "revenue": 0}, {"ein": "465580900", "name": "WHARTON STUDIO MUSEUM", "city": "ITHACA", "state": "NY", "zip": "14852-3975", "ntee": "A50", "ruling": "201410", "deductibility": "1", "assets": 56406, "income": 95724, "revenue": 95054}, {"ein": "933500421", "name": "WHARTON EDUCATIONAL ADVANCEMENT FOUNDATION INC", "city": "SELDEN", "state": "NY", "zip": "11784-2312", "ntee": "B99", "ruling": "202403", "deductibility": "1", "assets": 0, "income": 0, "revenue": 0}, {"ein": "994512933", "name": "WHARTON ALUMNI FAMILIA INCORPORATED", "city": "FREEPORT", "state": "NY", "zip": "11520-1744", "ntee": "W70", "ruling": "202410", "deductibility": "1", "assets": 0, "income": 0, "revenue": 0}], "MERRYL": [{"ein": "133693587", "name": "JAMES AND MERRYL TISCH FOUNDATION INC", "city": "NEW YORK", "state": "NY", "zip": "10019-4154", "ntee": "", "ruling": "199304", "deductibility": "1", "assets": 507342, "income": 20482491, "revenue": 0}], "SOTO": [{"ein": "133735337", "name": "CLEMENTE SOTO VELEZ CULTURAL & EDUCATION CENTER INC", "city": "NEW YORK", "state": "NY", "zip": "10002-3300", "ntee": "A60Z", "ruling": "199808", "deductibility": "1", "assets": 5432252, "income": 1526369, "revenue": 1526369}], "PROVENANCE": [{"ein": "133759462", "name": "PROVENANCE PRODUCTIONS INC", "city": "NEW YORK", "state": "NY", "zip": "10023-6296", "ntee": "", "ruling": "199408", "deductibility": "1", "assets": 25181, "income": 1, "revenue": 0}], "INTELLIGENT": [{"ein": "133769297", "name": "INTELLIGENT TRANSPORTATION SOCIETY OF AMERICA", "city": "NEW YORK", "state": "NY", "zip": "10018-2794", "ntee": "X99Z", "ruling": "199011", "deductibility": "1", "assets": 156322, "income": 162986, "revenue": 14610}, {"ein": "264215605", "name": "INTELLIGENT COMMUNITY FORUM FOUNDATION INC", "city": "NEW YORK", "state": "NY", "zip": "10177-0001", "ntee": "U41", "ruling": "200909", "deductibility": "1", "assets": 0, "income": 0, "revenue": 0}, {"ein": "331922235", "name": "BLACK INTELLIGENT LADIES ALLIANCE INC", "city": "BUFFALO", "state": "NY", "zip": "14215-3212", "ntee": "S01", "ruling": "202412", "deductibility": "1", "assets": 0, "income": 0, "revenue": 0}, {"ein": "753167987", "name": "DIVINE INTELLIGENT VERSATILE ARTISTS INC", "city": "NEW YORK", "state": "NY", "zip": "10108-1507", "ntee": "A03", "ruling": "202404", "deductibility": "2", "assets": 0, "income": 0, "revenue": 0}, {"ein": "884056704", "name": "INTELLIGENT CREATIVE MINDS INC", "city": "BROOKLYN", "state": "NY", "zip": "11217-2560", "ntee": "A20", "ruling": "202505", "deductibility": "1", "assets": 0, "income": 0, "revenue": 0}], "WINTHROP": [{"ein": "133774839", "name": "NEW ROCHELLE-WINTHROP HOUSING DEVELOPMENT FUND CORPORATION", "city": "ELMSFORD", "state": "NY", "zip": "10523-1607", "ntee": "L20", "ruling": "199712", "deductibility": "1", "assets": 845698, "income": 84058, "revenue": 84058}, {"ein": "201825882", "name": "BRASHER WINTHROP VOLUNTEER FIRE DEPARTMENT INC", "city": "WINTHROP", "state": "NY", "zip": "13697-0011", "ntee": "M24", "ruling": "200506", "deductibility": "1", "assets": 721850, "income": 260051, "revenue": 253877}, {"ein": "208059633", "name": "GRANT AND HOPE WINTHROP FAMILYFOUNDATION", "city": "NEW YORK", "state": "NY", "zip": "10128-0100", "ntee": "T20", "ruling": "200707", "deductibility": "1", "assets": 741336, "income": 118563, "revenue": 0}, {"ein": "463553224", "name": "CHV 560 WINTHROP STREET HOUSING DEVELOPMENT FUND CORPORATION", "city": "BROOKLYN", "state": "NY", "zip": "11226-0000", "ntee": "L20", "ruling": "201408", "deductibility": "2", "assets": 0, "income": 0, "revenue": 0}], "LOPATIN": [{"ein": "133797381", "name": "LOPATIN FAMILY FOUNDATION", "city": "NEW YORK", "state": "NY", "zip": "10024-1007", "ntee": "T50J", "ruling": "199802", "deductibility": "1", "assets": 8308467, "income": 6455137, "revenue": 0}], "CERVANTES": [{"ein": "133800869", "name": "INSTITUTO CERVANTES USA INC", "city": "NEW YORK", "state": "NY", "zip": "10017-1501", "ntee": "A99", "ruling": "199503", "deductibility": "1", "assets": 10416060, "income": 2090443, "revenue": 2090443}], "PUBLICOLOR": [{"ein": "133912768", "name": "PUBLICOLOR INC", "city": "NEW YORK", "state": "NY", "zip": "10018-9786", "ntee": "B82", "ruling": "199702", "deductibility": "1", "assets": 4920125, "income": 3722308, "revenue": 3402578}], "JJC": [{"ein": "133922180", "name": "JJC FOUNDATION", "city": "NEW YORK", "state": "NY", "zip": "10010-1449", "ntee": "T22J", "ruling": "199705", "deductibility": "1", "assets": 5845308, "income": 639810, "revenue": 0}], "CUBS": [{"ein": "134042464", "name": "CUBS FOR KIDS LTD", "city": "WHITE PLAINS", "state": "NY", "zip": "10601-1712", "ntee": "P19", "ruling": "199908", "deductibility": "1", "assets": 0, "income": 0, "revenue": 0}, {"ein": "933890871", "name": "ROARING CUBS COLLECTIVE", "city": "CHAPPAQUA", "state": "NY", "zip": "10514-3115", "ntee": "B90", "ruling": "202310", "deductibility": "1", "assets": 0, "income": 0, "revenue": 0}], "BIODEGRADABLE": [{"ein": "134088453", "name": "INTERNATIONAL BIODEGRADABLE PRODUCTS INSTITUTE INC", "city": "NEW YORK", "state": "NY", "zip": "10019-8511", "ntee": "S41", "ruling": "200111", "deductibility": "2", "assets": 3011120, "income": 3850149, "revenue": 3160434}], "KADISHIN": [{"ein": "134131076", "name": "PISGUMIN KADISHIN INC", "city": "SPRING VALLEY", "state": "NY", "zip": "10977-7843", "ntee": "X30", "ruling": "200010", "deductibility": "1", "assets": 0, "income": 0, "revenue": 0}], "HERMANOS": [{"ein": "134149062", "name": "IGLESIA PENTECOSTAL HERMANOS UNIDOS EN CRISTO INC", "city": "STATEN ISLAND", "state": "NY", "zip": "10306-5836", "ntee": "X20", "ruling": "200306", "deductibility": "1", "assets": 0, "income": 0, "revenue": 0}, {"ein": "452772729", "name": "HERMANOS DE LA CARIDAD CON CRISTO", "city": "PORT JEFFERSON", "state": "NY", "zip": "11777-0000", "ntee": "Q33", "ruling": "201206", "deductibility": "1", "assets": 0, "income": 0, "revenue": 0}, {"ein": "932887245", "name": "FUNDACION HERMANOS ROJAS", "city": "NEW YORK", "state": "NY", "zip": "10031-0000", "ntee": "P20", "ruling": "202402", "deductibility": "1", "assets": 0, "income": 0, "revenue": 0}], "DERNIER": [{"ein": "134211082", "name": "EGLISE DE LA PENTECOTE DU DERNIER TEMPS", "city": "QUEENS VILLAGE", "state": "NY", "zip": "11429-0000", "ntee": "X21", "ruling": "201109", "deductibility": "1", "assets": 0, "income": 0, "revenue": 0}], "STINCHFIELD": [{"ein": "136082200", "name": "MARGARET AND FRANK STINCHFIELD FOUNDATION", "city": "NEW YORK", "state": "NY", "zip": "10017-9117", "ntee": "", "ruling": "196208", "deductibility": "1", "assets": 454896, "income": 61590, "revenue": 0}], "MENSCHEL": [{"ein": "136098443", "name": "ROBERT & JOYCE MENSCHEL FOUNDATION", "city": "NEW YORK", "state": "NY", "zip": "10152-3700", "ntee": "", "ruling": "196304", "deductibility": "1", "assets": 21289338, "income": 20314674, "revenue": 0}], "DURHAM": [{"ein": "141498059", "name": "DURHAM CENTER MUSEUM INC", "city": "EAST DURHAM", "state": "NY", "zip": "12423-0192", "ntee": "", "ruling": "196106", "deductibility": "1", "assets": 0, "income": 0, "revenue": 0}, {"ein": "141627027", "name": "DURHAM AMBULANCE INC", "city": "EAST DURHAM", "state": "NY", "zip": "12423-0099", "ntee": "E62", "ruling": "199612", "deductibility": "1", "assets": 556607, "income": 656935, "revenue": 656935}, {"ein": "141671228", "name": "OAK HILL-DURHAM VOLUNTEER FIRE COMPANY INC", "city": "OAK HILL", "state": "NY", "zip": "12460-0000", "ntee": "M24", "ruling": "200204", "deductibility": "1", "assets": 800933, "income": 200250, "revenue": 189045}, {"ein": "141807177", "name": "DURHAM VALLEY LAND TRUST", "city": "CORNWALLVILLE", "state": "NY", "zip": "12418-0007", "ntee": "C30", "ruling": "200211", "deductibility": "1", "assets": 28577, "income": 0, "revenue": 0}, {"ein": "161341423", "name": "DURHAM MEMORIAL A M E ZION CHURCH", "city": "BUFFALO", "state": "NY", "zip": "14204-1717", "ntee": "X21", "ruling": "199909", "deductibility": "1", "assets": 0, "income": 0, "revenue": 0}, {"ein": "222363430", "name": "EAST DURHAM VOLUNTEER FIRE CO INC", "city": "EAST DURHAM", "state": "NY", "zip": "12423-0092", "ntee": "M24Z", "ruling": "198104", "deductibility": "1", "assets": 1293116, "income": 228292, "revenue": 212834}, {"ein": "274592789", "name": "DURHAM NY CHAMBER OF COMMERCE", "city": "OAK HILL", "state": "NY", "zip": "12460-0022", "ntee": "S41", "ruling": "201303", "deductibility": "2", "assets": 0, "income": 0, "revenue": 0}, {"ein": "300178558", "name": "DURHAM A M E ZION CHURCH", "city": "BAY SHORE", "state": "NY", "zip": "11706-1125", "ntee": "X21", "ruling": "200812", "deductibility": "1", "assets": 0, "income": 0, "revenue": 0}, {"ein": "510587030", "name": "DURHAM TASK FORCE INC", "city": "CORNWALLVILLE", "state": "NY", "zip": "12418-1180", "ntee": "S80", "ruling": "201908", "deductibility": "1", "assets": 0, "income": 0, "revenue": 0}, {"ein": "810775039", "name": "DURHAM MEMORIAL OUTREACH CENTER INC", "city": "BUFFALO", "state": "NY", "zip": "14204-1717", "ntee": "T50", "ruling": "201601", "deductibility": "1", "assets": 47527, "income": 135370, "revenue": 135370}, {"ein": "831366067", "name": "CAIRO DURHAM FOUNDATION INC", "city": "CAIRO", "state": "NY", "zip": "12413-3118", "ntee": "T31", "ruling": "201903", "deductibility": "1", "assets": 0, "income": 0, "revenue": 0}, {"ein": "990472017", "name": "EAST DURHAM ST PATRICKS DAY COMMITTEE LTD", "city": "EAST DURHAM", "state": "NY", "zip": "12423-1615", "ntee": "A27", "ruling": "202410", "deductibility": "1", "assets": 0, "income": 0, "revenue": 0}], "MAYFIELD": [{"ein": "141605011", "name": "MAYFIELD YACHT CLUB INC", "city": "MAYFIELD", "state": "NY", "zip": "12117-3411", "ntee": "Y40", "ruling": "201309", "deductibility": "2", "assets": 491525, "income": 156323, "revenue": 156323}, {"ein": "141636926", "name": "MAYFIELD HISTORICAL SOCIETY", "city": "MAYFIELD", "state": "NY", "zip": "12117-0715", "ntee": "", "ruling": "199305", "deductibility": "1", "assets": 0, "income": 0, "revenue": 0}, {"ein": "141667624", "name": "MAYFIELD FIREMENS ASSOCIATION INC", "city": "MAYFIELD", "state": "NY", "zip": "12117-0271", "ntee": "M24", "ruling": "200804", "deductibility": "1", "assets": 74840, "income": 115736, "revenue": 115736}], "SALISBU": [{"ein": "141662293", "name": "VOLUNTEER AND EXEMPT FIREMEN BENEEVALENT ASSOCIATION OF SALISBU", "city": "SALISBURY MLS", "state": "NY", "zip": "12577-0279", "ntee": "I60", "ruling": "201112", "deductibility": "2", "assets": 0, "income": 0, "revenue": 0}], "CAROGA": [{"ein": "141737357", "name": "NICK STONER TRAILERS OF CAROGA LAKE NEW YORK INC", "city": "CAROGA LAKE", "state": "NY", "zip": "12032-0127", "ntee": "N68", "ruling": "201803", "deductibility": "1", "assets": 0, "income": 0, "revenue": 0}, {"ein": "146025731", "name": "CAROGA LAKE VOLUNTEER FIRE C", "city": "CAROGA LAKE", "state": "NY", "zip": "12032-0000", "ntee": "M24", "ruling": "201209", "deductibility": "1", "assets": 2900199, "income": 269926, "revenue": 269926}, {"ein": "222230701", "name": "CAROGA HISTORICAL ASSOCIATION", "city": "CAROGA LAKE", "state": "NY", "zip": "12032-0434", "ntee": "", "ruling": "200203", "deductibility": "1", "assets": 224129, "income": 23517, "revenue": 21628}, {"ein": "464908519", "name": "EAST CAROGA LAKE ENVIRONMENTAL ASSOCIATION INC", "city": "CAROGA LAKE", "state": "NY", "zip": "12032-0535", "ntee": "C30", "ruling": "201505", "deductibility": "1", "assets": 90267, "income": 28206, "revenue": 27610}, {"ein": "812778740", "name": "CAROGA ARTS COLLECTIVE INC", "city": "CAROGA LAKE", "state": "NY", "zip": "12032-1048", "ntee": "A68", "ruling": "201607", "deductibility": "1", "assets": 3116481, "income": 1454541, "revenue": 1454541}, {"ein": "882869735", "name": "WEST CAROGA LAKE ASSOCIATION INC", "city": "CAROGA LAKE", "state": "NY", "zip": "12032-0158", "ntee": "C11", "ruling": "202306", "deductibility": "1", "assets": 0, "income": 0, "revenue": 0}], "HICKEY": [{"ein": "150528793", "name": "JAMES R HICKEY POST 120 INC", "city": "PALMYRA", "state": "NY", "zip": "14522-1402", "ntee": "", "ruling": "194603", "deductibility": "1", "assets": 70762, "income": 439424, "revenue": 79184}], "XXIII": [{"ein": "160764745", "name": "SAINT JOHN XXIII", "city": "WEST SENECA", "state": "NY", "zip": "14224-1818", "ntee": "", "ruling": "194603", "deductibility": "1", "assets": 0, "income": 0, "revenue": 0}, {"ein": "822526892", "name": "MOVIMIENTO JUAN XXIII USA INC", "city": "BRONX", "state": "NY", "zip": "10469-6244", "ntee": "", "ruling": "202012", "deductibility": "1", "assets": 0, "income": 0, "revenue": 0}, {"ein": "822949329", "name": "MOVIMIENTO JUAN XXIII NEW YORK INC", "city": "BRONX", "state": "NY", "zip": "10452-5758", "ntee": "", "ruling": "202012", "deductibility": "1", "assets": 0, "income": 0, "revenue": 0}, {"ein": "823857657", "name": "MOVIMIENTO JUAN XXIII BROOKLYN INC", "city": "BROOKLYN", "state": "NY", "zip": "11237-2126", "ntee": "", "ruling": "202012", "deductibility": "1", "assets": 0, "income": 0, "revenue": 0}], "HOWLETT": [{"ein": "161044418", "name": "HOWLETT HILL FIRE DEPARTMENT INC", "city": "SYRACUSE", "state": "NY", "zip": "13215-8606", "ntee": "", "ruling": "199609", "deductibility": "1", "assets": 2826163, "income": 543826, "revenue": 543826}], "KENAN": [{"ein": "161265314", "name": "KENAN QUILTERS GUILD", "city": "LOCKPORT", "state": "NY", "zip": "14094-5601", "ntee": "A20", "ruling": "201507", "deductibility": "1", "assets": 0, "income": 0, "revenue": 0}, {"ein": "161508397", "name": "FRIENDS OF CAMP KENAN", "city": "LOCKPORT", "state": "NY", "zip": "14095-0182", "ntee": "T30", "ruling": "201109", "deductibility": "1", "assets": 0, "income": 0, "revenue": 0}, {"ein": "166088230", "name": "KENAN CENTER INC", "city": "LOCKPORT", "state": "NY", "zip": "14094-5601", "ntee": "N31Z", "ruling": "196709", "deductibility": "1", "assets": 7998982, "income": 2295663, "revenue": 1538568}, {"ein": "463977472", "name": "FRIENDS OF KENAN HERB CLUB", "city": "LOCKPORT", "state": "NY", "zip": "14094-1238", "ntee": "N50", "ruling": "201412", "deductibility": "2", "assets": 0, "income": 0, "revenue": 0}, {"ein": "812511875", "name": "KENAN ARTS COUNCIL INC", "city": "LOCKPORT", "state": "NY", "zip": "14094-5601", "ntee": "A20", "ruling": "201605", "deductibility": "1", "assets": 47161, "income": 19899, "revenue": 19899}], "ECO": [{"ein": "161414876", "name": "ECO VILLAGE AT ITHACA INC", "city": "ITHACA", "state": "NY", "zip": "14850-9395", "ntee": "S30Z", "ruling": "199209", "deductibility": "1", "assets": 1, "income": 4281, "revenue": 0}, {"ein": "203446993", "name": "ECO AGENTS INC", "city": "DELHI", "state": "NY", "zip": "13753-8751", "ntee": "C99", "ruling": "201409", "deductibility": "1", "assets": 554419, "income": 245002, "revenue": 245002}, {"ein": "331643353", "name": "ECO TOOLSHED", "city": "HUDSON", "state": "NY", "zip": "12534-3116", "ntee": "A20", "ruling": "202411", "deductibility": "1", "assets": 0, "income": 0, "revenue": 0}, {"ein": "471944947", "name": "ECO ART PROJECT INC", "city": "NEW YORK", "state": "NY", "zip": "10036-0078", "ntee": "A20", "ruling": "201601", "deductibility": "1", "assets": 0, "income": 0, "revenue": 0}, {"ein": "814181001", "name": "ECO LAKE CANCER SOCIETY INC", "city": "GREAT NECK", "state": "NY", "zip": "11021-1015", "ntee": "G30", "ruling": "201708", "deductibility": "1", "assets": 667446, "income": 0, "revenue": 0}, {"ein": "862262449", "name": "ECO YOUNG CREATIVE EDUCATION INC", "city": "NEW YORK CITY", "state": "NY", "zip": "10002-6804", "ntee": "B99", "ruling": "202108", "deductibility": "1", "assets": 0, "income": 0, "revenue": 0}, {"ein": "882097017", "name": "ECO GLOBAL INTERNATIONAL INC", "city": "BROOKLYN", "state": "NY", "zip": "11235-6693", "ntee": "P20", "ruling": "202205", "deductibility": "1", "assets": 0, "income": 0, "revenue": 0}, {"ein": "884158118", "name": "LIFECYCLE ECO-FARMING INTERNATIONAL INC", "city": "KERHONKSON", "state": "NY", "zip": "12446-1518", "ntee": "K20", "ruling": "202305", "deductibility": "1", "assets": 0, "income": 0, "revenue": 0}, {"ein": "921102741", "name": "ECO BUEN VIVIR NY INC", "city": "BRONX", "state": "NY", "zip": "10462-4833", "ntee": "C30", "ruling": "202301", "deductibility": "1", "assets": 1, "income": 2500, "revenue": 2500}], "SUWINSKI": [{"ein": "161587911", "name": "THE SUWINSKI FAMILY FOUNDATION INC", "city": "PITTSFORD", "state": "NY", "zip": "14534-0000", "ntee": "T22", "ruling": "200007", "deductibility": "1", "assets": 7201766, "income": 3244586, "revenue": 0}], "INTENTIONAL": [{"ein": "161588457", "name": "QUAKER INTENTIONAL VILLAGE PROJECT", "city": "EAST CHATHAM", "state": "NY", "zip": "12060-3612", "ntee": "L20", "ruling": "200206", "deductibility": "1", "assets": 0, "income": 0, "revenue": 0}, {"ein": "831229430", "name": "INTENTIONAL GROWTH FOUNDATION INC", "city": "BRONX", "state": "NY", "zip": "10457-2911", "ntee": "W99", "ruling": "201807", "deductibility": "1", "assets": 0, "income": 0, "revenue": 0}], "KIO": [{"ein": "166047015", "name": "GRASSE POND HUNTING CLUB INC C O LEVI KIO", "city": "HERMON", "state": "NY", "zip": "13652-3174", "ntee": "N61", "ruling": "201905", "deductibility": "2", "assets": 0, "income": 0, "revenue": 0}], "AHUVA": [{"ein": "200556278", "name": "STEVEN & AHUVA LOWENTHAL CHARITABLE FOUNDATION", "city": "BROOKLYN", "state": "NY", "zip": "11234-3524", "ntee": "T20", "ruling": "200412", "deductibility": "1", "assets": 182441, "income": 30000, "revenue": 0}], "WEISER": [{"ein": "201802754", "name": "WEISER FAMILY FOUNDATION TRUST", "city": "MONSEY", "state": "NY", "zip": "10952-0981", "ntee": "T20", "ruling": "200505", "deductibility": "1", "assets": 3573213, "income": 101308, "revenue": 0}, {"ein": "260473748", "name": "WEISER FOUNDATION", "city": "BROOKLYN", "state": "NY", "zip": "11211-8919", "ntee": "", "ruling": "200807", "deductibility": "2", "assets": 875453, "income": 80026, "revenue": 0}], "AMNON": [{"ein": "202048991", "name": "AMNON FOUNDATION INC", "city": "BROOKLYN", "state": "NY", "zip": "11234-5894", "ntee": "T20", "ruling": "200508", "deductibility": "1", "assets": 14705, "income": 1000, "revenue": 0}], "MEON": [{"ein": "202600896", "name": "CONGREGATION YESHIVAS MEON HATORAH INC", "city": "SUFFERN", "state": "NY", "zip": "10901-4215", "ntee": "X30", "ruling": "200609", "deductibility": "1", "assets": 0, "income": 0, "revenue": 0}], "GRANDPARENTS": [{"ein": "203463651", "name": "GRANDPARENTS AROUND THE WORLD PRODUCTIONS INC", "city": "BRONX", "state": "NY", "zip": "10461-5323", "ntee": "A23", "ruling": "201501", "deductibility": "1", "assets": 28990, "income": 13044, "revenue": 13044}, {"ein": "264305998", "name": "DIGITAL GRANDPARENTS", "city": "CHATHAM", "state": "NY", "zip": "12037-3520", "ntee": "B60", "ruling": "201002", "deductibility": "1", "assets": 0, "income": 0, "revenue": 0}], "LIGHTNINGS": [{"ein": "204556658", "name": "LIGHTNINGS JUNIOR CHEERLEADINGINCORPORATED", "city": "CHEEKTOWAGA", "state": "NY", "zip": "14227-3546", "ntee": "O50", "ruling": "201307", "deductibility": "1", "assets": 64199, "income": 331440, "revenue": 300693}], "E6": [{"ein": "204564022", "name": "ROC E6", "city": "FAIRPORT", "state": "NY", "zip": "14450-2471", "ntee": "N99", "ruling": "202109", "deductibility": "1", "assets": 0, "income": 0, "revenue": 0}], "GNOSTICANTHROPOLOGY": [{"ein": "205711960", "name": "NORTHEAST ASSOCIATION OF GNOSTICANTHROPOLOGY", "city": "BALLSTON SPA", "state": "NY", "zip": "12020-1805", "ntee": "B60", "ruling": "200707", "deductibility": "1", "assets": 13332, "income": 60273, "revenue": 60273}], "CHORALIS": [{"ein": "222976123", "name": "ARS CHORALIS INC", "city": "WOODSTOCK", "state": "NY", "zip": "12498-0903", "ntee": "A6B", "ruling": "201307", "deductibility": "1", "assets": 41223, "income": 66971, "revenue": 66971}], "HAMESHULASH": [{"ein": "223605774", "name": "CHUT HAMESHULASH INC", "city": "BROOKLYN", "state": "NY", "zip": "11204-0331", "ntee": "X30", "ruling": "201605", "deductibility": "1", "assets": 1999137, "income": 180051, "revenue": 65696}], "BENOIT": [{"ein": "226484710", "name": "BENOIT TRUST", "city": "BRONX", "state": "NY", "zip": "10466-1928", "ntee": "", "ruling": "194603", "deductibility": "1", "assets": 0, "income": 0, "revenue": 0}], "KETTLE": [{"ein": "232464555", "name": "BLACK KETTLE SPORTSMEN INC", "city": "WINDSOR", "state": "NY", "zip": "13865-2704", "ntee": "", "ruling": "199308", "deductibility": "2", "assets": 0, "income": 0, "revenue": 0}, {"ein": "270932122", "name": "CORTLAND-ONONDAGA FEDERATION OF KETTLE LAKE ASSOCIATIONS INC", "city": "TULLY", "state": "NY", "zip": "13159-2101", "ntee": "C32", "ruling": "201001", "deductibility": "1", "assets": 0, "income": 0, "revenue": 0}, {"ein": "474266447", "name": "KETTLE CORN NEW MUSIC INC", "city": "NEW YORK", "state": "NY", "zip": "10003-4921", "ntee": "A68", "ruling": "201509", "deductibility": "1", "assets": 0, "income": 0, "revenue": 0}], "TOR": [{"ein": "237148054", "name": "HI-TOR ANIMAL CARE CENTER INC", "city": "GARNERVILLE", "state": "NY", "zip": "10923-0044", "ntee": "D200", "ruling": "197110", "deductibility": "1", "assets": 417604, "income": 1068427, "revenue": 1295419}], "POPULOUS": [{"ein": "237259403", "name": "UNITY POPULOUS CHURCH INC", "city": "COLLEGE POINT", "state": "NY", "zip": "11356-2736", "ntee": "", "ruling": "197302", "deductibility": "1", "assets": 0, "income": 0, "revenue": 0}], "JEMAL": [{"ein": "237315121", "name": "SAMUEL JEMAL FOUNDATION INC", "city": "NEW YORK", "state": "NY", "zip": "10123-1100", "ntee": "", "ruling": "197310", "deductibility": "1", "assets": 1, "income": 1, "revenue": 0}], "HADACH": [{"ein": "237401202", "name": "YESHIVA OR HADACH", "city": "BROOKLYN", "state": "NY", "zip": "11219-3632", "ntee": "", "ruling": "197410", "deductibility": "1", "assets": 0, "income": 0, "revenue": 0}], "DIFFERENT": [{"ein": "262947784", "name": "A DIFFERENT WAY IN READING CENTER INC", "city": "SCHENECTADY", "state": "NY", "zip": "12302-2225", "ntee": "B92", "ruling": "200812", "deductibility": "1", "assets": 13654, "income": 3111, "revenue": 0}, {"ein": "461828747", "name": "DIFFERENT ENCOUNTERS", "city": "MANHASSET", "state": "NY", "zip": "11030-1437", "ntee": "O50", "ruling": "201410", "deductibility": "1", "assets": 0, "income": 0, "revenue": 0}, {"ein": "462917438", "name": "2 SISTERS 2 DIFFERENT KINDS OF LUPUS INC", "city": "YONKERS", "state": "NY", "zip": "10704-0294", "ntee": "G80", "ruling": "201701", "deductibility": "1", "assets": 0, "income": 0, "revenue": 0}, {"ein": "811338580", "name": "PEOPLE ARE DIFFERENT INC", "city": "RIVERDALE", "state": "NY", "zip": "10463-1616", "ntee": "H99", "ruling": "201607", "deductibility": "1", "assets": 0, "income": 0, "revenue": 0}, {"ein": "824355419", "name": "DIFFERENT & ABLE FOUNDATION", "city": "NEW YORK", "state": "NY", "zip": "10028-0019", "ntee": "T23", "ruling": "202310", "deductibility": "1", "assets": 354925, "income": 255734, "revenue": 0}, {"ein": "853029655", "name": "A DIFFERENT OUTCOME INC", "city": "CASTLETON", "state": "NY", "zip": "12033-9557", "ntee": "O51", "ruling": "202012", "deductibility": "1", "assets": 19262, "income": 3100, "revenue": 3100}, {"ein": "922728437", "name": "DARE TO BE DIFFERENT WESTCHESTER INCORPORATED", "city": "WHITE PLAINS", "state": "NY", "zip": "10607-1313", "ntee": "K99", "ruling": "202312", "deductibility": "1", "assets": 0, "income": 0, "revenue": 0}], "ALCO": [{"ein": "264210488", "name": "ALCO HISTORICAL & TECHNICAL SOCIETY", "city": "SCHENECTADY", "state": "NY", "zip": "12301-1029", "ntee": "A54", "ruling": "201002", "deductibility": "1", "assets": 5265, "income": 9657, "revenue": 9657}], "RESTORING": [{"ein": "264577399", "name": "RESTORING URBAN NEIGHBORHOODS LLC", "city": "NEW YORK", "state": "NY", "zip": "10038-4484", "ntee": "L20", "ruling": "200910", "deductibility": "1", "assets": 19525581, "income": 4271158, "revenue": -50692}, {"ein": "454252738", "name": "RESTORING COMMUNITIES HOUSING DEVELOPMENT FUND CORPORATION", "city": "NEW YORK", "state": "NY", "zip": "10038-4484", "ntee": "L11", "ruling": "201305", "deductibility": "1", "assets": 852435, "income": 682500, "revenue": 682500}, {"ein": "454962702", "name": "TEACHING AND RESTORING YOUTH INC", "city": "BUFFALO", "state": "NY", "zip": "14211-2538", "ntee": "L41", "ruling": "201407", "deductibility": "1", "assets": 167438, "income": 196, "revenue": 196}, {"ein": "812058737", "name": "DEVELOPING RESTORING ENRICHING ADVANCING MANY FOUNDATION INC", "city": "BROOKLYN", "state": "NY", "zip": "11225-2709", "ntee": "E01", "ruling": "201705", "deductibility": "1", "assets": 2296, "income": 47811, "revenue": 47811}, {"ein": "820702668", "name": "RESTORING FAITH CHURCH", "city": "ST ALBANS", "state": "NY", "zip": "11412-1208", "ntee": "X20", "ruling": "202210", "deductibility": "1", "assets": 0, "income": 0, "revenue": 0}, {"ein": "833258532", "name": "RESTORING GRACE MINISTRIES", "city": "CENTRAL ISLIP", "state": "NY", "zip": "11722-4018", "ntee": "X20", "ruling": "201909", "deductibility": "1", "assets": 0, "income": 0, "revenue": 0}, {"ein": "844369299", "name": "RESTORING THE BROKEN CROWNS", "city": "SAINT ALBANS", "state": "NY", "zip": "11412-3328", "ntee": "F80", "ruling": "202005", "deductibility": "1", "assets": 0, "income": 0, "revenue": 0}, {"ein": "853264679", "name": "RESTORING HOPE COALITION INC", "city": "CAMDEN", "state": "NY", "zip": "13316-1127", "ntee": "K91", "ruling": "202101", "deductibility": "1", "assets": 0, "income": 0, "revenue": 0}, {"ein": "920393919", "name": "RESTORING HONOR VETERAN SUPPORT AND ADVOCACY INC", "city": "HURLEY", "state": "NY", "zip": "12443-5218", "ntee": "P01", "ruling": "202211", "deductibility": "1", "assets": 0, "income": 0, "revenue": 0}, {"ein": "920438728", "name": "RESTORING HOPE SALVATION INTERNATIONAL MINISTRIES INC", "city": "BRONX", "state": "NY", "zip": "10454-3919", "ntee": "X20", "ruling": "202408", "deductibility": "1", "assets": 0, "income": 0, "revenue": 0}, {"ein": "933217147", "name": "RESTORING HOPE FOUNDATION", "city": "GLEN COVE", "state": "NY", "zip": "11542-3205", "ntee": "O50", "ruling": "202309", "deductibility": "1", "assets": 0, "income": 0, "revenue": 0}, {"ein": "933229016", "name": "RESTORING HEALTH & UPLIFTING SOULS HAVEN", "city": "STATEN ISLAND", "state": "NY", "zip": "10310-2021", "ntee": "S99", "ruling": "202312", "deductibility": "1", "assets": 0, "income": 0, "revenue": 0}], "EVES": [{"ein": "270162016", "name": "EVES SANCTUARY INC", "city": "NEW YORK", "state": "NY", "zip": "10037-3646", "ntee": "D20", "ruling": "201003", "deductibility": "1", "assets": 0, "income": 0, "revenue": 0}], "JOGUES": [{"ein": "270634995", "name": "PARISH OF ST ISAAC JOGUES", "city": "CHESTERTOWN", "state": "NY", "zip": "12817-0471", "ntee": "", "ruling": "194603", "deductibility": "1", "assets": 0, "income": 0, "revenue": 0}], "EDISCOVERY": [{"ein": "270681118", "name": "WOMEN IN EDISCOVERY", "city": "NEW YORK", "state": "NY", "zip": "10010-2418", "ntee": "S41", "ruling": "201409", "deductibility": "2", "assets": 0, "income": 0, "revenue": 0}], "QUETZALITOS": [{"ein": "272549938", "name": "QUETZALITOS F C CORP", "city": "BRONX", "state": "NY", "zip": "10465-2160", "ntee": "N64", "ruling": "201208", "deductibility": "1", "assets": 0, "income": 0, "revenue": 0}], "PUTTING": [{"ein": "273710229", "name": "PUTTING NEW YORKERS TO WORK INC", "city": "NEW YORK", "state": "NY", "zip": "10022-6736", "ntee": "J05", "ruling": "201206", "deductibility": "2", "assets": 80506, "income": 555000, "revenue": 555000}], "MAYAS": [{"ein": "273889674", "name": "MAYAS HOPE FOUNDATION INC", "city": "NEW YORK", "state": "NY", "zip": "10001-7604", "ntee": "T20", "ruling": "201205", "deductibility": "1", "assets": 826421, "income": 1534333, "revenue": 1022900}], "BARONE": [{"ein": "332179964", "name": "JOE BARONE FOUNDATION LTD", "city": "STATEN ISLAND", "state": "NY", "zip": "10314-3019", "ntee": "N12", "ruling": "202506", "deductibility": "1", "assets": 0, "income": 0, "revenue": 0}], "REPEAL": [{"ein": "332233999", "name": "REPEAL THE SECOND INC", "city": "NEW YORK", "state": "NY", "zip": "10035-3881", "ntee": "R20", "ruling": "202501", "deductibility": "1", "assets": 0, "income": 0, "revenue": 0}], "FUREVER": [{"ein": "332619275", "name": "GREGORYS FUREVER HOME INC", "city": "SHERBURNE", "state": "NY", "zip": "13460-4705", "ntee": "D20", "ruling": "202506", "deductibility": "1", "assets": 0, "income": 0, "revenue": 0}, {"ein": "452460708", "name": "FUREVER FRIENDS INC", "city": "WALWORTH", "state": "NY", "zip": "14568-9437", "ntee": "D20", "ruling": "201603", "deductibility": "1", "assets": 0, "income": 0, "revenue": 0}, {"ein": "455065292", "name": "FUREVER FRIENDS DOG RESCUE OF WNY INC", "city": "GRAND ISLAND", "state": "NY", "zip": "14072-1462", "ntee": "D20", "ruling": "201206", "deductibility": "1", "assets": 84489, "income": 154029, "revenue": 153694}, {"ein": "863107458", "name": "HEADED FOR FUREVER INC", "city": "SCOTTSVILLE", "state": "NY", "zip": "14546-9701", "ntee": "D20", "ruling": "202111", "deductibility": "1", "assets": 5639, "income": 92612, "revenue": 60492}, {"ein": "884078611", "name": "FUREVER FERRETS SANCTUARY INC", "city": "E ROCHESTER", "state": "NY", "zip": "14445-2263", "ntee": "D01", "ruling": "202210", "deductibility": "1", "assets": 0, "income": 0, "revenue": 0}, {"ein": "923045217", "name": "A FUREVER CHANCE INC", "city": "BUFFALO", "state": "NY", "zip": "14215-3905", "ntee": "D20", "ruling": "202304", "deductibility": "1", "assets": 0, "income": 0, "revenue": 0}, {"ein": "932835769", "name": "FUREVER FRIENDS RESCUE INC", "city": "LEVITTOWN", "state": "NY", "zip": "11756-5218", "ntee": "D99", "ruling": "202309", "deductibility": "1", "assets": 357, "income": 8335, "revenue": 0}, {"ein": "932981273", "name": "FINNS FUREVER FELINE RESCUE INC", "city": "FREWSBURG", "state": "NY", "zip": "14738-9716", "ntee": "D20", "ruling": "202309", "deductibility": "1", "assets": 0, "income": 0, "revenue": 0}, {"ein": "933932565", "name": "FUREVER FRIENDS FAMILY RESCUE INC", "city": "HOPEWELL JCT", "state": "NY", "zip": "12533-8322", "ntee": "D20", "ruling": "202312", "deductibility": "1", "assets": 1, "income": 1, "revenue": 0}], "GOVOLLEY": [{"ein": "333800127", "name": "GOVOLLEY INC", "city": "NEW YORK", "state": "NY", "zip": "10065-6783", "ntee": "B99", "ruling": "202504", "deductibility": "1", "assets": 0, "income": 0, "revenue": 0}], "BENEDICTINES": [{"ein": "334741405", "name": "MISSIONARY BENEDICTINES OF THE POOR INCORPORATED", "city": "RIDGEWOOD", "state": "NY", "zip": "11385-5149", "ntee": "X20", "ruling": "202506", "deductibility": "1", "assets": 0, "income": 0, "revenue": 0}], "AUCTION": [{"ein": "364716465", "name": "MEXICO MENNONITE BENEFIT AUCTION", "city": "PENN YAN", "state": "NY", "zip": "14527-9319", "ntee": "P20", "ruling": "201211", "deductibility": "1", "assets": 66803, "income": 299407, "revenue": 299407}, {"ein": "611802979", "name": "HGPY NY INTERNATIONAL AUCTION INC", "city": "NEW YORK", "state": "NY", "zip": "10017-4761", "ntee": "A30", "ruling": "201610", "deductibility": "1", "assets": 0, "income": 0, "revenue": 0}], "ARDIAN": [{"ein": "383886914", "name": "ARDIAN US FOUNDATION INC", "city": "NEW YORK", "state": "NY", "zip": "10019-4602", "ntee": "T21", "ruling": "201210", "deductibility": "1", "assets": 41133, "income": 1243854, "revenue": 0}], "HOORETZ": [{"ein": "421547673", "name": "CONG 3PRI HOORETZ", "city": "BROOKLYN", "state": "NY", "zip": "11204-1405", "ntee": "X30", "ruling": "200210", "deductibility": "1", "assets": 0, "income": 0, "revenue": 0}], "CD": [{"ein": "453252730", "name": "CD FAMILY FOUNDATION", "city": "BROOKLYN", "state": "NY", "zip": "11213-5127", "ntee": "T20", "ruling": "201305", "deductibility": "1", "assets": 1, "income": 1, "revenue": 0}], "CELIAC": [{"ein": "453934526", "name": "GREATER ROCHESTER CELIAC SUPPORT GROUP LTD", "city": "ROCHESTER", "state": "NY", "zip": "14610-0024", "ntee": "G19", "ruling": "201202", "deductibility": "1", "assets": 0, "income": 0, "revenue": 0}, {"ein": "812771838", "name": "CELIAC STRONG CAMP INC", "city": "MARION", "state": "NY", "zip": "14505-9744", "ntee": "O50", "ruling": "201611", "deductibility": "1", "assets": 0, "income": 0, "revenue": 0}, {"ein": "992715138", "name": "COMMUNITY 4 CELIAC INC", "city": "WOODBURY", "state": "NY", "zip": "11797-3111", "ntee": "H70", "ruling": "202409", "deductibility": "1", "assets": 0, "income": 0, "revenue": 0}], "NEXTERRA": [{"ein": "454037873", "name": "NEXTERRA FOUNDATION INC", "city": "MILLERTON", "state": "NY", "zip": "12546-4748", "ntee": "U30", "ruling": "201203", "deductibility": "1", "assets": 1036873, "income": 1572384, "revenue": 0}], "EDUMAKATE": [{"ein": "454304039", "name": "EDUMAKATE", "city": "WOODMERE", "state": "NY", "zip": "11598-1310", "ntee": "N60", "ruling": "201310", "deductibility": "1", "assets": 0, "income": 0, "revenue": 0}], "B3": [{"ein": "455155554", "name": "B3 THE JEWISH BOOMER PLATFORM INC", "city": "NEW YORK", "state": "NY", "zip": "10007-1398", "ntee": "X99", "ruling": "201404", "deductibility": "1", "assets": 0, "income": 0, "revenue": 0}], "WHITSONS": [{"ein": "456163782", "name": "WHITSONS FOUNDATION", "city": "ISLANDIA", "state": "NY", "zip": "11749-5216", "ntee": "B82", "ruling": "201105", "deductibility": "1", "assets": 88681, "income": 36798, "revenue": 36798}], "NETWK": [{"ein": "461834441", "name": "ANGEL COMPASS NETWK FOR CHARITY INC", "city": "UNIONDALE", "state": "NY", "zip": "11556-4200", "ntee": "T30", "ruling": "201502", "deductibility": "1", "assets": 0, "income": 0, "revenue": 0}], "SLEDNY": [{"ein": "462166089", "name": "SLEDNY INC", "city": "CENTRAL SQ", "state": "NY", "zip": "13036-0740", "ntee": "Z99", "ruling": "201406", "deductibility": "1", "assets": 289615, "income": 147601, "revenue": 147101}], "STOPS": [{"ein": "462455008", "name": "MUSIC NEVER STOPS THE TYLER SEAMAN FOUNDATION", "city": "MERRICK", "state": "NY", "zip": "11566-3725", "ntee": "T12", "ruling": "201308", "deductibility": "1", "assets": 0, "income": 0, "revenue": 0}], "FAMBASE": [{"ein": "462644386", "name": "BUFFALO FAMBASE INC", "city": "KENMORE", "state": "NY", "zip": "14217-0567", "ntee": "T12", "ruling": "201406", "deductibility": "1", "assets": 0, "income": 0, "revenue": 0}], "PULMONARY": [{"ein": "464636559", "name": "PULMONARY WELLNESS FOUNDATION INC", "city": "NEW YORK", "state": "NY", "zip": "10016-0135", "ntee": "H43", "ruling": "201503", "deductibility": "1", "assets": 53928, "income": 263353, "revenue": 263353}], "CAMBIO": [{"ein": "465214867", "name": "CAMBIO LABS CO", "city": "LONG ISLAND CITY", "state": "NY", "zip": "11103-2381", "ntee": "B90", "ruling": "201503", "deductibility": "1", "assets": 90493, "income": 301937, "revenue": 301937}, {"ein": "844458371", "name": "INICIATIVA CIUDADANA PARA EL CAMBIO CITIZENSHIP INITIATIVE FOR THE CH", "city": "CENTRAL ISLIP", "state": "NY", "zip": "11722-3124", "ntee": "P20", "ruling": "202005", "deductibility": "1", "assets": 0, "income": 0, "revenue": 0}], "VOZROZHDENIE": [{"ein": "471785672", "name": "SPIRITUAL CENTER REVIVAL-VOZROZHDENIE INC", "city": "BROOKLYN", "state": "NY", "zip": "11224-2017", "ntee": "X20", "ruling": "201710", "deductibility": "1", "assets": 0, "income": 0, "revenue": 0}], "ZAR": [{"ein": "472625795", "name": "DAVOOD & TAMARA ZAR FAMILY FOUNDATION", "city": "NEW YORK", "state": "NY", "zip": "10018-0000", "ntee": "T20", "ruling": "201608", "deductibility": "1", "assets": 217056, "income": 707992, "revenue": 0}], "INCORPORA": [{"ein": "473843007", "name": "FRIENDS OF NORTHERN ONONDAGA PUBLIC LIBRARY AT BREWERTON NY INCORPORA", "city": "BREWERTON", "state": "NY", "zip": "13029-8719", "ntee": "W11", "ruling": "201506", "deductibility": "1", "assets": 0, "income": 0, "revenue": 0}, {"ein": "852453047", "name": "NORTH AMERICA REGION OF THE PEOPLES NATIONAL CONGRESS REFORM INCORPORA", "city": "BROOKLYN", "state": "NY", "zip": "11226-7008", "ntee": "", "ruling": "202112", "deductibility": "0", "assets": 0, "income": 0, "revenue": 0}, {"ein": "994704470", "name": "WOODSIDE MANOR I HOUSING DEVELOPMENT FUND COMPANY INCORPORA", "city": "CORNING", "state": "NY", "zip": "14830-2702", "ntee": "L20", "ruling": "202503", "deductibility": "1", "assets": 0, "income": 0, "revenue": 0}, {"ein": "994709214", "name": "WOODSIDE MANOR II HOUSING DEVELOPMENT FUND COMPANY INCORPORA", "city": "CORNING", "state": "NY", "zip": "14830-2702", "ntee": "L20", "ruling": "202503", "deductibility": "1", "assets": 0, "income": 0, "revenue": 0}], "PELLETTIERI": [{"ein": "474233533", "name": "PELLETTIERI STONE CARVERS ACADEMY INC", "city": "NEW YORK", "state": "NY", "zip": "10027-6036", "ntee": "A25", "ruling": "201509", "deductibility": "1", "assets": 67082, "income": 68073, "revenue": 68073}], "CAVAR": [{"ein": "474525320", "name": "CAVAR INC", "city": "ROSEDALE", "state": "NY", "zip": "11422-1029", "ntee": "P30", "ruling": "201606", "deductibility": "1", "assets": 0, "income": 0, "revenue": 0}], "CADA": [{"ein": "475150844", "name": "CADA FOUNDATION INC", "city": "NEW YORK", "state": "NY", "zip": "10013-3556", "ntee": "A99", "ruling": "201703", "deductibility": "1", "assets": 0, "income": 0, "revenue": 0}], "HPS": [{"ein": "522300814", "name": "HPS FOUNDATION", "city": "BROOKLYN", "state": "NY", "zip": "11249-7935", "ntee": "T21", "ruling": "200105", "deductibility": "1", "assets": 2483359, "income": 171271, "revenue": 0}], "TRIBECARTS": [{"ein": "542180111", "name": "TRIBECARTS INC", "city": "NEW YORK", "state": "NY", "zip": "10013-0000", "ntee": "A68", "ruling": "200801", "deductibility": "1", "assets": 0, "income": 0, "revenue": 0}], "SMILEY": [{"ein": "650162460", "name": "FREDERICK & GRETA SMILEY CHARITABLE FOUNDATION", "city": "NEW YORK", "state": "NY", "zip": "10016-0820", "ntee": "", "ruling": "199104", "deductibility": "1", "assets": 905903, "income": 341955, "revenue": 0}], "BANJARA": [{"ein": "800489896", "name": "BABA LAKKHI SHAH BANJARA CENTER OF NEW YORK", "city": "S RICHMOND HL", "state": "NY", "zip": "11419-1314", "ntee": "X21", "ruling": "201101", "deductibility": "1", "assets": 0, "income": 0, "revenue": 0}], "KATAL": [{"ein": "811323278", "name": "KATAL CENTER FOR EQUITY HEALTH AND JUSTICE INC", "city": "BROOKLYN", "state": "NY", "zip": "11201-3022", "ntee": "Q33", "ruling": "201611", "deductibility": "1", "assets": 1321320, "income": 637449, "revenue": 637449}, {"ein": "813015359", "name": "KATAL ACTION FOR HEALTH EQUITY AND JUSTICE INC", "city": "BROOKLYN", "state": "NY", "zip": "11201-3022", "ntee": "R20", "ruling": "201905", "deductibility": "2", "assets": 0, "income": 0, "revenue": 0}], "ALAMIYYAH": [{"ein": "811883085", "name": "JAMUIYYATUL-ISTIJAABATUL-ALAMIYYAH", "city": "BROOKLYN", "state": "NY", "zip": "11208-5002", "ntee": "X40", "ruling": "201807", "deductibility": "1", "assets": 0, "income": 0, "revenue": 0}], "SUPERKICK": [{"ein": "812607530", "name": "SUPERKICK FOUNDATION INC", "city": "NEW ROCHELLE", "state": "NY", "zip": "10801-6616", "ntee": "A12", "ruling": "202007", "deductibility": "1", "assets": 1577, "income": 0, "revenue": 0}], "FENSTER": [{"ein": "813650849", "name": "FENSTER FAMILY FOUNDATION TRUST", "city": "BROOKLYN", "state": "NY", "zip": "11210-4520", "ntee": "T22", "ruling": "201611", "deductibility": "1", "assets": 209623, "income": 126603, "revenue": 0}], "MOC": [{"ein": "813816852", "name": "MOC ARTS & THEATRE INC", "city": "BROOKLYN", "state": "NY", "zip": "11216-6239", "ntee": "A65", "ruling": "201702", "deductibility": "1", "assets": 0, "income": 0, "revenue": 0}], "JCL": [{"ein": "820907176", "name": "LOVE WITHOUT BARRIERS JCL FOUNDATION FUNDACION AMOR SIN BARR", "city": "PRT JEFFERSON", "state": "NY", "zip": "11777-1110", "ntee": "P20", "ruling": "201711", "deductibility": "1", "assets": 0, "income": 0, "revenue": 0}], "BIENVENIDO": [{"ein": "822542816", "name": "BIENVENIDO SANTOS FOUNDATION INC", "city": "BROOKLYN", "state": "NY", "zip": "11208-1726", "ntee": "X21", "ruling": "202206", "deductibility": "1", "assets": 0, "income": 0, "revenue": 0}], "AAA": [{"ein": "822577901", "name": "NEXTGEN AAA FOUNDATION", "city": "NEW YORK", "state": "NY", "zip": "10003-6803", "ntee": "N11", "ruling": "201802", "deductibility": "1", "assets": 28072, "income": 179931, "revenue": 179931}, {"ein": "921343889", "name": "AAA 4 BABY INC", "city": "BROOKLYN", "state": "NY", "zip": "11225-1666", "ntee": "P60", "ruling": "202301", "deductibility": "1", "assets": 0, "income": 0, "revenue": 0}, {"ein": "932092755", "name": "AAA GOLF FOR GOOD INC", "city": "BETHPAGE", "state": "NY", "zip": "11714-4523", "ntee": "T30", "ruling": "202402", "deductibility": "1", "assets": 0, "income": 0, "revenue": 0}, {"ein": "990387838", "name": "AAA HOPE FOR U INC", "city": "OAKDALE", "state": "NY", "zip": "11769-2300", "ntee": "P12", "ruling": "202408", "deductibility": "1", "assets": 0, "income": 0, "revenue": 0}], "METER": [{"ein": "823079749", "name": "NEW YORK SAFE UTILITY METER ASSOCIATION INC", "city": "WOODSTOCK", "state": "NY", "zip": "12498-0031", "ntee": "W90", "ruling": "201711", "deductibility": "1", "assets": 12492, "income": 275, "revenue": 275}], "DDC": [{"ein": "824006294", "name": "DDC FOUNDATION", "city": "BUFFALO", "state": "NY", "zip": "14211-3103", "ntee": "O50", "ruling": "201805", "deductibility": "1", "assets": 0, "income": 0, "revenue": 0}], "OCAD": [{"ein": "831419187", "name": "OCAD INC", "city": "ARDSLEY", "state": "NY", "zip": "10502-1909", "ntee": "B03", "ruling": "202006", "deductibility": "1", "assets": 0, "income": 0, "revenue": 0}], "CUS": [{"ein": "832320332", "name": "CUS D AMATOS KO BOXING GYM INC", "city": "CATSKILL", "state": "NY", "zip": "12414-1717", "ntee": "N60", "ruling": "202111", "deductibility": "1", "assets": 0, "income": 0, "revenue": 0}, {"ein": "922698325", "name": "CUS FOUNDATION INC", "city": "LIVERPOOL", "state": "NY", "zip": "13090-1081", "ntee": "P40", "ruling": "202303", "deductibility": "1", "assets": 0, "income": 0, "revenue": 0}], "YALAMANCHI": [{"ein": "833049779", "name": "YALAMANCHI FAMILY FOUNDATION", "city": "NEW YORK", "state": "NY", "zip": "10014-1033", "ntee": "T20", "ruling": "202003", "deductibility": "1", "assets": 2074477, "income": 240341, "revenue": 0}], "JOSIES": [{"ein": "833665733", "name": "JOSIES LEGACY INC", "city": "BROOKLYN", "state": "NY", "zip": "11221-2486", "ntee": "F80", "ruling": "201904", "deductibility": "1", "assets": 0, "income": 0, "revenue": 0}], "SCHEME": [{"ein": "841769497", "name": "PYRAMID SCHEME TERMINATION CAUSE", "city": "NEW YORK", "state": "NY", "zip": "10019-5174", "ntee": "B99", "ruling": "201906", "deductibility": "1", "assets": 0, "income": 0, "revenue": 0}], "SALEH": [{"ein": "844059036", "name": "SALEH HAIR FOUNDATION", "city": "CHEEKTOWAGA", "state": "NY", "zip": "14215-3612", "ntee": "B90", "ruling": "202002", "deductibility": "1", "assets": 0, "income": 0, "revenue": 0}, {"ein": "872049657", "name": "SALEH FOUNDATION INC", "city": "JAMAICA", "state": "NY", "zip": "11432-2330", "ntee": "W99", "ruling": "202111", "deductibility": "1", "assets": 0, "income": 0, "revenue": 0}], "SOUTIEN": [{"ein": "844542898", "name": "ASSOCIATION POUR LE SOUTIEN DES ENFANTS D HAITI INC", "city": "SPRING VALLEY", "state": "NY", "zip": "10977-2758", "ntee": "S12", "ruling": "202003", "deductibility": "1", "assets": 6726, "income": 6016, "revenue": 6016}], "NCPD": [{"ein": "844597317", "name": "NCPD SUPERIOR OFFICERS ASSOCIATION CHARITABLE FOUNDATION", "city": "PLAINVIEW", "state": "NY", "zip": "11803-4951", "ntee": "I60", "ruling": "202007", "deductibility": "1", "assets": 148702, "income": 130814, "revenue": 130814}, {"ein": "883835077", "name": "NCPD LACROSSE CLUB INC", "city": "HOLBROOK", "state": "NY", "zip": "11741-5029", "ntee": "N12", "ruling": "202209", "deductibility": "1", "assets": 0, "income": 0, "revenue": 0}, {"ein": "992676813", "name": "NCPD GOLF INC", "city": "MINEOLA", "state": "NY", "zip": "11501-4883", "ntee": "F80", "ruling": "202409", "deductibility": "1", "assets": 7550, "income": 49258, "revenue": 31153}], "GOLFO": [{"ein": "845137602", "name": "IASNY FOUNDED BY CASTELLAMMARE DEL GOLFO INC", "city": "STATEN ISLAND", "state": "NY", "zip": "10309-1342", "ntee": "A23", "ruling": "202406", "deductibility": "1", "assets": 1, "income": 0, "revenue": 0}], "DHARMADATTA": [{"ein": "853167871", "name": "DHARMADATTA COMMUNITY", "city": "PEEKSKILL", "state": "NY", "zip": "10566-3762", "ntee": "X50", "ruling": "202105", "deductibility": "1", "assets": 543186, "income": 194055, "revenue": 194055}], "SHIMIE": [{"ein": "854181283", "name": "CONG SHIMIE DVAR HASHEM", "city": "BROOKLYN", "state": "NY", "zip": "11211-7394", "ntee": "X30", "ruling": "202206", "deductibility": "1", "assets": 0, "income": 0, "revenue": 0}], "MALOCA": [{"ein": "854391575", "name": "MALOCA CULTURAL FOUNDATION INC", "city": "NEW YORK", "state": "NY", "zip": "10009-6022", "ntee": "A20", "ruling": "202103", "deductibility": "1", "assets": 0, "income": 0, "revenue": 0}], "LEADETH": [{"ein": "862975726", "name": "HE LEADETH ME MINISTRIES INC", "city": "MOUNT VERNON", "state": "NY", "zip": "10553-1800", "ntee": "X99", "ruling": "202109", "deductibility": "1", "assets": 0, "income": 0, "revenue": 0}], "HEADED": [{"ein": "863107458", "name": "HEADED FOR FUREVER INC", "city": "SCOTTSVILLE", "state": "NY", "zip": "14546-9701", "ntee": "D20", "ruling": "202111", "deductibility": "1", "assets": 5639, "income": 92612, "revenue": 60492}], "ZULEIKA": [{"ein": "863621573", "name": "LADIES OF ZULEIKA", "city": "ORCHARD PARK", "state": "NY", "zip": "14127-2536", "ntee": "N12", "ruling": "202505", "deductibility": "1", "assets": 0, "income": 0, "revenue": 0}], "SWUPL": [{"ein": "863864120", "name": "THE SWUPL CLUB OF AMERICA INC", "city": "NEW YORK CITY", "state": "NY", "zip": "10013-4995", "ntee": "B84", "ruling": "202109", "deductibility": "1", "assets": 0, "income": 0, "revenue": 0}], "DESIREE": [{"ein": "863922860", "name": "DESIREE COX FOUNDATION INC", "city": "JAMAICA", "state": "NY", "zip": "11433-3820", "ntee": "P11", "ruling": "202210", "deductibility": "1", "assets": 0, "income": 0, "revenue": 0}], "KIESS": [{"ein": "872763394", "name": "RYAN KIESS MEMORIAL FUND INC", "city": "MANHASSET", "state": "NY", "zip": "11030-1311", "ntee": "T30", "ruling": "202203", "deductibility": "1", "assets": 313778, "income": 297004, "revenue": 197288}], "ELECTRENERGY": [{"ein": "873070756", "name": "HYDRO-ELECTRENERGY", "city": "BAY SHORE", "state": "NY", "zip": "11706-2148", "ntee": "C35", "ruling": "202201", "deductibility": "1", "assets": 0, "income": 0, "revenue": 0}], "PAPIS": [{"ein": "874313642", "name": "PAPIS CHAMPS INC", "city": "SKANEATELES", "state": "NY", "zip": "13152-0211", "ntee": "N60", "ruling": "202202", "deductibility": "1", "assets": 0, "income": 0, "revenue": 0}], "DURSTON": [{"ein": "900646729", "name": "DURSTON SANFORD TR UW 16-228080", "city": "NEW YORK", "state": "NY", "zip": "10001-2189", "ntee": "T22", "ruling": "200612", "deductibility": "1", "assets": 1283016, "income": 567340, "revenue": 0}], "LRM": [{"ein": "900945135", "name": "SMF FOUNDATION LRM INC", "city": "NEW YORK", "state": "NY", "zip": "10022-4219", "ntee": "T20", "ruling": "201306", "deductibility": "1", "assets": 3214670, "income": 476994, "revenue": 0}], "IFEDIORA": [{"ein": "920810940", "name": "IFEDIORA-HOUSE OF DIORA DYNASTY INC", "city": "ROCHESTER", "state": "NY", "zip": "14608-1509", "ntee": "P20", "ruling": "202212", "deductibility": "1", "assets": 0, "income": 0, "revenue": 0}], "RLM": [{"ein": "921536871", "name": "MAKE YOUR OWN SUNSHINE RLM FOUNDATION INC", "city": "BINGHAMTON", "state": "NY", "zip": "13901-1635", "ntee": "T50", "ruling": "202311", "deductibility": "1", "assets": 0, "income": 0, "revenue": 0}], "FERRYHAWK": [{"ein": "922256379", "name": "FERRYHAWK COMMUNITY FOUNDATION INC", "city": "NEW YORK", "state": "NY", "zip": "10022-7655", "ntee": "S20", "ruling": "202303", "deductibility": "1", "assets": 0, "income": 0, "revenue": 0}], "WENZHI": [{"ein": "932599307", "name": "WENZHI ZHANG ART FOUNDATION OF NEW YORK INC", "city": "FLUSHING", "state": "NY", "zip": "11355-4027", "ntee": "A20", "ruling": "202504", "deductibility": "1", "assets": 0, "income": 0, "revenue": 0}], "PARRANDA": [{"ein": "932640157", "name": "PARRANDA PARADISE INC", "city": "NEW YORK", "state": "NY", "zip": "10014-1993", "ntee": "D20", "ruling": "202310", "deductibility": "1", "assets": 0, "income": 0, "revenue": 0}], "HUDSY": [{"ein": "932788212", "name": "HUDSY COMMUNITY PROJECT INC", "city": "KINGSTON", "state": "NY", "zip": "12401-4753", "ntee": "A20", "ruling": "202402", "deductibility": "1", "assets": 2231509, "income": 3012077, "revenue": 3012077}], "MFL": [{"ein": "933367111", "name": "MFL FOUNDATION", "city": "BUFFALO", "state": "NY", "zip": "14214-2203", "ntee": "P84", "ruling": "202310", "deductibility": "1", "assets": 0, "income": 0, "revenue": 0}], "BASELINE": [{"ein": "933414014", "name": "BASELINE ELITE HEALTH AND WELLNESS INC", "city": "BUFFALO", "state": "NY", "zip": "14211-3020", "ntee": "W99", "ruling": "202403", "deductibility": "1", "assets": 0, "income": 0, "revenue": 0}, {"ein": "934333666", "name": "RAISE THE BASELINE FOUNDATION INC", "city": "NEW YORK", "state": "NY", "zip": "10016-9202", "ntee": "Q32", "ruling": "202312", "deductibility": "1", "assets": 0, "income": 0, "revenue": 0}], "RUNDOWN": [{"ein": "933541978", "name": "RUNDOWN BASKETBALL INC", "city": "FOREST HILLS", "state": "NY", "zip": "11375-1140", "ntee": "N60", "ruling": "202310", "deductibility": "1", "assets": 0, "income": 0, "revenue": 0}], "FEEDS": [{"ein": "933657766", "name": "FULL MOON FEEDS INC", "city": "BIG INDIAN", "state": "NY", "zip": "12410-5423", "ntee": "K30", "ruling": "202310", "deductibility": "1", "assets": 1000, "income": 1000, "revenue": 1000}], "NYFL": [{"ein": "934398122", "name": "NYFL LEAGUE ORG INC", "city": "LOCKPORT", "state": "NY", "zip": "14094-0000", "ntee": "N65", "ruling": "202401", "deductibility": "1", "assets": 0, "income": 0, "revenue": 0}], "LOWIN": [{"ein": "953251991", "name": "LOWIN MEDICAL RESEARCH FOUNDATION", "city": "GREAT NECK", "state": "NY", "zip": "11023-0000", "ntee": "H20I", "ruling": "197807", "deductibility": "1", "assets": 278338, "income": 7896, "revenue": 6589}], "WISEEYE": [{"ein": "991130571", "name": "WISEEYE", "city": "NEW YORK", "state": "NY", "zip": "10024-3080", "ntee": "G41", "ruling": "202403", "deductibility": "1", "assets": 0, "income": 0, "revenue": 0}], "JEWSTRONG": [{"ein": "992254135", "name": "JEWSTRONG INC", "city": "NEW YORK", "state": "NY", "zip": "10023-9600", "ntee": "A01", "ruling": "202405", "deductibility": "1", "assets": 0, "income": 0, "revenue": 0}], "RADICALAB": [{"ein": "993680094", "name": "RADICALAB FOUNDATION", "city": "BEDFORD", "state": "NY", "zip": "10506-1235", "ntee": "W99", "ruling": "202505", "deductibility": "1", "assets": 0, "income": 0, "revenue": 0}], "NEWBROUGH": [{"ein": "993866344", "name": "NEWBROUGH PIANO ACADEMY INC", "city": "ROCHESTER", "state": "NY", "zip": "14618-4634", "ntee": "A6E", "ruling": "202505", "deductibility": "1", "assets": 0, "income": 0, "revenue": 0}], "WUBBANUBS": [{"ein": "994345757", "name": "WUBBANUBS FROM JAXSON", "city": "WESTBURY", "state": "NY", "zip": "11590-6149", "ntee": "P12", "ruling": "202408", "deductibility": "1", "assets": 0, "income": 0, "revenue": 0}]}