{"GONZALEZ": [{"ein": "010733159", "name": "FELIX GONZALEZ-TORRES FOUNDATION", "city": "NEW YORK", "state": "NY", "zip": "10011-1103", "ntee": "A70", "ruling": "200307", "deductibility": "1", "assets": 1031547, "income": 2636, "revenue": 0}, {"ein": "132879757", "name": "ANNABELLA GONZALEZ DANCE THEATER INC", "city": "NEW YORK", "state": "NY", "zip": "10128-0645", "ntee": "", "ruling": "197701", "deductibility": "1", "assets": 0, "income": 0, "revenue": 0}], "DEAF": [{"ein": "010902150", "name": "CLEARY FOUNDATION FOR THE DEAF INC", "city": "NESCONSET", "state": "NY", "zip": "11767-2080", "ntee": "B11", "ruling": "200810", "deductibility": "1", "assets": 589020, "income": 16735, "revenue": 16698}, {"ein": "020698149", "name": "FRIENDS OF HEBREW INSTITUTE FOR THE DEAF AND EXCEPTIONAL CHILDREN OF B", "city": "NEPONSIT", "state": "NY", "zip": "11694-1012", "ntee": "P20", "ruling": "200310", "deductibility": "1", "assets": 764554, "income": 1274, "revenue": 0}, {"ein": "043175229", "name": "NATIONAL RACQUETBALL ASSOCIATION OF THE DEAF", "city": "NANUET", "state": "NY", "zip": "10954-1104", "ntee": "", "ruling": "199403", "deductibility": "2", "assets": 0, "income": 0, "revenue": 0}, {"ein": "111700961", "name": "MILL NECK MANOR LUTHERN SCHOOL FOR THE DEAF", "city": "MILL NECK", "state": "NY", "zip": "11765-1102", "ntee": "", "ruling": "194107", "deductibility": "1", "assets": 21299332, "income": 10706093, "revenue": 10706093}, {"ein": "112035670", "name": "HEBREW INSTITUTE FOR THE DEAF & EXCEPTIONAL CHILDREN", "city": "BROOKLYN", "state": "NY", "zip": "11230-3003", "ntee": "B28Z", "ruling": "196401", "deductibility": "1", "assets": 2821582, "income": 5875368, "revenue": 5875368}, {"ein": "112333344", "name": "LEXINGTON SCHOOL FOR THE DEAF", "city": "EAST ELMHURST", "state": "NY", "zip": "11370-1441", "ntee": "", "ruling": "197111", "deductibility": "1", "assets": 9391578, "income": 4052825, "revenue": 355668}, {"ein": "112468119", "name": "DEAF FOR JESUS MINISTRIES", "city": "GARDEN CITY P", "state": "NY", "zip": "11040-4408", "ntee": "", "ruling": "197810", "deductibility": "1", "assets": 0, "income": 0, "revenue": 0}, {"ein": "112594746", "name": "AMERICAN FRIENDS OF THE SHEMAYA SCHOOL FOR DEAF CHILDREN IN ISREAL", "city": "BROOKLYN", "state": "NY", "zip": "11210-2823", "ntee": "T11", "ruling": "198204", "deductibility": "1", "assets": 52317, "income": 83319, "revenue": 83319}, {"ein": "112665303", "name": "THE LEXINGTON CENTER FOR THE DEAF INC", "city": "JACKSON HEIGHTS", "state": "NY", "zip": "11370-0000", "ntee": "B80", "ruling": "198704", "deductibility": "1", "assets": 0, "income": 0, "revenue": 0}, {"ein": "112784695", "name": "DEAF RESOURCES INC", "city": "BROOKLYN", "state": "NY", "zip": "11202-2341", "ntee": "P87", "ruling": "201603", "deductibility": "1", "assets": 0, "income": 0, "revenue": 0}, {"ein": "113294205", "name": "NATIONAL FAMILY ASSOCIATION FOR DEAF-BLIND INC", "city": "SANDS POINT", "state": "NY", "zip": "11050-1218", "ntee": "P87", "ruling": "200207", "deductibility": "1", "assets": 212501, "income": 45278, "revenue": 42103}, {"ein": "116030726", "name": "SAINT MATTHEW DEAF LUTH CHURCH", "city": "WOODSIDE", "state": "NY", "zip": "11377-2216", "ntee": "", "ruling": "194107", "deductibility": "1", "assets": 0, "income": 0, "revenue": 0}, {"ein": "131656666", "name": "LEXINGTON SCHOOL FOR THE DEAF", "city": "EAST ELMHURST", "state": "NY", "zip": "11370-1441", "ntee": "B280", "ruling": "193804", "deductibility": "1", "assets": 25386457, "income": 30467746, "revenue": 26396908}, {"ein": "131740477", "name": "NEW YORK SCHOOL FOR THE DEAF", "city": "WHITE PLAINS", "state": "NY", "zip": "10603-1928", "ntee": "B280", "ruling": "194012", "deductibility": "1", "assets": 14889955, "income": 21319589, "revenue": 17902411}, {"ein": "131790748", "name": "ST JOSEPHS SCHOOL FOR THE DEAF", "city": "BRONX", "state": "NY", "zip": "10465-1820", "ntee": "", "ruling": "194603", "deductibility": "0", "assets": 0, "income": 0, "revenue": 0}, {"ein": "133087485", "name": "NEW YORK DEAF THEATRE LTD", "city": "BROOKLYN", "state": "NY", "zip": "11217-1694", "ntee": "", "ruling": "198110", "deductibility": "1", "assets": 204978, "income": 26914, "revenue": 26914}, {"ein": "133271215", "name": "BLACK DEAF ADVOCATES INC", "city": "NEW YORK", "state": "NY", "zip": "10003-0060", "ntee": "P99C", "ruling": "199304", "deductibility": "1", "assets": 0, "income": 0, "revenue": 0}, {"ein": "133687944", "name": "NEW YORK PARENT ASSOCIATION FOR DEAF-BLIND INC", "city": "MORRISONVILLE", "state": "NY", "zip": "12962-2731", "ntee": "B28", "ruling": "200902", "deductibility": "1", "assets": 0, "income": 0, "revenue": 0}, {"ein": "133885113", "name": "ST JOSEPHS SCHOOL FOR THE DEAF CHIL DRENS FUND", "city": "BRONX", "state": "NY", "zip": "10465-1899", "ntee": "", "ruling": "194603", "deductibility": "1", "assets": 604363, "income": 160556, "revenue": 39539}, {"ein": "133902563", "name": "47 ALUMNI ASSOCIATION OF THE DEAF INC", "city": "ROSEDALE", "state": "NY", "zip": "11422-2330", "ntee": "B84", "ruling": "201701", "deductibility": "1", "assets": 0, "income": 0, "revenue": 0}, {"ein": "133914924", "name": "JEWISH DEAF RESOURCE CENTER INC", "city": "HARTSDALE", "state": "NY", "zip": "10530-1043", "ntee": "P80", "ruling": "199612", "deductibility": "1", "assets": 0, "income": 0, "revenue": 0}, {"ein": "141586513", "name": "CAPITAL DISTRICT DEAF CENTER INC C O REV MICHAEL D CLEMENT", "city": "GANSEVOORT", "state": "NY", "zip": "12831-5223", "ntee": "Z99Z", "ruling": "197711", "deductibility": "1", "assets": 0, "income": 0, "revenue": 0}, {"ein": "146034940", "name": "EMPIRE STATE ASSOCIATION OF THE DEAF", "city": "OLEAN", "state": "NY", "zip": "14760-3428", "ntee": "", "ruling": "198104", "deductibility": "1", "assets": 443038, "income": 106486, "revenue": 106486}, {"ein": "160743171", "name": "ST MARYS SCHOOL FOR THE DEAF", "city": "BUFFALO", "state": "NY", "zip": "14214-2349", "ntee": "", "ruling": "197304", "deductibility": "1", "assets": 10908049, "income": 13567780, "revenue": 13567780}, {"ein": "160761231", "name": "ROCHESTER SCHOOL FOR THE DEAF", "city": "ROCHESTER", "state": "NY", "zip": "14621-3197", "ntee": "B280", "ruling": "194203", "deductibility": "1", "assets": 17977805, "income": 16212923, "revenue": 14026889}, {"ein": "160968489", "name": "ALPHA DEAF LUTHERAN CHURCH", "city": "ROCHESTER", "state": "NY", "zip": "14624-0708", "ntee": "", "ruling": "194107", "deductibility": "1", "assets": 0, "income": 0, "revenue": 0}, {"ein": "161104250", "name": "NORTH COUNTRY CLUB FOR THE DEAF", "city": "WATERTOWN", "state": "NY", "zip": "13601-0616", "ntee": "P87", "ruling": "199612", "deductibility": "1", "assets": 0, "income": 0, "revenue": 0}, {"ein": "161189018", "name": "EMMANUEL CHURCH OF THE DEAF", "city": "ROCHESTER", "state": "NY", "zip": "14619-0000", "ntee": "", "ruling": "194603", "deductibility": "1", "assets": 0, "income": 0, "revenue": 0}, {"ein": "161465013", "name": "FOUNDATION FOR DEAF EDUCATION", "city": "BUFFALO", "state": "NY", "zip": "14214-2349", "ntee": "B28Z", "ruling": "199708", "deductibility": "1", "assets": 1161447, "income": 516474, "revenue": 98483}, {"ein": "161516756", "name": "DEAF WOMEN OF ROCHESTER INC", "city": "ROCHESTER", "state": "NY", "zip": "14692-0455", "ntee": "P87", "ruling": "201410", "deductibility": "1", "assets": 0, "income": 0, "revenue": 0}, {"ein": "161572574", "name": "EDUCATIONAL SUPPORT SERVICE PERSONNEL DEAF & HARD OF HEARING", "city": "PITTSFORD", "state": "NY", "zip": "14534-9628", "ntee": "P11", "ruling": "201212", "deductibility": "1", "assets": 0, "income": 0, "revenue": 0}, {"ein": "166038483", "name": "ROCHESTER RECREATION CLUB FOR THE DEAF INC", "city": "ROCHESTER", "state": "NY", "zip": "14606-2124", "ntee": "A300", "ruling": "199711", "deductibility": "1", "assets": 0, "income": 0, "revenue": 0}, {"ein": "166052236", "name": "BUFFALO CLUB FOR THE DEAF INC", "city": "BUFFALO", "state": "NY", "zip": "14206-3431", "ntee": "G42Z", "ruling": "194806", "deductibility": "2", "assets": 119395, "income": 51254, "revenue": 38225}, {"ein": "201395122", "name": "ROCHESTER DEAF ROTARY INC", "city": "ROCHESTER", "state": "NY", "zip": "14618-0465", "ntee": "S80", "ruling": "202206", "deductibility": "2", "assets": 0, "income": 0, "revenue": 0}, {"ein": "231979044", "name": "HEBREW ASSOCIATION OF THE DEAF INC", "city": "NEW YORK", "state": "NY", "zip": "10023-6305", "ntee": "P80", "ruling": "200501", "deductibility": "1", "assets": 0, "income": 0, "revenue": 0}, {"ein": "237319487", "name": "HEBREW ASSOCIATION OF THE DEAF INC", "city": "NEW YORK", "state": "NY", "zip": "10023-6305", "ntee": "", "ruling": "197509", "deductibility": "1", "assets": 0, "income": 0, "revenue": 0}, {"ein": "270551543", "name": "NEW YORK DEAF CHURCH", "city": "FLUSHING", "state": "NY", "zip": "11357-3462", "ntee": "X20", "ruling": "201004", "deductibility": "1", "assets": 0, "income": 0, "revenue": 0}, {"ein": "383866575", "name": "ROCHESTER DEAF FESTIVAL INC", "city": "ROCHESTER", "state": "NY", "zip": "14692-8164", "ntee": "P87", "ruling": "201203", "deductibility": "1", "assets": 0, "income": 0, "revenue": 0}, {"ein": "453781636", "name": "DEAF EVENTS AMONG FAMILIES CIRCLE INC", "city": "ROCHESTER", "state": "NY", "zip": "14692-8164", "ntee": "P80", "ruling": "201208", "deductibility": "1", "assets": 0, "income": 0, "revenue": 0}, {"ein": "463182459", "name": "NEW YORK SCHOOL FOR THE DEAF FOUNDATION INC", "city": "WHITE PLAINS", "state": "NY", "zip": "10603-1928", "ntee": "Y12", "ruling": "202208", "deductibility": "1", "assets": 520790, "income": 20238, "revenue": 20238}, {"ein": "463609051", "name": "THE JEWISH DEAF FOUNDATION INC", "city": "BROOKLYN", "state": "NY", "zip": "11203-0000", "ntee": "P87", "ruling": "201401", "deductibility": "1", "assets": 0, "income": 0, "revenue": 0}, {"ein": "472540070", "name": "PARTNERS IN DEAF HEALTH", "city": "ROCHESTER", "state": "NY", "zip": "14692-0000", "ntee": "P87", "ruling": "201605", "deductibility": "1", "assets": 0, "income": 0, "revenue": 0}, {"ein": "473001107", "name": "ROCHESTER SCHOOL FOR THE DEAF ALUMNI ASSOCIATION", "city": "ROCHESTER", "state": "NY", "zip": "14621-3156", "ntee": "B84", "ruling": "201504", "deductibility": "1", "assets": 0, "income": 0, "revenue": 0}, {"ein": "474451000", "name": "DEAF MUSLIM ASSOCIATION", "city": "BROOKLYN", "state": "NY", "zip": "11218-0022", "ntee": "X40", "ruling": "202504", "deductibility": "1", "assets": 0, "income": 0, "revenue": 0}, {"ein": "510202439", "name": "LUTHERAN FRIENDS OF THE DEAF INC", "city": "MILL NECK", "state": "NY", "zip": "11765-1102", "ntee": "J30Z", "ruling": "197709", "deductibility": "1", "assets": 491988, "income": 48796, "revenue": 48796}, {"ein": "521158675", "name": "MARK SEVEN DEAF FOUNDATION INC", "city": "OLD FORGE", "state": "NY", "zip": "13420-4010", "ntee": "", "ruling": "199209", "deductibility": "1", "assets": 2274657, "income": 1041876, "revenue": 935173}, {"ein": "571163722", "name": "METROPOLITAN ASIAN DEAF ASSOCIATION", "city": "MASSAPEQUA", "state": "NY", "zip": "11758-6816", "ntee": "P87", "ruling": "200905", "deductibility": "1", "assets": 0, "income": 0, "revenue": 0}, {"ein": "753143969", "name": "LEND A HAND DEAF SERVICES INC", "city": "CROTON", "state": "NY", "zip": "10520-2521", "ntee": "P80", "ruling": "200412", "deductibility": "1", "assets": 0, "income": 0, "revenue": 0}, {"ein": "810960134", "name": "MONROE COUNTY DEAF HUB", "city": "W HENRIETTA", "state": "NY", "zip": "14586-9318", "ntee": "P82", "ruling": "201603", "deductibility": "1", "assets": 0, "income": 0, "revenue": 0}, {"ein": "811339205", "name": "WE THE DEAF PEOPLE INC", "city": "ROCHESTER", "state": "NY", "zip": "14618-7001", "ntee": "R20", "ruling": "201603", "deductibility": "1", "assets": 0, "income": 0, "revenue": 0}, {"ein": "813684152", "name": "NATIONAL DEAF INTERPRETERS", "city": "NEW YORK", "state": "NY", "zip": "10023-6305", "ntee": "B01", "ruling": "201610", "deductibility": "1", "assets": 0, "income": 0, "revenue": 0}, {"ein": "814409817", "name": "BETH TORAH OF THE DEAF", "city": "BROOKLYN", "state": "NY", "zip": "11229-3412", "ntee": "X30", "ruling": "201612", "deductibility": "1", "assets": 0, "income": 0, "revenue": 0}, {"ein": "822186717", "name": "NEW YORK CITY DEAF SPORTS CLUB", "city": "REGO PARK", "state": "NY", "zip": "11374-2120", "ntee": "N50", "ruling": "201802", "deductibility": "1", "assets": 0, "income": 0, "revenue": 0}, {"ein": "833665298", "name": "BROOKLYN HEBREW SOCIETY OF THE DEAF INC", "city": "BROOKLYN", "state": "NY", "zip": "11230-6166", "ntee": "X30", "ruling": "201904", "deductibility": "1", "assets": 118316, "income": 19043, "revenue": 19043}, {"ein": "834655564", "name": "HEBREW ASSOCIATION OF THE DEAF MEMORIAL FOUNDATION", "city": "SEA CLIFF", "state": "NY", "zip": "11579-1827", "ntee": "X30", "ruling": "201905", "deductibility": "1", "assets": 0, "income": 0, "revenue": 0}, {"ein": "841684165", "name": "GLOBAL DEAF MUSLIM", "city": "ROCHESTER", "state": "NY", "zip": "14620-6525", "ntee": "X40", "ruling": "201910", "deductibility": "1", "assets": 22905, "income": 88997, "revenue": 88997}, {"ein": "851311820", "name": "DEAF BLINDNESS HELP INC", "city": "NEW YORK", "state": "NY", "zip": "10036-6818", "ntee": "B28", "ruling": "202101", "deductibility": "1", "assets": 0, "income": 0, "revenue": 0}, {"ein": "861231101", "name": "DEAF REFUGEE ADVOCACY INC", "city": "ROCHESTER", "state": "NY", "zip": "14604-2141", "ntee": "P87", "ruling": "202104", "deductibility": "1", "assets": 384419, "income": 465755, "revenue": 465755}, {"ein": "871410771", "name": "GENESEE VALLEY REGION REGISTRY OF INTERPRETERS FOR THE DEAF INC", "city": "ROCHESTER", "state": "NY", "zip": "14692-3672", "ntee": "Y03", "ruling": "202201", "deductibility": "1", "assets": 11315, "income": 2946, "revenue": 2946}, {"ein": "874483827", "name": "DEAF NEW AMERICANS ADVOCACY INC", "city": "LIVERPOOL", "state": "NY", "zip": "13088-0778", "ntee": "R23", "ruling": "202206", "deductibility": "1", "assets": 30369, "income": 155124, "revenue": 155124}, {"ein": "882137838", "name": "ROCHESTER DEAF KITCHEN INC", "city": "ROCHESTER", "state": "NY", "zip": "14607-2160", "ntee": "K31", "ruling": "202206", "deductibility": "1", "assets": 48996, "income": 100844, "revenue": 100844}, {"ein": "922910239", "name": "LEXINGTON SCHOOL FOR THE DEAF ALUMNI ASSOCIATION INC", "city": "EAST ELMHURST", "state": "NY", "zip": "11370-1441", "ntee": "T30", "ruling": "202411", "deductibility": "1", "assets": 0, "income": 0, "revenue": 0}, {"ein": "923872296", "name": "DEAFBLIND AND DEAF DISABLED CHILDREN OF TOMORROW INC", "city": "BROOKLYN", "state": "NY", "zip": "11225-1101", "ntee": "B11", "ruling": "202402", "deductibility": "1", "assets": 0, "income": 0, "revenue": 0}, {"ein": "934026181", "name": "EASTERN SCHOOLS FOR THE DEAF ATHLETIC ASSOCIATION", "city": "EAST ELMHURST", "state": "NY", "zip": "11370-1441", "ntee": "N31", "ruling": "202311", "deductibility": "1", "assets": 0, "income": 0, "revenue": 0}, {"ein": "943282626", "name": "NATIONAL ASIAN DEAF CONGRESS", "city": "MASSAPEQUA", "state": "NY", "zip": "11758-6816", "ntee": "Z99", "ruling": "199812", "deductibility": "1", "assets": 0, "income": 0, "revenue": 0}], "DROPS": [{"ein": "010937547", "name": "DROPS IN THE VASE INC", "city": "BROOKLYN", "state": "NY", "zip": "11226-0000", "ntee": "A65", "ruling": "202308", "deductibility": "1", "assets": 9871, "income": 5949, "revenue": 5949}], "ADVOCATES": [{"ein": "020755362", "name": "BIG FLATS LIBRARY ADVOCATES INC", "city": "BIG FLATS", "state": "NY", "zip": "14814-0352", "ntee": "B70", "ruling": "201503", "deductibility": "1", "assets": 0, "income": 0, "revenue": 0}, {"ein": "030611632", "name": "XI COMMUNITY EMPOWERMENT ADVOCATES INC", "city": "SYRACUSE", "state": "NY", "zip": "13214-0125", "ntee": "B82", "ruling": "201003", "deductibility": "1", "assets": 0, "income": 0, "revenue": 0}, {"ein": "112247307", "name": "ADVOCATES FOR CHILDREN OF NY INC", "city": "NEW YORK", "state": "NY", "zip": "10001-0000", "ntee": "I800", "ruling": "197207", "deductibility": "1", "assets": 23751204, "income": 11115670, "revenue": 10934402}, {"ein": "113305212", "name": "APPELLATE ADVOCATES", "city": "NEW YORK", "state": "NY", "zip": "10038-3101", "ntee": "I80", "ruling": "199606", "deductibility": "1", "assets": 11386446, "income": 17379187, "revenue": 17379187}, {"ein": "113313534", "name": "EQUINE ADVOCATES INCORPORATED", "city": "VALATIE", "state": "NY", "zip": "12184-0000", "ntee": "D200", "ruling": "199610", "deductibility": "1", "assets": 7325190, "income": 3172036, "revenue": 3107043}, {"ein": "132736126", "name": "ENVIRONMENTAL ADVOCATES ACTION INC", "city": "ALBANY", "state": "NY", "zip": "12210-1709", "ntee": "", "ruling": "199007", "deductibility": "2", "assets": 1967, "income": 13560, "revenue": 13560}, {"ein": "133098969", "name": "NEW YORK STATE RURAL ADVOCATES INC", "city": "OLEAN", "state": "NY", "zip": "14760-0894", "ntee": "", "ruling": "198202", "deductibility": "2", "assets": 0, "income": 0, "revenue": 0}, {"ein": "133172387", "name": "COURT APPOINTED SPECIAL ADVOCATES INC", "city": "NEW YORK", "state": "NY", "zip": "10005-2907", "ntee": "R200", "ruling": "198308", "deductibility": "1", "assets": 0, "income": 0, "revenue": 0}, {"ein": "133271215", "name": "BLACK DEAF ADVOCATES INC", "city": "NEW YORK", "state": "NY", "zip": "10003-0060", "ntee": "P99C", "ruling": "199304", "deductibility": "1", "assets": 0, "income": 0, "revenue": 0}, {"ein": "133748063", "name": "ADVOCATES FOR CLIMATE INNOVATION", "city": "NEW YORK", "state": "NY", "zip": "10010-4573", "ntee": "T23", "ruling": "199409", "deductibility": "1", "assets": 19852346, "income": 9909215, "revenue": 0}, {"ein": "134165807", "name": "HEALTH ADVOCATES FOR OLDER PEOPLE INC", "city": "NEW YORK", "state": "NY", "zip": "10170-0399", "ntee": "P80", "ruling": "200111", "deductibility": "1", "assets": 3069170, "income": 3006419, "revenue": 719188}, {"ein": "141577715", "name": "CITIZEN ADVOCATES INC", "city": "MALONE", "state": "NY", "zip": "12953-0608", "ntee": "P800", "ruling": "197701", "deductibility": "1", "assets": 29516284, "income": 58041832, "revenue": 58041832}, {"ein": "141700998", "name": "DISABILITY ADVOCATES INC", "city": "RENSSELAER", "state": "NY", "zip": "12144-9499", "ntee": "M23Z", "ruling": "199206", "deductibility": "1", "assets": 5776057, "income": 10081523, "revenue": 9668514}, {"ein": "141768987", "name": "FAMILY ADVOCATES INC", "city": "KINGSTON", "state": "NY", "zip": "12401-5030", "ntee": "I83", "ruling": "199501", "deductibility": "1", "assets": 89570, "income": 38324, "revenue": 38324}, {"ein": "160915951", "name": "ADVOCATES FOR UPSTATE MEDICAL UNIVERSITY", "city": "SYRACUSE", "state": "NY", "zip": "13210-2306", "ntee": "E22I", "ruling": "196905", "deductibility": "1", "assets": 260455, "income": 153561, "revenue": 152015}, {"ein": "161249454", "name": "THE NEW YORK STATE ASSOCIATION OF MANAGEMENT ADVOCATES FOR SCHOOL", "city": "SYRACUSE", "state": "NY", "zip": "13221-4754", "ntee": "B03", "ruling": "201308", "deductibility": "2", "assets": 55191, "income": 83151, "revenue": 83151}, {"ein": "161265773", "name": "ANIMAL RIGHTS ADVOCATES OF WESTERN NEW YORK INC", "city": "AMHERST", "state": "NY", "zip": "14226-0475", "ntee": "", "ruling": "198609", "deductibility": "1", "assets": 0, "income": 0, "revenue": 0}, {"ein": "161453716", "name": "ADVOCATES INC", "city": "FAYETTEVILLE", "state": "NY", "zip": "13066-2041", "ntee": "P82Z", "ruling": "199502", "deductibility": "1", "assets": 15450785, "income": 36657334, "revenue": 36157949}, {"ein": "201706669", "name": "ADVOCATES FOR THE DISABLED", "city": "MOUNT KISCO", "state": "NY", "zip": "10549-2609", "ntee": "E80", "ruling": "200702", "deductibility": "1", "assets": 338209, "income": 458570, "revenue": 458570}, {"ein": "222360736", "name": "ENVIRONMENTAL ADVOCATES NY INC", "city": "ALBANY", "state": "NY", "zip": "12210-1709", "ntee": "C052", "ruling": "198108", "deductibility": "1", "assets": 3064897, "income": 2408182, "revenue": 2217159}, {"ein": "222757367", "name": "EDUCATION FUND OF FAMILY PLANNING ADVOCATES OF NEW YORK STA", "city": "ALBANY", "state": "NY", "zip": "12207-2512", "ntee": "E42P", "ruling": "198702", "deductibility": "1", "assets": 39565, "income": 31380, "revenue": 31380}, {"ein": "260669734", "name": "ADVOCATES FOR THE SCHUYLERVILLE PUBLIC LIBRARY", "city": "SCHUYLERVILLE", "state": "NY", "zip": "12871-1151", "ntee": "B70", "ruling": "201504", "deductibility": "1", "assets": 0, "income": 0, "revenue": 0}, {"ein": "271115602", "name": "RICHMOND COUNTY BOARD OF ADVOCATES FOR MENTAL HEALTH", "city": "STATEN ISLAND", "state": "NY", "zip": "10305-3409", "ntee": "F12", "ruling": "201011", "deductibility": "1", "assets": 0, "income": 0, "revenue": 0}, {"ein": "271764219", "name": "COMMUNITY FOOD ADVOCATES INC", "city": "NEW YORK", "state": "NY", "zip": "10005-2036", "ntee": "K30", "ruling": "201004", "deductibility": "1", "assets": 1702846, "income": 1659066, "revenue": 1659066}, {"ein": "273523340", "name": "ADVOCATES FOR AUTISM INC", "city": "VESTAL", "state": "NY", "zip": "13850-1902", "ntee": "P82", "ruling": "202203", "deductibility": "1", "assets": 0, "income": 0, "revenue": 0}, {"ein": "274580755", "name": "ADIRONDACK CYCLING ADVOCATES", "city": "QUEENSBURY", "state": "NY", "zip": "12801-0064", "ntee": "N60", "ruling": "201109", "deductibility": "1", "assets": 58726, "income": 66292, "revenue": 66292}, {"ein": "331293842", "name": "IMMIGRATION ADVOCATES OF NY INC", "city": "VALLEY STREAM", "state": "NY", "zip": "11580-5437", "ntee": "P84", "ruling": "202410", "deductibility": "1", "assets": 1, "income": 8875, "revenue": 8875}, {"ein": "412055310", "name": "HUMANE EDUCATION ADVOCATES REACHING TEACHERS INC", "city": "MAMARONECK", "state": "NY", "zip": "10543-0738", "ntee": "C60", "ruling": "200210", "deductibility": "1", "assets": 776577, "income": 634316, "revenue": 634316}, {"ein": "454552704", "name": "INTERNATIONAL CENTER FOR ADVOCATES AGAINST DISCRIMINATION INC", "city": "CHAPPAQUA", "state": "NY", "zip": "10514-3207", "ntee": "Q33", "ruling": "201401", "deductibility": "1", "assets": 682544, "income": 366278, "revenue": 366278}, {"ein": "454752327", "name": "ADIRONDACK RECREATIONAL TRAIL ADVOCATES", "city": "SARANAC LAKE", "state": "NY", "zip": "12983-1081", "ntee": "A80", "ruling": "201205", "deductibility": "1", "assets": 166317, "income": 154054, "revenue": 154054}, {"ein": "471728256", "name": "ADVOCATES FOR FINE ART ENAMELING INC", "city": "BROOKLYN", "state": "NY", "zip": "11229-2430", "ntee": "A20", "ruling": "201709", "deductibility": "1", "assets": 0, "income": 0, "revenue": 0}, {"ein": "474855637", "name": "NEW YORK DISABILITY ADVOCATES INC", "city": "COHOES", "state": "NY", "zip": "12047-3151", "ntee": "J40", "ruling": "202305", "deductibility": "2", "assets": 63410, "income": 251500, "revenue": 251500}, {"ein": "474917631", "name": "RESCUE ADVOCATES OF LONG ISLAND INC", "city": "WESTBURY", "state": "NY", "zip": "11590-5817", "ntee": "D12", "ruling": "201509", "deductibility": "1", "assets": 0, "income": 0, "revenue": 0}, {"ein": "721325684", "name": "ADVOCATES FOR JUSTICE", "city": "NEW YORK", "state": "NY", "zip": "10007-3743", "ntee": "I83", "ruling": "199704", "deductibility": "1", "assets": 0, "income": 0, "revenue": 0}, {"ein": "811712760", "name": "INDEPENDENT INTERNATIONAL LEGAL ADVOCATES", "city": "BROOKLYN", "state": "NY", "zip": "11238-1012", "ntee": "I80", "ruling": "201608", "deductibility": "1", "assets": 3765, "income": 17576, "revenue": 17576}, {"ein": "811966114", "name": "HARLEM ADVOCATES FOR SENIORS INC", "city": "NEW YORK", "state": "NY", "zip": "10030-1825", "ntee": "S21", "ruling": "201604", "deductibility": "1", "assets": 13386, "income": 126298, "revenue": 126298}, {"ein": "812911825", "name": "LONG ISLAND IMMIGRANT STUDENT ADVOCATES INC", "city": "MASTIC", "state": "NY", "zip": "11950-1213", "ntee": "B12", "ruling": "201702", "deductibility": "1", "assets": 0, "income": 0, "revenue": 0}, {"ein": "813629630", "name": "COMMUNITY LEGAL ADVOCATES OF NEW YORK", "city": "NEW YORK", "state": "NY", "zip": "10011-1802", "ntee": "I80", "ruling": "201702", "deductibility": "1", "assets": 4517, "income": 11168, "revenue": 11168}, {"ein": "814263878", "name": "SALONGA WETLAND ADVOCATES NETWORK INC", "city": "FORT SALONGA", "state": "NY", "zip": "11768-1418", "ntee": "C32", "ruling": "201611", "deductibility": "1", "assets": 4645, "income": 15664, "revenue": 0}, {"ein": "823885723", "name": "EQUITY ADVOCATES INC", "city": "HARRISON", "state": "NY", "zip": "10528-7541", "ntee": "K05", "ruling": "201812", "deductibility": "1", "assets": 525243, "income": 527551, "revenue": 527551}, {"ein": "832543896", "name": "CARES ADVOCATES FOR FAMILIES", "city": "BINGHAMTON", "state": "NY", "zip": "13902-2322", "ntee": "B80", "ruling": "201907", "deductibility": "1", "assets": 32167, "income": 410363, "revenue": 0}, {"ein": "842512267", "name": "ROCHESTER ADVOCATES FOR CHILDREN", "city": "ROCHESTER", "state": "NY", "zip": "14617-7869", "ntee": "P40", "ruling": "201908", "deductibility": "1", "assets": 0, "income": 0, "revenue": 0}, {"ein": "843317277", "name": "ADVOCATES FOR BALANCE AT CHAUTAUQUA INC", "city": "BUFFALO", "state": "NY", "zip": "14216-3613", "ntee": "A70", "ruling": "201912", "deductibility": "1", "assets": 85971, "income": 156146, "revenue": 156146}, {"ein": "850595592", "name": "IMMIGRANT ADVOCATES RESPONSE COLLABORATIVE INC", "city": "ALBANY", "state": "NY", "zip": "12207-1623", "ntee": "I01", "ruling": "202102", "deductibility": "1", "assets": 531618, "income": 1090650, "revenue": 1080208}, {"ein": "851441628", "name": "ASCENDERS EDUCATION ADVOCATES", "city": "NEW YORK", "state": "NY", "zip": "10027-3811", "ntee": "B90", "ruling": "202101", "deductibility": "1", "assets": 14290, "income": 99087, "revenue": 99087}, {"ein": "863939840", "name": "LIFE ADVOCATES OF NEW JERSEY INC", "city": "NANUET", "state": "NY", "zip": "10954-2905", "ntee": "P20", "ruling": "202111", "deductibility": "1", "assets": 11680, "income": 13797, "revenue": 13797}, {"ein": "872635231", "name": "ADVOCATES OF FAITH AGAINST COMMUNITY VIOLENCE INC", "city": "SYRACUSE", "state": "NY", "zip": "13205-1423", "ntee": "O01", "ruling": "202406", "deductibility": "1", "assets": 0, "income": 0, "revenue": 0}, {"ein": "872742827", "name": "BIRTH CONTROL ADVOCATES OF NEW YORK", "city": "BROOKLYN", "state": "NY", "zip": "11249-5311", "ntee": "E01", "ruling": "202112", "deductibility": "1", "assets": 49198, "income": 397902, "revenue": 397902}, {"ein": "874396599", "name": "ADAPTIVE ADVOCATES INC", "city": "MOUNT VERNON", "state": "NY", "zip": "10550-1965", "ntee": "A90", "ruling": "202202", "deductibility": "1", "assets": 0, "income": 0, "revenue": 0}, {"ein": "883173042", "name": "ADVOCATES FOR THE CRIMINALLY ACCUSED INC", "city": "SALT POINT", "state": "NY", "zip": "12578-2110", "ntee": "I01", "ruling": "202211", "deductibility": "1", "assets": 0, "income": 0, "revenue": 0}, {"ein": "900817064", "name": "FACT-FELINE ADVOCATES COMING TOGETHER-INC", "city": "QUEENSBURY", "state": "NY", "zip": "12804-0045", "ntee": "D20", "ruling": "201501", "deductibility": "1", "assets": 5103, "income": 18767, "revenue": 18767}, {"ein": "933493341", "name": "ADVOCATES FOR HEALTH", "city": "LONG BEACH", "state": "NY", "zip": "11561-2413", "ntee": "E01", "ruling": "202310", "deductibility": "1", "assets": 0, "income": 0, "revenue": 0}, {"ein": "933615066", "name": "IMMIGRANTS ADVOCATES PROTECTION INC", "city": "NEW YORK", "state": "NY", "zip": "10039-3138", "ntee": "I80", "ruling": "202310", "deductibility": "1", "assets": 0, "income": 0, "revenue": 0}, {"ein": "991345705", "name": "LEGAL ADVOCATES FOR SAFE SCIENCE AND TECHNOLOGY INC", "city": "NEW YORK", "state": "NY", "zip": "10017-5550", "ntee": "U99", "ruling": "202403", "deductibility": "1", "assets": 0, "income": 0, "revenue": 0}, {"ein": "994074582", "name": "CANCER SCREENING ADVOCATES INC", "city": "NEW YORK", "state": "NY", "zip": "10023-9672", "ntee": "E70", "ruling": "202408", "deductibility": "1", "assets": 0, "income": 0, "revenue": 0}, {"ein": "994289873", "name": "PECKSLIP ADVOCATES FOR SCHOOL SAFETY INC", "city": "NEW YORK", "state": "NY", "zip": "10038-1816", "ntee": "B94", "ruling": "202408", "deductibility": "1", "assets": 11070, "income": 50120, "revenue": 50120}], "HELEN": [{"ein": "026178963", "name": "HELEN WOODHULL CHARITABLE TRUST", "city": "NEW YORK", "state": "NY", "zip": "10022-0000", "ntee": "T22", "ruling": "200703", "deductibility": "1", "assets": 153415, "income": 50899, "revenue": 0}, {"ein": "046403958", "name": "HELEN E ELLIOT TR FBO FIRST BAPTST CHURCH & CENTERVILLE CHRIS ENDVR", "city": "BUFFALO", "state": "NY", "zip": "14240-1504", "ntee": "X21J", "ruling": "198903", "deductibility": "1", "assets": 280266, "income": 129493, "revenue": 18704}, {"ein": "050613835", "name": "Y C HO HELEN & MICHAEL CHIANG FOUNDATION", "city": "NEW YORK", "state": "NY", "zip": "10167-0000", "ntee": "T22", "ruling": "200705", "deductibility": "1", "assets": 81210224, "income": 10985417, "revenue": 0}, {"ein": "111630807", "name": "HELEN KELLER SERVICES", "city": "BROOKLYN", "state": "NY", "zip": "11201-5861", "ntee": "P860", "ruling": "193607", "deductibility": "1", "assets": 150928190, "income": 96494563, "revenue": 45257220}, {"ein": "112707376", "name": "HELEN & ARON BISTRICER TORAH FOUNDATION", "city": "BROOKLYN", "state": "NY", "zip": "11219-2634", "ntee": "", "ruling": "198412", "deductibility": "1", "assets": 131493, "income": 53751, "revenue": 0}, {"ein": "113618580", "name": "FRANK AND HELEN@HERMANN FOUNDATION INC", "city": "MIDDLE VILLAGE", "state": "NY", "zip": "11379-0000", "ntee": "T22", "ruling": "200111", "deductibility": "1", "assets": 795982, "income": 24273, "revenue": 0}, {"ein": "131677403", "name": "HELEN HAY WHITNEY FOUNDATION", "city": "NEW CITY", "state": "NY", "zip": "10956-5200", "ntee": "", "ruling": "195301", "deductibility": "1", "assets": 88440048, "income": 10610000, "revenue": 0}, {"ein": "133031061", "name": "VOLUNTEER CORPS OF THE HELEN HAYES HOSPITAL INC", "city": "WEST HAVERSTRAW", "state": "NY", "zip": "10993-0000", "ntee": "E22N", "ruling": "198111", "deductibility": "1", "assets": 85976, "income": 44305, "revenue": 12581}, {"ein": "133051739", "name": "GRACE & BERT LYTELL & HELEN MENKEN FNDTN", "city": "WHITE PLAINS", "state": "NY", "zip": "10601-0000", "ntee": "", "ruling": "000000", "deductibility": "1", "assets": 208916, "income": 63721, "revenue": 0}, {"ein": "133213185", "name": "THE HELEN MATCHETT DEMARIO FOUNDATION INC", "city": "NEW YORK", "state": "NY", "zip": "10019-0000", "ntee": "", "ruling": "198408", "deductibility": "1", "assets": 338722, "income": 487991, "revenue": 0}, {"ein": "133244308", "name": "HELEN FRANKENTHALER FOUNDATION INC", "city": "NEW YORK", "state": "NY", "zip": "10001-6803", "ntee": "", "ruling": "198503", "deductibility": "1", "assets": 176117159, "income": 120137524, "revenue": 0}, {"ein": "133316656", "name": "HELEN & RITA LURIE FOUNDATION", "city": "NEW YORK", "state": "NY", "zip": "10004-0000", "ntee": "", "ruling": "198605", "deductibility": "1", "assets": 7527425, "income": 3486817, "revenue": 0}, {"ein": "133318143", "name": "MENNO & HELEN RATZKER CHARITABLE TR", "city": "NEW YORK", "state": "NY", "zip": "10017-6939", "ntee": "", "ruling": "198606", "deductibility": "1", "assets": 43088, "income": 145628, "revenue": 0}, {"ein": "133368850", "name": "HELEN HAYES HOSPITAL FOUNDATION INC", "city": "WEST HAVERSTRAW", "state": "NY", "zip": "10993-0000", "ntee": "E86", "ruling": "199009", "deductibility": "1", "assets": 192896, "income": 246269, "revenue": 194622}, {"ein": "133399838", "name": "HELEN AND ANTHONY J SCALA FOUNDATION", "city": "RYE BROOK", "state": "NY", "zip": "10573-7041", "ntee": "", "ruling": "198704", "deductibility": "1", "assets": 392228, "income": 93979, "revenue": 0}, {"ein": "133940833", "name": "HELEN C BENEDICT FOUNDATION INC", "city": "NEW YORK", "state": "NY", "zip": "10016-4001", "ntee": "T20Z", "ruling": "199801", "deductibility": "1", "assets": 21607749, "income": 2808483, "revenue": 0}, {"ein": "134070185", "name": "HELEN I GRAHAM CHARITABLE FOUNDATION", "city": "POUND RIDGE", "state": "NY", "zip": "10576-0000", "ntee": "T20", "ruling": "200008", "deductibility": "1", "assets": 2321199, "income": 352273, "revenue": 0}, {"ein": "134084107", "name": "HELEN B REICH MEMORIAL SCHOLARSHIP FUND INC", "city": "NEW YORK", "state": "NY", "zip": "10017-8157", "ntee": "T20", "ruling": "199912", "deductibility": "1", "assets": 822781, "income": 619220, "revenue": 0}, {"ein": "134112185", "name": "PETER AND HELEN HAJE FOUNDATION", "city": "NEW YORK", "state": "NY", "zip": "10024-5150", "ntee": "T22", "ruling": "200005", "deductibility": "1", "assets": 3642239, "income": 1055519, "revenue": 0}, {"ein": "134199578", "name": "THE WILLIAM AND HELEN LITTLE FAMILY FOUNDATION", "city": "NEW YORK", "state": "NY", "zip": "10128-0145", "ntee": "T22", "ruling": "200209", "deductibility": "1", "assets": 61167, "income": 135280, "revenue": 0}, {"ein": "135562162", "name": "HELEN KELLER INTERNATIONAL", "city": "NEW YORK", "state": "NY", "zip": "10017-2208", "ntee": "Q300", "ruling": "196309", "deductibility": "1", "assets": 157848680, "income": 83369298, "revenue": 75653633}, {"ein": "136061289", "name": "HELEN AND ROBERT CAHILL FOUNDATION INC", "city": "NEW YORK", "state": "NY", "zip": "10128-1173", "ntee": "", "ruling": "195707", "deductibility": "1", "assets": 1173919, "income": 12073, "revenue": 0}, {"ein": "136161880", "name": "NATHAN & HELEN KOHLER FOUNDATION", "city": "GARDEN CITY", "state": "NY", "zip": "11530-3335", "ntee": "", "ruling": "196410", "deductibility": "1", "assets": 1030096, "income": 142395, "revenue": 0}, {"ein": "136276951", "name": "HELEN DEWITT TRUST 33-15C", "city": "NEW YORK", "state": "NY", "zip": "10013-2362", "ntee": "", "ruling": "000000", "deductibility": "0", "assets": 12774534, "income": 3292784, "revenue": 0}, {"ein": "136327952", "name": "HELEN GOLUB RESIDUARY TRUST FBO HELEN GOLUB", "city": "NEW YORK", "state": "NY", "zip": "10013-2362", "ntee": "T90Z", "ruling": "199804", "deductibility": "1", "assets": 4987972, "income": 1528729, "revenue": 0}, {"ein": "156022438", "name": "CO-TUW HELEN R BRADY MEMORIAL FUND", "city": "NEW YORK", "state": "NY", "zip": "10001-2189", "ntee": "", "ruling": "195808", "deductibility": "1", "assets": 596187, "income": 278366, "revenue": 0}, {"ein": "161562098", "name": "HELEN L MORRIS FOUNDATION INC", "city": "ROCHESTER", "state": "NY", "zip": "14607-1949", "ntee": "P112", "ruling": "200104", "deductibility": "1", "assets": 941766, "income": 48840, "revenue": 48840}, {"ein": "161606326", "name": "HELEN DENT LENAHAN FOUNDATION INC", "city": "BUFFALO", "state": "NY", "zip": "14202-1702", "ntee": "T20", "ruling": "200108", "deductibility": "1", "assets": 761494, "income": 324764, "revenue": 0}, {"ein": "166020932", "name": "HELEN M WINSLOW CEMETERY FUND TR MANUFACTURERS & TRADERS TRUST CO", "city": "BUFFALO", "state": "NY", "zip": "14203-2309", "ntee": "", "ruling": "000000", "deductibility": "0", "assets": 0, "income": 0, "revenue": 0}, {"ein": "166353030", "name": "HELEN THOMAS HOWLAND TEST TR FDN", "city": "AMHERST", "state": "NY", "zip": "14228-2307", "ntee": "", "ruling": "199108", "deductibility": "1", "assets": 1286575, "income": 199849, "revenue": 0}, {"ein": "200678812", "name": "SISTER HELEN TRAVIS HOUSING DEVELOPMENT FUND CORPORATION", "city": "BRONX", "state": "NY", "zip": "10454-2108", "ntee": "L25", "ruling": "200808", "deductibility": "1", "assets": 58024, "income": 322750, "revenue": 322750}, {"ein": "222488837", "name": "MICHAEL & HELEN R CYKER CHARITABLE FOUNDATION", "city": "ITHACA", "state": "NY", "zip": "14850-1003", "ntee": "", "ruling": "198404", "deductibility": "1", "assets": 1898279, "income": 250115, "revenue": 0}, {"ein": "236242538", "name": "JOSEPH T AND HELEN M SIMPSON FOUNDATION", "city": "BUFFALO", "state": "NY", "zip": "14240-1504", "ntee": "", "ruling": "195801", "deductibility": "1", "assets": 3229700, "income": 1006805, "revenue": 0}, {"ein": "236574828", "name": "HELEN K SEIDEL C T W", "city": "BUFFALO", "state": "NY", "zip": "14240-1504", "ntee": "T22", "ruling": "200703", "deductibility": "1", "assets": 182709, "income": 60245, "revenue": 0}, {"ein": "256381298", "name": "FRY CHARLES S & HELEN B MEMORIAL TRUST", "city": "BUFFALO", "state": "NY", "zip": "14240-1504", "ntee": "T22", "ruling": "200703", "deductibility": "1", "assets": 880907, "income": 233031, "revenue": 0}, {"ein": "256429604", "name": "MARGARET MEGAHAN TR UW FBO WATSON HELEN", "city": "BUFFALO", "state": "NY", "zip": "14240-1504", "ntee": "T22", "ruling": "200703", "deductibility": "1", "assets": 522208, "income": 132937, "revenue": 0}, {"ein": "256500592", "name": "HELEN GULDIN CO-TR UW FBO IMMANUEL UNITED CHURCH OF CHRIST", "city": "BUFFALO", "state": "NY", "zip": "14240-1504", "ntee": "Y110", "ruling": "200109", "deductibility": "1", "assets": 786089, "income": 250228, "revenue": 0}, {"ein": "256582756", "name": "DOYLE S & HELEN POORMAN FOUNDATION IRRV TUA", "city": "BUFFALO", "state": "NY", "zip": "14240-1504", "ntee": "T22", "ruling": "200102", "deductibility": "1", "assets": 2363727, "income": 518368, "revenue": 0}, {"ein": "256641691", "name": "HELEN M SCHIFFNER SCHOLARSHIP FUND", "city": "BUFFALO", "state": "NY", "zip": "14240-1504", "ntee": "B820", "ruling": "200111", "deductibility": "1", "assets": 115836, "income": 35584, "revenue": 0}, {"ein": "272423696", "name": "HELEN REHR CENTER FOR SOCIAL WORK PRACTICE INC", "city": "NEW YORK", "state": "NY", "zip": "10024-5805", "ntee": "B90", "ruling": "201009", "deductibility": "1", "assets": 0, "income": 0, "revenue": 0}, {"ein": "276069983", "name": "HELEN BENHAM FOUNDATION", "city": "NEW YORK", "state": "NY", "zip": "10012-3243", "ntee": "T22", "ruling": "200907", "deductibility": "1", "assets": 345557, "income": 29934, "revenue": 0}, {"ein": "363233157", "name": "HELEN KEELER BURKE CHARITABLE FOUNDATION", "city": "NEW YORK", "state": "NY", "zip": "10005-0000", "ntee": "", "ruling": "198306", "deductibility": "1", "assets": 2256111, "income": 848667, "revenue": 0}, {"ein": "452901500", "name": "HELEN SIMONEAU DANSE", "city": "BROOKLYN", "state": "NY", "zip": "11206-2201", "ntee": "B90", "ruling": "201710", "deductibility": "1", "assets": 21295, "income": 78116, "revenue": 78116}, {"ein": "462873807", "name": "CHARLES AND HELEN REICHERT FAMILY FOUNDATION INC", "city": "FORT SALONGA", "state": "NY", "zip": "11768-0000", "ntee": "P20", "ruling": "201407", "deductibility": "1", "assets": 28146, "income": 792120, "revenue": 0}, {"ein": "471084071", "name": "ST HELEN CATHOLIC ACADEMY", "city": "HOWARD BEACH", "state": "NY", "zip": "11414-2625", "ntee": "", "ruling": "194603", "deductibility": "1", "assets": 0, "income": 0, "revenue": 0}, {"ein": "475085100", "name": "HELEN HAYES YOUTH THEATRE INC", "city": "NEW CITY", "state": "NY", "zip": "10956-2310", "ntee": "A25", "ruling": "201510", "deductibility": "1", "assets": 25540, "income": 363866, "revenue": 363866}, {"ein": "516556966", "name": "HELEN SCHUYLER TR UW BO COMMUNITY FOUNDATION", "city": "ELMIRA", "state": "NY", "zip": "14902-1522", "ntee": "S11", "ruling": "200605", "deductibility": "1", "assets": 20430690, "income": 12863940, "revenue": 2187328}, {"ein": "800519951", "name": "MYRON S AND HELEN K SILVER FAMILY FOUNDATION", "city": "ROCHESTER", "state": "NY", "zip": "14623-3231", "ntee": "T20", "ruling": "201003", "deductibility": "1", "assets": 546143, "income": 214297, "revenue": 0}, {"ein": "814633735", "name": "HELEN D RODBELL-ALPERT FAMILY FOUNDATION INC", "city": "NEW HYDE PARK", "state": "NY", "zip": "11042-1205", "ntee": "T20", "ruling": "201705", "deductibility": "1", "assets": 571634, "income": 179620, "revenue": 0}, {"ein": "831517911", "name": "HELEN HILL HOUSING DEVELOPMENT FUND COMPANY INC", "city": "SARANAC LAKE", "state": "NY", "zip": "12983-2373", "ntee": "", "ruling": "201808", "deductibility": "1", "assets": 1140485, "income": 97933, "revenue": 97933}, {"ein": "832940848", "name": "MOSHE AND HELEN KAUFMAN FOUNDATION INC", "city": "POMONA", "state": "NY", "zip": "10970-0000", "ntee": "X30", "ruling": "201905", "deductibility": "1", "assets": 695954, "income": 180333, "revenue": 0}, {"ein": "836584353", "name": "PAUL AND HELEN ELLIS CHARITABLE TR", "city": "BUFFALO", "state": "NY", "zip": "14225-1434", "ntee": "T22", "ruling": "201910", "deductibility": "1", "assets": 3991052, "income": 948107, "revenue": 0}, {"ein": "854206469", "name": "JOSEPH AND HELEN SPITZER FAMILY FOUNDATION INC", "city": "CHESTER", "state": "NY", "zip": "10918-1033", "ntee": "X30", "ruling": "202310", "deductibility": "1", "assets": 1000002, "income": 1000002, "revenue": 0}, {"ein": "876769948", "name": "HOWARD AND HELEN KIFFEL FOUNDATION", "city": "SPRING VALLEY", "state": "NY", "zip": "10977-1614", "ntee": "", "ruling": "202206", "deductibility": "1", "assets": 319327, "income": 26, "revenue": 0}, {"ein": "900036320", "name": "MARKUS & HELEN ORBACH FOUNDATION INC", "city": "BROOKLYN", "state": "NY", "zip": "11235-0000", "ntee": "T22", "ruling": "200301", "deductibility": "1", "assets": 1619, "income": 1, "revenue": 0}], "CARES": [{"ein": "030407321", "name": "JETBLUE CARES CREWMEMBER CATASTROPHIC FUND", "city": "LONG ISLAND CITY", "state": "NY", "zip": "11101-4020", "ntee": "P60", "ruling": "200401", "deductibility": "1", "assets": 3501575, "income": 809567, "revenue": 809567}, {"ein": "061525771", "name": "MINISINK CARES", "city": "SLATE HILL", "state": "NY", "zip": "10973-0515", "ntee": "P58", "ruling": "201605", "deductibility": "1", "assets": 0, "income": 0, "revenue": 0}, {"ein": "112524512", "name": "LONG ISLAND CARES INC", "city": "HAUPPAUGE", "state": "NY", "zip": "11788-2039", "ntee": "P20Z", "ruling": "198106", "deductibility": "1", "assets": 21615237, "income": 36326438, "revenue": 34699406}, {"ein": "113222406", "name": "IGHL CARES INC", "city": "MANORVILLE", "state": "NY", "zip": "11949-9604", "ntee": "E12", "ruling": "201411", "deductibility": "1", "assets": 108752, "income": 30988, "revenue": 30988}, {"ein": "113399328", "name": "GERRITSEN BEACH CARES", "city": "BROOKLYN", "state": "NY", "zip": "11229-6525", "ntee": "C50", "ruling": "200004", "deductibility": "1", "assets": 17923, "income": 21992, "revenue": 21992}, {"ein": "133444193", "name": "NEW YORK CARES INC", "city": "NEW YORK", "state": "NY", "zip": "10006-3003", "ntee": "T400", "ruling": "199012", "deductibility": "1", "assets": 12422660, "income": 12330063, "revenue": 11944076}, {"ein": "133458820", "name": "BROADWAY CARES-EQUITY FIGHTS AIDS INC", "city": "NEW YORK", "state": "NY", "zip": "10036-2501", "ntee": "", "ruling": "199401", "deductibility": "1", "assets": 15664609, "income": 25636340, "revenue": 24219750}, {"ein": "134095364", "name": "MEDIA CARES FOUNDATION INC", "city": "NEW YORK", "state": "NY", "zip": "10025-7722", "ntee": "T20", "ruling": "200003", "deductibility": "1", "assets": 599386, "income": 246101, "revenue": 215933}, {"ein": "141731746", "name": "CARES OF NY INC", "city": "SARATOGA SPGS", "state": "NY", "zip": "12866-1200", "ntee": "", "ruling": "199306", "deductibility": "1", "assets": 7722798, "income": 17612240, "revenue": 17612240}, {"ein": "141776369", "name": "THE BROADVIEW CARES FOUNDATION INC", "city": "ALBANY", "state": "NY", "zip": "12205-1121", "ntee": "T22", "ruling": "199502", "deductibility": "1", "assets": 432135, "income": 748265, "revenue": 673002}, {"ein": "161522927", "name": "WEASE CARES CHILDRENS FUND", "city": "ROCHESTER", "state": "NY", "zip": "14607-3552", "ntee": "B80Z", "ruling": "199706", "deductibility": "1", "assets": 0, "income": 0, "revenue": 0}, {"ein": "205425146", "name": "LIVINGSTON COUNTY CARES INC", "city": "GENESEO", "state": "NY", "zip": "14454-1203", "ntee": "M20", "ruling": "200702", "deductibility": "1", "assets": 117054, "income": 52659, "revenue": 49876}, {"ein": "262213736", "name": "OQI CARES", "city": "SYRACUSE", "state": "NY", "zip": "13224-1124", "ntee": "S31", "ruling": "201112", "deductibility": "1", "assets": 0, "income": 0, "revenue": 0}, {"ein": "264137268", "name": "HENRY SCHEIN CARES FOUNDATION INC", "city": "MELVILLE", "state": "NY", "zip": "11747-3834", "ntee": "T99", "ruling": "202107", "deductibility": "1", "assets": 774422, "income": 1046605, "revenue": 0}, {"ein": "271501217", "name": "BACKYARD SPORTS CARES INC", "city": "WHITE PLAINS", "state": "NY", "zip": "10601-4413", "ntee": "B99", "ruling": "201009", "deductibility": "1", "assets": 717560, "income": 1380950, "revenue": 1380950}, {"ein": "271696906", "name": "CARES FOR CARS FOUNDATION INC", "city": "BAYPORT", "state": "NY", "zip": "11705-1500", "ntee": "P60", "ruling": "201306", "deductibility": "1", "assets": 0, "income": 0, "revenue": 0}, {"ein": "272238833", "name": "RED ROBIN COUNTRY CARES FOUNDATION", "city": "WESTBURY", "state": "NY", "zip": "11590-1448", "ntee": "G128", "ruling": "201007", "deductibility": "1", "assets": 5636, "income": 0, "revenue": 0}, {"ein": "272946031", "name": "RHYTHM BREAK CARES", "city": "NEW YORK", "state": "NY", "zip": "10001-3563", "ntee": "P99", "ruling": "201407", "deductibility": "1", "assets": 8098, "income": 4400, "revenue": 4400}, {"ein": "273525214", "name": "IRONGATE CARES FOUNDATION", "city": "WESTBURY", "state": "NY", "zip": "11590-0803", "ntee": "P20", "ruling": "201011", "deductibility": "1", "assets": 0, "income": 0, "revenue": 0}, {"ein": "273762075", "name": "OMEGA CARES OF NASSAU COUNTY INC", "city": "FREEPORT", "state": "NY", "zip": "11520-2645", "ntee": "O50", "ruling": "201103", "deductibility": "1", "assets": 0, "income": 0, "revenue": 0}, {"ein": "274058918", "name": "NIMI CARES INC", "city": "JERICHO", "state": "NY", "zip": "11753-1503", "ntee": "Q30", "ruling": "201112", "deductibility": "1", "assets": 0, "income": 0, "revenue": 0}, {"ein": "274657966", "name": "TOWNSQUARE CARES INC", "city": "PURCHASE", "state": "NY", "zip": "10577-2100", "ntee": "W30", "ruling": "201109", "deductibility": "1", "assets": 216541, "income": 0, "revenue": 0}, {"ein": "311741532", "name": "RANDI ROSS CARES INC", "city": "BROOKLYN", "state": "NY", "zip": "11238-6505", "ntee": "P20", "ruling": "200103", "deductibility": "1", "assets": 0, "income": 0, "revenue": 0}, {"ein": "320207585", "name": "NATIONAL CARES MENTORING MOVEMENT INC", "city": "NEW YORK", "state": "NY", "zip": "10001-1810", "ntee": "P46", "ruling": "200806", "deductibility": "1", "assets": 7947242, "income": 4806880, "revenue": 3465400}, {"ein": "331251075", "name": "MELCHER BOLING CARES CORP", "city": "LANCASTER", "state": "NY", "zip": "14086-1317", "ntee": "T12", "ruling": "202504", "deductibility": "1", "assets": 0, "income": 0, "revenue": 0}, {"ein": "331854475", "name": "ELEANOR CARES INC", "city": "NEW YORK", "state": "NY", "zip": "10004-1617", "ntee": "P60", "ruling": "202411", "deductibility": "1", "assets": 0, "income": 0, "revenue": 0}, {"ein": "332104910", "name": "RENSSELAER COUNTY CARES", "city": "EAST SCHODACK", "state": "NY", "zip": "12063-0121", "ntee": "W99", "ruling": "202412", "deductibility": "1", "assets": 0, "income": 0, "revenue": 0}, {"ein": "333033776", "name": "CARES ADVOCACY GROUP", "city": "ELMONT", "state": "NY", "zip": "11003-2229", "ntee": "P40", "ruling": "202502", "deductibility": "1", "assets": 0, "income": 0, "revenue": 0}, {"ein": "334036455", "name": "WHATS HAPPENIN CARES INC", "city": "VICTOR", "state": "NY", "zip": "14564-8927", "ntee": "N12", "ruling": "202505", "deductibility": "1", "assets": 0, "income": 0, "revenue": 0}, {"ein": "334283982", "name": "ECHO CARES INC", "city": "BLOOMINGBURG", "state": "NY", "zip": "12721-5306", "ntee": "B90", "ruling": "202505", "deductibility": "1", "assets": 0, "income": 0, "revenue": 0}, {"ein": "371595960", "name": "CAROL CARES INC", "city": "BROOKLYN", "state": "NY", "zip": "11210-3844", "ntee": "P62", "ruling": "202207", "deductibility": "1", "assets": 1, "income": 0, "revenue": 0}, {"ein": "372072695", "name": "SHEOWS CARES FOUNDATION INC", "city": "NEW YORK", "state": "NY", "zip": "10016-6601", "ntee": "S30", "ruling": "202308", "deductibility": "1", "assets": 46596, "income": 61313, "revenue": 61313}, {"ein": "383770172", "name": "PUTNAM COMMUNITY CARES INC", "city": "MAHOPAC", "state": "NY", "zip": "10541-6613", "ntee": "P99", "ruling": "200805", "deductibility": "1", "assets": 20736, "income": 25626, "revenue": 23318}, {"ein": "384088235", "name": "CITYMD CARES INC", "city": "NEW YORK", "state": "NY", "zip": "10105-0302", "ntee": "E70", "ruling": "201809", "deductibility": "1", "assets": 0, "income": 0, "revenue": 0}, {"ein": "412024802", "name": "WORLD CARES CENTER INC", "city": "NEW YORK", "state": "NY", "zip": "10018-8962", "ntee": "M20", "ruling": "200202", "deductibility": "1", "assets": 353063, "income": 312631, "revenue": 307496}, {"ein": "450990732", "name": "PREMIER CARES FOUNDATION INC", "city": "PLEASANT VLY", "state": "NY", "zip": "12569-0093", "ntee": "G12", "ruling": "201105", "deductibility": "1", "assets": 163481, "income": 115682, "revenue": 115604}, {"ein": "452502750", "name": "CREEKVIEW CARES FOUNDATION", "city": "WILLIAMSVILLE", "state": "NY", "zip": "14221-5450", "ntee": "T30", "ruling": "201203", "deductibility": "1", "assets": 0, "income": 0, "revenue": 0}, {"ein": "452849521", "name": "USS CARES INC", "city": "GREAT RIVER", "state": "NY", "zip": "11739-1001", "ntee": "P12", "ruling": "202310", "deductibility": "1", "assets": 0, "income": 0, "revenue": 0}, {"ein": "453596051", "name": "CHECKUPS CARES INC", "city": "ROCHESTER", "state": "NY", "zip": "14620-1830", "ntee": "E99", "ruling": "201211", "deductibility": "1", "assets": 3760, "income": 23819, "revenue": 23819}, {"ein": "454746916", "name": "FARM CREDIT EAST CARES", "city": "COOPERSTOWN", "state": "NY", "zip": "13326-3307", "ntee": "M12", "ruling": "201306", "deductibility": "1", "assets": 0, "income": 0, "revenue": 0}, {"ein": "455279186", "name": "ALL ABOUT KIDS CARES INC", "city": "PLAINVIEW", "state": "NY", "zip": "11803-1707", "ntee": "B90", "ruling": "201406", "deductibility": "1", "assets": 0, "income": 0, "revenue": 0}, {"ein": "461652259", "name": "OUR COMMUNITY CARES", "city": "GHENT", "state": "NY", "zip": "12075-0463", "ntee": "P20", "ruling": "201403", "deductibility": "1", "assets": 0, "income": 0, "revenue": 0}, {"ein": "461709521", "name": "CLAUDIO CARES FOUNDATION INC", "city": "HYDE PARK", "state": "NY", "zip": "12538-1122", "ntee": "O12", "ruling": "201304", "deductibility": "1", "assets": 22287, "income": 21822, "revenue": 21822}, {"ein": "461784806", "name": "BAY RIDGE CARES", "city": "BROOKLYN", "state": "NY", "zip": "11209-3512", "ntee": "P12", "ruling": "201408", "deductibility": "1", "assets": 36586, "income": 78827, "revenue": 78827}, {"ein": "461802881", "name": "RAEL CARES INC", "city": "HIGHLAND", "state": "NY", "zip": "12528-1820", "ntee": "Q33", "ruling": "201508", "deductibility": "1", "assets": 0, "income": 0, "revenue": 0}, {"ein": "462940946", "name": "TOMMIE CARES FOUNDATION INC", "city": "OSSINING", "state": "NY", "zip": "10562-1320", "ntee": "O50", "ruling": "201407", "deductibility": "1", "assets": 0, "income": 0, "revenue": 0}, {"ein": "463332021", "name": "ROSCOE CARES INC", "city": "ROSCOE", "state": "NY", "zip": "12776-6438", "ntee": "S80", "ruling": "201602", "deductibility": "1", "assets": 117417, "income": 16832, "revenue": 16832}, {"ein": "463503294", "name": "LINDENHURST COMMUNITY CARES COALITION", "city": "LINDENHURST", "state": "NY", "zip": "11757-3205", "ntee": "F21", "ruling": "201412", "deductibility": "1", "assets": 204559, "income": 647096, "revenue": 647096}, {"ein": "464063414", "name": "C THE DIFFERENCE CORY CARES", "city": "OCEANSIDE", "state": "NY", "zip": "11572-4627", "ntee": "K12", "ruling": "201411", "deductibility": "1", "assets": 0, "income": 0, "revenue": 0}, {"ein": "464210327", "name": "TZP CARES FOUNDATION", "city": "NEW YORK", "state": "NY", "zip": "10106-2500", "ntee": "T21", "ruling": "201407", "deductibility": "1", "assets": 5721, "income": 123075, "revenue": 0}, {"ein": "464249147", "name": "PHYT CARES INC", "city": "NEW YORK", "state": "NY", "zip": "10022-2102", "ntee": "N50", "ruling": "201408", "deductibility": "1", "assets": 37457, "income": 119506, "revenue": 119506}, {"ein": "464729112", "name": "BENSONS CARES INC", "city": "CLIFTON PARK", "state": "NY", "zip": "12065-0363", "ntee": "D20", "ruling": "201412", "deductibility": "1", "assets": 29289, "income": 115557, "revenue": 115557}, {"ein": "464769208", "name": "HILLTOP CARES FOUNDATION", "city": "NEW YORK", "state": "NY", "zip": "10026-0998", "ntee": "F42", "ruling": "201409", "deductibility": "1", "assets": 0, "income": 0, "revenue": 0}, {"ein": "464835822", "name": "FILLMORE CARES INC", "city": "BROOKLYN", "state": "NY", "zip": "11234-3709", "ntee": "G30", "ruling": "201407", "deductibility": "1", "assets": 2465, "income": 1780, "revenue": 1780}, {"ein": "465571247", "name": "PWW CARES INC", "city": "W HAMPTON BCH", "state": "NY", "zip": "11978-1461", "ntee": "P12", "ruling": "201712", "deductibility": "1", "assets": 0, "income": 0, "revenue": 0}, {"ein": "471041137", "name": "PACE CARES CORP", "city": "BROOKLYN", "state": "NY", "zip": "11222-1892", "ntee": "T70", "ruling": "201412", "deductibility": "1", "assets": 54982, "income": 77566, "revenue": 77566}, {"ein": "471361454", "name": "UHY CARES NY INC", "city": "ALBANY", "state": "NY", "zip": "12203-3712", "ntee": "T50", "ruling": "201409", "deductibility": "1", "assets": 29001, "income": 100301, "revenue": 0}, {"ein": "472312280", "name": "ALEX CARES INCORPORATED", "city": "LARCHMONT", "state": "NY", "zip": "10538-1448", "ntee": "P30", "ruling": "201602", "deductibility": "1", "assets": 0, "income": 0, "revenue": 0}, {"ein": "472752396", "name": "HARVEST CARES INC", "city": "WEBSTER", "state": "NY", "zip": "14580-2438", "ntee": "O50", "ruling": "201501", "deductibility": "1", "assets": 0, "income": 0, "revenue": 0}, {"ein": "473299777", "name": "IKON CARES NYC INC", "city": "BRONX", "state": "NY", "zip": "10462-2360", "ntee": "J22", "ruling": "201508", "deductibility": "1", "assets": 1, "income": 1, "revenue": 0}, {"ein": "473513923", "name": "HOCKEY CARES INC", "city": "NEW YORK", "state": "NY", "zip": "10065-6653", "ntee": "N12", "ruling": "201504", "deductibility": "1", "assets": 0, "income": 0, "revenue": 0}, {"ein": "473727912", "name": "NR CARES AIP INC", "city": "NEW ROCHELLE", "state": "NY", "zip": "10804-0091", "ntee": "P81", "ruling": "201510", "deductibility": "1", "assets": 25820, "income": 9127, "revenue": 9127}, {"ein": "473741404", "name": "NYC SURGICAL CARES INC", "city": "NEW YORK", "state": "NY", "zip": "10022-7140", "ntee": "E21", "ruling": "201509", "deductibility": "1", "assets": 0, "income": 0, "revenue": 0}, {"ein": "475041364", "name": "DESTINY CARES FOUNDATION", "city": "FLUSHING", "state": "NY", "zip": "11354-5115", "ntee": "T20", "ruling": "201604", "deductibility": "1", "assets": 498182, "income": 364230, "revenue": 0}, {"ein": "475210636", "name": "914 CARES INC", "city": "ARMONK", "state": "NY", "zip": "10504-1344", "ntee": "T31", "ruling": "201608", "deductibility": "1", "assets": 925296, "income": 2320343, "revenue": 1929932}, {"ein": "562677211", "name": "LOCKPORT CARES INC", "city": "LOCKPORT", "state": "NY", "zip": "14095-0586", "ntee": "B90", "ruling": "200807", "deductibility": "1", "assets": 458784, "income": 316463, "revenue": 304318}, {"ein": "770673263", "name": "VENTURE CARES OPTIONS I INC", "city": "NANUET", "state": "NY", "zip": "10954-2970", "ntee": "L21", "ruling": "200708", "deductibility": "1", "assets": 1019538, "income": 98635, "revenue": 98635}, {"ein": "810791401", "name": "WBC CARES INC", "city": "NEW YORK", "state": "NY", "zip": "10010-5814", "ntee": "T50", "ruling": "201607", "deductibility": "1", "assets": 1789, "income": 45131, "revenue": 45131}, {"ein": "811076978", "name": "COMMUNITY CARES LOCAL DEVELOPMENT CORPORATION", "city": "NEW YORK", "state": "NY", "zip": "10004-2400", "ntee": "F19", "ruling": "201603", "deductibility": "1", "assets": 26670179, "income": 1425888, "revenue": 1425888}, {"ein": "811084533", "name": "SUNATION CARES INC", "city": "RONKONKOMA", "state": "NY", "zip": "11779-6957", "ntee": "C35", "ruling": "201710", "deductibility": "1", "assets": 1, "income": 1, "revenue": 0}, {"ein": "811423092", "name": "RADIO WOODSTOCK CARES FOUNDATION INC", "city": "WOODSTOCK", "state": "NY", "zip": "12498-0367", "ntee": "T50", "ruling": "201602", "deductibility": "1", "assets": 84352, "income": 46548, "revenue": 34987}, {"ein": "813485814", "name": "HYPE CARES FOUNDATION", "city": "NEW YORK", "state": "NY", "zip": "10150-6255", "ntee": "Q33", "ruling": "201609", "deductibility": "1", "assets": 0, "income": 0, "revenue": 0}, {"ein": "813530975", "name": "CONNETQUOT CARES", "city": "OAKDALE", "state": "NY", "zip": "11769-1606", "ntee": "P01", "ruling": "201612", "deductibility": "1", "assets": 0, "income": 0, "revenue": 0}, {"ein": "813845742", "name": "GOODWAY CARES", "city": "NEW YORK", "state": "NY", "zip": "10003-1502", "ntee": "T30", "ruling": "201701", "deductibility": "1", "assets": 38426, "income": 127457, "revenue": 127457}, {"ein": "814810329", "name": "THOMAS S PERAKOS FAMILY CARES FOUNDATION", "city": "NEW YORK", "state": "NY", "zip": "10017-8408", "ntee": "T20", "ruling": "201708", "deductibility": "1", "assets": 1875864, "income": 458613, "revenue": 0}, {"ein": "814956158", "name": "EIE CARES", "city": "SARATOGA SPGS", "state": "NY", "zip": "12866-8020", "ntee": "D01", "ruling": "202403", "deductibility": "1", "assets": 0, "income": 0, "revenue": 0}, {"ein": "815211948", "name": "BENNETT CARES", "city": "BROOKLYN", "state": "NY", "zip": "11225-2716", "ntee": "O50", "ruling": "201702", "deductibility": "1", "assets": 0, "income": 0, "revenue": 0}, {"ein": "821997717", "name": "STEELE CARES INTERVENTION AND FAMILY SERVICES", "city": "STATEN ISLAND", "state": "NY", "zip": "10304-2530", "ntee": "P20", "ruling": "201707", "deductibility": "1", "assets": 0, "income": 0, "revenue": 0}, {"ein": "822870225", "name": "GPB CARES INC", "city": "MINEOLA", "state": "NY", "zip": "11501-4883", "ntee": "P12", "ruling": "201710", "deductibility": "1", "assets": 0, "income": 0, "revenue": 0}, {"ein": "822906928", "name": "PLATTSBURGH CARES INC", "city": "PLATTSBURGH", "state": "NY", "zip": "12901-0228", "ntee": "L41", "ruling": "201710", "deductibility": "1", "assets": 20870, "income": 52079, "revenue": 52079}, {"ein": "824787842", "name": "JOSEPHINE CARES SOCIETY INC", "city": "NYC", "state": "NY", "zip": "10031-1959", "ntee": "P99", "ruling": "202502", "deductibility": "1", "assets": 0, "income": 0, "revenue": 0}, {"ein": "824826678", "name": "UPSTATE NEW YORK CARES INC", "city": "ALBANY", "state": "NY", "zip": "12205-3818", "ntee": "M20", "ruling": "201804", "deductibility": "1", "assets": 0, "income": 0, "revenue": 0}, {"ein": "831154773", "name": "AC CARES FOUNDATION INC", "city": "BROOKLYN", "state": "NY", "zip": "11228-2021", "ntee": "P20", "ruling": "201812", "deductibility": "1", "assets": 0, "income": 0, "revenue": 0}, {"ein": "832543896", "name": "CARES ADVOCATES FOR FAMILIES", "city": "BINGHAMTON", "state": "NY", "zip": "13902-2322", "ntee": "B80", "ruling": "201907", "deductibility": "1", "assets": 32167, "income": 410363, "revenue": 0}, {"ein": "833115888", "name": "KARA CARES INC", "city": "DIX HILLS", "state": "NY", "zip": "11746-5607", "ntee": "E11", "ruling": "201904", "deductibility": "1", "assets": 0, "income": 0, "revenue": 0}, {"ein": "841777929", "name": "INFINITE CARES-INFINITE HORIZONS CREATING AFFORDABLE HOUSNG WITH RE", "city": "JAMAICA", "state": "NY", "zip": "11436-1420", "ntee": "L20", "ruling": "202008", "deductibility": "1", "assets": 0, "income": 0, "revenue": 0}, {"ein": "842512694", "name": "CARES RESEARCH CORP", "city": "NEW YORK", "state": "NY", "zip": "10002-4800", "ntee": "H84", "ruling": "201908", "deductibility": "1", "assets": 0, "income": 0, "revenue": 0}, {"ein": "843745294", "name": "CMM CARES INC", "city": "RONKONKOMA", "state": "NY", "zip": "11779-0000", "ntee": "T30", "ruling": "202001", "deductibility": "1", "assets": 115405, "income": 192744, "revenue": 137197}, {"ein": "843748908", "name": "INSTITUTIONAL CARES", "city": "BROOKLYN", "state": "NY", "zip": "11205-3302", "ntee": "K31", "ruling": "202004", "deductibility": "1", "assets": 0, "income": 0, "revenue": 0}, {"ein": "844569558", "name": "MOUNTAIN TOP CARES COALITION INC", "city": "MAPLECREST", "state": "NY", "zip": "12454-0000", "ntee": "F21", "ruling": "202004", "deductibility": "1", "assets": 278449, "income": 291702, "revenue": 291702}, {"ein": "845044198", "name": "KIWI CARES INC", "city": "CARMEL", "state": "NY", "zip": "10512-4328", "ntee": "O50", "ruling": "202011", "deductibility": "1", "assets": 0, "income": 0, "revenue": 0}, {"ein": "845187312", "name": "TAO CARES RELIEF FUND", "city": "NEW YORK", "state": "NY", "zip": "10003-1527", "ntee": "T21", "ruling": "202004", "deductibility": "1", "assets": 40393, "income": 52677, "revenue": 52677}, {"ein": "851007689", "name": "WINDSONG CARES FOUNDATION INC", "city": "WILLIAMVILLE", "state": "NY", "zip": "14221-7800", "ntee": "T21", "ruling": "202009", "deductibility": "1", "assets": 69680, "income": 24422, "revenue": 24232}, {"ein": "851191244", "name": "BREWSTER CARES INC", "city": "BREWSTER", "state": "NY", "zip": "10509-1215", "ntee": "P85", "ruling": "202101", "deductibility": "1", "assets": 1130439, "income": 507250, "revenue": 507250}, {"ein": "851412212", "name": "COMMUNITY CARES NY INC", "city": "BAYSIDE HILLS", "state": "NY", "zip": "11364-1142", "ntee": "K30", "ruling": "202009", "deductibility": "1", "assets": 0, "income": 0, "revenue": 0}, {"ein": "851694794", "name": "NESS CARES INC", "city": "WESTBURY", "state": "NY", "zip": "11590-1324", "ntee": "F30", "ruling": "202008", "deductibility": "1", "assets": 0, "income": 0, "revenue": 0}, {"ein": "851997635", "name": "AMERICAN PAKISTANI ADVOCACY GROUP CARES INC", "city": "FRESH MEADOWS", "state": "NY", "zip": "11366-1954", "ntee": "T50", "ruling": "202008", "deductibility": "1", "assets": 0, "income": 0, "revenue": 0}, {"ein": "852908751", "name": "ITAMG CARES INC", "city": "FARMINGDALE", "state": "NY", "zip": "11735-3943", "ntee": "O99", "ruling": "202104", "deductibility": "1", "assets": 0, "income": 0, "revenue": 0}, {"ein": "853251716", "name": "GOD CARES FOUNDATION", "city": "NEW YORK", "state": "NY", "zip": "10023-2107", "ntee": "T22", "ruling": "202104", "deductibility": "1", "assets": 1, "income": 1, "revenue": 0}, {"ein": "861858454", "name": "KKC CARES INC", "city": "GLENS FALLS", "state": "NY", "zip": "12801-0274", "ntee": "F01", "ruling": "202107", "deductibility": "1", "assets": 0, "income": 0, "revenue": 0}, {"ein": "861934631", "name": "ARIANNA CARES FOUNDATION INC", "city": "SOUTH RICHMOND HILL", "state": "NY", "zip": "11419-1329", "ntee": "E60", "ruling": "202302", "deductibility": "1", "assets": 0, "income": 13600, "revenue": 13600}, {"ein": "863112493", "name": "SARATOGA CARES FOUNDATION INC", "city": "ALBANY", "state": "NY", "zip": "12205-5549", "ntee": "T50", "ruling": "202111", "deductibility": "1", "assets": 0, "income": 0, "revenue": 0}, {"ein": "863263674", "name": "JERICHO CARES FOUNDATION INC", "city": "JERICHO", "state": "NY", "zip": "11753-2509", "ntee": "P20", "ruling": "202111", "deductibility": "1", "assets": 63861, "income": 119820, "revenue": 119820}, {"ein": "871269122", "name": "ADAH CARES", "city": "RIDGEWOOD", "state": "NY", "zip": "11385-2234", "ntee": "T50", "ruling": "202109", "deductibility": "1", "assets": 0, "income": 0, "revenue": 0}, {"ein": "872339649", "name": "SHOP-BOB CARES", "city": "STATEN ISLAND", "state": "NY", "zip": "10314-5880", "ntee": "A12", "ruling": "202111", "deductibility": "1", "assets": 0, "income": 0, "revenue": 0}, {"ein": "872497061", "name": "IMMANUEL CARES", "city": "BRONX", "state": "NY", "zip": "10475-4951", "ntee": "P30", "ruling": "202211", "deductibility": "1", "assets": 0, "income": 0, "revenue": 0}, {"ein": "873080427", "name": "NAYO CARES", "city": "BRONX", "state": "NY", "zip": "10463-5040", "ntee": "X20", "ruling": "202310", "deductibility": "1", "assets": 0, "income": 0, "revenue": 0}, {"ein": "873379993", "name": "ALTIUM CARES FOUNDATION", "city": "NEW YORK", "state": "NY", "zip": "10019-0000", "ntee": "T12", "ruling": "202203", "deductibility": "1", "assets": 73160, "income": 84479, "revenue": 84479}, {"ein": "873575718", "name": "COLORIZE CARES INC", "city": "ALBANY", "state": "NY", "zip": "12204-1310", "ntee": "A11", "ruling": "202202", "deductibility": "1", "assets": 0, "income": 0, "revenue": 0}, {"ein": "873684123", "name": "ELLY CARES PROJECT INC", "city": "PATCHOGUE", "state": "NY", "zip": "11772-3537", "ntee": "B12", "ruling": "202207", "deductibility": "1", "assets": 0, "income": 0, "revenue": 0}, {"ein": "873742621", "name": "MOLLY & ED SHILL CARES FOUNDATION", "city": "CANANDAIGUA", "state": "NY", "zip": "14424-0808", "ntee": "T20", "ruling": "202208", "deductibility": "1", "assets": 5210400, "income": 506738, "revenue": 0}, {"ein": "874053409", "name": "SINGH CARES FOUNDATION INC", "city": "SCARSDALE", "state": "NY", "zip": "10583-4525", "ntee": "A25", "ruling": "202204", "deductibility": "1", "assets": 1191614, "income": 36376, "revenue": 0}, {"ein": "874055000", "name": "SOMEONE CARES ANIMAL RESCUE FOUNDATION", "city": "NEWBURGH", "state": "NY", "zip": "12550-2645", "ntee": "D99", "ruling": "202202", "deductibility": "1", "assets": 0, "income": 0, "revenue": 0}, {"ein": "874122354", "name": "CARES NYS CHARITABLE TRUST", "city": "NEW YORK", "state": "NY", "zip": "10002-7477", "ntee": "T22", "ruling": "202403", "deductibility": "1", "assets": 6935916, "income": 167461, "revenue": 0}, {"ein": "874481678", "name": "DARNELL CARES", "city": "BRONX", "state": "NY", "zip": "10466-5917", "ntee": "Z99", "ruling": "202304", "deductibility": "1", "assets": 0, "income": 0, "revenue": 0}, {"ein": "881659120", "name": "ELIEZER CARES INTERNATIONAL INCORPORATED", "city": "BALDWIN", "state": "NY", "zip": "11510-4068", "ntee": "X20", "ruling": "202412", "deductibility": "1", "assets": 0, "income": 0, "revenue": 0}, {"ein": "882197989", "name": "SUFFOLK AME CARES FOUNDATION INC", "city": "BOHEMIA", "state": "NY", "zip": "11716-2513", "ntee": "W12", "ruling": "202207", "deductibility": "1", "assets": 53905, "income": 390242, "revenue": 61272}, {"ein": "882550860", "name": "EQUIPMENT FINANCE CARES INC", "city": "GARDEN CITY", "state": "NY", "zip": "11530-3336", "ntee": "T30", "ruling": "202206", "deductibility": "1", "assets": 41223, "income": 152297, "revenue": 152297}, {"ein": "882944619", "name": "ABEDA CARES INC", "city": "HOLLIS", "state": "NY", "zip": "11423-1106", "ntee": "F60", "ruling": "202208", "deductibility": "1", "assets": 0, "income": 0, "revenue": 0}, {"ein": "883100403", "name": "READY CARES", "city": "NEW YORK", "state": "NY", "zip": "10038-2015", "ntee": "T50", "ruling": "202210", "deductibility": "1", "assets": 14511, "income": 20672, "revenue": 0}, {"ein": "884244073", "name": "ANGIE MITCHELL CARES", "city": "YONKERS", "state": "NY", "zip": "10704-3656", "ntee": "G30", "ruling": "202304", "deductibility": "1", "assets": 0, "income": 0, "revenue": 0}, {"ein": "920294287", "name": "SKANEATELES CARES INC", "city": "SKANEATELES", "state": "NY", "zip": "13152-9403", "ntee": "O50", "ruling": "202303", "deductibility": "1", "assets": 0, "income": 0, "revenue": 0}, {"ein": "920726803", "name": "COURTNEY CARES FOUNDATION INC", "city": "NEW YORK", "state": "NY", "zip": "10001-1455", "ntee": "G30", "ruling": "202211", "deductibility": "1", "assets": 0, "income": 0, "revenue": 0}, {"ein": "920812553", "name": "OSHHA CARES INC", "city": "NEW YORK", "state": "NY", "zip": "10035-0780", "ntee": "", "ruling": "202501", "deductibility": "1", "assets": 0, "income": 0, "revenue": 0}, {"ein": "920827856", "name": "CRAFTY GETAWAYS CARES INC", "city": "MILLER PLACE", "state": "NY", "zip": "11764-0000", "ntee": "P99", "ruling": "202211", "deductibility": "1", "assets": 0, "income": 0, "revenue": 0}, {"ein": "921187307", "name": "REAL WELLNESS CARES INC", "city": "FRESH MEADOWS", "state": "NY", "zip": "11366-1515", "ntee": "B12", "ruling": "202302", "deductibility": "1", "assets": 0, "income": 0, "revenue": 0}, {"ein": "921506708", "name": "BLAQUE COMMUNITY CARES INC", "city": "SPRNGFLD GDNS", "state": "NY", "zip": "11413-3317", "ntee": "S31", "ruling": "202502", "deductibility": "1", "assets": 0, "income": 0, "revenue": 0}, {"ein": "921532576", "name": "BEINGEGYPT CARES INC", "city": "CAMBRIA HEIGHTS", "state": "NY", "zip": "11411-2001", "ntee": "B92", "ruling": "202304", "deductibility": "1", "assets": 0, "income": 0, "revenue": 0}, {"ein": "921676939", "name": "ZELDIN CARES INC", "city": "SMITHTOWN", "state": "NY", "zip": "11787-2888", "ntee": "P99", "ruling": "202306", "deductibility": "1", "assets": 155167, "income": 415446, "revenue": 415446}, {"ein": "922071234", "name": "BP CARES", "city": "BROOKLYN", "state": "NY", "zip": "11236-3224", "ntee": "P20", "ruling": "202302", "deductibility": "1", "assets": 0, "income": 0, "revenue": 0}, {"ein": "922401628", "name": "GOOD CO BIKE CLUB CARES INCORPORATED", "city": "BROOKLYN", "state": "NY", "zip": "11225-3706", "ntee": "N99", "ruling": "202303", "deductibility": "1", "assets": 0, "income": 0, "revenue": 0}, {"ein": "923195568", "name": "LE NOIR ENTERTAINMENT CARES INCORPORATED", "city": "NEW YORK", "state": "NY", "zip": "10030-3496", "ntee": "A90", "ruling": "202405", "deductibility": "1", "assets": 0, "income": 0, "revenue": 0}, {"ein": "923417621", "name": "PDAA CARES INCORPORATED", "city": "BRONX", "state": "NY", "zip": "10466-2243", "ntee": "P20", "ruling": "202305", "deductibility": "1", "assets": 0, "income": 0, "revenue": 0}, {"ein": "923432275", "name": "WEST SENECA CARES", "city": "WEST SENECA", "state": "NY", "zip": "14224-4231", "ntee": "P20", "ruling": "202305", "deductibility": "1", "assets": 0, "income": 0, "revenue": 0}, {"ein": "923917098", "name": "NIYAH CARES", "city": "YONKERS", "state": "NY", "zip": "10701-3617", "ntee": "S31", "ruling": "202306", "deductibility": "1", "assets": 0, "income": 0, "revenue": 0}, {"ein": "924025233", "name": "FARMA CARES INC", "city": "NEW YORK", "state": "NY", "zip": "10005-4301", "ntee": "K99", "ruling": "202308", "deductibility": "1", "assets": 0, "income": 0, "revenue": 0}, {"ein": "932459020", "name": "FACEY CARES", "city": "HOLTSVILLE", "state": "NY", "zip": "11742-2623", "ntee": "K36", "ruling": "202308", "deductibility": "1", "assets": 0, "income": 0, "revenue": 0}, {"ein": "932490132", "name": "GENESEE VALLEY REGIONAL COMMUNITY CARES INCORPORATED", "city": "BYRON", "state": "NY", "zip": "14422-9528", "ntee": "P74", "ruling": "202309", "deductibility": "1", "assets": 0, "income": 0, "revenue": 0}, {"ein": "932588238", "name": "QBA CARES INC", "city": "BRONX", "state": "NY", "zip": "10475-0000", "ntee": "N60", "ruling": "202309", "deductibility": "1", "assets": 0, "income": 0, "revenue": 0}, {"ein": "933874912", "name": "BODEGA CARES", "city": "NEW YORK", "state": "NY", "zip": "10034-5412", "ntee": "S20", "ruling": "202310", "deductibility": "1", "assets": 0, "income": 0, "revenue": 0}, {"ein": "934438151", "name": "COEXIST CARES INC", "city": "NEW YORK", "state": "NY", "zip": "10018-0000", "ntee": "P20", "ruling": "202401", "deductibility": "1", "assets": 0, "income": 0, "revenue": 0}, {"ein": "934532151", "name": "LEVEL UP GLEN COVE CARES", "city": "GLEN COVE", "state": "NY", "zip": "11542-3551", "ntee": "P20", "ruling": "202312", "deductibility": "1", "assets": 2578, "income": 4187, "revenue": 4187}, {"ein": "934534721", "name": "XNORB CARES", "city": "BRONX", "state": "NY", "zip": "10471-2340", "ntee": "U40", "ruling": "202312", "deductibility": "1", "assets": 0, "income": 0, "revenue": 0}, {"ein": "934697393", "name": "SUSA CARES FOUNDATION INC", "city": "DIX HILLS", "state": "NY", "zip": "11746-5415", "ntee": "N64", "ruling": "202501", "deductibility": "1", "assets": 0, "income": 0, "revenue": 0}, {"ein": "990780576", "name": "AUTISM CARES ASSOCIATION INC", "city": "VALLEY STREAM", "state": "NY", "zip": "11580-1818", "ntee": "G84", "ruling": "202402", "deductibility": "1", "assets": 0, "income": 0, "revenue": 0}, {"ein": "991156398", "name": "CASIA CARES INC", "city": "STATEN ISLAND", "state": "NY", "zip": "10301-1432", "ntee": "P29", "ruling": "202403", "deductibility": "1", "assets": 0, "income": 0, "revenue": 0}, {"ein": "991306894", "name": "NSA CARES NEW ENGLAND INC", "city": "FLUSHING", "state": "NY", "zip": "11354-1995", "ntee": "B82", "ruling": "202403", "deductibility": "1", "assets": 0, "income": 0, "revenue": 0}, {"ein": "991332949", "name": "NEW LIFE COMMUNITY CARES FOUNDATION INC", "city": "BROOKLYN", "state": "NY", "zip": "11212-8029", "ntee": "S20", "ruling": "202402", "deductibility": "1", "assets": 0, "income": 0, "revenue": 0}, {"ein": "991618500", "name": "EAGLE ROCK CARES FOUNDATION CORP", "city": "NEW YORK", "state": "NY", "zip": "10017-5627", "ntee": "L80", "ruling": "202403", "deductibility": "1", "assets": 0, "income": 0, "revenue": 0}, {"ein": "991741517", "name": "MERRICK CARES FOR BLUE INC", "city": "MERRICK", "state": "NY", "zip": "11566-2730", "ntee": "P99", "ruling": "202411", "deductibility": "1", "assets": 0, "income": 0, "revenue": 0}, {"ein": "992040370", "name": "COMMUNITY CARES FOR NYC", "city": "S RICHMOND HL", "state": "NY", "zip": "11419-1324", "ntee": "P28", "ruling": "202410", "deductibility": "1", "assets": 0, "income": 0, "revenue": 0}, {"ein": "992123853", "name": "LORE CARES INC", "city": "PEARL RIVER", "state": "NY", "zip": "10965-2946", "ntee": "S02", "ruling": "202404", "deductibility": "1", "assets": 0, "income": 0, "revenue": 0}, {"ein": "992135328", "name": "A1 CARES FOUNDATION", "city": "PORT JEFF STA", "state": "NY", "zip": "11776-2628", "ntee": "T20", "ruling": "202406", "deductibility": "1", "assets": 0, "income": 0, "revenue": 0}, {"ein": "992421506", "name": "GISSY CARES INC", "city": "STATEN ISLAND", "state": "NY", "zip": "10301-2408", "ntee": "O50", "ruling": "202404", "deductibility": "1", "assets": 0, "income": 0, "revenue": 0}, {"ein": "993008519", "name": "JFK AIRPORT CARES INC", "city": "MASSAPEQUA", "state": "NY", "zip": "11758-6510", "ntee": "M20", "ruling": "202406", "deductibility": "1", "assets": 0, "income": 0, "revenue": 0}, {"ein": "993193330", "name": "CRAIG CARES INC", "city": "BROOKLYN", "state": "NY", "zip": "11201-2714", "ntee": "W99", "ruling": "202406", "deductibility": "1", "assets": 0, "income": 0, "revenue": 0}, {"ein": "994312498", "name": "CHILDRENS VILLAGE FOUNDATION AND CARES", "city": "BROOKLYN", "state": "NY", "zip": "11236-4320", "ntee": "P40", "ruling": "202409", "deductibility": "1", "assets": 0, "income": 0, "revenue": 0}, {"ein": "994989941", "name": "WEST BABYLON CARES INC", "city": "WEST BABYLON", "state": "NY", "zip": "11704-5407", "ntee": "A20", "ruling": "202409", "deductibility": "1", "assets": 0, "income": 0, "revenue": 0}, {"ein": "995144213", "name": "VICTORIA CARES FOUNDATION INC", "city": "MOUNT VERNON", "state": "NY", "zip": "10550-4920", "ntee": "S99", "ruling": "202410", "deductibility": "1", "assets": 0, "income": 0, "revenue": 0}], "KEIGWIN": [{"ein": "030589266", "name": "KEIGWIN AND COMPANY INC", "city": "NEW YORK", "state": "NY", "zip": "10163-9408", "ntee": "A62", "ruling": "200803", "deductibility": "1", "assets": 197179, "income": 252553, "revenue": 252553}], "UVM": [{"ein": "036053976", "name": "MARJORIE J WAY TR FBO UVM FACULTY", "city": "BUFFALO", "state": "NY", "zip": "14240-1504", "ntee": "T22", "ruling": "201905", "deductibility": "1", "assets": 231155, "income": 26434, "revenue": 0}], "ECONOMICS": [{"ein": "042654109", "name": "NORTHEAST BUSINESS AND ECONOMICS ASSOCIATION", "city": "EASTCHESTER", "state": "NY", "zip": "10709-2005", "ntee": "B99", "ruling": "201406", "deductibility": "1", "assets": 0, "income": 0, "revenue": 0}, {"ein": "141775599", "name": "LOCAL ECONOMICS DEVELOPMENT LEO INC", "city": "KINGSTON", "state": "NY", "zip": "12402-0000", "ntee": "J23Z", "ruling": "199601", "deductibility": "1", "assets": 0, "income": 0, "revenue": 0}, {"ein": "204662303", "name": "AMERICAN FOUNDATION FOR THE PARISSCHOOL OF ECONOMICS INC", "city": "NEW YORK", "state": "NY", "zip": "10128-0724", "ntee": "A12", "ruling": "200702", "deductibility": "1", "assets": 29274, "income": 116265, "revenue": 91620}, {"ein": "222263838", "name": "NEW YORK STATE ECONOMICS ASSOCIATON INC", "city": "ONEONTA", "state": "NY", "zip": "13820-2685", "ntee": "", "ruling": "197909", "deductibility": "1", "assets": 0, "income": 0, "revenue": 0}, {"ein": "232693366", "name": "INTERNATIONAL ASSOCIATION FOR FEMINIST ECONOMICS", "city": "ITHACA", "state": "NY", "zip": "14850-5914", "ntee": "Q050", "ruling": "199402", "deductibility": "1", "assets": 3673048, "income": 450997, "revenue": 450997}, {"ein": "333068493", "name": "MANAGERIAL & INDUSTRIAL ECONOMICS RESEARCH INSTITUTE INC", "city": "ROCHESTER", "state": "NY", "zip": "14618-4828", "ntee": "U99", "ruling": "202502", "deductibility": "1", "assets": 0, "income": 0, "revenue": 0}, {"ein": "453114269", "name": "INSTITUTE FOR ECONOMICS AND PEACE", "city": "NEW YORK", "state": "NY", "zip": "10004-2257", "ntee": "V22", "ruling": "201302", "deductibility": "1", "assets": 136403, "income": 395562, "revenue": 395562}, {"ein": "472704504", "name": "BEHAVIORAL ECONOMICS FOUNDATION INC", "city": "STATEN ISLAND", "state": "NY", "zip": "10306-5929", "ntee": "V23", "ruling": "201501", "deductibility": "1", "assets": 0, "income": 0, "revenue": 0}, {"ein": "832525711", "name": "FAIRYDUST ECONOMICS LIMITED", "city": "NEW YORK", "state": "NY", "zip": "10023-4417", "ntee": "T50", "ruling": "201812", "deductibility": "1", "assets": 0, "income": 0, "revenue": 0}, {"ein": "934108201", "name": "INTERNATIONAL COUNCIL ON ENVIRONMENTAL ECONOMICS AND DEVELO", "city": "NEW YORK", "state": "NY", "zip": "10017-6870", "ntee": "C05", "ruling": "202407", "deductibility": "1", "assets": 0, "income": 0, "revenue": 0}], "PARISHAD": [{"ein": "043694862", "name": "SANGEET PARISHAD INC", "city": "JACKSON HEIGHTS", "state": "NY", "zip": "11372-1166", "ntee": "A20", "ruling": "200404", "deductibility": "1", "assets": 1668, "income": 500, "revenue": 500}, {"ein": "112863514", "name": "USA PANDITS PARISHAD INC", "city": "HOLLIS", "state": "NY", "zip": "11423-2643", "ntee": "", "ruling": "199310", "deductibility": "1", "assets": 197470, "income": 52347, "revenue": -24438}, {"ein": "113702872", "name": "BANGLADESH PUJA UDJAPAN PARISHAD NEW YORK INC", "city": "GLEN OAKS", "state": "NY", "zip": "11004-1322", "ntee": "X70", "ruling": "201508", "deductibility": "1", "assets": 248, "income": 49878, "revenue": 49878}, {"ein": "473840841", "name": "BANGLADESH HINDU BUDDHIST CHRISTIAN OIKYO PARISHAD USA INC", "city": "JAMAICA", "state": "NY", "zip": "11435-3231", "ntee": "X03", "ruling": "201602", "deductibility": "1", "assets": 35088, "income": 8471, "revenue": 8471}, {"ein": "873226012", "name": "BUFFALO HINDU PARISHAD", "city": "BUFFALO", "state": "NY", "zip": "14215-1124", "ntee": "X70", "ruling": "202212", "deductibility": "1", "assets": 255897, "income": 8951, "revenue": 8951}, {"ein": "873805184", "name": "SANDWIP GONO UNNAYAN PARISHAD USA INC", "city": "BROOKLYN", "state": "NY", "zip": "11218-3305", "ntee": "S20", "ruling": "202507", "deductibility": "1", "assets": 0, "income": 0, "revenue": 0}], "ORON": [{"ein": "043789222", "name": "ORON DEVELOPMENT UNION OF NEW YORK INC", "city": "JAMAICA", "state": "NY", "zip": "11434-3610", "ntee": "W99", "ruling": "202310", "deductibility": "1", "assets": 0, "income": 0, "revenue": 0}], "HUMANE": [{"ein": "061206151", "name": "HUMANE SOCIETY OF BLOOMING GROVE INC", "city": "WASHINGTONVLE", "state": "NY", "zip": "10992-0226", "ntee": "D200", "ruling": "199308", "deductibility": "1", "assets": 137587, "income": 135592, "revenue": 135592}, {"ein": "061369813", "name": "GOSHEN HUMANE SOCIETY INC", "city": "GOSHEN", "state": "NY", "zip": "10924-0037", "ntee": "D20", "ruling": "201408", "deductibility": "1", "assets": 248609, "income": 71141, "revenue": 71141}, {"ein": "112422678", "name": "LONG BEACH HUMANE SOCIETY LTD C O", "city": "LONG BEACH", "state": "NY", "zip": "11561-0356", "ntee": "", "ruling": "197707", "deductibility": "1", "assets": 6141, "income": 100470, "revenue": 100470}, {"ein": "112991697", "name": "HUMANE URBAN GROUP INC", "city": "GREAT NECK", "state": "NY", "zip": "11023-4025", "ntee": "D200", "ruling": "199102", "deductibility": "1", "assets": 78174, "income": 77206, "revenue": 77206}, {"ein": "113376108", "name": "SOUTH SHORE HUMANE SOCIETY OF LONG BEACH INC", "city": "LONG BEACH", "state": "NY", "zip": "11561-3725", "ntee": "D20", "ruling": "199910", "deductibility": "1", "assets": 0, "income": 0, "revenue": 0}, {"ein": "131624041", "name": "HUMANE SOCIETY OF NEW YORK", "city": "NEW YORK", "state": "NY", "zip": "10022-2006", "ntee": "D200", "ruling": "195004", "deductibility": "1", "assets": 43711644, "income": 12314672, "revenue": 6611797}, {"ein": "131734942", "name": "CENTRAL WESTCHESTER HUMANE SOCIETY INC", "city": "MIDDLETOWN", "state": "NY", "zip": "10940-7294", "ntee": "D20", "ruling": "201312", "deductibility": "1", "assets": 0, "income": 0, "revenue": 0}, {"ein": "131740009", "name": "HUMANE SOCIETY OF WESTCHESTER INC", "city": "NEW ROCHELLE", "state": "NY", "zip": "10801-2111", "ntee": "D200", "ruling": "194105", "deductibility": "1", "assets": 9770769, "income": 2299834, "revenue": 2255014}, {"ein": "131740025", "name": "HUDSON VALLEY HUMANE SPCA", "city": "POMONA", "state": "NY", "zip": "10970-2928", "ntee": "D200", "ruling": "195804", "deductibility": "1", "assets": 2741348, "income": 628354, "revenue": 422623}, {"ein": "131740072", "name": "WESTCHESTER SHORE HUMANE SOCIETY INC", "city": "HARRISON", "state": "NY", "zip": "10528-4519", "ntee": "D200", "ruling": "194102", "deductibility": "1", "assets": 0, "income": 0, "revenue": 0}, {"ein": "133035954", "name": "HUMANE EDUCATION COMMITTEE", "city": "NEW YORK", "state": "NY", "zip": "10128-0000", "ntee": "B99Z", "ruling": "198204", "deductibility": "1", "assets": 0, "income": 0, "revenue": 0}, {"ein": "141338459", "name": "MOHAWK AND HUDSON RIVER HUMANE SOCIETY", "city": "MENANDS", "state": "NY", "zip": "12204-2718", "ntee": "D200", "ruling": "194203", "deductibility": "1", "assets": 12715098, "income": 5365437, "revenue": 5062986}, {"ein": "141435650", "name": "PUTNAM COUNTY HUMANE SOCIETY INC", "city": "CARMEL", "state": "NY", "zip": "10512-0297", "ntee": "D200", "ruling": "195812", "deductibility": "1", "assets": 2925051, "income": 771640, "revenue": 762301}, {"ein": "141459064", "name": "HUMANE SOCIETY OF PORT JERVIS -DEERPARK INC", "city": "PORT JERVIS", "state": "NY", "zip": "12771-5102", "ntee": "D200", "ruling": "196604", "deductibility": "1", "assets": 1012392, "income": 456540, "revenue": 456540}, {"ein": "141470716", "name": "HUMANE SOCIETY OF MIDDLETOWN INC", "city": "MIDDLETOWN", "state": "NY", "zip": "10940-1401", "ntee": "D200", "ruling": "197401", "deductibility": "1", "assets": 1273375, "income": 751477, "revenue": 730894}, {"ein": "141487056", "name": "COLUMBIA GREENE HUMANE SOCIETY INC", "city": "HUDSON", "state": "NY", "zip": "12534-3400", "ntee": "D200", "ruling": "197012", "deductibility": "1", "assets": 3961947, "income": 2210068, "revenue": 2207617}, {"ein": "141506519", "name": "WARWICK VALLEY HUMANE SOCIETY INC", "city": "WARWICK", "state": "NY", "zip": "10990-0000", "ntee": "D200", "ruling": "196805", "deductibility": "1", "assets": 758383, "income": 544204, "revenue": 544204}, {"ein": "141547365", "name": "JAMES A BRENNAN MEMORIAL HUMANE SOCIETY INC", "city": "GLOVERSVILLE", "state": "NY", "zip": "12078-6806", "ntee": "D200", "ruling": "197304", "deductibility": "1", "assets": 466050, "income": 177654, "revenue": 177654}, {"ein": "146027735", "name": "HUMANE SOCIETY OF WALDEN INC", "city": "WALDEN", "state": "NY", "zip": "12586-2247", "ntee": "D20", "ruling": "202501", "deductibility": "1", "assets": 710066, "income": 660891, "revenue": 660891}, {"ein": "146306788", "name": "BETTY JANE FRANSEEN TR UW FBO HUMANE ASSN OF SCHUYLER COUNTY", "city": "ELMIRA", "state": "NY", "zip": "14902-1522", "ntee": "T11", "ruling": "200709", "deductibility": "1", "assets": 428418, "income": 178379, "revenue": 39071}, {"ein": "150551485", "name": "ANITAS STEVENS-SWAN HUMANE SOCIETY", "city": "UTICA", "state": "NY", "zip": "13502-1402", "ntee": "D200", "ruling": "197901", "deductibility": "1", "assets": 1978080, "income": 2062257, "revenue": 2039139}, {"ein": "150622327", "name": "BROOME COUNTY HUMANE SOCIETY AND RELIEF ASSOCIATION", "city": "BINGHAMTON", "state": "NY", "zip": "13903-2491", "ntee": "D200", "ruling": "197212", "deductibility": "1", "assets": 5370594, "income": 1952300, "revenue": 1599298}, {"ein": "160743047", "name": "HUMANE SOCIETY OF ROCHESTER AND MONROE COUNTY PCA INC", "city": "FAIRPORT", "state": "NY", "zip": "14450-9582", "ntee": "D200", "ruling": "195805", "deductibility": "1", "assets": 50449092, "income": 22650562, "revenue": 15107883}, {"ein": "160743999", "name": "CHEMUNG COUNTY HUMANE SOCIETY FOR PREVENTION OF CRUELTY TO ANIMALS", "city": "ELMIRA", "state": "NY", "zip": "14903-7933", "ntee": "D200", "ruling": "195509", "deductibility": "1", "assets": 2476931, "income": 1343905, "revenue": 1321111}, {"ein": "160819895", "name": "HORNELL AREA HUMANE SOCIETY", "city": "HORNELL", "state": "NY", "zip": "14843-0000", "ntee": "D200", "ruling": "196412", "deductibility": "1", "assets": 779422, "income": 639531, "revenue": 639531}, {"ein": "160875792", "name": "HUMANE SOCIETY OF ROME INC", "city": "ROME", "state": "NY", "zip": "13442-4572", "ntee": "D200", "ruling": "197107", "deductibility": "1", "assets": 2832736, "income": 729941, "revenue": 710928}, {"ein": "160907863", "name": "DELAWARE VALLEY HUMANE SOCIETY INC", "city": "SIDNEY", "state": "NY", "zip": "13838-0182", "ntee": "D200", "ruling": "197511", "deductibility": "1", "assets": 500825, "income": 258487, "revenue": 247228}, {"ein": "160950996", "name": "STRAY HAVEN HUMANE SOCIETY INC", "city": "WAVERLY", "state": "NY", "zip": "14892-9584", "ntee": "D200", "ruling": "196806", "deductibility": "1", "assets": 987857, "income": 1038727, "revenue": 853266}, {"ein": "161081033", "name": "MASSENA HUMANE SOCIETY INC", "city": "MASSENA", "state": "NY", "zip": "13662-0000", "ntee": "D200", "ruling": "199612", "deductibility": "1", "assets": 105423, "income": 151595, "revenue": 151595}, {"ein": "161092845", "name": "POTSDAM HUMANE SOCIETY INC", "city": "POTSDAM", "state": "NY", "zip": "13676-1001", "ntee": "D200", "ruling": "198805", "deductibility": "1", "assets": 1726045, "income": 611875, "revenue": 597602}, {"ein": "161145993", "name": "HERKIMER COUNTY HUMANE SOCIETY", "city": "MOHAWK", "state": "NY", "zip": "13407-0073", "ntee": "D200", "ruling": "197303", "deductibility": "1", "assets": 934717, "income": 592403, "revenue": 591155}, {"ein": "161191312", "name": "WANDERERS REST HUMANE ASSOCIATION INC", "city": "CANASTOTA", "state": "NY", "zip": "13032-0535", "ntee": "D200", "ruling": "198308", "deductibility": "1", "assets": 751916, "income": 780171, "revenue": 758916}, {"ein": "161315207", "name": "HUMANE SOCIETY OF SCHUYLER COUNTY", "city": "MONTOUR FALLS", "state": "NY", "zip": "14865-9676", "ntee": "D20Z", "ruling": "199607", "deductibility": "1", "assets": 1842481, "income": 619078, "revenue": 504422}, {"ein": "161344384", "name": "HUMANE SOCIETY OF LIVINGSTON COUNTY INC", "city": "AVON", "state": "NY", "zip": "14414-0233", "ntee": "", "ruling": "199012", "deductibility": "1", "assets": 52643, "income": 117801, "revenue": 115633}, {"ein": "161361934", "name": "ONTARIO COUNTY HUMANE SOCIETY INC", "city": "CANANDAIGUA", "state": "NY", "zip": "14424-9553", "ntee": "D200", "ruling": "199106", "deductibility": "1", "assets": 4036000, "income": 2243034, "revenue": 1061731}, {"ein": "161472123", "name": "CORNING AREA HUMANE SOCIETY", "city": "CORNING", "state": "NY", "zip": "14830-0453", "ntee": "D20Z", "ruling": "199704", "deductibility": "1", "assets": 0, "income": 0, "revenue": 0}, {"ein": "161511904", "name": "LEWIS COUNTY HUMANE SOCIETY", "city": "LOWVILLE", "state": "NY", "zip": "13367-0682", "ntee": "D200", "ruling": "199803", "deductibility": "1", "assets": 848397, "income": 424876, "revenue": 422353}, {"ein": "161553028", "name": "NOAHS KINGDOM HUMANE SOCIETY", "city": "LATHAM", "state": "NY", "zip": "12110-5000", "ntee": "D20", "ruling": "200002", "deductibility": "1", "assets": 0, "income": 0, "revenue": 0}, {"ein": "161586001", "name": "OSWEGO COUNTY HUMANE SOCIETY INC", "city": "OSWEGO", "state": "NY", "zip": "13126-1269", "ntee": "D200", "ruling": "200007", "deductibility": "1", "assets": 294201, "income": 418629, "revenue": 199032}, {"ein": "161594935", "name": "HUMANE ENFORCEMENT AND ANIMAL RESCUE TEAM", "city": "KIRKWOOD", "state": "NY", "zip": "13795-1730", "ntee": "D20", "ruling": "200201", "deductibility": "1", "assets": 0, "income": 0, "revenue": 0}, {"ein": "161636734", "name": "LEAGUE OF HUMANE VOTERS USA INC", "city": "NEW PALTZ", "state": "NY", "zip": "12561-2115", "ntee": "R03", "ruling": "201702", "deductibility": "2", "assets": 0, "income": 0, "revenue": 0}, {"ein": "166000221", "name": "CHAUTAUQUA COUNTY HUMANE SOCIETY", "city": "FLUVANNA", "state": "NY", "zip": "14701-9785", "ntee": "D200", "ruling": "195704", "deductibility": "1", "assets": 4833185, "income": 1375149, "revenue": 1355402}, {"ein": "166069942", "name": "HUMANE ASSOC OF CENTRAL NY INC", "city": "LIVERPOOL", "state": "NY", "zip": "13088-4811", "ntee": "D200", "ruling": "196707", "deductibility": "1", "assets": 2551854, "income": 879519, "revenue": 879519}, {"ein": "166443263", "name": "CAROLINE H GOODRICH TRUST UW THE CATSKILLS HUMANE SOCIETY", "city": "DELHI", "state": "NY", "zip": "13753-1213", "ntee": "Z99", "ruling": "202207", "deductibility": "1", "assets": 289124, "income": 64222, "revenue": 0}, {"ein": "208071520", "name": "GS HUMANE CORP", "city": "NEW YORK", "state": "NY", "zip": "10007-0000", "ntee": "T30", "ruling": "200703", "deductibility": "1", "assets": 49535316, "income": 16166139, "revenue": 0}, {"ein": "222238112", "name": "NEW YORK STATE HUMANE ASSOCIATION", "city": "KINGSTON", "state": "NY", "zip": "12402-3068", "ntee": "D200", "ruling": "198208", "deductibility": "1", "assets": 540065, "income": 187829, "revenue": 113941}, {"ein": "222541964", "name": "WAYNE COUNTY HUMANE SOCIETY", "city": "LYONS", "state": "NY", "zip": "14489-9102", "ntee": "D200", "ruling": "198707", "deductibility": "1", "assets": 3311606, "income": 874311, "revenue": 869674}, {"ein": "222977788", "name": "CAPITAL DISTRICT HUMANE ASSOC INC", "city": "LOUDONVILLE", "state": "NY", "zip": "12211-0330", "ntee": "D200", "ruling": "199112", "deductibility": "1", "assets": 208365, "income": 41227, "revenue": 41227}, {"ein": "223495082", "name": "HUMANE SOCIETY OF YATES COUNTY", "city": "PENN YAN", "state": "NY", "zip": "14527-9182", "ntee": "D200", "ruling": "199705", "deductibility": "1", "assets": 1551638, "income": 341462, "revenue": 339168}, {"ein": "237023530", "name": "HUMANE SOCIETY OF CENTRAL DELAWARE COUNTY INC", "city": "DELHI", "state": "NY", "zip": "13753-0088", "ntee": "D200", "ruling": "196905", "deductibility": "1", "assets": 7525936, "income": 1126664, "revenue": 968794}, {"ein": "237167100", "name": "DUNKIRK HUMANE SOCIETY INC", "city": "DUNKIRK", "state": "NY", "zip": "14048-1377", "ntee": "", "ruling": "197203", "deductibility": "1", "assets": 1023186, "income": 263957, "revenue": 249024}, {"ein": "237394117", "name": "TRI-LAKES HUMANE SOCIETY", "city": "SARANAC LAKE", "state": "NY", "zip": "12983-0111", "ntee": "D200", "ruling": "197509", "deductibility": "1", "assets": 997515, "income": 530763, "revenue": 530763}, {"ein": "237439791", "name": "HUMANE SOCIETY OF MONROE INC", "city": "MONROE", "state": "NY", "zip": "10949-0675", "ntee": "D200", "ruling": "197504", "deductibility": "1", "assets": 948267, "income": 40019, "revenue": 0}, {"ein": "237442599", "name": "CHRISTIAN REALIST CHURCH AND HUMANE FOUNDATION INC", "city": "STONY CREEK", "state": "NY", "zip": "12878-0000", "ntee": "", "ruling": "197504", "deductibility": "1", "assets": 0, "income": 0, "revenue": 0}, {"ein": "256400710", "name": "R BILLIN TR UW 14005 FBO CENTRAL PA HUMANE SOCIETY 011393", "city": "BUFFALO", "state": "NY", "zip": "14240-1504", "ntee": "T20", "ruling": "200506", "deductibility": "1", "assets": 131094, "income": 36326, "revenue": 0}, {"ein": "260542468", "name": "AKC HUMANE FUND INC", "city": "NEW YORK", "state": "NY", "zip": "10178-0300", "ntee": "D990", "ruling": "200801", "deductibility": "1", "assets": 1246190, "income": 604018, "revenue": 403071}, {"ein": "371715086", "name": "FRANKLIN COUNTY HUMANE SOCIETY INC", "city": "MALONE", "state": "NY", "zip": "12953-0226", "ntee": "D20", "ruling": "201409", "deductibility": "1", "assets": 0, "income": 0, "revenue": 0}, {"ein": "412055310", "name": "HUMANE EDUCATION ADVOCATES REACHING TEACHERS INC", "city": "MAMARONECK", "state": "NY", "zip": "10543-0738", "ntee": "C60", "ruling": "200210", "deductibility": "1", "assets": 776577, "income": 634316, "revenue": 634316}, {"ein": "456917922", "name": "GWENDOLEN APPLEYARD TR FUND FOR NEW ROCHELLE HUMANE SOCIETY", "city": "NEW YORK", "state": "NY", "zip": "10019-0000", "ntee": "T20", "ruling": "201301", "deductibility": "1", "assets": 1904437, "income": 243862, "revenue": 0}, {"ein": "456917974", "name": "GWENDOLEN APPLEYARD TR FUND FOR THE NEW ROCHELLE HUMANE SOCIETY", "city": "NEW YORK", "state": "NY", "zip": "10019-0000", "ntee": "T20", "ruling": "201208", "deductibility": "1", "assets": 1258884, "income": 147734, "revenue": 0}, {"ein": "526386636", "name": "KATHRYN DEVED TRUST U-W FBO ARIZONA HUMANE SOCIETY", "city": "BUFFALO", "state": "NY", "zip": "14240-1504", "ntee": "D112", "ruling": "199706", "deductibility": "1", "assets": 1000161, "income": 155380, "revenue": 0}, {"ein": "526386637", "name": "KATHRYN DEVED TRUST U-W FBO U S HUMANE SOCIETY", "city": "BUFFALO", "state": "NY", "zip": "14240-1504", "ntee": "D112", "ruling": "199706", "deductibility": "1", "assets": 1163546, "income": 270927, "revenue": 0}, {"ein": "770716198", "name": "HUMANE BEINGS INC", "city": "NEW YORK", "state": "NY", "zip": "10005-4301", "ntee": "D12", "ruling": "200809", "deductibility": "1", "assets": 0, "income": 0, "revenue": 0}, {"ein": "822451770", "name": "HUMANE NATION", "city": "POUND RIDGE", "state": "NY", "zip": "10576-0233", "ntee": "D99", "ruling": "201712", "deductibility": "1", "assets": 0, "income": 0, "revenue": 0}, {"ein": "822664401", "name": "POTSDAM COMMUNITY DOG PARK AT THE POTSDAM HUMANE SOCIETY INC", "city": "POTSDAM", "state": "NY", "zip": "13676-4245", "ntee": "D60", "ruling": "201709", "deductibility": "1", "assets": 0, "income": 0, "revenue": 0}, {"ein": "881407996", "name": "UKRAINE HUMANE SOCIETY INC", "city": "NEW YORK", "state": "NY", "zip": "10024-5732", "ntee": "D99", "ruling": "202209", "deductibility": "1", "assets": 0, "income": 0, "revenue": 0}, {"ein": "933889544", "name": "HUMANE ORGANIZATION FOR SUBSTANCE AWARENESS INC", "city": "NEW YORK", "state": "NY", "zip": "10028-0047", "ntee": "F21", "ruling": "202312", "deductibility": "1", "assets": 0, "income": 0, "revenue": 0}, {"ein": "934745711", "name": "PHOENIX HUMANE SOCIETY OF GREATER CATTARAUGUS INC", "city": "CATTARAUGUS", "state": "NY", "zip": "14719-1132", "ntee": "D20", "ruling": "202402", "deductibility": "1", "assets": 0, "income": 0, "revenue": 0}], "BONO": [{"ein": "061264823", "name": "PRO BONO PARTNERSHIP INC", "city": "WHITE PLAINS", "state": "NY", "zip": "10605-1318", "ntee": "", "ruling": "198905", "deductibility": "1", "assets": 3313785, "income": 2921707, "revenue": 2625778}, {"ein": "061521179", "name": "PRO BONO NET INC", "city": "NEW YORK", "state": "NY", "zip": "10005-2967", "ntee": "I83", "ruling": "200402", "deductibility": "1", "assets": 3273886, "income": 6341032, "revenue": 6141032}, {"ein": "113008388", "name": "SUFFOLK COUNTY BAR PRO BONO FOUNDATION", "city": "HAUPPAUGE", "state": "NY", "zip": "11788-4354", "ntee": "I83Z", "ruling": "199106", "deductibility": "1", "assets": 194575, "income": 69779, "revenue": 13581}, {"ein": "383888182", "name": "PRO BONO DESIGN INC", "city": "STATEN ISLAND", "state": "NY", "zip": "10312-3509", "ntee": "S20", "ruling": "201408", "deductibility": "1", "assets": 71830, "income": 123629, "revenue": 123629}, {"ein": "800292782", "name": "ASSOCIATION OF PRO BONO COUNSEL", "city": "NEW YORK", "state": "NY", "zip": "10018-3612", "ntee": "S40", "ruling": "201002", "deductibility": "2", "assets": 247058, "income": 234757, "revenue": 234757}, {"ein": "991196074", "name": "PROZ PRO BONO INC", "city": "SYRACUSE", "state": "NY", "zip": "13206-1103", "ntee": "", "ruling": "202401", "deductibility": "1", "assets": 1, "income": 1, "revenue": 0}], "JUMP": [{"ein": "061553358", "name": "JUMP ARTS INC", "city": "BROOKLYN", "state": "NY", "zip": "11205-2513", "ntee": "A60", "ruling": "200204", "deductibility": "1", "assets": 0, "income": 0, "revenue": 0}, {"ein": "133716046", "name": "JUMP UP INC", "city": "NEW YORK", "state": "NY", "zip": "10024-1607", "ntee": "A65Z", "ruling": "199403", "deductibility": "1", "assets": 0, "income": 0, "revenue": 0}, {"ein": "465743056", "name": "JUMP-IN ENRICHMENT LLC", "city": "BROOKLYN", "state": "NY", "zip": "11215-1783", "ntee": "O50", "ruling": "201511", "deductibility": "1", "assets": 0, "income": 84699, "revenue": 84699}, {"ein": "467492377", "name": "THE JUMP AND BALL FOUNDATION", "city": "NEW YORK", "state": "NY", "zip": "10106-0000", "ntee": "Z99", "ruling": "201408", "deductibility": "1", "assets": 53917, "income": 3535, "revenue": 0}], "LUTHERN": [{"ein": "111681131", "name": "ASCENSION LUTHERN CHURCH FRANKLIN", "city": "FRANKLIN SQ", "state": "NY", "zip": "11010-1434", "ntee": "", "ruling": "000000", "deductibility": "1", "assets": 0, "income": 0, "revenue": 0}, {"ein": "111700961", "name": "MILL NECK MANOR LUTHERN SCHOOL FOR THE DEAF", "city": "MILL NECK", "state": "NY", "zip": "11765-1102", "ntee": "", "ruling": "194107", "deductibility": "1", "assets": 21299332, "income": 10706093, "revenue": 10706093}, {"ein": "112909423", "name": "AMERICAN ASSOCIATION OF LUTHERN CHURCHES", "city": "MINEOLA", "state": "NY", "zip": "11501-3029", "ntee": "", "ruling": "198907", "deductibility": "1", "assets": 0, "income": 0, "revenue": 0}, {"ein": "116101967", "name": "LUTHERN CHURCH OF OUR SAVIOUR", "city": "VALLEY STREAM", "state": "NY", "zip": "11581-2102", "ntee": "", "ruling": "194107", "deductibility": "1", "assets": 0, "income": 0, "revenue": 0}, {"ein": "131813820", "name": "MT ZION LUTHERN CHURCH", "city": "NEW YORK", "state": "NY", "zip": "10031-5203", "ntee": "", "ruling": "194107", "deductibility": "1", "assets": 0, "income": 0, "revenue": 0}, {"ein": "160958411", "name": "TRINTY LUTHERN CHURCH", "city": "SILVER CREEK", "state": "NY", "zip": "14136-1130", "ntee": "", "ruling": "194107", "deductibility": "1", "assets": 0, "income": 0, "revenue": 0}], "RECONSTRUCTION": [{"ein": "111960513", "name": "JEWISH RECONSTRUCTION SOCIETY OF THE NORTH SHORE INC", "city": "PLANDOME", "state": "NY", "zip": "11030-1334", "ntee": "", "ruling": "197703", "deductibility": "1", "assets": 0, "income": 0, "revenue": 0}, {"ein": "133897947", "name": "NEW YORK STATEWIDE TRAFFIC ACCIDENT RECONSTRUCTION SOCIETY", "city": "MOHEGAN LAKE", "state": "NY", "zip": "10547-0177", "ntee": "", "ruling": "202102", "deductibility": "1", "assets": 0, "income": 0, "revenue": 0}, {"ein": "134093158", "name": "THE FOUNDATION FOR NEUROMUSCULAR RECONSTRUCTION INC", "city": "NEW YORK", "state": "NY", "zip": "10016-0000", "ntee": "G50", "ruling": "200111", "deductibility": "1", "assets": 1966, "income": 1, "revenue": 0}, {"ein": "136013760", "name": "NATIONAL FOUNDATION FOR FACIAL RECONSTRUCTION", "city": "NEW YORK", "state": "NY", "zip": "10016-6416", "ntee": "", "ruling": "195308", "deductibility": "1", "assets": 31707605, "income": 10256879, "revenue": 9870400}, {"ein": "136175722", "name": "INTERNATIONAL INSTITUTE OF RURAL RECONSTRUCTION", "city": "NEW YORK", "state": "NY", "zip": "10005-4301", "ntee": "Q300", "ruling": "196605", "deductibility": "1", "assets": 15090019, "income": 11421611, "revenue": 11421611}, {"ein": "137371486", "name": "RURAL RECONSTRUCTION ENDOWMENT TRUST", "city": "NEW YORK", "state": "NY", "zip": "10019-4703", "ntee": "S112", "ruling": "200307", "deductibility": "1", "assets": 98779, "income": 15508, "revenue": 15508}, {"ein": "743240977", "name": "RECONSTRUCTION OF A VILLAGE", "city": "LAURELTON", "state": "NY", "zip": "11413-1832", "ntee": "S20", "ruling": "200807", "deductibility": "1", "assets": 0, "income": 0, "revenue": 0}, {"ein": "810714759", "name": "RED HOOK NEW YORK RISING COMMUNITY RECONSTRUCTION PLANNING COMMITEE", "city": "BROOKLYN", "state": "NY", "zip": "11231-5810", "ntee": "X20", "ruling": "201809", "deductibility": "1", "assets": 0, "income": 0, "revenue": 0}, {"ein": "812165125", "name": "COMMITTEE FOR THE RECONSTRUCTION OF STS PETER AND PAUL CHURCH OF TERR", "city": "ELMONT", "state": "NY", "zip": "11003-1412", "ntee": "X21", "ruling": "201801", "deductibility": "1", "assets": 11234, "income": 9400, "revenue": 9400}, {"ein": "842232750", "name": "INTERNATIONAL SPINE RECONSTRUCTION AND EDUCATION FOUNDATION INC", "city": "GARDEN CITY", "state": "NY", "zip": "11530-0000", "ntee": "E99", "ruling": "202108", "deductibility": "1", "assets": 102393, "income": 5999, "revenue": 5999}, {"ein": "844414442", "name": "BREAST RECONSTRUCTION ORG INC", "city": "GREAT NECK", "state": "NY", "zip": "11021-5324", "ntee": "T30", "ruling": "202008", "deductibility": "1", "assets": 25147, "income": 79316, "revenue": 79316}, {"ein": "852900752", "name": "BLACK RECONSTRUCTION COLLECTIVE INC", "city": "BROOKLYN", "state": "NY", "zip": "11238-3988", "ntee": "A23", "ruling": "202011", "deductibility": "1", "assets": 404463, "income": 0, "revenue": 0}], "KENMAH": [{"ein": "112013698", "name": "KENMAH REALTY CORP", "city": "DEER PARK", "state": "NY", "zip": "11729-0000", "ntee": "", "ruling": "000000", "deductibility": "0", "assets": 1689725, "income": 295412, "revenue": 295412}], "YACHEL": [{"ein": "112189330", "name": "MERKAZ HATORAH YACHEL YISROEL-SERT WIZNITZ INC", "city": "BROOKLYN", "state": "NY", "zip": "11219-2637", "ntee": "", "ruling": "198609", "deductibility": "1", "assets": 0, "income": 0, "revenue": 0}], "TESTIMONY": [{"ein": "112334506", "name": "CHRISTIAN TESTIMONY", "city": "ELMHURST", "state": "NY", "zip": "11373-3454", "ntee": "", "ruling": "197608", "deductibility": "1", "assets": 0, "income": 0, "revenue": 0}, {"ein": "113222331", "name": "CHRISTIAN TESTIMONY INC AT LONG ISLAND", "city": "BAYSIDE", "state": "NY", "zip": "11364-3532", "ntee": "X20Z", "ruling": "199502", "deductibility": "1", "assets": 0, "income": 0, "revenue": 0}, {"ein": "141953934", "name": "TABERNACLE OF TESTIMONY INC CURTIS BRADLEY", "city": "CAMBRIA HTS", "state": "NY", "zip": "11411-1828", "ntee": "X20", "ruling": "200709", "deductibility": "1", "assets": 0, "income": 0, "revenue": 0}, {"ein": "510192457", "name": "CHRISTIAN TESTIMONY MISSION INC", "city": "WHITESTONE", "state": "NY", "zip": "11357-2934", "ntee": "", "ruling": "197606", "deductibility": "1", "assets": 0, "income": 0, "revenue": 0}], "HISTADRUTH": [{"ein": "112438611", "name": "HISTADRUTH ADMORIM INC", "city": "BROOKLYN", "state": "NY", "zip": "11204-1113", "ntee": "", "ruling": "198308", "deductibility": "1", "assets": 0, "income": 0, "revenue": 0}, {"ein": "131635278", "name": "HISTADRUTH HORABONIM DEAMERICA RABBINICAL COUNCIL OF AMERICA INC", "city": "NEW YORK", "state": "NY", "zip": "10001-6008", "ntee": "X99", "ruling": "201510", "deductibility": "1", "assets": 959292, "income": 763753, "revenue": 763753}], "BELZE": [{"ein": "112443501", "name": "BNOS JERUSALEM DCHASIDEI BELZE INC", "city": "BROOKLYN", "state": "NY", "zip": "11218-3805", "ntee": "X30", "ruling": "201408", "deductibility": "1", "assets": 0, "income": 0, "revenue": 0}], "SHETILE": [{"ein": "112449995", "name": "AMERICAN FRIENDS OF AGUDAT SHETILE ZETIM INC C O JOSEPH HAMAOUYUI", "city": "BROOKLYN", "state": "NY", "zip": "11223-0000", "ntee": "Q99Z", "ruling": "197804", "deductibility": "1", "assets": 8585, "income": 174995, "revenue": 174995}], "LISHMENT": [{"ein": "112450792", "name": "IDEAS INSTITUTE FOR DESIGN & ESTAB LISHMENT OF ALTERNATIVE SYST INC", "city": "NEW YORK", "state": "NY", "zip": "10022-6704", "ntee": "", "ruling": "197805", "deductibility": "1", "assets": 104386, "income": 214164, "revenue": 94726}], "MIDWIVES": [{"ein": "112502137", "name": "NYC MIDWIVES", "city": "BROOKLYN", "state": "NY", "zip": "11206-4603", "ntee": "", "ruling": "199702", "deductibility": "2", "assets": 0, "income": 0, "revenue": 0}, {"ein": "141823198", "name": "AMERICAN COLLEGE OF NURSE-MIDWIVES", "city": "HILTON", "state": "NY", "zip": "14468-9338", "ntee": "S41", "ruling": "196007", "deductibility": "2", "assets": 106953, "income": 40227, "revenue": 40227}, {"ein": "465158314", "name": "FOUNDATION FOR ADVANCEMENT OF HAITIAN MIDWIVES INC", "city": "NEW YORK", "state": "NY", "zip": "10025-6910", "ntee": "G02", "ruling": "201412", "deductibility": "1", "assets": 42779, "income": 113035, "revenue": 113035}, {"ein": "522273326", "name": "MIDWIVES FOR MIDWIVES AND WOMENS HEALTH INTL INC", "city": "HUDSON", "state": "NY", "zip": "12534-4040", "ntee": "E40", "ruling": "200106", "deductibility": "1", "assets": 1503, "income": 10, "revenue": 10}], "AERODROME": [{"ein": "112550146", "name": "BAYPORT AERODROME SOCIETY INC", "city": "BAYPORT", "state": "NY", "zip": "11705-0728", "ntee": "", "ruling": "198210", "deductibility": "1", "assets": 85900, "income": 99942, "revenue": 91565}, {"ein": "222831174", "name": "RHINEBECK AERODROME MUSEUM", "city": "RHINEBECK", "state": "NY", "zip": "12572-0229", "ntee": "A540", "ruling": "199209", "deductibility": "1", "assets": 6699895, "income": 2099827, "revenue": 2024967}], "AMSHINOVER": [{"ein": "112575133", "name": "AMERICAN FRIENDS AMSHINOVER YESHIVA JERUSALEM INC", "city": "BROOKLYN", "state": "NY", "zip": "11204-0000", "ntee": "Q122", "ruling": "198109", "deductibility": "1", "assets": 2001349, "income": 1918916, "revenue": 1044503}], "MASKEEL": [{"ein": "112655780", "name": "MASKEEL EL DAZ SOCIETY INC", "city": "BROOKLYN", "state": "NY", "zip": "11223-2038", "ntee": "S80", "ruling": "198311", "deductibility": "1", "assets": 4018988, "income": 1200127, "revenue": 1130683}], "DEKALEV": [{"ein": "112691078", "name": "CONGREGATION BAIS JOSEPH VESURE DEKALEV", "city": "BROOKLYN", "state": "NY", "zip": "11211-7671", "ntee": "", "ruling": "198406", "deductibility": "1", "assets": 0, "income": 0, "revenue": 0}], "SANITATION": [{"ein": "112726617", "name": "COLUMBIA ASSOCIATION OF THE DEPARTMENT OF SANITATION INC", "city": "NEW YORK", "state": "NY", "zip": "10013-0216", "ntee": "C20", "ruling": "202310", "deductibility": "2", "assets": 38983, "income": 216305, "revenue": 88811}, {"ein": "132854090", "name": "LOCAL 444 SANITATION OFFICERS RETIREES WELFARE FUND", "city": "OZONE PARK", "state": "NY", "zip": "11417-2520", "ntee": "", "ruling": "197603", "deductibility": "2", "assets": 10253793, "income": 9262379, "revenue": 2227232}, {"ein": "133604504", "name": "UNIFORMED SANITATION CHIEFS ASSOCIA TION", "city": "NEW YORK", "state": "NY", "zip": "10013-0868", "ntee": "J40", "ruling": "200603", "deductibility": "2", "assets": 350258, "income": 124247, "revenue": 124247}, {"ein": "133754439", "name": "EMERALD SOCIETY DEPARTMENT OF SANITATION OF CITY OF NEW YORK INC", "city": "NEW YORK", "state": "NY", "zip": "10013-0873", "ntee": "A23", "ruling": "202404", "deductibility": "1", "assets": 55169, "income": 95311, "revenue": 95311}, {"ein": "133915385", "name": "THE MORNINGSIDE HEIGHTSWEST HARLEM SANITATION COALITION INC", "city": "NEW YORK", "state": "NY", "zip": "10027-4703", "ntee": "C20", "ruling": "200412", "deductibility": "1", "assets": 0, "income": 0, "revenue": 0}, {"ein": "135603868", "name": "PRIVATE SANITATION UNION-813 INSURANCE TRUST FUND", "city": "LONG ISLAND CITY", "state": "NY", "zip": "11101-3107", "ntee": "", "ruling": "195305", "deductibility": "2", "assets": 59657048, "income": 29806782, "revenue": 28621932}, {"ein": "136181431", "name": "SANITATION OFFICERS SECURITY BENEFITS FUND", "city": "OZONE PARK", "state": "NY", "zip": "11417-2520", "ntee": "", "ruling": "196507", "deductibility": "2", "assets": 10845482, "income": 3017242, "revenue": 1775254}, {"ein": "136647899", "name": "SANITATION EMPLOYEES COMMUNITY FUND", "city": "NEW YORK", "state": "NY", "zip": "10013-4006", "ntee": "", "ruling": "199308", "deductibility": "2", "assets": 41486, "income": 0, "revenue": 0}, {"ein": "262063801", "name": "NYC DEPARTMENT OF SANITATION RETIREES INC", "city": "STATEN ISLAND", "state": "NY", "zip": "10312-0139", "ntee": "N50", "ruling": "200809", "deductibility": "2", "assets": 5361, "income": 7610, "revenue": 7610}, {"ein": "461487718", "name": "SANITATION LOCAL 831 IBT DISASTER RELIEF FUND", "city": "NEW YORK", "state": "NY", "zip": "10038-2820", "ntee": "M20", "ruling": "201302", "deductibility": "1", "assets": 0, "income": 0, "revenue": 0}, {"ein": "824154662", "name": "SANITATION OFFICERS SCHOLARSHIP FUND INC", "city": "OZONE PARK", "state": "NY", "zip": "11417-2520", "ntee": "B82", "ruling": "201905", "deductibility": "1", "assets": 242206, "income": 150605, "revenue": 30543}], "LORE": [{"ein": "112740189", "name": "CITY LORE INC", "city": "NEW YORK", "state": "NY", "zip": "10003-9345", "ntee": "A200", "ruling": "198704", "deductibility": "1", "assets": 3405216, "income": 2773006, "revenue": 2769137}, {"ein": "992123853", "name": "LORE CARES INC", "city": "PEARL RIVER", "state": "NY", "zip": "10965-2946", "ntee": "S02", "ruling": "202404", "deductibility": "1", "assets": 0, "income": 0, "revenue": 0}], "AISHEL": [{"ein": "112743445", "name": "BOTAY AISHEL AVRAHAM", "city": "BROOKLYN", "state": "NY", "zip": "11211-7206", "ntee": "", "ruling": "198508", "deductibility": "1", "assets": 0, "income": 0, "revenue": 0}, {"ein": "237411619", "name": "AISHEL AVRAHAM RESIDENTIAL HEALTH FACILITY INC", "city": "BROOKLYN", "state": "NY", "zip": "11219-4313", "ntee": "E91Z", "ruling": "197411", "deductibility": "1", "assets": 4880313, "income": 1790972, "revenue": 1790972}, {"ein": "262279933", "name": "AISHEL HATZEDEK", "city": "BROOKLYN", "state": "NY", "zip": "11204-2143", "ntee": "Q123", "ruling": "200912", "deductibility": "1", "assets": 31976, "income": 35001, "revenue": 0}, {"ein": "262638331", "name": "AISHEL RASHBI", "city": "BROOKLYN", "state": "NY", "zip": "11218-4414", "ntee": "T20", "ruling": "200811", "deductibility": "1", "assets": 1781849, "income": 777588, "revenue": 777588}, {"ein": "306043783", "name": "AISHEL SHABBAT", "city": "BROOKLYN", "state": "NY", "zip": "11230-5812", "ntee": "X30", "ruling": "200301", "deductibility": "1", "assets": 0, "income": 0, "revenue": 0}, {"ein": "331004276", "name": "CONGREGATION MACHANE BOYAN AISHEL AVROHOM", "city": "LOCK SHELDRAKE", "state": "NY", "zip": "12759-0000", "ntee": "X30", "ruling": "200206", "deductibility": "1", "assets": 0, "income": 0, "revenue": 0}, {"ein": "874706332", "name": "CONGREGATION AISHEL AVROHOM", "city": "MIDDLETOWN", "state": "NY", "zip": "10941-3107", "ntee": "X30", "ruling": "202302", "deductibility": "1", "assets": 0, "income": 0, "revenue": 0}], "ORETZ": [{"ein": "112748180", "name": "CONGREGATION AFSEI ORETZ BREZNA", "city": "BROOKLYN", "state": "NY", "zip": "11219-0000", "ntee": "", "ruling": "198510", "deductibility": "1", "assets": 0, "income": 0, "revenue": 0}], "MISHPAT": [{"ein": "112936013", "name": "KOLEL MISHPAT TZEDEK", "city": "WOODMERE", "state": "NY", "zip": "11598-1227", "ntee": "", "ruling": "198901", "deductibility": "1", "assets": 0, "income": 0, "revenue": 0}, {"ein": "113114345", "name": "FRIENDS OF CHOSHEN MISHPAT INC", "city": "BROOKLYN", "state": "NY", "zip": "11219-0000", "ntee": "X21", "ruling": "199303", "deductibility": "1", "assets": 5502, "income": 86605, "revenue": 45023}, {"ein": "261995974", "name": "MACHON LCHOSON MISHPAT INC", "city": "BROOKLYN", "state": "NY", "zip": "11210-4744", "ntee": "X30", "ruling": "201005", "deductibility": "1", "assets": 84415, "income": 785303, "revenue": 785303}, {"ein": "332910866", "name": "CONGREGATION MECHON LCHOSHEN MISHPAT INC", "city": "BROOKLYN", "state": "NY", "zip": "11230-6801", "ntee": "X30", "ruling": "202507", "deductibility": "1", "assets": 0, "income": 0, "revenue": 0}, {"ein": "833264132", "name": "AMERICAN FRIENDS OF ASOT MISHPAT VEAHAVAT HESED", "city": "BROOKLYN", "state": "NY", "zip": "11209-7624", "ntee": "I12", "ruling": "201904", "deductibility": "1", "assets": 0, "income": 0, "revenue": 0}, {"ein": "852486153", "name": "CONGREGATION MISHPAT VHOYRAH", "city": "MONSEY", "state": "NY", "zip": "10952-1801", "ntee": "X30", "ruling": "202104", "deductibility": "1", "assets": 0, "income": 0, "revenue": 0}, {"ein": "884085984", "name": "KOLLEL TORAS MISHPAT", "city": "CHESTNUT RDG", "state": "NY", "zip": "10977-6423", "ntee": "X30", "ruling": "202301", "deductibility": "1", "assets": 0, "income": 0, "revenue": 0}], "CHERNOBEL": [{"ein": "112955846", "name": "MOSDOS CHERNOBEL INC", "city": "BROOKLYN", "state": "NY", "zip": "11219-1604", "ntee": "", "ruling": "198905", "deductibility": "1", "assets": 0, "income": 0, "revenue": 0}], "LIBERTADOR": [{"ein": "112991351", "name": "IGLESIA CRISTIANA CRISTO EL LIBERTADOR INC", "city": "RICHMOND HILL", "state": "NY", "zip": "11418-2321", "ntee": "", "ruling": "199002", "deductibility": "1", "assets": 0, "income": 0, "revenue": 0}, {"ein": "113171198", "name": "IGLESIA PENTECOSTAL JESUCRISTO EL LIBERTADOR INC", "city": "BROOKLYN", "state": "NY", "zip": "11206-4511", "ntee": "X21", "ruling": "200205", "deductibility": "1", "assets": 0, "income": 0, "revenue": 0}, {"ein": "873632396", "name": "IGLESIA PENTECOSTAL CRISTO EL LIBERTADOR INC", "city": "CENTRAL ISLIP", "state": "NY", "zip": "11722-4010", "ntee": "X21", "ruling": "202505", "deductibility": "1", "assets": 64805, "income": 52974, "revenue": 52974}], "MALKE": [{"ein": "113246448", "name": "BNOS MALKE BELZ", "city": "BROOKLYN", "state": "NY", "zip": "11218-3808", "ntee": "X30Z", "ruling": "199502", "deductibility": "1", "assets": 0, "income": 0, "revenue": 0}], "NATIONWIDE": [{"ein": "113293868", "name": "SCHOOL NEWS NATIONWIDE INC", "city": "BROOKLYN", "state": "NY", "zip": "11226-7826", "ntee": "A33", "ruling": "199605", "deductibility": "1", "assets": 2331, "income": 46617, "revenue": 46617}], "JB": [{"ein": "113316616", "name": "JB CHARITABLE FOUNDATION LTD", "city": "BROOKLYN", "state": "NY", "zip": "11218-0000", "ntee": "T60Z", "ruling": "199707", "deductibility": "1", "assets": 49136, "income": 50000, "revenue": 0}, {"ein": "166523007", "name": "JB REINSTEIN TR UW ITEM XVIII FBO NYS-REINSTEIN WOODS", "city": "BUFFALO", "state": "NY", "zip": "14203-2725", "ntee": "", "ruling": "000000", "deductibility": "0", "assets": 509098, "income": 136910, "revenue": 0}], "YERACHMIL": [{"ein": "113346676", "name": "ZICHRON YERACHMIL CHAIM", "city": "BROOKLYN", "state": "NY", "zip": "11219-1629", "ntee": "X30", "ruling": "199904", "deductibility": "1", "assets": 0, "income": 0, "revenue": 0}], "JODI": [{"ein": "113357219", "name": "ROBERT AND JODI ROSENTHAL FAMILY FOUNDATION", "city": "JERICHO", "state": "NY", "zip": "11753-0000", "ntee": "T22Z", "ruling": "199706", "deductibility": "1", "assets": 377916, "income": 679038, "revenue": 0}], "PROGRAMING": [{"ein": "113392105", "name": "E D P SCHOOL OF COMPUTER PROGRAMING", "city": "BROOKLYN", "state": "NY", "zip": "11235-3900", "ntee": "B30", "ruling": "200502", "deductibility": "1", "assets": 1195769, "income": 1298660, "revenue": 1298660}], "GOPAAL": [{"ein": "113456731", "name": "SUNDAR GOPAAL MANDIR INC", "city": "OZONE PARK", "state": "NY", "zip": "11416-2503", "ntee": "X70", "ruling": "199905", "deductibility": "1", "assets": 0, "income": 0, "revenue": 0}], "GUBITOSI": [{"ein": "113579374", "name": "MARIE GUBITOSI FOUNDATION INC", "city": "FARMINGDALE", "state": "NY", "zip": "11735-1972", "ntee": "T30", "ruling": "200106", "deductibility": "1", "assets": 10986, "income": 0, "revenue": 0}], "RANDI": [{"ein": "113635985", "name": "RANDI AND CLIFFORD LANE FOUNDATION", "city": "HOLBROOK", "state": "NY", "zip": "11741-5417", "ntee": "T21", "ruling": "200201", "deductibility": "1", "assets": 22780463, "income": 11779878, "revenue": 0}, {"ein": "206070287", "name": "RANDI & BRUCE PERGAMENT FOUNDATION", "city": "WOODBURY", "state": "NY", "zip": "11797-2930", "ntee": "T22", "ruling": "200501", "deductibility": "1", "assets": 11918, "income": 2, "revenue": 0}, {"ein": "237179844", "name": "RANDI PRESS FOUNDATION", "city": "BROOKLYN", "state": "NY", "zip": "11234-4518", "ntee": "", "ruling": "197302", "deductibility": "1", "assets": 83006, "income": 20404, "revenue": 0}, {"ein": "311741532", "name": "RANDI ROSS CARES INC", "city": "BROOKLYN", "state": "NY", "zip": "11238-6505", "ntee": "P20", "ruling": "200103", "deductibility": "1", "assets": 0, "income": 0, "revenue": 0}], "WINTERS": [{"ein": "116294804", "name": "LOUIS WINTERS TRUST", "city": "ROCKVILLE CENTRE", "state": "NY", "zip": "11570-4977", "ntee": "", "ruling": "000000", "deductibility": "0", "assets": 173871, "income": 6705, "revenue": 6705}, {"ein": "137388516", "name": "THE WINTERS FAMILY FUND", "city": "NEW YORK", "state": "NY", "zip": "10128-1191", "ntee": "T22", "ruling": "200412", "deductibility": "1", "assets": 6493200, "income": 3522839, "revenue": 0}, {"ein": "166222234", "name": "CHAUNCEY H WINTERS TRUST UW CENTRAL NATL BK CANAJOHARIE", "city": "NORWICH", "state": "NY", "zip": "13815-0000", "ntee": "", "ruling": "197812", "deductibility": "1", "assets": 8199332, "income": 1858616, "revenue": 0}, {"ein": "843731815", "name": "WINTERS CENTER FOR AUTISM INC", "city": "WEST BABYLON", "state": "NY", "zip": "11704-1304", "ntee": "G84", "ruling": "202006", "deductibility": "1", "assets": 6540166, "income": 4805914, "revenue": 4340547}, {"ein": "920242982", "name": "MITCH WINTERS FIRST RESPONDERS FOUNDATION", "city": "NEW YORK", "state": "NY", "zip": "10024-0000", "ntee": "W12", "ruling": "202209", "deductibility": "1", "assets": 0, "income": 0, "revenue": 0}], "JYS": [{"ein": "116436659", "name": "JYS CHARITABLE FOUNDATION TRUST", "city": "BROOKLYN", "state": "NY", "zip": "11230-1017", "ntee": "T22Z", "ruling": "199502", "deductibility": "1", "assets": 871531, "income": 88015, "revenue": 0}], "USWU": [{"ein": "131912506", "name": "USWU LOCAL 74 SUPPLEMENTAL BENEFITS FUND", "city": "ASTORIA", "state": "NY", "zip": "11106-2329", "ntee": "", "ruling": "196210", "deductibility": "2", "assets": 105996991, "income": 40482767, "revenue": 38457128}, {"ein": "208628882", "name": "1217 JOINT COUNCIL USWU IUJAT", "city": "LONG IS CITY", "state": "NY", "zip": "11106-2329", "ntee": "J40", "ruling": "201008", "deductibility": "2", "assets": 7046, "income": 93859, "revenue": 93859}, {"ein": "262718175", "name": "JOINT COUNCIL 1217 USWU IUJAT", "city": "LONG IS CITY", "state": "NY", "zip": "11106-2329", "ntee": "J40", "ruling": "201008", "deductibility": "2", "assets": 300629, "income": 2355135, "revenue": 2355135}, {"ein": "475629351", "name": "USWU LOCAL 74 LABOR-MANAGEMENT CORP", "city": "LONG IS CITY", "state": "NY", "zip": "11106-2329", "ntee": "J40", "ruling": "201910", "deductibility": "2", "assets": 0, "income": 0, "revenue": 0}], "PRODUCTS": [{"ein": "132587587", "name": "EDUCATIONAL PRODUCTS INFORMATION", "city": "SOUTHAMPTON", "state": "NY", "zip": "11968-2720", "ntee": "B99Z", "ruling": "196709", "deductibility": "1", "assets": 152700, "income": 65585, "revenue": 65585}, {"ein": "134088453", "name": "INTERNATIONAL BIODEGRADABLE PRODUCTS INSTITUTE INC", "city": "NEW YORK", "state": "NY", "zip": "10019-8511", "ntee": "S41", "ruling": "200111", "deductibility": "2", "assets": 3011120, "income": 3850149, "revenue": 3160434}, {"ein": "141629946", "name": "EMPIRE STATE FOREST PRODUCTS ASSOC INC", "city": "RENSSELAER", "state": "NY", "zip": "12144-8465", "ntee": "C36Z", "ruling": "196610", "deductibility": "4", "assets": 127322, "income": 354366, "revenue": 354366}, {"ein": "352414025", "name": "MOTOR VEHICLE PROTECTION PRODUCTS ASSOCITION INC", "city": "ALBANY", "state": "NY", "zip": "12203-5390", "ntee": "S41", "ruling": "201203", "deductibility": "2", "assets": 271257, "income": 574125, "revenue": 574125}], "GREENACRE": [{"ein": "132621502", "name": "GREENACRE FOUNDATION", "city": "NEW YORK", "state": "NY", "zip": "10111-0100", "ntee": "", "ruling": "196811", "deductibility": "1", "assets": 38375249, "income": 20679970, "revenue": 0}], "EARL": [{"ein": "132695683", "name": "EARL WARREN LEGAL TRAINING PROGRAM INC", "city": "NEW YORK", "state": "NY", "zip": "10006-1738", "ntee": "", "ruling": "199408", "deductibility": "1", "assets": 831097, "income": 487403, "revenue": 154060}, {"ein": "166038545", "name": "HARRISON EARL & FRANCES SMITH SCHOLARSHIP FUND NECT", "city": "ELMIRA", "state": "NY", "zip": "14902-0152", "ntee": "", "ruling": "197012", "deductibility": "0", "assets": 66388, "income": 6176, "revenue": 0}, {"ein": "166054165", "name": "ERMA P & EARL E SCHOPFER SCHOL FUND ERIVA P & EARL E SCHOPFER SCH FUND", "city": "SYRACUSE", "state": "NY", "zip": "13206-3468", "ntee": "", "ruling": "196411", "deductibility": "1", "assets": 0, "income": 0, "revenue": 0}, {"ein": "223038088", "name": "EARL W AND HILDAGUNDA A BRINKMAN PRIVATE CHARITABLE FND 010490", "city": "SCOTTSVILLE", "state": "NY", "zip": "14546-9601", "ntee": "", "ruling": "199010", "deductibility": "1", "assets": 49000, "income": 8416143, "revenue": 0}, {"ein": "226689555", "name": "EARL C HULL CHARITABLE TR", "city": "NEW YORK", "state": "NY", "zip": "10001-2189", "ntee": "", "ruling": "199612", "deductibility": "1", "assets": 1644356, "income": 648284, "revenue": 0}, {"ein": "236923962", "name": "EARL W SPAHR TW CHARITABLE", "city": "BUFFALO", "state": "NY", "zip": "14240-1504", "ntee": "T30", "ruling": "201406", "deductibility": "1", "assets": 981249, "income": 309253, "revenue": 0}, {"ein": "527238834", "name": "EARL A AND ORPHA S ROGERS CHARITABLE TRUST", "city": "BUFFALO", "state": "NY", "zip": "14240-1504", "ntee": "T20", "ruling": "200207", "deductibility": "1", "assets": 271684, "income": 65408, "revenue": 0}, {"ein": "833394623", "name": "EARL MONROE NEW RENAISSANCE BASKETBALL CHARTER SCHOOL", "city": "BRONX", "state": "NY", "zip": "10461-5220", "ntee": "B25", "ruling": "202002", "deductibility": "1", "assets": 2293712, "income": 10116505, "revenue": 10116505}, {"ein": "861828033", "name": "FRIENDS OF EARL MONROE NEW RENAISSANCE BASKETBALL CHARTER SCH", "city": "NEW YORK", "state": "NY", "zip": "10075-0248", "ntee": "P20", "ruling": "202109", "deductibility": "1", "assets": 11758323, "income": 16820538, "revenue": 1976619}, {"ein": "993402151", "name": "WILLIAM EARL HARRISON SR SCHOLARSHIP FUND", "city": "TROY", "state": "NY", "zip": "12182-0010", "ntee": "B82", "ruling": "202412", "deductibility": "1", "assets": 0, "income": 0, "revenue": 0}], "LING": [{"ein": "132918252", "name": "LING LIANG WORLD-WIDE EVANGELISTIC MISSION INC", "city": "NEW YORK", "state": "NY", "zip": "10002-0000", "ntee": "", "ruling": "197802", "deductibility": "1", "assets": 0, "income": 0, "revenue": 0}, {"ein": "133624435", "name": "HEAVENLY NEW YORK LING YIN TEMPLE INC", "city": "FLUSHING", "state": "NY", "zip": "11386-3478", "ntee": "X50Z", "ruling": "199202", "deductibility": "1", "assets": 0, "income": 0, "revenue": 0}, {"ein": "133784086", "name": "LING JIOU MOUNTAIN BUDDHIST SOCIETY", "city": "NEW YORK", "state": "NY", "zip": "10022-1438", "ntee": "X50Z", "ruling": "199506", "deductibility": "1", "assets": 0, "income": 0, "revenue": 0}, {"ein": "134183015", "name": "LING YAN SHAN BUDDHIST TEMPLE OF NEW YORK INC", "city": "ELMHURST", "state": "NY", "zip": "11373-4354", "ntee": "X50", "ruling": "200112", "deductibility": "1", "assets": 776969, "income": 85853, "revenue": 85853}, {"ein": "161580239", "name": "PALYUL LING INTERNATIONAL", "city": "MCCDONOUGH", "state": "NY", "zip": "13801-0000", "ntee": "X50", "ruling": "200306", "deductibility": "1", "assets": 0, "income": 0, "revenue": 0}, {"ein": "161605656", "name": "TSECHEN KUNCHAB LING", "city": "WALDEN", "state": "NY", "zip": "12586-1539", "ntee": "X50", "ruling": "200207", "deductibility": "1", "assets": 0, "income": 0, "revenue": 0}, {"ein": "200502845", "name": "KUNZANG PALCHEN LING", "city": "RED HOOK", "state": "NY", "zip": "12571-3665", "ntee": "X50", "ruling": "200601", "deductibility": "1", "assets": 0, "income": 0, "revenue": 0}, {"ein": "352823667", "name": "FU LING INC", "city": "FLUSHING", "state": "NY", "zip": "11354-4652", "ntee": "Y50", "ruling": "202505", "deductibility": "1", "assets": 0, "income": 0, "revenue": 0}, {"ein": "364563076", "name": "NYINGMAPA PALYUL LING NEW YORK INC", "city": "EAST ELMHURST", "state": "NY", "zip": "11369-1223", "ntee": "X50", "ruling": "200705", "deductibility": "1", "assets": 0, "income": 0, "revenue": 0}, {"ein": "364596589", "name": "KARMA WOSEL DOJOE LING", "city": "WOODSIDE", "state": "NY", "zip": "11377-4330", "ntee": "X50", "ruling": "200703", "deductibility": "1", "assets": 0, "income": 0, "revenue": 0}, {"ein": "800198191", "name": "FRIENDS OF DONGYU GATSAL LING INC", "city": "WOODBURY", "state": "NY", "zip": "11797-0000", "ntee": "X50", "ruling": "200909", "deductibility": "1", "assets": 3066278, "income": 1133826, "revenue": 830586}, {"ein": "833025870", "name": "JETSUN KUNPHEN LING CENTER INC", "city": "ELMHURST", "state": "NY", "zip": "11373-1011", "ntee": "E70", "ruling": "201902", "deductibility": "1", "assets": 0, "income": 0, "revenue": 0}, {"ein": "833505097", "name": "DAGOM GADEN TENSUNG LING BUDDHIST CULTURE CENTER INC", "city": "ASTORIA", "state": "NY", "zip": "11103-1233", "ntee": "X50", "ruling": "201908", "deductibility": "1", "assets": 510339, "income": 56677, "revenue": 32718}, {"ein": "841690164", "name": "TONG XIAO LING CHINESE OPERA ENSEMBLE", "city": "NEW YORK", "state": "NY", "zip": "10025-6712", "ntee": "A60", "ruling": "200609", "deductibility": "1", "assets": 105997, "income": 136815, "revenue": 136815}, {"ein": "853806278", "name": "PEACE LING CENTER INC", "city": "FLUSHING", "state": "NY", "zip": "11355-2340", "ntee": "X50", "ruling": "202104", "deductibility": "1", "assets": 0, "income": 0, "revenue": 0}, {"ein": "933291797", "name": "BON CHONG LING INC", "city": "WOODSIDE", "state": "NY", "zip": "11377-3435", "ntee": "S19", "ruling": "202402", "deductibility": "1", "assets": 1, "income": 1, "revenue": 0}, {"ein": "990424430", "name": "LANG QI MEI LING WORSHIP CORP", "city": "BROOKLYN", "state": "NY", "zip": "11220-3916", "ntee": "X99", "ruling": "202408", "deductibility": "1", "assets": 0, "income": 0, "revenue": 0}, {"ein": "990452911", "name": "AMERICAN LING SHAN ASSOCIATION INC", "city": "NEW YORK", "state": "NY", "zip": "10038-1257", "ntee": "X50", "ruling": "202406", "deductibility": "1", "assets": 0, "income": 0, "revenue": 0}, {"ein": "991779194", "name": "KHANDRO LING INC", "city": "NEW YORK", "state": "NY", "zip": "10001-2170", "ntee": "X50", "ruling": "202411", "deductibility": "1", "assets": 0, "income": 0, "revenue": 0}, {"ein": "991834117", "name": "NEW YORK LING NAN QU YI SHE INC", "city": "NEW YORK", "state": "NY", "zip": "10013-5119", "ntee": "A6A", "ruling": "202406", "deductibility": "1", "assets": 0, "income": 0, "revenue": 0}], "MINDBUILDERS": [{"ein": "132988157", "name": "MINDBUILDERS CREATIVE ARTS INC", "city": "BRONX", "state": "NY", "zip": "10467-5612", "ntee": "A250", "ruling": "197907", "deductibility": "1", "assets": 14062908, "income": 3452385, "revenue": 3451824}], "MAD": [{"ein": "133056043", "name": "MAD ALEX ARTS FOUNDATION INC", "city": "NEW YORK", "state": "NY", "zip": "10002-0000", "ntee": "", "ruling": "198205", "deductibility": "1", "assets": 0, "income": 0, "revenue": 0}, {"ein": "208014253", "name": "MAD ROSE FOUNDATION INC", "city": "PINE PLAINS", "state": "NY", "zip": "12567-4810", "ntee": "T22", "ruling": "200702", "deductibility": "1", "assets": 628401, "income": 343993, "revenue": 0}, {"ein": "222264842", "name": "MAD RIVER CLUB INC", "city": "PULASKI", "state": "NY", "zip": "13142-0171", "ntee": "N50", "ruling": "201010", "deductibility": "2", "assets": 376485, "income": 191393, "revenue": 160611}, {"ein": "474561918", "name": "MAD FOUNDATION INC", "city": "NEW YORK", "state": "NY", "zip": "10003-1502", "ntee": "B90", "ruling": "201610", "deductibility": "1", "assets": 1411914, "income": 1093555, "revenue": 1093555}, {"ein": "823131855", "name": "MAD DOGS LACROSSE", "city": "RONKONKOMA", "state": "NY", "zip": "11779-1915", "ntee": "N60", "ruling": "201804", "deductibility": "1", "assets": 0, "income": 0, "revenue": 0}, {"ein": "824359524", "name": "MAD RESCUE OF WNY", "city": "ALBION", "state": "NY", "zip": "14411-9160", "ntee": "D20", "ruling": "201803", "deductibility": "1", "assets": 2105, "income": 103653, "revenue": 103653}, {"ein": "862420489", "name": "ROC THE MAD CATTER INC", "city": "WEBSTER", "state": "NY", "zip": "14580-9731", "ntee": "D20", "ruling": "202107", "deductibility": "1", "assets": 0, "income": 0, "revenue": 0}, {"ein": "884084259", "name": "MAD COMPANY THEATRE INC", "city": "BROOKLYN", "state": "NY", "zip": "11211-6714", "ntee": "A20", "ruling": "202212", "deductibility": "1", "assets": 11392, "income": 54192, "revenue": 50405}, {"ein": "992603928", "name": "MAD INSTITUTE INC", "city": "ASTORIA", "state": "NY", "zip": "11106-1504", "ntee": "A25", "ruling": "202405", "deductibility": "1", "assets": 0, "income": 0, "revenue": 0}, {"ein": "995033139", "name": "MAD DADS OF WESTERN NEW YORK", "city": "BUFFALO", "state": "NY", "zip": "14208-1101", "ntee": "P30", "ruling": "202412", "deductibility": "1", "assets": 0, "income": 0, "revenue": 0}], "JUNCTION": [{"ein": "133206424", "name": "JUNIOR JUNCTION INC", "city": "UTICA", "state": "NY", "zip": "13501-5930", "ntee": "P33Z", "ruling": "199409", "deductibility": "1", "assets": 207736, "income": 793512, "revenue": 693540}, {"ein": "160986652", "name": "RAINBOW JUNCTION LTD", "city": "PENN YAN", "state": "NY", "zip": "14527-1113", "ntee": "P33Z", "ruling": "197203", "deductibility": "1", "assets": 215865, "income": 1155796, "revenue": 1143290}, {"ein": "222130938", "name": "VALLEY CHRISTIAN CHURCH OF HOPEWELL JUNCTION", "city": "HOPEWELL JUNCTION", "state": "NY", "zip": "12533-0000", "ntee": "", "ruling": "197702", "deductibility": "1", "assets": 0, "income": 0, "revenue": 0}, {"ein": "364695775", "name": "JUNCTION BLVD MERCHANTS CIVIC ASSOCIATION INC", "city": "CORONA", "state": "NY", "zip": "11368-5362", "ntee": "S41", "ruling": "201308", "deductibility": "2", "assets": 5376, "income": 5167, "revenue": 5167}, {"ein": "364966759", "name": "GAP JUNCTION MINISTRIES INC", "city": "NEW YORK", "state": "NY", "zip": "10003-3306", "ntee": "X20", "ruling": "202203", "deductibility": "1", "assets": 0, "income": 0, "revenue": 0}, {"ein": "870793638", "name": "FLATBUSH NOSTRAND JUNCTION DISTRICT MANAGEMENT ASSOCIATION INC", "city": "BROOKLYN", "state": "NY", "zip": "11226-6612", "ntee": "S31", "ruling": "200812", "deductibility": "1", "assets": 190875, "income": 461501, "revenue": 461501}], "MEYER": [{"ein": "133317912", "name": "THE MEYER FOUNDATION", "city": "NEW YORK", "state": "NY", "zip": "10020-2346", "ntee": "", "ruling": "198602", "deductibility": "1", "assets": 56167395, "income": 21188507, "revenue": 0}, {"ein": "133388393", "name": "THE MEYER G AND ELLEN GOODSTEIN KOPLOW FOUNDATION", "city": "NEW YORK", "state": "NY", "zip": "10019-0000", "ntee": "", "ruling": "198703", "deductibility": "1", "assets": 565203, "income": 86575, "revenue": 0}, {"ein": "133921828", "name": "ROSLYN MILSTEIN MEYER AND JEROME MEYER FOUNDATION", "city": "NEW YORK", "state": "NY", "zip": "10017-4631", "ntee": "I99Z", "ruling": "199704", "deductibility": "1", "assets": 35832, "income": 300068, "revenue": 0}, {"ein": "136199973", "name": "MEYER & JEAN STEINBERG FAMILY FOUNDATION INC", "city": "NEW YORK", "state": "NY", "zip": "10017-7765", "ntee": "", "ruling": "196606", "deductibility": "1", "assets": 1277791, "income": 25015, "revenue": 0}, {"ein": "136204325", "name": "EDWARD & SANDRA MEYER FOUNDATION INC", "city": "NEW YORK", "state": "NY", "zip": "10022-3360", "ntee": "", "ruling": "196608", "deductibility": "1", "assets": 63521835, "income": 8784770, "revenue": 0}, {"ein": "203975568", "name": "MEYER STEINBERG FOUNDATION FOR LUNGCANCER RESEARCH INC", "city": "NEW YORK", "state": "NY", "zip": "10017-7765", "ntee": "T22", "ruling": "200603", "deductibility": "1", "assets": 357, "income": 1, "revenue": 0}, {"ein": "203982790", "name": "ANTHONY E MEYER FAMILY FOUNDATIONINC", "city": "NEW YORK", "state": "NY", "zip": "10022-3360", "ntee": "T22", "ruling": "200612", "deductibility": "1", "assets": 1161535, "income": 534827, "revenue": 0}, {"ein": "203983138", "name": "MARGARET A MEYER FAMILY FOUNDATIONINC", "city": "NEW YORK", "state": "NY", "zip": "10022-0000", "ntee": "T20", "ruling": "200612", "deductibility": "1", "assets": 1975457, "income": 550212, "revenue": 0}, {"ein": "262982246", "name": "MARGARET AND LEO MEYER AND HANS M HIRSCH FOUNDATION", "city": "TUCKAHOE", "state": "NY", "zip": "10707-4164", "ntee": "X123", "ruling": "201104", "deductibility": "1", "assets": 4435531, "income": 550445, "revenue": 0}, {"ein": "300187505", "name": "CLAIRE AND MEYER W FRANK AND LEANN FRANK CHARITABLE FOUNDATION INC", "city": "NEW YORK", "state": "NY", "zip": "10022-0000", "ntee": "T20", "ruling": "200402", "deductibility": "1", "assets": 297047, "income": 44603, "revenue": 0}, {"ein": "472158485", "name": "MEYER & SUSAN EDERY FOUNDATION", "city": "BROOKLYN", "state": "NY", "zip": "11223-2822", "ntee": "T20", "ruling": "201509", "deductibility": "1", "assets": 122, "income": 101905, "revenue": 0}, {"ein": "746516326", "name": "CO TW FRANK C MEYER TRUST 2 16-230330", "city": "NORWICH", "state": "NY", "zip": "13815-0000", "ntee": "T20", "ruling": "200303", "deductibility": "1", "assets": 305061, "income": 31817, "revenue": 0}, {"ein": "831478467", "name": "MEYER AND DEBBIE GOULD FOUNDATION INC", "city": "BROOKLYN", "state": "NY", "zip": "11230-2913", "ntee": "T22", "ruling": "201810", "deductibility": "1", "assets": 5449, "income": 298, "revenue": 0}], "MENEMSHA": [{"ein": "133334205", "name": "MENEMSHA FUND INC", "city": "NEW YORK", "state": "NY", "zip": "10001-0000", "ntee": "", "ruling": "198705", "deductibility": "1", "assets": 508745, "income": 60000, "revenue": 0}], "HGTS": [{"ein": "133348873", "name": "WASHINGTON HGTS BUSINESS IMPROVEMENT DIST MGMENT ASSOC INC", "city": "NEW YORK", "state": "NY", "zip": "10033-4034", "ntee": "S41Z", "ruling": "199310", "deductibility": "1", "assets": 160893, "income": 1061841, "revenue": 1061841}], "UNICA": [{"ein": "133384379", "name": "IGLESIA CRISTO LA UNICA ESPERANZA", "city": "BRONX", "state": "NY", "zip": "10453-3100", "ntee": "X20", "ruling": "200003", "deductibility": "1", "assets": 0, "income": 0, "revenue": 0}, {"ein": "820978078", "name": "IGLESIA CRISTO LA UNICA ESPERANZA NUMERO DOS INC", "city": "BREWSTER", "state": "NY", "zip": "10509-1526", "ntee": "X99", "ruling": "202401", "deductibility": "1", "assets": 0, "income": 0, "revenue": 0}], "DEBUTANTE": [{"ein": "133416572", "name": "INTERNATIONAL DEBUTANTE BALL FOUNDATION INC", "city": "SOUTHAMPTON", "state": "NY", "zip": "11968-5325", "ntee": "", "ruling": "198704", "deductibility": "1", "assets": 614903, "income": 425, "revenue": 425}, {"ein": "462236959", "name": "DEBUTANTE COTILLION AND CHRISTMAS BALL INC", "city": "NEW YORK", "state": "NY", "zip": "10163-9633", "ntee": "E11", "ruling": "201502", "deductibility": "1", "assets": 1469000, "income": 816433, "revenue": 816433}], "DAI": [{"ein": "133492118", "name": "TOY SUN DAI WAN BENEVOLENT ASSOCIATION INC", "city": "NEW YORK", "state": "NY", "zip": "10013-4489", "ntee": "", "ruling": "199106", "deductibility": "2", "assets": 67700, "income": 3199, "revenue": 3199}, {"ein": "263797924", "name": "CHANG DAI CHURCH", "city": "BROOKLYN", "state": "NY", "zip": "11209-4312", "ntee": "X20", "ruling": "201008", "deductibility": "1", "assets": 0, "income": 0, "revenue": 0}, {"ein": "271403809", "name": "INTERNATIONAL SANGHA BHIKSU BUDDHIST ASSOCIATION-TU VIEN DAI B", "city": "BUFFALO", "state": "NY", "zip": "14206-1424", "ntee": "X50", "ruling": "201009", "deductibility": "1", "assets": 0, "income": 0, "revenue": 0}], "HENDEL": [{"ein": "133532037", "name": "STEPHEN & RUTH HENDEL FOUNDATION", "city": "LARCHMONT", "state": "NY", "zip": "10538-1446", "ntee": "", "ruling": "199008", "deductibility": "1", "assets": 83353, "income": 400666, "revenue": 0}, {"ein": "814807600", "name": "MIKVAH HENDEL MIRIAM OF CONG YETEV LEV DSATMAR KJ", "city": "MONROE", "state": "NY", "zip": "10949-0057", "ntee": "X30", "ruling": "201704", "deductibility": "1", "assets": 0, "income": 0, "revenue": 0}, {"ein": "882806537", "name": "CONG OHEL HENDEL INC", "city": "BROOKLYN", "state": "NY", "zip": "11218-5584", "ntee": "T30", "ruling": "202211", "deductibility": "1", "assets": 0, "income": 0, "revenue": 0}], "BAITUS": [{"ein": "133637263", "name": "BAITUS SALAAM JAM-E MASJID INC", "city": "BRONX", "state": "NY", "zip": "10458-3703", "ntee": "", "ruling": "199203", "deductibility": "1", "assets": 0, "income": 0, "revenue": 0}], "SIGNATURE": [{"ein": "133641560", "name": "SIGNATURE THEATRE COMPANY", "city": "NEW YORK", "state": "NY", "zip": "10036-6805", "ntee": "A650", "ruling": "199401", "deductibility": "1", "assets": 50351215, "income": 8114400, "revenue": 7945084}, {"ein": "853868514", "name": "SIGNATURE BLOCK PARTY", "city": "BRONX", "state": "NY", "zip": "10457-2751", "ntee": "A26", "ruling": "202305", "deductibility": "1", "assets": 0, "income": 0, "revenue": 0}], "KAGRO": [{"ein": "133668099", "name": "KAGRO NEW YORK ASSOCIATION INC", "city": "BAYSIDE", "state": "NY", "zip": "11361-2963", "ntee": "S41Z", "ruling": "199308", "deductibility": "2", "assets": 68145, "income": 67241, "revenue": 67241}, {"ein": "934521692", "name": "KAGRO INTERNATIONAL SCHOLARSHIP FOUNDATION INC", "city": "BAYSIDE", "state": "NY", "zip": "11361-2963", "ntee": "B82", "ruling": "202312", "deductibility": "1", "assets": 0, "income": 0, "revenue": 0}], "CRAMER": [{"ein": "133749869", "name": "GERALD B CRAMER FAMILY FOUNDATION INC", "city": "WOODBURY", "state": "NY", "zip": "11797-0000", "ntee": "", "ruling": "000000", "deductibility": "1", "assets": 43216839, "income": 30930757, "revenue": 0}, {"ein": "311705313", "name": "DOUGLAS CRAMER PRIVATE FOUNDATION", "city": "WOODBURY", "state": "NY", "zip": "11797-0000", "ntee": "T22", "ruling": "200005", "deductibility": "1", "assets": 406296, "income": 41811, "revenue": 0}, {"ein": "311705315", "name": "LAUREN CRAMER FEXY PRIVATE FOUNDATION", "city": "WOODBURY", "state": "NY", "zip": "11797-0000", "ntee": "T22", "ruling": "200005", "deductibility": "1", "assets": 150535, "income": 146184, "revenue": 0}, {"ein": "311705318", "name": "KIMBERLY CRAMER GERM PRIVATE FOUNDATION", "city": "WOODBURY", "state": "NY", "zip": "11797-0000", "ntee": "T22", "ruling": "200005", "deductibility": "1", "assets": 491326, "income": 632042, "revenue": 0}, {"ein": "311705322", "name": "THOMAS CRAMER PRIVATE FOUNDATION", "city": "WOODBURY", "state": "NY", "zip": "11797-0000", "ntee": "T22", "ruling": "200005", "deductibility": "1", "assets": 136685, "income": 244570, "revenue": 0}], "JEWR": [{"ein": "133771069", "name": "AMERICAN FRIENDS OF SHAVEI GOLAH JERUSALEM COLLEGE FOR RUSSIAN JEWR", "city": "BROOKLYN", "state": "NY", "zip": "11236-5329", "ntee": "B82", "ruling": "201409", "deductibility": "1", "assets": 0, "income": 0, "revenue": 0}], "WILLIS": [{"ein": "133784825", "name": "THE CHURCH OF GOD OF WILLIS AVE INC", "city": "BRONX", "state": "NY", "zip": "10472-6002", "ntee": "X20Z", "ruling": "199808", "deductibility": "1", "assets": 0, "income": 0, "revenue": 0}, {"ein": "133949376", "name": "RICHARD WILLIS MEMORIAL FUND INC", "city": "STATEN ISLAND", "state": "NY", "zip": "10306-2435", "ntee": "N60", "ruling": "199708", "deductibility": "1", "assets": 0, "income": 0, "revenue": 0}, {"ein": "311813545", "name": "BEVERLY WILLIS ARCHITECTURE FOUNDATION INC", "city": "NEW YORK", "state": "NY", "zip": "10001-2604", "ntee": "T22", "ruling": "200202", "deductibility": "1", "assets": 1615070, "income": 719392, "revenue": 484763}, {"ein": "461018717", "name": "288 WILLIS AVENUE HOUSING DEVELOPMENT FUND CORPORATION", "city": "BRONX", "state": "NY", "zip": "10455-5007", "ntee": "", "ruling": "201604", "deductibility": "0", "assets": 1, "income": 4052, "revenue": 4052}, {"ein": "611927678", "name": "KENNEDY WILLIS CENTER ON DOWN SYNDROME INC", "city": "EDMESTON", "state": "NY", "zip": "13335-2314", "ntee": "H25", "ruling": "202109", "deductibility": "1", "assets": 277617, "income": 176007, "revenue": 176007}, {"ein": "886541290", "name": "MARGARET WILLIS MORTON TEST TR", "city": "NEW YORK", "state": "NY", "zip": "10013-3321", "ntee": "A20", "ruling": "202212", "deductibility": "1", "assets": 3201815, "income": 145283, "revenue": 0}], "MOONWORK": [{"ein": "133913351", "name": "MOONWORK INC", "city": "NEW YORK", "state": "NY", "zip": "10036-2902", "ntee": "A65", "ruling": "200202", "deductibility": "1", "assets": 0, "income": 0, "revenue": 0}], "TREETOPS": [{"ein": "134093466", "name": "TREETOPS FOUNDATION", "city": "NEW YORK", "state": "NY", "zip": "10001-0000", "ntee": "T22", "ruling": "200003", "deductibility": "1", "assets": 12354854, "income": 3569294, "revenue": 0}, {"ein": "135674230", "name": "RISING TREETOPS AT OAKHURST INC", "city": "NEW YORK", "state": "NY", "zip": "10001-7504", "ntee": "", "ruling": "193804", "deductibility": "1", "assets": 6055580, "income": 3346652, "revenue": 3332486}, {"ein": "912061842", "name": "100 TREETOPS LANE INVESTMENT GROUP LLC", "city": "NEW YORK", "state": "NY", "zip": "10020-1104", "ntee": "S47", "ruling": "200112", "deductibility": "0", "assets": 57513390, "income": 4388736, "revenue": 4388736}], "MOUVEMENT": [{"ein": "134345617", "name": "MOUVEMENT SPIRITUEL POUR UNE NOUVELLE HAITI", "city": "BROOKLYN", "state": "NY", "zip": "11212-0316", "ntee": "X20", "ruling": "201508", "deductibility": "1", "assets": 0, "income": 0, "revenue": 0}, {"ein": "825063505", "name": "HAITI MOUVEMENT POUR LA PAIX", "city": "ROOSEVELT", "state": "NY", "zip": "11575-2211", "ntee": "T50", "ruling": "201805", "deductibility": "1", "assets": 0, "income": 14650, "revenue": 14650}], "RESISTERS": [{"ein": "135471808", "name": "WAR RESISTERS LEAGUE", "city": "NEW YORK", "state": "NY", "zip": "10035-1817", "ntee": "", "ruling": "193807", "deductibility": "2", "assets": 438266, "income": 466626, "revenue": 465963}, {"ein": "136266536", "name": "WAR RESISTERS LEAGUE INC", "city": "NEW YORK", "state": "NY", "zip": "10035-1817", "ntee": "", "ruling": "195401", "deductibility": "2", "assets": 2657499, "income": 390040, "revenue": 390040}], "JESSELSON": [{"ein": "136075098", "name": "JESSELSON FOUNDATION", "city": "NEW YORK", "state": "NY", "zip": "10022-8637", "ntee": "", "ruling": "195707", "deductibility": "1", "assets": 7040011, "income": 541950, "revenue": 0}], "TYPE": [{"ein": "136216903", "name": "TYPE MEDIA CENTER INC", "city": "NEW YORK", "state": "NY", "zip": "10003-2303", "ntee": "A30", "ruling": "196703", "deductibility": "1", "assets": 6270146, "income": 3480606, "revenue": 2375591}, {"ein": "320241819", "name": "APS TYPE 1 FOUNDATION", "city": "STONY BROOK", "state": "NY", "zip": "11790-0404", "ntee": "G80", "ruling": "201403", "deductibility": "1", "assets": 359039, "income": 161120, "revenue": 161120}, {"ein": "813517037", "name": "TYPE 1 ACTION FOUNDATION INC", "city": "HUNTINGTON", "state": "NY", "zip": "11743-8266", "ntee": "R23", "ruling": "201609", "deductibility": "1", "assets": 0, "income": 0, "revenue": 0}], "KELMAN": [{"ein": "136274538", "name": "DR CHARLES AND ANN KELMAN FAMILY FOUNDATION INC", "city": "UNIONDALE", "state": "NY", "zip": "11553-0000", "ntee": "H99Z", "ruling": "196808", "deductibility": "1", "assets": 660532, "income": 59620, "revenue": 0}], "KAMERMAN": [{"ein": "136935251", "name": "MARTHA KAMERMAN MEMORIAL FOUNDATION", "city": "NEW YORK", "state": "NY", "zip": "10019-6168", "ntee": "", "ruling": "199606", "deductibility": "1", "assets": 182178, "income": 108604, "revenue": 0}], "LIPSAY": [{"ein": "137134842", "name": "LIPSAY FAM CHARITABLE FOUNDATION TR", "city": "ROSLYN HTS", "state": "NY", "zip": "11577-2724", "ntee": "T20J", "ruling": "199807", "deductibility": "1", "assets": 27286, "income": 121, "revenue": 0}], "DXN": [{"ein": "137235067", "name": "DXN FOUNDATION", "city": "NEW YORK", "state": "NY", "zip": "10028-0922", "ntee": "T22", "ruling": "200205", "deductibility": "1", "assets": 573456, "income": 7321, "revenue": 0}], "NORTON": [{"ein": "137311943", "name": "HARDINGER-NORTON CHARITABLE FOUNDATION TR", "city": "NEW YORK", "state": "NY", "zip": "10013-2435", "ntee": "T22", "ruling": "200204", "deductibility": "1", "assets": 436, "income": 1, "revenue": 0}, {"ein": "207460289", "name": "NORTON FAMILY FOUNDATION", "city": "NEW YORK", "state": "NY", "zip": "10003-1526", "ntee": "T20", "ruling": "200803", "deductibility": "1", "assets": 524571, "income": 63685, "revenue": 0}, {"ein": "863841642", "name": "VAN NORTON FAMILY FOUNDATION INC", "city": "BURNT HILLS", "state": "NY", "zip": "12027-9524", "ntee": "T20", "ruling": "202201", "deductibility": "1", "assets": 181627, "income": 123382, "revenue": 0}], "GRAYER": [{"ein": "137394495", "name": "JONATHAN GRAYER CHARITABLE TR", "city": "NEW YORK", "state": "NY", "zip": "10018-3496", "ntee": "T20", "ruling": "200408", "deductibility": "1", "assets": 51901929, "income": 13576083, "revenue": 0}], "RIVKIE": [{"ein": "137568184", "name": "THE@RIVKIE AND LANCE HIRT FOUNDATION", "city": "LAWRENCE", "state": "NY", "zip": "11559-1810", "ntee": "T20", "ruling": "200711", "deductibility": "1", "assets": 988470, "income": 975796, "revenue": 0}], "NYEMA": [{"ein": "141816470", "name": "NYEMA PROJECTS INC", "city": "WAPPINGERS FL", "state": "NY", "zip": "12590-1123", "ntee": "P80", "ruling": "200004", "deductibility": "1", "assets": 0, "income": 0, "revenue": 0}], "MILLMAN": [{"ein": "141833603", "name": "THE MILLMAN-HARRIS-ROMANO", "city": "POUGHKEEPSIE", "state": "NY", "zip": "12601-4603", "ntee": "T20", "ruling": "200107", "deductibility": "1", "assets": 1110012, "income": 352086, "revenue": 0}], "ELLICOTT": [{"ein": "160907006", "name": "ELLICOTT COMMUNITY REDEVELOPMENT FOUNDATION INC", "city": "BUFFALO", "state": "NY", "zip": "14204-2042", "ntee": "P99", "ruling": "201706", "deductibility": "2", "assets": 773428, "income": 13428, "revenue": 13428}, {"ein": "166028954", "name": "ELLICOTT CREEK VOLUNTEER FIRE COMPANY INC", "city": "AMHERST", "state": "NY", "zip": "14228-2804", "ntee": "", "ruling": "195205", "deductibility": "1", "assets": 3935365, "income": 1685012, "revenue": 1656743}, {"ein": "222470139", "name": "ELLICOTT DISTRICT COMMUNITY DEVELOPMENT INC", "city": "BUFFALO", "state": "NY", "zip": "14206-1626", "ntee": "", "ruling": "198311", "deductibility": "1", "assets": 0, "income": 0, "revenue": 0}, {"ein": "463128061", "name": "FRIENDS OF ELLICOTT INC", "city": "TONAWANDA", "state": "NY", "zip": "14150-5423", "ntee": "N32", "ruling": "201412", "deductibility": "1", "assets": 0, "income": 0, "revenue": 0}], "CANASERAGA": [{"ein": "160958740", "name": "CANASERAGA LIONS CLUB AMBULANCE SERVICE INC", "city": "CANASERAGA", "state": "NY", "zip": "14822-0179", "ntee": "", "ruling": "202202", "deductibility": "1", "assets": 0, "income": 0, "revenue": 0}, {"ein": "202580943", "name": "CANASERAGA YOUTH LEAGUE INC", "city": "CANASERAGA", "state": "NY", "zip": "14822-0000", "ntee": "N60", "ruling": "201407", "deductibility": "1", "assets": 0, "income": 0, "revenue": 0}], "SANSKRITI": [{"ein": "161381394", "name": "SANSKRITI", "city": "GRAND ISLAND", "state": "NY", "zip": "14072-1487", "ntee": "B99", "ruling": "201111", "deductibility": "1", "assets": 0, "income": 0, "revenue": 0}, {"ein": "200011676", "name": "SANSKRITI BHAWAN INC", "city": "SYOSSET", "state": "NY", "zip": "11791-3503", "ntee": "A23", "ruling": "200609", "deductibility": "1", "assets": 0, "income": 0, "revenue": 0}], "GRIGG": [{"ein": "161550858", "name": "GRIGG LEWIS FOUNDATION INC", "city": "LOCKPORT", "state": "NY", "zip": "14094-3724", "ntee": "T20Z", "ruling": "199811", "deductibility": "1", "assets": 50798998, "income": 15624586, "revenue": 0}], "MG": [{"ein": "161586783", "name": "MG CAR CLUB OF CENTRAL NY INC", "city": "CICERO", "state": "NY", "zip": "13039-1666", "ntee": "N50", "ruling": "201401", "deductibility": "2", "assets": 0, "income": 0, "revenue": 0}, {"ein": "874079392", "name": "MG FAMILY FOUNDATION INC", "city": "BROOKLYN", "state": "NY", "zip": "11220-2517", "ntee": "", "ruling": "202111", "deductibility": "1", "assets": 1, "income": 10000, "revenue": 0}], "CHAMBERLAIN": [{"ein": "166021186", "name": "TR U/ART 15 O/W SARAH CHAMBERLAIN FOR AAUW", "city": "NORWICH", "state": "NY", "zip": "13815-0000", "ntee": "", "ruling": "197012", "deductibility": "0", "assets": 132053, "income": 12091, "revenue": 0}], "MCLAIN": [{"ein": "166032078", "name": "MCLAIN FOUNDATION", "city": "CLARENCE CTR", "state": "NY", "zip": "14032-0562", "ntee": "", "ruling": "196002", "deductibility": "1", "assets": 475180, "income": 78972, "revenue": 0}, {"ein": "980685900", "name": "MCLAIN FOUNDATION US", "city": "TARRYTOWN", "state": "NY", "zip": "10591-5114", "ntee": "T22", "ruling": "201103", "deductibility": "1", "assets": 24738202, "income": 10542815, "revenue": 0}], "POTOZKY": [{"ein": "166358006", "name": "ELSIE POTOZKY LOGWIN TR UW", "city": "DELHI", "state": "NY", "zip": "13753-1213", "ntee": "Z99", "ruling": "202207", "deductibility": "1", "assets": 1169735, "income": 219882, "revenue": 0}], "WWJD": [{"ein": "166472548", "name": "WWJD FOUNDATION", "city": "BINGHAMTON", "state": "NY", "zip": "13902-1330", "ntee": "T20Z", "ruling": "199805", "deductibility": "1", "assets": 222592, "income": 24216, "revenue": 0}], "MCREYNOLDS": [{"ein": "166494054", "name": "THE TOM MORGAN & ERNA J MCREYNOLDS CHARITABLE FOUNDATION", "city": "FRANKLIN", "state": "NY", "zip": "13775-4605", "ntee": "T20", "ruling": "200003", "deductibility": "1", "assets": 348189, "income": 198347, "revenue": 0}], "HAILEY": [{"ein": "200707437", "name": "HAILEY MAE FOUNDATION", "city": "ARMONK", "state": "NY", "zip": "10504-2023", "ntee": "T20", "ruling": "200706", "deductibility": "1", "assets": 0, "income": 0, "revenue": 0}], "AOTEAROA": [{"ein": "201464742", "name": "AOTEAROA FOUNDATION", "city": "NEW YORK", "state": "NY", "zip": "10036-4602", "ntee": "T20", "ruling": "200411", "deductibility": "1", "assets": 13377871, "income": 3689879, "revenue": 0}], "MUNEER": [{"ein": "202305881", "name": "AL-MUNEER FOUNDATION INC", "city": "HOLLIS", "state": "NY", "zip": "11423-2022", "ntee": "X40", "ruling": "201007", "deductibility": "1", "assets": 0, "income": 0, "revenue": 0}], "NEUROPEPTIDE": [{"ein": "204404056", "name": "SUMMER NEUROPEPTIDE CONFERENCE INC", "city": "SOUTH NYACK", "state": "NY", "zip": "10960-4610", "ntee": "H92", "ruling": "200611", "deductibility": "1", "assets": 0, "income": 0, "revenue": 0}], "VTX": [{"ein": "204654066", "name": "LONG ISLAND VTX RIDERS", "city": "HAUPPAUGE", "state": "NY", "zip": "11788-4705", "ntee": "", "ruling": "200708", "deductibility": "2", "assets": 0, "income": 0, "revenue": 0}], "HOWSER": [{"ein": "204684655", "name": "HOWSER MEADOWS INC", "city": "FREEVILLE", "state": "NY", "zip": "13068-0000", "ntee": "C30", "ruling": "200708", "deductibility": "1", "assets": 0, "income": 0, "revenue": 0}], "TENSEISHINBIKAI": [{"ein": "205149231", "name": "RELIGIOUS ORGANIZATION TENSEISHINBIKAI USA INC", "city": "BROOKLYN", "state": "NY", "zip": "11210-1125", "ntee": "X99", "ruling": "200705", "deductibility": "1", "assets": 0, "income": 0, "revenue": 0}], "ROSEMARY": [{"ein": "237181822", "name": "CATHOLIC DAUGHTERS OF AMERICA 80 CT ROSEMARY", "city": "BROOKLYN", "state": "NY", "zip": "11216-1001", "ntee": "", "ruling": "194603", "deductibility": "1", "assets": 0, "income": 0, "revenue": 0}, {"ein": "455185301", "name": "ROSEMARY FARM SANCTUARY INC", "city": "S KORTRIGHT", "state": "NY", "zip": "13842-2518", "ntee": "D20", "ruling": "201209", "deductibility": "1", "assets": 629012, "income": 698539, "revenue": 698539}, {"ein": "995037827", "name": "ROSEMARY EDUCATION FOUNDATION INC", "city": "PURCHASE", "state": "NY", "zip": "10577-1511", "ntee": "B80", "ruling": "202412", "deductibility": "1", "assets": 0, "income": 0, "revenue": 0}], "BIENFAISANCE": [{"ein": "237396695", "name": "UNION GENERALE ARMENIENNE DE BIENFAISANCE", "city": "NEW YORK", "state": "NY", "zip": "10022-1112", "ntee": "B00I", "ruling": "197408", "deductibility": "1", "assets": 0, "income": 0, "revenue": 0}], "BASIS": [{"ein": "256317149", "name": "BNA CASH BASIS VEBA TRUST", "city": "BROOKLYN", "state": "NY", "zip": "11245-0003", "ntee": "", "ruling": "000000", "deductibility": "0", "assets": 0, "income": 10714831, "revenue": 10714831}, {"ein": "815262949", "name": "BASIS IMPACT GROUP FOUNDATION INC", "city": "NEW YORK", "state": "NY", "zip": "10004-0000", "ntee": "B12", "ruling": "201802", "deductibility": "1", "assets": 22242, "income": 200310, "revenue": 0}, {"ein": "874408882", "name": "BASIS RESEARCH INSTITUTE", "city": "NEW YORK", "state": "NY", "zip": "10026-2310", "ntee": "U40", "ruling": "202212", "deductibility": "1", "assets": 2343864, "income": 513371, "revenue": 513371}], "SHARANA": [{"ein": "261190922", "name": "SHARANA GATTIE RAMAYAN & KIRTAN MANDIR INC", "city": "SPRINGFIELD GARDENS", "state": "NY", "zip": "11434-4713", "ntee": "X50", "ruling": "201004", "deductibility": "1", "assets": 0, "income": 0, "revenue": 0}], "PARKDALE": [{"ein": "261741874", "name": "PARKDALE CIVIC ASSOCIATION", "city": "NORTH BABYLON", "state": "NY", "zip": "11703-0097", "ntee": "S22", "ruling": "201704", "deductibility": "1", "assets": 0, "income": 0, "revenue": 0}], "SCHERER": [{"ein": "261749799", "name": "CPL CHRISTOPHER G SCHERER SEMPER FI FUND", "city": "E NORTHPORT", "state": "NY", "zip": "11731-1737", "ntee": "B82", "ruling": "201004", "deductibility": "1", "assets": 0, "income": 0, "revenue": 0}], "AML": [{"ein": "263016315", "name": "AML CHARITABLE FOUNDATION", "city": "BROOKLYN", "state": "NY", "zip": "11210-4537", "ntee": "T20", "ruling": "200904", "deductibility": "1", "assets": 82657, "income": 1, "revenue": 0}], "PRODIGAL": [{"ein": "263172682", "name": "PRODIGAL SPORT", "city": "AMITYVILLE", "state": "NY", "zip": "11701-1004", "ntee": "N60", "ruling": "200911", "deductibility": "1", "assets": 0, "income": 0, "revenue": 0}, {"ein": "473532039", "name": "PRODIGAL CENTER", "city": "BRONX", "state": "NY", "zip": "10469-6017", "ntee": "S20", "ruling": "201506", "deductibility": "1", "assets": 0, "income": 0, "revenue": 0}, {"ein": "510153508", "name": "PRODIGAL HOUSE MISSION CHURCH INC", "city": "SARATOGA SPGS", "state": "NY", "zip": "12866-0648", "ntee": "", "ruling": "197508", "deductibility": "1", "assets": 0, "income": 0, "revenue": 0}], "SOLIDARITE": [{"ein": "263629295", "name": "HAITI SOLIDARITE", "city": "SPRING VALLEY", "state": "NY", "zip": "10977-3972", "ntee": "Q33", "ruling": "200903", "deductibility": "1", "assets": 0, "income": 0, "revenue": 0}, {"ein": "454825749", "name": "SOLIDARITE HAITIANO-AMERICAINE DE LONG ISLAND INC", "city": "UNIONDALE", "state": "NY", "zip": "11553-1856", "ntee": "S80", "ruling": "201711", "deductibility": "1", "assets": 0, "income": 0, "revenue": 0}, {"ein": "743182358", "name": "SOLIDARITE HAITIENNE POUR L ACTION SOCIALE", "city": "W HEMPSTEAD", "state": "NY", "zip": "11552-0847", "ntee": "P20", "ruling": "201409", "deductibility": "1", "assets": 0, "income": 0, "revenue": 0}], "ACTIONPLAY": [{"ein": "270681201", "name": "ACTIONPLAY INCORPORATED", "city": "BROOKLYN", "state": "NY", "zip": "11205-2426", "ntee": "B28", "ruling": "201107", "deductibility": "1", "assets": 54934, "income": 131754, "revenue": 131754}], "ELIMULEI": [{"ein": "270841705", "name": "CONG ELIMULEI TORAH", "city": "BROOKLYN", "state": "NY", "zip": "11219-1015", "ntee": "X30", "ruling": "201605", "deductibility": "1", "assets": 0, "income": 0, "revenue": 0}], "OWENS": [{"ein": "271794499", "name": "THE CHRIS S OWENS FOUNDATION INC", "city": "DEER PARK", "state": "NY", "zip": "11729-3143", "ntee": "O50", "ruling": "201004", "deductibility": "1", "assets": 0, "income": 0, "revenue": 0}, {"ein": "332211266", "name": "MASON JAMES OWENS FOUNDATION INC", "city": "TRUMANSBURG", "state": "NY", "zip": "14886-9148", "ntee": "T12", "ruling": "202503", "deductibility": "1", "assets": 0, "income": 0, "revenue": 0}], "TOTO": [{"ein": "271886669", "name": "FRANK TOTO MEMORIAL FOUNDATION", "city": "KINGS PARK", "state": "NY", "zip": "11754-3932", "ntee": "B82", "ruling": "201010", "deductibility": "1", "assets": 0, "income": 0, "revenue": 0}], "ACROCORINTH": [{"ein": "274355812", "name": "ACROCORINTH INC", "city": "NEW YORK", "state": "NY", "zip": "10022-2524", "ntee": "T22", "ruling": "201103", "deductibility": "1", "assets": 25962040, "income": 212687, "revenue": 0}], "ROSEY": [{"ein": "311502618", "name": "LE ROSEY FOUNDATION", "city": "NEW YORK", "state": "NY", "zip": "10022-6640", "ntee": "B82Z", "ruling": "199707", "deductibility": "1", "assets": 470338, "income": 285683, "revenue": 0}], "NARROWSBURG": [{"ein": "320353959", "name": "NARROWSBURG FIRE DEPARTMENT INC", "city": "NARROWSBURG", "state": "NY", "zip": "12764-0184", "ntee": "M24", "ruling": "201411", "deductibility": "1", "assets": 603179, "income": 151408, "revenue": 142763}], "OGMIN": [{"ein": "331494031", "name": "OGMIN JANGCHHUP SISHU TSOGPA USA INC", "city": "MIDDLE VLG", "state": "NY", "zip": "11379-2420", "ntee": "X50", "ruling": "202410", "deductibility": "1", "assets": 0, "income": 0, "revenue": 0}], "ONORATO": [{"ein": "331617176", "name": "NASH WESTON ONORATO MEMORIAL FOUNDATION INC", "city": "MALTA", "state": "NY", "zip": "12020-4100", "ntee": "P12", "ruling": "202411", "deductibility": "1", "assets": 0, "income": 0, "revenue": 0}], "HIE": [{"ein": "332167526", "name": "HUDSON VALLEY HIE-ROES FOR HIE INC", "city": "SAUGERTIES", "state": "NY", "zip": "12477-3462", "ntee": "R23", "ruling": "202502", "deductibility": "1", "assets": 1, "income": 0, "revenue": 0}], "BOUCHER": [{"ein": "364410714", "name": "BOUCHER CHARITABLE FOUNDATION", "city": "HARRISON", "state": "NY", "zip": "10528-1409", "ntee": "T20", "ruling": "200108", "deductibility": "1", "assets": 2899578, "income": 77667, "revenue": 0}], "CEREMONIES": [{"ein": "371492356", "name": "AFRICAN CEREMONIES INC", "city": "NEW YORK", "state": "NY", "zip": "10036-0000", "ntee": "A23", "ruling": "200508", "deductibility": "1", "assets": 340030, "income": 241207, "revenue": 241207}], "INA": [{"ein": "454257276", "name": "LT KC ABRAHAM INA FOUNDATION INC", "city": "MIDDLE ISLAND", "state": "NY", "zip": "11953-2074", "ntee": "T31", "ruling": "201301", "deductibility": "1", "assets": 0, "income": 0, "revenue": 0}, {"ein": "993883117", "name": "HERBERT B AND INA M EHRLICH FOUNDATION INC", "city": "OYSTER BAY", "state": "NY", "zip": "11771-4910", "ntee": "P01", "ruling": "202409", "deductibility": "1", "assets": 1, "income": 1, "revenue": 0}], "SHAJALAL": [{"ein": "460827104", "name": "SHAJALAL ISLAMIC CENTER INC", "city": "BRONX", "state": "NY", "zip": "10462-7967", "ntee": "", "ruling": "202103", "deductibility": "1", "assets": 160000, "income": 80900, "revenue": 80900}], "JDD": [{"ein": "461664159", "name": "JDD COURT HOUSING DEVELOPMENT FUND CORPORATION", "city": "BRONX", "state": "NY", "zip": "10456-6830", "ntee": "L21", "ruling": "202202", "deductibility": "1", "assets": 4603276, "income": 792895, "revenue": 792895}], "ENRICHMENTFWD": [{"ein": "462913557", "name": "ENRICHMENTFWD", "city": "WESLEY HILLS", "state": "NY", "zip": "10952-1240", "ntee": "X30", "ruling": "201312", "deductibility": "1", "assets": 1013328, "income": 791312, "revenue": 791312}], "NORTHSTARS": [{"ein": "463563497", "name": "NORTHSTARS BOYS LACROSSE BOOSTER CLUB INC", "city": "CICERO", "state": "NY", "zip": "13039-7854", "ntee": "N50", "ruling": "201409", "deductibility": "1", "assets": 0, "income": 0, "revenue": 0}, {"ein": "611898290", "name": "NORTHSTARS WINTERGUARD PARENTS INC", "city": "CICERO", "state": "NY", "zip": "13039-9052", "ntee": "B12", "ruling": "202001", "deductibility": "1", "assets": 45274, "income": 84807, "revenue": 84807}, {"ein": "994362482", "name": "NORTHSTARS TOUCHDOWN CLUB INC", "city": "CICERO", "state": "NY", "zip": "13039-0000", "ntee": "O12", "ruling": "202408", "deductibility": "1", "assets": 0, "income": 0, "revenue": 0}], "GULMI": [{"ein": "464785853", "name": "GULMI AMERICA MODEL MOVEMENT INC", "city": "BELLEROSE", "state": "NY", "zip": "11426-1322", "ntee": "Q20", "ruling": "201511", "deductibility": "1", "assets": 1714, "income": 1, "revenue": 1}], "CHARLOTTEVILLE": [{"ein": "465450529", "name": "CHARLOTTEVILLE SCHOOLHOUSE RESTORATION COMMITTEE INC", "city": "CHARLOTTEVLE", "state": "NY", "zip": "12036-0082", "ntee": "N31", "ruling": "201604", "deductibility": "1", "assets": 0, "income": 0, "revenue": 0}], "PWW": [{"ein": "465571247", "name": "PWW CARES INC", "city": "W HAMPTON BCH", "state": "NY", "zip": "11978-1461", "ntee": "P12", "ruling": "201712", "deductibility": "1", "assets": 0, "income": 0, "revenue": 0}], "TAIPEI": [{"ein": "472342421", "name": "CHABAD TAIPEI INC", "city": "BROOKLYN", "state": "NY", "zip": "11213-4333", "ntee": "X30", "ruling": "201505", "deductibility": "1", "assets": 0, "income": 0, "revenue": 0}], "EXUMA": [{"ein": "472923237", "name": "EXUMA YAHWEH CLOSET INC", "city": "BROOKLYN", "state": "NY", "zip": "11203-3309", "ntee": "P99", "ruling": "201812", "deductibility": "1", "assets": 0, "income": 0, "revenue": 0}], "LCHINUCH": [{"ein": "522284564", "name": "MERKAZ LCHINUCH HATORAH", "city": "BROOKLYN", "state": "NY", "zip": "11230-2259", "ntee": "X30", "ruling": "200302", "deductibility": "1", "assets": 0, "income": 0, "revenue": 0}], "HALDAN": [{"ein": "710865532", "name": "LINDA HALDAN PASCOTTO CHARITABLE FOUNDATION", "city": "WOODBURY", "state": "NY", "zip": "11797-0000", "ntee": "T22", "ruling": "200204", "deductibility": "1", "assets": 541259, "income": 177062, "revenue": 0}], "TWINCO": [{"ein": "736500912", "name": "TWINCO FLYING CLUB INC", "city": "WAPPINGERS FL", "state": "NY", "zip": "12590-0602", "ntee": "", "ruling": "199611", "deductibility": "2", "assets": 0, "income": 0, "revenue": 0}], "WYOMANOCK": [{"ein": "800525145", "name": "WYOMANOCK CENTER", "city": "STEPHENTOWN", "state": "NY", "zip": "12168-2615", "ntee": "C60", "ruling": "201102", "deductibility": "1", "assets": 0, "income": 0, "revenue": 0}], "NETRA": [{"ein": "813973284", "name": "NETRA FOUNDATION INC", "city": "JACKSON HEIGHTS", "state": "NY", "zip": "11372-6300", "ntee": "S80", "ruling": "201611", "deductibility": "1", "assets": 0, "income": 0, "revenue": 0}], "SHAMTOV": [{"ein": "814066436", "name": "SHAMTOV KINDER INC", "city": "BROOKLYN", "state": "NY", "zip": "11219-5003", "ntee": "P33", "ruling": "201708", "deductibility": "1", "assets": 0, "income": 0, "revenue": 0}], "BLACKBOX": [{"ein": "821394492", "name": "GOTHAM BLACKBOX CORPORATION", "city": "NEW YORK", "state": "NY", "zip": "10014-3654", "ntee": "A60", "ruling": "201705", "deductibility": "1", "assets": 185, "income": 33, "revenue": 33}, {"ein": "922333801", "name": "AVENUE BLACKBOX INC", "city": "ROCHESTER", "state": "NY", "zip": "14621-4735", "ntee": "A23", "ruling": "202402", "deductibility": "1", "assets": 76815, "income": 218958, "revenue": 218958}], "TZOVA": [{"ein": "823685332", "name": "KETER ARAM TZOVA INC", "city": "FLUSHING", "state": "NY", "zip": "11367-1927", "ntee": "X12", "ruling": "201807", "deductibility": "1", "assets": 312072, "income": 1091132, "revenue": 1091132}], "BRIGIDS": [{"ein": "832062879", "name": "BRIGIDS HOPE", "city": "WEBSTER", "state": "NY", "zip": "14580-9708", "ntee": "B12", "ruling": "201810", "deductibility": "1", "assets": 0, "income": 0, "revenue": 0}], "INSPIRATIONALLY": [{"ein": "832551000", "name": "INSPIRATIONALLY GRIEVING MY BABY INC", "city": "CORONA", "state": "NY", "zip": "11368-4932", "ntee": "G20", "ruling": "201908", "deductibility": "1", "assets": 1600, "income": 9618, "revenue": 9618}], "YEZIDI": [{"ein": "833987960", "name": "FREE YEZIDI FOUNDATION", "city": "NEW YORK", "state": "NY", "zip": "10165-0006", "ntee": "P20", "ruling": "201906", "deductibility": "1", "assets": 213570, "income": 1031728, "revenue": 1031728}], "GRIPTAPE": [{"ein": "841835502", "name": "GRIPTAPE INC", "city": "RHINEBECK", "state": "NY", "zip": "12572-2238", "ntee": "B82", "ruling": "201911", "deductibility": "1", "assets": 2504716, "income": 1434298, "revenue": 1434298}], "BREADCRUMBS": [{"ein": "842328153", "name": "BREADCRUMBS PRODUCTIONS INC", "city": "SYRACUSE", "state": "NY", "zip": "13203-1605", "ntee": "A60", "ruling": "201910", "deductibility": "1", "assets": 19151, "income": 76062, "revenue": 76062}], "FUDSAFE": [{"ein": "843257698", "name": "FUNDACION SAN FELIPE FUDSAFE", "city": "NEW YORK", "state": "NY", "zip": "10034-4101", "ntee": "B12", "ruling": "202002", "deductibility": "1", "assets": 0, "income": 0, "revenue": 0}], "CATALPA": [{"ein": "843544123", "name": "CATALPA ARTS CLUB INC", "city": "RIDGEWOOD", "state": "NY", "zip": "11385-4462", "ntee": "A20", "ruling": "202101", "deductibility": "1", "assets": 0, "income": 0, "revenue": 0}], "GRC": [{"ein": "843773115", "name": "GRC GROUP INC", "city": "NEW YORK", "state": "NY", "zip": "10001-4290", "ntee": "B05", "ruling": "202006", "deductibility": "1", "assets": 0, "income": 0, "revenue": 0}], "LENNY": [{"ein": "844657374", "name": "FRANCINE & LENNY GOLDSTEIN FAMILY FOUNDATION", "city": "BROOKLYN", "state": "NY", "zip": "11214-4580", "ntee": "A20", "ruling": "202007", "deductibility": "1", "assets": 84171, "income": 42091, "revenue": 0}, {"ein": "934335350", "name": "LENNY D THOMAS FOUNDATION LTD", "city": "SOUTH OZONE PARK", "state": "NY", "zip": "11420-0000", "ntee": "A01", "ruling": "202401", "deductibility": "1", "assets": 0, "income": 0, "revenue": 0}], "WECARECOMMUNITY": [{"ein": "852487860", "name": "WECARECOMMUNITY INC", "city": "ASTORIA", "state": "NY", "zip": "11105-1834", "ntee": "P12", "ruling": "202102", "deductibility": "1", "assets": 0, "income": 0, "revenue": 0}], "CELEBRATING": [{"ein": "852736632", "name": "CELEBRATING THE AFRICAN SPIRIT INC", "city": "POUGHKEEPSIE", "state": "NY", "zip": "12602-1189", "ntee": "A23", "ruling": "202101", "deductibility": "1", "assets": 0, "income": 0, "revenue": 0}, {"ein": "874684692", "name": "CELEBRATING 5 BOROUGHS WITHIN 5 DAYS INC", "city": "STATEN ISLAND", "state": "NY", "zip": "10304-2728", "ntee": "P27", "ruling": "202311", "deductibility": "1", "assets": 0, "income": 0, "revenue": 0}], "LIBEIRUT": [{"ein": "852840688", "name": "TOGETHER LIBEIRUT INC", "city": "NEW YORK CITY", "state": "NY", "zip": "10022-1597", "ntee": "Q12", "ruling": "202109", "deductibility": "1", "assets": 7015, "income": 48802, "revenue": 48802}], "GROOM": [{"ein": "853051688", "name": "BATH AND GROOM CORP", "city": "BROOKLYN", "state": "NY", "zip": "11233-1011", "ntee": "P20", "ruling": "202101", "deductibility": "1", "assets": 0, "income": 0, "revenue": 0}], "ACHILE": [{"ein": "863067600", "name": "ACHILE", "city": "QUEENS VLG", "state": "NY", "zip": "11429-2205", "ntee": "O50", "ruling": "202108", "deductibility": "1", "assets": 0, "income": 0, "revenue": 0}], "CRANX": [{"ein": "863242606", "name": "NEW YORK CRANX FOUNDATION INC", "city": "MOUNT SINAI", "state": "NY", "zip": "11766-2330", "ntee": "N70", "ruling": "202111", "deductibility": "1", "assets": 0, "income": 0, "revenue": 0}], "CASPER": [{"ein": "871603215", "name": "CASPER TECHNOLOGY INC", "city": "QUEENS", "state": "NY", "zip": "11418-0000", "ntee": "C27", "ruling": "202205", "deductibility": "1", "assets": 0, "income": 0, "revenue": 0}], "UKWUANI": [{"ein": "871991812", "name": "PRINCESS EUNICE UKWUANI FOUNDATION INC", "city": "BROOKLYN", "state": "NY", "zip": "11212-2306", "ntee": "L11", "ruling": "202111", "deductibility": "1", "assets": 0, "income": 0, "revenue": 0}], "JFOUNDATIONS": [{"ein": "872102502", "name": "JFOUNDATIONS INC", "city": "FAR ROCKAWAY", "state": "NY", "zip": "11691-5402", "ntee": "X30", "ruling": "202111", "deductibility": "1", "assets": 0, "income": 0, "revenue": 0}], "JYUTSU": [{"ein": "872154324", "name": "JIN SHIN JYUTSU SMB INC", "city": "WOODSTOCK", "state": "NY", "zip": "12498-1725", "ntee": "A20", "ruling": "202111", "deductibility": "1", "assets": 30917, "income": 46014, "revenue": 46014}], "KASHIF": [{"ein": "873173724", "name": "KASHIF INCUBATOR INC", "city": "BROOKLYN", "state": "NY", "zip": "11215-4632", "ntee": "A31", "ruling": "202307", "deductibility": "1", "assets": 2139259, "income": 1970955, "revenue": 1970955}], "VIJA": [{"ein": "874511320", "name": "THE VIJA CELMINS FOUNDATION INC", "city": "WATERMILL", "state": "NY", "zip": "11976-2216", "ntee": "A20", "ruling": "202207", "deductibility": "1", "assets": 635467, "income": 600000, "revenue": 0}], "ROSEBUD": [{"ein": "883095116", "name": "ROSEBUD RESCUE", "city": "WEST FALLS", "state": "NY", "zip": "14170-9742", "ntee": "D20", "ruling": "202402", "deductibility": "1", "assets": 0, "income": 0, "revenue": 0}], "KHUMBU": [{"ein": "883269599", "name": "KHUMBU PASANGLHAMU SHERPA SOCIETY USA INC", "city": "MASPETH", "state": "NY", "zip": "11378-1436", "ntee": "A03", "ruling": "202210", "deductibility": "1", "assets": 45408, "income": 50180, "revenue": 50180}], "SIRRUS": [{"ein": "883835290", "name": "SIRRUS 7 ORG INC", "city": "ALBANY", "state": "NY", "zip": "12207-1623", "ntee": "J22", "ruling": "202210", "deductibility": "1", "assets": 0, "income": 0, "revenue": 0}], "GEDAM": [{"ein": "883913214", "name": "EMAMA GEDAM ORPHAN FUND INC", "city": "CHEEKTOWAGA", "state": "NY", "zip": "14225-4010", "ntee": "B90", "ruling": "202506", "deductibility": "1", "assets": 0, "income": 0, "revenue": 0}], "KLINIC": [{"ein": "921659047", "name": "KLINIC KIDS", "city": "BRONX", "state": "NY", "zip": "10465-2515", "ntee": "N62", "ruling": "202303", "deductibility": "1", "assets": 248014, "income": 1201319, "revenue": 1201319}], "NYFABF": [{"ein": "922633676", "name": "NYFABF INC", "city": "NEW YORK", "state": "NY", "zip": "10023-5001", "ntee": "P01", "ruling": "202409", "deductibility": "2", "assets": 0, "income": 0, "revenue": 0}], "CBO": [{"ein": "922820599", "name": "CBO IRELAND", "city": "LARCHMONT", "state": "NY", "zip": "10538-1626", "ntee": "A69", "ruling": "202310", "deductibility": "1", "assets": 0, "income": 0, "revenue": 0}], "DADI": [{"ein": "931546589", "name": "WUFU DADI CORP", "city": "BROOKLYN", "state": "NY", "zip": "11233-3035", "ntee": "X50", "ruling": "202308", "deductibility": "1", "assets": 0, "income": 0, "revenue": 0}], "SERVIDORES": [{"ein": "932452163", "name": "GENERACION DE SERVIDORES", "city": "TUCKAHOE", "state": "NY", "zip": "10707-1034", "ntee": "", "ruling": "202308", "deductibility": "1", "assets": 0, "income": 0, "revenue": 0}, {"ein": "991957026", "name": "CMIGRA - CENTRO DE CERTIFICACION PARA SERVIDORES MIGRATORIOS DE LAS", "city": "BRONX", "state": "NY", "zip": "10457-2888", "ntee": "B19", "ruling": "202404", "deductibility": "1", "assets": 1, "income": 140496, "revenue": 140496}], "PENPAL": [{"ein": "932631800", "name": "PENPAL KIDS INC", "city": "BRONX", "state": "NY", "zip": "10473-0000", "ntee": "A25", "ruling": "202502", "deductibility": "1", "assets": 0, "income": 0, "revenue": 0}], "SHLEMAH": [{"ein": "933244837", "name": "TORAH SHLEMAH INC", "city": "BROOKLYN", "state": "NY", "zip": "11230-7117", "ntee": "X30", "ruling": "202408", "deductibility": "1", "assets": 0, "income": 0, "revenue": 0}], "CULT": [{"ein": "933864288", "name": "CULT MAGAZINE INC", "city": "BROOKLYN", "state": "NY", "zip": "11222-5049", "ntee": "A20", "ruling": "202310", "deductibility": "1", "assets": 0, "income": 0, "revenue": 0}], "HBARTSCOLLECTIVE": [{"ein": "934706727", "name": "HBARTSCOLLECTIVE INC", "city": "NEW YORK", "state": "NY", "zip": "10037-3570", "ntee": "A62", "ruling": "202401", "deductibility": "1", "assets": 1, "income": 0, "revenue": 0}], "MIKOLIEV": [{"ein": "991169779", "name": "CONG KHAL MIKOLIEV", "city": "BROOKLYN", "state": "NY", "zip": "11218-5509", "ntee": "X30", "ruling": "202405", "deductibility": "1", "assets": 0, "income": 0, "revenue": 0}], "KAOLIN": [{"ein": "991859856", "name": "KAOLIN OF GOD S GRACE INC", "city": "MOUNT VERNON", "state": "NY", "zip": "10550-5150", "ntee": "P20", "ruling": "202403", "deductibility": "1", "assets": 0, "income": 0, "revenue": 0}], "SOMALIA": [{"ein": "992501232", "name": "SOMALIA WOMEN AND CHILDREN FOUNDATION CENTER INCORPORATED", "city": "SYRACUSE", "state": "NY", "zip": "13208-0000", "ntee": "P80", "ruling": "202404", "deductibility": "1", "assets": 0, "income": 0, "revenue": 0}], "MENTIS": [{"ein": "992642713", "name": "FIRMITAS MENTIS INC", "city": "YONKERS", "state": "NY", "zip": "10703-1913", "ntee": "W02", "ruling": "202405", "deductibility": "1", "assets": 0, "income": 0, "revenue": 0}], "AKSHAR": [{"ein": "992884504", "name": "AKSHAR BHARATI MISSION CORPORATION", "city": "OAKLAND GDNS", "state": "NY", "zip": "11364-3531", "ntee": "V30", "ruling": "202405", "deductibility": "1", "assets": 0, "income": 0, "revenue": 0}], "WAMBA": [{"ein": "993864183", "name": "WAMBA CONSULTING INC", "city": "BRONX", "state": "NY", "zip": "10455-4068", "ntee": "I80", "ruling": "202407", "deductibility": "1", "assets": 0, "income": 0, "revenue": 0}]}