{"MAYER": [{"ein": "010562294", "name": "CONG BAIS MAYER VYESSHAYA", "city": "BROOKLYN", "state": "NY", "zip": "11204-1703", "ntee": "X30", "ruling": "200206", "deductibility": "1", "assets": 0, "income": 0, "revenue": 0}, {"ein": "020569535", "name": "MAYER FOUNDATION", "city": "NEW YORK", "state": "NY", "zip": "10021-3746", "ntee": "T22", "ruling": "200204", "deductibility": "1", "assets": 95745, "income": 164198, "revenue": 0}, {"ein": "112429570", "name": "CONGREGATION GEMILAS CHESED ZICHRON YAAKOV BAR MAYER INC C O M METH", "city": "BKLYN", "state": "NY", "zip": "11219-3527", "ntee": "", "ruling": "197711", "deductibility": "1", "assets": 0, "income": 0, "revenue": 0}, {"ein": "112578356", "name": "CONGREGATION ZICHRON MAYER LEIB", "city": "NEW YORK", "state": "NY", "zip": "10279-0001", "ntee": "", "ruling": "198109", "deductibility": "1", "assets": 0, "income": 0, "revenue": 0}, {"ein": "112654740", "name": "ZICHRON BORUCH INC MAYER STEIR", "city": "BROOKLYN", "state": "NY", "zip": "11219-1608", "ntee": "", "ruling": "198312", "deductibility": "1", "assets": 0, "income": 0, "revenue": 0}, {"ein": "113223907", "name": "HARRY & ANITA MAYER FOUNDATION", "city": "MELVILLE", "state": "NY", "zip": "11747-3180", "ntee": "", "ruling": "199411", "deductibility": "1", "assets": 188901, "income": 4696, "revenue": 0}, {"ein": "113514892", "name": "KOLLEL ZICHRON MAYER ZVI INC", "city": "BROOKLYN", "state": "NY", "zip": "11219-3227", "ntee": "X30", "ruling": "199912", "deductibility": "1", "assets": 0, "income": 0, "revenue": 0}, {"ein": "113986018", "name": "CONG KHAL MAYER JOSEPH", "city": "MONROE", "state": "NY", "zip": "10950-2417", "ntee": "X30", "ruling": "199803", "deductibility": "1", "assets": 0, "income": 0, "revenue": 0}, {"ein": "132879832", "name": "BAIS MAYER CHEVRA SHAS", "city": "MONSEY", "state": "NY", "zip": "10952-2022", "ntee": "", "ruling": "197705", "deductibility": "1", "assets": 0, "income": 0, "revenue": 0}, {"ein": "208665822", "name": "KEREN MAYER INDIG", "city": "MONROE", "state": "NY", "zip": "10950-6096", "ntee": "T22", "ruling": "200810", "deductibility": "1", "assets": 137, "income": 209000, "revenue": 0}, {"ein": "237063834", "name": "ALFRED LEE AND PETER MAYER FOUNDATION", "city": "NEW YORK", "state": "NY", "zip": "10036-0000", "ntee": "", "ruling": "197005", "deductibility": "1", "assets": 1561951, "income": 557721, "revenue": 0}, {"ein": "455310845", "name": "THEODORE AND KARIN MAYER FAMILY FOUNDATION INC", "city": "PELHAM", "state": "NY", "zip": "10803-2418", "ntee": "T20", "ruling": "201208", "deductibility": "1", "assets": 4663328, "income": 254430, "revenue": 0}, {"ein": "472525915", "name": "STEVE AND LAURA MAYER FAMILY FOUNDATION", "city": "GARDEN CITY", "state": "NY", "zip": "11530-0000", "ntee": "T20", "ruling": "201707", "deductibility": "1", "assets": 1776616, "income": 2106682, "revenue": 0}, {"ein": "810909332", "name": "MAYER & TOBY HIRSCH FAMILY FOUNDATION INC", "city": "MONROE", "state": "NY", "zip": "10950-3807", "ntee": "T50", "ruling": "201909", "deductibility": "1", "assets": 1651174, "income": 611825, "revenue": 0}, {"ein": "816796362", "name": "MAYER SIMCHA LEITER CHARITABLE FOUNDATION", "city": "BROOKLYN", "state": "NY", "zip": "11213-4542", "ntee": "T20", "ruling": "201706", "deductibility": "1", "assets": 5705180, "income": 4593012, "revenue": 0}, {"ein": "823640227", "name": "SIMCHAS MAYER FUND INC", "city": "BROOKLYN", "state": "NY", "zip": "11210-5428", "ntee": "P6", "ruling": "201809", "deductibility": "1", "assets": 281128, "income": 363858, "revenue": 363858}, {"ein": "831466695", "name": "TOLDOS MAYER INC", "city": "MONSEY", "state": "NY", "zip": "10952-2911", "ntee": "X20", "ruling": "201908", "deductibility": "1", "assets": 0, "income": 0, "revenue": 0}, {"ein": "832941798", "name": "MAYER HANDLER FOUNDATION", "city": "BROOKLYN", "state": "NY", "zip": "11205-2063", "ntee": "T20", "ruling": "201905", "deductibility": "1", "assets": 1504150, "income": 96000, "revenue": 0}, {"ein": "851316352", "name": "THE LEON MAYER FUND INC", "city": "HEWLETT", "state": "NY", "zip": "11557-1631", "ntee": "", "ruling": "202009", "deductibility": "1", "assets": 135780, "income": 737773, "revenue": 737773}, {"ein": "881995125", "name": "CONGREGATION NOAM MAYER LIZENSK ZELICHOV INC", "city": "BROOLYN", "state": "NY", "zip": "11219-3876", "ntee": "X30", "ruling": "202209", "deductibility": "1", "assets": 0, "income": 0, "revenue": 0}, {"ein": "921141310", "name": "GEMACH ZICHRON MAYER RC", "city": "AIRMONT", "state": "NY", "zip": "10952-0000", "ntee": "T30", "ruling": "202212", "deductibility": "1", "assets": 0, "income": 0, "revenue": 0}, {"ein": "952232340", "name": "LOUIS B MAYER FOUNDATION", "city": "NEW YORK", "state": "NY", "zip": "10001-3031", "ntee": "", "ruling": "194806", "deductibility": "1", "assets": 8008892, "income": 2318496, "revenue": 0}], "SOURCES": [{"ein": "010781968", "name": "SOURCES FOR STUDENTS SCHOLARSHIP FUND INC", "city": "PORT CHESTER", "state": "NY", "zip": "10573-6008", "ntee": "B82", "ruling": "202409", "deductibility": "1", "assets": 0, "income": 0, "revenue": 0}], "PAKISTANI": [{"ein": "043516293", "name": "ORGANIZATION OF PAKISTANI ENTREPRENEURS OF NORTH AMERICA INC", "city": "NEW YORK", "state": "NY", "zip": "10177-0799", "ntee": "S41", "ruling": "200301", "deductibility": "2", "assets": 0, "income": 0, "revenue": 0}, {"ein": "134176379", "name": "PAKISTANI CIVIC ASSOCIATION OF STATEN ISLAND NEW YORK INC", "city": "STATEN ISLAND", "state": "NY", "zip": "10312-5113", "ntee": "N200", "ruling": "200202", "deductibility": "1", "assets": 15538, "income": 59601, "revenue": 59601}, {"ein": "161439112", "name": "PAKISTANI AMERICAN ASSOCIATION OF WESTERN NY", "city": "BUFFALO", "state": "NY", "zip": "14221-2848", "ntee": "A23", "ruling": "201207", "deductibility": "1", "assets": 0, "income": 0, "revenue": 0}, {"ein": "261259762", "name": "INDO-PAKISTANI FELLOWSHIP", "city": "QUEENS", "state": "NY", "zip": "11372-3414", "ntee": "", "ruling": "195806", "deductibility": "1", "assets": 0, "income": 0, "revenue": 0}, {"ein": "474022872", "name": "PAKISTANI AMERICAN YOUTH ORGANIZATION INC", "city": "BROOKLYN", "state": "NY", "zip": "11230-1314", "ntee": "O50", "ruling": "201604", "deductibility": "1", "assets": 217468, "income": 269267, "revenue": 269267}, {"ein": "811271555", "name": "PAKISTANI AMERICAN LAWENFORCEMENT SOCIETY", "city": "BROOKLYN", "state": "NY", "zip": "11235-5112", "ntee": "S21", "ruling": "201702", "deductibility": "1", "assets": 59196, "income": 162951, "revenue": 162951}, {"ein": "815342754", "name": "AMERICAN PAKISTANI EDUCATION FOUNDATION", "city": "BROOKLYN", "state": "NY", "zip": "11212-6719", "ntee": "B03", "ruling": "202206", "deductibility": "1", "assets": 19713, "income": 129212, "revenue": 129212}, {"ein": "850869897", "name": "PAKISTANI AMERICAN SKILLED WOMEN ORGANIZATION INC", "city": "BROOKLYN", "state": "NY", "zip": "11230-2313", "ntee": "W99", "ruling": "202007", "deductibility": "1", "assets": 4917, "income": 35500, "revenue": 35500}, {"ein": "851997635", "name": "AMERICAN PAKISTANI ADVOCACY GROUP CARES INC", "city": "FRESH MEADOWS", "state": "NY", "zip": "11366-1954", "ntee": "T50", "ruling": "202008", "deductibility": "1", "assets": 0, "income": 0, "revenue": 0}, {"ein": "873025980", "name": "PAKISTANI AMERICAN MERCHANTS ASSOCIATION INC", "city": "BROOKLYN", "state": "NY", "zip": "11230-2362", "ntee": "N31", "ruling": "202201", "deductibility": "1", "assets": 0, "income": 0, "revenue": 0}, {"ein": "884251259", "name": "PAKISTANI ORGANIZAITON WORKER EDUCATION RIGHT INC", "city": "CENTEREACH", "state": "NY", "zip": "11720-2886", "ntee": "R24", "ruling": "202211", "deductibility": "1", "assets": 1380, "income": 12002, "revenue": 12002}], "CHURCHILL": [{"ein": "046078351", "name": "THE WINSTON CHURCHILL FOUNDATION OF THE UNITED STATES", "city": "NEW YORK", "state": "NY", "zip": "10022-1615", "ntee": "Q113", "ruling": "196407", "deductibility": "1", "assets": 24602432, "income": 4963896, "revenue": 1529167}, {"ein": "132722983", "name": "CHURCHILL SCHOOL AND CENTER", "city": "NEW YORK", "state": "NY", "zip": "10016-8301", "ntee": "B280", "ruling": "197205", "deductibility": "1", "assets": 83349553, "income": 29158188, "revenue": 28897977}, {"ein": "161006158", "name": "CHURCHILL MANOR INC", "city": "SYRACUSE", "state": "NY", "zip": "13205-2201", "ntee": "L22Z", "ruling": "194603", "deductibility": "1", "assets": 2127803, "income": 5299997, "revenue": 5299997}, {"ein": "462638042", "name": "CHURCHILL BAPTIST CHURCH OF CHRIST INC", "city": "NEW YORK", "state": "NY", "zip": "10039-3639", "ntee": "X21", "ruling": "201409", "deductibility": "1", "assets": 0, "income": 0, "revenue": 0}, {"ein": "994461287", "name": "WINSTON CHURCHILL SOCIETY OF NEW YORK INC", "city": "RYE", "state": "NY", "zip": "10580-1837", "ntee": "W70", "ruling": "202506", "deductibility": "2", "assets": 0, "income": 0, "revenue": 0}], "CORRECTION": [{"ein": "061290619", "name": "WESTCHESTER COUNTY DEPT OF CORRECTION SUPERIOR OFFICERS ASSOC", "city": "VALHALLA", "state": "NY", "zip": "10595-0090", "ntee": "", "ruling": "199011", "deductibility": "2", "assets": 2471323, "income": 882030, "revenue": 851727}, {"ein": "112620637", "name": "SUFFOLK COUNTY CORRECTION OFFICERS ASSOCIATION", "city": "RIDGE", "state": "NY", "zip": "11961-2806", "ntee": "", "ruling": "198504", "deductibility": "2", "assets": 3049988, "income": 1143281, "revenue": 1083314}, {"ein": "113230884", "name": "NASSAU COUNTY SHERIFFS CORRECTION OFFICER BENEVOLENT ASSOCIATION", "city": "EAST MEADOW", "state": "NY", "zip": "11554-3951", "ntee": "J40", "ruling": "200101", "deductibility": "2", "assets": 1449192, "income": 1400544, "revenue": 1394434}, {"ein": "113507566", "name": "NASSAU COUNTY CORRECTION OFFICERS POLITICAL ACTION COMMITTEE INC", "city": "EAST MEADOW", "state": "NY", "zip": "11554-3951", "ntee": "I01", "ruling": "200101", "deductibility": "2", "assets": 12465, "income": 113533, "revenue": 113533}, {"ein": "133035012", "name": "CORRECTION CAPTAINS ASSOCIATION INC", "city": "FLUSHING", "state": "NY", "zip": "11354-1964", "ntee": "J40Z", "ruling": "198206", "deductibility": "2", "assets": 2533563, "income": 1988787, "revenue": 1227461}, {"ein": "133085094", "name": "WESTCHESTER COUNTY CORRECTION OFFICERS BENEVOLENT ASSOC INC", "city": "WHITE PLAINS", "state": "NY", "zip": "10603-2516", "ntee": "", "ruling": "198810", "deductibility": "0", "assets": 571880, "income": 594730, "revenue": 498565}, {"ein": "133097380", "name": "CORRECTION OFFICERS BENEVOLENT ASSOCIATION INC", "city": "EAST ELMHURST", "state": "NY", "zip": "11370-1219", "ntee": "J40", "ruling": "199403", "deductibility": "2", "assets": 10859116, "income": 6418621, "revenue": 6418621}, {"ein": "133792349", "name": "CORRECTION OFFICERS BENEVOLENT ASSOCIATION OF ROCKLAND COUNTY INC", "city": "NEW CITY", "state": "NY", "zip": "10956-8646", "ntee": "J40", "ruling": "200004", "deductibility": "2", "assets": 302941, "income": 196716, "revenue": 171999}, {"ein": "133803154", "name": "WESTCHESTER COUNTY CORRECTION OFFICERS EMERALD SOCIETY INC", "city": "HAWTHORNE", "state": "NY", "zip": "10532-0055", "ntee": "", "ruling": "199803", "deductibility": "2", "assets": 0, "income": 0, "revenue": 0}, {"ein": "133909402", "name": "CORRECTION OFFICERS BENEVOLENT ASSOCIATION WIDOWS & CHILDREN FUND", "city": "EAST ELMHURST", "state": "NY", "zip": "11370-1219", "ntee": "P129", "ruling": "199711", "deductibility": "1", "assets": 160575, "income": 52786, "revenue": 28529}, {"ein": "134183116", "name": "CORRECTION OFFICERS BENEVOLENT ASSOCIATION SCHOLARSHIP FUND INC", "city": "EAST ELMHURST", "state": "NY", "zip": "11370-1219", "ntee": "B82", "ruling": "200210", "deductibility": "1", "assets": 91328, "income": 159115, "revenue": 44968}, {"ein": "136163565", "name": "CORRECTION OFFICERS BENEVOLENT ASSOCIATION SECURITY BENEFITS", "city": "EAST ELMHURST", "state": "NY", "zip": "11370-1219", "ntee": "", "ruling": "196409", "deductibility": "2", "assets": 20173297, "income": 14313581, "revenue": 14313581}, {"ein": "208038500", "name": "SCHUYLER COUNTY CORRECTION OFFICERS BENEVOLENT ASSOCIATION INC", "city": "WATKINS GLEN", "state": "NY", "zip": "14891-1404", "ntee": "J40", "ruling": "200807", "deductibility": "2", "assets": 0, "income": 0, "revenue": 0}, {"ein": "223041761", "name": "ORANGE COUNTY CORRECTION OFFICERS BENEVOLENT ASSOCIATION", "city": "GOSHEN", "state": "NY", "zip": "10924-0376", "ntee": "", "ruling": "202501", "deductibility": "2", "assets": 254062, "income": 232065, "revenue": 232065}, {"ein": "320341684", "name": "WESTCHESTER CORRECTION RETIREES ASSOCIATION CORP", "city": "HOPEWELL JCT", "state": "NY", "zip": "12533-5925", "ntee": "Y99", "ruling": "201407", "deductibility": "2", "assets": 0, "income": 0, "revenue": 0}, {"ein": "474395986", "name": "WOMEN IN CORRECTION INC", "city": "AMITYVILLE", "state": "NY", "zip": "11701-1512", "ntee": "I40", "ruling": "202404", "deductibility": "1", "assets": 0, "income": 0, "revenue": 0}, {"ein": "510160035", "name": "SUFFOLK COUNTY CORRECTION OFFICERS BENEVOLENT ASSOCIATION INC", "city": "RIVERHEAD", "state": "NY", "zip": "11901-0209", "ntee": "", "ruling": "197509", "deductibility": "2", "assets": 153260, "income": 173527, "revenue": 173527}, {"ein": "510183172", "name": "CORRECTION OFFICERS BENEVOLENT ASSC SECURITY BENEFITS FUND-RETIREES", "city": "EAST ELMHURST", "state": "NY", "zip": "11370-1219", "ntee": "", "ruling": "197603", "deductibility": "2", "assets": 11718604, "income": 20119347, "revenue": 20119347}, {"ein": "510195150", "name": "CORRECTION CAPTAINS ASSOCIATION SECURITY BENEFITS FUND-RETIREES", "city": "FLUSHING", "state": "NY", "zip": "11354-1995", "ntee": "", "ruling": "197607", "deductibility": "2", "assets": 5964885, "income": 6220223, "revenue": 3549438}, {"ein": "811502742", "name": "WESTCHESTER COUNTY CORRECTION OFFICERS BENEVOLENT ASSOCIATION", "city": "WHITE PLAINS", "state": "NY", "zip": "10603-2516", "ntee": "B82", "ruling": "202005", "deductibility": "1", "assets": 0, "income": 0, "revenue": 0}, {"ein": "820993187", "name": "DISASTER RELIEF ASSOCIATION IN THE NYC DEPARTMENT OF CORRECTION INC", "city": "S RICHMOND HL", "state": "NY", "zip": "11419-1609", "ntee": "M11", "ruling": "202212", "deductibility": "1", "assets": 13783, "income": 16050, "revenue": 16050}, {"ein": "830847302", "name": "NYCD ASSOCIATION OF AFRICAN NATIONS IN CORRECTION", "city": "W HEMPSTEAD", "state": "NY", "zip": "11552-3911", "ntee": "P01", "ruling": "202309", "deductibility": "1", "assets": 0, "income": 0, "revenue": 0}, {"ein": "844969024", "name": "BANGLADESHI CORRECTION SOCIETY INC", "city": "BRONX", "state": "NY", "zip": "10472-5510", "ntee": "J03", "ruling": "202303", "deductibility": "1", "assets": 0, "income": 0, "revenue": 0}, {"ein": "863598323", "name": "WATER INSECURITY CORRECTION COALITION INC", "city": "GREENWICH", "state": "NY", "zip": "12834-1206", "ntee": "C99", "ruling": "202109", "deductibility": "1", "assets": 0, "income": 0, "revenue": 0}, {"ein": "993252602", "name": "NASSAU COUNTY CORRECTION OFFICERS FOUNDATION INC", "city": "ALBANY", "state": "NY", "zip": "12207-2834", "ntee": "P12", "ruling": "202408", "deductibility": "1", "assets": 0, "income": 0, "revenue": 0}], "SOARINGWORDS": [{"ein": "061602568", "name": "SOARINGWORDS INC", "city": "NEW YORK", "state": "NY", "zip": "10024-3665", "ntee": "E86", "ruling": "200203", "deductibility": "1", "assets": 18741, "income": 64033, "revenue": 64033}], "CHRISTS": [{"ein": "061623116", "name": "CHRISTS MISSIONARIES CHURCH", "city": "FRESH MEADOWS", "state": "NY", "zip": "11365-3756", "ntee": "X20", "ruling": "200703", "deductibility": "1", "assets": 0, "income": 0, "revenue": 0}, {"ein": "112918576", "name": "CHRISTS LIFE EVANGELISM INC 617 GRAND AVE", "city": "BRONX", "state": "NY", "zip": "10473-0015", "ntee": "", "ruling": "199208", "deductibility": "1", "assets": 0, "income": 0, "revenue": 0}, {"ein": "113406219", "name": "CHURCH OF GOD OF JESUS-CHRISTS DOCTRINE INC", "city": "MINEOLA", "state": "NY", "zip": "11501-4614", "ntee": "X20M", "ruling": "199811", "deductibility": "1", "assets": 0, "income": 0, "revenue": 0}, {"ein": "132841923", "name": "CHRISTS CHURCH NURSERY SCHOOL", "city": "RYE", "state": "NY", "zip": "10580-0000", "ntee": "", "ruling": "197707", "deductibility": "1", "assets": 0, "income": 0, "revenue": 0}, {"ein": "133767427", "name": "CHRISTS CHURCH OF RYE SERVICES CORPORATION", "city": "RYE", "state": "NY", "zip": "10580-0000", "ntee": "X21Z", "ruling": "199509", "deductibility": "1", "assets": 0, "income": 0, "revenue": 0}, {"ein": "141640561", "name": "CHRISTS EVAN LUTHERAN CHURCH", "city": "WOODSTOCK", "state": "NY", "zip": "12498-1308", "ntee": "", "ruling": "198804", "deductibility": "1", "assets": 0, "income": 0, "revenue": 0}, {"ein": "161238490", "name": "CHRISTS CHURCH AT DANSVILLE", "city": "DANSVILLE", "state": "NY", "zip": "14437-1331", "ntee": "", "ruling": "198508", "deductibility": "1", "assets": 0, "income": 0, "revenue": 0}, {"ein": "161529128", "name": "CHRISTS CHURCH OF THE CAPITAL DISTRICT", "city": "CLIFTON PARK", "state": "NY", "zip": "12065-0421", "ntee": "X21", "ruling": "200105", "deductibility": "1", "assets": 0, "income": 0, "revenue": 0}, {"ein": "166075577", "name": "CHRISTS CHURCH OF THE SOUTHERN TIER", "city": "VESTAL", "state": "NY", "zip": "13851-0174", "ntee": "", "ruling": "196705", "deductibility": "1", "assets": 0, "income": 0, "revenue": 0}, {"ein": "237303503", "name": "CHRISTS CHURCH OF THE RESTITUTION", "city": "CONESUS", "state": "NY", "zip": "14435-0100", "ntee": "", "ruling": "197307", "deductibility": "1", "assets": 0, "income": 0, "revenue": 0}, {"ein": "271250228", "name": "CHRISTS AMBASSADORS OF CHARITY INC", "city": "PEARL RIVER", "state": "NY", "zip": "10965-0117", "ntee": "P40", "ruling": "201003", "deductibility": "1", "assets": 0, "income": 0, "revenue": 0}, {"ein": "274349220", "name": "HOUSE OF CHRISTS LOVE INC", "city": "POUGHKEEPSIE", "state": "NY", "zip": "12603-5315", "ntee": "X21", "ruling": "201106", "deductibility": "1", "assets": 0, "income": 0, "revenue": 0}, {"ein": "412194617", "name": "CHRISTS LOVE MINISTRIES", "city": "BRONX", "state": "NY", "zip": "10455-2501", "ntee": "X21", "ruling": "200807", "deductibility": "1", "assets": 0, "income": 0, "revenue": 0}, {"ein": "452712585", "name": "CHRISTS KINGDOM BUILDERS WORLD MINISTRIES", "city": "ROCHESTER", "state": "NY", "zip": "14612-3072", "ntee": "X21", "ruling": "201301", "deductibility": "1", "assets": 0, "income": 0, "revenue": 0}, {"ein": "462335441", "name": "CHRISTS CHURCH ALBANY", "city": "ALBANY", "state": "NY", "zip": "12209-1107", "ntee": "X20", "ruling": "201407", "deductibility": "1", "assets": 0, "income": 0, "revenue": 0}, {"ein": "510136048", "name": "CHRISTS RESTORATION HOUSE OF PRAYER INC", "city": "E GREENBUSH", "state": "NY", "zip": "12061-0301", "ntee": "", "ruling": "197708", "deductibility": "1", "assets": 0, "income": 0, "revenue": 0}, {"ein": "611504108", "name": "CHRISTS HIGH SCHOOL ALUMNI ASSOCIATION USA INC", "city": "HEMPSTEAD", "state": "NY", "zip": "11550-3917", "ntee": "B11", "ruling": "201301", "deductibility": "1", "assets": 0, "income": 0, "revenue": 0}, {"ein": "831639978", "name": "CHRISTS CALLING", "city": "EAST NORTHPORT", "state": "NY", "zip": "11731-0000", "ntee": "O55", "ruling": "201809", "deductibility": "1", "assets": 0, "income": 0, "revenue": 0}, {"ein": "900765306", "name": "CHRISTS REFLECTION MINISTRIES", "city": "ARVERNE", "state": "NY", "zip": "11692-1505", "ntee": "X20", "ruling": "201406", "deductibility": "1", "assets": 0, "income": 0, "revenue": 0}], "SEAWANHAKA": [{"ein": "111310150", "name": "SEAWANHAKA CORINTHIAN YACHT CLUB", "city": "OYSTER BAY", "state": "NY", "zip": "11771-4902", "ntee": "", "ruling": "193410", "deductibility": "2", "assets": 7000512, "income": 6741005, "revenue": 5795858}], "NORTHHEMPSTEAD": [{"ein": "112131190", "name": "NORTHHEMPSTEAD COUNTRY CORP", "city": "PORT WASHINGTON", "state": "NY", "zip": "11050-0000", "ntee": "S47", "ruling": "200905", "deductibility": "2", "assets": 111259, "income": 0, "revenue": 0}], "SCIENTIST": [{"ein": "112200672", "name": "FIRST CHURCH OF CHRIST SCIENTIST", "city": "SOUTHOLD", "state": "NY", "zip": "11971-4613", "ntee": "", "ruling": "194106", "deductibility": "1", "assets": 0, "income": 0, "revenue": 0}, {"ein": "116003380", "name": "FIRST CHURCH OF CHRIST SCIENTIST", "city": "NORTHPORT", "state": "NY", "zip": "11768-3103", "ntee": "", "ruling": "000000", "deductibility": "1", "assets": 0, "income": 0, "revenue": 0}, {"ein": "133060817", "name": "FIRST CHURCH OF CHRIST SCIENTIST", "city": "TARRYTOWN", "state": "NY", "zip": "10591-4210", "ntee": "", "ruling": "193605", "deductibility": "1", "assets": 0, "income": 0, "revenue": 0}, {"ein": "160743016", "name": "FIRST CHURCH OF CHRIST SCIENTIST", "city": "BUFFALO", "state": "NY", "zip": "14203-1705", "ntee": "", "ruling": "193612", "deductibility": "1", "assets": 0, "income": 0, "revenue": 0}], "SCIE": [{"ein": "112403108", "name": "LONG ISLAND DISTRICT OF NEW YORK STATE ASSOC OF FAM & CONSUMER SCIE", "city": "RIVERHEAD", "state": "NY", "zip": "11901-7235", "ntee": "K03", "ruling": "201407", "deductibility": "1", "assets": 0, "income": 0, "revenue": 0}], "CHANOCH": [{"ein": "112412065", "name": "CHANOCH LENAAR", "city": "BROOKLYN", "state": "NY", "zip": "11213-3618", "ntee": "", "ruling": "197703", "deductibility": "1", "assets": 0, "income": 0, "revenue": 0}, {"ein": "334989223", "name": "FRIENDS OF CHANOCH LANAAR INC", "city": "BROOKLYN", "state": "NY", "zip": "11213-5304", "ntee": "X30", "ruling": "202507", "deductibility": "1", "assets": 0, "income": 0, "revenue": 0}, {"ein": "871831510", "name": "CONGREGATION LEV CHANOCH", "city": "MONROE", "state": "NY", "zip": "10950-9627", "ntee": "X50", "ruling": "202203", "deductibility": "1", "assets": 0, "income": 0, "revenue": 0}], "CAMBA": [{"ein": "112480339", "name": "CAMBA INC", "city": "BROOKLYN", "state": "NY", "zip": "11226-2630", "ntee": "S20Z", "ruling": "197903", "deductibility": "1", "assets": 366852017, "income": 221202790, "revenue": 221023710}, {"ein": "113153831", "name": "CAMBA LEGAL SERVICES INC", "city": "BROOKLYN", "state": "NY", "zip": "11226-0000", "ntee": "I80Z", "ruling": "199305", "deductibility": "1", "assets": 5591151, "income": 7970773, "revenue": 7970773}, {"ein": "113355019", "name": "CAMBA PRIMARY HEALTH CARE CENTER INC", "city": "BROOKLYN", "state": "NY", "zip": "11226-2630", "ntee": "E31Z", "ruling": "199707", "deductibility": "1", "assets": 0, "income": 0, "revenue": 0}, {"ein": "113546930", "name": "CAMBA ECONOMIC DEVELOPMENT CORPORATION", "city": "BROOKLYN", "state": "NY", "zip": "11226-0000", "ntee": "S30", "ruling": "200311", "deductibility": "1", "assets": 236827, "income": 136456, "revenue": 136456}, {"ein": "550881162", "name": "CAMBA HOUSING VENTURES INC", "city": "BROOKLYN", "state": "NY", "zip": "11226-0000", "ntee": "L99", "ruling": "200505", "deductibility": "1", "assets": 36152773, "income": 4669826, "revenue": 4669826}], "ZECHUTA": [{"ein": "112486064", "name": "TSHECHENOV INSTITUTIONS IN ISRAEL ZECHUTA D AVRAHAM", "city": "BROOKLYN", "state": "NY", "zip": "11204-1516", "ntee": "", "ruling": "197902", "deductibility": "1", "assets": 0, "income": 0, "revenue": 0}], "YESHUOS": [{"ein": "112541724", "name": "CONGREGATION YESHUOS CHAIM", "city": "BROOKLYN", "state": "NY", "zip": "11230-4817", "ntee": "", "ruling": "198008", "deductibility": "1", "assets": 0, "income": 0, "revenue": 0}, {"ein": "113088748", "name": "YESHUOS YISROEL", "city": "BROOKLYN", "state": "NY", "zip": "11210-3714", "ntee": "", "ruling": "199306", "deductibility": "1", "assets": 0, "income": 0, "revenue": 0}, {"ein": "113514862", "name": "CONGREGATION YESHUOS YOSES", "city": "NEW YORK", "state": "NY", "zip": "10036-4119", "ntee": "X30", "ruling": "199912", "deductibility": "1", "assets": 0, "income": 0, "revenue": 0}, {"ein": "133940393", "name": "YESHUOS YISRAEL", "city": "SPRING VALLEY", "state": "NY", "zip": "10977-1969", "ntee": "X30I", "ruling": "199802", "deductibility": "1", "assets": 0, "income": 0, "revenue": 0}, {"ein": "461160959", "name": "CONGREGATION YESHUOS MOSHE VIZNITZ", "city": "MONSEY", "state": "NY", "zip": "10952-1731", "ntee": "X30", "ruling": "201311", "deductibility": "1", "assets": 0, "income": 0, "revenue": 0}, {"ein": "464315297", "name": "CONG YESHUOS MOSHE OF WILLIAMSBURG", "city": "BROOKLYN", "state": "NY", "zip": "11249-7833", "ntee": "X30", "ruling": "201506", "deductibility": "1", "assets": 0, "income": 0, "revenue": 0}], "SHAARI": [{"ein": "112559801", "name": "CONGREGATION SHAARI TEFILOH OF KINGS HIGHWAY", "city": "BROOKLYN", "state": "NY", "zip": "11235-2022", "ntee": "", "ruling": "199209", "deductibility": "1", "assets": 0, "income": 0, "revenue": 0}, {"ein": "201192549", "name": "CONGREGATION SHAARI TZEDEK", "city": "BROOKLYN", "state": "NY", "zip": "11211-8112", "ntee": "X30", "ruling": "200512", "deductibility": "1", "assets": 0, "income": 0, "revenue": 0}], "HAI": [{"ein": "112854923", "name": "MIDRASH BEN ISH HAI", "city": "GREAT NECK", "state": "NY", "zip": "11021-2000", "ntee": "", "ruling": "198708", "deductibility": "1", "assets": 0, "income": 0, "revenue": 0}, {"ein": "113324247", "name": "HAI TIEN CORAL GROUP INC", "city": "JACKSON HTS", "state": "NY", "zip": "11372-4720", "ntee": "A65Z", "ruling": "199706", "deductibility": "1", "assets": 0, "income": 0, "revenue": 0}, {"ein": "133724150", "name": "THE SUPREME MASTER CHING HAI INTERNATIONAL ASSOCIATION IN NEW Y", "city": "QUEENS", "state": "NY", "zip": "11432-1337", "ntee": "", "ruling": "202011", "deductibility": "1", "assets": 0, "income": 0, "revenue": 0}, {"ein": "263120778", "name": "SUH HAI-KYUNG FOUNDATION INC", "city": "BAYSIDE", "state": "NY", "zip": "11361-3580", "ntee": "P99", "ruling": "200908", "deductibility": "1", "assets": 41745, "income": 3, "revenue": 0}, {"ein": "472767866", "name": "KOL HAI HUDSON VALLEY JEWISH RENEWAL INC", "city": "ULSTER PARK", "state": "NY", "zip": "12487-5222", "ntee": "X30", "ruling": "201608", "deductibility": "1", "assets": 0, "income": 0, "revenue": 0}], "CHEMISTS": [{"ein": "112859555", "name": "SOCIETY OF COSMETIC CHEMISTS", "city": "MELVILLE", "state": "NY", "zip": "11747-3145", "ntee": "", "ruling": "198604", "deductibility": "1", "assets": 57831, "income": 89006, "revenue": 22972}, {"ein": "131623933", "name": "CHEMISTS CLUB", "city": "NEW YORK", "state": "NY", "zip": "10036-6604", "ntee": "", "ruling": "196401", "deductibility": "1", "assets": 58186, "income": 228482, "revenue": 228482}, {"ein": "131976655", "name": "SOCIETY OF COSMETIC CHEMISTS", "city": "NEW YORK", "state": "NY", "zip": "10005-2123", "ntee": "U030", "ruling": "198604", "deductibility": "1", "assets": 0, "income": 0, "revenue": 0}], "AGNES": [{"ein": "112965433", "name": "ST AGNES SENIOR CITIZEN HOUSING DE VELOPMENT FUND COMPANY INC", "city": "HICKSVILLE", "state": "NY", "zip": "11801-6232", "ntee": "L40Z", "ruling": "199110", "deductibility": "1", "assets": 5132453, "income": 1776945, "revenue": 1776945}, {"ein": "113465807", "name": "KENNETH & AGNES ZITTER FAMILY FOUNDATION", "city": "LAWRENCE", "state": "NY", "zip": "11559-1820", "ntee": "T22", "ruling": "199907", "deductibility": "1", "assets": 1082967, "income": 1028250, "revenue": 0}, {"ein": "132879673", "name": "THOMAS AND AGNES CARVEL FOUNDATION", "city": "YONKERS", "state": "NY", "zip": "10710-4620", "ntee": "", "ruling": "197701", "deductibility": "1", "assets": 49177623, "income": 16026753, "revenue": 0}, {"ein": "134222712", "name": "ANDREW & AGNES SERHOFER FOUNDATION INC", "city": "STATEN ISLAND", "state": "NY", "zip": "10314-5034", "ntee": "T22", "ruling": "200301", "deductibility": "1", "assets": 240838, "income": 62049, "revenue": 0}, {"ein": "141341171", "name": "ST AGNES CHURCH", "city": "LAKE PLACID", "state": "NY", "zip": "12946-1905", "ntee": "", "ruling": "194603", "deductibility": "0", "assets": 0, "income": 0, "revenue": 0}, {"ein": "150532229", "name": "ST AGNES CEMETERY OF UTICA", "city": "UTICA", "state": "NY", "zip": "13501-4623", "ntee": "", "ruling": "000000", "deductibility": "2", "assets": 4871657, "income": 661746, "revenue": 266784}, {"ein": "202006253", "name": "JOSEPH G KEARNS AND AGNES K KEARNS FOUNDATION", "city": "COOPERSTOWN", "state": "NY", "zip": "13326-1138", "ntee": "T20", "ruling": "200501", "deductibility": "1", "assets": 820, "income": 15918, "revenue": 0}, {"ein": "206092153", "name": "NELSON AND AGNES POMPA FAMILY FOUNDATION", "city": "SARATOGA SPGS", "state": "NY", "zip": "12866-6132", "ntee": "T22", "ruling": "200406", "deductibility": "1", "assets": 981862, "income": 288633, "revenue": 0}, {"ein": "237194828", "name": "GROVE W & AGNES M HINMAN CHARITABLE FOUNDATION", "city": "HAMILTON", "state": "NY", "zip": "13346-1321", "ntee": "", "ruling": "197302", "deductibility": "1", "assets": 362990, "income": 33193, "revenue": 0}, {"ein": "326225073", "name": "AGNES MARTIN FOUNDATION", "city": "NEW YORK", "state": "NY", "zip": "10022-6445", "ntee": "T20", "ruling": "201304", "deductibility": "1", "assets": 83918, "income": 17855, "revenue": 0}, {"ein": "331290420", "name": "AGNES YOUTH AND FAMILY CENTER", "city": "BUFFALO", "state": "NY", "zip": "14207-3018", "ntee": "O50", "ruling": "202410", "deductibility": "1", "assets": 0, "income": 0, "revenue": 0}, {"ein": "462922148", "name": "ST AGNES OF AVON SUPPORT GROUP INC", "city": "AVON", "state": "NY", "zip": "14414-1053", "ntee": "B84", "ruling": "201605", "deductibility": "1", "assets": 0, "income": 0, "revenue": 0}, {"ein": "816916111", "name": "CLARENCE JOHN MARONA AND AGNES WALSH MARONA CHARITABLE FOUNDATION", "city": "POUGHKEEPSIE", "state": "NY", "zip": "12601-0999", "ntee": "T20", "ruling": "201708", "deductibility": "1", "assets": 1125589, "income": 413743, "revenue": 0}], "HALEV": [{"ein": "113087375", "name": "MESIVTA KAVONAS HALEV", "city": "BROOKLYN", "state": "NY", "zip": "11204-1049", "ntee": "", "ruling": "199401", "deductibility": "1", "assets": 0, "income": 0, "revenue": 0}, {"ein": "113377917", "name": "CONGREGATION KAVUNAS HALEV", "city": "BROOKLYN", "state": "NY", "zip": "11204-1032", "ntee": "X30Z", "ruling": "199801", "deductibility": "1", "assets": 0, "income": 0, "revenue": 0}, {"ein": "113397743", "name": "YESHIVAS KAVUMAS HALEV INC", "city": "BROOKLYN", "state": "NY", "zip": "11204-1069", "ntee": "X30Z", "ruling": "199806", "deductibility": "1", "assets": 0, "income": 0, "revenue": 0}, {"ein": "113530450", "name": "CONGREGATION KAVUNAS HALEV OF WILLIAMSBURG", "city": "BROOKLYN", "state": "NY", "zip": "11211-8102", "ntee": "X30", "ruling": "200207", "deductibility": "1", "assets": 0, "income": 0, "revenue": 0}, {"ein": "463028714", "name": "CONGREGATION OVODAS HALEV", "city": "BROOKLYN", "state": "NY", "zip": "11218-5884", "ntee": "X30", "ruling": "201407", "deductibility": "1", "assets": 0, "income": 0, "revenue": 0}, {"ein": "472315444", "name": "CONGREGATION KAVUNAS HALEV BUILDING FUND INC", "city": "BROOKLYN", "state": "NY", "zip": "11204-1033", "ntee": "X30", "ruling": "201703", "deductibility": "1", "assets": 0, "income": 0, "revenue": 0}, {"ein": "582669207", "name": "SIMCHAT HALEV", "city": "HUNTINGTON", "state": "NY", "zip": "11743-3118", "ntee": "X30", "ruling": "200501", "deductibility": "1", "assets": 0, "income": 0, "revenue": 0}, {"ein": "831291255", "name": "TZOHAR HALEV INC", "city": "BROOKLYN", "state": "NY", "zip": "11204-1507", "ntee": "B12", "ruling": "201907", "deductibility": "1", "assets": 66661, "income": 548196, "revenue": 548196}, {"ein": "854395454", "name": "AFO MEOMEK HALEV INC", "city": "BROOKLYN", "state": "NY", "zip": "11219-0000", "ntee": "X30", "ruling": "202104", "deductibility": "1", "assets": 3854, "income": 101642, "revenue": 101642}, {"ein": "883445177", "name": "CONGREGATION KAVUNAS HALEV OF MONSEY", "city": "SPRING VALLEY", "state": "NY", "zip": "10977-8334", "ntee": "X30", "ruling": "202405", "deductibility": "1", "assets": 0, "income": 0, "revenue": 0}, {"ein": "934702298", "name": "CONGREGATION AVODAS HALEV INC", "city": "BROOKLYN", "state": "NY", "zip": "11206-0000", "ntee": "X30", "ruling": "202406", "deductibility": "1", "assets": 0, "income": 0, "revenue": 0}, {"ein": "991337558", "name": "AVODES HALEV", "city": "BROOKLYN", "state": "NY", "zip": "11219-4229", "ntee": "X30", "ruling": "202410", "deductibility": "1", "assets": 0, "income": 0, "revenue": 0}], "YUGAL": [{"ein": "113093497", "name": "KOLEL YUGAL YAKOV YISMACH YISROEL", "city": "BROOKLYN", "state": "NY", "zip": "11218-4414", "ntee": "", "ruling": "199202", "deductibility": "1", "assets": 0, "income": 0, "revenue": 0}], "SEASONS": [{"ein": "113146710", "name": "NEW SEASONS FAMILY WORSHIP CENTER INC", "city": "S OZONE PARK", "state": "NY", "zip": "11436-1648", "ntee": "X20Z", "ruling": "199604", "deductibility": "1", "assets": 0, "income": 0, "revenue": 0}, {"ein": "161598607", "name": "TIME AND SEASONS OUTREACH INC", "city": "GRAND ISLAND", "state": "NY", "zip": "14072-0672", "ntee": "X200", "ruling": "200102", "deductibility": "1", "assets": 445, "income": 0, "revenue": 0}, {"ein": "161611443", "name": "TIMES AND SEASONS FOUNDATIONS INC", "city": "GRAND ISLAND", "state": "NY", "zip": "14072-0672", "ntee": "Q33", "ruling": "200111", "deductibility": "1", "assets": 75377, "income": 37607, "revenue": 37607}, {"ein": "200560485", "name": "FOR ALL SEASONS INC", "city": "BRIARCLIFF", "state": "NY", "zip": "10510-2619", "ntee": "P20", "ruling": "201306", "deductibility": "1", "assets": 0, "income": 0, "revenue": 0}, {"ein": "204158292", "name": "FOUR SEASONS AGILITY CLUB INC", "city": "EAST AURORA", "state": "NY", "zip": "14052-2152", "ntee": "N50", "ruling": "202410", "deductibility": "2", "assets": 0, "income": 0, "revenue": 0}, {"ein": "222543118", "name": "FOUR SEASONS PLAYERS INC", "city": "LOCKPORT", "state": "NY", "zip": "14094-1228", "ntee": "A65", "ruling": "200110", "deductibility": "1", "assets": 0, "income": 0, "revenue": 0}, {"ein": "222561805", "name": "ONTARIO COUNTY FOUR SEASONS LOCAL DEVELOPMENT", "city": "CANANDAIGUA", "state": "NY", "zip": "14424-1872", "ntee": "S33Z", "ruling": "199612", "deductibility": "1", "assets": 1719356, "income": 1728962, "revenue": 1728962}, {"ein": "453019009", "name": "CHURCH OF GOD OF NEW SEASONS", "city": "BROOKLYN", "state": "NY", "zip": "11203-5817", "ntee": "", "ruling": "197210", "deductibility": "1", "assets": 0, "income": 0, "revenue": 0}, {"ein": "475277240", "name": "FOUR SEASONS CHORALE INC", "city": "PORT JERVIS", "state": "NY", "zip": "12771-1930", "ntee": "A6B", "ruling": "201605", "deductibility": "1", "assets": 0, "income": 0, "revenue": 0}, {"ein": "811003638", "name": "NEW SEASONS FELLOWSHIP CHURCH", "city": "N TONAWANDA", "state": "NY", "zip": "14120-1803", "ntee": "", "ruling": "200310", "deductibility": "0", "assets": 0, "income": 0, "revenue": 0}, {"ein": "832072485", "name": "SEASONS NORTHEAST LLC", "city": "ALBANY", "state": "NY", "zip": "12211-1711", "ntee": "X20", "ruling": "201902", "deductibility": "1", "assets": 4571, "income": 6479, "revenue": 6479}], "MARROW": [{"ein": "113186845", "name": "SOUTH ASIAN MARROW ASSOCIATION OF RECRUITERS INC", "city": "REGO PARK", "state": "NY", "zip": "11374-2108", "ntee": "Q013", "ruling": "199505", "deductibility": "1", "assets": 0, "income": 0, "revenue": 0}, {"ein": "133674198", "name": "BONE MARROW AND CANCER FOUNDATION INC", "city": "NEW YORK", "state": "NY", "zip": "10022-5456", "ntee": "E20Z", "ruling": "199301", "deductibility": "1", "assets": 2001296, "income": 2069047, "revenue": 1612410}, {"ein": "136899030", "name": "THE ALEX MARROW CHILDRENS FUND", "city": "RYE", "state": "NY", "zip": "10580-2229", "ntee": "", "ruling": "198811", "deductibility": "1", "assets": 99570, "income": 37110, "revenue": 25536}, {"ein": "462951063", "name": "BONE MARROW REGISTRY IN NIGERIA INC", "city": "NEW YORK", "state": "NY", "zip": "10022-5456", "ntee": "E99", "ruling": "201409", "deductibility": "1", "assets": 0, "income": 0, "revenue": 0}], "COL": [{"ein": "113269332", "name": "COL HITZTACHAS INC", "city": "BROOKLYN", "state": "NY", "zip": "11211-7623", "ntee": "X30Z", "ruling": "199509", "deductibility": "1", "assets": 0, "income": 0, "revenue": 0}, {"ein": "222419851", "name": "JAMESTOWN CAMPUS OF THE JAMESTOWN COMM COL FACULTY STUDENT ASSOC INC", "city": "JAMESTOWN", "state": "NY", "zip": "14701-1920", "ntee": "", "ruling": "198212", "deductibility": "1", "assets": 2130939, "income": 2431999, "revenue": 2431999}, {"ein": "237334208", "name": "VETERANS OF FOREIGN WARS 5298 COL EDWARD O GOURDIN", "city": "LAURELTON", "state": "NY", "zip": "11413-3241", "ntee": "", "ruling": "197210", "deductibility": "1", "assets": 0, "income": 0, "revenue": 0}, {"ein": "474008376", "name": "COL FRANCIS S MIDURA POST 12144", "city": "ISLANDIA", "state": "NY", "zip": "11749-4701", "ntee": "J20", "ruling": "202210", "deductibility": "2", "assets": 0, "income": 0, "revenue": 0}, {"ein": "474052154", "name": "LT COL TODD J CLARK MEMORIAL GOLF TOURNAMENT", "city": "SCHENECTADY", "state": "NY", "zip": "12303-5640", "ntee": "P12", "ruling": "201506", "deductibility": "1", "assets": 18582, "income": 69251, "revenue": 69251}, {"ein": "475165056", "name": "COL PHILIP A BOSSERT JR EXCELLENCE IN LEADERSHIP SCHOLARSHIP LTD", "city": "MASSAPEQUA", "state": "NY", "zip": "11758-6409", "ntee": "B82", "ruling": "201603", "deductibility": "1", "assets": 0, "income": 0, "revenue": 0}], "LIAN": [{"ein": "113400594", "name": "NEW YORK HUA LIAN TSU HUI TEMPLE INC", "city": "COLLEGE POINT", "state": "NY", "zip": "11356-2522", "ntee": "X99Z", "ruling": "199804", "deductibility": "1", "assets": 0, "income": 0, "revenue": 0}, {"ein": "922451428", "name": "FJ LIAN JIANG ER ZHONG ASSOCIATION INC", "city": "NEW YORK", "state": "NY", "zip": "10005-4301", "ntee": "R01", "ruling": "202306", "deductibility": "1", "assets": 159410, "income": 144170, "revenue": 144170}], "MASHMIA": [{"ein": "113404986", "name": "GMACH MASHMIA SHALOM", "city": "BROOKLYN", "state": "NY", "zip": "11211-6191", "ntee": "X30", "ruling": "200103", "deductibility": "1", "assets": 0, "income": 0, "revenue": 0}], "SCONE": [{"ein": "113427118", "name": "SCONE FOUNDATION", "city": "COPAKE", "state": "NY", "zip": "12516-0000", "ntee": "T20Z", "ruling": "199804", "deductibility": "1", "assets": 583835, "income": 543435, "revenue": 0}], "BOBBI": [{"ein": "113444285", "name": "BOBBI AND THE STRAYS INC", "city": "GLENDALE", "state": "NY", "zip": "11385-7727", "ntee": "D200", "ruling": "199806", "deductibility": "1", "assets": 3477318, "income": 1182118, "revenue": 1182118}], "IGLECIA": [{"ein": "113454117", "name": "IGLECIA PENTECOSTAL ELOHIM CHURCH OF LONG ISLAND INC", "city": "BRENTWOOD", "state": "NY", "zip": "11717-6315", "ntee": "X21", "ruling": "199910", "deductibility": "1", "assets": 0, "income": 0, "revenue": 0}], "CYWIAK": [{"ein": "113520083", "name": "AARON AND DEBBIE CYWIAK FOUNDATION INC", "city": "BROOKLYN", "state": "NY", "zip": "11210-5145", "ntee": "T22", "ruling": "200003", "deductibility": "1", "assets": 86, "income": 1, "revenue": 0}], "TRUDY": [{"ein": "113521059", "name": "AMERICAN FRIENDS OF YAD TRUDY", "city": "MONTEBELLO", "state": "NY", "zip": "10901-4249", "ntee": "T30", "ruling": "200009", "deductibility": "1", "assets": 0, "income": 0, "revenue": 0}], "CHIN": [{"ein": "113524634", "name": "CHIN CHUEH GUNG INC", "city": "FLUSHING", "state": "NY", "zip": "11355-2213", "ntee": "X99", "ruling": "200110", "deductibility": "1", "assets": 1210859, "income": 256519, "revenue": 256519}, {"ein": "131915894", "name": "CHIN FAMILY ASSOCIATION INC", "city": "NEW YORK", "state": "NY", "zip": "10013-0000", "ntee": "W99", "ruling": "202302", "deductibility": "1", "assets": 1289358, "income": 215693, "revenue": 0}, {"ein": "133353621", "name": "SU KAI CHIN ASSOCIATION INC", "city": "NEW YORK", "state": "NY", "zip": "10013-4960", "ntee": "A23", "ruling": "200902", "deductibility": "2", "assets": 216455, "income": 8261, "revenue": 39}, {"ein": "275024715", "name": "SYRACUSE CHIN CHRISTIAN CHURCH", "city": "SYRACUSE", "state": "NY", "zip": "13219-3070", "ntee": "", "ruling": "195504", "deductibility": "1", "assets": 0, "income": 0, "revenue": 0}, {"ein": "371755445", "name": "ALBANY CHIN CHRISTIAN CHURCH", "city": "ALBANY", "state": "NY", "zip": "12209-2120", "ntee": "X21", "ruling": "201806", "deductibility": "1", "assets": 0, "income": 0, "revenue": 0}, {"ein": "472898345", "name": "ROCHESTER CHIN CHRISTIAN CHURCH", "city": "ROCHESTER", "state": "NY", "zip": "14626-1133", "ntee": "", "ruling": "195504", "deductibility": "1", "assets": 0, "income": 0, "revenue": 0}, {"ein": "813296070", "name": "BUFFALO CHIN COMMUNITY INC", "city": "BUFFALO", "state": "NY", "zip": "14217-2543", "ntee": "S20", "ruling": "201702", "deductibility": "1", "assets": 1, "income": 0, "revenue": 0}, {"ein": "813932363", "name": "CHIN FRIENDS CHINCHILLA RESCUE INC", "city": "LINDENHURST", "state": "NY", "zip": "11757-6639", "ntee": "D20", "ruling": "201701", "deductibility": "1", "assets": 0, "income": 0, "revenue": 0}, {"ein": "814356876", "name": "BUFFALO CHIN EMMANUEL CHURCH", "city": "BUFFALO", "state": "NY", "zip": "14207-1037", "ntee": "X20", "ruling": "202110", "deductibility": "1", "assets": 0, "income": 0, "revenue": 0}, {"ein": "851465166", "name": "CHIN CHRISTIAN CHURCH OF SYRACUSE", "city": "SYRACUSE", "state": "NY", "zip": "13212-4007", "ntee": "X21", "ruling": "202109", "deductibility": "1", "assets": 0, "income": 0, "revenue": 0}, {"ein": "873862000", "name": "CHIN YING FOUNDATION", "city": "SYOSSET", "state": "NY", "zip": "11791-4507", "ntee": "T20", "ruling": "202209", "deductibility": "1", "assets": 12945294, "income": 1239874, "revenue": 0}], "GERASIMOS": [{"ein": "113550707", "name": "SAINT GERASIMOS GREEK ORTHODOX CHURCH OF JAMAICA", "city": "JAMAICA", "state": "NY", "zip": "11432-0000", "ntee": "X22", "ruling": "200104", "deductibility": "1", "assets": 1, "income": 0, "revenue": 0}], "ODWYER": [{"ein": "113554836", "name": "ODWYER GARDENS TENNANTS ASSOCIATION", "city": "BROOKLYN NEW YORK", "state": "NY", "zip": "11224-1430", "ntee": "L21", "ruling": "201408", "deductibility": "1", "assets": 0, "income": 0, "revenue": 0}], "NEAL": [{"ein": "113636116", "name": "NEAL AND SUSAN BROXMEYER FAMILY FOUNDATION", "city": "UNIONDALE", "state": "NY", "zip": "11556-0000", "ntee": "T22", "ruling": "200211", "deductibility": "1", "assets": 1004394, "income": 832045, "revenue": 0}, {"ein": "266091059", "name": "NEAL AND MARLENE GOLDMAN FOUNDATION", "city": "POUND RIDGE", "state": "NY", "zip": "10576-1835", "ntee": "T20", "ruling": "200712", "deductibility": "1", "assets": 4959161, "income": 727665, "revenue": 0}, {"ein": "454617627", "name": "NEAL MILCH FAMILY CHARITABLE FOUNDATION", "city": "LIDO BEACH", "state": "NY", "zip": "11561-5106", "ntee": "T21", "ruling": "201206", "deductibility": "1", "assets": 6385, "income": 6004, "revenue": 0}, {"ein": "862070955", "name": "DANIEL NEAL & HELLER AN SHAPIRO FAMILY FOUNDATION INC", "city": "PENN YAN", "state": "NY", "zip": "14527-9070", "ntee": "T20", "ruling": "202107", "deductibility": "1", "assets": 50472, "income": 13499, "revenue": 0}, {"ein": "871540930", "name": "NEAL DOBBINS BORN 2 WIN YOUTH SCHOLARSHIP FUND INC", "city": "BUFFALO", "state": "NY", "zip": "14215-1032", "ntee": "N60", "ruling": "202109", "deductibility": "1", "assets": 0, "income": 0, "revenue": 0}, {"ein": "991825712", "name": "LARRY NEAL DOG RUN INC", "city": "NEW YORK", "state": "NY", "zip": "10032-5332", "ntee": "D20", "ruling": "202405", "deductibility": "1", "assets": 0, "income": 0, "revenue": 0}], "SQUAD": [{"ein": "116113302", "name": "HUNTINGTON COMMUNITY FIRST AID SQUAD INC", "city": "HUNTINGTN STA", "state": "NY", "zip": "11746-1231", "ntee": "M24Z", "ruling": "196809", "deductibility": "1", "assets": 6577705, "income": 2045293, "revenue": 2045293}, {"ein": "132886423", "name": "NORTH SHORE RESCUE SQUAD NO 1 INC", "city": "STATEN ISLAND", "state": "NY", "zip": "10314-0359", "ntee": "", "ruling": "197704", "deductibility": "1", "assets": 0, "income": 0, "revenue": 0}, {"ein": "133262876", "name": "OSSINING FIRE POLICE AND EMERGENCY SQUAD INC", "city": "OSSINING", "state": "NY", "zip": "10562-4609", "ntee": "M99", "ruling": "201203", "deductibility": "1", "assets": 0, "income": 0, "revenue": 0}, {"ein": "141081451", "name": "RAVENA RESCUE SQUAD INC", "city": "RAVENA", "state": "NY", "zip": "12143-0144", "ntee": "E62", "ruling": "199902", "deductibility": "1", "assets": 515078, "income": 642956, "revenue": 588444}, {"ein": "141510533", "name": "SKENESBOROUGH EMERGENCY SQUAD INC", "city": "WHITEHALL", "state": "NY", "zip": "12887-0000", "ntee": "", "ruling": "197312", "deductibility": "1", "assets": 255140, "income": 346370, "revenue": 338663}, {"ein": "141591510", "name": "ELIZABETHTOWN-LEWIS EMERGENCY SQUAD", "city": "LEWIS", "state": "NY", "zip": "12950-2401", "ntee": "M23", "ruling": "200204", "deductibility": "1", "assets": 493835, "income": 841244, "revenue": 841244}, {"ein": "141596292", "name": "GRAHAMSVILLE FIRST AID SQUAD INC", "city": "GRAHAMSVILLE", "state": "NY", "zip": "12740-0152", "ntee": "M41", "ruling": "201405", "deductibility": "1", "assets": 615208, "income": 60886, "revenue": 60886}, {"ein": "141599604", "name": "MINERVA VOL FIRE DEPT & RESCUE SQUAD INC", "city": "MINERVA", "state": "NY", "zip": "12851-0924", "ntee": "N24", "ruling": "202109", "deductibility": "1", "assets": 464018, "income": 188971, "revenue": 188971}, {"ein": "141604871", "name": "TOWN OF MORIAH AMBULANCE SQUAD", "city": "MORIAH", "state": "NY", "zip": "12960-0241", "ntee": "M23", "ruling": "201504", "deductibility": "1", "assets": 47121, "income": 289914, "revenue": 289914}, {"ein": "141616960", "name": "MOREAU EMERGENCY SQUAD INC", "city": "MOREAU", "state": "NY", "zip": "12828-2454", "ntee": "E62Z", "ruling": "198109", "deductibility": "1", "assets": 2016764, "income": 2624217, "revenue": 2624217}, {"ein": "141651526", "name": "ARGYLE EMERGENCY SQUAD INC", "city": "ARGYLE", "state": "NY", "zip": "12809-2859", "ntee": "E62", "ruling": "200405", "deductibility": "1", "assets": 71455, "income": 347446, "revenue": 347446}, {"ein": "141664911", "name": "RICHMONDVILLE VOLUNTEER EMERGENCY SQUAD INC", "city": "RICHMONDVILLE", "state": "NY", "zip": "12149-0011", "ntee": "E62Z", "ruling": "199508", "deductibility": "1", "assets": 361350, "income": 103410, "revenue": 100180}, {"ein": "141702464", "name": "MAMAKATING FIRST AID & RESCUE SQUAD", "city": "WURTSBORO", "state": "NY", "zip": "12790-0525", "ntee": "E99", "ruling": "201406", "deductibility": "1", "assets": 1192733, "income": 721235, "revenue": 721235}, {"ein": "141713916", "name": "WEST GLENS FALLS EMERGENCY SQUAD INC", "city": "QUEENSBURY", "state": "NY", "zip": "12804-3327", "ntee": "E62Z", "ruling": "198908", "deductibility": "1", "assets": 2608894, "income": 1935915, "revenue": 1935915}, {"ein": "141739107", "name": "HELDERBERG AMBULANCE SQUAD INC", "city": "EAST BERNE", "state": "NY", "zip": "12059-0054", "ntee": "E62", "ruling": "199208", "deductibility": "1", "assets": 771433, "income": 323568, "revenue": 323568}, {"ein": "141756355", "name": "BALLSTON LAKE EMERGENCY SQUAD INC", "city": "BALLSTON LAKE", "state": "NY", "zip": "12019-0005", "ntee": "E62", "ruling": "199907", "deductibility": "1", "assets": 1005003, "income": 812105, "revenue": 812105}, {"ein": "141776978", "name": "NORTH WARREN EMERGENCY SQUAD INC", "city": "CHESTERTOWN", "state": "NY", "zip": "12817-3113", "ntee": "E62Z", "ruling": "199507", "deductibility": "1", "assets": 1020642, "income": 984625, "revenue": 984625}, {"ein": "141816469", "name": "LONG LAKE RESCUE SQUAD INC", "city": "LONG LAKE", "state": "NY", "zip": "12847-0415", "ntee": "M20", "ruling": "200011", "deductibility": "1", "assets": 169498, "income": 144805, "revenue": 144805}, {"ein": "141820476", "name": "CONESVILLE RESCUE SQUAD", "city": "GILBOA", "state": "NY", "zip": "12076-2819", "ntee": "E62", "ruling": "202409", "deductibility": "1", "assets": 0, "income": 0, "revenue": 0}, {"ein": "141821747", "name": "JOHNSBURG EMERGENCY SQUAD INC", "city": "NORTH CREEK", "state": "NY", "zip": "12853-1911", "ntee": "M23", "ruling": "200006", "deductibility": "1", "assets": 1173077, "income": 1486971, "revenue": 1486971}, {"ein": "146028159", "name": "GREENPORT RESCUE SQUAD INC", "city": "HUDSON", "state": "NY", "zip": "12534-4040", "ntee": "E62Z", "ruling": "196802", "deductibility": "1", "assets": 2183602, "income": 2822632, "revenue": 2822632}, {"ein": "146029267", "name": "CHATHAM RESCUE SQUAD INC", "city": "GHENT", "state": "NY", "zip": "12075-0587", "ntee": "E620", "ruling": "196810", "deductibility": "1", "assets": 1526820, "income": 2028903, "revenue": 2028903}, {"ein": "146029986", "name": "FORT EDWARD RESCUE SQUAD INC", "city": "FORT EDWARD", "state": "NY", "zip": "12828-0226", "ntee": "E62Z", "ruling": "195801", "deductibility": "1", "assets": 1659169, "income": 1079634, "revenue": 1079634}, {"ein": "146036777", "name": "ALTAMONT RESCUE SQUAD INC", "city": "ALTAMONT", "state": "NY", "zip": "12009-0056", "ntee": "", "ruling": "196611", "deductibility": "1", "assets": 440594, "income": 104101, "revenue": 104101}, {"ein": "146038527", "name": "GRANVILLE RESCUE SQUAD INC", "city": "GRANVILLE", "state": "NY", "zip": "12832-0153", "ntee": "E62Z", "ruling": "196802", "deductibility": "1", "assets": 1960567, "income": 1293501, "revenue": 1293426}, {"ein": "146039822", "name": "FORT ANN RESCUE SQUAD INC", "city": "FORT ANN", "state": "NY", "zip": "12827-0237", "ntee": "M24", "ruling": "201112", "deductibility": "1", "assets": 455066, "income": 1299975, "revenue": 1299975}, {"ein": "146084094", "name": "WF BRUEN EMERGENCY SQUAD INC", "city": "RENSSELAER", "state": "NY", "zip": "12144-5503", "ntee": "E62", "ruling": "201808", "deductibility": "1", "assets": 893012, "income": 1860168, "revenue": 1860168}, {"ein": "156019363", "name": "OGDENSBURG VOLUNTEER RESQUE SQUAD INC", "city": "OGDENSBURG", "state": "NY", "zip": "13669-3336", "ntee": "E62Z", "ruling": "196603", "deductibility": "1", "assets": 3177848, "income": 2033781, "revenue": 2033781}, {"ein": "160974921", "name": "CARTHAGE AREA RESCUE SQUAD INC", "city": "CARTHAGE", "state": "NY", "zip": "13619-1232", "ntee": "P80Z", "ruling": "199806", "deductibility": "1", "assets": 1041574, "income": 1494364, "revenue": 1488197}, {"ein": "161004252", "name": "UNION VOLUNTEER EMERGENCY SQUAD INC", "city": "ENDWELL", "state": "NY", "zip": "13760-5714", "ntee": "E620", "ruling": "197708", "deductibility": "1", "assets": 2279663, "income": 5551914, "revenue": 5530615}, {"ein": "161063263", "name": "SPENCER EMERGENCY FIRST AID SQUAD INC", "city": "SPENCER", "state": "NY", "zip": "14883-9548", "ntee": "", "ruling": "198106", "deductibility": "2", "assets": 259061, "income": 107761, "revenue": 107761}, {"ein": "161106258", "name": "BROOME VOLUNTEER EMERGENCY SQUAD INC", "city": "BINGHAMTON", "state": "NY", "zip": "13901-3602", "ntee": "E62Z", "ruling": "198106", "deductibility": "1", "assets": 1048030, "income": 1978720, "revenue": 1978720}, {"ein": "161128692", "name": "TRI-TOWN VOLUNTEER RESCUE SQUAD INC", "city": "BRASHER FALLS", "state": "NY", "zip": "13613-0238", "ntee": "", "ruling": "198002", "deductibility": "1", "assets": 729755, "income": 397609, "revenue": 397609}, {"ein": "161283443", "name": "MADRID RESCUE SQUAD INC", "city": "MADRID", "state": "NY", "zip": "13660-0129", "ntee": "X21", "ruling": "201311", "deductibility": "1", "assets": 268379, "income": 92616, "revenue": 92616}, {"ein": "161319507", "name": "CANDOR EMERGENCY SQUAD INC", "city": "CANDOR", "state": "NY", "zip": "13743-0000", "ntee": "E62Z", "ruling": "198811", "deductibility": "1", "assets": 678838, "income": 963411, "revenue": 963411}, {"ein": "161361231", "name": "EDEN EMERGENCY SQUAD INC", "city": "EDEN", "state": "NY", "zip": "14057-1280", "ntee": "E62", "ruling": "201101", "deductibility": "1", "assets": 165273, "income": 369673, "revenue": 351770}, {"ein": "161372836", "name": "WADDINGTON RESCUE SQUAD INC", "city": "WADDINGTON", "state": "NY", "zip": "13694-0331", "ntee": "M23", "ruling": "200308", "deductibility": "1", "assets": 676266, "income": 132775, "revenue": 132775}, {"ein": "161417973", "name": "VESTAL VOLUNTEER EMERGENCY SQUAD INC", "city": "VESTAL", "state": "NY", "zip": "13850-1632", "ntee": "T22Z", "ruling": "199307", "deductibility": "1", "assets": 1498561, "income": 1697839, "revenue": 1589941}, {"ein": "161464543", "name": "ONTARIO VOLUNTEER EMERGENCY SQUAD", "city": "ONTARIO", "state": "NY", "zip": "14519-0444", "ntee": "M24Z", "ruling": "199811", "deductibility": "1", "assets": 462746, "income": 618495, "revenue": 618495}, {"ein": "161472265", "name": "NORTH SHORE VOLUNTEER EMERGENCY SQUAD INC", "city": "CLEVELAND", "state": "NY", "zip": "13042-3144", "ntee": "E62Z", "ruling": "199504", "deductibility": "1", "assets": 484311, "income": 543145, "revenue": 498281}, {"ein": "161539135", "name": "MERIDALE FIRE DEPOT & EMERGENCY SQUAD INC", "city": "MERIDALE", "state": "NY", "zip": "13806-0104", "ntee": "M24", "ruling": "199806", "deductibility": "1", "assets": 292038, "income": 41392, "revenue": 28979}, {"ein": "166051465", "name": "POTSDAM VOLUNTEER RESCUE SQUAD INC", "city": "POTSDAM", "state": "NY", "zip": "13676-0700", "ntee": "M23", "ruling": "200403", "deductibility": "1", "assets": 3484287, "income": 1164839, "revenue": 1164839}, {"ein": "166058411", "name": "AFTON HOSE CO EMERGENCY SQUAD", "city": "AFTON", "state": "NY", "zip": "13730-3166", "ntee": "", "ruling": "195707", "deductibility": "1", "assets": 0, "income": 0, "revenue": 0}, {"ein": "166085063", "name": "BOSTON EMERGENCY SQUAD INC", "city": "BOSTON", "state": "NY", "zip": "14025-0092", "ntee": "", "ruling": "196901", "deductibility": "1", "assets": 515656, "income": 472565, "revenue": 472565}, {"ein": "200141750", "name": "CANTON RESCUE SQUAD INC", "city": "CANTON", "state": "NY", "zip": "13617-1022", "ntee": "M23", "ruling": "200411", "deductibility": "1", "assets": 2205816, "income": 2177235, "revenue": 2168738}, {"ein": "201448837", "name": "GREENE EMERGENCY SQUAD INC", "city": "GREENE", "state": "NY", "zip": "13778-1050", "ntee": "E62", "ruling": "200411", "deductibility": "1", "assets": 757815, "income": 1075560, "revenue": 1075560}, {"ein": "222146026", "name": "NORTH COLLINS EMERGENCY SQUAD INC", "city": "NORTH COLLINS", "state": "NY", "zip": "14111-0477", "ntee": "M23", "ruling": "201809", "deductibility": "1", "assets": 473087, "income": 121419, "revenue": 121419}, {"ein": "222156213", "name": "FOUR TOWN FIRST AID SQUAD INC", "city": "MORAVIA", "state": "NY", "zip": "13118-0028", "ntee": "", "ruling": "197708", "deductibility": "1", "assets": 1712760, "income": 998997, "revenue": 973185}, {"ein": "222255011", "name": "CAMBRIDGE VALLEY RESCUE SQUAD INCORPORATED", "city": "CAMBRIDGE", "state": "NY", "zip": "12816-2618", "ntee": "M24Z", "ruling": "197907", "deductibility": "1", "assets": 823813, "income": 1343409, "revenue": 1343409}, {"ein": "222258305", "name": "INDEPENDENCE EMERGENCY SQUAD INC", "city": "WHITESVILLE", "state": "NY", "zip": "14897-0000", "ntee": "H11", "ruling": "201905", "deductibility": "1", "assets": 247574, "income": 56738, "revenue": 56738}, {"ein": "222328476", "name": "THE SALEM RESCUE SQUAD INCORPORATED", "city": "SALEM", "state": "NY", "zip": "12865-0000", "ntee": "M23", "ruling": "200903", "deductibility": "1", "assets": 805928, "income": 382911, "revenue": 382911}, {"ein": "222337602", "name": "WATERFORD RESCUE SQUAD INC", "city": "WATERFORD", "state": "NY", "zip": "12188-0249", "ntee": "E62Z", "ruling": "198103", "deductibility": "1", "assets": 525698, "income": 899518, "revenue": 899518}, {"ein": "222412252", "name": "NORFOLK VOLUNTEER RESCUE SQUAD INC", "city": "NORFOLK", "state": "NY", "zip": "13667-0519", "ntee": "E62", "ruling": "198209", "deductibility": "1", "assets": 392267, "income": 136406, "revenue": 136406}, {"ein": "222462656", "name": "EVANS MILLS VOLUNTEER AMBULANCE SQUAD INCORPORATED", "city": "EVANS MILLS", "state": "NY", "zip": "13637-3231", "ntee": "E62Z", "ruling": "198310", "deductibility": "1", "assets": 273697, "income": 456440, "revenue": 456440}, {"ein": "222467792", "name": "TOWN OF ESOPUS VOLUNTEER AMBULANCE SQUAD INC", "city": "PORT EWEN", "state": "NY", "zip": "12466-0910", "ntee": "E63Z", "ruling": "198412", "deductibility": "1", "assets": 759461, "income": 316777, "revenue": 316777}, {"ein": "222473412", "name": "HOOSIC VALLEY RESCUE SQUAD", "city": "SCHAGHTICOKE", "state": "NY", "zip": "12154-0000", "ntee": "M23", "ruling": "201503", "deductibility": "1", "assets": 1227038, "income": 1330007, "revenue": 1330007}, {"ein": "222490429", "name": "WILTON EMERGENCY SQUAD INC", "city": "SARATOGA SPGS", "state": "NY", "zip": "12866-5723", "ntee": "E62Z", "ruling": "198608", "deductibility": "1", "assets": 4297709, "income": 3116930, "revenue": 3116930}, {"ein": "222514316", "name": "CANANDAIGUA EMERGENCY SQUAD INC", "city": "CANANDAIGUA", "state": "NY", "zip": "14424-1439", "ntee": "E62Z", "ruling": "198904", "deductibility": "1", "assets": 7234814, "income": 4340837, "revenue": 4287422}, {"ein": "222552733", "name": "ELLENVILLE FIRST AID & RESCUE SQUAD INC", "city": "ELLENVILLE", "state": "NY", "zip": "12428-1109", "ntee": "E62Z", "ruling": "198504", "deductibility": "1", "assets": 1203951, "income": 817530, "revenue": 817530}, {"ein": "237029091", "name": "TOWN OF HOOSICK RESCUE SQUAD INC", "city": "HOOSICK FALLS", "state": "NY", "zip": "12090-1803", "ntee": "E62Z", "ruling": "196908", "deductibility": "1", "assets": 497703, "income": 594051, "revenue": 594051}, {"ein": "237042451", "name": "TUPPER LAKE VOLUNTEER AMBULANCE & EMERGENCY SQUAD INC", "city": "TUPPER LAKE", "state": "NY", "zip": "12986-0901", "ntee": "E62Z", "ruling": "196911", "deductibility": "1", "assets": 1946884, "income": 539949, "revenue": 539949}, {"ein": "237098163", "name": "SOUTH JEFFERSON RESCUE SQUAD INC", "city": "ADAMS", "state": "NY", "zip": "13605-0126", "ntee": "E620", "ruling": "197806", "deductibility": "1", "assets": 1030935, "income": 754476, "revenue": 748249}, {"ein": "237104231", "name": "EASTON-GREENWICH RESCUE SQUAD INC", "city": "GREENWICH", "state": "NY", "zip": "12834-0084", "ntee": "E62Z", "ruling": "197207", "deductibility": "1", "assets": 644921, "income": 354655, "revenue": 354655}, {"ein": "237181635", "name": "VALATIE VOLUNTEER RESCUE SQUAD INC", "city": "VALATIE", "state": "NY", "zip": "12184-0242", "ntee": "E63Z", "ruling": "197206", "deductibility": "1", "assets": 1198173, "income": 3394437, "revenue": 3325691}, {"ein": "237211780", "name": "TICONDEROGA EMERGENCY SQUAD INC", "city": "TICONDEROGA", "state": "NY", "zip": "12883-1301", "ntee": "E63Z", "ruling": "197206", "deductibility": "1", "assets": 2314937, "income": 692169, "revenue": 692169}, {"ein": "237261243", "name": "NEW PALTZ RESCUE SQUAD INC", "city": "NEW PALTZ", "state": "NY", "zip": "12561-3405", "ntee": "E62", "ruling": "199505", "deductibility": "1", "assets": 957040, "income": 2059016, "revenue": 2008821}, {"ein": "237262545", "name": "KERHONKSON ACCORD FIRST AID SQUAD INC", "city": "KERHONKSON", "state": "NY", "zip": "12446-0000", "ntee": "E62Z", "ruling": "197302", "deductibility": "1", "assets": 1056704, "income": 615679, "revenue": 615679}, {"ein": "237366208", "name": "GREENVILLE RESCUE SQUAD INC", "city": "GREENVILLE", "state": "NY", "zip": "12083-0000", "ntee": "", "ruling": "200602", "deductibility": "1", "assets": 662920, "income": 916400, "revenue": 916400}, {"ein": "272310026", "name": "SARANAC LAKE VOLUNTEER RESCUE SQUAD INC", "city": "SARANAC LAKE", "state": "NY", "zip": "12983-1447", "ntee": "M23", "ruling": "201104", "deductibility": "1", "assets": 1488734, "income": 1707827, "revenue": 1707827}, {"ein": "272416150", "name": "BIRTHDAY SQUAD OF BUFFALO INC", "city": "EAST AMHERST", "state": "NY", "zip": "14051-0805", "ntee": "O50", "ruling": "201012", "deductibility": "1", "assets": 60956, "income": 59059, "revenue": 59059}, {"ein": "272856469", "name": "RENSSELAER FALLS VOLUNTEER RESCUE SQUAD", "city": "RENSSLAER FLS", "state": "NY", "zip": "13680-0164", "ntee": "E62", "ruling": "201202", "deductibility": "1", "assets": 1, "income": 0, "revenue": 0}, {"ein": "274536765", "name": "COVENTRY EMERGENCY SQUAD INC", "city": "GREENE", "state": "NY", "zip": "13778-0646", "ntee": "M23", "ruling": "201105", "deductibility": "1", "assets": 84656, "income": 107909, "revenue": 107909}, {"ein": "311682086", "name": "THE EDINBURG EMERGENCY SQUAD INC", "city": "NORTHVILLE", "state": "NY", "zip": "12134-0904", "ntee": "M23", "ruling": "199912", "deductibility": "1", "assets": 363292, "income": 73448, "revenue": 73448}, {"ein": "320042154", "name": "MAINE EMERGENCY SQUAD INC", "city": "MAINE", "state": "NY", "zip": "13802-0194", "ntee": "M41", "ruling": "200302", "deductibility": "1", "assets": 3915613, "income": 3338283, "revenue": 3338283}, {"ein": "452573084", "name": "COBLESKILL RESCUE SQUAD INC", "city": "COBLESKILL", "state": "NY", "zip": "12043-0451", "ntee": "M23", "ruling": "201108", "deductibility": "1", "assets": 0, "income": 0, "revenue": 0}, {"ein": "455619724", "name": "RAQUETTE LAKE VOLUNTEER AMBULANCE SQUAD INC", "city": "RAQUETTE LAKE", "state": "NY", "zip": "13436-0125", "ntee": "E62", "ruling": "201903", "deductibility": "1", "assets": 0, "income": 0, "revenue": 0}, {"ein": "461940249", "name": "NORTH FORK VOLUNTEER RESCUE SQUAD ASSOCIATION INC", "city": "SOUTHOLD", "state": "NY", "zip": "11971-0944", "ntee": "E62", "ruling": "201304", "deductibility": "1", "assets": 0, "income": 0, "revenue": 0}, {"ein": "473111159", "name": "EMERGENCY SQUAD NO 1 OF SIDNEY FIRE DEPT OF THE VILLAGE OF SIDNEY INC", "city": "SIDNEY", "state": "NY", "zip": "13838-1015", "ntee": "M41", "ruling": "201609", "deductibility": "1", "assets": 1182857, "income": 1708483, "revenue": 1708483}, {"ein": "510185978", "name": "BLACK RIVER AMBULANCE SQUAD INC", "city": "BLACK RIVER", "state": "NY", "zip": "13612-0314", "ntee": "E620", "ruling": "197604", "deductibility": "1", "assets": 584788, "income": 164365, "revenue": 161393}, {"ein": "510189561", "name": "LAKE GEORGE POST NO 374 AMERICAN LEGION EMERGENCY SQUAD INC", "city": "LAKE GEORGE", "state": "NY", "zip": "12845-6130", "ntee": "M23", "ruling": "201105", "deductibility": "1", "assets": 130456, "income": 1560, "revenue": 1560}, {"ein": "510191816", "name": "WOODSTOCK FIRE COMPANY NO 5 EMERGENCY RESCUE SQUAD INC", "city": "WOODSTOCK", "state": "NY", "zip": "12498-0222", "ntee": "M24Z", "ruling": "197604", "deductibility": "1", "assets": 645199, "income": 122251, "revenue": 122251}, {"ein": "510196768", "name": "PETERSBURGH RESCUE AMBULANCE SQUAD INC", "city": "PETERSBURGH", "state": "NY", "zip": "12138-0164", "ntee": "E62", "ruling": "200311", "deductibility": "1", "assets": 398415, "income": 89727, "revenue": 89727}, {"ein": "562401320", "name": "HARRISVILLE RESCUE SQUAD", "city": "HARRISVILLE", "state": "NY", "zip": "13648-2210", "ntee": "M23", "ruling": "201704", "deductibility": "1", "assets": 271259, "income": 74839, "revenue": 74839}, {"ein": "813693390", "name": "PUG SQUAD INC", "city": "HUNTINGTON STATION", "state": "NY", "zip": "11746-4149", "ntee": "D20", "ruling": "201609", "deductibility": "1", "assets": 23343, "income": 64325, "revenue": 64325}, {"ein": "814220914", "name": "GODS ANOINTED SQUAD INC", "city": "NEW YORK CITY", "state": "NY", "zip": "10026-0684", "ntee": "A6C", "ruling": "202106", "deductibility": "1", "assets": 0, "income": 0, "revenue": 0}, {"ein": "821717296", "name": "CAPE VINCENT AMBULANCE SQUAD INC", "city": "CAPE VINCENT", "state": "NY", "zip": "13618-0000", "ntee": "E62", "ruling": "201808", "deductibility": "1", "assets": 952585, "income": 854035, "revenue": 854035}, {"ein": "823097387", "name": "SCHROON LAKE EMERGENCY SQUAD INC", "city": "SCHROON LAKE", "state": "NY", "zip": "12870-0774", "ntee": "E62", "ruling": "201905", "deductibility": "1", "assets": 1118940, "income": 736194, "revenue": 736194}, {"ein": "824326832", "name": "BOMB SQUAD ACADEMY CENTER", "city": "BUFFALO", "state": "NY", "zip": "14214-2520", "ntee": "O50", "ruling": "201804", "deductibility": "1", "assets": 0, "income": 0, "revenue": 0}, {"ein": "831519429", "name": "OWEGO EMERGENCY SQUAD INC", "city": "OWEGO", "state": "NY", "zip": "13827-0022", "ntee": "E60", "ruling": "201903", "deductibility": "1", "assets": 85528, "income": 40505, "revenue": 40505}, {"ein": "850885262", "name": "LIVONIA AMBULANCE SQUAD INC", "city": "LIVONIA", "state": "NY", "zip": "14487-0008", "ntee": "E62", "ruling": "202102", "deductibility": "1", "assets": 0, "income": 0, "revenue": 0}, {"ein": "881300584", "name": "HARTWICK FIRE DEPARTMENT EMERGENCY SQUAD INC", "city": "HARTWICK", "state": "NY", "zip": "13348-0208", "ntee": "E62", "ruling": "202204", "deductibility": "1", "assets": 0, "income": 0, "revenue": 0}, {"ein": "881306251", "name": "PAWSOME SQUAD INC", "city": "NEW YORK", "state": "NY", "zip": "10028-3300", "ntee": "D20", "ruling": "202204", "deductibility": "1", "assets": 0, "income": 0, "revenue": 0}, {"ein": "920258746", "name": "SUMMIT SQUAD", "city": "NEW YORK", "state": "NY", "zip": "10011-2305", "ntee": "N99", "ruling": "202304", "deductibility": "1", "assets": 0, "income": 0, "revenue": 0}, {"ein": "923090235", "name": "SOLVER SQUAD INC", "city": "NEW YORK", "state": "NY", "zip": "10001-5404", "ntee": "S02", "ruling": "202308", "deductibility": "1", "assets": 0, "income": 0, "revenue": 0}, {"ein": "932280516", "name": "WILLISTON PARK FIRE DEPARTMENT EMERGENCY RESCUE SQUAD INC", "city": "WILLISTON PK", "state": "NY", "zip": "11596-2231", "ntee": "M24", "ruling": "202308", "deductibility": "1", "assets": 0, "income": 0, "revenue": 0}, {"ein": "932793175", "name": "BUFFALO BOMB SQUAD SPORTS INC", "city": "WILLIAMSVILLE", "state": "NY", "zip": "14221-5381", "ntee": "N63", "ruling": "202310", "deductibility": "1", "assets": 0, "income": 0, "revenue": 0}, {"ein": "933079902", "name": "SILVER CREEK EMERGENCY VOLUNTEER SQUAD INC", "city": "SILVER CREEK", "state": "NY", "zip": "14136-1338", "ntee": "E62", "ruling": "202311", "deductibility": "1", "assets": 0, "income": 0, "revenue": 0}, {"ein": "934277486", "name": "MAGICAL MUSICAL SQUAD ADVISORY BOARD", "city": "SYRACUSE", "state": "NY", "zip": "13210-1736", "ntee": "A60", "ruling": "202312", "deductibility": "1", "assets": 0, "income": 0, "revenue": 0}, {"ein": "990488289", "name": "SQUAD WILLIAMS FOUNDATION INC", "city": "BALDWIN", "state": "NY", "zip": "11510-0767", "ntee": "O99", "ruling": "202403", "deductibility": "1", "assets": 50, "income": 2536, "revenue": 2536}, {"ein": "991674725", "name": "BASKETBALL MOMS SQUAD INC", "city": "BROOKLYN", "state": "NY", "zip": "11234-2505", "ntee": "N99", "ruling": "202403", "deductibility": "1", "assets": 0, "income": 0, "revenue": 0}, {"ein": "992482931", "name": "BAYMEN CHEER SQUAD", "city": "OYSTER BAY", "state": "NY", "zip": "11771-0702", "ntee": "O12", "ruling": "202404", "deductibility": "1", "assets": 0, "income": 0, "revenue": 0}, {"ein": "993724261", "name": "MOUNTAINDALE FIRE DEPARTMENT AND FIRST AID SQUAD INC", "city": "MOUNTAINDALE", "state": "NY", "zip": "12763-0202", "ntee": "M24", "ruling": "202407", "deductibility": "1", "assets": 0, "income": 0, "revenue": 0}], "WOOLMARK": [{"ein": "131589984", "name": "WOOLMARK AMERICAS INC", "city": "NEW YORK", "state": "NY", "zip": "10013-2993", "ntee": "", "ruling": "195006", "deductibility": "2", "assets": 60308, "income": 2838349, "revenue": 2838349}], "AMALGAMETED": [{"ein": "131805529", "name": "SICK BENEFIT FUND OF LOCAL 223 AMALGAMETED INDUSTRIAL & TOY", "city": "VALLEY STREAM", "state": "NY", "zip": "11580-5222", "ntee": "", "ruling": "195810", "deductibility": "2", "assets": 21782162, "income": 30831106, "revenue": 11232125}], "BAG": [{"ein": "131972960", "name": "THE PAPER BAG PLAYERS INC", "city": "NEW YORK", "state": "NY", "zip": "10036-6700", "ntee": "A650", "ruling": "196207", "deductibility": "1", "assets": 37528, "income": 336631, "revenue": 336631}, {"ein": "550820973", "name": "SMILE IN A BAG INC", "city": "SYOSSET", "state": "NY", "zip": "11791-5015", "ntee": "P58", "ruling": "200307", "deductibility": "1", "assets": 7183, "income": 2348, "revenue": 0}, {"ein": "842502503", "name": "GRAD BAG INC", "city": "SCARSDALE", "state": "NY", "zip": "10583-0605", "ntee": "B01", "ruling": "202001", "deductibility": "1", "assets": 292358, "income": 182205, "revenue": 182205}], "REED": [{"ein": "131990017", "name": "REED FOUNDATION INC", "city": "NEW YORK", "state": "NY", "zip": "10110-4899", "ntee": "T20", "ruling": "195109", "deductibility": "1", "assets": 13941316, "income": 19910682, "revenue": 0}, {"ein": "133036536", "name": "PETER S REED FOUNDATION INC", "city": "NEW YORK", "state": "NY", "zip": "10013-1761", "ntee": "T20Z", "ruling": "198009", "deductibility": "1", "assets": 1385158, "income": 574769, "revenue": 0}, {"ein": "133953195", "name": "KURTIS & MARY REED FOUNDATION", "city": "NEW YORK", "state": "NY", "zip": "10013-2362", "ntee": "T60Z", "ruling": "199707", "deductibility": "1", "assets": 73467, "income": 22561, "revenue": 0}, {"ein": "137219392", "name": "THE@JOHN S AND CYNTHIA REED FOUNDATION", "city": "NEW YORK", "state": "NY", "zip": "10036-0000", "ntee": "T22", "ruling": "200008", "deductibility": "1", "assets": 1501885, "income": 950239, "revenue": 0}, {"ein": "166031485", "name": "EMMA REED WEBSTER AID ASSOCIATION INC", "city": "HOLLEY", "state": "NY", "zip": "14470-1115", "ntee": "", "ruling": "194606", "deductibility": "1", "assets": 887694, "income": 863519, "revenue": 0}, {"ein": "166033802", "name": "REED CORNERS FEDERATED CH", "city": "CANANDAIGUA", "state": "NY", "zip": "14424-9559", "ntee": "", "ruling": "195504", "deductibility": "1", "assets": 0, "income": 0, "revenue": 0}, {"ein": "883305043", "name": "RALLY FOR REED FOUNDATION INC", "city": "STATEN ISLAND", "state": "NY", "zip": "10314-4620", "ntee": "H12", "ruling": "202303", "deductibility": "1", "assets": 6583, "income": 11700, "revenue": 11700}], "VOCATIONS": [{"ein": "133116740", "name": "TTEE FD FOR THE BLIND OF VOCATIONS & COMMUNITY SERVICES FOR THE BLIND", "city": "NEW YORK", "state": "NY", "zip": "10013-2362", "ntee": "", "ruling": "198210", "deductibility": "0", "assets": 191670, "income": 57207, "revenue": 0}, {"ein": "852248102", "name": "MARY MOTHER OF VOCATIONS MINISTRY INC", "city": "BUFFALO", "state": "NY", "zip": "14209-1800", "ntee": "", "ruling": "202108", "deductibility": "1", "assets": 0, "income": 0, "revenue": 0}], "EMELIN": [{"ein": "133601485", "name": "EMELIN THEATRE FOR THE PERFORMING ARTS INC", "city": "MAMARONECK", "state": "NY", "zip": "10543-3637", "ntee": "A610", "ruling": "199108", "deductibility": "1", "assets": 1740883, "income": 1566388, "revenue": 1566388}], "PARADMEDIC": [{"ein": "133640513", "name": "ROCKLAND PARADMEDIC SERVICES INC", "city": "CHESTNUT RDG", "state": "NY", "zip": "10977-5646", "ntee": "S41", "ruling": "199603", "deductibility": "1", "assets": 6985158, "income": 11629652, "revenue": 10542883}], "HELLER": [{"ein": "133792292", "name": "STEVEN M AND ANITA C HELLER FAMILY FOUNDATION", "city": "NEW YORK", "state": "NY", "zip": "10017-0000", "ntee": "", "ruling": "000000", "deductibility": "1", "assets": 704177, "income": 2292506, "revenue": 0}, {"ein": "133936476", "name": "THE HERMINE AND DAVID HELLER FOUNDATION", "city": "NEW YORK", "state": "NY", "zip": "10274-0073", "ntee": "T20Z", "ruling": "199709", "deductibility": "1", "assets": 26774241, "income": 6739972, "revenue": 0}, {"ein": "137120572", "name": "HELLER FAM CHARITABLE FOUNDATION", "city": "NEW ROCHELLE", "state": "NY", "zip": "10804-3812", "ntee": "T90Z", "ruling": "199805", "deductibility": "1", "assets": 160028, "income": 65513, "revenue": 0}, {"ein": "137204248", "name": "HELLER FAM FOUNDATION TR", "city": "HARRISON", "state": "NY", "zip": "10528-1648", "ntee": "T21", "ruling": "199908", "deductibility": "1", "assets": 257133, "income": 108964, "revenue": 0}, {"ein": "202055940", "name": "HELLER FAMILY FOUNDATION", "city": "BROOKLYN", "state": "NY", "zip": "11219-6475", "ntee": "T20", "ruling": "200512", "deductibility": "1", "assets": 1075088, "income": 603740, "revenue": 0}, {"ein": "237003624", "name": "J W HELLER FOUNDATION", "city": "NEW YORK", "state": "NY", "zip": "10038-5114", "ntee": "", "ruling": "197108", "deductibility": "1", "assets": 2899817, "income": 509260, "revenue": 0}, {"ein": "810691564", "name": "JEANINE HELLER FOUNDATION INC", "city": "W HEMPSTEAD", "state": "NY", "zip": "11552-1510", "ntee": "T22", "ruling": "201710", "deductibility": "1", "assets": 23085615, "income": 13982785, "revenue": 0}, {"ein": "862070955", "name": "DANIEL NEAL & HELLER AN SHAPIRO FAMILY FOUNDATION INC", "city": "PENN YAN", "state": "NY", "zip": "14527-9070", "ntee": "T20", "ruling": "202107", "deductibility": "1", "assets": 50472, "income": 13499, "revenue": 0}], "ROE": [{"ein": "133840700", "name": "ROE FOUNDATION INC", "city": "NEW YORK", "state": "NY", "zip": "10022-6817", "ntee": "T60Z", "ruling": "199608", "deductibility": "1", "assets": 4168458, "income": 1328866, "revenue": 0}, {"ein": "141613558", "name": "ROE-JAN CREEK BOAT CLUB", "city": "GERMANTOWN", "state": "NY", "zip": "12526-0144", "ntee": "N50", "ruling": "202006", "deductibility": "2", "assets": 0, "income": 0, "revenue": 0}, {"ein": "526412220", "name": "NANCY ROE TRUST UA FBO JOSEPHINE", "city": "BUFFALO", "state": "NY", "zip": "14240-1504", "ntee": "T90", "ruling": "200805", "deductibility": "1", "assets": 1503920, "income": 517863, "revenue": 0}, {"ein": "832393115", "name": "ROE JAN WATERSHED COMMUNITY INC", "city": "GERMANTOWN", "state": "NY", "zip": "12526-5106", "ntee": "C32", "ruling": "201909", "deductibility": "1", "assets": 0, "income": 0, "revenue": 0}, {"ein": "832782300", "name": "ROE JAN FOOD PANTRY INC", "city": "HILLSDALE", "state": "NY", "zip": "12529-0475", "ntee": "K31", "ruling": "201906", "deductibility": "1", "assets": 219302, "income": 43757, "revenue": 43757}], "JEANETTE": [{"ein": "133865179", "name": "HARRY AND JEANETTE WEINBERG GARDENS HOUSING DEVELOPMENT FUND CO INC", "city": "NEW YORK", "state": "NY", "zip": "10025-3923", "ntee": "L200", "ruling": "199603", "deductibility": "1", "assets": 4942689, "income": 960055, "revenue": 960055}, {"ein": "136161715", "name": "MORRIS & JEANETTE KESSEL FUND", "city": "NEW YORK", "state": "NY", "zip": "10023-7164", "ntee": "", "ruling": "195510", "deductibility": "1", "assets": 407242, "income": 327476, "revenue": 0}, {"ein": "146105337", "name": "JEANETTE ODASZ TRUST UW SCHENECTADY TRUST CO TR", "city": "ALBANY", "state": "NY", "zip": "12205-5941", "ntee": "", "ruling": "197906", "deductibility": "1", "assets": 110317, "income": 15864, "revenue": 0}, {"ein": "204981328", "name": "HARRY AND JEANETTE WEINBERG GARDENS HOUSING DEVELOPMENT FUND COMPANY I", "city": "NEW YORK", "state": "NY", "zip": "10025-3923", "ntee": "L22", "ruling": "200608", "deductibility": "1", "assets": 17149304, "income": 1638961, "revenue": 1638961}, {"ein": "237071900", "name": "JEWISH HOME LIFECARE HARRY AND JEANETTE WEINBERG CAMPUS BRONX", "city": "BRONX", "state": "NY", "zip": "10468-3961", "ntee": "E91", "ruling": "197006", "deductibility": "1", "assets": 5972614, "income": 845017, "revenue": 845017}, {"ein": "463067800", "name": "PIERCE & JEANETTE SAMUELS CHARITABLE FOUNDATION INC", "city": "HOUGHTON", "state": "NY", "zip": "14744-8719", "ntee": "T22", "ruling": "201505", "deductibility": "1", "assets": 829645, "income": 47097, "revenue": 0}], "LADYCLIFF": [{"ein": "133873138", "name": "LADYCLIFF COLLEGE ALUMNAE ASSOCIATION INC", "city": "TARRYTOWN", "state": "NY", "zip": "10591-3023", "ntee": "", "ruling": "194603", "deductibility": "1", "assets": 0, "income": 0, "revenue": 0}], "HAKIM": [{"ein": "133911530", "name": "HAKIM FAMILY FOUNDATION INC", "city": "NEW YORK", "state": "NY", "zip": "10019-3407", "ntee": "T31J", "ruling": "199702", "deductibility": "1", "assets": 1847635, "income": 306159, "revenue": 0}], "AHBA": [{"ein": "133997367", "name": "AHBA INC", "city": "NEW YORK", "state": "NY", "zip": "10022-6131", "ntee": "T30", "ruling": "199811", "deductibility": "1", "assets": 41628108, "income": 1497338, "revenue": 0}], "TIDE": [{"ein": "134010797", "name": "RED TIDE N Y C INC", "city": "NEW YORK", "state": "NY", "zip": "10025-7475", "ntee": "N67", "ruling": "199910", "deductibility": "1", "assets": 51353, "income": 162285, "revenue": 162285}, {"ein": "331945742", "name": "RISING TIDE HABILITATION SERVICES INC", "city": "SMITHTOWN", "state": "NY", "zip": "11787-5005", "ntee": "L41", "ruling": "202412", "deductibility": "1", "assets": 0, "income": 0, "revenue": 0}, {"ein": "462044555", "name": "VAN WYCK-LEFFERTS TIDE MILL SANCTUARY INC", "city": "HUNTINGTON", "state": "NY", "zip": "11743-0747", "ntee": "C32", "ruling": "201312", "deductibility": "1", "assets": 196490, "income": 66739, "revenue": 66739}, {"ein": "611712474", "name": "ISRAEL EXPERIENCE TIDE INC", "city": "SUFFERN", "state": "NY", "zip": "10901-4180", "ntee": "B99", "ruling": "201408", "deductibility": "1", "assets": 1118234, "income": 3586959, "revenue": 3586959}, {"ein": "812056470", "name": "RISING TIDE CONSERVATION FUND", "city": "FORT PLAIN", "state": "NY", "zip": "13339-2129", "ntee": "C32", "ruling": "201805", "deductibility": "1", "assets": 192615, "income": 200573, "revenue": 200573}, {"ein": "842755828", "name": "LOW TIDE MOTORS INC", "city": "BROOKLYN", "state": "NY", "zip": "11231-1529", "ntee": "", "ruling": "202011", "deductibility": "2", "assets": 18422, "income": 112221, "revenue": 112221}, {"ein": "853590574", "name": "RISING TIDE EFFECT", "city": "BROOKLYN", "state": "NY", "zip": "11201-4345", "ntee": "N12", "ruling": "202101", "deductibility": "1", "assets": 135477, "income": 320694, "revenue": 320694}], "SEIFER": [{"ein": "134087582", "name": "ROBERT J SEIFER CANCER RESEARCH FOUNDATION", "city": "ARMONK", "state": "NY", "zip": "10504-2207", "ntee": "T90", "ruling": "200001", "deductibility": "1", "assets": 88155, "income": 3982, "revenue": 0}], "GALAXY": [{"ein": "134194237", "name": "GALAXY GYMNASTICS BOOSTER CLUB FOUNDATION", "city": "ORANGBURG", "state": "NY", "zip": "10962-2205", "ntee": "N11", "ruling": "200305", "deductibility": "1", "assets": 32274, "income": 85789, "revenue": 83440}, {"ein": "261587226", "name": "GALAXY GIVES FOUNDATION INC", "city": "NEW YORK", "state": "NY", "zip": "10013-0000", "ntee": "T22", "ruling": "200909", "deductibility": "1", "assets": 2686834, "income": 936311, "revenue": 0}, {"ein": "461369441", "name": "FASHION GALAXY ALLIANCE INC", "city": "PELHAM", "state": "NY", "zip": "10803-1700", "ntee": "S40", "ruling": "201409", "deductibility": "2", "assets": 2730, "income": 2000, "revenue": 2000}, {"ein": "845159544", "name": "JUBILEE GIFT GALAXY INC", "city": "MIDDLETOWN", "state": "NY", "zip": "10940-7267", "ntee": "T12", "ruling": "202008", "deductibility": "1", "assets": 2898451, "income": 2359920, "revenue": 2359920}, {"ein": "881958940", "name": "ED3 GALAXY", "city": "NEW YORK", "state": "NY", "zip": "10036-0351", "ntee": "B30", "ruling": "202206", "deductibility": "1", "assets": 186704, "income": 266626, "revenue": 266626}, {"ein": "921773115", "name": "GALAXY ALL STAR CHEER OF WNY CORPORATION", "city": "BOSTON", "state": "NY", "zip": "14025-9770", "ntee": "N60", "ruling": "202306", "deductibility": "1", "assets": 23920, "income": 95219, "revenue": 83094}, {"ein": "923492587", "name": "GALAXY DESIRE INC", "city": "FOREST HILLS", "state": "NY", "zip": "11375-1541", "ntee": "A20", "ruling": "202305", "deductibility": "1", "assets": 0, "income": 0, "revenue": 0}, {"ein": "932160766", "name": "GALAXY RESEARCH ORGANIZATION GRO INC", "city": "FLUSHING", "state": "NY", "zip": "11354-5433", "ntee": "A05", "ruling": "202405", "deductibility": "1", "assets": 0, "income": 0, "revenue": 0}], "TIRO": [{"ein": "135506674", "name": "TIRO A SEGNO OF NEW YORK INC", "city": "NEW YORK", "state": "NY", "zip": "10012-2504", "ntee": "", "ruling": "193605", "deductibility": "2", "assets": 5233491, "income": 3789417, "revenue": 1027085}, {"ein": "136159138", "name": "TIRO A SEGNO HOLDING CORP", "city": "NEW YORK", "state": "NY", "zip": "10012-2504", "ntee": "", "ruling": "193605", "deductibility": "2", "assets": 36000, "income": 226430, "revenue": 226430}, {"ein": "237043819", "name": "TIRO A SEGNO FOUNDATION INC", "city": "NEW YORK", "state": "NY", "zip": "10012-2504", "ntee": "", "ruling": "196911", "deductibility": "1", "assets": 391944, "income": 190113, "revenue": 162846}], "FAMEE": [{"ein": "135620628", "name": "FAMEE FURLANE CLUB OF NORTH AMERICA INC", "city": "COLLEGE POINT", "state": "NY", "zip": "11356-2322", "ntee": "", "ruling": "194403", "deductibility": "2", "assets": 36541, "income": 65863, "revenue": 53396}], "RODGERS": [{"ein": "136062852", "name": "RODGERS FAMILY FOUNDATION INC", "city": "NEW YORK", "state": "NY", "zip": "10020-1605", "ntee": "", "ruling": "195310", "deductibility": "1", "assets": 6377453, "income": 1478713, "revenue": 0}, {"ein": "136084412", "name": "RODGERS & HAMMERSTEIN FOUNDATION", "city": "NEW YORK", "state": "NY", "zip": "10020-1605", "ntee": "", "ruling": "195312", "deductibility": "1", "assets": 116102, "income": 119841, "revenue": 0}], "COTTING": [{"ein": "136139617", "name": "COTTING SAUGERTIES UNITED METHODIST CHURCH 51", "city": "SAUGERTIES", "state": "NY", "zip": "12477-1526", "ntee": "", "ruling": "000000", "deductibility": "0", "assets": 27770, "income": 4226, "revenue": 0}], "EMITA": [{"ein": "136203465", "name": "MERRILL G & EMITA E HASTINGS", "city": "PORT WASHINGTON", "state": "NY", "zip": "11050-0000", "ntee": "", "ruling": "196606", "deductibility": "1", "assets": 1674272, "income": 556451, "revenue": 0}], "BARKEY": [{"ein": "136327373", "name": "JEANNE E & JACOB A BARKEY MEMORIAL FUND U/W JEANNE E BARKEY", "city": "NEW YORK", "state": "NY", "zip": "10013-2362", "ntee": "", "ruling": "197112", "deductibility": "1", "assets": 2233875, "income": 656213, "revenue": 0}], "DICKINSON": [{"ein": "136766004", "name": "WALTER E DICKINSON ART 6 TR 149812 UW FBO NORTH CONG CHURCH AMHERST", "city": "NEW YORK", "state": "NY", "zip": "10013-2362", "ntee": "", "ruling": "198210", "deductibility": "0", "assets": 394184, "income": 125952, "revenue": 0}, {"ein": "141655042", "name": "THE DICKINSON VOLUNTEER FIRE DEPARTMENT", "city": "DICKINSON CTR", "state": "NY", "zip": "12930-0088", "ntee": "M24Z", "ruling": "199701", "deductibility": "1", "assets": 0, "income": 0, "revenue": 0}, {"ein": "161559434", "name": "PORT DICKINSON COMMUNITY ASSOCIATION INC", "city": "BINGHAMTON", "state": "NY", "zip": "13901-0000", "ntee": "S22", "ruling": "199910", "deductibility": "1", "assets": 181974, "income": 62057, "revenue": 60679}, {"ein": "166130872", "name": "TRUST U/W DOROTHY DICKINSON", "city": "NORWICH", "state": "NY", "zip": "13815-0000", "ntee": "", "ruling": "197201", "deductibility": "1", "assets": 144357, "income": 33813, "revenue": 0}, {"ein": "204988792", "name": "EAST DICKINSON CEMETERY ASSOCIATIONINC", "city": "DICKINSON CTR", "state": "NY", "zip": "12930-1907", "ntee": "Y50", "ruling": "201303", "deductibility": "1", "assets": 0, "income": 0, "revenue": 0}, {"ein": "836795710", "name": "WILLIAM B DICKINSON EDUCATIONAL TR", "city": "SARATOGA SPRINGS", "state": "NY", "zip": "12866-0000", "ntee": "T90", "ruling": "201910", "deductibility": "1", "assets": 4465618, "income": 1110778, "revenue": 181101}], "LINZER": [{"ein": "136917099", "name": "SAUL AND JANICE LINZER FOUNDATION", "city": "NEW YORK", "state": "NY", "zip": "10006-0000", "ntee": "", "ruling": "198904", "deductibility": "1", "assets": 2043115, "income": 100033, "revenue": 0}], "ABA": [{"ein": "137061684", "name": "BETH ABA TR", "city": "BROOKLYN", "state": "NY", "zip": "11210-5123", "ntee": "T30", "ruling": "199701", "deductibility": "1", "assets": 18095, "income": 1498190, "revenue": 1498190}, {"ein": "813278370", "name": "ABA PATHWAYS INC", "city": "MONROE", "state": "NY", "zip": "10950-2092", "ntee": "A12", "ruling": "202001", "deductibility": "1", "assets": 170817, "income": 3199509, "revenue": 3199509}, {"ein": "821747588", "name": "MASTERMINDS ABA INC", "city": "BROOKLYN", "state": "NY", "zip": "11204-1523", "ntee": "X30", "ruling": "202003", "deductibility": "1", "assets": 0, "income": 0, "revenue": 0}], "TRAUB": [{"ein": "137267366", "name": "LEE AND MARVIN TRAUB CHARITABLE FUND TR", "city": "NEW YORK", "state": "NY", "zip": "10021-9801", "ntee": "T22", "ruling": "200203", "deductibility": "1", "assets": 125815, "income": 122477, "revenue": 0}, {"ein": "237353428", "name": "TRAUB CREMATORIUM INC", "city": "CENTRAL SQ", "state": "NY", "zip": "13036-2642", "ntee": "Y50Z", "ruling": "197406", "deductibility": "2", "assets": 56129, "income": 430851, "revenue": 430851}], "DANC": [{"ein": "141469123", "name": "NEW YORK STATE ASSOCIATION FOR HEALTH PHYSICAL EDUCATION REC DANC", "city": "LITTLE FALLS", "state": "NY", "zip": "13365-1336", "ntee": "", "ruling": "195902", "deductibility": "1", "assets": 1435671, "income": 1024710, "revenue": 1002738}], "WATERULIET": [{"ein": "141493538", "name": "WATERULIET FISH & GAME PROTECTIVE ASSOCIATION INC", "city": "ALBANY", "state": "NY", "zip": "12212-2486", "ntee": "", "ruling": "197202", "deductibility": "2", "assets": 451409, "income": 147554, "revenue": 147554}], "PUBLICK": [{"ein": "141793196", "name": "PUBLICK MUSICK INC", "city": "ROCHESTER", "state": "NY", "zip": "14620-2448", "ntee": "A20", "ruling": "199706", "deductibility": "1", "assets": 41943, "income": 42529, "revenue": 42529}], "CRANBERRY": [{"ein": "141827017", "name": "CRANBERRY CREEK COMMUNITY CHURCH", "city": "MAYFIELD", "state": "NY", "zip": "12117-3730", "ntee": "X21", "ruling": "200602", "deductibility": "1", "assets": 0, "income": 0, "revenue": 0}, {"ein": "833920359", "name": "CRANBERRY LAKE NORTH SHORE HUB", "city": "CRANBERRY LAKE", "state": "NY", "zip": "12927-0000", "ntee": "S20", "ruling": "201908", "deductibility": "1", "assets": 269439, "income": 30557, "revenue": 30557}, {"ein": "853663871", "name": "CRANBERRY LAKE MOUNTAINEERS SNOWMOBILE CLUB INC", "city": "CRANBERRY LK", "state": "NY", "zip": "12927-0481", "ntee": "N50", "ruling": "202101", "deductibility": "1", "assets": 491648, "income": 173239, "revenue": 151217}], "ELBRIDGE": [{"ein": "156025548", "name": "ELBRIDGE FREE LIBRARY ASSOCIATION", "city": "ELBRIDGE", "state": "NY", "zip": "13060-8706", "ntee": "B71Z", "ruling": "197411", "deductibility": "1", "assets": 250398, "income": 155974, "revenue": 155974}, {"ein": "161317800", "name": "JORDAN-ELBRIDGE AREA CHURCH BOARD INC", "city": "JORDAN", "state": "NY", "zip": "13080-0155", "ntee": "", "ruling": "200808", "deductibility": "1", "assets": 87243, "income": 67789, "revenue": 67789}, {"ein": "161384131", "name": "ELBRIDGE RURAL CEMETERY ASSOCIATION", "city": "ELBRIDGE", "state": "NY", "zip": "13060-9796", "ntee": "Y50", "ruling": "201706", "deductibility": "1", "assets": 0, "income": 0, "revenue": 0}, {"ein": "202645618", "name": "JORDAN-ELBRIDGE YOUTH FOOTBALL & CHEERLEADING LEAGUE INC", "city": "ELBRIDGE", "state": "NY", "zip": "13060-1084", "ntee": "N60", "ruling": "200904", "deductibility": "1", "assets": 0, "income": 0, "revenue": 0}, {"ein": "222504334", "name": "ELBRIDGE COMMUNITY CHURCH", "city": "ELBRIDGE", "state": "NY", "zip": "13060-0118", "ntee": "", "ruling": "195504", "deductibility": "1", "assets": 0, "income": 0, "revenue": 0}, {"ein": "223253811", "name": "ELBRIDGE ROD & GUN CLUB INC", "city": "ELBRIDGE", "state": "NY", "zip": "13060-0000", "ntee": "", "ruling": "199502", "deductibility": "2", "assets": 85180, "income": 40277, "revenue": 37619}, {"ein": "311573361", "name": "JORDAN ELBRIDGE BAND BOOSTERS INC", "city": "ELBRIDGE", "state": "NY", "zip": "13060-0043", "ntee": "B99Z", "ruling": "199710", "deductibility": "1", "assets": 43874, "income": 85702, "revenue": 65740}, {"ein": "364666341", "name": "JORDAN ELBRIDGE LACROSSE CLUB INC", "city": "ELBRIDGE", "state": "NY", "zip": "13060-0584", "ntee": "N99", "ruling": "201105", "deductibility": "1", "assets": 0, "income": 0, "revenue": 0}, {"ein": "473780460", "name": "JORDAN-ELBRIDGE COMMUNITY SPORTS BOOSTER INC", "city": "ELBRIDGE", "state": "NY", "zip": "13060-0023", "ntee": "N12", "ruling": "201505", "deductibility": "1", "assets": 0, "income": 0, "revenue": 0}, {"ein": "510592518", "name": "JORDAN-ELBRIDGE PTO", "city": "JORDAN", "state": "NY", "zip": "13080-9431", "ntee": "B94", "ruling": "201003", "deductibility": "1", "assets": 0, "income": 0, "revenue": 0}, {"ein": "800230374", "name": "ELBRIDGE VOLUNTEER FIRE COMPANY", "city": "ELBRIDGE", "state": "NY", "zip": "13060-9729", "ntee": "M11", "ruling": "202310", "deductibility": "1", "assets": 0, "income": 0, "revenue": 0}], "ANGELA": [{"ein": "160755711", "name": "BLESSED MARY ANGELA R C PARISH OF DUNKIRK NY", "city": "DUNKIRK", "state": "NY", "zip": "14048-3421", "ntee": "", "ruling": "194603", "deductibility": "1", "assets": 0, "income": 0, "revenue": 0}, {"ein": "208512223", "name": "ANGELA & SCOTT JAGGAR FOUNDATION INC", "city": "PRT WASHINGTN", "state": "NY", "zip": "11050-2468", "ntee": "T20", "ruling": "200804", "deductibility": "1", "assets": 982984, "income": 520408, "revenue": 0}, {"ein": "770614347", "name": "ANGELA SALADINO-HEIL MINISTRIES INC", "city": "CORAM", "state": "NY", "zip": "11727-3121", "ntee": "X20", "ruling": "200409", "deductibility": "1", "assets": 0, "income": 0, "revenue": 0}, {"ein": "812593055", "name": "SERGIO AND ANGELA GARCIA FOUNDATION INC", "city": "NEW YORK", "state": "NY", "zip": "10018-0000", "ntee": "T20", "ruling": "201705", "deductibility": "1", "assets": 1, "income": 500250, "revenue": 0}, {"ein": "814936514", "name": "KIRK AND ANGELA WATSON EDUCATIONAL FOUNDATION", "city": "FOREST HILLS", "state": "NY", "zip": "11375-5404", "ntee": "B99", "ruling": "202104", "deductibility": "1", "assets": 299957, "income": 91267, "revenue": 0}], "WAYLAND": [{"ein": "160919787", "name": "WAYLAND FREE LIBRARY", "city": "WAYLAND", "state": "NY", "zip": "14572-1333", "ntee": "", "ruling": "197212", "deductibility": "1", "assets": 1338437, "income": 225628, "revenue": 225628}, {"ein": "161410473", "name": "WAYLAND HISTORICAL SOCIETY", "city": "WAYLAND", "state": "NY", "zip": "14572-0494", "ntee": "A50Z", "ruling": "199409", "deductibility": "1", "assets": 803818, "income": 55224, "revenue": 50578}, {"ein": "237549944", "name": "WAYLAND CHAPTER NO 499", "city": "DALTON", "state": "NY", "zip": "14836-9737", "ntee": "Y42", "ruling": "202009", "deductibility": "1", "assets": 0, "income": 0, "revenue": 0}, {"ein": "331114080", "name": "WAYLAND HOSE COMPANY INC", "city": "WAYLAND", "state": "NY", "zip": "14572-1137", "ntee": "M24", "ruling": "201305", "deductibility": "1", "assets": 294625, "income": 31896, "revenue": 25595}, {"ein": "462495194", "name": "SPRINGWATER WAYLAND EMERGENCY MEDICAL SERVICES INC", "city": "WAYLAND", "state": "NY", "zip": "14572-0625", "ntee": "E62", "ruling": "201505", "deductibility": "1", "assets": 449324, "income": 123562, "revenue": 123562}, {"ein": "471244809", "name": "WAYLAND DIRT DAWGS INC", "city": "WAYLAND", "state": "NY", "zip": "14572-0583", "ntee": "N63", "ruling": "201712", "deductibility": "1", "assets": 0, "income": 0, "revenue": 0}, {"ein": "821969191", "name": "WAYLAND PRODUCTIONS LTD", "city": "NEW YORK", "state": "NY", "zip": "10003-1526", "ntee": "A40", "ruling": "201805", "deductibility": "1", "assets": 6273, "income": 3227, "revenue": 3227}, {"ein": "920600194", "name": "WAYLAND-COHOCTON PTSO", "city": "WAYLAND", "state": "NY", "zip": "14572-9509", "ntee": "B90", "ruling": "202507", "deductibility": "1", "assets": 0, "income": 0, "revenue": 0}, {"ein": "922294367", "name": "WAYLAND COHOCTON EDUCATION COMMUNITY FOUNDATION INC", "city": "WAYLAND", "state": "NY", "zip": "14572-0328", "ntee": "B12", "ruling": "202304", "deductibility": "1", "assets": 0, "income": 0, "revenue": 0}, {"ein": "933039184", "name": "WAYLAND-COHOCTON BASKETBALL CLUB CORP", "city": "WAYLAND", "state": "NY", "zip": "14572-9324", "ntee": "N62", "ruling": "202309", "deductibility": "1", "assets": 0, "income": 0, "revenue": 0}, {"ein": "933843155", "name": "WAYLAND TRACK CLUB INC", "city": "COHOCTON", "state": "NY", "zip": "14826-9727", "ntee": "N60", "ruling": "202403", "deductibility": "1", "assets": 831, "income": 2442, "revenue": 0}], "TOOLING": [{"ein": "160957368", "name": "ROCHESTER TOOLING AND MACHINING INSTITUTE INC", "city": "ROCHESTER", "state": "NY", "zip": "14623-1358", "ntee": "", "ruling": "197004", "deductibility": "1", "assets": 1, "income": 0, "revenue": 0}], "INFLUENCES": [{"ein": "161160182", "name": "EPIC-EVERY PERSON INFLUENCES CHILDREN INC", "city": "BUFFALO", "state": "NY", "zip": "14212-1460", "ntee": "B90Z", "ruling": "198203", "deductibility": "1", "assets": 1646352, "income": 2186003, "revenue": 2172035}], "IZAAK": [{"ein": "161210518", "name": "IZAAK WALTON LEAGUE OF AMERICA INC", "city": "PENN YAN", "state": "NY", "zip": "14527-0108", "ntee": "", "ruling": "198504", "deductibility": "1", "assets": 0, "income": 0, "revenue": 0}, {"ein": "222587425", "name": "IZAAK WALTON LEAGUE OF AMERICA INC", "city": "HOMER", "state": "NY", "zip": "13077-0000", "ntee": "", "ruling": "198504", "deductibility": "1", "assets": 0, "income": 0, "revenue": 0}, {"ein": "237063476", "name": "IZAAK WALTON LEAGUE OF AMERICA NEW YORK STATE DIV INC", "city": "FAYETTEVILLE", "state": "NY", "zip": "13066-1919", "ntee": "", "ruling": "201712", "deductibility": "1", "assets": 0, "income": 0, "revenue": 0}, {"ein": "521751083", "name": "IZAAK WALTON LEAGUE OF AMERICA INC", "city": "FAYETTEVILLE", "state": "NY", "zip": "13066-1451", "ntee": "", "ruling": "198504", "deductibility": "1", "assets": 0, "income": 0, "revenue": 0}], "SAFARI": [{"ein": "161382731", "name": "SAFARI CLUB INTERNATIONAL", "city": "LOCKPORT", "state": "NY", "zip": "14094-9728", "ntee": "", "ruling": "197509", "deductibility": "2", "assets": 0, "income": 0, "revenue": 0}, {"ein": "911764746", "name": "SAFARI CLUB INTERNATIONAL", "city": "MIDDLETOWN", "state": "NY", "zip": "10940-7537", "ntee": "", "ruling": "194509", "deductibility": "2", "assets": 0, "income": 0, "revenue": 0}, {"ein": "911935635", "name": "SAFARI CLUB INTERNATIONAL", "city": "OTEGO", "state": "NY", "zip": "13825-0466", "ntee": "", "ruling": "197509", "deductibility": "1", "assets": 111283, "income": 153539, "revenue": 153539}, {"ein": "994414833", "name": "SAFARI FOR EMPOWERMENT INC", "city": "ST ALBANS", "state": "NY", "zip": "11412-2228", "ntee": "P62", "ruling": "202408", "deductibility": "1", "assets": 0, "income": 0, "revenue": 0}], "ROCKNE": [{"ein": "161474671", "name": "ROCKNE EDUCATIONAL TELEVISION INC", "city": "HAMLIN", "state": "NY", "zip": "14464-0457", "ntee": "W50", "ruling": "202406", "deductibility": "1", "assets": 1031314, "income": 242379, "revenue": 0}], "CAROLANN": [{"ein": "161552802", "name": "CAROLANN K ANDREWS CHARITABLE FOUNDATION", "city": "OSSINING", "state": "NY", "zip": "10562-2708", "ntee": "T20Z", "ruling": "199811", "deductibility": "1", "assets": 252460, "income": 62321, "revenue": 0}], "JEC": [{"ein": "161726990", "name": "JEC AFFILIATES INC", "city": "NEW YORK", "state": "NY", "zip": "10011-7902", "ntee": "X30", "ruling": "201306", "deductibility": "1", "assets": 0, "income": 0, "revenue": 0}], "ISCHU": [{"ein": "166073673", "name": "ISCHU VALLEY HISTORICAL SOCIETY", "city": "FRANKLINVILLE", "state": "NY", "zip": "14737-0153", "ntee": "A80", "ruling": "201408", "deductibility": "1", "assets": 0, "income": 0, "revenue": 0}], "COLLECT": [{"ein": "166176890", "name": "H F & F H GIRVIN TR UW FBO MANATEE JR COLLECT NECT", "city": "AMHERST", "state": "NY", "zip": "14228-2307", "ntee": "", "ruling": "197712", "deductibility": "0", "assets": 994906, "income": 260338, "revenue": 0}], "TURKANA": [{"ein": "200242554", "name": "FRIENDS OF TURKANA INC", "city": "BROOKLYN", "state": "NY", "zip": "11201-4345", "ntee": "P20", "ruling": "200406", "deductibility": "1", "assets": 120106, "income": 97255, "revenue": 97255}], "MECHONNACHLEIBINAH": [{"ein": "200318259", "name": "MECHONNACHLEIBINAH", "city": "BROOKLYN", "state": "NY", "zip": "11219-2202", "ntee": "X30", "ruling": "200311", "deductibility": "1", "assets": 0, "income": 0, "revenue": 0}], "YISOCHAR": [{"ein": "202044821", "name": "ZICHRON YISOCHAR", "city": "BROOKLYN", "state": "NY", "zip": "11204-1508", "ntee": "X30", "ruling": "201008", "deductibility": "1", "assets": 0, "income": 0, "revenue": 0}], "MANANG": [{"ein": "205210298", "name": "MANANG SAMAJ OF NEW YORK INC", "city": "SUNNYSIDE", "state": "NY", "zip": "11104-3581", "ntee": "S80", "ruling": "201510", "deductibility": "1", "assets": 0, "income": 0, "revenue": 0}], "SKULEN": [{"ein": "205316703", "name": "CONG NOAM ELIEZER SKULEN", "city": "SPRING VALLEY", "state": "NY", "zip": "10977-2544", "ntee": "Q30", "ruling": "201005", "deductibility": "1", "assets": 0, "income": 0, "revenue": 0}], "PITCH": [{"ein": "208346935", "name": "PITCH FOR A CURE INC", "city": "BAY SHORE", "state": "NY", "zip": "11706-7527", "ntee": "G84", "ruling": "200706", "deductibility": "1", "assets": 0, "income": 0, "revenue": 0}, {"ein": "334149877", "name": "SON OF A PITCH FOUNDATION INC", "city": "STATEN ISLAND", "state": "NY", "zip": "10309-2632", "ntee": "N64", "ruling": "202505", "deductibility": "1", "assets": 0, "income": 0, "revenue": 0}, {"ein": "472294609", "name": "PITCH HER PRODUCTIONS INC", "city": "ASTORIA", "state": "NY", "zip": "11103-2825", "ntee": "A31", "ruling": "201508", "deductibility": "1", "assets": 0, "income": 0, "revenue": 0}, {"ein": "851599991", "name": "PITCH HAMBURG INC", "city": "HAMBURG", "state": "NY", "zip": "14075-0000", "ntee": "S30", "ruling": "202203", "deductibility": "1", "assets": 888, "income": 96709, "revenue": 96709}, {"ein": "921832914", "name": "PITCH YOUR PEERS INC", "city": "AMAGANSETT", "state": "NY", "zip": "11930-0719", "ntee": "P20", "ruling": "202004", "deductibility": "1", "assets": 3929, "income": 73212, "revenue": 73212}, {"ein": "993472030", "name": "PITCH PLEASE", "city": "NEW YORK", "state": "NY", "zip": "10025-8082", "ntee": "A30", "ruling": "202406", "deductibility": "1", "assets": 0, "income": 0, "revenue": 0}], "SURGER": [{"ein": "222400943", "name": "NEW YORK STATE SOCIETY OF OTOLARYNGOLOGYHEAD AND NECK SURGER", "city": "DELMAR", "state": "NY", "zip": "12054-3227", "ntee": "E03", "ruling": "201206", "deductibility": "2", "assets": 0, "income": 0, "revenue": 0}], "THINKERS": [{"ein": "222420597", "name": "WISDOM THINKERS NETWORK INC", "city": "ELBRIDGE", "state": "NY", "zip": "13060-0000", "ntee": "", "ruling": "198304", "deductibility": "1", "assets": 20736, "income": 56179, "revenue": 56179}, {"ein": "454641800", "name": "THINKERS FORUM USA INC", "city": "WEST NYACK", "state": "NY", "zip": "10994-2914", "ntee": "B99", "ruling": "201205", "deductibility": "1", "assets": 0, "income": 0, "revenue": 0}], "KA": [{"ein": "222513473", "name": "KA-JO-MA INC", "city": "DRYDEN", "state": "NY", "zip": "13053-1128", "ntee": "", "ruling": "198412", "deductibility": "2", "assets": 0, "income": 0, "revenue": 0}, {"ein": "832808959", "name": "MWEN KA LI", "city": "LARCHMONT", "state": "NY", "zip": "10538-1517", "ntee": "A33", "ruling": "201904", "deductibility": "1", "assets": 0, "income": 0, "revenue": 0}], "COVILLE": [{"ein": "222564754", "name": "COVILLE BAY INC", "city": "FORT COVINGTON", "state": "NY", "zip": "12937-0000", "ntee": "", "ruling": "198802", "deductibility": "1", "assets": 371520, "income": 392546, "revenue": 392546}], "VORCHHEIMER": [{"ein": "237039998", "name": "JULIUS AND WERNER M VORCHHEIMER FOUNDATION", "city": "MONSEY", "state": "NY", "zip": "10952-2829", "ntee": "", "ruling": "196911", "deductibility": "1", "assets": 826, "income": 10, "revenue": 0}], "BARREL": [{"ein": "260002701", "name": "BARREL RACERS OF WESTERN NEW YORK", "city": "EDEN", "state": "NY", "zip": "14057-9638", "ntee": "N50", "ruling": "201507", "deductibility": "2", "assets": 0, "income": 0, "revenue": 0}, {"ein": "992943517", "name": "GOTHAM BARREL CLUB INC", "city": "RIDGEWOOD", "state": "NY", "zip": "11385-1159", "ntee": "D12", "ruling": "202405", "deductibility": "1", "assets": 0, "income": 0, "revenue": 0}], "BLACKSTONE": [{"ein": "260462996", "name": "BLACKSTONE CHARITABLE FOUNDATION", "city": "NEW YORK", "state": "NY", "zip": "10154-0004", "ntee": "T21", "ruling": "200802", "deductibility": "1", "assets": 135020423, "income": 40998313, "revenue": 0}], "CELEBRE": [{"ein": "260516927", "name": "CAUSE CELEBRE", "city": "NEW YORK", "state": "NY", "zip": "10036-6848", "ntee": "E12", "ruling": "200711", "deductibility": "1", "assets": 95826, "income": 180346, "revenue": 180346}], "BRANDWORKERS": [{"ein": "260798625", "name": "BRANDWORKERS INTERNATIONAL", "city": "LONG IS CITY", "state": "NY", "zip": "11101-0257", "ntee": "R99", "ruling": "201004", "deductibility": "1", "assets": 231919, "income": 363215, "revenue": 355015}], "TAISHAN": [{"ein": "261478250", "name": "TAISHAN SCHOOLS ALUMNI ASSOCIATION INC", "city": "FLUSHING", "state": "NY", "zip": "11354-6315", "ntee": "A23", "ruling": "200808", "deductibility": "1", "assets": 0, "income": 0, "revenue": 0}, {"ein": "453546817", "name": "TAISHAN CUP SPORTS ASSOCIATION EAST USA INC", "city": "BROOKLYN", "state": "NY", "zip": "11214-5009", "ntee": "N70", "ruling": "201608", "deductibility": "1", "assets": 0, "income": 0, "revenue": 0}], "TRICIA": [{"ein": "261901444", "name": "JACK AND TRICIA RYAN FAMILY FOUNDATION", "city": "NEW YORK", "state": "NY", "zip": "10185-5016", "ntee": "T22", "ruling": "200807", "deductibility": "1", "assets": 2155334, "income": 1487913, "revenue": 0}], "BORDEWICK": [{"ein": "263254514", "name": "EVELYN BORDEWICK CHARITABLE FOUNDATION", "city": "HUDSON", "state": "NY", "zip": "12534-2537", "ntee": "T22", "ruling": "200903", "deductibility": "1", "assets": 1804791, "income": 957042, "revenue": 0}], "JUDGMENT": [{"ein": "263479989", "name": "GOOD JUDGMENT FOUNDATION", "city": "NEW YORK", "state": "NY", "zip": "10005-1171", "ntee": "T20", "ruling": "200903", "deductibility": "1", "assets": 1, "income": 1, "revenue": 0}], "SAWA": [{"ein": "270474637", "name": "ASSOCIATION MBOA SAWA O NEW YORK INC", "city": "CORONA", "state": "NY", "zip": "11368-4171", "ntee": "A99", "ruling": "202409", "deductibility": "1", "assets": 0, "income": 0, "revenue": 0}], "HEARTH": [{"ein": "271922731", "name": "HEARTH RESCUE GROUP INC", "city": "BELLEROSE", "state": "NY", "zip": "11426-2606", "ntee": "D20", "ruling": "201703", "deductibility": "1", "assets": 0, "income": 0, "revenue": 0}], "REPLENISHMENT": [{"ein": "273326700", "name": "KOREAN PRESBYTERIAN CHURCH OF REPLENISHMENT", "city": "WOODSIDE", "state": "NY", "zip": "11377-2431", "ntee": "X21", "ruling": "201105", "deductibility": "1", "assets": 0, "income": 0, "revenue": 0}], "FURSEY": [{"ein": "273671852", "name": "MSGR P FURSEY OTOOLE TRUST INC", "city": "GARDEN CITY", "state": "NY", "zip": "11530-0000", "ntee": "T20", "ruling": "201409", "deductibility": "1", "assets": 937660, "income": 1, "revenue": 0}], "ARKAM": [{"ein": "275069667", "name": "ARKAM", "city": "BRONX", "state": "NY", "zip": "10455-1739", "ntee": "S22", "ruling": "202402", "deductibility": "1", "assets": 0, "income": 0, "revenue": 0}], "GLOCK": [{"ein": "276692318", "name": "MICHAEL WARD AND JENNIFER GLOCK FOUNDATION", "city": "ALBANY", "state": "NY", "zip": "12212-5201", "ntee": "T20", "ruling": "201009", "deductibility": "1", "assets": 12462406, "income": 4038221, "revenue": 0}], "ROMARE": [{"ein": "300207085", "name": "ROMARE BEARDEN FOUNDATION INC", "city": "NEW YORK", "state": "NY", "zip": "10026-1123", "ntee": "A51", "ruling": "200401", "deductibility": "1", "assets": 2672699, "income": 603806, "revenue": 603806}], "PERFECTIN": [{"ein": "331308195", "name": "PERFECTIN MY HEALTH", "city": "CHEEKTOWAGA", "state": "NY", "zip": "14215-1340", "ntee": "E70", "ruling": "202410", "deductibility": "1", "assets": 0, "income": 0, "revenue": 0}], "DUTY": [{"ein": "331310138", "name": "OFF-DUTY FIRE FIGHTER INC", "city": "BROOKLYN", "state": "NY", "zip": "11221-4017", "ntee": "S01", "ruling": "202505", "deductibility": "1", "assets": 0, "income": 0, "revenue": 0}, {"ein": "454338621", "name": "OUR AMERICAN DUTY", "city": "JAMAICA", "state": "NY", "zip": "11430-0000", "ntee": "P20", "ruling": "201204", "deductibility": "1", "assets": 0, "income": 0, "revenue": 0}, {"ein": "923515536", "name": "UPLIFT DEVELOPMENT HABITAT DUTY INC", "city": "SYRACUSE", "state": "NY", "zip": "13203-1938", "ntee": "L20", "ruling": "202309", "deductibility": "1", "assets": 0, "income": 0, "revenue": 0}], "DASWAND": [{"ein": "332493401", "name": "DASWAND FOUNDATION INC", "city": "ROSLYN HTS", "state": "NY", "zip": "11577-2817", "ntee": "X11", "ruling": "202502", "deductibility": "1", "assets": 0, "income": 0, "revenue": 0}], "SCREEN": [{"ein": "333966738", "name": "EDUCATING THE PUBLIC ABOUT SCREEN RISK IN EARLY CHILDHOOD INC", "city": "ITHACA", "state": "NY", "zip": "14852-3900", "ntee": "B99", "ruling": "202506", "deductibility": "1", "assets": 0, "income": 0, "revenue": 0}, {"ein": "812468614", "name": "ART OF THE SILVER SCREEN", "city": "BROOKLYN", "state": "NY", "zip": "11209-2704", "ntee": "A31", "ruling": "201609", "deductibility": "1", "assets": 0, "income": 0, "revenue": 0}, {"ein": "824171558", "name": "SCREEN SLATE INC", "city": "BROOKLYN", "state": "NY", "zip": "11206-1123", "ntee": "A31", "ruling": "201802", "deductibility": "1", "assets": 34375, "income": 86360, "revenue": 79031}, {"ein": "824207894", "name": "AUSTRALIAN INTERNATIONAL SCREEN FORUM INC", "city": "ASTORIA", "state": "NY", "zip": "11106-1356", "ntee": "A99", "ruling": "201907", "deductibility": "1", "assets": 983611, "income": 1034759, "revenue": 1034759}, {"ein": "921660930", "name": "THOUSAND ISLANDS SCREEN AND DRAMATIC ARTS INC", "city": "CLAYTON", "state": "NY", "zip": "13624-1121", "ntee": "A61", "ruling": "202304", "deductibility": "1", "assets": 0, "income": 0, "revenue": 0}], "WHISTLER": [{"ein": "334961128", "name": "CHABAD LUBAVITCH OF WHISTLER INC", "city": "VALLEY STREAM", "state": "NY", "zip": "11581-2704", "ntee": "X30", "ruling": "202506", "deductibility": "1", "assets": 0, "income": 0, "revenue": 0}, {"ein": "874127874", "name": "WHISTLER SINAI INC", "city": "BROOKLYN", "state": "NY", "zip": "11213-4406", "ntee": "X99", "ruling": "202301", "deductibility": "1", "assets": 0, "income": 0, "revenue": 0}], "P2L": [{"ein": "383886413", "name": "P2L PATHWAYS TO LEADERSHIP INC", "city": "NEW YORK", "state": "NY", "zip": "10017-4707", "ntee": "B05", "ruling": "201301", "deductibility": "1", "assets": 1634181, "income": 2512029, "revenue": 2512029}], "JAKES": [{"ein": "450974507", "name": "JAKES HELP FROM HEAVEN INC", "city": "SARATOGA SPGS", "state": "NY", "zip": "12866-2301", "ntee": "E86", "ruling": "201105", "deductibility": "1", "assets": 368374, "income": 385078, "revenue": 379515}, {"ein": "815406293", "name": "JAKES RESCUE RANCH INC", "city": "PLAINVIEW", "state": "NY", "zip": "11803-5061", "ntee": "D20", "ruling": "201801", "deductibility": "1", "assets": 143558, "income": 225018, "revenue": 200628}], "HANDICAP": [{"ein": "452372765", "name": "WEST AFRICA HANDICAP ASSOCIATION OF THE USA", "city": "ROCHESTER", "state": "NY", "zip": "14611-2311", "ntee": "Q33", "ruling": "201211", "deductibility": "1", "assets": 0, "income": 0, "revenue": 0}], "MIKVA": [{"ein": "454534278", "name": "CHAYALAS MIKVA INC", "city": "BROOKLYN", "state": "NY", "zip": "11213-5212", "ntee": "T30", "ruling": "201310", "deductibility": "1", "assets": 0, "income": 0, "revenue": 0}, {"ein": "463205780", "name": "CONG MIKVA YISRAEL OF W P B", "city": "BROOKLYN", "state": "NY", "zip": "11231-0000", "ntee": "Z99", "ruling": "201408", "deductibility": "1", "assets": 8058258, "income": 3250298, "revenue": 3250298}, {"ein": "833384050", "name": "CONG MIKVA KYL OF KJ INC", "city": "MONROE", "state": "NY", "zip": "10950-4920", "ntee": "X30", "ruling": "201911", "deductibility": "1", "assets": 0, "income": 0, "revenue": 0}, {"ein": "852378943", "name": "MIKVA TAHARA INC", "city": "BROOKLYN", "state": "NY", "zip": "11203-3009", "ntee": "X30", "ruling": "202403", "deductibility": "1", "assets": 0, "income": 0, "revenue": 0}, {"ein": "920922155", "name": "MIKVA RUCHEL V TOBA INC", "city": "SPRING VALLEY", "state": "NY", "zip": "10977-6200", "ntee": "X30", "ruling": "202402", "deductibility": "1", "assets": 4550043, "income": 4550050, "revenue": 4550050}], "RECONCILIANDO": [{"ein": "460640748", "name": "CENTRO CRISTIANO RECONCILIANDO LA FAMILIA CON CRISTO", "city": "BRONX", "state": "NY", "zip": "10459-1408", "ntee": "X20", "ruling": "201409", "deductibility": "1", "assets": 0, "income": 0, "revenue": 0}], "HAMEACHED": [{"ein": "461191367", "name": "AMERICAN FRIENDS OF HAKAV HAMEACHED INC", "city": "STATEN ISLAND", "state": "NY", "zip": "10314-4115", "ntee": "Q33", "ruling": "201404", "deductibility": "1", "assets": 16519, "income": 128690, "revenue": 128690}], "BAZAR": [{"ein": "461530898", "name": "BANGLA BAZAR JAME MASJID INC", "city": "BRONX", "state": "NY", "zip": "10462-4413", "ntee": "X40", "ruling": "201603", "deductibility": "1", "assets": 0, "income": 0, "revenue": 0}, {"ein": "822774963", "name": "BAIRAGI BAZAR ASSOCIATION OF USA INC", "city": "SAINT ALBANS", "state": "NY", "zip": "11412-1300", "ntee": "A23", "ruling": "201910", "deductibility": "1", "assets": 105516, "income": 33556, "revenue": 33556}], "OUTCRY": [{"ein": "462736369", "name": "MOTHER OUTCRY INTERNATIONAL MINISTRY INC", "city": "BROOKLYN", "state": "NY", "zip": "11208-0405", "ntee": "X21", "ruling": "201505", "deductibility": "1", "assets": 7129, "income": 89084, "revenue": 89084}], "CUISINE": [{"ein": "463198412", "name": "RESCUING LEFTOVER CUISINE INC", "city": "NEW YORK", "state": "NY", "zip": "10004-1056", "ntee": "K30", "ruling": "201401", "deductibility": "1", "assets": 1339865, "income": 8587382, "revenue": 8529526}, {"ein": "871736077", "name": "CULTURED KIDS CUISINE INC", "city": "BROOKLYN", "state": "NY", "zip": "11235-4145", "ntee": "A20", "ruling": "202202", "deductibility": "1", "assets": 4722, "income": 698, "revenue": 0}, {"ein": "881307611", "name": "ALLIANCE FOR CHINESE HERBAL CUISINE INC", "city": "NEW YORK", "state": "NY", "zip": "10002-2123", "ntee": "H01", "ruling": "202307", "deductibility": "1", "assets": 0, "income": 0, "revenue": 0}, {"ein": "933723468", "name": "KOREAN CUISINE GLOBALIZATION ASSOCIATION NORTH AMERICA", "city": "NEW YORK", "state": "NY", "zip": "10001-3605", "ntee": "A99", "ruling": "202404", "deductibility": "1", "assets": 0, "income": 0, "revenue": 0}, {"ein": "991204751", "name": "CAJUN CUISINE CULTURE", "city": "BROOKLYN", "state": "NY", "zip": "11204-1824", "ntee": "A23", "ruling": "202403", "deductibility": "1", "assets": 0, "income": 0, "revenue": 0}, {"ein": "993679968", "name": "CHEFS DE CUISINE ASSOCIATION OF AMERICA SCHOLARSHIP FOUNDATION INC", "city": "NEW YORK", "state": "NY", "zip": "10017-3426", "ntee": "P12", "ruling": "202408", "deductibility": "1", "assets": 0, "income": 0, "revenue": 0}, {"ein": "994907814", "name": "KOREAN CUISINE GLOBALIZATION ASSOCIATION NORTH AMERICA INC", "city": "NEW YORK", "state": "NY", "zip": "10001-3605", "ntee": "A99", "ruling": "202501", "deductibility": "1", "assets": 0, "income": 0, "revenue": 0}], "ABREPUERTAS": [{"ein": "463753889", "name": "FRIENDS OF ABREPUERTAS INC", "city": "BRANCHPORT", "state": "NY", "zip": "14418-9609", "ntee": "T30", "ruling": "201406", "deductibility": "1", "assets": 0, "income": 0, "revenue": 0}], "ROBBY": [{"ein": "465136625", "name": "ROBBY WILSON SMS CLASS OF 1984 MEMORIAL SCHOLARSHIP FOUN INC", "city": "PEARL RIVER", "state": "NY", "zip": "10965-1401", "ntee": "B82", "ruling": "201601", "deductibility": "1", "assets": 0, "income": 0, "revenue": 0}], "ASCHER": [{"ein": "465766772", "name": "FRITZ ASCHER SOCIETY FOR PERSECUTED OSTRACIZED AND BANNED A", "city": "NEW YORK", "state": "NY", "zip": "10033-2327", "ntee": "A25", "ruling": "201504", "deductibility": "1", "assets": 0, "income": 0, "revenue": 0}], "NOVO": [{"ein": "470824753", "name": "NOVO FOUNDATION", "city": "HURLEY", "state": "NY", "zip": "12443-0566", "ntee": "T99", "ruling": "202102", "deductibility": "1", "assets": 719322289, "income": 733747430, "revenue": 0}, {"ein": "821435813", "name": "NOVO MUNDO FOUNDATION", "city": "NEW YORK", "state": "NY", "zip": "10019-4001", "ntee": "T30", "ruling": "201804", "deductibility": "1", "assets": 17023, "income": 1804, "revenue": 1804}, {"ein": "823995743", "name": "FRIENDS OF NOVO HORIZONTE", "city": "BROOKLYN", "state": "NY", "zip": "11213-6032", "ntee": "X30", "ruling": "201802", "deductibility": "1", "assets": 0, "income": 0, "revenue": 0}], "ADACC": [{"ein": "471267437", "name": "ADACC CRAWFORD FOUNDATION INC", "city": "CHEEKTOWAGA", "state": "NY", "zip": "14215-1935", "ntee": "P40", "ruling": "202101", "deductibility": "1", "assets": 0, "income": 0, "revenue": 0}], "CANDLES": [{"ein": "472009255", "name": "ADDING CANDLES INC", "city": "FAIRPORT", "state": "NY", "zip": "14450-4701", "ntee": "E12", "ruling": "201411", "deductibility": "1", "assets": 20810, "income": 62991, "revenue": 42629}], "FATHERHOOD": [{"ein": "472111614", "name": "FATHERHOOD CONNECTION INC", "city": "FAIRPORT", "state": "NY", "zip": "14450-3205", "ntee": "P20", "ruling": "202104", "deductibility": "1", "assets": 245284, "income": 324641, "revenue": 324641}], "SEDIE": [{"ein": "472581070", "name": "SEDIE ESER FOUNDATION", "city": "BROOKLYN", "state": "NY", "zip": "11211-7571", "ntee": "T22", "ruling": "201504", "deductibility": "1", "assets": 2141, "income": 10000, "revenue": 0}], "QIPAO": [{"ein": "473142034", "name": "NEW YORK CHINESE QIPAO ASSOCIATION INC", "city": "QUEENS VLG", "state": "NY", "zip": "11427-2514", "ntee": "B03", "ruling": "201705", "deductibility": "1", "assets": 0, "income": 0, "revenue": 0}, {"ein": "813466183", "name": "CHINESE QIPAO SOCIETY USA HEADQUARTER INC", "city": "FLUSHING", "state": "NY", "zip": "11355-3967", "ntee": "N50", "ruling": "201612", "deductibility": "1", "assets": 1, "income": 0, "revenue": 0}], "PROPEL": [{"ein": "473168850", "name": "PROPEL NETWORK INC", "city": "BROOKLYN", "state": "NY", "zip": "11223-3056", "ntee": "J22", "ruling": "201505", "deductibility": "1", "assets": 828397, "income": 294517, "revenue": 294517}, {"ein": "921807003", "name": "PROPEL BLACK PEARLS INC", "city": "CHEEKTOWAGA", "state": "NY", "zip": "14227-3924", "ntee": "P20", "ruling": "202303", "deductibility": "1", "assets": 0, "income": 0, "revenue": 0}], "RFB": [{"ein": "473813321", "name": "RFB - BSD18 INC", "city": "BROOKLYN", "state": "NY", "zip": "11204-1654", "ntee": "T22", "ruling": "201505", "deductibility": "1", "assets": 87361, "income": 1808, "revenue": 0}], "KOZIARZ": [{"ein": "475277563", "name": "JOE KOZIARZ FUND LIMITED", "city": "W HAMPTON BCH", "state": "NY", "zip": "11978-7684", "ntee": "N12", "ruling": "201602", "deductibility": "1", "assets": 0, "income": 0, "revenue": 0}], "KHAWALUNG": [{"ein": "510645073", "name": "KHAWALUNG FOUNDATION USA", "city": "NEW YORK", "state": "NY", "zip": "10002-4917", "ntee": "X50", "ruling": "200801", "deductibility": "1", "assets": 0, "income": 0, "revenue": 0}], "OVERCOMMERS": [{"ein": "522392219", "name": "OVERCOMMERS ASSEMBLY INTERNATIONAL MINISTRY INC", "city": "BRONX", "state": "NY", "zip": "10467-5726", "ntee": "X20", "ruling": "200907", "deductibility": "1", "assets": 0, "income": 0, "revenue": 0}], "GASKINS": [{"ein": "526941741", "name": "A CLAIRE GASKINS HARPER SCHOLARSHIP ENDOWMENT", "city": "BUFFALO", "state": "NY", "zip": "14240-1504", "ntee": "B82", "ruling": "199906", "deductibility": "1", "assets": 822103, "income": 284919, "revenue": 0}], "EVEILLARD": [{"ein": "566648252", "name": "EVEILLARD FAM CHARITABLE TR", "city": "NEW YORK", "state": "NY", "zip": "10028-0447", "ntee": "T22", "ruling": "200503", "deductibility": "1", "assets": 19325962, "income": 1596059, "revenue": 0}], "MODERNA": [{"ein": "680639985", "name": "THE AMERICAN FRIENDS OF THE MODERNA MUSEET INC", "city": "NEW YORK", "state": "NY", "zip": "10004-2498", "ntee": "A50", "ruling": "200708", "deductibility": "1", "assets": 157436, "income": 572069, "revenue": 572069}], "CICHRON": [{"ein": "710908001", "name": "CONGREGATION ZICHRON CICHRON AVROHOM INC", "city": "MONSEY", "state": "NY", "zip": "10952-2705", "ntee": "X30", "ruling": "200211", "deductibility": "1", "assets": 0, "income": 0, "revenue": 0}], "ARGENTO": [{"ein": "753102526", "name": "ARGENTO NEW MUSIC PROJECT INC", "city": "NEW YORK", "state": "NY", "zip": "10024-0540", "ntee": "A60", "ruling": "200406", "deductibility": "1", "assets": 210323, "income": 50735, "revenue": 50735}], "CLASICA": [{"ein": "811250371", "name": "BOLIVIA CLASICA FOUNDATION", "city": "NEW YORK", "state": "NY", "zip": "10013-0000", "ntee": "A20", "ruling": "201603", "deductibility": "1", "assets": 0, "income": 0, "revenue": 0}], "OUTSPIRING": [{"ein": "824655894", "name": "OUTSPIRING INC", "city": "BROOKLYN", "state": "NY", "zip": "11230-4501", "ntee": "X30", "ruling": "201812", "deductibility": "1", "assets": 0, "income": 0, "revenue": 0}], "AKIDSRIGHT": [{"ein": "825013515", "name": "AKIDSRIGHT INC", "city": "LYONS", "state": "NY", "zip": "14489-1309", "ntee": "R20", "ruling": "201811", "deductibility": "2", "assets": 0, "income": 0, "revenue": 0}], "PORTUGUES": [{"ein": "831053776", "name": "CENTRO RECREATIVO PORTUGUES DE JAMAICA NY INC", "city": "JAMAICA", "state": "NY", "zip": "11435-4727", "ntee": "A20", "ruling": "201907", "deductibility": "1", "assets": 74349, "income": 104238, "revenue": 77452}], "KSP": [{"ein": "831644214", "name": "KSP FOUNDATION", "city": "BROOKLYN", "state": "NY", "zip": "11218-5806", "ntee": "T20", "ruling": "201903", "deductibility": "1", "assets": 405814, "income": 92000, "revenue": 0}], "FOLA": [{"ein": "831986704", "name": "ADE JEMBE FOLA", "city": "BUFFALO", "state": "NY", "zip": "14209-2341", "ntee": "A20", "ruling": "202001", "deductibility": "1", "assets": 0, "income": 0, "revenue": 0}, {"ein": "991741981", "name": "FOLA FOUNDATION INC", "city": "NEW YORK", "state": "NY", "zip": "10001-7604", "ntee": "B90", "ruling": "202403", "deductibility": "1", "assets": 0, "income": 0, "revenue": 0}], "WAYO": [{"ein": "832346945", "name": "WAYO RADIO", "city": "ROCHESTER", "state": "NY", "zip": "14609-6941", "ntee": "A34", "ruling": "202106", "deductibility": "1", "assets": 0, "income": 0, "revenue": 0}], "YMP": [{"ein": "832941905", "name": "YMP FOUNDATION", "city": "AIRMONT", "state": "NY", "zip": "10952-4317", "ntee": "T20", "ruling": "201905", "deductibility": "1", "assets": 775230, "income": 34942, "revenue": 0}], "NEUROBLASTOMA": [{"ein": "832949854", "name": "HOPE FOR MIRACLES INC - CHILDRENS NEUROBLASTOMA RESEARCH", "city": "JAY", "state": "NY", "zip": "12941-2709", "ntee": "G30", "ruling": "201906", "deductibility": "1", "assets": 0, "income": 0, "revenue": 0}], "INTERLUDE": [{"ein": "843279787", "name": "INTERLUDE ARTIST RESIDENCY INC", "city": "HUDSON", "state": "NY", "zip": "12534-4618", "ntee": "A90", "ruling": "201910", "deductibility": "1", "assets": 66283, "income": 149042, "revenue": 149042}], "TKS": [{"ein": "843741568", "name": "TKS OF AMERICA INC", "city": "WHITE PLAINS", "state": "NY", "zip": "10606-1952", "ntee": "P20", "ruling": "202001", "deductibility": "1", "assets": 0, "income": 0, "revenue": 0}], "EK": [{"ein": "844646085", "name": "EK ACADEMY OF RHYTHMIC GYMNASTICS INC", "city": "STATEN ISLAND", "state": "NY", "zip": "10309-3983", "ntee": "N70", "ruling": "202005", "deductibility": "1", "assets": 88902, "income": 193215, "revenue": 193215}], "WENCUN": [{"ein": "845023662", "name": "WENCUN ASSOCIATION INC", "city": "BROOKLYN", "state": "NY", "zip": "11220-5584", "ntee": "R99", "ruling": "202201", "deductibility": "1", "assets": 26244, "income": 153773, "revenue": 153773}], "CEPT": [{"ein": "851514220", "name": "CEPT ALUMNI ASSOCIATION OF AMERICAS INC", "city": "ARDSLEY", "state": "NY", "zip": "10502-2530", "ntee": "B84", "ruling": "202212", "deductibility": "1", "assets": 0, "income": 0, "revenue": 0}], "BAGZ": [{"ein": "851755615", "name": "SWAG BAGZ", "city": "NEW YORK", "state": "NY", "zip": "10075-2088", "ntee": "", "ruling": "202009", "deductibility": "1", "assets": 400, "income": 0, "revenue": 0}], "ENTERTAIN": [{"ein": "852613360", "name": "ENTERTAIN IMPACT ADVOCACY ALLIANCE INC", "city": "NEW YORK", "state": "NY", "zip": "10009-3796", "ntee": "R40", "ruling": "202109", "deductibility": "2", "assets": 31626, "income": 75000, "revenue": 75000}], "AXEMEN": [{"ein": "853346075", "name": "AXEMEN PROFESSIONAL FIREFIGHTERS MOTORCYCLE CLUB NEW YORK CHAPTER 4", "city": "JAMESTOWN", "state": "NY", "zip": "14702-2141", "ntee": "W12", "ruling": "202103", "deductibility": "1", "assets": 0, "income": 0, "revenue": 0}, {"ein": "861217568", "name": "AXEMEN M C NEW YORK CHAPTER 5 INC", "city": "ROCHESTER", "state": "NY", "zip": "14615-0435", "ntee": "H99", "ruling": "202110", "deductibility": "1", "assets": 0, "income": 0, "revenue": 0}], "METAS": [{"ein": "854294186", "name": "FUNDACION ALCANZANDO METAS PARA SONREIR EN SALUD FAMS INC", "city": "BRONX", "state": "NY", "zip": "10457-8416", "ntee": "A01", "ruling": "202103", "deductibility": "1", "assets": 0, "income": 0, "revenue": 0}], "PD": [{"ein": "854302823", "name": "BUFFALO PD EXPLORERS POST NO 638 INC", "city": "BUFFALO", "state": "NY", "zip": "14202-3476", "ntee": "O20", "ruling": "202503", "deductibility": "1", "assets": 0, "income": 0, "revenue": 0}], "KHARCHU": [{"ein": "854402950", "name": "KHARCHU PEDJUNG GATSHEL INC", "city": "MIDDLETOWN", "state": "NY", "zip": "10941-1500", "ntee": "", "ruling": "202301", "deductibility": "1", "assets": 13954, "income": 3305, "revenue": 3305}], "ADAPTT": [{"ein": "861216682", "name": "ADAPTT ROCHESTER INC", "city": "HAMLIN", "state": "NY", "zip": "14464-9302", "ntee": "P85", "ruling": "202111", "deductibility": "1", "assets": 54344, "income": 74894, "revenue": 74894}], "VOLTAIRE": [{"ein": "862274887", "name": "VOLTAIRE FOUNDATION OF NORTH AMERICA", "city": "NEW YORK", "state": "NY", "zip": "10001-4648", "ntee": "D01", "ruling": "202111", "deductibility": "2", "assets": 0, "income": 0, "revenue": 0}, {"ein": "934570436", "name": "VOLTAIRE PHILANTHROPIC SOCIETY INC", "city": "NEW YORK", "state": "NY", "zip": "10001-4648", "ntee": "D20", "ruling": "202401", "deductibility": "1", "assets": 0, "income": 0, "revenue": 0}], "SERMON": [{"ein": "863647482", "name": "FOOD SERMON FOUNDATION INC", "city": "BROOKLYN", "state": "NY", "zip": "11225-5013", "ntee": "K30", "ruling": "202410", "deductibility": "1", "assets": 0, "income": 0, "revenue": 0}], "TRUMPETER": [{"ein": "871794334", "name": "TRUMPETER MINISTRIES INC", "city": "NEW HYDE PARK", "state": "NY", "zip": "11040-2003", "ntee": "X21", "ruling": "202205", "deductibility": "1", "assets": 316798, "income": 187272, "revenue": 187272}], "KASTLE": [{"ein": "876429956", "name": "KASTLE FOUNDATION", "city": "ORCHARD PARK", "state": "NY", "zip": "14127-5001", "ntee": "T20", "ruling": "202112", "deductibility": "1", "assets": 705898, "income": 29500, "revenue": 0}, {"ein": "991183031", "name": "HARLEM KAPPA KASTLE FOUNDATION INC", "city": "NEW YORK", "state": "NY", "zip": "10031-6202", "ntee": "A23", "ruling": "202406", "deductibility": "1", "assets": 0, "income": 0, "revenue": 0}], "CONFIDENCE": [{"ein": "884117293", "name": "BREAST CANCER CONFIDENCE PROJECT", "city": "PENN YAN", "state": "NY", "zip": "14527-0333", "ntee": "E86", "ruling": "202305", "deductibility": "1", "assets": 0, "income": 0, "revenue": 0}, {"ein": "994893792", "name": "CONFIDENCE INITIATIVE", "city": "BROOKLYN", "state": "NY", "zip": "11238-5179", "ntee": "S20", "ruling": "202506", "deductibility": "1", "assets": 0, "income": 0, "revenue": 0}], "NACHLES": [{"ein": "920511958", "name": "NACHLES YAKOV INC", "city": "BROOKLYN", "state": "NY", "zip": "11205-2070", "ntee": "X30", "ruling": "202303", "deductibility": "1", "assets": 0, "income": 0, "revenue": 0}], "REALIFE": [{"ein": "921969393", "name": "REALIFE MINISTRIES INC", "city": "GLEN HEAD", "state": "NY", "zip": "11545-3303", "ntee": "X20", "ruling": "202305", "deductibility": "1", "assets": 110912, "income": 135238, "revenue": 135238}], "BRAID": [{"ein": "922618022", "name": "NATURAL HAIRSTYLE AND BRAID COALITION INC", "city": "BROOKLYN", "state": "NY", "zip": "11230-7410", "ntee": "A03", "ruling": "202311", "deductibility": "1", "assets": 0, "income": 0, "revenue": 0}], "GURUJI": [{"ein": "923751897", "name": "BLESSINGS ALWAYS GURUJI INC", "city": "NEW HYDE PARK", "state": "NY", "zip": "11040-4211", "ntee": "X70", "ruling": "202403", "deductibility": "1", "assets": 0, "income": 0, "revenue": 0}], "CENTERSTONE": [{"ein": "926248885", "name": "CENTERSTONE CHARITABLE FOUNDATION", "city": "BROOKLYN", "state": "NY", "zip": "11219-3908", "ntee": "T23", "ruling": "202504", "deductibility": "1", "assets": 216106, "income": 417931, "revenue": 0}], "KOYDEN": [{"ein": "930755606", "name": "CONG BETH AARON OF KOYDEN OFF", "city": "GREAT NECK", "state": "NY", "zip": "11021-4643", "ntee": "", "ruling": "197607", "deductibility": "1", "assets": 0, "income": 0, "revenue": 0}], "TEMIMEI": [{"ein": "931631415", "name": "TEMIMEI TORAH OF MONSEY INC", "city": "SPRING VALLEY", "state": "NY", "zip": "10977-8314", "ntee": "X30", "ruling": "202401", "deductibility": "1", "assets": 0, "income": 0, "revenue": 0}], "ZAREINU": [{"ein": "932100710", "name": "ZAREINU INC", "city": "FAR ROCKAWAY", "state": "NY", "zip": "11691-4433", "ntee": "B28", "ruling": "202405", "deductibility": "1", "assets": 1212733, "income": 1271867, "revenue": 1271867}], "BECKHOOK": [{"ein": "933760954", "name": "BECKHOOK PRIDE CORP", "city": "RED HOOK", "state": "NY", "zip": "12571-2112", "ntee": "R26", "ruling": "202405", "deductibility": "1", "assets": 0, "income": 0, "revenue": 0}], "RACHMISTIRVKA": [{"ein": "990612507", "name": "CONGREGATION BAIS HAMEDRESH RACHMISTIRVKA", "city": "MONSEY", "state": "NY", "zip": "10952-2550", "ntee": "X30", "ruling": "202404", "deductibility": "1", "assets": 0, "income": 0, "revenue": 0}], "SAMMAAN": [{"ein": "992290106", "name": "SAMMAAN FOR ALL INC", "city": "PLAINVIEW", "state": "NY", "zip": "11803-5022", "ntee": "W99", "ruling": "202404", "deductibility": "1", "assets": 6040, "income": 19698, "revenue": 19698}], "UMUAHIA": [{"ein": "992862726", "name": "NDI UMUAHIA PROGRESSIVE ASSOCIATION NEW YORK INCORPORATED", "city": "ALBANY", "state": "NY", "zip": "12207-2834", "ntee": "P12", "ruling": "202405", "deductibility": "1", "assets": 0, "income": 0, "revenue": 0}], "NUEVOS": [{"ein": "993837852", "name": "NUEVOS HORIZONTES INC", "city": "YONKERS", "state": "NY", "zip": "10705-2371", "ntee": "P84", "ruling": "202409", "deductibility": "1", "assets": 0, "income": 0, "revenue": 0}], "F1S": [{"ein": "994585373", "name": "F1S HELPS INC", "city": "NEW YORK", "state": "NY", "zip": "10022-6926", "ntee": "P20", "ruling": "202410", "deductibility": "1", "assets": 0, "income": 0, "revenue": 0}]}