{"MERCE": [{"ein": "016186903", "name": "MERCE CUNNINGHAM TRUST", "city": "NEW YORK", "state": "NY", "zip": "10019-3962", "ntee": "T23", "ruling": "200212", "deductibility": "1", "assets": 8781541, "income": 4047659, "revenue": 0}], "HEAT": [{"ein": "030583002", "name": "NYC HEAT INC", "city": "LONG BEACH", "state": "NY", "zip": "11561-1146", "ntee": "N62", "ruling": "200701", "deductibility": "1", "assets": 1527, "income": 22000, "revenue": 22000}, {"ein": "113084552", "name": "APPRENTICE JOURNEYWORKER EDUC FUND OF HEAT & FROST INSULATORS LOC 12", "city": "LONG IS CITY", "state": "NY", "zip": "11106-4416", "ntee": "J22Z", "ruling": "199304", "deductibility": "1", "assets": 2164229, "income": 739679, "revenue": 739679}, {"ein": "116302784", "name": "WELFARE FUND HEAT AND FROST INSULATORS LOCAL 12", "city": "LONG IS CITY", "state": "NY", "zip": "11106-4416", "ntee": "", "ruling": "198812", "deductibility": "0", "assets": 30003366, "income": 27751969, "revenue": 15086101}, {"ein": "131835032", "name": "INTERNATIONAL ASSOCIATION OF HEAT & FROST INSULATORS & ALLIED WORKERS", "city": "BRIARCLIFF MANOR", "state": "NY", "zip": "10510-1559", "ntee": "", "ruling": "196707", "deductibility": "2", "assets": 408909, "income": 576023, "revenue": 567844}, {"ein": "135574122", "name": "INTERNATIONAL ASSOCIATION OF HEAT & FROST INSULATORS & ALLIED WORKERS", "city": "LONG IS CITY", "state": "NY", "zip": "11106-4416", "ntee": "", "ruling": "194004", "deductibility": "2", "assets": 13676270, "income": 3598227, "revenue": 3598227}, {"ein": "141514924", "name": "INTERNATIONAL ASSOCIATION OF HEAT & FROST INSULATORS & ALLIED WORKERS", "city": "SCHENECTADY", "state": "NY", "zip": "12304-2531", "ntee": "", "ruling": "196707", "deductibility": "2", "assets": 924719, "income": 500596, "revenue": 500596}, {"ein": "146029801", "name": "HUDSON VALLEY OIL HEAT COUNCIL INC", "city": "RHINEBECK", "state": "NY", "zip": "12572-0692", "ntee": "", "ruling": "196208", "deductibility": "2", "assets": 159409, "income": 139484, "revenue": 61451}, {"ein": "160336135", "name": "INTERNATIONAL ASSOCIATION OF HEAT & FROST INSULATORS & ALLIED WORKERS", "city": "BUFFALO", "state": "NY", "zip": "14210-2652", "ntee": "", "ruling": "194409", "deductibility": "2", "assets": 221670, "income": 412874, "revenue": 383121}, {"ein": "166032104", "name": "HEAT AND FROST INSULATORS AND ALLIED WORKERS LOCAL NO 4 WELFARE", "city": "BUFFALO", "state": "NY", "zip": "14210-2652", "ntee": "", "ruling": "195803", "deductibility": "2", "assets": 1447698, "income": 1498450, "revenue": 1385034}, {"ein": "166051036", "name": "INTERNATIONAL ASSOCIATION OF HEAT & FROST INSULATORS & ALLIED WORKERS", "city": "LIVERPOOL", "state": "NY", "zip": "13090-2512", "ntee": "", "ruling": "194011", "deductibility": "2", "assets": 441838, "income": 354497, "revenue": 354497}, {"ein": "166093637", "name": "INTERNATIONAL ASSOCIATION OF HEAT & FROST INSULATORS & ALLIED WORKERS", "city": "ROCHESTER", "state": "NY", "zip": "14622-1552", "ntee": "J40", "ruling": "194011", "deductibility": "2", "assets": 170991, "income": 328995, "revenue": 328995}, {"ein": "223050907", "name": "INTERNATIONAL ASSOCIATION OF HEAT AND FROST INSULATORS AND ALLIED WO", "city": "ROCHESTER", "state": "NY", "zip": "14622-1552", "ntee": "", "ruling": "199008", "deductibility": "2", "assets": 3319839, "income": 1051602, "revenue": 1051602}, {"ein": "237086241", "name": "INTERNAL ASSN OF HEAT & FROST INSULATORS & ASBESTOS 91 WELFARE F", "city": "HUDSON", "state": "NY", "zip": "12534-2355", "ntee": "", "ruling": "197208", "deductibility": "2", "assets": 2485293, "income": 2823886, "revenue": 2823886}, {"ein": "271447887", "name": "ADIRONDACK HEAT BASEBALL INC", "city": "CLIFTON PARK", "state": "NY", "zip": "12065-7617", "ntee": "N63", "ruling": "201010", "deductibility": "1", "assets": 0, "income": 0, "revenue": 0}, {"ein": "276001997", "name": "NY-NE STATES CONF INTL ASSN OF HEAT AND FROST INSULATORS & ASBSTSS CTR", "city": "ROCHESTER", "state": "NY", "zip": "14617-1739", "ntee": "T30", "ruling": "200205", "deductibility": "1", "assets": 0, "income": 0, "revenue": 0}, {"ein": "333698797", "name": "HEAT ELITE YOUTH ORGANIZATION INC", "city": "CAMBRIA HTS", "state": "NY", "zip": "11411-2127", "ntee": "N99", "ruling": "202504", "deductibility": "1", "assets": 0, "income": 0, "revenue": 0}, {"ein": "452436636", "name": "ELITE HEAT CHEER INC", "city": "NORTH TONAWANDA", "state": "NY", "zip": "14120-1391", "ntee": "N11", "ruling": "201204", "deductibility": "1", "assets": 0, "income": 0, "revenue": 0}, {"ein": "472309345", "name": "HEAT SEEK INC", "city": "BROOKLYN", "state": "NY", "zip": "11205-4021", "ntee": "L19", "ruling": "201602", "deductibility": "1", "assets": 14790, "income": 6200, "revenue": 6200}, {"ein": "923360931", "name": "LI HEAT FASTPITCH", "city": "NESCONSET", "state": "NY", "zip": "11767-1603", "ntee": "N63", "ruling": "202305", "deductibility": "1", "assets": 0, "income": 0, "revenue": 0}, {"ein": "991859283", "name": "UPSTATE HEAT CHEERLEADING INCORPORATED", "city": "SYRACUSE", "state": "NY", "zip": "13212-1640", "ntee": "N40", "ruling": "202403", "deductibility": "1", "assets": 0, "income": 0, "revenue": 0}], "WARBIRDS": [{"ein": "030608823", "name": "GENESEE WARBIRDS", "city": "ROCHESTER", "state": "NY", "zip": "14614-1601", "ntee": "A50", "ruling": "200708", "deductibility": "1", "assets": 0, "income": 0, "revenue": 0}], "HARRINGTON": [{"ein": "036004981", "name": "G HARRINGTON TUW FBO DANBY CHILDREN 31V076019", "city": "BUFFALO", "state": "NY", "zip": "14240-1504", "ntee": "T11", "ruling": "201905", "deductibility": "1", "assets": 136820, "income": 42366, "revenue": 7610}, {"ein": "816205940", "name": "ROBERT DUDLEY HARRINGTON JR CHARITABLE FOUNDATION", "city": "NEW YORK", "state": "NY", "zip": "10020-1401", "ntee": "T20", "ruling": "201603", "deductibility": "1", "assets": 6362641, "income": 1520018, "revenue": 0}], "ZIM": [{"ein": "043197614", "name": "BASSIN ZIM EDUCATION AND DEVELOPMENT FUND INC", "city": "QUEENS VILLAGE", "state": "NY", "zip": "11428-0000", "ntee": "Q300", "ruling": "199403", "deductibility": "1", "assets": 50, "income": 0, "revenue": 0}, {"ein": "113631951", "name": "SOL ZIM JEWISH ENRICHMENT MUSIC FOUNDATION INC", "city": "QUEENS VLG", "state": "NY", "zip": "11427-1342", "ntee": "X80", "ruling": "200204", "deductibility": "1", "assets": 1, "income": 200, "revenue": 200}], "JUDITH": [{"ein": "060959597", "name": "CONGREGATION OHEL YITZCHOK C O JUDITH WALDMAN", "city": "MONSEY", "state": "NY", "zip": "10952-2911", "ntee": "", "ruling": "197801", "deductibility": "1", "assets": 0, "income": 0, "revenue": 0}, {"ein": "113014573", "name": "JUDITH AND PAUL HOCHHAUSER FOUNDATION INC", "city": "MERRICK", "state": "NY", "zip": "11566-5561", "ntee": "", "ruling": "199104", "deductibility": "1", "assets": 657376, "income": 38313, "revenue": 0}, {"ein": "113430161", "name": "JUDITH AND DONALD BECHLER FOUNDATION INC", "city": "PLAINVIEW", "state": "NY", "zip": "11803-4119", "ntee": "T90Z", "ruling": "199805", "deductibility": "1", "assets": 2256807, "income": 113051, "revenue": 0}, {"ein": "113548952", "name": "JUDITH C WHITE FOUNDATION INC", "city": "PRT WASHINGTN", "state": "NY", "zip": "11050-3757", "ntee": "T21", "ruling": "200105", "deductibility": "1", "assets": 6096290, "income": 1821671, "revenue": 0}, {"ein": "116535559", "name": "EFRAIM & JUDITH SCHWARTZ FOUNDATION", "city": "BROOKLYN", "state": "NY", "zip": "11210-3609", "ntee": "T22", "ruling": "200003", "deductibility": "1", "assets": 121918, "income": 75000, "revenue": 0}, {"ein": "133524116", "name": "BURTON P AND JUDITH B RESNICK FOUNDATION", "city": "NEW YORK", "state": "NY", "zip": "10022-1304", "ntee": "", "ruling": "198907", "deductibility": "1", "assets": 1384578, "income": 611443, "revenue": 0}, {"ein": "133680342", "name": "GERSON AND JUDITH LEIBER FOUNDATION INC", "city": "GARDEN CITY", "state": "NY", "zip": "11530-2045", "ntee": "", "ruling": "199401", "deductibility": "1", "assets": 1, "income": 1, "revenue": 0}, {"ein": "133919882", "name": "JUDITH & BENJAMIN MARKS FAMILY FOUNDATION INC", "city": "NEW YORK", "state": "NY", "zip": "10005-0000", "ntee": "T22Z", "ruling": "199803", "deductibility": "1", "assets": 111724, "income": 84400, "revenue": 0}, {"ein": "133922199", "name": "JAMES AND JUDITH K DIMON FOUNDATION", "city": "NEW YORK", "state": "NY", "zip": "10179-0001", "ntee": "T20J", "ruling": "199702", "deductibility": "1", "assets": 181276408, "income": 85444480, "revenue": 0}, {"ein": "134197644", "name": "JUDITH AND GERSON LEIBER FOUNDATION INC", "city": "GARDEN CITY", "state": "NY", "zip": "11530-2010", "ntee": "T21", "ruling": "200204", "deductibility": "1", "assets": 260551, "income": 17938, "revenue": 0}, {"ein": "136903968", "name": "JUDITH CHASE FOUNDATION", "city": "NEW YORK", "state": "NY", "zip": "10010-0000", "ntee": "", "ruling": "198903", "deductibility": "1", "assets": 369186, "income": 63105, "revenue": 0}, {"ein": "136981197", "name": "SIDNEY AND JUDITH KRANES CHARITABLE TR", "city": "NEW YORK", "state": "NY", "zip": "10170-0057", "ntee": "", "ruling": "199304", "deductibility": "1", "assets": 1277421, "income": 469182, "revenue": 0}, {"ein": "141836706", "name": "JUDITH B PHELAN AND RICHARD S PHELAN FAM FOUNDATION INC", "city": "GERMANTOWN", "state": "NY", "zip": "12526-0293", "ntee": "T22", "ruling": "200311", "deductibility": "1", "assets": 140038, "income": 38681, "revenue": 0}, {"ein": "166022071", "name": "JUDITH A SCHOELLKOPF TRUST 12-14-61", "city": "NORWICH", "state": "NY", "zip": "13815-0000", "ntee": "", "ruling": "000000", "deductibility": "0", "assets": 156466, "income": 28128, "revenue": 0}, {"ein": "202008732", "name": "MORGAN AND JUDITH MCGRATH PRIVATE FAMILY FOUNDATION", "city": "ARMONK", "state": "NY", "zip": "10504-1143", "ntee": "T20", "ruling": "200602", "deductibility": "1", "assets": 189877, "income": 86240, "revenue": 0}, {"ein": "222470111", "name": "JUDITH & EDWIN COHEN FOUNDATION", "city": "BINGHAMTON", "state": "NY", "zip": "13901-3154", "ntee": "", "ruling": "198310", "deductibility": "1", "assets": 2201628, "income": 61656, "revenue": 0}, {"ein": "223514762", "name": "THE WALTER V AND JUDITH L SHIPLEY FAMILY FOUNDATION", "city": "NEW YORK", "state": "NY", "zip": "10019-0000", "ntee": "T22Z", "ruling": "199708", "deductibility": "1", "assets": 7229033, "income": 3394278, "revenue": 0}, {"ein": "311577990", "name": "JUDITH L CHIARA CHARITABLE FUND INC", "city": "NEW YORK", "state": "NY", "zip": "10153-0033", "ntee": "T20Z", "ruling": "199801", "deductibility": "1", "assets": 6196086, "income": 1239762, "revenue": 0}, {"ein": "461349491", "name": "SAM AND JUDITH FREIER FOUNDATION", "city": "BROOKLYN", "state": "NY", "zip": "11210-3741", "ntee": "T22", "ruling": "201309", "deductibility": "1", "assets": 103177, "income": 35560, "revenue": 0}, {"ein": "815468397", "name": "JUDITH WHITNEY GODWIN FOUNDATION FOR THE ARTS", "city": "NEW YORK", "state": "NY", "zip": "10014-9601", "ntee": "T23", "ruling": "201706", "deductibility": "1", "assets": 25243083, "income": 25124041, "revenue": 0}, {"ein": "841995354", "name": "THE JUDITH@BERNSTEIN ART FOUNDATION INC", "city": "NEW YORK", "state": "NY", "zip": "10002-0000", "ntee": "T22", "ruling": "201910", "deductibility": "1", "assets": 1187, "income": 1, "revenue": 0}, {"ein": "873642112", "name": "STUART AND JUDITH ROSEN FOUNDATION INC", "city": "MASPETH", "state": "NY", "zip": "11378-1220", "ntee": "T22", "ruling": "202203", "deductibility": "1", "assets": 73648, "income": 100850, "revenue": 0}, {"ein": "874398538", "name": "JUDITH JOY ROSS FOUNDATION INC", "city": "NEW YORK", "state": "NY", "zip": "10014-4918", "ntee": "A40", "ruling": "202203", "deductibility": "1", "assets": 0, "income": 0, "revenue": 0}], "HYPERTHERMIA": [{"ein": "061076301", "name": "MALIGNANT HYPERTHERMIA ASSOCIATION OF THE UNITED STATE MHAUS", "city": "SHERBURNE", "state": "NY", "zip": "13460-9572", "ntee": "G99Z", "ruling": "198111", "deductibility": "1", "assets": 2591420, "income": 502049, "revenue": 478687}], "MAHOPACS": [{"ein": "061182470", "name": "CHAMBER OF COMMERCE OF THE MAHOPACS INC", "city": "MAHOPAC", "state": "NY", "zip": "10541-6613", "ntee": "", "ruling": "199801", "deductibility": "2", "assets": 143897, "income": 109107, "revenue": 108814}, {"ein": "141405203", "name": "JEWISH CENTER OF THE MAHOPACS INC", "city": "MAHOPAC", "state": "NY", "zip": "10541-1768", "ntee": "", "ruling": "199303", "deductibility": "1", "assets": 0, "income": 0, "revenue": 0}], "SEWARD": [{"ein": "061361870", "name": "SEWARD SENIOR CITIZENS OF FLORIDA NEW YORK INC", "city": "FLORIDA", "state": "NY", "zip": "10921-1513", "ntee": "", "ruling": "199308", "deductibility": "1", "assets": 0, "income": 0, "revenue": 0}, {"ein": "223048720", "name": "CECELIA JOYCE AND SEWARD JOHNSON", "city": "NEW YORK", "state": "NY", "zip": "10013-0778", "ntee": "", "ruling": "199010", "deductibility": "1", "assets": 4818126, "income": 1102310, "revenue": 0}, {"ein": "262321872", "name": "SEWARD HOUSE MUSEUM", "city": "AUBURN", "state": "NY", "zip": "13021-3929", "ntee": "A54", "ruling": "200809", "deductibility": "1", "assets": 14691012, "income": 2815007, "revenue": 2800292}, {"ein": "454370500", "name": "SEWARD HOMESTEAD", "city": "FLORIDA", "state": "NY", "zip": "10921-0000", "ntee": "A99", "ruling": "201405", "deductibility": "1", "assets": 0, "income": 0, "revenue": 0}, {"ein": "471382281", "name": "SEWARD PARK CONSERVANCY", "city": "NEW YORK", "state": "NY", "zip": "10002-0840", "ntee": "N32", "ruling": "201410", "deductibility": "1", "assets": 0, "income": 0, "revenue": 0}], "PEARSON": [{"ein": "061484929", "name": "PEARSON-RAPPAPORT FOUNDATION", "city": "ALBANY", "state": "NY", "zip": "12212-5201", "ntee": "T70J", "ruling": "199706", "deductibility": "1", "assets": 1488146, "income": 382899, "revenue": 0}, {"ein": "853477070", "name": "LUCA GARGIULO PEARSON FOUNDATION INC", "city": "WEST ISLIP", "state": "NY", "zip": "11795-5011", "ntee": "H20", "ruling": "202101", "deductibility": "1", "assets": 0, "income": 0, "revenue": 0}, {"ein": "991538980", "name": "HENRY L PEARSON PRODUCTION CORPORATION", "city": "SAINT ALBANS", "state": "NY", "zip": "11412-2313", "ntee": "A27", "ruling": "202410", "deductibility": "1", "assets": 0, "income": 0, "revenue": 0}], "STRIMBA": [{"ein": "061498768", "name": "CONGREGATION STRIMBA INC", "city": "BROOKLYN", "state": "NY", "zip": "11211-6957", "ntee": "X30Z", "ruling": "199802", "deductibility": "1", "assets": 0, "income": 0, "revenue": 0}], "SHAIM": [{"ein": "061505764", "name": "CONG BINYAN SHAIM DSARUASH", "city": "HIGHLAND MLS", "state": "NY", "zip": "10930-0745", "ntee": "X30Z", "ruling": "199805", "deductibility": "1", "assets": 0, "income": 0, "revenue": 0}, {"ein": "112513143", "name": "YESHIVA OHEL SHAIM D KAALEV INC", "city": "BROOKLYN", "state": "NY", "zip": "11211-8519", "ntee": "", "ruling": "197912", "deductibility": "1", "assets": 0, "income": 0, "revenue": 0}], "RADHA": [{"ein": "061516938", "name": "SHRI RADHA KRISHNA MANDIR INC", "city": "S OZONE PARK", "state": "NY", "zip": "11420-3310", "ntee": "X70", "ruling": "201108", "deductibility": "1", "assets": 0, "income": 0, "revenue": 0}, {"ein": "113280974", "name": "RADHA RAMAN MANDIR INC", "city": "FLUSHING", "state": "NY", "zip": "11355-4136", "ntee": "X70Z", "ruling": "199605", "deductibility": "1", "assets": 0, "income": 0, "revenue": 0}, {"ein": "113375018", "name": "RADHA KRISHNA MANDIR INC", "city": "JAMAICA", "state": "NY", "zip": "11435-5019", "ntee": "X70Z", "ruling": "199710", "deductibility": "1", "assets": 0, "income": 0, "revenue": 0}, {"ein": "134099330", "name": "SRI RADHA GOVINDA TEMPLE AND INTERNATIONAL CULTURAL CENTRE INC", "city": "NEW YORK", "state": "NY", "zip": "10003-7744", "ntee": "X50", "ruling": "200008", "deductibility": "1", "assets": 0, "income": 0, "revenue": 0}, {"ein": "462968751", "name": "RADHA GOVIND DHAM NEW YORK", "city": "FLORAL PARK", "state": "NY", "zip": "11004-1707", "ntee": "X70", "ruling": "201407", "deductibility": "1", "assets": 0, "income": 0, "revenue": 0}, {"ein": "465480001", "name": "SHREE SHREE RADHA MADHAB MANDIR", "city": "BROOKLYN", "state": "NY", "zip": "11218-4208", "ntee": "X40", "ruling": "201703", "deductibility": "1", "assets": 59589, "income": 45565, "revenue": 45565}, {"ein": "473242642", "name": "RADHA KRISHNA SEVAK SANGHA USA INC", "city": "BRONX", "state": "NY", "zip": "10472-4714", "ntee": "X70", "ruling": "201609", "deductibility": "1", "assets": 0, "income": 0, "revenue": 0}, {"ein": "821319582", "name": "SHRI RADHA KRISHNA UPASANA INC", "city": "SCHENECTADY", "state": "NY", "zip": "12308-3425", "ntee": "X70", "ruling": "202204", "deductibility": "1", "assets": 0, "income": 0, "revenue": 0}, {"ein": "830618211", "name": "SRI SRI BALGOPAL RADHA GOVINDA SOCIETY BRGS OF NEW YORK", "city": "FLORAL PARK", "state": "NY", "zip": "11001-1416", "ntee": "X70", "ruling": "202406", "deductibility": "1", "assets": 20481, "income": 15924, "revenue": 15924}], "SIMCHAS": [{"ein": "061537463", "name": "KEREN SIMCHAS CHOSSON VE KALLAH INC", "city": "BROOKLYN", "state": "NY", "zip": "11203-1267", "ntee": "P20", "ruling": "199906", "deductibility": "1", "assets": 600946, "income": 2545101, "revenue": 2545101}, {"ein": "113120510", "name": "CONG SIMCHAS NESEIN", "city": "BROOKLYN", "state": "NY", "zip": "11210-3714", "ntee": "", "ruling": "199212", "deductibility": "1", "assets": 0, "income": 0, "revenue": 0}, {"ein": "113507523", "name": "KIPAS SIMCHAS HANEFESH", "city": "BROOKLYN", "state": "NY", "zip": "11211-8511", "ntee": "X30", "ruling": "200004", "deductibility": "1", "assets": 0, "income": 0, "revenue": 0}, {"ein": "134130595", "name": "CONG SIMCHAS YISROEL", "city": "SPRING VALLEY", "state": "NY", "zip": "10977-3830", "ntee": "X30", "ruling": "200010", "deductibility": "1", "assets": 0, "income": 0, "revenue": 0}, {"ein": "137169042", "name": "KEREN SIMCHAS HABAYIS", "city": "BROOKLYN", "state": "NY", "zip": "11223-2215", "ntee": "X30", "ruling": "199912", "deductibility": "1", "assets": 0, "income": 0, "revenue": 0}, {"ein": "200780201", "name": "CROWN HEIGHTS CHEVRA SIMCHAS SHABBOS VYOM TOV INC", "city": "BROOKLYN", "state": "NY", "zip": "11225-3130", "ntee": "T30", "ruling": "200405", "deductibility": "1", "assets": 1084715, "income": 3826150, "revenue": 3826150}, {"ein": "201775849", "name": "CONGREGATION SIMCHAS CHAIM INC", "city": "BROOKLYN", "state": "NY", "zip": "11204-2412", "ntee": "X30", "ruling": "200602", "deductibility": "1", "assets": 0, "income": 0, "revenue": 0}, {"ein": "202079591", "name": "SIMCHAS DAVID FOUNDATION TR", "city": "BROOKLYN", "state": "NY", "zip": "11205-2803", "ntee": "T20", "ruling": "200706", "deductibility": "1", "assets": 1020769, "income": 192007, "revenue": 0}, {"ein": "202346929", "name": "SIMCHAS HATORAH INC", "city": "BROOKLYN", "state": "NY", "zip": "11218-4005", "ntee": "X83", "ruling": "200609", "deductibility": "1", "assets": 0, "income": 0, "revenue": 0}, {"ein": "208161023", "name": "SIMCHAS YOM TOV INC", "city": "BROOKLYN", "state": "NY", "zip": "11219-2701", "ntee": "P20", "ruling": "201004", "deductibility": "1", "assets": 205963, "income": 721029, "revenue": 721029}, {"ein": "371853361", "name": "CONGREGATION SIMCHAS CHASANIM INC", "city": "BROOKLYN", "state": "NY", "zip": "11204-1511", "ntee": "X30", "ruling": "201711", "deductibility": "1", "assets": 0, "income": 0, "revenue": 0}, {"ein": "465686947", "name": "SIMCHAS SARAH INC", "city": "BROOKLYN", "state": "NY", "zip": "11210-3618", "ntee": "P60", "ruling": "201411", "deductibility": "1", "assets": 37328, "income": 63306, "revenue": 63306}, {"ein": "474281344", "name": "SIMCHAS HACHAIM INC", "city": "BROOKLYN", "state": "NY", "zip": "11211-7911", "ntee": "X30", "ruling": "201602", "deductibility": "1", "assets": 0, "income": 0, "revenue": 0}, {"ein": "522373587", "name": "KEREN SIMCHAS KALLAH", "city": "SPRING VALLEY", "state": "NY", "zip": "10977-6131", "ntee": "P50", "ruling": "200210", "deductibility": "1", "assets": 1882180, "income": 1953371, "revenue": 1816956}, {"ein": "815463397", "name": "AMERICAN FRIENDS OF KEHILLAS SIMCHAS HATORAH INC", "city": "FRESH MEADOWS", "state": "NY", "zip": "11365-2032", "ntee": "Q30", "ruling": "202004", "deductibility": "1", "assets": 114, "income": 29792, "revenue": 29792}, {"ein": "822429620", "name": "SIMCHAS EPHRAIM SHIMON", "city": "GARNERVILLE", "state": "NY", "zip": "10923-1939", "ntee": "P30", "ruling": "201708", "deductibility": "1", "assets": 0, "income": 0, "revenue": 0}, {"ein": "823640227", "name": "SIMCHAS MAYER FUND INC", "city": "BROOKLYN", "state": "NY", "zip": "11210-5428", "ntee": "P6", "ruling": "201809", "deductibility": "1", "assets": 281128, "income": 363858, "revenue": 363858}, {"ein": "842342205", "name": "KEREN SIMCHAS NISUIN INC", "city": "BROOKLYN", "state": "NY", "zip": "11219-3011", "ntee": "P12", "ruling": "202112", "deductibility": "1", "assets": 0, "income": 0, "revenue": 0}, {"ein": "844835755", "name": "CONG SIMCHAS ARON", "city": "BROOKLYN", "state": "NY", "zip": "11205-1641", "ntee": "X30", "ruling": "202201", "deductibility": "1", "assets": 0, "income": 0, "revenue": 0}, {"ein": "863858510", "name": "SIMCHAS HAKITAH INC", "city": "NEW YORK", "state": "NY", "zip": "10007-2023", "ntee": "X30", "ruling": "202108", "deductibility": "1", "assets": 0, "income": 0, "revenue": 0}], "FANS": [{"ein": "061696245", "name": "FANS FOR THE CURE", "city": "NEW YORK", "state": "NY", "zip": "10101-0213", "ntee": "T30", "ruling": "200307", "deductibility": "1", "assets": 33446, "income": 209889, "revenue": 194522}, {"ein": "460949415", "name": "ROSLYN MARCHING BAND FANS INC", "city": "ROSLYN HEIGHTS", "state": "NY", "zip": "11577-0000", "ntee": "B11", "ruling": "201210", "deductibility": "1", "assets": 46660, "income": 313319, "revenue": 313319}], "OAKS": [{"ein": "110804490", "name": "GLEN OAKS CLUB INC", "city": "OLD WESTBURY", "state": "NY", "zip": "11568-1704", "ntee": "", "ruling": "194701", "deductibility": "2", "assets": 17495720, "income": 25695215, "revenue": 23791768}, {"ein": "131723545", "name": "OLD OAKS COUNTRY CLUB INC", "city": "PURCHASE", "state": "NY", "zip": "10577-1619", "ntee": "", "ruling": "193705", "deductibility": "2", "assets": 3764153, "income": 15559722, "revenue": 14664816}, {"ein": "132939922", "name": "TWIN OAKS SWIM & TENNIS CLUB INC", "city": "CHAPPAQUA", "state": "NY", "zip": "10514-0429", "ntee": "", "ruling": "197808", "deductibility": "2", "assets": 841118, "income": 40163, "revenue": 40163}, {"ein": "133277022", "name": "OLD OAKS FOUNDATION INC", "city": "PURCHASE", "state": "NY", "zip": "10577-1619", "ntee": "", "ruling": "198604", "deductibility": "1", "assets": 170455, "income": 394392, "revenue": 391608}, {"ein": "161165662", "name": "OAKS CORNERS VOLUNTEER FIRE COMPANY INC", "city": "OAKS CORNERS", "state": "NY", "zip": "14518-0000", "ntee": "M24", "ruling": "200203", "deductibility": "1", "assets": 780627, "income": 224871, "revenue": 204748}, {"ein": "161173641", "name": "OAKS CORNERS PRESBYTERIAN", "city": "OAKS CORNERS", "state": "NY", "zip": "14518-0006", "ntee": "", "ruling": "196401", "deductibility": "1", "assets": 0, "income": 0, "revenue": 0}, {"ein": "161489340", "name": "CHAPEL OAKS INC", "city": "ROCHESTER", "state": "NY", "zip": "14621-3065", "ntee": "L22", "ruling": "199602", "deductibility": "1", "assets": 16883268, "income": 5158275, "revenue": 5158275}, {"ein": "222554166", "name": "OAKS CORNERS IMPROVEMENT ASSOCIATION INC", "city": "OAKS CORNERS", "state": "NY", "zip": "14518-0000", "ntee": "N30Z", "ruling": "199608", "deductibility": "1", "assets": 0, "income": 0, "revenue": 0}, {"ein": "237336330", "name": "GLEN OAKS VOLUNTEER AMBULANCE CORPS INC", "city": "FLORAL PARK", "state": "NY", "zip": "11004-1252", "ntee": "E62Z", "ruling": "197408", "deductibility": "1", "assets": 339192, "income": 174226, "revenue": 148451}, {"ein": "260322375", "name": "RED OAKS MILL FIRE COMPANY", "city": "POUGHKEEPSIE", "state": "NY", "zip": "12603-5605", "ntee": "M24", "ruling": "201407", "deductibility": "1", "assets": 0, "income": 0, "revenue": 0}, {"ein": "264490216", "name": "NEW VISION COVENANT CHURCH-GLEN OAKS NY", "city": "BAYSIDE", "state": "NY", "zip": "11361-1021", "ntee": "", "ruling": "197507", "deductibility": "0", "assets": 0, "income": 0, "revenue": 0}, {"ein": "275281234", "name": "GREAT OAKS FOUNDATION INC", "city": "NEW YORK", "state": "NY", "zip": "10002-4195", "ntee": "", "ruling": "201905", "deductibility": "1", "assets": 28079161, "income": 12341108, "revenue": 12341108}, {"ein": "452536101", "name": "TWIN OAKS HORSE SANCTUARY INC", "city": "LAKE GROVE", "state": "NY", "zip": "11755-0284", "ntee": "D20", "ruling": "201504", "deductibility": "1", "assets": 50169, "income": 75985, "revenue": 75236}, {"ein": "461603037", "name": "GREAT OAKS CHARTER SCHOOL", "city": "NEW YORK", "state": "NY", "zip": "10002-4195", "ntee": "B29", "ruling": "201408", "deductibility": "1", "assets": 47086022, "income": 9404659, "revenue": 9382706}, {"ein": "813850483", "name": "OAKS OF RIGHTEOUSNESS ORPHANAGE INC", "city": "BROOKLYN", "state": "NY", "zip": "11208-1227", "ntee": "P30", "ruling": "201701", "deductibility": "1", "assets": 85655, "income": 16945, "revenue": 16945}, {"ein": "823284565", "name": "OAKS CHURCH BROOKLYN", "city": "BROOKLYN", "state": "NY", "zip": "11211-4911", "ntee": "X21", "ruling": "201806", "deductibility": "1", "assets": 0, "income": 0, "revenue": 0}, {"ein": "933379734", "name": "RISING OAKS STEWARDSHIP FOUNDATION INC", "city": "SCIO", "state": "NY", "zip": "14880-9798", "ntee": "O50", "ruling": "202401", "deductibility": "1", "assets": 0, "income": 0, "revenue": 0}], "GILES": [{"ein": "111630806", "name": "ST GILES FOUNDATION", "city": "NEW YORK", "state": "NY", "zip": "10019-9710", "ntee": "", "ruling": "197912", "deductibility": "1", "assets": 38672871, "income": 7261518, "revenue": 0}, {"ein": "136154484", "name": "MRS GILES WHITING FOUNDATION", "city": "NEW YORK", "state": "NY", "zip": "10007-1947", "ntee": "B82", "ruling": "201509", "deductibility": "1", "assets": 72828409, "income": 21704094, "revenue": 0}], "SYNOGOGUE": [{"ein": "112039059", "name": "TRADITIONAL SYNOGOGUE OF ROCHDALE VILLAGE", "city": "JAMAICA", "state": "NY", "zip": "11434-0874", "ntee": "", "ruling": "198003", "deductibility": "1", "assets": 0, "income": 0, "revenue": 0}, {"ein": "112245102", "name": "FIRE ISLAND SYNOGOGUE", "city": "OCEAN BEACH", "state": "NY", "zip": "11770-0003", "ntee": "", "ruling": "197807", "deductibility": "1", "assets": 0, "income": 0, "revenue": 0}, {"ein": "112412049", "name": "FELLOWSHIP SYNOGOGUE", "city": "SETAUKET", "state": "NY", "zip": "11733-2259", "ntee": "", "ruling": "197703", "deductibility": "1", "assets": 0, "income": 0, "revenue": 0}], "IDLE": [{"ein": "112140637", "name": "IDLE HOUR TAXPAYERS ASSOCIATION OF OAKDALE L I N Y INC", "city": "OAKDALE", "state": "NY", "zip": "11769-2006", "ntee": "", "ruling": "196906", "deductibility": "2", "assets": 541980, "income": 267150, "revenue": 267150}, {"ein": "113009426", "name": "IDLE HOUR FLY FISHERS INC", "city": "OAKDALE", "state": "NY", "zip": "11769-0582", "ntee": "", "ruling": "199105", "deductibility": "2", "assets": 0, "income": 0, "revenue": 0}, {"ein": "113250212", "name": "IDLE HOUR CIVIC ASSOCIATION INC", "city": "OAKDALE", "state": "NY", "zip": "11769-1948", "ntee": "", "ruling": "199601", "deductibility": "2", "assets": 0, "income": 0, "revenue": 0}], "SERT": [{"ein": "112189330", "name": "MERKAZ HATORAH YACHEL YISROEL-SERT WIZNITZ INC", "city": "BROOKLYN", "state": "NY", "zip": "11219-2637", "ntee": "", "ruling": "198609", "deductibility": "1", "assets": 0, "income": 0, "revenue": 0}], "METH": [{"ein": "112429570", "name": "CONGREGATION GEMILAS CHESED ZICHRON YAAKOV BAR MAYER INC C O M METH", "city": "BKLYN", "state": "NY", "zip": "11219-3527", "ntee": "", "ruling": "197711", "deductibility": "1", "assets": 0, "income": 0, "revenue": 0}, {"ein": "166306035", "name": "GERALD LOCKROW TR UW FBO 1ST METH CH MASSENA", "city": "NORWICH", "state": "NY", "zip": "13815-0000", "ntee": "X210", "ruling": "199012", "deductibility": "1", "assets": 709872, "income": 135327, "revenue": 0}, {"ein": "456509284", "name": "GRACE DARLING TW FBO UN METH CHURCH", "city": "BUFFALO", "state": "NY", "zip": "14240-1504", "ntee": "T20", "ruling": "201205", "deductibility": "1", "assets": 145411, "income": 84739, "revenue": 0}, {"ein": "456691710", "name": "GEORGE LEE TR UW BO NATL DIV BD OF MISSIONS UNITED METH CHURCH", "city": "ELMIRA", "state": "NY", "zip": "14902-1522", "ntee": "", "ruling": "000000", "deductibility": "0", "assets": 11063424, "income": 6478235, "revenue": 0}, {"ein": "456696498", "name": "GEORGE LEE TR UW BO WORLD DIV BD OF MISSIONS UNITED METH CHURCH", "city": "ELMIRA", "state": "NY", "zip": "14902-1522", "ntee": "", "ruling": "000000", "deductibility": "0", "assets": 5490567, "income": 3002630, "revenue": 0}], "APTA": [{"ein": "112471615", "name": "APTA NEW YORK INC", "city": "WYNANTSKILL", "state": "NY", "zip": "12198-0592", "ntee": "", "ruling": "195105", "deductibility": "2", "assets": 1638284, "income": 1219180, "revenue": 700111}, {"ein": "133837693", "name": "CONGREGATION ZICHRON BAIS APTA", "city": "SPRING VALLEY", "state": "NY", "zip": "10977-1926", "ntee": "", "ruling": "201711", "deductibility": "1", "assets": 0, "income": 0, "revenue": 0}, {"ein": "261417957", "name": "CONGREGATION OHEV YISROEL OF APTA", "city": "BROOKLYN", "state": "NY", "zip": "11206-5402", "ntee": "X30", "ruling": "200908", "deductibility": "1", "assets": 0, "income": 0, "revenue": 0}, {"ein": "862575616", "name": "KHAL APTA INC", "city": "BROOKLYN", "state": "NY", "zip": "11211-7202", "ntee": "X30", "ruling": "202109", "deductibility": "1", "assets": 0, "income": 0, "revenue": 0}], "RAPHELL": [{"ein": "112528803", "name": "RAPHELL SIMS LAKOWITZ MEMORIAL FOUNDATION", "city": "BROOKLYN", "state": "NY", "zip": "11225-0000", "ntee": "T30", "ruling": "202404", "deductibility": "1", "assets": 455512, "income": 786, "revenue": 0}], "GIDEON": [{"ein": "112678393", "name": "THE GIDEON KNIGHTS FREEDOM CHURCH OF JESUS CHRIST", "city": "BROOKLYN", "state": "NY", "zip": "11212-4631", "ntee": "", "ruling": "198412", "deductibility": "1", "assets": 0, "income": 0, "revenue": 0}, {"ein": "113597161", "name": "GIDEON OUTREACH MINISTRIES", "city": "BROOKLYN", "state": "NY", "zip": "11212-6718", "ntee": "X21", "ruling": "200405", "deductibility": "1", "assets": 0, "income": 0, "revenue": 0}, {"ein": "237329471", "name": "GIDEON LODGE 140 BNAI BRITH HOUSING FOUNDATION INC", "city": "ALBANY", "state": "NY", "zip": "12203-0000", "ntee": "", "ruling": "197306", "deductibility": "1", "assets": 8316093, "income": 1093255, "revenue": 0}], "EUN": [{"ein": "112690871", "name": "M JOO KO EUN CHURCH", "city": "FLUSHING", "state": "NY", "zip": "11358-3107", "ntee": "", "ruling": "198503", "deductibility": "1", "assets": 0, "income": 0, "revenue": 0}, {"ein": "112805347", "name": "EUN SUNG PRESBYTERIAN CHURCH", "city": "REGO PARK", "state": "NY", "zip": "11374-1473", "ntee": "", "ruling": "198808", "deductibility": "1", "assets": 0, "income": 0, "revenue": 0}, {"ein": "113118027", "name": "SUNG EUN MISSION CHURCH OF N Y INC", "city": "FLUSHING", "state": "NY", "zip": "11355-1217", "ntee": "", "ruling": "199302", "deductibility": "1", "assets": 0, "income": 0, "revenue": 0}, {"ein": "113265961", "name": "EUN CHONG BIBLE PRESBYTERIAN CHURCH OF NEW YORK INC", "city": "LITTLE NECK", "state": "NY", "zip": "11362-1429", "ntee": "X20Z", "ruling": "199609", "deductibility": "1", "assets": 0, "income": 0, "revenue": 0}], "BENEVOLANT": [{"ein": "112889946", "name": "POLICE BENEVOLANT ASSOCIATION", "city": "PRT WASHINGTN", "state": "NY", "zip": "11050-0014", "ntee": "", "ruling": "198207", "deductibility": "2", "assets": 0, "income": 0, "revenue": 0}], "ELEFTHERIANI": [{"ein": "113026664", "name": "BENEVOLENT SOCIETY ELEFTHERIANI U S & CANADA INC", "city": "FLUSHING", "state": "NY", "zip": "11358-4126", "ntee": "A23", "ruling": "201707", "deductibility": "1", "assets": 209822, "income": 91019, "revenue": 62355}], "HACHOCHMOH": [{"ein": "113073745", "name": "KHAL OHR HACHOCHMOH", "city": "BROOKLYN", "state": "NY", "zip": "11211-7942", "ntee": "", "ruling": "199110", "deductibility": "1", "assets": 0, "income": 0, "revenue": 0}], "HATOV": [{"ein": "113074851", "name": "HAKORAS HATOV CHARITABLE FOUNDATION INC", "city": "BROOKLYN", "state": "NY", "zip": "11230-0000", "ntee": "", "ruling": "199211", "deductibility": "1", "assets": 754598, "income": 21939, "revenue": 0}, {"ein": "883637126", "name": "CONG HATOV VEHAMEITIV", "city": "MONROE", "state": "NY", "zip": "10950-0000", "ntee": "X30", "ruling": "202302", "deductibility": "1", "assets": 0, "income": 0, "revenue": 0}], "THEOLOGIAN": [{"ein": "113152330", "name": "ST JOHN THE THEOLOGIAN MISSION CHURCH", "city": "SHIRLEY", "state": "NY", "zip": "11967-1722", "ntee": "", "ruling": "197210", "deductibility": "1", "assets": 0, "income": 0, "revenue": 0}], "DOMINI": [{"ein": "113187115", "name": "ROMAN CATHOLIC PONTIFICAL LAY ASSOCIATION MEMORES DOMINI", "city": "BROOKLYN", "state": "NY", "zip": "11209-3004", "ntee": "", "ruling": "199402", "deductibility": "1", "assets": 14843603, "income": 1579245, "revenue": 1579245}], "SUT": [{"ein": "113188352", "name": "PAWAN SUT RELIGIOUS AND CULTURAL GROUP", "city": "RICHMOND HILL", "state": "NY", "zip": "11418-1337", "ntee": "X99Z", "ruling": "199511", "deductibility": "1", "assets": 0, "income": 0, "revenue": 0}], "YEHUDY": [{"ein": "113191742", "name": "HATZOLAS YEHUDY TAIMON", "city": "MONROE", "state": "NY", "zip": "10949-8073", "ntee": "", "ruling": "199406", "deductibility": "1", "assets": 0, "income": 0, "revenue": 0}], "NECHOMAS": [{"ein": "113292023", "name": "NECHOMAS YISROEL", "city": "BROOKLYN", "state": "NY", "zip": "11218-3563", "ntee": "X99Z", "ruling": "199602", "deductibility": "1", "assets": 0, "income": 0, "revenue": 0}], "YHOSVA": [{"ein": "113349821", "name": "HORIZONTES LUMINOSOS CENTRO YHOSVA", "city": "WOODSIDE", "state": "NY", "zip": "11377-4635", "ntee": "X20Z", "ruling": "199809", "deductibility": "1", "assets": 0, "income": 0, "revenue": 0}], "BROCKETT": [{"ein": "113365325", "name": "MR & MRS EVERETT E BROCKETT SCHOLARSHIP FUND INC", "city": "SOUTHAMPTON", "state": "NY", "zip": "11968-5038", "ntee": "B82I", "ruling": "199706", "deductibility": "1", "assets": 67730, "income": 54671, "revenue": 0}], "CHASANIM": [{"ein": "113393892", "name": "CONG GEMACH KEREN CHASANIM DBOBOV", "city": "BROOKLYN", "state": "NY", "zip": "11219-3011", "ntee": "X30Z", "ruling": "199711", "deductibility": "1", "assets": 0, "income": 0, "revenue": 0}, {"ein": "113589553", "name": "CONGREGATION EZRAS CHASANIM", "city": "BROOKLYN", "state": "NY", "zip": "11204-2027", "ntee": "X30", "ruling": "200104", "deductibility": "1", "assets": 0, "income": 0, "revenue": 0}, {"ein": "133467199", "name": "KUPATH CHASANIM", "city": "NEW SQUARE", "state": "NY", "zip": "10977-7894", "ntee": "", "ruling": "198807", "deductibility": "1", "assets": 0, "income": 0, "revenue": 0}, {"ein": "133536517", "name": "KEREN CHASANIM CORP", "city": "MONROE", "state": "NY", "zip": "10949-0833", "ntee": "", "ruling": "199305", "deductibility": "1", "assets": 0, "income": 0, "revenue": 0}, {"ein": "200889631", "name": "KEREN CHASANIM OF SAAD L TALMID INC", "city": "MONSEY", "state": "NY", "zip": "10952-2609", "ntee": "X30", "ruling": "200407", "deductibility": "1", "assets": 0, "income": 0, "revenue": 0}, {"ein": "201215675", "name": "KIPAS CHASANIM", "city": "OSSINING", "state": "NY", "zip": "10562-1016", "ntee": "X90", "ruling": "202406", "deductibility": "1", "assets": 0, "income": 0, "revenue": 0}, {"ein": "371853361", "name": "CONGREGATION SIMCHAS CHASANIM INC", "city": "BROOKLYN", "state": "NY", "zip": "11204-1511", "ntee": "X30", "ruling": "201711", "deductibility": "1", "assets": 0, "income": 0, "revenue": 0}, {"ein": "812852157", "name": "CONG KEREN CHASANIM MAHARIT", "city": "MONROE", "state": "NY", "zip": "10950-6117", "ntee": "X30", "ruling": "201708", "deductibility": "1", "assets": 0, "income": 0, "revenue": 0}, {"ein": "833097609", "name": "KEREN CHASANIM INC", "city": "BROOKLYN", "state": "NY", "zip": "11211-6262", "ntee": "X30", "ruling": "201909", "deductibility": "1", "assets": 0, "income": 0, "revenue": 0}, {"ein": "854351074", "name": "EZER CHASANIM", "city": "NANUET", "state": "NY", "zip": "10954-5928", "ntee": "X30", "ruling": "202109", "deductibility": "1", "assets": 0, "income": 0, "revenue": 0}, {"ein": "933424975", "name": "KEREN CHASANIM TOLDOS YISROEL STANISLOV", "city": "MONSEY", "state": "NY", "zip": "10952-2916", "ntee": "X30", "ruling": "202312", "deductibility": "1", "assets": 0, "income": 0, "revenue": 0}], "JOINERS": [{"ein": "113415496", "name": "UNITED BROTHERHOOD OF CARPENTERS AND JOINERS", "city": "FLORAL PARK", "state": "NY", "zip": "11001-2036", "ntee": "", "ruling": "197007", "deductibility": "2", "assets": 649818, "income": 881671, "revenue": 881671}, {"ein": "113416037", "name": "UNITED BROTHERHOOD OF CARPENTERS AND JOINERS OF AMERICA-LOCAL UNION", "city": "BROOKLYN", "state": "NY", "zip": "11214-2868", "ntee": "", "ruling": "194010", "deductibility": "2", "assets": 1121852, "income": 1025911, "revenue": 1025911}, {"ein": "132954132", "name": "HOUSING DEVELOPMT FUND CO OF CARPEN TERS&JOINERS LOCAL 964-RAMAPO INC", "city": "SUFFERN", "state": "NY", "zip": "10901-4176", "ntee": "", "ruling": "198608", "deductibility": "1", "assets": 18593874, "income": 284452, "revenue": 284452}, {"ein": "133313856", "name": "WALLKILL HOUSING DEVELOPMENT CO OF CARPENTERS & JOINERS LOCAL 964 INC", "city": "SUFFERN", "state": "NY", "zip": "10901-4176", "ntee": "L20Z", "ruling": "198601", "deductibility": "1", "assets": 5712250, "income": 107928, "revenue": 107928}, {"ein": "133986049", "name": "UNITED BROTHERHOOD OF CARPENTERS & JOINERS OF AMERICA", "city": "NEW YORK", "state": "NY", "zip": "10014-3669", "ntee": "", "ruling": "197007", "deductibility": "2", "assets": 2787405, "income": 2888713, "revenue": 2888713}, {"ein": "135578155", "name": "UNITED BROTHERHOOD OF CARPENTERS & JOINERS OF AMERICA  20", "city": "STATEN ISLAND", "state": "NY", "zip": "10314-3418", "ntee": "", "ruling": "194402", "deductibility": "2", "assets": 61888, "income": 355962, "revenue": 355962}, {"ein": "135591944", "name": "UNITED BROTHERHOOD OF CARPENTERS & JOINERS OF AMERICA", "city": "NEW YORK", "state": "NY", "zip": "10014-3669", "ntee": "", "ruling": "194402", "deductibility": "2", "assets": 77624, "income": 452175, "revenue": 452175}, {"ein": "452428833", "name": "UNITED BROTHERHOOD OF CARPENTERS AND JOINERS OF AMERICA", "city": "ROCHESTER", "state": "NY", "zip": "14624-4990", "ntee": "", "ruling": "194010", "deductibility": "0", "assets": 156879, "income": 597560, "revenue": 594404}, {"ein": "452431524", "name": "UNITED BROTHERHOOD OF CARPENTERS JOINERS OF AMERICA", "city": "BINGHAMTON", "state": "NY", "zip": "13905-1805", "ntee": "", "ruling": "194010", "deductibility": "0", "assets": 382735, "income": 665015, "revenue": 665015}, {"ein": "452440457", "name": "UNITED BROTHERHOOD OF CARPENTERS AND JOINERS OF AMERICA", "city": "ALBANY", "state": "NY", "zip": "12203-5121", "ntee": "", "ruling": "194010", "deductibility": "0", "assets": 270101, "income": 384783, "revenue": 384783}, {"ein": "452440547", "name": "UNITED BROTHERHOOD OP CARPENTERS AND JOINERS OF AMERICA", "city": "HAUPPAUGE", "state": "NY", "zip": "11788-5183", "ntee": "", "ruling": "194010", "deductibility": "0", "assets": 264977, "income": 389107, "revenue": 389107}, {"ein": "452440598", "name": "UNITED BROTHERHOOD OF CARPENTERS AND JOINERS OF AMERICA", "city": "ROCK TAVERN", "state": "NY", "zip": "12575-5006", "ntee": "", "ruling": "194010", "deductibility": "0", "assets": 193766, "income": 482284, "revenue": 482284}, {"ein": "452787952", "name": "UNITED BROTHERHOOD OF CARPENTERS & JOINERS OF AMERICA", "city": "NEW YORK", "state": "NY", "zip": "10014-3669", "ntee": "", "ruling": "197007", "deductibility": "2", "assets": 3122482, "income": 1999206, "revenue": 1999206}, {"ein": "453052631", "name": "UNITED BROTHERHOOD OF CARPENTERS AND JOINERS OF AMERICA", "city": "WOODHAVEN", "state": "NY", "zip": "11421-3021", "ntee": "", "ruling": "197007", "deductibility": "2", "assets": 327348, "income": 718894, "revenue": 718894}, {"ein": "510237853", "name": "UNITED BROTHERHOOD OF CARPENTERS AND JOINERS OF AMERICA", "city": "SYRACUSE", "state": "NY", "zip": "13206-1110", "ntee": "", "ruling": "197007", "deductibility": "2", "assets": 1351518, "income": 366081, "revenue": 366081}, {"ein": "812768779", "name": "UNITED BROTHERHOOD OF CARPENTERS & JOINERS OF AMERICA", "city": "NEW YORK", "state": "NY", "zip": "10014-3669", "ntee": "", "ruling": "197007", "deductibility": "2", "assets": 50006, "income": 470122, "revenue": 470122}], "HANDLER": [{"ein": "113437791", "name": "HANDLER-MICHAELS FOUNDATION INC", "city": "NEW HYDE PARK", "state": "NY", "zip": "11040-1117", "ntee": "T20Z", "ruling": "199807", "deductibility": "1", "assets": 70474, "income": 10271, "revenue": 0}, {"ein": "116466236", "name": "THE@BARUCH AND RAIZEL HANDLER CHARITABLE FOUNDATION TRUST", "city": "BROOKLYN", "state": "NY", "zip": "11219-4748", "ntee": "T20Z", "ruling": "199812", "deductibility": "1", "assets": 46893, "income": 122, "revenue": 0}, {"ein": "136136957", "name": "MILTON AND MIRIAM HANDLER FOUNDATION", "city": "NEW YORK", "state": "NY", "zip": "10019-6050", "ntee": "", "ruling": "196403", "deductibility": "1", "assets": 7193608, "income": 4745682, "revenue": 0}, {"ein": "137314630", "name": "HANDLER FAM FOUNDATION TR", "city": "SOUTH SALEM", "state": "NY", "zip": "10590-1612", "ntee": "T22", "ruling": "200305", "deductibility": "1", "assets": 445, "income": 4649, "revenue": 0}, {"ein": "226645494", "name": "HANDLER FAMILY CHARITABLE TR", "city": "BROOKLYN", "state": "NY", "zip": "11249-0000", "ntee": "T22J", "ruling": "199504", "deductibility": "1", "assets": 1286, "income": 59667, "revenue": 0}, {"ein": "473796588", "name": "JERRY & MARILYN HANDLER FOUNDATION", "city": "NEW YORK", "state": "NY", "zip": "10128-3629", "ntee": "T20", "ruling": "201509", "deductibility": "1", "assets": 564975, "income": 258859, "revenue": 0}, {"ein": "832941798", "name": "MAYER HANDLER FOUNDATION", "city": "BROOKLYN", "state": "NY", "zip": "11205-2063", "ntee": "T20", "ruling": "201905", "deductibility": "1", "assets": 1504150, "income": 96000, "revenue": 0}, {"ein": "880771421", "name": "HANDLER HOPE FOUNDATION INC", "city": "NORTHPORT", "state": "NY", "zip": "11768-1503", "ntee": "H12", "ruling": "202206", "deductibility": "1", "assets": 94068, "income": 81087, "revenue": 81087}], "SHVILEI": [{"ein": "113513677", "name": "MECHON SHVILEI DUVID", "city": "BROOKLYN", "state": "NY", "zip": "11211-7697", "ntee": "X30", "ruling": "200003", "deductibility": "1", "assets": 0, "income": 0, "revenue": 0}], "CHINACH": [{"ein": "113615493", "name": "CHINACH YISROEL", "city": "BROOKLYN", "state": "NY", "zip": "11219-4453", "ntee": "X30", "ruling": "200112", "deductibility": "1", "assets": 0, "income": 0, "revenue": 0}], "OMNIPOTENTE": [{"ein": "113689832", "name": "IGLESIA PENTECOSTAL ABRIGO DEL OMNIPOTENTE INC", "city": "BRONX", "state": "NY", "zip": "10457-4606", "ntee": "X21", "ruling": "200308", "deductibility": "1", "assets": 0, "income": 0, "revenue": 0}], "FOHRER": [{"ein": "116014288", "name": "FOHRER UND AMRUMER KRANKEN UNTERSTUTZUNGS VEREIN VON NY", "city": "ROCKY POINT", "state": "NY", "zip": "11778-9585", "ntee": "", "ruling": "194806", "deductibility": "2", "assets": 0, "income": 0, "revenue": 0}], "ABRAMS": [{"ein": "116020795", "name": "ROSE L ABRAMS GEMILETH CHASE D ASSN INC", "city": "VALLEY STREAM", "state": "NY", "zip": "11581-3049", "ntee": "", "ruling": "195001", "deductibility": "1", "assets": 126023, "income": 1037, "revenue": 0}, {"ein": "133030314", "name": "NATHANSON-ABRAMS FAMILY FOUNDATION", "city": "NEW YORK", "state": "NY", "zip": "10017-1815", "ntee": "", "ruling": "198007", "deductibility": "1", "assets": 89503, "income": 36611, "revenue": 0}, {"ein": "136092960", "name": "BENJAMIN AND ELIZABETH ABRAMS FOUNDATION INC", "city": "NEW YORK", "state": "NY", "zip": "10017-7860", "ntee": "", "ruling": "194606", "deductibility": "1", "assets": 849404, "income": 829176, "revenue": 0}, {"ein": "223272343", "name": "ABRAMS FAMILY FOUNDATION INC", "city": "NEW YORK", "state": "NY", "zip": "10028-0323", "ntee": "T20J", "ruling": "199503", "deductibility": "1", "assets": 3230937, "income": 1657613, "revenue": 0}, {"ein": "223642909", "name": "ABRAMS FAMILY CHARITABLE FOUNDATION INC", "city": "MONTAUK", "state": "NY", "zip": "11954-5095", "ntee": "T20", "ruling": "199907", "deductibility": "1", "assets": 16045, "income": 1, "revenue": 0}, {"ein": "821471793", "name": "ABRAMS CHARITY GROUP CORP", "city": "BROOKLYN", "state": "NY", "zip": "11219-2527", "ntee": "T22", "ruling": "202002", "deductibility": "1", "assets": 24692, "income": 23805, "revenue": 0}, {"ein": "861551525", "name": "ABRAMS QUEST INC", "city": "BROOKLYN", "state": "NY", "zip": "11225-3706", "ntee": "T50", "ruling": "202107", "deductibility": "1", "assets": 0, "income": 0, "revenue": 0}, {"ein": "934397972", "name": "GEORGE ABRAMS BASKETBALL SKILLS INC", "city": "WHITE PLAINS", "state": "NY", "zip": "10601-0000", "ntee": "N62", "ruling": "202402", "deductibility": "1", "assets": 0, "income": 0, "revenue": 0}], "STIVALA": [{"ein": "116048099", "name": "BILL STIVALA SCHOLARSHIP FUND INC", "city": "CENTERPORT", "state": "NY", "zip": "11721-1622", "ntee": "", "ruling": "199810", "deductibility": "1", "assets": 0, "income": 0, "revenue": 0}], "GEOGRAPHICAL": [{"ein": "131623890", "name": "AMERICAN GEOGRAPHICAL SOCIETY OF NEW YORK", "city": "NEW YORK", "state": "NY", "zip": "10013-1510", "ntee": "V25Z", "ruling": "192809", "deductibility": "1", "assets": 2318224, "income": 784485, "revenue": 731020}], "PSYCHIATRY": [{"ein": "131624217", "name": "WILLIAM ALANSON WHITE INSTITUTE OF PSYCHIATRY PSYCHOANALYSIS AND PSYC", "city": "NEW YORK", "state": "NY", "zip": "10023-2401", "ntee": "Z99Z", "ruling": "194908", "deductibility": "1", "assets": 10335896, "income": 1599747, "revenue": 1599747}, {"ein": "133036301", "name": "THE SOCIETY FOR LIAISON PSYCHIATRY INC", "city": "NEW YORK", "state": "NY", "zip": "10017-1637", "ntee": "B03", "ruling": "201803", "deductibility": "1", "assets": 0, "income": 0, "revenue": 0}, {"ein": "264295873", "name": "CENTER FOR THE HUMAN RIGHTS OF USERS AND SURVIVORS OF PSYCHIATRY", "city": "CHESTERTOWN", "state": "NY", "zip": "12817-3506", "ntee": "Q70", "ruling": "200906", "deductibility": "1", "assets": 0, "income": 0, "revenue": 0}, {"ein": "465495054", "name": "WELLBRIDGE PSYCHIATRY P C", "city": "WESTBURY", "state": "NY", "zip": "11590-1740", "ntee": "E24", "ruling": "201906", "deductibility": "1", "assets": 1, "income": 0, "revenue": 0}, {"ein": "472657089", "name": "PSYCHIATRY FACULTY PRACTICE INC", "city": "SYRACUSE", "state": "NY", "zip": "13210-2695", "ntee": "F30", "ruling": "201604", "deductibility": "1", "assets": 0, "income": 0, "revenue": 0}, {"ein": "861861965", "name": "KAMINSKI CENTER FOR PSYCHIATRY AND OTHERNESS STUDIES INC", "city": "NEW YORK", "state": "NY", "zip": "10028-0311", "ntee": "F31", "ruling": "202109", "deductibility": "1", "assets": 440, "income": 8542, "revenue": 8542}], "NORTHWEST": [{"ein": "132806160", "name": "NORTHWEST BRONX COMMUNITY AND CLERGY COALITION INC", "city": "BRONX", "state": "NY", "zip": "10468-3637", "ntee": "S210", "ruling": "197509", "deductibility": "1", "assets": 7295025, "income": 7504467, "revenue": 7504467}, {"ein": "133124192", "name": "NORTHWEST QUEENS HOUSING", "city": "ASTORIA", "state": "NY", "zip": "11102-2000", "ntee": "L80", "ruling": "199105", "deductibility": "1", "assets": 77485, "income": 129724, "revenue": 129724}, {"ein": "161037485", "name": "MENTAL HEALTH SERVICES-ERIE COUNTY NORTHWEST CORPORATION I", "city": "KENMORE", "state": "NY", "zip": "14217-2222", "ntee": "", "ruling": "197704", "deductibility": "1", "assets": 1394908, "income": 2693001, "revenue": 2693001}, {"ein": "161060168", "name": "NORTHWEST BUFFALO COMMUNITY DEV", "city": "BUFFALO", "state": "NY", "zip": "14207-1816", "ntee": "P28Z", "ruling": "198211", "deductibility": "1", "assets": 2366977, "income": 3118561, "revenue": 3118561}, {"ein": "271682316", "name": "KNOWLEDGE INSTITUTE OF NORTHWEST", "city": "VALLEY STREAM", "state": "NY", "zip": "11580-1017", "ntee": "X40", "ruling": "201009", "deductibility": "1", "assets": 0, "income": 0, "revenue": 0}, {"ein": "454593271", "name": "FRIENDS OF NORTHWEST BROOKLYN INC", "city": "BROOKLYN", "state": "NY", "zip": "11211-3231", "ntee": "T30", "ruling": "201304", "deductibility": "1", "assets": 26820422, "income": 2092603, "revenue": 1521207}, {"ein": "475484832", "name": "GRAND STREET NORTHWEST INC", "city": "GARDEN CITY", "state": "NY", "zip": "11530-7602", "ntee": "L25", "ruling": "201602", "deductibility": "1", "assets": 126417633, "income": 44746956, "revenue": 9638708}, {"ein": "823279646", "name": "FLORDIA A&M UNIV NATIONAL ALUMNI ASSOC INC NORTHWEST REGION", "city": "BABYLON", "state": "NY", "zip": "11702-0204", "ntee": "", "ruling": "199301", "deductibility": "1", "assets": 0, "income": 0, "revenue": 0}], "GRACEPOINT": [{"ein": "132874464", "name": "GRACEPOINT GOSPEL FELLOWSHIP INC", "city": "NEW CITY", "state": "NY", "zip": "10956-1323", "ntee": "", "ruling": "197611", "deductibility": "1", "assets": 0, "income": 0, "revenue": 0}], "HESPANO": [{"ein": "132878072", "name": "EL CENTRO EPESCOPAL HESPANO INC", "city": "WHITE PLAINS", "state": "NY", "zip": "10601-1902", "ntee": "", "ruling": "198002", "deductibility": "1", "assets": 0, "income": 0, "revenue": 0}], "EXISTENCE": [{"ein": "132912216", "name": "OUR NEW EXISTENCE SOCIETY O N E SOCIETY", "city": "NEW YORK", "state": "NY", "zip": "10008-0173", "ntee": "", "ruling": "197902", "deductibility": "1", "assets": 0, "income": 0, "revenue": 0}, {"ein": "132970129", "name": "OUR NEW EXISTENCE SOCIETY", "city": "NEW YORK", "state": "NY", "zip": "10008-0173", "ntee": "", "ruling": "197902", "deductibility": "1", "assets": 0, "income": 0, "revenue": 0}], "ISABEL": [{"ein": "132983403", "name": "ISABEL ONEIL FOUNDATION FOR THE ART OF THE PAINTED FINISH INC", "city": "NEW YORK", "state": "NY", "zip": "10128-5938", "ntee": "A400", "ruling": "197910", "deductibility": "1", "assets": 334619, "income": 147622, "revenue": 147622}, {"ein": "133286304", "name": "HAROLD AND ISABEL FELD FOUNDATION", "city": "NEW YORK", "state": "NY", "zip": "10075-0683", "ntee": "", "ruling": "198511", "deductibility": "1", "assets": 1, "income": 1, "revenue": 0}, {"ein": "166539030", "name": "ISABEL TEMPLETON TUW TR", "city": "BUFFALO", "state": "NY", "zip": "14240-1504", "ntee": "T20", "ruling": "200507", "deductibility": "1", "assets": 395251, "income": 114215, "revenue": 0}, {"ein": "202761633", "name": "LAWRENCE AND ISABEL BARNETT CHARITABLE FOUNDATION", "city": "WHITE PLAINS", "state": "NY", "zip": "10604-0000", "ntee": "T22", "ruling": "200602", "deductibility": "1", "assets": 19266628, "income": 8499220, "revenue": 0}, {"ein": "273047161", "name": "SUSAN ISABEL FOUNDATION", "city": "NEW YORK", "state": "NY", "zip": "10001-0000", "ntee": "T21", "ruling": "201105", "deductibility": "1", "assets": 12117449, "income": 2766433, "revenue": 0}], "LEZECHER": [{"ein": "133070289", "name": "GEMILAS CHESED LEZECHER MESHILUM FEISH INC", "city": "BROOKLYN", "state": "NY", "zip": "11211-8019", "ntee": "", "ruling": "198106", "deductibility": "1", "assets": 0, "income": 0, "revenue": 0}], "HSNG": [{"ein": "133094061", "name": "UNITED JEWISH COUNCIL-BIALYSTOKER SYNAGOGUE HSNG DEV FUND CO INC", "city": "NEW YORK", "state": "NY", "zip": "10002-4064", "ntee": "L21Z", "ruling": "198111", "deductibility": "1", "assets": 320606, "income": 195000, "revenue": 195000}, {"ein": "932255978", "name": "HSNG NY", "city": "BROOKLYN", "state": "NY", "zip": "11202-2307", "ntee": "L21", "ruling": "202308", "deductibility": "1", "assets": 0, "income": 0, "revenue": 0}], "PAK": [{"ein": "133275044", "name": "WALKER STREET CHUNG PAK LOCAL DEVELOPMENT", "city": "NEW YORK", "state": "NY", "zip": "10013-4482", "ntee": "L20", "ruling": "200709", "deductibility": "1", "assets": 12255893, "income": 2021618, "revenue": 2021618}, {"ein": "133615628", "name": "MANHATTAN INDO-PAK CHURCH OF THE NAZARENES", "city": "BRONX", "state": "NY", "zip": "10467-1517", "ntee": "", "ruling": "199301", "deductibility": "1", "assets": 0, "income": 0, "revenue": 0}, {"ein": "461556094", "name": "PAK AMERICAN SAFETY PATROL INC", "city": "BROOKLYN", "state": "NY", "zip": "11230-1401", "ntee": "S20", "ruling": "201609", "deductibility": "1", "assets": 0, "income": 0, "revenue": 0}, {"ein": "813541320", "name": "PAK INDO AMERICAN WOMEN ASSOCIATION INC", "city": "BROOKLYN", "state": "NY", "zip": "11230-2202", "ntee": "S81", "ruling": "201609", "deductibility": "1", "assets": 1, "income": 1, "revenue": 0}, {"ein": "863475829", "name": "PAK AMERICAN EHSAS INC", "city": "BROOKLYN", "state": "NY", "zip": "11235-6303", "ntee": "K30", "ruling": "202109", "deductibility": "1", "assets": 307, "income": 500, "revenue": 500}, {"ein": "872770266", "name": "PAK AMERICAN SOCIAL SOCIETY INC", "city": "BROOKLYN", "state": "NY", "zip": "11230-1450", "ntee": "S20", "ruling": "202304", "deductibility": "1", "assets": 0, "income": 0, "revenue": 0}], "ORALORA": [{"ein": "133338530", "name": "ORALORA FUND INC", "city": "NEW YORK", "state": "NY", "zip": "10036-9000", "ntee": "V99Z", "ruling": "198612", "deductibility": "1", "assets": 0, "income": 0, "revenue": 0}], "RONA": [{"ein": "133383860", "name": "THE RONA JAFFE FOUNDATION", "city": "DIX HILLS", "state": "NY", "zip": "11746-6039", "ntee": "T60J", "ruling": "199504", "deductibility": "1", "assets": 30744521, "income": 8635535, "revenue": 0}, {"ein": "134196469", "name": "RONA AND RNADOLPH M NELSON FOUNDATION", "city": "NEW YORK", "state": "NY", "zip": "10023-1503", "ntee": "X20", "ruling": "200112", "deductibility": "1", "assets": 1024129, "income": 558402, "revenue": 0}], "WORKFORCE": [{"ein": "133459199", "name": "POSITIVE WORKFORCE COALITION INC", "city": "NEW YORK", "state": "NY", "zip": "10035-1614", "ntee": "J22", "ruling": "202412", "deductibility": "1", "assets": 1474291, "income": 664305, "revenue": 664305}, {"ein": "133632018", "name": "WORKFORCE DEVELOPMENT CORP", "city": "NEW YORK", "state": "NY", "zip": "10006-1455", "ntee": "B99", "ruling": "199209", "deductibility": "1", "assets": 8421801, "income": 9870332, "revenue": 9870332}, {"ein": "141807076", "name": "WORKFORCE DEVELOPMENT BOARD OF SULLIVAN INC", "city": "MONTICELLO", "state": "NY", "zip": "12701-1160", "ntee": "S410", "ruling": "199906", "deductibility": "1", "assets": 0, "income": 0, "revenue": 0}, {"ein": "141824720", "name": "DUTCHESS COUNTY WORKFORCE INVESTMENT BOARD INC", "city": "POUGHKEEPSIE", "state": "NY", "zip": "12601-5500", "ntee": "J200", "ruling": "200110", "deductibility": "1", "assets": 0, "income": 0, "revenue": 0}, {"ein": "161140488", "name": "WORKFORCE DEVELOPMENT BOARD OF HERKIMER MADISON AND ONEIDA COUNTI", "city": "UTICA", "state": "NY", "zip": "13501-2230", "ntee": "J20Z", "ruling": "198104", "deductibility": "1", "assets": 3654901, "income": 5721524, "revenue": 5721524}, {"ein": "161536318", "name": "WORKFORCE DEVELOPMENT BOARD OF FLTN MONTGOMERY & SCHOHARIE CNTIES INC", "city": "AMSTERDAM", "state": "NY", "zip": "12010-4615", "ntee": "J01", "ruling": "200510", "deductibility": "1", "assets": 149587, "income": 1616520, "revenue": 1616520}, {"ein": "161585625", "name": "BUFFALO AND ERIE COUNTY WORKFORCE DEVELOPMENT CONSORTIUM INC", "city": "BUFFALO", "state": "NY", "zip": "14210-1468", "ntee": "J20", "ruling": "200010", "deductibility": "1", "assets": 4343283, "income": 8970420, "revenue": 8970420}, {"ein": "161593358", "name": "BUFFALO AND ERIE COUNTY WORKFORCE INVESTMENT BOARD INC", "city": "BUFFALO", "state": "NY", "zip": "14210-1463", "ntee": "B99", "ruling": "200110", "deductibility": "1", "assets": 0, "income": 0, "revenue": 0}, {"ein": "161594235", "name": "CATTARAUGUS-ALLEGNY WORKFORCE INVESTMENT BOARD INC", "city": "OLEAN", "state": "NY", "zip": "14760-2552", "ntee": "J20", "ruling": "200106", "deductibility": "1", "assets": 323630, "income": 1303080, "revenue": 1303080}, {"ein": "200401008", "name": "WORKFORCE DIVERSITY NETWORK INC", "city": "ROCHESTER", "state": "NY", "zip": "14604-1748", "ntee": "S03", "ruling": "200403", "deductibility": "1", "assets": 13032, "income": 37749, "revenue": 37749}, {"ein": "203684091", "name": "WORKFORCE OUTSOURCE SERVICES INC", "city": "NEW YORK", "state": "NY", "zip": "10115-0061", "ntee": "B90", "ruling": "200703", "deductibility": "1", "assets": 9291308, "income": 11057890, "revenue": 11057890}, {"ein": "203891493", "name": "WORKFORCE PROFESSIONALS TRAININGINSTITUTE", "city": "NEW YORK", "state": "NY", "zip": "10036-8002", "ntee": "J990", "ruling": "200702", "deductibility": "1", "assets": 724185, "income": 1748163, "revenue": 1748163}, {"ein": "222520370", "name": "CHEMUNG SCHUYLER STEUBEN WORKFORCE DEVELOPMENT INC", "city": "CORNING", "state": "NY", "zip": "14830-2600", "ntee": "", "ruling": "198504", "deductibility": "1", "assets": 347980, "income": 2339500, "revenue": 2339500}, {"ein": "223396729", "name": "NORTH COUNTRY WORKFORCE PARTNERSHIP INC", "city": "PLATTSBURGH", "state": "NY", "zip": "12903-3900", "ntee": "P020", "ruling": "199512", "deductibility": "1", "assets": 2108770, "income": 719786, "revenue": 719786}, {"ein": "260637422", "name": "KIRYAS JOEL WORKFORCE DEVELOPMENTINC", "city": "MONROE", "state": "NY", "zip": "10949-0685", "ntee": "B60", "ruling": "200812", "deductibility": "1", "assets": 1695242, "income": 108234, "revenue": 108234}, {"ein": "270685219", "name": "INSTITUTE FOR WORKFORCE ADVANCEMENT", "city": "MELVILLE", "state": "NY", "zip": "11747-5009", "ntee": "U99", "ruling": "201503", "deductibility": "1", "assets": 476667, "income": 489836, "revenue": 489836}, {"ein": "300135156", "name": "FINGER LAKES WORKFORCE INVESTMENT BOARD INC", "city": "GENEVA", "state": "NY", "zip": "14456-0111", "ntee": "J20", "ruling": "200308", "deductibility": "1", "assets": 164180, "income": 1780106, "revenue": 1780106}, {"ein": "331453382", "name": "ASCEND WORKFORCE SOLUTIONS INC", "city": "ROCHESTER", "state": "NY", "zip": "14623-3018", "ntee": "J22", "ruling": "202506", "deductibility": "1", "assets": 0, "income": 0, "revenue": 0}, {"ein": "460833526", "name": "WORKFORCE ADVOCACY CENTER INC", "city": "AMSTERDAM", "state": "NY", "zip": "12010-6928", "ntee": "J01", "ruling": "201412", "deductibility": "1", "assets": 0, "income": 0, "revenue": 0}, {"ein": "471088653", "name": "HEALTH WORKFORCE NEW YORK INC", "city": "CANTON", "state": "NY", "zip": "13617-1279", "ntee": "E03", "ruling": "201412", "deductibility": "1", "assets": 746495, "income": 1343186, "revenue": 1342623}, {"ein": "562420045", "name": "WORKFORCE DEVELOPMENT INSTITUTE INC", "city": "ALBANY", "state": "NY", "zip": "12210-1939", "ntee": "B60", "ruling": "200407", "deductibility": "1", "assets": 4234829, "income": 14076337, "revenue": 14076337}, {"ein": "825190478", "name": "HUDSON VALLEY MANUFACTURING WORKFORCE CENTER", "city": "NEWBURGH", "state": "NY", "zip": "12550-8345", "ntee": "B99", "ruling": "201811", "deductibility": "1", "assets": 0, "income": 0, "revenue": 0}, {"ein": "832214682", "name": "CONSTRUCTION WORKFORCE PROJECT INC", "city": "MELVILLE", "state": "NY", "zip": "11747-3609", "ntee": "J22", "ruling": "201904", "deductibility": "1", "assets": 2533, "income": 0, "revenue": 0}, {"ein": "833725102", "name": "WORKFORCE OF AMERICA INC", "city": "BROOKLYN", "state": "NY", "zip": "11219-3104", "ntee": "", "ruling": "202008", "deductibility": "1", "assets": 0, "income": 0, "revenue": 0}, {"ein": "852837780", "name": "HEALTH WORKFORCE COLLABORATIVE INC", "city": "CANTON", "state": "NY", "zip": "13617-1278", "ntee": "J20", "ruling": "202103", "deductibility": "1", "assets": 24163, "income": 10000, "revenue": 10000}, {"ein": "853129842", "name": "CENTER FOR HEALTHCARE WORKFORCE DEVELOPMENT INC", "city": "NEW YORK", "state": "NY", "zip": "10108-0842", "ntee": "J40", "ruling": "202209", "deductibility": "2", "assets": 2211901, "income": 1895243, "revenue": 1895243}, {"ein": "922520653", "name": "STUDENT WORKFORCE RESOURCE CENTER INC", "city": "NEW YORK", "state": "NY", "zip": "10026-4027", "ntee": "Z99", "ruling": "202303", "deductibility": "1", "assets": 0, "income": 0, "revenue": 0}, {"ein": "923043856", "name": "YOUR EMPLOYMENT STRENGTH WORKFORCE CORP", "city": "BUFFALO", "state": "NY", "zip": "14211-2530", "ntee": "J30", "ruling": "202304", "deductibility": "1", "assets": 0, "income": 0, "revenue": 0}, {"ein": "932995059", "name": "NORTHEAST CONSTRUCTION TRADES WORKFORCE COALITION INC", "city": "SARATOGA SPGS", "state": "NY", "zip": "12866-0044", "ntee": "B01", "ruling": "202409", "deductibility": "2", "assets": 35025, "income": 233804, "revenue": 233804}, {"ein": "990668841", "name": "WOODRUFF BUSINESS AND WORKFORCE DEVELOPMENT", "city": "BUFFALO", "state": "NY", "zip": "14215-0000", "ntee": "B60", "ruling": "202401", "deductibility": "1", "assets": 0, "income": 0, "revenue": 0}, {"ein": "991713451", "name": "INTERNATIONAL WORKFORCE INNOVATION OPPORTUNITY CENTER", "city": "BRONX", "state": "NY", "zip": "10469-2967", "ntee": "A23", "ruling": "202411", "deductibility": "1", "assets": 0, "income": 0, "revenue": 0}, {"ein": "993550857", "name": "WORKFORCE VAULT CORPORATION", "city": "NEW YORK", "state": "NY", "zip": "10023-9600", "ntee": "P84", "ruling": "202407", "deductibility": "1", "assets": 0, "income": 0, "revenue": 0}], "TRAVELERS": [{"ein": "133572514", "name": "TRAVELERS REST BAPTIST CHURCH", "city": "NEW YORK", "state": "NY", "zip": "10031-6134", "ntee": "X20Z", "ruling": "199505", "deductibility": "1", "assets": 0, "income": 0, "revenue": 0}, {"ein": "141482188", "name": "HOMELESS AND TRAVELERS AID SOCIETY", "city": "ALBANY", "state": "NY", "zip": "12206-2901", "ntee": "P85", "ruling": "196804", "deductibility": "1", "assets": 2251987, "income": 4135418, "revenue": 4033984}, {"ein": "160753579", "name": "UNITED COMMERCIAL TRAVELERS OF AMERICA", "city": "ROCHESTER", "state": "NY", "zip": "14622-1358", "ntee": "", "ruling": "194010", "deductibility": "1", "assets": 0, "income": 0, "revenue": 0}, {"ein": "160781691", "name": "UNITED COMMERCIAL TRAVELERS OF AMERICA", "city": "ROCHESTER", "state": "NY", "zip": "14622-1358", "ntee": "", "ruling": "194010", "deductibility": "1", "assets": 0, "income": 0, "revenue": 0}, {"ein": "161517042", "name": "CNY SNOW TRAVELERS INC", "city": "DEANSBORO", "state": "NY", "zip": "13328-0053", "ntee": "N32", "ruling": "200702", "deductibility": "1", "assets": 394431, "income": 84608, "revenue": 84608}, {"ein": "222488379", "name": "VALLEY SNOW TRAVELERS OF LEWIS COUNTY INC", "city": "LOWVILLE", "state": "NY", "zip": "13367-2814", "ntee": "N68", "ruling": "201505", "deductibility": "1", "assets": 278016, "income": 72156, "revenue": 72156}, {"ein": "562333973", "name": "TRAVELERS REST HOUSING DEVELOPMENT FUND COMPANY INC", "city": "NEW YORK", "state": "NY", "zip": "10031-6166", "ntee": "L20", "ruling": "201507", "deductibility": "1", "assets": 392342, "income": 149002, "revenue": 149002}, {"ein": "862339988", "name": "YOUNG BLACK TRAVELERS", "city": "BROOKLYN", "state": "NY", "zip": "11212-2962", "ntee": "B25", "ruling": "202308", "deductibility": "1", "assets": 0, "income": 0, "revenue": 0}, {"ein": "873259719", "name": "CHABAD FOR TRAVELERS INC", "city": "BROOKLYN", "state": "NY", "zip": "11213-4513", "ntee": "X30", "ruling": "202201", "deductibility": "1", "assets": 819, "income": 271121, "revenue": 271121}], "YAN": [{"ein": "133580599", "name": "YAN PING ASSOCIATION INC", "city": "NEW YORK", "state": "NY", "zip": "10002-6130", "ntee": "", "ruling": "199201", "deductibility": "1", "assets": 71467, "income": 59176, "revenue": 59176}, {"ein": "134183015", "name": "LING YAN SHAN BUDDHIST TEMPLE OF NEW YORK INC", "city": "ELMHURST", "state": "NY", "zip": "11373-4354", "ntee": "X50", "ruling": "200112", "deductibility": "1", "assets": 776969, "income": 85853, "revenue": 85853}, {"ein": "141978027", "name": "PENN YAN ELEMENTARY PARENT TEACHER GROUP", "city": "PENN YAN", "state": "NY", "zip": "14527-1081", "ntee": "B94", "ruling": "201805", "deductibility": "1", "assets": 0, "income": 0, "revenue": 0}, {"ein": "160586352", "name": "PENN YAN FLYING CLUB INC", "city": "PENN YAN", "state": "NY", "zip": "14527-0429", "ntee": "N5XZ", "ruling": "197409", "deductibility": "2", "assets": 601870, "income": 370579, "revenue": 325968}, {"ein": "160872355", "name": "PENN YAN LODGE NO 2030 LOYAL ORDER OF MOOSE", "city": "PENN YAN", "state": "NY", "zip": "14527-1313", "ntee": "", "ruling": "193508", "deductibility": "1", "assets": 2065970, "income": 632892, "revenue": 551692}, {"ein": "160967993", "name": "PENN YAN MANOR NURSING HOME INC", "city": "PENN YAN", "state": "NY", "zip": "14527-1086", "ntee": "E90Z", "ruling": "197002", "deductibility": "1", "assets": 3563293, "income": 4986049, "revenue": 4440676}, {"ein": "161126163", "name": "PENN YAN WHITE STONE CHAPEL", "city": "PENN YAN", "state": "NY", "zip": "14527-8772", "ntee": "", "ruling": "196307", "deductibility": "2", "assets": 0, "income": 0, "revenue": 0}, {"ein": "161189194", "name": "PENN YAN ASSEMBLY OF GOD", "city": "PENN YAN", "state": "NY", "zip": "14527-1714", "ntee": "", "ruling": "196408", "deductibility": "1", "assets": 0, "income": 0, "revenue": 0}, {"ein": "161439906", "name": "PENN YAN AREA COUNCIL OF CHURCHES COMMUNITY ACTION PROGRAM INC", "city": "PENN YAN", "state": "NY", "zip": "14527-1614", "ntee": "X21", "ruling": "199405", "deductibility": "1", "assets": 0, "income": 0, "revenue": 0}, {"ein": "166000692", "name": "PENN YAN PUBLIC LIBRARY", "city": "PENN YAN", "state": "NY", "zip": "14527-1714", "ntee": "B71Z", "ruling": "197712", "deductibility": "1", "assets": 1466436, "income": 747846, "revenue": 747846}, {"ein": "166053289", "name": "PENN YAN POLICE BENEVOLENT ASSOCIATION INC", "city": "PENN YAN", "state": "NY", "zip": "14527-1411", "ntee": "W11", "ruling": "201405", "deductibility": "1", "assets": 0, "income": 0, "revenue": 0}, {"ein": "222554194", "name": "PENN YAN CHAPTER 1519 WOMEN OF THE MOOSE", "city": "PENN YAN", "state": "NY", "zip": "14527-1313", "ntee": "", "ruling": "201906", "deductibility": "1", "assets": 0, "income": 0, "revenue": 0}, {"ein": "237216568", "name": "PENN YAN VOLUNTEER AMBULANCE CORPS INC", "city": "PENN YAN", "state": "NY", "zip": "14527-0272", "ntee": "E62Z", "ruling": "197207", "deductibility": "1", "assets": 2656074, "income": 1653818, "revenue": 1256597}, {"ein": "272293903", "name": "PENN YAN YOUTH BASKETBALL INC", "city": "PENN YAN", "state": "NY", "zip": "14527-0000", "ntee": "N62", "ruling": "202206", "deductibility": "1", "assets": 14613, "income": 13041, "revenue": 0}, {"ein": "465763121", "name": "PREGNANCY CENTER OF PENN YAN INC", "city": "PENN YAN", "state": "NY", "zip": "14527-1668", "ntee": "E40", "ruling": "201411", "deductibility": "1", "assets": 55530, "income": 107038, "revenue": 102985}, {"ein": "471197848", "name": "PENN YAN VOLUNTEER FIRE COMPANIES INC", "city": "PENN YAN", "state": "NY", "zip": "14527-1411", "ntee": "M24", "ruling": "201509", "deductibility": "1", "assets": 579712, "income": 137252, "revenue": 99971}, {"ein": "472094590", "name": "INTERNATIONAL HUA-YAN BUDDHIST FEDERATION", "city": "COLLEGE POINT", "state": "NY", "zip": "11356-2725", "ntee": "X50", "ruling": "201703", "deductibility": "1", "assets": 296785, "income": 37903, "revenue": 37903}, {"ein": "474752440", "name": "PENN YAN COMMUNITY CHORUS", "city": "BRANCHPORT", "state": "NY", "zip": "14418-9542", "ntee": "A60", "ruling": "201508", "deductibility": "1", "assets": 0, "income": 0, "revenue": 0}, {"ein": "820684760", "name": "PENN YAN LIONS FOUNDATION INC", "city": "PENN YAN", "state": "NY", "zip": "14527-0663", "ntee": "T30", "ruling": "201801", "deductibility": "1", "assets": 65589, "income": 74005, "revenue": 60697}, {"ein": "821620124", "name": "CUPOLA RESTORATION PROJECT OF PENN YAN", "city": "DUNDEE", "state": "NY", "zip": "14837-9730", "ntee": "C50", "ruling": "201711", "deductibility": "1", "assets": 0, "income": 0, "revenue": 0}, {"ein": "830349506", "name": "PENN YAN YOUTH LACROSSE", "city": "PENN YAN", "state": "NY", "zip": "14527-0374", "ntee": "N60", "ruling": "201601", "deductibility": "1", "assets": 0, "income": 0, "revenue": 0}, {"ein": "871593205", "name": "PENN YAN TENNIS CLUB", "city": "PENN YAN", "state": "NY", "zip": "14527-0000", "ntee": "N66", "ruling": "202205", "deductibility": "2", "assets": 0, "income": 0, "revenue": 0}, {"ein": "872792101", "name": "PENN YAN YOUTH BASEBALL AND SOFTBALL INC", "city": "PENN YAN", "state": "NY", "zip": "14527-0373", "ntee": "N63", "ruling": "202202", "deductibility": "1", "assets": 32372, "income": 73686, "revenue": 72559}, {"ein": "920661671", "name": "WU AND YAN FAMILY FOUNDATION", "city": "PURCHASE", "state": "NY", "zip": "10577-2118", "ntee": "T90", "ruling": "202302", "deductibility": "1", "assets": 11032313, "income": 1109977, "revenue": 0}, {"ein": "991409397", "name": "PENN YAN COMMUNITY CAFE INC", "city": "PENN YAN", "state": "NY", "zip": "14527-9318", "ntee": "K30", "ruling": "202403", "deductibility": "1", "assets": 0, "income": 0, "revenue": 0}], "ZIEGESAR": [{"ein": "133615178", "name": "LOTHAR VON ZIEGESAR FOUNDATION INC", "city": "NEW YORK", "state": "NY", "zip": "10119-0000", "ntee": "", "ruling": "199112", "deductibility": "1", "assets": 465960, "income": 60613, "revenue": 0}], "CONCERN": [{"ein": "133712030", "name": "CONCERN WORLDWIDE U S INC", "city": "NEW YORK", "state": "NY", "zip": "10017-6609", "ntee": "Q300", "ruling": "199306", "deductibility": "1", "assets": 37407798, "income": 89355335, "revenue": 83957773}, {"ein": "134054109", "name": "WORLD CONCERN WITH COMPASSION INC", "city": "NEW YORK", "state": "NY", "zip": "10029-4458", "ntee": "Q330", "ruling": "199908", "deductibility": "1", "assets": 22606, "income": 1, "revenue": 0}, {"ein": "161060573", "name": "HORNELL AREA CONCERN FOR YOUTH INC", "city": "HORNELL", "state": "NY", "zip": "14843-2074", "ntee": "", "ruling": "197705", "deductibility": "1", "assets": 360616, "income": 329180, "revenue": 329180}, {"ein": "161178715", "name": "COUNCIL OF RELIGIOUS CONCERN INC", "city": "POTSDAM", "state": "NY", "zip": "13676-0109", "ntee": "", "ruling": "198707", "deductibility": "1", "assets": 0, "income": 0, "revenue": 0}, {"ein": "161182281", "name": "SENECA COUNTY HOUSE OF CONCERN INC", "city": "SENECA FALLS", "state": "NY", "zip": "13148-1474", "ntee": "P28Z", "ruling": "198909", "deductibility": "1", "assets": 691301, "income": 494864, "revenue": 487669}, {"ein": "161409657", "name": "CHENANGO FENTON PROJECT CONCERN INC", "city": "CHENANGO BRG", "state": "NY", "zip": "13745-0024", "ntee": "P29", "ruling": "200307", "deductibility": "1", "assets": 0, "income": 0, "revenue": 0}, {"ein": "161447801", "name": "COMMUNITY CONCERN FOUNDATION", "city": "DERBY", "state": "NY", "zip": "14047-9670", "ntee": "", "ruling": "199405", "deductibility": "1", "assets": 688800, "income": 20174, "revenue": 20174}, {"ein": "222224711", "name": "GENEVA CENTER OF CONCERN INC", "city": "GENEVA", "state": "NY", "zip": "14456-0000", "ntee": "T70Z", "ruling": "197812", "deductibility": "1", "assets": 1109476, "income": 255517, "revenue": 255517}, {"ein": "237013824", "name": "GENESEE ORLEANS MINISTRY OF CONCERN INC", "city": "ALBION", "state": "NY", "zip": "14411-1451", "ntee": "", "ruling": "196903", "deductibility": "1", "assets": 1559150, "income": 256385, "revenue": 244680}, {"ein": "237259687", "name": "CONCERN FOR INDEPENDENT LIVING INC", "city": "MEDFORD", "state": "NY", "zip": "11763-2555", "ntee": "F330", "ruling": "197301", "deductibility": "1", "assets": 145787378, "income": 76461912, "revenue": 57948837}, {"ein": "510217084", "name": "PUBLIC CONCERN FOUNDATION INC", "city": "NEW YORK", "state": "NY", "zip": "10013-2325", "ntee": "S99Z", "ruling": "197801", "deductibility": "1", "assets": 1, "income": 0, "revenue": 0}, {"ein": "651257281", "name": "A CAUSE A CONCERN A SOLUTION NETWORK INC", "city": "JAMAICA", "state": "NY", "zip": "11436-2311", "ntee": "O50", "ruling": "202202", "deductibility": "1", "assets": 0, "income": 0, "revenue": 0}], "NASSIMI": [{"ein": "133781329", "name": "NASSIMI FAMILY FOUNDATION INC", "city": "NEW YORK", "state": "NY", "zip": "10018-3250", "ntee": "T30J", "ruling": "199508", "deductibility": "1", "assets": 50729, "income": 826129, "revenue": 0}], "ASIM": [{"ein": "133978279", "name": "MA ASIM TOVIM FOUNDATION INC", "city": "BROOKLYN", "state": "NY", "zip": "11204-1418", "ntee": "T90Z", "ruling": "199801", "deductibility": "1", "assets": 1618410, "income": 2522054, "revenue": 0}], "MICA": [{"ein": "133981562", "name": "MICA FOUNDATION", "city": "NEW YORK", "state": "NY", "zip": "10024-3328", "ntee": "A51Z", "ruling": "199811", "deductibility": "1", "assets": 12645, "income": 26, "revenue": 0}, {"ein": "141805050", "name": "HOUSE OF MICA", "city": "E GREENBUSH", "state": "NY", "zip": "12061-3546", "ntee": "Q40", "ruling": "199912", "deductibility": "1", "assets": 0, "income": 0, "revenue": 0}], "YUNKER": [{"ein": "133986717", "name": "BRYANT & NANCY YUNKER FOUNDATION INC", "city": "NEW YORK", "state": "NY", "zip": "10006-2744", "ntee": "T20", "ruling": "199902", "deductibility": "1", "assets": 716034, "income": 434890, "revenue": 0}], "TGM": [{"ein": "134010424", "name": "TGM REALTY CORP 20", "city": "NEW YORK", "state": "NY", "zip": "10019-6108", "ntee": "S47", "ruling": "199807", "deductibility": "2", "assets": 571704376, "income": 51645080, "revenue": 27340918}], "PHD": [{"ein": "134024417", "name": "BEATRICE BEEBE PHD INFANT RESEARCH FUND INC", "city": "NEW YORK", "state": "NY", "zip": "10011-2702", "ntee": "H98", "ruling": "199901", "deductibility": "1", "assets": 21135, "income": 5200, "revenue": 5200}, {"ein": "275013306", "name": "OLGA RAGUSA PHD AND ISA RAGUSA PHD FOUNDATION FOR THE HUMANITIES INC", "city": "NEW YORK", "state": "NY", "zip": "10011-8635", "ntee": "T23", "ruling": "201911", "deductibility": "1", "assets": 17786785, "income": 649674, "revenue": 0}], "BOTTOMLESS": [{"ein": "134037622", "name": "BOTTOMLESS CLOSET", "city": "NEW YORK", "state": "NY", "zip": "10001-3011", "ntee": "P50", "ruling": "199904", "deductibility": "1", "assets": 3611963, "income": 2979317, "revenue": 1659591}], "ORTHOPEDICS": [{"ein": "134047356", "name": "FOUNDATION OF ORTHOPEDICS AND COMPLEX SPINE INC", "city": "GARDEN CITY", "state": "NY", "zip": "11530-6542", "ntee": "H50", "ruling": "199909", "deductibility": "1", "assets": 1239463, "income": 1077419, "revenue": 752841}], "TB": [{"ein": "134128413", "name": "GLOBAL ALLIANCE FOR TB DRUG DEVELOPMENT INC", "city": "NEW YORK", "state": "NY", "zip": "10005-1755", "ntee": "H80", "ruling": "200009", "deductibility": "1", "assets": 197319541, "income": 66012081, "revenue": 60240486}, {"ein": "455562018", "name": "TB HOUSING DEVELOPMENT FUND COMPANY INC", "city": "BUFFALO", "state": "NY", "zip": "14214-2365", "ntee": "L21", "ruling": "201509", "deductibility": "1", "assets": 5484937, "income": 289863, "revenue": 289863}, {"ein": "851484221", "name": "TB MOBILE SALON INC", "city": "BROOKLYN", "state": "NY", "zip": "11212-4939", "ntee": "P20", "ruling": "202108", "deductibility": "1", "assets": 0, "income": 0, "revenue": 0}], "BRUSH": [{"ein": "135311420", "name": "THE PEN AND BRUSH INC", "city": "NEW YORK", "state": "NY", "zip": "10010-5303", "ntee": "", "ruling": "196502", "deductibility": "1", "assets": 7312916, "income": 1129132, "revenue": 243565}, {"ein": "222251588", "name": "LEATHERSTOCKING BRUSH AND PALETTE CLUB OF COOPERSTOWN INC", "city": "SPRINGFLD CTR", "state": "NY", "zip": "13468-0136", "ntee": "", "ruling": "198011", "deductibility": "1", "assets": 0, "income": 0, "revenue": 0}, {"ein": "264687444", "name": "BRUSH FAMILY FOUNDATION INC", "city": "NEW YORK", "state": "NY", "zip": "10022-7650", "ntee": "T22", "ruling": "200908", "deductibility": "1", "assets": 978321, "income": 482055, "revenue": 0}, {"ein": "852551260", "name": "CHABAD OF BRUSH HOLLOW", "city": "JERICHO", "state": "NY", "zip": "11753-2807", "ntee": "X30", "ruling": "202106", "deductibility": "1", "assets": 0, "income": 0, "revenue": 0}, {"ein": "934412711", "name": "BRUSH HOUR FOR TEENS INC", "city": "BROOKLYN", "state": "NY", "zip": "11203-1006", "ntee": "O50", "ruling": "202312", "deductibility": "1", "assets": 31137, "income": 68140, "revenue": 68140}], "SHUMAN": [{"ein": "136216917", "name": "STANLEY S SHUMAN FOUNDATION", "city": "NEW YORK", "state": "NY", "zip": "10151-0099", "ntee": "", "ruling": "196703", "deductibility": "1", "assets": 2406162, "income": 160028, "revenue": 0}, {"ein": "202026907", "name": "STEPHANIE AND FRED SHUMAN FAMILY FOUNDATION", "city": "EAST HAMPTON", "state": "NY", "zip": "11937-0000", "ntee": "T20", "ruling": "200505", "deductibility": "1", "assets": 2040617, "income": 4219612, "revenue": 0}], "MOSS": [{"ein": "137154197", "name": "BARRY FRIEDBERG & CHARLOTTE MOSS FAM FOUNDATION", "city": "NEW YORK", "state": "NY", "zip": "10021-5011", "ntee": "T90", "ruling": "199912", "deductibility": "1", "assets": 4669200, "income": 1702800, "revenue": 0}, {"ein": "140903360", "name": "MOSS STREET CEMETERY ASSOCIATION INC", "city": "HUDSON FALLS", "state": "NY", "zip": "12839-1242", "ntee": "Y50", "ruling": "201406", "deductibility": "1", "assets": 0, "income": 0, "revenue": 0}, {"ein": "510494444", "name": "THE MOSS FAMILY FOUNDATION", "city": "NEW YORK", "state": "NY", "zip": "10036-0000", "ntee": "T22", "ruling": "200402", "deductibility": "1", "assets": 4137054, "income": 946667, "revenue": 0}, {"ein": "562368536", "name": "CHARLES B AND PAULA M MOSS FOUNDATION INC", "city": "HALESITE", "state": "NY", "zip": "11743-1140", "ntee": "T90", "ruling": "200310", "deductibility": "1", "assets": 1877714, "income": 718457, "revenue": 0}, {"ein": "920629993", "name": "GENE S MOSS FOUNDATION II INC", "city": "ALBANY", "state": "NY", "zip": "12212-5201", "ntee": "T22", "ruling": "202210", "deductibility": "1", "assets": 13773327, "income": 7063399, "revenue": 0}], "LUETZ": [{"ein": "137156955", "name": "LUETZ RIEDEL CHARITABLE TR", "city": "NEW YORK", "state": "NY", "zip": "10128-0000", "ntee": "", "ruling": "000000", "deductibility": "0", "assets": 215429, "income": 14402, "revenue": 0}], "VOGELSTEIN": [{"ein": "137177278", "name": "THE JOHN AND BARBARA VOGELSTEIN FOUNDATION", "city": "NEW YORK", "state": "NY", "zip": "10017-3914", "ntee": "", "ruling": "200002", "deductibility": "0", "assets": 1880535, "income": 4102677, "revenue": 0}], "HUYCK": [{"ein": "141338387", "name": "EDMUND NILES HUYCK PRESERVE INC", "city": "RENSSELAERVLE", "state": "NY", "zip": "12147-0189", "ntee": "", "ruling": "194302", "deductibility": "1", "assets": 3593868, "income": 548232, "revenue": 548232}], "CONSORT": [{"ein": "141736130", "name": "ADIRONDACK BAROQUE CONSORT", "city": "KINDERHOOK", "state": "NY", "zip": "12106-0161", "ntee": "A68", "ruling": "201106", "deductibility": "1", "assets": 0, "income": 0, "revenue": 0}, {"ein": "161515584", "name": "KAIROS CONSORT OF SINGER INC", "city": "THOMPSON RDG", "state": "NY", "zip": "10985-2006", "ntee": "A6B", "ruling": "199705", "deductibility": "1", "assets": 0, "income": 0, "revenue": 0}], "RHEINBACH": [{"ein": "141752248", "name": "RHINEBECK-RHEINBACH EXCHANGE PROGRAM", "city": "RHINEBECK", "state": "NY", "zip": "12572-0881", "ntee": "Q22Z", "ruling": "199302", "deductibility": "1", "assets": 0, "income": 0, "revenue": 0}], "WESTFORD": [{"ein": "150573030", "name": "WESTFORD CEMETERY ASSOCIATION", "city": "WESTFORD", "state": "NY", "zip": "13488-0083", "ntee": "", "ruling": "198003", "deductibility": "2", "assets": 0, "income": 0, "revenue": 0}], "INDIGENT": [{"ein": "160864675", "name": "ERIE COUNTY BAR ASSOCIATION AID TO INDIGENT PRISONERS SOCIETY INC", "city": "BUFFALO", "state": "NY", "zip": "14203-2114", "ntee": "I80Z", "ruling": "199001", "deductibility": "1", "assets": 15246774, "income": 21485390, "revenue": 21485390}], "GOLFERS": [{"ein": "161180464", "name": "WESTERN NEW YORK PROFESSIONAL GOLFERS ASSOCIATION INC", "city": "EAST AMHERST", "state": "NY", "zip": "14051-0000", "ntee": "", "ruling": "198911", "deductibility": "2", "assets": 807274, "income": 903383, "revenue": 830674}, {"ein": "161580458", "name": "CENTRAL NEW YORK PROFESSIONAL GOLFERS ASSOCIATION FOUNDATION INC", "city": "JAMESVILLE", "state": "NY", "zip": "13078-9429", "ntee": "N6A", "ruling": "200004", "deductibility": "1", "assets": 212525, "income": 190430, "revenue": 178622}, {"ein": "237026860", "name": "PROFESSIONAL GOLFERS ASSOCIATION OF", "city": "SCHENECTADY", "state": "NY", "zip": "12304-2504", "ntee": "", "ruling": "197003", "deductibility": "2", "assets": 591312, "income": 615006, "revenue": 484090}, {"ein": "452806122", "name": "MID ISLAND GOLFERS FOUNDATION OF NEW YORK INC", "city": "JAMAICA", "state": "NY", "zip": "11434-0956", "ntee": "N70", "ruling": "201206", "deductibility": "1", "assets": 11885, "income": 33623, "revenue": 33623}, {"ein": "464224603", "name": "SHINNECOCK GOLFERS ASSOCIATION SCHOLARSHIP FUND", "city": "SOUTHAMPTON", "state": "NY", "zip": "11969-2028", "ntee": "N01", "ruling": "201407", "deductibility": "1", "assets": 24694, "income": 33630, "revenue": 14452}, {"ein": "464982776", "name": "UNITED BLACK GOLFERS ASSOCIATION INC", "city": "LAURELTON", "state": "NY", "zip": "11413-1727", "ntee": "N6A", "ruling": "201408", "deductibility": "1", "assets": 57718, "income": 85546, "revenue": 85546}, {"ein": "900711473", "name": "BROOKLYN JR AUTISTIC GOLFERS ACADEMY", "city": "BROOKLYN", "state": "NY", "zip": "11202-0171", "ntee": "N6A", "ruling": "201402", "deductibility": "1", "assets": 0, "income": 0, "revenue": 0}, {"ein": "933546837", "name": "TEAM OF UNITED GOLFERS AND HUNTERS ENABLING SUPPORT INC", "city": "VESTAL", "state": "NY", "zip": "13850-0000", "ntee": "W12", "ruling": "202310", "deductibility": "1", "assets": 0, "income": 0, "revenue": 0}], "FRASERS": [{"ein": "161314743", "name": "MOHAWK VALLEY FRASERS", "city": "CLINTON", "state": "NY", "zip": "13323-4022", "ntee": "A23", "ruling": "200111", "deductibility": "1", "assets": 18432, "income": 23588, "revenue": 23588}], "CORN": [{"ein": "161352128", "name": "NEW YORK CORN AND SOYBEAN GROWERS ASSOCIATION INC", "city": "SILVER SPGS", "state": "NY", "zip": "14550-0133", "ntee": "", "ruling": "198912", "deductibility": "0", "assets": 618243, "income": 1313547, "revenue": 1274108}, {"ein": "161388214", "name": "CORN HILL WATERFRONT & NAVIGATION FOUNDATION", "city": "ROCHESTER", "state": "NY", "zip": "14608-2707", "ntee": "", "ruling": "199305", "deductibility": "1", "assets": 780569, "income": 529116, "revenue": 529116}, {"ein": "161389684", "name": "POP CORN TRUCK PRESERVATION SOCIETY", "city": "PINE CITY", "state": "NY", "zip": "14871-9580", "ntee": "A80", "ruling": "201410", "deductibility": "1", "assets": 0, "income": 0, "revenue": 0}, {"ein": "222202736", "name": "CORN HILL NEIGHBORS ASSOC INC", "city": "ROCHESTER", "state": "NY", "zip": "14608-0000", "ntee": "A99", "ruling": "201702", "deductibility": "1", "assets": 904312, "income": 421307, "revenue": 416862}, {"ein": "222314294", "name": "EDEN CORN FESTIVAL INC", "city": "EDEN", "state": "NY", "zip": "14057-1238", "ntee": "", "ruling": "198008", "deductibility": "2", "assets": 198693, "income": 195733, "revenue": 195733}, {"ein": "474266447", "name": "KETTLE CORN NEW MUSIC INC", "city": "NEW YORK", "state": "NY", "zip": "10003-4921", "ntee": "A68", "ruling": "201509", "deductibility": "1", "assets": 0, "income": 0, "revenue": 0}], "HAWN": [{"ein": "161471306", "name": "HAWN MEMORIAL LIBRARY", "city": "CLAYTON", "state": "NY", "zip": "13624-1015", "ntee": "B70Z", "ruling": "199509", "deductibility": "1", "assets": 575101, "income": 179134, "revenue": 179134}], "YOURCARE": [{"ein": "161500379", "name": "YOURCARE HEALTH PLAN INC", "city": "PITTSFORD", "state": "NY", "zip": "14534-3818", "ntee": "E21", "ruling": "200001", "deductibility": "1", "assets": 64406810, "income": 72800660, "revenue": 2770644}], "ENDICO": [{"ein": "166216605", "name": "DANIEL AND DR W H FRUTIGER CHIROPRACTIC EDUCATION FUND ENDICO", "city": "BUFFALO", "state": "NY", "zip": "14240-1504", "ntee": "", "ruling": "198203", "deductibility": "1", "assets": 186666, "income": 56532, "revenue": 0}], "FECT": [{"ein": "200602518", "name": "PURR FECT WORLD INC", "city": "CORTLAND", "state": "NY", "zip": "13045-1122", "ntee": "D20", "ruling": "200403", "deductibility": "1", "assets": 0, "income": 0, "revenue": 0}, {"ein": "465070999", "name": "A PURR-FECT FIT ANIMAL RESCUE & ADOPTION CENTER INC", "city": "WILLIAMSVILLE", "state": "NY", "zip": "14221-7036", "ntee": "D20", "ruling": "201704", "deductibility": "1", "assets": 7648, "income": 161446, "revenue": 125876}], "CONGRATION": [{"ein": "201478500", "name": "CONGRATION RIBINITZ INC", "city": "MONSEY", "state": "NY", "zip": "10952-0657", "ntee": "X30", "ruling": "200511", "deductibility": "1", "assets": 0, "income": 0, "revenue": 0}], "CINEREACH": [{"ein": "202946241", "name": "CINEREACH LTD", "city": "BROOKLYN", "state": "NY", "zip": "11249-4121", "ntee": "A31", "ruling": "201508", "deductibility": "1", "assets": 18374740, "income": 6577012, "revenue": 0}], "CUCS": [{"ein": "203733716", "name": "CUCS INITIATIVES INC", "city": "NEW YORK", "state": "NY", "zip": "10035-3523", "ntee": "L12", "ruling": "200701", "deductibility": "1", "assets": 10546822, "income": 803497, "revenue": 803497}, {"ein": "262092132", "name": "CUCS HOUSING DEVELOPMENT FUND CORPORATION II", "city": "NEW YORK", "state": "NY", "zip": "10035-3523", "ntee": "L21", "ruling": "200909", "deductibility": "1", "assets": 19865558, "income": 0, "revenue": 0}, {"ein": "460740566", "name": "CUCS HOUSING DEVELOPMENT FUND CORPORATION III", "city": "NEW YORK", "state": "NY", "zip": "10035-3523", "ntee": "L20", "ruling": "201311", "deductibility": "1", "assets": 19251832, "income": 0, "revenue": 0}, {"ein": "811671605", "name": "CUCS HOUSING DEVELOPMENT FUND CORPORATION IV", "city": "NEW YORK", "state": "NY", "zip": "10035-3523", "ntee": "L20", "ruling": "201605", "deductibility": "2", "assets": 37578098, "income": 0, "revenue": 0}], "KJA": [{"ein": "203992303", "name": "KJA REILLY FAMILY FOUNDATION", "city": "LATHAM", "state": "NY", "zip": "12110-1439", "ntee": "T22", "ruling": "200701", "deductibility": "1", "assets": 266311, "income": 34740, "revenue": 0}], "SCHOOLCOMPLEX": [{"ein": "205839604", "name": "FRIENDS OF AKUFFO TOM SCHOOLCOMPLEX", "city": "GLENVILLE", "state": "NY", "zip": "12302-3923", "ntee": "Q330", "ruling": "200712", "deductibility": "1", "assets": 0, "income": 0, "revenue": 0}], "NEWROCHELLE": [{"ein": "208293319", "name": "YOUTH BASEBALL LEAGUE OF NEWROCHELLE", "city": "NEW ROCHELLE", "state": "NY", "zip": "10804-3437", "ntee": "N63", "ruling": "200904", "deductibility": "1", "assets": 172273, "income": 316956, "revenue": 316956}], "NURTITION": [{"ein": "222396140", "name": "NEW PALTZ GARDENS FOR NURTITION INC", "city": "NEW PALTZ", "state": "NY", "zip": "12561-0835", "ntee": "C42", "ruling": "201311", "deductibility": "1", "assets": 0, "income": 0, "revenue": 0}], "WFFC": [{"ein": "222494640", "name": "WOMEN IN FLAVOR & FRAGRANCE COMMERCE WFFC", "city": "NEW YORK", "state": "NY", "zip": "10018-8403", "ntee": "", "ruling": "198510", "deductibility": "2", "assets": 432632, "income": 336591, "revenue": 166020}, {"ein": "841880474", "name": "WFFC FOUNDATION INC", "city": "NEW YORK", "state": "NY", "zip": "10018-8403", "ntee": "S81", "ruling": "201906", "deductibility": "1", "assets": 16471, "income": 13235, "revenue": 0}], "BASKET": [{"ein": "222525379", "name": "THE BASKET HISTORICAL SOCIETY OF THE UPPER DELAWARE VALLEY", "city": "LONG EDDY", "state": "NY", "zip": "12760-0198", "ntee": "", "ruling": "198412", "deductibility": "1", "assets": 47230, "income": 6550, "revenue": 0}, {"ein": "461266712", "name": "NYC BASKET BRIGADE INC", "city": "TARRYTOWN", "state": "NY", "zip": "10591-3336", "ntee": "K30", "ruling": "202401", "deductibility": "1", "assets": 0, "income": 0, "revenue": 0}, {"ein": "812044200", "name": "COMMUNITY BASKET PROGRAM", "city": "BRASHER FALLS", "state": "NY", "zip": "13613-0003", "ntee": "P12", "ruling": "201605", "deductibility": "1", "assets": 0, "income": 0, "revenue": 0}], "BRUNTON": [{"ein": "222724897", "name": "PAUL BRUNTON PHILOSOPHIC FOUNDATION INC", "city": "BURDETT", "state": "NY", "zip": "14818-9729", "ntee": "A77Z", "ruling": "198707", "deductibility": "1", "assets": 509949, "income": 400634, "revenue": 159210}], "DESOOQEYAH": [{"ein": "222808261", "name": "AL TAREEQAH AL BORHAANEYAH AL DESOOQEYAH ALSHAATHOLEYAH INC", "city": "ALBANY", "state": "NY", "zip": "12203-0845", "ntee": "", "ruling": "198801", "deductibility": "1", "assets": 0, "income": 0, "revenue": 0}], "GUEST": [{"ein": "237218160", "name": "KEVIN GUEST HOUSE", "city": "BUFFALO", "state": "NY", "zip": "14203-1103", "ntee": "E50Z", "ruling": "197212", "deductibility": "1", "assets": 4894465, "income": 1399974, "revenue": 1259660}, {"ein": "270968679", "name": "ANGIES GUEST CLOSET INC", "city": "NEW YORK", "state": "NY", "zip": "10017-0000", "ntee": "T30", "ruling": "201007", "deductibility": "1", "assets": 0, "income": 0, "revenue": 0}, {"ein": "464780314", "name": "GRACE GUEST HOUSE INC", "city": "BUFFALO", "state": "NY", "zip": "14210-2518", "ntee": "E86", "ruling": "201408", "deductibility": "1", "assets": 594722, "income": 323896, "revenue": 277237}], "WOODSINC": [{"ein": "260699514", "name": "CONGREGATION OF WHISPERING WOODSINC", "city": "BROOKLYN", "state": "NY", "zip": "11204-2352", "ntee": "X30", "ruling": "200807", "deductibility": "1", "assets": 0, "income": 0, "revenue": 0}], "DOCTRINA": [{"ein": "260871400", "name": "SALA EVANGELICA DE LA SANA DOCTRINA INC", "city": "RICHMOND HILL", "state": "NY", "zip": "11418-0000", "ntee": "X21", "ruling": "200903", "deductibility": "1", "assets": 0, "income": 0, "revenue": 0}], "BATHSHEBA": [{"ein": "261859243", "name": "BATHSHEBA FOUNDATION", "city": "QUEENS VLG", "state": "NY", "zip": "11429-2132", "ntee": "P60", "ruling": "200811", "deductibility": "1", "assets": 0, "income": 0, "revenue": 0}], "NII": [{"ein": "262175965", "name": "YUKO NII FOUNDATION INC", "city": "BROOKLYN", "state": "NY", "zip": "11211-6129", "ntee": "T20", "ruling": "200807", "deductibility": "1", "assets": 4082998, "income": 12938, "revenue": 0}], "TOGNINO": [{"ein": "263895465", "name": "ALEXANDER TOGNINO FOUNDATION INC", "city": "RYE BROOK", "state": "NY", "zip": "10573-1360", "ntee": "P60", "ruling": "201105", "deductibility": "1", "assets": 0, "income": 0, "revenue": 0}], "9BC": [{"ein": "270257447", "name": "9BC TOMPKINS SQ BLOCK ASSOCIATION INC", "city": "NEW YORK", "state": "NY", "zip": "10009-5220", "ntee": "S22", "ruling": "200912", "deductibility": "1", "assets": 0, "income": 0, "revenue": 0}], "EKATERINI": [{"ein": "270760304", "name": "EKATERINI TSIBOUKIS SCHOLARSHIP FUND INC", "city": "BAYSIDE", "state": "NY", "zip": "11361-1329", "ntee": "B82", "ruling": "201004", "deductibility": "1", "assets": 33070, "income": 604, "revenue": 604}], "BERBICE": [{"ein": "271253360", "name": "BERBICE HIGH SCHOOL ALUMNI ASSOCIATION", "city": "OZONE PARK", "state": "NY", "zip": "11417-2609", "ntee": "X20", "ruling": "201606", "deductibility": "1", "assets": 0, "income": 0, "revenue": 0}, {"ein": "383915909", "name": "BERBICE EDUCATIONAL INSTITUTE INTERNATIONAL ASSOCIATION INC", "city": "ROSEDALE", "state": "NY", "zip": "11422-3018", "ntee": "B99", "ruling": "201408", "deductibility": "1", "assets": 3477, "income": 0, "revenue": 0}], "YANSA": [{"ein": "271497426", "name": "YANSA INC", "city": "MILLERTON", "state": "NY", "zip": "12546-5026", "ntee": "C35", "ruling": "201110", "deductibility": "1", "assets": 3128, "income": 40000, "revenue": 40000}], "COMMUNITES": [{"ein": "272843521", "name": "SOUTH NASSAU COMMUNITES HOSPITAL", "city": "OCEANSIDE", "state": "NY", "zip": "11572-1551", "ntee": "", "ruling": "201001", "deductibility": "1", "assets": 36260695, "income": 64438780, "revenue": 64438780}], "CONFLUENCE": [{"ein": "273018135", "name": "CONFLUENCE PHILANTHROPY INC", "city": "NEW YORK", "state": "NY", "zip": "10016-6023", "ntee": "T193", "ruling": "201102", "deductibility": "1", "assets": 2377744, "income": 246943, "revenue": 246943}, {"ein": "473796719", "name": "CONFLUENCE CAT RESCUE INC", "city": "VESTAL", "state": "NY", "zip": "13850-2882", "ntee": "D20", "ruling": "201505", "deductibility": "1", "assets": 0, "income": 0, "revenue": 0}], "TRANSCEND": [{"ein": "300878820", "name": "TRANSCEND INC", "city": "HASTINGS HDSN", "state": "NY", "zip": "10706-2012", "ntee": "B90", "ruling": "201511", "deductibility": "1", "assets": 45991941, "income": 34329043, "revenue": 32502730}, {"ein": "921663177", "name": "TRANSCEND CHORAL & COMMUNITY MUSIC FOUNDATION", "city": "NEW YORK", "state": "NY", "zip": "10022-5865", "ntee": "A6B", "ruling": "202306", "deductibility": "1", "assets": 3273, "income": 14533, "revenue": 14533}], "MAHARAL": [{"ein": "320053618", "name": "MECHON MAHARAL TZINTZ", "city": "BROOKLYN", "state": "NY", "zip": "11204-3048", "ntee": "X30", "ruling": "200709", "deductibility": "1", "assets": 50336, "income": 248135, "revenue": 248135}], "TACKAPAUSHA": [{"ein": "320373834", "name": "FRIENDS OF TACKAPAUSHA", "city": "SEAFORD", "state": "NY", "zip": "11783-3204", "ntee": "A11", "ruling": "201301", "deductibility": "1", "assets": 0, "income": 0, "revenue": 0}], "GIGGENEYF1": [{"ein": "334721964", "name": "GIGGENEYF1 FOUNDATION INC", "city": "ASTORIA", "state": "NY", "zip": "11102-3671", "ntee": "G20", "ruling": "202506", "deductibility": "1", "assets": 0, "income": 0, "revenue": 0}], "KEONI": [{"ein": "364657593", "name": "KEONI MOVEMENT ARTS INC", "city": "NEW YORK", "state": "NY", "zip": "10036-6318", "ntee": "E60", "ruling": "201004", "deductibility": "1", "assets": 74155, "income": 56515, "revenue": 56515}], "DRAW": [{"ein": "431995436", "name": "DRAW FOR PAWS", "city": "CHAPPAQUA", "state": "NY", "zip": "10514-2512", "ntee": "D12", "ruling": "202401", "deductibility": "1", "assets": 0, "income": 0, "revenue": 0}, {"ein": "832308653", "name": "HOW TO DRAW A LION INC", "city": "RIDGEWOOD", "state": "NY", "zip": "11385-4709", "ntee": "A20", "ruling": "201811", "deductibility": "1", "assets": 0, "income": 0, "revenue": 0}, {"ein": "990434999", "name": "DRAW PROJECT LTD", "city": "BROOKLYN", "state": "NY", "zip": "11237-1524", "ntee": "A40", "ruling": "202403", "deductibility": "1", "assets": 0, "income": 0, "revenue": 0}], "AEROBIOLOGY": [{"ein": "450519499", "name": "PAN-AMERICAN AEROBIOLOGY CERTIFICATION BOARD", "city": "TRUMANSBURG", "state": "NY", "zip": "14886-9709", "ntee": "S41", "ruling": "200406", "deductibility": "2", "assets": 0, "income": 0, "revenue": 0}], "SHATZ": [{"ein": "451288559", "name": "SKS SHATZ", "city": "BROOKLYN", "state": "NY", "zip": "11219-3429", "ntee": "X30", "ruling": "201309", "deductibility": "1", "assets": 0, "income": 0, "revenue": 0}, {"ein": "472492793", "name": "THE SHATZ FAMILY FOUNDATION INC", "city": "SCARSDALE", "state": "NY", "zip": "10583-1129", "ntee": "W99", "ruling": "201501", "deductibility": "1", "assets": 292334, "income": 78361, "revenue": 0}], "POSELOVICH": [{"ein": "453000560", "name": "ANTHONY POSELOVICH MEMORIAL FOUNDATION", "city": "FAIRPORT", "state": "NY", "zip": "14450-7123", "ntee": "G12", "ruling": "201111", "deductibility": "1", "assets": 0, "income": 0, "revenue": 0}], "BALA": [{"ein": "453617401", "name": "BALA VIJAYAM INC", "city": "SCARSDALE", "state": "NY", "zip": "10583-3118", "ntee": "P30", "ruling": "201409", "deductibility": "1", "assets": 0, "income": 0, "revenue": 0}, {"ein": "465745681", "name": "LUKA BALA FOUNDATION", "city": "ASTORIA", "state": "NY", "zip": "11102-2654", "ntee": "B12", "ruling": "201612", "deductibility": "1", "assets": 0, "income": 0, "revenue": 0}, {"ein": "843004582", "name": "PRABHA BALA AND BALA SWAMINATHAN FOUNDATION INC", "city": "JERICHO", "state": "NY", "zip": "11753-2702", "ntee": "T22", "ruling": "202004", "deductibility": "1", "assets": 8877, "income": 19907, "revenue": 0}], "SEVAY": [{"ein": "454456929", "name": "FRIENDS OF SHISHUR SEVAY", "city": "BAYPORT", "state": "NY", "zip": "11705-1924", "ntee": "Q33", "ruling": "201204", "deductibility": "1", "assets": 1921, "income": 48744, "revenue": 48744}], "POMERANZ": [{"ein": "461044519", "name": "POMERANZ SHANKMAN MARTIN FOUNDATION INC", "city": "EAST SYRACUSE", "state": "NY", "zip": "13057-9323", "ntee": "T22", "ruling": "201211", "deductibility": "1", "assets": 6194736, "income": 783939, "revenue": 0}], "133K": [{"ein": "462806791", "name": "THE P T A OF P S 133K INC", "city": "BROOKLYN", "state": "NY", "zip": "11217-2705", "ntee": "B94", "ruling": "201408", "deductibility": "1", "assets": 276983, "income": 252216, "revenue": 231257}], "REGROUP": [{"ein": "462935281", "name": "REGROUP THEATRE COMPANY INC", "city": "NEW YORK", "state": "NY", "zip": "10024-6479", "ntee": "A65", "ruling": "201308", "deductibility": "1", "assets": 0, "income": 0, "revenue": 0}], "SIMIENTE": [{"ein": "463084229", "name": "MINISTERIO CRISTIANO SIMIENTE DE PAZ", "city": "SELDEN", "state": "NY", "zip": "11784-2248", "ntee": "X20", "ruling": "201805", "deductibility": "1", "assets": 0, "income": 0, "revenue": 0}], "BEA": [{"ein": "463733819", "name": "BEA ARTHUR RESIDENCE HOUSING DEVELOPMENT FUND CORPORATION", "city": "NEW YORK", "state": "NY", "zip": "10003-8963", "ntee": "L21", "ruling": "202109", "deductibility": "1", "assets": 4601038, "income": 1832, "revenue": 1832}, {"ein": "472421612", "name": "BEA MARTIN FOUNDATION", "city": "YONKERS", "state": "NY", "zip": "10701-4627", "ntee": "N50", "ruling": "201509", "deductibility": "1", "assets": 0, "income": 0, "revenue": 0}], "EXPERIMENTS": [{"ein": "463775780", "name": "EXPERIMENTS IN OPERA", "city": "BROOKLYN", "state": "NY", "zip": "11232-1353", "ntee": "A60", "ruling": "201501", "deductibility": "1", "assets": 28008, "income": 198071, "revenue": 198071}], "TSONGKHAPA": [{"ein": "471156703", "name": "TSONGKHAPA BUDDHIST FOUNDATION", "city": "LONG ISLAND CITY", "state": "NY", "zip": "11101-2732", "ntee": "X50", "ruling": "201504", "deductibility": "1", "assets": 0, "income": 0, "revenue": 0}], "MOLDING": [{"ein": "471869958", "name": "MOLDING LIVES INC", "city": "JAMAICA", "state": "NY", "zip": "11434-5849", "ntee": "P20", "ruling": "201501", "deductibility": "1", "assets": 19539, "income": 189000, "revenue": 189000}], "RBDB": [{"ein": "472685989", "name": "RBDB FOUNDATION INC", "city": "BROOKLYN", "state": "NY", "zip": "11219-3420", "ntee": "T20", "ruling": "201504", "deductibility": "1", "assets": 95425, "income": 40000, "revenue": 0}], "DAORONG": [{"ein": "475024814", "name": "DAORONG WOMEN AND MINORITY FOUNDATION", "city": "NEW YORK", "state": "NY", "zip": "10022-6445", "ntee": "P20", "ruling": "201603", "deductibility": "1", "assets": 0, "income": 0, "revenue": 0}], "MAXFIELD": [{"ein": "510538727", "name": "MAXFIELD HOSE COMPANY INC", "city": "NAPLES", "state": "NY", "zip": "14512-0306", "ntee": "M24", "ruling": "201409", "deductibility": "1", "assets": 808264, "income": 45402, "revenue": 44655}], "TOIV": [{"ein": "813625994", "name": "CONG TOIV IMEITIV", "city": "MONROE", "state": "NY", "zip": "10950-2086", "ntee": "X99", "ruling": "202401", "deductibility": "1", "assets": 0, "income": 0, "revenue": 0}], "SHAMAR": [{"ein": "814242758", "name": "MINISTERIOS CRISTIANOS UNIDOS SHAMAR", "city": "NORTH BALDWIN", "state": "NY", "zip": "11510-2516", "ntee": "X20", "ruling": "202302", "deductibility": "1", "assets": 0, "income": 0, "revenue": 0}], "YSD": [{"ein": "814804513", "name": "YSD FOUNDATION", "city": "TALLMAN", "state": "NY", "zip": "10982-0165", "ntee": "T20", "ruling": "201806", "deductibility": "1", "assets": 3829, "income": 145150, "revenue": 0}], "AEDENS": [{"ein": "814917579", "name": "AEDENS BRIDGE OF HOPE INC", "city": "NEW YORK", "state": "NY", "zip": "10018-5707", "ntee": "G50", "ruling": "201703", "deductibility": "1", "assets": 49, "income": 0, "revenue": 0}], "HALEVANON": [{"ein": "815067461", "name": "BEIT HORAA ARZEI HALEVANON", "city": "BROOKLYN", "state": "NY", "zip": "11229-3509", "ntee": "X30", "ruling": "201705", "deductibility": "1", "assets": 8439, "income": 15663, "revenue": 15663}], "CODERS": [{"ein": "815232795", "name": "TECH VALLEY CODERS INC", "city": "TROY", "state": "NY", "zip": "12180-1441", "ntee": "B90", "ruling": "201705", "deductibility": "1", "assets": 0, "income": 0, "revenue": 0}, {"ein": "853960411", "name": "KOSHER CODERS INC", "city": "BROOKLYN", "state": "NY", "zip": "11249-5501", "ntee": "U41", "ruling": "202103", "deductibility": "1", "assets": 3830, "income": 33764, "revenue": 33764}, {"ein": "883985541", "name": "RISING CODERS CLUB", "city": "JERICHO", "state": "NY", "zip": "11753-1731", "ntee": "B01", "ruling": "202210", "deductibility": "1", "assets": 0, "income": 0, "revenue": 0}, {"ein": "994600985", "name": "YOUNG CODERS FOUNDATION INC", "city": "BROOKLYN", "state": "NY", "zip": "11208-4862", "ntee": "B11", "ruling": "202409", "deductibility": "1", "assets": 0, "income": 0, "revenue": 0}], "OEUVRE": [{"ein": "815381004", "name": "JEANNE ESTIDA OEUVRE CHARITABLE", "city": "BROOKLYN", "state": "NY", "zip": "11236-3312", "ntee": "Q33", "ruling": "201809", "deductibility": "1", "assets": 0, "income": 0, "revenue": 0}], "ZAVAT": [{"ein": "822194134", "name": "AMERICAN FRIENDS OF ZAVAT CHALAV INC", "city": "AIRMONT", "state": "NY", "zip": "10952-3473", "ntee": "X30", "ruling": "201807", "deductibility": "1", "assets": 279606, "income": 10175540, "revenue": 10175540}], "THUMPERS": [{"ein": "822248258", "name": "THUMPERS FRIENDS CHARITABLE FOUNDATION", "city": "NEW YORK", "state": "NY", "zip": "10005-0000", "ntee": "T12", "ruling": "201805", "deductibility": "1", "assets": 0, "income": 0, "revenue": 0}], "BONACASA": [{"ein": "823979914", "name": "SSGT LOUIS BONACASA MEMORIAL FUND INC", "city": "MANORVILLE", "state": "NY", "zip": "11949-9567", "ntee": "", "ruling": "202010", "deductibility": "1", "assets": 62391, "income": 6855, "revenue": 6855}], "KUYPER": [{"ein": "824960236", "name": "ABRAHAM KUYPER CHRISTIAN CITIZEN FEDERATION", "city": "LEWISTON", "state": "NY", "zip": "14092-0770", "ntee": "X21", "ruling": "201804", "deductibility": "1", "assets": 24882, "income": 617, "revenue": 617}], "ALONSO": [{"ein": "831189621", "name": "ALONSO GUZMAN DANZA INC", "city": "NEW YORK", "state": "NY", "zip": "10039-2703", "ntee": "B99", "ruling": "201903", "deductibility": "1", "assets": 0, "income": 0, "revenue": 0}], "ZL": [{"ein": "833082421", "name": "ZL DONATION FUND INC", "city": "NEW YORK", "state": "NY", "zip": "10007-1952", "ntee": "P80", "ruling": "201902", "deductibility": "1", "assets": 232, "income": 1, "revenue": 0}, {"ein": "994316590", "name": "MEMORY OF MEIER & BEILA ZL INC", "city": "BROOKLYN", "state": "NY", "zip": "11205-1990", "ntee": "X30", "ruling": "202501", "deductibility": "1", "assets": 0, "income": 0, "revenue": 0}], "SAXAPAHAW": [{"ein": "851189050", "name": "SAXAPAHAW PRISON BOOKS", "city": "NEW YORK", "state": "NY", "zip": "10031-6810", "ntee": "B90", "ruling": "202202", "deductibility": "1", "assets": 0, "income": 0, "revenue": 0}], "HANGOUT": [{"ein": "851525501", "name": "HANGOUT ONE HAPPY PLACE INC", "city": "BALDWIN", "state": "NY", "zip": "11510-3505", "ntee": "P82", "ruling": "202105", "deductibility": "1", "assets": 25513, "income": 106448, "revenue": 106448}], "YELVERTON": [{"ein": "854233876", "name": "YELVERTON KREATIONS INC", "city": "NEW YORK CITY", "state": "NY", "zip": "10001-4853", "ntee": "A23", "ruling": "202309", "deductibility": "1", "assets": 0, "income": 0, "revenue": 0}], "CTS": [{"ein": "854310639", "name": "CTS FOUNDATION", "city": "BROOKLYN", "state": "NY", "zip": "11249-6120", "ntee": "T20", "ruling": "202211", "deductibility": "1", "assets": 1, "income": 1, "revenue": 0}], "EGD": [{"ein": "861554242", "name": "EGD COLLECTIVE INC", "city": "BROOKLYN", "state": "NY", "zip": "11219-2509", "ntee": "", "ruling": "202105", "deductibility": "1", "assets": 0, "income": 0, "revenue": 0}], "PFEIFFENBERGER": [{"ein": "862731926", "name": "MARTIN E PFEIFFENBERGER MEMORIAL SCHOLARSHIP FUND", "city": "ALTAMONT", "state": "NY", "zip": "12009-4005", "ntee": "B28", "ruling": "202111", "deductibility": "1", "assets": 13496, "income": 0, "revenue": 0}], "LMAANCHEM": [{"ein": "863941653", "name": "LMAANCHEM USA INC", "city": "BROOKLYN", "state": "NY", "zip": "11204-2545", "ntee": "X30", "ruling": "202411", "deductibility": "1", "assets": 899395, "income": 2746980, "revenue": 2746980}], "DEMOCRATS": [{"ein": "871560841", "name": "SOCIAL DEMOCRATS OF AMERICA INCORPORATED", "city": "NEW YORK", "state": "NY", "zip": "10031-6943", "ntee": "W24", "ruling": "202205", "deductibility": "2", "assets": 0, "income": 0, "revenue": 0}], "LEOVDEI": [{"ein": "872445838", "name": "LEOVDEI HASHEM INC", "city": "BROOKLYN", "state": "NY", "zip": "11230-6610", "ntee": "P20", "ruling": "202203", "deductibility": "1", "assets": 0, "income": 0, "revenue": 0}], "TRYBE": [{"ein": "873807130", "name": "FRIENDS OF TRYBE ECOTHERAPY INC", "city": "WEBSTER", "state": "NY", "zip": "14580-4037", "ntee": "E80", "ruling": "202203", "deductibility": "1", "assets": 1, "income": 0, "revenue": 0}], "DTTB": [{"ein": "882991186", "name": "DTTB ANGEL BABY CORP", "city": "PATCHOGUE", "state": "NY", "zip": "11772-3724", "ntee": "P99", "ruling": "202207", "deductibility": "1", "assets": 4485, "income": 28514, "revenue": 28514}], "GUIA": [{"ein": "883001226", "name": "GUIA COLLECTIVE INC", "city": "BROOKLYN", "state": "NY", "zip": "11215-1005", "ntee": "J21", "ruling": "202207", "deductibility": "1", "assets": 0, "income": 0, "revenue": 0}], "GUND": [{"ein": "900446418", "name": "THE GUND ART FOUNDATION", "city": "NEW YORK", "state": "NY", "zip": "10021-4271", "ntee": "T20", "ruling": "200906", "deductibility": "1", "assets": 752, "income": 1, "revenue": 0}], "ASL": [{"ein": "920783959", "name": "ASL CLUB INC", "city": "BROOKLYN", "state": "NY", "zip": "11205-1191", "ntee": "P50", "ruling": "202301", "deductibility": "1", "assets": 0, "income": 0, "revenue": 0}], "NEEDING": [{"ein": "921911553", "name": "KIDS NEEDING OTHERS TO SUCCEED INC", "city": "BROOKLYN", "state": "NY", "zip": "11207-5825", "ntee": "P99", "ruling": "202303", "deductibility": "1", "assets": 0, "income": 0, "revenue": 0}], "ITEQUITY": [{"ein": "923327450", "name": "ITEQUITY WORKS INC", "city": "BINGHAMTON", "state": "NY", "zip": "13905-2302", "ntee": "B99", "ruling": "202304", "deductibility": "1", "assets": 0, "income": 0, "revenue": 0}], "SCUTCHINS": [{"ein": "933677526", "name": "SCUTCHINS FAMILY YOUTH SERVICES LLC", "city": "NEW YORK MLS", "state": "NY", "zip": "13417-1409", "ntee": "P99", "ruling": "202408", "deductibility": "1", "assets": 0, "income": 0, "revenue": 0}], "TRUEFREEDOMLIFE": [{"ein": "933923673", "name": "TRUEFREEDOMLIFE FOUNDATION INC", "city": "BROOKLYN", "state": "NY", "zip": "11223-4112", "ntee": "P28", "ruling": "202312", "deductibility": "1", "assets": 0, "income": 0, "revenue": 0}], "HOMEMADE": [{"ein": "934072956", "name": "LISAS HOMEMADE FOUNDATION INC", "city": "EAST HAMPTON", "state": "NY", "zip": "11937-2091", "ntee": "K99", "ruling": "202310", "deductibility": "1", "assets": 0, "income": 0, "revenue": 0}], "CARRIBEANS": [{"ein": "934235074", "name": "CARRIBEANS FOR CLIMATE LIMITED", "city": "BROOKLYN", "state": "NY", "zip": "11216-2718", "ntee": "", "ruling": "202312", "deductibility": "1", "assets": 0, "income": 0, "revenue": 0}], "KALAS": [{"ein": "934262911", "name": "KALAS HOPE HAVEN", "city": "JAMESTOWN", "state": "NY", "zip": "14701-2837", "ntee": "P60", "ruling": "202312", "deductibility": "1", "assets": 0, "income": 0, "revenue": 0}], "ENTRE2TIERRAS": [{"ein": "934792478", "name": "ENTRE2TIERRAS INCORPORATED", "city": "FLUSHING", "state": "NY", "zip": "11355-4082", "ntee": "O50", "ruling": "202401", "deductibility": "1", "assets": 0, "income": 0, "revenue": 0}], "OUBRITENGA": [{"ein": "934958738", "name": "ASSOCIATION OF THE PEOPLE OF OUBRITENGA IN AMERICA", "city": "BRONX", "state": "NY", "zip": "10472-1501", "ntee": "S20", "ruling": "202402", "deductibility": "1", "assets": 0, "income": 0, "revenue": 0}], "TELEOSIS": [{"ein": "943400328", "name": "TELEOSIS FOUNDATION", "city": "GHENT", "state": "NY", "zip": "12075-3904", "ntee": "B99", "ruling": "200203", "deductibility": "1", "assets": 0, "income": 0, "revenue": 0}], "MECOX": [{"ein": "990659129", "name": "MECOX BAY CONSERVANCY INC", "city": "WATER MILL", "state": "NY", "zip": "11976-0934", "ntee": "C32", "ruling": "202411", "deductibility": "1", "assets": 0, "income": 0, "revenue": 0}], "SHTEIGING": [{"ein": "991363064", "name": "CONGREGATION SHTEIGING", "city": "BROOKLYN", "state": "NY", "zip": "11219-5020", "ntee": "X30", "ruling": "202507", "deductibility": "1", "assets": 0, "income": 0, "revenue": 0}], "JANEIRO": [{"ein": "991901201", "name": "SOL DE JANEIRO FOUNDATION", "city": "NEW YORK", "state": "NY", "zip": "10165-6230", "ntee": "T22", "ruling": "202501", "deductibility": "1", "assets": 1, "income": 1, "revenue": 0}], "TIEBOUT": [{"ein": "992572348", "name": "MBD TIEBOUT HOUSING DEVELOPMENT FUND CORPORATION", "city": "BRONX", "state": "NY", "zip": "10460-4801", "ntee": "L21", "ruling": "202406", "deductibility": "1", "assets": 0, "income": 0, "revenue": 0}], "YARLUNG": [{"ein": "993142689", "name": "YARLUNG CENTER INC", "city": "EAST ELMHURST", "state": "NY", "zip": "11370-2062", "ntee": "A20", "ruling": "202406", "deductibility": "1", "assets": 1, "income": 32890, "revenue": 32890}], "ATHAR": [{"ein": "993867471", "name": "ATHAR INC", "city": "BROOKLYN", "state": "NY", "zip": "11203-1213", "ntee": "P99", "ruling": "202411", "deductibility": "1", "assets": 0, "income": 0, "revenue": 0}]}