{"MORF": [{"ein": "010575002", "name": "MORF FOUNDATION INC", "city": "CORNING", "state": "NY", "zip": "14830-2722", "ntee": "T22", "ruling": "200203", "deductibility": "1", "assets": 625212, "income": 381676, "revenue": 0}], "VOICE": [{"ein": "010638816", "name": "VOICE OF ENDTIME DELIVERANCE MIN", "city": "PEEKSKILL", "state": "NY", "zip": "10566-0102", "ntee": "", "ruling": "199112", "deductibility": "1", "assets": 0, "income": 0, "revenue": 0}, {"ein": "010969358", "name": "PHOENICIA FESTIVAL OF THE VOICE FOUNDATION", "city": "PHOENICIA", "state": "NY", "zip": "12464-0327", "ntee": "A68", "ruling": "201108", "deductibility": "1", "assets": 155900, "income": 384430, "revenue": 223391}, {"ein": "061208587", "name": "THE VOICE OF NATURE NETWORK INC", "city": "BREWSTER", "state": "NY", "zip": "10509-2837", "ntee": "", "ruling": "198804", "deductibility": "1", "assets": 0, "income": 0, "revenue": 0}, {"ein": "112653072", "name": "VOICE OF JEWISH ACTIVISM INC", "city": "FRESH MEADOWS", "state": "NY", "zip": "11365-0327", "ntee": "", "ruling": "198404", "deductibility": "1", "assets": 76032, "income": 203656, "revenue": 203656}, {"ein": "113014783", "name": "HEAVENLY VOICE PRESBYTERIAN CHURCH IN NEW YORK", "city": "FRESH MEADOWS", "state": "NY", "zip": "11365-2334", "ntee": "", "ruling": "199408", "deductibility": "1", "assets": 0, "income": 0, "revenue": 0}, {"ein": "113145704", "name": "VOICE OF GOD TABERNACLE INC", "city": "HUNTINGTON", "state": "NY", "zip": "11743-6363", "ntee": "X21I", "ruling": "199611", "deductibility": "1", "assets": 0, "income": 0, "revenue": 0}, {"ein": "113311202", "name": "A VOICE FOR ALL ANIMALS", "city": "WELLSBURG", "state": "NY", "zip": "14894-9763", "ntee": "D20", "ruling": "201206", "deductibility": "1", "assets": 0, "income": 0, "revenue": 0}, {"ein": "113367913", "name": "VOICE OF LIGHT MISSION CHURCH", "city": "FLUSHING", "state": "NY", "zip": "11358-2625", "ntee": "X21", "ruling": "199901", "deductibility": "1", "assets": 0, "income": 0, "revenue": 0}, {"ein": "113537691", "name": "CHILDREN VOICE INC", "city": "JAMAICA", "state": "NY", "zip": "11432-1153", "ntee": "P30", "ruling": "202109", "deductibility": "1", "assets": 79208, "income": 279184, "revenue": 279184}, {"ein": "133731867", "name": "VOICE FOR CHOICE PLANNED PARENTHOOD OF NEW YORK CITY ACTION FUND INC", "city": "NEW YORK", "state": "NY", "zip": "10012-2413", "ntee": "", "ruling": "199311", "deductibility": "2", "assets": 744799, "income": 502847, "revenue": 502847}, {"ein": "134153023", "name": "CARIBBEAN VOICE INC", "city": "NEW YORK", "state": "NY", "zip": "10460-4312", "ntee": "A20", "ruling": "201903", "deductibility": "1", "assets": 0, "income": 0, "revenue": 0}, {"ein": "134184713", "name": "COUNCIL ONE VOICE OF ALERT INC", "city": "BRONX", "state": "NY", "zip": "10455-4317", "ntee": "X20", "ruling": "200404", "deductibility": "1", "assets": 0, "income": 0, "revenue": 0}, {"ein": "161502516", "name": "VOICE BUFFALO INC", "city": "BUFFALO", "state": "NY", "zip": "14214-2154", "ntee": "S20", "ruling": "199608", "deductibility": "1", "assets": 356754, "income": 497712, "revenue": 497712}, {"ein": "201942592", "name": "VOICE OF HEALING MINISTRIES INC", "city": "CAMBRIA HTS", "state": "NY", "zip": "11411-1236", "ntee": "X90", "ruling": "200506", "deductibility": "1", "assets": 33822, "income": 14739, "revenue": 14739}, {"ein": "204255407", "name": "VOICE OF FREEDOM INTERNATIONALMINISTRIES INC", "city": "BRENTWOOD", "state": "NY", "zip": "11717-0993", "ntee": "X20", "ruling": "200704", "deductibility": "1", "assets": 0, "income": 0, "revenue": 0}, {"ein": "204334583", "name": "NEW VOICE PROJECT", "city": "NEW YORK", "state": "NY", "zip": "10023-1728", "ntee": "A68", "ruling": "200708", "deductibility": "1", "assets": 0, "income": 0, "revenue": 0}, {"ein": "205126763", "name": "KOL HANEARIM VOICE OF OUR YOUTH INC", "city": "FAR ROCKAWAY", "state": "NY", "zip": "11691-1715", "ntee": "", "ruling": "200608", "deductibility": "1", "assets": 0, "income": 0, "revenue": 0}, {"ein": "260674549", "name": "SOUTHOLD VOICE INC", "city": "SOUTHOLD", "state": "NY", "zip": "11971-0931", "ntee": "C32", "ruling": "200906", "deductibility": "1", "assets": 13652, "income": 0, "revenue": 0}, {"ein": "260758884", "name": "CREATORS VOICE SOCIETY INC", "city": "NEW YORK", "state": "NY", "zip": "10002-5001", "ntee": "A50", "ruling": "200809", "deductibility": "1", "assets": 69218, "income": 49490, "revenue": 49490}, {"ein": "261779361", "name": "VOICE CHARTER SCHOOL OF NEW YORK", "city": "LONG IS CITY", "state": "NY", "zip": "11106-5002", "ntee": "B29", "ruling": "200812", "deductibility": "1", "assets": 28207891, "income": 18634212, "revenue": 18634212}, {"ein": "263194854", "name": "INTERNATIONAL VOICE OF JUSTICE", "city": "NEW YORK", "state": "NY", "zip": "10034-2747", "ntee": "A25", "ruling": "200906", "deductibility": "1", "assets": 0, "income": 0, "revenue": 0}, {"ein": "270053263", "name": "LORD-N-FIELDS VOICE OF FREEDOM BIBLE CHURCH COMMUNITY WORKERS INT", "city": "BAY SHORE", "state": "NY", "zip": "11706-3324", "ntee": "X21", "ruling": "200309", "deductibility": "1", "assets": 0, "income": 0, "revenue": 0}, {"ein": "270084194", "name": "CHURCH OF GOD OF THE VOICE OF HOPE INC", "city": "QUEENS VLG", "state": "NY", "zip": "11428-0113", "ntee": "X21", "ruling": "200406", "deductibility": "1", "assets": 0, "income": 0, "revenue": 0}, {"ein": "270644420", "name": "VOICE OF THE LORD CHRISTIAN CENTER INC", "city": "STATEN ISLAND", "state": "NY", "zip": "10301-2910", "ntee": "X20", "ruling": "201109", "deductibility": "1", "assets": 0, "income": 0, "revenue": 0}, {"ein": "271438741", "name": "VOICE FROM HEAVEN", "city": "BRONX", "state": "NY", "zip": "10468-0000", "ntee": "X21", "ruling": "201002", "deductibility": "1", "assets": 0, "income": 0, "revenue": 0}, {"ein": "273587242", "name": "VOICE OF VICTORY BIBLE CHURCH INC", "city": "BRONX", "state": "NY", "zip": "10457-8010", "ntee": "X21", "ruling": "201209", "deductibility": "1", "assets": 0, "income": 0, "revenue": 0}, {"ein": "275310583", "name": "ONE VOICE GOES A LONG WAY", "city": "LONG IS CITY", "state": "NY", "zip": "11101-3810", "ntee": "P12", "ruling": "201404", "deductibility": "1", "assets": 0, "income": 0, "revenue": 0}, {"ein": "320413280", "name": "RACHELS VOICE OF HORNELL INC", "city": "HORNELL", "state": "NY", "zip": "14843-1226", "ntee": "P99", "ruling": "201608", "deductibility": "1", "assets": 0, "income": 0, "revenue": 0}, {"ein": "333092887", "name": "VOICE OF CHRISTIAN AMERICAN LEAGUE INC", "city": "GREAT NECK", "state": "NY", "zip": "11021-2615", "ntee": "X21", "ruling": "202502", "deductibility": "1", "assets": 0, "income": 0, "revenue": 0}, {"ein": "341780415", "name": "VOICE OF THE CHILDREN FOUNDATION", "city": "CHESTERTOWN", "state": "NY", "zip": "12817-4401", "ntee": "T31", "ruling": "199702", "deductibility": "1", "assets": 5000, "income": 62100, "revenue": 62100}, {"ein": "352373925", "name": "VOICE HALLELUYAH FOUNDATION INC", "city": "BRONX", "state": "NY", "zip": "10473-2618", "ntee": "P20", "ruling": "201007", "deductibility": "1", "assets": 0, "income": 0, "revenue": 0}, {"ein": "454908999", "name": "SEEKERS VOICE MINISTRIES INTERNATIONAL INC", "city": "LYNBROOK", "state": "NY", "zip": "11563-1238", "ntee": "X21", "ruling": "201708", "deductibility": "1", "assets": 1, "income": 1, "revenue": 0}, {"ein": "460992451", "name": "ROYAL VOICE CHAPEL INTERNATIONAL", "city": "BRONX", "state": "NY", "zip": "10473-4832", "ntee": "X20", "ruling": "201411", "deductibility": "1", "assets": 0, "income": 0, "revenue": 0}, {"ein": "461147587", "name": "EVERY VOICE CHOIRS INC", "city": "NEW YORK", "state": "NY", "zip": "10025-1527", "ntee": "A6B", "ruling": "201302", "deductibility": "1", "assets": 113321, "income": 250551, "revenue": 250551}, {"ein": "461988041", "name": "VOICE OF YOUTH CHANGES EVERYTHING INC", "city": "JAMAICA", "state": "NY", "zip": "11436-1022", "ntee": "O50", "ruling": "201603", "deductibility": "1", "assets": 20546, "income": 118475, "revenue": 118475}, {"ein": "462054458", "name": "WORLD VOICE ENSEMBLE", "city": "BRONX", "state": "NY", "zip": "10469-3122", "ntee": "A65", "ruling": "201409", "deductibility": "1", "assets": 65, "income": 100, "revenue": 0}, {"ein": "462189287", "name": "PATRICK APOLLON & KATLINES VOICE FOR HAITI CORP", "city": "BROOKLYN", "state": "NY", "zip": "11236-5307", "ntee": "L99", "ruling": "201407", "deductibility": "1", "assets": 0, "income": 0, "revenue": 0}, {"ein": "462868830", "name": "SHARE THE VOICE", "city": "RONKONKOMA", "state": "NY", "zip": "11779-3626", "ntee": "E99", "ruling": "201407", "deductibility": "1", "assets": 0, "income": 0, "revenue": 0}, {"ein": "463119535", "name": "PENTECOSTAL CHURCH THE VOICE OF THE WORD INC", "city": "BUFFALO", "state": "NY", "zip": "14220-1829", "ntee": "X21", "ruling": "201410", "deductibility": "1", "assets": 0, "income": 0, "revenue": 0}, {"ein": "463556419", "name": "EVOCO VOICE COLLECTIVE INC", "city": "LYNBROOK", "state": "NY", "zip": "11563-3106", "ntee": "A68", "ruling": "201406", "deductibility": "1", "assets": 70825, "income": 70984, "revenue": 70984}, {"ein": "465495365", "name": "ITHACA VOICE", "city": "ITHACA", "state": "NY", "zip": "14850-4308", "ntee": "A30", "ruling": "201908", "deductibility": "1", "assets": 246324, "income": 284138, "revenue": 284138}, {"ein": "471098765", "name": "PEOPLES VOICE CAFE INC", "city": "NEW YORK", "state": "NY", "zip": "10024-1135", "ntee": "A20", "ruling": "201412", "deductibility": "1", "assets": 0, "income": 0, "revenue": 0}, {"ein": "472239071", "name": "THE VOICE OF TRUTH", "city": "BROOKLYN", "state": "NY", "zip": "11236-4232", "ntee": "", "ruling": "197210", "deductibility": "1", "assets": 1500, "income": 25500, "revenue": 25500}, {"ein": "474117962", "name": "SOUTH ASIAN AMERICAN VOICE INC", "city": "JAMAICA", "state": "NY", "zip": "11432-2632", "ntee": "X90", "ruling": "201712", "deductibility": "1", "assets": 0, "income": 0, "revenue": 0}, {"ein": "475096423", "name": "A STILL SMALL VOICE 4U INC", "city": "E GREENBUSH", "state": "NY", "zip": "12061-3508", "ntee": "A60", "ruling": "201601", "deductibility": "1", "assets": 0, "income": 0, "revenue": 0}, {"ein": "522248687", "name": "KOL TZEDEK-VOICE OF JUSTICE", "city": "BROOKLYN", "state": "NY", "zip": "11234-3711", "ntee": "X30", "ruling": "200306", "deductibility": "1", "assets": 0, "income": 0, "revenue": 0}, {"ein": "814185119", "name": "VOICE THEATRE INC", "city": "BEARSVILLE", "state": "NY", "zip": "12409-0353", "ntee": "A65", "ruling": "201705", "deductibility": "1", "assets": 124805, "income": 211575, "revenue": 211575}, {"ein": "815118832", "name": "VOICE FOR THE VOICELESS SCHENECTADY INC", "city": "SCHENECTADY", "state": "NY", "zip": "12325-0853", "ntee": "D20", "ruling": "201708", "deductibility": "1", "assets": 0, "income": 134435, "revenue": 134435}, {"ein": "820570892", "name": "ASIAN AMERICA VOICE INC", "city": "NEW YORK", "state": "NY", "zip": "10029-3265", "ntee": "A32", "ruling": "200304", "deductibility": "1", "assets": 0, "income": 0, "revenue": 0}, {"ein": "820927885", "name": "VOICE OF GOD MINISTRIES INTERNATIONAL", "city": "BRONX", "state": "NY", "zip": "10469-2910", "ntee": "X21", "ruling": "201807", "deductibility": "1", "assets": 680849, "income": 118675, "revenue": 118675}, {"ein": "821035009", "name": "CHRISTOPHERS VOICE INC", "city": "NEW ROCHELLE", "state": "NY", "zip": "10805-2905", "ntee": "G84", "ruling": "201711", "deductibility": "1", "assets": 0, "income": 0, "revenue": 0}, {"ein": "822061341", "name": "ROCCOS VOICE FOR AUTISM CORP", "city": "MASSAPEQUA", "state": "NY", "zip": "11758-2228", "ntee": "P20", "ruling": "201708", "deductibility": "1", "assets": 86014, "income": 130042, "revenue": 130042}, {"ein": "824031398", "name": "ONE VILLAGE ONE VOICE INC", "city": "BRONX", "state": "NY", "zip": "10466-4601", "ntee": "O51", "ruling": "202402", "deductibility": "1", "assets": 0, "income": 0, "revenue": 0}, {"ein": "824513654", "name": "VOICE OF JEWISH EDUCATION", "city": "FAR ROCKAWAY", "state": "NY", "zip": "11691-5001", "ntee": "X30", "ruling": "201804", "deductibility": "1", "assets": 80673, "income": 47660, "revenue": 47660}, {"ein": "831553038", "name": "A VOICE 4 THE UNHEARD INC", "city": "BROOKLYN", "state": "NY", "zip": "11225-1272", "ntee": "T50", "ruling": "201809", "deductibility": "1", "assets": 0, "income": 0, "revenue": 0}, {"ein": "832262105", "name": "GODS VOICE MINISTRIES INC", "city": "ALBION", "state": "NY", "zip": "14411-1123", "ntee": "X20", "ruling": "201907", "deductibility": "1", "assets": 0, "income": 0, "revenue": 0}, {"ein": "832785728", "name": "STANDUP AND VOICE EMPOWERMENT INC SAVE", "city": "BROOKHAVEN", "state": "NY", "zip": "11719-9655", "ntee": "F60", "ruling": "202309", "deductibility": "1", "assets": 0, "income": 0, "revenue": 0}, {"ein": "833669089", "name": "BRIDGING VOICE INC", "city": "BROOKLYN", "state": "NY", "zip": "11214-2599", "ntee": "E60", "ruling": "201907", "deductibility": "1", "assets": 1741743, "income": 2135766, "revenue": 2135766}, {"ein": "833729270", "name": "WE ARE THEIR VOICE WILDLIFE CARE AND RESCUE LLC", "city": "NEWARK VALLEY", "state": "NY", "zip": "13811-3209", "ntee": "D99", "ruling": "202012", "deductibility": "1", "assets": 0, "income": 0, "revenue": 0}, {"ein": "842103943", "name": "VOICE OF THE TURTLEDOVE APOSTOLIC INTERNATIONAL CENTER INC", "city": "FAR ROCKAWAY", "state": "NY", "zip": "11691-4718", "ntee": "X20", "ruling": "202001", "deductibility": "1", "assets": 0, "income": 0, "revenue": 0}, {"ein": "842172202", "name": "VOICE OF GOD FOUNDATION", "city": "BUFFALO", "state": "NY", "zip": "14215-1001", "ntee": "O50", "ruling": "202004", "deductibility": "1", "assets": 0, "income": 0, "revenue": 0}, {"ein": "842201028", "name": "VOICE OF THE KIDS INC", "city": "SPRING VALLEY", "state": "NY", "zip": "10977-7036", "ntee": "O01", "ruling": "201907", "deductibility": "1", "assets": 118, "income": 0, "revenue": 0}, {"ein": "843079449", "name": "JONATHAN S VOICE INC", "city": "MOUNT VERNON", "state": "NY", "zip": "10550-3213", "ntee": "P99", "ruling": "201911", "deductibility": "1", "assets": 0, "income": 0, "revenue": 0}, {"ein": "843482908", "name": "VOICE OF CHINESE AMERICANS INC", "city": "FLUSHING", "state": "NY", "zip": "11354-4232", "ntee": "I80", "ruling": "202001", "deductibility": "1", "assets": 0, "income": 0, "revenue": 0}, {"ein": "845104398", "name": "AMELIAS VOICE INC", "city": "OXFORD", "state": "NY", "zip": "13830-0044", "ntee": "A12", "ruling": "202503", "deductibility": "1", "assets": 40853, "income": 5640, "revenue": 0}, {"ein": "853303263", "name": "HER VOICE WOMENS EMPOWERMENT CHILDRENS AND YOUTH ORGANIZATION C", "city": "FAR ROCKAWAY", "state": "NY", "zip": "11691-1610", "ntee": "S20", "ruling": "202105", "deductibility": "1", "assets": 0, "income": 0, "revenue": 0}, {"ein": "863419063", "name": "INDO AMERICAN COMMUNITY VOICE INC", "city": "OLD BETHPAGE", "state": "NY", "zip": "11804-1241", "ntee": "S20", "ruling": "202108", "deductibility": "1", "assets": 0, "income": 0, "revenue": 0}, {"ein": "863950694", "name": "VOICE AND TRAUMA RESEARCH AND CONNECTION GROUP INC", "city": "NEW YORK", "state": "NY", "zip": "10021-4907", "ntee": "V20", "ruling": "202208", "deductibility": "1", "assets": 0, "income": 0, "revenue": 0}, {"ein": "872453087", "name": "ZERI YNE OUR VOICE INC", "city": "STATEN ISLAND", "state": "NY", "zip": "10305-2113", "ntee": "A23", "ruling": "202402", "deductibility": "1", "assets": 0, "income": 0, "revenue": 0}, {"ein": "880673497", "name": "VOICE OF THE COMMUNITY", "city": "BROOKLYN", "state": "NY", "zip": "11236-4822", "ntee": "S31", "ruling": "202303", "deductibility": "1", "assets": 1, "income": 0, "revenue": 0}, {"ein": "923279241", "name": "VALENTINAS VOICE INC", "city": "NEW YORK", "state": "NY", "zip": "10019-7017", "ntee": "P40", "ruling": "202304", "deductibility": "1", "assets": 0, "income": 0, "revenue": 0}, {"ein": "993264175", "name": "VOICE OF DA VOICELESS INC", "city": "ILION", "state": "NY", "zip": "13357-1136", "ntee": "I40", "ruling": "202407", "deductibility": "1", "assets": 0, "income": 0, "revenue": 0}], "GERTRUDE": [{"ein": "010669086", "name": "FRANK & GERTRUDE KAISER FOUNDATION", "city": "OCEANSIDE", "state": "NY", "zip": "11572-1317", "ntee": "T20", "ruling": "200207", "deductibility": "1", "assets": 1238093, "income": 358625, "revenue": 0}, {"ein": "116013176", "name": "GERTRUDE AND MORRIS BIENENFELD CHARITABLE FOUNDATION", "city": "NEW YORK", "state": "NY", "zip": "10016-0000", "ntee": "", "ruling": "195606", "deductibility": "1", "assets": 416221, "income": 111411, "revenue": 0}, {"ein": "136160772", "name": "WILLIAM P & GERTRUDE SCHWEITZER FOUNDATION INC", "city": "NEW YORK", "state": "NY", "zip": "10168-0000", "ntee": "", "ruling": "196407", "deductibility": "1", "assets": 3729425, "income": 140002, "revenue": 0}, {"ein": "136178557", "name": "MORRIS AND GERTRUDE FURMAN FOUNDATION", "city": "NEW YORK", "state": "NY", "zip": "10019-5887", "ntee": "", "ruling": "196506", "deductibility": "1", "assets": 1090184, "income": 508587, "revenue": 0}, {"ein": "137084423", "name": "ANDRE AND GERTRUDE ELIZABETH DULAU MEMORIAL ENDOWMENT FUND", "city": "NEW YORK", "state": "NY", "zip": "10055-0002", "ntee": "", "ruling": "000000", "deductibility": "0", "assets": 817293, "income": 453735, "revenue": 0}, {"ein": "141810209", "name": "FRED AND GERTRUDE ENGLAND HOSPITALITY EDUCATION FOUNDATION", "city": "ALBANY", "state": "NY", "zip": "12205-1135", "ntee": "B82", "ruling": "200012", "deductibility": "1", "assets": 300813, "income": 23915, "revenue": 15358}, {"ein": "146138824", "name": "GERTRUDE HALE MEMORIAL SCHOLARSHIP FUND", "city": "NORWICH", "state": "NY", "zip": "13815-0000", "ntee": "", "ruling": "199104", "deductibility": "1", "assets": 144187, "income": 44330, "revenue": 0}, {"ein": "222807681", "name": "MEMORIAL HOSPITAL OF WILLIAM F AND GERTRUDE F JONES INC", "city": "WELLSVILLE", "state": "NY", "zip": "14895-1150", "ntee": "E22", "ruling": "198707", "deductibility": "1", "assets": 96754018, "income": 85425818, "revenue": 82693777}, {"ein": "256324558", "name": "GERTRUDE ENGLISH TR UW", "city": "BUFFALO", "state": "NY", "zip": "14240-1504", "ntee": "T21", "ruling": "200306", "deductibility": "1", "assets": 387002, "income": 123770, "revenue": 0}, {"ein": "263630895", "name": "ERWIN AND GERTRUDE DAVENPORT PRIVATE FOUNDATION", "city": "ROCHESTER", "state": "NY", "zip": "14610-1511", "ntee": "T20", "ruling": "200903", "deductibility": "1", "assets": 396487, "income": 57982, "revenue": 0}, {"ein": "263824938", "name": "GERTRUDE M STEIN TR UW BO BINGHAMTON UNIVERSITY FDN", "city": "ELMIRA", "state": "NY", "zip": "14902-0152", "ntee": "B82", "ruling": "200902", "deductibility": "1", "assets": 966415, "income": 116532, "revenue": 0}, {"ein": "526945787", "name": "GERTRUDE AND EDWARD WIENER CHARITABLE FOUNDATION INC", "city": "NEW YORK", "state": "NY", "zip": "10017-3023", "ntee": "T20", "ruling": "199903", "deductibility": "1", "assets": 575426, "income": 204707, "revenue": 0}, {"ein": "832335341", "name": "GERTRUDE AND LEONARD MCCOMBE FOUNDAITON", "city": "RIVERHEAD", "state": "NY", "zip": "11901-1207", "ntee": "T20", "ruling": "201909", "deductibility": "1", "assets": 1565446, "income": 276917, "revenue": 0}, {"ein": "850510388", "name": "SAINT GERTRUDE CORP", "city": "BRENTWOOD", "state": "NY", "zip": "11717-7116", "ntee": "X20", "ruling": "202111", "deductibility": "1", "assets": 0, "income": 0, "revenue": 0}], "DRISCOLL": [{"ein": "020697728", "name": "FRATERNAL ORDER OF POLICE STEPHEN P DRISCOLL MEMORIAL LODGE 704", "city": "CARMEL", "state": "NY", "zip": "10512-0007", "ntee": "Y40", "ruling": "202206", "deductibility": "1", "assets": 36903, "income": 61969, "revenue": 61969}], "INNS": [{"ein": "030448873", "name": "AMERICAN INNS OF COURT FOUNDATION", "city": "BROOKLYN", "state": "NY", "zip": "11201-2935", "ntee": "", "ruling": "198601", "deductibility": "1", "assets": 0, "income": 0, "revenue": 0}, {"ein": "113432144", "name": "AMERICAN INNS OF COURT FOUNDATION", "city": "GARDEN CITY", "state": "NY", "zip": "11530-1753", "ntee": "", "ruling": "198601", "deductibility": "1", "assets": 0, "income": 0, "revenue": 0}, {"ein": "133733556", "name": "AMERICAN INNS OF COURT FOUNDATION", "city": "NEW YORK", "state": "NY", "zip": "10017-3904", "ntee": "", "ruling": "198601", "deductibility": "1", "assets": 0, "income": 0, "revenue": 0}, {"ein": "134131003", "name": "AMERICAN INNS OF COURT FOUNDATION", "city": "NEW YORK", "state": "NY", "zip": "10019-5364", "ntee": "", "ruling": "198601", "deductibility": "1", "assets": 0, "income": 0, "revenue": 0}, {"ein": "202241319", "name": "AMERICAN INNS OF COURT FOUNDATION", "city": "NEW YORK", "state": "NY", "zip": "10001-2163", "ntee": "", "ruling": "198601", "deductibility": "1", "assets": 0, "income": 0, "revenue": 0}, {"ein": "208874660", "name": "AMERICAN INNS OF COURT FOUNDATION", "city": "JAMESTOWN", "state": "NY", "zip": "14701-9136", "ntee": "", "ruling": "198601", "deductibility": "1", "assets": 0, "income": 0, "revenue": 0}, {"ein": "263604744", "name": "AMERICAN INNS OF COURT FOUNDATION", "city": "NEW YORK", "state": "NY", "zip": "10007-1502", "ntee": "", "ruling": "198601", "deductibility": "0", "assets": 64896, "income": 87957, "revenue": 87957}, {"ein": "352214437", "name": "AMERICAN INNS OF COURT FOUNDATION", "city": "BUFFALO", "state": "NY", "zip": "14202-3926", "ntee": "", "ruling": "198601", "deductibility": "1", "assets": 0, "income": 0, "revenue": 0}, {"ein": "521638690", "name": "AMERICAN INNS OF COURT FOUNDATION", "city": "GARDEN CITY", "state": "NY", "zip": "11530-4822", "ntee": "", "ruling": "198601", "deductibility": "2", "assets": 0, "income": 0, "revenue": 0}, {"ein": "990513726", "name": "AMERICAN INNS OF COURT FOUNDATION", "city": "ALBANY", "state": "NY", "zip": "12207-2926", "ntee": "B90", "ruling": "198601", "deductibility": "1", "assets": 0, "income": 0, "revenue": 0}], "FAHC": [{"ein": "036006224", "name": "JENNIE MACUTCHAN FBO FAHC 43C024015", "city": "BUFFALO", "state": "NY", "zip": "14240-1504", "ntee": "E11", "ruling": "201905", "deductibility": "1", "assets": 152385, "income": 43210, "revenue": 12347}, {"ein": "036006252", "name": "FREDERICK COON TUW FBO FAHC ETAL 31C016016", "city": "BUFFALO", "state": "NY", "zip": "14240-1504", "ntee": "T90", "ruling": "201911", "deductibility": "1", "assets": 222415, "income": 51011, "revenue": 15197}], "LEAR": [{"ein": "043489966", "name": "FRANCES LEAR FOUNDATION", "city": "HARRISON", "state": "NY", "zip": "10528-1633", "ntee": "T22", "ruling": "199912", "deductibility": "1", "assets": 8688183, "income": 3573610, "revenue": 0}], "TEGTMEIER": [{"ein": "043786820", "name": "PAUL TEGTMEIER MEMORIAL FUND", "city": "STAATSBURG", "state": "NY", "zip": "12580-0284", "ntee": "A84", "ruling": "200501", "deductibility": "1", "assets": 0, "income": 0, "revenue": 0}], "FIBROMYALGIA": [{"ein": "061567773", "name": "FIBROMYALGIA PROJECT INC", "city": "NEW YORK", "state": "NY", "zip": "10022-0000", "ntee": "T30", "ruling": "200103", "deductibility": "1", "assets": 42382, "income": 1, "revenue": 0}], "ELIMILECH": [{"ein": "061591632", "name": "DARKIE ELIMILECH", "city": "MONROE", "state": "NY", "zip": "10950-8800", "ntee": "X30", "ruling": "200011", "deductibility": "1", "assets": 0, "income": 0, "revenue": 0}, {"ein": "842423605", "name": "CONG OIR YISROEL ELIMILECH", "city": "BROOKLYN", "state": "NY", "zip": "11211-8396", "ntee": "X30", "ruling": "202209", "deductibility": "1", "assets": 0, "income": 0, "revenue": 0}], "SUNDAY": [{"ein": "111672746", "name": "BROOKLYN SUNDAY SCHOOL UNION", "city": "BROOKLYN", "state": "NY", "zip": "11217-1418", "ntee": "X03", "ruling": "201505", "deductibility": "1", "assets": 230666, "income": 17646, "revenue": 17646}, {"ein": "237163403", "name": "BROOKLYN BAPTIST SUNDAY SCHOOL INC", "city": "BROOKLYN", "state": "NY", "zip": "11203-5117", "ntee": "", "ruling": "197206", "deductibility": "1", "assets": 0, "income": 0, "revenue": 0}, {"ein": "830412444", "name": "SUNDAY IN THE COUNTRY FOOD DRIVE", "city": "MILLERTON", "state": "NY", "zip": "12546-0789", "ntee": "K30", "ruling": "200503", "deductibility": "1", "assets": 44990, "income": 32040, "revenue": 32040}, {"ein": "843977840", "name": "SUNDAY MORNING DRIVERS CLUB LTD", "city": "BEDFORD HILLS", "state": "NY", "zip": "10507-2024", "ntee": "", "ruling": "202009", "deductibility": "0", "assets": 0, "income": 0, "revenue": 0}], "EUGENIE": [{"ein": "111731972", "name": "ESTATE OF EUGENIE A T SMITH-T TR", "city": "MELVILLE", "state": "NY", "zip": "11747-0000", "ntee": "", "ruling": "195708", "deductibility": "1", "assets": 2432907, "income": 157723, "revenue": 0}, {"ein": "136098493", "name": "JACOB & EUGENIE BUCKY MEMORIAL FOUNDATION INC", "city": "QUEENSBURY", "state": "NY", "zip": "12804-0741", "ntee": "", "ruling": "195703", "deductibility": "1", "assets": 766290, "income": 101727, "revenue": 0}, {"ein": "136130913", "name": "EUGENIE S WRIGHT FOUNDATION INC", "city": "MAMARONECK", "state": "NY", "zip": "10543-0546", "ntee": "", "ruling": "196901", "deductibility": "1", "assets": 548442, "income": 302488, "revenue": 0}, {"ein": "137048968", "name": "EUGENIE PRENDERGAST TRUST", "city": "NEW YORK", "state": "NY", "zip": "10008-1297", "ntee": "T99Z", "ruling": "199505", "deductibility": "1", "assets": 5384803, "income": 1698383, "revenue": 0}], "COLUMBARIUM": [{"ein": "111758772", "name": "UNITED STATES COLUMBARIUM CO INC", "city": "MIDDLE VLG", "state": "NY", "zip": "11379-1045", "ntee": "Y50", "ruling": "200005", "deductibility": "2", "assets": 6416303, "income": 1393757, "revenue": 1393757}], "NARRASKETUCK": [{"ein": "111955509", "name": "NARRASKETUCK YACHT CLUB INC", "city": "AMITYVILLE", "state": "NY", "zip": "11701-4216", "ntee": "", "ruling": "196612", "deductibility": "2", "assets": 108017, "income": 104685, "revenue": 104685}], "CHADREI": [{"ein": "112165627", "name": "CHADREI TORAH OR", "city": "BROOKLYN", "state": "NY", "zip": "11219-4453", "ntee": "", "ruling": "197407", "deductibility": "1", "assets": 0, "income": 0, "revenue": 0}], "MEMBERSHIP": [{"ein": "112381578", "name": "NORDEN MEMBERSHIP CORPORATION", "city": "BETHPAGE", "state": "NY", "zip": "11714-1224", "ntee": "", "ruling": "198706", "deductibility": "2", "assets": 0, "income": 0, "revenue": 0}, {"ein": "132710733", "name": "4012 MEMBERSHIP CORP", "city": "YORKTOWN HTS", "state": "NY", "zip": "10598-0103", "ntee": "", "ruling": "199601", "deductibility": "2", "assets": 0, "income": 0, "revenue": 0}, {"ein": "133060718", "name": "PUBLIC EMPLOYEES FEDERATION MEMBERSHIP BENEFITS PROGRAM", "city": "ALBANY", "state": "NY", "zip": "12205-1025", "ntee": "", "ruling": "199206", "deductibility": "2", "assets": 26892975, "income": 60275987, "revenue": 28170854}, {"ein": "133617817", "name": "MEMBERSHIP COMMITTEE OF SAN SILVERIO OF MORRIS PARK AVE INC", "city": "BRONX", "state": "NY", "zip": "10465-1115", "ntee": "X99", "ruling": "199506", "deductibility": "1", "assets": 21493, "income": 25683, "revenue": 11262}, {"ein": "133631718", "name": "WESTCHESTER PUBLIC-PRIVATE MEMBERSHIP FUND-AGING SERVICES INC", "city": "MOUNT VERNON", "state": "NY", "zip": "10550-3414", "ntee": "P81Z", "ruling": "199201", "deductibility": "1", "assets": 1419057, "income": 1505623, "revenue": 1505623}], "CURLEY": [{"ein": "112414404", "name": "W T CLARKE HIGH SCHOOL PARENTS AND BOOSTER CLUB C O ARTHUR CURLEY", "city": "WESTBURY", "state": "NY", "zip": "11590-6513", "ntee": "B94", "ruling": "201804", "deductibility": "1", "assets": 0, "income": 0, "revenue": 0}], "RESERVATION": [{"ein": "112444561", "name": "PAUMANOK ADGONQUAIN FOUNDATION INC POOSEPATUCK INDIAN RESERVATION", "city": "MASTIC", "state": "NY", "zip": "11950-5204", "ntee": "", "ruling": "198008", "deductibility": "1", "assets": 0, "income": 0, "revenue": 0}, {"ein": "133973552", "name": "BRONX RIVER PARKWAY RESERVATION CONSERVANCY INC", "city": "SCARSDALE", "state": "NY", "zip": "10583-6315", "ntee": "C500", "ruling": "199908", "deductibility": "1", "assets": 0, "income": 0, "revenue": 0}, {"ein": "141712823", "name": "SMITH JOHNSON SCOUT RESERVATION INC", "city": "PAWLING", "state": "NY", "zip": "12564-0055", "ntee": "Z99", "ruling": "199206", "deductibility": "1", "assets": 0, "income": 0, "revenue": 0}, {"ein": "222305347", "name": "FRIENDS OF CLARK RESERVATION STATE PARK", "city": "JAMESVILLE", "state": "NY", "zip": "13078-9516", "ntee": "", "ruling": "198007", "deductibility": "1", "assets": 0, "income": 0, "revenue": 0}, {"ein": "237154985", "name": "TEATOWN LAKE RESERVATION INC", "city": "OSSINING", "state": "NY", "zip": "10562-1655", "ntee": "W00O", "ruling": "197203", "deductibility": "1", "assets": 36455329, "income": 21510688, "revenue": 11084284}, {"ein": "237356047", "name": "SYCAMORE RESERVATION INC", "city": "TONAWANDA", "state": "NY", "zip": "14150-8703", "ntee": "", "ruling": "197408", "deductibility": "1", "assets": 0, "income": 0, "revenue": 0}], "COMPOSITION": [{"ein": "112507470", "name": "COMPOSITION ROOFERS INDUSTRY PROMOTIONAL FUND", "city": "COMMACK", "state": "NY", "zip": "11725-2810", "ntee": "", "ruling": "197910", "deductibility": "2", "assets": 179119, "income": 19861, "revenue": 19861}, {"ein": "884003749", "name": "LUNA COMPOSITION LAB INC", "city": "NEW YORK", "state": "NY", "zip": "10101-0242", "ntee": "A25", "ruling": "202310", "deductibility": "1", "assets": 209614, "income": 485571, "revenue": 485571}, {"ein": "934302157", "name": "COMPOSITION FAMILY SERVICES", "city": "DELMAR", "state": "NY", "zip": "12054-1025", "ntee": "S12", "ruling": "202311", "deductibility": "1", "assets": 0, "income": 0, "revenue": 0}], "NEEDLERS": [{"ein": "112543741", "name": "NEEDLERS FOUNDATION", "city": "NEW YORK", "state": "NY", "zip": "10018-5460", "ntee": "", "ruling": "198012", "deductibility": "1", "assets": 89549, "income": 271241, "revenue": 167127}], "WAINSCOTT": [{"ein": "112546433", "name": "WAINSCOTT WINDMILL FUNDC/O MS ELIZABETH KERR", "city": "EAST HAMPTON", "state": "NY", "zip": "11937-3268", "ntee": "A80", "ruling": "201404", "deductibility": "1", "assets": 439977, "income": 7, "revenue": 7}, {"ein": "116018025", "name": "WAINSCOTT CEMETERY ASSOCIATION", "city": "SHELTER IS HT", "state": "NY", "zip": "11965-0521", "ntee": "T50", "ruling": "202502", "deductibility": "1", "assets": 0, "income": 0, "revenue": 0}, {"ein": "116020639", "name": "WAINSCOTT SEWING SOCIETY INC", "city": "WAINSCOTT", "state": "NY", "zip": "11975-0273", "ntee": "W99", "ruling": "201905", "deductibility": "1", "assets": 352036, "income": 114570, "revenue": 111785}, {"ein": "832921965", "name": "WAINSCOTT CONSERVATION SOCIETY INC", "city": "WAINSCOTT", "state": "NY", "zip": "11975-0816", "ntee": "C30", "ruling": "201911", "deductibility": "1", "assets": 0, "income": 0, "revenue": 0}, {"ein": "874278763", "name": "WAINSCOTT HERITAGE PROJECT", "city": "WAINSCOTT", "state": "NY", "zip": "11975-0242", "ntee": "A80", "ruling": "202207", "deductibility": "1", "assets": 0, "income": 0, "revenue": 0}], "PEPI": [{"ein": "112551485", "name": "GEMACH LAHACHNOSSAS KALLAH PEPI LICHT INC", "city": "BROOKLYN", "state": "NY", "zip": "11230-1112", "ntee": "", "ruling": "198709", "deductibility": "1", "assets": 0, "income": 0, "revenue": 0}], "NORDEMANN": [{"ein": "112667115", "name": "NORDEMANN FOUNDATION INC", "city": "MERRICK", "state": "NY", "zip": "11566-0000", "ntee": "", "ruling": "198404", "deductibility": "1", "assets": 543092, "income": 118965, "revenue": 0}], "HASHAS": [{"ein": "112720248", "name": "MITAL HASHAS SOCIETY FOR THE ADVANCEMENT OF TALMUDIC STUDY", "city": "BROOKLYN", "state": "NY", "zip": "11204-1104", "ntee": "", "ruling": "198503", "deductibility": "1", "assets": 0, "income": 0, "revenue": 0}], "MANDATO": [{"ein": "112722156", "name": "JOSEPH MANDATO MEMORIAL FUND", "city": "GARDEN CITY", "state": "NY", "zip": "11530-1571", "ntee": "", "ruling": "198704", "deductibility": "1", "assets": 0, "income": 0, "revenue": 0}], "TZEDUKA": [{"ein": "112739072", "name": "TZEDUKA KUL BUNAYICH", "city": "BROOKLYN", "state": "NY", "zip": "11219-1601", "ntee": "", "ruling": "198508", "deductibility": "1", "assets": 0, "income": 0, "revenue": 0}, {"ein": "133238726", "name": "TZEDUKA V CHESED", "city": "BROOKLYN", "state": "NY", "zip": "11204-1118", "ntee": "", "ruling": "198412", "deductibility": "1", "assets": 0, "income": 0, "revenue": 0}, {"ein": "222359617", "name": "GEMACH TZEDUKA V-CHESED INC", "city": "BROOKLYN", "state": "NY", "zip": "11219-4747", "ntee": "", "ruling": "198107", "deductibility": "1", "assets": 0, "income": 0, "revenue": 0}, {"ein": "474455264", "name": "CONGREGATION TZEDUKA VUCHESED AMSHINOV", "city": "BROOKLYN", "state": "NY", "zip": "11219-3414", "ntee": "X30", "ruling": "201508", "deductibility": "1", "assets": 0, "income": 0, "revenue": 0}, {"ein": "510202058", "name": "MIFAL TZEDUKA VCHESED", "city": "BROOKLYN", "state": "NY", "zip": "11219-2622", "ntee": "", "ruling": "197610", "deductibility": "1", "assets": 0, "income": 0, "revenue": 0}], "FUNDRAISERS": [{"ein": "112771745", "name": "CAMP PAQUATUCK FUNDRAISERS INC", "city": "CTR MORICHES", "state": "NY", "zip": "11934-0083", "ntee": "", "ruling": "198809", "deductibility": "1", "assets": 298655, "income": 291352, "revenue": 265685}], "ADZE": [{"ein": "112805127", "name": "AXE-AND-ADZE HOLY TABERNACLE CHURCH OF GOD INC", "city": "BROOKLYN", "state": "NY", "zip": "11208-3904", "ntee": "", "ruling": "198704", "deductibility": "1", "assets": 0, "income": 0, "revenue": 0}], "YID": [{"ein": "112833881", "name": "DER YID INC", "city": "BROOKLYN", "state": "NY", "zip": "11211-7787", "ntee": "", "ruling": "198702", "deductibility": "1", "assets": 1293701, "income": 5832436, "revenue": 5832436}], "CHAVAS": [{"ein": "112852208", "name": "CONGREGATION CHAVAS DAAS OF MELBOURNE", "city": "BROOKLYN", "state": "NY", "zip": "11211-7179", "ntee": "", "ruling": "198705", "deductibility": "1", "assets": 0, "income": 0, "revenue": 0}, {"ein": "113429769", "name": "CONG BAR PACHSEI CHAVAS DAAS LAGMITZ JAAC CHARITABLE FOUNDATION", "city": "BROOKLYN", "state": "NY", "zip": "11219-4647", "ntee": "X30Z", "ruling": "199807", "deductibility": "1", "assets": 0, "income": 0, "revenue": 0}], "BRINKERHOFF": [{"ein": "112884777", "name": "BRINKERHOFF ACTION ASSOCIATION INC", "city": "JAMAICA", "state": "NY", "zip": "11433-0000", "ntee": "S20", "ruling": "200709", "deductibility": "1", "assets": 0, "income": 0, "revenue": 0}, {"ein": "364621851", "name": "TROOPER DAVID C BRINKERHOFF FOUNDATION", "city": "ORCHARD PARK", "state": "NY", "zip": "14127-4617", "ntee": "T30", "ruling": "201508", "deductibility": "1", "assets": 0, "income": 0, "revenue": 0}, {"ein": "813608525", "name": "ADRIAN BRINKERHOFF POETRY FOUNDATION", "city": "HARRISON", "state": "NY", "zip": "10528-0000", "ntee": "A70", "ruling": "201609", "deductibility": "1", "assets": 185745, "income": 500000, "revenue": 0}], "BELSKY": [{"ein": "113037695", "name": "KEREN HAROV YEHOSHUA V BAILA BELSKY", "city": "BROOKLYN", "state": "NY", "zip": "11210-3714", "ntee": "", "ruling": "199105", "deductibility": "1", "assets": 0, "income": 0, "revenue": 0}, {"ein": "136145483", "name": "BELSKY FOUNDATION INC", "city": "EAST HILLS", "state": "NY", "zip": "11577-1429", "ntee": "", "ruling": "195907", "deductibility": "1", "assets": 266774, "income": 64641, "revenue": 0}, {"ein": "200310818", "name": "FLORENCE BELSKY CHARITABLE FOUNDATION", "city": "NEW YORK", "state": "NY", "zip": "10017-2803", "ntee": "T20", "ruling": "200412", "deductibility": "1", "assets": 362347, "income": 432888, "revenue": 0}, {"ein": "462453623", "name": "BELSKY FAMILY FOUNDATION", "city": "NEW YORK", "state": "NY", "zip": "10075-0421", "ntee": "T20", "ruling": "201309", "deductibility": "2", "assets": 335103, "income": 377611, "revenue": 0}, {"ein": "832367866", "name": "BELSKY FAMILY FOUNDATION INC", "city": "LAWRENCE", "state": "NY", "zip": "11559-1441", "ntee": "T20", "ruling": "201904", "deductibility": "1", "assets": 49537, "income": 274151, "revenue": 0}], "ZEMACH": [{"ein": "113101365", "name": "ZEMACH-DAVID CONGREGATION OF HILLCREST", "city": "BROOKLYN", "state": "NY", "zip": "11210-3714", "ntee": "", "ruling": "199208", "deductibility": "1", "assets": 0, "income": 0, "revenue": 0}, {"ein": "132900395", "name": "CONGREGATION ZEMACH DAVID", "city": "AIRMONT", "state": "NY", "zip": "10952-4501", "ntee": "", "ruling": "198907", "deductibility": "1", "assets": 0, "income": 0, "revenue": 0}, {"ein": "133055685", "name": "CONGREAGATION ZEMACH DAVID OF WILLIAMSBURG INC", "city": "BROOKLYN", "state": "NY", "zip": "11211-8919", "ntee": "", "ruling": "198003", "deductibility": "1", "assets": 0, "income": 0, "revenue": 0}, {"ein": "464915376", "name": "CONGREGATION KOLLEL EREV ZEMACH DAVID", "city": "BROOKLYN", "state": "NY", "zip": "11211-6804", "ntee": "X30", "ruling": "201704", "deductibility": "1", "assets": 0, "income": 0, "revenue": 0}, {"ein": "811817373", "name": "CONGREGATION ZEMACH DAVID DCHASIDEI SQUARE", "city": "BROOKLYN", "state": "NY", "zip": "11211-7615", "ntee": "X30", "ruling": "201604", "deductibility": "1", "assets": 0, "income": 0, "revenue": 0}, {"ein": "934481049", "name": "KOLEL ZEMACH DUVID", "city": "BROOKLYN", "state": "NY", "zip": "11205-3930", "ntee": "X30", "ruling": "202405", "deductibility": "1", "assets": 0, "income": 0, "revenue": 0}, {"ein": "993737286", "name": "FRIENDS OF ZEMACH ZEDEK INC", "city": "NEW YORK", "state": "NY", "zip": "10023-7499", "ntee": "X30", "ruling": "202502", "deductibility": "1", "assets": 0, "income": 0, "revenue": 0}], "REDIL": [{"ein": "113125529", "name": "IGLESIA PENTECOSTAL EL REDIL", "city": "ASTORIA", "state": "NY", "zip": "11106-0323", "ntee": "", "ruling": "196408", "deductibility": "1", "assets": 0, "income": 0, "revenue": 0}], "ENTERTAINMENT": [{"ein": "113346586", "name": "GTD ENTERTAINMENT & SPORTS FOUNDATION INC", "city": "BROOKLYN", "state": "NY", "zip": "11213-1539", "ntee": "O50", "ruling": "199809", "deductibility": "1", "assets": 1, "income": 0, "revenue": 0}, {"ein": "141804129", "name": "CELEBRITY ENTERTAINMENT CORPORATION", "city": "MALVERNE", "state": "NY", "zip": "11565-0266", "ntee": "T123", "ruling": "200006", "deductibility": "1", "assets": 0, "income": 0, "revenue": 0}, {"ein": "141832453", "name": "CUBECITY ENTERTAINMENT INC", "city": "COLLEGE POINT", "state": "NY", "zip": "11356-2240", "ntee": "A65", "ruling": "200004", "deductibility": "1", "assets": 184441, "income": 19831, "revenue": 19831}, {"ein": "161610938", "name": "JAY ENTERTAINMENT & MUSIC SOCIETY", "city": "JAY", "state": "NY", "zip": "12941-0150", "ntee": "B82", "ruling": "200402", "deductibility": "1", "assets": 401507, "income": 34170, "revenue": 33712}, {"ein": "205806876", "name": "EYEBLINK ENTERTAINMENT INC", "city": "NEW YROK", "state": "NY", "zip": "10001-1555", "ntee": "A65", "ruling": "200902", "deductibility": "1", "assets": 0, "income": 0, "revenue": 0}, {"ein": "270017090", "name": "CURTAIN UP ENTERTAINMENT COMMUNITY THEATER INC", "city": "SHIRLEY", "state": "NY", "zip": "11967-1432", "ntee": "A60", "ruling": "201709", "deductibility": "1", "assets": 0, "income": 0, "revenue": 0}, {"ein": "330274349", "name": "ENTERTAINMENT SERVICES AND TECHNOLOGY ASSOCIATION", "city": "BROOKLYN", "state": "NY", "zip": "11202-3200", "ntee": "", "ruling": "198809", "deductibility": "2", "assets": 1305275, "income": 1518795, "revenue": 1518795}, {"ein": "332180996", "name": "SERENE AND GRATEFUL ENTERTAINMENT INC", "city": "LEVITTOWN", "state": "NY", "zip": "11756-5233", "ntee": "S11", "ruling": "202412", "deductibility": "1", "assets": 0, "income": 0, "revenue": 0}, {"ein": "334271009", "name": "STRANO FOUNDATION FOR YOUTH ENTERTAINMENT AND SPORTS INC", "city": "E PATCHOGUE", "state": "NY", "zip": "11772-5507", "ntee": "N12", "ruling": "202506", "deductibility": "1", "assets": 0, "income": 0, "revenue": 0}, {"ein": "383943443", "name": "MUSEUM OF MUSIC & ENTERTAINMENT IN NEW YORK CITY", "city": "NEW YORK", "state": "NY", "zip": "10002-4226", "ntee": "A50", "ruling": "201510", "deductibility": "1", "assets": 0, "income": 0, "revenue": 0}, {"ein": "462750009", "name": "LETS DO THIZ ENTERTAINMENT", "city": "ROOSEVELT", "state": "NY", "zip": "11575-1223", "ntee": "P50", "ruling": "201902", "deductibility": "1", "assets": 1, "income": 1608, "revenue": 1608}, {"ein": "473241222", "name": "FILM AND ENTERTAINMENT SOCCER TOURNAMENT INC", "city": "NEW YORK", "state": "NY", "zip": "10024-1616", "ntee": "N12", "ruling": "202311", "deductibility": "1", "assets": 0, "income": 0, "revenue": 0}, {"ein": "813811695", "name": "EVITA ENTERTAINMENT INC", "city": "HUNTINGTN STA", "state": "NY", "zip": "11746-3907", "ntee": "A68", "ruling": "202311", "deductibility": "1", "assets": 0, "income": 0, "revenue": 0}, {"ein": "821685986", "name": "GLOBAL ENTERTAINMENT INDUSTRY SUMMIT INC", "city": "NEW YORK", "state": "NY", "zip": "10025-6432", "ntee": "A03", "ruling": "201808", "deductibility": "1", "assets": 2079, "income": 0, "revenue": 0}, {"ein": "823979147", "name": "HANDS-IN ENTERTAINMENT INC", "city": "PITTSFORD", "state": "NY", "zip": "14534-2909", "ntee": "A90", "ruling": "201802", "deductibility": "1", "assets": 0, "income": 0, "revenue": 0}, {"ein": "830393991", "name": "INSTITUTE FOR MEDIA AND ENTERTAINMENT INC", "city": "NEW YORK", "state": "NY", "zip": "10019-2201", "ntee": "B50", "ruling": "200506", "deductibility": "1", "assets": 0, "income": 0, "revenue": 0}, {"ein": "830995771", "name": "SPEAK ENTERTAINMENT INC", "city": "BROOKLYN", "state": "NY", "zip": "11225-5839", "ntee": "O50", "ruling": "201807", "deductibility": "1", "assets": 0, "income": 0, "revenue": 0}, {"ein": "851289207", "name": "SPORTS AND ENTERTAINMENT EQUITY NETWORK ASSOCIATION", "city": "NEW YORK", "state": "NY", "zip": "10101-0027", "ntee": "R03", "ruling": "202006", "deductibility": "1", "assets": 58687, "income": 143123, "revenue": 143123}, {"ein": "874107343", "name": "RETRO YOUTH SPORTS AND ENTERTAINMENT INC", "city": "BUFFALO", "state": "NY", "zip": "14224-1832", "ntee": "N99", "ruling": "202203", "deductibility": "1", "assets": 0, "income": 0, "revenue": 0}, {"ein": "883174292", "name": "ENTERTAINMENT EDUCATIONAL CULTURAL & ATHLETICS INC", "city": "ASTORIA", "state": "NY", "zip": "11105-1961", "ntee": "A20", "ruling": "202209", "deductibility": "1", "assets": 0, "income": 0, "revenue": 0}, {"ein": "883616284", "name": "FUN CITY ENTERTAINMENT PEACEMAKERS INC", "city": "NEW YORK", "state": "NY", "zip": "10035-1606", "ntee": "P60", "ruling": "202303", "deductibility": "1", "assets": 0, "income": 0, "revenue": 0}, {"ein": "920285548", "name": "BELLEISLE ENTERTAINMENT INC", "city": "GRAND ISLAND", "state": "NY", "zip": "14072-1378", "ntee": "A65", "ruling": "202311", "deductibility": "1", "assets": 0, "income": 0, "revenue": 0}, {"ein": "920439253", "name": "WESTON ENTERTAINMENT INC", "city": "EAST AMHERST", "state": "NY", "zip": "14051-1146", "ntee": "A60", "ruling": "202301", "deductibility": "1", "assets": 0, "income": 0, "revenue": 0}, {"ein": "921813771", "name": "JEWISH ENTERTAINMENT EDUCATION PROJECT", "city": "NEW YORK", "state": "NY", "zip": "10021-4070", "ntee": "A30", "ruling": "202310", "deductibility": "1", "assets": 262814, "income": 557082, "revenue": 305623}, {"ein": "922556966", "name": "GREAT SOUTH BAY ARTS AND ENTERTAINMENT FOUNDATION INC", "city": "BAY SHORE", "state": "NY", "zip": "11706-8307", "ntee": "A20", "ruling": "202303", "deductibility": "1", "assets": 172855, "income": 397873, "revenue": 397873}, {"ein": "923195568", "name": "LE NOIR ENTERTAINMENT CARES INCORPORATED", "city": "NEW YORK", "state": "NY", "zip": "10030-3496", "ntee": "A90", "ruling": "202405", "deductibility": "1", "assets": 0, "income": 0, "revenue": 0}, {"ein": "934438337", "name": "JACE DARTS & ENTERTAINMENT INC", "city": "BUFFALO", "state": "NY", "zip": "14212-2365", "ntee": "A99", "ruling": "202402", "deductibility": "1", "assets": 1, "income": 1, "revenue": 0}, {"ein": "934517776", "name": "ACTORS FROM EARTH ENTERTAINMENT INC", "city": "HARRISON", "state": "NY", "zip": "10528-2432", "ntee": "P20", "ruling": "202312", "deductibility": "1", "assets": 0, "income": 0, "revenue": 0}, {"ein": "990807342", "name": "LATINOS IN FILM AND ENTERTAINMENT INC", "city": "ASTORIA", "state": "NY", "zip": "11105-2416", "ntee": "B01", "ruling": "202502", "deductibility": "1", "assets": 0, "income": 0, "revenue": 0}, {"ein": "991410265", "name": "CREATE THE CULTURE ENTERTAINMENT INCORPORATED", "city": "OLEAN", "state": "NY", "zip": "14760-1704", "ntee": "O51", "ruling": "202402", "deductibility": "1", "assets": 0, "income": 0, "revenue": 0}, {"ein": "992050149", "name": "PREMIERE WORLD ENTERTAINMENT 2 INC", "city": "STATEN ISLAND", "state": "NY", "zip": "10302-1138", "ntee": "B99", "ruling": "202404", "deductibility": "1", "assets": 0, "income": 0, "revenue": 0}], "GULATI": [{"ein": "113361970", "name": "GULATI FAMILY FOUNDATION INC", "city": "SETAUKET", "state": "NY", "zip": "11733-3004", "ntee": "T31J", "ruling": "199704", "deductibility": "1", "assets": 1087501, "income": 72076, "revenue": 0}], "NUSSEN": [{"ein": "113370425", "name": "NUSSEN FAMILY FOUNDATION C/O WILLIAM NUSSEN TRUSTEE", "city": "BROOKLYN", "state": "NY", "zip": "11219-5016", "ntee": "T20Z", "ruling": "199707", "deductibility": "1", "assets": 38392, "income": 20484, "revenue": 0}, {"ein": "822370786", "name": "CONG MEOIRES NUSSEN INC", "city": "MONROE", "state": "NY", "zip": "10950-2118", "ntee": "X30", "ruling": "201802", "deductibility": "1", "assets": 0, "income": 0, "revenue": 0}, {"ein": "861232858", "name": "CONGREGATION ZICHRON NUSSEN LIEB", "city": "MONSEY", "state": "NY", "zip": "10952-3654", "ntee": "X30", "ruling": "202307", "deductibility": "1", "assets": 0, "income": 0, "revenue": 0}], "FOOT": [{"ein": "113441502", "name": "BROOKLYN FOOT & ANKLE PC", "city": "BROOKLYN", "state": "NY", "zip": "11215-3609", "ntee": "E30", "ruling": "199909", "deductibility": "1", "assets": 517, "income": 0, "revenue": 0}, {"ein": "131655230", "name": "FOOT CENTER OF NEW YORK", "city": "NEW YORK", "state": "NY", "zip": "10035-1815", "ntee": "E36Z", "ruling": "193608", "deductibility": "1", "assets": 693256, "income": 1591265, "revenue": 1591265}, {"ein": "131737538", "name": "WINGED FOOT GOLF CLUB INC", "city": "MAMARONECK", "state": "NY", "zip": "10543-2100", "ntee": "", "ruling": "194907", "deductibility": "2", "assets": 44360921, "income": 29252093, "revenue": 25205175}, {"ein": "461226677", "name": "SHUFFLE FOOT THEATER AND FILM COMPANY INC", "city": "BROOKLYN", "state": "NY", "zip": "11211-2827", "ntee": "A65", "ruling": "201312", "deductibility": "1", "assets": 0, "income": 0, "revenue": 0}, {"ein": "464903618", "name": "JAIPUR FOOT INC", "city": "WOODBURY", "state": "NY", "zip": "11797-2104", "ntee": "Q33", "ruling": "201409", "deductibility": "1", "assets": 9900, "income": 671603, "revenue": 671603}, {"ein": "521267004", "name": "64TH REGIMENT OF FOOT LTD", "city": "BUFFALO", "state": "NY", "zip": "14222-2030", "ntee": "A80", "ruling": "202309", "deductibility": "1", "assets": 0, "income": 0, "revenue": 0}, {"ein": "522348625", "name": "FOOT LOCKER FOUNDATION INC", "city": "NEW YORK", "state": "NY", "zip": "10001-2406", "ntee": "M20", "ruling": "200201", "deductibility": "1", "assets": 2405242, "income": 1572453, "revenue": 1292739}, {"ein": "815316652", "name": "TNR FOOT SOLDIER CORP", "city": "BEACON", "state": "NY", "zip": "12508-4111", "ntee": "D20", "ruling": "201709", "deductibility": "1", "assets": 0, "income": 0, "revenue": 0}, {"ein": "844562305", "name": "ANGELS ON FOOT", "city": "BROOKLYN", "state": "NY", "zip": "11236-5405", "ntee": "P80", "ruling": "202107", "deductibility": "1", "assets": 1, "income": 14650, "revenue": 14650}, {"ein": "851047568", "name": "PLANT A FOOT PROJECT INC", "city": "BRONX", "state": "NY", "zip": "10473-1408", "ntee": "Q33", "ruling": "202103", "deductibility": "1", "assets": 0, "income": 0, "revenue": 0}, {"ein": "854373180", "name": "WINGED FOOT FOUNDATION INC", "city": "MAMARONECK", "state": "NY", "zip": "10543-2100", "ntee": "T30", "ruling": "202105", "deductibility": "1", "assets": 1072373, "income": 416455, "revenue": 416455}, {"ein": "884324137", "name": "SORICHA FOOT INC", "city": "BRONX", "state": "NY", "zip": "10457-3868", "ntee": "N64", "ruling": "202212", "deductibility": "1", "assets": 0, "income": 0, "revenue": 0}, {"ein": "900719956", "name": "ONOS FOOT PRINTS INC", "city": "BROOKLYN", "state": "NY", "zip": "11210-1111", "ntee": "S20", "ruling": "202309", "deductibility": "1", "assets": 500, "income": 38800, "revenue": 38800}], "MARGIT": [{"ein": "113478359", "name": "SIMON AND MARGIT UNGAR FOUNDATION INC", "city": "BROOKLYN", "state": "NY", "zip": "11219-0000", "ntee": "T21", "ruling": "200301", "deductibility": "1", "assets": 36487, "income": 17214, "revenue": 0}], "EVA": [{"ein": "113531503", "name": "EVA & JASON YAGODA CHARITABLE FOUNDATION INC", "city": "NEW YORK", "state": "NY", "zip": "10017-0000", "ntee": "T22", "ruling": "200112", "deductibility": "1", "assets": 686, "income": 97, "revenue": 0}, {"ein": "131958483", "name": "LUCIUS & EVA EASTMAN FUND INC", "city": "SUNNYSIDE", "state": "NY", "zip": "11104-0000", "ntee": "", "ruling": "194702", "deductibility": "1", "assets": 3169297, "income": 637136, "revenue": 0}, {"ein": "132688094", "name": "BERNARD & EVA RESNICK FOUNDATION INC", "city": "NEW YORK", "state": "NY", "zip": "10128-0000", "ntee": "", "ruling": "197202", "deductibility": "1", "assets": 100312, "income": 52277, "revenue": 0}, {"ein": "133317152", "name": "EVA DEAN DANCE COMPANY INC", "city": "BROOKLYN", "state": "NY", "zip": "11215-1104", "ntee": "", "ruling": "199208", "deductibility": "1", "assets": 0, "income": 0, "revenue": 0}, {"ein": "136219640", "name": "NATHAN & EVA TREITEL FOUNDATION INC", "city": "NEW YORK", "state": "NY", "zip": "10001-0000", "ntee": "", "ruling": "196803", "deductibility": "1", "assets": 42354, "income": 574, "revenue": 0}, {"ein": "166500546", "name": "THE@EVA AND MILTON J BRASLOW FOUNDATION", "city": "NEW YORK", "state": "NY", "zip": "10017-0000", "ntee": "T22", "ruling": "200003", "deductibility": "1", "assets": 122661, "income": 14137, "revenue": 0}, {"ein": "236887255", "name": "THE MARIAN & EVA ROKACZ FAMILY", "city": "NEW YORK", "state": "NY", "zip": "10017-5720", "ntee": "", "ruling": "198804", "deductibility": "1", "assets": 64703, "income": 21802, "revenue": 0}, {"ein": "451797062", "name": "EVA AND LOUIS GALPERN FOUNDATION", "city": "NEW YORK", "state": "NY", "zip": "10065-8527", "ntee": "T20", "ruling": "201109", "deductibility": "1", "assets": 4156231, "income": 691102, "revenue": 0}, {"ein": "461526621", "name": "MOR AND EVA WEISS FOUNDATION", "city": "BROOKLYN", "state": "NY", "zip": "11219-5175", "ntee": "T22", "ruling": "201407", "deductibility": "1", "assets": 39666, "income": 1, "revenue": 0}, {"ein": "825231461", "name": "EVA HESSE CHARITABLE FOUNDATION INC", "city": "NEW YORK", "state": "NY", "zip": "10022-0000", "ntee": "A23", "ruling": "201902", "deductibility": "1", "assets": 1084471, "income": 322413, "revenue": 0}, {"ein": "843028730", "name": "EVA VOLITZER ACTORS STUDIO INC", "city": "WHITE PLAINS", "state": "NY", "zip": "10605-6405", "ntee": "P12", "ruling": "202002", "deductibility": "1", "assets": 54477, "income": 46007, "revenue": 46007}, {"ein": "844542733", "name": "TEAM EVERY VETERAN APPRECIATED - TEAM EVA INC", "city": "GLEN COVE", "state": "NY", "zip": "11542-1509", "ntee": "T30", "ruling": "202004", "deductibility": "1", "assets": 6654, "income": 23812, "revenue": 0}], "GOVERNANCE": [{"ein": "131674285", "name": "SOCIETY FOR CORPORATE GOVERNANCE INC", "city": "NEW YORK", "state": "NY", "zip": "10017-0000", "ntee": "", "ruling": "194809", "deductibility": "2", "assets": 6297847, "income": 5956565, "revenue": 5102565}, {"ein": "204451390", "name": "NATURAL RESOURCE GOVERNANCE INSTITUTE", "city": "NEW YORK", "state": "NY", "zip": "10004-3326", "ntee": "Q02", "ruling": "200701", "deductibility": "1", "assets": 10162466, "income": 10701192, "revenue": 10701192}, {"ein": "452943367", "name": "AFRICAN WOMEN FOR GOOD GOVERNANCE", "city": "BRONX", "state": "NY", "zip": "10463-5598", "ntee": "B01", "ruling": "201410", "deductibility": "1", "assets": 0, "income": 0, "revenue": 0}, {"ein": "800382109", "name": "COUNCIL FOR INCLUSIVE GOVERNANCE", "city": "BINGHAMTON", "state": "NY", "zip": "13901-5225", "ntee": "W20", "ruling": "201105", "deductibility": "1", "assets": 389489, "income": 794486, "revenue": 794486}, {"ein": "810865102", "name": "GOOD GOVERNANCE COUNCIL INC", "city": "EAST AMHERST", "state": "NY", "zip": "14051-2619", "ntee": "B05", "ruling": "201512", "deductibility": "1", "assets": 0, "income": 0, "revenue": 0}, {"ein": "822219361", "name": "CENTER FOR COST EFFECTIVE GOVERNANCE INC", "city": "BAYPORT", "state": "NY", "zip": "11705-1411", "ntee": "W22", "ruling": "201806", "deductibility": "2", "assets": 0, "income": 0, "revenue": 0}, {"ein": "994000294", "name": "CENTRE FOR THE GOVERNANCE OF AI INC", "city": "NEW YORK", "state": "NY", "zip": "10001-5666", "ntee": "W05", "ruling": "202409", "deductibility": "1", "assets": 0, "income": 0, "revenue": 0}], "HYGIEN": [{"ein": "131944395", "name": "UNIVERSITY CONSULTATION AND TREATMENT CENTER FOR MENTAL HYGIEN", "city": "BRONX", "state": "NY", "zip": "10451-2605", "ntee": "F30Z", "ruling": "196601", "deductibility": "1", "assets": 4391917, "income": 6319480, "revenue": 6319480}], "MOSAIC": [{"ein": "132507195", "name": "PROMOTIONAL FUND OF THE TERRAZZO & MOSAIC CONTRACTORS ASSOCIATION OF", "city": "ARMONK", "state": "NY", "zip": "10504-1715", "ntee": "", "ruling": "196211", "deductibility": "2", "assets": 702061, "income": 85317, "revenue": 85317}, {"ein": "133993854", "name": "MOSAIC COLONY INC", "city": "NEW YORK", "state": "NY", "zip": "10012-3396", "ntee": "A91Z", "ruling": "199807", "deductibility": "1", "assets": 0, "income": 0, "revenue": 0}, {"ein": "135676828", "name": "MOSAIC & TERRAZZO WELFARE FUND", "city": "LONG IS CITY", "state": "NY", "zip": "11101-4301", "ntee": "", "ruling": "194009", "deductibility": "2", "assets": 5406911, "income": 11207490, "revenue": 8059008}, {"ein": "141691456", "name": "MOSAIC", "city": "CADYVILLE", "state": "NY", "zip": "12918-0000", "ntee": "", "ruling": "197005", "deductibility": "1", "assets": 0, "income": 0, "revenue": 0}, {"ein": "161272179", "name": "MOSAIC OF THE SOUTHERN TIER INC", "city": "ELMIRA", "state": "NY", "zip": "14905-2519", "ntee": "E400", "ruling": "199012", "deductibility": "1", "assets": 290772, "income": 199062, "revenue": 199062}, {"ein": "161293681", "name": "MOSAIC HEALTH INC", "city": "ROCHESTER", "state": "NY", "zip": "14614-1134", "ntee": "E32Z", "ruling": "199206", "deductibility": "1", "assets": 22339408, "income": 40004268, "revenue": 40004268}, {"ein": "205388889", "name": "MOSAIC CHURCH OF THE NAZARENE", "city": "MALVERNE", "state": "NY", "zip": "11565-1556", "ntee": "", "ruling": "196307", "deductibility": "1", "assets": 0, "income": 0, "revenue": 0}, {"ein": "237271073", "name": "MARBLE TERRAZZO MOSAIC & SPECIALTIES CONTRACTORS ASSOCIATIO", "city": "ARMONK", "state": "NY", "zip": "10504-1715", "ntee": "", "ruling": "197304", "deductibility": "2", "assets": 102992, "income": 4364, "revenue": 4364}, {"ein": "471940321", "name": "NEW YORK MOSAIC CHURCH", "city": "FLUSHING", "state": "NY", "zip": "11354-5014", "ntee": "X20", "ruling": "201501", "deductibility": "1", "assets": 0, "income": 0, "revenue": 0}, {"ein": "472521635", "name": "MOSAIC 659 FOUNDATION", "city": "BUFFALO", "state": "NY", "zip": "14222-1603", "ntee": "T22", "ruling": "201503", "deductibility": "1", "assets": 3917450, "income": 560746, "revenue": 0}, {"ein": "474548410", "name": "MOSAIC IPA INC", "city": "MORRISVILLE", "state": "NY", "zip": "13408-2106", "ntee": "E11", "ruling": "201512", "deductibility": "1", "assets": 33145, "income": 0, "revenue": 0}, {"ein": "832232380", "name": "PERFORMING ARTS MOSAIC INC", "city": "NEW YORK", "state": "NY", "zip": "10023-1817", "ntee": "A20", "ruling": "201811", "deductibility": "1", "assets": 0, "income": 0, "revenue": 0}, {"ein": "854284064", "name": "LIFE MOSAIC INC", "city": "HARTSDALE", "state": "NY", "zip": "10530-2748", "ntee": "A65", "ruling": "202211", "deductibility": "1", "assets": 0, "income": 0, "revenue": 0}, {"ein": "872112719", "name": "HABITAT MOSAIC HOUSING DEVELOPMENT FUND CORPORATION", "city": "NEW YORK", "state": "NY", "zip": "10038-3101", "ntee": "L21", "ruling": "202208", "deductibility": "1", "assets": 0, "income": 0, "revenue": 0}, {"ein": "991880508", "name": "MOSAIC PLANNER", "city": "KEW GARDENS", "state": "NY", "zip": "11415-1816", "ntee": "B90", "ruling": "202404", "deductibility": "1", "assets": 0, "income": 0, "revenue": 0}], "DENTON": [{"ein": "132701075", "name": "DENTON GREEN HOUSING COMPANY INC", "city": "GARDEN CITY PARK", "state": "NY", "zip": "11040-3436", "ntee": "L22Z", "ruling": "197410", "deductibility": "1", "assets": 2294642, "income": 470579, "revenue": 470579}], "FIXED": [{"ein": "132877623", "name": "FIXED INCOME ANALYSTS SOCIETY INC", "city": "NEW YORK", "state": "NY", "zip": "10001-7604", "ntee": "", "ruling": "198905", "deductibility": "0", "assets": 621774, "income": 241443, "revenue": 241443}, {"ein": "205988287", "name": "FIXED FELINES INC", "city": "COCHECTON", "state": "NY", "zip": "12726-5910", "ntee": "D20", "ruling": "200703", "deductibility": "1", "assets": 0, "income": 0, "revenue": 0}, {"ein": "237349704", "name": "AMERICAN ACADEMY OF FIXED PROSTHODONTICS", "city": "ORCHARD PARK", "state": "NY", "zip": "14127-2617", "ntee": "", "ruling": "198508", "deductibility": "2", "assets": 1064359, "income": 997292, "revenue": 912547}, {"ein": "843498270", "name": "FIXED INCOME INVESTOR NETWORK ASSOCIATION", "city": "NEW YORK", "state": "NY", "zip": "10036-6700", "ntee": "S41", "ruling": "202205", "deductibility": "2", "assets": 0, "income": 0, "revenue": 0}], "NEIL": [{"ein": "132881758", "name": "NEIL SEDAKA FOUNDATION INC", "city": "GARDEN CITY", "state": "NY", "zip": "11530-4783", "ntee": "", "ruling": "197704", "deductibility": "1", "assets": 560, "income": 1, "revenue": 0}, {"ein": "133732603", "name": "NEIL B KAVEY MD PC", "city": "CHAPPAQUA", "state": "NY", "zip": "10514-1004", "ntee": "S41", "ruling": "200202", "deductibility": "2", "assets": 0, "income": 0, "revenue": 0}, {"ein": "133940173", "name": "NEIL AND VIRGINIA WEISS FOUNDATION IN MEMORY OF STEVEN WEISS", "city": "NEW YORK", "state": "NY", "zip": "10101-2181", "ntee": "T31J", "ruling": "199704", "deductibility": "1", "assets": 43640, "income": 1842206, "revenue": 0}, {"ein": "136881621", "name": "NEIL S HIRSCH FOUNDATION", "city": "NEW YORK", "state": "NY", "zip": "10019-3800", "ntee": "", "ruling": "198805", "deductibility": "1", "assets": 97839807, "income": 44088036, "revenue": 0}, {"ein": "205948486", "name": "SHARON & NEIL NORRY FAMILY SUPPORTING FOUNDATION", "city": "ROCHESTER", "state": "NY", "zip": "14604-2626", "ntee": "T11", "ruling": "200704", "deductibility": "1", "assets": 233781, "income": 5152, "revenue": 5152}, {"ein": "208113017", "name": "THE NEIL BARSKY AND JOAN S DAVIDSON FOUNDATION", "city": "NEW YORK", "state": "NY", "zip": "10019-0000", "ntee": "T22", "ruling": "200806", "deductibility": "1", "assets": 2097257, "income": 208010, "revenue": 0}, {"ein": "222809785", "name": "NEIL JANE WILLIAM ESTELLE GOLUB FAMILY FOUNDATION INC", "city": "SCHENECTADY", "state": "NY", "zip": "12308-1812", "ntee": "", "ruling": "198708", "deductibility": "1", "assets": 8584849, "income": 3594571, "revenue": 0}, {"ein": "262561303", "name": "NEIL & AMY MCGOLDRICK CHARITABLE FOUNDATION", "city": "GARDEN CITY", "state": "NY", "zip": "11530-4416", "ntee": "T20", "ruling": "200808", "deductibility": "1", "assets": 801841, "income": 142819, "revenue": 0}, {"ein": "473233876", "name": "NEIL E GARVEY FOUNDATION FOR THE ARTS INC", "city": "BUFFALO", "state": "NY", "zip": "14216-3319", "ntee": "A12", "ruling": "201509", "deductibility": "1", "assets": 0, "income": 0, "revenue": 0}, {"ein": "800386870", "name": "NEIL ARMSTRONG PARENT TEACHER ORGANIZATION", "city": "ROCHESTER", "state": "NY", "zip": "14606-4729", "ntee": "B11", "ruling": "201209", "deductibility": "1", "assets": 0, "income": 0, "revenue": 0}, {"ein": "932114740", "name": "NEIL ANTHONY EDWARDS BASKETBALL ACADEMY INC", "city": "BROOKHAVEN", "state": "NY", "zip": "11719-9450", "ntee": "N62", "ruling": "202310", "deductibility": "1", "assets": 0, "income": 0, "revenue": 0}], "KILL": [{"ein": "132917536", "name": "STONY KILL FOUNDATION INC", "city": "WAPPINGERS FL", "state": "NY", "zip": "12590-5775", "ntee": "", "ruling": "197801", "deductibility": "1", "assets": 416538, "income": 448670, "revenue": 442708}, {"ein": "133618640", "name": "LANDSMAN KILL TRAIL ASSOCIATION INC", "city": "RHINEBECK", "state": "NY", "zip": "12572-0283", "ntee": "N32", "ruling": "201405", "deductibility": "2", "assets": 0, "income": 0, "revenue": 0}, {"ein": "133666267", "name": "ARTHUR KILL ASSOC LTD", "city": "STATEN ISLAND", "state": "NY", "zip": "10309-1121", "ntee": "", "ruling": "199410", "deductibility": "2", "assets": 630001, "income": 260683, "revenue": 260683}, {"ein": "141590637", "name": "ELEANOR ROOSEVELT CENTER AT VAL KILL INC", "city": "HYDE PARK", "state": "NY", "zip": "12538-0255", "ntee": "", "ruling": "197709", "deductibility": "1", "assets": 304743, "income": 103993, "revenue": 103993}, {"ein": "146023052", "name": "LISHAS KILL REFORMED CHURCH OF LISHAS KILL ALBANY COUNTY NEW YORK", "city": "SCHENECTADY", "state": "NY", "zip": "12304-4468", "ntee": "", "ruling": "198601", "deductibility": "1", "assets": 0, "income": 0, "revenue": 0}, {"ein": "222986620", "name": "BASHA KILL AREA ASSOCIATION INC", "city": "WURTSBORO", "state": "NY", "zip": "12790-1121", "ntee": "", "ruling": "198912", "deductibility": "1", "assets": 110528, "income": 33866, "revenue": 31631}, {"ein": "464020564", "name": "ELEANOR ROOSEVELT VAL-KILL PARTNERSHIP", "city": "HYDE PARK", "state": "NY", "zip": "12538-1917", "ntee": "A80", "ruling": "201503", "deductibility": "1", "assets": 397691, "income": 265823, "revenue": 260188}, {"ein": "813310048", "name": "WEST KILL COMMUNITY IMPROVEMENT ASSOCIATION INCORPORATED", "city": "WEST KILL", "state": "NY", "zip": "12492-0113", "ntee": "S80", "ruling": "201702", "deductibility": "1", "assets": 0, "income": 0, "revenue": 0}, {"ein": "822399386", "name": "CANCER CANT KILL HOPE INC", "city": "DEPEW", "state": "NY", "zip": "14043-1917", "ntee": "P12", "ruling": "201808", "deductibility": "1", "assets": 0, "income": 0, "revenue": 0}, {"ein": "823238272", "name": "NO KILL PROJECT", "city": "FAYETTEVILLE", "state": "NY", "zip": "13066-9692", "ntee": "D20", "ruling": "201712", "deductibility": "1", "assets": 0, "income": 0, "revenue": 0}, {"ein": "994542753", "name": "NO KILL PROJECT PLANET INC", "city": "BROOKLYN", "state": "NY", "zip": "11218-2232", "ntee": "B99", "ruling": "202411", "deductibility": "1", "assets": 0, "income": 0, "revenue": 0}], "BRAMSON": [{"ein": "133036302", "name": "BRAMSON ORT TECHNICAL INSTITUTE", "city": "FOREST HILLS", "state": "NY", "zip": "11375-4231", "ntee": "", "ruling": "198102", "deductibility": "1", "assets": 3515412, "income": 120407, "revenue": 120407}], "CRCDD": [{"ein": "133220579", "name": "CRCDD HOUSING COMPANY INC", "city": "BRONX", "state": "NY", "zip": "10461-2341", "ntee": "", "ruling": "198411", "deductibility": "1", "assets": 111261, "income": 70948, "revenue": 70948}], "JIHAD": [{"ein": "133355805", "name": "MASJIDUT TAQWA WA JIHAD", "city": "NANUET", "state": "NY", "zip": "10954-6909", "ntee": "", "ruling": "199312", "deductibility": "1", "assets": 0, "income": 0, "revenue": 0}], "SOROS": [{"ein": "133388177", "name": "SOROS FUND CHARITABLE FOUNDATION", "city": "NEW YORK", "state": "NY", "zip": "10019-9710", "ntee": "B82Z", "ruling": "198707", "deductibility": "1", "assets": 68249292, "income": 4861788, "revenue": 0}, {"ein": "133965896", "name": "SOROS ECONOMIC DEVELOPMENT FUND", "city": "NEW YORK", "state": "NY", "zip": "10019-3212", "ntee": "T23", "ruling": "199411", "deductibility": "1", "assets": 209698195, "income": 51946342, "revenue": 0}, {"ein": "137057096", "name": "PAUL & DAISY SOROS FOUNDATION", "city": "NEW YORK", "state": "NY", "zip": "10018-5460", "ntee": "", "ruling": "199604", "deductibility": "1", "assets": 57842402, "income": 12479575, "revenue": 0}, {"ein": "453133937", "name": "ALEXANDER SOROS FOUNDATION", "city": "NEW YORK", "state": "NY", "zip": "10019-0000", "ntee": "T90", "ruling": "201208", "deductibility": "1", "assets": 195834, "income": 976, "revenue": 0}, {"ein": "800464952", "name": "JENNIFER AND JONATHAN ALLAN SOROS FOUNDATION", "city": "NEW YORK", "state": "NY", "zip": "10106-0000", "ntee": "T22", "ruling": "201003", "deductibility": "1", "assets": 256684495, "income": 14634500, "revenue": 0}, {"ein": "830650656", "name": "GEORGE SOROS LITERARY FOUNDATION", "city": "NEW YORK", "state": "NY", "zip": "10019-0000", "ntee": "B70", "ruling": "201902", "deductibility": "1", "assets": 899, "income": 1, "revenue": 0}], "OSTROVSKY": [{"ein": "133389580", "name": "OSTROVSKY FAMILY FUND INC", "city": "NEW YORK", "state": "NY", "zip": "10112-0015", "ntee": "", "ruling": "198703", "deductibility": "1", "assets": 1116521, "income": 726169, "revenue": 0}], "WESTMINISTER": [{"ein": "133802084", "name": "WESTMINISTER HOUSE HOUSING DEVELOPMENT FUND COMPANY INC", "city": "BRONX", "state": "NY", "zip": "10456-7815", "ntee": "L22Z", "ruling": "199506", "deductibility": "1", "assets": 0, "income": 0, "revenue": 0}], "REGALS": [{"ein": "133981257", "name": "REGALS FOUNDATION", "city": "NEW YORK", "state": "NY", "zip": "10019-3310", "ntee": "T20J", "ruling": "199806", "deductibility": "1", "assets": 172, "income": 25000, "revenue": 0}, {"ein": "452808168", "name": "BUFFALO REGALS EDP FUND INC", "city": "CHEEKTOWAGA", "state": "NY", "zip": "14227-1128", "ntee": "N68", "ruling": "201211", "deductibility": "1", "assets": 113858, "income": 222993, "revenue": 217993}], "HALLOWS": [{"ein": "133985651", "name": "ALL HALLOWS FOUNDATION", "city": "TUCKAHOE", "state": "NY", "zip": "10707-1330", "ntee": "B82Z", "ruling": "199808", "deductibility": "1", "assets": 1111286, "income": 505242, "revenue": 205017}], "ACCREDITATION": [{"ein": "133988992", "name": "AMERICAN BOARD FOR ACCREDITATION IN PSYCHOANALYSIS INC", "city": "NEW YORK", "state": "NY", "zip": "10016-2555", "ntee": "B02", "ruling": "200103", "deductibility": "1", "assets": 85040, "income": 35692, "revenue": 35692}, {"ein": "521244580", "name": "THE COMMISSION ON OPTICIANRY ACCREDITATION", "city": "NEW YORK", "state": "NY", "zip": "10028-6491", "ntee": "B024", "ruling": "200112", "deductibility": "1", "assets": 0, "income": 0, "revenue": 0}, {"ein": "883263702", "name": "NATIONAL ASSOCIATION OF ACCREDITATION FOR QUALITY EDUCATIO", "city": "COHOES", "state": "NY", "zip": "12047-3315", "ntee": "B90", "ruling": "202208", "deductibility": "1", "assets": 0, "income": 0, "revenue": 0}], "ACCIDENTAL": [{"ein": "134061297", "name": "LOCAL 600 ACCIDENTAL DEATH AND DISMEMBERMENT TRUST FUND", "city": "NEW YORK", "state": "NY", "zip": "10018-1798", "ntee": "Y43", "ruling": "200007", "deductibility": "2", "assets": 2185931, "income": 140885, "revenue": 140885}, {"ein": "432106773", "name": "THE ACCIDENTAL REPERTORY THEATER INC", "city": "NEW YORK", "state": "NY", "zip": "10018-5282", "ntee": "A65", "ruling": "200804", "deductibility": "1", "assets": 4741, "income": 23770, "revenue": 23770}], "CRC": [{"ein": "134084237", "name": "NEW LIFE COMMUNITY CRC", "city": "STATEN ISLAND", "state": "NY", "zip": "10312-3930", "ntee": "X21", "ruling": "197502", "deductibility": "1", "assets": 0, "income": 0, "revenue": 0}, {"ein": "161079060", "name": "EAST PALMYRA CRC", "city": "PALMYRA", "state": "NY", "zip": "14522-9727", "ntee": "", "ruling": "197502", "deductibility": "1", "assets": 0, "income": 0, "revenue": 0}, {"ein": "474264654", "name": "CONG CRC", "city": "MONSEY", "state": "NY", "zip": "10952-0361", "ntee": "X30", "ruling": "202206", "deductibility": "1", "assets": 0, "income": 0, "revenue": 0}, {"ein": "510174089", "name": "TRINITY CRC", "city": "RICHFLD SPGS", "state": "NY", "zip": "13439-0868", "ntee": "", "ruling": "197502", "deductibility": "1", "assets": 0, "income": 0, "revenue": 0}, {"ein": "862284699", "name": "CRC CHANGE INC", "city": "MILTON", "state": "NY", "zip": "12547-5273", "ntee": "B01", "ruling": "202105", "deductibility": "1", "assets": 0, "income": 0, "revenue": 0}], "ZENA": [{"ein": "134106226", "name": "ZENA GROUP THEATER INC", "city": "KENOZA LAKE", "state": "NY", "zip": "12750-0232", "ntee": "A65", "ruling": "200202", "deductibility": "1", "assets": 446, "income": 1532, "revenue": 1532}, {"ein": "141580097", "name": "ZENA RECREATION PARK INC", "city": "KINGSTON", "state": "NY", "zip": "12401-0000", "ntee": "", "ruling": "197607", "deductibility": "2", "assets": 670444, "income": 360082, "revenue": 360082}, {"ein": "237092561", "name": "ZENA ROMMETT DANCE ASSOCIATION LTD", "city": "NEW YORK", "state": "NY", "zip": "10014-3654", "ntee": "", "ruling": "197101", "deductibility": "1", "assets": 18923, "income": 78900, "revenue": 74489}], "BURHANIYYA": [{"ein": "134123272", "name": "TARIQA BURHANIYYA DSUQIYYA SHAZALIYYA INC", "city": "MOUNT VERNON", "state": "NY", "zip": "10550-3746", "ntee": "X40", "ruling": "200012", "deductibility": "1", "assets": 0, "income": 0, "revenue": 0}], "SULAM": [{"ein": "134133458", "name": "AMERICAN FRIENDS OF SULAM INC", "city": "MONSEY", "state": "NY", "zip": "10952-1732", "ntee": "Q30", "ruling": "200101", "deductibility": "1", "assets": 15989, "income": 198903, "revenue": 198903}, {"ein": "260665608", "name": "SULAM LONG ISLAND RELIGIOUS SCHOOLINC", "city": "WOODMERE", "state": "NY", "zip": "11598-1255", "ntee": "B90", "ruling": "202204", "deductibility": "1", "assets": 80634, "income": 56958, "revenue": 56958}], "TRUMANSBURG": [{"ein": "134300403", "name": "TRUMANSBURG COLOR GUARD BOOSTERS", "city": "TRUMANSBURG", "state": "NY", "zip": "14886-9528", "ntee": "B112", "ruling": "200611", "deductibility": "1", "assets": 0, "income": 0, "revenue": 0}, {"ein": "160989713", "name": "TRUMANSBURG RIFLE & PISTOL CLUB INC", "city": "TRUMANSBURG", "state": "NY", "zip": "14886-0010", "ntee": "", "ruling": "197207", "deductibility": "2", "assets": 0, "income": 0, "revenue": 0}, {"ein": "161116795", "name": "TRUMANSBURG SENIORS INC", "city": "ITHACA", "state": "NY", "zip": "14850-0000", "ntee": "L22Z", "ruling": "198708", "deductibility": "1", "assets": 2281601, "income": 681028, "revenue": 681028}, {"ein": "161185052", "name": "TRUMANSBURG CONSERVATORY OF FINE", "city": "TRUMANSBURG", "state": "NY", "zip": "14886-0153", "ntee": "A6E0", "ruling": "198212", "deductibility": "1", "assets": 611124, "income": 618038, "revenue": 618038}, {"ein": "161289138", "name": "TRUMANSBURG ELEMENTARY SCHOOL PARENTS-TEACHER ORGANIZATION PTO", "city": "TRUMANSBURG", "state": "NY", "zip": "14886-9152", "ntee": "", "ruling": "198705", "deductibility": "1", "assets": 0, "income": 0, "revenue": 0}, {"ein": "161422770", "name": "TRUMANSBURG CHARITABLE TR", "city": "TRUMANSBURG", "state": "NY", "zip": "14886-9148", "ntee": "", "ruling": "199401", "deductibility": "1", "assets": 496003, "income": 316666, "revenue": 0}, {"ein": "161508722", "name": "AMAZING GRACE FELLOWSHIP TRUMANSBURG", "city": "JACKSONVILLE", "state": "NY", "zip": "14854-0025", "ntee": "X99Z", "ruling": "196408", "deductibility": "1", "assets": 0, "income": 0, "revenue": 0}, {"ein": "161514799", "name": "TRUMANSBURG ALL-SPORTS BOOSTERS CLUB", "city": "TRUMANSBURG", "state": "NY", "zip": "14886-9152", "ntee": "N11", "ruling": "200012", "deductibility": "1", "assets": 0, "income": 0, "revenue": 0}, {"ein": "161583821", "name": "TRUMANSBURG AFTER SCHOOL PROGRAM INC", "city": "TRUMANSBURG", "state": "NY", "zip": "14886-0662", "ntee": "P20", "ruling": "200011", "deductibility": "1", "assets": 47974, "income": 89226, "revenue": 89226}, {"ein": "161603126", "name": "TRUMANSBURG COMMUNITY NURSERY SCHOOL INC", "city": "TRUMANSBURG", "state": "NY", "zip": "14886-0018", "ntee": "B21", "ruling": "200206", "deductibility": "1", "assets": 244691, "income": 134072, "revenue": 132418}, {"ein": "222481702", "name": "FIRST BAPTIST CHURCH OF TRUMANSBURG", "city": "TRUMANSBURG", "state": "NY", "zip": "14886-0686", "ntee": "", "ruling": "195504", "deductibility": "1", "assets": 0, "income": 0, "revenue": 0}, {"ein": "431998972", "name": "TRUMANSBURG FIRE COMPANY", "city": "TRUMANSBURG", "state": "NY", "zip": "14886-0418", "ntee": "M24", "ruling": "200309", "deductibility": "1", "assets": 0, "income": 0, "revenue": 0}, {"ein": "462861100", "name": "TRUMANSBURG ROBOTICS INC", "city": "TRUMANSBURG", "state": "NY", "zip": "14886-0356", "ntee": "O50", "ruling": "201508", "deductibility": "1", "assets": 49851, "income": 8972, "revenue": 8783}, {"ein": "473736424", "name": "TRUMANSBURG FISH & GAME CLUB INC", "city": "TRUMANSBURG", "state": "NY", "zip": "14886-0070", "ntee": "N61", "ruling": "201906", "deductibility": "2", "assets": 0, "income": 0, "revenue": 0}, {"ein": "522377724", "name": "TRUMANSBURG MUSIC BOOSTERS INC", "city": "TRUMANSBURG", "state": "NY", "zip": "14886-9152", "ntee": "A116", "ruling": "200301", "deductibility": "1", "assets": 0, "income": 0, "revenue": 0}, {"ein": "813830639", "name": "TRUMANSBURG COMMUNITY RECREATION INC", "city": "TRUMANSBURG", "state": "NY", "zip": "14886-0387", "ntee": "N30", "ruling": "201612", "deductibility": "1", "assets": 0, "income": 0, "revenue": 0}, {"ein": "923289964", "name": "TRUMANSBURG TRAVEL BASEBALL INC", "city": "TRUMANSBURG", "state": "NY", "zip": "14886-0977", "ntee": "N63", "ruling": "202306", "deductibility": "1", "assets": 0, "income": 0, "revenue": 0}], "ALVA": [{"ein": "136090843", "name": "BERNARD F AND ALVA B GIMBEL FOUNDATION INC", "city": "NEW YORK", "state": "NY", "zip": "10016-1038", "ntee": "", "ruling": "194312", "deductibility": "1", "assets": 32867757, "income": 9228329, "revenue": 0}], "LISSAUER": [{"ein": "136161478", "name": "MENO LISSAUER FOUNDATION INC", "city": "NEW YORK", "state": "NY", "zip": "10018-0000", "ntee": "", "ruling": "195302", "deductibility": "1", "assets": 880685, "income": 377122, "revenue": 0}], "TWAALFSKILL": [{"ein": "141129970", "name": "THE TWAALFSKILL CLUB", "city": "KINGSTON", "state": "NY", "zip": "12401-5705", "ntee": "", "ruling": "194508", "deductibility": "2", "assets": 454279, "income": 864492, "revenue": 864492}], "BREAKABEEN": [{"ein": "141442055", "name": "BREAKABEEN CEMETERY ASSOC INC", "city": "FULTONHAM", "state": "NY", "zip": "12071-0142", "ntee": "Y50", "ruling": "202505", "deductibility": "1", "assets": 0, "income": 0, "revenue": 0}], "KNOLL": [{"ein": "141738013", "name": "EDITH M KNOLL AND GENEVA A KNOLL SCHOLARSHIP FOUNDATION", "city": "LIVINGSTON MANOR", "state": "NY", "zip": "12758-0000", "ntee": "", "ruling": "199209", "deductibility": "1", "assets": 383, "income": 525, "revenue": 0}, {"ein": "160950285", "name": "ROCHESTER BAY KNOLL SCHOOL", "city": "ROCHESTER", "state": "NY", "zip": "14622-3021", "ntee": "", "ruling": "194704", "deductibility": "1", "assets": 0, "income": 0, "revenue": 0}, {"ein": "161528780", "name": "LINDEN KNOLL INC", "city": "ROCHESTER", "state": "NY", "zip": "14610-3527", "ntee": "L22", "ruling": "199710", "deductibility": "1", "assets": 8037814, "income": 22240547, "revenue": 2145766}, {"ein": "562537343", "name": "BUCK KNOLL GAME CLUB INC", "city": "MAYFIELD", "state": "NY", "zip": "12117-4019", "ntee": "N61", "ruling": "200610", "deductibility": "2", "assets": 0, "income": 0, "revenue": 0}], "KIWI": [{"ein": "141823331", "name": "KIWI FOUNDATION", "city": "AVERILL PARK", "state": "NY", "zip": "12018-9668", "ntee": "T22", "ruling": "200011", "deductibility": "1", "assets": 3033117, "income": 1691431, "revenue": 0}, {"ein": "845044198", "name": "KIWI CARES INC", "city": "CARMEL", "state": "NY", "zip": "10512-4328", "ntee": "O50", "ruling": "202011", "deductibility": "1", "assets": 0, "income": 0, "revenue": 0}], "RICHFIELD": [{"ein": "161062669", "name": "RICHFIELD SPRINGS BIBLE CHURCH", "city": "RICHFIELD SPRING", "state": "NY", "zip": "13439-3547", "ntee": "", "ruling": "198006", "deductibility": "1", "assets": 0, "income": 0, "revenue": 0}, {"ein": "161535645", "name": "RICHFIELD SPRINGS HISTORIC ASSOCIATION", "city": "RICHFLD SPGS", "state": "NY", "zip": "13439-0404", "ntee": "A54", "ruling": "202303", "deductibility": "1", "assets": 0, "income": 0, "revenue": 0}, {"ein": "161581787", "name": "RICHFIELD SPRINGS YOUTH MINISTRY CORP", "city": "RICHFLD SPGS", "state": "NY", "zip": "13439-0108", "ntee": "O50", "ruling": "200003", "deductibility": "1", "assets": 263864, "income": 85564, "revenue": 80186}, {"ein": "222817004", "name": "RICHFIELD AREA CHAMBER OF COMMERCE INC", "city": "RICHFLD SPGS", "state": "NY", "zip": "13439-0909", "ntee": "", "ruling": "198712", "deductibility": "2", "assets": 0, "income": 0, "revenue": 0}, {"ein": "364920521", "name": "RICHFIELD SPRINGS VOLUNTEE FIRE DEPT INC", "city": "RICHFLD SPGS", "state": "NY", "zip": "13439-1456", "ntee": "M24", "ruling": "201910", "deductibility": "1", "assets": 0, "income": 0, "revenue": 0}, {"ein": "462472295", "name": "RICHFIELD YOUTH SPORTS INC", "city": "RICHFLD SPGS", "state": "NY", "zip": "13439-0458", "ntee": "O99", "ruling": "201408", "deductibility": "1", "assets": 514741, "income": 104681, "revenue": 88609}, {"ein": "811289143", "name": "EXEMPT FIREMENS BENEVOLENT ASSOCIATION OF RICHFIELD SPRINGS N", "city": "RICHFIELD SPRINGS", "state": "NY", "zip": "13439-0000", "ntee": "S99", "ruling": "201607", "deductibility": "2", "assets": 0, "income": 0, "revenue": 0}, {"ein": "843214114", "name": "RICHFIELD SPRINGS FOOD PANTRY INC", "city": "RICHFLD SPGS", "state": "NY", "zip": "13439-0140", "ntee": "K31", "ruling": "201910", "deductibility": "1", "assets": 0, "income": 0, "revenue": 0}], "HEIN": [{"ein": "161484562", "name": "WILLIAM AND DIANE HEIN FOUNDATION", "city": "WILLIAMSVILLE", "state": "NY", "zip": "14221-5854", "ntee": "T99Z", "ruling": "199509", "deductibility": "1", "assets": 13856918, "income": 4453759, "revenue": 0}, {"ein": "261330424", "name": "WILLIAM S HEIN & COMPANY FOUNDATION", "city": "GETZVILLE", "state": "NY", "zip": "14068-1296", "ntee": "T22", "ruling": "200801", "deductibility": "1", "assets": 617755, "income": 50601, "revenue": 0}], "HIDY": [{"ein": "161612008", "name": "HIDY OCHIAI FOUNDATION", "city": "VESTAL", "state": "NY", "zip": "13850-0000", "ntee": "M40", "ruling": "200308", "deductibility": "1", "assets": 110, "income": 75035, "revenue": 75035}], "NIXON": [{"ein": "161614090", "name": "KATHRYN J & THEODORE E NIXON FAMILY FOUNDATION INC", "city": "ROCHESTER", "state": "NY", "zip": "14625-0482", "ntee": "T22", "ruling": "200204", "deductibility": "1", "assets": 151964, "income": 7447, "revenue": 0}, {"ein": "271517007", "name": "NIXON-MARINONI FAMILY FOUNDATION INC", "city": "NEW YORK", "state": "NY", "zip": "10036-0000", "ntee": "T20", "ruling": "201003", "deductibility": "1", "assets": 1104288, "income": 461716, "revenue": 0}], "MOV": [{"ein": "166050905", "name": "INTERNATIONAL ALLIANCE THEATRICAL STAGE EMP & MOV PICTURE OF US", "city": "ELMIRA", "state": "NY", "zip": "14902-1147", "ntee": "", "ruling": "194104", "deductibility": "2", "assets": 19783, "income": 312269, "revenue": 312269}, {"ein": "166052610", "name": "INTERNATIONAL ALLIANCE THEATRICAL STAGE EMP & MOV PICTURS ETAL", "city": "SYRACUSE", "state": "NY", "zip": "13201-0617", "ntee": "", "ruling": "194104", "deductibility": "2", "assets": 109516, "income": 171347, "revenue": 171347}], "FRGRS": [{"ein": "166051497", "name": "INTERNATIONAL BROTHERHD - BOILRMKRS IR SHP BLDRS BLCKSMTH FRGRS & HLPR", "city": "EAST AURORA", "state": "NY", "zip": "14052-9555", "ntee": "", "ruling": "194010", "deductibility": "2", "assets": 0, "income": 0, "revenue": 0}], "MABEY": [{"ein": "166073588", "name": "ANNA L MABEY FOUNDATION", "city": "NORWICH", "state": "NY", "zip": "13815-0000", "ntee": "", "ruling": "196804", "deductibility": "1", "assets": 394705, "income": 39463, "revenue": 0}], "VALENTINA": [{"ein": "200350143", "name": "VALENTINA KOZLOVA DANCE FOUNDATION INC", "city": "NEW YORK CITY", "state": "NY", "zip": "10128-7810", "ntee": "A63", "ruling": "200403", "deductibility": "1", "assets": 37448, "income": 125373, "revenue": 125373}], "CORNEA": [{"ein": "200401311", "name": "CORNEA EDUCATION AND RESEARCH FOUNDATION", "city": "NEW ROCHELLE", "state": "NY", "zip": "10804-0000", "ntee": "H01", "ruling": "202207", "deductibility": "1", "assets": 0, "income": 0, "revenue": 0}], "EDUCATIO": [{"ein": "201910777", "name": "LONG ISLAND HEALTH NETWORK EDUCATIO N RESEARCH FUND INC", "city": "ROCKVILLE CTR", "state": "NY", "zip": "11570-1002", "ntee": "E80", "ruling": "200501", "deductibility": "1", "assets": 0, "income": 0, "revenue": 0}, {"ein": "883263702", "name": "NATIONAL ASSOCIATION OF ACCREDITATION FOR QUALITY EDUCATIO", "city": "COHOES", "state": "NY", "zip": "12047-3315", "ntee": "B90", "ruling": "202208", "deductibility": "1", "assets": 0, "income": 0, "revenue": 0}], "HICKS": [{"ein": "203986225", "name": "MARY HICKS PRESTON HISTORICAL ANDBETTERMENT FOUNDATION", "city": "PHELPS", "state": "NY", "zip": "14532-1164", "ntee": "T22", "ruling": "200604", "deductibility": "1", "assets": 6151004, "income": 553269, "revenue": 0}, {"ein": "237373102", "name": "HICKS CEMETARY ASSOCIATION", "city": "FAIRPORT", "state": "NY", "zip": "14450-1167", "ntee": "Y50", "ruling": "201112", "deductibility": "1", "assets": 0, "income": 0, "revenue": 0}, {"ein": "456688797", "name": "HICKS CEMETARY TR UA 1030035407", "city": "ELMIRA", "state": "NY", "zip": "14902-1522", "ntee": "", "ruling": "000000", "deductibility": "0", "assets": 32480, "income": 19931, "revenue": 0}, {"ein": "822400225", "name": "SHAUN HICKS MENS CLUB INC", "city": "STATEN ISLAND", "state": "NY", "zip": "10310-2813", "ntee": "N50", "ruling": "201803", "deductibility": "2", "assets": 0, "income": 0, "revenue": 0}, {"ein": "853070939", "name": "GAME OVER HICKS FAMILY FOUNDATION INC", "city": "JAMAICA", "state": "NY", "zip": "11434-4552", "ntee": "O20", "ruling": "202101", "deductibility": "1", "assets": 0, "income": 0, "revenue": 0}], "GROMO": [{"ein": "204802705", "name": "GROMO FOUNDATION FOR MEDICALEDUCATION & RESEARCH INC", "city": "BUFFALO", "state": "NY", "zip": "14209-1435", "ntee": "H60", "ruling": "200609", "deductibility": "1", "assets": 537581, "income": 64531, "revenue": 34401}], "GAMBLE": [{"ein": "204974663", "name": "FLOOD-GAMBLE FOUNDATION INC", "city": "NEW YORK", "state": "NY", "zip": "10024-1616", "ntee": "T22", "ruling": "200610", "deductibility": "1", "assets": 665039, "income": 153319, "revenue": 0}, {"ein": "436320634", "name": "J CARR GAMBLE JR AND DOROTHY W GAMBLE CHARITABLE TRUST", "city": "NEW YORK", "state": "NY", "zip": "10029-6931", "ntee": "", "ruling": "198702", "deductibility": "1", "assets": 3979, "income": 150, "revenue": 0}], "PENNY": [{"ein": "205359720", "name": "MAGIC PENNY EARLY LITERACY INSTITUTE INC", "city": "COLDEN", "state": "NY", "zip": "14033-9746", "ntee": "B21", "ruling": "200705", "deductibility": "1", "assets": 0, "income": 0, "revenue": 0}, {"ein": "464911373", "name": "JAYE PENNY GOULD FOUNDATION", "city": "NEW YORK", "state": "NY", "zip": "10023-8115", "ntee": "", "ruling": "201502", "deductibility": "1", "assets": 3393354, "income": 966123, "revenue": 0}, {"ein": "562419098", "name": "MAGIC PENNY INC", "city": "E NORTHPORT", "state": "NY", "zip": "11731-5618", "ntee": "Q30", "ruling": "200503", "deductibility": "1", "assets": 0, "income": 0, "revenue": 0}, {"ein": "851950741", "name": "A PENNY ORG INC", "city": "NEW YORK", "state": "NY", "zip": "10020-2073", "ntee": "X20", "ruling": "202009", "deductibility": "1", "assets": 1, "income": 0, "revenue": 0}, {"ein": "880650161", "name": "PRESSED PENNY HARDSHIP SERVICES INC", "city": "CASTILE", "state": "NY", "zip": "14427-9750", "ntee": "M12", "ruling": "202203", "deductibility": "1", "assets": 0, "income": 0, "revenue": 0}, {"ein": "922650401", "name": "PENNY ZANGAS MEMORIAL FOUNDATION FOR WOMEN S HEALTH INC", "city": "SEA CLIFF", "state": "NY", "zip": "11579-1921", "ntee": "E12", "ruling": "202410", "deductibility": "1", "assets": 0, "income": 0, "revenue": 0}], "CHRISTIANMINISTRIES": [{"ein": "205906950", "name": "BRIDGE BUILDERS CHRISTIANMINISTRIES", "city": "STATEN ISLAND", "state": "NY", "zip": "10305-1745", "ntee": "X21", "ruling": "200912", "deductibility": "1", "assets": 0, "income": 0, "revenue": 0}], "VYESHAYA": [{"ein": "205941886", "name": "KEREN NACHMEN VYESHAYA FOUNDATION", "city": "NEW YORK", "state": "NY", "zip": "10016-0000", "ntee": "T20", "ruling": "200806", "deductibility": "1", "assets": 3405823, "income": 1430094, "revenue": 0}], "YIBING": [{"ein": "205945642", "name": "YIBING AND PING JIANG FOUNDATION", "city": "NEW YORK", "state": "NY", "zip": "10023-3423", "ntee": "T20", "ruling": "200701", "deductibility": "1", "assets": 4725846, "income": 445000, "revenue": 0}], "WOORI": [{"ein": "208090667", "name": "WOORI PRESBYTERIAN CHURCH OF NEWYORK", "city": "FLUSHING", "state": "NY", "zip": "11354-2846", "ntee": "X21", "ruling": "200706", "deductibility": "1", "assets": 0, "income": 0, "revenue": 0}, {"ein": "462903891", "name": "WOORI KOREAN UNITED METHODIST CHURCH", "city": "FLUSHING", "state": "NY", "zip": "11358-2700", "ntee": "X20", "ruling": "201404", "deductibility": "1", "assets": 0, "income": 0, "revenue": 0}, {"ein": "843798863", "name": "WOORI SHOW INC", "city": "OLIVEBRIDGE", "state": "NY", "zip": "12461-5314", "ntee": "A23", "ruling": "202104", "deductibility": "1", "assets": 11511, "income": 53272, "revenue": 53272}], "NABU": [{"ein": "208226083", "name": "NABU - KNOWLEDGE TRANSFER BEYONDBOUNDARIES", "city": "NEW YORK", "state": "NY", "zip": "10003-9112", "ntee": "S05", "ruling": "201602", "deductibility": "1", "assets": 0, "income": 0, "revenue": 0}, {"ein": "900888570", "name": "NABU GLOBAL INC", "city": "NEW YORK", "state": "NY", "zip": "10010-2913", "ntee": "B70", "ruling": "201405", "deductibility": "1", "assets": 1698249, "income": 3760280, "revenue": 3757480}], "GHAR": [{"ein": "208679680", "name": "GURU BHAGATI GHAR INC", "city": "S RICHMOND HL", "state": "NY", "zip": "11419-3212", "ntee": "X70", "ruling": "200907", "deductibility": "1", "assets": 0, "income": 0, "revenue": 0}, {"ein": "843562066", "name": "GURU BHAKATI GHAR", "city": "NEW HYDE PARK", "state": "NY", "zip": "11040-3728", "ntee": "O50", "ruling": "202003", "deductibility": "1", "assets": 0, "income": 0, "revenue": 0}], "EFFECTIVENESS": [{"ein": "222142393", "name": "HUMAN EFFECTIVENESS INSTITUTE INC", "city": "GARDINER", "state": "NY", "zip": "12525-5512", "ntee": "", "ruling": "197704", "deductibility": "1", "assets": 0, "income": 0, "revenue": 0}], "COMUMUNITY": [{"ein": "222356438", "name": "FULTON COUNTY COMUMUNITY RESIDENTAL PROJECT INC", "city": "JOHNSTOWN", "state": "NY", "zip": "12095-1014", "ntee": "P82I", "ruling": "198107", "deductibility": "1", "assets": 163982, "income": 29904, "revenue": 29904}], "OLIVENCIA": [{"ein": "223050995", "name": "AUGUSTIN PUCO OLIVENCIA COMMUNITY CENTER INC", "city": "BUFFALO", "state": "NY", "zip": "14204-2051", "ntee": "", "ruling": "199206", "deductibility": "2", "assets": 0, "income": 0, "revenue": 0}], "ZEDUKAH": [{"ein": "237057565", "name": "ZEDUKAH VECHESED FOUNDATION INC", "city": "SPRING VALLEY", "state": "NY", "zip": "10977-0000", "ntee": "", "ruling": "197001", "deductibility": "1", "assets": 6204131, "income": 58653, "revenue": 0}], "DATE": [{"ein": "261489571", "name": "KEEPING TECHNICIANS UP TO DATE INC", "city": "MAHOPAC", "state": "NY", "zip": "10541-3767", "ntee": "", "ruling": "200712", "deductibility": "1", "assets": 139021, "income": 316246, "revenue": 316246}], "NERI": [{"ein": "262157448", "name": "NEW YORK ORATORY OF ST PHILIP NERI INC", "city": "SPARKILL", "state": "NY", "zip": "10976-1041", "ntee": "", "ruling": "194603", "deductibility": "1", "assets": 0, "income": 0, "revenue": 0}, {"ein": "473003065", "name": "ST PHILIP NERI HEALING MINISTRIES INC", "city": "SPARKILL", "state": "NY", "zip": "10976-1041", "ntee": "E60", "ruling": "201509", "deductibility": "1", "assets": 0, "income": 0, "revenue": 0}, {"ein": "873104442", "name": "ORATORIAN COMMUNITY OF SAINT PHILIP NERI TYLER INC", "city": "BUFFALO", "state": "NY", "zip": "14202-2606", "ntee": "X22", "ruling": "202202", "deductibility": "1", "assets": 101625, "income": 333171, "revenue": 333171}, {"ein": "931356151", "name": "ST PHILLIP NERI CATHOLIC EDUCATION", "city": "BRONX", "state": "NY", "zip": "10468-1447", "ntee": "", "ruling": "194603", "deductibility": "1", "assets": 0, "income": 0, "revenue": 0}], "FEUERSTEIN": [{"ein": "263656672", "name": "NORTH AMERICAN FEUERSTEIN ALLIANCE", "city": "FLUSHING", "state": "NY", "zip": "11358-3145", "ntee": "B03", "ruling": "200909", "deductibility": "1", "assets": 0, "income": 0, "revenue": 0}], "FORIX": [{"ein": "263882110", "name": "FORIX FOUNDATION INC", "city": "NEW YORK", "state": "NY", "zip": "10024-6346", "ntee": "T22", "ruling": "200909", "deductibility": "1", "assets": 23788, "income": 1493, "revenue": 0}], "43C618014": [{"ein": "266697169", "name": "LEDERER ML IRR TR FBO PUTNEY SCHOOL 43C618014", "city": "BUFFALO", "state": "NY", "zip": "14240-1504", "ntee": "T20", "ruling": "201906", "deductibility": "1", "assets": 943954, "income": 357820, "revenue": 0}], "SPIRITTAL": [{"ein": "270619601", "name": "CANEY INDIGENOUS SPIRITTAL CICLE", "city": "PINE PLAINS", "state": "NY", "zip": "12567-5220", "ntee": "X99", "ruling": "201908", "deductibility": "1", "assets": 0, "income": 0, "revenue": 0}], "CHATWAL": [{"ein": "272196817", "name": "CHATWAL FAMILY FOUNDATION INC", "city": "NEW YORK", "state": "NY", "zip": "10019-5200", "ntee": "Q33", "ruling": "201007", "deductibility": "1", "assets": 44301, "income": 220, "revenue": 0}], "CURES": [{"ein": "274568549", "name": "ROCK OUT CURES INC", "city": "ELMONT", "state": "NY", "zip": "11003-3311", "ntee": "E12", "ruling": "201104", "deductibility": "1", "assets": 64699, "income": 65990, "revenue": 65990}], "EK2": [{"ein": "306630691", "name": "EK2 FOUNDATION", "city": "NEW YORK", "state": "NY", "zip": "10012-1435", "ntee": "A20", "ruling": "202211", "deductibility": "1", "assets": 1, "income": 1, "revenue": 0}], "NIFTY": [{"ein": "311737358", "name": "NIFTY ARCHIVE ALLIANCE INC", "city": "WHITE PLAINS", "state": "NY", "zip": "10605-1440", "ntee": "A33", "ruling": "200102", "deductibility": "1", "assets": 572978, "income": 103970, "revenue": 103970}, {"ein": "472229915", "name": "NIFTY THRIFTY SHOP LTD", "city": "FISHKILL", "state": "NY", "zip": "12524-3509", "ntee": "P29", "ruling": "202105", "deductibility": "1", "assets": 0, "income": 0, "revenue": 0}, {"ein": "882381674", "name": "THRIFTY & NIFTY INC", "city": "TUPPER LAKE", "state": "NY", "zip": "12986-1616", "ntee": "P29", "ruling": "202209", "deductibility": "1", "assets": 27328, "income": 88673, "revenue": 88673}], "MAKS": [{"ein": "316652819", "name": "THE MAKS AND LEA ROTHSTEIN CHARITABLE YOUTH TRUST", "city": "NEW YORK", "state": "NY", "zip": "10001-7604", "ntee": "T20", "ruling": "200104", "deductibility": "1", "assets": 16787411, "income": 3280924, "revenue": 0}], "WIGGLES": [{"ein": "331282029", "name": "WIGGLES & GIGGLES COMMUNITY INC", "city": "SCHENECTADY", "state": "NY", "zip": "12307-1709", "ntee": "O51", "ruling": "202410", "deductibility": "1", "assets": 0, "income": 0, "revenue": 0}], "REASON": [{"ein": "332792804", "name": "RIDING FOR A REASON INC", "city": "ARKPORT", "state": "NY", "zip": "14807-0000", "ntee": "W12", "ruling": "202502", "deductibility": "1", "assets": 0, "income": 0, "revenue": 0}, {"ein": "333569884", "name": "REASON EVERYBODY SAFE TRES INC", "city": "NEW YORK", "state": "NY", "zip": "10035-2005", "ntee": "O50", "ruling": "202503", "deductibility": "1", "assets": 0, "income": 0, "revenue": 0}, {"ein": "474201910", "name": "RYANS REASON INC", "city": "WEST SENECA", "state": "NY", "zip": "14224-4392", "ntee": "H44", "ruling": "201507", "deductibility": "1", "assets": 14609, "income": 59021, "revenue": 0}, {"ein": "831035382", "name": "RILEY S REASON", "city": "SCHENECTADY", "state": "NY", "zip": "12303-2633", "ntee": "E86", "ruling": "201903", "deductibility": "1", "assets": 0, "income": 0, "revenue": 0}, {"ein": "872435191", "name": "REASON FOR HOPE INC", "city": "NEW YORK", "state": "NY", "zip": "10017-1558", "ntee": "F01", "ruling": "202112", "deductibility": "1", "assets": 710799, "income": 1178392, "revenue": 1178392}, {"ein": "900856645", "name": "REASON AND TRUTH MINISTRIES INC", "city": "SAINT ALBANS", "state": "NY", "zip": "11412-3404", "ntee": "X21", "ruling": "201408", "deductibility": "1", "assets": 0, "income": 0, "revenue": 0}, {"ein": "994326599", "name": "JESUS IS THE REASON MINISTRIES INC", "city": "EAST ISLIP", "state": "NY", "zip": "11730-0000", "ntee": "K31", "ruling": "202502", "deductibility": "1", "assets": 0, "income": 0, "revenue": 0}], "BSA": [{"ein": "333616318", "name": "FRIENDS OF BSA PACK 6 TROOP6 CORP", "city": "STATEN ISLAND", "state": "NY", "zip": "10308-1926", "ntee": "C60", "ruling": "202505", "deductibility": "1", "assets": 0, "income": 0, "revenue": 0}, {"ein": "464763141", "name": "BSA TROOP 152", "city": "FAYETTEVILLE", "state": "NY", "zip": "13066-2271", "ntee": "O41", "ruling": "201801", "deductibility": "1", "assets": 0, "income": 0, "revenue": 0}, {"ein": "510435451", "name": "CONGREGATION BSA", "city": "BROOKLYN", "state": "NY", "zip": "11219-4201", "ntee": "X30", "ruling": "200306", "deductibility": "1", "assets": 0, "income": 0, "revenue": 0}, {"ein": "823706425", "name": "BSA FOUNDATION INC", "city": "CHESTER", "state": "NY", "zip": "10918-3000", "ntee": "T22", "ruling": "201806", "deductibility": "1", "assets": 2059566, "income": 491057, "revenue": 0}, {"ein": "830860324", "name": "BSA TROOP 3042", "city": "TIVOLI", "state": "NY", "zip": "12583-5516", "ntee": "O41", "ruling": "202001", "deductibility": "1", "assets": 0, "income": 0, "revenue": 0}], "MHS": [{"ein": "333733092", "name": "MHS CVPTO", "city": "SINCLAIRVILLE", "state": "NY", "zip": "14782-9666", "ntee": "B19", "ruling": "202506", "deductibility": "1", "assets": 0, "income": 0, "revenue": 0}], "MENSAH": [{"ein": "352469274", "name": "VIDA DARKO MENSAH FOUNDATION INC", "city": "BROOKLYN", "state": "NY", "zip": "11216-0511", "ntee": "B03", "ruling": "201607", "deductibility": "1", "assets": 0, "income": 0, "revenue": 0}, {"ein": "990397864", "name": "MENSAH HEALTH FOUNDATION CORPORATION", "city": "NEW YORK", "state": "NY", "zip": "10005-2205", "ntee": "E21", "ruling": "202403", "deductibility": "1", "assets": 0, "income": 0, "revenue": 0}], "REPURPOSEFUL": [{"ein": "352678282", "name": "REPURPOSEFUL INC", "city": "POUGHKEEPSIE", "state": "NY", "zip": "12601-4607", "ntee": "C27", "ruling": "202208", "deductibility": "1", "assets": 0, "income": 0, "revenue": 0}], "CROWNS": [{"ein": "371636479", "name": "SEVEN CROWNS OF LIFE MINISTRIES INC", "city": "S RICHMOND HL", "state": "NY", "zip": "11419-3119", "ntee": "X21", "ruling": "201408", "deductibility": "1", "assets": 0, "income": 0, "revenue": 0}, {"ein": "844369299", "name": "RESTORING THE BROKEN CROWNS", "city": "SAINT ALBANS", "state": "NY", "zip": "11412-3328", "ntee": "F80", "ruling": "202005", "deductibility": "1", "assets": 0, "income": 0, "revenue": 0}], "MAYE": [{"ein": "372162708", "name": "ROBERT B MAYE MEMORIAL SCHOLARSHIP FUND", "city": "ENDICOTT", "state": "NY", "zip": "13760-3806", "ntee": "B82", "ruling": "202502", "deductibility": "1", "assets": 0, "income": 0, "revenue": 0}, {"ein": "831676908", "name": "MARCUS MAYE FOUNDATION INC", "city": "MELVILLE", "state": "NY", "zip": "11747-2335", "ntee": "N20", "ruling": "201810", "deductibility": "1", "assets": 11829, "income": 63929, "revenue": 0}], "WHISTLE": [{"ein": "453541572", "name": "EIGHT STRINGS AND A WHISTLE INC", "city": "NEW YORK CITY", "state": "NY", "zip": "10019-4254", "ntee": "A68", "ruling": "201205", "deductibility": "1", "assets": 0, "income": 0, "revenue": 0}], "TERRANCE": [{"ein": "453843458", "name": "TERRANCE AND BETTE NOBLE FOUNDATION", "city": "ALBANY", "state": "NY", "zip": "12212-5201", "ntee": "T20", "ruling": "201210", "deductibility": "1", "assets": 12432598, "income": 4112264, "revenue": 0}], "LOO": [{"ein": "460864303", "name": "LINDY LOO FOUNDATION LTD", "city": "ATLANTIC BCH", "state": "NY", "zip": "11509-1334", "ntee": "T30", "ruling": "201702", "deductibility": "1", "assets": 11396, "income": 79360, "revenue": 65568}], "BEGAMPURA": [{"ein": "461455731", "name": "BEGAMPURA CULTURAL SOCIETY OF NY INC", "city": "EAST ELMHURST", "state": "NY", "zip": "11370-1629", "ntee": "W99", "ruling": "201512", "deductibility": "1", "assets": 0, "income": 0, "revenue": 0}], "CONVERTED": [{"ein": "462053198", "name": "ST PETERS CONVERTED HOUSE OF PRAYER INC", "city": "BROOKLYN", "state": "NY", "zip": "11236-1428", "ntee": "X20", "ruling": "201312", "deductibility": "1", "assets": 0, "income": 0, "revenue": 0}], "CGSW": [{"ein": "462871016", "name": "CGSW RACING INC", "city": "HERMON", "state": "NY", "zip": "13652-3264", "ntee": "N70", "ruling": "201501", "deductibility": "1", "assets": 0, "income": 0, "revenue": 0}], "APRAYER4ALEX": [{"ein": "464100830", "name": "APRAYER4ALEX INC", "city": "YONKERS", "state": "NY", "zip": "10703-2401", "ntee": "P99", "ruling": "201407", "deductibility": "1", "assets": 0, "income": 0, "revenue": 0}], "LIGAMINA": [{"ein": "464633954", "name": "LIGAMINA INC", "city": "NEW YORK", "state": "NY", "zip": "10016-9306", "ntee": "A50", "ruling": "201409", "deductibility": "1", "assets": 0, "income": 0, "revenue": 0}], "LEXXI": [{"ein": "465580310", "name": "LEXXI LOVES ORG", "city": "DEER PARK", "state": "NY", "zip": "11729-2807", "ntee": "O12", "ruling": "201409", "deductibility": "1", "assets": 0, "income": 0, "revenue": 0}], "SHAYALAS": [{"ein": "471320705", "name": "REB SHAYALAS KITCHEN", "city": "SPRING VALLEY", "state": "NY", "zip": "10977-6225", "ntee": "K31", "ruling": "201502", "deductibility": "1", "assets": 335752, "income": 7694673, "revenue": 7694673}, {"ein": "823275682", "name": "REB SHAYALAS FOOD KITCHEN INC", "city": "MONSEY", "state": "NY", "zip": "10952-2819", "ntee": "K35", "ruling": "201805", "deductibility": "1", "assets": 0, "income": 0, "revenue": 0}, {"ein": "920925243", "name": "REB SHAYALAS GEMACH INC", "city": "SUFFERN", "state": "NY", "zip": "10901-1905", "ntee": "P20", "ruling": "202212", "deductibility": "1", "assets": 33045, "income": 0, "revenue": 0}], "SHINNYO": [{"ein": "471852709", "name": "THE SHINNYO CENTER FOR MEDITATION AND WELL-BEING INC", "city": "NEW YORK", "state": "NY", "zip": "10018-7909", "ntee": "N30", "ruling": "201507", "deductibility": "1", "assets": 95289, "income": 3500, "revenue": 3500}], "DENSEBREAST": [{"ein": "472512636", "name": "DENSEBREAST-INFO INC", "city": "DEER PARK", "state": "NY", "zip": "11729-7840", "ntee": "G30", "ruling": "201412", "deductibility": "1", "assets": 265192, "income": 179748, "revenue": 179748}], "ATTENTION": [{"ein": "472981200", "name": "INSTITUTE FOR SUSTAINED ATTENTION INC", "city": "NEW YORK", "state": "NY", "zip": "10032-7459", "ntee": "A99", "ruling": "201510", "deductibility": "1", "assets": 348591, "income": 488469, "revenue": 488469}], "ACCNPUBLISHING": [{"ein": "473273357", "name": "ACCNPUBLISHING COMPANY INC", "city": "SYRACUSE", "state": "NY", "zip": "13215-0000", "ntee": "X83", "ruling": "201505", "deductibility": "1", "assets": 0, "income": 0, "revenue": 0}], "VACHESSED": [{"ein": "473634687", "name": "TORAH VACHESSED INC", "city": "MONSEY", "state": "NY", "zip": "10952-2629", "ntee": "T30", "ruling": "201509", "deductibility": "1", "assets": 258, "income": 196957, "revenue": 196957}], "EMEJAL": [{"ein": "475503821", "name": "EMEJAL GROUP CORP", "city": "BROOKLYN", "state": "NY", "zip": "11212-2255", "ntee": "B12", "ruling": "202201", "deductibility": "1", "assets": 0, "income": 0, "revenue": 0}], "POLSKY": [{"ein": "510245812", "name": "HAZEN POLSKY FOUNDATION", "city": "NEW YORK", "state": "NY", "zip": "10075-1848", "ntee": "", "ruling": "198002", "deductibility": "1", "assets": 7141324, "income": 901744, "revenue": 0}], "PUTTER": [{"ein": "566044491", "name": "DAVIS-PUTTER SCHOLARSHIP FUND", "city": "NEW YORK", "state": "NY", "zip": "10116-7307", "ntee": "B82Z", "ruling": "196203", "deductibility": "1", "assets": 482267, "income": 248369, "revenue": 248369}], "FLEISHER": [{"ein": "591952648", "name": "OLGA FLEISHER ORNITHOLOGICAL FOUNDATION INC", "city": "ROCHESTER", "state": "NY", "zip": "14622-1915", "ntee": "", "ruling": "198108", "deductibility": "1", "assets": 961900, "income": 158375, "revenue": 0}], "PHILLIPINE": [{"ein": "612001426", "name": "PHILLIPINE AMERICAN VETERINARY MEDICAL ASSOCIATION INC", "city": "ELMHURST", "state": "NY", "zip": "11373-3548", "ntee": "D20", "ruling": "202205", "deductibility": "1", "assets": 0, "income": 0, "revenue": 0}], "ZOLTAN": [{"ein": "770525858", "name": "KEDAR FAMILY AND ZOLTAN SONESH FOUNDATION", "city": "HARRISON", "state": "NY", "zip": "10528-1648", "ntee": "T20", "ruling": "200004", "deductibility": "1", "assets": 4302885, "income": 637444, "revenue": 0}], "LOYL": [{"ein": "800239252", "name": "LOYL LEARN FOR YOUR LIFE FOUNDATION", "city": "NEW YORK", "state": "NY", "zip": "10013-0000", "ntee": "T22", "ruling": "200902", "deductibility": "1", "assets": 272167, "income": 95224, "revenue": 0}], "STEADVIEW": [{"ein": "811736740", "name": "STEADVIEW FOUNDATION", "city": "NEW YORK", "state": "NY", "zip": "10065-8550", "ntee": "T20", "ruling": "201904", "deductibility": "1", "assets": 52176, "income": 1153529, "revenue": 0}], "BELLAVITI": [{"ein": "812027901", "name": "BELLAVITI MINISTRIES INC", "city": "VLY COTTAGE", "state": "NY", "zip": "10989-1517", "ntee": "B99", "ruling": "201611", "deductibility": "1", "assets": 0, "income": 0, "revenue": 0}], "CHANGENYS": [{"ein": "812583574", "name": "CHANGENYS LTD", "city": "SEAFORD", "state": "NY", "zip": "11783-1135", "ntee": "W24", "ruling": "201807", "deductibility": "1", "assets": 0, "income": 0, "revenue": 0}], "KEPT": [{"ein": "813188886", "name": "PROMISES KEPT MINISTRY INC", "city": "BRONX", "state": "NY", "zip": "10455-5017", "ntee": "P20", "ruling": "201707", "deductibility": "1", "assets": 0, "income": 0, "revenue": 0}], "MAYHI": [{"ein": "813253882", "name": "MAYHI FOUNDATION INC", "city": "BROOKLYN", "state": "NY", "zip": "11236-3311", "ntee": "P20", "ruling": "201904", "deductibility": "1", "assets": 0, "income": 0, "revenue": 0}], "DALER": [{"ein": "813610768", "name": "DALER EDUCATIONAL FOUNDATION INC", "city": "FARMINGDALE", "state": "NY", "zip": "11735-6123", "ntee": "B12", "ruling": "201609", "deductibility": "1", "assets": 0, "income": 0, "revenue": 0}], "LELEV": [{"ein": "814375863", "name": "YAD LELEV FOUNDATION INC", "city": "MONSEY", "state": "NY", "zip": "10952-3366", "ntee": "T30", "ruling": "201703", "deductibility": "1", "assets": 228629, "income": 2069936, "revenue": 924737}], "SOCIALLY": [{"ein": "814530680", "name": "SR SOCIALLY RELEVANT FILM FESTIVAL INC", "city": "NEW YORK", "state": "NY", "zip": "10027-4715", "ntee": "A31", "ruling": "201706", "deductibility": "1", "assets": 0, "income": 0, "revenue": 0}], "BENCH": [{"ein": "820731708", "name": "PARK BENCH MINISTRY INC", "city": "NEW YORK", "state": "NY", "zip": "10009-8173", "ntee": "X20", "ruling": "201704", "deductibility": "1", "assets": 0, "income": 0, "revenue": 0}, {"ein": "851307018", "name": "BUILD THE BENCH INC", "city": "BROOKLYN", "state": "NY", "zip": "11233-4011", "ntee": "S31", "ruling": "202409", "deductibility": "1", "assets": 0, "income": 0, "revenue": 0}], "GMSVS": [{"ein": "820752546", "name": "GMSVS STORM", "city": "ALBANY", "state": "NY", "zip": "12203-5212", "ntee": "N11", "ruling": "201812", "deductibility": "1", "assets": 0, "income": 0, "revenue": 0}], "BZDH": [{"ein": "822695467", "name": "CONGREGATION KHAL BZDH", "city": "BROOKLYN", "state": "NY", "zip": "11219-2633", "ntee": "X30", "ruling": "202112", "deductibility": "1", "assets": 0, "income": 0, "revenue": 0}], "FORTALEZA": [{"ein": "824296082", "name": "LA FORTALEZA COMMUNITY DEVELOPMENT CORPORATION", "city": "NEW YORK", "state": "NY", "zip": "10029-0256", "ntee": "S20", "ruling": "202406", "deductibility": "1", "assets": 0, "income": 0, "revenue": 0}], "CROWDER": [{"ein": "834640685", "name": "CROWDER FOUNDATION INC", "city": "SCHENECTADY", "state": "NY", "zip": "12308-1104", "ntee": "T22", "ruling": "201904", "deductibility": "1", "assets": 1355, "income": 1000, "revenue": 0}], "SOMCAA": [{"ein": "841830139", "name": "SOMCAA-NA", "city": "NEWBURGH", "state": "NY", "zip": "12550-1298", "ntee": "T50", "ruling": "201906", "deductibility": "1", "assets": 0, "income": 0, "revenue": 0}], "JEHOVIAH": [{"ein": "841954341", "name": "JEHOVIAH NISSI SEVENTH DAY ADVENTIST COMMUNITY CHURCH INC", "city": "BROOKLYN", "state": "NY", "zip": "11213-3180", "ntee": "X90", "ruling": "202204", "deductibility": "1", "assets": 6, "income": 9093, "revenue": 9093}], "KIRBYS": [{"ein": "842923452", "name": "KIRBYS KORNER", "city": "BUFFALO", "state": "NY", "zip": "14216-1602", "ntee": "O01", "ruling": "202004", "deductibility": "1", "assets": 0, "income": 0, "revenue": 0}], "SEASONED": [{"ein": "843968562", "name": "SEASONED GIVES INC", "city": "SAUGERTIES", "state": "NY", "zip": "12477-0880", "ntee": "P20", "ruling": "202001", "deductibility": "1", "assets": 916843, "income": 321314, "revenue": 321314}], "BAGGA": [{"ein": "845056303", "name": "DARSHAN AND LOVLIN BAGGA CHARITABLE FOUNDATION INC", "city": "GLEN HEAD", "state": "NY", "zip": "11545-2242", "ntee": "P20", "ruling": "202104", "deductibility": "1", "assets": 1516060, "income": 662219, "revenue": 0}], "BORJIKIN": [{"ein": "853509507", "name": "BORJIKIN INTERNATIONAL ORGANIZATION INC", "city": "NEW YORK", "state": "NY", "zip": "10013-4554", "ntee": "P84", "ruling": "202406", "deductibility": "1", "assets": 0, "income": 0, "revenue": 0}], "CUF": [{"ein": "871011056", "name": "CONGO UBUNTU FOUNDATION INC CUF", "city": "FRANKLIN SQ", "state": "NY", "zip": "11010-3535", "ntee": "A01", "ruling": "202204", "deductibility": "1", "assets": 24000, "income": 140000, "revenue": 140000}], "POLG": [{"ein": "871876876", "name": "POLG FOUNDATION", "city": "NEW YORK", "state": "NY", "zip": "10016-0313", "ntee": "G20", "ruling": "202111", "deductibility": "1", "assets": 6529501, "income": 3072175, "revenue": 1297847}], "DCS": [{"ein": "872381302", "name": "DCS SPORTS BOOSTER", "city": "DERUYTER", "state": "NY", "zip": "13052-9603", "ntee": "B94", "ruling": "202210", "deductibility": "1", "assets": 0, "income": 0, "revenue": 0}], "FATAL": [{"ein": "881584664", "name": "FATAL FLAW LITERARY INC", "city": "NEW YORK", "state": "NY", "zip": "10003-2191", "ntee": "A33", "ruling": "202207", "deductibility": "1", "assets": 0, "income": 0, "revenue": 0}], "ANSAAR": [{"ein": "882800800", "name": "ANSAAR FOUNDATION INC", "city": "NEW YORK", "state": "NY", "zip": "10026-3446", "ntee": "", "ruling": "202501", "deductibility": "1", "assets": 0, "income": 0, "revenue": 0}], "UNIVERSOLOGY": [{"ein": "900589219", "name": "THE INSTITUTE OF UNIVERSOLOGY INC", "city": "BROOKLYN", "state": "NY", "zip": "11214-1800", "ntee": "P50", "ruling": "201609", "deductibility": "1", "assets": 0, "income": 0, "revenue": 0}], "HOLO": [{"ein": "921804942", "name": "HOLO FOUNDATION INC", "city": "NEW YORK", "state": "NY", "zip": "10282-1244", "ntee": "S12", "ruling": "202302", "deductibility": "1", "assets": 0, "income": 0, "revenue": 0}], "ENCANTO": [{"ein": "921810796", "name": "RAICES DE MI ENCANTO", "city": "NEW YORK", "state": "NY", "zip": "10029-5623", "ntee": "O51", "ruling": "202302", "deductibility": "1", "assets": 0, "income": 0, "revenue": 0}], "CHASDECHU": [{"ein": "922100925", "name": "MESHOICH CHASDECHU INC", "city": "MONROE", "state": "NY", "zip": "10950-9633", "ntee": "X30", "ruling": "202306", "deductibility": "1", "assets": 0, "income": 0, "revenue": 0}], "HISH": [{"ein": "922127573", "name": "HISH FAMILY", "city": "STATEN ISLAND", "state": "NY", "zip": "10301-2331", "ntee": "B12", "ruling": "202404", "deductibility": "1", "assets": 0, "income": 0, "revenue": 0}], "UMWAMI": [{"ein": "924021960", "name": "YESU NI UMWAMI CORPORATION", "city": "HORSEHEADS", "state": "NY", "zip": "14845-7939", "ntee": "F32", "ruling": "202405", "deductibility": "1", "assets": 0, "income": 0, "revenue": 0}], "SALVADORIAN": [{"ein": "932110871", "name": "WESTCHESTER SALVADORIAN ASSOCIATION", "city": "YONKERS", "state": "NY", "zip": "10703-0771", "ntee": "B90", "ruling": "202308", "deductibility": "1", "assets": 15289, "income": 19686, "revenue": 19686}], "ENABLING": [{"ein": "933546837", "name": "TEAM OF UNITED GOLFERS AND HUNTERS ENABLING SUPPORT INC", "city": "VESTAL", "state": "NY", "zip": "13850-0000", "ntee": "W12", "ruling": "202310", "deductibility": "1", "assets": 0, "income": 0, "revenue": 0}], "HARRELL": [{"ein": "933547095", "name": "HARRELL COMMUNITY OUTREACH INC", "city": "NEW YORK", "state": "NY", "zip": "10030-3810", "ntee": "A20", "ruling": "202403", "deductibility": "1", "assets": 0, "income": 0, "revenue": 0}], "VORTEX": [{"ein": "933936602", "name": "VORTEX PERFORMING ARTS INCORPORATED", "city": "EAST SYRACUSE", "state": "NY", "zip": "13057-1521", "ntee": "A68", "ruling": "202407", "deductibility": "1", "assets": 0, "income": 0, "revenue": 0}], "MEOW2THERESQ": [{"ein": "934677689", "name": "MEOW2THERESQ INC", "city": "MOUNT VERNON", "state": "NY", "zip": "10552-2330", "ntee": "D20", "ruling": "202410", "deductibility": "1", "assets": 0, "income": 0, "revenue": 0}], "RENOVATIONS": [{"ein": "934735181", "name": "ATHLETIC RENOVATIONS", "city": "BROOKLYN", "state": "NY", "zip": "11224-1918", "ntee": "S30", "ruling": "202402", "deductibility": "1", "assets": 0, "income": 0, "revenue": 0}], "PINSCHER": [{"ein": "943015270", "name": "DOBERMAN PINSCHER CLUB OF AMERICA", "city": "WHITE PLAINS", "state": "NY", "zip": "10605-1601", "ntee": "D60", "ruling": "200201", "deductibility": "2", "assets": 0, "income": 0, "revenue": 0}], "GEMSTONE": [{"ein": "953901200", "name": "INTERNATIONAL COLORED GEMSTONE ASSOCIATION", "city": "NEW YORK", "state": "NY", "zip": "10001-3406", "ntee": "", "ruling": "199210", "deductibility": "2", "assets": 1338363, "income": 2049156, "revenue": 2049156}], "CHARACTERS": [{"ein": "990448528", "name": "CHARACTERS FOR CHRIS FOUNDATION INC", "city": "BROOKLYN", "state": "NY", "zip": "11234-2613", "ntee": "F12", "ruling": "202403", "deductibility": "1", "assets": 0, "income": 0, "revenue": 0}], "SURGE": [{"ein": "990454228", "name": "SOUTHERN TIER SURGE ATHLETICS CORPORATION", "city": "BINGHAMTON", "state": "NY", "zip": "13903-1356", "ntee": "N62", "ruling": "202402", "deductibility": "1", "assets": 0, "income": 0, "revenue": 0}], "YESS": [{"ein": "990901086", "name": "YESS FOUNDATION INC", "city": "BROOKLYN", "state": "NY", "zip": "11218-3005", "ntee": "X12", "ruling": "202402", "deductibility": "1", "assets": 2, "income": 264780, "revenue": 0}], "AVODES": [{"ein": "991337558", "name": "AVODES HALEV", "city": "BROOKLYN", "state": "NY", "zip": "11219-4229", "ntee": "X30", "ruling": "202410", "deductibility": "1", "assets": 0, "income": 0, "revenue": 0}], "WEUPLIFT": [{"ein": "991674729", "name": "WEUPLIFT INC", "city": "FOREST HILLS", "state": "NY", "zip": "11375-9091", "ntee": "E40", "ruling": "202403", "deductibility": "1", "assets": 38744, "income": 71317, "revenue": 71317}], "AAT": [{"ein": "992005892", "name": "MARKAZ AL QIRAA AAT", "city": "BRONX", "state": "NY", "zip": "10460-5736", "ntee": "X40", "ruling": "202405", "deductibility": "1", "assets": 0, "income": 0, "revenue": 0}], "CROSSTALK": [{"ein": "992646783", "name": "CROSSTALK INC", "city": "WHITE PLAINS", "state": "NY", "zip": "10601-1900", "ntee": "F20", "ruling": "202404", "deductibility": "1", "assets": 45816, "income": 74715, "revenue": 74715}, {"ein": "994453862", "name": "CROSSTALK CONNECTIONS INC", "city": "NEW YORK", "state": "NY", "zip": "10038-3703", "ntee": "F60", "ruling": "202411", "deductibility": "1", "assets": 0, "income": 0, "revenue": 0}], "SHECARES": [{"ein": "994551072", "name": "SHECARES COLLECTIVE INC", "city": "ELMHURST", "state": "NY", "zip": "11373-5602", "ntee": "Z99", "ruling": "202501", "deductibility": "1", "assets": 0, "income": 0, "revenue": 0}]}