{"REAL": [{"ein": "010555145", "name": "PENTECOSTAL CHURCH GOD IS REAL", "city": "NEW YORK", "state": "NY", "zip": "10035-4032", "ntee": "X21", "ruling": "200212", "deductibility": "1", "assets": 0, "income": 0, "revenue": 0}, {"ein": "112416899", "name": "REAL ESTATE PRACTITIONERS INSTITUTE OF LONG ISLAND", "city": "STONY BROOK", "state": "NY", "zip": "11794-0001", "ntee": "S46", "ruling": "201306", "deductibility": "1", "assets": 108767, "income": 52082, "revenue": 52082}, {"ein": "112423630", "name": "CARL FENICHEL REAL PROPERTIES INC C O LEAGUE SCHOOL", "city": "BROOKLYN", "state": "NY", "zip": "11238-2253", "ntee": "", "ruling": "197707", "deductibility": "2", "assets": 403364, "income": 0, "revenue": 0}, {"ein": "112547516", "name": "BEDFORD STUYVESANT REAL ESTATE BOARD INC", "city": "BROOKLYN", "state": "NY", "zip": "11216-2514", "ntee": "S41", "ruling": "201209", "deductibility": "2", "assets": 0, "income": 0, "revenue": 0}, {"ein": "112699455", "name": "REAL CHURCH AT CHRISTIAN JOY FELLOWSHIP INC", "city": "BELLMORE", "state": "NY", "zip": "11710-5612", "ntee": "", "ruling": "198609", "deductibility": "1", "assets": 0, "income": 0, "revenue": 0}, {"ein": "113350738", "name": "FAUX REAL THEATRE COMPANY INC", "city": "BROOKLYN", "state": "NY", "zip": "11205-1125", "ntee": "A650", "ruling": "199707", "deductibility": "1", "assets": 652, "income": 5000, "revenue": 5000}, {"ein": "113474897", "name": "REAL LIFE CHURCH OF OUR LORD JESUS CHRIST INC", "city": "BROOKLYN", "state": "NY", "zip": "11236-4527", "ntee": "X21", "ruling": "200204", "deductibility": "1", "assets": 0, "income": 0, "revenue": 0}, {"ein": "113627309", "name": "BRIARWOOD 138-50 REAL ESTATE CORP", "city": "NEW ROCHELLE", "state": "NY", "zip": "10801-5237", "ntee": "", "ruling": "200210", "deductibility": "0", "assets": 355192, "income": 0, "revenue": 0}, {"ein": "116042320", "name": "BAY RIDGE REAL ESTATE BOARD INC", "city": "BROOKLYN", "state": "NY", "zip": "11228-2708", "ntee": "", "ruling": "194210", "deductibility": "2", "assets": 0, "income": 0, "revenue": 0}, {"ein": "131201480", "name": "REAL ESTATE BOARD OF NEW YORK INC", "city": "NEW YORK", "state": "NY", "zip": "10022-6736", "ntee": "", "ruling": "193412", "deductibility": "2", "assets": 26730806, "income": 18891059, "revenue": 17246867}, {"ein": "132819941", "name": "REAL ESTATE TAX REVIEW BAR ASSN", "city": "NEW YORK", "state": "NY", "zip": "10018-0000", "ntee": "S47Z", "ruling": "199211", "deductibility": "2", "assets": 14957, "income": 23000, "revenue": 23000}, {"ein": "133013058", "name": "YOUNG MENS-WOMENS REAL ESTATE ASSOCIATION OF NEW YORK INC", "city": "NEW YORK", "state": "NY", "zip": "10163-4380", "ntee": "", "ruling": "198003", "deductibility": "2", "assets": 289269, "income": 334246, "revenue": 334246}, {"ein": "133026683", "name": "REAL LIFE WORSHIP CENTER", "city": "BRONX", "state": "NY", "zip": "10451-1510", "ntee": "", "ruling": "199212", "deductibility": "1", "assets": 0, "income": 0, "revenue": 0}, {"ein": "133632552", "name": "HUDSON SPRAIN ASSOCIATION OF REAL ESTATE BROKERS INC", "city": "YONKERS", "state": "NY", "zip": "10701-4528", "ntee": "", "ruling": "199212", "deductibility": "2", "assets": 0, "income": 0, "revenue": 0}, {"ein": "133712025", "name": "REAL ESTATE LENDERS ASSOCIATION INC", "city": "NEW YORK", "state": "NY", "zip": "10168-4703", "ntee": "", "ruling": "199408", "deductibility": "2", "assets": 504143, "income": 960364, "revenue": 960364}, {"ein": "134016452", "name": "CHINESE-AMERICAN REAL ESTATE ASSOCIATION USA INC", "city": "FLUSHING", "state": "NY", "zip": "11354-4471", "ntee": "L033", "ruling": "200502", "deductibility": "2", "assets": 9140, "income": 118456, "revenue": 31020}, {"ein": "141785087", "name": "MARIST REAL PROPERTY SERVICES INC", "city": "POUGHKEEPSIE", "state": "NY", "zip": "12601-1350", "ntee": "B80Z", "ruling": "199602", "deductibility": "1", "assets": 19660974, "income": 0, "revenue": 0}, {"ein": "141821478", "name": "NATIONAL REAL ESTATE FOUNDATION", "city": "SARATOGA SPGS", "state": "NY", "zip": "12866-8585", "ntee": "T30", "ruling": "200004", "deductibility": "1", "assets": 0, "income": 0, "revenue": 0}, {"ein": "161450535", "name": "CORNELL REAL PROPERTY SERVICES INC", "city": "ITHACA", "state": "NY", "zip": "14850-0000", "ntee": "", "ruling": "199410", "deductibility": "1", "assets": 331723, "income": 85230, "revenue": 85230}, {"ein": "201024682", "name": "REAL AND FROM THE HEART INC", "city": "SPRNGFLD GDNS", "state": "NY", "zip": "11413-3831", "ntee": "X21", "ruling": "200410", "deductibility": "1", "assets": 0, "income": 0, "revenue": 0}, {"ein": "201810720", "name": "LONG ISLAND REAL ESTATE GROUP INC", "city": "MELVILLE", "state": "NY", "zip": "11747-0000", "ntee": "S41", "ruling": "201203", "deductibility": "2", "assets": 151593, "income": 488682, "revenue": 309239}, {"ein": "204219729", "name": "REAL NEWS PROJECT INC", "city": "NEW YORK", "state": "NY", "zip": "10276-1103", "ntee": "A33", "ruling": "200801", "deductibility": "1", "assets": 150740, "income": 466562, "revenue": 466562}, {"ein": "205892424", "name": "AFRICAN AMERICAN REAL ESTATE PROFESSIONALS OF NEW YORK INC", "city": "NEW YORK", "state": "NY", "zip": "10004-1717", "ntee": "B60", "ruling": "201512", "deductibility": "1", "assets": 0, "income": 0, "revenue": 0}, {"ein": "208486857", "name": "4 REAL WOMEN INTERNATIONAL INC", "city": "NEW YORK", "state": "NY", "zip": "10007-2061", "ntee": "P80", "ruling": "200711", "deductibility": "1", "assets": 0, "income": 0, "revenue": 0}, {"ein": "271140014", "name": "UR REAL ESTATE CORPORATION", "city": "ROCHESTER", "state": "NY", "zip": "14627-0000", "ntee": "B11", "ruling": "201008", "deductibility": "1", "assets": 1, "income": 0, "revenue": 0}, {"ein": "272237196", "name": "DUTCHESS COUNTY REAL ESTATE CHARITY GOLF INC", "city": "WAPPINGERS FALLS", "state": "NY", "zip": "12590-2742", "ntee": "N6A", "ruling": "201502", "deductibility": "1", "assets": 31042, "income": 47360, "revenue": 47360}, {"ein": "273438200", "name": "LOCAL 817 REAL ESTATE HOLDING CORPORATION", "city": "GREAT NECK", "state": "NY", "zip": "11021-2924", "ntee": "S50", "ruling": "201101", "deductibility": "2", "assets": 5724637, "income": 243497, "revenue": -158853}, {"ein": "273575797", "name": "ASIAN REAL ESTATE ASSOCIATION OF METRO NEW YORK INC", "city": "NEW YORK", "state": "NY", "zip": "10018-3331", "ntee": "S41", "ruling": "201203", "deductibility": "2", "assets": 87511, "income": 51273, "revenue": 51273}, {"ein": "300834285", "name": "GEORGE MEANY BOULEVARD REAL ESTATE COMPANY INC", "city": "LONG IS CITY", "state": "NY", "zip": "11101-6164", "ntee": "Y11", "ruling": "201502", "deductibility": "2", "assets": 1535822, "income": 205001, "revenue": 205001}, {"ein": "320464359", "name": "INSTITUTE OF REAL ESTATE MANAGEMENT OF THE NAT ASSOC OF REALTORS", "city": "TROY", "state": "NY", "zip": "12180-0000", "ntee": "S47Z", "ruling": "197608", "deductibility": "2", "assets": 4753, "income": 38294, "revenue": 38294}, {"ein": "331186152", "name": "REAL LIFE THEATER MINISTRIES INC", "city": "NEW YORK", "state": "NY", "zip": "10035-2737", "ntee": "A65", "ruling": "202501", "deductibility": "1", "assets": 0, "income": 0, "revenue": 0}, {"ein": "331316131", "name": "KEEP IT REAL CLUBS INC", "city": "LARCHMONT", "state": "NY", "zip": "10538-1129", "ntee": "B90", "ruling": "202412", "deductibility": "1", "assets": 0, "income": 0, "revenue": 0}, {"ein": "384304347", "name": "REAL NEW YORK FC INC", "city": "WESTBURY", "state": "NY", "zip": "11590-2716", "ntee": "N60", "ruling": "202503", "deductibility": "1", "assets": 0, "income": 0, "revenue": 0}, {"ein": "452464788", "name": "MELIORA REAL ESTATE CORPORATION", "city": "ROCHESTER", "state": "NY", "zip": "14627-0000", "ntee": "B11", "ruling": "201306", "deductibility": "1", "assets": 1, "income": 0, "revenue": 0}, {"ein": "452971707", "name": "REAL LIFE CHURCH", "city": "BRONX", "state": "NY", "zip": "10474-5331", "ntee": "", "ruling": "196408", "deductibility": "1", "assets": 0, "income": 0, "revenue": 0}, {"ein": "463001525", "name": "NEW YORK REAL ESTATE CHAMBER INC", "city": "BROOKLYN", "state": "NY", "zip": "11216-5372", "ntee": "S40", "ruling": "201803", "deductibility": "2", "assets": 201144, "income": 264410, "revenue": 264410}, {"ein": "463249635", "name": "LADIES LETS BE REAL FELLOWSHIP INC", "city": "BUFFALO", "state": "NY", "zip": "14215-2751", "ntee": "X01", "ruling": "201801", "deductibility": "1", "assets": 0, "income": 0, "revenue": 0}, {"ein": "473028477", "name": "COMMERCIAL REAL ESTATE WOMEN OF NEW YORK INC", "city": "BROOKLYN", "state": "NY", "zip": "11201-3609", "ntee": "J03", "ruling": "201609", "deductibility": "2", "assets": 232485, "income": 360059, "revenue": 360059}, {"ein": "474265468", "name": "C B REAL MINISTRIES", "city": "FREEPORT", "state": "NY", "zip": "11520-0367", "ntee": "B80", "ruling": "201509", "deductibility": "1", "assets": 0, "income": 0, "revenue": 0}, {"ein": "474491363", "name": "NEW YORK ASIAN AMERICAN REAL ESTATE ASSOCIATION INC", "city": "FLUSHING", "state": "NY", "zip": "11358-4124", "ntee": "S47", "ruling": "202004", "deductibility": "2", "assets": 0, "income": 0, "revenue": 0}, {"ein": "481150519", "name": "COMMERCIAL REAL ESTATE FINANCE COUNCIL INC", "city": "NEW YORK", "state": "NY", "zip": "10022-5056", "ntee": "", "ruling": "199707", "deductibility": "2", "assets": 29295036, "income": 17561967, "revenue": 17561967}, {"ein": "542187114", "name": "REAL DADS NETWORK", "city": "PEEKSKILL", "state": "NY", "zip": "10566-4962", "ntee": "P40", "ruling": "201212", "deductibility": "1", "assets": 0, "income": 0, "revenue": 0}, {"ein": "562478579", "name": "LOCAL 338 REAL ESTATE HOLDING CORP", "city": "MINEOLA", "state": "NY", "zip": "11501-4811", "ntee": "S47", "ruling": "200610", "deductibility": "2", "assets": 7716128, "income": 430315, "revenue": 430315}, {"ein": "571147217", "name": "REAL WORLD FOUNDATION INC", "city": "STONE RIDGE", "state": "NY", "zip": "12484-0757", "ntee": "A33", "ruling": "200406", "deductibility": "1", "assets": 0, "income": 0, "revenue": 0}, {"ein": "582680875", "name": "YOUNG REAL ESTATE PROFESSIONALS INC", "city": "MELVILLE", "state": "NY", "zip": "11747-4801", "ntee": "S41", "ruling": "200707", "deductibility": "2", "assets": 0, "income": 0, "revenue": 0}, {"ein": "651190581", "name": "NEW YORK STATE REAL ESTATE EDUCATION FOUNDATION INC", "city": "ALBANY", "state": "NY", "zip": "12210-2219", "ntee": "B60", "ruling": "200409", "deductibility": "1", "assets": 329648, "income": 85055, "revenue": 85055}, {"ein": "800300530", "name": "A REAL DESIRE", "city": "BRONX", "state": "NY", "zip": "10467-5771", "ntee": "B99", "ruling": "201411", "deductibility": "1", "assets": 0, "income": 0, "revenue": 0}, {"ein": "800575894", "name": "REAL STORIES GALLERY FOUNDATION", "city": "NEW YORK", "state": "NY", "zip": "10035-2780", "ntee": "A99", "ruling": "201102", "deductibility": "1", "assets": 87, "income": 1434, "revenue": 0}, {"ein": "800580089", "name": "ELECTRICAL INDUSTRY REAL ESTATE FUND LLC", "city": "FLUSHING", "state": "NY", "zip": "11365-3085", "ntee": "", "ruling": "201106", "deductibility": "2", "assets": 22743157, "income": 12191324, "revenue": 862875}, {"ein": "812903835", "name": "AMERICAN CHINESE REAL ESTATE SOCIETY INC", "city": "CORONA", "state": "NY", "zip": "11368-5296", "ntee": "B90", "ruling": "202001", "deductibility": "1", "assets": 0, "income": 0, "revenue": 0}, {"ein": "822775608", "name": "VIDA REAL EVANGELICAL CENTER INC", "city": "KINGSTON", "state": "NY", "zip": "12401-4901", "ntee": "", "ruling": "201801", "deductibility": "1", "assets": 0, "income": 0, "revenue": 0}, {"ein": "822845682", "name": "REAL WORD MINISTRIES INC", "city": "BROOKLYN", "state": "NY", "zip": "11236-4763", "ntee": "P40", "ruling": "201812", "deductibility": "1", "assets": 0, "income": 0, "revenue": 0}, {"ein": "823595330", "name": "ACACIA REAL ESTATE DEVELOPMENT INC", "city": "BRONX", "state": "NY", "zip": "10457-5833", "ntee": "L20", "ruling": "201808", "deductibility": "1", "assets": 5959008, "income": 2345603, "revenue": 2345603}, {"ein": "824095459", "name": "CU REAL ESTATE ALUMNI INC", "city": "NEW YORK", "state": "NY", "zip": "10017-3144", "ntee": "B11", "ruling": "201902", "deductibility": "1", "assets": 384073, "income": 286344, "revenue": 286344}, {"ein": "824412546", "name": "GARDEN CITY REAL ESTATE PROFESSIONALS FOUNDATION INC", "city": "GARDEN CITY", "state": "NY", "zip": "11530-4618", "ntee": "T99", "ruling": "201811", "deductibility": "1", "assets": 80399, "income": 167969, "revenue": 0}, {"ein": "831227110", "name": "CIRCULO REAL PROPERTY HOLDING CORPORATION", "city": "GARDEN CITY", "state": "NY", "zip": "11530-3336", "ntee": "S11", "ruling": "201811", "deductibility": "1", "assets": 13137504, "income": 1271386, "revenue": 1271386}, {"ein": "832898947", "name": "REAL HARLEM BASKETBALL PLAYERS INC", "city": "NEW YORK", "state": "NY", "zip": "10039-4303", "ntee": "N99", "ruling": "202105", "deductibility": "1", "assets": 0, "income": 0, "revenue": 0}, {"ein": "833745248", "name": "READY4 REAL INC", "city": "PLATTSBURGH", "state": "NY", "zip": "12903-3900", "ntee": "B90", "ruling": "202009", "deductibility": "1", "assets": 44140, "income": 290525, "revenue": 0}, {"ein": "851375765", "name": "NATIONAL ORGANIZATION FOR MINORITY OPPORTUNITY AND REAL EQUALITY", "city": "JAMAICA", "state": "NY", "zip": "11433-3918", "ntee": "P99", "ruling": "202011", "deductibility": "1", "assets": 0, "income": 0, "revenue": 0}, {"ein": "852937809", "name": "REAL ROCK FOUNDATION INC", "city": "JAMAICA", "state": "NY", "zip": "11434-3120", "ntee": "S20", "ruling": "202302", "deductibility": "1", "assets": 0, "income": 0, "revenue": 0}, {"ein": "853710848", "name": "ACCELERATED REAL ESTATE INVESTMENT CORP", "city": "NEW YORK", "state": "NY", "zip": "10001-7604", "ntee": "", "ruling": "202108", "deductibility": "1", "assets": 0, "income": 0, "revenue": 0}, {"ein": "853987247", "name": "REAL EMPATHETIC WELLNESS INC", "city": "ROSEDALE", "state": "NY", "zip": "11422-1315", "ntee": "F99", "ruling": "202103", "deductibility": "1", "assets": 0, "income": 0, "revenue": 0}, {"ein": "880617716", "name": "REAL ESTATE DIRECTORS ROUNDTABLE INSTITUTE", "city": "BOHEMIA", "state": "NY", "zip": "11716-3426", "ntee": "S41", "ruling": "202311", "deductibility": "2", "assets": 58201, "income": 79116, "revenue": 79116}, {"ein": "882584172", "name": "LATINOS OF REAL ESTATE INCORPORATED", "city": "PEARL RIVER", "state": "NY", "zip": "10965-2946", "ntee": "S41", "ruling": "202305", "deductibility": "2", "assets": 11514, "income": 132749, "revenue": 39088}, {"ein": "883217407", "name": "FOUNDATION FOR THE INTERNATIONAL REAL ESTATE INDUSTRY", "city": "ALBANY", "state": "NY", "zip": "12207-2922", "ntee": "S40", "ruling": "202302", "deductibility": "2", "assets": 1143, "income": 0, "revenue": 0}, {"ein": "900418276", "name": "REAL AFTERCARE SERVICES FOR THE CHRONIC HOMELESS INC", "city": "NEW ROCHELLE", "state": "NY", "zip": "10801-2515", "ntee": "L41", "ruling": "201005", "deductibility": "1", "assets": 0, "income": 0, "revenue": 0}, {"ein": "920880311", "name": "REAL PROJECT INC", "city": "BRONX", "state": "NY", "zip": "10461-3578", "ntee": "P99", "ruling": "202304", "deductibility": "1", "assets": 0, "income": 0, "revenue": 0}, {"ein": "921187307", "name": "REAL WELLNESS CARES INC", "city": "FRESH MEADOWS", "state": "NY", "zip": "11366-1515", "ntee": "B12", "ruling": "202302", "deductibility": "1", "assets": 0, "income": 0, "revenue": 0}, {"ein": "923906879", "name": "FATHERS ARE REAL INCORPORATED", "city": "NEW YORK", "state": "NY", "zip": "10030-2709", "ntee": "O50", "ruling": "202308", "deductibility": "1", "assets": 0, "income": 0, "revenue": 0}, {"ein": "923988900", "name": "REAL BOSS KIDS INC", "city": "ROCHESTER", "state": "NY", "zip": "14621-4520", "ntee": "O50", "ruling": "202312", "deductibility": "1", "assets": 0, "income": 0, "revenue": 0}, {"ein": "931517787", "name": "REAL ESTATE PROFESSIONALS OF ITALIAN AMERICAN HERITAGE INC", "city": "WHITE PLAINS", "state": "NY", "zip": "10601-4413", "ntee": "T03", "ruling": "202410", "deductibility": "1", "assets": 350, "income": 0, "revenue": 0}, {"ein": "991239447", "name": "AREA - AGAPE REAL ESTATE ASSOCIATES INC", "city": "THORNWOOD", "state": "NY", "zip": "10594-1909", "ntee": "L80", "ruling": "202411", "deductibility": "1", "assets": 0, "income": 0, "revenue": 0}, {"ein": "994254026", "name": "COMMERCIAL REAL ESTATE WOMEN OF ROCHESTER INC", "city": "ROCHESTER", "state": "NY", "zip": "14692-3131", "ntee": "Y99", "ruling": "202501", "deductibility": "2", "assets": 0, "income": 0, "revenue": 0}], "AFFAIRS": [{"ein": "010708785", "name": "HUNTINGTON CULTURAL AFFAIRS INSTITUTE INC", "city": "HUNTINGTON", "state": "NY", "zip": "11743-6904", "ntee": "A70", "ruling": "200305", "deductibility": "1", "assets": 102458, "income": 58757, "revenue": 58757}, {"ein": "112778253", "name": "THE NEW YORK MILITARY AFFAIRS SYMPOSIUM INC", "city": "NEW YORK", "state": "NY", "zip": "10156-0592", "ntee": "W30", "ruling": "198605", "deductibility": "1", "assets": 16667, "income": 3913, "revenue": 3913}, {"ein": "131573954", "name": "CARNEGIE COUNCIL FOR ETHICS IN INTERNATIONAL AFFAIRS INC", "city": "NEW YORK", "state": "NY", "zip": "10065-0060", "ntee": "Q055", "ruling": "196205", "deductibility": "1", "assets": 35891816, "income": 11256357, "revenue": 3295373}, {"ein": "131624104", "name": "JEWISH COUNCIL FOR PUBLIC AFFAIRS", "city": "NEW YORK", "state": "NY", "zip": "10004-1010", "ntee": "", "ruling": "195307", "deductibility": "1", "assets": 2144890, "income": 2102522, "revenue": 2102522}, {"ein": "132933482", "name": "FIRST CHINESE PRESBYTERIAN CHURCH COMMUNITY AFFAIRS CORP", "city": "NEW YORK", "state": "NY", "zip": "10002-7188", "ntee": "", "ruling": "198305", "deductibility": "1", "assets": 749950, "income": 0, "revenue": 0}, {"ein": "132995128", "name": "NEIGHBORHOOD ASSOCIATION FOR INTER CULTURAL AFFAIRS INC", "city": "BRONX", "state": "NY", "zip": "10456-6129", "ntee": "", "ruling": "199010", "deductibility": "1", "assets": 135196742, "income": 140608255, "revenue": 140492986}, {"ein": "133011752", "name": "FIRST CHINESE PRESBYTERIAN COMMUNITY AFFAIRS HOME ATTENDANT C", "city": "NEW YORK", "state": "NY", "zip": "10002-7188", "ntee": "L210", "ruling": "199003", "deductibility": "1", "assets": 42294870, "income": 32792650, "revenue": 32792650}, {"ein": "133689339", "name": "ANTILLEAN ARUBA CULTURAL AFFAIRS ASSOCIATION", "city": "BROOKLYN", "state": "NY", "zip": "11203-6730", "ntee": "A20", "ruling": "201412", "deductibility": "1", "assets": 0, "income": 0, "revenue": 0}, {"ein": "136162451", "name": "COUNCIL ON INTERNATIONAL AND PUBLIC AFFAIRS", "city": "NEW YORK", "state": "NY", "zip": "10028-6494", "ntee": "Q050", "ruling": "195505", "deductibility": "1", "assets": 0, "income": 0, "revenue": 0}, {"ein": "205845417", "name": "KOREAN AMERICAN PUBLIC AFFAIRS COMMITTEE INC", "city": "OYSTER BAY", "state": "NY", "zip": "11771-3310", "ntee": "S99", "ruling": "200806", "deductibility": "1", "assets": 0, "income": 0, "revenue": 0}, {"ein": "237367422", "name": "NATIONAL COUNCIL ON BLACK AMERICAN AFFAIRS", "city": "BRONX", "state": "NY", "zip": "10453-2804", "ntee": "", "ruling": "197405", "deductibility": "1", "assets": 336125, "income": 85598, "revenue": 85598}, {"ein": "260857477", "name": "SOUTH ASIAN-AMERICAN PUBLIC AFFAIRS COMMITTEE INC", "city": "OLD WESTBURY", "state": "NY", "zip": "11568-1521", "ntee": "S21", "ruling": "200805", "deductibility": "1", "assets": 0, "income": 0, "revenue": 0}, {"ein": "273319172", "name": "WORLD AFFAIRS COUNCIL OF ROCHESTER NY INC", "city": "ROCHESTER", "state": "NY", "zip": "14625-0462", "ntee": "Q20", "ruling": "201101", "deductibility": "1", "assets": 16427, "income": 102610, "revenue": 102610}, {"ein": "275284733", "name": "ITALIAN AMERICANS FOR COMMUNITY AFFAIRS INC", "city": "ASTORIA", "state": "NY", "zip": "11105-1578", "ntee": "A20", "ruling": "201809", "deductibility": "1", "assets": 0, "income": 0, "revenue": 0}, {"ein": "334059289", "name": "ASIAN PACIFIC AMERICAN PUBLIC AFFAIRS OF BUFFALO-NIAGARA", "city": "HAMBURG", "state": "NY", "zip": "14075-6021", "ntee": "A23", "ruling": "202506", "deductibility": "1", "assets": 0, "income": 0, "revenue": 0}, {"ein": "334503035", "name": "KUSH INSTITUTE OF INTERNATIONAL AFFAIRS INC", "city": "NEW YORK", "state": "NY", "zip": "10007-0103", "ntee": "B90", "ruling": "202506", "deductibility": "1", "assets": 0, "income": 0, "revenue": 0}, {"ein": "371148101", "name": "INSURANCE CONSUMER AFFAIRS EXCHANGE", "city": "NEW HYDE PARK", "state": "NY", "zip": "11040-0892", "ntee": "", "ruling": "198809", "deductibility": "2", "assets": 120335, "income": 100927, "revenue": 100927}, {"ein": "392096079", "name": "HISPANIC CULTURAL AFFAIRS ALLIANCE", "city": "PATCHOGUE", "state": "NY", "zip": "11772-3806", "ntee": "S20", "ruling": "202507", "deductibility": "1", "assets": 0, "income": 0, "revenue": 0}, {"ein": "452740872", "name": "URBAN PURPOSE FOR COMMUNITY AFFAIRS INC", "city": "FRESH MEADOWS", "state": "NY", "zip": "11365-2710", "ntee": "O50", "ruling": "201111", "deductibility": "1", "assets": 0, "income": 0, "revenue": 0}, {"ein": "453358954", "name": "WORLD AFFAIRS INC", "city": "DUANESBURG", "state": "NY", "zip": "12056-4447", "ntee": "M20", "ruling": "201203", "deductibility": "1", "assets": 29, "income": 0, "revenue": 0}, {"ein": "454396538", "name": "ASSOCIATION FOR STEWARTVILLE AFFAIRS INC", "city": "BROOKLYN", "state": "NY", "zip": "11221-5226", "ntee": "T99", "ruling": "201612", "deductibility": "1", "assets": 0, "income": 0, "revenue": 0}, {"ein": "464228857", "name": "PUBLIC AFFAIRS & MARKETING NETWORK", "city": "BUFFALO", "state": "NY", "zip": "14263-0001", "ntee": "S41", "ruling": "201810", "deductibility": "2", "assets": 367620, "income": 30790, "revenue": 30790}, {"ein": "472952920", "name": "SOKA GAKKAI INTERNATIONAL OFFICE FOR UN AFFAIRS CORPORATION", "city": "NEW YORK", "state": "NY", "zip": "10017-3562", "ntee": "Q42", "ruling": "201511", "deductibility": "1", "assets": 927256, "income": 1500113, "revenue": 0}, {"ein": "651188328", "name": "WORLD AFFAIRS COUNCIL OF THE MID-HUDSON VALLEY INC", "city": "POUGHKEEPSIE", "state": "NY", "zip": "12603-4427", "ntee": "V35", "ruling": "201012", "deductibility": "1", "assets": 0, "income": 0, "revenue": 0}, {"ein": "811614189", "name": "INSTITUTE FOR GLOBAL AFFAIRS INC", "city": "NEW YORK", "state": "NY", "zip": "10011-2490", "ntee": "Q20", "ruling": "201603", "deductibility": "1", "assets": 712185, "income": 1275394, "revenue": 1275394}, {"ein": "815311744", "name": "CORNELL INTERNATIONAL AFFAIRS SOCIETY INC", "city": "ITHACA", "state": "NY", "zip": "14850-6701", "ntee": "B99", "ruling": "201908", "deductibility": "1", "assets": 48622, "income": 142397, "revenue": 142397}, {"ein": "815468856", "name": "GLOBAL SIKH AFFAIRS MEDIA INC", "city": "ASTORIA", "state": "NY", "zip": "11101-1632", "ntee": "X84", "ruling": "201807", "deductibility": "1", "assets": 89139, "income": 348306, "revenue": 348306}, {"ein": "821160513", "name": "NY ASSOCIATION OF COMMUNITY COLLEGE CHIEF STUDENT AFFAIRS OFFICERS", "city": "KERHONKSON", "state": "NY", "zip": "12446-3411", "ntee": "B40", "ruling": "201704", "deductibility": "1", "assets": 0, "income": 0, "revenue": 0}, {"ein": "824113233", "name": "NORTHWELL QUALITY AND MEDICAL AFFAIRS INC", "city": "WESTBURY", "state": "NY", "zip": "11590-1740", "ntee": "E11", "ruling": "201905", "deductibility": "1", "assets": 1, "income": 0, "revenue": 0}, {"ein": "830861938", "name": "U S COMMUNITY AFFAIRS BUREAU", "city": "JAMESTOWN", "state": "NY", "zip": "14701-3618", "ntee": "M99", "ruling": "202505", "deductibility": "1", "assets": 0, "income": 0, "revenue": 0}, {"ein": "861712486", "name": "AMERICAN CENTER FOR STRATEGIC AND INTERNATIONAL AFFAIRS", "city": "NEW YORK", "state": "NY", "zip": "10017-4395", "ntee": "T05", "ruling": "202502", "deductibility": "1", "assets": 1, "income": 0, "revenue": 0}, {"ein": "870722576", "name": "NIAGARA MILITARY AFFAIRS COUNCIL INC", "city": "NIAGARA FALLS", "state": "NY", "zip": "14304-0231", "ntee": "W20", "ruling": "200503", "deductibility": "2", "assets": 206616, "income": 45375, "revenue": 45375}, {"ein": "884140354", "name": "FAMILY AFFAIRS STOP THE VIOLENCE", "city": "ELMIRA", "state": "NY", "zip": "14901-2641", "ntee": "", "ruling": "202401", "deductibility": "1", "assets": 0, "income": 0, "revenue": 0}, {"ein": "923733843", "name": "PERSAUD COMMUNITY AFFAIRS PANTRY", "city": "QUEENS", "state": "NY", "zip": "11413-1605", "ntee": "K31", "ruling": "202312", "deductibility": "1", "assets": 1, "income": 0, "revenue": 0}], "BABE": [{"ein": "030484445", "name": "MID-ISLAND BABE RUTH LEAGUE INC", "city": "STATEN ISLAND", "state": "NY", "zip": "10314-0176", "ntee": "N99", "ruling": "201407", "deductibility": "1", "assets": 121318, "income": 55286, "revenue": 55286}, {"ein": "061360066", "name": "ONTEORA BABE RUTH LEAGUE INC", "city": "SHOKAN", "state": "NY", "zip": "12481-0002", "ntee": "", "ruling": "199306", "deductibility": "1", "assets": 9826, "income": 1, "revenue": 0}, {"ein": "116039844", "name": "BABE RUTH LEAGUE OF BALDWIN INC", "city": "BALDWIN", "state": "NY", "zip": "11510-4227", "ntee": "O50", "ruling": "201512", "deductibility": "1", "assets": 0, "income": 0, "revenue": 0}, {"ein": "141779620", "name": "RONDOUT VALLEY BABE RUTH LEAGUE", "city": "STONE RIDGE", "state": "NY", "zip": "12484-0831", "ntee": "N63", "ruling": "200206", "deductibility": "1", "assets": 0, "income": 0, "revenue": 0}, {"ein": "141803196", "name": "BETHLEHEM BABE RUTH INC", "city": "DELMAR", "state": "NY", "zip": "12054-0342", "ntee": "N63Z", "ruling": "199806", "deductibility": "1", "assets": 54080, "income": 143012, "revenue": 10286}, {"ein": "141985064", "name": "RYE BABE RUTH INC", "city": "RYE", "state": "NY", "zip": "10580-0872", "ntee": "N62", "ruling": "200708", "deductibility": "1", "assets": 65609, "income": 103450, "revenue": 103450}, {"ein": "161132634", "name": "JAMESTOWN BABE RUTH 13 YEAR OLD WORLD SERIES COMMITTEE INC", "city": "JAMESTOWN", "state": "NY", "zip": "14702-1103", "ntee": "N63Z", "ruling": "198008", "deductibility": "1", "assets": 64182, "income": 106093, "revenue": 103305}, {"ein": "161269491", "name": "MIDLAKES BABE RUTH BASEBALL", "city": "NEWARK", "state": "NY", "zip": "14513-9180", "ntee": "N63", "ruling": "200303", "deductibility": "1", "assets": 0, "income": 0, "revenue": 0}, {"ein": "161492005", "name": "ITHACA BABE RUTH LEAGUE INC", "city": "ITHACA", "state": "NY", "zip": "14851-0112", "ntee": "O21", "ruling": "199605", "deductibility": "1", "assets": 45717, "income": 98426, "revenue": 98426}, {"ein": "161546071", "name": "RIGHTEOUS BABE FOUNDATION INC", "city": "KENT LAKES", "state": "NY", "zip": "10512-8199", "ntee": "T20", "ruling": "199902", "deductibility": "1", "assets": 157, "income": 1, "revenue": 0}, {"ein": "264132474", "name": "POUGHKEEPSIE MID-HUDSON BABE RUTH BASEBALL INC", "city": "POUGHKEEPSIE", "state": "NY", "zip": "12601-0000", "ntee": "N60", "ruling": "201908", "deductibility": "1", "assets": 18133, "income": 140431, "revenue": 140431}, {"ein": "300380649", "name": "ALBANY BABE RUTH LEAGUE INC", "city": "ALBANY", "state": "NY", "zip": "12208-0913", "ntee": "N63", "ruling": "201401", "deductibility": "1", "assets": 0, "income": 0, "revenue": 0}, {"ein": "352245575", "name": "BRUNSWICK BABE RUTH", "city": "TROY", "state": "NY", "zip": "12180-9008", "ntee": "N63", "ruling": "201304", "deductibility": "1", "assets": 0, "income": 0, "revenue": 0}, {"ein": "421729546", "name": "NORTH SYRACUSE BABE RUTH LEAGUE INC", "city": "CENTRAL SQ", "state": "NY", "zip": "13036-0362", "ntee": "O50", "ruling": "200710", "deductibility": "1", "assets": 0, "income": 0, "revenue": 0}, {"ein": "461751260", "name": "SOUTH COLONIE BABE RUTH BASEBALL LEAGUE INC", "city": "ALBANY", "state": "NY", "zip": "12212-3222", "ntee": "N63", "ruling": "201410", "deductibility": "1", "assets": 8603, "income": 56160, "revenue": 56160}, {"ein": "472849398", "name": "VALLEY BABE RUTH LEAGUE OF CNY INC", "city": "SYRACUSE", "state": "NY", "zip": "13219-1536", "ntee": "N63", "ruling": "201502", "deductibility": "1", "assets": 0, "income": 0, "revenue": 0}, {"ein": "473210620", "name": "EAST FISHKILL BABE RUTH LEAGUE INC", "city": "HOPEWELL JCT", "state": "NY", "zip": "12533-1039", "ntee": "N63", "ruling": "201503", "deductibility": "1", "assets": 116896, "income": 89781, "revenue": 89781}, {"ein": "800479857", "name": "SCHENECTADY BABE RUTH LEAGUE INC", "city": "SCHENECTADY", "state": "NY", "zip": "12301-0936", "ntee": "N63", "ruling": "202005", "deductibility": "1", "assets": 1, "income": 28941, "revenue": 28941}, {"ein": "800531459", "name": "JAMESTOWN BABE RUTH LEAGUE", "city": "JAMESTOWN", "state": "NY", "zip": "14702-0284", "ntee": "N63", "ruling": "201708", "deductibility": "1", "assets": 0, "income": 0, "revenue": 0}, {"ein": "820663631", "name": "NORTH TONAWANDA AMERICAN BABE RUTH BASEBALL LEAGUE INC", "city": "N TONAWANDA", "state": "NY", "zip": "14120-3733", "ntee": "N63", "ruling": "201804", "deductibility": "2", "assets": 18364, "income": 20062, "revenue": 19323}, {"ein": "900726092", "name": "ILION BABE RUTH", "city": "ILION", "state": "NY", "zip": "13357-2316", "ntee": "N63", "ruling": "202302", "deductibility": "1", "assets": 0, "income": 0, "revenue": 0}, {"ein": "922807705", "name": "HORSEHEADS BABE RUTH INC", "city": "HORSEHEADS", "state": "NY", "zip": "14845-0146", "ntee": "N63", "ruling": "202304", "deductibility": "1", "assets": 0, "income": 0, "revenue": 0}], "GALLERY": [{"ein": "030562344", "name": "SYLVIA WALD AND PO KIM ART GALLERY", "city": "NEW YORK", "state": "NY", "zip": "10003-7010", "ntee": "A50", "ruling": "200606", "deductibility": "1", "assets": 24895148, "income": 681393, "revenue": 0}, {"ein": "112368016", "name": "GALLERY NORTH INC", "city": "SETAUKET", "state": "NY", "zip": "11733-1345", "ntee": "A510", "ruling": "199703", "deductibility": "1", "assets": 4746975, "income": 2153357, "revenue": 1980808}, {"ein": "133102950", "name": "FIRST STREET GALLERY INC", "city": "NEW YORK", "state": "NY", "zip": "10001-5511", "ntee": "A51", "ruling": "200611", "deductibility": "1", "assets": 29572, "income": 91431, "revenue": 91431}, {"ein": "133171852", "name": "AMERICAN FRIENDS OF THE NATIONAL GALLERY OF AUSTRALIA INC", "city": "NEW YORK", "state": "NY", "zip": "10016-1935", "ntee": "Q112", "ruling": "199010", "deductibility": "1", "assets": 1289181, "income": 503346, "revenue": 503346}, {"ein": "133321549", "name": "AMERICAN FRIENDS OF THE NATIONAL GALLERY LONDON INC", "city": "NEW YORK", "state": "NY", "zip": "10001-3031", "ntee": "B117", "ruling": "198602", "deductibility": "1", "assets": 287376888, "income": 23413728, "revenue": 8010799}, {"ein": "133385363", "name": "RHOMBUS - AMOS ENO GALLERY INC", "city": "NEW YORK", "state": "NY", "zip": "10002-6440", "ntee": "A400", "ruling": "198712", "deductibility": "1", "assets": 16986, "income": 81307, "revenue": 81307}, {"ein": "133391212", "name": "LEHMAN COLLEGE ART GALLERY INC", "city": "BRONX", "state": "NY", "zip": "10468-1527", "ntee": "A510", "ruling": "198705", "deductibility": "1", "assets": 2051002, "income": 610295, "revenue": 610295}, {"ein": "133421353", "name": "AMERICAN PATRONS OF THE TATE GALLERY FOUNDATION INC", "city": "NEW YORK", "state": "NY", "zip": "10001-5533", "ntee": "A115", "ruling": "198712", "deductibility": "1", "assets": 0, "income": 0, "revenue": 0}, {"ein": "133459662", "name": "THE AMERICAN FRIENDS OF THE WHITECHAPEL GALLERY FOUNDATION INC", "city": "NEW YORK", "state": "NY", "zip": "10004-0000", "ntee": "", "ruling": "198902", "deductibility": "1", "assets": 33444, "income": 178500, "revenue": 178500}, {"ein": "133948717", "name": "THE JAZZ GALLERY", "city": "NEW YORK", "state": "NY", "zip": "10021-0012", "ntee": "A200", "ruling": "199707", "deductibility": "1", "assets": 1923270, "income": 1513909, "revenue": 1494954}, {"ein": "134131400", "name": "GALLERY OF ANGELS INCORPORATED", "city": "NEW YORK", "state": "NY", "zip": "10023-2138", "ntee": "A65", "ruling": "201603", "deductibility": "1", "assets": 0, "income": 0, "revenue": 0}, {"ein": "141398373", "name": "CANAJOHARIE LIBRARY & ART GALLERY", "city": "CANAJOHARIE", "state": "NY", "zip": "13317-1138", "ntee": "", "ruling": "202108", "deductibility": "1", "assets": 13537722, "income": 2092841, "revenue": 878955}, {"ein": "161554955", "name": "BREAKWATER GALLERY", "city": "CAPE VINCENT", "state": "NY", "zip": "13618-0848", "ntee": "", "ruling": "199811", "deductibility": "2", "assets": 0, "income": 0, "revenue": 0}, {"ein": "161561075", "name": "IMPACT ARTISTS GALLERY INC", "city": "BUFFALO", "state": "NY", "zip": "14201-1419", "ntee": "A40", "ruling": "200104", "deductibility": "1", "assets": 0, "income": 0, "revenue": 0}, {"ein": "203869806", "name": "HEART GALLERY NYC INC", "city": "HUDSON", "state": "NY", "zip": "12534-0225", "ntee": "P31", "ruling": "200606", "deductibility": "1", "assets": 23036, "income": 39845, "revenue": 39845}, {"ein": "222260222", "name": "JOHN D BARROW COLLECTION OR ART GALLERY", "city": "SKANEATELES", "state": "NY", "zip": "13152-1341", "ntee": "", "ruling": "198005", "deductibility": "1", "assets": 2739208, "income": 846177, "revenue": 330809}, {"ein": "222585458", "name": "THE SMITHY-PIONEER GALLERY INC", "city": "COOPERSTOWN", "state": "NY", "zip": "13326-1249", "ntee": "", "ruling": "198502", "deductibility": "1", "assets": 2335906, "income": 577078, "revenue": 423286}, {"ein": "237286736", "name": "GALLERY PLAYERS INC", "city": "BROOKLYN", "state": "NY", "zip": "11215-8035", "ntee": "", "ruling": "198101", "deductibility": "1", "assets": 279349, "income": 206825, "revenue": 206825}, {"ein": "263572080", "name": "AMERICAN FRIENDS OF THE NATIONAL GALLERY OF CANADA INC", "city": "NEW YORK", "state": "NY", "zip": "10001-7604", "ntee": "A19", "ruling": "200903", "deductibility": "1", "assets": 115174, "income": 28217, "revenue": 28217}, {"ein": "273661294", "name": "OPEN SOURCE GALLERY INC", "city": "BROOKLYN", "state": "NY", "zip": "11215-6974", "ntee": "A20", "ruling": "201106", "deductibility": "1", "assets": 467912, "income": 1000829, "revenue": 996094}, {"ein": "300709843", "name": "TOWN HOUSE ART GALLERY INC", "city": "NEW YORK CITY", "state": "NY", "zip": "10156-0243", "ntee": "A20", "ruling": "201706", "deductibility": "1", "assets": 0, "income": 0, "revenue": 0}, {"ein": "334551615", "name": "LITTLEST PEANUT GALLERY CORPORATION", "city": "NEW YORK", "state": "NY", "zip": "10017-3549", "ntee": "A20", "ruling": "202506", "deductibility": "1", "assets": 0, "income": 0, "revenue": 0}, {"ein": "352869895", "name": "THE GALLERY OF SHORTHAND", "city": "CENTRAL ISLIP", "state": "NY", "zip": "11722-4438", "ntee": "B99", "ruling": "202411", "deductibility": "1", "assets": 0, "income": 0, "revenue": 0}, {"ein": "412251144", "name": "THE LONGYEAR GALLERY INC", "city": "MARGARETVILLE", "state": "NY", "zip": "12455-1102", "ntee": "A20", "ruling": "200904", "deductibility": "1", "assets": 14338, "income": 53126, "revenue": 0}, {"ein": "465615613", "name": "TIVOLI ARTISTS GALLERY LTD", "city": "TIVOLI", "state": "NY", "zip": "12583-0002", "ntee": "A20", "ruling": "201504", "deductibility": "1", "assets": 25401, "income": 59986, "revenue": 26080}, {"ein": "473346590", "name": "TAINO TOWERS COMMUNITY GALLERY INC", "city": "NEW YOK", "state": "NY", "zip": "10035-2012", "ntee": "A20", "ruling": "201807", "deductibility": "1", "assets": 1, "income": 0, "revenue": 0}, {"ein": "474837691", "name": "AMERICAN FRIENDS OF THE NATIONAL GALLERY OF IRELAND INC", "city": "NEW YORK", "state": "NY", "zip": "10001-3031", "ntee": "A11", "ruling": "201510", "deductibility": "1", "assets": 1470904, "income": 106089, "revenue": 106089}, {"ein": "571174277", "name": "BLUE DOOR ART GALLERY", "city": "YONKERS", "state": "NY", "zip": "10701-3554", "ntee": "A40", "ruling": "200410", "deductibility": "1", "assets": 65509, "income": 236526, "revenue": 221775}, {"ein": "753250163", "name": "FOTOFOTO GALLERY LTD", "city": "HUNTINGTON", "state": "NY", "zip": "11743-3322", "ntee": "A25", "ruling": "201010", "deductibility": "1", "assets": 0, "income": 0, "revenue": 0}, {"ein": "800490022", "name": "CARRIAGE TRADE GALLERY CORPORATION", "city": "NEW YORK", "state": "NY", "zip": "10002-4469", "ntee": "A51", "ruling": "201205", "deductibility": "1", "assets": 24581, "income": 106896, "revenue": 106896}, {"ein": "800575894", "name": "REAL STORIES GALLERY FOUNDATION", "city": "NEW YORK", "state": "NY", "zip": "10035-2780", "ntee": "A99", "ruling": "201102", "deductibility": "1", "assets": 87, "income": 1434, "revenue": 0}, {"ein": "832719432", "name": "MENTAL HEALTH AWARENESS & CREATIVE ARTS GALLERY INC", "city": "PHILMONT", "state": "NY", "zip": "12565-0543", "ntee": "A51", "ruling": "202101", "deductibility": "1", "assets": 0, "income": 0, "revenue": 0}, {"ein": "841786164", "name": "SUMMERTIME GALLERY INC", "city": "BROOKLYN", "state": "NY", "zip": "11211-4809", "ntee": "A25", "ruling": "202001", "deductibility": "1", "assets": 136995, "income": 287877, "revenue": 279225}, {"ein": "851256797", "name": "GALLERY 23 NY INC", "city": "BROOKLYN", "state": "NY", "zip": "11231-3247", "ntee": "A20", "ruling": "202403", "deductibility": "1", "assets": 0, "income": 0, "revenue": 0}, {"ein": "872592084", "name": "THE MUSE GALLERY INC", "city": "BRONX", "state": "NY", "zip": "10473-2902", "ntee": "A99", "ruling": "202203", "deductibility": "1", "assets": 0, "income": 0, "revenue": 0}, {"ein": "872746801", "name": "THE ARTIST LIVES GALLERY INC", "city": "NEW YORK", "state": "NY", "zip": "10128-7615", "ntee": "A99", "ruling": "202306", "deductibility": "1", "assets": 0, "income": 0, "revenue": 0}, {"ein": "912108038", "name": "COOPERATIVE GALLERY 213 ON STATE STREET", "city": "JOHNSON CITY", "state": "NY", "zip": "13790-4516", "ntee": "A40", "ruling": "200506", "deductibility": "2", "assets": 0, "income": 0, "revenue": 0}, {"ein": "923565560", "name": "GALLERY 5 SCHENECTADY INC", "city": "SCHENECTADY", "state": "NY", "zip": "12305-2538", "ntee": "A20", "ruling": "202405", "deductibility": "1", "assets": 0, "income": 0, "revenue": 0}, {"ein": "931543527", "name": "HUNT GALLERY ARTISTS AND RESIDENTS", "city": "DEPEW", "state": "NY", "zip": "14043-1819", "ntee": "A90", "ruling": "202407", "deductibility": "1", "assets": 298, "income": 5541, "revenue": 5541}, {"ein": "934008560", "name": "PARENT COMPANY GALLERY INC", "city": "NEW YORK", "state": "NY", "zip": "10002-6326", "ntee": "A20", "ruling": "202311", "deductibility": "1", "assets": 0, "income": 0, "revenue": 0}], "AUTISMUP": [{"ein": "043833868", "name": "AUTISMUP INC", "city": "ROCHESTER", "state": "NY", "zip": "14620-4264", "ntee": "G84", "ruling": "200603", "deductibility": "1", "assets": 2036866, "income": 2186511, "revenue": 2050372}], "EPHESIANS": [{"ein": "061054620", "name": "UNITED EPHESIANS CHURCH INC", "city": "CYPRESS HILL", "state": "NY", "zip": "11208-1416", "ntee": "", "ruling": "198603", "deductibility": "1", "assets": 0, "income": 0, "revenue": 0}], "TRIUMPHANT": [{"ein": "061600864", "name": "TRIUMPHANT CHRISTIAN CENTER", "city": "BRONX", "state": "NY", "zip": "10473-4416", "ntee": "X20", "ruling": "200103", "deductibility": "1", "assets": 0, "income": 0, "revenue": 0}, {"ein": "112522268", "name": "TRIUMPHANT FULL GOSPEL ASSEMBLY INC", "city": "BROOKLYN", "state": "NY", "zip": "11203-1912", "ntee": "", "ruling": "198102", "deductibility": "1", "assets": 0, "income": 0, "revenue": 0}, {"ein": "112909083", "name": "TRIUMPHANT APOSTOLIC CHURCH OF J C INC", "city": "BROOKLYN", "state": "NY", "zip": "11212-2729", "ntee": "", "ruling": "199412", "deductibility": "1", "assets": 0, "income": 0, "revenue": 0}, {"ein": "112965450", "name": "TRIUMPHANT NEW DESTINY MINISTRIES INC", "city": "BROOKLYN", "state": "NY", "zip": "11221-5122", "ntee": "", "ruling": "199102", "deductibility": "1", "assets": 0, "income": 0, "revenue": 0}, {"ein": "113079886", "name": "TRIUMPHANT AGAPE HOUSE INC", "city": "NORTH BALDWIN", "state": "NY", "zip": "11510-1234", "ntee": "", "ruling": "199412", "deductibility": "1", "assets": 0, "income": 0, "revenue": 0}, {"ein": "113084838", "name": "TRIUMPHANT BIBLE CHURCH OF GOD INC", "city": "BROOKLYN", "state": "NY", "zip": "11213-5618", "ntee": "", "ruling": "199203", "deductibility": "1", "assets": 0, "income": 0, "revenue": 0}, {"ein": "113130004", "name": "TRIUMPHANT CHURCH OF JESUS CHRIST INC", "city": "BROOKLYN", "state": "NY", "zip": "11212-0332", "ntee": "", "ruling": "199304", "deductibility": "1", "assets": 0, "income": 0, "revenue": 0}, {"ein": "113476416", "name": "TRIUMPHANT CHURCH OF GOD", "city": "BROOKLYN", "state": "NY", "zip": "11212-3837", "ntee": "X20", "ruling": "199912", "deductibility": "1", "assets": 0, "income": 0, "revenue": 0}, {"ein": "113522496", "name": "TRIUMPHANT DELIVERANCE CHURCH OF GOD INTERNATIONAL", "city": "BROOKLYN", "state": "NY", "zip": "11203-5917", "ntee": "X20", "ruling": "200004", "deductibility": "1", "assets": 0, "income": 0, "revenue": 0}, {"ein": "133080790", "name": "TRIUMPHANT CHURCH OF GOD OF JAMAICA CONGREGATIONAL INC", "city": "BRONX", "state": "NY", "zip": "10467-5710", "ntee": "", "ruling": "198607", "deductibility": "1", "assets": 0, "income": 0, "revenue": 0}, {"ein": "133774459", "name": "BRONX TRIUMPHANT CHURCH OF GOD", "city": "BRONX", "state": "NY", "zip": "10469-1209", "ntee": "X20", "ruling": "199905", "deductibility": "1", "assets": 0, "income": 0, "revenue": 0}, {"ein": "141804480", "name": "TRIUMPHANT FELLOWSHIP MINISTRY", "city": "ALBANY", "state": "NY", "zip": "12204-1506", "ntee": "X20H", "ruling": "199812", "deductibility": "1", "assets": 0, "income": 0, "revenue": 0}, {"ein": "161142186", "name": "TRIUMPHANT FAITH A CHURCH OF THE LIVING GOD", "city": "GENEVA", "state": "NY", "zip": "14456-1742", "ntee": "", "ruling": "198105", "deductibility": "1", "assets": 0, "income": 0, "revenue": 0}, {"ein": "161514161", "name": "MOUNT TRIUMPHANT CHURCH OF GOD INC", "city": "CLINTONDALE", "state": "NY", "zip": "12515-0497", "ntee": "X20Z", "ruling": "199812", "deductibility": "1", "assets": 0, "income": 0, "revenue": 0}, {"ein": "202548063", "name": "TRIUMPHANT LIFE CHURCH INC", "city": "BRONX", "state": "NY", "zip": "10470-1609", "ntee": "X20", "ruling": "201304", "deductibility": "1", "assets": 0, "income": 0, "revenue": 0}, {"ein": "204056883", "name": "TRIUMPHANT APOSTOLIC CHURCH OF JESUS CHRIST", "city": "POUGHKEEPSIE", "state": "NY", "zip": "12601-4410", "ntee": "X21", "ruling": "200612", "deductibility": "1", "assets": 0, "income": 0, "revenue": 0}, {"ein": "264203031", "name": "VICTORIOUS TRIUMPHANT WORD INTERNATIONAL CHURCH INC", "city": "BROOKLYN", "state": "NY", "zip": "11230-1921", "ntee": "X20", "ruling": "201201", "deductibility": "1", "assets": 0, "income": 0, "revenue": 0}, {"ein": "273973112", "name": "TEAM TRIUMPHANT", "city": "BROOKLYN", "state": "NY", "zip": "11233-5932", "ntee": "S20", "ruling": "202305", "deductibility": "1", "assets": 0, "income": 0, "revenue": 0}, {"ein": "331038748", "name": "TRIUMPHANT CHURCH OF JESUS CHRIST NO 3 INC", "city": "BROOKLYN", "state": "NY", "zip": "11208-1251", "ntee": "X20", "ruling": "200406", "deductibility": "1", "assets": 0, "income": 0, "revenue": 0}, {"ein": "472332197", "name": "FIRST COMMUNITY TRIUMPHANT CATHEDRAL", "city": "BROOKLYN", "state": "NY", "zip": "11203-2916", "ntee": "X21", "ruling": "201507", "deductibility": "1", "assets": 0, "income": 0, "revenue": 0}, {"ein": "475022605", "name": "TRIUMPHANT TABERNACLE", "city": "YONKERS", "state": "NY", "zip": "10705-1810", "ntee": "X20", "ruling": "201603", "deductibility": "1", "assets": 9040, "income": 43997, "revenue": 43997}, {"ein": "510174602", "name": "CHURCH UNIVERSAL AND TRIUMPHANT", "city": "NEW YORK", "state": "NY", "zip": "10001-5358", "ntee": "", "ruling": "197511", "deductibility": "1", "assets": 0, "income": 0, "revenue": 0}, {"ein": "824941025", "name": "CALVARY TRIUMPHANT DELIVERANCE TEMPLE", "city": "BRONX", "state": "NY", "zip": "10467-6012", "ntee": "X20", "ruling": "202003", "deductibility": "1", "assets": 0, "income": 0, "revenue": 0}, {"ein": "830521146", "name": "RCCG TRIUMPHANT CHAPEL", "city": "LYNBROOK", "state": "NY", "zip": "11563-1525", "ntee": "X20", "ruling": "202301", "deductibility": "1", "assets": 0, "income": 0, "revenue": 0}, {"ein": "861578086", "name": "TRIUMPHANT HANDS A NJ NONPROFIT CORPORATION", "city": "HARRIMAN", "state": "NY", "zip": "10926-3802", "ntee": "P01", "ruling": "202108", "deductibility": "1", "assets": 36575, "income": 285454, "revenue": 285454}, {"ein": "923461488", "name": "C&SMC TRIUMPHANT CHAPEL NY INC", "city": "JAMAICA", "state": "NY", "zip": "11434-2254", "ntee": "X20", "ruling": "202401", "deductibility": "1", "assets": 1, "income": 0, "revenue": 0}, {"ein": "943444058", "name": "TRIUMPHANT LIFE CHURCH", "city": "ENDWELL", "state": "NY", "zip": "13760-5938", "ntee": "X20", "ruling": "201005", "deductibility": "1", "assets": 0, "income": 0, "revenue": 0}], "JOHNS": [{"ein": "111630830", "name": "ST JOHNS UNIVERSITY NEW YORK", "city": "JAMAICA", "state": "NY", "zip": "11439-9000", "ntee": "B430", "ruling": "194603", "deductibility": "1", "assets": 1697623845, "income": 980980971, "revenue": 799639612}, {"ein": "111639839", "name": "ST JOHNS CHURCH", "city": "COLD SPG HBR", "state": "NY", "zip": "11724-0266", "ntee": "", "ruling": "197206", "deductibility": "1", "assets": 0, "income": 0, "revenue": 0}, {"ein": "111666870", "name": "ST JOHNS CHURCH PARK SLOPE", "city": "BROOKLYN", "state": "NY", "zip": "11217-3401", "ntee": "", "ruling": "197206", "deductibility": "1", "assets": 0, "income": 0, "revenue": 0}, {"ein": "111672798", "name": "ST JOHNS CHURCH", "city": "FLUSHING", "state": "NY", "zip": "11355-1038", "ntee": "", "ruling": "197206", "deductibility": "1", "assets": 0, "income": 0, "revenue": 0}, {"ein": "111731857", "name": "ST JOHNS EVANGELICAL LUTHERAN CHURCH", "city": "COLLEGE POINT", "state": "NY", "zip": "11356-0000", "ntee": "", "ruling": "194107", "deductibility": "1", "assets": 0, "income": 0, "revenue": 0}, {"ein": "111733438", "name": "SAINT JOHNS ENGLISH EVANGELICAL LUTHERAN CHURCH OF RICHMOND HILL", "city": "RICHMOND HILL", "state": "NY", "zip": "11418-1730", "ntee": "", "ruling": "198804", "deductibility": "1", "assets": 0, "income": 0, "revenue": 0}, {"ein": "111873619", "name": "ST JOHNS CHURCH", "city": "HUNTINGTON", "state": "NY", "zip": "11743-3375", "ntee": "", "ruling": "197206", "deductibility": "1", "assets": 0, "income": 0, "revenue": 0}, {"ein": "111957660", "name": "ST JOHNS GERMAN EVANGELICAL LUTHERA N CHURCH", "city": "BROOKLYN", "state": "NY", "zip": "11222-0072", "ntee": "", "ruling": "198804", "deductibility": "1", "assets": 0, "income": 0, "revenue": 0}, {"ein": "111979751", "name": "ST JOHNS LUTHERAN CHURCH", "city": "WILLISTON PK", "state": "NY", "zip": "11596-1850", "ntee": "", "ruling": "194107", "deductibility": "1", "assets": 0, "income": 0, "revenue": 0}, {"ein": "112016057", "name": "ST JOHNS EVANGELICAL LUTHERAN CHURCH", "city": "SAYVILLE", "state": "NY", "zip": "11782-2734", "ntee": "", "ruling": "194107", "deductibility": "1", "assets": 0, "income": 0, "revenue": 0}, {"ein": "112128161", "name": "ST JOHNS CHURCH", "city": "SOUTHAMPTON", "state": "NY", "zip": "11969-5068", "ntee": "", "ruling": "197206", "deductibility": "1", "assets": 0, "income": 0, "revenue": 0}, {"ein": "112325082", "name": "TRINITY-ST JOHNS CHURCH", "city": "HEWLETT", "state": "NY", "zip": "11557-2302", "ntee": "", "ruling": "197206", "deductibility": "1", "assets": 0, "income": 0, "revenue": 0}, {"ein": "112425402", "name": "SAINT JOHNS PREPARATORY SCHOOL", "city": "LONG IS CITY", "state": "NY", "zip": "11105-3354", "ntee": "", "ruling": "194603", "deductibility": "1", "assets": 0, "income": 0, "revenue": 0}, {"ein": "112669293", "name": "ST JOHNS CHURCH", "city": "LYNBROOK", "state": "NY", "zip": "11563-2505", "ntee": "", "ruling": "197206", "deductibility": "1", "assets": 0, "income": 0, "revenue": 0}, {"ein": "112679067", "name": "ST JOHNS CHURCH", "city": "SPRNGFLD GDNS", "state": "NY", "zip": "11413-2619", "ntee": "", "ruling": "197206", "deductibility": "1", "assets": 0, "income": 0, "revenue": 0}, {"ein": "112681261", "name": "SAINT JOHNS BAPTIST CHURCH OF COPIAGUE NEW YORK", "city": "COPIAGUE", "state": "NY", "zip": "11726-1421", "ntee": "X21", "ruling": "200008", "deductibility": "1", "assets": 0, "income": 0, "revenue": 0}, {"ein": "112685413", "name": "REDEEMER ST JOHNS NURSERY SCHOOL", "city": "BROOKLYN", "state": "NY", "zip": "11228-2817", "ntee": "", "ruling": "198804", "deductibility": "1", "assets": 0, "income": 0, "revenue": 0}, {"ein": "112692159", "name": "ST JOHNS BAPTIST CHURCH OF INWOOD LONG ISLAND NEW YORK", "city": "INWOOD", "state": "NY", "zip": "11096-2213", "ntee": "", "ruling": "200109", "deductibility": "1", "assets": 0, "income": 0, "revenue": 0}, {"ein": "112694795", "name": "STUDENT GOVERNMENT ST JOHNS QUEENS CAMPUS INC", "city": "JAMAICA", "state": "NY", "zip": "11439-9000", "ntee": "B80Z", "ruling": "199802", "deductibility": "1", "assets": 649531, "income": 855524, "revenue": 855524}, {"ein": "112698458", "name": "SAINT JOHNS SENIOR CITIZEN HOUSING DEVELOPMENT FUND COMPANY INC", "city": "HICKSVILLE", "state": "NY", "zip": "11801-6232", "ntee": "", "ruling": "198411", "deductibility": "1", "assets": 5880212, "income": 2449574, "revenue": 2449574}, {"ein": "112857861", "name": "SAINT JOHNS COMMUNITY CATHOLIC APOSTOLIC CHURCH INC", "city": "QUEENS VILLAGE", "state": "NY", "zip": "11429-0000", "ntee": "", "ruling": "198901", "deductibility": "1", "assets": 0, "income": 0, "revenue": 0}, {"ein": "113026473", "name": "ST JOHNS CHURCH", "city": "FISHERS ISLE", "state": "NY", "zip": "06390-0505", "ntee": "", "ruling": "197206", "deductibility": "1", "assets": 0, "income": 0, "revenue": 0}, {"ein": "113026491", "name": "ST JOHNS CHURCH", "city": "OAKDALE", "state": "NY", "zip": "11769-1701", "ntee": "", "ruling": "197206", "deductibility": "1", "assets": 0, "income": 0, "revenue": 0}, {"ein": "113037036", "name": "ST JOHNS BAPTIST CHURCH OF LAKEVIEW INC", "city": "W HEMPSTEAD", "state": "NY", "zip": "11552-4209", "ntee": "X21Z", "ruling": "199611", "deductibility": "1", "assets": 0, "income": 0, "revenue": 0}, {"ein": "113093436", "name": "ST JOHNS MAR THOMA CHURCH INC", "city": "QUEENS VILLAGE", "state": "NY", "zip": "11428-0000", "ntee": "", "ruling": "199308", "deductibility": "1", "assets": 0, "income": 0, "revenue": 0}, {"ein": "113094604", "name": "ST JOHNS GLOBAL MINISTRIES OF THE KINGDOM", "city": "JAMAICA", "state": "NY", "zip": "11434-7209", "ntee": "X21", "ruling": "199905", "deductibility": "1", "assets": 0, "income": 0, "revenue": 0}, {"ein": "113107075", "name": "GREATER ST JOHNS BAPTIST CHURCH", "city": "ST ALBANS", "state": "NY", "zip": "11412-3022", "ntee": "", "ruling": "197705", "deductibility": "1", "assets": 0, "income": 0, "revenue": 0}, {"ein": "113174514", "name": "ST JOHNS BREAD & LIFE PROGRAM INC", "city": "BROOKLYN", "state": "NY", "zip": "11221-2903", "ntee": "K300", "ruling": "194603", "deductibility": "1", "assets": 9773508, "income": 8083221, "revenue": 8028495}, {"ein": "113307242", "name": "ST JOHNS RESIDENCE FOR BOYS INC", "city": "ROCKAWAY PARK", "state": "NY", "zip": "11694-2505", "ntee": "P70", "ruling": "201501", "deductibility": "1", "assets": 17155889, "income": 12023852, "revenue": 12009452}, {"ein": "113346095", "name": "ST JOHNS APOSTOLIC SPIRITUAL CHURCH FOR ALL PEOPLE", "city": "BROOKLYN", "state": "NY", "zip": "11212-1349", "ntee": "X20I", "ruling": "199803", "deductibility": "1", "assets": 0, "income": 0, "revenue": 0}, {"ein": "113557478", "name": "ST JOHNS PLACE FAMILY CENTER DAY CARE CORPORATION", "city": "NEW YORK", "state": "NY", "zip": "10018-5706", "ntee": "P33", "ruling": "201108", "deductibility": "1", "assets": 0, "income": 0, "revenue": 0}, {"ein": "116002301", "name": "ST JOHNS EVANGELICAL LUTHERAN CHURCH", "city": "LINDENHURST", "state": "NY", "zip": "11757-4159", "ntee": "", "ruling": "198804", "deductibility": "1", "assets": 0, "income": 0, "revenue": 0}, {"ein": "116080932", "name": "ST JOHNS BAPTIST CHURCH INC", "city": "WESTBURY", "state": "NY", "zip": "11590-0681", "ntee": "X20Z", "ruling": "199801", "deductibility": "1", "assets": 0, "income": 0, "revenue": 0}, {"ein": "131740126", "name": "ST JOHNS RIVERSIDE HOSPITAL", "city": "YONKERS", "state": "NY", "zip": "10701-1301", "ntee": "E220", "ruling": "194508", "deductibility": "1", "assets": 171160338, "income": 314286986, "revenue": 314133493}, {"ein": "131982722", "name": "ST JOHNS OF LATTINGTOWN CHURCH", "city": "LOCUST VALLEY", "state": "NY", "zip": "11560-1022", "ntee": "", "ruling": "197206", "deductibility": "1", "assets": 0, "income": 0, "revenue": 0}, {"ein": "133185190", "name": "ST JOHNS APOSTOLIC FAITH CHURCH OF GOD INC", "city": "BRONX", "state": "NY", "zip": "10457-6902", "ntee": "X20", "ruling": "200104", "deductibility": "1", "assets": 0, "income": 0, "revenue": 0}, {"ein": "133441465", "name": "ST JOHNS PLACE FAMILY CENTER HOUSING DEVELOPMENT FUND CORPORATI", "city": "NEW YORK", "state": "NY", "zip": "10018-5706", "ntee": "L41", "ruling": "198808", "deductibility": "1", "assets": 65914827, "income": 4032561, "revenue": 4032561}, {"ein": "133467372", "name": "ST JOHNS MALANKARA SYRIAN ORTHODX CHURCH INC", "city": "STATEN ISLAND", "state": "NY", "zip": "10314-1206", "ntee": "", "ruling": "199003", "deductibility": "1", "assets": 0, "income": 0, "revenue": 0}, {"ein": "133539498", "name": "ST JOHNS BAPTIST CHURCH", "city": "NEW YORK", "state": "NY", "zip": "10031-1814", "ntee": "", "ruling": "195504", "deductibility": "1", "assets": 0, "income": 0, "revenue": 0}, {"ein": "133632175", "name": "ST JOHNS COMMUNITY HOUSING DEVELOPMENT FUND CORP", "city": "NEW YORK", "state": "NY", "zip": "10115-0002", "ntee": "B80Z", "ruling": "199202", "deductibility": "1", "assets": 1119547, "income": 1392753, "revenue": 1392753}, {"ein": "135600393", "name": "ST JOHNS CHURCH", "city": "NEW YORK", "state": "NY", "zip": "10014-2405", "ntee": "", "ruling": "194001", "deductibility": "1", "assets": 0, "income": 0, "revenue": 0}, {"ein": "141405326", "name": "ST JOHNS EVANGELICAL LUTHERAN CHURCH", "city": "ALBANY", "state": "NY", "zip": "12205-2928", "ntee": "", "ruling": "198804", "deductibility": "1", "assets": 0, "income": 0, "revenue": 0}, {"ein": "141411218", "name": "ST JOHNS REFORMED CHURCH", "city": "RED HOOK", "state": "NY", "zip": "12571-2264", "ntee": "", "ruling": "196801", "deductibility": "1", "assets": 0, "income": 0, "revenue": 0}, {"ein": "141416737", "name": "EMANUEL-ST JOHNS LUTHERAN PARISH", "city": "VALATIE", "state": "NY", "zip": "12184-0127", "ntee": "", "ruling": "198804", "deductibility": "1", "assets": 0, "income": 0, "revenue": 0}, {"ein": "141467341", "name": "ST JOHNS EVANGELICAL LUTHERAN CHURCH", "city": "HUDSON", "state": "NY", "zip": "12534-1131", "ntee": "", "ruling": "198804", "deductibility": "1", "assets": 0, "income": 0, "revenue": 0}, {"ein": "141544699", "name": "ST JOHNS LUTHERAN CHURCH", "city": "MIDDLETOWN", "state": "NY", "zip": "10940-7135", "ntee": "", "ruling": "198804", "deductibility": "1", "assets": 0, "income": 0, "revenue": 0}, {"ein": "141562575", "name": "ST JOHNS LUTHERAN CHURCH", "city": "ALTAMONT", "state": "NY", "zip": "12009-0770", "ntee": "", "ruling": "198804", "deductibility": "1", "assets": 0, "income": 0, "revenue": 0}, {"ein": "146003513", "name": "ST JOHNS & ST MARKS LUTHERAN CHURCH", "city": "CANAJOHARIE", "state": "NY", "zip": "13317-0275", "ntee": "", "ruling": "198804", "deductibility": "1", "assets": 0, "income": 0, "revenue": 0}, {"ein": "146026224", "name": "ST JOHNS REFORMED CHURCH", "city": "SAINT JOHNSVILLE", "state": "NY", "zip": "13452-0000", "ntee": "", "ruling": "196801", "deductibility": "1", "assets": 0, "income": 0, "revenue": 0}, {"ein": "160122784", "name": "ST JOHNS LUTHERAN CHURCH", "city": "ELMA", "state": "NY", "zip": "14059-9364", "ntee": "", "ruling": "198804", "deductibility": "1", "assets": 0, "income": 0, "revenue": 0}, {"ein": "160743158", "name": "ST JOHNS HOME FOR THE AGING", "city": "ROCHESTER", "state": "NY", "zip": "14620-3024", "ntee": "P750", "ruling": "199508", "deductibility": "1", "assets": 22781339, "income": 10920885, "revenue": 10920885}, {"ein": "160755845", "name": "ST JOHNS LUTHERAN CHURCH", "city": "LANCASTER", "state": "NY", "zip": "14086-2173", "ntee": "", "ruling": "198804", "deductibility": "1", "assets": 0, "income": 0, "revenue": 0}, {"ein": "160839199", "name": "SAINT JOHNS LUTHERAN CHURCH", "city": "ORCHARD PARK", "state": "NY", "zip": "14127-2915", "ntee": "", "ruling": "194107", "deductibility": "1", "assets": 0, "income": 0, "revenue": 0}, {"ein": "160862939", "name": "ST JOHNS EVANGELICAL LUTHERAN CHURCH", "city": "WEST SENECA", "state": "NY", "zip": "14224-1401", "ntee": "", "ruling": "198804", "deductibility": "1", "assets": 0, "income": 0, "revenue": 0}, {"ein": "160921758", "name": "ST JOHNS UKRAINIAN SOCIAL CLUB INC", "city": "JOHNSON CITY", "state": "NY", "zip": "13790-1671", "ntee": "", "ruling": "195710", "deductibility": "2", "assets": 29438, "income": 74081, "revenue": 35372}, {"ein": "160926905", "name": "ST JOHNS UKRAINIAN ORTHODOX CHURCH", "city": "JOHNSON CITY", "state": "NY", "zip": "13790-1699", "ntee": "", "ruling": "199108", "deductibility": "1", "assets": 0, "income": 0, "revenue": 0}, {"ein": "160955795", "name": "ST JOHNS COMMUNITY NURSERY SCHOOL", "city": "BUFFALO", "state": "NY", "zip": "14224-1401", "ntee": "", "ruling": "198804", "deductibility": "1", "assets": 0, "income": 0, "revenue": 0}, {"ein": "161001449", "name": "ST JOHNS CHRISTIAN PRESCHOOL", "city": "ORCHARD PARK", "state": "NY", "zip": "14127-2915", "ntee": "", "ruling": "194107", "deductibility": "1", "assets": 0, "income": 0, "revenue": 0}, {"ein": "161113093", "name": "ST JOHNS CHRISTIAN PRESCHOOL", "city": "FARMINGTON", "state": "NY", "zip": "14425-7025", "ntee": "", "ruling": "194107", "deductibility": "1", "assets": 0, "income": 0, "revenue": 0}, {"ein": "161126745", "name": "ST JOHNS LUTHERAN CHURCH", "city": "LYNDONVILLE", "state": "NY", "zip": "14098-0206", "ntee": "", "ruling": "198804", "deductibility": "0", "assets": 0, "income": 0, "revenue": 0}, {"ein": "161208622", "name": "ST JOHNS HIKING AND CAMPING ASSOCIATION INC", "city": "KENMORE", "state": "NY", "zip": "14223-1901", "ntee": "", "ruling": "198710", "deductibility": "1", "assets": 0, "income": 0, "revenue": 0}, {"ein": "161229433", "name": "ST JOHNS LUTHERAN CHURCH", "city": "LYONS", "state": "NY", "zip": "14489-0037", "ntee": "", "ruling": "198804", "deductibility": "1", "assets": 0, "income": 0, "revenue": 0}, {"ein": "161423452", "name": "ST JOHNS HOME FOUNDATION INC", "city": "ROCHESTER", "state": "NY", "zip": "14620-3024", "ntee": "P70Z", "ruling": "199302", "deductibility": "1", "assets": 2311696, "income": 1090196, "revenue": 553727}, {"ein": "161469476", "name": "ST JOHNS HEALTH CARE CORPORATION", "city": "ROCHESTER", "state": "NY", "zip": "14620-3024", "ntee": "E910", "ruling": "199508", "deductibility": "1", "assets": 22609348, "income": 40212073, "revenue": 40212073}, {"ein": "161473576", "name": "ST JOHNS UNITED CHURCH OF CHRIST", "city": "STRYKERSVILLE", "state": "NY", "zip": "14145-9551", "ntee": "", "ruling": "196406", "deductibility": "0", "assets": 0, "income": 0, "revenue": 0}, {"ein": "161547180", "name": "ST JOHNS SENIOR SERVICES INC", "city": "ROCHESTER", "state": "NY", "zip": "14620-3024", "ntee": "P81Z", "ruling": "199809", "deductibility": "1", "assets": 0, "income": 0, "revenue": 0}, {"ein": "161550026", "name": "ZION ST JOHNS EVANGELICAL LUTHERAN CHURCH", "city": "COBLESKILL", "state": "NY", "zip": "12043-7029", "ntee": "", "ruling": "198804", "deductibility": "1", "assets": 0, "income": 0, "revenue": 0}, {"ein": "161612816", "name": "ST JOHNS EVANGELICAL LUTHERAN CHURCH", "city": "LYNDONVILLE", "state": "NY", "zip": "14098-0000", "ntee": "", "ruling": "198904", "deductibility": "1", "assets": 0, "income": 0, "revenue": 0}, {"ein": "166001192", "name": "SAINT JOHNS LUTHERAN", "city": "DEPEW", "state": "NY", "zip": "14043-3207", "ntee": "", "ruling": "194107", "deductibility": "1", "assets": 0, "income": 0, "revenue": 0}, {"ein": "166025688", "name": "ST JOHNS LUTHERAN HOME FOR CHILDREN", "city": "TONAWANDA", "state": "NY", "zip": "14151-0441", "ntee": "", "ruling": "194306", "deductibility": "1", "assets": 1155556, "income": 136657, "revenue": 136657}, {"ein": "166038244", "name": "ST JOHNS LUTHERAN CHURCH", "city": "FARMINGTON", "state": "NY", "zip": "14425-7025", "ntee": "", "ruling": "194107", "deductibility": "1", "assets": 0, "income": 0, "revenue": 0}, {"ein": "166132995", "name": "ST JOHNS LUTHERAN CHURCH OF FREYSBUSH", "city": "FORT PLAIN", "state": "NY", "zip": "13339-0000", "ntee": "", "ruling": "198804", "deductibility": "1", "assets": 0, "income": 0, "revenue": 0}, {"ein": "256393722", "name": "M BEAVER TRUST FBO ST JOHNS EPISCOPAL CH", "city": "BUFFALO", "state": "NY", "zip": "14240-1504", "ntee": "T20", "ruling": "200509", "deductibility": "1", "assets": 517530, "income": 148690, "revenue": 0}, {"ein": "261431801", "name": "ST JOHNS LODGE NO 1 FOUNDATION INC", "city": "NEW YORK", "state": "NY", "zip": "10010-4102", "ntee": "A99", "ruling": "201409", "deductibility": "1", "assets": 0, "income": 0, "revenue": 0}, {"ein": "271719737", "name": "ST JOHNS SYRIAC ORTHODOX CHURCH INC", "city": "WHITE PLAINS", "state": "NY", "zip": "10605-1801", "ntee": "X20", "ruling": "201711", "deductibility": "1", "assets": 0, "income": 0, "revenue": 0}, {"ein": "452195368", "name": "ST JOHNS PENFIELD HOMES CORPORATION", "city": "ROCHESTER", "state": "NY", "zip": "14620-3024", "ntee": "E91", "ruling": "201208", "deductibility": "1", "assets": 5253838, "income": 3324621, "revenue": 3324621}, {"ein": "472486741", "name": "ST JOHNS MALANKARA ORTHODOX CHURCH", "city": "BELLEROSE", "state": "NY", "zip": "11426-1731", "ntee": "X20", "ruling": "201704", "deductibility": "1", "assets": 25333, "income": 61024, "revenue": 61024}, {"ein": "510189415", "name": "GREATER ST JOHNS COMMUNITY CHURCH", "city": "BROOKLYN", "state": "NY", "zip": "11207-4813", "ntee": "", "ruling": "197605", "deductibility": "1", "assets": 0, "income": 0, "revenue": 0}, {"ein": "510190963", "name": "ST JOHNS DELIVERANCE TABERNACLE INC", "city": "NYACK", "state": "NY", "zip": "10960-3212", "ntee": "", "ruling": "197611", "deductibility": "1", "assets": 0, "income": 0, "revenue": 0}, {"ein": "542164621", "name": "ST JOHNS MEDICAL SERVICES PC", "city": "GARDEN CITY", "state": "NY", "zip": "11530-6542", "ntee": "E30", "ruling": "200706", "deductibility": "1", "assets": 6730606, "income": 10323854, "revenue": 10323854}, {"ein": "562623561", "name": "SAINT JOHNS CEMETERY", "city": "MIDDLE VLG", "state": "NY", "zip": "11379-2948", "ntee": "", "ruling": "194603", "deductibility": "1", "assets": 0, "income": 0, "revenue": 0}, {"ein": "820991742", "name": "ST JOHNS UNIVERSITY CHAPTER OF THE AAUP INC", "city": "JAMAICA", "state": "NY", "zip": "11439-9000", "ntee": "J40", "ruling": "201708", "deductibility": "2", "assets": 0, "income": 0, "revenue": 0}, {"ein": "821242910", "name": "THE JOHNS HOPKINS HOUSE INC", "city": "SKANEATELES", "state": "NY", "zip": "13152-0400", "ntee": "A54", "ruling": "202012", "deductibility": "1", "assets": 0, "income": 0, "revenue": 0}, {"ein": "824235903", "name": "KAPPA PSI PHARMACEUTICAL FRATERNITY ST JOHNS UNIVERSITY", "city": "JAMAICA", "state": "NY", "zip": "11439-9000", "ntee": "", "ruling": "196402", "deductibility": "2", "assets": 0, "income": 0, "revenue": 0}, {"ein": "831718536", "name": "LADIES OF CHARITY AT ST JOHNS UNIVERSITY INC", "city": "QUEENS", "state": "NY", "zip": "11439-9000", "ntee": "P12", "ruling": "201810", "deductibility": "1", "assets": 0, "income": 0, "revenue": 0}, {"ein": "853898584", "name": "ST JOHNS EPISCOPAL HOLDINGS CORP", "city": "GARDEN CITY", "state": "NY", "zip": "11530-6542", "ntee": "T11", "ruling": "202106", "deductibility": "1", "assets": 34521145, "income": 579045, "revenue": 579045}, {"ein": "900732459", "name": "ST JOHNS HOUSING DEVELOPMENT FUND CORPORATION", "city": "BROOKLYN", "state": "NY", "zip": "11213-2696", "ntee": "I20", "ruling": "201109", "deductibility": "1", "assets": 4830904, "income": 827257, "revenue": 827257}, {"ein": "991964615", "name": "MARY JOHNS MEMORIAL FOUNDATION INC", "city": "HUNTINGTON", "state": "NY", "zip": "11743-2060", "ntee": "F12", "ruling": "202404", "deductibility": "1", "assets": 0, "income": 0, "revenue": 0}], "UKRAINIAN": [{"ein": "111672772", "name": "HOLY GHOST UKRAINIAN GREEK CATHOLIC CHURCH INC", "city": "BROOKLYN", "state": "NY", "zip": "11211-3203", "ntee": "", "ruling": "194603", "deductibility": "1", "assets": 0, "income": 0, "revenue": 0}, {"ein": "112506459", "name": "STS PETER AND PAUL UKRAINIAN ORTHODOX CHURCH OF WEST ISLIP N Y", "city": "WEST ISLIP", "state": "NY", "zip": "11795-3924", "ntee": "", "ruling": "197910", "deductibility": "1", "assets": 0, "income": 0, "revenue": 0}, {"ein": "112652367", "name": "UKRAINIAN ORTHODOX CHURCH OFAMERICA", "city": "EASTPORT", "state": "NY", "zip": "11941-0000", "ntee": "", "ruling": "198308", "deductibility": "1", "assets": 0, "income": 0, "revenue": 0}, {"ein": "112969616", "name": "UKRAINIAN ORTHODOX CHURCH OF AMERICA & CANADA", "city": "JAMAICA", "state": "NY", "zip": "11435-4214", "ntee": "", "ruling": "198308", "deductibility": "1", "assets": 0, "income": 0, "revenue": 0}, {"ein": "116111484", "name": "PLAST UKRAINIAN SCOUTING ORGANIZATION USA", "city": "OLD BETHPAGE", "state": "NY", "zip": "11804-1748", "ntee": "", "ruling": "196712", "deductibility": "1", "assets": 0, "income": 0, "revenue": 0}, {"ein": "131832391", "name": "UKRAINIAN INSTITUTE OF AMERICA INC", "city": "NEW YORK", "state": "NY", "zip": "10075-0106", "ntee": "A230", "ruling": "195404", "deductibility": "1", "assets": 6390705, "income": 1379848, "revenue": 1282866}, {"ein": "132874841", "name": "UKRAINIAN CHORUS DUMKA OF AMERICA INC", "city": "NEW YORK", "state": "NY", "zip": "10003-8305", "ntee": "A6B0", "ruling": "197611", "deductibility": "1", "assets": 307809, "income": 410079, "revenue": 410079}, {"ein": "132879230", "name": "UKRAINIAN NATIVE FAITH RUNVIRA INC", "city": "SPRING GLEN", "state": "NY", "zip": "12483-0306", "ntee": "", "ruling": "197703", "deductibility": "1", "assets": 0, "income": 0, "revenue": 0}, {"ein": "132887818", "name": "UKRAINIAN MUSEUM", "city": "NEW YORK", "state": "NY", "zip": "10003-8201", "ntee": "A500", "ruling": "197809", "deductibility": "1", "assets": 16559322, "income": 3775437, "revenue": 1977970}, {"ein": "132893036", "name": "UKRAINIAN MUSIC INSTITUTE OF AMERICA INC", "city": "NEW YORK", "state": "NY", "zip": "10003-8398", "ntee": "", "ruling": "197806", "deductibility": "1", "assets": 0, "income": 0, "revenue": 0}, {"ein": "133174039", "name": "UKRAINIAN ORTHODOX CHURCH OFAMERICA", "city": "NEW YORK", "state": "NY", "zip": "10003-7301", "ntee": "", "ruling": "198308", "deductibility": "1", "assets": 0, "income": 0, "revenue": 0}, {"ein": "133206226", "name": "UKRAINIAN AMERICAN COORDINATING COUNCIL INC", "city": "NEW YORK", "state": "NY", "zip": "10003-8305", "ntee": "Q20", "ruling": "202404", "deductibility": "1", "assets": 0, "income": 0, "revenue": 0}, {"ein": "133522637", "name": "UKRAINIAN NATIONAL WOMENS LEAGUE OF AMERICA INC", "city": "MOUNT KISCO", "state": "NY", "zip": "10549-2915", "ntee": "", "ruling": "196706", "deductibility": "1", "assets": 0, "income": 0, "revenue": 0}, {"ein": "135605197", "name": "UKRAINIAN ACADEMY OF ARTS & SCIENCES IN THE U S INC", "city": "NEW YORK", "state": "NY", "zip": "10025-5018", "ntee": "A230", "ruling": "195302", "deductibility": "1", "assets": 2353996, "income": 305896, "revenue": 112422}, {"ein": "136150513", "name": "UKRAINIAN NATIONAL WOMENS LEAGUE OF AMERICA INC", "city": "NEW YORK", "state": "NY", "zip": "10003-5706", "ntee": "", "ruling": "196706", "deductibility": "2", "assets": 0, "income": 0, "revenue": 0}, {"ein": "136219868", "name": "UCCA UKRAINIAN CONGRESS COMMITTEE OF AMERICA", "city": "NEW YORK", "state": "NY", "zip": "10003-5706", "ntee": "", "ruling": "196705", "deductibility": "1", "assets": 2074335, "income": 1732126, "revenue": 1732126}, {"ein": "136221960", "name": "UKRAINIAN NATIONAL WOMENS LEAGUE OF AMERICA INC", "city": "NEW YORK", "state": "NY", "zip": "10009-6428", "ntee": "", "ruling": "196706", "deductibility": "2", "assets": 0, "income": 0, "revenue": 0}, {"ein": "136272487", "name": "PLAST UKRAINIAN SCOUTING ORGANIZATION USA", "city": "NEW YORK", "state": "NY", "zip": "10003-8305", "ntee": "", "ruling": "196712", "deductibility": "1", "assets": 0, "income": 0, "revenue": 0}, {"ein": "141413790", "name": "UKRAINIAN AMERICAN YOUTH ASSOCIATION INC", "city": "NEW YORK", "state": "NY", "zip": "10276-1434", "ntee": "A23Z", "ruling": "198307", "deductibility": "1", "assets": 2062966, "income": 1577850, "revenue": 1570759}, {"ein": "141739279", "name": "UKRAINIAN NATIONAL WOMENS LEAGUE OF AMERICA INC", "city": "POUGHKEEPSIE", "state": "NY", "zip": "12603-2026", "ntee": "", "ruling": "196706", "deductibility": "2", "assets": 0, "income": 0, "revenue": 0}, {"ein": "146034318", "name": "UKRAINIAN AMERICAN CITIZENS CLUB INC", "city": "AMSTERDAM", "state": "NY", "zip": "12010-3424", "ntee": "", "ruling": "196509", "deductibility": "2", "assets": 0, "income": 0, "revenue": 0}, {"ein": "146048735", "name": "PLAST UKRAINIAN SCOUTING ORGANIZATION USA", "city": "WATERVLIET", "state": "NY", "zip": "12189-0000", "ntee": "", "ruling": "196712", "deductibility": "1", "assets": 0, "income": 0, "revenue": 0}, {"ein": "146085613", "name": "UKRAINIAN NATIONAL WOMENS LEAGUE OF AMERICA INC", "city": "CLIFTON PARK", "state": "NY", "zip": "12065-2104", "ntee": "", "ruling": "196706", "deductibility": "2", "assets": 0, "income": 0, "revenue": 0}, {"ein": "150466030", "name": "SYRACUSE UKRAINIAN NATIONAL HOME INC", "city": "SYRACUSE", "state": "NY", "zip": "13204-2717", "ntee": "", "ruling": "198709", "deductibility": "2", "assets": 79919, "income": 224285, "revenue": 118500}, {"ein": "160909666", "name": "UKRAINIAN HOME OF ROCHESTER INC", "city": "WEBSTER", "state": "NY", "zip": "14580-8705", "ntee": "", "ruling": "201203", "deductibility": "1", "assets": 389350, "income": 222601, "revenue": 187349}, {"ein": "160921758", "name": "ST JOHNS UKRAINIAN SOCIAL CLUB INC", "city": "JOHNSON CITY", "state": "NY", "zip": "13790-1671", "ntee": "", "ruling": "195710", "deductibility": "2", "assets": 29438, "income": 74081, "revenue": 35372}, {"ein": "160926905", "name": "ST JOHNS UKRAINIAN ORTHODOX CHURCH", "city": "JOHNSON CITY", "state": "NY", "zip": "13790-1699", "ntee": "", "ruling": "199108", "deductibility": "1", "assets": 0, "income": 0, "revenue": 0}, {"ein": "160960924", "name": "AMERICAN UKRAINIAN VETS & MENS CLUB INC", "city": "ROME", "state": "NY", "zip": "13440-6804", "ntee": "W30", "ruling": "201101", "deductibility": "2", "assets": 138484, "income": 219673, "revenue": 122137}, {"ein": "160985872", "name": "UKRAINIAN AMERICAN FREEDOM FOUNDATION INC", "city": "NEW YORK", "state": "NY", "zip": "10276-0255", "ntee": "", "ruling": "197203", "deductibility": "1", "assets": 669713, "income": 404923, "revenue": 287625}, {"ein": "161511937", "name": "FIRST UKRAINIAN PENTECOSTAL CHURCH", "city": "BINGHAMTON", "state": "NY", "zip": "13901-0000", "ntee": "X21", "ruling": "200305", "deductibility": "1", "assets": 0, "income": 0, "revenue": 0}, {"ein": "161514717", "name": "UKRAINIAN AMERICAN YOUTH ASSOC", "city": "STONE RIDGE", "state": "NY", "zip": "12484-5631", "ntee": "T20", "ruling": "200501", "deductibility": "1", "assets": 14356, "income": 62330, "revenue": 62330}, {"ein": "161544069", "name": "FIRST UKRAINIAN PENTECOSTAL CHURCH", "city": "LIVERPOOL", "state": "NY", "zip": "13090-1806", "ntee": "X99Z", "ruling": "199807", "deductibility": "1", "assets": 0, "income": 0, "revenue": 0}, {"ein": "161579551", "name": "ROCHESTER UKRAINIAN GROUP INC", "city": "ROCHESTER", "state": "NY", "zip": "14617-4724", "ntee": "P80", "ruling": "200009", "deductibility": "1", "assets": 0, "income": 0, "revenue": 0}, {"ein": "166098140", "name": "PLAST UKRAINIAN SCOUTING ORGANIZATION USA", "city": "ELMA", "state": "NY", "zip": "14059-9316", "ntee": "", "ruling": "196712", "deductibility": "1", "assets": 0, "income": 0, "revenue": 0}, {"ein": "166098174", "name": "PLAST UKRAINIAN SCOUTING ORGANIZATION USA", "city": "FAIRPORT", "state": "NY", "zip": "14450-9700", "ntee": "", "ruling": "196712", "deductibility": "1", "assets": 0, "income": 0, "revenue": 0}, {"ein": "166098175", "name": "PLAST UKRAINIAN SCOUTING ORGANIZATION USA", "city": "SYRACUSE", "state": "NY", "zip": "13215-3201", "ntee": "", "ruling": "196712", "deductibility": "1", "assets": 0, "income": 0, "revenue": 0}, {"ein": "205761147", "name": "UKRAINIAN CULTURAL CENTER OFSYRACUSE INC", "city": "SYRACUSE", "state": "NY", "zip": "13204-2717", "ntee": "A20", "ruling": "200708", "deductibility": "1", "assets": 87344, "income": 85002, "revenue": 85002}, {"ein": "208517400", "name": "UKRAINIAN NEW WAVE CORPORATION", "city": "STATEN ISLAND", "state": "NY", "zip": "10304-4318", "ntee": "P84", "ruling": "200907", "deductibility": "1", "assets": 99612, "income": 212364, "revenue": 212364}, {"ein": "222338794", "name": "SAINT NICHOLAS UKRAINIAN ORTHODOX CHURCH OF TROY NEW YORK", "city": "TROY", "state": "NY", "zip": "12180-4918", "ntee": "", "ruling": "199108", "deductibility": "1", "assets": 0, "income": 0, "revenue": 0}, {"ein": "222473750", "name": "UKRAINIAN NATIONAL WOMENS LEAGUE OF AMERICA INC", "city": "WEBSTER", "state": "NY", "zip": "14580-7742", "ntee": "A23", "ruling": "196706", "deductibility": "1", "assets": 0, "income": 0, "revenue": 0}, {"ein": "222747206", "name": "UKRAINIAN PATRIARCHAL SOCIETY IN THE USA", "city": "NEW YORK", "state": "NY", "zip": "10276-0285", "ntee": "X22Z", "ruling": "198704", "deductibility": "1", "assets": 0, "income": 0, "revenue": 0}, {"ein": "223055332", "name": "UKRAINIAN NATIONAL WOMENS LEAGUE OF AMERICA INC", "city": "NEW YORK", "state": "NY", "zip": "10016-9202", "ntee": "", "ruling": "196706", "deductibility": "2", "assets": 0, "income": 0, "revenue": 0}, {"ein": "236404061", "name": "UKRAINIAN NATIONAL WOMENS LEAGUE OF AMERICA INC", "city": "NEW YORK", "state": "NY", "zip": "10003-5706", "ntee": "", "ruling": "196706", "deductibility": "1", "assets": 2562628, "income": 1183269, "revenue": 1183269}, {"ein": "237108638", "name": "UKRAINIAN NATIONAL WOMENS LEAGUE OF AMERICA INC", "city": "NEW YORK", "state": "NY", "zip": "10003-5706", "ntee": "", "ruling": "196706", "deductibility": "2", "assets": 0, "income": 0, "revenue": 0}, {"ein": "237144366", "name": "UKRAINIAN NATIONAL WOMENS LEAGUE OF AMERICA INC", "city": "HALFMOON", "state": "NY", "zip": "12065-6571", "ntee": "A23", "ruling": "196706", "deductibility": "1", "assets": 0, "income": 0, "revenue": 0}, {"ein": "237360691", "name": "UKRAINIAN NATIONAL WOMENS LEAGUE OF AMERICA INC", "city": "NEW YORK", "state": "NY", "zip": "10003-5706", "ntee": "", "ruling": "196706", "deductibility": "2", "assets": 0, "income": 0, "revenue": 0}, {"ein": "237453172", "name": "UKRAINIAN FREE UNIVERSITY FOUNDATION", "city": "NEW YORK", "state": "NY", "zip": "10003-8308", "ntee": "", "ruling": "197510", "deductibility": "1", "assets": 2341488, "income": 555469, "revenue": 555469}, {"ein": "261701175", "name": "UKRAINIAN NATIONAL WOMENS LEAGUE OF AMERICA INC", "city": "STATEN ISLAND", "state": "NY", "zip": "10306-5415", "ntee": "", "ruling": "196706", "deductibility": "2", "assets": 0, "income": 0, "revenue": 0}, {"ein": "263546934", "name": "UKRAINIAN PENTECOSTAL CHURCH", "city": "PENFIELD", "state": "NY", "zip": "14526-0000", "ntee": "X20", "ruling": "201010", "deductibility": "1", "assets": 0, "income": 0, "revenue": 0}, {"ein": "271601952", "name": "UKRAINIAN SELF-KULTURE ASSOCIATION OF SPRING VALLEY INC", "city": "SPRING VALLEY", "state": "NY", "zip": "10977-3949", "ntee": "A23", "ruling": "201007", "deductibility": "1", "assets": 85949, "income": 19530, "revenue": 18983}, {"ein": "273684691", "name": "UKRAINIAN AMERICAN COMMUNITY UAC FOUNDATION INC", "city": "ROCHESTER", "state": "NY", "zip": "14621-1711", "ntee": "B82", "ruling": "201401", "deductibility": "1", "assets": 110229, "income": 38025, "revenue": 0}, {"ein": "300185167", "name": "ST GEORGE UKRAINIAN CATHOLIC SCHOOLS FOUNDATION LTD", "city": "NEW YORK", "state": "NY", "zip": "10003-0000", "ntee": "B11", "ruling": "200307", "deductibility": "1", "assets": 875112, "income": 27960, "revenue": 27960}, {"ein": "352354952", "name": "UKRAINIAN NATIONAL WOMENS LEAGUE OF AMERICA INC", "city": "STATEN ISLAND", "state": "NY", "zip": "10306-5415", "ntee": "", "ruling": "196706", "deductibility": "2", "assets": 0, "income": 0, "revenue": 0}, {"ein": "363094563", "name": "UKRAINIAN AMERICAN CREDIT UNION ASSOCIATION", "city": "YONKERS", "state": "NY", "zip": "10701-6856", "ntee": "", "ruling": "198406", "deductibility": "2", "assets": 383036, "income": 141227, "revenue": 141227}, {"ein": "462189159", "name": "UKRAINIAN-AMERICAN CULTURAL CENTER INC", "city": "WATERVLIET", "state": "NY", "zip": "12189-1916", "ntee": "A23", "ruling": "201401", "deductibility": "1", "assets": 1840780, "income": 857610, "revenue": 853194}, {"ein": "510175445", "name": "UKRAINIAN ART AND LITERARY CLUB OF NEW YORK INC", "city": "LEXINGTON", "state": "NY", "zip": "12452-0073", "ntee": "", "ruling": "197512", "deductibility": "1", "assets": 0, "income": 0, "revenue": 0}, {"ein": "593802907", "name": "FIRST UKRAINIAN ASSEMBLY OF GOD", "city": "NEW YORK", "state": "NY", "zip": "10003-8001", "ntee": "", "ruling": "196408", "deductibility": "1", "assets": 0, "income": 0, "revenue": 0}, {"ein": "611577693", "name": "UKRAINIAN NATIONAL WOMENS LEAGUE OF AMERICA INC", "city": "HALFMOON", "state": "NY", "zip": "12065-6571", "ntee": "", "ruling": "196706", "deductibility": "1", "assets": 0, "income": 0, "revenue": 0}, {"ein": "814921625", "name": "UKRAINIAN INSTITUTE OF MUSIC AND ART INC", "city": "NEW YORK", "state": "NY", "zip": "10003-8398", "ntee": "A20", "ruling": "201712", "deductibility": "1", "assets": 0, "income": 0, "revenue": 0}, {"ein": "831533054", "name": "AMERICAN ASSOCIATION FOR UKRAINIAN STUDIES", "city": "NEW YORK", "state": "NY", "zip": "10003-5202", "ntee": "B01", "ruling": "202003", "deductibility": "1", "assets": 0, "income": 0, "revenue": 0}, {"ein": "834299557", "name": "NY UKRAINIAN SPORTS CLUB INC", "city": "BROOKLYN", "state": "NY", "zip": "11222-3113", "ntee": "N99", "ruling": "202304", "deductibility": "1", "assets": 7319, "income": 3550, "revenue": 3550}, {"ein": "873694836", "name": "UKRAINIAN CONTEMPORARY MUSIC FESTIVAL INC", "city": "BROOKLYN", "state": "NY", "zip": "11216-4350", "ntee": "A20", "ruling": "202202", "deductibility": "1", "assets": 0, "income": 0, "revenue": 0}, {"ein": "881792329", "name": "UKRAINIAN AMERICAN AID FOUNDATION INC", "city": "LONG ISLAND CITY", "state": "NY", "zip": "11101-5207", "ntee": "Q33", "ruling": "202209", "deductibility": "1", "assets": 0, "income": 0, "revenue": 0}, {"ein": "922110005", "name": "UKRAINIAN WELCOME FOUNDATION OF WNY INC", "city": "BUFFALO", "state": "NY", "zip": "14207-2631", "ntee": "A23", "ruling": "202303", "deductibility": "1", "assets": 0, "income": 0, "revenue": 0}, {"ein": "932249547", "name": "UKRAINIAN CONTEMPORARY ART PLATFORM INC", "city": "NEW YORK", "state": "NY", "zip": "10011-3377", "ntee": "A20", "ruling": "202309", "deductibility": "1", "assets": 0, "income": 0, "revenue": 0}, {"ein": "993756635", "name": "UKRAINIAN NATIONAL HOME OF BROOKLYN NEW YORK INC", "city": "ALBANY", "state": "NY", "zip": "12207-2834", "ntee": "P12", "ruling": "202408", "deductibility": "1", "assets": 0, "income": 0, "revenue": 0}], "MEDICINE": [{"ein": "111805713", "name": "NASSAU ACADEMY OF MEDICINE", "city": "GARDEN CITY", "state": "NY", "zip": "11530-2018", "ntee": "B54Z", "ruling": "196107", "deductibility": "1", "assets": 6710932, "income": 2163952, "revenue": 227806}, {"ein": "111987798", "name": "ACADEMY OF MEDICINE OF BROOKLYN INC", "city": "BROOKLYN", "state": "NY", "zip": "11209-3206", "ntee": "B54Z", "ruling": "196007", "deductibility": "1", "assets": 2639043, "income": 338438, "revenue": 209899}, {"ein": "112382681", "name": "ACADEMY OF MEDICINE OF QUEENS COUNTY INC", "city": "FOREST HILLS", "state": "NY", "zip": "11375-5500", "ntee": "B54Z", "ruling": "197709", "deductibility": "1", "assets": 1850459, "income": 804037, "revenue": 98624}, {"ein": "112552321", "name": "STONY BROOK FAMILY AND PREVENTIVE MEDICINE UNIV FACULTY PRACTICE COR", "city": "STONY BROOK", "state": "NY", "zip": "11790-0988", "ntee": "E20", "ruling": "200802", "deductibility": "1", "assets": 1748071, "income": 16342677, "revenue": 16342677}, {"ein": "112833587", "name": "TBHC EMERGENCY MEDICINE P C", "city": "BROOKLYN", "state": "NY", "zip": "11201-5425", "ntee": "E220", "ruling": "201309", "deductibility": "1", "assets": 1038889, "income": 92220, "revenue": 92220}, {"ein": "113284934", "name": "THE ELMEZZI GRADUATE SCHOOL OF MOLECULAR MEDICINE", "city": "WESTBURY", "state": "NY", "zip": "11590-1740", "ntee": "B54Z", "ruling": "199603", "deductibility": "1", "assets": 923, "income": 1354, "revenue": 1354}, {"ein": "113303499", "name": "PARK SLOPE PEDIATRIC MEDICINE P C", "city": "BROOKLYN", "state": "NY", "zip": "11215-3609", "ntee": "E30", "ruling": "199909", "deductibility": "1", "assets": 1324, "income": 0, "revenue": 0}, {"ein": "113352634", "name": "AMERICAN SOCIETY OF ADDICTION MEDICINE INC", "city": "OLIVEBRIDGE", "state": "NY", "zip": "12461-5440", "ntee": "F20", "ruling": "198608", "deductibility": "1", "assets": 98427, "income": 57565, "revenue": 57565}, {"ein": "113358541", "name": "NEW YORK COLLEGE OF TRADITIONAL CHINESE MEDICINE", "city": "MINEOLA", "state": "NY", "zip": "11501-4239", "ntee": "B50", "ruling": "199912", "deductibility": "1", "assets": 7927311, "income": 3029637, "revenue": 3029637}, {"ein": "113362663", "name": "PARK SLOPE MEDICINE P C", "city": "BROOKLYN", "state": "NY", "zip": "11215-3609", "ntee": "E30", "ruling": "199909", "deductibility": "1", "assets": 14340, "income": 0, "revenue": 0}, {"ein": "113495935", "name": "WYCKOFF EMERGENCY MEDICINE SERVICES P C", "city": "BROOKLYN", "state": "NY", "zip": "11237-4006", "ntee": "G90", "ruling": "202402", "deductibility": "1", "assets": 231339, "income": 3299821, "revenue": 3299821}, {"ein": "113507109", "name": "PADOQUOHAN MEDICINE LODGE", "city": "SOUTHAMPTON", "state": "NY", "zip": "11969-5078", "ntee": "X99", "ruling": "200001", "deductibility": "1", "assets": 0, "income": 0, "revenue": 0}, {"ein": "116013517", "name": "SUFFOLK ACADEMY OF MEDICINE", "city": "HUNTINGTON", "state": "NY", "zip": "11743-0893", "ntee": "B54Z", "ruling": "196303", "deductibility": "1", "assets": 5985, "income": 216192, "revenue": 216192}, {"ein": "116017810", "name": "ALUMNI FUND ALUMNI ASSO COLLEGE OF MEDICINE SUNY HEALTH SCIENCE CTR", "city": "BROOKLYN", "state": "NY", "zip": "11203-2012", "ntee": "B82", "ruling": "201311", "deductibility": "1", "assets": 19398869, "income": 4602820, "revenue": 1315285}, {"ein": "116041147", "name": "WOMENS LEAGUE OF SCIENCE AND MEDICINE INC", "city": "BROOKLYN", "state": "NY", "zip": "11233-1209", "ntee": "", "ruling": "198806", "deductibility": "1", "assets": 0, "income": 0, "revenue": 0}, {"ein": "131632522", "name": "NEW YORK COLLEGE OF PODIATRIC MEDICINE", "city": "NEW YORK", "state": "NY", "zip": "10035-1815", "ntee": "B500", "ruling": "195510", "deductibility": "1", "assets": 44550752, "income": 34879868, "revenue": 19653228}, {"ein": "131656674", "name": "NEW YORK ACADEMY OF MEDICINE", "city": "NEW YORK", "state": "NY", "zip": "10029-5202", "ntee": "E050", "ruling": "193707", "deductibility": "1", "assets": 66516568, "income": 67873883, "revenue": 19168633}, {"ein": "131855248", "name": "WESTCHESTER ACADEMY OF MEDICINE", "city": "SLEEPY HOLLOW", "state": "NY", "zip": "10591-7144", "ntee": "B54Z", "ruling": "195902", "deductibility": "1", "assets": 1742668, "income": 137358, "revenue": 108496}, {"ein": "133039888", "name": "THE NEW YORK SOCIETY OF PHYSICAL MEDICINE AND REHABILITAION INC", "city": "NEW YORK", "state": "NY", "zip": "10002-0910", "ntee": "", "ruling": "198503", "deductibility": "2", "assets": 0, "income": 0, "revenue": 0}, {"ein": "133134417", "name": "N Y ACADEMY OF MEDICINE TTEE 124538", "city": "NEW YORK", "state": "NY", "zip": "10013-2362", "ntee": "", "ruling": "000000", "deductibility": "1", "assets": 142592, "income": 4546, "revenue": 0}, {"ein": "133519133", "name": "THE FOUNDATION FOR DEVELOPMENTAL MEDICINE INC", "city": "BROOKLYN", "state": "NY", "zip": "11215-6606", "ntee": "", "ruling": "199008", "deductibility": "1", "assets": 69375, "income": 25000, "revenue": 25000}, {"ein": "133626727", "name": "JOHN CONLEY FOUNDATION FOR ETHICS AND PHILOSOPHY IN MEDICINE INC", "city": "NEW YORK", "state": "NY", "zip": "10016-2424", "ntee": "", "ruling": "199112", "deductibility": "1", "assets": 3034580, "income": 318494, "revenue": 0}, {"ein": "133794986", "name": "TRADITIONAL CHINESE MEDICINE WORLD FOUNDATION INC", "city": "NEW YORK", "state": "NY", "zip": "10001-6948", "ntee": "E85Z", "ruling": "199503", "deductibility": "1", "assets": 338952, "income": 244456, "revenue": 244456}, {"ein": "133929019", "name": "INSTITUTE OF EAST-WEST MEDICINE", "city": "NEW YORK", "state": "NY", "zip": "10016-7369", "ntee": "E30", "ruling": "199706", "deductibility": "1", "assets": 0, "income": 0, "revenue": 0}, {"ein": "134015489", "name": "AMERICAN FOUNDATION FOR CHINESE MEDICINE INC", "city": "LONG IS CITY", "state": "NY", "zip": "11103-0905", "ntee": "B05", "ruling": "199901", "deductibility": "1", "assets": 1522739, "income": 130984, "revenue": 130984}, {"ein": "134022812", "name": "FOUNDATION FOR INTEGRATED MEDICINE", "city": "NEW YORK", "state": "NY", "zip": "10011-4312", "ntee": "H05", "ruling": "199910", "deductibility": "1", "assets": 280288, "income": 7000, "revenue": 7000}, {"ein": "136162725", "name": "NEW YORK STATE SOCIETY OF INDUSTRIAL MEDICINE INC", "city": "NEW YORK", "state": "NY", "zip": "10018-9089", "ntee": "", "ruling": "196103", "deductibility": "2", "assets": 0, "income": 0, "revenue": 0}, {"ein": "136171197", "name": "ICAHN SCHOOL OF MEDICINE AT MOUNT SINAI", "city": "NEW YORK", "state": "NY", "zip": "10029-6504", "ntee": "B500", "ruling": "196402", "deductibility": "1", "assets": 3857740819, "income": 4167354223, "revenue": 4161269921}, {"ein": "136174477", "name": "ASSOCIATION FOR PSYCHOANALYTIC MEDICINE INCORPORATED", "city": "BROOKLYN", "state": "NY", "zip": "11201-0000", "ntee": "", "ruling": "196503", "deductibility": "1", "assets": 177169, "income": 11904, "revenue": 11904}, {"ein": "160743127", "name": "ROCHESTER ACADEMY OF MEDICINE", "city": "ROCHESTER", "state": "NY", "zip": "14610-1665", "ntee": "B54Z", "ruling": "194101", "deductibility": "1", "assets": 812677, "income": 338115, "revenue": 318927}, {"ein": "160743215", "name": "UR MEDICINE HOME CARE CERTIFIED SERVICES INC", "city": "WEBSTER", "state": "NY", "zip": "14580-2029", "ntee": "E90", "ruling": "198610", "deductibility": "1", "assets": 30477211, "income": 33536268, "revenue": 33536268}, {"ein": "160997545", "name": "TRI COUNTY FAMILY MEDICINE PROGRAM", "city": "DANSVILLE", "state": "NY", "zip": "14437-9444", "ntee": "", "ruling": "197404", "deductibility": "1", "assets": 9763320, "income": 17395093, "revenue": 17395093}, {"ein": "161280696", "name": "UB FAMILY MEDICINE INC", "city": "BUFFALO", "state": "NY", "zip": "14203-1243", "ntee": "E31", "ruling": "199602", "deductibility": "1", "assets": 6824831, "income": 17304216, "revenue": 16906590}, {"ein": "161455134", "name": "ACADEMIC MEDICINE SERVICES INC", "city": "AMHERST", "state": "NY", "zip": "14226-3826", "ntee": "E31", "ruling": "199503", "deductibility": "1", "assets": 16459355, "income": 46528881, "revenue": 46528881}, {"ein": "161463867", "name": "UNIVERSITY PHYSICAL MEDICINE & REHABILITATION ASSOCIATES INC", "city": "BUFFALO", "state": "NY", "zip": "14203-1243", "ntee": "E31Z", "ruling": "199605", "deductibility": "1", "assets": 0, "income": 0, "revenue": 0}, {"ein": "161475278", "name": "DEPARTMENT OF MEDICINE MEDICAL SERV GRP AT SUNY HLTH SCI CTR AT SYR IN", "city": "SYRACUSE", "state": "NY", "zip": "13210-2306", "ntee": "E31", "ruling": "199603", "deductibility": "1", "assets": 0, "income": 0, "revenue": 0}, {"ein": "161502502", "name": "UPSTATE EMERGENCY MEDICINE INC", "city": "SYRACUSE", "state": "NY", "zip": "13210-2306", "ntee": "E31", "ruling": "199702", "deductibility": "1", "assets": 0, "income": 0, "revenue": 0}, {"ein": "161528718", "name": "UNIVERSITY NUCLEAR MEDICINE INC", "city": "BUFFALO", "state": "NY", "zip": "14214-0000", "ntee": "E99", "ruling": "199911", "deductibility": "1", "assets": 31643, "income": 1448528, "revenue": 1429501}, {"ein": "161561691", "name": "UR MEDICINE HOME CARE LICENSED INC", "city": "WEBSTER", "state": "NY", "zip": "14580-2029", "ntee": "E90", "ruling": "199907", "deductibility": "1", "assets": 14560099, "income": 10406944, "revenue": 10406944}, {"ein": "161579387", "name": "BUFFALO ACADEMY OF VETERINARY MEDICINE INC", "city": "EAST BETHANY", "state": "NY", "zip": "14054-9713", "ntee": "S41", "ruling": "200010", "deductibility": "2", "assets": 125073, "income": 111669, "revenue": 111669}, {"ein": "204453609", "name": "ONE MEDICINE FOUNDATION INC", "city": "NORTHPORT", "state": "NY", "zip": "11768-1166", "ntee": "D052", "ruling": "200805", "deductibility": "1", "assets": 180013, "income": 17635, "revenue": 17635}, {"ein": "205331967", "name": "NAVY MEDICINE ROTA ASSOCIATION", "city": "HOLMES", "state": "NY", "zip": "12531-4622", "ntee": "", "ruling": "200708", "deductibility": "1", "assets": 0, "income": 0, "revenue": 0}, {"ein": "208498449", "name": "SOCIAL MEDICINE PUBLISHING GROUPINC", "city": "NEW YORK", "state": "NY", "zip": "10031-4324", "ntee": "B70", "ruling": "200808", "deductibility": "1", "assets": 0, "income": 0, "revenue": 0}, {"ein": "222285894", "name": "KOREA UNIVERSITY COLLEGE OF MEDICINE ALUMNI ASSOCIATION", "city": "FLUSHING", "state": "NY", "zip": "11355-3866", "ntee": "B84Z", "ruling": "198310", "deductibility": "1", "assets": 74175, "income": 1357, "revenue": 0}, {"ein": "222577664", "name": "UR MEDICINE HOME CARE INC", "city": "WEBSTER", "state": "NY", "zip": "14580-2029", "ntee": "E11", "ruling": "198610", "deductibility": "1", "assets": 1, "income": 0, "revenue": 0}, {"ein": "223327692", "name": "THE NEW YORK UPSTATE SECTION OF THE ASSOC FOR DIAGN & LAB MEDICINE INC", "city": "PITTSFORD", "state": "NY", "zip": "14534-4201", "ntee": "B03", "ruling": "199507", "deductibility": "1", "assets": 0, "income": 0, "revenue": 0}, {"ein": "237075620", "name": "ALBERT EINSTEIN COLLEGE OF MEDICINE STAFF HOUSING COMPANY INC", "city": "BRONX", "state": "NY", "zip": "10461-1900", "ntee": "", "ruling": "197008", "deductibility": "2", "assets": 38666913, "income": 8499057, "revenue": 8499057}, {"ein": "237149915", "name": "GREATER NEW YORK CHAPTER SOCIETY OF NUCLEAR MEDICINE & MOLECULAR IMAGI", "city": "BLUE POINT", "state": "NY", "zip": "11772-6515", "ntee": "", "ruling": "200302", "deductibility": "1", "assets": 145925, "income": 182483, "revenue": 182483}, {"ein": "237158715", "name": "MEDICINE SHOW THEATRE ENSEMBLE INC", "city": "BRONX", "state": "NY", "zip": "10455-4822", "ntee": "A20", "ruling": "202410", "deductibility": "1", "assets": 9004, "income": 21204, "revenue": 21204}, {"ein": "260306309", "name": "MENTORING IN MEDICINE INC", "city": "NEW ROCHELLE", "state": "NY", "zip": "10804-3935", "ntee": "B90", "ruling": "200711", "deductibility": "1", "assets": 1180207, "income": 1014378, "revenue": 1014378}, {"ein": "260344577", "name": "JOSEPH P DURSO FOUNDATION FOR IMPROVED COMMUNICATION IN MEDICINE", "city": "WANTAGH", "state": "NY", "zip": "11793-2859", "ntee": "E19", "ruling": "200709", "deductibility": "1", "assets": 0, "income": 0, "revenue": 0}, {"ein": "262887812", "name": "NEW YORK SOCIETY OF PEDIATRIC CRITICAL CARE MEDICINE INC", "city": "BROOKLYN", "state": "NY", "zip": "11219-2916", "ntee": "S47", "ruling": "200902", "deductibility": "2", "assets": 0, "income": 0, "revenue": 0}, {"ein": "264183436", "name": "INTERNATIONAL NETWORK FOR PERSON CENTERED MEDICINE INC", "city": "NEW YORK", "state": "NY", "zip": "10129-0000", "ntee": "H059", "ruling": "201003", "deductibility": "1", "assets": 33580, "income": 1960, "revenue": 1960}, {"ein": "271961994", "name": "CATHERINE FOUNDATION FOR REPRODUCTIVE MEDICINE LTD", "city": "NEW YORK", "state": "NY", "zip": "10019-1100", "ntee": "H90", "ruling": "201301", "deductibility": "1", "assets": 710, "income": 5000, "revenue": 0}, {"ein": "272410219", "name": "MEDICINE HORSE FARM CORP", "city": "MORRISONVILLE", "state": "NY", "zip": "12962-3921", "ntee": "P80", "ruling": "201106", "deductibility": "1", "assets": 18196, "income": 16862, "revenue": 16862}, {"ein": "274384326", "name": "VIRTUAL HEALTH MEDICINE P C", "city": "WESTBURY", "state": "NY", "zip": "11590-1740", "ntee": "E32", "ruling": "201811", "deductibility": "1", "assets": 0, "income": 1841170, "revenue": 1841170}, {"ein": "274719998", "name": "NEW YORK QUEENS MEDICINE AND SURGERY PC", "city": "FLUSHING", "state": "NY", "zip": "11355-5045", "ntee": "E31", "ruling": "201406", "deductibility": "1", "assets": 48756251, "income": 273034054, "revenue": 273034054}, {"ein": "275078631", "name": "NORTH SHORE-LIJ INTERNAL MEDICINE PC", "city": "WESTBURY", "state": "NY", "zip": "11590-1740", "ntee": "E21", "ruling": "201408", "deductibility": "1", "assets": 6765355, "income": 7791388, "revenue": 7791388}, {"ein": "301317746", "name": "NATL CERT AND CREDENTIALING BOARD FOR AYURVEDIC MEDICINE", "city": "CROSS RIVER", "state": "NY", "zip": "10518-1118", "ntee": "", "ruling": "202505", "deductibility": "1", "assets": 0, "income": 0, "revenue": 0}, {"ein": "320333736", "name": "SENATE OF THE ALBERT EINSTEIN COLLEGE OF MEDICINE", "city": "BRONX", "state": "NY", "zip": "10461-1900", "ntee": "B03", "ruling": "201511", "deductibility": "1", "assets": 0, "income": 0, "revenue": 0}, {"ein": "332965561", "name": "MELODIES IN MEDICINE INC", "city": "BROOKLYN", "state": "NY", "zip": "11223-2847", "ntee": "A68", "ruling": "202502", "deductibility": "1", "assets": 0, "income": 0, "revenue": 0}, {"ein": "334901833", "name": "CUNY SCHOOL OF MEDICINE FOUNDATION", "city": "NEW YORK", "state": "NY", "zip": "10031-9101", "ntee": "H99", "ruling": "202507", "deductibility": "1", "assets": 0, "income": 0, "revenue": 0}, {"ein": "352410583", "name": "AMERICAN ASSOCIATION OF MEDICINE AND THE PERSON INC", "city": "NEW YORK", "state": "NY", "zip": "10038-4912", "ntee": "H03", "ruling": "201203", "deductibility": "1", "assets": 0, "income": 0, "revenue": 0}, {"ein": "371592643", "name": "NEW YORK UNIVERSITY SCHOOL OF MEDICINE VEBA TR", "city": "NEW YORK", "state": "NY", "zip": "10016-6402", "ntee": "Y43", "ruling": "201005", "deductibility": "2", "assets": 4721899, "income": 15524846, "revenue": 5469537}, {"ein": "451004103", "name": "NORTH SHORE-LIJ OCCUPATIONAL MEDICINE PC", "city": "WESTBURY", "state": "NY", "zip": "11590-1740", "ntee": "E32", "ruling": "201811", "deductibility": "1", "assets": 256067, "income": 1025286, "revenue": 1025286}, {"ein": "452738435", "name": "VOICES FROM THE HEART OF MEDICINE INC", "city": "NEW ROCHELLE", "state": "NY", "zip": "10804-0299", "ntee": "A33", "ruling": "201308", "deductibility": "1", "assets": 0, "income": 0, "revenue": 0}, {"ein": "461155203", "name": "NORTHEAST DAIRY PRODUCTION MEDICINE SYMPOSIUM INC", "city": "CAZENOVIA", "state": "NY", "zip": "13035-9751", "ntee": "B99", "ruling": "201404", "deductibility": "1", "assets": 0, "income": 0, "revenue": 0}, {"ein": "462822879", "name": "NORTH SHORE-LIJ INTERNAL MEDICINE AT NEW HYDE PARK PC", "city": "WESTBURY", "state": "NY", "zip": "11590-1740", "ntee": "E32", "ruling": "201811", "deductibility": "1", "assets": 3047205, "income": 14943148, "revenue": 14943148}, {"ein": "463475908", "name": "NORTH SHORE-LIJ INTERNAL MEDICINE AT LYNBROOK PC", "city": "WESTBURY", "state": "NY", "zip": "11590-1740", "ntee": "E22", "ruling": "201809", "deductibility": "1", "assets": 22407, "income": 5156679, "revenue": 5156679}, {"ein": "463857793", "name": "ALL NYC EMERGENCY MEDICINE CONFERENCE INC", "city": "MIDDLE VLG", "state": "NY", "zip": "11379-1806", "ntee": "E03", "ruling": "201410", "deductibility": "1", "assets": 0, "income": 0, "revenue": 0}, {"ein": "464194961", "name": "SLOW MEDICINE FOUNDATION INC", "city": "BEDFORD", "state": "NY", "zip": "10506-1045", "ntee": "P70", "ruling": "201409", "deductibility": "1", "assets": 0, "income": 0, "revenue": 0}, {"ein": "471991365", "name": "AMERICAN COLLEGE OF VETERINARY BOTANICAL MEDICINE", "city": "COLDEN", "state": "NY", "zip": "14033-9610", "ntee": "B90", "ruling": "201604", "deductibility": "1", "assets": 0, "income": 0, "revenue": 0}, {"ein": "474708476", "name": "INTERNATIONAL SOCIETY FOR NATUROPATHIC MEDICINE INC", "city": "NEW YORK", "state": "NY", "zip": "10009-6321", "ntee": "T30", "ruling": "201605", "deductibility": "1", "assets": 0, "income": 0, "revenue": 0}, {"ein": "475639899", "name": "UPSTATE FAMILY AND PREVENTIVE MEDICINE INC", "city": "SYRACUSE", "state": "NY", "zip": "13210-1756", "ntee": "E30", "ruling": "201608", "deductibility": "1", "assets": 0, "income": 0, "revenue": 0}, {"ein": "510362963", "name": "INSTITUTE FOR SPORTS MEDICINE RESEARCH", "city": "LEE CENTER", "state": "NY", "zip": "13363-2511", "ntee": "H50", "ruling": "199503", "deductibility": "1", "assets": 0, "income": 0, "revenue": 0}, {"ein": "731317565", "name": "AMERICAN BOARD OF ENVIRONMENTAL MEDICINE INC", "city": "CHEEKTOWAGA", "state": "NY", "zip": "14225-1085", "ntee": "S41", "ruling": "200106", "deductibility": "2", "assets": 0, "income": 0, "revenue": 0}, {"ein": "811428076", "name": "PHYSICIAN ASSISTANTS IN HOSPICE AND PALLIATIVE MEDICINE", "city": "SMITHTOWN", "state": "NY", "zip": "11787-2804", "ntee": "S41", "ruling": "201710", "deductibility": "2", "assets": 0, "income": 0, "revenue": 0}, {"ein": "813381642", "name": "SHANGHAI JIAO TONG UNIVERSITY SCHOOL OF MEDICINE NORTH", "city": "BROOKLYN", "state": "NY", "zip": "11237-5060", "ntee": "B84", "ruling": "201611", "deductibility": "1", "assets": 0, "income": 0, "revenue": 0}, {"ein": "814615550", "name": "FOUNDATION FOR REPRODUCTIVE MEDICINE", "city": "NEW YORK", "state": "NY", "zip": "10021-4917", "ntee": "H40", "ruling": "201707", "deductibility": "1", "assets": 52380, "income": 286882, "revenue": 286882}, {"ein": "821801873", "name": "ROCHESTER LIFESTYLE MEDICINE INSTITUTE INC", "city": "RUSH", "state": "NY", "zip": "14543-9401", "ntee": "", "ruling": "201711", "deductibility": "1", "assets": 405899, "income": 586634, "revenue": 586634}, {"ein": "824019223", "name": "MONTEFIORE MEDICINE ACADEMIC HEALTH SELF INSURANCE TRIST", "city": "BRONX", "state": "NY", "zip": "10467-2401", "ntee": "E11", "ruling": "201908", "deductibility": "1", "assets": 400515243, "income": 76517409, "revenue": 76517409}, {"ein": "825091873", "name": "UR MEDICINE HOME CARE COMMUNITY SERVICES INC", "city": "WEBSTER", "state": "NY", "zip": "14580-2029", "ntee": "E70", "ruling": "201905", "deductibility": "1", "assets": 3334331, "income": 2603120, "revenue": 2603120}, {"ein": "830621846", "name": "ALBERT EINSTEIN COLLEGE OF MEDICINE", "city": "BRONX", "state": "NY", "zip": "10461-1900", "ntee": "B50", "ruling": "201806", "deductibility": "1", "assets": 980596997, "income": 417158359, "revenue": 411439123}, {"ein": "831912967", "name": "UR MEDICINE HOME CARE FOUNDATION INC", "city": "WEBSTER", "state": "NY", "zip": "14580-2029", "ntee": "E11", "ruling": "201911", "deductibility": "1", "assets": 4267594, "income": 533292, "revenue": 533292}, {"ein": "833709834", "name": "NYMC - SCHOOL OF MEDICINE FACULTY PRACTICE CORPORATION", "city": "VALHALLA", "state": "NY", "zip": "10595-1524", "ntee": "B11", "ruling": "201909", "deductibility": "1", "assets": 104502, "income": 159313, "revenue": 159313}, {"ein": "841705022", "name": "THE FOUNDATION FOR GENDER-SPECIFIC MEDICINE INC", "city": "NEW YORK", "state": "NY", "zip": "10075-0338", "ntee": "H990", "ruling": "200710", "deductibility": "1", "assets": 664774, "income": 701144, "revenue": 701144}, {"ein": "842745309", "name": "CENTER FOR FOOD AS MEDICINE INC", "city": "NEW YORK", "state": "NY", "zip": "10003-1943", "ntee": "P12", "ruling": "201908", "deductibility": "1", "assets": 17509, "income": 70000, "revenue": 70000}, {"ein": "853187363", "name": "METHARLEM EMERGENCY MEDICINE RESIDENCY FUND INC", "city": "MAHOPAC", "state": "NY", "zip": "10541-1424", "ntee": "G12", "ruling": "202401", "deductibility": "1", "assets": 0, "income": 0, "revenue": 0}, {"ein": "880691753", "name": "AMERICAN COLLEGE OF EXOTIC PET MEDICINE INC", "city": "GREAT NECK", "state": "NY", "zip": "11021-4220", "ntee": "D40", "ruling": "202205", "deductibility": "1", "assets": 0, "income": 0, "revenue": 0}, {"ein": "884270441", "name": "KINDNESS IN MEDICINE MOVEMENT INC", "city": "ADDISLEIGH PK", "state": "NY", "zip": "11434-1434", "ntee": "E01", "ruling": "202502", "deductibility": "1", "assets": 0, "income": 0, "revenue": 0}, {"ein": "912190232", "name": "NEW YORK SPORTS MEDICINE ARTHRITIS RESEARCH AND EDUCATION FOUNDATION", "city": "NEW YORK", "state": "NY", "zip": "10123-0101", "ntee": "G51", "ruling": "200312", "deductibility": "1", "assets": 411, "income": 0, "revenue": 0}, {"ein": "921651195", "name": "LINCOLN EMERGENCY MEDICINE ALUMNI ASSOCIATION INC", "city": "BRONX", "state": "NY", "zip": "10451-5504", "ntee": "B84", "ruling": "202302", "deductibility": "1", "assets": 0, "income": 0, "revenue": 0}, {"ein": "922621461", "name": "COLLABORATIVE FOR HEALING AND RENEWAL IN MEDICINE", "city": "NEW YORK", "state": "NY", "zip": "10029-6504", "ntee": "E03", "ruling": "202403", "deductibility": "1", "assets": 72543, "income": 95802, "revenue": 95802}, {"ein": "923114080", "name": "ATRIA ACADEMY OF SCIENCE AND MEDICINE INC", "city": "NEW YORK", "state": "NY", "zip": "10019-4001", "ntee": "H99", "ruling": "202401", "deductibility": "1", "assets": 0, "income": 0, "revenue": 0}, {"ein": "943186276", "name": "AMERICAN BOARD OF PODIATRIC MEDICINE", "city": "EAST SYRACUSE", "state": "NY", "zip": "13057-4204", "ntee": "", "ruling": "199403", "deductibility": "2", "assets": 8762162, "income": 4207561, "revenue": 4045055}, {"ein": "991837745", "name": "PRECISION MEDICINE PATIENT ASSISTANCE FUND INC", "city": "BROOKLYN", "state": "NY", "zip": "11219-2581", "ntee": "H11", "ruling": "202411", "deductibility": "1", "assets": 0, "income": 0, "revenue": 0}], "HALE": [{"ein": "111870047", "name": "NATHAN HALE BEACH CLUB INC", "city": "HALESITE", "state": "NY", "zip": "11743-0857", "ntee": "", "ruling": "194506", "deductibility": "2", "assets": 26908, "income": 73183, "revenue": 73183}, {"ein": "112256380", "name": "NATHAN HALE HOUSING COMPANY INC", "city": "LYNBROOK", "state": "NY", "zip": "11563-3435", "ntee": "", "ruling": "197404", "deductibility": "1", "assets": 7241645, "income": 2218755, "revenue": 2218755}, {"ein": "132700687", "name": "HALE HOUSE CENTER INC", "city": "NEW YORK", "state": "NY", "zip": "10001-0000", "ntee": "F220", "ruling": "202105", "deductibility": "1", "assets": 0, "income": 0, "revenue": 0}, {"ein": "146031799", "name": "HALE CEMETERY ASSOCIATION INC", "city": "NORWOOD", "state": "NY", "zip": "13668-0062", "ntee": "", "ruling": "194012", "deductibility": "0", "assets": 0, "income": 0, "revenue": 0}, {"ein": "146138824", "name": "GERTRUDE HALE MEMORIAL SCHOLARSHIP FUND", "city": "NORWICH", "state": "NY", "zip": "13815-0000", "ntee": "", "ruling": "199104", "deductibility": "1", "assets": 144187, "income": 44330, "revenue": 0}, {"ein": "237387614", "name": "NATHAN HALE ROAD ASSOCIATION INC", "city": "HALESITE", "state": "NY", "zip": "11743-0900", "ntee": "", "ruling": "197512", "deductibility": "2", "assets": 0, "income": 0, "revenue": 0}, {"ein": "300104333", "name": "HARRISON HALE COMMUNITY ACTION CENTER INC", "city": "MEDFORD", "state": "NY", "zip": "11763-1659", "ntee": "B60", "ruling": "202311", "deductibility": "1", "assets": 0, "income": 0, "revenue": 0}], "DOMESTIC": [{"ein": "112470902", "name": "L I AGAINST DOMESTIC VIOLENCE INC", "city": "RONKONKOMA", "state": "NY", "zip": "11779-7669", "ntee": "P43Z", "ruling": "197710", "deductibility": "1", "assets": 3099180, "income": 2604516, "revenue": 2586845}, {"ein": "135562208", "name": "DOMESTIC AND FOREIGN MISSIONARY SOCIETY OF THE PROTESTANT EPISCOPA", "city": "NEW YORK", "state": "NY", "zip": "10017-4509", "ntee": "", "ruling": "194411", "deductibility": "1", "assets": 0, "income": 0, "revenue": 0}, {"ein": "141644567", "name": "DOMESTIC VIOLENCE & RAPE CRISIS SERVIES OF SARATOGA COUNTY", "city": "MALTA", "state": "NY", "zip": "12020-0000", "ntee": "P43Z", "ruling": "199402", "deductibility": "1", "assets": 5983021, "income": 1984786, "revenue": 1962322}, {"ein": "161099257", "name": "WILLOW DOMESTIC VIOLENCE CENTER OF GREATER ROCHESTER INC", "city": "ROCHESTER", "state": "NY", "zip": "14604-9601", "ntee": "P43Z", "ruling": "197807", "deductibility": "1", "assets": 7292673, "income": 6670704, "revenue": 6544089}, {"ein": "205667264", "name": "ST MARYS FOUNDATION FOR FOREIGN &DOMESTIC MISSION INC", "city": "GREENWICH", "state": "NY", "zip": "12834-7922", "ntee": "Q30", "ruling": "200701", "deductibility": "1", "assets": 0, "income": 0, "revenue": 0}, {"ein": "208258250", "name": "CHILDHOOD DOMESTIC VIOLENCE ASSOCIATION", "city": "NEW YORK", "state": "NY", "zip": "10016-0000", "ntee": "P50", "ruling": "200703", "deductibility": "1", "assets": 2006, "income": 186307, "revenue": 0}, {"ein": "222337608", "name": "NEW YORK STATE COALITION AGAINST DOMESTIC VIOLENCE INC", "city": "ALBANY", "state": "NY", "zip": "12210-2243", "ntee": "", "ruling": "198103", "deductibility": "1", "assets": 1003744, "income": 1611543, "revenue": 1611543}, {"ein": "223602303", "name": "REB-DOVID FUND INC DOMESTIC NFP", "city": "NEW YORK", "state": "NY", "zip": "10038-1656", "ntee": "P60", "ruling": "199912", "deductibility": "1", "assets": 0, "income": 0, "revenue": 0}, {"ein": "262602278", "name": "DOMESTIC HARMONY FOUNDATION", "city": "HICKSVILLE", "state": "NY", "zip": "11802-0102", "ntee": "P43", "ruling": "200903", "deductibility": "1", "assets": 317895, "income": 99769, "revenue": 99769}, {"ein": "270441096", "name": "DOMESTIC WORKERS UNITED INC", "city": "BROOKLYN", "state": "NY", "zip": "11238-3386", "ntee": "P20", "ruling": "201007", "deductibility": "1", "assets": 109851, "income": 163002, "revenue": 163002}, {"ein": "352420942", "name": "NATIONAL DOMESTIC WORKERS ALLIANCE INC", "city": "NEW YORK", "state": "NY", "zip": "10006-3717", "ntee": "R05", "ruling": "201206", "deductibility": "1", "assets": 37568362, "income": 40980806, "revenue": 28049487}, {"ein": "383709826", "name": "TOWN OF HAMBURG DOMESTIC VIOLENCE CITIZENS ADVISORY BOARD INC", "city": "HAMBURG", "state": "NY", "zip": "14075-3766", "ntee": "P46", "ruling": "200607", "deductibility": "1", "assets": 0, "income": 0, "revenue": 0}, {"ein": "814811113", "name": "FRIENDS AGAINST DOMESTIC ABUSE", "city": "FARMINGDALE", "state": "NY", "zip": "11735-2893", "ntee": "I70", "ruling": "201702", "deductibility": "1", "assets": 0, "income": 0, "revenue": 0}, {"ein": "830524546", "name": "HEATHER HURLEY FOUNDATION FOR THE PREVENTION OF DOMESTIC VIOLENC", "city": "BROOKLYN", "state": "NY", "zip": "11212-4633", "ntee": "I73", "ruling": "202312", "deductibility": "1", "assets": 0, "income": 0, "revenue": 0}, {"ein": "994755622", "name": "CHILDREN AFFECTED BY DOMESTIC VIOLENCE OUTREACH SERVICES INC", "city": "NONE", "state": "NY", "zip": "10003-0000", "ntee": "P43", "ruling": "202410", "deductibility": "1", "assets": 0, "income": 0, "revenue": 0}], "SHABSE": [{"ein": "112500467", "name": "KEREN SHABSE V RIVKA WEINSTEIN INC", "city": "BROOKLYN", "state": "NY", "zip": "11235-4115", "ntee": "", "ruling": "197908", "deductibility": "1", "assets": 0, "income": 0, "revenue": 0}], "PAST": [{"ein": "112514651", "name": "PAST CHIEFS OF THE FIRE COMPANY OF EAST FARMINGDALE INC", "city": "FARMINGDALE", "state": "NY", "zip": "11735-2413", "ntee": "M24", "ruling": "201409", "deductibility": "1", "assets": 0, "income": 0, "revenue": 0}, {"ein": "113183866", "name": "HOLMWOOD PAST STUDENTS ASSOCIATION INC", "city": "SPRNGFLD GDNS", "state": "NY", "zip": "11413-0039", "ntee": "", "ruling": "199702", "deductibility": "1", "assets": 0, "income": 0, "revenue": 0}, {"ein": "113404652", "name": "YORK STREET PAST STUDENTS ASSOCIATION INC", "city": "JAMAICA", "state": "NY", "zip": "11431-0508", "ntee": "Z99", "ruling": "199804", "deductibility": "1", "assets": 0, "income": 0, "revenue": 0}, {"ein": "116101930", "name": "LONG ISLAND PAST MASTERS ASSOCIATION", "city": "SMITHTOWN", "state": "NY", "zip": "11787-0340", "ntee": "Y42", "ruling": "202104", "deductibility": "1", "assets": 0, "income": 0, "revenue": 0}, {"ein": "133472046", "name": "MANNINGS PAST STUDENTS ASSOCIATION INC", "city": "BRONX", "state": "NY", "zip": "10469-2728", "ntee": "B84Z", "ruling": "199706", "deductibility": "1", "assets": 21542, "income": 15790, "revenue": 15790}, {"ein": "136130267", "name": "MASTERS & PAST MASTERS ASSOC OF THE 10TH MASONIC DISTRICT OF MANHATTAN", "city": "NEW YORK", "state": "NY", "zip": "10010-4102", "ntee": "", "ruling": "197011", "deductibility": "2", "assets": 0, "income": 0, "revenue": 0}, {"ein": "136133997", "name": "PAST MASTERS ASSOCIATION OF THE 9TH MANHATTAN DISTRICT F & A M INC", "city": "GREENLAWN", "state": "NY", "zip": "11740-2126", "ntee": "", "ruling": "194209", "deductibility": "2", "assets": 0, "income": 0, "revenue": 0}, {"ein": "364595701", "name": "SPRINGFIELD PAST STUDENT ASSOCIATION", "city": "MOUNT VERNON", "state": "NY", "zip": "10553-1422", "ntee": "Q12", "ruling": "201010", "deductibility": "1", "assets": 0, "income": 0, "revenue": 0}, {"ein": "453850760", "name": "KNOX ASSN OF PAST STUDENTS NY CHAPTER INC", "city": "BRONX", "state": "NY", "zip": "10475-4532", "ntee": "B84", "ruling": "201501", "deductibility": "1", "assets": 0, "income": 0, "revenue": 0}, {"ein": "455398253", "name": "VAUXHALL PAST STUDENTS ASSOCIATION NY CHAPTER INC", "city": "BROOKLYN", "state": "NY", "zip": "11226-0000", "ntee": "B82", "ruling": "201407", "deductibility": "1", "assets": 0, "income": 0, "revenue": 0}, {"ein": "465657777", "name": "MASTERS AND PAST MASTERS ASSOC OF THE BRONX MASONIC DISTRICT INC", "city": "BRONX", "state": "NY", "zip": "10464-1529", "ntee": "T12", "ruling": "201501", "deductibility": "1", "assets": 153236, "income": 10125, "revenue": 0}, {"ein": "475344028", "name": "TITCHFIELD PAST STUDENTS SPORTS ASSOCIATION INC", "city": "MALVERNE", "state": "NY", "zip": "11565-1915", "ntee": "B84", "ruling": "202405", "deductibility": "1", "assets": 0, "income": 0, "revenue": 0}, {"ein": "510552090", "name": "PRESERVE OUR PAST INC", "city": "LITTLE FALLS", "state": "NY", "zip": "13365-0105", "ntee": "A80", "ruling": "200802", "deductibility": "1", "assets": 0, "income": 0, "revenue": 0}, {"ein": "541636461", "name": "PAST REGIONAL PRESIDENTS OF THE FLEET RESERVE ASSOCIATION INC", "city": "STATEN ISLAND", "state": "NY", "zip": "10312-0000", "ntee": "", "ruling": "199802", "deductibility": "1", "assets": 502429, "income": 99356, "revenue": 33360}, {"ein": "811886353", "name": "PAST OUR LADY OF APOSTLES GIRLS ASSOCIATION NORTH AMERICA INC", "city": "NEW YORK", "state": "NY", "zip": "10036-6302", "ntee": "T12", "ruling": "201603", "deductibility": "1", "assets": 0, "income": 0, "revenue": 0}, {"ein": "822445956", "name": "CELEBRATE ST JAMES PAST-PRESENT-FUTURE INC", "city": "SAINT JAMES", "state": "NY", "zip": "11780-2062", "ntee": "A20", "ruling": "201708", "deductibility": "1", "assets": 177875, "income": 212389, "revenue": 147708}, {"ein": "871185597", "name": "PUSH PAST PAST PAIN SUPPORT GROUP", "city": "FAR ROCKAWAY", "state": "NY", "zip": "11691-4546", "ntee": "F60", "ruling": "202110", "deductibility": "1", "assets": 0, "income": 0, "revenue": 0}, {"ein": "883616505", "name": "PARENTS PUSHING PAST THEIR GRIEF INC", "city": "CHEEKTOWAGA", "state": "NY", "zip": "14225-3842", "ntee": "F60", "ruling": "202301", "deductibility": "1", "assets": 0, "income": 0, "revenue": 0}, {"ein": "921659678", "name": "MT HANNAH PAST STUDENT ALUMNI ASSOCIATION INC", "city": "BRONX", "state": "NY", "zip": "10466-4103", "ntee": "W99", "ruling": "202302", "deductibility": "1", "assets": 0, "income": 0, "revenue": 0}, {"ein": "934028702", "name": "5 PAST MIDNIGHT LLC", "city": "NEW YORK", "state": "NY", "zip": "10036-2030", "ntee": "N69", "ruling": "202312", "deductibility": "1", "assets": 0, "income": 0, "revenue": 0}, {"ein": "992010447", "name": "MULTIPLE DISTRICT 20 PAST DISTRICT GOVERNORS FOUNDATION", "city": "ROSLYN", "state": "NY", "zip": "11576-1099", "ntee": "W70", "ruling": "202403", "deductibility": "1", "assets": 0, "income": 0, "revenue": 0}], "JESODE": [{"ein": "112570062", "name": "YEAHIVA JESODE HATORAH MOSDOS SANZ LTD", "city": "BROOKLYN", "state": "NY", "zip": "11211-7910", "ntee": "", "ruling": "198106", "deductibility": "1", "assets": 0, "income": 0, "revenue": 0}, {"ein": "113275833", "name": "YESHIVA JESODE HATORAH NACHLAS YAKOV OF KHAL ADAS YEREIM INC", "city": "BROOKLYN", "state": "NY", "zip": "11219-3501", "ntee": "B20Z", "ruling": "199702", "deductibility": "1", "assets": 0, "income": 0, "revenue": 0}, {"ein": "113305948", "name": "CONGREGATION KEHAL JESODE HATORAH", "city": "BROOKLYN", "state": "NY", "zip": "11204-1114", "ntee": "X20Z", "ruling": "199605", "deductibility": "1", "assets": 0, "income": 0, "revenue": 0}], "WEEK": [{"ein": "112610224", "name": "IRISH AMERICAN HERITAGE & CULTURE WEEK COMMITTEE INC", "city": "STATEN ISLAND", "state": "NY", "zip": "10304-4112", "ntee": "A23", "ruling": "201707", "deductibility": "1", "assets": 8613, "income": 0, "revenue": 0}, {"ein": "133058019", "name": "HARLEM WEEK INC", "city": "NEW YORK", "state": "NY", "zip": "10030-2602", "ntee": "", "ruling": "198104", "deductibility": "1", "assets": 368325, "income": 1298010, "revenue": 1298010}, {"ein": "320210912", "name": "NATIONAL ENGINEERS WEEK FOUNDATION", "city": "LATHAM", "state": "NY", "zip": "12110-0192", "ntee": "B03", "ruling": "200212", "deductibility": "2", "assets": 51019, "income": 34179, "revenue": 34179}, {"ein": "462384700", "name": "53RD WEEK", "city": "BROOKLYN", "state": "NY", "zip": "11249-3142", "ntee": "E01", "ruling": "201411", "deductibility": "1", "assets": 0, "income": 0, "revenue": 0}, {"ein": "463614124", "name": "ARMY WEEK ASSOCIATION", "city": "NEW YORK", "state": "NY", "zip": "10029-6914", "ntee": "Z99", "ruling": "201612", "deductibility": "1", "assets": 1328, "income": 38595, "revenue": 38595}, {"ein": "471333297", "name": "PARA FASHION WEEK INC", "city": "NEW YORK", "state": "NY", "zip": "10005-2701", "ntee": "P80", "ruling": "201409", "deductibility": "1", "assets": 0, "income": 0, "revenue": 0}, {"ein": "542122176", "name": "ADVERTISING WEEK IN NEW YORK CITY INC", "city": "NEW YORK", "state": "NY", "zip": "10005-4518", "ntee": "S41", "ruling": "200408", "deductibility": "2", "assets": 1224098, "income": 0, "revenue": 0}, {"ein": "842673227", "name": "JUST A BUCK A WEEK CORPORATION", "city": "LEVITTOWN", "state": "NY", "zip": "11756-5223", "ntee": "P12", "ruling": "202001", "deductibility": "1", "assets": 5440, "income": 0, "revenue": 0}, {"ein": "932180473", "name": "FASHION WEEK CONNECTICUT CORP", "city": "BROOKLYN", "state": "NY", "zip": "11233-4717", "ntee": "A60", "ruling": "202502", "deductibility": "1", "assets": 0, "income": 0, "revenue": 0}], "GUARDSMEN": [{"ein": "112640723", "name": "NATIONAL ASSOCIATION OF GUARDSMEN INC", "city": "NEW YORK", "state": "NY", "zip": "10005-1746", "ntee": "", "ruling": "198205", "deductibility": "2", "assets": 688631, "income": 192022, "revenue": 145695}], "WHEELS": [{"ein": "112678581", "name": "THREE VILLAGE MEALS ON WHEELS INC", "city": "STONY BROOK", "state": "NY", "zip": "11790-1232", "ntee": "K36Z", "ruling": "198307", "deductibility": "1", "assets": 1270161, "income": 1473684, "revenue": 286602}, {"ein": "112977542", "name": "EAST HAMPTON MEALS ON WHEELS INC", "city": "EAST HAMPTON", "state": "NY", "zip": "11937-2496", "ntee": "", "ruling": "198910", "deductibility": "1", "assets": 2066924, "income": 428898, "revenue": 428898}, {"ein": "132831197", "name": "MEALS ON WHEELS PROGRAMS & SERVICES OF ROCKLAND INC", "city": "NANUET", "state": "NY", "zip": "10954-2939", "ntee": "K36Z", "ruling": "197506", "deductibility": "1", "assets": 3624513, "income": 4081080, "revenue": 3969499}, {"ein": "132894978", "name": "MEALS ON WHEELS OF STATEN ISLAND INC", "city": "STATEN ISLAND", "state": "NY", "zip": "10302-1700", "ntee": "K36Z", "ruling": "197708", "deductibility": "1", "assets": 18682910, "income": 16480199, "revenue": 6297903}, {"ein": "132966611", "name": "SCARSDALE MEALS ON WHEELS INC", "city": "SCARSDALE", "state": "NY", "zip": "10583-4413", "ntee": "", "ruling": "197908", "deductibility": "1", "assets": 0, "income": 0, "revenue": 0}, {"ein": "132988167", "name": "MEALS-ON-WHEELS OF WHITE PLAINS INC", "city": "WHITE PLAINS", "state": "NY", "zip": "10605-2217", "ntee": "K36Z", "ruling": "197907", "deductibility": "1", "assets": 220908, "income": 277091, "revenue": 277091}, {"ein": "133186919", "name": "MEALS-ON-WHEELS OF NEW ROCHELLE INC", "city": "NEW ROCHELLE", "state": "NY", "zip": "10801-7148", "ntee": "K36Z", "ruling": "198501", "deductibility": "1", "assets": 539066, "income": 356042, "revenue": 353510}, {"ein": "133419791", "name": "MEALS ON WHEELS OF PORT CHESTER RYE BROOK RYE INC", "city": "RYE", "state": "NY", "zip": "10580-0555", "ntee": "", "ruling": "198804", "deductibility": "1", "assets": 0, "income": 0, "revenue": 0}, {"ein": "133634381", "name": "CITYMEALS-ON-WHEELS", "city": "NEW YORK", "state": "NY", "zip": "10017-6603", "ntee": "K360", "ruling": "199202", "deductibility": "1", "assets": 89351194, "income": 57922549, "revenue": 33654783}, {"ein": "141538305", "name": "MEALS ON WHEELS OF GREATER POUGHKEEPSIE", "city": "POUGHKEEPSIE", "state": "NY", "zip": "12603-0000", "ntee": "K36Z", "ruling": "199009", "deductibility": "1", "assets": 422359, "income": 89363, "revenue": 88622}, {"ein": "141557787", "name": "MEALS ON WHEELS OF GREATER NEWBURGH INC", "city": "NEWBURGH", "state": "NY", "zip": "12550-0848", "ntee": "K36Z", "ruling": "197501", "deductibility": "1", "assets": 272860, "income": 228415, "revenue": 228415}, {"ein": "141579140", "name": "WOODSTOCK AREA MEALS ON WHEELS INC", "city": "WOODSTOCK", "state": "NY", "zip": "12498-1233", "ntee": "K36", "ruling": "201205", "deductibility": "1", "assets": 92849, "income": 136462, "revenue": 136462}, {"ein": "141585991", "name": "MEALS ON WHEELS OF GREATER HYDE PARK INC", "city": "HYDE PARK", "state": "NY", "zip": "12538-1601", "ntee": "K32Z", "ruling": "197801", "deductibility": "1", "assets": 175217, "income": 126093, "revenue": 126093}, {"ein": "141759164", "name": "WARRIORS ON WHEELS INC", "city": "ALBANY", "state": "NY", "zip": "12209-1217", "ntee": "Z99Z", "ruling": "199309", "deductibility": "1", "assets": 7829, "income": 54604, "revenue": 54604}, {"ein": "141791712", "name": "MEALS ON WHEELS OF WAPPINGERS FALLS", "city": "WAPPINGERS FL", "state": "NY", "zip": "12590-2123", "ntee": "K36", "ruling": "200805", "deductibility": "1", "assets": 110715, "income": 113387, "revenue": 99502}, {"ein": "160912403", "name": "CORNING MEALS CN WHEELS INC", "city": "CORNING", "state": "NY", "zip": "14830-2633", "ntee": "K36Z", "ruling": "198008", "deductibility": "1", "assets": 2179197, "income": 829485, "revenue": 647848}, {"ein": "160970999", "name": "MEALS ON WHEELS OF SYRACUSE NEW YORK INC", "city": "SYRACUSE", "state": "NY", "zip": "13202-3954", "ntee": "", "ruling": "197009", "deductibility": "1", "assets": 3104061, "income": 1571578, "revenue": 1571578}, {"ein": "160975652", "name": "MEALS ON WHEELS OF WESTERN BROOME INC", "city": "ENDICOTT", "state": "NY", "zip": "13760-4521", "ntee": "K36Z", "ruling": "197308", "deductibility": "1", "assets": 1349428, "income": 442727, "revenue": 436624}, {"ein": "161056063", "name": "ECHO MEALS ON WHEELS WEST INC", "city": "SYRACUSE", "state": "NY", "zip": "13219-1748", "ntee": "K36Z", "ruling": "197506", "deductibility": "1", "assets": 355972, "income": 166850, "revenue": 166850}, {"ein": "161082828", "name": "MEALS ON WHEELS JAMESTOWN AREA INC", "city": "JAMESTOWN", "state": "NY", "zip": "14702-0056", "ntee": "K36Z", "ruling": "198503", "deductibility": "1", "assets": 217343, "income": 561061, "revenue": 560270}, {"ein": "161093437", "name": "KENMORE TOWN OF TONAWANDA MEALS ON WHEELS INC KEN TON MEALS ON WHEELS", "city": "TONAWANDA", "state": "NY", "zip": "14150-8082", "ntee": "K32Z", "ruling": "197803", "deductibility": "1", "assets": 588398, "income": 1009738, "revenue": 991052}, {"ein": "161188087", "name": "DUNKIRK-FREDONIA MEALS ON WHEELS INC", "city": "FREDONIA", "state": "NY", "zip": "14063-1332", "ntee": "", "ruling": "198404", "deductibility": "1", "assets": 303953, "income": 303915, "revenue": 303915}, {"ein": "161240804", "name": "AMHERST MEALS ON WHEELS INC", "city": "BUFFALO", "state": "NY", "zip": "14228-1142", "ntee": "P81Z", "ruling": "198704", "deductibility": "1", "assets": 1796314, "income": 1462140, "revenue": 842471}, {"ein": "161353247", "name": "MEALS ON WHEELS OF CHEMUNG COUNTY INC", "city": "ELMIRA", "state": "NY", "zip": "14901-2562", "ntee": "K36Z", "ruling": "199002", "deductibility": "1", "assets": 2256950, "income": 949135, "revenue": 942806}, {"ein": "222136571", "name": "TWIN CITIES MEALS ON WHEELS", "city": "NORTH TONAWANDA", "state": "NY", "zip": "14120-3349", "ntee": "K36Z", "ruling": "199402", "deductibility": "1", "assets": 121245, "income": 276257, "revenue": 201556}, {"ein": "222296486", "name": "NORTH AREA MEALS ON WHEELS INC", "city": "N SYRACUSE", "state": "NY", "zip": "13212-2454", "ntee": "", "ruling": "198303", "deductibility": "1", "assets": 1484601, "income": 1375781, "revenue": 1242404}, {"ein": "222300309", "name": "BALDWINSVILLE MEALS ON WHEELS INC", "city": "BALDWINSVILLE", "state": "NY", "zip": "13027-9759", "ntee": "", "ruling": "198006", "deductibility": "1", "assets": 227537, "income": 173090, "revenue": 173090}, {"ein": "222456126", "name": "BIG WHEELS BICYCLE CLUB INC", "city": "BUFFALO", "state": "NY", "zip": "14223-1708", "ntee": "", "ruling": "198308", "deductibility": "2", "assets": 0, "income": 0, "revenue": 0}, {"ein": "222564928", "name": "MASSENA MEALS ON WHEELS INC", "city": "MASSENA", "state": "NY", "zip": "13662-2610", "ntee": "K36Z", "ruling": "198612", "deductibility": "1", "assets": 310727, "income": 168533, "revenue": 167755}, {"ein": "223006210", "name": "CLARENCE NEWSTEAD MEALS ON WHEELS TASK FORCE", "city": "CLARENCE", "state": "NY", "zip": "14031-2002", "ntee": "", "ruling": "198911", "deductibility": "1", "assets": 1000619, "income": 21176, "revenue": 21176}, {"ein": "223242598", "name": "MEALS ON WHEELS NEW YORK STATE INC", "city": "WEBSTER", "state": "NY", "zip": "14580-2029", "ntee": "P01", "ruling": "201609", "deductibility": "1", "assets": 0, "income": 0, "revenue": 0}, {"ein": "237411928", "name": "MEALS ON WHEELS OF EASTERN ONONDAGA COUNTY INC", "city": "MANLIUS", "state": "NY", "zip": "13104-0072", "ntee": "K36Z", "ruling": "197612", "deductibility": "1", "assets": 986896, "income": 734038, "revenue": 734038}, {"ein": "260333747", "name": "HEALTH EDUCATION ON WHEELS INC", "city": "NEW YORK", "state": "NY", "zip": "10017-5773", "ntee": "E60", "ruling": "200907", "deductibility": "1", "assets": 8505, "income": 555, "revenue": 555}, {"ein": "364985471", "name": "WINE ON WHEELS INC", "city": "BRONX", "state": "NY", "zip": "10451-2380", "ntee": "P80", "ruling": "202111", "deductibility": "1", "assets": 251964, "income": 185910, "revenue": 154318}, {"ein": "384274468", "name": "PLANTS ON WHEELS INC", "city": "STATEN ISLAND", "state": "NY", "zip": "10310-2605", "ntee": "T50", "ruling": "202310", "deductibility": "1", "assets": 898, "income": 188, "revenue": 0}, {"ein": "464640100", "name": "HILTONS CLASSIC WHEELS ON MAIN STREET", "city": "HILTON", "state": "NY", "zip": "14468-1058", "ntee": "T50", "ruling": "201612", "deductibility": "1", "assets": 3297, "income": 8815, "revenue": 0}, {"ein": "465081559", "name": "WHEELS COLLECTIVE INC", "city": "NEW YORK", "state": "NY", "zip": "10006-3008", "ntee": "S30", "ruling": "202310", "deductibility": "1", "assets": 1, "income": 0, "revenue": 0}, {"ein": "465519468", "name": "CATHOLIC WORKER ON WHEELS", "city": "SYRACUSE", "state": "NY", "zip": "13224-1818", "ntee": "P85", "ruling": "201511", "deductibility": "1", "assets": 0, "income": 0, "revenue": 0}, {"ein": "611605910", "name": "WHEELS OF PROGRESS INC", "city": "NEW YORK", "state": "NY", "zip": "10029-2688", "ntee": "L40", "ruling": "201002", "deductibility": "1", "assets": 656400, "income": 126535, "revenue": 126535}, {"ein": "831612606", "name": "MOVIN R WHEELS INCORPORATED", "city": "STATEN ISLAND", "state": "NY", "zip": "10310-2127", "ntee": "R01", "ruling": "201907", "deductibility": "1", "assets": 0, "income": 0, "revenue": 0}, {"ein": "834639246", "name": "WILLS WHEELS INC", "city": "MELVILLE", "state": "NY", "zip": "11747-1635", "ntee": "T12", "ruling": "201905", "deductibility": "1", "assets": 0, "income": 0, "revenue": 0}, {"ein": "851709271", "name": "MAKEUP ON WHEELS FOUNDATION INC", "city": "STATEN ISLAND", "state": "NY", "zip": "10301-4335", "ntee": "P80", "ruling": "202203", "deductibility": "1", "assets": 23249, "income": 50712, "revenue": 50712}, {"ein": "852718070", "name": "THE COUCH ON WHEELS FOUNDATION INC", "city": "LONG BEACH", "state": "NY", "zip": "11561-3303", "ntee": "", "ruling": "202010", "deductibility": "1", "assets": 0, "income": 0, "revenue": 0}, {"ein": "922230919", "name": "WOMEN ON WHEELS INC", "city": "BRONX", "state": "NY", "zip": "10467-7421", "ntee": "E86", "ruling": "202303", "deductibility": "1", "assets": 0, "income": 0, "revenue": 0}], "LANITZRACHIM": [{"ein": "112718590", "name": "EZRA LANITZRACHIM AL SHEM BORUCH PINCHOS", "city": "BROOKLYN", "state": "NY", "zip": "11204-1824", "ntee": "", "ruling": "198503", "deductibility": "1", "assets": 0, "income": 0, "revenue": 0}, {"ein": "993386875", "name": "EZER LANITZRACHIM INC", "city": "BROOKLYN", "state": "NY", "zip": "11204-1425", "ntee": "T30", "ruling": "202505", "deductibility": "1", "assets": 0, "income": 0, "revenue": 0}], "GRASSROOT": [{"ein": "112803815", "name": "THE GRASSROOT MINISTRY INC", "city": "BROOKLYN", "state": "NY", "zip": "11203-3101", "ntee": "", "ruling": "199212", "deductibility": "1", "assets": 0, "income": 0, "revenue": 0}, {"ein": "800267317", "name": "GRASSROOT GIVERS INC", "city": "DELMAR", "state": "NY", "zip": "12054-0084", "ntee": "S20", "ruling": "200908", "deductibility": "1", "assets": 524634, "income": 838597, "revenue": 838597}, {"ein": "834141653", "name": "GRASSROOT MINISTRY INC", "city": "BROOKLYN", "state": "NY", "zip": "11203-3101", "ntee": "X20", "ruling": "201911", "deductibility": "1", "assets": 0, "income": 0, "revenue": 0}, {"ein": "852395462", "name": "JOY GRASSROOT FOUNDATION", "city": "SCHENECTADY", "state": "NY", "zip": "12306-4252", "ntee": "C11", "ruling": "202108", "deductibility": "1", "assets": 0, "income": 0, "revenue": 0}], "ZAFIR": [{"ein": "113135109", "name": "ERWIN & RUTH ZAFIR FOUNDATION INC", "city": "BROOKLYN", "state": "NY", "zip": "11219-3961", "ntee": "", "ruling": "199403", "deductibility": "1", "assets": 14197305, "income": 3930582, "revenue": 0}], "LTORAH": [{"ein": "113271725", "name": "AMERICAN FRIENDS OF EPERION SHLOMO LTORAH VCHESED INC", "city": "NEW YORK", "state": "NY", "zip": "10001-3304", "ntee": "T30I", "ruling": "199603", "deductibility": "1", "assets": 497293, "income": 77181, "revenue": 77181}, {"ein": "271146254", "name": "BAIS MEDRASH LTORAH VHOROAH SOUTH EAST INC", "city": "BROOKLYN", "state": "NY", "zip": "11218-4966", "ntee": "X30", "ruling": "201007", "deductibility": "1", "assets": 0, "income": 0, "revenue": 0}, {"ein": "452602254", "name": "YAD LTORAH INC", "city": "SUFFERN", "state": "NY", "zip": "10901-3507", "ntee": "X123", "ruling": "201206", "deductibility": "1", "assets": 133931, "income": 39565, "revenue": 39565}, {"ein": "800508691", "name": "BETH MEDRASH LTORAH UTEFILAH", "city": "BROOKLYN", "state": "NY", "zip": "11225-3126", "ntee": "", "ruling": "198108", "deductibility": "0", "assets": 0, "income": 0, "revenue": 0}], "PANAMA": [{"ein": "113350217", "name": "BALLET FOLKLORICO PANAMA NORBERTO BASILIO MOWATT", "city": "BROOKLYN", "state": "NY", "zip": "11238-3140", "ntee": "A63", "ruling": "201710", "deductibility": "1", "assets": 0, "income": 0, "revenue": 0}, {"ein": "161504745", "name": "PANAMA MIDGET FOOTBALL", "city": "ASHVILLE", "state": "NY", "zip": "14710-0202", "ntee": "N60", "ruling": "202306", "deductibility": "1", "assets": 0, "income": 0, "revenue": 0}, {"ein": "161549487", "name": "PANAMA FIRE COMPANY INC", "city": "PANAMA", "state": "NY", "zip": "14767-0057", "ntee": "M24", "ruling": "199811", "deductibility": "1", "assets": 146398, "income": 91089, "revenue": 84203}, {"ein": "824326106", "name": "SOCIEDAD MOLAS DE PANAMA INC", "city": "BROOKLYN", "state": "NY", "zip": "11221-4906", "ntee": "A20", "ruling": "201804", "deductibility": "1", "assets": 0, "income": 0, "revenue": 0}, {"ein": "853746592", "name": "PANAMA ANDYS DOG RESCUE AND SANCTUARY INC", "city": "HUNTINGTON", "state": "NY", "zip": "11743-1548", "ntee": "D20", "ruling": "202104", "deductibility": "1", "assets": 0, "income": 0, "revenue": 0}, {"ein": "931780519", "name": "CHABAD BOCAS PANAMA INC", "city": "BROOKLYN", "state": "NY", "zip": "11225-4513", "ntee": "X30", "ruling": "202501", "deductibility": "1", "assets": 0, "income": 0, "revenue": 0}, {"ein": "994164855", "name": "CHABAD VENAO PANAMA INC", "city": "BROOKLYN", "state": "NY", "zip": "11238-2614", "ntee": "X30", "ruling": "202506", "deductibility": "1", "assets": 0, "income": 0, "revenue": 0}], "ESSENCE": [{"ein": "113402776", "name": "WOMEN OF ESSENCE INTERNATIONAL MINISTRIES INC", "city": "AMITYVILLE", "state": "NY", "zip": "11701-1727", "ntee": "X21", "ruling": "200406", "deductibility": "1", "assets": 0, "income": 0, "revenue": 0}, {"ein": "830979603", "name": "ESSENCE THEATRE-STUDIO", "city": "BROOKLYN", "state": "NY", "zip": "11235-4218", "ntee": "A65", "ruling": "201903", "deductibility": "1", "assets": 11836, "income": 156718, "revenue": 156718}, {"ein": "861382400", "name": "HOUSE OF ESSENCE INC", "city": "EAST ELMHURST", "state": "NY", "zip": "11369-1320", "ntee": "X20", "ruling": "202203", "deductibility": "1", "assets": 0, "income": 0, "revenue": 0}, {"ein": "921432341", "name": "ESSENCE COMMUNITY SERVICES INC", "city": "POMONA", "state": "NY", "zip": "10970-2702", "ntee": "P46", "ruling": "202305", "deductibility": "1", "assets": 0, "income": 0, "revenue": 0}, {"ein": "994358106", "name": "TIME IS OF THE ESSENCE INC", "city": "NEW YORK", "state": "NY", "zip": "10003-1502", "ntee": "S99", "ruling": "202410", "deductibility": "1", "assets": 0, "income": 0, "revenue": 0}], "CHESEV": [{"ein": "113465786", "name": "CONGREGATION CHESEV SOFER OF PRESSBURG", "city": "BROOKLYN", "state": "NY", "zip": "11219-4746", "ntee": "X30", "ruling": "199902", "deductibility": "1", "assets": 0, "income": 0, "revenue": 0}], "BARKAI": [{"ein": "113487526", "name": "BARKAI FOUNDATION INC", "city": "BROOKLYN", "state": "NY", "zip": "11204-1747", "ntee": "B24", "ruling": "202312", "deductibility": "1", "assets": 20534451, "income": 10634718, "revenue": 10634718}], "ZANVIL": [{"ein": "113501112", "name": "GEMACH ZICHRON SHMIEL ZANVIL", "city": "BROOKLYN", "state": "NY", "zip": "11211-8036", "ntee": "X30", "ruling": "199910", "deductibility": "1", "assets": 0, "income": 0, "revenue": 0}, {"ein": "421562324", "name": "KIPAS CHASDEI SHMUEL ZANVIL", "city": "BROOKLYN", "state": "NY", "zip": "11211-8919", "ntee": "X30", "ruling": "200307", "deductibility": "1", "assets": 0, "income": 0, "revenue": 0}, {"ein": "842182132", "name": "CONGREGATION EIZER CHAIM ZANVIL RIBNITZ", "city": "MONROE", "state": "NY", "zip": "10950-3805", "ntee": "X30", "ruling": "201912", "deductibility": "1", "assets": 0, "income": 0, "revenue": 0}, {"ein": "862347728", "name": "KEREN CHAIM ZANVIL INC", "city": "BROOKLYN", "state": "NY", "zip": "11210-4737", "ntee": "X30", "ruling": "202106", "deductibility": "1", "assets": 0, "income": 547142, "revenue": 547142}, {"ein": "920534825", "name": "MIKVAH CHAIM ZANVIL", "city": "AIRMONT", "state": "NY", "zip": "10952-3072", "ntee": "X30", "ruling": "202408", "deductibility": "1", "assets": 0, "income": 0, "revenue": 0}], "SHOMER": [{"ein": "113525517", "name": "CONGREGATION SHOMER YISROEL", "city": "BROOKLYN", "state": "NY", "zip": "11211-8520", "ntee": "X30", "ruling": "200003", "deductibility": "1", "assets": 0, "income": 0, "revenue": 0}, {"ein": "421553671", "name": "SHOMER EMUNIM", "city": "BROOKLYN", "state": "NY", "zip": "11211-8726", "ntee": "X30", "ruling": "200302", "deductibility": "1", "assets": 0, "income": 0, "revenue": 0}, {"ein": "990670536", "name": "CONG SHOMER YISROEL", "city": "BROOKLYN", "state": "NY", "zip": "11211-8919", "ntee": "X30", "ruling": "202404", "deductibility": "1", "assets": 0, "income": 0, "revenue": 0}, {"ein": "991260698", "name": "SHOMER HABAYIT INC", "city": "LAWRENCE", "state": "NY", "zip": "11559-1248", "ntee": "P40", "ruling": "202403", "deductibility": "1", "assets": 0, "income": 0, "revenue": 0}], "SPIZZ": [{"ein": "113540986", "name": "ADAM PAUL SPIZZ MEMORIAL FOUNDATION", "city": "MANHASSET", "state": "NY", "zip": "11030-3907", "ntee": "T22", "ruling": "200006", "deductibility": "1", "assets": 1, "income": 1, "revenue": 0}], "PLAYCRAFTERS": [{"ein": "113556628", "name": "PLAYCRAFTERS", "city": "BELLPORT", "state": "NY", "zip": "11713-0452", "ntee": "A65", "ruling": "200409", "deductibility": "1", "assets": 0, "income": 0, "revenue": 0}], "CHADASH": [{"ein": "116156180", "name": "GIRLS TOWN OR CHADASH", "city": "BROOKLYN", "state": "NY", "zip": "11230-4137", "ntee": "Q300", "ruling": "197203", "deductibility": "1", "assets": 358083, "income": 1269914, "revenue": 1269914}, {"ein": "203113544", "name": "DOR CHADASH USA INC", "city": "NEW YORK", "state": "NY", "zip": "10128-9400", "ntee": "Q20", "ruling": "200608", "deductibility": "1", "assets": 0, "income": 0, "revenue": 0}, {"ein": "831217540", "name": "KEREN OR CHADASH INC", "city": "BROOKLYN", "state": "NY", "zip": "11230-4137", "ntee": "T50", "ruling": "202001", "deductibility": "1", "assets": 0, "income": 0, "revenue": 0}, {"ein": "832436423", "name": "GIRLS TOWN OR CHADASH INC", "city": "BROOKLYN", "state": "NY", "zip": "11230-4137", "ntee": "T30", "ruling": "202012", "deductibility": "1", "assets": 0, "income": 0, "revenue": 0}], "CALHOUN": [{"ein": "131623919", "name": "CALHOUN SCHOOL INC", "city": "NEW YORK", "state": "NY", "zip": "10024-5759", "ntee": "B24Z", "ruling": "194102", "deductibility": "1", "assets": 76584022, "income": 41862227, "revenue": 40814221}, {"ein": "137257019", "name": "JOHN CALHOUN BAKER CHARITABLE TR", "city": "NEW YORK", "state": "NY", "zip": "10024-6172", "ntee": "Q41", "ruling": "200012", "deductibility": "1", "assets": 2084710, "income": 214562, "revenue": 0}, {"ein": "202119687", "name": "CALHOUN SPORTS BOOSTERS INC", "city": "MERRICK", "state": "NY", "zip": "11566-2973", "ntee": "B112", "ruling": "200509", "deductibility": "1", "assets": 45908, "income": 70400, "revenue": 37786}, {"ein": "451652199", "name": "SANFORD H CALHOUN ALUMNI ASSOCIATION INC", "city": "MERRICK", "state": "NY", "zip": "11566-2973", "ntee": "B84", "ruling": "201708", "deductibility": "1", "assets": 0, "income": 0, "revenue": 0}, {"ein": "822786087", "name": "TA CALHOUN OPEN ARMS INC", "city": "JAMAICA", "state": "NY", "zip": "11435-5604", "ntee": "O55", "ruling": "201712", "deductibility": "1", "assets": 0, "income": 0, "revenue": 0}, {"ein": "862676316", "name": "DAVID L AND BARBARA D CALHOUN FAMILY FOUNDATION", "city": "ALBANY", "state": "NY", "zip": "12212-5201", "ntee": "T22", "ruling": "202107", "deductibility": "1", "assets": 3461217, "income": 5080794, "revenue": 0}, {"ein": "884014457", "name": "CALHOUN OTC BOOSTERS CORP", "city": "MERRICK", "state": "NY", "zip": "11566-2973", "ntee": "O12", "ruling": "202211", "deductibility": "1", "assets": 10467, "income": 51583, "revenue": 51583}], "TRAPHAGEN": [{"ein": "132894831", "name": "THE TRAPHAGEN FOUNDATION", "city": "NEW YORK", "state": "NY", "zip": "10128-1154", "ntee": "", "ruling": "197806", "deductibility": "1", "assets": 3958522, "income": 1014679, "revenue": 0}], "MYRRHBEARERS": [{"ein": "133104472", "name": "MONASTERY OF THE HOLY MYRRHBEARERS", "city": "OTEGO", "state": "NY", "zip": "13825-2265", "ntee": "", "ruling": "197210", "deductibility": "1", "assets": 0, "income": 0, "revenue": 0}], "HETRICK": [{"ein": "133104537", "name": "HETRICK-MARTIN INSTITUTE INC", "city": "NEW YORK", "state": "NY", "zip": "10003-0088", "ntee": "P010", "ruling": "198211", "deductibility": "1", "assets": 19095903, "income": 9725202, "revenue": 8602815}, {"ein": "207371570", "name": "MINNIE HETRICK TUW FBO ST JACOBS CH", "city": "BUFFALO", "state": "NY", "zip": "14240-1504", "ntee": "T22", "ruling": "201501", "deductibility": "1", "assets": 133489, "income": 44322, "revenue": 0}, {"ein": "207371624", "name": "MINNIE HETRICK TUW FBO BLACK ROCKCH", "city": "BUFFALO", "state": "NY", "zip": "14240-1504", "ntee": "T20", "ruling": "200902", "deductibility": "1", "assets": 129878, "income": 42121, "revenue": 0}], "SAMAJAM": [{"ein": "133183655", "name": "KERALA SAMAJAM OF GREATER NEW YORK INC", "city": "GLEN OAKS", "state": "NY", "zip": "11004-0311", "ntee": "P84", "ruling": "201305", "deductibility": "1", "assets": 0, "income": 0, "revenue": 0}, {"ein": "812683586", "name": "KERALA SAMAJAM OF STATEN ISLAND NEW YORK INC", "city": "STATEN ISLAND", "state": "NY", "zip": "10313-1795", "ntee": "A27", "ruling": "202308", "deductibility": "1", "assets": 0, "income": 0, "revenue": 0}], "SUSSMAN": [{"ein": "133187064", "name": "EDNA BAILEY SUSSMAN FUND", "city": "JERICHO", "state": "NY", "zip": "11753-0000", "ntee": "", "ruling": "198404", "deductibility": "1", "assets": 7105636, "income": 4783778, "revenue": 0}, {"ein": "136075849", "name": "OTTO SUSSMAN TR UA 5TH PARA 1 UWO", "city": "JERICHO", "state": "NY", "zip": "11753-0000", "ntee": "", "ruling": "194806", "deductibility": "1", "assets": 6218114, "income": 5924014, "revenue": 0}, {"ein": "208672478", "name": "AVIVA AND MARVIN SUSSMAN FOUNDATION", "city": "NEW YORK", "state": "NY", "zip": "10069-1029", "ntee": "T20", "ruling": "200810", "deductibility": "1", "assets": 85363, "income": 36655, "revenue": 0}, {"ein": "472974897", "name": "MARISSA POGAL-SUSSMAN MESENCHYMAL CHONDROSARCOMA RESEARC", "city": "ROCHESTER", "state": "NY", "zip": "14618-4867", "ntee": "H30", "ruling": "201503", "deductibility": "1", "assets": 0, "income": 0, "revenue": 0}, {"ein": "873959069", "name": "SUSSMAN FAMILY FOUNDATION INC", "city": "NEW YORK", "state": "NY", "zip": "10024-1835", "ntee": "T99", "ruling": "202402", "deductibility": "1", "assets": 6519161, "income": 4889075, "revenue": 0}], "MICO": [{"ein": "133235395", "name": "MICO OLD STUDENTS ASSOCIATION INC", "city": "BRONX", "state": "NY", "zip": "10469-3716", "ntee": "B84Z", "ruling": "199111", "deductibility": "1", "assets": 69290, "income": 27031, "revenue": 22807}], "DESAI": [{"ein": "133260252", "name": "ROHIT AND KATHARINE DESAI FOUNDATION", "city": "BETHPAGE", "state": "NY", "zip": "11714-0519", "ntee": "", "ruling": "198504", "deductibility": "1", "assets": 5044120, "income": 1331203, "revenue": 0}], "GREENS": [{"ein": "133418536", "name": "TUDOR CITY GREENS INC", "city": "NEW YORK", "state": "NY", "zip": "10017-6881", "ntee": "", "ruling": "198806", "deductibility": "1", "assets": 1977916, "income": 472940, "revenue": 0}, {"ein": "262542377", "name": "WOMENS GROUP OF THE GREENS INC", "city": "MELVILLE", "state": "NY", "zip": "11747-5264", "ntee": "B12", "ruling": "200905", "deductibility": "1", "assets": 16402, "income": 64761, "revenue": 64761}, {"ein": "821354216", "name": "UTICA GREENS INC", "city": "NEW YORK", "state": "NY", "zip": "10065-8306", "ntee": "K30", "ruling": "201705", "deductibility": "1", "assets": 0, "income": 0, "revenue": 0}, {"ein": "852951380", "name": "ST ANNS GREENS OF LEROY INC", "city": "ROCHESTER", "state": "NY", "zip": "14621-3065", "ntee": "P81", "ruling": "202105", "deductibility": "1", "assets": 5246093, "income": 6965369, "revenue": 2184202}], "PURSUIT": [{"ein": "133419595", "name": "PURSUIT OF PEACE INC", "city": "NEW YORK", "state": "NY", "zip": "10185-0000", "ntee": "Q400", "ruling": "198908", "deductibility": "1", "assets": 0, "income": 0, "revenue": 0}, {"ein": "222708051", "name": "HOLOCAUST SURVIVORS & FRIENDS INC PURSUIT OF JUSTICE INC", "city": "ALBANY", "state": "NY", "zip": "12203-5306", "ntee": "", "ruling": "198608", "deductibility": "1", "assets": 88332, "income": 37189, "revenue": 37189}, {"ein": "611652332", "name": "PURSUIT TRANSFORMATION COMPANY INC", "city": "LONG ISLAND CITY", "state": "NY", "zip": "11101-4402", "ntee": "B82", "ruling": "201308", "deductibility": "1", "assets": 14042037, "income": 10873359, "revenue": 10873359}, {"ein": "815397103", "name": "TRUE PURSUIT FOUNDATION INC", "city": "BRONX", "state": "NY", "zip": "10463-7227", "ntee": "F60", "ruling": "201707", "deductibility": "1", "assets": 17429, "income": 15500, "revenue": 15500}, {"ein": "870873764", "name": "WOMAN IN PURSUIT", "city": "SPRNGFLD GDNS", "state": "NY", "zip": "11413-3453", "ntee": "X20", "ruling": "202109", "deductibility": "1", "assets": 0, "income": 0, "revenue": 0}, {"ein": "874198584", "name": "VETERANS IN PURSUIT OF PROSPERITY INC", "city": "BROOKLYN", "state": "NY", "zip": "11207-7209", "ntee": "J20", "ruling": "202206", "deductibility": "1", "assets": 1, "income": 0, "revenue": 0}, {"ein": "874646495", "name": "PURSUIT RACING INC", "city": "CICERO", "state": "NY", "zip": "13039-7848", "ntee": "N60", "ruling": "202301", "deductibility": "1", "assets": 2040, "income": 24143, "revenue": 24143}, {"ein": "920974722", "name": "PURSUIT OF TRUTH", "city": "BUFFALO", "state": "NY", "zip": "14215-2618", "ntee": "S20", "ruling": "202211", "deductibility": "1", "assets": 0, "income": 0, "revenue": 0}, {"ein": "922413152", "name": "PURSUIT FOR RONNIE ORTIZ JR FOUNDATION INC", "city": "NEW YORK", "state": "NY", "zip": "10038-3612", "ntee": "O50", "ruling": "202403", "deductibility": "1", "assets": 0, "income": 0, "revenue": 0}, {"ein": "943479917", "name": "PURSUIT FOUNDATION INC", "city": "NEW YORK", "state": "NY", "zip": "10001-7604", "ntee": "B40", "ruling": "202203", "deductibility": "1", "assets": 0, "income": 0, "revenue": 0}], "ROSENBLUTH": [{"ein": "133460707", "name": "MILTON B ROSENBLUTH FUND INC", "city": "WOODBURY", "state": "NY", "zip": "11797-2012", "ntee": "", "ruling": "198810", "deductibility": "1", "assets": 696612, "income": 119361, "revenue": 0}], "FERRO": [{"ein": "133715710", "name": "DANIEL FERRO VOCAL PROGRAM INC", "city": "NEW YORK", "state": "NY", "zip": "10022-4503", "ntee": "", "ruling": "199407", "deductibility": "1", "assets": 4285, "income": 62749, "revenue": 62749}, {"ein": "814817970", "name": "FERRO FOUNDATION INC", "city": "COMMACK", "state": "NY", "zip": "11725-2535", "ntee": "T20", "ruling": "201710", "deductibility": "1", "assets": 230317, "income": 242164, "revenue": 142328}], "PSYCHOTHERA": [{"ein": "133745617", "name": "INTERNATIONAL BOARD FOR CERTIFICATION OF GROUP PSYCHOTHERA", "city": "NEW YORK", "state": "NY", "zip": "10010-6236", "ntee": "", "ruling": "199406", "deductibility": "2", "assets": 247694, "income": 97990, "revenue": 97990}], "OVERHILLS": [{"ein": "133922745", "name": "OVERHILLS FOUNDATION", "city": "GARDEN CITY", "state": "NY", "zip": "11530-6542", "ntee": "T20J", "ruling": "199706", "deductibility": "1", "assets": 13829051, "income": 207481, "revenue": 0}], "EMBLEMHEALTH": [{"ein": "133941542", "name": "EMBLEMHEALTH INC", "city": "NEW YORK", "state": "NY", "zip": "10041-0023", "ntee": "", "ruling": "199703", "deductibility": "1", "assets": 827526, "income": 1960266, "revenue": 1960266}], "OIZ": [{"ein": "134089512", "name": "OIZ VEHUDER", "city": "MONSEY", "state": "NY", "zip": "10952-0340", "ntee": "X30", "ruling": "200003", "deductibility": "1", "assets": 0, "income": 0, "revenue": 0}, {"ein": "822446311", "name": "CONG OIZ VEHUDAR INC", "city": "BROOKLYN", "state": "NY", "zip": "11211-8004", "ntee": "X99", "ruling": "201811", "deductibility": "1", "assets": 0, "income": 0, "revenue": 0}], "TRANSITCENTER": [{"ein": "134146467", "name": "TRANSITCENTER INC", "city": "NEW YORK", "state": "NY", "zip": "10004-2147", "ntee": "W40", "ruling": "200110", "deductibility": "1", "assets": 71237732, "income": 8372590, "revenue": 0}], "PROSTATE": [{"ein": "134152578", "name": "PROSTATE ACTION INC", "city": "NEW YORK", "state": "NY", "zip": "10075-0866", "ntee": "H30", "ruling": "200111", "deductibility": "1", "assets": 507091, "income": 43932, "revenue": 43932}, {"ein": "200101427", "name": "PROSTATE CANCER 101", "city": "KINGSTON", "state": "NY", "zip": "12401-4302", "ntee": "G19", "ruling": "201305", "deductibility": "1", "assets": 0, "income": 0, "revenue": 0}, {"ein": "223614365", "name": "INSTITUTE FOR BLADDER AND PROSTATE RESEARCH INC", "city": "NEW YORK", "state": "NY", "zip": "10021-4753", "ntee": "H80", "ruling": "200004", "deductibility": "1", "assets": 416768, "income": 64209, "revenue": 64209}, {"ein": "453052881", "name": "GLOBAL PROSTATE CANCER RESEARCH FOUNDATION INC", "city": "NEW YORK", "state": "NY", "zip": "10021-4087", "ntee": "H12", "ruling": "201207", "deductibility": "1", "assets": 3272431, "income": 109433, "revenue": 109433}, {"ein": "462734630", "name": "GOOD FOR MENS PROSTATE HEALTH INCORPORATED", "city": "HILTON", "state": "NY", "zip": "14468-8917", "ntee": "G30", "ruling": "201310", "deductibility": "1", "assets": 0, "income": 0, "revenue": 0}, {"ein": "463361142", "name": "PETER LATOS PROSTATE CANCER FOUNDATION INC", "city": "BAYSIDE", "state": "NY", "zip": "11360-0000", "ntee": "W99", "ruling": "201407", "deductibility": "1", "assets": 261, "income": 1350, "revenue": 0}, {"ein": "472434857", "name": "MEN ALLIED FOR THE NEED TO UNDERSTAND PROSTATE CANCER MANUP I", "city": "BUFFALO", "state": "NY", "zip": "14263-0001", "ntee": "B03", "ruling": "201812", "deductibility": "1", "assets": 10760, "income": 17622, "revenue": 17622}, {"ein": "812073676", "name": "WOMEN AND MEN AGAINST PROSTATE CANCER INC", "city": "BAY SHORE", "state": "NY", "zip": "11706-6027", "ntee": "", "ruling": "201610", "deductibility": "1", "assets": 0, "income": 0, "revenue": 0}], "BARBAD": [{"ein": "134164450", "name": "BARBAD CHAMBER ORCHESTRA INC", "city": "NEW YORK", "state": "NY", "zip": "10021-0014", "ntee": "A69", "ruling": "200202", "deductibility": "1", "assets": 0, "income": 0, "revenue": 0}], "YEARS": [{"ein": "134177993", "name": "ONE MILLION YEARS FOUNDATION INC", "city": "NEW YORK", "state": "NY", "zip": "10012-3241", "ntee": "T22", "ruling": "200109", "deductibility": "1", "assets": 26824578, "income": 5436510, "revenue": 0}, {"ein": "800401075", "name": "LIFEFORCE IN LATER YEARS INC", "city": "NEW YORK", "state": "NY", "zip": "10025-1960", "ntee": "P80", "ruling": "200908", "deductibility": "1", "assets": 380396, "income": 264919, "revenue": 264919}, {"ein": "831071156", "name": "YEARS PROJECT INC", "city": "MELVILLE", "state": "NY", "zip": "11747-1208", "ntee": "C30", "ruling": "201811", "deductibility": "1", "assets": 6621132, "income": 7575016, "revenue": 7575016}, {"ein": "871717622", "name": "GOLDEN YEARS PET SANCTUARY ORG INC", "city": "CASTLETON", "state": "NY", "zip": "12033-3006", "ntee": "D99", "ruling": "202110", "deductibility": "1", "assets": 0, "income": 0, "revenue": 0}, {"ein": "932112494", "name": "GOLDEN SENIOR YEARS FOUNDATION INC", "city": "ARDSLEY", "state": "NY", "zip": "10502-2018", "ntee": "P81", "ruling": "202409", "deductibility": "1", "assets": 0, "income": 0, "revenue": 0}], "WSP": [{"ein": "134187790", "name": "WSP FOUNDATION INC", "city": "NEW YORK", "state": "NY", "zip": "10119-0025", "ntee": "T20", "ruling": "200302", "deductibility": "1", "assets": 64965, "income": 518918, "revenue": 0}], "CHIZEVER": [{"ein": "136128604", "name": "CHIZEVER BENEVOLENT ASSOCIATION", "city": "NEW YORK", "state": "NY", "zip": "10010-3917", "ntee": "A80", "ruling": "200709", "deductibility": "2", "assets": 0, "income": 0, "revenue": 0}], "PEARLMAN": [{"ein": "136159092", "name": "HENRY & ROSE PEARLMAN FOUNDATION INC", "city": "NEW YORK", "state": "NY", "zip": "10025-0008", "ntee": "", "ruling": "195512", "deductibility": "1", "assets": 13711248, "income": 604997, "revenue": 0}, {"ein": "842221450", "name": "ALAN R PEARLMAN FOUNDATION INC", "city": "KINGSTON", "state": "NY", "zip": "12401-4046", "ntee": "B82", "ruling": "202003", "deductibility": "1", "assets": 0, "income": 0, "revenue": 0}], "UNIVERSITE": [{"ein": "136262934", "name": "FRIENDS OF UNIVERSITE LAVAL", "city": "NEW YORK", "state": "NY", "zip": "10016-2746", "ntee": "", "ruling": "196804", "deductibility": "1", "assets": 76012, "income": 79995, "revenue": 79995}], "BALANCED": [{"ein": "141732835", "name": "BALANCED INNOVATIVE TEACHING STRATEGIES INC", "city": "OLD CHATHAM", "state": "NY", "zip": "12136-0127", "ntee": "P82Z", "ruling": "199510", "deductibility": "1", "assets": 589347, "income": 281260, "revenue": 281260}, {"ein": "465352363", "name": "BALANCED LIFE CHRISTIAN CENTER INC", "city": "MOUNT VERNON", "state": "NY", "zip": "10550-1123", "ntee": "X20", "ruling": "201509", "deductibility": "1", "assets": 1054, "income": 42442, "revenue": 42442}], "TOPS": [{"ein": "141756870", "name": "TOPS CLUB INC", "city": "ALTAMONT", "state": "NY", "zip": "12009-3713", "ntee": "E70", "ruling": "200809", "deductibility": "1", "assets": 0, "income": 0, "revenue": 0}, {"ein": "161332278", "name": "TOPS CLUB INC", "city": "PHOENIX", "state": "NY", "zip": "13135-0000", "ntee": "E70", "ruling": "200809", "deductibility": "1", "assets": 0, "income": 0, "revenue": 0}, {"ein": "161403843", "name": "TOPS CLUB INC", "city": "DEXTER", "state": "NY", "zip": "13634-0000", "ntee": "E70", "ruling": "200809", "deductibility": "1", "assets": 0, "income": 0, "revenue": 0}, {"ein": "161416724", "name": "TOPS CLUB INC", "city": "ILION", "state": "NY", "zip": "13357-1320", "ntee": "E70", "ruling": "200809", "deductibility": "1", "assets": 0, "income": 0, "revenue": 0}, {"ein": "161512450", "name": "TOPS CLUB INC", "city": "CROGHAN", "state": "NY", "zip": "13327-2512", "ntee": "E70", "ruling": "200809", "deductibility": "1", "assets": 0, "income": 0, "revenue": 0}, {"ein": "161530521", "name": "TOPS CLUB INC", "city": "CENTRAL SQ", "state": "NY", "zip": "13036-2247", "ntee": "E70", "ruling": "200809", "deductibility": "1", "assets": 0, "income": 0, "revenue": 0}, {"ein": "161552126", "name": "TOPS CLUB INC", "city": "BLOSSVALE", "state": "NY", "zip": "13308-3029", "ntee": "E70", "ruling": "200809", "deductibility": "1", "assets": 0, "income": 0, "revenue": 0}, {"ein": "237248826", "name": "TOPS CLUB INC", "city": "CORTLAND", "state": "NY", "zip": "13045-8868", "ntee": "E70", "ruling": "200809", "deductibility": "1", "assets": 0, "income": 0, "revenue": 0}, {"ein": "300470380", "name": "TOPS CLUB INC", "city": "NEW WINDSOR", "state": "NY", "zip": "12553-8914", "ntee": "", "ruling": "200809", "deductibility": "1", "assets": 0, "income": 0, "revenue": 0}, {"ein": "300923439", "name": "TOPS CLUB INC", "city": "JOHNSON CITY", "state": "NY", "zip": "13790-2252", "ntee": "E70", "ruling": "200809", "deductibility": "1", "assets": 0, "income": 0, "revenue": 0}, {"ein": "301209057", "name": "TOPS CLUB INC", "city": "RICHMONDVILLE", "state": "NY", "zip": "12149-3505", "ntee": "", "ruling": "196601", "deductibility": "1", "assets": 0, "income": 0, "revenue": 0}, {"ein": "320473227", "name": "TOPS CLUB INC", "city": "ANGOLA", "state": "NY", "zip": "14006-0000", "ntee": "E70", "ruling": "200809", "deductibility": "1", "assets": 0, "income": 0, "revenue": 0}, {"ein": "352539254", "name": "TOPS CLUB INC", "city": "DUNKIRK", "state": "NY", "zip": "14048-1469", "ntee": "E70", "ruling": "200809", "deductibility": "1", "assets": 0, "income": 0, "revenue": 0}, {"ein": "352652169", "name": "TOPS CLUB INC", "city": "PENFIELD", "state": "NY", "zip": "14526-2637", "ntee": "E70", "ruling": "200809", "deductibility": "1", "assets": 0, "income": 0, "revenue": 0}, {"ein": "364813472", "name": "TOPS CLUB INC", "city": "PIFFARD", "state": "NY", "zip": "14533-0048", "ntee": "E70", "ruling": "200809", "deductibility": "1", "assets": 0, "income": 0, "revenue": 0}, {"ein": "371841389", "name": "TOPS CLUB INC", "city": "BUFFALO", "state": "NY", "zip": "14223-0000", "ntee": "E70", "ruling": "200809", "deductibility": "1", "assets": 0, "income": 0, "revenue": 0}, {"ein": "383993321", "name": "TOPS CLUB INC", "city": "WATERLOO", "state": "NY", "zip": "13165-8775", "ntee": "E70", "ruling": "200809", "deductibility": "1", "assets": 0, "income": 0, "revenue": 0}, {"ein": "384044129", "name": "TOPS CLUB INC", "city": "WEBSTER", "state": "NY", "zip": "14580-1113", "ntee": "E70", "ruling": "200809", "deductibility": "1", "assets": 0, "income": 0, "revenue": 0}, {"ein": "464040592", "name": "TOPS CLUB INC", "city": "LYONS", "state": "NY", "zip": "14489-1227", "ntee": "", "ruling": "200809", "deductibility": "1", "assets": 0, "income": 0, "revenue": 0}, {"ein": "465288346", "name": "TOPS CLUB INC", "city": "NIAGARA FALLS", "state": "NY", "zip": "14304-3453", "ntee": "E70", "ruling": "200809", "deductibility": "1", "assets": 0, "income": 0, "revenue": 0}, {"ein": "471871572", "name": "TOPS CLUB INC", "city": "YORKSHIRE", "state": "NY", "zip": "14173-0131", "ntee": "E70", "ruling": "200809", "deductibility": "1", "assets": 0, "income": 0, "revenue": 0}, {"ein": "474704764", "name": "TOPS CLUB INC", "city": "LYCOMING", "state": "NY", "zip": "13093-0027", "ntee": "E70", "ruling": "200809", "deductibility": "1", "assets": 0, "income": 0, "revenue": 0}, {"ein": "474704820", "name": "TOPS CLUB INC", "city": "ROCHESTER", "state": "NY", "zip": "14612-1030", "ntee": "E70", "ruling": "200809", "deductibility": "1", "assets": 0, "income": 0, "revenue": 0}, {"ein": "474724397", "name": "TOPS CLUB INC", "city": "MASSENA", "state": "NY", "zip": "13662-0000", "ntee": "E70", "ruling": "200809", "deductibility": "1", "assets": 0, "income": 0, "revenue": 0}, {"ein": "474743095", "name": "TOPS CLUB INC", "city": "N SYRACUSE", "state": "NY", "zip": "13212-1043", "ntee": "E70", "ruling": "200809", "deductibility": "1", "assets": 0, "income": 0, "revenue": 0}, {"ein": "474743525", "name": "TOPS CLUB INC", "city": "ARKPORT", "state": "NY", "zip": "14807-9458", "ntee": "E70", "ruling": "200809", "deductibility": "1", "assets": 0, "income": 0, "revenue": 0}, {"ein": "474791118", "name": "TOPS CLUB INC", "city": "JOHNSTOWN", "state": "NY", "zip": "12095-3779", "ntee": "E70", "ruling": "200809", "deductibility": "1", "assets": 0, "income": 0, "revenue": 0}, {"ein": "474872658", "name": "TOPS CLUB INC", "city": "ALEX BAY", "state": "NY", "zip": "13607-4143", "ntee": "E70", "ruling": "200809", "deductibility": "1", "assets": 0, "income": 0, "revenue": 0}, {"ein": "611791959", "name": "TOPS CLUB INC", "city": "SILVER CREEK", "state": "NY", "zip": "14136-1420", "ntee": "E70", "ruling": "200809", "deductibility": "1", "assets": 0, "income": 0, "revenue": 0}, {"ein": "611812791", "name": "TOPS CLUB INC", "city": "KENDALL", "state": "NY", "zip": "14476-9500", "ntee": "E70", "ruling": "200809", "deductibility": "1", "assets": 0, "income": 0, "revenue": 0}, {"ein": "640959894", "name": "TOPS NY 334 NORWICH", "city": "NORWICH", "state": "NY", "zip": "13815-1741", "ntee": "E70", "ruling": "201610", "deductibility": "1", "assets": 0, "income": 0, "revenue": 0}, {"ein": "842493202", "name": "TOPS CLUB INC", "city": "ALBANY", "state": "NY", "zip": "12206-1401", "ntee": "", "ruling": "200809", "deductibility": "1", "assets": 0, "income": 0, "revenue": 0}], "CONESVILLE": [{"ein": "141820476", "name": "CONESVILLE RESCUE SQUAD", "city": "GILBOA", "state": "NY", "zip": "12076-2819", "ntee": "E62", "ruling": "202409", "deductibility": "1", "assets": 0, "income": 0, "revenue": 0}, {"ein": "452861397", "name": "CONESVILLE FIRE DEPARTMENT", "city": "GILBOA", "state": "NY", "zip": "12076-0000", "ntee": "M24", "ruling": "201703", "deductibility": "1", "assets": 0, "income": 0, "revenue": 0}, {"ein": "882847199", "name": "CONESVILLE HISTORICAL SOCIETY", "city": "GILBOA", "state": "NY", "zip": "12076-2822", "ntee": "A80", "ruling": "202206", "deductibility": "1", "assets": 0, "income": 0, "revenue": 0}], "PLACES": [{"ein": "141825572", "name": "BRIDGING PEOPLE AND PLACES ONE PERSON AT A TIME INC", "city": "SARATOGA SPRINGS", "state": "NY", "zip": "12866-9465", "ntee": "T30", "ruling": "200012", "deductibility": "1", "assets": 0, "income": 0, "revenue": 0}, {"ein": "263434662", "name": "RUNNING TO PLACES THEATRE COMPANY LIMITED", "city": "ITHACA", "state": "NY", "zip": "14850-3315", "ntee": "A65", "ruling": "200810", "deductibility": "1", "assets": 97500, "income": 197599, "revenue": 194342}, {"ein": "853014709", "name": "PEOPLE WITHOUT PLACES INC", "city": "NEW YORK", "state": "NY", "zip": "10003-2324", "ntee": "P85", "ruling": "202105", "deductibility": "1", "assets": 0, "income": 0, "revenue": 0}, {"ein": "882342871", "name": "GO PLACES NY INC", "city": "FLUSHING", "state": "NY", "zip": "11354-0000", "ntee": "A01", "ruling": "202205", "deductibility": "1", "assets": 0, "income": 0, "revenue": 0}, {"ein": "883620442", "name": "NATIONAL SOCIETY FOUNDERS OF PLACES OF WORSHIP IN AMERICA", "city": "SARATOGA SPGS", "state": "NY", "zip": "12866-7501", "ntee": "A80", "ruling": "202208", "deductibility": "1", "assets": 0, "income": 0, "revenue": 0}], "PEBBLE": [{"ein": "156010939", "name": "PEBBLE HILL PRESBYTERIAN CHURCH", "city": "SYRACUSE", "state": "NY", "zip": "13214-2445", "ntee": "", "ruling": "196401", "deductibility": "1", "assets": 0, "income": 0, "revenue": 0}, {"ein": "160973557", "name": "MANLIUS PEBBLE HILL SCHOOL", "city": "SYRACUSE", "state": "NY", "zip": "13214-2446", "ntee": "B24Z", "ruling": "197106", "deductibility": "1", "assets": 24387113, "income": 12975114, "revenue": 12430197}], "ELMLAWN": [{"ein": "160365550", "name": "ELMLAWN CEMETERY & CREMATORY INC", "city": "KENMORE", "state": "NY", "zip": "14217-1057", "ntee": "", "ruling": "194310", "deductibility": "1", "assets": 7572276, "income": 4996071, "revenue": 3467522}, {"ein": "472298692", "name": "ELMLAWN MEMORIAL PARK FOUNDATION INC", "city": "KENMORE", "state": "NY", "zip": "14217-1057", "ntee": "B11", "ruling": "201508", "deductibility": "1", "assets": 0, "income": 0, "revenue": 0}], "DAMN": [{"ein": "161098718", "name": "DAMN YANKEES OLD TIMERS HOCKEY TEAM INC", "city": "N TONAWANDA", "state": "NY", "zip": "14120-1489", "ntee": "", "ruling": "197803", "deductibility": "2", "assets": 0, "income": 0, "revenue": 0}, {"ein": "881119651", "name": "A DAMN GOODM LIFE INC", "city": "EAST HAMPTON", "state": "NY", "zip": "11937-1336", "ntee": "E60", "ruling": "202204", "deductibility": "1", "assets": 0, "income": 0, "revenue": 0}], "UMH": [{"ein": "161421888", "name": "UMH JGJ CORP", "city": "BINGHAMTON", "state": "NY", "zip": "13904-2715", "ntee": "", "ruling": "199011", "deductibility": "1", "assets": 4919771, "income": 6475642, "revenue": 6465212}, {"ein": "161421889", "name": "UMH ECM CORP", "city": "BINGHAMTON", "state": "NY", "zip": "13904-2715", "ntee": "E910", "ruling": "199011", "deductibility": "1", "assets": 4583959, "income": 13578467, "revenue": 13074403}, {"ein": "161486032", "name": "UMH MANAGEMENT SERVICES CORP", "city": "BINGHAMTON", "state": "NY", "zip": "13904-2715", "ntee": "P020", "ruling": "199011", "deductibility": "1", "assets": 12162917, "income": 6366576, "revenue": 5269395}, {"ein": "223266577", "name": "UMH PA CORP", "city": "BINGHAMTON", "state": "NY", "zip": "13904-2715", "ntee": "P750", "ruling": "199011", "deductibility": "1", "assets": 62000176, "income": 37228939, "revenue": 30409853}, {"ein": "240856145", "name": "UMH NY CORP", "city": "BINGHAMTON", "state": "NY", "zip": "13904-2715", "ntee": "", "ruling": "199011", "deductibility": "1", "assets": 23809150, "income": 20957075, "revenue": 14412119}], "CLAN": [{"ein": "161490471", "name": "MENZIES CLAN SOCIETY OF NORTH AMERICA INC", "city": "WARSAW", "state": "NY", "zip": "14569-1419", "ntee": "A23", "ruling": "201508", "deductibility": "1", "assets": 0, "income": 0, "revenue": 0}, {"ein": "161519246", "name": "CLAN MACCARTHY SOCIETY INC", "city": "TROY", "state": "NY", "zip": "12180-7224", "ntee": "B82", "ruling": "199805", "deductibility": "1", "assets": 0, "income": 0, "revenue": 0}, {"ein": "271018038", "name": "CLAN NA CARA PARENT ORGANIZATION", "city": "VESTAL", "state": "NY", "zip": "13850-1608", "ntee": "O50", "ruling": "201306", "deductibility": "2", "assets": 0, "income": 0, "revenue": 0}, {"ein": "274171806", "name": "CURTIN CLAN INC", "city": "ADIRONDACK", "state": "NY", "zip": "12808-0009", "ntee": "A20", "ruling": "201204", "deductibility": "1", "assets": 0, "income": 0, "revenue": 0}, {"ein": "411451279", "name": "CLAN SINCLAIR ASSOCIATION INC", "city": "MARCELLUS", "state": "NY", "zip": "13108-8714", "ntee": "N50", "ruling": "201410", "deductibility": "2", "assets": 0, "income": 0, "revenue": 0}, {"ein": "411949804", "name": "CLAN SINCLAIR U S A CHARITABLE TRUST INC", "city": "MARCELLUS", "state": "NY", "zip": "13108-8714", "ntee": "A23", "ruling": "199911", "deductibility": "1", "assets": 0, "income": 0, "revenue": 0}, {"ein": "541195760", "name": "THE MAC ARTHUR SOCIETY IN UNITED STATES BRANCH OF CLAN ARTHUR INC", "city": "MARCELLUS", "state": "NY", "zip": "13108-8714", "ntee": "", "ruling": "198810", "deductibility": "2", "assets": 0, "income": 0, "revenue": 0}, {"ein": "824759756", "name": "GOJO CLAN PRODUCTIONS", "city": "HASTINGS HDSN", "state": "NY", "zip": "10706-3208", "ntee": "A65", "ruling": "201803", "deductibility": "1", "assets": 0, "income": 0, "revenue": 0}], "RECLAIMED": [{"ein": "161532432", "name": "RECLAIMED MINISTRIES INC", "city": "AVOCA", "state": "NY", "zip": "14809-0055", "ntee": "", "ruling": "199107", "deductibility": "1", "assets": 0, "income": 0, "revenue": 0}], "HUMMEL": [{"ein": "161577002", "name": "THE RONALD S AND SUSAN D HUMMEL", "city": "FAYETTEVILLE", "state": "NY", "zip": "13066-8718", "ntee": "P11", "ruling": "200005", "deductibility": "1", "assets": 367612, "income": 78564, "revenue": 0}, {"ein": "474921414", "name": "HUMMEL FAMILY FOUNDATION", "city": "NEW YORK", "state": "NY", "zip": "10020-1300", "ntee": "T20", "ruling": "201602", "deductibility": "1", "assets": 79915980, "income": 52923826, "revenue": 0}], "KELL": [{"ein": "166538525", "name": "GRACE K KELL TUW TR", "city": "BUFFALO", "state": "NY", "zip": "14240-1504", "ntee": "T20", "ruling": "200609", "deductibility": "1", "assets": 2405918, "income": 628236, "revenue": 0}], "GEOLOGICAL": [{"ein": "200566549", "name": "BUFFALO GEOLOGICAL SOCIETY INC", "city": "BUFFALO", "state": "NY", "zip": "14210-2110", "ntee": "A80", "ruling": "200403", "deductibility": "1", "assets": 53305, "income": 44410, "revenue": 44350}, {"ein": "223460749", "name": "ANGELO TAGLIACOZZO MEMORIAL GEOLOGICAL SCHOLARSHIP TR FUND INC", "city": "CLIFTON PARK", "state": "NY", "zip": "12065-2055", "ntee": "B12", "ruling": "201905", "deductibility": "1", "assets": 0, "income": 0, "revenue": 0}], "BEROT": [{"ein": "201923745", "name": "AMERICAN FRIENDS OF MIDRESHET BEROT BAT AYIN INC", "city": "NEW YORK", "state": "NY", "zip": "10009-0000", "ntee": "T11", "ruling": "200605", "deductibility": "1", "assets": 123517, "income": 115100, "revenue": 115100}], "POSILLICO": [{"ein": "202143917", "name": "POSILLICO GROUP FOUNDATION INC", "city": "FARMINGDALE", "state": "NY", "zip": "11735-1562", "ntee": "T22", "ruling": "200602", "deductibility": "1", "assets": 46944, "income": 403906, "revenue": 0}], "ALIZAI": [{"ein": "202419185", "name": "ALIZAI FOUNDATION INC", "city": "BROOKLYN", "state": "NY", "zip": "11230-2303", "ntee": "Q33", "ruling": "201502", "deductibility": "1", "assets": 0, "income": 0, "revenue": 0}], "DONDEN": [{"ein": "202534047", "name": "DONDEN CHOJIN ASSOCIATION", "city": "DELHI", "state": "NY", "zip": "13753-8748", "ntee": "X50", "ruling": "200606", "deductibility": "1", "assets": 0, "income": 0, "revenue": 0}], "HAKIRAH": [{"ein": "203178577", "name": "HAKIRAH INC", "city": "LAWRENCE", "state": "NY", "zip": "11559-1689", "ntee": "T20", "ruling": "200604", "deductibility": "1", "assets": 42857, "income": 23971, "revenue": 0}], "TUGBOAT": [{"ein": "204105764", "name": "TUGBOAT PRESERVATION PROJECT", "city": "BROOKLYN", "state": "NY", "zip": "11201-3040", "ntee": "A99", "ruling": "201907", "deductibility": "1", "assets": 20910, "income": 0, "revenue": 0}], "ARTFRONT": [{"ein": "204270340", "name": "ARTFRONT INC", "city": "HUDSON", "state": "NY", "zip": "12534-2150", "ntee": "A20", "ruling": "202408", "deductibility": "1", "assets": 0, "income": 0, "revenue": 0}], "FIGMENT": [{"ein": "204582464", "name": "FIGMENT PROJECT INC", "city": "NEW YORK", "state": "NY", "zip": "10018-2991", "ntee": "A20", "ruling": "200703", "deductibility": "1", "assets": 256717, "income": 80162, "revenue": 80162}], "REHEMA": [{"ein": "205768716", "name": "REHEMA HOME US FUNDRAISING INC", "city": "ROCHESTER", "state": "NY", "zip": "14606-1959", "ntee": "T30", "ruling": "200710", "deductibility": "1", "assets": 86036, "income": 407357, "revenue": 407357}], "MOUSSAZADEH": [{"ein": "206340876", "name": "MOUSSAZADEH FAM FOUNDATION", "city": "NEW YORK", "state": "NY", "zip": "10028-0130", "ntee": "T20", "ruling": "200412", "deductibility": "1", "assets": 14177, "income": 1, "revenue": 0}], "10K": [{"ein": "208641160", "name": "CLASSIC 10K ROAD RACE INC", "city": "MIDDLETOWN", "state": "NY", "zip": "10940-2235", "ntee": "N700", "ruling": "200805", "deductibility": "1", "assets": 0, "income": 0, "revenue": 0}, {"ein": "834319211", "name": "10K BATAY YISROEL INC", "city": "SPRING VALLEY", "state": "NY", "zip": "10977-6414", "ntee": "P50", "ruling": "201905", "deductibility": "1", "assets": 0, "income": 0, "revenue": 0}], "AEROS": [{"ein": "208968284", "name": "BINGHAMTON AEROS INCORPORATED", "city": "BINGHAMTON", "state": "NY", "zip": "13901-6009", "ntee": "N50", "ruling": "201801", "deductibility": "2", "assets": 0, "income": 0, "revenue": 0}], "MIME": [{"ein": "222573447", "name": "NOT JUST MIME INC", "city": "W SAND LAKE", "state": "NY", "zip": "12196-1740", "ntee": "A650", "ruling": "198503", "deductibility": "1", "assets": 0, "income": 0, "revenue": 0}, {"ein": "237126812", "name": "AMERICAN MIME INC", "city": "SYOSSET", "state": "NY", "zip": "11791-0000", "ntee": "", "ruling": "197109", "deductibility": "1", "assets": 4724034, "income": 1219257, "revenue": 142405}, {"ein": "472527865", "name": "BROKEN BOX MIME THEATER", "city": "BROOKLYN", "state": "NY", "zip": "11230-2030", "ntee": "A65", "ruling": "201412", "deductibility": "1", "assets": 33024, "income": 165272, "revenue": 165272}, {"ein": "521071893", "name": "MUSICAL MIME COMPANY INC", "city": "W HAMPTON BCH", "state": "NY", "zip": "11978-2949", "ntee": "O50Z", "ruling": "197610", "deductibility": "1", "assets": 55415, "income": 110393, "revenue": 110393}], "FEMINISTS": [{"ein": "223683603", "name": "FEMINISTS FOR NONVIOLENT CHOICES INC", "city": "ROCHESTER", "state": "NY", "zip": "14604-1742", "ntee": "R61", "ruling": "200001", "deductibility": "1", "assets": 0, "income": 0, "revenue": 0}, {"ein": "824585682", "name": "FEMINISTS CHOOSING LIFE OF NEW YORK INC", "city": "ROCHESTER", "state": "NY", "zip": "14610-1676", "ntee": "R24", "ruling": "201810", "deductibility": "1", "assets": 58491, "income": 229132, "revenue": 229132}, {"ein": "862785374", "name": "FEMINISTS FOR MEN INC", "city": "NEW YORK", "state": "NY", "zip": "10024-1568", "ntee": "", "ruling": "202106", "deductibility": "1", "assets": 0, "income": 0, "revenue": 0}], "LEIV": [{"ein": "237112455", "name": "CONGREGATION N DIV LEIV INC", "city": "SPRING VALLEY", "state": "NY", "zip": "10977-5447", "ntee": "", "ruling": "197105", "deductibility": "1", "assets": 0, "income": 0, "revenue": 0}], "CLUR": [{"ein": "260076964", "name": "BLUE KNIGHTS MOTORCYCLE CLUR", "city": "KINGSTON", "state": "NY", "zip": "12401-2530", "ntee": "", "ruling": "198909", "deductibility": "2", "assets": 0, "income": 0, "revenue": 0}], "DIVINIE": [{"ein": "260546719", "name": "DIVINIE MARCY CATHOLIC ACADEMY", "city": "OZONE PARK", "state": "NY", "zip": "11416-2227", "ntee": "", "ruling": "194603", "deductibility": "1", "assets": 0, "income": 0, "revenue": 0}], "ECOLE": [{"ein": "260787284", "name": "FRIENDS OF ECOLE POLYTECHNIQUE INC", "city": "NEW YORK", "state": "NY", "zip": "10023-7879", "ntee": "U40", "ruling": "200808", "deductibility": "1", "assets": 579006, "income": 251224, "revenue": 251224}, {"ein": "832445976", "name": "ECOLE PARENTS ASSOCIATION", "city": "NEW YORK", "state": "NY", "zip": "10010-2106", "ntee": "B94", "ruling": "201907", "deductibility": "1", "assets": 182135, "income": 203870, "revenue": 203011}], "LIPSCHITZ": [{"ein": "260848399", "name": "C & Y LIPSCHITZ FAMILY FOUNDATION", "city": "BROOKLYN", "state": "NY", "zip": "11204-1155", "ntee": "T20", "ruling": "200907", "deductibility": "1", "assets": 2219864, "income": 401610, "revenue": 0}, {"ein": "833372050", "name": "LIPSCHITZ FAMILY FOUNDATION", "city": "BROOKLYN", "state": "NY", "zip": "11204-1412", "ntee": "T20", "ruling": "202002", "deductibility": "1", "assets": 21935, "income": 589821, "revenue": 0}], "JOHNNY": [{"ein": "261721048", "name": "JOHNNY CRISSTOPHER CHILDRENS CHARITABLE FOUNDATION - JDS", "city": "WOODBURY", "state": "NY", "zip": "11797-2931", "ntee": "G193", "ruling": "200903", "deductibility": "1", "assets": 907099, "income": 918903, "revenue": 918903}, {"ein": "273073630", "name": "JOHNNY SILENO WISHES FOR WELLNESS", "city": "NEWBURGH", "state": "NY", "zip": "12550-8952", "ntee": "G30", "ruling": "201407", "deductibility": "1", "assets": 0, "income": 0, "revenue": 0}, {"ein": "371625465", "name": "JOHNNY MAC TENNIS PROJECT INC", "city": "NEW YORK", "state": "NY", "zip": "10035-5100", "ntee": "O99", "ruling": "201206", "deductibility": "1", "assets": 3165412, "income": 3695061, "revenue": 3418248}], "AFTAB": [{"ein": "263908113", "name": "AFTAB AND FARIDA CHAUDHARI FAMILY FOUNDATION", "city": "MUTTONTOWN", "state": "NY", "zip": "11791-2305", "ntee": "T22", "ruling": "201003", "deductibility": "1", "assets": 58622, "income": 92050, "revenue": 0}], "IMPACTANDO": [{"ein": "264420303", "name": "MOVIMIENTO CRISTIANO IMPACTANDO LAS NACIONES INC", "city": "SYRACUSE", "state": "NY", "zip": "13204-3602", "ntee": "X21", "ruling": "200910", "deductibility": "1", "assets": 0, "income": 0, "revenue": 0}, {"ein": "842971084", "name": "IMPACTANDO FAMILIAS INC", "city": "POUGHKEEPSIE", "state": "NY", "zip": "12603-3840", "ntee": "S99", "ruling": "202401", "deductibility": "1", "assets": 0, "income": 0, "revenue": 0}], "ZWANGER": [{"ein": "264595868", "name": "ZWANGER-PESIRI VOLUNTEERS INC", "city": "LINDENHURST", "state": "NY", "zip": "11757-0000", "ntee": "T20", "ruling": "201007", "deductibility": "1", "assets": 0, "income": 0, "revenue": 0}], "BALCOM": [{"ein": "264763761", "name": "BALCOM BEACH CHURCH", "city": "RUSHFORD", "state": "NY", "zip": "14777-0114", "ntee": "X21", "ruling": "201301", "deductibility": "1", "assets": 0, "income": 0, "revenue": 0}], "ABYAYALA": [{"ein": "270143981", "name": "ABYAYALA ARTE & CULTURA", "city": "NEW YORK", "state": "NY", "zip": "10016-2186", "ntee": "A23", "ruling": "200708", "deductibility": "1", "assets": 0, "income": 0, "revenue": 0}], "ELEVATE": [{"ein": "271367166", "name": "ELEVATE NEW YORK", "city": "NEW YORK", "state": "NY", "zip": "10018-5144", "ntee": "O50", "ruling": "202112", "deductibility": "1", "assets": 78645, "income": 267889, "revenue": 267889}, {"ein": "473356008", "name": "ELEVATE HAITI MINISTRIES INC", "city": "ROCHESTER", "state": "NY", "zip": "14624-5858", "ntee": "X20", "ruling": "201504", "deductibility": "1", "assets": 29741, "income": 10372, "revenue": 0}, {"ein": "475035420", "name": "MEN ELEVATE NOW INC", "city": "NEW YORK", "state": "NY", "zip": "10150-8016", "ntee": "B90", "ruling": "201510", "deductibility": "1", "assets": 0, "income": 0, "revenue": 0}, {"ein": "823622768", "name": "ELEVATE UPSTATE INC", "city": "SYRACUSE", "state": "NY", "zip": "13209-9660", "ntee": "T70", "ruling": "201802", "deductibility": "1", "assets": 0, "income": 0, "revenue": 0}, {"ein": "843875728", "name": "ELEVATE SOCIAL BUSINESSES USA INC", "city": "BROOKLYN", "state": "NY", "zip": "11211-4171", "ntee": "T22", "ruling": "202007", "deductibility": "1", "assets": 96313, "income": 297137, "revenue": 0}, {"ein": "874529741", "name": "ELEVATE WESTERN NEW YORK COMMUNITY ACCELERATOR INC", "city": "KENMORE", "state": "NY", "zip": "14223-2809", "ntee": "S20", "ruling": "202102", "deductibility": "1", "assets": 0, "income": 0, "revenue": 0}, {"ein": "921254832", "name": "ELEVATE OUR YOUTH", "city": "NEW ROCHELLE", "state": "NY", "zip": "10801-3818", "ntee": "O50", "ruling": "202404", "deductibility": "1", "assets": 0, "income": 0, "revenue": 0}, {"ein": "934768699", "name": "ELEVATE SOCCER INC", "city": "ANGOLA", "state": "NY", "zip": "14006-9521", "ntee": "N64", "ruling": "202402", "deductibility": "1", "assets": 0, "income": 0, "revenue": 0}, {"ein": "992143868", "name": "ELEVATE IMPACT DEVELOPMENT AGENCY CORPORATION", "city": "BROOKLYN", "state": "NY", "zip": "11201-7508", "ntee": "P20", "ruling": "202404", "deductibility": "1", "assets": 0, "income": 0, "revenue": 0}], "MELCHIZEDEKS": [{"ein": "272443800", "name": "MELCHIZEDEKS MC INC", "city": "CENTRAL BRIDGE", "state": "NY", "zip": "12035-0000", "ntee": "Z99", "ruling": "201407", "deductibility": "1", "assets": 0, "income": 0, "revenue": 0}], "VAUX": [{"ein": "300431105", "name": "CALVERT VAUX PRESERVATION ALLIANCE", "city": "STAATSBURG", "state": "NY", "zip": "12580-0213", "ntee": "L30", "ruling": "200712", "deductibility": "1", "assets": 68928, "income": 95409, "revenue": 95409}], "HCS": [{"ein": "300526319", "name": "HCS ALUMNI ASSOCIATION INC", "city": "HOLLAND", "state": "NY", "zip": "14080-9806", "ntee": "B82", "ruling": "201110", "deductibility": "1", "assets": 0, "income": 0, "revenue": 0}, {"ein": "933669504", "name": "VA WNY HCS EMPLOYEE ASSOCIATION", "city": "BUFFALO", "state": "NY", "zip": "14217-2150", "ntee": "J03", "ruling": "202407", "deductibility": "1", "assets": 0, "income": 0, "revenue": 0}], "TL": [{"ein": "311581381", "name": "CHASDEI SHMIEL SHMELKA BEN CHAIM Z TL", "city": "BROOKLYN", "state": "NY", "zip": "11204-1154", "ntee": "X30Z", "ruling": "199801", "deductibility": "1", "assets": 0, "income": 0, "revenue": 0}, {"ein": "461465202", "name": "TL FOUNDATION", "city": "SUFFERN", "state": "NY", "zip": "10901-4256", "ntee": "T22", "ruling": "201302", "deductibility": "1", "assets": 651649, "income": 9985622, "revenue": 0}], "AGNB": [{"ein": "331606045", "name": "AGNB PROMOTIONS INC", "city": "WALLKILL", "state": "NY", "zip": "12589-4071", "ntee": "N69", "ruling": "202501", "deductibility": "1", "assets": 0, "income": 0, "revenue": 0}], "ILLYRIAN": [{"ein": "331780746", "name": "PORT AUTHORITY POLICE ILLYRIAN ASSOCIATION INC", "city": "BROOKLYN", "state": "NY", "zip": "11228-3919", "ntee": "P20", "ruling": "202411", "deductibility": "1", "assets": 0, "income": 0, "revenue": 0}, {"ein": "461137151", "name": "ILLYRIAN SOCIETY OF LAW ENFORCEMENT OFFICERS INC", "city": "BRONX", "state": "NY", "zip": "10463-0802", "ntee": "B82", "ruling": "202503", "deductibility": "1", "assets": 931, "income": 2116, "revenue": 2116}], "VEHAIM": [{"ein": "332026560", "name": "TORAH VEHAIM INC", "city": "BROOKLYN", "state": "NY", "zip": "11230-5721", "ntee": "X30", "ruling": "202502", "deductibility": "1", "assets": 0, "income": 0, "revenue": 0}], "HANKSERVICES": [{"ein": "334015266", "name": "HANKSERVICES INC", "city": "FLORAL PARK", "state": "NY", "zip": "11001-0000", "ntee": "P20", "ruling": "202504", "deductibility": "1", "assets": 0, "income": 0, "revenue": 0}], "COLCHESTER": [{"ein": "352416055", "name": "COLCHESTER HISTORICAL SOCIETY", "city": "DOWNSVILLE", "state": "NY", "zip": "13755-2213", "ntee": "A80", "ruling": "201711", "deductibility": "1", "assets": 0, "income": 0, "revenue": 0}], "SUZ": [{"ein": "364736800", "name": "SUZ CREW", "city": "MONTROSE", "state": "NY", "zip": "10548-0466", "ntee": "G19", "ruling": "201309", "deductibility": "1", "assets": 0, "income": 0, "revenue": 0}], "KIMS": [{"ein": "383973328", "name": "KIMS KIDS INC", "city": "BROOKLYN", "state": "NY", "zip": "11215-2802", "ntee": "N20", "ruling": "201507", "deductibility": "1", "assets": 8579, "income": 386327, "revenue": 386327}], "R66": [{"ein": "421610468", "name": "RETIREE COUNCIL R66", "city": "MELVILLE", "state": "NY", "zip": "11747-3088", "ntee": "N50", "ruling": "200407", "deductibility": "2", "assets": 0, "income": 0, "revenue": 0}], "BBJ": [{"ein": "450640456", "name": "BBJ FOUNDATION", "city": "BROOKLYN", "state": "NY", "zip": "11249-6856", "ntee": "T20", "ruling": "201106", "deductibility": "1", "assets": 531026, "income": 136, "revenue": 0}], "MENTORS": [{"ein": "452953053", "name": "MUSICAL MENTORS COLLABORATIVE INC", "city": "NEW YORK", "state": "NY", "zip": "10001-5666", "ntee": "B90", "ruling": "201205", "deductibility": "1", "assets": 144778, "income": 563802, "revenue": 563802}, {"ein": "454581763", "name": "MORRISON MENTORS INC", "city": "HEMPSTEAD", "state": "NY", "zip": "11550-3447", "ntee": "W99", "ruling": "201405", "deductibility": "1", "assets": 206510, "income": 528587, "revenue": 528587}, {"ein": "834402310", "name": "MENTORS INSPIRING BOYS & GIRLS", "city": "ROCHESTER", "state": "NY", "zip": "14611-2427", "ntee": "A90", "ruling": "201909", "deductibility": "1", "assets": 51382, "income": 189208, "revenue": 189208}, {"ein": "851578751", "name": "MENTORS AGAINST DRUGS & GUNS THROUGH EXPERIENCE INC", "city": "EAST ELMHURST", "state": "NY", "zip": "11369-1933", "ntee": "O50", "ruling": "202105", "deductibility": "1", "assets": 0, "income": 0, "revenue": 0}, {"ein": "853666516", "name": "BROADWAY MENTORS FOUNDATION FOR THE PERFORMING ARTS INC", "city": "NEW YORK", "state": "NY", "zip": "10128-3216", "ntee": "", "ruling": "202102", "deductibility": "1", "assets": 0, "income": 0, "revenue": 0}, {"ein": "853732813", "name": "GRAD MENTORS INC", "city": "NEW YORK", "state": "NY", "zip": "10023-1547", "ntee": "B99", "ruling": "202102", "deductibility": "1", "assets": 0, "income": 0, "revenue": 0}, {"ein": "853989806", "name": "COLLABORATION OF ACTIVE MENTORS AGAINST EDUCATIONAL LATENCY", "city": "ARVERNE", "state": "NY", "zip": "11692-2313", "ntee": "B25", "ruling": "202409", "deductibility": "1", "assets": 0, "income": 0, "revenue": 0}, {"ein": "884377171", "name": "UNITED VETERAN MENTORS INC", "city": "GARDEN CITY", "state": "NY", "zip": "11530-6712", "ntee": "W30", "ruling": "202303", "deductibility": "1", "assets": 0, "income": 0, "revenue": 0}, {"ein": "921332163", "name": "GREEN MENTORS INC", "city": "NEW YORK", "state": "NY", "zip": "10005-1304", "ntee": "T99", "ruling": "202302", "deductibility": "1", "assets": 2680, "income": 6871, "revenue": 6871}, {"ein": "991097572", "name": "NYC FAMILY ALTERING MENTORS INC", "city": "SAINT ALBANS", "state": "NY", "zip": "11412-2505", "ntee": "O50", "ruling": "202403", "deductibility": "1", "assets": 0, "income": 0, "revenue": 0}], "RCM": [{"ein": "454614427", "name": "RCM AMERICA INC", "city": "BUFFALO", "state": "NY", "zip": "14202-1303", "ntee": "A20", "ruling": "201208", "deductibility": "1", "assets": 241748, "income": 1660712, "revenue": 1660712}], "ACOCELLA": [{"ein": "455132396", "name": "JOSEPH ACOCELLA JR MEMORIAL FUND INC", "city": "HARRISON", "state": "NY", "zip": "10528-2912", "ntee": "B82", "ruling": "201304", "deductibility": "1", "assets": 0, "income": 0, "revenue": 0}], "QUARRIES": [{"ein": "455188026", "name": "CENTER FOR THE INVESTIGATION OF NATIVE AND ANCIENT QUARRIES", "city": "MIDDLETOWN", "state": "NY", "zip": "10940-4913", "ntee": "A56", "ruling": "201409", "deductibility": "1", "assets": 0, "income": 0, "revenue": 0}], "MEDSHADOW": [{"ein": "461326364", "name": "MEDSHADOW FOUNDATION", "city": "NEW YORK", "state": "NY", "zip": "10023-6269", "ntee": "E70", "ruling": "201307", "deductibility": "1", "assets": 337863, "income": 2657909, "revenue": 1534924}], "IZZO": [{"ein": "462111255", "name": "ANDREW C IZZO SCHOLARSHIP FUND", "city": "HAGAMAN", "state": "NY", "zip": "12086-2708", "ntee": "F01", "ruling": "201507", "deductibility": "1", "assets": 0, "income": 0, "revenue": 0}], "BOLOGNA": [{"ein": "462536274", "name": "CHABAD PIAZZA BOLOGNA - ROME INC", "city": "BROOKLYN", "state": "NY", "zip": "11213-5126", "ntee": "X30", "ruling": "201408", "deductibility": "1", "assets": 0, "income": 0, "revenue": 0}], "CHACONIA": [{"ein": "463250576", "name": "CHACONIA SOCCER CLUB INC", "city": "MEDFORD", "state": "NY", "zip": "11763-1008", "ntee": "N60", "ruling": "201703", "deductibility": "1", "assets": 0, "income": 0, "revenue": 0}], "INFINETY": [{"ein": "463847340", "name": "INFINETY CORPORATION", "city": "MARCELLUS", "state": "NY", "zip": "13108-9628", "ntee": "B05", "ruling": "202309", "deductibility": "1", "assets": 6596, "income": 31167, "revenue": 31167}], "CANVASES": [{"ein": "463984134", "name": "COMMUNITY CANVASES INCORPORATED", "city": "TONAWANDA", "state": "NY", "zip": "14150-1110", "ntee": "A40", "ruling": "201501", "deductibility": "1", "assets": 13505, "income": 60935, "revenue": 60935}], "MARSEILLE": [{"ein": "471414703", "name": "MARSEILLE FOUNDATION FOR HELP INC", "city": "POMONA", "state": "NY", "zip": "10970-2943", "ntee": "Q33", "ruling": "201605", "deductibility": "1", "assets": 0, "income": 0, "revenue": 0}], "GRIFFINS": [{"ein": "472289048", "name": "GRIFFINS GUARDIANS INC", "city": "CICERO", "state": "NY", "zip": "13039-1661", "ntee": "E86", "ruling": "201412", "deductibility": "1", "assets": 457984, "income": 432257, "revenue": 312358}, {"ein": "813112877", "name": "FRIENDS OF GRIFFINS TAVERN INC", "city": "HOPEWELL JCT", "state": "NY", "zip": "12533-0405", "ntee": "A80", "ruling": "201607", "deductibility": "1", "assets": 0, "income": 0, "revenue": 0}, {"ein": "993279916", "name": "FRIENDS OF GRIFFINS MILLS INC", "city": "EAST AURORA", "state": "NY", "zip": "14052-9766", "ntee": "A82", "ruling": "202410", "deductibility": "1", "assets": 0, "income": 0, "revenue": 0}], "PUGACH": [{"ein": "472355950", "name": "BURTON AND LINDA PUGACH CHARITABLE FOUNDATION", "city": "HIGHLAND MLS", "state": "NY", "zip": "10930-2158", "ntee": "T90", "ruling": "201503", "deductibility": "1", "assets": 1463153, "income": 1, "revenue": 0}, {"ein": "870879392", "name": "LINDA AND BURTON PUGACH TRUST FOR THE VISIONARY IMPAIRED", "city": "HIGHLAND MLS", "state": "NY", "zip": "10930-2158", "ntee": "A12", "ruling": "202108", "deductibility": "1", "assets": 1, "income": 1, "revenue": 0}], "GARLING": [{"ein": "472606040", "name": "WILSON GARLING FOUNDATION NFP", "city": "ALBANY", "state": "NY", "zip": "12212-5201", "ntee": "T22", "ruling": "201601", "deductibility": "1", "assets": 20444388, "income": 9320204, "revenue": 0}], "GATEKEEPERS": [{"ein": "473674766", "name": "GATEKEEPERS COLLECTIVE INC", "city": "NEW YORK", "state": "NY", "zip": "10031-2443", "ntee": "P20", "ruling": "201506", "deductibility": "1", "assets": 0, "income": 0, "revenue": 0}, {"ein": "844650811", "name": "GATEKEEPERS HOUSE OF WORSHIP INC", "city": "BRONX", "state": "NY", "zip": "10467-8876", "ntee": "X20", "ruling": "202009", "deductibility": "1", "assets": 0, "income": 0, "revenue": 0}], "AIP": [{"ein": "473727912", "name": "NR CARES AIP INC", "city": "NEW ROCHELLE", "state": "NY", "zip": "10804-0091", "ntee": "P81", "ruling": "201510", "deductibility": "1", "assets": 25820, "income": 9127, "revenue": 9127}], "ALPENKAMMERMUSIK": [{"ein": "475062110", "name": "ALPENKAMMERMUSIK", "city": "NEW YORK", "state": "NY", "zip": "10023-8030", "ntee": "A6B", "ruling": "202001", "deductibility": "1", "assets": 78767, "income": 106706, "revenue": 106706}], "10X10": [{"ein": "475183771", "name": "10X10 PHOTOBOOKS INC", "city": "NEW YORK", "state": "NY", "zip": "10023-1805", "ntee": "A20", "ruling": "201510", "deductibility": "1", "assets": 0, "income": 0, "revenue": 0}], "ABMAC": [{"ein": "510489399", "name": "ABMAC FOUNDATION", "city": "BRONX", "state": "NY", "zip": "10463-1612", "ntee": "E70", "ruling": "201302", "deductibility": "1", "assets": 0, "income": 0, "revenue": 0}], "LYMPHEDEMA": [{"ein": "611786875", "name": "ALATRISTE FOUNDATION FOR LYMPHEDEMA MGMT INC", "city": "NEW YORK", "state": "NY", "zip": "10025-1513", "ntee": "P20", "ruling": "201710", "deductibility": "1", "assets": 0, "income": 0, "revenue": 0}], "ACFN": [{"ein": "810779686", "name": "ACFN- COMMUNITY ASSOCIATION OF FOSSE NABOTTE", "city": "N MASSAPEQUA", "state": "NY", "zip": "11758-6944", "ntee": "Q99", "ruling": "201603", "deductibility": "1", "assets": 0, "income": 0, "revenue": 0}], "NYSPWHC": [{"ein": "813094131", "name": "NYSPWHC INC", "city": "ORISKANY FLS", "state": "NY", "zip": "13425-3523", "ntee": "N50", "ruling": "201611", "deductibility": "1", "assets": 0, "income": 0, "revenue": 0}], "COUGARS": [{"ein": "813096460", "name": "COUGARS FOOTBALL BOOSTER CLUB INC", "city": "NEW YORK", "state": "NY", "zip": "10128-3529", "ntee": "B11", "ruling": "201609", "deductibility": "1", "assets": 0, "income": 0, "revenue": 0}], "UNGARO": [{"ein": "815185960", "name": "CAPT VINCENT UNGARO MEMORIAL FOUNDATION INC", "city": "HOLBROOK", "state": "NY", "zip": "11741-5001", "ntee": "B82", "ruling": "201702", "deductibility": "1", "assets": 0, "income": 0, "revenue": 0}], "SKD": [{"ein": "822717173", "name": "SKD ACES", "city": "PUTNAM VALLEY", "state": "NY", "zip": "10579-1932", "ntee": "N60", "ruling": "201802", "deductibility": "1", "assets": 67198, "income": 234295, "revenue": 234295}], "CAINE": [{"ein": "823391958", "name": "MAJOR CAINE GOYETTE MEMORIAL FUND INC", "city": "WATERFORD", "state": "NY", "zip": "12188-0386", "ntee": "I12", "ruling": "201712", "deductibility": "1", "assets": 0, "income": 0, "revenue": 0}], "ED4SCI": [{"ein": "823547672", "name": "ED4SCI INC", "city": "BROOKLYN", "state": "NY", "zip": "11218-3911", "ntee": "B99", "ruling": "201801", "deductibility": "1", "assets": 0, "income": 0, "revenue": 0}], "ANEINU": [{"ein": "825493470", "name": "ANEINU INTERNATIONAL TEHILLIM ORGANIZATION INC", "city": "LAWRENCE", "state": "NY", "zip": "11559-1502", "ntee": "X30", "ruling": "201807", "deductibility": "1", "assets": 0, "income": 0, "revenue": 0}], "CFS": [{"ein": "825520438", "name": "CFS SELF-DIRECTED SUPPORTS INC", "city": "NEW YORK", "state": "NY", "zip": "10001-5827", "ntee": "P20", "ruling": "201902", "deductibility": "1", "assets": 5379925, "income": 27263157, "revenue": 27263157}], "LOVE4LUCAS": [{"ein": "830604592", "name": "LOVE4LUCAS FOUNDATION", "city": "POUND RIDGE", "state": "NY", "zip": "10576-1437", "ntee": "H30", "ruling": "201905", "deductibility": "1", "assets": 143917, "income": 96888, "revenue": 96888}], "MATZDIKIM": [{"ein": "832539364", "name": "MATZDIKIM INC", "city": "SPRING VALLEY", "state": "NY", "zip": "10977-2428", "ntee": "Z99", "ruling": "201906", "deductibility": "1", "assets": 5856, "income": 178174, "revenue": 178174}], "ARGENTINEAN": [{"ein": "843600737", "name": "FOUNDATION FOR ARGENTINEAN DEVELOPMENT", "city": "NEW YORK", "state": "NY", "zip": "10036-0000", "ntee": "T20", "ruling": "201911", "deductibility": "1", "assets": 241258, "income": 1761173, "revenue": 0}], "LUISA": [{"ein": "850595246", "name": "LUISA DIAZ FOUNDATION INC", "city": "NEW YORK", "state": "NY", "zip": "10028-1445", "ntee": "W12", "ruling": "202007", "deductibility": "1", "assets": 7589, "income": 543756, "revenue": 543756}], "SATKANIA": [{"ein": "850715224", "name": "SATKANIA SAMITY USA INC", "city": "JAMAICA", "state": "NY", "zip": "11435-3634", "ntee": "P99", "ruling": "202201", "deductibility": "1", "assets": 28557, "income": 23415, "revenue": 23415}], "RUQYA": [{"ein": "854270703", "name": "RUQYA SERVICES INC", "city": "BROOKLYN", "state": "NY", "zip": "11230-1673", "ntee": "X40", "ruling": "202103", "deductibility": "1", "assets": 202921, "income": 91910, "revenue": 91910}], "EVANGELISTICAS": [{"ein": "861218413", "name": "CONCILIO DE IGLESIAS EVANGELISTICAS LA UNCION TRANSFORMADORA INC", "city": "YONKERS", "state": "NY", "zip": "10701-5620", "ntee": "X20", "ruling": "202112", "deductibility": "1", "assets": 0, "income": 0, "revenue": 0}], "DRYCH": [{"ein": "861297219", "name": "NINNAU & Y DRYCH", "city": "TRUMANSBURG", "state": "NY", "zip": "14886-0712", "ntee": "A33", "ruling": "202103", "deductibility": "1", "assets": 0, "income": 0, "revenue": 0}], "KARDELEN": [{"ein": "861564069", "name": "KARDELEN PROJECT INC", "city": "NEW YORK", "state": "NY", "zip": "10028-0003", "ntee": "Q70", "ruling": "202201", "deductibility": "1", "assets": 962, "income": 10449, "revenue": 10449}, {"ein": "861590466", "name": "KARDELEN PROJECT ACTION INC", "city": "NEW YORK", "state": "NY", "zip": "10028-0003", "ntee": "Q05", "ruling": "202107", "deductibility": "2", "assets": 0, "income": 0, "revenue": 0}], "FORMATIVAS": [{"ein": "862095541", "name": "FORMATIVAS BARCELONA SC INC", "city": "RICHMOND HILL", "state": "NY", "zip": "11418-1131", "ntee": "N64", "ruling": "202502", "deductibility": "1", "assets": 0, "income": 0, "revenue": 0}], "HARMONIES": [{"ein": "872251470", "name": "SIX HARMONIES BUDDHIST ASSOCIATION OF AMERICA INC", "city": "NEW YORK", "state": "NY", "zip": "10002-4852", "ntee": "X50", "ruling": "202202", "deductibility": "1", "assets": 0, "income": 0, "revenue": 0}], "OUTLAW": [{"ein": "872417130", "name": "OUTLAW LADIES LACROSSE OF CNY", "city": "MANLIUS", "state": "NY", "zip": "13104-2143", "ntee": "N40", "ruling": "202303", "deductibility": "1", "assets": 63739, "income": 163916, "revenue": 163916}, {"ein": "920410115", "name": "OUTLAW ASSISTANCE TEAM", "city": "TUXEDO PARK", "state": "NY", "zip": "10987-4018", "ntee": "Z99", "ruling": "202210", "deductibility": "1", "assets": 12565, "income": 12565, "revenue": 0}], "FEENEY": [{"ein": "872875438", "name": "BRIGIT A FEENEY FOUNDATION FOR HOPE AND HEALING", "city": "ALBANY", "state": "NY", "zip": "12209-1305", "ntee": "T50", "ruling": "202203", "deductibility": "1", "assets": 13851, "income": 12973, "revenue": 12730}], "YAMOD": [{"ein": "874128296", "name": "YAMOD INC", "city": "MONROE", "state": "NY", "zip": "10950-6029", "ntee": "S20", "ruling": "202203", "deductibility": "1", "assets": 0, "income": 0, "revenue": 0}], "BERBICK": [{"ein": "874192366", "name": "MARIE BERBICK MINISTRIES INTERNATIONAL INC", "city": "ARVERNE", "state": "NY", "zip": "11692-1851", "ntee": "P40", "ruling": "202207", "deductibility": "1", "assets": 0, "income": 0, "revenue": 0}], "MISHTAMERES": [{"ein": "881544223", "name": "CONG MISHTAMERES", "city": "MONSEY", "state": "NY", "zip": "10952-3646", "ntee": "X30", "ruling": "202211", "deductibility": "1", "assets": 0, "income": 0, "revenue": 0}], "ABLOH": [{"ein": "882495014", "name": "THE VIRGIL ABLOH FOUNDATION", "city": "WHITE PLAINS", "state": "NY", "zip": "10601-1828", "ntee": "T30", "ruling": "202212", "deductibility": "1", "assets": 4907850, "income": 2625321, "revenue": 0}], "CAUZE": [{"ein": "921778547", "name": "JUST BE CAUZE", "city": "MOUNT VERNON", "state": "NY", "zip": "10550-4274", "ntee": "A12", "ruling": "202302", "deductibility": "1", "assets": 0, "income": 0, "revenue": 0}], "ASB": [{"ein": "923153549", "name": "RAIDER FAMILY ASB INC", "city": "CANASTOTA", "state": "NY", "zip": "13032-0738", "ntee": "N12", "ruling": "202408", "deductibility": "1", "assets": 0, "income": 0, "revenue": 0}], "VOLUTEER": [{"ein": "923373872", "name": "DOR V DOR VOLUTEER SERVICE INC", "city": "NIAGARA FALLS", "state": "NY", "zip": "14301-1749", "ntee": "A01", "ruling": "202502", "deductibility": "1", "assets": 0, "income": 0, "revenue": 0}], "KRUZERS": [{"ein": "923989937", "name": "KITTYS KRUZERS INC", "city": "CLAYVILLE", "state": "NY", "zip": "13322-2430", "ntee": "W12", "ruling": "202306", "deductibility": "1", "assets": 19604, "income": 14561, "revenue": 0}], "RISSLER": [{"ein": "933088303", "name": "ROGERS RISSLER FOUNDATION INC", "city": "GARDEN CITY", "state": "NY", "zip": "11530-1650", "ntee": "T20", "ruling": "202406", "deductibility": "1", "assets": 2786282, "income": 705284, "revenue": 0}], "LIVIDOUSA": [{"ein": "933806715", "name": "LIGA DE VITILLA DOMINICANA EN USA LIVIDOUSA", "city": "YONKERS", "state": "NY", "zip": "10704-2522", "ntee": "N60", "ruling": "202403", "deductibility": "1", "assets": 0, "income": 0, "revenue": 0}], "OUGHTEN": [{"ein": "943229323", "name": "OUGHTEN HOUSE FOUNDATION INC", "city": "NEW YORK", "state": "NY", "zip": "10024-6708", "ntee": "B99", "ruling": "199512", "deductibility": "1", "assets": 0, "income": 0, "revenue": 0}], "PUNJAB": [{"ein": "991039365", "name": "EDUCATE PUNJAB CHILDREN INC", "city": "S OZONE PARK", "state": "NY", "zip": "11420-3715", "ntee": "B90", "ruling": "202408", "deductibility": "1", "assets": 700, "income": 16800, "revenue": 16800}], "SQUIRRELLY": [{"ein": "991348544", "name": "SQUIRRELLY FARM WILDLIFE RESCUE INC", "city": "LAURENS", "state": "NY", "zip": "13796-0303", "ntee": "D34", "ruling": "202407", "deductibility": "1", "assets": 0, "income": 0, "revenue": 0}], "IDSF": [{"ein": "991839005", "name": "IDSF USA INC", "city": "NEW YORK", "state": "NY", "zip": "10016-7320", "ntee": "Q12", "ruling": "202503", "deductibility": "1", "assets": 0, "income": 0, "revenue": 0}], "129TH": [{"ein": "992393905", "name": "487 WEST 129TH STREET TRANSITIONAL HOUSINGDEVELOPMENT FUND CORPORATIO", "city": "NEW YORK", "state": "NY", "zip": "10017-5752", "ntee": "L40", "ruling": "202412", "deductibility": "1", "assets": 13087650, "income": 0, "revenue": 0}, {"ein": "992447144", "name": "487 WEST 129TH STREET PERMANENT HOUSING DEVELOPMENT FUND CORP", "city": "NEW YORK", "state": "NY", "zip": "10017-5752", "ntee": "L80", "ruling": "202501", "deductibility": "2", "assets": 1, "income": 0, "revenue": 0}]}