{"BERKSHIRE": [{"ein": "010570709", "name": "BERKSHIRE SPUR CHINESE SHAR PEI CLUB INC", "city": "SELKIRK", "state": "NY", "zip": "12158-1502", "ntee": "D60", "ruling": "200205", "deductibility": "2", "assets": 0, "income": 0, "revenue": 0}, {"ein": "160993212", "name": "BERKSHIRE FREE LIBRARY", "city": "BERKSHIRE", "state": "NY", "zip": "13736-1908", "ntee": "", "ruling": "198607", "deductibility": "1", "assets": 190849, "income": 68240, "revenue": 64769}, {"ein": "161556233", "name": "BERKSHIRE VOLUNTEER FIRE COMPANY INC", "city": "BERKSHIRE", "state": "NY", "zip": "13736-0183", "ntee": "M24", "ruling": "202112", "deductibility": "1", "assets": 0, "income": 0, "revenue": 0}, {"ein": "161605327", "name": "BERKSHIRE COMMUNITY ASSOCIATION INC", "city": "BERKSHIRE", "state": "NY", "zip": "13736-0000", "ntee": "S20", "ruling": "200107", "deductibility": "1", "assets": 0, "income": 0, "revenue": 0}, {"ein": "166059869", "name": "BERKSHIRE CEMETERY ASSOCIATION", "city": "BERKSHIRE", "state": "NY", "zip": "13736-0000", "ntee": "Y50", "ruling": "201112", "deductibility": "1", "assets": 0, "income": 0, "revenue": 0}, {"ein": "166075571", "name": "BERKSHIRE AVENUE CHAPEL", "city": "BUFFALO", "state": "NY", "zip": "14215-1709", "ntee": "", "ruling": "196705", "deductibility": "1", "assets": 0, "income": 0, "revenue": 0}, {"ein": "222948511", "name": "BERKSHIRE BIRD PARADISE INC", "city": "PETERSBURGH", "state": "NY", "zip": "12138-0000", "ntee": "D320", "ruling": "199005", "deductibility": "1", "assets": 792126, "income": 55577, "revenue": 55577}, {"ein": "237275101", "name": "HUDSON-BERKSHIRE CHAPTER OF THE SOCIETY FOR NEUROSCIENCE", "city": "ALBANY", "state": "NY", "zip": "12203-8179", "ntee": "", "ruling": "201510", "deductibility": "1", "assets": 0, "income": 0, "revenue": 0}, {"ein": "261780007", "name": "HUDSON BERKSHIRE DIVISION", "city": "CLIFTON PARK", "state": "NY", "zip": "12065-0083", "ntee": "B99", "ruling": "201008", "deductibility": "2", "assets": 0, "income": 0, "revenue": 0}, {"ein": "392070931", "name": "BERKSHIRE TACONIC BRANCH OF THE ANTHROPOSOPHICAL SOCIETY INC", "city": "PHILMONT", "state": "NY", "zip": "12565-0024", "ntee": "P20", "ruling": "202201", "deductibility": "1", "assets": 0, "income": 0, "revenue": 0}], "SERGIO": [{"ein": "010719972", "name": "FIREFIGHTER SERGIO VILLANUEVA SOCCER FOUNDATION", "city": "BAYSIDE", "state": "NY", "zip": "11361-2861", "ntee": "B11", "ruling": "200411", "deductibility": "1", "assets": 96706, "income": 24340, "revenue": 24340}, {"ein": "812593055", "name": "SERGIO AND ANGELA GARCIA FOUNDATION INC", "city": "NEW YORK", "state": "NY", "zip": "10018-0000", "ntee": "T20", "ruling": "201705", "deductibility": "1", "assets": 1, "income": 500250, "revenue": 0}], "UGLY": [{"ein": "010728746", "name": "UGLY DUCKLING PRESSE LTD", "city": "BROOKLYN", "state": "NY", "zip": "11215-2733", "ntee": "A20", "ruling": "200404", "deductibility": "1", "assets": 270896, "income": 381176, "revenue": 381176}, {"ein": "200746920", "name": "UGLY DISCO INC", "city": "ROCHESTER", "state": "NY", "zip": "14618-3123", "ntee": "T20", "ruling": "200512", "deductibility": "1", "assets": 12228, "income": 47993, "revenue": 10689}, {"ein": "463917869", "name": "UGLY AND MAUDE CHIEN FOUNDATION FOR CHILDREN OF THE WORLD INC", "city": "AMITYVILLE", "state": "NY", "zip": "11701-2751", "ntee": "E99", "ruling": "201405", "deductibility": "1", "assets": 15965, "income": 38706, "revenue": 0}], "ROELIFF": [{"ein": "010760706", "name": "ROELIFF JANSEN HISTORICAL SOCIETY", "city": "COPAKE FALLS", "state": "NY", "zip": "12517-0172", "ntee": "A80", "ruling": "200409", "deductibility": "1", "assets": 0, "income": 0, "revenue": 0}, {"ein": "141598707", "name": "ROELIFF JANSEN COMMUNITY LIBRARY", "city": "HILLSDALE", "state": "NY", "zip": "12529-0669", "ntee": "B70Z", "ruling": "199409", "deductibility": "1", "assets": 2931653, "income": 745165, "revenue": 724627}, {"ein": "753219131", "name": "FRIENDS OF THE ROELIFF JANSEN", "city": "HILLSDALE", "state": "NY", "zip": "12529-0669", "ntee": "B11", "ruling": "201707", "deductibility": "1", "assets": 0, "income": 0, "revenue": 0}], "NNDNMNTNL": [{"ein": "020575043", "name": "CHRISTIAN MINISTRIES OF NNDNMNTNL CHURCHES JESUS AT HOME INC", "city": "NEW YORK", "state": "NY", "zip": "10033-4330", "ntee": "X21", "ruling": "200403", "deductibility": "1", "assets": 0, "income": 0, "revenue": 0}], "ANCIENS": [{"ein": "020735133", "name": "FONDATION DES ANCIENS DE REGINA ASSUMPTA NORD-EST", "city": "WESTBURY", "state": "NY", "zip": "11590-2811", "ntee": "B11", "ruling": "201411", "deductibility": "1", "assets": 0, "income": 0, "revenue": 0}, {"ein": "813015229", "name": "BAL DES ANCIENS INC", "city": "NEW YORK", "state": "NY", "zip": "10026-4913", "ntee": "A62", "ruling": "201702", "deductibility": "1", "assets": 0, "income": 0, "revenue": 0}, {"ein": "854073491", "name": "ALLIANCE DES ANCIENS ELEVES DON DE DIRELAN DUMERLIN POUR LEDUCATION", "city": "SPRING VALLEY", "state": "NY", "zip": "10977-5048", "ntee": "B80", "ruling": "202102", "deductibility": "1", "assets": 0, "income": 0, "revenue": 0}], "NANCY": [{"ein": "020735167", "name": "NANCY JONES BEARD FOUNDATION", "city": "NEW YORK", "state": "NY", "zip": "10005-0000", "ntee": "T22", "ruling": "200505", "deductibility": "1", "assets": 13054443, "income": 3064281, "revenue": 0}, {"ein": "030524211", "name": "NANCY MORGENSTERN MEMORIAL FUND", "city": "BROOKLYN", "state": "NY", "zip": "11204-1514", "ntee": "T20", "ruling": "200310", "deductibility": "1", "assets": 0, "income": 0, "revenue": 0}, {"ein": "112842376", "name": "JEFFREY AND NANCY LANE FOUNDATION", "city": "ALBANY", "state": "NY", "zip": "12212-5201", "ntee": "", "ruling": "198703", "deductibility": "1", "assets": 11248, "income": 145111, "revenue": 0}, {"ein": "112847123", "name": "ROBERT AND NANCY BROOKS FOUNDATION INC", "city": "PRT WASHINGTN", "state": "NY", "zip": "11050-3112", "ntee": "", "ruling": "198703", "deductibility": "1", "assets": 499149, "income": 500164, "revenue": 0}, {"ein": "133103213", "name": "ROBERT N AND NANCY A DOWNEY FOUNDATION", "city": "NEW YORK", "state": "NY", "zip": "10023-7618", "ntee": "", "ruling": "198203", "deductibility": "1", "assets": 626670, "income": 218854, "revenue": 0}, {"ein": "133385770", "name": "NANCY AND EDWIN MARKS FAMILY FOUNDATION", "city": "NEW YORK", "state": "NY", "zip": "10022-4775", "ntee": "", "ruling": "198801", "deductibility": "1", "assets": 16801771, "income": 6579597, "revenue": 0}, {"ein": "133796430", "name": "DANIEL P AND NANCY C PADUANO FAMILY FOUNDATION", "city": "NEW YORK", "state": "NY", "zip": "10021-0000", "ntee": "T20J", "ruling": "199603", "deductibility": "1", "assets": 1461, "income": 4, "revenue": 0}, {"ein": "133800204", "name": "STANLEY AND NANCY GROSSMAN FAMILY FOUNDATION", "city": "NEW YORK", "state": "NY", "zip": "10016-0000", "ntee": "T60Z", "ruling": "199510", "deductibility": "1", "assets": 202218, "income": 160868, "revenue": 0}, {"ein": "133885307", "name": "NANCY GRAVES FOUNDATION INC", "city": "LONG IS CITY", "state": "NY", "zip": "11101-2438", "ntee": "A51Z", "ruling": "199704", "deductibility": "1", "assets": 13006994, "income": 3355362, "revenue": 0}, {"ein": "133986717", "name": "BRYANT & NANCY YUNKER FOUNDATION INC", "city": "NEW YORK", "state": "NY", "zip": "10006-2744", "ntee": "T20", "ruling": "199902", "deductibility": "1", "assets": 716034, "income": 434890, "revenue": 0}, {"ein": "134092798", "name": "NANCY AND GEORGE WALKER FOUNDATION", "city": "NEW YORK", "state": "NY", "zip": "10274-0073", "ntee": "T20", "ruling": "200105", "deductibility": "1", "assets": 6123223, "income": 1390423, "revenue": 0}, {"ein": "134092847", "name": "ROBERT & NANCY ELLIN FAMILY FOUNDATION", "city": "NEW YORK", "state": "NY", "zip": "10017-7860", "ntee": "T22", "ruling": "200211", "deductibility": "1", "assets": 12186646, "income": 5946, "revenue": 0}, {"ein": "134117513", "name": "NANCY TOPF INSTITUTE INC", "city": "NEW YORK", "state": "NY", "zip": "10013-2886", "ntee": "A25", "ruling": "202209", "deductibility": "1", "assets": 0, "income": 0, "revenue": 0}, {"ein": "137294014", "name": "FREDERICK AND NANCY DEMATTEIS 2001 CHARITABLE TR", "city": "UNIONDALE", "state": "NY", "zip": "11556-1230", "ntee": "T21", "ruling": "200111", "deductibility": "1", "assets": 10797289, "income": 4584195, "revenue": 0}, {"ein": "161578614", "name": "NANCY & FRIENDS FIGHTING CANCER INC", "city": "PITTSFORD", "state": "NY", "zip": "14534-4557", "ntee": "G30", "ruling": "201403", "deductibility": "1", "assets": 207294, "income": 40995, "revenue": 40995}, {"ein": "166439639", "name": "NANCY A K PERKINS CHARITABLE FOUNDATION", "city": "CHURCHVILLE", "state": "NY", "zip": "14428-0308", "ntee": "T31J", "ruling": "199701", "deductibility": "1", "assets": 48054, "income": 14637, "revenue": 0}, {"ein": "200698761", "name": "NANCY KLAUBER FOREST FOUNDATION", "city": "WHITE PLAINS", "state": "NY", "zip": "10605-3306", "ntee": "G30", "ruling": "200508", "deductibility": "1", "assets": 397712, "income": 196181, "revenue": 0}, {"ein": "201645493", "name": "NANCY AND PAUL ROSS FOUNDATION INC", "city": "MOUNT KISCO", "state": "NY", "zip": "10549-4232", "ntee": "T20", "ruling": "200510", "deductibility": "1", "assets": 48856, "income": 24501, "revenue": 0}, {"ein": "203761536", "name": "THE NANCY CARUANA DOLCE FOUNDATION", "city": "AMHERST", "state": "NY", "zip": "14226-1855", "ntee": "T22", "ruling": "200602", "deductibility": "1", "assets": 44395, "income": 7558, "revenue": 0}, {"ein": "208007210", "name": "NANCY AND JOACHIM BECHTLEFOUNDATION", "city": "NEW YORK", "state": "NY", "zip": "10016-0000", "ntee": "T20", "ruling": "200704", "deductibility": "1", "assets": 2014581, "income": 123163, "revenue": 0}, {"ein": "223174665", "name": "GARY P AND NANCY L DICRESCE FOUNDATION", "city": "SARATOGA SPGS", "state": "NY", "zip": "12866-0850", "ntee": "", "ruling": "000000", "deductibility": "1", "assets": 215, "income": 1, "revenue": 0}, {"ein": "223556476", "name": "NANCY SUE-JING FOUNDATION", "city": "BROOKLYN", "state": "NY", "zip": "11231-0944", "ntee": "T20Z", "ruling": "199812", "deductibility": "1", "assets": 1, "income": 20000, "revenue": 0}, {"ein": "223816021", "name": "NANCY R GELMAN FOUNDATION INC", "city": "NEW YORK", "state": "NY", "zip": "10001-7325", "ntee": "H123", "ruling": "200112", "deductibility": "1", "assets": 0, "income": 0, "revenue": 0}, {"ein": "232738179", "name": "NANCY AND ROBERT S BLANK FOUNDATION", "city": "ALBANY", "state": "NY", "zip": "12203-8016", "ntee": "", "ruling": "199310", "deductibility": "1", "assets": 1756102, "income": 227363, "revenue": 0}, {"ein": "237348770", "name": "NANCY MEEHAN DANCE COMPANY INC", "city": "NEW YORK", "state": "NY", "zip": "10014-2040", "ntee": "", "ruling": "197402", "deductibility": "1", "assets": 0, "income": 0, "revenue": 0}, {"ein": "270167255", "name": "MARK AND NANCY CONLEY FOUNDATION", "city": "BUFFALO", "state": "NY", "zip": "14202-2105", "ntee": "T20", "ruling": "200908", "deductibility": "1", "assets": 140129, "income": 5838, "revenue": 0}, {"ein": "272753066", "name": "NANCY SPERO AND LEON A GOLUB FOUNDATION FOR THE ARTS", "city": "WOODBURY", "state": "NY", "zip": "11797-2945", "ntee": "T20", "ruling": "201108", "deductibility": "1", "assets": 5106239, "income": 130485, "revenue": 0}, {"ein": "454921579", "name": "NANCY LEVIEN@GOODMAN AND RICHARD GOODMAN FOUNDATION", "city": "LARCHMONT", "state": "NY", "zip": "10538-1027", "ntee": "T20", "ruling": "201205", "deductibility": "1", "assets": 41334, "income": 99154, "revenue": 0}, {"ein": "476538046", "name": "NANCY FRIDAY FOUNDATION", "city": "ROCKVILLE CTR", "state": "NY", "zip": "11570-4807", "ntee": "T22", "ruling": "201502", "deductibility": "1", "assets": 9435115, "income": 3505501, "revenue": 0}, {"ein": "526412220", "name": "NANCY ROE TRUST UA FBO JOSEPHINE", "city": "BUFFALO", "state": "NY", "zip": "14240-1504", "ntee": "T90", "ruling": "200805", "deductibility": "1", "assets": 1503920, "income": 517863, "revenue": 0}, {"ein": "810902011", "name": "NANCY AND RICHARD PINE FAMILY FOUNDATION INC", "city": "BRIARCLIFF", "state": "NY", "zip": "10510-2101", "ntee": "T20", "ruling": "201606", "deductibility": "1", "assets": 2760911, "income": 465469, "revenue": 0}, {"ein": "814726531", "name": "BERNARD & NANCY KARWICK FOUNDATION", "city": "WOODBURY", "state": "NY", "zip": "11797-2012", "ntee": "T22", "ruling": "201811", "deductibility": "1", "assets": 3535748, "income": 299126, "revenue": 0}, {"ein": "822267263", "name": "NANCY EVANS HAYS FOUNDATION", "city": "GLOVERSVILLE", "state": "NY", "zip": "12078-0354", "ntee": "T20", "ruling": "201806", "deductibility": "1", "assets": 477691, "income": 85803, "revenue": 0}, {"ein": "862821646", "name": "NANCY AND GREGORY BROWN FAMILY FOUNDATION INC", "city": "NEW YORK", "state": "NY", "zip": "10022-2406", "ntee": "T20", "ruling": "202111", "deductibility": "1", "assets": 135200, "income": 202584, "revenue": 0}, {"ein": "863727059", "name": "ALFRED & NANCY DILAMANI STEVEN MICHAEL & FAMILY FOUNDATION INC", "city": "GREAT NECK", "state": "NY", "zip": "11023-1135", "ntee": "T22", "ruling": "202205", "deductibility": "1", "assets": 61891, "income": 32500, "revenue": 0}, {"ein": "873980068", "name": "HOWARD AND NANCY MARKS FOUNDATION", "city": "NEW YORK", "state": "NY", "zip": "10014-1042", "ntee": "T20", "ruling": "202206", "deductibility": "1", "assets": 11016859, "income": 4413985, "revenue": 0}, {"ein": "921408726", "name": "NANCY GLICKENHAUS FOUNDATION", "city": "SLEEPY HOLLOW", "state": "NY", "zip": "10591-2211", "ntee": "T22", "ruling": "202310", "deductibility": "1", "assets": 2749242, "income": 1840969, "revenue": 0}, {"ein": "993817809", "name": "NANCY K SILVERMAN FOUNDATION", "city": "NEW YORK", "state": "NY", "zip": "10021-4144", "ntee": "T20", "ruling": "202411", "deductibility": "1", "assets": 0, "income": 0, "revenue": 0}], "UNIQUE": [{"ein": "020742343", "name": "UNIQUE MINISTRIES", "city": "ROCHESTER", "state": "NY", "zip": "14692-3002", "ntee": "X20", "ruling": "200707", "deductibility": "1", "assets": 0, "income": 0, "revenue": 0}, {"ein": "113653314", "name": "UNIQUE LIFE INC", "city": "BRONX", "state": "NY", "zip": "10475-1516", "ntee": "P20", "ruling": "200602", "deductibility": "1", "assets": 20872107, "income": 17689712, "revenue": 17935324}, {"ein": "133085289", "name": "UNIQUE PROJECT INC", "city": "NEW YORK", "state": "NY", "zip": "10004-2315", "ntee": "A600", "ruling": "198206", "deductibility": "1", "assets": 80790, "income": 1546832, "revenue": 1546832}, {"ein": "133636555", "name": "UNIQUE PEOPLE SERVICES INC", "city": "BRONX", "state": "NY", "zip": "10457-3701", "ntee": "P82Z", "ruling": "199201", "deductibility": "1", "assets": 30398321, "income": 30161650, "revenue": 30161650}, {"ein": "133863696", "name": "UNIQUE PEOPLE SERVICES AIDS PROGRAMS INC", "city": "BRONX", "state": "NY", "zip": "10470-2468", "ntee": "P800", "ruling": "199606", "deductibility": "1", "assets": 17462444, "income": 10912811, "revenue": 10912811}, {"ein": "134276921", "name": "SOCIETY OF UNIQUE ARTISTS INC", "city": "NEW YORK", "state": "NY", "zip": "10016-7419", "ntee": "A400", "ruling": "200612", "deductibility": "1", "assets": 0, "income": 0, "revenue": 0}, {"ein": "160973997", "name": "PROJECT UNIQUE INC", "city": "ROCHESTER", "state": "NY", "zip": "14610-0669", "ntee": "A25Z", "ruling": "197006", "deductibility": "1", "assets": 0, "income": 0, "revenue": 0}, {"ein": "202154682", "name": "OUTSTANDING & UNIQUE RESOURCES FOR UPPER NYACK KIDS INC", "city": "NYACK", "state": "NY", "zip": "10960-1530", "ntee": "B82", "ruling": "201804", "deductibility": "1", "assets": 0, "income": 0, "revenue": 0}, {"ein": "371592037", "name": "ONDO UNIQUE ASSOCIATION INC", "city": "NEWBURGH", "state": "NY", "zip": "12550-1330", "ntee": "S20", "ruling": "201304", "deductibility": "1", "assets": 0, "income": 0, "revenue": 0}, {"ein": "460663198", "name": "UNIQUE CARE COMMUNITY SERVICES INC", "city": "BROOKLYN", "state": "NY", "zip": "11236-5132", "ntee": "P80", "ruling": "201312", "deductibility": "1", "assets": 3145739, "income": 4179957, "revenue": 4179957}, {"ein": "461802436", "name": "BEAUTIFULLY UNIQUE INC", "city": "WYANDANCH", "state": "NY", "zip": "11798-0023", "ntee": "O50", "ruling": "201408", "deductibility": "1", "assets": 0, "income": 0, "revenue": 0}, {"ein": "462728555", "name": "UNIQUE HELPING HANDS", "city": "FLORAL PARK", "state": "NY", "zip": "11001-2841", "ntee": "Y11", "ruling": "201407", "deductibility": "1", "assets": 0, "income": 0, "revenue": 0}, {"ein": "813647696", "name": "UNIQUE THEATRE COMPANY INC", "city": "BUFFALO", "state": "NY", "zip": "14216-1703", "ntee": "A65", "ruling": "201806", "deductibility": "1", "assets": 0, "income": 0, "revenue": 0}, {"ein": "824832922", "name": "YOUTHS UNIQUE SUMMER TOURS AND FAMILY SERVICES INC", "city": "STATEN ISLAND", "state": "NY", "zip": "10305-3634", "ntee": "O50", "ruling": "202202", "deductibility": "1", "assets": 0, "income": 0, "revenue": 0}, {"ein": "843888134", "name": "UNIQUE & ABLE INC", "city": "NEW YORK", "state": "NY", "zip": "10069-0807", "ntee": "G01", "ruling": "202003", "deductibility": "1", "assets": 0, "income": 0, "revenue": 0}, {"ein": "872349400", "name": "UNIQUE ORGANIZATION", "city": "NEW YORK", "state": "NY", "zip": "10002-7424", "ntee": "P30", "ruling": "202111", "deductibility": "1", "assets": 0, "income": 0, "revenue": 0}], "ORGANIC": [{"ein": "030259137", "name": "NORTHEAST ORGANIC FARMING ASSOCIATION OF NEW YORK INC", "city": "SYRACUSE", "state": "NY", "zip": "13203-2770", "ntee": "K2XC", "ruling": "198501", "deductibility": "1", "assets": 1208294, "income": 2753072, "revenue": 2882064}, {"ein": "046052299", "name": "ORGANIC REACTIONS INC", "city": "BREWSTER", "state": "NY", "zip": "10509-4208", "ntee": "", "ruling": "194401", "deductibility": "1", "assets": 2251296, "income": 241286, "revenue": 0}, {"ein": "208378886", "name": "MODEL ORGANIC FARM FOUNDATION", "city": "MILLERTON", "state": "NY", "zip": "12546-4518", "ntee": "K990", "ruling": "200707", "deductibility": "1", "assets": 5179333, "income": 4240865, "revenue": 0}, {"ein": "454134508", "name": "ORGANIC GROWERS RESEARCH AND INFORMATION-SHARING NETWORK INC", "city": "BAINBRIDGE", "state": "NY", "zip": "13733-3360", "ntee": "K05", "ruling": "201310", "deductibility": "1", "assets": 31152, "income": 84939, "revenue": 84939}, {"ein": "862056523", "name": "ORGANIC KARMA FOUNDATION INC", "city": "PORTLAND", "state": "NY", "zip": "14769-9611", "ntee": "B90", "ruling": "202206", "deductibility": "1", "assets": 0, "income": 0, "revenue": 0}, {"ein": "992274329", "name": "SAUGERTIES ORGANIC GARDENS INC", "city": "SAUGERTIES", "state": "NY", "zip": "12477-0000", "ntee": "K20", "ruling": "202404", "deductibility": "1", "assets": 0, "income": 0, "revenue": 0}], "G": [{"ein": "030279845", "name": "ARTHUR G EASTMAN MEMORIAL SCHOLARSHIP FUND", "city": "BUFFALO", "state": "NY", "zip": "14240-1504", "ntee": "", "ruling": "000000", "deductibility": "1", "assets": 104003, "income": 13820, "revenue": 0}, {"ein": "030436338", "name": "TRUE PRAISE & WORSHIP C O G I C INC", "city": "BUFFALO", "state": "NY", "zip": "14211-2439", "ntee": "X20", "ruling": "200506", "deductibility": "1", "assets": 0, "income": 0, "revenue": 0}, {"ein": "036004981", "name": "G HARRINGTON TUW FBO DANBY CHILDREN 31V076019", "city": "BUFFALO", "state": "NY", "zip": "14240-1504", "ntee": "T11", "ruling": "201905", "deductibility": "1", "assets": 136820, "income": 42366, "revenue": 7610}, {"ein": "043697166", "name": "GIRLS FOR GENDER EQUITY INC-G G E", "city": "BROOKLYN", "state": "NY", "zip": "11201-1917", "ntee": "I21", "ruling": "200212", "deductibility": "1", "assets": 7768809, "income": 4948424, "revenue": 4948424}, {"ein": "046239408", "name": "ROBERT G FOSTER TRUST C/O BEVERLY NATL BK", "city": "BUFFALO", "state": "NY", "zip": "14240-1504", "ntee": "", "ruling": "198803", "deductibility": "2", "assets": 1467136, "income": 790445, "revenue": 88096}, {"ein": "061528345", "name": "SYLVIA AND HOWARD G MINSKY FOUNDATION", "city": "NEW YORK", "state": "NY", "zip": "10023-7922", "ntee": "T20", "ruling": "199907", "deductibility": "1", "assets": 143496, "income": 590, "revenue": 0}, {"ein": "112432295", "name": "SMIRNA ASAMBLEA DE DIOS INC C O REV G ESQUILIN", "city": "BROOKLYN", "state": "NY", "zip": "11231-1245", "ntee": "", "ruling": "197710", "deductibility": "1", "assets": 0, "income": 0, "revenue": 0}, {"ein": "112579798", "name": "B H R A G S HOMECARE INC", "city": "BROOKLYN", "state": "NY", "zip": "11210-1531", "ntee": "", "ruling": "198206", "deductibility": "1", "assets": 54765997, "income": 122117658, "revenue": 122117658}, {"ein": "112654942", "name": "THE FRANK G RAICHLE FOUNDATION", "city": "BUFFALO", "state": "NY", "zip": "14216-3618", "ntee": "", "ruling": "198310", "deductibility": "1", "assets": 301822, "income": 108710, "revenue": 0}, {"ein": "112946299", "name": "METROPOLITAN P G A OF AMERICA INC", "city": "ELMSFORD", "state": "NY", "zip": "10523-2821", "ntee": "", "ruling": "199008", "deductibility": "2", "assets": 1373509, "income": 726741, "revenue": 726741}, {"ein": "113073317", "name": "E P G RESEARCH FOUNDATION INC", "city": "LAKE SUCCESS", "state": "NY", "zip": "11042-1220", "ntee": "", "ruling": "199303", "deductibility": "1", "assets": 0, "income": 0, "revenue": 0}, {"ein": "113216808", "name": "CHURCH OF THE LIVING GOD P&G OF T INC", "city": "HEMPSTEAD", "state": "NY", "zip": "11551-5182", "ntee": "X20Z", "ruling": "199607", "deductibility": "1", "assets": 0, "income": 0, "revenue": 0}, {"ein": "113221520", "name": "CONGREGATION G MACH YASHREISH YAKOV", "city": "BROOKLYN", "state": "NY", "zip": "11218-4418", "ntee": "", "ruling": "199409", "deductibility": "1", "assets": 0, "income": 0, "revenue": 0}, {"ein": "113358337", "name": "WILLIAM G HIEBER JR & JEAN F HIEBER CHARITABLE FOUNDATION", "city": "NEW YORK", "state": "NY", "zip": "10028-2084", "ntee": "T21J", "ruling": "199702", "deductibility": "1", "assets": 64119, "income": 27861, "revenue": 0}, {"ein": "113440178", "name": "THE SAL G ARGIULO LOCAL 12 SCHOLARSHIP FUND", "city": "LONG IS CITY", "state": "NY", "zip": "11106-4416", "ntee": "B82", "ruling": "199909", "deductibility": "1", "assets": 147297, "income": 55683, "revenue": 0}, {"ein": "113590740", "name": "S T R O N G YOUTH INC", "city": "UNIONDALE", "state": "NY", "zip": "11553-2629", "ntee": "I21", "ruling": "200111", "deductibility": "1", "assets": 1581849, "income": 1527450, "revenue": 1527450}, {"ein": "113633067", "name": "THE MATTHEW G VIANNA MEMORIAL FUND 10-17-01", "city": "MANHASSET", "state": "NY", "zip": "11030-1538", "ntee": "B82", "ruling": "200204", "deductibility": "1", "assets": 27770, "income": 101, "revenue": 101}, {"ein": "116036928", "name": "SANDRA ATLAS BASS AND EDYTHE AND SOL G ATLAS FUND INC", "city": "GREAT NECK", "state": "NY", "zip": "11021-3326", "ntee": "", "ruling": "196306", "deductibility": "1", "assets": 1, "income": 3784481, "revenue": 0}, {"ein": "116616950", "name": "D & G FOUNDATION", "city": "NEW YORK", "state": "NY", "zip": "10019-5515", "ntee": "T22", "ruling": "200801", "deductibility": "1", "assets": 19159, "income": 4821, "revenue": 0}, {"ein": "131982695", "name": "G UNGER VETLESEN FOUNDATION", "city": "NEW YORK", "state": "NY", "zip": "10020-2082", "ntee": "", "ruling": "195708", "deductibility": "1", "assets": 53156624, "income": 22492886, "revenue": 0}, {"ein": "133086697", "name": "RUDOLPH AND LENTILHON G VON FLUEGGE FOUNDATION INC", "city": "NEW YORK", "state": "NY", "zip": "10019-0000", "ntee": "", "ruling": "198111", "deductibility": "1", "assets": 541896, "income": 61693, "revenue": 0}, {"ein": "133115140", "name": "YR & G HOLDING CO", "city": "BRONX", "state": "NY", "zip": "10464-1531", "ntee": "N61", "ruling": "200003", "deductibility": "2", "assets": 212315, "income": 141622, "revenue": 141622}, {"ein": "133209677", "name": "G M C LIMAN YITAV", "city": "MONROE", "state": "NY", "zip": "10950-3807", "ntee": "", "ruling": "198408", "deductibility": "1", "assets": 0, "income": 0, "revenue": 0}, {"ein": "133388393", "name": "THE MEYER G AND ELLEN GOODSTEIN KOPLOW FOUNDATION", "city": "NEW YORK", "state": "NY", "zip": "10019-0000", "ntee": "", "ruling": "198703", "deductibility": "1", "assets": 565203, "income": 86575, "revenue": 0}, {"ein": "133406777", "name": "DORIS G QUINN FOUNDATION", "city": "CROWN POINT", "state": "NY", "zip": "12928-0478", "ntee": "", "ruling": "198801", "deductibility": "1", "assets": 2666553, "income": 289892, "revenue": 0}, {"ein": "133437893", "name": "THOMAS G & ANDREA MENDELL", "city": "NEW YORK", "state": "NY", "zip": "10017-1418", "ntee": "", "ruling": "198902", "deductibility": "1", "assets": 769996, "income": 352575, "revenue": 0}, {"ein": "133439035", "name": "J G B REHABILITATION CORP", "city": "NEW YORK", "state": "NY", "zip": "10023-6402", "ntee": "", "ruling": "199309", "deductibility": "1", "assets": 4507259, "income": 15299744, "revenue": 15299744}, {"ein": "133577252", "name": "HARLOW G FARMER MEMORIA WATN-YMCA 24-295440", "city": "BUFFALO", "state": "NY", "zip": "14203-2842", "ntee": "", "ruling": "000000", "deductibility": "0", "assets": 0, "income": 0, "revenue": 0}, {"ein": "133619283", "name": "JOSEPH G HAYES MEDICAL EDUCATION FOUNDATION", "city": "NEW YORK", "state": "NY", "zip": "10172-0003", "ntee": "", "ruling": "199107", "deductibility": "1", "assets": 79028, "income": 8, "revenue": 0}, {"ein": "133624785", "name": "T A G TREATMENT ACTION GROUP INC", "city": "NEW YORK", "state": "NY", "zip": "10004-2268", "ntee": "Z99Z", "ruling": "199301", "deductibility": "1", "assets": 4624032, "income": 4791001, "revenue": 4736176}, {"ein": "133643101", "name": "MET G C S A INC", "city": "ELMSFORD", "state": "NY", "zip": "10523-2821", "ntee": "", "ruling": "199412", "deductibility": "2", "assets": 136874, "income": 305228, "revenue": 68372}, {"ein": "133697893", "name": "ALBERT G AND CAROL F LOWENTHAL FOUNDATION", "city": "SCARSDALE", "state": "NY", "zip": "10583-4526", "ntee": "", "ruling": "199307", "deductibility": "1", "assets": 1791023, "income": 115346, "revenue": 0}, {"ein": "134000723", "name": "MJ AND CARAL G LEBWORTH FOUNDATION", "city": "NEW YORK", "state": "NY", "zip": "10036-0000", "ntee": "T90Z", "ruling": "199805", "deductibility": "1", "assets": 11605, "income": 1, "revenue": 0}, {"ein": "134031176", "name": "SHIRLEY G BENEROFE FOUNDATION INC", "city": "WHITE PLAINS", "state": "NY", "zip": "10604-1211", "ntee": "T122", "ruling": "199912", "deductibility": "1", "assets": 6333, "income": 1033, "revenue": 0}, {"ein": "134087933", "name": "ELLEN AND ANDREW G CELLI FOUNDATION INC", "city": "NEW YORK", "state": "NY", "zip": "10028-0922", "ntee": "T2", "ruling": "199912", "deductibility": "1", "assets": 523421, "income": 869444, "revenue": 0}, {"ein": "134171703", "name": "E R G FOUNDATION", "city": "NEW YORK", "state": "NY", "zip": "10007-3105", "ntee": "T22", "ruling": "200106", "deductibility": "1", "assets": 6563010, "income": 1393815, "revenue": 0}, {"ein": "134353056", "name": "BLACK ENTERPRISE B R I D G E FOUNDATION FOR THE ADVANCEMENT OF", "city": "CHAPPAQUA", "state": "NY", "zip": "10514-1018", "ntee": "T30", "ruling": "200706", "deductibility": "1", "assets": 40, "income": 2493, "revenue": 2493}, {"ein": "136075621", "name": "G D MILLER CORP HENRY P DAVISON II", "city": "DOBBS FERRY", "state": "NY", "zip": "10522-2192", "ntee": "", "ruling": "196607", "deductibility": "2", "assets": 1598337, "income": 1760689, "revenue": 1760689}, {"ein": "136085261", "name": "JACKSON E AND EVELYN G SPEARS FOUNDATION INC", "city": "NEW YORK", "state": "NY", "zip": "10021-4162", "ntee": "", "ruling": "194905", "deductibility": "1", "assets": 360704, "income": 122902, "revenue": 0}, {"ein": "136085594", "name": "ARMAND G ERPF FUND", "city": "ARKVILLE", "state": "NY", "zip": "12406-0000", "ntee": "", "ruling": "195412", "deductibility": "1", "assets": 7015072, "income": 24261740, "revenue": 0}, {"ein": "136092400", "name": "LUCY G MOSES TRUST DTD 12-24-58", "city": "NEW YORK", "state": "NY", "zip": "10008-1297", "ntee": "", "ruling": "199109", "deductibility": "1", "assets": 15231174, "income": 3994046, "revenue": 0}, {"ein": "136098429", "name": "DAVID M & HOPE G SOLINGER FOUNDATION INC", "city": "NEW YORK", "state": "NY", "zip": "10023-0000", "ntee": "", "ruling": "194805", "deductibility": "1", "assets": 100810, "income": 19741, "revenue": 0}, {"ein": "136099026", "name": "JOHN S AND FLORENCE G LAWRENCE FOUNDATION INC", "city": "NEW YORK", "state": "NY", "zip": "10119-0029", "ntee": "", "ruling": "195706", "deductibility": "1", "assets": 3489337, "income": 2135332, "revenue": 0}, {"ein": "136102804", "name": "C G JUNG FOUNDATION FOR ANALYTICAL PSYCHOLOGY INC", "city": "NEW YORK", "state": "NY", "zip": "10016-2555", "ntee": "B12", "ruling": "201812", "deductibility": "1", "assets": 2407330, "income": 550516, "revenue": 224869}, {"ein": "136203465", "name": "MERRILL G & EMITA E HASTINGS", "city": "PORT WASHINGTON", "state": "NY", "zip": "11050-0000", "ntee": "", "ruling": "196606", "deductibility": "1", "assets": 1674272, "income": 556451, "revenue": 0}, {"ein": "136227581", "name": "WILBUR G MALCOM FOUNDATION INC", "city": "WARWICK", "state": "NY", "zip": "10990-0531", "ntee": "", "ruling": "196710", "deductibility": "1", "assets": 469884, "income": 13940, "revenue": 0}, {"ein": "136262491", "name": "EPISCOPAL CHURCH OF ST GEORGE BY THE RIVER UW G V C 137362", "city": "NEW YORK", "state": "NY", "zip": "10013-2362", "ntee": "", "ruling": "197301", "deductibility": "0", "assets": 606103, "income": 182454, "revenue": 0}, {"ein": "136278694", "name": "MARY AND JAMES G WALLACH FOUNDATION", "city": "PURCHASE", "state": "NY", "zip": "10577-0000", "ntee": "", "ruling": "196812", "deductibility": "1", "assets": 71977103, "income": 45370554, "revenue": 0}, {"ein": "136307313", "name": "JOHN H & ETHEL G NOBLE CHARITABLE TRUST", "city": "NEW YORK", "state": "NY", "zip": "10008-1297", "ntee": "", "ruling": "197105", "deductibility": "1", "assets": 17934363, "income": 5930610, "revenue": 0}, {"ein": "137265141", "name": "G&E DUBIN FAM FOUNDATION TR", "city": "NEW YORK", "state": "NY", "zip": "10022-2605", "ntee": "T20", "ruling": "200205", "deductibility": "0", "assets": 56920563, "income": 3429957, "revenue": 0}, {"ein": "141597911", "name": "WILLIAM G & RHODA B PARTRIDGE MEMORIAL SCHOLARSHIP FUND", "city": "NORWICH", "state": "NY", "zip": "13815-0000", "ntee": "", "ruling": "197806", "deductibility": "1", "assets": 793659, "income": 314392, "revenue": 0}, {"ein": "141819097", "name": "BARRY G BLENIS FOUNDATION", "city": "SURPRISE", "state": "NY", "zip": "12176-2301", "ntee": "T20", "ruling": "200101", "deductibility": "1", "assets": 280719, "income": 1892, "revenue": 0}, {"ein": "146034010", "name": "JOSEPH G & HORTENSE L MINTZER TRUST", "city": "W SAND LAKE", "state": "NY", "zip": "12196-0442", "ntee": "", "ruling": "196512", "deductibility": "1", "assets": 170723, "income": 45744, "revenue": 0}, {"ein": "150508495", "name": "VETERANS OF FOREIGN WARS OF THE US DEPT OF NY G A WARNER POST 1371", "city": "OWEGO", "state": "NY", "zip": "13827-1633", "ntee": "", "ruling": "197210", "deductibility": "1", "assets": 450097, "income": 351841, "revenue": 269724}, {"ein": "156015532", "name": "ANDREW G DUNN TRUST C167", "city": "NORWICH", "state": "NY", "zip": "13815-0000", "ntee": "", "ruling": "000000", "deductibility": "0", "assets": 122006, "income": 11483, "revenue": 0}, {"ein": "161101882", "name": "GENESEE HOSTELS HOLDING CORP C O BRYAN G LANEUVILLE", "city": "BATAVIA", "state": "NY", "zip": "14020-3015", "ntee": "", "ruling": "199410", "deductibility": "1", "assets": 1, "income": 0, "revenue": 0}, {"ein": "161284994", "name": "G E SKI CLUB INC", "city": "NEW HARTFORD", "state": "NY", "zip": "13413-0327", "ntee": "", "ruling": "198708", "deductibility": "2", "assets": 13662, "income": 40070, "revenue": 0}, {"ein": "161285546", "name": "STANLEY G FALK SCHOOL", "city": "BUFFALO", "state": "NY", "zip": "14202-1804", "ntee": "", "ruling": "198804", "deductibility": "1", "assets": 8039054, "income": 27048176, "revenue": 27048176}, {"ein": "161359655", "name": "E J G FOUNDATION INC", "city": "AUBURN", "state": "NY", "zip": "13021-1811", "ntee": "", "ruling": "199008", "deductibility": "1", "assets": 1582948, "income": 345325, "revenue": 202617}, {"ein": "161422818", "name": "CHARLES G FINNEY HIGH SCHOOL INC", "city": "PENFIELD", "state": "NY", "zip": "14526-1450", "ntee": "", "ruling": "199907", "deductibility": "1", "assets": 0, "income": 0, "revenue": 0}, {"ein": "161455760", "name": "HAROLD J & ARLYNE G LEVY FAM FOUNDATION", "city": "AMHERST", "state": "NY", "zip": "14226-4104", "ntee": "", "ruling": "199406", "deductibility": "1", "assets": 45263, "income": 23443, "revenue": 0}, {"ein": "161472797", "name": "B-G BOOSTER CLUB", "city": "BAINBRIDGE", "state": "NY", "zip": "13733-1025", "ntee": "N12", "ruling": "201802", "deductibility": "1", "assets": 0, "income": 0, "revenue": 0}, {"ein": "161497039", "name": "G R A S P", "city": "ROCHESTER", "state": "NY", "zip": "14626-0741", "ntee": "D200", "ruling": "199702", "deductibility": "1", "assets": 119978, "income": 307806, "revenue": 275386}, {"ein": "161510757", "name": "ROBERT G BOEHMLER COMMUNITY FOUNDATION INC", "city": "PITTSFORD", "state": "NY", "zip": "14534-4527", "ntee": "A12", "ruling": "199903", "deductibility": "1", "assets": 1954660, "income": 65206, "revenue": 0}, {"ein": "161768462", "name": "ELAINE T AND JOSEPH G BUCCI FAMILY FOUNDATION", "city": "GENESEO", "state": "NY", "zip": "14454-0098", "ntee": "T22", "ruling": "200608", "deductibility": "1", "assets": 3917, "income": 1, "revenue": 0}, {"ein": "166021084", "name": "LOUIS G MERRITT TRUST 10-29-59 EDUC FDN", "city": "NORWICH", "state": "NY", "zip": "13815-0000", "ntee": "", "ruling": "196404", "deductibility": "1", "assets": 25101, "income": 1334, "revenue": 0}, {"ein": "166023853", "name": "JAMES G MARSHALL TR DTD 12-4-52 42-3744", "city": "NORWICH", "state": "NY", "zip": "13815-0000", "ntee": "", "ruling": "000000", "deductibility": "0", "assets": 213031, "income": 46532, "revenue": 0}, {"ein": "166072712", "name": "G CARDUCCI LODGE ASSOC OF HORNELL NY INC", "city": "HORNELL", "state": "NY", "zip": "14843-1948", "ntee": "", "ruling": "195012", "deductibility": "2", "assets": 0, "income": 0, "revenue": 0}, {"ein": "166092145", "name": "JACK G LUBELLE FOUNDATION INC", "city": "WEBSTER", "state": "NY", "zip": "14580-2969", "ntee": "", "ruling": "197205", "deductibility": "1", "assets": 73718, "income": 2662, "revenue": 0}, {"ein": "166210688", "name": "THERESA F & BELLA G THOMPSON TRUST FBO YMCA NATL BANK & TRUST CO OF N", "city": "NORWICH", "state": "NY", "zip": "13815-0000", "ntee": "", "ruling": "197803", "deductibility": "1", "assets": 2915552, "income": 564937, "revenue": 0}, {"ein": "166237917", "name": "LYNN E & MATTIE G MCCONNELL FOUNDATION & SCHOLARSHIP FUND", "city": "PITTSFORD", "state": "NY", "zip": "14534-3838", "ntee": "", "ruling": "000000", "deductibility": "0", "assets": 145020, "income": 9812, "revenue": 0}, {"ein": "166240533", "name": "HARLOW G FARMER TR UW FBO NORTH NY COMM FDN 24296740", "city": "NORWICH", "state": "NY", "zip": "13815-0000", "ntee": "A01", "ruling": "200811", "deductibility": "1", "assets": 60145, "income": 4962, "revenue": 0}, {"ein": "166243186", "name": "THE HARLOW G FARMER MEMORIAL FUND FOR THE YWCA OF WATERTOWN NY", "city": "NORWICH", "state": "NY", "zip": "13815-0000", "ntee": "", "ruling": "199306", "deductibility": "1", "assets": 54227, "income": 4325, "revenue": 0}, {"ein": "166246710", "name": "THE HARLOW G FARMER MEMORIAL FUND FBO FIRST PRESBYTERIAN CHURCH", "city": "NORWICH", "state": "NY", "zip": "13815-1646", "ntee": "", "ruling": "000000", "deductibility": "0", "assets": 110456, "income": 30661, "revenue": 0}, {"ein": "166332120", "name": "DONALD F AND EDNA G BISHOP SCHOLARSHIP FOUNDATION", "city": "BINGHAMTON", "state": "NY", "zip": "13901-3502", "ntee": "", "ruling": "199002", "deductibility": "1", "assets": 15881956, "income": 10441942, "revenue": 0}, {"ein": "166364844", "name": "G P THOMAS-PRATT LIBRARY", "city": "AMHERST", "state": "NY", "zip": "14228-2307", "ntee": "", "ruling": "199205", "deductibility": "1", "assets": 219671, "income": 57250, "revenue": 0}, {"ein": "166477414", "name": "CHRIST UNITED METHODIST CHURCH T UW G SWART ET03045A-2", "city": "OLEAN", "state": "NY", "zip": "14760-2738", "ntee": "X11", "ruling": "202504", "deductibility": "1", "assets": 446422, "income": 271661, "revenue": 0}, {"ein": "166520842", "name": "LILA G BULL CHARITABLE TRUST UNDER AGREEMENT DATED FEBRUARY 9 1998", "city": "NEW YORK", "state": "NY", "zip": "10001-2189", "ntee": "T20", "ruling": "200111", "deductibility": "1", "assets": 2519989, "income": 1135456, "revenue": 469956}, {"ein": "201959702", "name": "J O G FAMILY FOUNDATION", "city": "BROOKLYN", "state": "NY", "zip": "11219-4521", "ntee": "T22", "ruling": "200509", "deductibility": "1", "assets": 91804, "income": 67464, "revenue": 0}, {"ein": "202006253", "name": "JOSEPH G KEARNS AND AGNES K KEARNS FOUNDATION", "city": "COOPERSTOWN", "state": "NY", "zip": "13326-1138", "ntee": "T20", "ruling": "200501", "deductibility": "1", "assets": 820, "income": 15918, "revenue": 0}, {"ein": "202471086", "name": "ALFRED G AND MARY B CHILDERS FOUNDATION INC", "city": "ALBANY", "state": "NY", "zip": "12212-5201", "ntee": "T22", "ruling": "200505", "deductibility": "1", "assets": 4862481, "income": 1075807, "revenue": 0}, {"ein": "203156955", "name": "VIVIAN G PRINS FOUNDATION", "city": "NEW YORK", "state": "NY", "zip": "10036-0000", "ntee": "A12", "ruling": "200601", "deductibility": "1", "assets": 1044506, "income": 67354, "revenue": 0}, {"ein": "204393253", "name": "JACK G BUNCHER CHARITABLE FUND FORTHE AMER JEWISH JOINT DIST COMMITTE", "city": "NEW YORK", "state": "NY", "zip": "10017-5833", "ntee": "T20", "ruling": "200706", "deductibility": "1", "assets": 15503520, "income": 1507567, "revenue": 1507567}, {"ein": "204904885", "name": "A AND G ACKERMAN FAMILY FUND", "city": "WOODBURY", "state": "NY", "zip": "11797-0000", "ntee": "T20", "ruling": "200809", "deductibility": "1", "assets": 770914, "income": 24371, "revenue": 0}, {"ein": "205557037", "name": "JOHN G CHIPURA FOUNDATION", "city": "STATEN ISLAND", "state": "NY", "zip": "10307-1249", "ntee": "T31", "ruling": "201004", "deductibility": "1", "assets": 104915, "income": 91521, "revenue": 61400}, {"ein": "206572301", "name": "WILLIAM G POMEROY FOUNDATION", "city": "SYRACUSE", "state": "NY", "zip": "13210-4144", "ntee": "T20", "ruling": "200605", "deductibility": "1", "assets": 96709252, "income": 2637811, "revenue": 0}, {"ein": "207284596", "name": "DONALD G HUNT CHARITABLE TR 12212006 002200-1434661", "city": "NEW YORK", "state": "NY", "zip": "10020-1401", "ntee": "T22", "ruling": "200804", "deductibility": "1", "assets": 5675, "income": 245, "revenue": 0}, {"ein": "208075415", "name": "BRUCE G GEARY FOUNDATION", "city": "STATEN ISLAND", "state": "NY", "zip": "10314-0732", "ntee": "T22", "ruling": "200703", "deductibility": "1", "assets": 22569662, "income": 26389789, "revenue": 0}, {"ein": "222136614", "name": "CAYUGA COUNTY COUNCIL OF SENIOR CITIZENS INC C O R G S MAIER", "city": "AUBURN", "state": "NY", "zip": "13021-3504", "ntee": "", "ruling": "197612", "deductibility": "1", "assets": 0, "income": 0, "revenue": 0}, {"ein": "222507158", "name": "GERARDUS SMITH-JOHN G GREEN TRUST U/W ELEANOR GREEN", "city": "ALBANY", "state": "NY", "zip": "12205-5941", "ntee": "", "ruling": "198406", "deductibility": "1", "assets": 5645258, "income": 580983, "revenue": 0}, {"ein": "223137752", "name": "KENNETH L AND KATHERINE G KOESSLER FAM FOUNDATION INC", "city": "BUFFALO", "state": "NY", "zip": "14216-3611", "ntee": "", "ruling": "199112", "deductibility": "1", "assets": 3616131, "income": 663431, "revenue": 0}, {"ein": "223207792", "name": "FATHER PETER G YOUNG JR FOUNDATION INC", "city": "LATHAM", "state": "NY", "zip": "12110-2100", "ntee": "", "ruling": "199304", "deductibility": "1", "assets": 2413660, "income": 1745288, "revenue": 1712837}, {"ein": "223275145", "name": "BOBBIE AND JOHN G ULLMAN FAMILY FOUNDATION INC", "city": "CORNING", "state": "NY", "zip": "14830-1024", "ntee": "", "ruling": "199401", "deductibility": "1", "assets": 3805982, "income": 1726776, "revenue": 0}, {"ein": "226404641", "name": "HERMAN G MOSELOWITZ CHARITABLE REMAINDER UNITRUST ADA BLOOM TTEE", "city": "NEW YORK", "state": "NY", "zip": "10022-0000", "ntee": "", "ruling": "000000", "deductibility": "0", "assets": 194189, "income": 5999, "revenue": 0}, {"ein": "226925898", "name": "G CRAIG RAMSAY FOUNDATION CHARITABLE TR", "city": "MARGARETVILLE", "state": "NY", "zip": "12455-0409", "ntee": "T22", "ruling": "200303", "deductibility": "1", "assets": 89966, "income": 177, "revenue": 0}, {"ein": "236485096", "name": "CHARLES G GLAZER SCHOLARSHIP FUND", "city": "BUFFALO", "state": "NY", "zip": "14240-1504", "ntee": "", "ruling": "197401", "deductibility": "1", "assets": 51867, "income": 99707, "revenue": 0}, {"ein": "237028896", "name": "G S S FOUNDATION INC", "city": "NEW YORK", "state": "NY", "zip": "10023-5936", "ntee": "", "ruling": "196908", "deductibility": "1", "assets": 57708, "income": 3, "revenue": 0}, {"ein": "237441901", "name": "G HAROLD AND LEILA MATHERS CHARITABLE FOUNDATION", "city": "MOUNT KISCO", "state": "NY", "zip": "10549-2554", "ntee": "", "ruling": "197507", "deductibility": "1", "assets": 99932556, "income": 25318142, "revenue": 0}, {"ein": "256818502", "name": "JANE A LEHMAN AND ALAN G LEHMAN FOUNDATION", "city": "NEW YORK", "state": "NY", "zip": "10017-2234", "ntee": "T22", "ruling": "200211", "deductibility": "1", "assets": 6531073, "income": 1251455, "revenue": 0}, {"ein": "256843878", "name": "FLORENCE G HARPER CHAIR IN ART EDUCATION", "city": "BUFFALO", "state": "NY", "zip": "14240-1504", "ntee": "T20", "ruling": "200407", "deductibility": "1", "assets": 843915, "income": 293679, "revenue": 0}, {"ein": "260316905", "name": "PETER G PETERSON FOUNDATION", "city": "NEW YORK", "state": "NY", "zip": "10022-4614", "ntee": "T20", "ruling": "200803", "deductibility": "1", "assets": 1095437638, "income": 44626096, "revenue": 0}, {"ein": "261591874", "name": "GEORGIA G HIDEN CHARITABLE FOUNDATION", "city": "OYSTER BAY", "state": "NY", "zip": "11771-3300", "ntee": "T90", "ruling": "200910", "deductibility": "1", "assets": 5870098, "income": 4895156, "revenue": 0}, {"ein": "261749799", "name": "CPL CHRISTOPHER G SCHERER SEMPER FI FUND", "city": "E NORTHPORT", "state": "NY", "zip": "11731-1737", "ntee": "B82", "ruling": "201004", "deductibility": "1", "assets": 0, "income": 0, "revenue": 0}, {"ein": "263451401", "name": "THE LORI G AND ALAN G@HARRIS FAMILY CHARITABLE TRUST", "city": "NEW YORK", "state": "NY", "zip": "10028-3221", "ntee": "T22", "ruling": "200902", "deductibility": "1", "assets": 6762, "income": 106, "revenue": 0}, {"ein": "264413332", "name": "NORMAN E ALEXANDER FAMILY G FOUNDATION INC", "city": "NEW YORK", "state": "NY", "zip": "10170-2199", "ntee": "X12", "ruling": "201102", "deductibility": "1", "assets": 95182266, "income": 46219314, "revenue": 0}, {"ein": "270921553", "name": "G O O D FOR GIRLS", "city": "VALHALLA", "state": "NY", "zip": "10595-0000", "ntee": "O50", "ruling": "201102", "deductibility": "1", "assets": 45705, "income": 182659, "revenue": 182659}, {"ein": "271386584", "name": "ROBERT G & FLORENCE E VANDUYN CHARITABLE FOUNDATION", "city": "ROCHESTER", "state": "NY", "zip": "14604-2714", "ntee": "T20", "ruling": "201002", "deductibility": "1", "assets": 1397962, "income": 611999, "revenue": 0}, {"ein": "271735405", "name": "G O A LS ATHLETIC LEAGUE INC", "city": "BAYSIDE", "state": "NY", "zip": "11361-2071", "ntee": "N63", "ruling": "201012", "deductibility": "1", "assets": 103989, "income": 153345, "revenue": 153345}, {"ein": "273368389", "name": "B&G SILBERSTEIN FOUNDATION", "city": "BROOKLYN", "state": "NY", "zip": "11249-7685", "ntee": "X20", "ruling": "201409", "deductibility": "1", "assets": 818181, "income": 5, "revenue": 0}, {"ein": "274542299", "name": "G N EIRUV ASSOCIATION", "city": "GREAT NECK", "state": "NY", "zip": "11023-4243", "ntee": "X30", "ruling": "201105", "deductibility": "1", "assets": 18584, "income": 54610, "revenue": 54610}, {"ein": "275445207", "name": "SUSAN G AND EDMUND W GORDON COMMUNITY PARTNERSHIP INC", "city": "POMONA", "state": "NY", "zip": "10970-3309", "ntee": "A80", "ruling": "201107", "deductibility": "1", "assets": 0, "income": 0, "revenue": 0}, {"ein": "300103736", "name": "JAMES L AND SUSAN G WINTER FOUNDATION", "city": "NEW YORK", "state": "NY", "zip": "10019-5429", "ntee": "T22", "ruling": "200209", "deductibility": "1", "assets": 3920514, "income": 1945532, "revenue": 0}, {"ein": "300262523", "name": "AMELIA G FILLEMAN SCHOLARSHIP FUND", "city": "MEXICO", "state": "NY", "zip": "13114-3453", "ntee": "B82", "ruling": "200407", "deductibility": "1", "assets": 0, "income": 0, "revenue": 0}, {"ein": "300442223", "name": "THREE-G VOLUNTEER FIRE COMPANY INC", "city": "GLENFIELD", "state": "NY", "zip": "13343-0112", "ntee": "M24", "ruling": "200801", "deductibility": "1", "assets": 1110181, "income": 263562, "revenue": 246689}, {"ein": "311581582", "name": "WILLIAM A MITCHELL METROPOLITAN P G A CHARITABLE FOUNDATION INC", "city": "TIMES SQ NEW YORK", "state": "NY", "zip": "10036-0000", "ntee": "B82M", "ruling": "199806", "deductibility": "1", "assets": 25436, "income": 13129, "revenue": 13129}, {"ein": "311623371", "name": "MURRAY G AND BEATRICE H SHERMAN CHARITABLE TRUST", "city": "NEW YORK", "state": "NY", "zip": "10023-0313", "ntee": "T22", "ruling": "199903", "deductibility": "1", "assets": 3299830, "income": 1324021, "revenue": 0}, {"ein": "311651175", "name": "DAVID G TAFT FOUNDATION", "city": "NEW YORK", "state": "NY", "zip": "10036-5008", "ntee": "T20", "ruling": "199907", "deductibility": "1", "assets": 628644, "income": 356750, "revenue": 0}, {"ein": "320031283", "name": "G T E V SCHLIERACHTALER STAMM INC", "city": "FRANKLIN SQ", "state": "NY", "zip": "11010-1535", "ntee": "A62", "ruling": "201707", "deductibility": "1", "assets": 0, "income": 0, "revenue": 0}, {"ein": "331143398", "name": "GREATER OPPORTUNITIES START HERE G O S H INC", "city": "YONKERS", "state": "NY", "zip": "10703-2347", "ntee": "O50", "ruling": "200704", "deductibility": "1", "assets": 0, "income": 0, "revenue": 0}, {"ein": "331659989", "name": "G&K WALLACH FOUNDATION", "city": "PURCHASE", "state": "NY", "zip": "10577-0000", "ntee": "T20", "ruling": "202412", "deductibility": "1", "assets": 1862474, "income": 3940103, "revenue": 0}, {"ein": "334209766", "name": "G O A T S BASKETBALL INC", "city": "BRONX", "state": "NY", "zip": "10451-3921", "ntee": "O50", "ruling": "202505", "deductibility": "1", "assets": 0, "income": 0, "revenue": 0}, {"ein": "357193146", "name": "THE@NORMAN L FULD AND RENEE G FULD SCHOLARSHIP TRUST FUND", "city": "WHITE PLAINS", "state": "NY", "zip": "10604-0000", "ntee": "T22", "ruling": "201809", "deductibility": "1", "assets": 1178449, "income": 51852, "revenue": 0}, {"ein": "364193183", "name": "S & G FOUNDATION", "city": "ALBANY", "state": "NY", "zip": "12212-5201", "ntee": "T22Z", "ruling": "199801", "deductibility": "1", "assets": 1487879912, "income": 103611227, "revenue": 0}, {"ein": "412218138", "name": "G & B FOUNDATIONS INC", "city": "BRONX", "state": "NY", "zip": "10452-4608", "ntee": "O50", "ruling": "200706", "deductibility": "1", "assets": 12399, "income": 27664, "revenue": 27664}, {"ein": "451803070", "name": "G I B HAIR EDUCATION FOUNDATION INC", "city": "NEW YORK", "state": "NY", "zip": "10035-9138", "ntee": "B30", "ruling": "201208", "deductibility": "1", "assets": 0, "income": 0, "revenue": 0}, {"ein": "456584407", "name": "WARREN G HUNKE CHARITABLE TR", "city": "NEW YORK", "state": "NY", "zip": "10004-0000", "ntee": "T20", "ruling": "201305", "deductibility": "1", "assets": 4504, "income": 1, "revenue": 0}, {"ein": "456814949", "name": "THE JOSEPH A AND NINA G CAMERATA CHARITABLE TRUST", "city": "NEW YORK", "state": "NY", "zip": "10001-2189", "ntee": "T20", "ruling": "201408", "deductibility": "1", "assets": 2651759, "income": 730869, "revenue": 0}, {"ein": "460756912", "name": "GEORGE G DAMATO FAMILY FOUNDATION", "city": "PEEKSKILL", "state": "NY", "zip": "10566-0000", "ntee": "T20", "ruling": "201602", "deductibility": "1", "assets": 1, "income": 1, "revenue": 0}, {"ein": "460804667", "name": "D R A G OF SPECULATOR INC", "city": "SPECULATOR", "state": "NY", "zip": "12164-0231", "ntee": "N61", "ruling": "201311", "deductibility": "2", "assets": 131677, "income": 17745, "revenue": 17745}, {"ein": "464229137", "name": "MICHAEL G SANTANGELO JR SCHOLARSHIP FUND", "city": "WHITE PLAINS", "state": "NY", "zip": "10601-4413", "ntee": "T30", "ruling": "201411", "deductibility": "1", "assets": 1372678, "income": 475998, "revenue": 229360}, {"ein": "464699624", "name": "BRONEY G GADMAN FOUNDATION INC", "city": "MEDFORD", "state": "NY", "zip": "11763-0402", "ntee": "G50", "ruling": "201606", "deductibility": "1", "assets": 0, "income": 0, "revenue": 0}, {"ein": "465293595", "name": "R O U G H H FOUNDATION INC", "city": "MAYBROOK", "state": "NY", "zip": "12543-1325", "ntee": "W30", "ruling": "201409", "deductibility": "1", "assets": 0, "income": 0, "revenue": 0}, {"ein": "467273847", "name": "DIXON G & MARY L BLODGETT CHAR TR", "city": "BUFFALO", "state": "NY", "zip": "14240-1504", "ntee": "T90", "ruling": "201503", "deductibility": "1", "assets": 887533, "income": 186531, "revenue": 0}, {"ein": "472138530", "name": "S G OF ROCKLAND COUNTY INC", "city": "SPRING VALLEY", "state": "NY", "zip": "10977-6117", "ntee": "P20", "ruling": "201503", "deductibility": "1", "assets": 3718, "income": 69385, "revenue": 69385}, {"ein": "473039796", "name": "REV LIONEL G RAMIREZ & BETTY J WARD FOUNDATION INC", "city": "RONKONKOMA", "state": "NY", "zip": "11779-6815", "ntee": "P20", "ruling": "201608", "deductibility": "1", "assets": 1, "income": 0, "revenue": 0}, {"ein": "473308084", "name": "ELISA G LIAKARIS FOUNDATION INC", "city": "ASTORIA", "state": "NY", "zip": "11105-1024", "ntee": "T12", "ruling": "201510", "deductibility": "1", "assets": 0, "income": 0, "revenue": 0}, {"ein": "474350260", "name": "FRANCIS GRACE G & E FOUNDATION INC", "city": "SPRINGFIELD GARDENS", "state": "NY", "zip": "11413-1107", "ntee": "A23", "ruling": "201512", "deductibility": "1", "assets": 9412, "income": 13910, "revenue": 13910}, {"ein": "475556421", "name": "G&S ARTS JOURNAL INC", "city": "NEW YORK", "state": "NY", "zip": "10028-4305", "ntee": "A25", "ruling": "201808", "deductibility": "1", "assets": 0, "income": 0, "revenue": 0}, {"ein": "510244640", "name": "LEWIS G ROBINSON CHARITABLE TRUST C/O MARINE MIDLAND BANK", "city": "NORWICH", "state": "NY", "zip": "13815-0000", "ntee": "", "ruling": "197002", "deductibility": "1", "assets": 146350, "income": 19135, "revenue": 0}, {"ein": "510436715", "name": "PETER G SALLY L AND CHRISTOPHER L HUMPHREY FOUNDATION", "city": "SCOTTSVILLE", "state": "NY", "zip": "14546-9638", "ntee": "T22", "ruling": "200303", "deductibility": "1", "assets": 280815, "income": 10518, "revenue": 0}, {"ein": "522299704", "name": "G MACH KEREN EIZER NISIYIN", "city": "BROOKLYN", "state": "NY", "zip": "11219-3011", "ntee": "X30", "ruling": "200202", "deductibility": "1", "assets": 0, "income": 0, "revenue": 0}, {"ein": "546548116", "name": "MAYNARD G REDFIELD SUCO HISTORY DEPT TR UW", "city": "ONEONTA", "state": "NY", "zip": "13820-0430", "ntee": "", "ruling": "000000", "deductibility": "0", "assets": 382246, "income": 144218, "revenue": 0}, {"ein": "562290623", "name": "G R F 9812 LOCKPORT ROAD INC", "city": "NIAGARA FALLS", "state": "NY", "zip": "14304-1114", "ntee": "L112", "ruling": "200211", "deductibility": "1", "assets": 720302, "income": 89859, "revenue": 89859}, {"ein": "562531360", "name": "LT JOSEPH G LEAVEY EDUCATIONAL FOUNDATION", "city": "PELHAM", "state": "NY", "zip": "10803-1424", "ntee": "B82", "ruling": "201510", "deductibility": "1", "assets": 0, "income": 0, "revenue": 0}, {"ein": "810586927", "name": "JOSEPH G VISCIANO MEMORIAL SCHOLARSHIP FUND", "city": "STATEN ISLAND", "state": "NY", "zip": "10308-2927", "ntee": "B82", "ruling": "200509", "deductibility": "1", "assets": 63155, "income": 30625, "revenue": 30625}, {"ein": "814042396", "name": "ARTHUR G DOVE TRIBUTE GROUP INC", "city": "GENEVA", "state": "NY", "zip": "14456-8170", "ntee": "A26", "ruling": "201703", "deductibility": "1", "assets": 114139, "income": 108099, "revenue": 98561}, {"ein": "815361384", "name": "G-FORCE MINISTRIES INC", "city": "ROCHESTER", "state": "NY", "zip": "14610-3509", "ntee": "X20", "ruling": "201710", "deductibility": "1", "assets": 23604, "income": 47958, "revenue": 47388}, {"ein": "816346934", "name": "G HUTT IRTUA FBO ESTONIAN STUDENTS FUND", "city": "BUFFALO", "state": "NY", "zip": "14240-1504", "ntee": "", "ruling": "201704", "deductibility": "1", "assets": 215264, "income": 65391, "revenue": 0}, {"ein": "823112895", "name": "MILDRED G & ROBERT K CAMPFIELD CHARITABLE TRUST", "city": "NORWICH", "state": "NY", "zip": "13815-1019", "ntee": "B82", "ruling": "201711", "deductibility": "1", "assets": 320545, "income": 51789, "revenue": 0}, {"ein": "826588089", "name": "RAYMOND C KELLER AND JANE G KELLER CHARITABLE TRUST FBO RIDER UNIV", "city": "BUFFALO", "state": "NY", "zip": "14240-1504", "ntee": "T22", "ruling": "201809", "deductibility": "1", "assets": 2988156, "income": 596310, "revenue": 0}, {"ein": "826590879", "name": "RAYMOND C KELLER AND JANE G KELLER CHARITABLE TRUST", "city": "BUFFALO", "state": "NY", "zip": "14240-1504", "ntee": "T22", "ruling": "201808", "deductibility": "1", "assets": 1485000, "income": 304854, "revenue": 0}, {"ein": "832547464", "name": "HARRY G FRIEDMAN SOCIETY INC", "city": "S SETAUKET", "state": "NY", "zip": "11720-3710", "ntee": "A23", "ruling": "201905", "deductibility": "1", "assets": 0, "income": 0, "revenue": 0}, {"ein": "832882705", "name": "J&G FAMILY FOUNDATION", "city": "BROOKLYN", "state": "NY", "zip": "11249-6050", "ntee": "T99", "ruling": "201908", "deductibility": "1", "assets": 5198, "income": 375000, "revenue": 0}, {"ein": "832894116", "name": "M&G CHARITABLE FOUNDATION", "city": "BROOKLYN", "state": "NY", "zip": "11205-1687", "ntee": "T01", "ruling": "201908", "deductibility": "1", "assets": 1, "income": 1, "revenue": 0}, {"ein": "833596773", "name": "G R E G INC", "city": "NEW YORK", "state": "NY", "zip": "10282-1273", "ntee": "B90", "ruling": "201907", "deductibility": "1", "assets": 1, "income": 0, "revenue": 0}, {"ein": "833818271", "name": "MADELYN G BOWEN MEMORIAL FUND INC", "city": "MASSAPEQUA", "state": "NY", "zip": "11758-2317", "ntee": "P12", "ruling": "201904", "deductibility": "1", "assets": 0, "income": 0, "revenue": 0}, {"ein": "834387551", "name": "CAPTAIN VINCENT G FOWLER MEMORIAL FUND INCORPORATION", "city": "SELDEN", "state": "NY", "zip": "11784-0000", "ntee": "J22", "ruling": "201904", "deductibility": "1", "assets": 0, "income": 0, "revenue": 0}, {"ein": "842499783", "name": "P S 316 ELIJAH G STROUD PTA INC", "city": "BROOKLYN", "state": "NY", "zip": "11238-4607", "ntee": "B94", "ruling": "201908", "deductibility": "1", "assets": 44835, "income": 140176, "revenue": 132411}, {"ein": "844133714", "name": "VINCENT G VOERG FOUNDATION INC", "city": "NEW YORK", "state": "NY", "zip": "10017-5516", "ntee": "B82", "ruling": "202005", "deductibility": "1", "assets": 138364, "income": 1590, "revenue": 0}, {"ein": "844943148", "name": "TYLER G FOUNDATION INC", "city": "BROOKLYN", "state": "NY", "zip": "11226-9702", "ntee": "T30", "ruling": "202009", "deductibility": "1", "assets": 153000, "income": 10000, "revenue": 10000}, {"ein": "853195943", "name": "CHRISTOPHER G GEGWICH MEMORIAL FOUNDATION INC", "city": "CENTERPORT", "state": "NY", "zip": "11721-1155", "ntee": "T30", "ruling": "202101", "deductibility": "1", "assets": 53083, "income": 11924, "revenue": 11924}, {"ein": "854307717", "name": "AMARJIT S & SURINDER G VIRK FOUNDATION INC", "city": "EAST AMHERST", "state": "NY", "zip": "14051-0444", "ntee": "", "ruling": "202108", "deductibility": "1", "assets": 167413, "income": 4148, "revenue": 0}, {"ein": "856576699", "name": "GEORGE G FUND", "city": "NEW YORK", "state": "NY", "zip": "10008-1297", "ntee": "T20", "ruling": "202105", "deductibility": "1", "assets": 18149879, "income": 2739809, "revenue": 0}, {"ein": "861425664", "name": "DAVID G AND CHRISTINE M STACK FAMILY FOUNDATION INC", "city": "BALLSTON SPA", "state": "NY", "zip": "12020-2104", "ntee": "", "ruling": "000000", "deductibility": "0", "assets": 110172, "income": 5817, "revenue": 5817}, {"ein": "862059440", "name": "ALEX G DUNCAN FOUNDATION FOR FIGHTING TESTICULAR CANCER", "city": "NISKAYUNA", "state": "NY", "zip": "12309-4502", "ntee": "G30", "ruling": "202109", "deductibility": "1", "assets": 0, "income": 0, "revenue": 0}, {"ein": "862167278", "name": "INSPIRATION G NYC", "city": "NEW YORK", "state": "NY", "zip": "10035-4206", "ntee": "A20", "ruling": "202303", "deductibility": "1", "assets": 1, "income": 9025, "revenue": 9025}, {"ein": "871720322", "name": "M O G HEART DISEASE FOUNDATION INC", "city": "BROOKLYN", "state": "NY", "zip": "11217-2569", "ntee": "T99", "ruling": "202206", "deductibility": "1", "assets": 0, "income": 0, "revenue": 0}, {"ein": "873798916", "name": "Y&G 5763 FOUNDATION", "city": "BROOKLYN", "state": "NY", "zip": "11204-1049", "ntee": "T20", "ruling": "202203", "deductibility": "1", "assets": 387583, "income": 97351, "revenue": 0}, {"ein": "880827811", "name": "JACK G ROGERS FOUNDATION", "city": "HAMBURG", "state": "NY", "zip": "14075-3468", "ntee": "O20", "ruling": "202206", "deductibility": "1", "assets": 0, "income": 0, "revenue": 0}, {"ein": "883422171", "name": "GUARD YOUR MIND G Y M", "city": "STATEN ISLAND", "state": "NY", "zip": "10303-0000", "ntee": "O51", "ruling": "202208", "deductibility": "1", "assets": 0, "income": 0, "revenue": 0}, {"ein": "883477184", "name": "PEOPLE UNITED FOR SOCIAL AND ECONOMIC G", "city": "STATEN ISLAND", "state": "NY", "zip": "10303-1645", "ntee": "S80", "ruling": "202212", "deductibility": "1", "assets": 0, "income": 0, "revenue": 0}, {"ein": "920274588", "name": "MARTHA G WELCH CENTER FOR EMOTIONAL CONNECTION", "city": "NEW YORK", "state": "NY", "zip": "10024-1611", "ntee": "P40", "ruling": "202309", "deductibility": "1", "assets": 0, "income": 0, "revenue": 0}, {"ein": "920372895", "name": "G I A GIFT IT AWAY INC", "city": "FLUSHING", "state": "NY", "zip": "11355-5423", "ntee": "T31", "ruling": "202210", "deductibility": "1", "assets": 0, "income": 0, "revenue": 0}, {"ein": "920652657", "name": "DENNIS G LYONS FAMILY FOUNDATION", "city": "FRANKLIN SQ", "state": "NY", "zip": "11010-3211", "ntee": "O19", "ruling": "202301", "deductibility": "1", "assets": 0, "income": 0, "revenue": 0}, {"ein": "923941712", "name": "D&G COMMUNITY CHANGE FOUNDATION INC", "city": "BRONX", "state": "NY", "zip": "10460-0322", "ntee": "E60", "ruling": "202306", "deductibility": "1", "assets": 0, "income": 0, "revenue": 0}, {"ein": "933295077", "name": "SEAN G BYRNE SCHOLARSHIP FOUNDATION", "city": "EAST NORWICH", "state": "NY", "zip": "11732-1155", "ntee": "P20", "ruling": "202311", "deductibility": "1", "assets": 50582, "income": 0, "revenue": 0}, {"ein": "934513456", "name": "MGX PHASE 2 G HOUSING DEVELOPMENT FUND CORPORATION", "city": "NEW YORK", "state": "NY", "zip": "10018-0092", "ntee": "L20", "ruling": "202409", "deductibility": "2", "assets": 0, "income": 0, "revenue": 0}, {"ein": "992548532", "name": "R I N G INC", "city": "JAMAICA", "state": "NY", "zip": "11434-3955", "ntee": "P30", "ruling": "202408", "deductibility": "1", "assets": 1, "income": 0, "revenue": 0}, {"ein": "992697715", "name": "WALTER G O CONNELL COPIAGUE HIGH SCHOOL BAND PARENTS ORGANIZATION", "city": "COPIAGUE", "state": "NY", "zip": "11726-1814", "ntee": "B12", "ruling": "202405", "deductibility": "1", "assets": 0, "income": 0, "revenue": 0}], "LBRY": [{"ein": "042673426", "name": "AMERICAN TRUST FOR THE BRITISH LBRY", "city": "NEW YORK", "state": "NY", "zip": "10034-1612", "ntee": "B76I", "ruling": "197908", "deductibility": "1", "assets": 3649352, "income": 433157, "revenue": 330141}], "BEVERLY": [{"ein": "046036514", "name": "ANNIE F OBER TR FBO OF YOUNG MENS CHRISTIAN ASSOCIATION BEVERLY REG", "city": "BUFFALO", "state": "NY", "zip": "14240-1504", "ntee": "", "ruling": "198803", "deductibility": "1", "assets": 463822, "income": 267238, "revenue": 58264}, {"ein": "046239408", "name": "ROBERT G FOSTER TRUST C/O BEVERLY NATL BK", "city": "BUFFALO", "state": "NY", "zip": "14240-1504", "ntee": "", "ruling": "198803", "deductibility": "2", "assets": 1467136, "income": 790445, "revenue": 88096}, {"ein": "132960992", "name": "ABRAHAM & BEVERLY SOMMER FOUNDATION", "city": "NEW YORK", "state": "NY", "zip": "10022-2545", "ntee": "", "ruling": "197812", "deductibility": "1", "assets": 5165534, "income": 1185683, "revenue": 0}, {"ein": "135615845", "name": "BEVERLY HILLS CEMETERY CORPORATION", "city": "PUTNAM VALLEY", "state": "NY", "zip": "10579-3230", "ntee": "", "ruling": "197111", "deductibility": "1", "assets": 16659263, "income": 9095256, "revenue": 3515857}, {"ein": "161472747", "name": "BEVERLY ANIMAL SHELTER INC", "city": "WATERLOO", "state": "NY", "zip": "13165-1735", "ntee": "D20", "ruling": "200803", "deductibility": "1", "assets": 709325, "income": 535155, "revenue": 535155}, {"ein": "201690418", "name": "ATTILIO AND BEVERLY PETROCELLI FOUNDATION", "city": "GREAT NECK", "state": "NY", "zip": "11021-5034", "ntee": "T22", "ruling": "200506", "deductibility": "1", "assets": 27693286, "income": 6214278, "revenue": 0}, {"ein": "262947643", "name": "BEVERLY AND ELIAS KLEIN FAMILY FOUNDATION INC", "city": "NEW YORK", "state": "NY", "zip": "10029-3424", "ntee": "T22", "ruling": "200903", "deductibility": "1", "assets": 490106, "income": 5000, "revenue": 0}, {"ein": "311813545", "name": "BEVERLY WILLIS ARCHITECTURE FOUNDATION INC", "city": "NEW YORK", "state": "NY", "zip": "10001-2604", "ntee": "T22", "ruling": "200202", "deductibility": "1", "assets": 1615070, "income": 719392, "revenue": 484763}, {"ein": "850652618", "name": "BEVERLY S EXHIBITIONS CORP", "city": "NEW YORK", "state": "NY", "zip": "10038-1228", "ntee": "A20", "ruling": "202201", "deductibility": "1", "assets": 23685, "income": 96523, "revenue": 96523}, {"ein": "853125463", "name": "BEVERLY GRAY BUSINESS EXCHANGE CENTER INC", "city": "BUFFALO", "state": "NY", "zip": "14208-2129", "ntee": "S41", "ruling": "202102", "deductibility": "1", "assets": 934831, "income": 599926, "revenue": 599926}], "REFUGIO": [{"ein": "061315731", "name": "CRISTO EL REFUGIO", "city": "BROOKLYN", "state": "NY", "zip": "11237-1605", "ntee": "", "ruling": "199206", "deductibility": "1", "assets": 36821, "income": 10626, "revenue": 10626}, {"ein": "112631863", "name": "IGLESIA EVANGELICA PENTECOSTES ARCA DE REFUGIO INC", "city": "BROOKLYN", "state": "NY", "zip": "11211-4408", "ntee": "X20", "ruling": "200206", "deductibility": "1", "assets": 0, "income": 0, "revenue": 0}, {"ein": "112780015", "name": "CIUDAD DE REFUGIO", "city": "GLEN COVE", "state": "NY", "zip": "11542-1953", "ntee": "", "ruling": "196408", "deductibility": "1", "assets": 0, "income": 0, "revenue": 0}, {"ein": "133094795", "name": "IGLESIA PENTECOSTAL REFUGIO ETERNO INC", "city": "BRONX", "state": "NY", "zip": "10474-5809", "ntee": "X21", "ruling": "200509", "deductibility": "1", "assets": 0, "income": 0, "revenue": 0}, {"ein": "133955865", "name": "IGLESIA DE DIOS EL REFUGIO", "city": "NEW YORK", "state": "NY", "zip": "10031-3525", "ntee": "", "ruling": "196408", "deductibility": "1", "assets": 0, "income": 0, "revenue": 0}, {"ein": "204620309", "name": "IGLESIA DE DIOS PENTECOSTAL M I ROCA DE REFUGIO INC", "city": "BAY SHORE", "state": "NY", "zip": "11706-4535", "ntee": "X20", "ruling": "200607", "deductibility": "1", "assets": 0, "income": 0, "revenue": 0}, {"ein": "263814236", "name": "IGLESIA DE DIOS PENTECOSTAL M I MONTE ARMENIA LUGAR DE REFUGIO INC", "city": "BRONX", "state": "NY", "zip": "10455-3602", "ntee": "X20", "ruling": "201109", "deductibility": "1", "assets": 0, "income": 0, "revenue": 0}, {"ein": "273157527", "name": "IGLESIA PENTECOSTAL REFUGIO DE SALVATION INC", "city": "HEMPSTEAD", "state": "NY", "zip": "11550-2626", "ntee": "X21", "ruling": "201011", "deductibility": "1", "assets": 290044, "income": 112443, "revenue": 112443}, {"ein": "274216831", "name": "REFUGIO DE ESPERANZA INCORPORATED", "city": "RYE", "state": "NY", "zip": "10580-1942", "ntee": "X21", "ruling": "201107", "deductibility": "1", "assets": 0, "income": 0, "revenue": 0}, {"ein": "364828901", "name": "MINISTERIO ROCA DE REFUGIO INC", "city": "ISLIP TERRACE", "state": "NY", "zip": "11752-2203", "ntee": "X21", "ruling": "201606", "deductibility": "1", "assets": 0, "income": 0, "revenue": 0}, {"ein": "452051571", "name": "IGLESIA EL REFUGIO INC", "city": "BROOKLYN", "state": "NY", "zip": "11207-3929", "ntee": "X99", "ruling": "201408", "deductibility": "1", "assets": 0, "income": 0, "revenue": 0}, {"ein": "453450843", "name": "IGLESIA BIBLICA CASA DE REFUGIO", "city": "POUGHKEEPSIE", "state": "NY", "zip": "12601-0000", "ntee": "", "ruling": "196408", "deductibility": "1", "assets": 0, "income": 0, "revenue": 0}, {"ein": "455529680", "name": "MINISTERIO INTERNACIONAL ROCA DE REFUGIO INC", "city": "ISLIP TERRACE", "state": "NY", "zip": "11752-2203", "ntee": "X21", "ruling": "201407", "deductibility": "1", "assets": 0, "income": 0, "revenue": 0}, {"ein": "465069391", "name": "CONCILIO INTERNACIONAL CIUDAD DE REFUGIO", "city": "BRONX", "state": "NY", "zip": "10456-3867", "ntee": "X20", "ruling": "201504", "deductibility": "1", "assets": 0, "income": 0, "revenue": 0}, {"ein": "542170352", "name": "IGLESIA PENTECOSTAL REFUGIO DE SALVACION DE COPIAGUE INC", "city": "FARMINGDALE", "state": "NY", "zip": "11735-5600", "ntee": "X21", "ruling": "202303", "deductibility": "1", "assets": 570452, "income": 211916, "revenue": 211916}, {"ein": "813178592", "name": "IGLESIA PENTECOSTAL REFUGIO DE SALVACION DE JAMAICA INC", "city": "JAMAICA", "state": "NY", "zip": "11435-0302", "ntee": "X21", "ruling": "201706", "deductibility": "1", "assets": 0, "income": 0, "revenue": 0}, {"ein": "830402581", "name": "IGLESIA PENTECOSTAL JESUS ES REFUGIO Y SALVACION INC", "city": "WESTBURY", "state": "NY", "zip": "11590-3239", "ntee": "X20", "ruling": "202503", "deductibility": "1", "assets": 0, "income": 0, "revenue": 0}, {"ein": "830567220", "name": "MINISTERIO PROFETICO MISIONERO DADOR DE REFUGIO INC", "city": "BRONX", "state": "NY", "zip": "10466-4613", "ntee": "X99", "ruling": "201906", "deductibility": "1", "assets": 0, "income": 0, "revenue": 0}, {"ein": "843227272", "name": "IGLESIA CRISTIANA EVANGELISTICA EL REFUGIO EN CRISTO JESUS INC", "city": "BROOKLYN", "state": "NY", "zip": "11219-1788", "ntee": "X20", "ruling": "202005", "deductibility": "1", "assets": 0, "income": 0, "revenue": 0}, {"ein": "912184704", "name": "IGLESIA EVANGELICA REFUGIO DE SALVACION INC", "city": "PATCHOGUE", "state": "NY", "zip": "11772-3559", "ntee": "X21", "ruling": "201209", "deductibility": "1", "assets": 0, "income": 0, "revenue": 0}], "ELYE": [{"ein": "061505740", "name": "GMACH KAREN ELYE DAVID INC", "city": "MONROE", "state": "NY", "zip": "10950-3800", "ntee": "X30Z", "ruling": "199804", "deductibility": "1", "assets": 0, "income": 0, "revenue": 0}], "WEATHERUP": [{"ein": "066469433", "name": "WEATHERUP FAMILY FOUNDATION", "city": "SARATOGA SPGS", "state": "NY", "zip": "12866-2386", "ntee": "T22", "ruling": "199910", "deductibility": "1", "assets": 1796339, "income": 1064409, "revenue": 0}], "DOV": [{"ein": "110340116", "name": "OHEL SHOLMO DOV", "city": "BROOKLYN", "state": "NY", "zip": "11219-4117", "ntee": "", "ruling": "199103", "deductibility": "1", "assets": 0, "income": 0, "revenue": 0}, {"ein": "111681674", "name": "YESHIVA RABBI DOV REVEL OF FOREST HILLS INC", "city": "NEW YORK", "state": "NY", "zip": "10010-4202", "ntee": "", "ruling": "195311", "deductibility": "1", "assets": 0, "income": 0, "revenue": 0}, {"ein": "113110683", "name": "EZRAS DOV INC", "city": "BROOKLYN", "state": "NY", "zip": "11230-4902", "ntee": "P00L", "ruling": "199710", "deductibility": "1", "assets": 0, "income": 0, "revenue": 0}, {"ein": "113527924", "name": "YAD DOV YAGEL YAAKOV", "city": "BROOKLYN", "state": "NY", "zip": "11230-6404", "ntee": "X30", "ruling": "200201", "deductibility": "1", "assets": 0, "income": 0, "revenue": 0}, {"ein": "113565879", "name": "CONG BAIS DOV INC", "city": "BROOKLYN", "state": "NY", "zip": "11211-6900", "ntee": "X20", "ruling": "200110", "deductibility": "1", "assets": 0, "income": 0, "revenue": 0}, {"ein": "133024141", "name": "MASKIL EL-DAL INC C/O DOV WILHEIM", "city": "BROOKLYN", "state": "NY", "zip": "11219-1651", "ntee": "", "ruling": "198005", "deductibility": "1", "assets": 0, "income": 0, "revenue": 0}, {"ein": "134198471", "name": "GEMACH CHASDI DOV", "city": "MONROE", "state": "NY", "zip": "10950-8800", "ntee": "X30", "ruling": "200205", "deductibility": "1", "assets": 0, "income": 0, "revenue": 0}, {"ein": "202769473", "name": "AMERICAN FRIENDS OF TOLDOS MOSHE DOV INC", "city": "BROOKLYN", "state": "NY", "zip": "11218-0000", "ntee": "Q123", "ruling": "201002", "deductibility": "1", "assets": 11300, "income": 131490, "revenue": 131490}, {"ein": "204157556", "name": "BONIM LAMOKOM ZICHRON MOSHE DOV", "city": "BROOKLYN", "state": "NY", "zip": "11218-5209", "ntee": "X30", "ruling": "201009", "deductibility": "1", "assets": 0, "income": 0, "revenue": 0}, {"ein": "270468115", "name": "KEREN RABBI YISROEL DOV ODESSER OF AMERICA", "city": "SUFFERN", "state": "NY", "zip": "10901-1604", "ntee": "X83", "ruling": "202211", "deductibility": "1", "assets": 0, "income": 0, "revenue": 0}, {"ein": "272129650", "name": "CONG KEREN ATERES YISOCHER DOV DZABLITOV", "city": "BROOKLYN", "state": "NY", "zip": "11206-5411", "ntee": "X30", "ruling": "201210", "deductibility": "1", "assets": 0, "income": 0, "revenue": 0}, {"ein": "453435779", "name": "CONGREGATION ZICHRON MOSHE DOV", "city": "FAR ROCKAWAY", "state": "NY", "zip": "11691-4853", "ntee": "X30", "ruling": "201209", "deductibility": "1", "assets": 0, "income": 0, "revenue": 0}, {"ein": "465153291", "name": "ELIYAHU DOV FUND INC", "city": "BROOKLYN", "state": "NY", "zip": "11204-2352", "ntee": "", "ruling": "201512", "deductibility": "1", "assets": 88345, "income": 75949, "revenue": 0}, {"ein": "571165082", "name": "DAVID DOV FOUNDATION INC", "city": "BROOKLYN", "state": "NY", "zip": "11210-3612", "ntee": "X83", "ruling": "202311", "deductibility": "1", "assets": 0, "income": 0, "revenue": 0}, {"ein": "834128527", "name": "KEREN ZICHRON DOV INC", "city": "MONROE", "state": "NY", "zip": "10950-2301", "ntee": "T30", "ruling": "202001", "deductibility": "1", "assets": 1511, "income": 77710, "revenue": 77710}, {"ein": "863389972", "name": "KOLLEL CHAIM DOV", "city": "BROOKLYN", "state": "NY", "zip": "11205-4415", "ntee": "X30", "ruling": "202208", "deductibility": "1", "assets": 0, "income": 0, "revenue": 0}, {"ein": "874144547", "name": "CONGREGATION ZICHRON YAAKOV DOV", "city": "BROOKLYN", "state": "NY", "zip": "11230-4818", "ntee": "X30", "ruling": "202402", "deductibility": "1", "assets": 0, "income": 0, "revenue": 0}, {"ein": "994222297", "name": "ZICHRON DOV INC", "city": "BROOKLYN", "state": "NY", "zip": "11230-4406", "ntee": "X30", "ruling": "202408", "deductibility": "1", "assets": 0, "income": 0, "revenue": 0}], "PETACH": [{"ein": "111666224", "name": "CONGREGATION PETACH TIKVAH", "city": "BROOKLYN", "state": "NY", "zip": "11230-0000", "ntee": "", "ruling": "194104", "deductibility": "1", "assets": 0, "income": 0, "revenue": 0}, {"ein": "135602338", "name": "YESHIVAH LOMZA PETACH TIKVAH ISRAEL INC", "city": "BROOKLYN", "state": "NY", "zip": "11230-1017", "ntee": "", "ruling": "195103", "deductibility": "1", "assets": 0, "income": 0, "revenue": 0}], "CABS": [{"ein": "112216402", "name": "CABS HOUSEKEEPER SERVICE INC", "city": "BROOKLYN", "state": "NY", "zip": "11206-5768", "ntee": "P44Z", "ruling": "197304", "deductibility": "2", "assets": 0, "income": 335, "revenue": 335}, {"ein": "112329558", "name": "CABS HOUSING DEVELOPMENT FUND CORPORATION", "city": "BROOKLYN", "state": "NY", "zip": "11211-1695", "ntee": "", "ruling": "197507", "deductibility": "2", "assets": 0, "income": 0, "revenue": 0}, {"ein": "112582628", "name": "CABS SENIOR HOUSING DEVELOPMENT FUND COMPANY INC", "city": "BROOKLYN", "state": "NY", "zip": "11211-1695", "ntee": "", "ruling": "198206", "deductibility": "1", "assets": 7215068, "income": 19, "revenue": 19}], "LITHUANIAN": [{"ein": "112326652", "name": "LITHUANIAN CATHOLIC RELIGIOUS AID INC", "city": "MASPETH", "state": "NY", "zip": "11378-2441", "ntee": "X22Z", "ruling": "196407", "deductibility": "1", "assets": 19692788, "income": 5610560, "revenue": 1179328}, {"ein": "135580391", "name": "LITHUANIAN ALLIANCE OF AMERICA", "city": "NEW YORK", "state": "NY", "zip": "10001-2703", "ntee": "", "ruling": "197203", "deductibility": "1", "assets": 438358, "income": 130911, "revenue": 130911}, {"ein": "136223288", "name": "LITHUANIAN ALLIANCE OF AMERICA NATIONAL FOUNDATION", "city": "NEW YORK", "state": "NY", "zip": "10001-2703", "ntee": "", "ruling": "195111", "deductibility": "1", "assets": 0, "income": 0, "revenue": 0}, {"ein": "160755838", "name": "ST GEORGES ROMAN CATHOLIC LITHUANIAN CHURCH INC", "city": "ROCHESTER", "state": "NY", "zip": "14618-1532", "ntee": "", "ruling": "194603", "deductibility": "1", "assets": 0, "income": 0, "revenue": 0}, {"ein": "201654531", "name": "LITHUANIAN ATHLETIC UNION OF NORTH AMERICA NFP", "city": "SHIRLEY", "state": "NY", "zip": "11967-4125", "ntee": "N60", "ruling": "201410", "deductibility": "1", "assets": 0, "income": 0, "revenue": 0}, {"ein": "205828860", "name": "LITHUANIAN HERITAGE SOCIETY OFROCHESTER INC", "city": "ROCHESTER", "state": "NY", "zip": "14614-1913", "ntee": "A23", "ruling": "202208", "deductibility": "1", "assets": 0, "income": 0, "revenue": 0}, {"ein": "237049734", "name": "ASSISTANCE TO LITHUANIAN JEWS INC", "city": "BROOKLYN", "state": "NY", "zip": "11230-0643", "ntee": "", "ruling": "196912", "deductibility": "1", "assets": 0, "income": 0, "revenue": 0}, {"ein": "383905354", "name": "LITHUANIAN ATHLETIC CLUB", "city": "GLENDALE", "state": "NY", "zip": "11385-7708", "ntee": "N60", "ruling": "201502", "deductibility": "1", "assets": 0, "income": 0, "revenue": 0}, {"ein": "510172223", "name": "LITHUANIAN NATIONAL FOUNDATION INC", "city": "NEW YORK", "state": "NY", "zip": "10001-2703", "ntee": "Q20Z", "ruling": "197405", "deductibility": "1", "assets": 4406873, "income": 1525602, "revenue": 390459}, {"ein": "842909619", "name": "NY MAIRONIS LITHUANIAN SCHOOL INC", "city": "RIDGEWOOD", "state": "NY", "zip": "11385-4553", "ntee": "A23", "ruling": "201910", "deductibility": "1", "assets": 0, "income": 0, "revenue": 0}], "YESHIVATH": [{"ein": "112419183", "name": "YESHIVATH TOLDOS YAKOV OF PAPA", "city": "BROOKLYN", "state": "NY", "zip": "11211-8017", "ntee": "", "ruling": "197706", "deductibility": "1", "assets": 0, "income": 0, "revenue": 0}, {"ein": "112596457", "name": "YESHIVATH LUBLIN INC", "city": "BROOKLYN", "state": "NY", "zip": "11211-8119", "ntee": "", "ruling": "198205", "deductibility": "1", "assets": 0, "income": 0, "revenue": 0}, {"ein": "112615985", "name": "YESHIVATH M-HRIAC MARGARETEN", "city": "BROOKLYN", "state": "NY", "zip": "11228-2506", "ntee": "", "ruling": "198211", "deductibility": "1", "assets": 0, "income": 0, "revenue": 0}, {"ein": "112832348", "name": "YESHIVATH TOLDOS YOSEF", "city": "BROOKLYN", "state": "NY", "zip": "11219-2419", "ntee": "", "ruling": "198701", "deductibility": "1", "assets": 0, "income": 0, "revenue": 0}, {"ein": "113071839", "name": "YESHIVATH KEHILATH YAKOV OF MONSEY INC", "city": "SPRING VALLEY", "state": "NY", "zip": "10977-3322", "ntee": "", "ruling": "199110", "deductibility": "1", "assets": 0, "income": 0, "revenue": 0}, {"ein": "113091709", "name": "YESHIVATH TORAH VODAATH", "city": "BROOKLYN", "state": "NY", "zip": "11218-5209", "ntee": "", "ruling": "199206", "deductibility": "1", "assets": 0, "income": 0, "revenue": 0}, {"ein": "113170789", "name": "YESHIVATH LEV HAARI", "city": "BROOKLYN", "state": "NY", "zip": "11219-0113", "ntee": "", "ruling": "199401", "deductibility": "1", "assets": 0, "income": 0, "revenue": 0}, {"ein": "116003354", "name": "YESHIVATH KEHILATH YAKOV INC", "city": "BROOKLYN", "state": "NY", "zip": "11249-8007", "ntee": "", "ruling": "198012", "deductibility": "1", "assets": 0, "income": 0, "revenue": 0}, {"ein": "116035477", "name": "HISACHDUTH TALMIDE YESHIVATH CHASAM SOFER M PRESSBURG", "city": "BROOKLYN", "state": "NY", "zip": "11204-1600", "ntee": "", "ruling": "195007", "deductibility": "1", "assets": 0, "income": 0, "revenue": 0}, {"ein": "116038985", "name": "YESHIVATH SHEARITH HAPLETAH", "city": "BROOKLYN", "state": "NY", "zip": "11211-7910", "ntee": "", "ruling": "194908", "deductibility": "1", "assets": 0, "income": 0, "revenue": 0}, {"ein": "116038986", "name": "YESHIVATH ISRAEL", "city": "BROOKLYN", "state": "NY", "zip": "11230-7001", "ntee": "", "ruling": "195908", "deductibility": "1", "assets": 0, "income": 0, "revenue": 0}, {"ein": "133032750", "name": "YESHIVATH DERECH HACHAIN INC", "city": "BROOKLYN", "state": "NY", "zip": "11219-3502", "ntee": "", "ruling": "198008", "deductibility": "1", "assets": 0, "income": 0, "revenue": 0}, {"ein": "133339942", "name": "AMERICAN FRIENDS OF YESHIVATH MEOR HATALMUD", "city": "FLUSHING", "state": "NY", "zip": "11367-0000", "ntee": "B82Z", "ruling": "198607", "deductibility": "1", "assets": 538, "income": 1994291, "revenue": 1994291}, {"ein": "136161364", "name": "YESHIVATH BETH JOSEPH NOVAREDOK OF JERUSALEM INC", "city": "NEW YORK", "state": "NY", "zip": "10002-2674", "ntee": "X123", "ruling": "195604", "deductibility": "1", "assets": 0, "income": 0, "revenue": 0}, {"ein": "237060327", "name": "AMERICAN FRIENDS OF YESHIVATH KEREM BYAVNEH INC", "city": "BROOKLYN", "state": "NY", "zip": "11230-5908", "ntee": "", "ruling": "197003", "deductibility": "1", "assets": 3909413, "income": 1331557, "revenue": 836394}, {"ein": "237172146", "name": "SUPPORTERS YESHIVATH DIVREI CHAIM CHAKOWA JERUSALEM INC", "city": "NEW YORK", "state": "NY", "zip": "10002-2674", "ntee": "", "ruling": "197202", "deductibility": "1", "assets": 0, "income": 0, "revenue": 0}, {"ein": "237227495", "name": "YESHIVATH DIVREI CHAIM", "city": "BROOKLYN", "state": "NY", "zip": "11219-1300", "ntee": "", "ruling": "197210", "deductibility": "1", "assets": 0, "income": 0, "revenue": 0}, {"ein": "237365660", "name": "AMERICAN FOUNDATION FOR YESHIVATH RASHBI", "city": "BROOKLYN", "state": "NY", "zip": "11219-3009", "ntee": "B25I", "ruling": "197404", "deductibility": "1", "assets": 128406, "income": 1371452, "revenue": 1371452}, {"ein": "237379099", "name": "YESHIVATH VIZNITZ DKHAL TORATH CHAIM INC", "city": "MONSEY", "state": "NY", "zip": "10952-0446", "ntee": "", "ruling": "197407", "deductibility": "1", "assets": 0, "income": 0, "revenue": 0}, {"ein": "320092729", "name": "CONGREGATION YESHIVATH MASMIDIM INC", "city": "MONSEY", "state": "NY", "zip": "10952-0636", "ntee": "X30", "ruling": "200311", "deductibility": "1", "assets": 0, "income": 0, "revenue": 0}, {"ein": "471250360", "name": "YESHIVATH GESHER", "city": "LAWRENCE", "state": "NY", "zip": "11559-1808", "ntee": "X30", "ruling": "201604", "deductibility": "1", "assets": 381622, "income": 2622581, "revenue": 2531766}, {"ein": "830359752", "name": "KEREN HABINYON YESHIVATH ZANZ", "city": "BROOKLYN", "state": "NY", "zip": "11219-0873", "ntee": "", "ruling": "200311", "deductibility": "1", "assets": 0, "income": 0, "revenue": 0}, {"ein": "881574625", "name": "YESHIVATH VIZNITZ FOUNDATION", "city": "MONSEY", "state": "NY", "zip": "10952-2239", "ntee": "X30", "ruling": "202209", "deductibility": "1", "assets": 0, "income": 0, "revenue": 0}], "NAFTULY": [{"ein": "112452764", "name": "CONG BAIS NAFTULY C O BENJAMIN ISAACS", "city": "BROOKLYN", "state": "NY", "zip": "11219-2919", "ntee": "", "ruling": "197804", "deductibility": "1", "assets": 0, "income": 0, "revenue": 0}, {"ein": "133184196", "name": "CONGREGATION BEIS NAFTULY", "city": "MONROE", "state": "NY", "zip": "10950-8809", "ntee": "", "ruling": "198704", "deductibility": "1", "assets": 0, "income": 0, "revenue": 0}], "KOSMON": [{"ein": "112462131", "name": "NEW YORK KOSMON TEMPLE INC", "city": "BROOKLYN", "state": "NY", "zip": "11225-2009", "ntee": "", "ruling": "198009", "deductibility": "1", "assets": 0, "income": 0, "revenue": 0}], "HERSHEL": [{"ein": "112542645", "name": "OR ELAZAR SAMBORER TORAH CENTERSINCC/O HERSHEL YOLLES", "city": "BROOKLYN", "state": "NY", "zip": "11219-2249", "ntee": "", "ruling": "198010", "deductibility": "1", "assets": 0, "income": 0, "revenue": 0}, {"ein": "112814716", "name": "CONGREGATION & GMILAS CHESED OF DARKEI NOAM C/O HERSHEL HOROWITZ", "city": "BROOKLYN", "state": "NY", "zip": "11219-3605", "ntee": "", "ruling": "198703", "deductibility": "1", "assets": 0, "income": 0, "revenue": 0}, {"ein": "271324245", "name": "HERSHEL AND MIRIAM HERBST CHARITABLE TRUST", "city": "MONROE", "state": "NY", "zip": "10949-0853", "ntee": "T20", "ruling": "201005", "deductibility": "1", "assets": 13781754, "income": 14465553, "revenue": 0}], "PILLARS": [{"ein": "112589850", "name": "PILLARS OF FAITH FULL GOSPEL TABERNACLE INC", "city": "WHITESTONE", "state": "NY", "zip": "11357-0088", "ntee": "", "ruling": "198211", "deductibility": "1", "assets": 0, "income": 0, "revenue": 0}, {"ein": "274075523", "name": "PILLARS TRUST", "city": "SPRING VALLEY", "state": "NY", "zip": "10977-0000", "ntee": "T20", "ruling": "201202", "deductibility": "1", "assets": 995384, "income": 200020, "revenue": 0}, {"ein": "474186139", "name": "PILLARS PJS INC", "city": "SPRING VALLEY", "state": "NY", "zip": "10977-1024", "ntee": "F60", "ruling": "201511", "deductibility": "1", "assets": 1000, "income": 181283, "revenue": 181283}, {"ein": "833597054", "name": "PILLARS OF PEACE INC", "city": "NEW YORK", "state": "NY", "zip": "10005-3510", "ntee": "", "ruling": "202002", "deductibility": "1", "assets": 2432685, "income": 431029, "revenue": 424529}], "SHUFER": [{"ein": "112650420", "name": "KIRYAI IMREI SHUFER INC", "city": "BROOKLYN", "state": "NY", "zip": "11211-0000", "ntee": "", "ruling": "198311", "deductibility": "1", "assets": 0, "income": 0, "revenue": 0}, {"ein": "113168700", "name": "MESIVTA IMREI SHUFER", "city": "BROOKLYN", "state": "NY", "zip": "11210-3714", "ntee": "", "ruling": "199309", "deductibility": "1", "assets": 0, "income": 0, "revenue": 0}, {"ein": "113168702", "name": "CONGREGATION MESIVTA IMREI SHUFER", "city": "BROOKLYN", "state": "NY", "zip": "11210-3714", "ntee": "", "ruling": "199309", "deductibility": "1", "assets": 0, "income": 0, "revenue": 0}, {"ein": "263990817", "name": "IMREI SHUFER", "city": "AIRMONT", "state": "NY", "zip": "10952-4602", "ntee": "X30", "ruling": "201112", "deductibility": "1", "assets": 0, "income": 0, "revenue": 0}, {"ein": "821957217", "name": "IMREI SHUFER FOUNDATION", "city": "BROOKLYN", "state": "NY", "zip": "11211-8919", "ntee": "T22", "ruling": "201711", "deductibility": "1", "assets": 7053, "income": 1, "revenue": 0}], "AHN": [{"ein": "112687387", "name": "PYEONG AHN PRESBYTERIAN CHURCH", "city": "BROOKLYN", "state": "NY", "zip": "11223-5230", "ntee": "", "ruling": "199405", "deductibility": "1", "assets": 0, "income": 0, "revenue": 0}, {"ein": "463275240", "name": "JEFFREY AHN JR FELLOWSHIP INC", "city": "NEW YORK", "state": "NY", "zip": "10022-3515", "ntee": "T99", "ruling": "201412", "deductibility": "1", "assets": 996126, "income": 157503, "revenue": 157503}], "TBHC": [{"ein": "112833587", "name": "TBHC EMERGENCY MEDICINE P C", "city": "BROOKLYN", "state": "NY", "zip": "11201-5425", "ntee": "E220", "ruling": "201309", "deductibility": "1", "assets": 1038889, "income": 92220, "revenue": 92220}, {"ein": "112833590", "name": "TBHC MEDICAL SERVICES PC", "city": "BROOKLYN", "state": "NY", "zip": "11201-5302", "ntee": "E220", "ruling": "201309", "deductibility": "1", "assets": 683753, "income": 5516224, "revenue": 5516224}, {"ein": "270174413", "name": "TBHC MEDICAL TESTING SERVICES", "city": "BROOKLYN", "state": "NY", "zip": "11201-5425", "ntee": "E300", "ruling": "201209", "deductibility": "1", "assets": 161905, "income": 759983, "revenue": 759983}, {"ein": "270174589", "name": "TBHC PHYSICIAN SERVICES", "city": "BROOKYLN", "state": "NY", "zip": "11201-5302", "ntee": "E300", "ruling": "201209", "deductibility": "1", "assets": 1397262, "income": 17342487, "revenue": 17342487}, {"ein": "270174684", "name": "TBHC PEDIATRIC SERVICES", "city": "BROOKLYN", "state": "NY", "zip": "11201-5425", "ntee": "E300", "ruling": "201209", "deductibility": "1", "assets": 4548413, "income": 3244257, "revenue": 3244257}], "APOST": [{"ein": "112882907", "name": "BEULAH TABERNACLE CHURCH OF GOD IN CHRIST JESUS OF THE APOST FAITH IN", "city": "BROOKLYN", "state": "NY", "zip": "11210-3037", "ntee": "X20", "ruling": "199812", "deductibility": "1", "assets": 0, "income": 0, "revenue": 0}], "GARBER": [{"ein": "112910964", "name": "GARBER FUND", "city": "CEDARHURST", "state": "NY", "zip": "11516-1018", "ntee": "", "ruling": "000000", "deductibility": "1", "assets": 44668, "income": 33371, "revenue": 0}, {"ein": "133318126", "name": "DANIEL M NEIDICH AND BROOKE GARBER FOUNDATION", "city": "NEW YORK", "state": "NY", "zip": "10036-0000", "ntee": "", "ruling": "198610", "deductibility": "1", "assets": 351767, "income": 2543888, "revenue": 0}], "BASCH": [{"ein": "113030983", "name": "JACK & MIRIAM BASCH FOUNDATION INC", "city": "BROOKLYN", "state": "NY", "zip": "11204-2236", "ntee": "", "ruling": "199102", "deductibility": "1", "assets": 6614142, "income": 849062, "revenue": 0}, {"ein": "477424596", "name": "BASCH FAMILY FOUNDATION", "city": "BROOKLYN", "state": "NY", "zip": "11218-3765", "ntee": "T20", "ruling": "201607", "deductibility": "1", "assets": 26979, "income": 357500, "revenue": 0}], "PIEDRA": [{"ein": "113079460", "name": "IGLESIA PENTECOSTAL LA PIEDRA VIVA", "city": "BROOKLYN", "state": "NY", "zip": "11220-3505", "ntee": "", "ruling": "196408", "deductibility": "1", "assets": 0, "income": 0, "revenue": 0}, {"ein": "371782070", "name": "UNIDOS POR PIEDRA BLANCA", "city": "CORONA", "state": "NY", "zip": "11368-4932", "ntee": "T50", "ruling": "201905", "deductibility": "1", "assets": 0, "income": 0, "revenue": 0}, {"ein": "862835413", "name": "IGLESIA EVANGELICA BAUTISTA KICHWA PIEDRA VIVA", "city": "BRONX", "state": "NY", "zip": "10459-2306", "ntee": "X99", "ruling": "202403", "deductibility": "1", "assets": 0, "income": 0, "revenue": 0}], "YERUSHALMY": [{"ein": "113097797", "name": "YERUSHALMY TALMUDICAL ACADEMY", "city": "BROOKLYN", "state": "NY", "zip": "11210-3714", "ntee": "", "ruling": "199208", "deductibility": "1", "assets": 0, "income": 0, "revenue": 0}], "MORAVIAN": [{"ein": "113112948", "name": "FELLOWSHIP MORAVIAN CHURCH", "city": "BROOKLYN", "state": "NY", "zip": "11225-5713", "ntee": "", "ruling": "196412", "deductibility": "1", "assets": 0, "income": 0, "revenue": 0}, {"ein": "132696794", "name": "UNITED MORAVIAN CHURCH", "city": "NEW YORK", "state": "NY", "zip": "10035-1420", "ntee": "", "ruling": "196412", "deductibility": "1", "assets": 0, "income": 0, "revenue": 0}, {"ein": "134055960", "name": "TREMONT TERRACE MORAVIAN CHURCH", "city": "BRONX", "state": "NY", "zip": "10461-4807", "ntee": "", "ruling": "196412", "deductibility": "1", "assets": 0, "income": 0, "revenue": 0}, {"ein": "161698488", "name": "GRACE MORAVIAN CHURCH", "city": "JAMAICA", "state": "NY", "zip": "11434-4020", "ntee": "", "ruling": "196412", "deductibility": "1", "assets": 0, "income": 0, "revenue": 0}, {"ein": "237334430", "name": "JOHN HUS MORAVIAN CHURCH SCHOOL", "city": "BROOKLYN", "state": "NY", "zip": "11225-4701", "ntee": "", "ruling": "196412", "deductibility": "1", "assets": 0, "income": 0, "revenue": 0}, {"ein": "237334453", "name": "VANDERBILT AVE MORAVIAN CHURCH", "city": "STATEN ISLAND", "state": "NY", "zip": "10304-2525", "ntee": "", "ruling": "196412", "deductibility": "1", "assets": 0, "income": 0, "revenue": 0}, {"ein": "510243731", "name": "GREAT KILLS MORAVIAN CHURCH", "city": "STATEN ISLAND", "state": "NY", "zip": "10308-0000", "ntee": "", "ruling": "196503", "deductibility": "1", "assets": 0, "income": 0, "revenue": 0}, {"ein": "521369012", "name": "MORAVIAN OPEN DOOR INC", "city": "NEW YORK", "state": "NY", "zip": "10003-2802", "ntee": "L41Z", "ruling": "196412", "deductibility": "1", "assets": 352485, "income": 230063, "revenue": 230063}], "MARBEH": [{"ein": "113209598", "name": "MARBEH CHESED", "city": "BROOKLYN", "state": "NY", "zip": "11219-1826", "ntee": "P60", "ruling": "199503", "deductibility": "1", "assets": 0, "income": 0, "revenue": 0}, {"ein": "452818049", "name": "MARBEH SHALOM FOUNDATION INC", "city": "NEW YORK", "state": "NY", "zip": "10001-1620", "ntee": "T20", "ruling": "201208", "deductibility": "1", "assets": 835785, "income": 1078244, "revenue": 0}, {"ein": "933171048", "name": "MARBEH LEHEITIV INC", "city": "BROOKLYN", "state": "NY", "zip": "11205-2801", "ntee": "T30", "ruling": "202403", "deductibility": "1", "assets": 0, "income": 0, "revenue": 0}], "CLARENCE": [{"ein": "113218457", "name": "CLARENCE J NELL APARTMENTS HOUSING DEVELOPMENT FUND CORPORATION", "city": "BROOKLYN", "state": "NY", "zip": "11233-1773", "ntee": "L25", "ruling": "199501", "deductibility": "1", "assets": 360938, "income": 272674, "revenue": 272674}, {"ein": "160975003", "name": "CLARENCE SWIM CLUB INC", "city": "CLARENCE", "state": "NY", "zip": "14031-0013", "ntee": "N67", "ruling": "201403", "deductibility": "1", "assets": 148053, "income": 321498, "revenue": 321498}, {"ein": "160976591", "name": "CLARENCE YOUTH CENTER INC", "city": "BUFFALO", "state": "NY", "zip": "14221-4826", "ntee": "B99", "ruling": "200211", "deductibility": "1", "assets": 0, "income": 0, "revenue": 0}, {"ein": "161245799", "name": "CLARENCE SENIOR CITIZENS INC", "city": "CLARENCE", "state": "NY", "zip": "14031-1499", "ntee": "P81Z", "ruling": "198606", "deductibility": "1", "assets": 335190, "income": 495131, "revenue": 495131}, {"ein": "161259838", "name": "CLARENCE CONTEMPORARY CLUB INC", "city": "CLARENCE CTR", "state": "NY", "zip": "14032-0064", "ntee": "S80", "ruling": "201104", "deductibility": "1", "assets": 0, "income": 0, "revenue": 0}, {"ein": "161291770", "name": "CLARENCE CENTER ELEMENTARY PTO", "city": "CLARENCE CTR", "state": "NY", "zip": "14032-9748", "ntee": "", "ruling": "196912", "deductibility": "0", "assets": 0, "income": 0, "revenue": 0}, {"ein": "161295018", "name": "CLARENCE HOLLOW MERCHANTS ASSOCIATION INC", "city": "CLARENCE", "state": "NY", "zip": "14031-0422", "ntee": "", "ruling": "199111", "deductibility": "2", "assets": 33780, "income": 36070, "revenue": 31648}, {"ein": "161301163", "name": "CLARENCE CHAMBER OF COMMERCE INC", "city": "CLARENCE", "state": "NY", "zip": "14031-0177", "ntee": "", "ruling": "199211", "deductibility": "2", "assets": 101478, "income": 154729, "revenue": 100637}, {"ein": "161348855", "name": "CLARENCE SENIOR HOUSING INC", "city": "CLARENCE", "state": "NY", "zip": "14031-1542", "ntee": "", "ruling": "199001", "deductibility": "1", "assets": 820, "income": 1, "revenue": 0}, {"ein": "161379612", "name": "THE HISTORICAL SOCIETY OF THE TOWN OF CLARENCE", "city": "CLARENCE", "state": "NY", "zip": "14031-0086", "ntee": "", "ruling": "199304", "deductibility": "1", "assets": 191745, "income": 29656, "revenue": 29455}, {"ein": "161384797", "name": "CLARENCE CENTER VOLUNTEER FIRE CO INC", "city": "CLARENCE CTR", "state": "NY", "zip": "14032-9221", "ntee": "M24", "ruling": "200102", "deductibility": "1", "assets": 6535319, "income": 1232161, "revenue": 1215323}, {"ein": "161386390", "name": "FRIENDS OF CLARENCE INC", "city": "CLARENCE", "state": "NY", "zip": "14031-0305", "ntee": "A99Z", "ruling": "199105", "deductibility": "1", "assets": 80495, "income": 25267, "revenue": 25267}, {"ein": "161432842", "name": "W N Y TOWN OF CLARENCE BASEBALL ASSOCIATION INC", "city": "CLARENCE", "state": "NY", "zip": "14031-0344", "ntee": "", "ruling": "199304", "deductibility": "1", "assets": 355893, "income": 307826, "revenue": 277646}, {"ein": "161460635", "name": "SPIRITUAL ASSEMBLY OF THE BAHAIS OF CLARENCE TOWN", "city": "WILLIAMSVILLE", "state": "NY", "zip": "14221-2837", "ntee": "", "ruling": "199505", "deductibility": "1", "assets": 0, "income": 0, "revenue": 0}, {"ein": "161477970", "name": "CLARENCE GIRLS SOFTBALL LEAGUE INC", "city": "CLARENCE", "state": "NY", "zip": "14031-0035", "ntee": "O22", "ruling": "199602", "deductibility": "1", "assets": 691983, "income": 284543, "revenue": 284543}, {"ein": "166010244", "name": "CLARENCE CO-OPERATIVE NURSERY SCHOOL", "city": "CLARENCE", "state": "NY", "zip": "14031-2036", "ntee": "B20", "ruling": "197111", "deductibility": "1", "assets": 49985, "income": 149113, "revenue": 149113}, {"ein": "166039103", "name": "CLARENCE FIRE CO INC", "city": "CLARENCE", "state": "NY", "zip": "14031-0340", "ntee": "M24Z", "ruling": "199301", "deductibility": "1", "assets": 98286, "income": 39212, "revenue": 39212}, {"ein": "166170129", "name": "CLARENCE SOCCER CLUB", "city": "CLARENCE", "state": "NY", "zip": "14031-0538", "ntee": "N40", "ruling": "199704", "deductibility": "1", "assets": 665294, "income": 703260, "revenue": 675458}, {"ein": "166429037", "name": "CLARENCE H MORRISON CHARITABLE TRUST", "city": "ONEONTA", "state": "NY", "zip": "13820-0000", "ntee": "T20J", "ruling": "199702", "deductibility": "1", "assets": 4812365, "income": 1331590, "revenue": 0}, {"ein": "200931709", "name": "FRIENDS OF THE CLARENCE PUBLIC LIBRARY INC", "city": "CLARENCE", "state": "NY", "zip": "14031-1230", "ntee": "B117", "ruling": "200508", "deductibility": "1", "assets": 42611, "income": 26264, "revenue": 24434}, {"ein": "202732352", "name": "CLARENCE DI BOOSTERS", "city": "CLARENCE", "state": "NY", "zip": "14031-0249", "ntee": "B94", "ruling": "200709", "deductibility": "1", "assets": 0, "income": 0, "revenue": 0}, {"ein": "203500488", "name": "CLARENCE COMMUNITY PANTRY INC", "city": "CLARENCE", "state": "NY", "zip": "14031-2036", "ntee": "K31", "ruling": "200601", "deductibility": "1", "assets": 89638, "income": 84474, "revenue": 84474}, {"ein": "222974207", "name": "CLARENCE ROTARY FOUNDATION", "city": "CLARENCE", "state": "NY", "zip": "14031-0154", "ntee": "", "ruling": "198905", "deductibility": "1", "assets": 485057, "income": 111797, "revenue": 0}, {"ein": "223003926", "name": "CLARENCE BAND BOOSTERS CLUB INC", "city": "CLARENCE", "state": "NY", "zip": "14031-0097", "ntee": "A6CI", "ruling": "199104", "deductibility": "1", "assets": 63184, "income": 106960, "revenue": 57800}, {"ein": "223006210", "name": "CLARENCE NEWSTEAD MEALS ON WHEELS TASK FORCE", "city": "CLARENCE", "state": "NY", "zip": "14031-2002", "ntee": "", "ruling": "198911", "deductibility": "1", "assets": 1000619, "income": 21176, "revenue": 21176}, {"ein": "237043773", "name": "CLARENCE AND ANNE DILLON DUNWALKE TRUST", "city": "NEW YORK", "state": "NY", "zip": "10016-0000", "ntee": "", "ruling": "196911", "deductibility": "1", "assets": 28928455, "income": 13300363, "revenue": 0}, {"ein": "260508502", "name": "CLARENCE YOUTH LACROSSE ASSOCIATION INC", "city": "CLARENCE CTR", "state": "NY", "zip": "14032-9336", "ntee": "N60", "ruling": "202209", "deductibility": "1", "assets": 16162, "income": 106172, "revenue": 106172}, {"ein": "262295937", "name": "CLARENCE CENTER VOLUNTEER FIREFIGHTERS BENEVOLENT ASSOCIATIO", "city": "CLARENCE CTR", "state": "NY", "zip": "14032-9221", "ntee": "M112", "ruling": "201001", "deductibility": "1", "assets": 812562, "income": 388938, "revenue": 232213}, {"ein": "270944629", "name": "CLARENCE FOOTBALL BOOSTERS CLUB INC", "city": "CLARENCE", "state": "NY", "zip": "14031-0654", "ntee": "N65", "ruling": "201406", "deductibility": "1", "assets": 38388, "income": 69266, "revenue": 57664}, {"ein": "272451835", "name": "CLARENCE HIGH SCHOOL PTO INC", "city": "CLARENCE", "state": "NY", "zip": "14031-2001", "ntee": "B94", "ruling": "201101", "deductibility": "1", "assets": 0, "income": 0, "revenue": 0}, {"ein": "273425872", "name": "CLARENCE MIDDLE SCHOOL PTO INC", "city": "CLARENCE", "state": "NY", "zip": "14031-1375", "ntee": "B11", "ruling": "201009", "deductibility": "1", "assets": 0, "income": 0, "revenue": 0}, {"ein": "276030602", "name": "CLARENCE L AND MAYNARDA L MOORE EDUCATION FUND TR", "city": "PITTSFORD", "state": "NY", "zip": "14534-3838", "ntee": "T22", "ruling": "200907", "deductibility": "1", "assets": 260161, "income": 40696, "revenue": 0}, {"ein": "311762738", "name": "CLARENCE LITTLE LEAGUE FOOTBALL ASSOCIATION INC", "city": "CLARENCE CTR", "state": "NY", "zip": "14032-0432", "ntee": "N65", "ruling": "200106", "deductibility": "1", "assets": 75390, "income": 147761, "revenue": 91110}, {"ein": "452398886", "name": "CLARENCE CITIZENS FOR VETERANS", "city": "CLARENCE", "state": "NY", "zip": "14031-2120", "ntee": "T30", "ruling": "201206", "deductibility": "1", "assets": 0, "income": 0, "revenue": 0}, {"ein": "455268127", "name": "CLARENCE EDUCATIONAL AND FARM MARKET ASSOCIATION INC", "city": "CLARENCE", "state": "NY", "zip": "14031-0278", "ntee": "X99", "ruling": "201401", "deductibility": "1", "assets": 21727, "income": 23440, "revenue": 17385}, {"ein": "471070034", "name": "CLARENCE HIGH SCHOOL ACADEMY OF BUSINESS & FINANCE", "city": "CLARENCE", "state": "NY", "zip": "14031-2001", "ntee": "B80", "ruling": "201506", "deductibility": "1", "assets": 0, "income": 0, "revenue": 0}, {"ein": "473913962", "name": "CLARENCE TOWN HERITAGE INC", "city": "WILLIAMSVILLE", "state": "NY", "zip": "14221-4216", "ntee": "A20", "ruling": "201710", "deductibility": "1", "assets": 0, "income": 0, "revenue": 0}, {"ein": "800755877", "name": "CLARENCE HS GIRLS VOLLEYBALL BOOSTERS", "city": "CLARENCE", "state": "NY", "zip": "14031-0000", "ntee": "N11", "ruling": "201801", "deductibility": "1", "assets": 0, "income": 0, "revenue": 0}, {"ein": "811435756", "name": "CLARENCE HIGH SCHOOL HOCKEY BOOSTERS", "city": "CLARENCE", "state": "NY", "zip": "14031-2001", "ntee": "N68", "ruling": "201703", "deductibility": "1", "assets": 12398, "income": 72275, "revenue": 72275}, {"ein": "816916111", "name": "CLARENCE JOHN MARONA AND AGNES WALSH MARONA CHARITABLE FOUNDATION", "city": "POUGHKEEPSIE", "state": "NY", "zip": "12601-0999", "ntee": "T20", "ruling": "201708", "deductibility": "1", "assets": 1125589, "income": 413743, "revenue": 0}, {"ein": "823735302", "name": "CLARENCE FLYING CLUB INC", "city": "EAST AMHERST", "state": "NY", "zip": "14051-0461", "ntee": "N50", "ruling": "201802", "deductibility": "2", "assets": 0, "income": 0, "revenue": 0}, {"ein": "834243291", "name": "CLARENCE TREATMENT COURT FOUNDATION INC", "city": "WILLIAMSVILLE", "state": "NY", "zip": "14221-5829", "ntee": "F20", "ruling": "201906", "deductibility": "1", "assets": 82540, "income": 0, "revenue": 0}, {"ein": "843410232", "name": "CLARENCE SOCCER BOOSTERS INC", "city": "CLARENCE", "state": "NY", "zip": "14031-2001", "ntee": "N64", "ruling": "202001", "deductibility": "1", "assets": 0, "income": 0, "revenue": 0}, {"ein": "873913824", "name": "CLARENCE COMMUNITY FOUNDATION INC", "city": "CLARENCE CTR", "state": "NY", "zip": "14032-0343", "ntee": "O11", "ruling": "202202", "deductibility": "1", "assets": 0, "income": 0, "revenue": 0}, {"ein": "884267681", "name": "CLARENCE CHORUS BOOSTERS", "city": "CLARENCE CTR", "state": "NY", "zip": "14032-0254", "ntee": "A6B", "ruling": "202306", "deductibility": "1", "assets": 0, "income": 0, "revenue": 0}, {"ein": "923358737", "name": "CLARENCE GIRLS FLAG FOOTBALL", "city": "CLARENCE CTR", "state": "NY", "zip": "14032-0262", "ntee": "N11", "ruling": "202305", "deductibility": "1", "assets": 0, "income": 0, "revenue": 0}], "INTERCESSOR": [{"ein": "113234573", "name": "CHURCH OF THE INTERCESSOR", "city": "MALVERNE", "state": "NY", "zip": "11565-1438", "ntee": "X20", "ruling": "202204", "deductibility": "1", "assets": 0, "income": 0, "revenue": 0}, {"ein": "264650933", "name": "DELIVERED INTERCESSOR VICTORIOUS ANOINTED SAVED -DIVAS- FOR CHRIST", "city": "BUFFALO", "state": "NY", "zip": "14211-1312", "ntee": "O50", "ruling": "201606", "deductibility": "1", "assets": 1863, "income": 41503, "revenue": 41503}], "CHASIDE": [{"ein": "113234720", "name": "CONGREGATION CHASIDE WIZNITZ OF BORO PARK", "city": "BROOKLYN", "state": "NY", "zip": "11219-3556", "ntee": "X30Z", "ruling": "199503", "deductibility": "1", "assets": 0, "income": 0, "revenue": 0}], "BRIARWOOD": [{"ein": "113244638", "name": "BOKHARIAN JEWISH COMMUNITIES CENTER OF BRIARWOOD INC", "city": "BRIARWOOD", "state": "NY", "zip": "11435-3002", "ntee": "X30Z", "ruling": "199508", "deductibility": "1", "assets": 53020, "income": 0, "revenue": 0}, {"ein": "113627309", "name": "BRIARWOOD 138-50 REAL ESTATE CORP", "city": "NEW ROCHELLE", "state": "NY", "zip": "10801-5237", "ntee": "", "ruling": "200210", "deductibility": "0", "assets": 355192, "income": 0, "revenue": 0}, {"ein": "270584181", "name": "CHABAD OF BRIARWOOD", "city": "BRIARWOOD", "state": "NY", "zip": "11435-1118", "ntee": "X21", "ruling": "201110", "deductibility": "1", "assets": 0, "income": 0, "revenue": 0}, {"ein": "462835415", "name": "KOLLEL ANSHEI BRIARWOOD", "city": "SUFFERN", "state": "NY", "zip": "10901-3601", "ntee": "X30", "ruling": "201409", "deductibility": "1", "assets": 0, "income": 0, "revenue": 0}, {"ein": "510189809", "name": "BRIARWOOD COMMUNITY ASSOCIATION INC", "city": "BRIARWOOD", "state": "NY", "zip": "11435-0000", "ntee": "", "ruling": "197606", "deductibility": "2", "assets": 0, "income": 0, "revenue": 0}, {"ein": "743042529", "name": "BUKHARIAN JEWISH CONGREGATION OF BRIARWOOD", "city": "JAMAICA", "state": "NY", "zip": "11435-2029", "ntee": "X30", "ruling": "200209", "deductibility": "1", "assets": 704571, "income": 258059, "revenue": 258059}, {"ein": "853093266", "name": "BRIARWOOD FARM SANCTUARY INC", "city": "CAMILLUS", "state": "NY", "zip": "13031-1079", "ntee": "D20", "ruling": "202011", "deductibility": "1", "assets": 0, "income": 0, "revenue": 0}], "NUN": [{"ein": "113271005", "name": "CONG & YESHIVA NUN ZAYIN INC", "city": "BROOKLYN", "state": "NY", "zip": "11210-3714", "ntee": "X30Z", "ruling": "199507", "deductibility": "1", "assets": 0, "income": 0, "revenue": 0}, {"ein": "471294505", "name": "INTERNATIONAL SOCIETY OF NUN YEN SUTRA", "city": "NEW YORK", "state": "NY", "zip": "10002-6204", "ntee": "X50", "ruling": "201503", "deductibility": "1", "assets": 0, "income": 0, "revenue": 0}], "HAARETZ": [{"ein": "113391548", "name": "AMERICAN FRIENDS OF HALICHOT HAARETZ", "city": "BROOKLYN", "state": "NY", "zip": "11230-3313", "ntee": "X30", "ruling": "199712", "deductibility": "1", "assets": 105991, "income": 225045, "revenue": 225045}, {"ein": "223889774", "name": "BONEI HAARETZ INC", "city": "BROOKLYN", "state": "NY", "zip": "11204-2205", "ntee": "X21", "ruling": "200303", "deductibility": "1", "assets": 0, "income": 0, "revenue": 0}, {"ein": "843468206", "name": "AMERICAN FRIENDS OF CHELEV HAARETZ INC", "city": "LAWRENCE", "state": "NY", "zip": "11559-0000", "ntee": "T21", "ruling": "202006", "deductibility": "1", "assets": 1, "income": 1, "revenue": 0}, {"ein": "873242100", "name": "PRI HAARETZ INC", "city": "BROOKLYN", "state": "NY", "zip": "11219-3244", "ntee": "X30", "ruling": "202201", "deductibility": "1", "assets": 0, "income": 0, "revenue": 0}], "67TH": [{"ein": "113406157", "name": "COMPANY K 67TH NEW YORK HISTORICAL ASSOCIATION", "city": "MANORVILLE", "state": "NY", "zip": "11949-0371", "ntee": "A80", "ruling": "200903", "deductibility": "1", "assets": 0, "income": 0, "revenue": 0}, {"ein": "274581070", "name": "67TH PRECINCT CLERGY COUNCIL INC", "city": "BROOKLYN", "state": "NY", "zip": "11203-4313", "ntee": "S01", "ruling": "201411", "deductibility": "1", "assets": 725009, "income": 7712104, "revenue": 7712104}], "SELTZER": [{"ein": "113406238", "name": "SELTZER FOUNDATION INC", "city": "ROSLYN HTS", "state": "NY", "zip": "11577-1414", "ntee": "T22Z", "ruling": "199801", "deductibility": "1", "assets": 663566, "income": 178727, "revenue": 0}, {"ein": "133799971", "name": "SELTZER FAMILY FOUNDATION", "city": "NEW YORK", "state": "NY", "zip": "10022-0000", "ntee": "T70I", "ruling": "199508", "deductibility": "1", "assets": 5366684, "income": 476541, "revenue": 43063}, {"ein": "932597311", "name": "BROOKLYN SELTZER MUSEUM INC", "city": "BROOKLYN", "state": "NY", "zip": "11208-2911", "ntee": "A50", "ruling": "202407", "deductibility": "1", "assets": 6339, "income": 27011, "revenue": 27011}], "DMOSHOLU": [{"ein": "113425201", "name": "OHR HAMEYER DMOSHOLU", "city": "BROOKLYN", "state": "NY", "zip": "11204-1515", "ntee": "X30", "ruling": "199904", "deductibility": "1", "assets": 0, "income": 0, "revenue": 0}], "POETS": [{"ein": "113434979", "name": "PERFORMANCE POETS ASSOCIATION INC", "city": "N BELLMORE", "state": "NY", "zip": "11710-1837", "ntee": "A70", "ruling": "201203", "deductibility": "1", "assets": 0, "income": 0, "revenue": 0}, {"ein": "131879953", "name": "ACADEMY OF AMERICAN POETS INCORPORATED", "city": "NEW YORK", "state": "NY", "zip": "10038-4610", "ntee": "A700", "ruling": "193602", "deductibility": "1", "assets": 18729412, "income": 12641260, "revenue": 8337912}, {"ein": "132682458", "name": "POETS & WRITERS INC", "city": "NEW YORK", "state": "NY", "zip": "10004-2205", "ntee": "A76Z", "ruling": "197107", "deductibility": "1", "assets": 10542271, "income": 7121463, "revenue": 3869293}, {"ein": "133255098", "name": "POETS HOUSE INC", "city": "NEW YORK", "state": "NY", "zip": "10282-1240", "ntee": "A76Z", "ruling": "198508", "deductibility": "1", "assets": 9025633, "income": 2407800, "revenue": 2070267}, {"ein": "201288518", "name": "JUST POETS", "city": "PITTSFORD", "state": "NY", "zip": "14534-2885", "ntee": "A70", "ruling": "200611", "deductibility": "1", "assets": 0, "income": 0, "revenue": 0}, {"ein": "320673817", "name": "LOST POETS SOCIETY INC", "city": "MASSAPEQUA", "state": "NY", "zip": "11758-6234", "ntee": "A20", "ruling": "202304", "deductibility": "1", "assets": 8754, "income": 109799, "revenue": 0}, {"ein": "455515074", "name": "BROOKLYN POETS INC", "city": "BROOKLYN", "state": "NY", "zip": "11201-3563", "ntee": "A70", "ruling": "201412", "deductibility": "1", "assets": 821930, "income": 480438, "revenue": 446278}, {"ein": "464951821", "name": "GREEN EARTH POETS CAFE INC", "city": "BROOKLYN", "state": "NY", "zip": "11238-7439", "ntee": "A60", "ruling": "201611", "deductibility": "1", "assets": 0, "income": 0, "revenue": 0}, {"ein": "464971399", "name": "CALLING ALL POETS", "city": "BEACON", "state": "NY", "zip": "12508-3907", "ntee": "A70", "ruling": "201505", "deductibility": "1", "assets": 0, "income": 0, "revenue": 0}, {"ein": "472219398", "name": "POETS NETWORK & EXCHANGE INCORPORATED", "city": "BRONX", "state": "NY", "zip": "10466-4477", "ntee": "A20", "ruling": "202406", "deductibility": "1", "assets": 0, "income": 0, "revenue": 0}, {"ein": "510139390", "name": "NUYORICAN POETS CAFE INC", "city": "NEW YORK", "state": "NY", "zip": "10009-8967", "ntee": "A76Z", "ruling": "197506", "deductibility": "1", "assets": 25246771, "income": 414197, "revenue": 414197}, {"ein": "812450484", "name": "SOCIETY OF CLASSICAL POETS INC", "city": "MIDDLETOWN", "state": "NY", "zip": "10940-7205", "ntee": "A99", "ruling": "201605", "deductibility": "1", "assets": 0, "income": 0, "revenue": 0}], "MICHELLE": [{"ein": "113458719", "name": "JANICE MICHELLE FOUNDATION INC", "city": "NEW YORK", "state": "NY", "zip": "10006-2744", "ntee": "T20", "ruling": "199903", "deductibility": "1", "assets": 2393236, "income": 2524721, "revenue": 0}, {"ein": "134044538", "name": "MICHELLE ONEILL FOUNDATION INC", "city": "LONG BEACH", "state": "NY", "zip": "11561-1526", "ntee": "T20", "ruling": "199904", "deductibility": "1", "assets": 1173637, "income": 1242207, "revenue": 0}, {"ein": "137363974", "name": "MICHELLE & NORMAN LATTMANN CHARITABLE FOUNDATION", "city": "NEW YORK", "state": "NY", "zip": "10021-0000", "ntee": "T90", "ruling": "200305", "deductibility": "1", "assets": 274802, "income": 74531, "revenue": 0}, {"ein": "161259350", "name": "THE MICHELLE M ADEY MEMORIAL FUND INC", "city": "ROME", "state": "NY", "zip": "13440-7565", "ntee": "", "ruling": "198802", "deductibility": "1", "assets": 0, "income": 0, "revenue": 0}, {"ein": "261175082", "name": "MICHELLE CARLSON MD FOUNDATION INC", "city": "NEW YORK", "state": "NY", "zip": "10021-4099", "ntee": "T30", "ruling": "200808", "deductibility": "1", "assets": 34126, "income": 35, "revenue": 0}, {"ein": "465325065", "name": "MICHELLE PATERNOSTER FOUNDATION FOR SARCOMA RESEARCH", "city": "COLD SPG HBR", "state": "NY", "zip": "11724-1630", "ntee": "G30", "ruling": "201602", "deductibility": "1", "assets": 121703, "income": 207442, "revenue": 166895}, {"ein": "475552647", "name": "THOMAS AND MICHELLE WERMERS FAMILY FOUNDATION", "city": "GARDEN CITY", "state": "NY", "zip": "11530-0000", "ntee": "T20", "ruling": "201701", "deductibility": "1", "assets": 6402400, "income": 673288, "revenue": 0}, {"ein": "813548843", "name": "MICHELLE SAIMBERT INTERNATIONAL FOUNDATION", "city": "WEST POINT", "state": "NY", "zip": "10996-1310", "ntee": "O50", "ruling": "202007", "deductibility": "1", "assets": 0, "income": 0, "revenue": 0}, {"ein": "816707926", "name": "MICHELLE AND JEREMY CHARITABLE FOUNDATION", "city": "FLUSHING", "state": "NY", "zip": "11367-2304", "ntee": "T90", "ruling": "201609", "deductibility": "1", "assets": 932526, "income": 151823, "revenue": 0}, {"ein": "931383972", "name": "MICHELLE CARMAZI FOUNDATION", "city": "PRT WASHINGTN", "state": "NY", "zip": "11050-0728", "ntee": "T20", "ruling": "202306", "deductibility": "1", "assets": 61993, "income": 91600, "revenue": 0}], "PRESSBURG": [{"ein": "113465786", "name": "CONGREGATION CHESEV SOFER OF PRESSBURG", "city": "BROOKLYN", "state": "NY", "zip": "11219-4746", "ntee": "X30", "ruling": "199902", "deductibility": "1", "assets": 0, "income": 0, "revenue": 0}, {"ein": "116035477", "name": "HISACHDUTH TALMIDE YESHIVATH CHASAM SOFER M PRESSBURG", "city": "BROOKLYN", "state": "NY", "zip": "11204-1600", "ntee": "", "ruling": "195007", "deductibility": "1", "assets": 0, "income": 0, "revenue": 0}, {"ein": "134103020", "name": "CONGREGATION BNEI MOSHE OF PRESSBURG INC", "city": "SPRING VALLEY", "state": "NY", "zip": "10977-3826", "ntee": "X30", "ruling": "200101", "deductibility": "1", "assets": 0, "income": 0, "revenue": 0}, {"ein": "922769571", "name": "CONG CHASAM SOFER OF PRESSBURG INC", "city": "MONROE", "state": "NY", "zip": "10950-8623", "ntee": "P20", "ruling": "202311", "deductibility": "1", "assets": 0, "income": 0, "revenue": 0}], "LUCY": [{"ein": "113507211", "name": "RALPH AND LUCY PALLESCHI FAMILY FOUNDATION", "city": "JERICHO", "state": "NY", "zip": "11753-0000", "ntee": "T22", "ruling": "200006", "deductibility": "1", "assets": 322731, "income": 69296, "revenue": 0}, {"ein": "113631635", "name": "LUCY CRIFASI MEMORIAL FUND", "city": "GLENDALE", "state": "NY", "zip": "11385-7236", "ntee": "T30", "ruling": "200202", "deductibility": "1", "assets": 0, "income": 0, "revenue": 0}, {"ein": "131991118", "name": "ELAINE KAUFMAN CULTURAL CENTER-LUCY MOSES SCHOOL FOR MUSIC AND DANCE", "city": "NEW YORK", "state": "NY", "zip": "10023-5915", "ntee": "A6E0", "ruling": "196412", "deductibility": "1", "assets": 33166331, "income": 15419108, "revenue": 10803587}, {"ein": "136040469", "name": "HENRY & LUCY MOSES FOUNDATION TRUST", "city": "NEW YORK", "state": "NY", "zip": "10008-1297", "ntee": "", "ruling": "197108", "deductibility": "1", "assets": 19241721, "income": 5282878, "revenue": 0}, {"ein": "136092400", "name": "LUCY G MOSES TRUST DTD 12-24-58", "city": "NEW YORK", "state": "NY", "zip": "10008-1297", "ntee": "", "ruling": "199109", "deductibility": "1", "assets": 15231174, "income": 3994046, "revenue": 0}, {"ein": "136092967", "name": "HENRY AND LUCY MOSES FUND INC", "city": "NEW YORK", "state": "NY", "zip": "10174-0002", "ntee": "", "ruling": "194212", "deductibility": "1", "assets": 387239, "income": 3853306, "revenue": 0}, {"ein": "812470905", "name": "ROMAN CATHOLIC CHURCH OF SAINT ANN AND SAINT LUCY", "city": "NEW YORK", "state": "NY", "zip": "10029-3002", "ntee": "", "ruling": "194603", "deductibility": "1", "assets": 0, "income": 0, "revenue": 0}, {"ein": "831756116", "name": "LUCY THE RESCUE DOG INC", "city": "MODENA", "state": "NY", "zip": "12548-0579", "ntee": "D20", "ruling": "201809", "deductibility": "1", "assets": 0, "income": 0, "revenue": 0}, {"ein": "921227773", "name": "LUCY KLINGENSTEIN FAMILY FOUNDATION", "city": "NEW YORK", "state": "NY", "zip": "10006-2756", "ntee": "T20", "ruling": "202505", "deductibility": "1", "assets": 5117287, "income": 3125030, "revenue": 0}], "LOVES": [{"ein": "113626792", "name": "LOVES CHURCH", "city": "QUEENS VLG", "state": "NY", "zip": "11427-2200", "ntee": "X21", "ruling": "200501", "deductibility": "1", "assets": 0, "income": 0, "revenue": 0}, {"ein": "261344046", "name": "LOVES HOPE INTERNATIONAL INC", "city": "NESCONSET", "state": "NY", "zip": "11767-1509", "ntee": "Q30", "ruling": "200804", "deductibility": "1", "assets": 0, "income": 0, "revenue": 0}, {"ein": "462025400", "name": "MUSIC LOVES MATH INC", "city": "BROOKLYN", "state": "NY", "zip": "11216-2202", "ntee": "B12", "ruling": "201511", "deductibility": "1", "assets": 0, "income": 0, "revenue": 0}, {"ein": "462565650", "name": "SECOND LOVES INC", "city": "HOLTSVILLE", "state": "NY", "zip": "11742-2107", "ntee": "D99", "ruling": "201407", "deductibility": "1", "assets": 1720, "income": 852, "revenue": 852}, {"ein": "463048432", "name": "JESUS LOVES MISSION CHURCH INC", "city": "FLUSHING", "state": "NY", "zip": "11355-1335", "ntee": "X99", "ruling": "201409", "deductibility": "1", "assets": 0, "income": 0, "revenue": 0}, {"ein": "465580310", "name": "LEXXI LOVES ORG", "city": "DEER PARK", "state": "NY", "zip": "11729-2807", "ntee": "O12", "ruling": "201409", "deductibility": "1", "assets": 0, "income": 0, "revenue": 0}, {"ein": "472355088", "name": "GOD LOVES PINK MINISTRIES INC", "city": "MIDDLETOWN", "state": "NY", "zip": "10940-5808", "ntee": "X99", "ruling": "201412", "deductibility": "1", "assets": 0, "income": 0, "revenue": 0}, {"ein": "823018392", "name": "NY LOVES KIDS INC", "city": "PRATTSVILLE", "state": "NY", "zip": "12468-0000", "ntee": "P20", "ruling": "201804", "deductibility": "1", "assets": 4174, "income": 77895, "revenue": 77895}, {"ein": "851132924", "name": "MOORE LOVES ALL INC", "city": "ALBANY", "state": "NY", "zip": "12207-1715", "ntee": "X19", "ruling": "202105", "deductibility": "1", "assets": 0, "income": 0, "revenue": 0}, {"ein": "934219241", "name": "HASHEM LOVES YOU INC", "city": "BROOKLYN", "state": "NY", "zip": "11230-6014", "ntee": "X30", "ruling": "202312", "deductibility": "1", "assets": 7586, "income": 109269, "revenue": 109269}], "KINGSWAY": [{"ein": "116000964", "name": "KINGSWAY JEWISH CENTER", "city": "BROOKLYN", "state": "NY", "zip": "11229-1887", "ntee": "", "ruling": "197309", "deductibility": "1", "assets": 0, "income": 0, "revenue": 0}, {"ein": "133426970", "name": "KINGSWAY HIGH SCHOOL ALUMNI ASSOCIATION", "city": "MT VERNON", "state": "NY", "zip": "10553-3391", "ntee": "B82", "ruling": "201204", "deductibility": "1", "assets": 45473, "income": 20294, "revenue": 6027}, {"ein": "823783038", "name": "KINGSWAY CHAPEL", "city": "NEW YORK", "state": "NY", "zip": "10014-4102", "ntee": "X20", "ruling": "201712", "deductibility": "1", "assets": 0, "income": 0, "revenue": 0}], "DOFT": [{"ein": "116035628", "name": "BERYL H DOFT FOUNDATION INC", "city": "NEW YORK", "state": "NY", "zip": "10021-2758", "ntee": "", "ruling": "194911", "deductibility": "1", "assets": 23367, "income": 135, "revenue": 0}, {"ein": "133748894", "name": "ALAN AND ELISABETH H DOFT FOUNDATION INC", "city": "NEW YORK", "state": "NY", "zip": "10022-1112", "ntee": "", "ruling": "000000", "deductibility": "1", "assets": 4460454, "income": 231592, "revenue": 0}], "GESELLEN": [{"ein": "131656619", "name": "KATHOLISCHER GESELLEN VEREIN", "city": "NEW YORK", "state": "NY", "zip": "10128-2241", "ntee": "P800", "ruling": "000000", "deductibility": "1", "assets": 0, "income": 0, "revenue": 0}], "LAVELLE": [{"ein": "131740463", "name": "LAVELLE FUND FOR THE BLIND INC", "city": "NEW YORK", "state": "NY", "zip": "10018-2913", "ntee": "T22", "ruling": "194111", "deductibility": "1", "assets": 153686675, "income": 48696132, "revenue": 0}], "LOC137": [{"ein": "131968055", "name": "INTERNATIONAL UNION OF OPRTNG ENGNR LOC137 137A B&C APPR & SKL IMP FND", "city": "BRIARCLIFF", "state": "NY", "zip": "10510-1620", "ntee": "", "ruling": "196309", "deductibility": "1", "assets": 3274440, "income": 2213578, "revenue": 1134829}], "TRA": [{"ein": "132505715", "name": "INTERNATIONAL UNION OF OPERATING ENGINEERS LOCAL 30 APPRENTICE TRA", "city": "WHITESTONE", "state": "NY", "zip": "11357-3055", "ntee": "", "ruling": "199104", "deductibility": "1", "assets": 7252090, "income": 2778725, "revenue": 2778725}, {"ein": "452703737", "name": "TRA GROUP INC", "city": "MOUNT KISCO", "state": "NY", "zip": "10549-3420", "ntee": "P52", "ruling": "201112", "deductibility": "1", "assets": 485040, "income": 1014479, "revenue": 1014479}, {"ein": "453587503", "name": "FRIENDS OF TRA INC", "city": "MOUNT KISCO", "state": "NY", "zip": "10549-3420", "ntee": "P80", "ruling": "201304", "deductibility": "1", "assets": 0, "income": 0, "revenue": 0}], "DELGUERCIO": [{"ein": "132720087", "name": "LOUIS R M DELGUERCIO SURGICAL SOCIETY INC", "city": "HAWTHORNE", "state": "NY", "zip": "10532-0268", "ntee": "B54I", "ruling": "197209", "deductibility": "1", "assets": 313368, "income": 22587, "revenue": 0}], "LIBERAL": [{"ein": "132898807", "name": "CHURCH OF ST MICHAEL THE ARCHANGEL LIBERAL CATHOLIC OF NEW YORK", "city": "NEW YORK", "state": "NY", "zip": "10022-5201", "ntee": "", "ruling": "197706", "deductibility": "1", "assets": 0, "income": 0, "revenue": 0}, {"ein": "141484626", "name": "MONROE TEMPLE OF LIBERAL JUDAISM", "city": "MONROE", "state": "NY", "zip": "10950-2835", "ntee": "", "ruling": "195510", "deductibility": "1", "assets": 0, "income": 0, "revenue": 0}, {"ein": "320105791", "name": "BARD COLLEGE BERLIN A LIBERAL ARTS UNIVERSITY GGMBH", "city": "ANNANDALE", "state": "NY", "zip": "12504-9800", "ntee": "B42", "ruling": "200410", "deductibility": "1", "assets": 42070954, "income": 15968327, "revenue": 15968327}, {"ein": "431754761", "name": "ASSOCIATION OF INDEPENDENT LIBERAL ARTS COLLEGE FOR TEACHER EDUCATION", "city": "NIAGARA FALLS", "state": "NY", "zip": "14305-1573", "ntee": "L80Z", "ruling": "199709", "deductibility": "1", "assets": 56192, "income": 41240, "revenue": 41240}, {"ein": "510450528", "name": "LIBERAL DO-GOODER FOUNDATION", "city": "DOBBS FERRY", "state": "NY", "zip": "10522-2204", "ntee": "T22", "ruling": "200404", "deductibility": "1", "assets": 172746, "income": 50222, "revenue": 0}, {"ein": "844813063", "name": "PARAMI LIBERAL ARTS & SCIENCES FUND", "city": "ACCORD", "state": "NY", "zip": "12404-0003", "ntee": "B12", "ruling": "202003", "deductibility": "1", "assets": 155091, "income": 146629, "revenue": 146629}, {"ein": "943093402", "name": "LIBERAL CATHOLIC CHURCH", "city": "BRONX", "state": "NY", "zip": "10466-4853", "ntee": "", "ruling": "198403", "deductibility": "1", "assets": 0, "income": 0, "revenue": 0}, {"ein": "956048465", "name": "LIBERAL CATHOLIC CHURCH", "city": "BRONX", "state": "NY", "zip": "10466-4853", "ntee": "", "ruling": "198403", "deductibility": "1", "assets": 0, "income": 0, "revenue": 0}, {"ein": "994563881", "name": "FRIENDS OF CATHOLIC LIBERAL EDUCATION INC", "city": "GRAND ISLAND", "state": "NY", "zip": "14072-1976", "ntee": "B19", "ruling": "202408", "deductibility": "1", "assets": 0, "income": 0, "revenue": 0}], "CORPO": [{"ein": "132944830", "name": "WASHINGTON HEIGHTS INWOOD PRESERVATION AND RESTORATION CORPO", "city": "NEW YORK", "state": "NY", "zip": "10033-2300", "ntee": "S220", "ruling": "197905", "deductibility": "1", "assets": 2658394, "income": 1482895, "revenue": 1482895}, {"ein": "320444500", "name": "NORTH SHORE CHILD AND FAMILY GUIDANCE ASSOCIATION HOLDING CORPO", "city": "ROSLYN HTS", "state": "NY", "zip": "11577-2215", "ntee": "S47", "ruling": "201412", "deductibility": "1", "assets": 1, "income": 0, "revenue": 0}], "PAPAGENO": [{"ein": "133106816", "name": "PAPAGENO SOCIETY", "city": "NEW YORK", "state": "NY", "zip": "10023-2935", "ntee": "A99C", "ruling": "198203", "deductibility": "1", "assets": 139879, "income": 213603, "revenue": 213603}], "CLAIBORNE": [{"ein": "133200329", "name": "LIZ CLAIBORNE & ART ORTENBERG FOUNDATION", "city": "NEW YORK", "state": "NY", "zip": "10018-6013", "ntee": "", "ruling": "198508", "deductibility": "1", "assets": 209903621, "income": 294049549, "revenue": 0}], "CARGADORES": [{"ein": "133258310", "name": "HERMANDAD DE CARGADORES Y S DEL SENOR DELOS MILAGROS DE NY INC", "city": "RICHMOND HILL", "state": "NY", "zip": "11418-1234", "ntee": "X99", "ruling": "202310", "deductibility": "1", "assets": 269608, "income": 49392, "revenue": 25661}], "SPARTA": [{"ein": "133384432", "name": "THE JUG TAVERN OF SPARTA INC", "city": "OSSINING", "state": "NY", "zip": "10562-5908", "ntee": "", "ruling": "198709", "deductibility": "1", "assets": 215080, "income": 49968, "revenue": 15866}, {"ein": "222603266", "name": "SPARTA CENTER VOLUNTEER FIRE COMAPNY INC", "city": "DANSVILLE", "state": "NY", "zip": "14437-9620", "ntee": "M24Z", "ruling": "198508", "deductibility": "2", "assets": 378343, "income": 158160, "revenue": 126411}], "GUARDIAN": [{"ein": "133501671", "name": "NEW YORK FOUNDATION FOR SENIOR CITIZENS GUARDIAN SERVICES INC", "city": "NEW YORK", "state": "NY", "zip": "10007-2817", "ntee": "P810", "ruling": "199410", "deductibility": "1", "assets": 3436898, "income": 4373808, "revenue": 4373808}, {"ein": "135562186", "name": "CATHOLIC GUARDIAN SERVICES", "city": "BRONX", "state": "NY", "zip": "10462-4553", "ntee": "", "ruling": "194603", "deductibility": "1", "assets": 60102983, "income": 95582887, "revenue": 95326873}, {"ein": "141363010", "name": "ALBANY GUARDIAN SOCIETY", "city": "ALBANY", "state": "NY", "zip": "12211-2524", "ntee": "", "ruling": "194907", "deductibility": "1", "assets": 17309920, "income": 12032315, "revenue": 0}, {"ein": "201292240", "name": "GUARDIAN ANGEL FAMILY CRISIS CENTER", "city": "GLEN HEAD", "state": "NY", "zip": "11545-0000", "ntee": "B90", "ruling": "200503", "deductibility": "1", "assets": 202720, "income": 178525, "revenue": 178525}, {"ein": "205845821", "name": "GUARDIAN FAMILY FOUNDATION INC", "city": "BROOKLYN", "state": "NY", "zip": "11218-3773", "ntee": "T12", "ruling": "200702", "deductibility": "1", "assets": 45130, "income": 600000, "revenue": 0}, {"ein": "271073795", "name": "FELINE GUARDIAN ANGELS INC", "city": "AMSTERDAM", "state": "NY", "zip": "12010-0000", "ntee": "D20", "ruling": "201011", "deductibility": "1", "assets": 0, "income": 0, "revenue": 0}, {"ein": "273335149", "name": "GUARDIAN ANGEL RESCUE INC", "city": "BREWSTER", "state": "NY", "zip": "10509-5231", "ntee": "D20", "ruling": "201308", "deductibility": "1", "assets": 0, "income": 0, "revenue": 0}, {"ein": "334779380", "name": "GUARDIAN ANGELS TUTORING SERVICES INC", "city": "BRONX", "state": "NY", "zip": "10466-4611", "ntee": "B90", "ruling": "202506", "deductibility": "1", "assets": 0, "income": 0, "revenue": 0}, {"ein": "510439869", "name": "GUARDIAN BRAIN FOUNDATION INC", "city": "DIX HILLS", "state": "NY", "zip": "11746-5852", "ntee": "H129", "ruling": "200303", "deductibility": "1", "assets": 80017, "income": 9062, "revenue": 9062}, {"ein": "800765667", "name": "OUR BROTHERS GUARDIAN INC", "city": "ELMONT", "state": "NY", "zip": "11003-8452", "ntee": "P20", "ruling": "201207", "deductibility": "1", "assets": 0, "income": 0, "revenue": 0}, {"ein": "812471450", "name": "ROMAN CATHOLIC CHURCH OF GUARDIAN ANGEL AND SAINT COLUMBA", "city": "NEW YORK", "state": "NY", "zip": "10001-0000", "ntee": "", "ruling": "194603", "deductibility": "1", "assets": 0, "income": 0, "revenue": 0}, {"ein": "821424803", "name": "FAMILY GUARDIAN SERVICES INC", "city": "CEDARHURST", "state": "NY", "zip": "11516-2329", "ntee": "P11", "ruling": "201805", "deductibility": "1", "assets": 93719, "income": 706648, "revenue": 706648}, {"ein": "823516124", "name": "SENECA LAKE GUARDIAN INC", "city": "WATKINS GLEN", "state": "NY", "zip": "14891-0333", "ntee": "C01", "ruling": "201801", "deductibility": "1", "assets": 87715, "income": 296597, "revenue": 296597}, {"ein": "830597317", "name": "GUARDIAN PROJECT INCORPORATED", "city": "HORNELL", "state": "NY", "zip": "14843-1270", "ntee": "W99", "ruling": "201807", "deductibility": "1", "assets": 0, "income": 0, "revenue": 0}, {"ein": "834178756", "name": "GUARDIAN HEALS INC", "city": "BREWSTER", "state": "NY", "zip": "10509-3531", "ntee": "D99", "ruling": "202111", "deductibility": "1", "assets": 124009, "income": 220644, "revenue": 220644}, {"ein": "843585765", "name": "GUARDIAN REVIVAL INC", "city": "BEACON", "state": "NY", "zip": "12508-3303", "ntee": "W99", "ruling": "202002", "deductibility": "1", "assets": 332719, "income": 2476129, "revenue": 2476129}, {"ein": "874487263", "name": "WATER GUARDIAN FOUNDATION INC", "city": "SCARSDALE", "state": "NY", "zip": "10583-0095", "ntee": "P30", "ruling": "202202", "deductibility": "1", "assets": 7002, "income": 5111, "revenue": 0}, {"ein": "900848327", "name": "GUARDIAN ANGEL CAT RESCUE INC", "city": "POUGHKEEPSIE", "state": "NY", "zip": "12603-6408", "ntee": "D20", "ruling": "201302", "deductibility": "1", "assets": 0, "income": 0, "revenue": 0}, {"ein": "992521742", "name": "GUARDIAN ANGEL CENTER INC", "city": "MEDINA", "state": "NY", "zip": "14103-9722", "ntee": "B80", "ruling": "202405", "deductibility": "1", "assets": 0, "income": 0, "revenue": 0}], "PHILIPSTOWN": [{"ein": "133574572", "name": "OLD ROAD SOCIETY OF PHILIPSTOWN", "city": "GARRISON", "state": "NY", "zip": "10524-3721", "ntee": "A80", "ruling": "201411", "deductibility": "1", "assets": 0, "income": 0, "revenue": 0}, {"ein": "146038446", "name": "PHILIPSTOWN VOLUNTEER AMBULANCE CORPS INC", "city": "COLD SPRING", "state": "NY", "zip": "10516-1901", "ntee": "E62Z", "ruling": "196705", "deductibility": "1", "assets": 486822, "income": 663118, "revenue": 657813}, {"ein": "223922108", "name": "PHILIPSTOWN SOCCER CLUB", "city": "COLD SPRING", "state": "NY", "zip": "10516-2403", "ntee": "N64", "ruling": "201104", "deductibility": "1", "assets": 0, "income": 0, "revenue": 0}, {"ein": "237349979", "name": "PHILIPSTOWN LITTLE LEAGUE BASEBALL INC", "city": "COLD SPRING", "state": "NY", "zip": "10516-3713", "ntee": "", "ruling": "197407", "deductibility": "1", "assets": 0, "income": 0, "revenue": 0}, {"ein": "237405956", "name": "PHILIPSTOWN GARDEN CLUB INC", "city": "GARRISON", "state": "NY", "zip": "10524-0255", "ntee": "", "ruling": "197912", "deductibility": "1", "assets": 131968, "income": 31570, "revenue": 25257}, {"ein": "272888257", "name": "FRIENDS OF PHILIPSTOWN RECREATION INC", "city": "COLD SPRING", "state": "NY", "zip": "10516-0155", "ntee": "N32", "ruling": "202211", "deductibility": "1", "assets": 30328, "income": 7968, "revenue": 7968}, {"ein": "462772949", "name": "PHILIPSTOWN DEPOT THEATRE INC", "city": "GARRISON", "state": "NY", "zip": "10524-0221", "ntee": "A65", "ruling": "201407", "deductibility": "1", "assets": 792190, "income": 485742, "revenue": 478484}, {"ein": "753002139", "name": "PHILIPSTOWN MASONIC HISTORICAL SOCIETY", "city": "COLD SPRING", "state": "NY", "zip": "10516-0236", "ntee": "A80", "ruling": "200204", "deductibility": "1", "assets": 0, "income": 0, "revenue": 0}, {"ein": "832826282", "name": "PHILIPSTOWN AGING AT HOME INC", "city": "COLD SPRING", "state": "NY", "zip": "10516-0074", "ntee": "P80", "ruling": "201902", "deductibility": "1", "assets": 0, "income": 0, "revenue": 0}, {"ein": "842402163", "name": "PHILIPSTOWN BEHAVIORAL HEALTH HUB INC", "city": "COLD SPRING", "state": "NY", "zip": "10516-3020", "ntee": "F22", "ruling": "201909", "deductibility": "1", "assets": 239224, "income": 306508, "revenue": 306508}], "CHILDBIRTH": [{"ein": "133600061", "name": "CHILDBIRTH EDUCATION ASSOCIATION OF WESTCHESTER PUTNAM INC", "city": "JEFFERSON VLY", "state": "NY", "zip": "10535-0026", "ntee": "B99", "ruling": "201212", "deductibility": "1", "assets": 0, "income": 0, "revenue": 0}], "SCRIABIN": [{"ein": "133813646", "name": "SCRIABIN SOCIETY OF AMERICA INC", "city": "NEW YORK", "state": "NY", "zip": "10025-7584", "ntee": "A68", "ruling": "202203", "deductibility": "1", "assets": 0, "income": 0, "revenue": 0}], "BOULE": [{"ein": "133817770", "name": "GRAND BOULE OF THE SIGMA PI PHI FRATERNITY", "city": "BROOKLYN", "state": "NY", "zip": "11238-1502", "ntee": "Y42", "ruling": "201005", "deductibility": "1", "assets": 127905, "income": 116987, "revenue": 41169}, {"ein": "141736154", "name": "GRAND BOULE OF THE SIGMA PI PHI FRATERNITY", "city": "GUILDERLAND", "state": "NY", "zip": "12084-1063", "ntee": "", "ruling": "201005", "deductibility": "2", "assets": 0, "income": 0, "revenue": 0}, {"ein": "260595525", "name": "GRAND BOULE OF THE SIGMA PI PHI FRATERNITY", "city": "NEW YORK", "state": "NY", "zip": "10019-6733", "ntee": "", "ruling": "201005", "deductibility": "2", "assets": 0, "income": 0, "revenue": 0}, {"ein": "270052211", "name": "BETA ZETA BOULE FOUNDATION", "city": "NEW YORK", "state": "NY", "zip": "10025-5161", "ntee": "B82", "ruling": "200407", "deductibility": "1", "assets": 0, "income": 0, "revenue": 0}, {"ein": "453841645", "name": "GRAND BOULE OF THE SIGMA PI PHI FRATERNITY", "city": "NEW YORK", "state": "NY", "zip": "10027-6192", "ntee": "Y42", "ruling": "201005", "deductibility": "2", "assets": 0, "income": 0, "revenue": 0}, {"ein": "460786691", "name": "GRAND BOULE OF THE SIGMA PI PHI FRATERNITY", "city": "BUFFALO", "state": "NY", "zip": "14221-8539", "ntee": "Y42", "ruling": "201005", "deductibility": "1", "assets": 0, "income": 0, "revenue": 0}, {"ein": "812372199", "name": "GAMMA IOTA BOULE FOUNDATION INC", "city": "ROCHESTER", "state": "NY", "zip": "14607-1870", "ntee": "S20", "ruling": "201703", "deductibility": "1", "assets": 303066, "income": 84805, "revenue": 84805}], "OCCUPANCY": [{"ein": "133906301", "name": "NUMBER ONE SINGLE ROOM OCCUPANCY HOUSING DEVELOPMENT FUND CORPORATI", "city": "NEW YORK", "state": "NY", "zip": "10029-5611", "ntee": "L41", "ruling": "199702", "deductibility": "1", "assets": 156213, "income": 196950, "revenue": 196950}], "RIFLES": [{"ein": "133972876", "name": "PERSHING RIFLES COMPANY D-8 ALUMNI ASSOCIATION", "city": "OCEANSIDE", "state": "NY", "zip": "11572-4328", "ntee": "B82", "ruling": "200212", "deductibility": "1", "assets": 0, "income": 0, "revenue": 0}, {"ein": "161412867", "name": "FORSYTHE RIFLES INC", "city": "MORRISTOWN", "state": "NY", "zip": "13664-0202", "ntee": "A82Z", "ruling": "199308", "deductibility": "1", "assets": 0, "income": 0, "revenue": 0}, {"ein": "237269660", "name": "SPRINGFIELD RIFLES & RIFLETTES INC", "city": "SPRNGFLD GDNS", "state": "NY", "zip": "11413-1157", "ntee": "N65", "ruling": "202505", "deductibility": "1", "assets": 0, "income": 0, "revenue": 0}], "WT": [{"ein": "134048595", "name": "WT SCHOOL PA", "city": "NEW ROCHELLE", "state": "NY", "zip": "10801-6516", "ntee": "B94", "ruling": "200201", "deductibility": "1", "assets": 42495, "income": 20351, "revenue": 20351}], "VALANI": [{"ein": "134071416", "name": "VALANI FOUNDATION INC", "city": "NEW YORK", "state": "NY", "zip": "10036-8105", "ntee": "T20", "ruling": "200001", "deductibility": "1", "assets": 5106, "income": 100, "revenue": 0}], "SUDA": [{"ein": "134099611", "name": "TZVI SUDA INC", "city": "MONSEY", "state": "NY", "zip": "10952-2108", "ntee": "X21", "ruling": "200004", "deductibility": "1", "assets": 0, "income": 0, "revenue": 0}], "YESHAI": [{"ein": "134113423", "name": "CONGREGATION ZICHRON YESHAI", "city": "RIVERDALE", "state": "NY", "zip": "10471-1275", "ntee": "X40", "ruling": "200005", "deductibility": "1", "assets": 0, "income": 0, "revenue": 0}], "GUEYE": [{"ein": "134121103", "name": "AMINATA GUEYE AFRICAN DANCE COMPANY INC", "city": "NEW YORK", "state": "NY", "zip": "10027-3867", "ntee": "A62", "ruling": "201008", "deductibility": "1", "assets": 0, "income": 0, "revenue": 0}], "GHETTO": [{"ein": "134127229", "name": "GHETTO FILM SCHOOL INC", "city": "BRONX", "state": "NY", "zip": "10454-4409", "ntee": "A31", "ruling": "200011", "deductibility": "1", "assets": 3927119, "income": 5435770, "revenue": 5293277}, {"ein": "461354787", "name": "FROM GHETTO TO GREATNESS INC", "city": "POUGHKEEPSIE", "state": "NY", "zip": "12601-3165", "ntee": "B82", "ruling": "201810", "deductibility": "1", "assets": 0, "income": 0, "revenue": 0}], "SPINNER": [{"ein": "134147344", "name": "THE SPINNER FAMILY FOUNDATION", "city": "CEDARHURST", "state": "NY", "zip": "11516-1206", "ntee": "T90", "ruling": "200104", "deductibility": "1", "assets": 87954, "income": 117925, "revenue": 0}], "CURRAN": [{"ein": "134159375", "name": "CURRAN EVENTS INC", "city": "NEW YORK", "state": "NY", "zip": "10003-9406", "ntee": "A62", "ruling": "200109", "deductibility": "1", "assets": 3982, "income": 41851, "revenue": 41851}, {"ein": "156015514", "name": "CURRAN MUSIC SCHOLARSHIP FUND", "city": "NORWICH", "state": "NY", "zip": "13815-0000", "ntee": "", "ruling": "194804", "deductibility": "1", "assets": 137573, "income": 8722, "revenue": 0}, {"ein": "822175412", "name": "LORETTA CAPPIELLO-CURRAN FOUNDATION INC", "city": "NANUET", "state": "NY", "zip": "10954-3210", "ntee": "E86", "ruling": "201707", "deductibility": "1", "assets": 0, "income": 0, "revenue": 0}], "LANSNER": [{"ein": "134200005", "name": "GABRIELLE LANSNER AND COMPANY INCORPORATED", "city": "BROOKLYN", "state": "NY", "zip": "11231-1035", "ntee": "A65", "ruling": "200208", "deductibility": "1", "assets": 0, "income": 0, "revenue": 0}], "VIABILITY": [{"ein": "134295807", "name": "NEW YORK FARM VIABILITY INSTITUTE INC", "city": "SYRACUSE", "state": "NY", "zip": "13209-1027", "ntee": "K20", "ruling": "200511", "deductibility": "1", "assets": 766506, "income": 2929828, "revenue": 2929828}], "BARNEY": [{"ein": "136108758", "name": "W J BARNEY FOUNDATION INC", "city": "LOUDONVILLE", "state": "NY", "zip": "12211-1476", "ntee": "", "ruling": "196011", "deductibility": "1", "assets": 586108, "income": 254652, "revenue": 0}, {"ein": "471006991", "name": "DETECTIVE BARNEY FERGUSON EMERALD LEGACY FUND INC", "city": "NEW ROCHELLE", "state": "NY", "zip": "10805-3732", "ntee": "W12", "ruling": "201804", "deductibility": "1", "assets": 0, "income": 0, "revenue": 0}], "PAYMENTS": [{"ein": "136180704", "name": "SOUND RECORDING SPECIAL PAYMENTS FUND", "city": "NEW YORK", "state": "NY", "zip": "10022-6246", "ntee": "S46", "ruling": "202004", "deductibility": "2", "assets": 22748683, "income": 15003291, "revenue": 15003291}], "ABRONS": [{"ein": "136184029", "name": "RICHARD AND IRIS ABRONS FOUNDATION INC", "city": "NEW YORK", "state": "NY", "zip": "10021-0000", "ntee": "", "ruling": "196603", "deductibility": "1", "assets": 114997, "income": 124614, "revenue": 0}], "BRANDT": [{"ein": "136185337", "name": "GUSTI BRANDT FOUNDATION", "city": "NEW YORK", "state": "NY", "zip": "10020-0000", "ntee": "", "ruling": "195010", "deductibility": "1", "assets": 2888470, "income": 43485, "revenue": 0}, {"ein": "261396548", "name": "BARBARA AND GARY BRANDT FAMILY FOUNDATION", "city": "NEW YORK", "state": "NY", "zip": "10020-0000", "ntee": "T20", "ruling": "200801", "deductibility": "1", "assets": 3170542, "income": 948095, "revenue": 0}, {"ein": "472512172", "name": "ROXANNE AND HENRY BRANDT FOUNDATION", "city": "NEW YORK", "state": "NY", "zip": "10111-0228", "ntee": "T22", "ruling": "201505", "deductibility": "1", "assets": 5515704, "income": 1862077, "revenue": 0}], "OZEIREY": [{"ein": "137010462", "name": "YAD YOSEF C/O DAVID OZEIREY", "city": "BROOKLYN", "state": "NY", "zip": "11230-4001", "ntee": "", "ruling": "199307", "deductibility": "1", "assets": 0, "income": 0, "revenue": 0}], "SLOSBERG": [{"ein": "137553716", "name": "MIKE & JANET SLOSBERG FAMILY FOUNDATION TRUST", "city": "NEW YORK", "state": "NY", "zip": "10023-6226", "ntee": "T90", "ruling": "200706", "deductibility": "1", "assets": 1992047, "income": 1515558, "revenue": 0}], "RUANE": [{"ein": "141466045", "name": "EDWARD T RUANE POST 476 AMERICAN LEGION DEPARTMENT OF NEW YORK INCO", "city": "COHOES", "state": "NY", "zip": "12047-2827", "ntee": "W30", "ruling": "202108", "deductibility": "1", "assets": 39916, "income": 242099, "revenue": 63680}], "BRANT": [{"ein": "141626069", "name": "BRANT LAKE WESLEYAN CHURCH", "city": "BRANT LAKE", "state": "NY", "zip": "12815-1902", "ntee": "", "ruling": "197005", "deductibility": "1", "assets": 0, "income": 0, "revenue": 0}, {"ein": "201483498", "name": "BRANT LAKE FOUNDATION INC", "city": "BRANT LAKE", "state": "NY", "zip": "12815-0088", "ntee": "C30", "ruling": "200510", "deductibility": "1", "assets": 285823, "income": 184468, "revenue": 167004}, {"ein": "911724951", "name": "BRANT FOUNDATION", "city": "NEW YORK", "state": "NY", "zip": "10171-0299", "ntee": "", "ruling": "199607", "deductibility": "1", "assets": 7756966, "income": 1207591, "revenue": 0}], "BANKRUPTCY": [{"ein": "141738603", "name": "CAPITAL REGION BANKRUPTCY BAR ASSOCIATION", "city": "SARATOGA SPGS", "state": "NY", "zip": "12866-8031", "ntee": "B60", "ruling": "200112", "deductibility": "1", "assets": 27090, "income": 130, "revenue": 130}, {"ein": "161418862", "name": "CENTRAL NEW YORK BANKRUPTCY BAR ASSOCIATION INC", "city": "SYRACUSE", "state": "NY", "zip": "13261-7003", "ntee": "B99", "ruling": "200305", "deductibility": "2", "assets": 0, "income": 0, "revenue": 0}, {"ein": "463936881", "name": "CNY BANKRUPTCY BAR ASSOCIATION INC", "city": "SYRACUSE", "state": "NY", "zip": "13261-7003", "ntee": "B03", "ruling": "201901", "deductibility": "1", "assets": 0, "income": 0, "revenue": 0}, {"ein": "756036768", "name": "NATIONAL CONFERENCE OF BANKRUPTCY JUDGES", "city": "ALBANY", "state": "NY", "zip": "12205-1418", "ntee": "", "ruling": "194505", "deductibility": "2", "assets": 3462412, "income": 1761191, "revenue": 1761191}], "SEAHAWKS": [{"ein": "141764502", "name": "WASHINGTONVILLE SEAHAWKS SWIM CLUB", "city": "WASHINGTONVLE", "state": "NY", "zip": "10992-0155", "ntee": "B11", "ruling": "201605", "deductibility": "1", "assets": 62421, "income": 68015, "revenue": 68015}, {"ein": "464086708", "name": "SEAHAWKS ATHLETICS BOOSTER CLUB INC", "city": "LLOYD HARBOR", "state": "NY", "zip": "11743-1023", "ntee": "B11", "ruling": "201409", "deductibility": "1", "assets": 600548, "income": 288816, "revenue": 243373}], "AKWETE": [{"ein": "141974120", "name": "AKWETE NATIONAL ASSOCIATION USA INCORPORATED", "city": "BROOKLYN", "state": "NY", "zip": "11208-3505", "ntee": "T30", "ruling": "201412", "deductibility": "1", "assets": 0, "income": 0, "revenue": 0}], "SUPTS": [{"ein": "146030127", "name": "NEW YORK STATE COUNTY HIGHWAY SUPTS ASSOCIATION", "city": "ALBANY", "state": "NY", "zip": "12203-5319", "ntee": "W03", "ruling": "202304", "deductibility": "2", "assets": 280689, "income": 556529, "revenue": 556529}], "NUHN": [{"ein": "146134057", "name": "JANE W NUHN CHARITABLE TRUST", "city": "POUGHKEEPSIE", "state": "NY", "zip": "12602-0000", "ntee": "", "ruling": "198912", "deductibility": "1", "assets": 14037393, "income": 5383866, "revenue": 0}], "ARSON": [{"ein": "161266329", "name": "INTERNATIONAL ASSOC OF ARSON INVEST NYS CHAPTER 23", "city": "CORNWALL HDSN", "state": "NY", "zip": "12520-0451", "ntee": "", "ruling": "201407", "deductibility": "1", "assets": 73694, "income": 81774, "revenue": 81774}], "FINGE": [{"ein": "161270622", "name": "COUNCIL ON ALCOHOLISM & OTHER CHEMICAL DEPENDENCIES OF THE FINGE", "city": "GENEVA", "state": "NY", "zip": "14456-2120", "ntee": "F20Z", "ruling": "199101", "deductibility": "1", "assets": 520532, "income": 1692924, "revenue": 1692924}], "NS": [{"ein": "161285569", "name": "NUTRITION FOR THE ELDERLY IN TOMPKI NS COUNTY INC", "city": "ITHACA", "state": "NY", "zip": "14850-1014", "ntee": "", "ruling": "198803", "deductibility": "1", "assets": 1290725, "income": 1810851, "revenue": 1807143}, {"ein": "270625067", "name": "NS CHARITABLE FOUNDATION", "city": "LAWRENCE", "state": "NY", "zip": "11559-1318", "ntee": "T20", "ruling": "201003", "deductibility": "1", "assets": 9309, "income": 1, "revenue": 0}], "155TH": [{"ein": "161535922", "name": "155TH NEW YORK VOLUNTEER INFANTRY REENACTMENT REGIMENT", "city": "EAST AURORA", "state": "NY", "zip": "14052-9510", "ntee": "A80", "ruling": "199711", "deductibility": "1", "assets": 0, "income": 0, "revenue": 0}], "OBRIEN": [{"ein": "161594409", "name": "LORETTO OBRIEN ROAD HOUSING DEVELOPMENT FUND COMPANY INC", "city": "SYRACUSE", "state": "NY", "zip": "13203-2879", "ntee": "L20", "ruling": "201407", "deductibility": "1", "assets": 2726340, "income": 270804, "revenue": 270804}, {"ein": "256819442", "name": "OBRIEN FAM CHARITABLE TR", "city": "ALBANY", "state": "NY", "zip": "12212-5201", "ntee": "T22", "ruling": "200210", "deductibility": "1", "assets": 48604, "income": 98198, "revenue": 0}, {"ein": "452239176", "name": "RICHARD J OBRIEN FOUNDATION", "city": "JERICHO", "state": "NY", "zip": "11753-2122", "ntee": "T30", "ruling": "201201", "deductibility": "1", "assets": 33624, "income": 67999, "revenue": 57869}, {"ein": "462450456", "name": "LORETTO APARTMENTS AT OBRIEN ROAD HOUSING DEVELOPMENT FUND CO INC", "city": "SYRACUSE", "state": "NY", "zip": "13203-2879", "ntee": "L20", "ruling": "201306", "deductibility": "1", "assets": 2956030, "income": 170008, "revenue": 170008}, {"ein": "562586294", "name": "BARISH & OBRIEN FOUNDATION", "city": "WHITE PLAINS", "state": "NY", "zip": "10603-3221", "ntee": "T20", "ruling": "200802", "deductibility": "1", "assets": 26998, "income": 10000, "revenue": 0}, {"ein": "825164201", "name": "LORRAINE OBRIEN FOUNDATION INC", "city": "WHITE PLAINS", "state": "NY", "zip": "10604-3510", "ntee": "T20", "ruling": "201902", "deductibility": "1", "assets": 5176610, "income": 1592479, "revenue": 0}], "DESPIRT": [{"ein": "166034186", "name": "DESPIRT FOUNDATION INC", "city": "BUFFALO", "state": "NY", "zip": "14215-3143", "ntee": "", "ruling": "196312", "deductibility": "1", "assets": 33142, "income": 10026, "revenue": 0}], "BRANCHPORT": [{"ein": "166037257", "name": "BRANCHPORT CEMETERY ASSOC", "city": "BRANCHPORT", "state": "NY", "zip": "14418-0000", "ntee": "Y50", "ruling": "201305", "deductibility": "2", "assets": 0, "income": 0, "revenue": 0}, {"ein": "203453598", "name": "BRANCHPORT FREE LIBRARY", "city": "PRATTSBURGH", "state": "NY", "zip": "14873-9593", "ntee": "B70", "ruling": "202212", "deductibility": "1", "assets": 938766, "income": 335431, "revenue": 335431}], "SCHUTZ": [{"ein": "166246961", "name": "SCHUTZ OLIVE WIDER FUND", "city": "BUFFALO", "state": "NY", "zip": "14240-1504", "ntee": "", "ruling": "000000", "deductibility": "0", "assets": 391910, "income": 128559, "revenue": 0}, {"ein": "251798587", "name": "SCHUTZ AMERICAN SCHOOLS OF ALEXANDRIA FOUNDATION", "city": "HUNT", "state": "NY", "zip": "14846-9604", "ntee": "B84", "ruling": "201510", "deductibility": "1", "assets": 14675, "income": 2185, "revenue": 0}], "MASDAM": [{"ein": "166271787", "name": "OSCAR MASDAM TR UW FBO DORIS", "city": "NORWICH", "state": "NY", "zip": "13815-0000", "ntee": "X12", "ruling": "199911", "deductibility": "1", "assets": 278969, "income": 27684, "revenue": 0}, {"ein": "166433823", "name": "DORIS D MASDAM UNITRUST UW 16-229150", "city": "NORWICH", "state": "NY", "zip": "13815-0000", "ntee": "", "ruling": "199908", "deductibility": "0", "assets": 453197, "income": 52568, "revenue": 0}], "TILLES": [{"ein": "202614557", "name": "DORIS M & PETER S TILLES FOUNDATION INC", "city": "MATINECOCK", "state": "NY", "zip": "11560-2344", "ntee": "T20", "ruling": "200506", "deductibility": "1", "assets": 112047, "income": 13, "revenue": 0}], "HARIRI": [{"ein": "203318214", "name": "HARIRI FAMILY FOUNDATION INC", "city": "HAUPPAUGE", "state": "NY", "zip": "11788-0000", "ntee": "T22", "ruling": "200709", "deductibility": "1", "assets": 1, "income": 1, "revenue": 0}], "LUX": [{"ein": "203979808", "name": "THE LUX FOUNDATION INC", "city": "NEW YORK", "state": "NY", "zip": "10274-0073", "ntee": "T22", "ruling": "200612", "deductibility": "1", "assets": 8147740, "income": 2146590, "revenue": 0}, {"ein": "832515317", "name": "LUX NOVA INC", "city": "NEW ROCHELLE", "state": "NY", "zip": "10805-2334", "ntee": "P20", "ruling": "201901", "deductibility": "1", "assets": 37760, "income": 111200, "revenue": 0}, {"ein": "843419315", "name": "LUX MEA WOMEN S CHORUS INCORPORATED", "city": "NEW YORK CITY", "state": "NY", "zip": "10024-6713", "ntee": "A6B", "ruling": "201912", "deductibility": "1", "assets": 0, "income": 0, "revenue": 0}, {"ein": "851331071", "name": "LUX INITIATIVE INC", "city": "YOUNGSTOWN", "state": "NY", "zip": "14174-1337", "ntee": "A69", "ruling": "202006", "deductibility": "1", "assets": 0, "income": 0, "revenue": 0}], "OBINWANNE": [{"ein": "204351901", "name": "OBINWANNE FARMERS", "city": "LIVERPOOL", "state": "NY", "zip": "13088-5625", "ntee": "", "ruling": "200701", "deductibility": "1", "assets": 0, "income": 0, "revenue": 0}, {"ein": "993919327", "name": "OBINWANNE WOMEN ASSOCIATION INC", "city": "ROCHESTER", "state": "NY", "zip": "14609-4231", "ntee": "A23", "ruling": "202411", "deductibility": "1", "assets": 0, "income": 0, "revenue": 0}], "FOREDUCATION": [{"ein": "204505989", "name": "CAMBODIAN AMERICAN FOUNDATION FOREDUCATION INC", "city": "NEW YORK", "state": "NY", "zip": "10065-0000", "ntee": "Q30", "ruling": "201012", "deductibility": "1", "assets": 1549, "income": 23302, "revenue": 23302}], "ALUMNIASSOCIATION": [{"ein": "204549669", "name": "NEW YORK KEIO UNIVERSITY ALUMNIASSOCIATION", "city": "NEW YORK", "state": "NY", "zip": "10027-6401", "ntee": "B84", "ruling": "201011", "deductibility": "2", "assets": 0, "income": 0, "revenue": 0}, {"ein": "204685203", "name": "ROYAL PONTIFICAL UST MEDICAL ALUMNIASSOCIATION IN THE STATE OF NE", "city": "STATEN ISLAND", "state": "NY", "zip": "10304-1715", "ntee": "B82", "ruling": "200707", "deductibility": "1", "assets": 19971, "income": 5077, "revenue": 5077}, {"ein": "205946279", "name": "WATKINS GLEN HIGH SCHOOL ALUMNIASSOCIATION INC", "city": "WATKINS GLEN", "state": "NY", "zip": "14891-1633", "ntee": "B84", "ruling": "200712", "deductibility": "1", "assets": 0, "income": 0, "revenue": 0}, {"ein": "260277297", "name": "FBI NEWARK CITIZENS ACADEMY ALUMNIASSOCIATION INC", "city": "BRONX", "state": "NY", "zip": "10465-3593", "ntee": "T20", "ruling": "200811", "deductibility": "1", "assets": 0, "income": 0, "revenue": 0}], "USAINCORPORATED": [{"ein": "204832217", "name": "INDONESIAN PROTESTANT CHURCH OF USAINCORPORATED", "city": "ELMHURST", "state": "NY", "zip": "11373-1930", "ntee": "X21", "ruling": "200902", "deductibility": "1", "assets": 0, "income": 0, "revenue": 0}], "LUMER": [{"ein": "205395094", "name": "VERMONT RETAIL LUMER DEALERSASSOCIATION INC", "city": "RENSSELAER", "state": "NY", "zip": "12144-8419", "ntee": "S41", "ruling": "200704", "deductibility": "2", "assets": 0, "income": 0, "revenue": 0}], "CHRISTTRAINING": [{"ein": "205641027", "name": "CHURCH OF GOD FAITH IN JESUS CHRISTTRAINING CENTER", "city": "BROOKLYN", "state": "NY", "zip": "11203-4007", "ntee": "X21", "ruling": "201603", "deductibility": "1", "assets": 0, "income": 0, "revenue": 0}], "ECHAD": [{"ein": "208068131", "name": "LEV ECHAD FOUNDATION", "city": "INWOOD", "state": "NY", "zip": "11096-1702", "ntee": "T20", "ruling": "200906", "deductibility": "1", "assets": 1845199, "income": 79463, "revenue": 0}, {"ein": "462908953", "name": "NER ECHAD INC", "city": "BROOKLYN", "state": "NY", "zip": "11218-5964", "ntee": "T31", "ruling": "201310", "deductibility": "1", "assets": 94721, "income": 115578, "revenue": 115578}, {"ein": "753168255", "name": "AMERICAN FRIENDS OF AM YISRAEL ECHAD-JEWISH YOUTH UNITED", "city": "NEW YORK", "state": "NY", "zip": "10150-0644", "ntee": "X30", "ruling": "200505", "deductibility": "1", "assets": 23794, "income": 46000, "revenue": 46000}, {"ein": "811569698", "name": "BELEV ECHAD INC", "city": "NEW YORK", "state": "NY", "zip": "10128-3604", "ntee": "P20", "ruling": "201703", "deductibility": "1", "assets": 9617289, "income": 11501287, "revenue": 11501287}, {"ein": "812173532", "name": "AHAVA ECHAD INC", "city": "BROOKLYN", "state": "NY", "zip": "11210-5038", "ntee": "X20", "ruling": "201807", "deductibility": "1", "assets": 0, "income": 0, "revenue": 0}, {"ein": "822092497", "name": "AMERICAN FRIENDS OF BLEV ECHAD INC", "city": "SPRING VALLEY", "state": "NY", "zip": "10977-1308", "ntee": "G12", "ruling": "201708", "deductibility": "1", "assets": 254006, "income": 869208, "revenue": 869208}], "ROUST": [{"ein": "208706615", "name": "ROUST THEATRE COMPANY INC", "city": "NEW YORK", "state": "NY", "zip": "10025-2473", "ntee": "A65", "ruling": "200907", "deductibility": "1", "assets": 0, "income": 0, "revenue": 0}], "BUSHNELL": [{"ein": "222511358", "name": "BUSHNELL BASIN FIRE ASSOCIATION INC", "city": "PITTSFORD", "state": "NY", "zip": "14534-3716", "ntee": "M24Z", "ruling": "199006", "deductibility": "1", "assets": 4438659, "income": 1162291, "revenue": 1147758}], "FARASH": [{"ein": "222948675", "name": "MAX AND MARIAN FARASH CHARITABLE FOUNDATION", "city": "ROCHESTER", "state": "NY", "zip": "14604-2625", "ntee": "T22", "ruling": "201410", "deductibility": "1", "assets": 326670285, "income": 56335147, "revenue": 0}], "GLAZER": [{"ein": "223418982", "name": "JANE L GLAZER AND LAURENCE C GLAZER CHARITABLE TR", "city": "ROCHESTER", "state": "NY", "zip": "14607-2514", "ntee": "T12", "ruling": "202501", "deductibility": "1", "assets": 22601, "income": 341858, "revenue": 0}, {"ein": "236485096", "name": "CHARLES G GLAZER SCHOLARSHIP FUND", "city": "BUFFALO", "state": "NY", "zip": "14240-1504", "ntee": "", "ruling": "197401", "deductibility": "1", "assets": 51867, "income": 99707, "revenue": 0}, {"ein": "251341907", "name": "CHARLES C GLAZER CHARITABLE REM UNITRUST", "city": "BUFFALO", "state": "NY", "zip": "14240-1504", "ntee": "T20", "ruling": "201501", "deductibility": "1", "assets": 2768971, "income": 680524, "revenue": 0}], "ROMAINE": [{"ein": "236640915", "name": "ROMAINE H YAGEL TRUST", "city": "BUFFALO", "state": "NY", "zip": "14240-1504", "ntee": "", "ruling": "197902", "deductibility": "1", "assets": 160919, "income": 51174, "revenue": 0}], "KORAIS": [{"ein": "237024590", "name": "PANCHIAKI KORAIS SOCIETY INC", "city": "BAYSIDE", "state": "NY", "zip": "11361-2567", "ntee": "", "ruling": "196904", "deductibility": "1", "assets": 1100321, "income": 393852, "revenue": 0}], "WOODWIND": [{"ein": "237148050", "name": "DORIAN WOODWIND FOUNDATION INC", "city": "NEW YORK", "state": "NY", "zip": "10034-1271", "ntee": "", "ruling": "197112", "deductibility": "1", "assets": 19704, "income": 53077, "revenue": 53077}], "KISSELL": [{"ein": "237334203", "name": "SGT JOHN A KISSELL POST NO 5199 VETERANS OF FOREIGN WARS OF THE US", "city": "OCEANSIDE", "state": "NY", "zip": "11572-3823", "ntee": "", "ruling": "201210", "deductibility": "1", "assets": 0, "income": 0, "revenue": 0}], "NUNDGAWAGA": [{"ein": "237632285", "name": "CRYPTIC MASONS OF THE STATE OF NEW YORK INC 92 NUNDGAWAGA", "city": "BLISS", "state": "NY", "zip": "14024-9712", "ntee": "", "ruling": "194009", "deductibility": "1", "assets": 0, "income": 0, "revenue": 0}], "GAMBIAN": [{"ein": "260094193", "name": "GAMBIAN YOUTHS ORGANIZATION", "city": "BRONX", "state": "NY", "zip": "10457-3808", "ntee": "P20", "ruling": "202111", "deductibility": "1", "assets": 419210, "income": 115885, "revenue": 115885}, {"ein": "473205905", "name": "GAMBIAN AMERICAN NETWORK", "city": "NEW YORK", "state": "NY", "zip": "10039-3144", "ntee": "S99", "ruling": "201809", "deductibility": "1", "assets": 0, "income": 0, "revenue": 0}], "THINKDANCE": [{"ein": "260426410", "name": "THINKDANCE INC", "city": "NEW YORK", "state": "NY", "zip": "10025-8432", "ntee": "A62", "ruling": "200712", "deductibility": "1", "assets": 51444, "income": 34636, "revenue": 34636}], "AMORAK": [{"ein": "261378425", "name": "AMORAK YOUTH HOME INC", "city": "GLENS FALLS", "state": "NY", "zip": "12801-3580", "ntee": "P30", "ruling": "201101", "deductibility": "1", "assets": 0, "income": 0, "revenue": 0}], "SERVIR": [{"ein": "264548045", "name": "CONFRATERNIDAD CRISTIANA LIAMADOS A SERVIR", "city": "FISHKILL", "state": "NY", "zip": "12524-0000", "ntee": "", "ruling": "196408", "deductibility": "1", "assets": 0, "income": 0, "revenue": 0}, {"ein": "474325611", "name": "CASA SERVIR", "city": "FISHKILL", "state": "NY", "zip": "12524-2510", "ntee": "X20", "ruling": "201512", "deductibility": "1", "assets": 0, "income": 0, "revenue": 0}, {"ein": "861662823", "name": "ASOCIACION INTERNACIONAL DE CAPELLA NES ESCOGIDOS PARA SERVIR INC", "city": "ROCHESTER", "state": "NY", "zip": "14615-2346", "ntee": "K30", "ruling": "202402", "deductibility": "1", "assets": 0, "income": 0, "revenue": 0}], "TESTIMENTARY": [{"ein": "266829944", "name": "BARBARA APISSON TESTIMENTARY TR", "city": "NEW YORK", "state": "NY", "zip": "10168-2103", "ntee": "W99", "ruling": "201407", "deductibility": "1", "assets": 1845485, "income": 176482, "revenue": 0}], "MEINEI": [{"ein": "272484475", "name": "CONGREGATION MEINEI HAYESHIA INC", "city": "SPRING VALLEY", "state": "NY", "zip": "10977-8311", "ntee": "X30", "ruling": "201211", "deductibility": "1", "assets": 0, "income": 0, "revenue": 0}], "BOROS": [{"ein": "272623043", "name": "5 BOROS BASKETBALL INC", "city": "BROOKLYN", "state": "NY", "zip": "11222-5327", "ntee": "N62", "ruling": "201103", "deductibility": "1", "assets": 19629, "income": 58858, "revenue": 58858}], "REPENTANT": [{"ein": "300259774", "name": "ASSEMBLY OF GOD OF REPENTANT SINNERS INC", "city": "OTISVILLE", "state": "NY", "zip": "10963-2235", "ntee": "X202", "ruling": "200503", "deductibility": "1", "assets": 0, "income": 0, "revenue": 0}], "SONGEA": [{"ein": "311717153", "name": "SONGEA HOLDING CORPORATION", "city": "BROOKLYN", "state": "NY", "zip": "11226-0000", "ntee": "S47", "ruling": "200010", "deductibility": "2", "assets": 2763010, "income": 590174, "revenue": 590174}], "VESHALOM": [{"ein": "320014836", "name": "EMET VESHALOM", "city": "BROOKLYN", "state": "NY", "zip": "11220-3309", "ntee": "X123", "ruling": "200206", "deductibility": "1", "assets": 0, "income": 0, "revenue": 0}, {"ein": "813867846", "name": "HAHAIM VESHALOM YESHIVA INC", "city": "NEW YORK", "state": "NY", "zip": "10007-0000", "ntee": "B82", "ruling": "201701", "deductibility": "1", "assets": 898836, "income": 677786, "revenue": 0}, {"ein": "874361528", "name": "HACHAIM VESHALOM", "city": "CEDARHURST", "state": "NY", "zip": "11516-2131", "ntee": "X30", "ruling": "202206", "deductibility": "1", "assets": 0, "income": 0, "revenue": 0}], "UMRAH": [{"ein": "333308126", "name": "AL-WAHHAAB FOR UMRAH FOUNDATION INC", "city": "WADING RIVER", "state": "NY", "zip": "11792-9301", "ntee": "X40", "ruling": "202503", "deductibility": "1", "assets": 0, "income": 0, "revenue": 0}, {"ein": "832493667", "name": "KHADIDIATOU HAJJ & UMRAH INC", "city": "NEW YORK", "state": "NY", "zip": "10030-2462", "ntee": "X40", "ruling": "201904", "deductibility": "1", "assets": 0, "income": 0, "revenue": 0}], "GONNA": [{"ein": "333724478", "name": "ITS GONNA BE ALRIGHT", "city": "NEW YORK", "state": "NY", "zip": "10027-2030", "ntee": "F11", "ruling": "202504", "deductibility": "1", "assets": 0, "income": 0, "revenue": 0}, {"ein": "472874314", "name": "WERE NOT GONNA TAKE IT INC", "city": "HUDSON", "state": "NY", "zip": "12534-8912", "ntee": "L40", "ruling": "201505", "deductibility": "1", "assets": 0, "income": 0, "revenue": 0}], "DEHAVEN": [{"ein": "364627698", "name": "DEHAVEN ON THE HUDSON", "city": "YONKERS", "state": "NY", "zip": "10703-0000", "ntee": "P81", "ruling": "202012", "deductibility": "1", "assets": 902, "income": 11395, "revenue": 11395}], "KYTE": [{"ein": "383917584", "name": "DR WALTER A KYTE MEMORIAL FOUNDATION INC", "city": "VALLEY STREAM", "state": "NY", "zip": "11580-4817", "ntee": "B82", "ruling": "201411", "deductibility": "1", "assets": 0, "income": 0, "revenue": 0}], "BOOKBUSTERS": [{"ein": "384263311", "name": "BOOKBUSTERS INC", "city": "ASTORIA", "state": "NY", "zip": "11105-1939", "ntee": "B70", "ruling": "202310", "deductibility": "1", "assets": 0, "income": 0, "revenue": 0}], "LISTEN": [{"ein": "412233890", "name": "THE LISTEN CHARITY USA INC", "city": "NEW YORK", "state": "NY", "zip": "10017-5990", "ntee": "P123", "ruling": "200704", "deductibility": "1", "assets": 0, "income": 0, "revenue": 0}, {"ein": "844978621", "name": "GIRLS WHO LISTEN INC", "city": "BROOKLYN", "state": "NY", "zip": "11225-5320", "ntee": "A68", "ruling": "202102", "deductibility": "1", "assets": 0, "income": 0, "revenue": 0}, {"ein": "881843317", "name": "LISTEN TO THE ANGELS INC", "city": "MIDDLE ISLAND", "state": "NY", "zip": "11953-0064", "ntee": "P20", "ruling": "202205", "deductibility": "1", "assets": 0, "income": 0, "revenue": 0}], "SHELLSTRONG": [{"ein": "453189941", "name": "SHELLSTRONG FOUNDATION INC", "city": "BURNT HILLS", "state": "NY", "zip": "12027-9304", "ntee": "T30", "ruling": "201208", "deductibility": "1", "assets": 0, "income": 0, "revenue": 0}], "EGBERT": [{"ein": "453191020", "name": "EGBERT WASHINGTON DAVIS FOUNDATION", "city": "WAPPINGERS FL", "state": "NY", "zip": "12590-7548", "ntee": "P58", "ruling": "201208", "deductibility": "1", "assets": 0, "income": 0, "revenue": 0}], "TALMIDEI": [{"ein": "453512221", "name": "CONG TALMIDEI ALEKSANDER INC", "city": "BROOKLYN", "state": "NY", "zip": "11205-3916", "ntee": "X30", "ruling": "201307", "deductibility": "1", "assets": 0, "income": 0, "revenue": 0}, {"ein": "461324028", "name": "KHAL TALMIDEI HAYESHIVOS INC", "city": "BROOKLYN", "state": "NY", "zip": "11230-6604", "ntee": "X30", "ruling": "202303", "deductibility": "1", "assets": 0, "income": 0, "revenue": 0}, {"ein": "471209151", "name": "CONGREGATION TALMIDEI MESIVTA TIFERES SHMIEL ALEKSANDER", "city": "BROOKLYN", "state": "NY", "zip": "11219-3909", "ntee": "X30", "ruling": "201503", "deductibility": "1", "assets": 0, "income": 0, "revenue": 0}, {"ein": "831770261", "name": "UNITED TALMIDEI HAKVUTZE INC", "city": "BROOKLYN", "state": "NY", "zip": "11213-4033", "ntee": "X02", "ruling": "201902", "deductibility": "1", "assets": 923536, "income": 1703969, "revenue": 1703969}], "NAMIBIA": [{"ein": "454680248", "name": "KIDS IN NAMIBIA DESERVE LOVE & ENCO URAGEMENT INC", "city": "OSSINING", "state": "NY", "zip": "10562-2102", "ntee": "P99", "ruling": "201404", "deductibility": "1", "assets": 0, "income": 0, "revenue": 0}, {"ein": "881070330", "name": "JEWISH CENTER - CHABAD NAMIBIA INC", "city": "BROOKLYN", "state": "NY", "zip": "11213-3410", "ntee": "X30", "ruling": "202205", "deductibility": "1", "assets": 0, "income": 0, "revenue": 0}, {"ein": "920453706", "name": "FRIENDS OF NAMIBIA INTERNATIONAL LTD", "city": "SPENCER", "state": "NY", "zip": "14883-9613", "ntee": "Q12", "ruling": "202303", "deductibility": "1", "assets": 0, "income": 0, "revenue": 0}], "SECRETS": [{"ein": "455220397", "name": "SECRETS TO SUCCESS INC", "city": "POUGHKEEPSIE", "state": "NY", "zip": "12603-3037", "ntee": "O99", "ruling": "201409", "deductibility": "1", "assets": 0, "income": 0, "revenue": 0}], "FAIRIES": [{"ein": "460761691", "name": "BIRTHDAY FAIRIES INC", "city": "MERRICK", "state": "NY", "zip": "11566-5304", "ntee": "P20", "ruling": "201210", "deductibility": "1", "assets": 0, "income": 0, "revenue": 0}, {"ein": "463262048", "name": "BOOK FAIRIES INC", "city": "FREEPORT", "state": "NY", "zip": "11520-2245", "ntee": "P20", "ruling": "201312", "deductibility": "1", "assets": 746104, "income": 931555, "revenue": 931555}, {"ein": "863475019", "name": "URBAN FAIRIES OF STATEN ISLAND COMMUNITY OUTREACH", "city": "STATEN ISLAND", "state": "NY", "zip": "10310-1260", "ntee": "P20", "ruling": "202108", "deductibility": "1", "assets": 0, "income": 0, "revenue": 0}, {"ein": "931762954", "name": "KINDNESS FAIRIES FOUNDATION INC", "city": "MERRICK", "state": "NY", "zip": "11566-5144", "ntee": "T31", "ruling": "202308", "deductibility": "1", "assets": 0, "income": 0, "revenue": 0}], "AINA": [{"ein": "460868681", "name": "ZARA AINA", "city": "NEW YORK", "state": "NY", "zip": "10009-1199", "ntee": "Q33", "ruling": "201503", "deductibility": "1", "assets": 37672, "income": 96516, "revenue": 96516}], "COLLECTIONS": [{"ein": "461226233", "name": "DESIGNER COLLECTIONS FOUNDATION", "city": "NEW YORK", "state": "NY", "zip": "10166-2599", "ntee": "P20", "ruling": "201302", "deductibility": "1", "assets": 0, "income": 0, "revenue": 0}], "TBEILE": [{"ein": "461619821", "name": "MORRIS AND MARCY TBEILE FAMILY FOUNDATION INC", "city": "BROOKLYN", "state": "NY", "zip": "11229-3308", "ntee": "T20", "ruling": "201303", "deductibility": "1", "assets": 191685, "income": 117534, "revenue": 0}], "WARHORSE": [{"ein": "462934258", "name": "SARATOGA WARHORSE FOUNDATION INC", "city": "SARATOGA SPGS", "state": "NY", "zip": "12866-0461", "ntee": "W30", "ruling": "201311", "deductibility": "1", "assets": 900684, "income": 579267, "revenue": 439809}, {"ein": "823841032", "name": "WARHORSE MINISTRIES INC", "city": "TABERG", "state": "NY", "zip": "13471-2800", "ntee": "X99", "ruling": "201904", "deductibility": "1", "assets": 0, "income": 0, "revenue": 0}], "U2": [{"ein": "463363294", "name": "EMPOWERING U2 SUCSEED INC", "city": "WOODHAVEN", "state": "NY", "zip": "11421-6185", "ntee": "P99", "ruling": "201407", "deductibility": "1", "assets": 0, "income": 0, "revenue": 0}], "ESTE": [{"ein": "471439173", "name": "LOUISE ESTE BRUCE FOUNDATION INC", "city": "WHITE PLAINS", "state": "NY", "zip": "10601-1832", "ntee": "T50", "ruling": "201507", "deductibility": "1", "assets": 3886674, "income": 3376571, "revenue": 0}], "HORNETS": [{"ein": "471810821", "name": "PLATTSBURGH LADY HORNETS HOCKEY BOOSTERS INC", "city": "PLATTSBURGH", "state": "NY", "zip": "12901-5511", "ntee": "N12", "ruling": "201804", "deductibility": "1", "assets": 0, "income": 0, "revenue": 0}, {"ein": "900605836", "name": "HUDSON VALLEY HORNETS", "city": "PLATTEKILL", "state": "NY", "zip": "12568-0516", "ntee": "N50", "ruling": "201709", "deductibility": "2", "assets": 0, "income": 0, "revenue": 0}], "SHAKESPEARES": [{"ein": "472066540", "name": "SHAKESPEARES BIRTHPLACE AMERICA INC", "city": "NEW YORK", "state": "NY", "zip": "10018-0126", "ntee": "A70", "ruling": "201506", "deductibility": "1", "assets": 0, "income": 0, "revenue": 0}], "ENKYOJI": [{"ein": "473584901", "name": "ENKYOJI BUDDHIST TEMPLE OF ROCHESTER", "city": "ROCHESTER", "state": "NY", "zip": "14609-6102", "ntee": "X50", "ruling": "201607", "deductibility": "1", "assets": 0, "income": 0, "revenue": 0}], "RHYTHMICS": [{"ein": "474660163", "name": "NY RHYTHMICS INC", "city": "STATEN ISLAND", "state": "NY", "zip": "10304-3956", "ntee": "N99", "ruling": "201508", "deductibility": "1", "assets": 174, "income": 1430, "revenue": 0}], "CHIDUBEM": [{"ein": "474820496", "name": "CHIDUBEM INC", "city": "BROOKLYN", "state": "NY", "zip": "11225-1509", "ntee": "P20", "ruling": "201602", "deductibility": "1", "assets": 30, "income": 30, "revenue": 30}], "USHA": [{"ein": "475576573", "name": "PRADEEP & USHA TANDON FAMILY FOUNDATION INC", "city": "BAYSIDE", "state": "NY", "zip": "11364-2508", "ntee": "O12", "ruling": "201601", "deductibility": "1", "assets": 43345, "income": 1354, "revenue": 0}], "BLANCK": [{"ein": "522361044", "name": "BLANCK FAMILY FOUNDATION", "city": "SAG HARBOR", "state": "NY", "zip": "11963-4308", "ntee": "T22", "ruling": "200204", "deductibility": "1", "assets": 735397, "income": 68425, "revenue": 0}], "TRICE": [{"ein": "586354570", "name": "TRICE FAM FOUNDATION TR UA 121297", "city": "ALBANY", "state": "NY", "zip": "12212-5201", "ntee": "T22Z", "ruling": "199804", "deductibility": "1", "assets": 765496, "income": 92471, "revenue": 0}], "SVALYEVA": [{"ein": "753205579", "name": "CONG BIRCHAS SHULEM OF SVALYEVA INC", "city": "MONSEY", "state": "NY", "zip": "10952-0701", "ntee": "X30", "ruling": "200602", "deductibility": "1", "assets": 0, "income": 0, "revenue": 0}], "AIMHIGH": [{"ein": "800025151", "name": "AIMHIGH MINISTRIES INC", "city": "BRONX", "state": "NY", "zip": "10475-2201", "ntee": "X21", "ruling": "200405", "deductibility": "1", "assets": 0, "income": 0, "revenue": 0}, {"ein": "813143733", "name": "AIMHIGH EMPOWERMENT INSTITUTE INC", "city": "BRONX", "state": "NY", "zip": "10467-7104", "ntee": "W70", "ruling": "201608", "deductibility": "1", "assets": 2132, "income": 32619, "revenue": 32619}], "WILFRED": [{"ein": "800309328", "name": "WILFRED VERNON CLARKE MEMORIAL FUND INC", "city": "DIX HILLS", "state": "NY", "zip": "11746-4926", "ntee": "B82", "ruling": "200911", "deductibility": "1", "assets": 0, "income": 0, "revenue": 0}], "MAMOU": [{"ein": "800573170", "name": "ASSOCIATION OF NATIVE OF LOPPE MAMOU GUINEA USA INC", "city": "BRONX", "state": "NY", "zip": "10460-5433", "ntee": "Q33", "ruling": "201502", "deductibility": "1", "assets": 1795, "income": 100, "revenue": 100}, {"ein": "831372258", "name": "GONGORET MAMOU ASSOCIATION INC", "city": "BRONX", "state": "NY", "zip": "10466-3155", "ntee": "B80", "ruling": "202409", "deductibility": "1", "assets": 0, "income": 0, "revenue": 0}, {"ein": "943479195", "name": "ASSOCIATION DES JEUNES DE MAMOU", "city": "BROOKLYN", "state": "NY", "zip": "11208-4144", "ntee": "Q33", "ruling": "201009", "deductibility": "1", "assets": 0, "income": 0, "revenue": 0}], "LEGACIES": [{"ein": "810928573", "name": "CREATING LEGACIES FOUNDATIONS INC", "city": "BROOKLYN", "state": "NY", "zip": "11230-1630", "ntee": "S20", "ruling": "201905", "deductibility": "1", "assets": 0, "income": 0, "revenue": 0}, {"ein": "851743991", "name": "LEGACIES LIVE ON INC", "city": "BROOKLYN", "state": "NY", "zip": "11217-5071", "ntee": "F60", "ruling": "202103", "deductibility": "1", "assets": 0, "income": 0, "revenue": 0}, {"ein": "873707550", "name": "LEGACIES OF COOPER SQUARE UNIDO INC", "city": "NEW YORK", "state": "NY", "zip": "10003-0000", "ntee": "S20", "ruling": "202406", "deductibility": "1", "assets": 178251, "income": 827076, "revenue": 827076}, {"ein": "884235867", "name": "CENTER FOR THE PRESERVATION OF ARTISTS LEGACIES", "city": "BROOKLYN", "state": "NY", "zip": "11207-1365", "ntee": "A90", "ruling": "202303", "deductibility": "1", "assets": 97330, "income": 140757, "revenue": 140757}], "LEKEDOSHIM": [{"ein": "812043306", "name": "CONGREGATION ZICHRON LEKEDOSHIM INC", "city": "FLUSHING", "state": "NY", "zip": "11367-2331", "ntee": "X30", "ruling": "201711", "deductibility": "1", "assets": 0, "income": 0, "revenue": 0}], "SPLENDID": [{"ein": "812730657", "name": "SPLENDID SISTERS INTERNATIONAL NEW YORK INC", "city": "STATEN ISLAND", "state": "NY", "zip": "10314-5076", "ntee": "G03", "ruling": "202506", "deductibility": "1", "assets": 0, "income": 0, "revenue": 0}], "DIGI": [{"ein": "813279473", "name": "DIGI PRESCHOOL ACADEMY INC", "city": "ALBANY", "state": "NY", "zip": "12202-2034", "ntee": "B21", "ruling": "201704", "deductibility": "1", "assets": 77748, "income": 346087, "revenue": 346087}], "GREENZWEIG": [{"ein": "814804218", "name": "GREENZWEIG FAMILY FOUNDATION", "city": "MONSEY", "state": "NY", "zip": "10952-1700", "ntee": "T20", "ruling": "201706", "deductibility": "1", "assets": 1377358, "income": 266153, "revenue": 0}], "SCALES": [{"ein": "820671265", "name": "SCALES OF JUSTICE ACADEMY INC", "city": "PELHAM", "state": "NY", "zip": "10803-8150", "ntee": "O50", "ruling": "201703", "deductibility": "1", "assets": 0, "income": 0, "revenue": 0}], "FILAM": [{"ein": "821804411", "name": "HELPING HANDS FILAM INC", "city": "HIGHLAND", "state": "NY", "zip": "12528-1408", "ntee": "P12", "ruling": "201706", "deductibility": "1", "assets": 4113, "income": 28840, "revenue": 0}], "TREVORS": [{"ein": "822063282", "name": "TREVORS GIFT BACKPACK PROGRAM INC", "city": "WATERLOO", "state": "NY", "zip": "13165-1103", "ntee": "K30", "ruling": "201709", "deductibility": "1", "assets": 0, "income": 0, "revenue": 0}], "FARES": [{"ein": "823719587", "name": "FARES FAMILY FOUNDATION INC", "city": "BROOKLYN", "state": "NY", "zip": "11209-4003", "ntee": "P99", "ruling": "201802", "deductibility": "1", "assets": 0, "income": 0, "revenue": 0}], "VICARIOUS": [{"ein": "825166606", "name": "AMERICAN VICARIOUS INC", "city": "BROOKLYN", "state": "NY", "zip": "11215-3157", "ntee": "A65", "ruling": "201812", "deductibility": "1", "assets": 566498, "income": 178022, "revenue": 178022}], "BUTEI": [{"ein": "825303101", "name": "CONG BUTEI CHAIM & KIVREI TZADIKIM OF UKRAINE INC", "city": "BROOKLYN", "state": "NY", "zip": "11206-3061", "ntee": "X30", "ruling": "202211", "deductibility": "1", "assets": 42983, "income": 154020, "revenue": 154020}], "GRIM": [{"ein": "825453952", "name": "GRIM REAPER FITNESS NORTHEAST INC", "city": "RUSH", "state": "NY", "zip": "14543-9744", "ntee": "N50", "ruling": "201902", "deductibility": "2", "assets": 0, "income": 0, "revenue": 0}], "GABRIELLA": [{"ein": "830770535", "name": "GABRIELLA BOYD MEMORIAL FOUNDATION INC", "city": "PATTERSON", "state": "NY", "zip": "12563-1708", "ntee": "W01", "ruling": "201909", "deductibility": "1", "assets": 0, "income": 0, "revenue": 0}], "ASIYAH": [{"ein": "832104070", "name": "ASIYAH WOMENS CENTER INC", "city": "BROOKLYN", "state": "NY", "zip": "11228-3221", "ntee": "", "ruling": "202104", "deductibility": "1", "assets": 494790, "income": 702696, "revenue": 702696}], "WALTEMATH": [{"ein": "833072362", "name": "JOAN WALTEMATH FOUNDATION INC", "city": "NEW YORK CITY", "state": "NY", "zip": "10002-4909", "ntee": "A51", "ruling": "201911", "deductibility": "1", "assets": 0, "income": 0, "revenue": 0}], "THEYCARE": [{"ein": "842349903", "name": "THEYCARE FOUNDATION", "city": "JAMAICA", "state": "NY", "zip": "11434-2345", "ntee": "O20", "ruling": "202203", "deductibility": "1", "assets": 0, "income": 0, "revenue": 0}], "EMERGENT": [{"ein": "842361083", "name": "AMERICAN EMERGENT CURRICULUM INC", "city": "E NORTHPORT", "state": "NY", "zip": "11731-1429", "ntee": "", "ruling": "202001", "deductibility": "1", "assets": 329993, "income": 2738326, "revenue": 2738326}, {"ein": "843053724", "name": "EMERGENT FOREST FINANCE ACCELERATOR INC", "city": "NEW YORK", "state": "NY", "zip": "10010-4573", "ntee": "P20", "ruling": "202304", "deductibility": "2", "assets": 26655842, "income": 5871063, "revenue": 5871063}, {"ein": "843953733", "name": "EMERGENT HORIZONS", "city": "BROOKLYN", "state": "NY", "zip": "11210-3276", "ntee": "Z99", "ruling": "202111", "deductibility": "1", "assets": 0, "income": 0, "revenue": 0}, {"ein": "845089500", "name": "EMERGENT THEATREWORKS INC", "city": "NEW YORK", "state": "NY", "zip": "10027-5510", "ntee": "A65", "ruling": "202004", "deductibility": "1", "assets": 0, "income": 0, "revenue": 0}, {"ein": "851197743", "name": "EMERGENT WORKS INC", "city": "NEW YORK", "state": "NY", "zip": "10019-4406", "ntee": "P99", "ruling": "202403", "deductibility": "1", "assets": 432775, "income": 2363399, "revenue": 2359219}], "YAMANTAKA": [{"ein": "843348967", "name": "YAMANTAKA POWER ASSOCIATION", "city": "BROOKLYN", "state": "NY", "zip": "11214-5015", "ntee": "E70", "ruling": "202001", "deductibility": "1", "assets": 98480, "income": 5752, "revenue": 5752}], "GEOSENTINEL": [{"ein": "843531501", "name": "GEOSENTINEL FOUNDATION INC", "city": "NEW YORK", "state": "NY", "zip": "10022-4568", "ntee": "E12", "ruling": "202003", "deductibility": "1", "assets": 799714, "income": 312980, "revenue": 312980}], "NARD": [{"ein": "844265358", "name": "NARD MISSION INC", "city": "ROSLYN HTS", "state": "NY", "zip": "11577-2610", "ntee": "X20", "ruling": "202002", "deductibility": "1", "assets": 0, "income": 0, "revenue": 0}], "STRIKEWAVE": [{"ein": "844488955", "name": "STRIKEWAVE INC", "city": "TROY", "state": "NY", "zip": "12180-5304", "ntee": "A30", "ruling": "202007", "deductibility": "1", "assets": 0, "income": 0, "revenue": 0}], "HOUNDATION": [{"ein": "844590899", "name": "HOUNDATION FOUNDATION INC", "city": "PITTSFORD", "state": "NY", "zip": "14534-2228", "ntee": "T50", "ruling": "202003", "deductibility": "1", "assets": 1, "income": 1, "revenue": 0}], "YONESEN": [{"ein": "844696296", "name": "ZICHRON YONESEN BINYUMIN", "city": "NEW YORK", "state": "NY", "zip": "10018-6216", "ntee": "X30", "ruling": "202010", "deductibility": "1", "assets": 0, "income": 0, "revenue": 0}], "ODINS": [{"ein": "844749307", "name": "ODINS ANGELS SEARCH RESCUE AND RECOVERY GROUP INC", "city": "EDEN", "state": "NY", "zip": "14057-9787", "ntee": "D99", "ruling": "202004", "deductibility": "1", "assets": 0, "income": 0, "revenue": 0}], "MARGOS": [{"ein": "853493092", "name": "MARGOS DREAM INC", "city": "GOSHEN", "state": "NY", "zip": "10924-5708", "ntee": "T12", "ruling": "202101", "deductibility": "1", "assets": 0, "income": 0, "revenue": 0}], "BECKLES": [{"ein": "853531982", "name": "KODI KADEEM BECKLES MEMORIAL FUND", "city": "POUGHKEEPSIE", "state": "NY", "zip": "12603-1534", "ntee": "B82", "ruling": "202411", "deductibility": "1", "assets": 0, "income": 0, "revenue": 0}], "YOST": [{"ein": "854090921", "name": "YOST-CREST", "city": "BEMUS POINT", "state": "NY", "zip": "14712-0311", "ntee": "N50", "ruling": "202108", "deductibility": "2", "assets": 0, "income": 0, "revenue": 0}], "MOVEMENTZ": [{"ein": "862653491", "name": "KLC MOVEMENTZ INC", "city": "EAST MEADOW", "state": "NY", "zip": "11554-4512", "ntee": "O20", "ruling": "202111", "deductibility": "1", "assets": 0, "income": 0, "revenue": 0}], "MOSHCHAINY": [{"ein": "863066817", "name": "MOSHCHAINY", "city": "MONSEY", "state": "NY", "zip": "10952-8075", "ntee": "P20", "ruling": "202201", "deductibility": "1", "assets": 47522, "income": 6314034, "revenue": 6314034}], "STARHILL": [{"ein": "863748290", "name": "STARHILL PHASE I HOUSING DEVELOPMENT FUND CORPORATION", "city": "NEW YORK", "state": "NY", "zip": "10018-0092", "ntee": "L20", "ruling": "202207", "deductibility": "2", "assets": 0, "income": 0, "revenue": 0}], "KULSUM": [{"ein": "871383551", "name": "KULSUM HINA CARE CORPORATION", "city": "N BELLMORE", "state": "NY", "zip": "11710-5504", "ntee": "P20", "ruling": "202109", "deductibility": "1", "assets": 1819, "income": 13544, "revenue": 0}], "FLAIRS": [{"ein": "872383041", "name": "FLAIRS WARRIORS", "city": "ORCHARD PARK", "state": "NY", "zip": "14127-1201", "ntee": "D19", "ruling": "202111", "deductibility": "1", "assets": 0, "income": 0, "revenue": 0}], "VALCIN": [{"ein": "872453789", "name": "ASNEL VALCIN MINISTRIES INTERNATIONAL INC", "city": "BROOKLYN", "state": "NY", "zip": "11234-4128", "ntee": "P50", "ruling": "202112", "deductibility": "1", "assets": 0, "income": 0, "revenue": 0}], "NCT": [{"ein": "874802419", "name": "NCT FUND INC", "city": "NEW YORK", "state": "NY", "zip": "10025-6819", "ntee": "A65", "ruling": "202207", "deductibility": "1", "assets": 0, "income": 0, "revenue": 0}], "INTEGRUM": [{"ein": "880585708", "name": "INTEGRUM CHARITABLE FOUNDATION", "city": "NEW YORK", "state": "NY", "zip": "10001-2163", "ntee": "T21", "ruling": "202207", "deductibility": "1", "assets": 1808531, "income": 543182, "revenue": 0}], "NEFL": [{"ein": "880762157", "name": "SARATOGA - WILTON WARRIORS LTD AN ASSOCIATION OF THE NEFL", "city": "CORINTH", "state": "NY", "zip": "12822-1441", "ntee": "N65", "ruling": "202203", "deductibility": "1", "assets": 0, "income": 0, "revenue": 0}], "PHTA": [{"ein": "881572904", "name": "PHTA BENEFITS", "city": "PARISHVILLE", "state": "NY", "zip": "13672-0000", "ntee": "B02", "ruling": "202311", "deductibility": "1", "assets": 0, "income": 0, "revenue": 0}], "KAUKENAS": [{"ein": "883478312", "name": "RIMANTAS KAUKENAS CHARITABLE FOUNDATION INC", "city": "RIVERHEAD", "state": "NY", "zip": "11901-0012", "ntee": "T50", "ruling": "202209", "deductibility": "1", "assets": 0, "income": 0, "revenue": 0}], "FERRETS": [{"ein": "884078611", "name": "FUREVER FERRETS SANCTUARY INC", "city": "E ROCHESTER", "state": "NY", "zip": "14445-2263", "ntee": "D01", "ruling": "202210", "deductibility": "1", "assets": 0, "income": 0, "revenue": 0}], "C40": [{"ein": "900634376", "name": "C40 CITIES CLIMATE LEADERSHIP GROUP INC", "city": "NEW YORK", "state": "NY", "zip": "10017-5577", "ntee": "C029", "ruling": "201311", "deductibility": "1", "assets": 38571730, "income": 47220199, "revenue": 47220199}], "TURNKEYS": [{"ein": "900979559", "name": "TURNKEYS LEMC INC", "city": "STONY POINT", "state": "NY", "zip": "10980-3607", "ntee": "A23", "ruling": "202002", "deductibility": "1", "assets": 0, "income": 0, "revenue": 0}], "PARKWAYNYC": [{"ein": "922591949", "name": "PARKWAYNYC INC", "city": "BROOKLYN", "state": "NY", "zip": "11220-4409", "ntee": "N62", "ruling": "202306", "deductibility": "1", "assets": 0, "income": 0, "revenue": 0}], "SOLVER": [{"ein": "923090235", "name": "SOLVER SQUAD INC", "city": "NEW YORK", "state": "NY", "zip": "10001-5404", "ntee": "S02", "ruling": "202308", "deductibility": "1", "assets": 0, "income": 0, "revenue": 0}], "NEBULA": [{"ein": "923389667", "name": "NEBULA CONSULTING GROUP INC", "city": "HICKSVILLE", "state": "NY", "zip": "11801-6040", "ntee": "P40", "ruling": "202305", "deductibility": "1", "assets": 0, "income": 0, "revenue": 0}, {"ein": "934554403", "name": "NEBULA OF BROOKLYN INCORPORATED", "city": "BROOKLYN", "state": "NY", "zip": "11235-4812", "ntee": "A25", "ruling": "202401", "deductibility": "1", "assets": 0, "income": 0, "revenue": 0}], "SONGTABA": [{"ein": "931671804", "name": "HOPE FOE ALL SONGTABA INC", "city": "BRONX", "state": "NY", "zip": "10453-4260", "ntee": "P20", "ruling": "202409", "deductibility": "1", "assets": 0, "income": 0, "revenue": 0}], "JAMESON": [{"ein": "933215789", "name": "TY JAMESON FOUNDATION INC", "city": "BROOKLYN", "state": "NY", "zip": "11207-0727", "ntee": "O50", "ruling": "202310", "deductibility": "1", "assets": 0, "income": 0, "revenue": 0}], "MIBAT": [{"ein": "936616994", "name": "MIBAT CHARITABLE TR", "city": "MONSEY", "state": "NY", "zip": "10952-2880", "ntee": "X30", "ruling": "202310", "deductibility": "1", "assets": 0, "income": 0, "revenue": 0}], "MARIANS": [{"ein": "991967466", "name": "MARIANS LOVE 4 ALL INC", "city": "WOODSIDE", "state": "NY", "zip": "11377-1819", "ntee": "P20", "ruling": "202404", "deductibility": "1", "assets": 0, "income": 0, "revenue": 0}], "LABRANG": [{"ein": "991981549", "name": "CENTER OF GONJANG LABRANG", "city": "NEW YORK", "state": "NY", "zip": "10016-9079", "ntee": "X50", "ruling": "202405", "deductibility": "1", "assets": 937053, "income": 920500, "revenue": 920500}], "GAUR": [{"ein": "993473736", "name": "GAUR POWER INTERNATIONAL INCORPORATED", "city": "WHITE PLAINS", "state": "NY", "zip": "10607-1839", "ntee": "X20", "ruling": "202409", "deductibility": "1", "assets": 0, "income": 0, "revenue": 0}]}