{"YMCAS": [{"ein": "010567018", "name": "ALLIANCE OF NEW YORK STATE YMCAS INC", "city": "ALBANY", "state": "NY", "zip": "12207-1062", "ntee": "P012", "ruling": "200211", "deductibility": "2", "assets": 1205357, "income": 1088403, "revenue": 1088403}], "METROPOLITIAN": [{"ein": "010585693", "name": "THE METROPOLITIAN RAILWAY CLUB OF NEW YORK", "city": "NEW YORK", "state": "NY", "zip": "10001-4606", "ntee": "N50", "ruling": "200305", "deductibility": "2", "assets": 358786, "income": 152226, "revenue": 152226}, {"ein": "112435771", "name": "METROPOLITIAN BAPTIST CHURCH C O WALTER ALSTON", "city": "BROOKLYN", "state": "NY", "zip": "11233-1401", "ntee": "", "ruling": "197801", "deductibility": "1", "assets": 0, "income": 0, "revenue": 0}, {"ein": "132932563", "name": "METROPOLITIAN SOCIETY OF KARDAMYLIANS INC", "city": "BROOKLYN", "state": "NY", "zip": "11209-3658", "ntee": "", "ruling": "197805", "deductibility": "2", "assets": 104716, "income": 77410, "revenue": 77410}], "ACTS": [{"ein": "010679652", "name": "ACTS COMMUNITY DEVELOPMENT CORPORATION", "city": "BROOKLYN", "state": "NY", "zip": "11224-2598", "ntee": "P40", "ruling": "200301", "deductibility": "1", "assets": 6217, "income": 396398, "revenue": 396398}, {"ein": "112456326", "name": "ACTS CHRISTIAN CHURCH", "city": "BROOKLYN", "state": "NY", "zip": "11232-2507", "ntee": "", "ruling": "199305", "deductibility": "1", "assets": 0, "income": 0, "revenue": 0}, {"ein": "112652269", "name": "ACTS BAPTIST CHURCH", "city": "MASPETH", "state": "NY", "zip": "11378-1348", "ntee": "", "ruling": "198311", "deductibility": "1", "assets": 0, "income": 0, "revenue": 0}, {"ein": "113076618", "name": "ACTS REDEEMING CHRISTIAN CENTER", "city": "CEDARHURST", "state": "NY", "zip": "11516-0414", "ntee": "", "ruling": "199212", "deductibility": "1", "assets": 0, "income": 0, "revenue": 0}, {"ein": "113093038", "name": "ACTS FELLOWSHIP CHRISTIAN CHURCH", "city": "BROOKLYN", "state": "NY", "zip": "11214-6232", "ntee": "", "ruling": "199202", "deductibility": "1", "assets": 0, "income": 0, "revenue": 0}, {"ein": "113228650", "name": "ACTS CHAPTER II", "city": "BROOKLYN", "state": "NY", "zip": "11217-1822", "ntee": "X20", "ruling": "201702", "deductibility": "1", "assets": 0, "income": 0, "revenue": 0}, {"ein": "133202069", "name": "ACTS MISSIONARY PRISON MINISTRY INC", "city": "BRONX", "state": "NY", "zip": "10475-4502", "ntee": "", "ruling": "198406", "deductibility": "1", "assets": 0, "income": 0, "revenue": 0}, {"ein": "141593876", "name": "PLANNED PARENTHOOD EMPIRE STATE ACTS INC", "city": "ALBANY", "state": "NY", "zip": "12207-2512", "ntee": "E01", "ruling": "197710", "deductibility": "2", "assets": 1403104, "income": 1240581, "revenue": 1240581}, {"ein": "141762766", "name": "ACTS 1 8", "city": "CALLICOON", "state": "NY", "zip": "12723-0327", "ntee": "X20Z", "ruling": "199511", "deductibility": "1", "assets": 0, "income": 0, "revenue": 0}, {"ein": "332713652", "name": "ACTS MINISTRY INTERNATIONAL INC", "city": "NISKAYUNA", "state": "NY", "zip": "12309-2819", "ntee": "X01", "ruling": "202502", "deductibility": "1", "assets": 0, "income": 0, "revenue": 0}, {"ein": "333121578", "name": "ACTS OF RANDOM KINDNESS COMMUNITY DEVELOPMENT INC", "city": "QUEENS VLG", "state": "NY", "zip": "11428-1716", "ntee": "P20", "ruling": "202505", "deductibility": "1", "assets": 0, "income": 0, "revenue": 0}, {"ein": "384059057", "name": "ACTS OF KINDNESS INC", "city": "ALBANY", "state": "NY", "zip": "12203-0000", "ntee": "P60", "ruling": "201803", "deductibility": "1", "assets": 10845, "income": 37841, "revenue": 22891}, {"ein": "650951088", "name": "ISLAND ACTS INC", "city": "GARDEN CITY", "state": "NY", "zip": "11530-1662", "ntee": "T30", "ruling": "200006", "deductibility": "1", "assets": 5384, "income": 31163, "revenue": 0}, {"ein": "830879122", "name": "THE BOOK OF ACTS CHURCH", "city": "VICTOR", "state": "NY", "zip": "14564-9565", "ntee": "", "ruling": "196402", "deductibility": "1", "assets": 0, "income": 0, "revenue": 0}, {"ein": "833412405", "name": "PLANNED ACTS OF KINDNESS", "city": "NEW YORK", "state": "NY", "zip": "10002-6814", "ntee": "T50", "ruling": "201903", "deductibility": "1", "assets": 0, "income": 0, "revenue": 0}, {"ein": "843713382", "name": "ACTS OF LOVE INC", "city": "BROOKLYN", "state": "NY", "zip": "11212-4108", "ntee": "P40", "ruling": "201912", "deductibility": "1", "assets": 0, "income": 0, "revenue": 0}, {"ein": "862703939", "name": "ACTS 2035 INTERNATIONAL INC", "city": "NEW HYDE PARK", "state": "NY", "zip": "11040-1823", "ntee": "X12", "ruling": "202109", "deductibility": "1", "assets": 0, "income": 0, "revenue": 0}, {"ein": "863723133", "name": "NURSING ACTS OF KINDNESS", "city": "MIDDLETOWN", "state": "NY", "zip": "10940-7238", "ntee": "T99", "ruling": "202204", "deductibility": "1", "assets": 38370, "income": 17835, "revenue": 17835}, {"ein": "871354197", "name": "ACTS CHURCH INC", "city": "MOUNT VERNON", "state": "NY", "zip": "10550-2354", "ntee": "X20", "ruling": "202202", "deductibility": "1", "assets": 0, "income": 0, "revenue": 0}, {"ein": "992192025", "name": "DIVINE ACTS OF LOVE INC", "city": "NORTH BALDWIN", "state": "NY", "zip": "11510-1016", "ntee": "T99", "ruling": "202408", "deductibility": "1", "assets": 0, "income": 0, "revenue": 0}, {"ein": "994106058", "name": "ACTS OF MIRACLES FOUNDATION INC", "city": "JAMAICA", "state": "NY", "zip": "11434-5929", "ntee": "E86", "ruling": "202408", "deductibility": "1", "assets": 0, "income": 0, "revenue": 0}], "AMERICAS": [{"ein": "010876963", "name": "SAUNDERS OMNIPRESENT NETWORK INSPIRING AMERICAS YOUTH INC", "city": "WEST BABYLON", "state": "NY", "zip": "11704-1921", "ntee": "O50", "ruling": "200812", "deductibility": "1", "assets": 0, "income": 0, "revenue": 0}, {"ein": "112370121", "name": "CATHOLIC DAUGHTERS OF THE AMERICAS", "city": "HAMPTON BAYS", "state": "NY", "zip": "11946-1817", "ntee": "", "ruling": "197201", "deductibility": "1", "assets": 0, "income": 0, "revenue": 0}, {"ein": "113040212", "name": "CATHOLIC DAUGHTERS OF THE AMERICAS", "city": "SYOSSET", "state": "NY", "zip": "11791-2638", "ntee": "", "ruling": "194603", "deductibility": "1", "assets": 0, "income": 0, "revenue": 0}, {"ein": "113058524", "name": "CATHOLIC DAUGHTERS OF THE AMERICAS", "city": "FLUSHING", "state": "NY", "zip": "11355-1105", "ntee": "", "ruling": "194603", "deductibility": "1", "assets": 0, "income": 0, "revenue": 0}, {"ein": "113292677", "name": "CATHOLIC DAUGHTERS OF THE AMERICAS", "city": "BELLMORE", "state": "NY", "zip": "11710-0285", "ntee": "", "ruling": "194603", "deductibility": "1", "assets": 0, "income": 0, "revenue": 0}, {"ein": "113361921", "name": "CATHOLIC DAUGHTERS OF THE AMERICAS", "city": "CORAM", "state": "NY", "zip": "11727-1210", "ntee": "", "ruling": "194603", "deductibility": "1", "assets": 0, "income": 0, "revenue": 0}, {"ein": "113363699", "name": "CATHOLIC DAUGHTERS OF THE AMERICAS", "city": "BROOKLYN", "state": "NY", "zip": "11209-7414", "ntee": "", "ruling": "194603", "deductibility": "1", "assets": 0, "income": 0, "revenue": 0}, {"ein": "113380936", "name": "IGLESIA BAUTISTA DE LAS AMERICAS LTD", "city": "QUEENS VLG", "state": "NY", "zip": "11427-1031", "ntee": "X20", "ruling": "200104", "deductibility": "1", "assets": 0, "income": 0, "revenue": 0}, {"ein": "113582694", "name": "MOUNT MORIAH FIRE BAPTIZED HOLINESS CHURCH OF GOD OF THE AMERICAS", "city": "WYANDANCH", "state": "NY", "zip": "11798-0985", "ntee": "X20", "ruling": "200105", "deductibility": "1", "assets": 0, "income": 0, "revenue": 0}, {"ein": "131589984", "name": "WOOLMARK AMERICAS INC", "city": "NEW YORK", "state": "NY", "zip": "10013-2993", "ntee": "", "ruling": "195006", "deductibility": "2", "assets": 60308, "income": 2838349, "revenue": 2838349}, {"ein": "131623928", "name": "CATHOLIC DAUGHTERS OF THE AMERICAS", "city": "NEW YORK", "state": "NY", "zip": "10023-4201", "ntee": "", "ruling": "197201", "deductibility": "1", "assets": 0, "income": 0, "revenue": 0}, {"ein": "131759373", "name": "AVENUE OF THE AMERICAS ASSOCIATION INC", "city": "NEW YORK", "state": "NY", "zip": "10036-0000", "ntee": "", "ruling": "194605", "deductibility": "2", "assets": 727882, "income": 618676, "revenue": 618676}, {"ein": "132569185", "name": "AMERICAS SOCIETY INC", "city": "NEW YORK", "state": "NY", "zip": "10065-5072", "ntee": "Q200", "ruling": "196511", "deductibility": "1", "assets": 70021187, "income": 15348358, "revenue": 4566878}, {"ein": "132867046", "name": "FILIPINAS AMERICAS SCIENCE AND ART FOUNDATION", "city": "ORANGEBURG", "state": "NY", "zip": "10962-2725", "ntee": "", "ruling": "197801", "deductibility": "1", "assets": 3608308, "income": 0, "revenue": 0}, {"ein": "132929558", "name": "CATHOLIC DAUGHTERS OF THE AMERICAS", "city": "MAHOPAC FALLS", "state": "NY", "zip": "10542-0220", "ntee": "", "ruling": "197201", "deductibility": "0", "assets": 0, "income": 0, "revenue": 0}, {"ein": "133143311", "name": "QUINTET OF THE AMERICAS INC", "city": "DOUGLASTON", "state": "NY", "zip": "11363-1301", "ntee": "", "ruling": "198406", "deductibility": "1", "assets": 25967, "income": 119318, "revenue": 117480}, {"ein": "133212077", "name": "VICTORIA AND ALBERT MUSEUM AMERICAS FOUNDATION", "city": "NEW YORK", "state": "NY", "zip": "10019-6036", "ntee": "Q112", "ruling": "198407", "deductibility": "1", "assets": 8300830, "income": 894593, "revenue": 894593}, {"ein": "133213849", "name": "TOWN HOUSE INTL SCHOOL OF FILIPINAS AMERICAS SCIENCE & ART FOUNDATION", "city": "NEW YORK", "state": "NY", "zip": "10128-1703", "ntee": "", "ruling": "197801", "deductibility": "1", "assets": 223947, "income": 0, "revenue": 0}, {"ein": "133321736", "name": "DEUTSCHE BANK AMERICAS FOUNDATION", "city": "NEW YORK", "state": "NY", "zip": "10019-8735", "ntee": "", "ruling": "198706", "deductibility": "1", "assets": 42748851, "income": 18597434, "revenue": 0}, {"ein": "133393519", "name": "CHRIST APOSTOLIC CHURCH OF U S A FIRST IN THE AMERICAS INC", "city": "BROOKLYN", "state": "NY", "zip": "11218-0000", "ntee": "X21", "ruling": "201104", "deductibility": "1", "assets": 0, "income": 0, "revenue": 0}, {"ein": "133453405", "name": "TATE AMERICAS FOUNDATION", "city": "NEW YORK", "state": "NY", "zip": "10001-5548", "ntee": "A115", "ruling": "198802", "deductibility": "1", "assets": 119290359, "income": 18083927, "revenue": 17549380}, {"ein": "133562338", "name": "AMERICAS FUTURE THROUGH ACADEMIC PROGRESS INC", "city": "NEW YORK", "state": "NY", "zip": "10003-4918", "ntee": "", "ruling": "199101", "deductibility": "1", "assets": 73354, "income": 25137, "revenue": 0}, {"ein": "133676166", "name": "MITSUBISHI CORPORATION FOUNDATION FOR THE AMERICAS", "city": "NEW YORK", "state": "NY", "zip": "10036-6563", "ntee": "", "ruling": "199210", "deductibility": "1", "assets": 625884, "income": 538379, "revenue": 0}, {"ein": "133796671", "name": "THE GREY FOUNDATION AMERICAS INC", "city": "NEW YORK", "state": "NY", "zip": "10019-0000", "ntee": "B112", "ruling": "199507", "deductibility": "1", "assets": 15949, "income": 60447, "revenue": 60447}, {"ein": "133835670", "name": "THE ASSOCIATION OF TRADE AND FORFAITING IN THE AMERICAS INC", "city": "NEW YORK", "state": "NY", "zip": "10019-0000", "ntee": "", "ruling": "199702", "deductibility": "2", "assets": 0, "income": 0, "revenue": 0}, {"ein": "133938578", "name": "MOUNT SINAI FIRE BAPTIZED HOLINESS CHURCH OF THE AMERICAS", "city": "YONKERS", "state": "NY", "zip": "10701-2727", "ntee": "X200", "ruling": "200306", "deductibility": "1", "assets": 0, "income": 0, "revenue": 0}, {"ein": "134042755", "name": "SAVE AMERICAS CLOCKS INC", "city": "NEW YORK", "state": "NY", "zip": "10011-6660", "ntee": "A80", "ruling": "201602", "deductibility": "1", "assets": 0, "income": 0, "revenue": 0}, {"ein": "134052244", "name": "AUSTEN-STOKES ANCIENT AMERICAS FOUNDATION INC", "city": "UPPER NYACK", "state": "NY", "zip": "10960-1205", "ntee": "T21", "ruling": "199906", "deductibility": "1", "assets": 1935250, "income": 1840916, "revenue": 0}, {"ein": "136114092", "name": "SOROPTIMIST INTERNATIONAL OF THE AMERICAS INC", "city": "BROOKLYN", "state": "NY", "zip": "11226-4215", "ntee": "I70", "ruling": "200212", "deductibility": "1", "assets": 0, "income": 0, "revenue": 0}, {"ein": "136148826", "name": "CATHOLIC DAUGHTERS OF THE AMERICAS", "city": "STATEN ISLAND", "state": "NY", "zip": "10312-2021", "ntee": "", "ruling": "197201", "deductibility": "1", "assets": 0, "income": 0, "revenue": 0}, {"ein": "136155722", "name": "CATHOLIC DAUGHTERS OF THE AMERICAS", "city": "SPRING VALLEY", "state": "NY", "zip": "10977-1606", "ntee": "", "ruling": "197201", "deductibility": "1", "assets": 0, "income": 0, "revenue": 0}, {"ein": "141241380", "name": "CATHOLIC DAUGHTERS OF THE AMERICAS", "city": "CORNWALL HDSN", "state": "NY", "zip": "12520-0281", "ntee": "", "ruling": "194603", "deductibility": "1", "assets": 0, "income": 0, "revenue": 0}, {"ein": "141601323", "name": "CATHOLIC DAUGHTERS OF THE AMERICAS", "city": "LAKE PLACID", "state": "NY", "zip": "12946-3700", "ntee": "", "ruling": "194603", "deductibility": "0", "assets": 0, "income": 0, "revenue": 0}, {"ein": "141630454", "name": "MT OLIVE F B H CHURCH OF GOD OF THE AMERICAS AT POUGHKEEPSIE NEW YORK", "city": "POUGHKEEPSIE", "state": "NY", "zip": "12601-4306", "ntee": "", "ruling": "199404", "deductibility": "1", "assets": 0, "income": 0, "revenue": 0}, {"ein": "141787320", "name": "CATHOLIC DAUGHTERS OF THE AMERICAS", "city": "WASHINGTONVLE", "state": "NY", "zip": "10992-1822", "ntee": "", "ruling": "194603", "deductibility": "1", "assets": 0, "income": 0, "revenue": 0}, {"ein": "146030057", "name": "SOROPTIMIST INTERNATIONAL OF THE AMERICAS INC", "city": "GLOVERSVILLE", "state": "NY", "zip": "12078-0002", "ntee": "I70", "ruling": "200210", "deductibility": "1", "assets": 0, "income": 0, "revenue": 0}, {"ein": "146039740", "name": "CATHOLIC DAUGHTERS OF THE AMERICAS", "city": "PLATTSBURGH", "state": "NY", "zip": "12903-4013", "ntee": "", "ruling": "197201", "deductibility": "1", "assets": 0, "income": 0, "revenue": 0}, {"ein": "146045513", "name": "CATHOLIC DAUGHTERS OF THE AMERICAS", "city": "CHAMPLAIN", "state": "NY", "zip": "12919-0395", "ntee": "", "ruling": "197201", "deductibility": "0", "assets": 0, "income": 0, "revenue": 0}, {"ein": "146087908", "name": "CATHOLIC DAUGHTERS OF THE AMERICAS", "city": "NEWBURGH", "state": "NY", "zip": "12550-3345", "ntee": "", "ruling": "197201", "deductibility": "1", "assets": 0, "income": 0, "revenue": 0}, {"ein": "146088541", "name": "CATHOLIC DAUGHTERS OF THE AMERICAS", "city": "DANNEMOND", "state": "NY", "zip": "12929-0552", "ntee": "", "ruling": "194603", "deductibility": "1", "assets": 0, "income": 0, "revenue": 0}, {"ein": "156021555", "name": "CATHOLIC DAUGHTERS OF THE AMERICAS", "city": "VERNON CENTER", "state": "NY", "zip": "13477-3433", "ntee": "", "ruling": "197201", "deductibility": "0", "assets": 0, "income": 0, "revenue": 0}, {"ein": "160810683", "name": "CATHOLIC DAUGHTERS OF THE AMERICAS", "city": "BLASDELL", "state": "NY", "zip": "14219-2453", "ntee": "", "ruling": "197201", "deductibility": "1", "assets": 0, "income": 0, "revenue": 0}, {"ein": "160840561", "name": "AMERICAS FAMILY HEALTH AND WELFARE FUND", "city": "WILLIAMSVILLE", "state": "NY", "zip": "14221-7177", "ntee": "", "ruling": "196202", "deductibility": "2", "assets": 2572559, "income": 3747716, "revenue": 3747716}, {"ein": "161084050", "name": "WESTERN NEW YORK JAMAICA PARTNERS OF THE AMERICAS INC", "city": "AMHERST", "state": "NY", "zip": "14226-4117", "ntee": "T30", "ruling": "201904", "deductibility": "1", "assets": 0, "income": 0, "revenue": 0}, {"ein": "161403699", "name": "CATHOLIC DAUGHTERS OF THE AMERICAS", "city": "CHERRY VALLEY", "state": "NY", "zip": "13320-0401", "ntee": "", "ruling": "194603", "deductibility": "1", "assets": 0, "income": 0, "revenue": 0}, {"ein": "161429858", "name": "CATHOLIC DAUGHTERS OF THE AMERICAS CT 1311 OUR MOTHER OF GOOD COUNSEL", "city": "ORCHARD PARK", "state": "NY", "zip": "14127-1039", "ntee": "", "ruling": "194603", "deductibility": "1", "assets": 0, "income": 0, "revenue": 0}, {"ein": "161742112", "name": "ACTION FOR HEALTH IN THE AMERICAS INC", "city": "CLIFTON PARK", "state": "NY", "zip": "12065-2714", "ntee": "E99", "ruling": "200601", "deductibility": "1", "assets": 68990, "income": 206375, "revenue": 206375}, {"ein": "166177312", "name": "CATHOLIC DAUGHTERS OF THE AMERICAS", "city": "WATERLOO", "state": "NY", "zip": "13165-1524", "ntee": "", "ruling": "194603", "deductibility": "1", "assets": 0, "income": 0, "revenue": 0}, {"ein": "200895316", "name": "SOROPTIMIST INTERNATIONAL OF THE AMERICAS INC", "city": "STATEN ISLAND", "state": "NY", "zip": "10314-0530", "ntee": "", "ruling": "200210", "deductibility": "1", "assets": 25861, "income": 68315, "revenue": 55469}, {"ein": "203278536", "name": "CATHOLIC DAUGHTERS OF THE AMERICAS", "city": "WESLEY HILLS", "state": "NY", "zip": "10952-1118", "ntee": "", "ruling": "194603", "deductibility": "1", "assets": 0, "income": 0, "revenue": 0}, {"ein": "205555666", "name": "CATHOLIC DAUGHTERS OF THE AMERICAS", "city": "CONGERS", "state": "NY", "zip": "10920-2501", "ntee": "", "ruling": "194603", "deductibility": "1", "assets": 0, "income": 0, "revenue": 0}, {"ein": "208814368", "name": "AMERICAS VETDOGS THE VETERANS K9 CORPS INC", "city": "SMITHTOWN", "state": "NY", "zip": "11787-2906", "ntee": "W30", "ruling": "200707", "deductibility": "1", "assets": 4577102, "income": 10912742, "revenue": 10489811}, {"ein": "222142163", "name": "CATHOLIC DAUGHTERS OF THE AMERICAS", "city": "FULTON", "state": "NY", "zip": "13069-4584", "ntee": "", "ruling": "194603", "deductibility": "1", "assets": 0, "income": 0, "revenue": 0}, {"ein": "222570965", "name": "SOROPTIMIST INTERNATIONAL OF THE AMERICAS INC", "city": "NISKAYUNA", "state": "NY", "zip": "12309-0303", "ntee": "I70", "ruling": "200210", "deductibility": "1", "assets": 0, "income": 0, "revenue": 0}, {"ein": "222599645", "name": "ROCHESTER PARTNERS OF THE AMERICAS INC", "city": "ROCHESTER", "state": "NY", "zip": "14603-3016", "ntee": "", "ruling": "198702", "deductibility": "1", "assets": 0, "income": 0, "revenue": 0}, {"ein": "223116319", "name": "SOROPTIMIST INTERNATIONAL OF THE AMERICAS INC", "city": "GLENS FALLS", "state": "NY", "zip": "12801-2043", "ntee": "I70", "ruling": "200210", "deductibility": "1", "assets": 0, "income": 0, "revenue": 0}, {"ein": "237164872", "name": "CATHOLIC DAUGHTERS OF THE AMERICAS", "city": "FORT ANN", "state": "NY", "zip": "12827-0226", "ntee": "", "ruling": "194603", "deductibility": "1", "assets": 0, "income": 0, "revenue": 0}, {"ein": "237165809", "name": "CATHOLIC DAUGHTERS OF THE AMERICAS", "city": "CORNWALL HDSN", "state": "NY", "zip": "12520-0281", "ntee": "", "ruling": "197201", "deductibility": "1", "assets": 0, "income": 0, "revenue": 0}, {"ein": "237166336", "name": "CATHOLIC DAUGHTERS OF THE AMERICAS", "city": "WAPPINGERS FL", "state": "NY", "zip": "12590-1626", "ntee": "", "ruling": "197201", "deductibility": "0", "assets": 0, "income": 0, "revenue": 0}, {"ein": "237166338", "name": "CATHOLIC DAUGHTERS OF THE AMERICAS", "city": "MEDINA", "state": "NY", "zip": "14103-1209", "ntee": "", "ruling": "197201", "deductibility": "1", "assets": 0, "income": 0, "revenue": 0}, {"ein": "237169641", "name": "CATHOLIC DAUGHTERS OF THE AMERICAS", "city": "COLD SPG HBR", "state": "NY", "zip": "11724-1804", "ntee": "", "ruling": "197201", "deductibility": "1", "assets": 0, "income": 0, "revenue": 0}, {"ein": "237169643", "name": "CATHOLIC DAUGHTERS OF THE AMERICAS", "city": "WEST ISLIP", "state": "NY", "zip": "11795-3435", "ntee": "", "ruling": "197201", "deductibility": "1", "assets": 0, "income": 0, "revenue": 0}, {"ein": "237170219", "name": "CATHOLIC DAUGHTERS OF THE AMERICAS", "city": "WARWICK", "state": "NY", "zip": "10990-3559", "ntee": "", "ruling": "197201", "deductibility": "1", "assets": 0, "income": 0, "revenue": 0}, {"ein": "237170220", "name": "CATHOLIC DAUGHTERS OF THE AMERICAS", "city": "STATEN ISLAND", "state": "NY", "zip": "10312-6502", "ntee": "", "ruling": "197201", "deductibility": "1", "assets": 0, "income": 0, "revenue": 0}, {"ein": "237170221", "name": "CATHOLIC DAUGHTERS OF THE AMERICAS", "city": "GOSHEN", "state": "NY", "zip": "10924-5314", "ntee": "", "ruling": "197201", "deductibility": "0", "assets": 0, "income": 0, "revenue": 0}, {"ein": "237170222", "name": "CATHOLIC DAUGHTERS OF THE AMERICAS", "city": "HOMER", "state": "NY", "zip": "13077-9770", "ntee": "", "ruling": "197201", "deductibility": "1", "assets": 0, "income": 0, "revenue": 0}, {"ein": "237170223", "name": "CATHOLIC DAUGHTERS OF THE AMERICAS", "city": "CLYDE", "state": "NY", "zip": "14433-1027", "ntee": "", "ruling": "197201", "deductibility": "1", "assets": 0, "income": 0, "revenue": 0}, {"ein": "237170225", "name": "CATHOLIC DAUGHTERS OF THE AMERICAS", "city": "HANCOCK", "state": "NY", "zip": "13783-0514", "ntee": "", "ruling": "197201", "deductibility": "1", "assets": 0, "income": 0, "revenue": 0}, {"ein": "237170226", "name": "CATHOLIC DAUGHTERS OF THE AMERICAS", "city": "BROCKPORT", "state": "NY", "zip": "14420-2026", "ntee": "", "ruling": "197201", "deductibility": "0", "assets": 0, "income": 0, "revenue": 0}, {"ein": "237170229", "name": "CATHOLIC DAUGHTERS OF THE AMERICAS", "city": "RONKONKOMA", "state": "NY", "zip": "11779-5426", "ntee": "", "ruling": "194603", "deductibility": "1", "assets": 0, "income": 0, "revenue": 0}, {"ein": "237170230", "name": "CATHOLIC DAUGHTERS OF THE AMERICAS", "city": "HIGHLAND", "state": "NY", "zip": "12528-2209", "ntee": "", "ruling": "194603", "deductibility": "1", "assets": 0, "income": 0, "revenue": 0}, {"ein": "237170232", "name": "CATHOLIC DAUGHTERS OF THE AMERICAS CT 1012", "city": "ATTICA", "state": "NY", "zip": "14011-9649", "ntee": "", "ruling": "194603", "deductibility": "1", "assets": 0, "income": 0, "revenue": 0}, {"ein": "237170236", "name": "CATHOLIC DAUGHTERS OF THE AMERICAS", "city": "OCEANSIDE", "state": "NY", "zip": "11572-3109", "ntee": "", "ruling": "194603", "deductibility": "1", "assets": 0, "income": 0, "revenue": 0}, {"ein": "237170237", "name": "CATHOLIC DAUGHTERS OF THE AMERICAS", "city": "FLORAL PARK", "state": "NY", "zip": "11001-3718", "ntee": "", "ruling": "194603", "deductibility": "1", "assets": 0, "income": 0, "revenue": 0}, {"ein": "237170243", "name": "CATHOLIC DAUGHTERS OF THE AMERICAS", "city": "PENN YAN", "state": "NY", "zip": "14527-1143", "ntee": "", "ruling": "197201", "deductibility": "1", "assets": 0, "income": 0, "revenue": 0}, {"ein": "237170244", "name": "CATHOLIC DAUGHTERS OF THE AMERICAS", "city": "LIMA", "state": "NY", "zip": "14485-9515", "ntee": "", "ruling": "197201", "deductibility": "1", "assets": 0, "income": 0, "revenue": 0}, {"ein": "237170252", "name": "CATHOLIC DAUGHTERS OF THE AMERICAS", "city": "ILION", "state": "NY", "zip": "13357-4800", "ntee": "", "ruling": "194603", "deductibility": "1", "assets": 0, "income": 0, "revenue": 0}, {"ein": "237170254", "name": "CATHOLIC DAUGHTERS OF THE AMERICAS", "city": "LACKAWANA", "state": "NY", "zip": "14218-3522", "ntee": "", "ruling": "194603", "deductibility": "1", "assets": 0, "income": 0, "revenue": 0}, {"ein": "237170285", "name": "CATHOLIC DAUGHTERS OF THE AMERICAS COURT 794", "city": "TICONDEROGA", "state": "NY", "zip": "12883-0409", "ntee": "", "ruling": "197201", "deductibility": "0", "assets": 0, "income": 0, "revenue": 0}, {"ein": "237170289", "name": "CATHOLIC DAUGHTERS OF THE AMERICAS AND ITS COURTS", "city": "FREEPORT", "state": "NY", "zip": "11520-3337", "ntee": "", "ruling": "197201", "deductibility": "1", "assets": 0, "income": 0, "revenue": 0}, {"ein": "237170292", "name": "CATHOLIC DAUGHTERS OF THE AMERICAS", "city": "KINGS PARK", "state": "NY", "zip": "11754-4016", "ntee": "", "ruling": "197201", "deductibility": "1", "assets": 0, "income": 0, "revenue": 0}, {"ein": "237170295", "name": "CATHOLIC DAUGHTERS OF THE AMERICAS", "city": "HERKINER", "state": "NY", "zip": "13350-4020", "ntee": "", "ruling": "197201", "deductibility": "1", "assets": 0, "income": 0, "revenue": 0}, {"ein": "237170297", "name": "CATHOLIC DAUGHTERS OF THE AMERICAS", "city": "ORANGEBURG", "state": "NY", "zip": "10962-0000", "ntee": "", "ruling": "194603", "deductibility": "1", "assets": 0, "income": 0, "revenue": 0}, {"ein": "237170298", "name": "CATHOLIC DAUGHTERS OF THE AMERICAS", "city": "HICKSVILLE", "state": "NY", "zip": "11801-5117", "ntee": "", "ruling": "197201", "deductibility": "1", "assets": 0, "income": 0, "revenue": 0}, {"ein": "237170300", "name": "CATHOLIC DAUGHTERS OF THE AMERICAS", "city": "LIBERTY", "state": "NY", "zip": "12754-1031", "ntee": "", "ruling": "197201", "deductibility": "1", "assets": 0, "income": 0, "revenue": 0}, {"ein": "237170304", "name": "CATHOLIC DAUGHTERS OF THE AMERICAS", "city": "E NORTHPORT", "state": "NY", "zip": "11731-4708", "ntee": "", "ruling": "194603", "deductibility": "1", "assets": 0, "income": 0, "revenue": 0}, {"ein": "237170310", "name": "CATHOLIC DAUGHTERS OF THE AMERICAS", "city": "ELLENBURG CTR", "state": "NY", "zip": "12934-2931", "ntee": "", "ruling": "197201", "deductibility": "1", "assets": 0, "income": 0, "revenue": 0}, {"ein": "237170321", "name": "CATHOLIC DAUGHTERS OF THE AMERICAS", "city": "LONG LAKE", "state": "NY", "zip": "12847-0455", "ntee": "", "ruling": "194603", "deductibility": "1", "assets": 0, "income": 0, "revenue": 0}, {"ein": "237170326", "name": "CATHOLIC DAUGHTERS OF THE AMERICAS", "city": "LYON MOUNTAIN", "state": "NY", "zip": "12952-0144", "ntee": "", "ruling": "197201", "deductibility": "0", "assets": 0, "income": 0, "revenue": 0}, {"ein": "237171044", "name": "CATHOLIC DAUGHTERS OF THE AMERICAS", "city": "BEACON", "state": "NY", "zip": "12508-1222", "ntee": "", "ruling": "197201", "deductibility": "1", "assets": 0, "income": 0, "revenue": 0}, {"ein": "237171137", "name": "CATHOLIC DAUGHTERS OF THE AMERICAS", "city": "GLENS FALLS", "state": "NY", "zip": "12801-2608", "ntee": "", "ruling": "197201", "deductibility": "1", "assets": 0, "income": 0, "revenue": 0}, {"ein": "237172539", "name": "CATHOLIC DAUGHTERS OF THE AMERICAS", "city": "BAYSIDE", "state": "NY", "zip": "11364-1413", "ntee": "", "ruling": "194603", "deductibility": "1", "assets": 0, "income": 0, "revenue": 0}, {"ein": "237172540", "name": "CATHOLIC DAUGHTERS OF THE AMERICAS", "city": "CENTEREACH", "state": "NY", "zip": "11720-1702", "ntee": "", "ruling": "194603", "deductibility": "1", "assets": 0, "income": 0, "revenue": 0}, {"ein": "237172549", "name": "CATHOLIC DAUGHTERS OF THE AMERICAS", "city": "NO MERRICK", "state": "NY", "zip": "11566-2034", "ntee": "", "ruling": "194603", "deductibility": "1", "assets": 0, "income": 0, "revenue": 0}, {"ein": "237172556", "name": "CATHOLIC DAUGHTERS OF THE AMERICAS", "city": "HAUPPAUGE", "state": "NY", "zip": "11788-1634", "ntee": "", "ruling": "197201", "deductibility": "1", "assets": 0, "income": 0, "revenue": 0}, {"ein": "237172559", "name": "CATHOLIC DAUGHTERS OF THE AMERICAS", "city": "ALBANY", "state": "NY", "zip": "12205-2125", "ntee": "", "ruling": "194603", "deductibility": "1", "assets": 0, "income": 0, "revenue": 0}, {"ein": "237172562", "name": "CATHOLIC DAUGHTERS OF THE AMERICAS", "city": "BROADALBIN", "state": "NY", "zip": "12025-0000", "ntee": "", "ruling": "197201", "deductibility": "0", "assets": 0, "income": 0, "revenue": 0}, {"ein": "237172569", "name": "CATHOLIC DAUGHTERS OF THE AMERICAS", "city": "DEPOSIT", "state": "NY", "zip": "13754-1314", "ntee": "", "ruling": "194603", "deductibility": "1", "assets": 0, "income": 0, "revenue": 0}, {"ein": "237172577", "name": "CATHOLIC DAUGHTERS OF THE AMERICAS", "city": "ROCKVILLE CTR", "state": "NY", "zip": "11570-2540", "ntee": "", "ruling": "197201", "deductibility": "0", "assets": 0, "income": 0, "revenue": 0}, {"ein": "237172622", "name": "CATHOLIC DAUGHTERS OF THE AMERICAS", "city": "FORT EDWARD", "state": "NY", "zip": "12828-1740", "ntee": "", "ruling": "197201", "deductibility": "0", "assets": 0, "income": 0, "revenue": 0}, {"ein": "237175561", "name": "CATHOLIC DAUGHTERS OF THE AMERICAS", "city": "JAMESTOWN", "state": "NY", "zip": "14701-9505", "ntee": "", "ruling": "197201", "deductibility": "1", "assets": 0, "income": 0, "revenue": 0}, {"ein": "237181209", "name": "CATHOLIC DAUGHTERS OF THE AMERICAS COURT ST BERNARD 787", "city": "SARANAC LAKE", "state": "NY", "zip": "12983-1834", "ntee": "", "ruling": "197201", "deductibility": "0", "assets": 0, "income": 0, "revenue": 0}, {"ein": "237181211", "name": "CATHOLIC DAUGHTERS OF THE AMERICAS", "city": "MONROE", "state": "NY", "zip": "10950-9749", "ntee": "", "ruling": "194603", "deductibility": "1", "assets": 0, "income": 0, "revenue": 0}, {"ein": "237181212", "name": "CATHOLIC DAUGHTERS OF THE AMERICAS", "city": "RIDGEWOOD", "state": "NY", "zip": "11385-4551", "ntee": "", "ruling": "194603", "deductibility": "1", "assets": 0, "income": 0, "revenue": 0}, {"ein": "237181215", "name": "CATHOLIC DAUGHTERS OF THE AMERICAS", "city": "CAMPBELL HALL", "state": "NY", "zip": "10916-3118", "ntee": "", "ruling": "197201", "deductibility": "1", "assets": 0, "income": 0, "revenue": 0}, {"ein": "237181216", "name": "CATHOLIC DAUGHTERS OF THE AMERICAS", "city": "MIDDLETON", "state": "NY", "zip": "10940-4707", "ntee": "", "ruling": "197201", "deductibility": "1", "assets": 0, "income": 0, "revenue": 0}, {"ein": "237181228", "name": "CATHOLIC DAUGHTERS OF THE AMERICAS", "city": "BAY SHORE", "state": "NY", "zip": "11706-8736", "ntee": "", "ruling": "194603", "deductibility": "1", "assets": 0, "income": 0, "revenue": 0}, {"ein": "237181231", "name": "CATHOLIC DAUGHTERS OF THE AMERICAS", "city": "OSWEGO", "state": "NY", "zip": "13126-3205", "ntee": "", "ruling": "194603", "deductibility": "1", "assets": 0, "income": 0, "revenue": 0}, {"ein": "237181236", "name": "CATHOLIC DAUGHTERS OF THE AMERICAS", "city": "SALEM", "state": "NY", "zip": "12865-1818", "ntee": "", "ruling": "197201", "deductibility": "1", "assets": 0, "income": 0, "revenue": 0}, {"ein": "237181242", "name": "CATHOLIC DAUGHTERS OF THE AMERICAS", "city": "MINEOLA", "state": "NY", "zip": "11501-2319", "ntee": "", "ruling": "194603", "deductibility": "1", "assets": 0, "income": 0, "revenue": 0}, {"ein": "237181244", "name": "CATHOLIC DAUGHTERS OF THE AMERICAS", "city": "SARATOGA SPGS", "state": "NY", "zip": "12866-9028", "ntee": "", "ruling": "197201", "deductibility": "1", "assets": 0, "income": 0, "revenue": 0}, {"ein": "237181246", "name": "CATHOLIC DAUGHTERS OF THE AMERICAS", "city": "ELMHURST", "state": "NY", "zip": "11373-3952", "ntee": "", "ruling": "197201", "deductibility": "1", "assets": 0, "income": 0, "revenue": 0}, {"ein": "237181251", "name": "CATHOLIC DAUGHTERS OF THE AMERICAS", "city": "OYSTER BAY", "state": "NY", "zip": "11771-1579", "ntee": "", "ruling": "197201", "deductibility": "1", "assets": 0, "income": 0, "revenue": 0}, {"ein": "237181255", "name": "CATHOLIC DAUGHTERS OF THE AMERICAS", "city": "GLEN COVE", "state": "NY", "zip": "11542-2218", "ntee": "", "ruling": "197201", "deductibility": "1", "assets": 0, "income": 0, "revenue": 0}, {"ein": "237181791", "name": "CATHOLIC DAUGHTERS OF THE AMERICAS", "city": "ILION", "state": "NY", "zip": "13357-0000", "ntee": "", "ruling": "197201", "deductibility": "0", "assets": 0, "income": 0, "revenue": 0}, {"ein": "237181792", "name": "CATHOLIC DAUGHTERS OF THE AMERICAS", "city": "HUDSON", "state": "NY", "zip": "12534-1107", "ntee": "", "ruling": "194603", "deductibility": "1", "assets": 0, "income": 0, "revenue": 0}, {"ein": "237181793", "name": "CATHOLIC DAUGHTERS OF THE AMERICAS", "city": "PEEKSKILL", "state": "NY", "zip": "10566-4803", "ntee": "", "ruling": "194603", "deductibility": "1", "assets": 0, "income": 0, "revenue": 0}, {"ein": "237181803", "name": "CATHOLIC DAUGHTERS OF THE AMERICAS", "city": "KINGTON", "state": "NY", "zip": "12401-9803", "ntee": "", "ruling": "197201", "deductibility": "1", "assets": 0, "income": 0, "revenue": 0}, {"ein": "237181809", "name": "CATHOLIC DAUGHTERS OF THE AMERICAS", "city": "MALONE", "state": "NY", "zip": "12953-9742", "ntee": "", "ruling": "197201", "deductibility": "0", "assets": 0, "income": 0, "revenue": 0}, {"ein": "237181816", "name": "CATHOLIC DAUGHTERS OF THE AMERICAS", "city": "BURKE", "state": "NY", "zip": "12917-2825", "ntee": "", "ruling": "197201", "deductibility": "0", "assets": 0, "income": 0, "revenue": 0}, {"ein": "237181824", "name": "CATHOLIC DAUGHTERS OF THE AMERICAS", "city": "MECHANICVILLE", "state": "NY", "zip": "12118-3302", "ntee": "", "ruling": "197201", "deductibility": "1", "assets": 0, "income": 0, "revenue": 0}, {"ein": "237181825", "name": "CATHOLIC DAUGHTERS OF THE AMERICAS", "city": "POUGHKEEPSIE", "state": "NY", "zip": "12601-2308", "ntee": "", "ruling": "197201", "deductibility": "0", "assets": 0, "income": 0, "revenue": 0}, {"ein": "237217471", "name": "CATHOLIC DAUGHTERS OF THE AMERICAS", "city": "LOUDONVILLE", "state": "NY", "zip": "12211-1319", "ntee": "", "ruling": "197201", "deductibility": "1", "assets": 0, "income": 0, "revenue": 0}, {"ein": "237226129", "name": "CATHOLIC DAUGHTERS OF THE AMERICAS", "city": "NEW YORK", "state": "NY", "zip": "10014-2211", "ntee": "", "ruling": "197201", "deductibility": "1", "assets": 0, "income": 0, "revenue": 0}, {"ein": "237273118", "name": "CATHOLIC DAUGHTERS OF THE AMERICAS", "city": "ST JAMES", "state": "NY", "zip": "11780-2520", "ntee": "", "ruling": "197201", "deductibility": "1", "assets": 0, "income": 0, "revenue": 0}, {"ein": "237313815", "name": "CATHOLIC DAUGHTERS OF THE AMERICAS", "city": "LEWIS", "state": "NY", "zip": "12950-1918", "ntee": "", "ruling": "197201", "deductibility": "0", "assets": 0, "income": 0, "revenue": 0}, {"ein": "237418434", "name": "CATHOLIC DAUGHTERS OF THE AMERICAS", "city": "PAINTED POST", "state": "NY", "zip": "14870-9357", "ntee": "", "ruling": "197201", "deductibility": "0", "assets": 0, "income": 0, "revenue": 0}, {"ein": "237564751", "name": "CATHOLIC DAUGHTERS OF THE AMERICAS", "city": "SYRACUSE", "state": "NY", "zip": "13205-3201", "ntee": "", "ruling": "197201", "deductibility": "1", "assets": 0, "income": 0, "revenue": 0}, {"ein": "237564771", "name": "CATHOLIC DAUGHTERS OF THE AMERICAS", "city": "BUFFALO", "state": "NY", "zip": "14220-1819", "ntee": "", "ruling": "194603", "deductibility": "1", "assets": 0, "income": 0, "revenue": 0}, {"ein": "251917117", "name": "CATHOLIC DAUGHTERS OF THE AMERICAS", "city": "WOLCOTT", "state": "NY", "zip": "14590-9362", "ntee": "", "ruling": "194603", "deductibility": "1", "assets": 0, "income": 0, "revenue": 0}, {"ein": "263701623", "name": "ORDER OF MALTA WORLDWIDE RELIEF MALTESER INTERNATIONAL AMERICAS", "city": "NEW YORK", "state": "NY", "zip": "10168-1901", "ntee": "M20", "ruling": "194603", "deductibility": "1", "assets": 1998116, "income": 7171416, "revenue": 7171416}, {"ein": "275054342", "name": "CATHOLIC DAUGHTERS OF THE AMERICAS", "city": "YONKERS", "state": "NY", "zip": "10710-2416", "ntee": "", "ruling": "194603", "deductibility": "1", "assets": 0, "income": 0, "revenue": 0}, {"ein": "300535330", "name": "ONDO UNITY FORUM IN THE AMERICAS", "city": "NEWBURGH", "state": "NY", "zip": "12550-1330", "ntee": "P84", "ruling": "201011", "deductibility": "1", "assets": 0, "income": 0, "revenue": 0}, {"ein": "320247547", "name": "FEDERATION OF MALAYALEE ASSOCIATIONS OF AMERICAS FOMAA", "city": "BELLEROSE", "state": "NY", "zip": "11426-1737", "ntee": "Q30", "ruling": "200911", "deductibility": "1", "assets": 45762, "income": 79097, "revenue": 79097}, {"ein": "320352750", "name": "CATHOLIC DAUGHTERS OF THE AMERICAS COURT ST CLARE OF ASSISI 2648", "city": "NEW CITY", "state": "NY", "zip": "10956-6144", "ntee": "", "ruling": "194603", "deductibility": "1", "assets": 0, "income": 0, "revenue": 0}, {"ein": "320404521", "name": "CATHOLIC DAUGHTER OF THE AMERICAS", "city": "COMMACK", "state": "NY", "zip": "11725-2207", "ntee": "", "ruling": "194603", "deductibility": "1", "assets": 0, "income": 0, "revenue": 0}, {"ein": "331865121", "name": "PARTNERSHIP FOR THE AMERICAS INC", "city": "NEW YORK", "state": "NY", "zip": "10158-1804", "ntee": "S99", "ruling": "202506", "deductibility": "1", "assets": 0, "income": 0, "revenue": 0}, {"ein": "333501230", "name": "AMERICAS NEW FRIENDS INTERNATIONAL INC", "city": "NEW YORK", "state": "NY", "zip": "10037-1515", "ntee": "P20", "ruling": "202503", "deductibility": "1", "assets": 0, "income": 0, "revenue": 0}, {"ein": "364679287", "name": "CATHOLIC DAUGHTERS OF THE AMERICAS", "city": "STOCKTON", "state": "NY", "zip": "14784-9766", "ntee": "", "ruling": "194603", "deductibility": "1", "assets": 0, "income": 0, "revenue": 0}, {"ein": "412277357", "name": "CATHOLIC DAUGHTERS OF THE AMERICAS", "city": "PERU", "state": "NY", "zip": "12972-2901", "ntee": "", "ruling": "194603", "deductibility": "1", "assets": 0, "income": 0, "revenue": 0}, {"ein": "450566406", "name": "SISTERS OF MERCY OF THE AMERICAS NEW YORK PENNSYLVANIA PACIFIC WEST", "city": "ROCHESTER", "state": "NY", "zip": "14610-2211", "ntee": "", "ruling": "194603", "deductibility": "1", "assets": 0, "income": 0, "revenue": 0}, {"ein": "452383686", "name": "RICS AMERICAS INC", "city": "NEW YORK", "state": "NY", "zip": "10165-0542", "ntee": "S40", "ruling": "201201", "deductibility": "2", "assets": 229372, "income": 1417631, "revenue": 1417631}, {"ein": "455489739", "name": "ROBERTSFIELD ASSOCIATION IN THE AMERICAS", "city": "STATEN ISLAND", "state": "NY", "zip": "10304-3632", "ntee": "T50", "ruling": "202502", "deductibility": "1", "assets": 0, "income": 0, "revenue": 0}, {"ein": "462937611", "name": "EMERGENCY MANAGEMENT AMERICAS INC", "city": "NEW YORK", "state": "NY", "zip": "10025-4331", "ntee": "W99", "ruling": "201407", "deductibility": "1", "assets": 0, "income": 0, "revenue": 0}, {"ein": "464830661", "name": "AMERICAS HOPE FOR AMERICAS CHILDREN INC", "city": "WADING RIVER", "state": "NY", "zip": "11792-9371", "ntee": "O12", "ruling": "201409", "deductibility": "1", "assets": 0, "income": 0, "revenue": 0}, {"ein": "465251684", "name": "BE ORIGINAL AMERICAS INC", "city": "NEW YORK", "state": "NY", "zip": "10001-6304", "ntee": "S41", "ruling": "201503", "deductibility": "2", "assets": 101797, "income": 200085, "revenue": 200085}, {"ein": "472264962", "name": "AMERICAS FOUNDATION OF THE SERPENTINE GALLERIES", "city": "NEW YORK", "state": "NY", "zip": "10150-1510", "ntee": "A11", "ruling": "201502", "deductibility": "1", "assets": 203904, "income": 2299885, "revenue": 2299885}, {"ein": "472565267", "name": "HELP ALLIANCE AMERICAS INC", "city": "UNIONDALE", "state": "NY", "zip": "11556-1401", "ntee": "A80", "ruling": "201510", "deductibility": "1", "assets": 0, "income": 0, "revenue": 0}, {"ein": "510140389", "name": "CATHOLIC DAUGHTERS OF THE AMERICAS", "city": "PORT JERVIS", "state": "NY", "zip": "12771-3800", "ntee": "", "ruling": "194603", "deductibility": "1", "assets": 0, "income": 0, "revenue": 0}, {"ein": "510140391", "name": "CATHOLIC DAUGHTERS OF THE AMERICAS", "city": "ALBION", "state": "NY", "zip": "14411-1402", "ntee": "", "ruling": "194603", "deductibility": "1", "assets": 0, "income": 0, "revenue": 0}, {"ein": "510140394", "name": "CATHOLIC DAUGHTERS OF THE AMERICAS", "city": "BINGHAMTON", "state": "NY", "zip": "13905-4054", "ntee": "", "ruling": "197201", "deductibility": "0", "assets": 0, "income": 0, "revenue": 0}, {"ein": "510146202", "name": "CATHOLIC DAUGHTERS OF THE AMERICAS", "city": "SCHUYLERVILLE", "state": "NY", "zip": "12871-1125", "ntee": "", "ruling": "194603", "deductibility": "1", "assets": 0, "income": 0, "revenue": 0}, {"ein": "510178230", "name": "CATHOLIC DAUGHTERS OF THE AMERICAS", "city": "BREWSTER", "state": "NY", "zip": "10509-1214", "ntee": "", "ruling": "197201", "deductibility": "0", "assets": 0, "income": 0, "revenue": 0}, {"ein": "510179175", "name": "CATHOLIC DAUGHTERS OF THE AMERICAS", "city": "WOODSIDE", "state": "NY", "zip": "11377-3646", "ntee": "", "ruling": "194603", "deductibility": "1", "assets": 0, "income": 0, "revenue": 0}, {"ein": "510243409", "name": "SOROPTIMIST INTERNATIONAL OF THE AMERICAS INC", "city": "SARATOGA SPGS", "state": "NY", "zip": "12866-0890", "ntee": "I70", "ruling": "200210", "deductibility": "1", "assets": 76870, "income": 62673, "revenue": 60849}, {"ein": "521999456", "name": "CATHOLIC DAUGHTERS OF THE AMERICAS", "city": "ROME", "state": "NY", "zip": "13440-3338", "ntee": "", "ruling": "194603", "deductibility": "1", "assets": 0, "income": 0, "revenue": 0}, {"ein": "530184107", "name": "COUNCIL OF THE AMERICAS INC", "city": "NEW YORK", "state": "NY", "zip": "10065-5072", "ntee": "", "ruling": "194812", "deductibility": "2", "assets": 6239235, "income": 8298677, "revenue": 8298677}, {"ein": "570999697", "name": "NEW ZION FIRE BAPTIZED HOLINESS CHURCH OF GOD OF THE AMERICAS INC", "city": "LAWRENCE", "state": "NY", "zip": "11559-1208", "ntee": "X21", "ruling": "200105", "deductibility": "1", "assets": 0, "income": 0, "revenue": 0}, {"ein": "611699304", "name": "CATHOLIC DAUGHTERS OF THE AMERICAS", "city": "MORRISONVILLE", "state": "NY", "zip": "12962-0159", "ntee": "", "ruling": "194603", "deductibility": "1", "assets": 0, "income": 0, "revenue": 0}, {"ein": "611755085", "name": "COURT MORRISSEY 1477 CATHOLIC DAUGHTERS OF THE AMERICAS", "city": "ARGYLE", "state": "NY", "zip": "12809-0065", "ntee": "", "ruling": "194603", "deductibility": "1", "assets": 0, "income": 0, "revenue": 0}, {"ein": "680345095", "name": "ISLAMIC SUFI ORDER OF QADIRI RIFAI TARIQA OF THE AMERICAS", "city": "NASSAU", "state": "NY", "zip": "12123-2605", "ntee": "X20Z", "ruling": "199601", "deductibility": "1", "assets": 0, "income": 0, "revenue": 0}, {"ein": "810667627", "name": "IGBARA-OKE CITIZENS IN THE AMERICAS INCORPORATED", "city": "BROOKLYN", "state": "NY", "zip": "11236-4622", "ntee": "Y99", "ruling": "201809", "deductibility": "1", "assets": 0, "income": 0, "revenue": 0}, {"ein": "830547712", "name": "GROW AMERICAS CORP", "city": "GRAHAMSVILLE", "state": "NY", "zip": "12740-5721", "ntee": "Q11", "ruling": "201905", "deductibility": "1", "assets": 0, "income": 0, "revenue": 0}, {"ein": "831042319", "name": "AMERICAS RESPONSE MONUMENT FOUNDATION", "city": "NEW YORK", "state": "NY", "zip": "10019-0000", "ntee": "A84", "ruling": "202409", "deductibility": "1", "assets": 0, "income": 0, "revenue": 0}, {"ein": "833259596", "name": "RELOOPPLATFORM AMERICAS INC", "city": "NEW YORK", "state": "NY", "zip": "10018-7311", "ntee": "S30", "ruling": "201911", "deductibility": "2", "assets": 0, "income": 0, "revenue": 0}, {"ein": "842321344", "name": "SOROPTIMIST INTERNATIONAL OF THE AMERICAS INC", "city": "BROOKLYN", "state": "NY", "zip": "11215-2663", "ntee": "I70", "ruling": "202312", "deductibility": "1", "assets": 0, "income": 0, "revenue": 0}, {"ein": "842466096", "name": "RELOOP AMERICAS RESEARCH INSTITUTE", "city": "NEW YORK", "state": "NY", "zip": "10018-7311", "ntee": "U11", "ruling": "202006", "deductibility": "1", "assets": 642355, "income": 798255, "revenue": 798255}, {"ein": "842647718", "name": "UNITED TAOIST ASSOCIATION OF THE AMERICAS INC", "city": "NEW YORK", "state": "NY", "zip": "10013-3729", "ntee": "X99", "ruling": "202002", "deductibility": "1", "assets": 0, "income": 0, "revenue": 0}, {"ein": "850510946", "name": "ACTION RESEARCH NETWORK OF THE AMERICAS INC", "city": "BROOKLYN", "state": "NY", "zip": "11211-1817", "ntee": "V03", "ruling": "202009", "deductibility": "1", "assets": 0, "income": 0, "revenue": 0}, {"ein": "850811070", "name": "MAKE AMERICAS KIDS HEALTHY AGAIN INC", "city": "PEARL RIVER", "state": "NY", "zip": "10965-1189", "ntee": "O50", "ruling": "202009", "deductibility": "1", "assets": 20, "income": 0, "revenue": 0}, {"ein": "851514220", "name": "CEPT ALUMNI ASSOCIATION OF AMERICAS INC", "city": "ARDSLEY", "state": "NY", "zip": "10502-2530", "ntee": "B84", "ruling": "202212", "deductibility": "1", "assets": 0, "income": 0, "revenue": 0}, {"ein": "873721934", "name": "AMERICAS ROAD GUARDIANS", "city": "CUBA", "state": "NY", "zip": "14727-1421", "ntee": "B82", "ruling": "202203", "deductibility": "1", "assets": 0, "income": 0, "revenue": 0}, {"ein": "877829550", "name": "HELP AMERICAS EDUCATION INC", "city": "KINGSTON", "state": "NY", "zip": "12402-6312", "ntee": "B12", "ruling": "200410", "deductibility": "1", "assets": 1, "income": 1, "revenue": 0}, {"ein": "900647568", "name": "CREDIT SUISSE AMERICAS FOUNDATION", "city": "NEW YORK", "state": "NY", "zip": "10010-3643", "ntee": "T20", "ruling": "201312", "deductibility": "1", "assets": 1, "income": 64199, "revenue": 0}, {"ein": "920675326", "name": "GBARPOLU COUNTY ASSOCIATION IN THE AMERICAS", "city": "STATEN ISLAND", "state": "NY", "zip": "10304-3650", "ntee": "T30", "ruling": "202210", "deductibility": "1", "assets": 0, "income": 0, "revenue": 0}, {"ein": "923231895", "name": "DESERT FLOWER FOUNDATION AMERICAS", "city": "NEW YORK", "state": "NY", "zip": "10022-5827", "ntee": "P30", "ruling": "202410", "deductibility": "1", "assets": 0, "income": 0, "revenue": 0}, {"ein": "931342869", "name": "KERING FOUNDATION IN THE AMERICAS INC", "city": "NEW YORK", "state": "NY", "zip": "10012-2420", "ntee": "R24", "ruling": "202309", "deductibility": "1", "assets": 4431521, "income": 4432000, "revenue": 3371521}, {"ein": "934302808", "name": "ISRAEL BASEBALL AMERICAS INC", "city": "BROOKLYN", "state": "NY", "zip": "11223-5086", "ntee": "N63", "ruling": "202409", "deductibility": "1", "assets": 0, "income": 0, "revenue": 0}, {"ein": "994475011", "name": "DRAPER STARTUP HOUSE AMERICAS INC", "city": "NEW YORK", "state": "NY", "zip": "10001-0074", "ntee": "S43", "ruling": "202503", "deductibility": "1", "assets": 0, "income": 0, "revenue": 0}], "BEING": [{"ein": "020620725", "name": "COMMUNITY WELL-BEING NETWORK INC", "city": "BRONX", "state": "NY", "zip": "10471-1248", "ntee": "S12", "ruling": "202010", "deductibility": "1", "assets": 99356, "income": 0, "revenue": 0}, {"ein": "113272160", "name": "DISCOVERED BEING MINISTRY INC", "city": "NEW YORK", "state": "NY", "zip": "10163-2284", "ntee": "X20Z", "ruling": "199507", "deductibility": "1", "assets": 0, "income": 0, "revenue": 0}, {"ein": "200565715", "name": "FOUNDATION FOR URBAN HEALTH AND WELL BEING", "city": "BRONX", "state": "NY", "zip": "10459-2417", "ntee": "E60", "ruling": "200408", "deductibility": "1", "assets": 48485365, "income": 3041474, "revenue": 1583552}, {"ein": "331119637", "name": "WELL OF BEING SEMINARS INC", "city": "NEW YORK", "state": "NY", "zip": "10029-5768", "ntee": "B60", "ruling": "200603", "deductibility": "1", "assets": 0, "income": 0, "revenue": 0}, {"ein": "471852709", "name": "THE SHINNYO CENTER FOR MEDITATION AND WELL-BEING INC", "city": "NEW YORK", "state": "NY", "zip": "10018-7909", "ntee": "N30", "ruling": "201507", "deductibility": "1", "assets": 95289, "income": 3500, "revenue": 3500}, {"ein": "562348321", "name": "BEING THERE HOME CARE", "city": "NEW YORK", "state": "NY", "zip": "10027-5249", "ntee": "B80", "ruling": "202208", "deductibility": "1", "assets": 0, "income": 0, "revenue": 0}, {"ein": "822783283", "name": "BEING STRONG INTERNATIONAL FOUNDATION FOR SENIORS INC", "city": "ALBERTSON", "state": "NY", "zip": "11507-1101", "ntee": "B99", "ruling": "202010", "deductibility": "1", "assets": 0, "income": 0, "revenue": 0}, {"ein": "920375097", "name": "ARETE MENTAL WELL-BEING AND HUMAN POTENTIAL INC", "city": "NEW YORK", "state": "NY", "zip": "10128-1209", "ntee": "F01", "ruling": "202306", "deductibility": "1", "assets": 204327, "income": 239833, "revenue": 239833}, {"ein": "922514159", "name": "BEING HUMAN VENTURES INC", "city": "S RICHMOND HL", "state": "NY", "zip": "11419-1325", "ntee": "K31", "ruling": "202305", "deductibility": "1", "assets": 0, "income": 0, "revenue": 0}, {"ein": "933621041", "name": "CYNT BEING CYNT AKA TABITHA S MINISTRIES INC", "city": "ROCHESTER", "state": "NY", "zip": "14607-2535", "ntee": "P30", "ruling": "202501", "deductibility": "1", "assets": 0, "income": 0, "revenue": 0}], "IKE": [{"ein": "020711081", "name": "E IKE ESHAGHIAN FOUNDATION INC", "city": "STATEN ISLAND", "state": "NY", "zip": "10314-3514", "ntee": "T20", "ruling": "200502", "deductibility": "1", "assets": 7702503, "income": 1491420, "revenue": 0}], "WOOD": [{"ein": "036005018", "name": "PERCY P WOOD TRUST", "city": "BUFFALO", "state": "NY", "zip": "14240-1504", "ntee": "", "ruling": "197503", "deductibility": "1", "assets": 2491571, "income": 593041, "revenue": 0}, {"ein": "113450678", "name": "GREEN-WOOD HISTORIC FUND INC", "city": "BROOKLYN", "state": "NY", "zip": "11232-1755", "ntee": "A80", "ruling": "199904", "deductibility": "1", "assets": 2672210, "income": 3996597, "revenue": 3818768}, {"ein": "133345691", "name": "WILLOW WOOD COUNTRY CLUB INC", "city": "LINCOLNDALE", "state": "NY", "zip": "10540-0181", "ntee": "", "ruling": "198704", "deductibility": "2", "assets": 708006, "income": 313535, "revenue": 313535}, {"ein": "133440362", "name": "BIG WOOD FOUNDATION", "city": "NEW YORK", "state": "NY", "zip": "10022-8640", "ntee": "", "ruling": "198812", "deductibility": "1", "assets": 9790287, "income": 5329296, "revenue": 0}, {"ein": "133756602", "name": "BIRNAM WOOD ASSOCIATES LTD", "city": "WHITE PLAINS", "state": "NY", "zip": "10605-1830", "ntee": "L80", "ruling": "199511", "deductibility": "1", "assets": 434211, "income": 0, "revenue": 0}, {"ein": "133861585", "name": "ROBERT WOOD DANCE NEW YORK INC", "city": "NEW YORK", "state": "NY", "zip": "10014-2010", "ntee": "A65I", "ruling": "199709", "deductibility": "1", "assets": 0, "income": 0, "revenue": 0}, {"ein": "135120739", "name": "GREEN-WOOD CEMETERY", "city": "BROOKLYN", "state": "NY", "zip": "11232-1755", "ntee": "", "ruling": "194103", "deductibility": "1", "assets": 229883567, "income": 24087279, "revenue": 18383490}, {"ein": "136105376", "name": "WOOD KALB FOUNDATION", "city": "NEW YORK", "state": "NY", "zip": "10014-3042", "ntee": "", "ruling": "195503", "deductibility": "1", "assets": 472492, "income": 65087, "revenue": 0}, {"ein": "141402155", "name": "HEALTH RESEARCH INCORPORATED ELIZABETH WOOD", "city": "MENANDS", "state": "NY", "zip": "12204-2732", "ntee": "H300", "ruling": "195503", "deductibility": "1", "assets": 900509246, "income": 1684970162, "revenue": 1063879116}, {"ein": "141781857", "name": "CHARLES R WOOD THEATER INC", "city": "GLENS FALLS", "state": "NY", "zip": "12801-3506", "ntee": "A61", "ruling": "200101", "deductibility": "1", "assets": 2356856, "income": 620398, "revenue": 619948}, {"ein": "150546726", "name": "WILD WOOD CEMETERY ASSOCIATION INCORPORATED", "city": "LYONS FALLS", "state": "NY", "zip": "13368-0495", "ntee": "", "ruling": "195105", "deductibility": "1", "assets": 0, "income": 0, "revenue": 0}, {"ein": "160755896", "name": "WOOD LIBRARY ASSOCIATION", "city": "CANANDAIGUA", "state": "NY", "zip": "14424-1234", "ntee": "", "ruling": "194509", "deductibility": "1", "assets": 9311546, "income": 2336511, "revenue": 1673120}, {"ein": "161546219", "name": "WOOD & BROOK SPORTSMANS CLUB INC", "city": "ALDEN", "state": "NY", "zip": "14004-0089", "ntee": "N50", "ruling": "202406", "deductibility": "2", "assets": 0, "income": 0, "revenue": 0}, {"ein": "166052932", "name": "FRIENDS OF THE WOOD LIBRARY ASSOCIATION", "city": "CANANDAIGUA", "state": "NY", "zip": "14424-1234", "ntee": "", "ruling": "196410", "deductibility": "1", "assets": 0, "income": 0, "revenue": 0}, {"ein": "166280038", "name": "WALTON CENTRAL SCHOOL DISTRICT 1 TRUST U W HENRY L WOOD", "city": "ONEONTA", "state": "NY", "zip": "13820-0430", "ntee": "", "ruling": "198703", "deductibility": "1", "assets": 115770, "income": 24299, "revenue": 0}, {"ein": "166280039", "name": "WILLIAM B OGDEN FREE LIBRARY TUW HENRY L WOOD C/O THE NATIONAL BANK", "city": "ONEONTA", "state": "NY", "zip": "13820-0430", "ntee": "", "ruling": "000000", "deductibility": "0", "assets": 111639, "income": 25284, "revenue": 0}, {"ein": "201166291", "name": "WESTCHESTER ROCKLAND WOOD BAT LEAGUE INC", "city": "NEW YORK", "state": "NY", "zip": "10128-3240", "ntee": "N50", "ruling": "200501", "deductibility": "2", "assets": 0, "income": 0, "revenue": 0}, {"ein": "206795348", "name": "BERT AND EMMA LAMONTE@WOOD TRUST", "city": "BUFFALO", "state": "NY", "zip": "14240-1504", "ntee": "T90", "ruling": "200609", "deductibility": "1", "assets": 351087, "income": 96681, "revenue": 0}, {"ein": "223213107", "name": "FOX WOOD WILDLIFE RESCUE INC", "city": "EAST CONCORD", "state": "NY", "zip": "14055-9716", "ntee": "D34Z", "ruling": "199704", "deductibility": "1", "assets": 0, "income": 0, "revenue": 0}, {"ein": "237831211", "name": "LUELLA WOOD TRUST UW CHARITABLE 4B21017", "city": "BUFFALO", "state": "NY", "zip": "14240-1504", "ntee": "", "ruling": "000000", "deductibility": "0", "assets": 320072, "income": 106783, "revenue": 0}, {"ein": "261740434", "name": "STONEHOUSE WOOD SANCTUARY", "city": "RHINEBECK", "state": "NY", "zip": "12572-3232", "ntee": "D30", "ruling": "200805", "deductibility": "1", "assets": 23929, "income": 148544, "revenue": 0}, {"ein": "262815968", "name": "NEWLAND WOOD LADIES AUXILIARY", "city": "STILLWATER", "state": "NY", "zip": "12170-0621", "ntee": "M11", "ruling": "202407", "deductibility": "1", "assets": 0, "income": 0, "revenue": 0}, {"ein": "270921554", "name": "FINGER LAKES WOOD TURNERS", "city": "SODUS", "state": "NY", "zip": "14551-1018", "ntee": "A25", "ruling": "201509", "deductibility": "1", "assets": 0, "income": 0, "revenue": 0}, {"ein": "320788046", "name": "WOOD FAMILY FOUNDATION INC", "city": "MATTITUCK", "state": "NY", "zip": "11952-3354", "ntee": "T50", "ruling": "202411", "deductibility": "1", "assets": 881, "income": 15000, "revenue": 0}, {"ein": "396171684", "name": "WOOD FAMILY FOUNDATION INC", "city": "NEW YORK", "state": "NY", "zip": "10025-2750", "ntee": "", "ruling": "197311", "deductibility": "1", "assets": 241181, "income": 15023, "revenue": 0}, {"ein": "800341648", "name": "REGINALD WOOD MEMORIAL INC", "city": "HAMMONDSPORT", "state": "NY", "zip": "14840-0144", "ntee": "B82", "ruling": "201004", "deductibility": "1", "assets": 412741, "income": 126271, "revenue": 28173}, {"ein": "825454788", "name": "JOEY WOOD FOUNDATION INC", "city": "WEST ISLIP", "state": "NY", "zip": "11795-5011", "ntee": "B82", "ruling": "202205", "deductibility": "1", "assets": 0, "income": 0, "revenue": 0}, {"ein": "836698611", "name": "WOOD DOCK FOUNDATION", "city": "SAUGERTIES", "state": "NY", "zip": "12477-4390", "ntee": "T20", "ruling": "202003", "deductibility": "1", "assets": 140610, "income": 362536, "revenue": 0}, {"ein": "844959677", "name": "GEORGE A WOOD FOUNDATION INC", "city": "UTICA", "state": "NY", "zip": "13501-5209", "ntee": "T50", "ruling": "202003", "deductibility": "1", "assets": 7954, "income": 1500, "revenue": 0}, {"ein": "920971930", "name": "WOOD & WATER INTERNATIONAL FOUNDATION", "city": "NEW YORK", "state": "NY", "zip": "10019-8760", "ntee": "S20", "ruling": "202301", "deductibility": "1", "assets": 0, "income": 0, "revenue": 0}], "HACHOVESH": [{"ein": "043140765", "name": "AMERICAN FRIENDS OF HACHOVESH HAR NOF INC", "city": "SPRING VALLEY", "state": "NY", "zip": "10977-2130", "ntee": "", "ruling": "199303", "deductibility": "1", "assets": 0, "income": 0, "revenue": 0}], "BAPTIS": [{"ein": "046349981", "name": "STEPHEN H ELLIOTT TR FBO IST BAPTIS CHURCH & CENTERVILLE CHRIST ENDEAV", "city": "BUFFALO", "state": "NY", "zip": "14240-1504", "ntee": "", "ruling": "198812", "deductibility": "1", "assets": 2204596, "income": 770761, "revenue": 98191}], "HO": [{"ein": "050613835", "name": "Y C HO HELEN & MICHAEL CHIANG FOUNDATION", "city": "NEW YORK", "state": "NY", "zip": "10167-0000", "ntee": "T22", "ruling": "200705", "deductibility": "1", "assets": 81210224, "income": 10985417, "revenue": 0}, {"ein": "111349700", "name": "SOUTHWARD HO COUNTRY CLUB INC", "city": "BAY SHORE", "state": "NY", "zip": "11706-8223", "ntee": "", "ruling": "194207", "deductibility": "2", "assets": 20708925, "income": 16204422, "revenue": 12498317}, {"ein": "146075558", "name": "GUAN HO HA FISH & GAME CLUB INC", "city": "SCOTIA", "state": "NY", "zip": "12302-6713", "ntee": "", "ruling": "198209", "deductibility": "2", "assets": 683944, "income": 328234, "revenue": 225666}, {"ein": "161170153", "name": "AGAPE MEDITATION GARDEN C/O SOO HO HAN", "city": "GOWANDA", "state": "NY", "zip": "14070-1304", "ntee": "", "ruling": "199106", "deductibility": "1", "assets": 0, "income": 0, "revenue": 0}, {"ein": "271060658", "name": "HO & HO LOR CHARITABLE FOUNDATION", "city": "NEW YORK", "state": "NY", "zip": "10002-8124", "ntee": "T22", "ruling": "201010", "deductibility": "1", "assets": 1655251, "income": 171482, "revenue": 0}, {"ein": "332073648", "name": "HO FAMILY CHRISTIAN FOUNDATION INC", "city": "HILTON", "state": "NY", "zip": "14468-9335", "ntee": "X11", "ruling": "202504", "deductibility": "1", "assets": 0, "income": 0, "revenue": 0}, {"ein": "421755544", "name": "LUM SAI-HO BENEVOLENT ASSOCIATION INC", "city": "NEW YORK", "state": "NY", "zip": "10038-1271", "ntee": "A01", "ruling": "202002", "deductibility": "1", "assets": 0, "income": 0, "revenue": 0}, {"ein": "884405879", "name": "CHUN HO CHUNG FOUNDATION INC", "city": "NEW YORK", "state": "NY", "zip": "10001-5919", "ntee": "T31", "ruling": "202301", "deductibility": "1", "assets": 411197, "income": 111197, "revenue": 111197}, {"ein": "994204541", "name": "CHRISTOPHER K HO FOUNDATION", "city": "NEW YORK", "state": "NY", "zip": "10010-7260", "ntee": "T20", "ruling": "202504", "deductibility": "1", "assets": 0, "income": 0, "revenue": 0}], "FALCON": [{"ein": "061175497", "name": "FALCON GUN & ROD CLUB INC", "city": "NEW YORK", "state": "NY", "zip": "10025-7871", "ntee": "", "ruling": "199612", "deductibility": "2", "assets": 0, "income": 0, "revenue": 0}, {"ein": "160958325", "name": "FALCON SPORTSMEN INC C O GEORGE WESTLAKE", "city": "AUBURN", "state": "NY", "zip": "13021-0083", "ntee": "", "ruling": "197807", "deductibility": "1", "assets": 172146, "income": 28214, "revenue": 24570}, {"ein": "263277448", "name": "FALCON SPIKED SHOE CLUB", "city": "TAPPAN", "state": "NY", "zip": "10983-0211", "ntee": "N126", "ruling": "200905", "deductibility": "1", "assets": 0, "income": 0, "revenue": 0}, {"ein": "450464213", "name": "FALCON PRIDE ASSOCIATION INC", "city": "BAYVILLE", "state": "NY", "zip": "11709-0041", "ntee": "B112", "ruling": "200301", "deductibility": "1", "assets": 1, "income": 0, "revenue": 0}, {"ein": "834229363", "name": "FALCON HEART RESCUE INC", "city": "HERKIMER", "state": "NY", "zip": "13350-1422", "ntee": "D60", "ruling": "201904", "deductibility": "1", "assets": 11660, "income": 3992, "revenue": 3992}], "HARBOUR": [{"ein": "110871375", "name": "HEMPSTEAD HARBOUR CLUB", "city": "GLEN COVE", "state": "NY", "zip": "11542-0192", "ntee": "", "ruling": "197203", "deductibility": "2", "assets": 871183, "income": 566387, "revenue": 563366}, {"ein": "111668322", "name": "BROADLAWN HARBOUR ASSOCIATION INC", "city": "GREAT NECK", "state": "NY", "zip": "11023-4414", "ntee": "", "ruling": "195303", "deductibility": "2", "assets": 94757, "income": 211352, "revenue": 211352}, {"ein": "111869907", "name": "HARBOUR GREEN SHORE CLUB INC", "city": "MASSAPEQUA PK", "state": "NY", "zip": "11762-0023", "ntee": "", "ruling": "195910", "deductibility": "2", "assets": 1416117, "income": 461971, "revenue": 461971}, {"ein": "111893877", "name": "GREEN HARBOUR BEACH CLUB INC", "city": "MASSAPEQUA", "state": "NY", "zip": "11758-0315", "ntee": "N50", "ruling": "200501", "deductibility": "2", "assets": 301219, "income": 275953, "revenue": 275953}, {"ein": "113192098", "name": "OLD HARBOUR AND FRIENDS ASSOCIATION", "city": "S HEMPSTEAD", "state": "NY", "zip": "11550-7907", "ntee": "B111", "ruling": "199607", "deductibility": "1", "assets": 0, "income": 0, "revenue": 0}, {"ein": "134219431", "name": "TRUE HARBOUR CIVIC ASSOCIATION INC", "city": "MELVILLE", "state": "NY", "zip": "11747-1563", "ntee": "S22", "ruling": "200307", "deductibility": "2", "assets": 0, "income": 0, "revenue": 0}, {"ein": "333510156", "name": "ORTHODOX CHRISTIAN HARBOUR INC", "city": "ALBANY", "state": "NY", "zip": "12207-2834", "ntee": "P12", "ruling": "202503", "deductibility": "1", "assets": 0, "income": 0, "revenue": 0}, {"ein": "432013869", "name": "PINE HARBOUR INC", "city": "PLATTSBURGH", "state": "NY", "zip": "12903-4022", "ntee": "P75", "ruling": "200607", "deductibility": "1", "assets": 7503043, "income": 4501667, "revenue": 4501667}], "OLIVET": [{"ein": "111104650", "name": "MOUNT OLIVET CEMETERY", "city": "MASPETH", "state": "NY", "zip": "11378-2423", "ntee": "", "ruling": "193503", "deductibility": "1", "assets": 18091922, "income": 3129332, "revenue": 1927607}, {"ein": "111805348", "name": "OLIVET BAPTIST CHURCH", "city": "VALLEY STREAM", "state": "NY", "zip": "11581-2024", "ntee": "", "ruling": "195504", "deductibility": "1", "assets": 0, "income": 0, "revenue": 0}, {"ein": "112574606", "name": "MT OLIVET GOSPEL CHURCH", "city": "CORONA", "state": "NY", "zip": "11368-1033", "ntee": "X20P", "ruling": "199508", "deductibility": "1", "assets": 0, "income": 0, "revenue": 0}, {"ein": "112675754", "name": "MT OLIVET BAPTIST CHURCH OF HOLLIS", "city": "SAINT ALBANS", "state": "NY", "zip": "11412-1801", "ntee": "X21", "ruling": "201605", "deductibility": "1", "assets": 0, "income": 0, "revenue": 0}, {"ein": "113054732", "name": "WORLD OF CHURCHES OF THE MT OLIVET DISCIPLESHIP IN CHRIST INC", "city": "BROOKLYN", "state": "NY", "zip": "11203-2015", "ntee": "", "ruling": "199211", "deductibility": "1", "assets": 0, "income": 0, "revenue": 0}, {"ein": "131659628", "name": "MT OLIVET BAPTIST CHURCH", "city": "NEW YORK", "state": "NY", "zip": "10027-6337", "ntee": "", "ruling": "195504", "deductibility": "1", "assets": 0, "income": 0, "revenue": 0}, {"ein": "132885454", "name": "OLIVET GOSPEL ASSEMBLY CHURCH", "city": "BRONX", "state": "NY", "zip": "10466-2508", "ntee": "", "ruling": "199204", "deductibility": "1", "assets": 0, "income": 0, "revenue": 0}, {"ein": "132992973", "name": "MT OLIVET APOSTOLIC FAITH CHURCH", "city": "MT VERNON", "state": "NY", "zip": "10550-4313", "ntee": "", "ruling": "197910", "deductibility": "1", "assets": 0, "income": 0, "revenue": 0}, {"ein": "133178692", "name": "OLIVET-ST VINCENTS HOUSING DEVELOPMENT FUND COMPANY INC", "city": "STATEN ISLAND", "state": "NY", "zip": "10314-6400", "ntee": "", "ruling": "198502", "deductibility": "1", "assets": 10291955, "income": 1926989, "revenue": 1926989}, {"ein": "133621607", "name": "MOUNT OLIVET BAPTIST CHURCH", "city": "PEEKSKILL", "state": "NY", "zip": "10566-4019", "ntee": "", "ruling": "195504", "deductibility": "1", "assets": 0, "income": 0, "revenue": 0}, {"ein": "133652992", "name": "MOUNT OLIVET HOUSING DEVELOPMENT FUND COMPANY INC", "city": "PEEKSKILL", "state": "NY", "zip": "10566-8404", "ntee": "L80I", "ruling": "199612", "deductibility": "1", "assets": 184169, "income": 44206, "revenue": 44206}, {"ein": "160968494", "name": "MOUNT OLIVET BAPTIST CHURCH", "city": "ROCHESTER", "state": "NY", "zip": "14608-2211", "ntee": "", "ruling": "195504", "deductibility": "1", "assets": 0, "income": 0, "revenue": 0}, {"ein": "200996359", "name": "MOUNT OLIVET MISSIONARY BAPTIST CHURCH", "city": "SCHENECTADY", "state": "NY", "zip": "12308-2802", "ntee": "", "ruling": "195504", "deductibility": "0", "assets": 0, "income": 0, "revenue": 0}, {"ein": "223297208", "name": "MT OLIVET BAPTIST CHURCH", "city": "SARATOGA SPGS", "state": "NY", "zip": "12866-0000", "ntee": "X20Z", "ruling": "199502", "deductibility": "1", "assets": 0, "income": 0, "revenue": 0}, {"ein": "461616553", "name": "WORLD OLIVET ASSEMBLY INC", "city": "DOVER PLAINS", "state": "NY", "zip": "12522-5771", "ntee": "X90", "ruling": "201702", "deductibility": "1", "assets": 91611996, "income": 17208664, "revenue": 17208664}, {"ein": "571147186", "name": "OLIVET SEVENTH DAY CHURCH", "city": "BROOKLYN", "state": "NY", "zip": "11203-3711", "ntee": "X20", "ruling": "200309", "deductibility": "1", "assets": 13904, "income": 4490, "revenue": 4490}, {"ein": "611989892", "name": "OLIVET CEMETARY ASSOCIATION INC", "city": "PAVILION", "state": "NY", "zip": "14525-9206", "ntee": "Y50", "ruling": "202204", "deductibility": "1", "assets": 0, "income": 0, "revenue": 0}, {"ein": "810683419", "name": "OLIVET ACADEMY", "city": "AMENIA", "state": "NY", "zip": "12501-5240", "ntee": "B24", "ruling": "202007", "deductibility": "1", "assets": 4272858, "income": 2636568, "revenue": 2636568}, {"ein": "882158874", "name": "OLIVET ACADEMY EARLY LEARNING CENTER", "city": "WINGDALE", "state": "NY", "zip": "12594-1742", "ntee": "P33", "ruling": "202304", "deductibility": "1", "assets": 38913, "income": 371596, "revenue": 371596}, {"ein": "931592171", "name": "OLIVET GOSPEL ASSEMBLY COMMUNITY OUTREACH INC", "city": "BRONX", "state": "NY", "zip": "10466-2508", "ntee": "K31", "ruling": "202306", "deductibility": "1", "assets": 0, "income": 0, "revenue": 0}, {"ein": "990610482", "name": "OLIVET ACADEMY NYC", "city": "NEW YORK", "state": "NY", "zip": "10007-2721", "ntee": "B20", "ruling": "202501", "deductibility": "1", "assets": 2031, "income": 138822, "revenue": 138822}], "AGED": [{"ein": "111630754", "name": "BROOKLYN HOME FOR AGED MEN", "city": "STATEN ISLAND", "state": "NY", "zip": "10314-0000", "ntee": "", "ruling": "193603", "deductibility": "1", "assets": 212712, "income": 167655, "revenue": 0}, {"ein": "111672777", "name": "MENORAH HOME & HOSPITAL FOR THE AGED & INFIRM", "city": "NEW YORK", "state": "NY", "zip": "10041-3211", "ntee": "E910", "ruling": "193812", "deductibility": "1", "assets": 84317134, "income": 79505470, "revenue": 79505470}, {"ein": "111694718", "name": "SEPHARDIC HOME FOR THE AGED FOUNDATION", "city": "NEW YORK", "state": "NY", "zip": "10019-8716", "ntee": "E91", "ruling": "195410", "deductibility": "1", "assets": 67601683, "income": 18948114, "revenue": 0}, {"ein": "112204939", "name": "HOME FOR THE AGED OF THE LITTLE SISTERS OF THE POOR", "city": "QUEENS VLG", "state": "NY", "zip": "11429-2531", "ntee": "E910", "ruling": "194603", "deductibility": "1", "assets": 8024723, "income": 7073224, "revenue": 6509779}, {"ein": "116163310", "name": "BROOKLYN HOME FOR AGED MEN TR", "city": "BUFFALO", "state": "NY", "zip": "14203-2842", "ntee": "", "ruling": "000000", "deductibility": "0", "assets": 0, "income": 0, "revenue": 0}, {"ein": "131635302", "name": "MOUNT CARMEL HOME FOR THE AGED & INFIRM", "city": "NEW YORK", "state": "NY", "zip": "10022-4112", "ntee": "", "ruling": "194603", "deductibility": "1", "assets": 0, "income": 0, "revenue": 0}, {"ein": "131663975", "name": "UNITED HOME FOR AGED HEBREWS", "city": "NEW ROCHELLE", "state": "NY", "zip": "10805-2225", "ntee": "E91Z", "ruling": "193801", "deductibility": "1", "assets": 40339372, "income": 39218177, "revenue": 39218014}, {"ein": "131739916", "name": "BAPTIST HOME FOR THE AGED", "city": "NEW YORK", "state": "NY", "zip": "10024-6114", "ntee": "L22Z", "ruling": "193206", "deductibility": "1", "assets": 3791272, "income": 103746, "revenue": 103746}, {"ein": "131739971", "name": "HEBREW HOME FOR THE AGED", "city": "BRONX", "state": "NY", "zip": "10471-1205", "ntee": "E90", "ruling": "193711", "deductibility": "1", "assets": 173421768, "income": 105805242, "revenue": 104853438}, {"ein": "131740003", "name": "METHODIST CHURCH HOME FOR THE AGED IN THE CITY OF NEW YORK", "city": "BRONX", "state": "NY", "zip": "10471-3919", "ntee": "E910", "ruling": "192004", "deductibility": "1", "assets": 64402690, "income": 23439296, "revenue": 22950987}, {"ein": "131740033", "name": "ST PATRICKS HOME FOR THE AGED AND INFIRM", "city": "BRONX", "state": "NY", "zip": "10463-3102", "ntee": "E910", "ruling": "194603", "deductibility": "1", "assets": 20204425, "income": 35064226, "revenue": 35064226}, {"ein": "131884785", "name": "HOME FOR THE AGED OF THE LITTLE SIS TERS OF THE POOR OF THE CITY OF NY", "city": "BRONX", "state": "NY", "zip": "10465-3826", "ntee": "E910", "ruling": "194603", "deductibility": "1", "assets": 33685532, "income": 2137063, "revenue": 2047436}, {"ein": "132620896", "name": "THE JEWISH ASSOCIATION FOR SERVICES FOR THE AGED", "city": "NEW YORK", "state": "NY", "zip": "10018-5193", "ntee": "P810", "ruling": "196903", "deductibility": "1", "assets": 56497402, "income": 61861412, "revenue": 61668004}, {"ein": "132666921", "name": "FIND AID FOR THE AGED INC", "city": "NEW YOK", "state": "NY", "zip": "10023-3901", "ntee": "P810", "ruling": "197005", "deductibility": "1", "assets": 27764761, "income": 6481093, "revenue": 6447930}, {"ein": "132911684", "name": "BRONXWOOD HOME FOR THE AGED INC", "city": "BRONX", "state": "NY", "zip": "10467-6107", "ntee": "E910", "ruling": "197812", "deductibility": "1", "assets": 6581263, "income": 13602419, "revenue": 13593826}, {"ein": "132951640", "name": "ASSOCIATION FOR SERVICES FOR THE AGED INC", "city": "NEW YORK", "state": "NY", "zip": "10018-5706", "ntee": "P44Z", "ruling": "197811", "deductibility": "1", "assets": 0, "income": 0, "revenue": 0}, {"ein": "132981097", "name": "ROCKLAND HOME FOR THE AGED HOUSING DEVELOPMENT FUND COMPANY INC", "city": "SUFFERN", "state": "NY", "zip": "10901-4712", "ntee": "L21Z", "ruling": "197906", "deductibility": "1", "assets": 5829100, "income": 1672126, "revenue": 1672126}, {"ein": "133078676", "name": "JASA HOUSING MANAGEMENT SERVICES FOR THE AGED INC", "city": "NEW YORK", "state": "NY", "zip": "10018-5193", "ntee": "L11", "ruling": "200610", "deductibility": "1", "assets": 1452100, "income": 4907353, "revenue": 4907353}, {"ein": "133124614", "name": "COALITION OF INSTITUTIONALIZED AGED AND DISABLED", "city": "NEW YORK", "state": "NY", "zip": "10013-0000", "ntee": "", "ruling": "198209", "deductibility": "1", "assets": 250069, "income": 427597, "revenue": 427597}, {"ein": "133200109", "name": "SERVICES FOR THE AGED INC", "city": "NEW YORK", "state": "NY", "zip": "10018-5706", "ntee": "P44Z", "ruling": "198501", "deductibility": "1", "assets": 9576590, "income": 28803586, "revenue": 28803586}, {"ein": "133317271", "name": "HARLEM INTERAGENCY COUNCIL FOR THE AGED INC", "city": "NEW YORK", "state": "NY", "zip": "10037-1507", "ntee": "", "ruling": "199306", "deductibility": "1", "assets": 0, "income": 0, "revenue": 0}, {"ein": "133603516", "name": "FUND FOR THE AGED INC", "city": "NEW YORK", "state": "NY", "zip": "10025-3923", "ntee": "P120", "ruling": "199112", "deductibility": "1", "assets": 94234693, "income": 82909772, "revenue": 5964288}, {"ein": "133905709", "name": "METHODIST CHURCH HOME FOR THE AGED IN THE CITY OF NEW YORK FUND", "city": "BRONX", "state": "NY", "zip": "10471-3919", "ntee": "T99I", "ruling": "199707", "deductibility": "1", "assets": 0, "income": 0, "revenue": 0}, {"ein": "136119740", "name": "FELLOWSHIP FUND FOR THE AGED HOUSING CO", "city": "NEW YORK", "state": "NY", "zip": "10018-6553", "ntee": "L22Z", "ruling": "196304", "deductibility": "1", "assets": 8160674, "income": 321011, "revenue": 321011}, {"ein": "141364559", "name": "LOUIS F PAYN FOUNDATION FOR AGED PEOPLE", "city": "CHATHAM", "state": "NY", "zip": "12037-1327", "ntee": "", "ruling": "194307", "deductibility": "1", "assets": 249575, "income": 441845, "revenue": 0}, {"ein": "141365995", "name": "AMOS F & SARAH L HOLDEN HOME FOR AGED WOMEN", "city": "NEWBURGH", "state": "NY", "zip": "12550-4851", "ntee": "", "ruling": "193605", "deductibility": "1", "assets": 1, "income": 352055, "revenue": 0}, {"ein": "141369151", "name": "CARMELITE SISTERS FOR THE AGED AND INFIRM", "city": "GERMANTOWN", "state": "NY", "zip": "12526-5639", "ntee": "", "ruling": "194603", "deductibility": "1", "assets": 0, "income": 0, "revenue": 0}, {"ein": "141372655", "name": "WASHINGTON COUNTY HOME FOR AGED WOMEN INC", "city": "GLENS FALLS", "state": "NY", "zip": "12801-2161", "ntee": "", "ruling": "194505", "deductibility": "1", "assets": 1287033, "income": 360480, "revenue": 0}, {"ein": "141436628", "name": "HUDSON NY HOME FOR THE AGED", "city": "HUDSON", "state": "NY", "zip": "12534-2355", "ntee": "", "ruling": "194806", "deductibility": "1", "assets": 2756998, "income": 235883, "revenue": 0}, {"ein": "160743146", "name": "ST ANNS HOME FOR THE AGED", "city": "ROCHESTER", "state": "NY", "zip": "14621-3065", "ntee": "E910", "ruling": "197811", "deductibility": "1", "assets": 116311213, "income": 78529079, "revenue": 75017093}, {"ein": "160743154", "name": "ST ELIZABETHS HOME FOR THE AGED", "city": "BUFFALO", "state": "NY", "zip": "14203-1560", "ntee": "", "ruling": "194603", "deductibility": "1", "assets": 0, "income": 0, "revenue": 0}, {"ein": "160743167", "name": "ST VINCENTS HOME FOR THE AGED", "city": "BUFFALO", "state": "NY", "zip": "14203-1560", "ntee": "", "ruling": "194603", "deductibility": "1", "assets": 0, "income": 0, "revenue": 0}, {"ein": "204352212", "name": "HEBREW HOME FOR THE AGED ATRIVERDALE FOUNDATION INC", "city": "BRONX", "state": "NY", "zip": "10471-1205", "ntee": "I122", "ruling": "200606", "deductibility": "1", "assets": 67039928, "income": 19723026, "revenue": 8541307}, {"ein": "222239172", "name": "PINECREST VOLUNTARY HOME FOR THE AGED INC", "city": "AVOCA", "state": "NY", "zip": "14809-9765", "ntee": "P75Z", "ruling": "197906", "deductibility": "1", "assets": 192249, "income": 211323, "revenue": 35652}, {"ein": "237167091", "name": "ROCKLAND COUNTY JEWISH HOME FOR THE AGED INC", "city": "SUFFERN", "state": "NY", "zip": "10901-4712", "ntee": "P75Z", "ruling": "197201", "deductibility": "1", "assets": 1607163, "income": 597933, "revenue": 40239}, {"ein": "240832764", "name": "HOME FOR THE AGED OF THE LITTLE SISTERS OF THE POOR", "city": "QUEENS VLG", "state": "NY", "zip": "11429-2531", "ntee": "P750", "ruling": "194603", "deductibility": "1", "assets": 2718864, "income": 98382, "revenue": 98382}, {"ein": "352799401", "name": "AGED TO PERFECTION INC", "city": "ROME", "state": "NY", "zip": "13440-7834", "ntee": "P81", "ruling": "202305", "deductibility": "1", "assets": 0, "income": 0, "revenue": 0}, {"ein": "462741258", "name": "AGED AND INFIRM TRUST", "city": "NEW YORK", "state": "NY", "zip": "10028-0810", "ntee": "", "ruling": "194603", "deductibility": "1", "assets": 0, "income": 0, "revenue": 0}, {"ein": "811564859", "name": "CARMELITE SISTERS FOR THE AGED AND INFIRM CONTINUING CARE TRUST", "city": "GERMANTOWN", "state": "NY", "zip": "12526-5644", "ntee": "", "ruling": "194603", "deductibility": "1", "assets": 0, "income": 0, "revenue": 0}, {"ein": "900882514", "name": "MISSIONARY SISTERS OF SAINT BENEDICT HOME FOR THE AGED INC", "city": "HUNTINGTON", "state": "NY", "zip": "11743-4813", "ntee": "", "ruling": "194603", "deductibility": "1", "assets": 4280475, "income": 1662005, "revenue": 1513373}], "ORTH": [{"ein": "111677138", "name": "HELLENIC ORTH COMMUNITY OF CORONA & VICINITY", "city": "CORONA", "state": "NY", "zip": "11368-0000", "ntee": "X20", "ruling": "200210", "deductibility": "1", "assets": 0, "income": 0, "revenue": 0}, {"ein": "113474497", "name": "SPECIAL FUND IMO SOTIROS N CACHULES FBO ST PAULS GREEK ORTH CHURCH", "city": "HEMPSTEAD", "state": "NY", "zip": "11550-2050", "ntee": "X11", "ruling": "200101", "deductibility": "1", "assets": 2508911, "income": 217218, "revenue": 217218}, {"ein": "113498583", "name": "VOELKER-ORTH MUSEUM", "city": "FLUSHING", "state": "NY", "zip": "11354-4839", "ntee": "T22", "ruling": "200006", "deductibility": "1", "assets": 6998722, "income": 785294, "revenue": 0}], "CAROLINE": [{"ein": "112330287", "name": "CAROLINE CHURCH OF BROOKHAVEN", "city": "SETAUKET", "state": "NY", "zip": "11733-3052", "ntee": "", "ruling": "197206", "deductibility": "1", "assets": 0, "income": 0, "revenue": 0}, {"ein": "113078596", "name": "PETER & CAROLINE STRIANO FOUNDATION INC", "city": "NEW YORK", "state": "NY", "zip": "10155-0002", "ntee": "", "ruling": "199207", "deductibility": "1", "assets": 4728069, "income": 555069, "revenue": 0}, {"ein": "133573461", "name": "CAROLINE & JOSEPH S GRUSS LIFE MONUMENT FUNDS INC", "city": "BROOKLYN", "state": "NY", "zip": "11232-2713", "ntee": "B120", "ruling": "199106", "deductibility": "1", "assets": 6238298, "income": 1887456, "revenue": 1887456}, {"ein": "136808843", "name": "CAROLINE LASTER TRUST FBO THOMAS", "city": "CHAPPAQUA", "state": "NY", "zip": "10514-1622", "ntee": "", "ruling": "000000", "deductibility": "0", "assets": 0, "income": 0, "revenue": 0}, {"ein": "161287127", "name": "CAROLINE SENIORS INC", "city": "DRYDEN", "state": "NY", "zip": "13053-0000", "ntee": "", "ruling": "198805", "deductibility": "1", "assets": 1874724, "income": 259078, "revenue": 259078}, {"ein": "161304786", "name": "CAROLINE AFTERSCHOOL PROGRAM INC", "city": "SLATERVLE SPG", "state": "NY", "zip": "14881-9402", "ntee": "P33", "ruling": "200001", "deductibility": "1", "assets": 245450, "income": 407102, "revenue": 407102}, {"ein": "161386549", "name": "CAROLINE LODGE NO 681 F & A M", "city": "SLATERVLE SPG", "state": "NY", "zip": "14881-0072", "ntee": "Y42", "ruling": "201803", "deductibility": "1", "assets": 0, "income": 0, "revenue": 0}, {"ein": "166443263", "name": "CAROLINE H GOODRICH TRUST UW THE CATSKILLS HUMANE SOCIETY", "city": "DELHI", "state": "NY", "zip": "13753-1213", "ntee": "Z99", "ruling": "202207", "deductibility": "1", "assets": 289124, "income": 64222, "revenue": 0}, {"ein": "166510492", "name": "L CAROLINE UNDERWOOD HISTORICAL MUSEUM", "city": "KEUKA PARK", "state": "NY", "zip": "14478-0087", "ntee": "A54", "ruling": "200105", "deductibility": "1", "assets": 1073026, "income": 141118, "revenue": 0}, {"ein": "223087449", "name": "KILIAN J & CAROLINE F SCHMITT FOUNDATION INC", "city": "PITTSFORD", "state": "NY", "zip": "14534-0000", "ntee": "", "ruling": "199101", "deductibility": "1", "assets": 12441584, "income": 637680, "revenue": 0}, {"ein": "256193403", "name": "CAROLINE S SNIVELY TR 1471 UW 04-25-74 FBO ST ANDREWS CHURCH", "city": "BUFFALO", "state": "NY", "zip": "14240-1504", "ntee": "T20", "ruling": "200507", "deductibility": "1", "assets": 175773, "income": 52323, "revenue": 0}, {"ein": "256912419", "name": "CAROLINE GITTIS WERTHER AND DANIEL WERTHER FAM FOUNDTION", "city": "NEW YORK", "state": "NY", "zip": "10075-0385", "ntee": "T22", "ruling": "201003", "deductibility": "1", "assets": 26741, "income": 40892, "revenue": 0}, {"ein": "383712448", "name": "CAROLINE WAMBUI MUNGAI FOUNDATION", "city": "NORTH BALDWIN", "state": "NY", "zip": "11510-1201", "ntee": "P70", "ruling": "200604", "deductibility": "1", "assets": 3487, "income": 41435, "revenue": 40955}, {"ein": "996131254", "name": "EDWARD AND CAROLINE HYMAN FAMILY FOUNDATION", "city": "NEW YORK", "state": "NY", "zip": "10028-8031", "ntee": "", "ruling": "202402", "deductibility": "1", "assets": 16368786, "income": 40437278, "revenue": 0}], "ARCHITEC": [{"ein": "112390655", "name": "WEBB ALUMNI ASSOCIATION INC WEBB INSTITUTE OF NAVAL ARCHITEC- TURE", "city": "GLEN COVE", "state": "NY", "zip": "11542-1321", "ntee": "", "ruling": "197801", "deductibility": "1", "assets": 0, "income": 0, "revenue": 0}], "HATZILU": [{"ein": "112431808", "name": "HATZILU RESCUE ORGANIZATION INC", "city": "PLAINVIEW", "state": "NY", "zip": "11803-1325", "ntee": "P600", "ruling": "197907", "deductibility": "1", "assets": 81169, "income": 200524, "revenue": 200524}], "CJ": [{"ein": "112433455", "name": "DIVINE SCIENCE CHURCH OF LONG ISLAND NEW YORK CJ O JO ANN PECORA", "city": "FARMINGDALE", "state": "NY", "zip": "11735-1939", "ntee": "", "ruling": "197710", "deductibility": "1", "assets": 0, "income": 0, "revenue": 0}, {"ein": "201062820", "name": "CJ BARNETTE FOUNDATION", "city": "BROOKLYN", "state": "NY", "zip": "11215-0000", "ntee": "T20", "ruling": "200612", "deductibility": "1", "assets": 3752, "income": 1, "revenue": 0}, {"ein": "830896909", "name": "MADAM CJ WALKER INSTITUTE FOR WOMEN ENTREPRENEURS OF COLOR", "city": "NEW YORK", "state": "NY", "zip": "10019-0000", "ntee": "T11", "ruling": "201907", "deductibility": "1", "assets": 5467695, "income": 1269829, "revenue": 1269829}, {"ein": "841660909", "name": "CJ AND RACHEL ZUPNICK CHARITABLE FOUNDATION", "city": "BROOKLYN", "state": "NY", "zip": "11249-6985", "ntee": "T20", "ruling": "200412", "deductibility": "1", "assets": 277, "income": 47553, "revenue": 0}, {"ein": "844497567", "name": "CJ GOSPEL HOUR INC", "city": "BRONX", "state": "NY", "zip": "10469-2682", "ntee": "A34", "ruling": "202301", "deductibility": "1", "assets": 0, "income": 0, "revenue": 0}, {"ein": "870837356", "name": "CJ KIDS INC", "city": "STATEN ISLAND", "state": "NY", "zip": "10314-2331", "ntee": "P12", "ruling": "202110", "deductibility": "1", "assets": 22192, "income": 29394, "revenue": 29394}, {"ein": "931612585", "name": "CJ HACKETT SCHOLARSHIP FUND", "city": "EAST DURHAM", "state": "NY", "zip": "12423-0041", "ntee": "B82", "ruling": "202306", "deductibility": "1", "assets": 0, "income": 0, "revenue": 0}], "ICCHOK": [{"ein": "112453132", "name": "KOLEL METZIYONIM OHEL YOSEF CHASIDEI AMSHINOV C O ICCHOK KALIS", "city": "BKLYN", "state": "NY", "zip": "11219-1603", "ntee": "", "ruling": "197804", "deductibility": "1", "assets": 0, "income": 0, "revenue": 0}], "RECHOVOS": [{"ein": "112454816", "name": "RECHOVOS HANOHOR", "city": "BLOOMINGBURG", "state": "NY", "zip": "12721-4604", "ntee": "", "ruling": "197805", "deductibility": "1", "assets": 0, "income": 0, "revenue": 0}, {"ein": "464891469", "name": "CONGREGATION RECHOVOS", "city": "GREENFLD PARK", "state": "NY", "zip": "12435-0357", "ntee": "X30", "ruling": "201511", "deductibility": "1", "assets": 0, "income": 0, "revenue": 0}], "DHARAM": [{"ein": "112561050", "name": "SANATAN DHARAM MAHA SABHA OF THE WEST INDIES INC", "city": "EAST ELMHURST", "state": "NY", "zip": "11369-2526", "ntee": "", "ruling": "198106", "deductibility": "1", "assets": 322383, "income": 54845, "revenue": 54845}], "TESTIMENT": [{"ein": "112581833", "name": "OPEN HAND OF GOD A NEW TESTIMENT CHURCH", "city": "BELLMORE", "state": "NY", "zip": "11710-4639", "ntee": "", "ruling": "198301", "deductibility": "1", "assets": 0, "income": 0, "revenue": 0}], "ASEMBLY": [{"ein": "112881794", "name": "HOLY ASEMBLY OF JESUS THE CHRIST INC", "city": "BROOKLYN", "state": "NY", "zip": "11212-4008", "ntee": "", "ruling": "198808", "deductibility": "1", "assets": 0, "income": 0, "revenue": 0}, {"ein": "300455058", "name": "NEW YORK BIBLE ASEMBLY OF GOD", "city": "FLORAL PARK", "state": "NY", "zip": "11001-1010", "ntee": "", "ruling": "196408", "deductibility": "1", "assets": 0, "income": 0, "revenue": 0}], "AIRPOWER": [{"ein": "113162087", "name": "AMERICAN AIRPOWER MUSEUM", "city": "NEW YORK", "state": "NY", "zip": "10018-0628", "ntee": "", "ruling": "199308", "deductibility": "1", "assets": 2822733, "income": 446759, "revenue": 0}], "NIETZSCHE": [{"ein": "113195593", "name": "NIETZSCHE MUSIC PROJECT INC", "city": "BROOKLYN", "state": "NY", "zip": "11217-1301", "ntee": "A68", "ruling": "201304", "deductibility": "1", "assets": 0, "income": 0, "revenue": 0}, {"ein": "352428367", "name": "NIETZSCHE CIRCLE", "city": "NEW YORK", "state": "NY", "zip": "10113-0575", "ntee": "A20", "ruling": "202404", "deductibility": "1", "assets": 0, "income": 0, "revenue": 0}], "TECHNICAL": [{"ein": "113302670", "name": "BROOKLYN TECHNICAL HIGH SCHOOL PARENT ASSOCIATION INC", "city": "BROOKLYN", "state": "NY", "zip": "11217-1203", "ntee": "B94", "ruling": "199711", "deductibility": "1", "assets": 402900, "income": 352478, "revenue": 270730}, {"ein": "113319741", "name": "ST ELIZABETH TECHNICAL HIGH SCHOOL ALUMNI ASSOCIATION USA INC", "city": "NEW YORK", "state": "NY", "zip": "10163-3435", "ntee": "B84", "ruling": "201101", "deductibility": "1", "assets": 88864, "income": 59935, "revenue": 55214}, {"ein": "113424114", "name": "KINGSTON TECHNICAL HIGH SCHOOL ALUMNI ASSOCIATION NY CHAPTER", "city": "CAMBRIA HTS", "state": "NY", "zip": "11411-0191", "ntee": "B84", "ruling": "200003", "deductibility": "1", "assets": 0, "income": 0, "revenue": 0}, {"ein": "113482054", "name": "NEIGHBORHOOD TECHNICAL ASSISTANCE CLINIC", "city": "BROOKLYN", "state": "NY", "zip": "11233-1512", "ntee": "P02", "ruling": "200412", "deductibility": "1", "assets": 14775, "income": 154277, "revenue": 154277}, {"ein": "116015965", "name": "ALUMNI ASSOCIATION OF SUNY AGRCLTRL AND TECHNICAL COLL AT FARMNGDL INC", "city": "FARMINGDALE", "state": "NY", "zip": "11735-1006", "ntee": "", "ruling": "196902", "deductibility": "1", "assets": 452824, "income": 23866, "revenue": 23866}, {"ein": "133036302", "name": "BRAMSON ORT TECHNICAL INSTITUTE", "city": "FOREST HILLS", "state": "NY", "zip": "11375-4231", "ntee": "", "ruling": "198102", "deductibility": "1", "assets": 3515412, "income": 120407, "revenue": 120407}, {"ein": "133281910", "name": "LOS ANGELES ORT TECHNICAL INSTITUTE", "city": "FOREST HILLS", "state": "NY", "zip": "11375-4231", "ntee": "", "ruling": "198608", "deductibility": "1", "assets": 7617750, "income": 2900108, "revenue": 2900108}, {"ein": "133588850", "name": "STATEN ISLAND TECHNICAL HIGH SCHOOL PTA", "city": "STATEN ISLAND", "state": "NY", "zip": "10306-4254", "ntee": "", "ruling": "200802", "deductibility": "1", "assets": 110128, "income": 119994, "revenue": 81996}, {"ein": "133729123", "name": "TECHNICAL ANALYSIS EDUCATIONAL FOUNDATION INC", "city": "NEW YORK", "state": "NY", "zip": "10268-1512", "ntee": "Z99", "ruling": "199311", "deductibility": "1", "assets": 0, "income": 0, "revenue": 0}, {"ein": "133854713", "name": "INTERNATIONAL FEDERATION OF PROFESSIONAL & TECHNICAL ENGINEERS", "city": "NEW YORK", "state": "NY", "zip": "10278-0004", "ntee": "", "ruling": "194110", "deductibility": "2", "assets": 0, "income": 0, "revenue": 0}, {"ein": "136053350", "name": "HEBREW TECHNICAL INSTITUTE TR 117283-01", "city": "NEW YORK", "state": "NY", "zip": "10013-2362", "ntee": "", "ruling": "198209", "deductibility": "0", "assets": 1149827, "income": 355061, "revenue": 0}, {"ein": "136115702", "name": "FLEXOGRAPHIC TECHNICAL ASSOCIATION INC", "city": "BOHEMIA", "state": "NY", "zip": "11716-2534", "ntee": "", "ruling": "196104", "deductibility": "2", "assets": 2770667, "income": 533899, "revenue": 533899}, {"ein": "146034914", "name": "INTERNATIONAL FEDERATION OF PROFESSIONAL & TECHNICAL ENGINEERS", "city": "GLENVILLE", "state": "NY", "zip": "12302-3506", "ntee": "", "ruling": "196603", "deductibility": "2", "assets": 250195, "income": 107858, "revenue": 107858}, {"ein": "150577109", "name": "STUDENT GOVERNMENT ORGANIZATION AGRICULTURAL & TECHNICAL COLLEGE S", "city": "MORRISVILLE", "state": "NY", "zip": "13408-7705", "ntee": "B80Z", "ruling": "195601", "deductibility": "1", "assets": 380531, "income": 376251, "revenue": 363181}, {"ein": "201988721", "name": "ST ANDREW TECHNICAL HIGH SCHOOL ALUMNI ASSOC NE CHAPTER INC", "city": "LAURELTON", "state": "NY", "zip": "11413-2108", "ntee": "B12", "ruling": "200705", "deductibility": "1", "assets": 31582, "income": 92574, "revenue": 58664}, {"ein": "222307358", "name": "PROFESSIONAL CLERICAL TECHNICAL EMPLOYEES ASSOCIATION", "city": "BUFFALO", "state": "NY", "zip": "14202-0000", "ntee": "", "ruling": "194502", "deductibility": "2", "assets": 1615147, "income": 335360, "revenue": 335360}, {"ein": "237408446", "name": "FOUNDATION OF FLEXOGRAPHIC TECHNICAL ASSOCIATION INC", "city": "BOHEMIA", "state": "NY", "zip": "11716-2505", "ntee": "S41Z", "ruling": "197411", "deductibility": "1", "assets": 5826265, "income": 2471002, "revenue": 2471002}, {"ein": "263727406", "name": "INSTITUTE FOR CAREER & TECHNICAL EDUCATION INC", "city": "BROOKLYN", "state": "NY", "zip": "11215-2901", "ntee": "B90", "ruling": "201006", "deductibility": "1", "assets": 0, "income": 0, "revenue": 0}, {"ein": "264210488", "name": "ALCO HISTORICAL & TECHNICAL SOCIETY", "city": "SCHENECTADY", "state": "NY", "zip": "12301-1029", "ntee": "A54", "ruling": "201002", "deductibility": "1", "assets": 5265, "income": 9657, "revenue": 9657}, {"ein": "275054925", "name": "DUNOON TECHNICAL HIGH SCHOOL ALUMNI ASSOCIATION NORTH EASTERN CHAPTER", "city": "CAMBRIA HEIGHTS", "state": "NY", "zip": "11411-0000", "ntee": "B11", "ruling": "201407", "deductibility": "1", "assets": 0, "income": 0, "revenue": 0}, {"ein": "300555112", "name": "NYC POLICE DEPARTMENT NYPD TECHNICAL PROFESSIONAL EMPLOYEES", "city": "NEW YORK", "state": "NY", "zip": "10007-2233", "ntee": "", "ruling": "195708", "deductibility": "2", "assets": 0, "income": 0, "revenue": 0}, {"ein": "320290523", "name": "NY SCHOOLS DATA ANALYSIS TECHNICAL ASSISTANCE GROUP DATAG INC", "city": "LATHAM", "state": "NY", "zip": "12110-6420", "ntee": "B90", "ruling": "201608", "deductibility": "1", "assets": 168530, "income": 182310, "revenue": 182310}, {"ein": "334060095", "name": "HUTCHINSON CENTRAL TECHNICAL HIGH SCHOOL ALUMNI ASSOCIATION", "city": "BUFFALO", "state": "NY", "zip": "14210-2312", "ntee": "B84", "ruling": "202505", "deductibility": "1", "assets": 0, "income": 0, "revenue": 0}, {"ein": "383838273", "name": "METROPOLITAN TRANSPORTATION AUTHORITY TECHNICAL PROFESSIONAL", "city": "NEW YORK", "state": "NY", "zip": "10007-2233", "ntee": "", "ruling": "195708", "deductibility": "2", "assets": 869796, "income": 104215, "revenue": 104215}, {"ein": "461169084", "name": "DINTHILL TECHNICAL HIGH SCHOOL ALUMNI ASSOCIATION NY INC", "city": "QUEENS", "state": "NY", "zip": "11434-0000", "ntee": "B84", "ruling": "201406", "deductibility": "1", "assets": 0, "income": 0, "revenue": 0}, {"ein": "472048750", "name": "RENAISSANCE TECHNICAL INSTITUTE INC", "city": "NEW YORK", "state": "NY", "zip": "10029-2813", "ntee": "B30", "ruling": "201502", "deductibility": "1", "assets": 600850, "income": 1229272, "revenue": 1229272}, {"ein": "541626446", "name": "SOCIETY FOR TECHNICAL COMMUNICATION", "city": "BALDWINSVILLE", "state": "NY", "zip": "13027-9644", "ntee": "", "ruling": "196112", "deductibility": "1", "assets": 0, "income": 0, "revenue": 0}, {"ein": "630693871", "name": "NEW HAVEN RAILROAD HISTORICAL & TECHNICAL ASSOCIATION INCORPORATED", "city": "CORTLANDT MNR", "state": "NY", "zip": "10567-6558", "ntee": "", "ruling": "197601", "deductibility": "1", "assets": 481324, "income": 80923, "revenue": 46376}, {"ein": "651233607", "name": "CRIMINAL JUSTICE STUDIES-TECHNICAL EDUCATION CAREER INSTRUCTORS ASSN", "city": "MILLER PLACE", "state": "NY", "zip": "11764-3215", "ntee": "I50", "ruling": "200611", "deductibility": "1", "assets": 0, "income": 0, "revenue": 0}, {"ein": "814295537", "name": "PENNSYLVANIA RR TECHNICAL HISTORICAL SOCIETY - LONG ISLAND", "city": "BAY SHORE", "state": "NY", "zip": "11706-0862", "ntee": "A80", "ruling": "201803", "deductibility": "1", "assets": 0, "income": 0, "revenue": 0}, {"ein": "822712337", "name": "NEW YORK STATE TRADE AND TECHNICAL TEACHERS ASSOCIATION", "city": "VERONA", "state": "NY", "zip": "13478-0120", "ntee": "B03", "ruling": "201902", "deductibility": "1", "assets": 0, "income": 0, "revenue": 0}, {"ein": "874527298", "name": "FEDCAP APEX TECHNICAL SCHOOL INC", "city": "NEW YORK", "state": "NY", "zip": "10017-6733", "ntee": "B30", "ruling": "202207", "deductibility": "1", "assets": 53809095, "income": 23272305, "revenue": 23272305}, {"ein": "933839663", "name": "ST ANDREW TECHNICAL HIGH SCHOOL STATHS INTERNATIONAL PARTNERS & AS", "city": "JAMAICA", "state": "NY", "zip": "11434-3403", "ntee": "B82", "ruling": "202411", "deductibility": "1", "assets": 0, "income": 0, "revenue": 0}, {"ein": "992005390", "name": "TECHNICAL OPPORTUNITY OF LEARNING SERVICES INCORPORATED", "city": "BROOKLYN", "state": "NY", "zip": "11203-5120", "ntee": "P20", "ruling": "202404", "deductibility": "1", "assets": 0, "income": 0, "revenue": 0}], "BETSAIDA": [{"ein": "113441075", "name": "SEGUNDA IGLESIA PENTECOSTAL BETSAIDA", "city": "LEVITTOWN", "state": "NY", "zip": "11756-4019", "ntee": "X20", "ruling": "200310", "deductibility": "1", "assets": 0, "income": 0, "revenue": 0}], "EXPRESSIONS": [{"ein": "113467194", "name": "EXPRESSIONS OF GLORY MINISTRIES INC", "city": "LAURELTON", "state": "NY", "zip": "11413-2842", "ntee": "P99", "ruling": "200401", "deductibility": "1", "assets": 0, "income": 0, "revenue": 0}, {"ein": "331747668", "name": "EXPRESSIONS CENTER FOR BLACK ART INC", "city": "WESTBURY", "state": "NY", "zip": "11590-3240", "ntee": "A25", "ruling": "202411", "deductibility": "1", "assets": 0, "income": 0, "revenue": 0}, {"ein": "813708521", "name": "MEXICAN CULTURAL EXPRESSIONS NATIONAL SOCIETY INC", "city": "WOODSIDE", "state": "NY", "zip": "11377-1920", "ntee": "A20", "ruling": "201708", "deductibility": "1", "assets": 0, "income": 0, "revenue": 0}, {"ein": "824029755", "name": "MUSICAL EXPRESSIONS FOR COMMUNITY DEVELOPMENT INC", "city": "BROOKLYN", "state": "NY", "zip": "11203-2907", "ntee": "A60", "ruling": "201802", "deductibility": "1", "assets": 0, "income": 0, "revenue": 0}, {"ein": "862832739", "name": "CREATIVE MOVEMENT EXPRESSIONS PERFORMING ARTS PROGRAM", "city": "QUEENS VLG", "state": "NY", "zip": "11427-2329", "ntee": "Z99", "ruling": "202108", "deductibility": "1", "assets": 0, "income": 0, "revenue": 0}, {"ein": "900665550", "name": "EXPRESSIONS EDUCATIONAL AND CULTURAL CENTER INC", "city": "BROOKLYN", "state": "NY", "zip": "11234-1603", "ntee": "P20", "ruling": "201411", "deductibility": "1", "assets": 1, "income": 56483, "revenue": 56483}, {"ein": "994786856", "name": "DIVINE SOUL EXPRESSIONS", "city": "MOUNT VERNON", "state": "NY", "zip": "10553-1351", "ntee": "P20", "ruling": "202410", "deductibility": "1", "assets": 0, "income": 0, "revenue": 0}], "HAMID": [{"ein": "113503953", "name": "AL-OSMAN AND HAMID JAME MOSJID INC", "city": "SUNNYSIDE", "state": "NY", "zip": "11104-0719", "ntee": "X21", "ruling": "200001", "deductibility": "1", "assets": 0, "income": 0, "revenue": 0}], "MESILA": [{"ein": "113597720", "name": "MESILA INTERNATIONAL INC", "city": "BROOKLYN", "state": "NY", "zip": "11218-1936", "ntee": "P12", "ruling": "200108", "deductibility": "1", "assets": 73613, "income": 550875, "revenue": 550875}], "SCHUHPLATTER": [{"ein": "113638893", "name": "ORIGINAL SCHUHPLATTER V V ENZIAN INC", "city": "FRANKLIN SQ", "state": "NY", "zip": "11010-1535", "ntee": "A20", "ruling": "201101", "deductibility": "1", "assets": 91867, "income": 118004, "revenue": 100428}], "LINYONEI": [{"ein": "116001111", "name": "MERKOS LINYONEI CHINUCH INC", "city": "BROOKLYN", "state": "NY", "zip": "11213-3409", "ntee": "", "ruling": "194405", "deductibility": "1", "assets": 0, "income": 0, "revenue": 0}], "ROSESTHER": [{"ein": "116378655", "name": "ROSESTHER CHARITY FUND TR", "city": "CEDARHURST", "state": "NY", "zip": "11516-2623", "ntee": "", "ruling": "199009", "deductibility": "1", "assets": 14417, "income": 10002, "revenue": 0}], "TEFILA": [{"ein": "131656613", "name": "TEMPLE SHAARAY TEFILA AKA CONGREGATION SHAARAY TEFILA", "city": "NEW YORK", "state": "NY", "zip": "10075-1274", "ntee": "", "ruling": "197803", "deductibility": "1", "assets": 0, "income": 0, "revenue": 0}, {"ein": "132849928", "name": "TEMPLE SHAARAY TEFILA OF WESTCHESTER", "city": "BEDFORD CORS", "state": "NY", "zip": "10549-4815", "ntee": "", "ruling": "197702", "deductibility": "1", "assets": 0, "income": 0, "revenue": 0}, {"ein": "133922896", "name": "CONGREGATION TEFILA LEMOSHE", "city": "SPRING VALLEY", "state": "NY", "zip": "10977-2122", "ntee": "X99Z", "ruling": "199704", "deductibility": "1", "assets": 0, "income": 0, "revenue": 0}, {"ein": "136139632", "name": "SHAARAY TEFILA SISTERHOOD", "city": "NEW YORK", "state": "NY", "zip": "10021-1274", "ntee": "", "ruling": "196502", "deductibility": "1", "assets": 0, "income": 0, "revenue": 0}, {"ein": "136726211", "name": "CONGREGATION SHAARAY TEFILA ENDOWNMENT TRUST", "city": "NEW YORK", "state": "NY", "zip": "10008-1297", "ntee": "X30I", "ruling": "197705", "deductibility": "1", "assets": 5273348, "income": 1595252, "revenue": 0}, {"ein": "271874838", "name": "BAIS TEFILA OF INWOOD", "city": "INWOOD", "state": "NY", "zip": "11096-1021", "ntee": "X30", "ruling": "201007", "deductibility": "1", "assets": 0, "income": 0, "revenue": 0}, {"ein": "331689997", "name": "CONG TORAH TEFILA", "city": "MONSEY", "state": "NY", "zip": "10952-2108", "ntee": "X30", "ruling": "202507", "deductibility": "1", "assets": 0, "income": 0, "revenue": 0}, {"ein": "472350450", "name": "CONGREGATION SHAAR TEFILA", "city": "BROOKLYN", "state": "NY", "zip": "11211-8919", "ntee": "X30", "ruling": "201503", "deductibility": "1", "assets": 0, "income": 0, "revenue": 0}, {"ein": "923067923", "name": "CONGREGATION SHAAR TEFILA CHERNOWITZ", "city": "MONROE", "state": "NY", "zip": "10950-0000", "ntee": "X30", "ruling": "202311", "deductibility": "1", "assets": 0, "income": 0, "revenue": 0}], "REPORTS": [{"ein": "131776434", "name": "CONSUMER REPORTS INC", "city": "YONKERS", "state": "NY", "zip": "10703-1044", "ntee": "W900", "ruling": "198404", "deductibility": "1", "assets": 473542307, "income": 308825874, "revenue": 266143105}, {"ein": "161386153", "name": "TRAC REPORTS INC", "city": "SYRACUSE", "state": "NY", "zip": "13235-0532", "ntee": "V99Z", "ruling": "199209", "deductibility": "1", "assets": 1578348, "income": 434681, "revenue": 434681}], "ADOM": [{"ein": "131790719", "name": "AMERICAN FRIENDS OF MAGEN DAVID ADOM", "city": "NEW YORK", "state": "NY", "zip": "10018-9784", "ntee": "Q113", "ruling": "197208", "deductibility": "1", "assets": 322342838, "income": 318307491, "revenue": 288511110}, {"ein": "920705465", "name": "ADOM HOPE KITCHEN INC", "city": "BRONX", "state": "NY", "zip": "10475-3229", "ntee": "T50", "ruling": "202212", "deductibility": "1", "assets": 0, "income": 0, "revenue": 0}], "CINE": [{"ein": "132894350", "name": "CINE INFORMATION INC", "city": "NEW YORK", "state": "NY", "zip": "10024-1221", "ntee": "A31Z", "ruling": "197808", "deductibility": "1", "assets": 0, "income": 0, "revenue": 0}, {"ein": "132933486", "name": "ASIAN CINE-VISION INC", "city": "NEW YORK", "state": "NY", "zip": "10027-1983", "ntee": "A310", "ruling": "198704", "deductibility": "1", "assets": 218538, "income": 203609, "revenue": 203609}, {"ein": "133807091", "name": "CINE QUA NON INC", "city": "PURCHASE", "state": "NY", "zip": "10577-2614", "ntee": "A31", "ruling": "199505", "deductibility": "1", "assets": 6716, "income": 61838, "revenue": 61838}], "SCAN": [{"ein": "132912963", "name": "SCAN-HARBOR INC", "city": "NEW YORK", "state": "NY", "zip": "10029-5611", "ntee": "", "ruling": "197801", "deductibility": "1", "assets": 21643763, "income": 22903336, "revenue": 22358225}, {"ein": "931525746", "name": "SCAN FOR AFRICA", "city": "BROOKLYN", "state": "NY", "zip": "11210-4831", "ntee": "E70", "ruling": "202405", "deductibility": "1", "assets": 0, "income": 0, "revenue": 0}], "MIZRAIM": [{"ein": "133143711", "name": "HA-AUR B MIZRAIM ISREALITE CONGREGATION INC", "city": "MT VERNON", "state": "NY", "zip": "10550-3105", "ntee": "X30", "ruling": "200203", "deductibility": "1", "assets": 0, "income": 0, "revenue": 0}], "K2": [{"ein": "133261362", "name": "K2 DANCE & ARTS COMPANY INC", "city": "BROOKLYN", "state": "NY", "zip": "11201-1165", "ntee": "A20", "ruling": "201408", "deductibility": "1", "assets": 0, "income": 0, "revenue": 0}, {"ein": "812743355", "name": "LIONS DISTRICT 20-K2 DIABETES FOUNDATION INC", "city": "ROSLYN", "state": "NY", "zip": "11576-1099", "ntee": "T30", "ruling": "201606", "deductibility": "1", "assets": 0, "income": 0, "revenue": 0}, {"ein": "856262741", "name": "K2 CHARITABLE FOUNDATION", "city": "WOODMERE", "state": "NY", "zip": "11598-1737", "ntee": "T22", "ruling": "202007", "deductibility": "1", "assets": 9642383, "income": 9859821, "revenue": 0}], "WOOLWORTH": [{"ein": "133318264", "name": "THE JOHN DOAR FOUNDATION THE WOOLWORTH BUILDING", "city": "MILLERTON", "state": "NY", "zip": "12546-0535", "ntee": "", "ruling": "198609", "deductibility": "1", "assets": 667897, "income": 143170, "revenue": 0}], "RHODEBECK": [{"ein": "133413293", "name": "RHODEBECK CHARITABLE TRUST", "city": "NEW YORK", "state": "NY", "zip": "10016-0000", "ntee": "", "ruling": "198708", "deductibility": "1", "assets": 38465, "income": 873, "revenue": 0}], "TUFT": [{"ein": "133437888", "name": "TUFT FAMILY FOUNDATION", "city": "ALBANY", "state": "NY", "zip": "12212-5201", "ntee": "", "ruling": "198902", "deductibility": "1", "assets": 7696578, "income": 3049664, "revenue": 0}], "ROGERIAN": [{"ein": "133452427", "name": "SOCIETY OF ROGERIAN SCHOLARS INC", "city": "NEW YORK", "state": "NY", "zip": "10010-0000", "ntee": "", "ruling": "199509", "deductibility": "2", "assets": 0, "income": 0, "revenue": 0}], "KNESSET": [{"ein": "133497469", "name": "CONGREGATION KNESSET ISRAEL", "city": "SPRING VALLEY", "state": "NY", "zip": "10977-2102", "ntee": "X30", "ruling": "200409", "deductibility": "1", "assets": 0, "income": 0, "revenue": 0}, {"ein": "161635079", "name": "KNESSET YITZCHOK", "city": "BROOKLYN", "state": "NY", "zip": "11211-8726", "ntee": "X30", "ruling": "200305", "deductibility": "1", "assets": 0, "income": 0, "revenue": 0}, {"ein": "200002067", "name": "CONGREGATION OF ISRAEL THE KNESSET OF JESUS", "city": "BUFFALO", "state": "NY", "zip": "14213-2223", "ntee": "X30", "ruling": "200401", "deductibility": "1", "assets": 0, "income": 0, "revenue": 0}, {"ein": "237113220", "name": "KNESSET YEHUDA INC", "city": "BROOKLYN", "state": "NY", "zip": "11230-2914", "ntee": "", "ruling": "197106", "deductibility": "1", "assets": 0, "income": 0, "revenue": 0}], "SIXTIES": [{"ein": "133654087", "name": "EAST SIXTIES NEIGHBORHOOD ASSOCIATION INC", "city": "NEW YORK", "state": "NY", "zip": "10021-0048", "ntee": "", "ruling": "199307", "deductibility": "2", "assets": 103118, "income": 37753, "revenue": 37753}, {"ein": "203049436", "name": "CHABAD OF THE WEST SIXTIES INC", "city": "NEW YORK", "state": "NY", "zip": "10023-3592", "ntee": "X30", "ruling": "200703", "deductibility": "1", "assets": 0, "income": 0, "revenue": 0}], "SOROH": [{"ein": "133667937", "name": "AMERICAN FRIENDS OF BEIS SOROH SCHENIERER SEMINARY INC", "city": "STATEN ISLAND", "state": "NY", "zip": "10314-5329", "ntee": "X11", "ruling": "201403", "deductibility": "1", "assets": 758, "income": 47010, "revenue": 47010}], "CHAJM": [{"ein": "133749410", "name": "AMERICAN FRIENDS OF THORAT CHAJM INC", "city": "MONSEY", "state": "NY", "zip": "10952-1702", "ntee": "Q123", "ruling": "199405", "deductibility": "1", "assets": 1142521, "income": 495174, "revenue": 495174}], "MARS": [{"ein": "133798973", "name": "VIRGINIA CRETELLA MARS FOUNDATION", "city": "NEW YORK", "state": "NY", "zip": "10005-0000", "ntee": "T60Z", "ruling": "199505", "deductibility": "1", "assets": 16426401, "income": 4341376, "revenue": 0}, {"ein": "222234076", "name": "MARS HILL BROADCASTING CO INC", "city": "SYRACUSE", "state": "NY", "zip": "13215-8683", "ntee": "A30Z", "ruling": "197907", "deductibility": "1", "assets": 2254831, "income": 1242116, "revenue": 1169017}, {"ein": "311743263", "name": "MARS FOUNDATION", "city": "MONSEY", "state": "NY", "zip": "10952-2843", "ntee": "T90", "ruling": "200101", "deductibility": "1", "assets": 1867388, "income": 123143, "revenue": 0}, {"ein": "352204040", "name": "MARS HILL BAPTIST CHURCH", "city": "NEW YORK", "state": "NY", "zip": "10037-0873", "ntee": "X21", "ruling": "200311", "deductibility": "1", "assets": 0, "income": 0, "revenue": 0}, {"ein": "546037592", "name": "MARS HQ REGIONAL FOUNDATION", "city": "NEW YORK", "state": "NY", "zip": "10005-0000", "ntee": "", "ruling": "195712", "deductibility": "1", "assets": 41992342, "income": 5084690, "revenue": 0}, {"ein": "810774342", "name": "MARS MINISTRY", "city": "BROOKLYN", "state": "NY", "zip": "11208-0000", "ntee": "P20", "ruling": "202108", "deductibility": "1", "assets": 0, "income": 0, "revenue": 0}, {"ein": "934662103", "name": "JEAN PRICE-MARS CULTURAL ORGANIZATION INC", "city": "EAST MEADOW", "state": "NY", "zip": "11554-1407", "ntee": "A70", "ruling": "202401", "deductibility": "1", "assets": 0, "income": 0, "revenue": 0}], "SYMONDS": [{"ein": "133866604", "name": "ALEXANDRA & MARTIN SYMONDS FOUNDATION INC", "city": "NEW YORK", "state": "NY", "zip": "10024-3139", "ntee": "T20I", "ruling": "199611", "deductibility": "1", "assets": 1246428, "income": 337198, "revenue": 0}], "SEICHO": [{"ein": "133908385", "name": "SEICHO-NO-IE INTERNATIONAL", "city": "NEW YORK", "state": "NY", "zip": "10022-4801", "ntee": "X99", "ruling": "200304", "deductibility": "1", "assets": 0, "income": 0, "revenue": 0}], "LESC": [{"ein": "133953427", "name": "THE LESC FOUNDATION INC", "city": "NEW YORK", "state": "NY", "zip": "10038-4609", "ntee": "P29", "ruling": "199709", "deductibility": "1", "assets": 29029, "income": 42695, "revenue": 34945}, {"ein": "264808453", "name": "LESC FRANKLIN AVENUE HOUSING DEVELOPMENT FUND CORPORATION", "city": "NEW YORK", "state": "NY", "zip": "10038-4940", "ntee": "L21", "ruling": "201409", "deductibility": "2", "assets": 0, "income": 0, "revenue": 0}], "QUINCY": [{"ein": "134018779", "name": "GREENE-QUINCY HOUSING DEVELOPMENT FUND CORP", "city": "NEW YORK", "state": "NY", "zip": "10029-5611", "ntee": "L20", "ruling": "199903", "deductibility": "1", "assets": 0, "income": 0, "revenue": 0}, {"ein": "160867033", "name": "QUINCY RURAL CEMETERY ASSOC", "city": "RIPLEY", "state": "NY", "zip": "14775-9762", "ntee": "Y50", "ruling": "202407", "deductibility": "1", "assets": 0, "income": 0, "revenue": 0}, {"ein": "161483505", "name": "QUINCY SQUARE MUSEUM ASSOCIATION", "city": "EARLVILLE", "state": "NY", "zip": "13332-0535", "ntee": "A54", "ruling": "200810", "deductibility": "1", "assets": 0, "income": 0, "revenue": 0}, {"ein": "471770167", "name": "JOHN QUINCY ADAMS PRIMARY SCHOOL PARENT FACULTY CLUB", "city": "DEER PARK", "state": "NY", "zip": "11729-3508", "ntee": "B24", "ruling": "201906", "deductibility": "1", "assets": 24393, "income": 33930, "revenue": 0}], "DEVEOPMENT": [{"ein": "134031280", "name": "CLOVER HOUSING DEVEOPMENT FUND CORPORATION", "city": "NEW YORK", "state": "NY", "zip": "10018-2082", "ntee": "P80", "ruling": "199901", "deductibility": "1", "assets": 0, "income": 0, "revenue": 0}, {"ein": "843582083", "name": "MOTCHA AWURAJA RELIEF AND DEVEOPMENT ASSOCIATION INC", "city": "NEW YORK", "state": "NY", "zip": "10027-5237", "ntee": "S99", "ruling": "201911", "deductibility": "1", "assets": 0, "income": 0, "revenue": 0}], "HOLT": [{"ein": "134045579", "name": "BAILEY-HOLT HOUSE HOUSING DEVELOPMENT FUND CORPORATION", "city": "BROOKLYN", "state": "NY", "zip": "11201-5290", "ntee": "L20", "ruling": "199908", "deductibility": "1", "assets": 19682004, "income": 172104, "revenue": 172104}, {"ein": "137097809", "name": "DENNIS & BROOKS HOLT FOUNDATION", "city": "HARRISON", "state": "NY", "zip": "10528-0000", "ntee": "T22Z", "ruling": "199710", "deductibility": "1", "assets": 607176, "income": 75071, "revenue": 0}, {"ein": "263773710", "name": "CHIP HOLT NATURE CENTER INC", "city": "LAKEVILLE", "state": "NY", "zip": "14480-0523", "ntee": "C60", "ruling": "201008", "deductibility": "1", "assets": 0, "income": 0, "revenue": 0}], "CONDE": [{"ein": "134089589", "name": "CONDE FAMILY FOUNDATION", "city": "NEW YORK", "state": "NY", "zip": "10021-3687", "ntee": "T20", "ruling": "200003", "deductibility": "1", "assets": 550813, "income": 464032, "revenue": 0}], "SATO": [{"ein": "134140924", "name": "SATO FAMILY FOUNDATION INC", "city": "NEW YORK", "state": "NY", "zip": "10018-6771", "ntee": "T21", "ruling": "200102", "deductibility": "1", "assets": 338674, "income": 98, "revenue": 0}, {"ein": "453743534", "name": "THE SATO PROJECT INC", "city": "BROOKLYN", "state": "NY", "zip": "11201-1040", "ntee": "D20", "ruling": "201208", "deductibility": "1", "assets": 1587553, "income": 2443784, "revenue": 2443784}, {"ein": "834147708", "name": "SATO LECTURES LTD", "city": "ROSLYN HTS", "state": "NY", "zip": "11577-1643", "ntee": "A99", "ruling": "201908", "deductibility": "1", "assets": 73085, "income": 145388, "revenue": 145388}], "COCOA": [{"ein": "134150381", "name": "COCOA MERCHANTS ASSOCIATION OF AMERICA INC", "city": "NEW YORK", "state": "NY", "zip": "10105-0302", "ntee": "", "ruling": "194311", "deductibility": "2", "assets": 926122, "income": 1061456, "revenue": 1061456}], "ENRICH": [{"ein": "134174346", "name": "SPORTSTAR ACADEMY FOR JEWISH ENRICH", "city": "STONY POINT", "state": "NY", "zip": "10980-3446", "ntee": "X30", "ruling": "200107", "deductibility": "1", "assets": 0, "income": 0, "revenue": 0}, {"ein": "454239155", "name": "HELPING ENRICH THE ARTS OF PORT WASHINGTON INC", "city": "PRT WASHINGTN", "state": "NY", "zip": "11050-7192", "ntee": "A25", "ruling": "201206", "deductibility": "1", "assets": 56639, "income": 118897, "revenue": 88509}, {"ein": "882959341", "name": "ENRICH GENEVA CORPORATION", "city": "GENEVA", "state": "NY", "zip": "14456-0070", "ntee": "A20", "ruling": "202208", "deductibility": "1", "assets": 0, "income": 0, "revenue": 0}], "PETRILLO": [{"ein": "136121367", "name": "LESTER PETRILLO MEMORIAL TRUST FUND FOR DISABLED MUSICIANS", "city": "NEW YORK", "state": "NY", "zip": "10036-0192", "ntee": "", "ruling": "195307", "deductibility": "1", "assets": 597249, "income": 46126, "revenue": 46126}, {"ein": "137305106", "name": "THE PETRILLO FAMILY FOUNDATION TRUST", "city": "MAMARONECK", "state": "NY", "zip": "10543-1031", "ntee": "T90", "ruling": "200111", "deductibility": "1", "assets": 272541, "income": 718836, "revenue": 0}, {"ein": "141771325", "name": "RALPH PETRILLO SR SCHOLARSHIP FOUNDATION INC", "city": "NEWBURGH", "state": "NY", "zip": "12550-8708", "ntee": "B82", "ruling": "199911", "deductibility": "1", "assets": 61794, "income": 3259, "revenue": 0}, {"ein": "237219117", "name": "AUGUST P PETRILLO HOUSING DEVELOPMENT FUND COMPANY INC", "city": "NEW ROCHELLE", "state": "NY", "zip": "10805-2113", "ntee": "L20", "ruling": "201305", "deductibility": "1", "assets": 10252927, "income": 972316, "revenue": 163012}, {"ein": "836094507", "name": "PETRILLO FAMILY CHARITABLE FOUNDATION TR AGREEMENT DTD 5-3-18", "city": "NEW YORK", "state": "NY", "zip": "10022-2379", "ntee": "T12", "ruling": "201905", "deductibility": "1", "assets": 2779558, "income": 23334, "revenue": 0}], "DETROIT": [{"ein": "136821317", "name": "CHARLES RUHL TRUST UW 112698 FBO LITTLE SISTER POOR DETROIT", "city": "NEW YORK", "state": "NY", "zip": "10013-2362", "ntee": "", "ruling": "000000", "deductibility": "0", "assets": 179789, "income": 54761, "revenue": 0}, {"ein": "452819331", "name": "I HEART DETROIT", "city": "NEW YORK", "state": "NY", "zip": "10023-7942", "ntee": "S20", "ruling": "201109", "deductibility": "1", "assets": 0, "income": 0, "revenue": 0}], "DARROW": [{"ein": "141412457", "name": "DARROW SCHOOL", "city": "NEW LEBANON", "state": "NY", "zip": "12125-2608", "ntee": "B24Z", "ruling": "194203", "deductibility": "1", "assets": 22353836, "income": 8240044, "revenue": 8223785}], "LOT": [{"ein": "141501616", "name": "TAWISKAROU LOT OWNERS ASSOCIATION INC", "city": "CORINTH", "state": "NY", "zip": "12822-2901", "ntee": "L50", "ruling": "201411", "deductibility": "2", "assets": 0, "income": 0, "revenue": 0}, {"ein": "146032459", "name": "LAKE ONIAD LOT OWNERS ASSOCIATION INC", "city": "WAPPINGERS FALLS", "state": "NY", "zip": "12590-0000", "ntee": "", "ruling": "196402", "deductibility": "2", "assets": 0, "income": 0, "revenue": 0}, {"ein": "161435820", "name": "GREAT LOT SPORTSMAN CLUB", "city": "BOONVILLE", "state": "NY", "zip": "13309-0391", "ntee": "N61", "ruling": "201001", "deductibility": "1", "assets": 0, "income": 0, "revenue": 0}, {"ein": "222563865", "name": "FALL BROOK PARK LOT OWNERS ASSOCIATION INC", "city": "CANANDAIGUA", "state": "NY", "zip": "14424-0177", "ntee": "W80", "ruling": "201905", "deductibility": "2", "assets": 0, "income": 0, "revenue": 0}, {"ein": "237172172", "name": "LAKE ELIZABETH LOT OWNERS ASSOCIATION INC", "city": "GRAFTON", "state": "NY", "zip": "12082-0015", "ntee": "P20", "ruling": "202211", "deductibility": "2", "assets": 0, "income": 0, "revenue": 0}, {"ein": "811955542", "name": "LOT RADIO INC", "city": "BROOKLYN", "state": "NY", "zip": "11222-3115", "ntee": "A34", "ruling": "201701", "deductibility": "1", "assets": 73321, "income": 124888, "revenue": 124888}, {"ein": "813560836", "name": "FOREST PARK BARKING LOT INC", "city": "KEW GARDENS", "state": "NY", "zip": "11415-1049", "ntee": "D20", "ruling": "201811", "deductibility": "1", "assets": 0, "income": 0, "revenue": 0}, {"ein": "921723199", "name": "LOT 21 INC", "city": "JACKSON HTS", "state": "NY", "zip": "11372-4578", "ntee": "C60", "ruling": "202301", "deductibility": "1", "assets": 12805, "income": 49788, "revenue": 49788}], "SEABEE": [{"ein": "141774955", "name": "NAVY SEABEE VETERANS OF AMERICA", "city": "KINGSTON", "state": "NY", "zip": "12401-7232", "ntee": "", "ruling": "195101", "deductibility": "0", "assets": 0, "income": 0, "revenue": 0}, {"ein": "161418535", "name": "NAVY SEABEE VETERANS OF AMERICA", "city": "SYRACUSE", "state": "NY", "zip": "13214-2428", "ntee": "", "ruling": "195101", "deductibility": "2", "assets": 0, "income": 0, "revenue": 0}, {"ein": "320255599", "name": "NAVY SEABEE VETERANS OF AMERICA", "city": "HOLLEY", "state": "NY", "zip": "14470-9504", "ntee": "", "ruling": "195101", "deductibility": "1", "assets": 0, "income": 0, "revenue": 0}, {"ein": "376049784", "name": "NAVY SEABEE VETERANS OF AMERICA INC", "city": "QUEENSBURY", "state": "NY", "zip": "12804-6965", "ntee": "", "ruling": "195101", "deductibility": "1", "assets": 0, "income": 0, "revenue": 0}, {"ein": "900283118", "name": "NAVY SEABEE VETERANS OF AMERICA", "city": "HUDSON FALLS", "state": "NY", "zip": "12839-0161", "ntee": "", "ruling": "195101", "deductibility": "1", "assets": 0, "income": 0, "revenue": 0}, {"ein": "911778200", "name": "NAVY SEABEE VETERANS OF AMERICA", "city": "ASTORIA", "state": "NY", "zip": "11106-1230", "ntee": "", "ruling": "195101", "deductibility": "1", "assets": 0, "income": 0, "revenue": 0}, {"ein": "911778302", "name": "NAVY SEABEE VETERANS OF AMERICA", "city": "CHEEKTOWAGA", "state": "NY", "zip": "14225-8153", "ntee": "", "ruling": "195101", "deductibility": "1", "assets": 0, "income": 0, "revenue": 0}, {"ein": "911778703", "name": "NAVY SEABEE VETERANS OF AMERICA", "city": "BROOKLYN", "state": "NY", "zip": "11203-5135", "ntee": "", "ruling": "195101", "deductibility": "1", "assets": 0, "income": 0, "revenue": 0}], "ARCC": [{"ein": "141830480", "name": "ARCC FOUNDATION INC", "city": "GLENS FALLS", "state": "NY", "zip": "12801-4530", "ntee": "S80", "ruling": "200403", "deductibility": "1", "assets": 0, "income": 0, "revenue": 0}], "LEYDEN": [{"ein": "150418655", "name": "PORT LEYDEN CEMETERY ASSN INC", "city": "PORT LEYDEN", "state": "NY", "zip": "13433-0218", "ntee": "Y50", "ruling": "201112", "deductibility": "1", "assets": 0, "income": 0, "revenue": 0}, {"ein": "160951771", "name": "WEST LEYDEN CEMETERY ASSOCIATION", "city": "AVA", "state": "NY", "zip": "13303-1924", "ntee": "Y50", "ruling": "201210", "deductibility": "1", "assets": 0, "income": 0, "revenue": 0}, {"ein": "160958281", "name": "PORT LEYDEN COMMUNITY LIBRARY", "city": "PORT LEYDEN", "state": "NY", "zip": "13433-0097", "ntee": "", "ruling": "198901", "deductibility": "1", "assets": 813611, "income": 58633, "revenue": 58633}, {"ein": "166200282", "name": "WEST LEYDEN FIRE COMPANY INC", "city": "WEST LEYDEN", "state": "NY", "zip": "13489-0000", "ntee": "M24N", "ruling": "199811", "deductibility": "1", "assets": 1175974, "income": 172156, "revenue": 166873}, {"ein": "300198627", "name": "WEST LEYDEN VOLUNTEER AMBULANCE COMPANY INC", "city": "WEST LEYDEN", "state": "NY", "zip": "13489-0000", "ntee": "M24", "ruling": "200309", "deductibility": "1", "assets": 0, "income": 0, "revenue": 0}, {"ein": "472583084", "name": "JACK LEYDEN MEMORIAL AMVETS NY POST 1213", "city": "WASHINGTONVLE", "state": "NY", "zip": "10992-0223", "ntee": "W30", "ruling": "201908", "deductibility": "1", "assets": 0, "income": 0, "revenue": 0}, {"ein": "710983406", "name": "WEST LEYDEN REFORMED CHURCH", "city": "WEST LEYDEN", "state": "NY", "zip": "13489-2110", "ntee": "", "ruling": "198601", "deductibility": "1", "assets": 0, "income": 0, "revenue": 0}, {"ein": "923928150", "name": "VILLAGE OF PORT LEYDEN FESTIVAL COMMITTEE INC", "city": "PORT LEYDEN", "state": "NY", "zip": "13433-0323", "ntee": "N12", "ruling": "202305", "deductibility": "1", "assets": 0, "income": 0, "revenue": 0}], "PERINTON": [{"ein": "160835945", "name": "PERINTON NURSERY SCHOOL", "city": "FAIRPORT", "state": "NY", "zip": "14450-3206", "ntee": "B21Z", "ruling": "196912", "deductibility": "1", "assets": 27013, "income": 96275, "revenue": 91088}, {"ein": "160914440", "name": "PERINTON VOLUNTEER AMBULANCE CORPS INC", "city": "FAIRPORT", "state": "NY", "zip": "14450-8751", "ntee": "E62Z", "ruling": "198906", "deductibility": "1", "assets": 4219345, "income": 4090909, "revenue": 3416102}, {"ein": "160965735", "name": "PERINTON COMMUNITY CHURCH", "city": "FAIRPORT", "state": "NY", "zip": "14450-9764", "ntee": "", "ruling": "197002", "deductibility": "1", "assets": 0, "income": 0, "revenue": 0}, {"ein": "161323448", "name": "FAIRPORT-PERINTON SENIOR LIVING COUNCIL INC", "city": "FAIRPORT", "state": "NY", "zip": "14450-1567", "ntee": "P75Z", "ruling": "199004", "deductibility": "1", "assets": 440484, "income": 477841, "revenue": 477841}, {"ein": "161375008", "name": "FAIRPORT-PERINTON MERCHANTS ASSOCIATION INC", "city": "FAIRPORT", "state": "NY", "zip": "14450-1524", "ntee": "S41", "ruling": "199902", "deductibility": "2", "assets": 536923, "income": 303876, "revenue": 303860}, {"ein": "161384476", "name": "ADVENT HOUSE OF PERINTON", "city": "FAIRPORT", "state": "NY", "zip": "14450-3852", "ntee": "P20", "ruling": "199107", "deductibility": "1", "assets": 714991, "income": 613438, "revenue": 428676}, {"ein": "161493838", "name": "BAHAIS OF PERINTON TOWN", "city": "FAIRPORT", "state": "NY", "zip": "14450-7015", "ntee": "", "ruling": "199505", "deductibility": "1", "assets": 0, "income": 0, "revenue": 0}, {"ein": "161537989", "name": "PERINTON OVERSEAS VET INC", "city": "FAIRPORT", "state": "NY", "zip": "14450-0092", "ntee": "N50", "ruling": "200904", "deductibility": "2", "assets": 189061, "income": 153964, "revenue": 91830}, {"ein": "161553183", "name": "ECUMENICAL MINISTRIES OF PERINTON INC", "city": "FAIRPORT", "state": "NY", "zip": "14450-0733", "ntee": "P50", "ruling": "199902", "deductibility": "1", "assets": 108002, "income": 41938, "revenue": 41938}, {"ein": "222185351", "name": "PERINTON CHAMBER OF COMMERCE INC", "city": "FAIRPORT", "state": "NY", "zip": "14450-7144", "ntee": "S41", "ruling": "201506", "deductibility": "2", "assets": 0, "income": 0, "revenue": 0}, {"ein": "222290422", "name": "PERINTON CONCERT BAND INC", "city": "FAIRPORT", "state": "NY", "zip": "14450-0033", "ntee": "", "ruling": "198005", "deductibility": "1", "assets": 278183, "income": 31363, "revenue": 22656}, {"ein": "222372953", "name": "PERINTON HISTORICAL SOCIETY", "city": "FAIRPORT", "state": "NY", "zip": "14450-2122", "ntee": "", "ruling": "199207", "deductibility": "1", "assets": 0, "income": 0, "revenue": 0}, {"ein": "222527233", "name": "PERINTON FOOD SHELF INC", "city": "FAIRPORT", "state": "NY", "zip": "14450-0381", "ntee": "", "ruling": "198505", "deductibility": "1", "assets": 670991, "income": 115235, "revenue": 115235}, {"ein": "223043440", "name": "PERINTON YOUTH HOCKEY INC", "city": "FAIRPORT", "state": "NY", "zip": "14450-5001", "ntee": "A68Z", "ruling": "199008", "deductibility": "1", "assets": 803763, "income": 1557073, "revenue": 1557073}, {"ein": "237100379", "name": "PERINTON CHURCHES HOUSING INC", "city": "FAIRPORT", "state": "NY", "zip": "14450-0901", "ntee": "S21", "ruling": "201506", "deductibility": "1", "assets": 0, "income": 0, "revenue": 0}, {"ein": "237334568", "name": "VETERANS OF FOREIGN WARS OF THE US DEPT OF NY PERINTON MEMORIAL", "city": "FAIRPORT", "state": "NY", "zip": "14450-0092", "ntee": "", "ruling": "197210", "deductibility": "1", "assets": 258525, "income": 463973, "revenue": 158054}, {"ein": "271519077", "name": "KIWANIS CLUB OF PENFIELD-PERINTON TOWNSHIPS FOUNDATION INC", "city": "ROCHESTER", "state": "NY", "zip": "14625-0441", "ntee": "T30", "ruling": "201407", "deductibility": "1", "assets": 27096, "income": 46970, "revenue": 32320}, {"ein": "271908537", "name": "PERINTON JOINT TRAINING FACILITY INC", "city": "FAIRPORT", "state": "NY", "zip": "14450-9577", "ntee": "N40", "ruling": "201103", "deductibility": "1", "assets": 1106063, "income": 55409, "revenue": 55409}, {"ein": "873434634", "name": "SOUTH PERINTON CEMETERY ASSOCIATION", "city": "PITTSFORD", "state": "NY", "zip": "14534-8321", "ntee": "Y50", "ruling": "202206", "deductibility": "1", "assets": 0, "income": 0, "revenue": 0}, {"ein": "992806950", "name": "FAIRPORT PERINTON SENIOR CONNECTIONS INC", "city": "FAIRPORT", "state": "NY", "zip": "14450-1567", "ntee": "E70", "ruling": "202411", "deductibility": "1", "assets": 0, "income": 0, "revenue": 0}], "ELLWANGER": [{"ein": "161039641", "name": "ELLWANGER BARRY NURSERY SCHOOL C O", "city": "ROCHESTER", "state": "NY", "zip": "14620-4212", "ntee": "", "ruling": "197810", "deductibility": "1", "assets": 0, "income": 0, "revenue": 0}], "PORTION": [{"ein": "161202510", "name": "FRIENDS OF LITTLE PORTION FRIARY A K A LITTLE PORTION FRIARY", "city": "BUFFALO", "state": "NY", "zip": "14209-1947", "ntee": "P20Z", "ruling": "199307", "deductibility": "1", "assets": 1061615, "income": 535503, "revenue": 535503}, {"ein": "166552192", "name": "PIERSON K MILLER TUA IRRV PORTION TR", "city": "BUFFALO", "state": "NY", "zip": "14240-1504", "ntee": "T20", "ruling": "201206", "deductibility": "1", "assets": 9703966, "income": 1373119, "revenue": 0}], "PEF": [{"ein": "161318008", "name": "PEF LAND HOLDING CORPORATION", "city": "ALBANY", "state": "NY", "zip": "12212-2414", "ntee": "", "ruling": "198808", "deductibility": "2", "assets": 166681, "income": 121103, "revenue": 121103}, {"ein": "461388220", "name": "PEF RELIEF FUND", "city": "ALBANY", "state": "NY", "zip": "12212-2414", "ntee": "M20", "ruling": "201212", "deductibility": "1", "assets": 0, "income": 0, "revenue": 0}], "JOANNE": [{"ein": "161573234", "name": "PAUL O AND JOANNE D STILLMAN CHARITABLE FOUNDATION", "city": "NEW HARTFORD", "state": "NY", "zip": "13413-0000", "ntee": "T22", "ruling": "200007", "deductibility": "1", "assets": 474044, "income": 157406, "revenue": 0}, {"ein": "260862857", "name": "JOANNE AND FRANK COLLINS CHARITABLEFOUNDATION", "city": "LIMA", "state": "NY", "zip": "14485-9625", "ntee": "T22", "ruling": "200807", "deductibility": "1", "assets": 457282, "income": 305541, "revenue": 0}, {"ein": "274285050", "name": "SING AND JOANNE CHAN FOUNDATION INC", "city": "GREAT NECK", "state": "NY", "zip": "11021-0000", "ntee": "T20", "ruling": "201110", "deductibility": "1", "assets": 1758552, "income": 891625, "revenue": 0}, {"ein": "306034293", "name": "JOANNE D CORZINE FOUNDATION", "city": "WESTHAMPTON BEACH", "state": "NY", "zip": "11978-2607", "ntee": "T22", "ruling": "200209", "deductibility": "1", "assets": 43887, "income": 948537, "revenue": 0}, {"ein": "871481954", "name": "JOANNE LUDTKA FOUNDATION INC", "city": "LANCASTER", "state": "NY", "zip": "14086-1164", "ntee": "H12", "ruling": "202109", "deductibility": "1", "assets": 14643, "income": 18255, "revenue": 0}, {"ein": "883466720", "name": "JOANNE KRUPP FOUNDATION", "city": "NEW YORK", "state": "NY", "zip": "10025-7105", "ntee": "T22", "ruling": "202211", "deductibility": "1", "assets": 19877914, "income": 20240200, "revenue": 0}], "DECK": [{"ein": "161610702", "name": "LOWER DECK EVENTS INC", "city": "ONEONTA", "state": "NY", "zip": "13820-2312", "ntee": "T70", "ruling": "200111", "deductibility": "1", "assets": 0, "income": 0, "revenue": 0}, {"ein": "872272121", "name": "NATIONAL ASSOCIATION OF SEADOGS-GRUNDZIRO DECK INC", "city": "BROOKLYN", "state": "NY", "zip": "11201-7201", "ntee": "A01", "ruling": "202112", "deductibility": "1", "assets": 0, "income": 0, "revenue": 0}], "MORRELL": [{"ein": "161611885", "name": "MORRELL FAMILY FOUNDATION INC", "city": "ELMIRA", "state": "NY", "zip": "14901-1156", "ntee": "T20", "ruling": "200211", "deductibility": "1", "assets": 247203, "income": 196849, "revenue": 0}, {"ein": "876946635", "name": "MORRELL FOUNDATION", "city": "LATHAM", "state": "NY", "zip": "12110-5641", "ntee": "T22", "ruling": "202203", "deductibility": "1", "assets": 47051, "income": 22300, "revenue": 0}, {"ein": "954688616", "name": "DIANDRA DE MORRELL DOUGLAS FOUNDATION", "city": "PLAINVIEW", "state": "NY", "zip": "11803-0000", "ntee": "T20", "ruling": "199905", "deductibility": "1", "assets": 1717623, "income": 1048638, "revenue": 0}], "PUBLICMARKET": [{"ein": "204762946", "name": "FRIENDS OF THE ROCHESTER PUBLICMARKET INC", "city": "ROCHESTER", "state": "NY", "zip": "14609-6014", "ntee": "W199", "ruling": "200710", "deductibility": "1", "assets": 466757, "income": 2972708, "revenue": 2972708}], "LAMPTON": [{"ein": "208111678", "name": "LAMPTON FAMILY FOUNDATION INC", "city": "ROCHESTER", "state": "NY", "zip": "14625-2821", "ntee": "T20", "ruling": "200709", "deductibility": "1", "assets": 1305195, "income": 751930, "revenue": 0}], "KRAUSS": [{"ein": "208879724", "name": "KRAUSS FOUNDATION FOR HEALTH ANDHUMANITY", "city": "NEW YORK", "state": "NY", "zip": "10022-6448", "ntee": "Q33", "ruling": "200903", "deductibility": "1", "assets": 15, "income": 3, "revenue": 0}], "ITALIANS": [{"ein": "222186084", "name": "CLUB ITALIANS 74 DELL IMMACOLATA INC", "city": "BUFFALO", "state": "NY", "zip": "14216-2339", "ntee": "", "ruling": "198002", "deductibility": "1", "assets": 0, "income": 0, "revenue": 0}, {"ein": "463652546", "name": "NEW YORK ITALIANS INC", "city": "BROOKLYN", "state": "NY", "zip": "11218-1024", "ntee": "T30", "ruling": "202301", "deductibility": "1", "assets": 0, "income": 0, "revenue": 0}, {"ein": "850637898", "name": "ITALIANS FEED AMERICA INC", "city": "SYOSSET", "state": "NY", "zip": "11791-2716", "ntee": "K30", "ruling": "202004", "deductibility": "1", "assets": 0, "income": 0, "revenue": 0}], "MILLSITE": [{"ein": "222486741", "name": "MILLSITE LAKE PROPERTY OWNERS ASSOCIATION INC", "city": "CONSTANTIA", "state": "NY", "zip": "13044-0039", "ntee": "", "ruling": "199705", "deductibility": "2", "assets": 0, "income": 0, "revenue": 0}], "MAIMOUNA": [{"ein": "222983095", "name": "MAIMOUNA KEITA SCHOOL OF AFRICAN DANCE INC", "city": "BROOKLYN", "state": "NY", "zip": "11216-5723", "ntee": "A60Z", "ruling": "199702", "deductibility": "1", "assets": 805, "income": 87081, "revenue": 87081}], "DIRECTORY": [{"ein": "223191487", "name": "AUTISM DIRECTORY SERVICE INC", "city": "WAPPINGERS FL", "state": "NY", "zip": "12590-0073", "ntee": "B99Z", "ruling": "199302", "deductibility": "1", "assets": 89720, "income": 72218, "revenue": 63937}, {"ein": "383935320", "name": "BLACK BUSINESS DIRECTORY INC", "city": "ROCHESTER", "state": "NY", "zip": "14614-1339", "ntee": "S43", "ruling": "201408", "deductibility": "1", "assets": 0, "income": 0, "revenue": 0}], "LEKITEI": [{"ein": "237293068", "name": "CONGREGATION & YESHIVA LEKITEI MEHARIU OF ZIDITSHOIV", "city": "BROOKLYN", "state": "NY", "zip": "11219-4746", "ntee": "", "ruling": "197305", "deductibility": "1", "assets": 0, "income": 0, "revenue": 0}, {"ein": "452745293", "name": "LEKITEI ORAH INC", "city": "BROOKLYN", "state": "NY", "zip": "11206-5422", "ntee": "X30", "ruling": "201406", "deductibility": "1", "assets": 0, "income": 0, "revenue": 0}], "ACMH": [{"ein": "237293784", "name": "ACMH INC", "city": "NEW YORK", "state": "NY", "zip": "10001-2813", "ntee": "", "ruling": "197402", "deductibility": "1", "assets": 63839595, "income": 46965204, "revenue": 41710529}, {"ein": "273346703", "name": "ACMH BUILDING 74 HDFC", "city": "NEW YORK", "state": "NY", "zip": "10001-2813", "ntee": "L24", "ruling": "201010", "deductibility": "2", "assets": 17543749, "income": 1125473, "revenue": 1125473}, {"ein": "454732516", "name": "ACMH E 144TH STREET HOUSING DEVELOPMENT CORPORATION", "city": "NEW YORK", "state": "NY", "zip": "10001-2813", "ntee": "L21", "ruling": "201209", "deductibility": "2", "assets": 1716458, "income": 0, "revenue": 0}, {"ein": "834697002", "name": "ACMH CONVENT AVENUE RESIDENCE HOUSING DEVELOPMENT FUND CORPORATI", "city": "NEW YORK", "state": "NY", "zip": "10001-2813", "ntee": "L20", "ruling": "201910", "deductibility": "2", "assets": 8721965, "income": 564200, "revenue": 564200}], "THESE": [{"ein": "237307464", "name": "THESE OUR TREASURES INC", "city": "NEW YORK", "state": "NY", "zip": "10017-6733", "ntee": "", "ruling": "197601", "deductibility": "1", "assets": 4382181, "income": 1632943, "revenue": 1632943}, {"ein": "475040844", "name": "LEAST OF THESE COMMUNITY CENTER", "city": "WALLKILL", "state": "NY", "zip": "12589-2643", "ntee": "X20", "ruling": "201611", "deductibility": "1", "assets": 0, "income": 0, "revenue": 0}, {"ein": "800444929", "name": "AZZAHRA ASLAM QUIM THESE ARE THE LIGHTS KRST INC", "city": "BUFFALO", "state": "NY", "zip": "14222-2202", "ntee": "X99", "ruling": "201001", "deductibility": "1", "assets": 0, "income": 0, "revenue": 0}, {"ein": "811839691", "name": "LETS SEND THESE KIDS TO SCHOOL INC", "city": "NEW YORK", "state": "NY", "zip": "10024-7023", "ntee": "P20", "ruling": "201610", "deductibility": "1", "assets": 0, "income": 0, "revenue": 0}], "CHEKPEDS": [{"ein": "264483508", "name": "CHEKPEDS INC", "city": "NEW YORK", "state": "NY", "zip": "10018-2992", "ntee": "P20", "ruling": "200905", "deductibility": "1", "assets": 15449, "income": 17729, "revenue": 17729}], "TYRONE": [{"ein": "264535581", "name": "COUNTY TYRONE PIPE BAND INC", "city": "EAST ISLIP", "state": "NY", "zip": "11730-2638", "ntee": "A68", "ruling": "201111", "deductibility": "1", "assets": 0, "income": 0, "revenue": 0}, {"ein": "830451867", "name": "TYRONE VOLUNTEER FIRE COMPANY INC", "city": "TYRONE", "state": "NY", "zip": "14887-0069", "ntee": "M24", "ruling": "201012", "deductibility": "1", "assets": 1065382, "income": 250365, "revenue": 221140}], "100CAMERAS": [{"ein": "264692506", "name": "100CAMERAS INC", "city": "NEW YORK", "state": "NY", "zip": "10185-4876", "ntee": "O50", "ruling": "201012", "deductibility": "1", "assets": 16156, "income": 152286, "revenue": 152286}], "NED": [{"ein": "270306441", "name": "NED ALUMNI ASSOCIATION INC", "city": "DIX HILLS", "state": "NY", "zip": "11746-7162", "ntee": "B84", "ruling": "201007", "deductibility": "1", "assets": 0, "income": 0, "revenue": 0}, {"ein": "466420630", "name": "NED AND GEORGIA GIAN FAMILY FOUNDATION", "city": "EAST AMHERST", "state": "NY", "zip": "14051-1890", "ntee": "Z99", "ruling": "201407", "deductibility": "1", "assets": 489028, "income": 176320, "revenue": 0}, {"ein": "811514980", "name": "NED KOMENKOWSKI FOUNDATION INC", "city": "JAMAICA", "state": "NY", "zip": "11435-4416", "ntee": "T50", "ruling": "201805", "deductibility": "1", "assets": 0, "income": 0, "revenue": 0}], "DUDJOM": [{"ein": "271950140", "name": "DUDJOM TROMA FOUNDATION", "city": "JACKSON HEIGHTS", "state": "NY", "zip": "11372-1751", "ntee": "X50", "ruling": "201111", "deductibility": "1", "assets": 0, "income": 0, "revenue": 0}, {"ein": "813800079", "name": "DUDJOM DHARMA HOUSE NYC INC", "city": "WOODSIDE", "state": "NY", "zip": "11377-1925", "ntee": "S80", "ruling": "201612", "deductibility": "1", "assets": 233805, "income": 190640, "revenue": 190640}, {"ein": "943062179", "name": "DUDJOM INTERNATIONAL FOUNDATION", "city": "DELHI", "state": "NY", "zip": "13753-8738", "ntee": "Q33", "ruling": "201406", "deductibility": "1", "assets": 0, "income": 0, "revenue": 0}], "LUND": [{"ein": "272169281", "name": "LUND UNIVERSITY FOUNDATION", "city": "RYE", "state": "NY", "zip": "10580-3637", "ntee": "B19", "ruling": "201103", "deductibility": "1", "assets": 84087, "income": 573561, "revenue": 573561}], "BARSHA": [{"ein": "272813610", "name": "JERRY BARSHA MEMORIAL FOUNDATION INC", "city": "MAHOPAC", "state": "NY", "zip": "10541-4715", "ntee": "B118", "ruling": "201312", "deductibility": "1", "assets": 0, "income": 0, "revenue": 0}], "WOOTENS": [{"ein": "272958909", "name": "VICTOR WOOTENS CENTER FOR MUSIC AND NATURE", "city": "NEW YORK", "state": "NY", "zip": "10123-0000", "ntee": "A68", "ruling": "201012", "deductibility": "1", "assets": 480464, "income": 465657, "revenue": 465657}], "GISELLE": [{"ein": "274196642", "name": "ALAN AND GISELLE WEISSMAN FAMILY FOUNDATION INC", "city": "HARRISON", "state": "NY", "zip": "10528-2432", "ntee": "T20", "ruling": "201103", "deductibility": "1", "assets": 5573, "income": 188500, "revenue": 0}, {"ein": "332272523", "name": "GISELLE DELORME HEART OF KINDNESS FOUNDATION INC", "city": "ROCHESTER", "state": "NY", "zip": "14612-4015", "ntee": "O12", "ruling": "202501", "deductibility": "1", "assets": 0, "income": 0, "revenue": 0}], "EIDE": [{"ein": "274355152", "name": "EIDE FAMILY FOUNDATION INC", "city": "NEW YORK", "state": "NY", "zip": "10171-0299", "ntee": "T20", "ruling": "201305", "deductibility": "1", "assets": 3024, "income": 2800, "revenue": 0}], "ROMA": [{"ein": "300056115", "name": "WORLD ROMA CULTURAL FEDERATION", "city": "BROOKLYN", "state": "NY", "zip": "11229-3642", "ntee": "", "ruling": "000000", "deductibility": "0", "assets": 1309, "income": 26412, "revenue": 0}, {"ein": "821728723", "name": "WORLD ROMA FEDERATION INC", "city": "BROOKLYN", "state": "NY", "zip": "11235-2805", "ntee": "P99", "ruling": "201708", "deductibility": "1", "assets": 0, "income": 0, "revenue": 0}, {"ein": "822442110", "name": "ROMA M KARP FOUNDATION INC", "city": "RIVERHEAD", "state": "NY", "zip": "11901-2723", "ntee": "T20", "ruling": "201801", "deductibility": "1", "assets": 3066492, "income": 1104540, "revenue": 0}], "KARA": [{"ein": "300739725", "name": "KARA FUND INC", "city": "CICERO", "state": "NY", "zip": "13039-8927", "ntee": "E86", "ruling": "201209", "deductibility": "1", "assets": 166663, "income": 154019, "revenue": 133090}, {"ein": "833115888", "name": "KARA CARES INC", "city": "DIX HILLS", "state": "NY", "zip": "11746-5607", "ntee": "E11", "ruling": "201904", "deductibility": "1", "assets": 0, "income": 0, "revenue": 0}], "MONTEVERDI": [{"ein": "311651106", "name": "AMERICAN FRIENDS OF THE MONTEVERDI CHOIR & ORCHESTRAS INC", "city": "NEW YORK", "state": "NY", "zip": "10019-0000", "ntee": "A11", "ruling": "199907", "deductibility": "1", "assets": 6143, "income": 140151, "revenue": 140151}], "AARTI": [{"ein": "311806198", "name": "AARTI FOUNDATION INC", "city": "FLORAL PARK", "state": "NY", "zip": "11001-1454", "ntee": "P60", "ruling": "200204", "deductibility": "1", "assets": 54777, "income": 88138, "revenue": 88138}], "LINGUANTI": [{"ein": "320205954", "name": "VINCENT LINGUANTI SCHOLARSHIP FUND INC", "city": "SPRING VALLEY", "state": "NY", "zip": "10977-3627", "ntee": "B82", "ruling": "201502", "deductibility": "1", "assets": 8740, "income": 1, "revenue": 1}], "HISS": [{"ein": "331196401", "name": "HISS & SPIT INC", "city": "KINGSTON", "state": "NY", "zip": "12401-2828", "ntee": "D20", "ruling": "200809", "deductibility": "1", "assets": 0, "income": 0, "revenue": 0}], "SHIRAT": [{"ein": "331491748", "name": "FRIENDS OF SHIRAT MIRIAM RAMAT SHLOMO INC", "city": "BROOKLYN", "state": "NY", "zip": "11234-4203", "ntee": "X30", "ruling": "202505", "deductibility": "1", "assets": 0, "income": 0, "revenue": 0}, {"ein": "851479442", "name": "SHIRAT DAVID INC", "city": "BROOKLYN", "state": "NY", "zip": "11223-1931", "ntee": "X12", "ruling": "202104", "deductibility": "1", "assets": 4555, "income": 219551, "revenue": 219551}, {"ein": "861476554", "name": "SHIRAT DAVID FOUNDATION", "city": "LAWRENCE", "state": "NY", "zip": "11559-1033", "ntee": "X30", "ruling": "202206", "deductibility": "1", "assets": 0, "income": 0, "revenue": 0}], "CHATS": [{"ein": "332253126", "name": "CAREER CHATS", "city": "ARMONK", "state": "NY", "zip": "10504-2326", "ntee": "J22", "ruling": "202412", "deductibility": "1", "assets": 0, "income": 0, "revenue": 0}, {"ein": "811408372", "name": "CHANGEMAKER CHATS", "city": "NEW YORK", "state": "NY", "zip": "10128-3458", "ntee": "W70", "ruling": "201604", "deductibility": "1", "assets": 0, "income": 0, "revenue": 0}], "MOM": [{"ein": "332307902", "name": "MOM S HOME NY INC", "city": "BUFFALO", "state": "NY", "zip": "14208-1606", "ntee": "S01", "ruling": "202503", "deductibility": "1", "assets": 0, "income": 0, "revenue": 0}, {"ein": "454389547", "name": "FUND A MOM INC", "city": "BROOKLYN", "state": "NY", "zip": "11238-0000", "ntee": "G81", "ruling": "201204", "deductibility": "1", "assets": 11937, "income": 18871, "revenue": 18871}, {"ein": "474420051", "name": "MOM POP FOUNDATION MP FUND", "city": "ASTORIA", "state": "NY", "zip": "11102-1368", "ntee": "A20", "ruling": "201607", "deductibility": "1", "assets": 0, "income": 0, "revenue": 0}, {"ein": "474437564", "name": "DESI AMERICAN MOM INC", "city": "QUEENS VLG", "state": "NY", "zip": "11427-2703", "ntee": "O50", "ruling": "201602", "deductibility": "1", "assets": 0, "income": 0, "revenue": 0}, {"ein": "811682516", "name": "MOM STARTS HERE INC", "city": "SCHENECTADY", "state": "NY", "zip": "12305-2409", "ntee": "P20", "ruling": "201704", "deductibility": "1", "assets": 19220, "income": 228381, "revenue": 228381}, {"ein": "833356902", "name": "NOT YOUR MOM INC", "city": "ROCHESTER", "state": "NY", "zip": "14620-1346", "ntee": "A20", "ruling": "201911", "deductibility": "1", "assets": 0, "income": 0, "revenue": 0}, {"ein": "844808173", "name": "MOM FOUNDATION INC", "city": "TAPPAN", "state": "NY", "zip": "10983-1739", "ntee": "X20", "ruling": "202003", "deductibility": "1", "assets": 53177, "income": 76967, "revenue": 76967}, {"ein": "862945076", "name": "MOM XOX", "city": "TROY", "state": "NY", "zip": "12180-7328", "ntee": "S12", "ruling": "202306", "deductibility": "1", "assets": 0, "income": 0, "revenue": 0}, {"ein": "863880580", "name": "MOM FILM FEST INC", "city": "BROOKLYN", "state": "NY", "zip": "11234-5213", "ntee": "A01", "ruling": "202111", "deductibility": "1", "assets": 300, "income": 3284, "revenue": 3284}, {"ein": "993294301", "name": "MOM CENTER - MOMMY ME TIME", "city": "NEW YORK", "state": "NY", "zip": "10031-2259", "ntee": "P80", "ruling": "202406", "deductibility": "1", "assets": 0, "income": 0, "revenue": 0}], "CHASDIA": [{"ein": "334258523", "name": "CHASDIA SHLOME INC", "city": "BROOKLYN", "state": "NY", "zip": "11211-8031", "ntee": "W01", "ruling": "202506", "deductibility": "1", "assets": 0, "income": 0, "revenue": 0}], "KIA": [{"ein": "334888478", "name": "KIA KARES", "city": "BRONX", "state": "NY", "zip": "10456-7880", "ntee": "P20", "ruling": "202506", "deductibility": "1", "assets": 0, "income": 0, "revenue": 0}, {"ein": "831860656", "name": "THE KIA FOUNDATION INC", "city": "SYRACUSE", "state": "NY", "zip": "13208-3010", "ntee": "D60", "ruling": "201809", "deductibility": "1", "assets": 0, "income": 0, "revenue": 0}], "CHOZER": [{"ein": "352719645", "name": "LA CHOZER INC", "city": "CEDARHURST", "state": "NY", "zip": "11516-1208", "ntee": "P84", "ruling": "202402", "deductibility": "1", "assets": 457, "income": 103081, "revenue": 103081}], "MOLTON": [{"ein": "364106150", "name": "MOLTON FAMILY FOUNDATION", "city": "NEW YORK", "state": "NY", "zip": "10036-0000", "ntee": "T20Z", "ruling": "199703", "deductibility": "1", "assets": 1576254, "income": 511336, "revenue": 0}], "CHOCHMOSA": [{"ein": "383694346", "name": "CONGREGATION RIMZA D CHOCHMOSA INC", "city": "MONSEY", "state": "NY", "zip": "10952-2709", "ntee": "X30", "ruling": "200409", "deductibility": "1", "assets": 0, "income": 0, "revenue": 0}], "NEWSONG": [{"ein": "383927319", "name": "NEWSONG CHURCH", "city": "BRONX", "state": "NY", "zip": "10475-4302", "ntee": "", "ruling": "196408", "deductibility": "1", "assets": 0, "income": 0, "revenue": 0}], "GULAB": [{"ein": "383938767", "name": "GULAB BANO ISLAMIC COMMUNITY CENTER INC", "city": "BROOKLYN", "state": "NY", "zip": "11214-2713", "ntee": "X40", "ruling": "201501", "deductibility": "1", "assets": 2056, "income": 0, "revenue": 0}, {"ein": "800885363", "name": "GULAB BANO FDN INC", "city": "BROOKLYN", "state": "NY", "zip": "11214-2713", "ntee": "Z99", "ruling": "201406", "deductibility": "1", "assets": 150596, "income": 578470, "revenue": 578470}, {"ein": "853943799", "name": "GULAB SHAH MEMORIAL FOUNDATION", "city": "OZONE PARK", "state": "NY", "zip": "11416-1931", "ntee": "", "ruling": "202309", "deductibility": "1", "assets": 0, "income": 0, "revenue": 0}], "LOHMAN": [{"ein": "383994147", "name": "LOHMAN VILLAGE HOUSING DEVELOPMENT FUND CORPORATION", "city": "MOUNT VERNON", "state": "NY", "zip": "10552-3821", "ntee": "P75", "ruling": "201607", "deductibility": "2", "assets": 6220279, "income": 3128174, "revenue": 1855250}, {"ein": "461245243", "name": "LESLIE LOHMAN MUSEUM OF GAY AND LESBIAN ART", "city": "NEW YORK", "state": "NY", "zip": "10013-2227", "ntee": "A99", "ruling": "201408", "deductibility": "1", "assets": 13796714, "income": 3555145, "revenue": 2219129}], "TEKUMAT": [{"ein": "452417854", "name": "TEKUMAT ISRAEL INC", "city": "BROOKLYN", "state": "NY", "zip": "11219-1300", "ntee": "X30", "ruling": "201207", "deductibility": "1", "assets": 0, "income": 0, "revenue": 0}], "ELASTIC": [{"ein": "453797951", "name": "ELASTIC CITY PERFORMING ARTS INC", "city": "BROOKLYN", "state": "NY", "zip": "11218-1429", "ntee": "A20", "ruling": "201209", "deductibility": "1", "assets": 0, "income": 0, "revenue": 0}], "MHH": [{"ein": "453995403", "name": "MHH CHARITABLE FOUNDATION", "city": "BROOKLYN", "state": "NY", "zip": "11219-5020", "ntee": "T22", "ruling": "201201", "deductibility": "1", "assets": 38, "income": 1, "revenue": 0}], "DORADO": [{"ein": "454923969", "name": "EL DORADO FOUNDATION INC", "city": "JAMAICA", "state": "NY", "zip": "11433-2108", "ntee": "P99", "ruling": "201606", "deductibility": "1", "assets": 0, "income": 0, "revenue": 0}], "MNACHEM": [{"ein": "455555509", "name": "KAYREN MNACHEM MENDEL", "city": "BROOKLYN", "state": "NY", "zip": "11249-6041", "ntee": "X30", "ruling": "201303", "deductibility": "1", "assets": 0, "income": 0, "revenue": 0}], "NAVAGRAHA": [{"ein": "462101564", "name": "SHRI NAVAGRAHA DEVASTHANAM OF NORTH AMERICA INC", "city": "NEW HYDE PARK", "state": "NY", "zip": "11040-2604", "ntee": "X70", "ruling": "201601", "deductibility": "1", "assets": 781584, "income": 446563, "revenue": 446563}], "NOMAD": [{"ein": "463652455", "name": "BLUE NOMAD FOUNDATION INC", "city": "LIDO BEACH", "state": "NY", "zip": "11561-5019", "ntee": "C05", "ruling": "201501", "deductibility": "1", "assets": 114, "income": 100, "revenue": 0}, {"ein": "475567458", "name": "NOMAD ALLIANCE", "city": "NEW YORK", "state": "NY", "zip": "10010-2092", "ntee": "S21", "ruling": "201701", "deductibility": "1", "assets": 15443, "income": 26450, "revenue": 26450}], "YTZHAQ": [{"ein": "463846086", "name": "FRIENDS OF MOSDOT NAHALAT YTZHAQ INC", "city": "BROOKLYN", "state": "NY", "zip": "11234-4203", "ntee": "X20", "ruling": "201406", "deductibility": "1", "assets": 1972, "income": 395815, "revenue": 395815}], "DUNEMERE": [{"ein": "465416909", "name": "12 DUNEMERE INC", "city": "EAST HAMPTON", "state": "NY", "zip": "11937-2721", "ntee": "A20", "ruling": "201809", "deductibility": "1", "assets": 3011070, "income": 147787, "revenue": 146320}], "DEFICIENCY": [{"ein": "465442800", "name": "G6PD DEFICIENCY FOUNDATION INC", "city": "BABYLON", "state": "NY", "zip": "11702-3405", "ntee": "E80", "ruling": "201502", "deductibility": "1", "assets": 29821, "income": 7058, "revenue": 7058}], "MADHAB": [{"ein": "465480001", "name": "SHREE SHREE RADHA MADHAB MANDIR", "city": "BROOKLYN", "state": "NY", "zip": "11218-4208", "ntee": "X40", "ruling": "201703", "deductibility": "1", "assets": 59589, "income": 45565, "revenue": 45565}], "SOWING": [{"ein": "471370938", "name": "WOMEN SOWING SEEDS COMMUNITY ADVOCATE", "city": "BROOKLYN", "state": "NY", "zip": "11221-1911", "ntee": "S80", "ruling": "201505", "deductibility": "2", "assets": 1, "income": 0, "revenue": 0}, {"ein": "562559638", "name": "SOWING THE SEED CHRISTIAN CHURCH INC", "city": "BRONX", "state": "NY", "zip": "10473-3025", "ntee": "X21", "ruling": "200612", "deductibility": "1", "assets": 85420, "income": 85420, "revenue": 85420}, {"ein": "883087851", "name": "SOWING SEEDS OF FAITH FOUNDATION", "city": "TONAWANDA", "state": "NY", "zip": "14150-3858", "ntee": "O50", "ruling": "202207", "deductibility": "1", "assets": 1, "income": 5166, "revenue": 5166}, {"ein": "934228149", "name": "SOWING HOPE FOUNDATION INC", "city": "BRONX", "state": "NY", "zip": "10462-4383", "ntee": "G84", "ruling": "202311", "deductibility": "1", "assets": 1, "income": 2540, "revenue": 2540}, {"ein": "934262495", "name": "SOWING INTO SOULS INC", "city": "WEST BABYLON", "state": "NY", "zip": "11704-5113", "ntee": "P40", "ruling": "202403", "deductibility": "1", "assets": 0, "income": 0, "revenue": 0}], "FAREED": [{"ein": "472054426", "name": "FAREED AND PAULA ZAKARIA FOUNDATION", "city": "NEW YORK", "state": "NY", "zip": "10025-4942", "ntee": "T90", "ruling": "201605", "deductibility": "1", "assets": 10705, "income": 25467, "revenue": 0}], "CAMPOLO": [{"ein": "472294404", "name": "CARMEN A CAMPOLO MEMORIAL FUND INC", "city": "CLARENCE CTR", "state": "NY", "zip": "14032-9437", "ntee": "T99", "ruling": "201506", "deductibility": "1", "assets": 0, "income": 0, "revenue": 0}], "RUMACK": [{"ein": "472590744", "name": "FRED AND MAXINE RUMACK FAMILY FOUNDATION", "city": "GREAT NECK", "state": "NY", "zip": "11020-1710", "ntee": "T20", "ruling": "201505", "deductibility": "1", "assets": 758927, "income": 326139, "revenue": 0}], "PRANAVANANDA": [{"ein": "472704497", "name": "GURU PRANAVANANDA SRIRITUAL CENTER INC", "city": "OZONE PARK", "state": "NY", "zip": "11417-1622", "ntee": "X70", "ruling": "201602", "deductibility": "1", "assets": 0, "income": 0, "revenue": 0}], "EDGRA": [{"ein": "473405312", "name": "IRA AND EDGRA RINGLER FAMILY FOUNDATION INC", "city": "NEW YORK", "state": "NY", "zip": "10021-5510", "ntee": "T22", "ruling": "201509", "deductibility": "1", "assets": 2067898, "income": 2158382, "revenue": 0}], "CODA": [{"ein": "475374444", "name": "CODA MEDIA INC", "city": "NEW YORK", "state": "NY", "zip": "10017-6434", "ntee": "", "ruling": "202009", "deductibility": "1", "assets": 1037920, "income": 1623124, "revenue": 1623124}], "CHERNOV": [{"ein": "521517004", "name": "LEAH BELLE & P DAVID CHERNOV CHARITABLE FOUNDATION", "city": "NEW YORK", "state": "NY", "zip": "10035-0000", "ntee": "", "ruling": "198804", "deductibility": "1", "assets": 32084, "income": 10569, "revenue": 0}], "GRANOFF": [{"ein": "521647009", "name": "PERRY AND MARTIN GRANOFF FAMILY FOUNDATION INC", "city": "NEW YORK", "state": "NY", "zip": "10017-0000", "ntee": "", "ruling": "199004", "deductibility": "1", "assets": 22, "income": 1, "revenue": 0}], "YOCHAI": [{"ein": "522135510", "name": "SIMON BAR YOCHAI", "city": "BROOKLYN", "state": "NY", "zip": "11204-1410", "ntee": "X30", "ruling": "200106", "deductibility": "1", "assets": 0, "income": 0, "revenue": 0}], "ORMER": [{"ein": "526209682", "name": "W A VAN ORMER TR FUND", "city": "AMHERST", "state": "NY", "zip": "14228-2307", "ntee": "", "ruling": "000000", "deductibility": "0", "assets": 182729, "income": 36422, "revenue": 0}], "RIENZO": [{"ein": "550835658", "name": "MICHAEL DE RIENZO CHARITABLE FOUNDATION", "city": "STATEN ISLAND", "state": "NY", "zip": "10310-3012", "ntee": "P20", "ruling": "200404", "deductibility": "1", "assets": 40873, "income": 21, "revenue": 0}], "LISBEN": [{"ein": "582395697", "name": "LISBEN CHARITABLE FOUNDATION INC", "city": "SCHENECTADY", "state": "NY", "zip": "12309-1321", "ntee": "T20", "ruling": "199903", "deductibility": "1", "assets": 131241, "income": 39953, "revenue": 0}], "UTPL": [{"ein": "582640089", "name": "UTPL-NY INC", "city": "JAMAICA", "state": "NY", "zip": "11432-3042", "ntee": "A23", "ruling": "200203", "deductibility": "1", "assets": 570314, "income": 575985, "revenue": 575985}], "DISPATCHER": [{"ein": "800333461", "name": "EAST HAMPTON VILLAGE PUBLIC SAFETY DISPATCHER ASS", "city": "EAST HAMPTON", "state": "NY", "zip": "11937-2200", "ntee": "J40", "ruling": "201305", "deductibility": "2", "assets": 0, "income": 0, "revenue": 0}], "DCH": [{"ein": "811073604", "name": "DCH SPORTS INC", "city": "HOPEWELL JCT", "state": "NY", "zip": "12533-5146", "ntee": "B99", "ruling": "201904", "deductibility": "1", "assets": 0, "income": 0, "revenue": 0}], "AJJ": [{"ein": "812174726", "name": "AJJ SCHOLARSHIP FUND INCORPORATED", "city": "EAST QUOGUE", "state": "NY", "zip": "11942-4336", "ntee": "B82", "ruling": "201607", "deductibility": "1", "assets": 467309, "income": 201920, "revenue": 0}], "ANNUNCIATION": [{"ein": "812488182", "name": "ROMAN CATHOLIC CHURCH OF ANNUNCIATION AND OUR LADY OF FATIM", "city": "TUCKAHOE", "state": "NY", "zip": "10707-1326", "ntee": "", "ruling": "194603", "deductibility": "1", "assets": 0, "income": 0, "revenue": 0}, {"ein": "822103835", "name": "ANNUNCIATION PHILOPTOCHOS BUFFALO 7035 INC", "city": "BUFFALO", "state": "NY", "zip": "14222-2018", "ntee": "T50", "ruling": "202401", "deductibility": "1", "assets": 0, "income": 0, "revenue": 0}], "LEPERA": [{"ein": "812556793", "name": "JENNIFER C LEPERA MEMORIAL FOUNDATION INC", "city": "WAPPINGERS FL", "state": "NY", "zip": "12590-0332", "ntee": "E86", "ruling": "201612", "deductibility": "1", "assets": 24925, "income": 10386, "revenue": 10386}], "OKPU": [{"ein": "814345868", "name": "OKPU MBAISE ASSOCIATION NY INC", "city": "BROOKLYN", "state": "NY", "zip": "11236-4233", "ntee": "E60", "ruling": "202301", "deductibility": "1", "assets": 0, "income": 0, "revenue": 0}, {"ein": "834710313", "name": "UMU-OKPU NGWA ASSOCIATION USA AND DIASPORA INC", "city": "BRONX", "state": "NY", "zip": "10467-6438", "ntee": "A23", "ruling": "201908", "deductibility": "1", "assets": 0, "income": 0, "revenue": 0}], "ELITA": [{"ein": "815218002", "name": "CLUB A-ELITA INC", "city": "BROOKLYN", "state": "NY", "zip": "11214-6849", "ntee": "S20", "ruling": "201708", "deductibility": "1", "assets": 1, "income": 75032, "revenue": 75032}], "ECA": [{"ein": "816192731", "name": "ECA FOUNDATION", "city": "BROOKLYN", "state": "NY", "zip": "11204-2014", "ntee": "T22", "ruling": "201805", "deductibility": "1", "assets": 1, "income": 1, "revenue": 0}], "MOCAA": [{"ein": "821484226", "name": "AMERICAN FRIENDS OF ZEITZ MOCAA", "city": "KATONAH", "state": "NY", "zip": "10536-1810", "ntee": "A12", "ruling": "201706", "deductibility": "1", "assets": 146990, "income": 2776937, "revenue": 2776937}], "GFYC": [{"ein": "821999192", "name": "GFYC FOUNDATION INC", "city": "NEW YORK", "state": "NY", "zip": "10021-3085", "ntee": "T21", "ruling": "201903", "deductibility": "1", "assets": 118897, "income": 240615, "revenue": 142190}], "IMISHPACHA": [{"ein": "822463353", "name": "IMISHPACHA INC", "city": "BROOKLYN", "state": "NY", "zip": "11229-5131", "ntee": "P20", "ruling": "201710", "deductibility": "1", "assets": 183880, "income": 181068, "revenue": 181068}], "YOLO": [{"ein": "823035791", "name": "YOLO STRONG INC", "city": "OYSTER BAY", "state": "NY", "zip": "11771-6015", "ntee": "T50", "ruling": "201801", "deductibility": "1", "assets": 79388, "income": 11631, "revenue": 11631}], "METAMORPHOSIS": [{"ein": "823299066", "name": "METAMORPHOSIS HANDS OF HOPE INC", "city": "ALBERTSON", "state": "NY", "zip": "11507-0000", "ntee": "X22", "ruling": "201811", "deductibility": "1", "assets": 0, "income": 0, "revenue": 0}, {"ein": "932897479", "name": "METAMORPHOSIS CENTER INC", "city": "BROOKLYN", "state": "NY", "zip": "11204-1425", "ntee": "E60", "ruling": "202408", "deductibility": "1", "assets": 0, "income": 0, "revenue": 0}], "INHISHANDS": [{"ein": "825429200", "name": "INHISHANDS OUTREACH MINISTRIES INC", "city": "CORNING", "state": "NY", "zip": "14830-2913", "ntee": "X99", "ruling": "201807", "deductibility": "1", "assets": 0, "income": 0, "revenue": 0}], "JTS": [{"ein": "832108147", "name": "JTS LAW FOUNDATION CORP", "city": "SEAFORD", "state": "NY", "zip": "11783-2601", "ntee": "M41", "ruling": "201904", "deductibility": "1", "assets": 2305, "income": 1512, "revenue": 0}], "WAVEFIELD": [{"ein": "832844961", "name": "WAVEFIELD INC", "city": "NEW YORK", "state": "NY", "zip": "10034-1013", "ntee": "A6C", "ruling": "201903", "deductibility": "1", "assets": 0, "income": 0, "revenue": 0}], "SCOTBARNY": [{"ein": "833050370", "name": "SCOTBARNY FOUNDATION INC", "city": "BROOKLYN", "state": "NY", "zip": "11233-1868", "ntee": "T30", "ruling": "201902", "deductibility": "1", "assets": 453, "income": 0, "revenue": 0}], "NMWA": [{"ein": "842288726", "name": "NEW YORK COMMITTEE - NMWA INC", "city": "MAMARONECK", "state": "NY", "zip": "10543-1946", "ntee": "A51", "ruling": "202001", "deductibility": "1", "assets": 0, "income": 0, "revenue": 0}], "HISTOURY": [{"ein": "844712223", "name": "HISTOURY INC", "city": "NEW ROCHELLE", "state": "NY", "zip": "10804-3617", "ntee": "A54", "ruling": "202112", "deductibility": "1", "assets": 0, "income": 0, "revenue": 0}], "VOSTITSA": [{"ein": "844986370", "name": "MUTUAL SOCIETY AIGIOTON VOSTITSA CORP", "city": "ASTORIA", "state": "NY", "zip": "11105-2750", "ntee": "A23", "ruling": "202306", "deductibility": "1", "assets": 0, "income": 0, "revenue": 0}], "QD": [{"ein": "853870624", "name": "QD BUSHWICK INCORPORATED", "city": "BROOKLYN", "state": "NY", "zip": "11237-3282", "ntee": "R26", "ruling": "202103", "deductibility": "1", "assets": 0, "income": 0, "revenue": 0}], "VRY": [{"ein": "854403273", "name": "VRY BLK", "city": "BROOKLYN", "state": "NY", "zip": "11208-2498", "ntee": "P20", "ruling": "202107", "deductibility": "1", "assets": 0, "income": 0, "revenue": 0}], "ELKHORN": [{"ein": "861245051", "name": "ELKHORN MARINE CONSERVANCY INC", "city": "ROCHESTER", "state": "NY", "zip": "14604-0000", "ntee": "", "ruling": "202104", "deductibility": "1", "assets": 587039, "income": 439916, "revenue": 439916}], "NEIMOS": [{"ein": "861626186", "name": "NEIMOS YISROEL", "city": "BROOKLYN", "state": "NY", "zip": "11219-5198", "ntee": "X30", "ruling": "202110", "deductibility": "1", "assets": 0, "income": 0, "revenue": 0}], "INEVITABLE": [{"ein": "861768321", "name": "INEVITABLE FOUNDATION", "city": "NEW YORK", "state": "NY", "zip": "10003-1502", "ntee": "T30", "ruling": "202110", "deductibility": "1", "assets": 962154, "income": 886810, "revenue": 886810}, {"ein": "881963589", "name": "INEVITABLE EMUNAH INC", "city": "BROOKLYN", "state": "NY", "zip": "11219-3803", "ntee": "X30", "ruling": "202206", "deductibility": "1", "assets": 0, "income": 0, "revenue": 0}], "YANAPAWAY": [{"ein": "862159395", "name": "YANAPAWAY INC", "city": "PLEASANTVILLE", "state": "NY", "zip": "10570-3231", "ntee": "P60", "ruling": "202108", "deductibility": "1", "assets": 0, "income": 0, "revenue": 0}], "HAVDULAH": [{"ein": "873893927", "name": "HAVDULAH", "city": "BROOKLYN", "state": "NY", "zip": "11219-0608", "ntee": "X30", "ruling": "202305", "deductibility": "1", "assets": 0, "income": 0, "revenue": 0}], "RABOISEINU": [{"ein": "880661322", "name": "CONGREGATION KOL RABOISEINU INC", "city": "BROOKLYN", "state": "NY", "zip": "11219-3738", "ntee": "X30", "ruling": "202301", "deductibility": "1", "assets": 0, "income": 0, "revenue": 0}], "BARDITCHIEV": [{"ein": "883764275", "name": "CONG KEDISHAS LEVY BARDITCHIEV", "city": "STATEN ISLAND", "state": "NY", "zip": "10314-2689", "ntee": "X30", "ruling": "202406", "deductibility": "1", "assets": 0, "income": 0, "revenue": 0}], "YESH": [{"ein": "884035299", "name": "YESH TIKVAH", "city": "BROOKLYN", "state": "NY", "zip": "11230-3066", "ntee": "X30", "ruling": "202303", "deductibility": "1", "assets": 0, "income": 0, "revenue": 0}, {"ein": "993410085", "name": "OHAVEI YESH", "city": "BROOKLYN", "state": "NY", "zip": "11205-3913", "ntee": "X30", "ruling": "202501", "deductibility": "1", "assets": 0, "income": 0, "revenue": 0}], "CRAFTY": [{"ein": "920827856", "name": "CRAFTY GETAWAYS CARES INC", "city": "MILLER PLACE", "state": "NY", "zip": "11764-0000", "ntee": "P99", "ruling": "202211", "deductibility": "1", "assets": 0, "income": 0, "revenue": 0}], "HARKRISHAN": [{"ein": "921673457", "name": "SRI GURU HARKRISHAN SAHIB SEWA INC", "city": "AMHERST", "state": "NY", "zip": "14226-2134", "ntee": "X70", "ruling": "202302", "deductibility": "1", "assets": 0, "income": 0, "revenue": 0}], "JMH": [{"ein": "922400979", "name": "JMH FAMILY FUND INC", "city": "BROOKLYN", "state": "NY", "zip": "11216-5473", "ntee": "O99", "ruling": "202312", "deductibility": "1", "assets": 0, "income": 0, "revenue": 0}], "WUFU": [{"ein": "931546589", "name": "WUFU DADI CORP", "city": "BROOKLYN", "state": "NY", "zip": "11233-3035", "ntee": "X50", "ruling": "202308", "deductibility": "1", "assets": 0, "income": 0, "revenue": 0}], "BACKCOUNTRY": [{"ein": "933160566", "name": "BACKCOUNTRY YOUTH FOUNDATION", "city": "WESTPORT", "state": "NY", "zip": "12993-3014", "ntee": "O99", "ruling": "202402", "deductibility": "1", "assets": 0, "income": 0, "revenue": 0}], "TAMARINDO": [{"ein": "933959298", "name": "FRIENDS OF CHABAD TAMARINDO INC", "city": "BROOKLYN", "state": "NY", "zip": "11210-0000", "ntee": "X30", "ruling": "202311", "deductibility": "1", "assets": 0, "income": 0, "revenue": 0}], "NEGHBORHOOD": [{"ein": "993126615", "name": "OUR WORLD NEGHBORHOOD CHARTER SCHOOL 2 PTO", "city": "QUEENS", "state": "NY", "zip": "11414-1010", "ntee": "B94", "ruling": "202405", "deductibility": "1", "assets": 0, "income": 0, "revenue": 0}], "OOSAIF": [{"ein": "994753118", "name": "OOSAIF INTERNATIONAL INCORPORATED", "city": "NEW YORK", "state": "NY", "zip": "10003-1502", "ntee": "W99", "ruling": "202410", "deductibility": "1", "assets": 0, "income": 0, "revenue": 0}]}