{"DREISER": [{"ein": "010677804", "name": "RETIREES OF DREISER LOOP INC", "city": "BRONX", "state": "NY", "zip": "10475-2705", "ntee": "T990", "ruling": "200809", "deductibility": "1", "assets": 7333, "income": 131702, "revenue": 131702}], "FELIX": [{"ein": "010733159", "name": "FELIX GONZALEZ-TORRES FOUNDATION", "city": "NEW YORK", "state": "NY", "zip": "10011-1103", "ntee": "A70", "ruling": "200307", "deductibility": "1", "assets": 1031547, "income": 2636, "revenue": 0}, {"ein": "166532975", "name": "LOTTE AND FELIX BILGREY MEMORIAL FOUNDATION TR UTA 05242000", "city": "LARCHMONT", "state": "NY", "zip": "10538-0197", "ntee": "T21", "ruling": "200210", "deductibility": "1", "assets": 1815857, "income": 65210, "revenue": 0}, {"ein": "204413828", "name": "FELIX ORGANIZATION - ADOPTEES FOR CHILDREN INC", "city": "LOCUST VALLEY", "state": "NY", "zip": "11560-2322", "ntee": "N20", "ruling": "200611", "deductibility": "1", "assets": 564005, "income": 842044, "revenue": 776805}, {"ein": "392212119", "name": "FRIENDS OF FELIX RESCUE AND SANCTUARY INC", "city": "MINETTO", "state": "NY", "zip": "13115-7720", "ntee": "D20", "ruling": "202507", "deductibility": "1", "assets": 0, "income": 0, "revenue": 0}], "JANE": [{"ein": "020663360", "name": "JANE AND SAM SUTTON FAMILY FOUNDATION", "city": "NEW YORK", "state": "NY", "zip": "10007-2691", "ntee": "T20", "ruling": "200303", "deductibility": "1", "assets": 154979, "income": 145962, "revenue": 0}, {"ein": "061480028", "name": "RALPH A JR & JANE C PFEIFFER FOUNDATION INC", "city": "NEW YORK", "state": "NY", "zip": "10020-2003", "ntee": "T20Z", "ruling": "199801", "deductibility": "1", "assets": 2673878, "income": -13353, "revenue": 0}, {"ein": "061573700", "name": "JANE HENSON FOUNDATION INC", "city": "NEW YORK", "state": "NY", "zip": "10017-0000", "ntee": "T20", "ruling": "200005", "deductibility": "1", "assets": 5339646, "income": 2322483, "revenue": 0}, {"ein": "116577139", "name": "JANE JOHNSON WASSON TR UW", "city": "ELMIRA", "state": "NY", "zip": "14902-0152", "ntee": "A128", "ruling": "200311", "deductibility": "1", "assets": 70689, "income": 3415, "revenue": 0}, {"ein": "131871554", "name": "JANE ADDAMS PEACE ASSOCIATION INC", "city": "NEW YORK", "state": "NY", "zip": "10001-4527", "ntee": "Q400", "ruling": "199510", "deductibility": "1", "assets": 3134813, "income": 711463, "revenue": 336205}, {"ein": "133382812", "name": "REUBEN AND JANE LEIBOWITZ FOUNDATION INC", "city": "NEW YORK", "state": "NY", "zip": "10019-5431", "ntee": "", "ruling": "198704", "deductibility": "1", "assets": 3279259, "income": 501085, "revenue": 0}, {"ein": "133389567", "name": "JANE STERN FAMILY FOUNDATION INC", "city": "NEW YORK", "state": "NY", "zip": "10075-0142", "ntee": "", "ruling": "198703", "deductibility": "1", "assets": 166030, "income": 64291, "revenue": 0}, {"ein": "133680380", "name": "ALFRED AND JANE ROSS FOUNDATION INC", "city": "NEW YORK", "state": "NY", "zip": "10020-0000", "ntee": "", "ruling": "199304", "deductibility": "1", "assets": 14059892, "income": 1227095, "revenue": 0}, {"ein": "133931803", "name": "SWEET JANE PRODUCTIONS INC", "city": "BROOKLYN", "state": "NY", "zip": "11205-1309", "ntee": "A65", "ruling": "199710", "deductibility": "1", "assets": 264211, "income": 465782, "revenue": 465782}, {"ein": "135677832", "name": "HARRY & JANE FISCHEL FOUNDATION", "city": "FOREST HILLS", "state": "NY", "zip": "11375-6731", "ntee": "", "ruling": "194105", "deductibility": "1", "assets": 19434459, "income": 3869109, "revenue": 0}, {"ein": "136077391", "name": "WILLIAM B & JANE E BRAM FOUNDATION", "city": "NEW YORK", "state": "NY", "zip": "10028-0324", "ntee": "", "ruling": "196107", "deductibility": "1", "assets": 12755, "income": 908177, "revenue": 0}, {"ein": "137086089", "name": "MARSHA JANE SHAINWALD FUND FOR SOCIAL JUSTICE", "city": "NEW YORK", "state": "NY", "zip": "10023-7712", "ntee": "", "ruling": "199702", "deductibility": "1", "assets": 368685, "income": 34992, "revenue": 0}, {"ein": "146128271", "name": "VIRGIL AND JANE PECK EHLE SCHOLARSHIP FUND", "city": "NORWICH", "state": "NY", "zip": "13815-0000", "ntee": "", "ruling": "198705", "deductibility": "1", "assets": 168010, "income": 45419, "revenue": 0}, {"ein": "146134057", "name": "JANE W NUHN CHARITABLE TRUST", "city": "POUGHKEEPSIE", "state": "NY", "zip": "12602-0000", "ntee": "", "ruling": "198912", "deductibility": "1", "assets": 14037393, "income": 5383866, "revenue": 0}, {"ein": "146197876", "name": "JANE BALDWIN HOLBRITTER CHARITABLE TRUST", "city": "SLINGERLANDS", "state": "NY", "zip": "12159-9362", "ntee": "T20", "ruling": "199912", "deductibility": "1", "assets": 452151, "income": 31571, "revenue": 0}, {"ein": "146306788", "name": "BETTY JANE FRANSEEN TR UW FBO HUMANE ASSN OF SCHUYLER COUNTY", "city": "ELMIRA", "state": "NY", "zip": "14902-1522", "ntee": "T11", "ruling": "200709", "deductibility": "1", "assets": 428418, "income": 178379, "revenue": 39071}, {"ein": "166029481", "name": "THE CAMERON AND JANE BAIRD FOUNDATION", "city": "BUFFALO", "state": "NY", "zip": "14210-1465", "ntee": "", "ruling": "196206", "deductibility": "1", "assets": 37132967, "income": 10268146, "revenue": 0}, {"ein": "166052404", "name": "JANE SCHENCK ESTATE", "city": "NORWICH", "state": "NY", "zip": "13815-0000", "ntee": "", "ruling": "194809", "deductibility": "1", "assets": 165895, "income": 32791, "revenue": 0}, {"ein": "204828991", "name": "CHARLES AND JANE KLEIN FAMILY FUND", "city": "MOUNT KISCO", "state": "NY", "zip": "10549-2553", "ntee": "T22", "ruling": "200606", "deductibility": "1", "assets": 3434273, "income": 204712, "revenue": 0}, {"ein": "207076107", "name": "MARY JANE HIPP BROCK FAM FOUNDATION MARY JANE HIPP BROCK TTEE", "city": "NEW YORK", "state": "NY", "zip": "10021-4254", "ntee": "T20", "ruling": "200710", "deductibility": "1", "assets": 65154, "income": 402057, "revenue": 0}, {"ein": "222809785", "name": "NEIL JANE WILLIAM ESTELLE GOLUB FAMILY FOUNDATION INC", "city": "SCHENECTADY", "state": "NY", "zip": "12308-1812", "ntee": "", "ruling": "198708", "deductibility": "1", "assets": 8584849, "income": 3594571, "revenue": 0}, {"ein": "223418982", "name": "JANE L GLAZER AND LAURENCE C GLAZER CHARITABLE TR", "city": "ROCHESTER", "state": "NY", "zip": "14607-2514", "ntee": "T12", "ruling": "202501", "deductibility": "1", "assets": 22601, "income": 341858, "revenue": 0}, {"ein": "232251378", "name": "ALEXANDER & JANE BOYD TA FDN", "city": "BUFFALO", "state": "NY", "zip": "14240-1504", "ntee": "X99", "ruling": "198308", "deductibility": "1", "assets": 53960893, "income": 6337638, "revenue": 0}, {"ein": "236913820", "name": "JANE & MARTIN SCHWARTZ FAMILY FDN 12-11-88", "city": "MERRICK", "state": "NY", "zip": "11566-0000", "ntee": "", "ruling": "198905", "deductibility": "1", "assets": 238058, "income": 273257, "revenue": 0}, {"ein": "256818502", "name": "JANE A LEHMAN AND ALAN G LEHMAN FOUNDATION", "city": "NEW YORK", "state": "NY", "zip": "10017-2234", "ntee": "T22", "ruling": "200211", "deductibility": "1", "assets": 6531073, "income": 1251455, "revenue": 0}, {"ein": "261076319", "name": "JANE B AND EUGENE E WHITE FAMILY FOUNDATION", "city": "NEW YORK", "state": "NY", "zip": "10128-0000", "ntee": "B94", "ruling": "200710", "deductibility": "1", "assets": 3255836, "income": 244008, "revenue": 0}, {"ein": "273285079", "name": "JANE & ARTHUR BRATTON CHARITABLE REMAINDER ANNUITY TRUST 43V406013", "city": "BUFFALO", "state": "NY", "zip": "14240-1504", "ntee": "T22", "ruling": "201112", "deductibility": "1", "assets": 730832, "income": 269614, "revenue": 57765}, {"ein": "274266074", "name": "RICHARD AND JANE KATZMAN FOUNDATION", "city": "SAGAPONACK NY", "state": "NY", "zip": "10013-0000", "ntee": "T20", "ruling": "201103", "deductibility": "1", "assets": 57309, "income": 114240, "revenue": 0}, {"ein": "276941247", "name": "JANE & LESLIE KATZ CHARITABLE TR", "city": "NEW YORK", "state": "NY", "zip": "10036-6603", "ntee": "", "ruling": "000000", "deductibility": "0", "assets": 1290596, "income": 45369, "revenue": 0}, {"ein": "277098234", "name": "JANE AND MICHAEL HOFFMAN FOUNDATION", "city": "NEW YORK", "state": "NY", "zip": "10028-0837", "ntee": "T21", "ruling": "201305", "deductibility": "1", "assets": 6448, "income": 15107, "revenue": 0}, {"ein": "462659091", "name": "MARY JANE WAHL GEARNS FOUNDATION", "city": "NEW YORK", "state": "NY", "zip": "10023-2012", "ntee": "T20", "ruling": "201311", "deductibility": "1", "assets": 12617851, "income": 1789712, "revenue": 0}, {"ein": "476344403", "name": "THE HOWARD JANE AND CAROL@ROBBINS FAMILY MEMORIAL TRUST", "city": "BUFFALO", "state": "NY", "zip": "14240-1504", "ntee": "T99", "ruling": "201409", "deductibility": "1", "assets": 1067470, "income": 207762, "revenue": 0}, {"ein": "521150918", "name": "JANE AUSTEN SOCIETY OF N AMERICA", "city": "NEW YORK", "state": "NY", "zip": "10025-5584", "ntee": "", "ruling": "197907", "deductibility": "1", "assets": 2669450, "income": 682345, "revenue": 676238}, {"ein": "526480274", "name": "JANE W CAMPBELL CO TR UW", "city": "BUFFALO", "state": "NY", "zip": "14240-1504", "ntee": "", "ruling": "199308", "deductibility": "1", "assets": 2988533, "income": 942619, "revenue": 0}, {"ein": "611739748", "name": "JANE E DELINE FOUNDATION", "city": "WATERTOWN", "state": "NY", "zip": "13601-3313", "ntee": "T11", "ruling": "201412", "deductibility": "1", "assets": 6704475, "income": 3926990, "revenue": 0}, {"ein": "826588089", "name": "RAYMOND C KELLER AND JANE G KELLER CHARITABLE TRUST FBO RIDER UNIV", "city": "BUFFALO", "state": "NY", "zip": "14240-1504", "ntee": "T22", "ruling": "201809", "deductibility": "1", "assets": 2988156, "income": 596310, "revenue": 0}, {"ein": "826590879", "name": "RAYMOND C KELLER AND JANE G KELLER CHARITABLE TRUST", "city": "BUFFALO", "state": "NY", "zip": "14240-1504", "ntee": "T22", "ruling": "201808", "deductibility": "1", "assets": 1485000, "income": 304854, "revenue": 0}, {"ein": "851257842", "name": "LAURISSA JANE MUSIC PERFORMING ARTS PROGRAM INC", "city": "BROOKLYN", "state": "NY", "zip": "11233-6393", "ntee": "A99", "ruling": "202107", "deductibility": "1", "assets": 0, "income": 0, "revenue": 0}, {"ein": "876918950", "name": "JANE PARKER FOUNDATION", "city": "NEW YORK", "state": "NY", "zip": "10014-0924", "ntee": "T20", "ruling": "202309", "deductibility": "1", "assets": 1369539, "income": 310197, "revenue": 0}, {"ein": "882308694", "name": "FRIENDS OF JANE STREET GARDEN INC", "city": "NEW YORK", "state": "NY", "zip": "10014-5005", "ntee": "N32", "ruling": "202206", "deductibility": "1", "assets": 0, "income": 0, "revenue": 0}, {"ein": "900396505", "name": "JANE CAROL BRESSLER CHARITABLE FUND INC", "city": "NEW YORK", "state": "NY", "zip": "10128-1412", "ntee": "", "ruling": "195503", "deductibility": "1", "assets": 115681, "income": 160051, "revenue": 0}], "FOURTH": [{"ein": "043767933", "name": "FOURTH ARTS BLOCK INC", "city": "NEW YORK", "state": "NY", "zip": "10003-8903", "ntee": "A20", "ruling": "200402", "deductibility": "1", "assets": 335091, "income": 371442, "revenue": 370432}, {"ein": "113441055", "name": "CHURCH OF GOD OF FOURTH AVENUE", "city": "BROOKLYN", "state": "NY", "zip": "11232-2902", "ntee": "", "ruling": "197210", "deductibility": "1", "assets": 0, "income": 0, "revenue": 0}, {"ein": "132994964", "name": "FOURTH QUARTER CLUB INC", "city": "NEW CITY", "state": "NY", "zip": "10956-8575", "ntee": "N65", "ruling": "198002", "deductibility": "1", "assets": 0, "income": 0, "revenue": 0}, {"ein": "133562768", "name": "330 EAST FOURTH STREET HOUSING DEVELOPMENT FUND CORPORATION", "city": "NEW YORK", "state": "NY", "zip": "10001-7243", "ntee": "L99Z", "ruling": "199005", "deductibility": "1", "assets": 2228644, "income": 4652, "revenue": 4652}, {"ein": "133586505", "name": "TRAVIS FOURTH OF JULY CELEBRATION COMMITTEE INC", "city": "STATEN ISLAND", "state": "NY", "zip": "10314-3629", "ntee": "N52Z", "ruling": "199111", "deductibility": "1", "assets": 35284, "income": 31315, "revenue": 27729}, {"ein": "146038729", "name": "FOURTH DISTRICT DENTAL SOCIETY", "city": "SARATOGA SPGS", "state": "NY", "zip": "12866-7617", "ntee": "E34Z", "ruling": "196703", "deductibility": "1", "assets": 261428, "income": 206848, "revenue": 206848}, {"ein": "161417880", "name": "FOURTH STREET HOUSING DEVELOPMENT FUND COMPANY INC", "city": "JAMESTOWN", "state": "NY", "zip": "14701-5380", "ntee": "L20Z", "ruling": "199209", "deductibility": "1", "assets": 1788128, "income": 214253, "revenue": 214253}, {"ein": "161425352", "name": "FOURTH LAKE PROPERTY OWNERS ASSOCIATION", "city": "INLET", "state": "NY", "zip": "13360-0213", "ntee": "C50", "ruling": "200001", "deductibility": "1", "assets": 0, "income": 0, "revenue": 0}, {"ein": "237135119", "name": "ATD FOURTH WORLD MOVEMENT INC", "city": "NEW YORK", "state": "NY", "zip": "10009-4508", "ntee": "P010", "ruling": "197110", "deductibility": "1", "assets": 914225, "income": 975474, "revenue": 935671}, {"ein": "237240878", "name": "SQUARE CLUB OF THE FOURTH MASONIC DISTRICT OF MANHATTAN INC", "city": "NEW YORK", "state": "NY", "zip": "10010-4102", "ntee": "", "ruling": "197407", "deductibility": "1", "assets": 0, "income": 0, "revenue": 0}, {"ein": "237547101", "name": "BISHOP CONROY ASSEMBLY NO 699 FOURTH DEGREE KNIGHTS OF COLUMBUS", "city": "CARTHAGE", "state": "NY", "zip": "13619-6068", "ntee": "Y40", "ruling": "202405", "deductibility": "1", "assets": 0, "income": 0, "revenue": 0}, {"ein": "455463922", "name": "COMMUNITY SERVICES FOURTH HOUSING CORPORATION", "city": "BUFFALO", "state": "NY", "zip": "14203-1610", "ntee": "L21", "ruling": "201206", "deductibility": "1", "assets": 816801, "income": 69663, "revenue": 69663}, {"ein": "812090217", "name": "FAC 6309 FOURTH AVENUE HOUSING DEVELOPMENT FUND CORPORATION", "city": "BROOKLYN", "state": "NY", "zip": "11217-4596", "ntee": "L20", "ruling": "202004", "deductibility": "2", "assets": 0, "income": 0, "revenue": 0}, {"ein": "825033976", "name": "THIRTY WEST FORTY FOURTH STREET FOUNDATION INC", "city": "NEW YORK", "state": "NY", "zip": "10036-6604", "ntee": "A80", "ruling": "201809", "deductibility": "1", "assets": 0, "income": 0, "revenue": 0}, {"ein": "833759722", "name": "FOURTH THE KIDS FOUNDATION INC", "city": "EAST HAMPTON", "state": "NY", "zip": "11937-0000", "ntee": "W99", "ruling": "201905", "deductibility": "1", "assets": 1, "income": 0, "revenue": 0}, {"ein": "844122785", "name": "FOURTH DIMENSIONAL INTERNATIONAL", "city": "ROCHESTER", "state": "NY", "zip": "14625-0514", "ntee": "A23", "ruling": "202001", "deductibility": "1", "assets": 0, "income": 0, "revenue": 0}, {"ein": "932390231", "name": "FOURTH WALL NYC INC", "city": "NEW YORK", "state": "NY", "zip": "10025-4323", "ntee": "A60", "ruling": "202501", "deductibility": "1", "assets": 52816, "income": 192800, "revenue": 192800}], "POLYHYMNIA": [{"ein": "061726362", "name": "POLYHYMNIA MUSIC FOUNDATION INC", "city": "NEW YORK", "state": "NY", "zip": "10024-2707", "ntee": "A68", "ruling": "200409", "deductibility": "1", "assets": 15915, "income": 50718, "revenue": 50718}], "TRACT": [{"ein": "111753577", "name": "WATCHTOWER BIBLE AND TRACT SOCIETY OF NEW YORK INC", "city": "WALLKILL", "state": "NY", "zip": "12589-5200", "ntee": "", "ruling": "199203", "deductibility": "1", "assets": 0, "income": 0, "revenue": 0}, {"ein": "111857820", "name": "WATCH TOWER BIBLE AND TRACT SOCIETY OF PENNSYLVANIA", "city": "WALLKILL", "state": "NY", "zip": "12589-3292", "ntee": "", "ruling": "194606", "deductibility": "1", "assets": 0, "income": 0, "revenue": 0}, {"ein": "116403487", "name": "GOSPEL BOOK AND TRACT DEPOT", "city": "VLY COTTAGE", "state": "NY", "zip": "10989-2017", "ntee": "X83", "ruling": "193904", "deductibility": "1", "assets": 1028523, "income": 723955, "revenue": 723955}, {"ein": "581711312", "name": "WATCHTOWER BIBLE AND TRACT SOCIETY OF FLORIDA INC", "city": "WALLKILL", "state": "NY", "zip": "12589-5200", "ntee": "", "ruling": "199203", "deductibility": "1", "assets": 0, "income": 0, "revenue": 0}, {"ein": "994377078", "name": "TRIANGLE TRACT HISTORICAL SOCIETY", "city": "BROCKPORT", "state": "NY", "zip": "14420-2212", "ntee": "A82", "ruling": "202408", "deductibility": "1", "assets": 0, "income": 0, "revenue": 0}], "ALBAN": [{"ein": "111811236", "name": "CHURCH OF ST ALBAN THE MARTYR", "city": "ST ALBANS", "state": "NY", "zip": "11412-3026", "ntee": "", "ruling": "197206", "deductibility": "1", "assets": 0, "income": 0, "revenue": 0}, {"ein": "462374870", "name": "ALBAN ARTS INC", "city": "STATEN ISLAND", "state": "NY", "zip": "10312-5131", "ntee": "A20", "ruling": "201610", "deductibility": "1", "assets": 0, "income": 0, "revenue": 0}, {"ein": "844167134", "name": "WITH AND FOR THE FRIENDS OF FERNANDO ALBAN INC", "city": "MANHATTAN", "state": "NY", "zip": "10105-0008", "ntee": "E70", "ruling": "202001", "deductibility": "1", "assets": 0, "income": 0, "revenue": 0}], "DEI": [{"ein": "111881880", "name": "GLORIA DEI EVANGELICAL LUTHERAN CHURCH", "city": "HANTINGTON STATEW", "state": "NY", "zip": "11746-0000", "ntee": "", "ruling": "198804", "deductibility": "1", "assets": 0, "income": 0, "revenue": 0}, {"ein": "112892429", "name": "CLUB DEI CARINESI DAMERICA INC", "city": "BROOKLYN", "state": "NY", "zip": "11214-1106", "ntee": "X22", "ruling": "201802", "deductibility": "1", "assets": 12956, "income": 56139, "revenue": 0}, {"ein": "113425704", "name": "MATER DEI INC", "city": "BOHEMIA", "state": "NY", "zip": "11716-0100", "ntee": "X99", "ruling": "200002", "deductibility": "1", "assets": 235659, "income": 35964, "revenue": 32173}, {"ein": "133726897", "name": "LUMEN DEI INC", "city": "NEW YORK", "state": "NY", "zip": "10019-2827", "ntee": "", "ruling": "194603", "deductibility": "0", "assets": 0, "income": 0, "revenue": 0}, {"ein": "205298137", "name": "COMMUNITAS DEI ASSOCIATION", "city": "NEW YORK", "state": "NY", "zip": "10002-7124", "ntee": "X82", "ruling": "201005", "deductibility": "1", "assets": 0, "income": 0, "revenue": 0}, {"ein": "263868853", "name": "IMAGO DEI FOUNDATION", "city": "NEW YORK", "state": "NY", "zip": "10011-4305", "ntee": "T22", "ruling": "201003", "deductibility": "1", "assets": 357833, "income": 175, "revenue": 0}, {"ein": "274477050", "name": "VOLUNTAS DEI USA INC", "city": "NEW YORK", "state": "NY", "zip": "10001-7604", "ntee": "", "ruling": "194603", "deductibility": "1", "assets": 1615342, "income": 141514, "revenue": 141514}], "AVE": [{"ein": "112171976", "name": "HIGHLAND AVE BAPTIST CHURCH OF QUEENS INC", "city": "JAMAICA", "state": "NY", "zip": "11432-3412", "ntee": "X20", "ruling": "200803", "deductibility": "1", "assets": 0, "income": 0, "revenue": 0}, {"ein": "112752769", "name": "MILLER AVE BLOCK ASSOC", "city": "BROOKLYN", "state": "NY", "zip": "11208-2343", "ntee": "P99", "ruling": "200006", "deductibility": "1", "assets": 0, "income": 0, "revenue": 0}, {"ein": "112885644", "name": "BROOKLYN WORD CHURCH INC 62 5TH AVE", "city": "BROOKLYN", "state": "NY", "zip": "11202-1681", "ntee": "", "ruling": "199204", "deductibility": "1", "assets": 0, "income": 0, "revenue": 0}, {"ein": "112908148", "name": "FLATBUSH AVE DISTRICT MANAGEMENT ASSOCIATION", "city": "BROOKLYN", "state": "NY", "zip": "11225-3706", "ntee": "S20Z", "ruling": "199611", "deductibility": "1", "assets": 405831, "income": 847409, "revenue": 847409}, {"ein": "112918576", "name": "CHRISTS LIFE EVANGELISM INC 617 GRAND AVE", "city": "BRONX", "state": "NY", "zip": "10473-0015", "ntee": "", "ruling": "199208", "deductibility": "1", "assets": 0, "income": 0, "revenue": 0}, {"ein": "112924946", "name": "TRINITY APOSTOLIC CHURCH INC 1229 BEDFORD AVE", "city": "BROOKLYN", "state": "NY", "zip": "11205-4501", "ntee": "", "ruling": "199111", "deductibility": "1", "assets": 0, "income": 0, "revenue": 0}, {"ein": "113164888", "name": "CHURCH OF GOD OF CLARKSON AVE", "city": "BROOKLYN", "state": "NY", "zip": "11212-2138", "ntee": "X20", "ruling": "201507", "deductibility": "1", "assets": 0, "income": 0, "revenue": 0}, {"ein": "113437417", "name": "MERCHANTS OF THIRD AVE CIVIC IMPROVEMENT ASSOC INC", "city": "BROOKLYN", "state": "NY", "zip": "11209-4601", "ntee": "P20Z", "ruling": "199811", "deductibility": "1", "assets": 45358, "income": 67147, "revenue": 35814}, {"ein": "113507986", "name": "CONG TIFERES YOAL D-SATMAR 10TH AVE", "city": "BROOKLYN", "state": "NY", "zip": "11205-4328", "ntee": "X21", "ruling": "200007", "deductibility": "1", "assets": 0, "income": 0, "revenue": 0}, {"ein": "132573734", "name": "260 PARK AVE REALTY CORP", "city": "NEW YORK", "state": "NY", "zip": "10004-1603", "ntee": "", "ruling": "198805", "deductibility": "2", "assets": 41241211, "income": 17, "revenue": 17}, {"ein": "132623899", "name": "45TH AVE HOUSING CO", "city": "NEW YORK", "state": "NY", "zip": "10018-6553", "ntee": "L21Z", "ruling": "196812", "deductibility": "1", "assets": 13512306, "income": 368486, "revenue": 368486}, {"ein": "133072226", "name": "UNITED STATES SENIORS GOLF ASSN 49 W PUTNAM AVE", "city": "ELMSFORD", "state": "NY", "zip": "10523-0000", "ntee": "", "ruling": "199703", "deductibility": "2", "assets": 1609254, "income": 1804188, "revenue": 394368}, {"ein": "133135362", "name": "927 COLUMBUS AVE HDFC", "city": "NEW YORK", "state": "NY", "zip": "10025-3222", "ntee": "L21", "ruling": "202205", "deductibility": "1", "assets": 342587, "income": 145718, "revenue": 145718}, {"ein": "133419769", "name": "SEPHARDIC SERVICES OF THE FIFTH AVE SYNAGOGUE INC", "city": "NEW YORK", "state": "NY", "zip": "10021-0005", "ntee": "", "ruling": "198712", "deductibility": "1", "assets": 0, "income": 0, "revenue": 0}, {"ein": "133455415", "name": "HUB-THIRD AVE MERCHANTS DISTRICT MANAGEMENT ASSOCIATION INC", "city": "NEW YORK", "state": "NY", "zip": "10026-2919", "ntee": "S30", "ruling": "199912", "deductibility": "1", "assets": 81607, "income": 466427, "revenue": 466427}, {"ein": "133617817", "name": "MEMBERSHIP COMMITTEE OF SAN SILVERIO OF MORRIS PARK AVE INC", "city": "BRONX", "state": "NY", "zip": "10465-1115", "ntee": "X99", "ruling": "199506", "deductibility": "1", "assets": 21493, "income": 25683, "revenue": 11262}, {"ein": "133784825", "name": "THE CHURCH OF GOD OF WILLIS AVE INC", "city": "BRONX", "state": "NY", "zip": "10472-6002", "ntee": "X20Z", "ruling": "199808", "deductibility": "1", "assets": 0, "income": 0, "revenue": 0}, {"ein": "133826275", "name": "WASHINGTON AVE H D F C", "city": "BRONX", "state": "NY", "zip": "10458-8742", "ntee": "L80", "ruling": "199611", "deductibility": "1", "assets": 1986385, "income": 746503, "revenue": 746503}, {"ein": "133847940", "name": "SALVATION ARMY 1638-1640 TOPPING AVE RESIDEN", "city": "NEW YORK", "state": "NY", "zip": "10011-7301", "ntee": "F99", "ruling": "199708", "deductibility": "1", "assets": 0, "income": 0, "revenue": 0}, {"ein": "134027386", "name": "EAST 64TH STREET LEXINGTON TO THIRD AVE NEIGHBORS ASSOCIATION INC", "city": "NEW YORK", "state": "NY", "zip": "10065-6653", "ntee": "Z99", "ruling": "199812", "deductibility": "2", "assets": 167585, "income": 46014, "revenue": 46014}, {"ein": "134102409", "name": "CHURCH OF GOD OF COLLEGE AVE", "city": "BRONX", "state": "NY", "zip": "10456-5237", "ntee": "", "ruling": "197210", "deductibility": "1", "assets": 0, "income": 0, "revenue": 0}, {"ein": "134171195", "name": "CONG BAIS AVE INC", "city": "MONROE", "state": "NY", "zip": "10949-0791", "ntee": "X21", "ruling": "200111", "deductibility": "1", "assets": 0, "income": 0, "revenue": 0}, {"ein": "136107327", "name": "MUSIC ON FIFTH AVE INC", "city": "NEW YORK", "state": "NY", "zip": "10019-5401", "ntee": "A11", "ruling": "201411", "deductibility": "1", "assets": 0, "income": 0, "revenue": 0}, {"ein": "140860820", "name": "MAPLE AVE CEMETERY ASSOC INC", "city": "FULTONVILLE", "state": "NY", "zip": "12072-0068", "ntee": "", "ruling": "197304", "deductibility": "1", "assets": 557675, "income": 41600, "revenue": 41600}, {"ein": "141751071", "name": "MAPLE AVE SCHOOL PARENT SUPPORT ORGANIZATION", "city": "SARATOGA SPGS", "state": "NY", "zip": "12866-5504", "ntee": "A25", "ruling": "201812", "deductibility": "1", "assets": 0, "income": 0, "revenue": 0}, {"ein": "160755763", "name": "DELAWARE AVE BAPTIST CHURCH", "city": "BUFFALO", "state": "NY", "zip": "14209-1805", "ntee": "", "ruling": "197310", "deductibility": "1", "assets": 0, "income": 0, "revenue": 0}, {"ein": "160835458", "name": "ELMWOOD AVE BAPTIST CHURCH", "city": "ELMIRA HTS", "state": "NY", "zip": "14903-1316", "ntee": "", "ruling": "195504", "deductibility": "1", "assets": 0, "income": 0, "revenue": 0}, {"ein": "160842302", "name": "ZION EVANGELICAL LUTHERAN CHURCH 11 PORTER AVE", "city": "SILVER CREEK", "state": "NY", "zip": "14136-1649", "ntee": "", "ruling": "198804", "deductibility": "1", "assets": 0, "income": 0, "revenue": 0}, {"ein": "166001422", "name": "SOUTH AVE BAPTIST CHURCH ON THE HILL", "city": "ROCHESTER", "state": "NY", "zip": "14620-2530", "ntee": "", "ruling": "195504", "deductibility": "1", "assets": 0, "income": 0, "revenue": 0}, {"ein": "237334453", "name": "VANDERBILT AVE MORAVIAN CHURCH", "city": "STATEN ISLAND", "state": "NY", "zip": "10304-2525", "ntee": "", "ruling": "196412", "deductibility": "1", "assets": 0, "income": 0, "revenue": 0}, {"ein": "273940476", "name": "CONGREGATION YETEV LEV OF 18TH AVE", "city": "BROOKLYN", "state": "NY", "zip": "11204-1425", "ntee": "X30", "ruling": "201207", "deductibility": "1", "assets": 0, "income": 0, "revenue": 0}, {"ein": "300975585", "name": "MAPLE AVE VOLUNTEER FIRE CO ASSOCIATION 4 INC", "city": "SARATOGA SPGS", "state": "NY", "zip": "12866-5603", "ntee": "M24", "ruling": "201705", "deductibility": "1", "assets": 82530, "income": 23029, "revenue": 0}, {"ein": "311724707", "name": "1347 MORRIS AVE CORPORATION", "city": "NEW YORK", "state": "NY", "zip": "10027-4991", "ntee": "L20", "ruling": "200012", "deductibility": "1", "assets": 953915, "income": 367425, "revenue": 367425}, {"ein": "334320361", "name": "NORFOLK AVE BLOCK CLUB 1 INC", "city": "BUFFALO", "state": "NY", "zip": "14215-3109", "ntee": "T31", "ruling": "202506", "deductibility": "1", "assets": 0, "income": 0, "revenue": 0}, {"ein": "454128058", "name": "1344 CLINTON AVE HOUSING DEVELOPMENT FUND CORPORATION", "city": "NEW YORK", "state": "NY", "zip": "10018-3055", "ntee": "L21", "ruling": "201405", "deductibility": "2", "assets": 0, "income": 0, "revenue": 0}, {"ein": "461763379", "name": "HOUSING VISIONS UNLIMITED INC MASS AVE COMM HOMES HOUSING DEV FU", "city": "SYRACUSE", "state": "NY", "zip": "13210-1953", "ntee": "", "ruling": "199208", "deductibility": "1", "assets": 0, "income": 0, "revenue": 0}, {"ein": "472323660", "name": "BLUE MOUNTAINS PROJECTS INC 1617 3RD AVE", "city": "CATSKILL", "state": "NY", "zip": "12414-1556", "ntee": "A20", "ruling": "201702", "deductibility": "1", "assets": 181569, "income": 159888, "revenue": 159888}, {"ein": "743027299", "name": "CONGREGATION YETEV LEV D SATMAR OF 15TH AVE", "city": "BROOKLYN", "state": "NY", "zip": "11219-2701", "ntee": "", "ruling": "197406", "deductibility": "1", "assets": 0, "income": 0, "revenue": 0}, {"ein": "821231310", "name": "DIVISION AVE MARCHING BAND PARENTS ASSOCIATION", "city": "LEVITTOWN", "state": "NY", "zip": "11756-2932", "ntee": "B94", "ruling": "202301", "deductibility": "1", "assets": 0, "income": 0, "revenue": 0}, {"ein": "821843213", "name": "MARCY AVE FOUNDATION", "city": "BROOKLYN", "state": "NY", "zip": "11211-0000", "ntee": "T12", "ruling": "201709", "deductibility": "1", "assets": 272897, "income": 30800, "revenue": 0}, {"ein": "825461390", "name": "700 JEFFERSON AVE BLOCK ASSOICATION", "city": "BROOKLYN", "state": "NY", "zip": "11221-2808", "ntee": "S22", "ruling": "201806", "deductibility": "1", "assets": 0, "income": 0, "revenue": 0}, {"ein": "832418974", "name": "FRANKLIN AVE CHARITABLE CORP", "city": "SUFFERN", "state": "NY", "zip": "10901-5514", "ntee": "X22", "ruling": "201812", "deductibility": "1", "assets": 459624, "income": 62586, "revenue": 0}, {"ein": "934378749", "name": "AVE J SECURITY GROUP INC", "city": "BROOKLYN", "state": "NY", "zip": "11230-4103", "ntee": "S22", "ruling": "202404", "deductibility": "2", "assets": 164669, "income": 732492, "revenue": 732492}, {"ein": "991322038", "name": "MIKVAH OF 20 AVE", "city": "BROOKLYN", "state": "NY", "zip": "11218-5513", "ntee": "X30", "ruling": "202507", "deductibility": "1", "assets": 0, "income": 0, "revenue": 0}], "CHRISTIANS": [{"ein": "112253635", "name": "CHRISTIANS PERSONALLY INVOLVED MISSIONARY FUND INC", "city": "BROOKLYN", "state": "NY", "zip": "11208-5216", "ntee": "", "ruling": "197303", "deductibility": "2", "assets": 0, "income": 0, "revenue": 0}, {"ein": "112611032", "name": "CHRISTIANS HELPING ANIMALS AND PEOPLE INC", "city": "SELDEN", "state": "NY", "zip": "11784-0272", "ntee": "", "ruling": "198304", "deductibility": "1", "assets": 0, "income": 0, "revenue": 0}, {"ein": "112943875", "name": "SENIOR CITIZEN ASSOC OF TAIWANESE CHRISTIANS OF GREATER NEW YORK INC", "city": "FLUSHING", "state": "NY", "zip": "11354-4122", "ntee": "", "ruling": "199211", "deductibility": "1", "assets": 66441, "income": 39785, "revenue": 39785}, {"ein": "161205751", "name": "ALLIED CHRISTIANS OF TIOGA", "city": "OWEGO", "state": "NY", "zip": "13827-0021", "ntee": "", "ruling": "198707", "deductibility": "1", "assets": 0, "income": 0, "revenue": 0}, {"ein": "161459924", "name": "CHRISTIANS SOVEREIGN OF ROCHESTER", "city": "ROCHESTER", "state": "NY", "zip": "14621-2120", "ntee": "X21H", "ruling": "199505", "deductibility": "1", "assets": 0, "income": 0, "revenue": 0}, {"ein": "161549556", "name": "CHRISTIANS UNITED FOR BUFFALO INC", "city": "BUFFALO", "state": "NY", "zip": "14210-1627", "ntee": "F20", "ruling": "199808", "deductibility": "1", "assets": 58498, "income": 66474, "revenue": 65226}, {"ein": "161608946", "name": "AREA CHRISTIANS TOGETHER IN SERVICE INC", "city": "ELMIRA", "state": "NY", "zip": "14901-2731", "ntee": "X90", "ruling": "201603", "deductibility": "1", "assets": 0, "income": 0, "revenue": 0}, {"ein": "201633483", "name": "YOUNG URBAN CHRISTIANS & ARTISTS INC", "city": "BRONX", "state": "NY", "zip": "10451-5176", "ntee": "O50", "ruling": "200612", "deductibility": "1", "assets": 379099, "income": 215373, "revenue": 215373}, {"ein": "203438242", "name": "EVANGELICAL CHRISTIANS IN SPIRIT OF APOSTLES", "city": "SANBORN", "state": "NY", "zip": "14132-0472", "ntee": "X21", "ruling": "200705", "deductibility": "1", "assets": 0, "income": 0, "revenue": 0}, {"ein": "263819029", "name": "MARY HELP OF CHRISTIANS INC", "city": "GENEVA", "state": "NY", "zip": "14456-9209", "ntee": "X12", "ruling": "201012", "deductibility": "1", "assets": 0, "income": 0, "revenue": 0}, {"ein": "271475637", "name": "CHRISTIANS CARE INTERNATIONAL", "city": "MELVILLE", "state": "NY", "zip": "11747-0917", "ntee": "Q30", "ruling": "201005", "deductibility": "1", "assets": 60379, "income": 56667, "revenue": 56667}, {"ein": "421603132", "name": "BETHEL CHURCH OF ADVENTIST CHRISTIANS INC", "city": "BROOKLYN", "state": "NY", "zip": "11236-3401", "ntee": "X20", "ruling": "200502", "deductibility": "1", "assets": 0, "income": 0, "revenue": 0}, {"ein": "464568521", "name": "CHRISTIANS FOR MISSION INC", "city": "NEW YORK", "state": "NY", "zip": "10025-2012", "ntee": "X99", "ruling": "201512", "deductibility": "1", "assets": 101532, "income": 127594, "revenue": 127594}, {"ein": "475062093", "name": "HOPE FOR PERSECUTED CHRISTIANS INC", "city": "ALBANY", "state": "NY", "zip": "12206-2230", "ntee": "R20", "ruling": "201705", "deductibility": "1", "assets": 0, "income": 0, "revenue": 0}, {"ein": "510212605", "name": "DIDASKO CHRISTIANS ASSOC INC", "city": "HIGHLAND MLS", "state": "NY", "zip": "10930-2810", "ntee": "X20", "ruling": "201903", "deductibility": "1", "assets": 0, "income": 0, "revenue": 0}, {"ein": "812044642", "name": "CHRISTIANS STAR INC", "city": "LEVITTOWN", "state": "NY", "zip": "11756-3336", "ntee": "", "ruling": "201604", "deductibility": "1", "assets": 0, "income": 0, "revenue": 0}, {"ein": "830592366", "name": "BROTHERS OF MERCY OF MARY HELP OF CHRISTIANS INC", "city": "CLARENCE", "state": "NY", "zip": "14031-2108", "ntee": "", "ruling": "194603", "deductibility": "1", "assets": 0, "income": 0, "revenue": 0}, {"ein": "830758246", "name": "C4 CHRISTIANS CONCERNED ABOUT CLIMATE CHANGE INC", "city": "NEW YORK", "state": "NY", "zip": "10008-3514", "ntee": "C20", "ruling": "201809", "deductibility": "1", "assets": 0, "income": 0, "revenue": 0}, {"ein": "882932290", "name": "CHRISTIANS IN CRISIS HOTLINE INC", "city": "ROSEDALE", "state": "NY", "zip": "11422-2321", "ntee": "F40", "ruling": "202208", "deductibility": "1", "assets": 0, "income": 0, "revenue": 0}, {"ein": "934290878", "name": "CHRISTIANS SERVANTS OF JEHOVAH", "city": "BLOOMINGBURG", "state": "NY", "zip": "12721-0076", "ntee": "X20", "ruling": "202401", "deductibility": "1", "assets": 0, "income": 0, "revenue": 0}], "SHIMON": [{"ein": "112352312", "name": "YESHIVA BNEI SHIMON YISROEL SOPRON", "city": "BROOKLYN", "state": "NY", "zip": "11211-8102", "ntee": "", "ruling": "197504", "deductibility": "1", "assets": 0, "income": 0, "revenue": 0}, {"ein": "112752333", "name": "CONGREGATION ZICHRON SHIMON", "city": "BROOKLYN", "state": "NY", "zip": "11218-5904", "ntee": "", "ruling": "198511", "deductibility": "1", "assets": 0, "income": 0, "revenue": 0}, {"ein": "112773175", "name": "KEREN SHIMON", "city": "BROOKLYN", "state": "NY", "zip": "11219-3632", "ntee": "", "ruling": "198604", "deductibility": "1", "assets": 0, "income": 0, "revenue": 0}, {"ein": "112816512", "name": "GMACH CHASDEI SHIMON VTZIPORAH", "city": "BROOKLYN", "state": "NY", "zip": "11204-1213", "ntee": "", "ruling": "198609", "deductibility": "1", "assets": 0, "income": 0, "revenue": 0}, {"ein": "112856723", "name": "YESHIVAS OHEL SHIMON", "city": "BROOKLYN", "state": "NY", "zip": "11223-2222", "ntee": "", "ruling": "198705", "deductibility": "1", "assets": 0, "income": 0, "revenue": 0}, {"ein": "112988558", "name": "CONGREGATION BAIS SHIMON", "city": "BROOKLYN", "state": "NY", "zip": "11204-1727", "ntee": "X30", "ruling": "200303", "deductibility": "1", "assets": 0, "income": 0, "revenue": 0}, {"ein": "113143807", "name": "KOLLEL ZICHRON SHIMON", "city": "BROOKLYN", "state": "NY", "zip": "11210-3714", "ntee": "", "ruling": "199305", "deductibility": "1", "assets": 0, "income": 0, "revenue": 0}, {"ein": "113203397", "name": "RABBINICAL COLLEGE OF SHIMON YISROEL INC", "city": "BROOKLYN", "state": "NY", "zip": "11211-8102", "ntee": "X30", "ruling": "199601", "deductibility": "1", "assets": 0, "income": 0, "revenue": 0}, {"ein": "113217724", "name": "FRIENDS OF CONGREGATION NACHLAS SHIMON", "city": "BROOKLYN", "state": "NY", "zip": "11218-5703", "ntee": "", "ruling": "199408", "deductibility": "1", "assets": 0, "income": 0, "revenue": 0}, {"ein": "113408133", "name": "CONGREGATION BETH SHIMON", "city": "BROOKLYN", "state": "NY", "zip": "11219-4017", "ntee": "X30Z", "ruling": "199804", "deductibility": "1", "assets": 0, "income": 0, "revenue": 0}, {"ein": "113419245", "name": "ZICHRON SHIMON CHARITY FOUNDATION", "city": "BROOKLYN", "state": "NY", "zip": "11204-0000", "ntee": "T90Z", "ruling": "199804", "deductibility": "1", "assets": 183745, "income": 22807, "revenue": 0}, {"ein": "113477320", "name": "KEREN NAFESH SHIMON & MALKA", "city": "BROOKLYN", "state": "NY", "zip": "11219-4601", "ntee": "P60", "ruling": "201403", "deductibility": "1", "assets": 0, "income": 0, "revenue": 0}, {"ein": "113483948", "name": "YESHIVA BNEI SHIMON YISROEL OF SHOPRON", "city": "BROOKLYN", "state": "NY", "zip": "11205-1638", "ntee": "X30", "ruling": "199905", "deductibility": "1", "assets": 0, "income": 0, "revenue": 0}, {"ein": "113515791", "name": "YESHIVAS NACHLAS BNEI SHIMON", "city": "BROOKLYN", "state": "NY", "zip": "11210-5317", "ntee": "Q113", "ruling": "200007", "deductibility": "1", "assets": 126824, "income": 537653, "revenue": 537653}, {"ein": "113518721", "name": "SHAREI SHIMON", "city": "BROOKLYN", "state": "NY", "zip": "11211-8116", "ntee": "X30", "ruling": "200002", "deductibility": "1", "assets": 0, "income": 0, "revenue": 0}, {"ein": "113548764", "name": "CONGREGATION SHIMON INST", "city": "BROOKLYN", "state": "NY", "zip": "11205-0226", "ntee": "X30", "ruling": "200102", "deductibility": "1", "assets": 0, "income": 0, "revenue": 0}, {"ein": "113554020", "name": "CONGREGATION GEMACH AVROHOM SHIMON", "city": "BROOKLYN", "state": "NY", "zip": "11219-3272", "ntee": "X30", "ruling": "200008", "deductibility": "1", "assets": 0, "income": 0, "revenue": 0}, {"ein": "202050189", "name": "CHASDEI SHIMON FOUNDATION", "city": "BROOKLYN", "state": "NY", "zip": "11204-0000", "ntee": "X11", "ruling": "200606", "deductibility": "1", "assets": 2323895, "income": 267456, "revenue": 0}, {"ein": "316672885", "name": "TORATH SHIMON", "city": "BROOKLYN", "state": "NY", "zip": "11205-0000", "ntee": "X30", "ruling": "200111", "deductibility": "1", "assets": 0, "income": 0, "revenue": 0}, {"ein": "342016156", "name": "KOL SHIMON", "city": "BROOKLYN", "state": "NY", "zip": "11218-5393", "ntee": "X30", "ruling": "200511", "deductibility": "1", "assets": 0, "income": 0, "revenue": 0}, {"ein": "822049208", "name": "REB SHIMON LAKOL INC", "city": "BROOKLYN", "state": "NY", "zip": "11219-5402", "ntee": "Q33", "ruling": "201801", "deductibility": "1", "assets": 9371, "income": 649870, "revenue": 649870}, {"ein": "822429620", "name": "SIMCHAS EPHRAIM SHIMON", "city": "GARNERVILLE", "state": "NY", "zip": "10923-1939", "ntee": "P30", "ruling": "201708", "deductibility": "1", "assets": 0, "income": 0, "revenue": 0}, {"ein": "872099270", "name": "CHASDEI SHIMON INC", "city": "BROOKLYN", "state": "NY", "zip": "11206-5201", "ntee": "S12", "ruling": "202111", "deductibility": "1", "assets": 0, "income": 0, "revenue": 0}, {"ein": "881256611", "name": "AMERICAN FRIENDS OF SHIMON HATZADIK", "city": "BROOKLYN", "state": "NY", "zip": "11249-4171", "ntee": "T30", "ruling": "202204", "deductibility": "1", "assets": 88455, "income": 590972, "revenue": 590972}, {"ein": "920857032", "name": "REB SHIMON LAKOL", "city": "BROOKLYN", "state": "NY", "zip": "11219-0000", "ntee": "X30", "ruling": "202309", "deductibility": "1", "assets": 0, "income": 0, "revenue": 0}], "SCIALABBA": [{"ein": "112408820", "name": "CHURCH OF THE GUIDING LIGHT INC C O VINCENT SCIALABBA", "city": "BROOKLYN", "state": "NY", "zip": "11223-5030", "ntee": "", "ruling": "197704", "deductibility": "1", "assets": 0, "income": 0, "revenue": 0}], "PLANDOME": [{"ein": "112411531", "name": "MANHASSET PLANDOME NEWCOMERS CLUB", "city": "MANHASSET", "state": "NY", "zip": "11030-6263", "ntee": "N50", "ruling": "201902", "deductibility": "2", "assets": 0, "income": 0, "revenue": 0}, {"ein": "116030701", "name": "PLANDOME COUNTRY CLUB INC", "city": "PLANDOME", "state": "NY", "zip": "11030-1131", "ntee": "", "ruling": "198708", "deductibility": "2", "assets": 13733168, "income": 12102194, "revenue": 10096685}, {"ein": "834523525", "name": "FRIENDS OF THE PLANDOME FIRE DEPARTMENT INC", "city": "PLANDOME", "state": "NY", "zip": "11030-1461", "ntee": "M24", "ruling": "201909", "deductibility": "1", "assets": 339924, "income": 341916, "revenue": 331504}], "GRAUBARD": [{"ein": "112444805", "name": "KEW GARDENS HILLS ERUV COMMITTEE INC C O M DAVID GRAUBARD", "city": "FLUSHING", "state": "NY", "zip": "11367-3433", "ntee": "", "ruling": "197803", "deductibility": "1", "assets": 0, "income": 0, "revenue": 0}], "MARILYN": [{"ein": "112453010", "name": "DEEPER LIFE CHRISTIAN FELLOWSHIP C O REV MARILYN CROWN", "city": "JAMAICA", "state": "NY", "zip": "11434-3026", "ntee": "", "ruling": "197809", "deductibility": "1", "assets": 0, "income": 0, "revenue": 0}, {"ein": "113545707", "name": "LAWRENCE AND MARILYN KAPLAN FOUNDATION", "city": "SYOSSET", "state": "NY", "zip": "11791-6516", "ntee": "T20", "ruling": "200006", "deductibility": "1", "assets": 293001, "income": 29989, "revenue": 0}, {"ein": "116417671", "name": "MARILYN AND BARRY RUBENSTEIN FAMILY FOUNDATION", "city": "BROOKVILLE", "state": "NY", "zip": "11545-2922", "ntee": "", "ruling": "199305", "deductibility": "1", "assets": 1984625, "income": 59376, "revenue": 0}, {"ein": "116534409", "name": "NATHAN AND MARILYN SILBERMAN FOUNDATIN TRUST 030100", "city": "BROOKLYN", "state": "NY", "zip": "11210-5143", "ntee": "T20", "ruling": "200203", "deductibility": "1", "assets": 5120, "income": 336001, "revenue": 0}, {"ein": "133386164", "name": "ARTHUR S & MARILYN PENN CHARITABLE TRUST", "city": "NEW YORK", "state": "NY", "zip": "10075-0191", "ntee": "", "ruling": "198806", "deductibility": "1", "assets": 94125, "income": 3511, "revenue": 0}, {"ein": "133422706", "name": "MARSHALL & MARILYN R WOLF FOUNDATI ON INC", "city": "NEW YORK", "state": "NY", "zip": "10008-0000", "ntee": "", "ruling": "198801", "deductibility": "1", "assets": 13051, "income": 2, "revenue": 0}, {"ein": "133733483", "name": "MARILYN HORNE FOUNDATION", "city": "NEW YORK", "state": "NY", "zip": "10024-3108", "ntee": "A601", "ruling": "199312", "deductibility": "1", "assets": 0, "income": 0, "revenue": 0}, {"ein": "133801041", "name": "ROBERT AND MARILYN FRIEDSON FOUNDATION", "city": "NEW YORK", "state": "NY", "zip": "10022-0000", "ntee": "A99Z", "ruling": "199602", "deductibility": "1", "assets": 218163, "income": 2921, "revenue": 2921}, {"ein": "200065215", "name": "MARILYN H TAHL EDUCATION FUND", "city": "NEW YORK", "state": "NY", "zip": "10022-2611", "ntee": "B82", "ruling": "200607", "deductibility": "1", "assets": 15799, "income": 352, "revenue": 0}, {"ein": "471648734", "name": "MARILYN VIOLET FOUNDATION INC", "city": "NEW YORK", "state": "NY", "zip": "10001-4509", "ntee": "P40", "ruling": "201709", "deductibility": "1", "assets": 0, "income": 0, "revenue": 0}, {"ein": "473796588", "name": "JERRY & MARILYN HANDLER FOUNDATION", "city": "NEW YORK", "state": "NY", "zip": "10128-3629", "ntee": "T20", "ruling": "201509", "deductibility": "1", "assets": 564975, "income": 258859, "revenue": 0}, {"ein": "812803908", "name": "MARILYN LICHTMAN FOUNDATION", "city": "WANTAGH", "state": "NY", "zip": "11793-4020", "ntee": "T20", "ruling": "201709", "deductibility": "1", "assets": 45790914, "income": 7098300, "revenue": 0}], "PATRICK": [{"ein": "112561104", "name": "GLEE CLUB OF THE FRIENDLY SONS OF ST PATRICK IN THE CITY OF NY INC", "city": "HASTINGS HDSN", "state": "NY", "zip": "10706-2833", "ntee": "A6BZ", "ruling": "198105", "deductibility": "1", "assets": 1, "income": 5, "revenue": 5}, {"ein": "112959596", "name": "THE SOCIETY OF THE FRIENDLY SONS OF ST PATRICK LI", "city": "LAKE SUCCESS", "state": "NY", "zip": "11042-1108", "ntee": "", "ruling": "199007", "deductibility": "2", "assets": 95745, "income": 128835, "revenue": 55933}, {"ein": "113192660", "name": "FRIENDS OF ST PATRICK INC", "city": "SHOREHAM", "state": "NY", "zip": "11786-0927", "ntee": "N52", "ruling": "200812", "deductibility": "1", "assets": 0, "income": 0, "revenue": 0}, {"ein": "133317180", "name": "PATRICK A GERSCHEL FOUNDATION", "city": "NEW YORK", "state": "NY", "zip": "10022-1615", "ntee": "", "ruling": "198602", "deductibility": "1", "assets": 6468005, "income": 611667, "revenue": 0}, {"ein": "133477383", "name": "KNIGHTS OF ST PATRICK INC", "city": "BREEZY POINT", "state": "NY", "zip": "11698-0000", "ntee": "A110", "ruling": "198811", "deductibility": "1", "assets": 272521, "income": 327958, "revenue": 327958}, {"ein": "133991302", "name": "SOCIETY OF THE FRIENDLY SONS OF ST PATRICK IN COUNTY OF ROCKLAND INC", "city": "PEARL RIVER", "state": "NY", "zip": "10965-0996", "ntee": "T30", "ruling": "200012", "deductibility": "1", "assets": 79790, "income": 54090, "revenue": 29715}, {"ein": "136164757", "name": "SOCIETY OF THE FRIENDLY SONS OF SAINT PATRICK IN THE CITY OF NEW", "city": "NEW YORK", "state": "NY", "zip": "10019-3674", "ntee": "", "ruling": "194506", "deductibility": "1", "assets": 3227881, "income": 1643540, "revenue": 0}, {"ein": "150532307", "name": "ST PATRICK-ST ANTHONY", "city": "CHADWICKS", "state": "NY", "zip": "13319-0429", "ntee": "", "ruling": "194603", "deductibility": "1", "assets": 0, "income": 0, "revenue": 0}, {"ein": "150539069", "name": "ST PATRICK OWEGO", "city": "OWEGO", "state": "NY", "zip": "13827-1616", "ntee": "", "ruling": "194603", "deductibility": "1", "assets": 0, "income": 0, "revenue": 0}, {"ein": "161580970", "name": "FRIENDLY SONS & DAUGHTERS OF ST PATRICK OF THE FINGER LAKES REGION", "city": "ROCHESTER", "state": "NY", "zip": "14625-0000", "ntee": "A84", "ruling": "200004", "deductibility": "1", "assets": 5020, "income": 0, "revenue": 0}, {"ein": "166088899", "name": "CATHOLIC COMMUNITY OF ST STEPHEN - ST PATRICK", "city": "WHITNEY POINT", "state": "NY", "zip": "13862-0000", "ntee": "", "ruling": "194603", "deductibility": "1", "assets": 0, "income": 0, "revenue": 0}, {"ein": "203938124", "name": "PATRICK M D-ALISO FOUNDATION INC", "city": "WARWICK", "state": "NY", "zip": "10990-2630", "ntee": "B118", "ruling": "200703", "deductibility": "1", "assets": 287072, "income": 20896, "revenue": 20896}, {"ein": "204005302", "name": "PATRICK CHEGE MEMORIAL ORPHANAGE INC", "city": "NEW YORK", "state": "NY", "zip": "10021-5055", "ntee": "O30", "ruling": "201602", "deductibility": "1", "assets": 0, "income": 0, "revenue": 0}, {"ein": "204232840", "name": "THOMAS PATRICK MORRISON FOUNDATION", "city": "GUILDERLAND", "state": "NY", "zip": "12084-0238", "ntee": "G20", "ruling": "200603", "deductibility": "1", "assets": 866703, "income": 118431, "revenue": 64708}, {"ein": "222554150", "name": "FRIENDLY SONS OF ST PATRICK OF ONEIDA COUNTY INC", "city": "UTICA", "state": "NY", "zip": "13502-5946", "ntee": "", "ruling": "199506", "deductibility": "2", "assets": 0, "income": 0, "revenue": 0}, {"ein": "236684291", "name": "JONAS & LILLIAN WARRELL TRUST UA DTD 090779 FBO ST PATRICK SCH", "city": "BUFFALO", "state": "NY", "zip": "14240-1504", "ntee": "T20", "ruling": "200506", "deductibility": "1", "assets": 205738, "income": 59096, "revenue": 0}, {"ein": "237230574", "name": "SOCIETY OF FRIENDLY SONS OF ST PATRICK IN WESTCHESTER COUNTY", "city": "YONKERS", "state": "NY", "zip": "10703-0645", "ntee": "", "ruling": "197812", "deductibility": "1", "assets": 94421, "income": 286864, "revenue": 150860}, {"ein": "262306491", "name": "PATRICK CASABONA JR MEMORIAL SCHOLARSHIP FUND", "city": "SOMERS", "state": "NY", "zip": "10589-0691", "ntee": "B82", "ruling": "200808", "deductibility": "1", "assets": 54466, "income": 1020, "revenue": 1020}, {"ein": "262610519", "name": "JAMES AND STEPHANIE PATRICK FAMILY FOUNDATION INC", "city": "COOPERSTOWN", "state": "NY", "zip": "13326-0000", "ntee": "T22", "ruling": "200907", "deductibility": "1", "assets": 1388366, "income": 222048, "revenue": 0}, {"ein": "266359638", "name": "PATRICK M COLAGIURI COLLECTION", "city": "NEW YORK", "state": "NY", "zip": "10007-0000", "ntee": "T20", "ruling": "200809", "deductibility": "1", "assets": 424000, "income": 1, "revenue": 0}, {"ein": "332552402", "name": "PATRICK R FOUNDATION CORPORATION", "city": "NEW YORK", "state": "NY", "zip": "10003-1502", "ntee": "F20", "ruling": "202501", "deductibility": "1", "assets": 0, "income": 0, "revenue": 0}, {"ein": "452351723", "name": "DR PATRICK J DINEEN MEMORIAL FOUNDATION", "city": "BOHEMIA", "state": "NY", "zip": "11716-3958", "ntee": "G30", "ruling": "202410", "deductibility": "1", "assets": 0, "income": 0, "revenue": 0}, {"ein": "453845576", "name": "PATRICK P LEE FOUNDATION INC", "city": "WILLIAMSVILLE", "state": "NY", "zip": "14221-5264", "ntee": "T22", "ruling": "201810", "deductibility": "1", "assets": 41778087, "income": 9094650, "revenue": 0}, {"ein": "462189287", "name": "PATRICK APOLLON & KATLINES VOICE FOR HAITI CORP", "city": "BROOKLYN", "state": "NY", "zip": "11236-5307", "ntee": "L99", "ruling": "201407", "deductibility": "1", "assets": 0, "income": 0, "revenue": 0}, {"ein": "462203511", "name": "SAINT PATRICK CATHOLIC ACADEMY", "city": "BROOKLYN", "state": "NY", "zip": "11209-7405", "ntee": "", "ruling": "194603", "deductibility": "1", "assets": 0, "income": 0, "revenue": 0}, {"ein": "462898312", "name": "PATRICK C BOTSFORD SCHOLARSHIP FUND INC", "city": "BALDWINSVILLE", "state": "NY", "zip": "13027-9634", "ntee": "B80", "ruling": "201612", "deductibility": "1", "assets": 0, "income": 0, "revenue": 0}, {"ein": "464037658", "name": "PATRICK J FRAWLEY FOUNDATION INC", "city": "NEW YORK", "state": "NY", "zip": "10065-6683", "ntee": "T20", "ruling": "201408", "deductibility": "1", "assets": 1925227, "income": 866274, "revenue": 0}, {"ein": "473375083", "name": "BRIAN ODOHERTY PATRICK IRELAND BARBARA NOVAK FOUNDATION INC", "city": "NEW YORK", "state": "NY", "zip": "10023-6226", "ntee": "A99", "ruling": "201603", "deductibility": "1", "assets": 259000, "income": 179000, "revenue": 0}, {"ein": "800511927", "name": "ST PATRICK SOCIETY OF BROOKLYN INC", "city": "BROOKLYN", "state": "NY", "zip": "11209-7742", "ntee": "T50", "ruling": "201704", "deductibility": "1", "assets": 0, "income": 0, "revenue": 0}, {"ein": "812699565", "name": "ROMAN CATHOLIC CHURCH OF SAINT CHRISTOPHER AND SAINT PATRICK", "city": "BUCHANAN", "state": "NY", "zip": "10511-1646", "ntee": "", "ruling": "194603", "deductibility": "1", "assets": 0, "income": 0, "revenue": 0}, {"ein": "812843869", "name": "ROMAN CATHOLIC CHURCH OF SAINT PATRICK AND SAINT MARY", "city": "NEWBURGH", "state": "NY", "zip": "12550-4611", "ntee": "", "ruling": "194603", "deductibility": "1", "assets": 0, "income": 0, "revenue": 0}, {"ein": "821763489", "name": "PS 15 PATRICK F DALY SCHOOL PTA", "city": "BROOKLYN", "state": "NY", "zip": "11231-1600", "ntee": "B94", "ruling": "201708", "deductibility": "1", "assets": 29978, "income": 50150, "revenue": 50150}, {"ein": "834560704", "name": "RYAN PATRICK OSHEA FOUNDATION INC", "city": "ROCKVILLE CTR", "state": "NY", "zip": "11570-5944", "ntee": "P12", "ruling": "201905", "deductibility": "1", "assets": 202773, "income": 133482, "revenue": 105294}, {"ein": "844040240", "name": "PATRICK CANTLAY FOUNDATION", "city": "NEW YORK", "state": "NY", "zip": "10123-0000", "ntee": "T20", "ruling": "202004", "deductibility": "1", "assets": 383133, "income": 421009, "revenue": 421009}, {"ein": "844176270", "name": "FRIENDLY SONS OF ST PATRICK LI CHARITY INC", "city": "LAKE SUCCESS", "state": "NY", "zip": "11042-1108", "ntee": "A23", "ruling": "202001", "deductibility": "1", "assets": 0, "income": 0, "revenue": 0}, {"ein": "851038570", "name": "PATRICK R HOLAHAN MEMORIAL FUND", "city": "E NORTHPORT", "state": "NY", "zip": "11731-2613", "ntee": "P20", "ruling": "202403", "deductibility": "1", "assets": 0, "income": 0, "revenue": 0}, {"ein": "853898436", "name": "COLONEL PATRICK ORORKE MEMORIAL SOCIETY", "city": "PENFIELD", "state": "NY", "zip": "14526-1934", "ntee": "A80", "ruling": "202411", "deductibility": "1", "assets": 0, "income": 0, "revenue": 0}, {"ein": "923696614", "name": "PATRICK PLACE - A COMFORT CARE HOME INC", "city": "SCOTTSVILLE", "state": "NY", "zip": "14546-9759", "ntee": "E86", "ruling": "202401", "deductibility": "1", "assets": 390985, "income": 465622, "revenue": 465622}, {"ein": "934206124", "name": "PATRICK SHIM FOUNDATION INC", "city": "BROOKLYN", "state": "NY", "zip": "11226-7101", "ntee": "O50", "ruling": "202401", "deductibility": "1", "assets": 0, "income": 0, "revenue": 0}, {"ein": "992439327", "name": "PATRICK CARROLL MEMORIAL FOUNDATION INC", "city": "PAWLING", "state": "NY", "zip": "12564-1079", "ntee": "B82", "ruling": "202405", "deductibility": "1", "assets": 1, "income": 0, "revenue": 0}], "AZIZ": [{"ein": "112694201", "name": "MASJIDUL-MUSTAQEEM MOSQUE INC C/O IHSAN ABD AZIZ", "city": "HUNTINGTON", "state": "NY", "zip": "11743-3039", "ntee": "", "ruling": "199409", "deductibility": "1", "assets": 0, "income": 0, "revenue": 0}, {"ein": "854273350", "name": "RAHIMA AZIZ FOUNDATION CORP", "city": "WEST SENECA", "state": "NY", "zip": "14224-1211", "ntee": "T30", "ruling": "202105", "deductibility": "1", "assets": 27607, "income": 269470, "revenue": 269470}, {"ein": "990483348", "name": "MASJID AL AZIZ CORP", "city": "DEER PARK", "state": "NY", "zip": "11729-4402", "ntee": "P20", "ruling": "202411", "deductibility": "1", "assets": 0, "income": 0, "revenue": 0}], "HISPANA": [{"ein": "112697237", "name": "EVANGELICA HISPANA AD", "city": "FREEPORT", "state": "NY", "zip": "11520-1228", "ntee": "", "ruling": "196408", "deductibility": "1", "assets": 0, "income": 0, "revenue": 0}, {"ein": "113054769", "name": "IGLESIA DE DIOS HISPANA INC", "city": "BROOKLYN", "state": "NY", "zip": "11221-4407", "ntee": "", "ruling": "199108", "deductibility": "1", "assets": 0, "income": 0, "revenue": 0}, {"ein": "113170671", "name": "IGLESIA DE DIOS SEPTIMO DIA HISPANA DE NUEVA YORK", "city": "CORONA", "state": "NY", "zip": "11368-2327", "ntee": "X20Z", "ruling": "199711", "deductibility": "1", "assets": 0, "income": 0, "revenue": 0}, {"ein": "113210995", "name": "IGLESIA PENTECOSTAL UNIDA HISPANA", "city": "BROOKLYN", "state": "NY", "zip": "11205-1438", "ntee": "X21", "ruling": "201409", "deductibility": "1", "assets": 896133, "income": 197799, "revenue": 197799}, {"ein": "113328624", "name": "IGLESIA HISPANA DE LA COMUNIDAD INC", "city": "LONG IS CITY", "state": "NY", "zip": "11106-2655", "ntee": "X20Z", "ruling": "199806", "deductibility": "1", "assets": 0, "income": 0, "revenue": 0}, {"ein": "113493463", "name": "ASOCIACION DE LONG ISLAND DE UNIDAD HISPANA-AMERICANA INC", "city": "JAMAICA", "state": "NY", "zip": "11433-2421", "ntee": "B30", "ruling": "201111", "deductibility": "1", "assets": 0, "income": 0, "revenue": 0}, {"ein": "113528885", "name": "IGLESIA HISPANA DE LAS ASAMBLEAS DE DIOS", "city": "FARMINGDALE", "state": "NY", "zip": "11735-5608", "ntee": "", "ruling": "196408", "deductibility": "1", "assets": 0, "income": 0, "revenue": 0}, {"ein": "132543563", "name": "ESCUELA HISPANA MONTESSORI INC", "city": "NEW YORK", "state": "NY", "zip": "10002-1621", "ntee": "B22Z", "ruling": "196802", "deductibility": "1", "assets": 1584093, "income": 2612351, "revenue": 2612351}, {"ein": "133520811", "name": "LA PRIMERA IGLESIA BAUTISTA HISPANA DE MANHATTAN S B C", "city": "NEW YORK", "state": "NY", "zip": "10033-0000", "ntee": "X20", "ruling": "201708", "deductibility": "1", "assets": 23913, "income": 714403, "revenue": 714403}, {"ein": "133741942", "name": "ASOCIACION HISPANA DE PROFESIONALES DE LA SALUD INC", "city": "WOODHAVEN", "state": "NY", "zip": "11421-2720", "ntee": "P20", "ruling": "202402", "deductibility": "1", "assets": 0, "income": 0, "revenue": 0}, {"ein": "133755168", "name": "IGL BAUT HISPANA DE FORDHAM", "city": "BRONX", "state": "NY", "zip": "10468-6108", "ntee": "", "ruling": "195504", "deductibility": "1", "assets": 0, "income": 0, "revenue": 0}, {"ein": "133925974", "name": "IGLESIA PENTECOSTAL UNIDA HISPANA DE PORTCHESTER INC", "city": "PORT CHESTER", "state": "NY", "zip": "10573-4312", "ntee": "X20", "ruling": "200306", "deductibility": "1", "assets": 0, "income": 0, "revenue": 0}, {"ein": "237095110", "name": "ALIANZA CRISTIANA Y MISIONERA HISPANA", "city": "NEW YORK", "state": "NY", "zip": "10029-3903", "ntee": "", "ruling": "199201", "deductibility": "1", "assets": 0, "income": 0, "revenue": 0}, {"ein": "237179604", "name": "IGLESIA EVANGELICA HISPANA ACYM", "city": "NEW YORK", "state": "NY", "zip": "10002-1810", "ntee": "", "ruling": "197205", "deductibility": "1", "assets": 0, "income": 0, "revenue": 0}, {"ein": "237295851", "name": "LA IGLESIA ALIANZA CRISTIANA Y MISIONERA HISPANA DE JAMAICA", "city": "JAMAICA", "state": "NY", "zip": "11432-4202", "ntee": "", "ruling": "197205", "deductibility": "1", "assets": 0, "income": 0, "revenue": 0}, {"ein": "300127305", "name": "IGLESIA BAUTISTA HISPANA BET EL", "city": "QUEENS VLG", "state": "NY", "zip": "11428-1837", "ntee": "X20", "ruling": "200411", "deductibility": "1", "assets": 0, "income": 0, "revenue": 0}, {"ein": "463966420", "name": "IGLESIA HISPANA CRISTIANA CENTRO DE ORACION INC", "city": "ELMIRA", "state": "NY", "zip": "14905-2535", "ntee": "P20", "ruling": "201408", "deductibility": "1", "assets": 0, "income": 0, "revenue": 0}, {"ein": "465627555", "name": "IGLESIA PENTECOSTAL UNIDA HISPANA INC", "city": "BRONX", "state": "NY", "zip": "10455-4652", "ntee": "X99", "ruling": "202303", "deductibility": "1", "assets": 0, "income": 0, "revenue": 0}, {"ein": "510481493", "name": "PRIMERA IGLESIA HISPANA DE FULTON", "city": "FULTON", "state": "NY", "zip": "13069-2931", "ntee": "", "ruling": "196408", "deductibility": "1", "assets": 0, "income": 0, "revenue": 0}, {"ein": "562330519", "name": "PRIMERA IGLESIA BAUTISTA HISPANA DE FLUSHING QUEENS", "city": "FLUSHING", "state": "NY", "zip": "11385-1884", "ntee": "X21", "ruling": "195504", "deductibility": "1", "assets": 0, "income": 0, "revenue": 0}, {"ein": "571190723", "name": "IGLESIA HISPANA DE LA COMUNIDAD FUENTE DE VIDA INC", "city": "RICHMOND HILL", "state": "NY", "zip": "11418-2511", "ntee": "X21", "ruling": "200403", "deductibility": "1", "assets": 0, "income": 0, "revenue": 0}, {"ein": "883028518", "name": "PRIMERA IGLESIA PENTECOSTAL UNIDA HISPANA EN LONG ISLAND INC", "city": "VALLEY STREAM", "state": "NY", "zip": "11580-3107", "ntee": "X99", "ruling": "202404", "deductibility": "1", "assets": 0, "income": 0, "revenue": 0}, {"ein": "990445395", "name": "LA COALICION HISPANA-THE HISPANIC COALITION INC", "city": "BRONX", "state": "NY", "zip": "10454-1116", "ntee": "P20", "ruling": "202406", "deductibility": "1", "assets": 0, "income": 0, "revenue": 0}, {"ein": "992029580", "name": "IGLESIA PENTECOSTAL UNIDA HISPANA DE SPRING VALLEY INC", "city": "PORT CHESTER", "state": "NY", "zip": "10573-5093", "ntee": "X99", "ruling": "202501", "deductibility": "1", "assets": 0, "income": 0, "revenue": 0}], "FRUIT": [{"ein": "112968886", "name": "ASSEMBLIES OF GOD NEW YORK FRUIT CHURCH", "city": "PRT WASHINGTN", "state": "NY", "zip": "11050-2003", "ntee": "", "ruling": "196408", "deductibility": "1", "assets": 0, "income": 0, "revenue": 0}, {"ein": "146049447", "name": "FLOWER & FRUIT MISSION OF THE SARATOGA HOSPITAL", "city": "SARATOGA SPGS", "state": "NY", "zip": "12866-1003", "ntee": "E22I", "ruling": "196809", "deductibility": "1", "assets": 87681, "income": 141514, "revenue": 74296}, {"ein": "473500140", "name": "FRUIT OF THE VINE MINISTRY INC", "city": "NEW YORK", "state": "NY", "zip": "10116-7116", "ntee": "P12", "ruling": "201504", "deductibility": "1", "assets": 0, "income": 0, "revenue": 0}, {"ein": "571148475", "name": "ST JOHN FRUIT BELT COMMUNITY DEVELOPMENT CORPORATION", "city": "BUFFALO", "state": "NY", "zip": "14204-1251", "ntee": "L20", "ruling": "200311", "deductibility": "1", "assets": 620717, "income": 538776, "revenue": 538776}, {"ein": "831216045", "name": "FIRST FRUIT COMMUNITY OUTREACH MINISTRY", "city": "BRONX", "state": "NY", "zip": "10459-4334", "ntee": "", "ruling": "202003", "deductibility": "1", "assets": 0, "income": 0, "revenue": 0}, {"ein": "844469935", "name": "EAT A FRUIT GIVE A FRUIT FOUNDATION INC", "city": "KINGSTON", "state": "NY", "zip": "12401-6145", "ntee": "Z99", "ruling": "202309", "deductibility": "1", "assets": 0, "income": 0, "revenue": 0}], "MEZOYNOS": [{"ein": "112995741", "name": "CHEVRAH MEZOYNOS JERUSALEM INC", "city": "BROOKLYN", "state": "NY", "zip": "11219-4006", "ntee": "", "ruling": "199001", "deductibility": "1", "assets": 0, "income": 0, "revenue": 0}], "RATTLESTICK": [{"ein": "113105457", "name": "RATTLESTICK PRODUCTIONS INC", "city": "NEW YORK", "state": "NY", "zip": "10014-2405", "ntee": "", "ruling": "199207", "deductibility": "1", "assets": 4468990, "income": 1106000, "revenue": 1106000}], "DANCENTER": [{"ein": "113234458", "name": "MOVEMENT OF THE CHILDREN DANCENTER INC", "city": "JAMAICA", "state": "NY", "zip": "11436-1229", "ntee": "A62", "ruling": "201508", "deductibility": "1", "assets": 13040, "income": 36000, "revenue": 36000}], "CASE": [{"ein": "113263570", "name": "CASE MANAGEMENT SOCIETY OF AMERICA INC", "city": "PELHAM", "state": "NY", "zip": "10803-2019", "ntee": "", "ruling": "199309", "deductibility": "2", "assets": 92572, "income": 67933, "revenue": 67933}, {"ein": "113265990", "name": "CASE MANAGEMENT SOCIETY OF AMERICA INC", "city": "NESCONSET", "state": "NY", "zip": "11767-2956", "ntee": "", "ruling": "199309", "deductibility": "2", "assets": 0, "income": 0, "revenue": 0}, {"ein": "137105895", "name": "CASE FAMILY FOUNDATION TR", "city": "NEW YORK", "state": "NY", "zip": "10075-0383", "ntee": "T20Z", "ruling": "199801", "deductibility": "1", "assets": 679579, "income": 313960, "revenue": 0}, {"ein": "161363413", "name": "ONONDAGA CASE MANAGEMENT SERVICES INC", "city": "SYRACUSE", "state": "NY", "zip": "13204-2463", "ntee": "P800", "ruling": "199009", "deductibility": "1", "assets": 8689496, "income": 6897956, "revenue": 6897956}, {"ein": "161586363", "name": "NEW YORK STATE CASE MANAGEMENT COALITION INC", "city": "ALBANY", "state": "NY", "zip": "12205-2676", "ntee": "B60", "ruling": "200203", "deductibility": "1", "assets": 73634, "income": 125193, "revenue": 125193}, {"ein": "223022643", "name": "ROBERT F CASE SCHOLARSHIP FUND INC", "city": "GLENVILLE", "state": "NY", "zip": "12302-6927", "ntee": "", "ruling": "199004", "deductibility": "1", "assets": 119506, "income": 6705, "revenue": 0}, {"ein": "272321384", "name": "SMH CASE MANAGEMENT", "city": "UNIONDALE", "state": "NY", "zip": "11553-3622", "ntee": "E21", "ruling": "201512", "deductibility": "1", "assets": 1692110, "income": 3854661, "revenue": 3854661}, {"ein": "311673897", "name": "NORTH AMERICAN PEDIATRIC RENAL TRANSPLANT CASE STUDY INC", "city": "HAWTHORNE", "state": "NY", "zip": "10532-2140", "ntee": "H440", "ruling": "200004", "deductibility": "1", "assets": 270295, "income": 533148, "revenue": 533148}, {"ein": "471681063", "name": "CASE MANAGEMENT SOCIETY OF AMERICA INC", "city": "TARRYTOWN", "state": "NY", "zip": "10591-0546", "ntee": "", "ruling": "199309", "deductibility": "2", "assets": 0, "income": 0, "revenue": 0}], "MEL": [{"ein": "113296823", "name": "MEL BARTHOLOMEW FOUNDATION LTD", "city": "HUNTINGTON", "state": "NY", "zip": "11743-2227", "ntee": "B99Z", "ruling": "199604", "deductibility": "1", "assets": 2395320, "income": 2417746, "revenue": 0}, {"ein": "471092913", "name": "ST MEL CATHOLIC ACADEMY", "city": "FLUSHING", "state": "NY", "zip": "11354-1518", "ntee": "", "ruling": "194603", "deductibility": "1", "assets": 0, "income": 0, "revenue": 0}], "GAVRIEL": [{"ein": "113336257", "name": "BETH GAVRIEL BUKHARIAN CONGREGATION", "city": "FOREST HILLS", "state": "NY", "zip": "11375-2244", "ntee": "X30Z", "ruling": "199801", "deductibility": "1", "assets": 0, "income": 0, "revenue": 0}, {"ein": "264114039", "name": "BEIS GAVRIEL", "city": "MONSEY", "state": "NY", "zip": "10952-1627", "ntee": "X30", "ruling": "201009", "deductibility": "1", "assets": 0, "income": 0, "revenue": 0}, {"ein": "270053699", "name": "BETH GAVRIEL DCC INC", "city": "KEW GARDENS", "state": "NY", "zip": "11415-1105", "ntee": "P33", "ruling": "201501", "deductibility": "1", "assets": 365009, "income": 824778, "revenue": 824778}, {"ein": "333968545", "name": "AMERICAN FRIENDS OF ATERET GAVRIEL INC", "city": "BROOKLYN", "state": "NY", "zip": "11229-1526", "ntee": "X30", "ruling": "202506", "deductibility": "1", "assets": 0, "income": 0, "revenue": 0}, {"ein": "465333761", "name": "CONGREGATION BNEI SHMUEL GAVRIEL", "city": "MINEOLA", "state": "NY", "zip": "11501-2672", "ntee": "X30", "ruling": "201502", "deductibility": "1", "assets": 0, "income": 0, "revenue": 0}, {"ein": "472758025", "name": "OHR GAVRIEL INC", "city": "SPRING VALLEY", "state": "NY", "zip": "10977-1103", "ntee": "X30", "ruling": "201711", "deductibility": "1", "assets": 0, "income": 0, "revenue": 0}, {"ein": "830861805", "name": "KANFI GAVRIEL FUND INC", "city": "LIBERTY", "state": "NY", "zip": "12754-2124", "ntee": "T30", "ruling": "201904", "deductibility": "1", "assets": 0, "income": 0, "revenue": 0}, {"ein": "844452455", "name": "BM BETH GAVRIEL INC", "city": "NEW YORK", "state": "NY", "zip": "10036-3464", "ntee": "X30", "ruling": "202102", "deductibility": "1", "assets": 0, "income": 0, "revenue": 0}, {"ein": "993213684", "name": "CHASDAI GAVRIEL", "city": "BROOKLYN", "state": "NY", "zip": "11229-1210", "ntee": "X30", "ruling": "202406", "deductibility": "1", "assets": 0, "income": 0, "revenue": 0}], "TYLER": [{"ein": "113375143", "name": "TYLER FORD BIALEK MEMORIAL FOUNDATION INC", "city": "JERICHO", "state": "NY", "zip": "11753-2818", "ntee": "T30", "ruling": "199709", "deductibility": "1", "assets": 4099, "income": 1000, "revenue": 1000}, {"ein": "206703229", "name": "THE MICHAEL TYLER FISHER CHARITABLE FOUNDATION", "city": "NEW YORK", "state": "NY", "zip": "10017-0000", "ntee": "T20", "ruling": "200707", "deductibility": "1", "assets": 26956, "income": 315, "revenue": 0}, {"ein": "272627418", "name": "TYLER DEMARCO FOUNDATION", "city": "SCHENECTADY", "state": "NY", "zip": "12306-3411", "ntee": "G30", "ruling": "201102", "deductibility": "1", "assets": 0, "income": 0, "revenue": 0}, {"ein": "383719931", "name": "TYLER NICOLE FOUNDATION INCORPORATED", "city": "JAMAICA", "state": "NY", "zip": "11434-6314", "ntee": "E60", "ruling": "201504", "deductibility": "1", "assets": 0, "income": 0, "revenue": 0}, {"ein": "462455008", "name": "MUSIC NEVER STOPS THE TYLER SEAMAN FOUNDATION", "city": "MERRICK", "state": "NY", "zip": "11566-3725", "ntee": "T12", "ruling": "201308", "deductibility": "1", "assets": 0, "income": 0, "revenue": 0}, {"ein": "463055249", "name": "TYLER PUTNAM FOUNDATION", "city": "ROCHESTER", "state": "NY", "zip": "14617-5437", "ntee": "B99", "ruling": "201405", "deductibility": "1", "assets": 0, "income": 0, "revenue": 0}, {"ein": "820834667", "name": "MARY TYLER MOORE LEVINE AND S ROBERT LEVINE MD CHARITABLE FOUNDA", "city": "QUOGUE", "state": "NY", "zip": "11959-2029", "ntee": "T22", "ruling": "201708", "deductibility": "1", "assets": 635973, "income": 1185880, "revenue": 0}, {"ein": "842977297", "name": "TYLER JAMES ABIZEID FOUNDATION INC", "city": "MASSAPEQUA", "state": "NY", "zip": "11758-7103", "ntee": "G12", "ruling": "201912", "deductibility": "1", "assets": 0, "income": 0, "revenue": 0}, {"ein": "844943148", "name": "TYLER G FOUNDATION INC", "city": "BROOKLYN", "state": "NY", "zip": "11226-9702", "ntee": "T30", "ruling": "202009", "deductibility": "1", "assets": 153000, "income": 10000, "revenue": 10000}, {"ein": "873104442", "name": "ORATORIAN COMMUNITY OF SAINT PHILIP NERI TYLER INC", "city": "BUFFALO", "state": "NY", "zip": "14202-2606", "ntee": "X22", "ruling": "202202", "deductibility": "1", "assets": 101625, "income": 333171, "revenue": 333171}, {"ein": "873230307", "name": "TYLER PROJECT LIMITED", "city": "MONTAUK", "state": "NY", "zip": "11954-0937", "ntee": "F80", "ruling": "202404", "deductibility": "1", "assets": 56060, "income": 38440, "revenue": 38440}, {"ein": "874148498", "name": "TYLER R CHRISTMAN FOUNDATION", "city": "CARTHAGE", "state": "NY", "zip": "13619-6037", "ntee": "O12", "ruling": "202204", "deductibility": "1", "assets": 216386, "income": 130137, "revenue": 39427}, {"ein": "884338184", "name": "MARY TYLER MOORE VISION INITIATIVE INC", "city": "QUOGUE", "state": "NY", "zip": "11959-2029", "ntee": "T30", "ruling": "202305", "deductibility": "1", "assets": 179062, "income": 1115217, "revenue": 1115217}, {"ein": "924023665", "name": "TYLER ADKINS MEMORIAL FUND", "city": "WALDEN", "state": "NY", "zip": "12586-3018", "ntee": "F12", "ruling": "202505", "deductibility": "1", "assets": 0, "income": 0, "revenue": 0}, {"ein": "934042855", "name": "TYLER BROWN FOUNDATION INC", "city": "NEW YORK", "state": "NY", "zip": "10010-0000", "ntee": "A60", "ruling": "202311", "deductibility": "1", "assets": 0, "income": 0, "revenue": 0}], "OHRAH": [{"ein": "113405505", "name": "CONGREGATION SHAREI OHRAH", "city": "BROOKLYN", "state": "NY", "zip": "11211-7915", "ntee": "X30Z", "ruling": "199801", "deductibility": "1", "assets": 0, "income": 0, "revenue": 0}], "MOSHAV": [{"ein": "113446677", "name": "MOSHAV ZEKENIM CHESED LABRAHAM", "city": "BROOKLYN", "state": "NY", "zip": "11204-1260", "ntee": "X30", "ruling": "199902", "deductibility": "1", "assets": 0, "income": 0, "revenue": 0}], "PANSAMIAN": [{"ein": "113487542", "name": "PANSAMIAN BROTHERHOOD PYTHAGORAS OF NEW YORK INC", "city": "ASTORIA", "state": "NY", "zip": "11106-1484", "ntee": "A23", "ruling": "200901", "deductibility": "1", "assets": 707124, "income": 107280, "revenue": 36332}], "TWW": [{"ein": "113634316", "name": "TWW INC", "city": "BROOKLYN", "state": "NY", "zip": "11205-4605", "ntee": "S99", "ruling": "200208", "deductibility": "1", "assets": 211605, "income": 66253, "revenue": 56903}, {"ein": "880650528", "name": "TWW NYC SOLIDARITY INC", "city": "BROOKLYN", "state": "NY", "zip": "11217-3399", "ntee": "S31", "ruling": "202504", "deductibility": "1", "assets": 313240, "income": 205658, "revenue": 205658}], "PRESCOTT": [{"ein": "131674446", "name": "THE PRESCOTT FUND FOR CHILDREN AND YOUTH INC", "city": "NEW YORK", "state": "NY", "zip": "10175-0003", "ntee": "", "ruling": "194712", "deductibility": "1", "assets": 60179, "income": 200, "revenue": 0}, {"ein": "842640907", "name": "THE PRESCOTT FOUNDATION", "city": "LATHAM", "state": "NY", "zip": "12110-1417", "ntee": "T20", "ruling": "202301", "deductibility": "1", "assets": 2108316, "income": 1858700, "revenue": 0}], "STRINGS": [{"ein": "131686434", "name": "SOCIETY FOR STRINGS INC", "city": "WESTPORT", "state": "NY", "zip": "12993-3203", "ntee": "A6E0", "ruling": "195212", "deductibility": "1", "assets": 7076370, "income": 3613978, "revenue": 1950127}, {"ein": "133263534", "name": "BUFFALO SUZUKI STRINGS INC", "city": "N TONAWANDA", "state": "NY", "zip": "14120-5810", "ntee": "A6E0", "ruling": "198311", "deductibility": "1", "assets": 1640643, "income": 733665, "revenue": 733665}, {"ein": "453541572", "name": "EIGHT STRINGS AND A WHISTLE INC", "city": "NEW YORK CITY", "state": "NY", "zip": "10019-4254", "ntee": "A68", "ruling": "201205", "deductibility": "1", "assets": 0, "income": 0, "revenue": 0}, {"ein": "510201835", "name": "SCHOOL FOR STRINGS INC", "city": "NEW YORK", "state": "NY", "zip": "10019-4405", "ntee": "A6E0", "ruling": "197709", "deductibility": "1", "assets": 14039478, "income": 5472119, "revenue": 1603295}, {"ein": "823385218", "name": "STRINGS FOR HEALING INC", "city": "GLEN COVE", "state": "NY", "zip": "11542-1470", "ntee": "J32", "ruling": "201712", "deductibility": "1", "assets": 0, "income": 0, "revenue": 0}, {"ein": "921311179", "name": "GREEN STRINGS INC", "city": "MILLER PLACE", "state": "NY", "zip": "11764-1932", "ntee": "T99", "ruling": "202301", "deductibility": "1", "assets": 0, "income": 0, "revenue": 0}], "ARMONK": [{"ein": "132501444", "name": "ARMONK UNITED METHODIST CHURCH", "city": "WHITE PLAINS", "state": "NY", "zip": "10606-3302", "ntee": "", "ruling": "197410", "deductibility": "0", "assets": 0, "income": 0, "revenue": 0}, {"ein": "132731114", "name": "ARMONK ALLIANCE CHURCH OF THE CHRISTIAN MISSIONARY ALLIANCE", "city": "ARMONK", "state": "NY", "zip": "10504-2527", "ntee": "", "ruling": "197205", "deductibility": "1", "assets": 0, "income": 0, "revenue": 0}, {"ein": "133058202", "name": "CONGREGATION B NAI YISRAEL OF ARMONK", "city": "ARMONK", "state": "NY", "zip": "10504-2616", "ntee": "", "ruling": "198103", "deductibility": "1", "assets": 0, "income": 0, "revenue": 0}, {"ein": "133182064", "name": "ARMONK CHILDRENS CORNER INC", "city": "ARMONK", "state": "NY", "zip": "10504-2102", "ntee": "", "ruling": "198505", "deductibility": "1", "assets": 769039, "income": 883057, "revenue": 883057}, {"ein": "137202998", "name": "ARMONK COMMUNITY FOUNDATION", "city": "ARMONK", "state": "NY", "zip": "10504-1439", "ntee": "T31", "ruling": "200010", "deductibility": "1", "assets": 0, "income": 0, "revenue": 0}, {"ein": "200329223", "name": "ARMONK CHAMBER OF COMMERCE INC", "city": "ARMONK", "state": "NY", "zip": "10504-0024", "ntee": "S41", "ruling": "201804", "deductibility": "2", "assets": 46322, "income": 110432, "revenue": 110432}, {"ein": "270227762", "name": "ARMONK INDEPENDENT FIRE COMPANY INC", "city": "ARMONK", "state": "NY", "zip": "10504-0116", "ntee": "M24", "ruling": "201803", "deductibility": "1", "assets": 190872, "income": 383969, "revenue": 383969}, {"ein": "273753952", "name": "ARMONK SOCCER CLUB", "city": "PLEASANTVILLE", "state": "NY", "zip": "10570-1408", "ntee": "N64", "ruling": "201407", "deductibility": "1", "assets": 1008731, "income": 938391, "revenue": 938391}, {"ein": "465766122", "name": "CHABAD OF ARMONK CHAPPAQUA AND PLEASANTVILLE INC", "city": "ARMONK", "state": "NY", "zip": "10504-1848", "ntee": "X30", "ruling": "201603", "deductibility": "1", "assets": 0, "income": 0, "revenue": 0}], "GOLDIE": [{"ein": "132897474", "name": "ANNA GOLDIE CHARITABLE TRUST", "city": "EAST MARION", "state": "NY", "zip": "11939-0306", "ntee": "", "ruling": "197802", "deductibility": "1", "assets": 18975808, "income": 2392268, "revenue": 0}, {"ein": "223625504", "name": "GOLDIE RUTENBERG AND PARENTS SHAINA RIVA ET AL FAMILY FOUNDATION", "city": "FLUSHING", "state": "NY", "zip": "11367-2817", "ntee": "T21", "ruling": "199904", "deductibility": "1", "assets": 1814122, "income": 1495240, "revenue": 0}, {"ein": "463568040", "name": "LEWIS AND GOLDIE WOLF FOUNDATION INC", "city": "BROOKLYN", "state": "NY", "zip": "11219-3691", "ntee": "T20", "ruling": "201511", "deductibility": "1", "assets": 1025301, "income": 708758, "revenue": 0}], "LECTURE": [{"ein": "132990480", "name": "R F LECTURE SERIES INC", "city": "NEW YORK", "state": "NY", "zip": "10014-6918", "ntee": "", "ruling": "197909", "deductibility": "1", "assets": 3343, "income": 171282, "revenue": 171282}, {"ein": "156016293", "name": "ARTISIAN SCHOOL TRUST UA FBO JOHN SWEET LECTURE FUND", "city": "NORWICH", "state": "NY", "zip": "13815-0000", "ntee": "", "ruling": "000000", "deductibility": "0", "assets": 30534, "income": 4204, "revenue": 0}, {"ein": "203683908", "name": "GREATER NEW YORK OPHTHALMOLOGY CLINICAL LECTURE SERIES FOUNDATION", "city": "NEW YORK", "state": "NY", "zip": "10005-0000", "ntee": "B90", "ruling": "200611", "deductibility": "1", "assets": 51269, "income": 0, "revenue": 0}, {"ein": "510195184", "name": "MANHATTAN JOINT LECTURE COMMITTEE", "city": "NEW YORK", "state": "NY", "zip": "10021-1802", "ntee": "", "ruling": "197607", "deductibility": "1", "assets": 0, "income": 0, "revenue": 0}, {"ein": "933456259", "name": "DR UNA CLARKE WOMEN IN GOVERNMENT LECTURE SERIES INCORPOR", "city": "BROOKLYN", "state": "NY", "zip": "11225-2010", "ntee": "O50", "ruling": "202410", "deductibility": "1", "assets": 0, "income": 0, "revenue": 0}], "OCKO": [{"ein": "133006279", "name": "ROSE OCKO FOUNDATION INC", "city": "MONSEY", "state": "NY", "zip": "10952-2466", "ntee": "L22", "ruling": "202111", "deductibility": "1", "assets": 4998232, "income": 1, "revenue": 0}], "CICATELLI": [{"ein": "133020576", "name": "CICATELLI ASSOCIATES INC", "city": "NEW YORK", "state": "NY", "zip": "10018-6505", "ntee": "E70Z", "ruling": "198406", "deductibility": "1", "assets": 16573345, "income": 31601439, "revenue": 31085713}], "MEREDITH": [{"ein": "133213079", "name": "THE MEREDITH FOUNDATION INC", "city": "DELHI", "state": "NY", "zip": "13753-1444", "ntee": "", "ruling": "198408", "deductibility": "1", "assets": 0, "income": 0, "revenue": 0}, {"ein": "137094993", "name": "MEREDITH FAM FOUNDATION", "city": "NEW YORK", "state": "NY", "zip": "10007-0089", "ntee": "T30Z", "ruling": "199711", "deductibility": "1", "assets": 295870, "income": 53055, "revenue": 0}, {"ein": "150627426", "name": "MEREDITH INSURANCE CO", "city": "EAST MEREDITH", "state": "NY", "zip": "13757-0094", "ntee": "", "ruling": "194412", "deductibility": "2", "assets": 889145, "income": 55381, "revenue": 55381}, {"ein": "237305188", "name": "H MEREDITH BERRY TRUST 1972", "city": "NEW YORK", "state": "NY", "zip": "10128-1132", "ntee": "", "ruling": "197308", "deductibility": "1", "assets": 627814, "income": 2419, "revenue": 2419}, {"ein": "237321530", "name": "HANFORD MILLS MUSEUM AT EAST MEREDITH", "city": "EAST MEREDITH", "state": "NY", "zip": "13757-0099", "ntee": "A540", "ruling": "197311", "deductibility": "1", "assets": 2469239, "income": 782135, "revenue": 752907}, {"ein": "550901004", "name": "MEREDITH HISTORICAL SOCIETY", "city": "MERIDALE", "state": "NY", "zip": "13806-0026", "ntee": "A80", "ruling": "200608", "deductibility": "1", "assets": 0, "income": 0, "revenue": 0}, {"ein": "814713571", "name": "TED & MEREDITH SEGAL FOUNDATION", "city": "NEW YORK", "state": "NY", "zip": "10019-5905", "ntee": "T20", "ruling": "201703", "deductibility": "1", "assets": 4388298, "income": 224684, "revenue": 0}], "DONE": [{"ein": "133330300", "name": "THY WILL BE DONE PEOPLES BAPTIST CHURCH", "city": "NEW YORK", "state": "NY", "zip": "10029-5333", "ntee": "", "ruling": "195504", "deductibility": "1", "assets": 0, "income": 0, "revenue": 0}, {"ein": "825036779", "name": "IM NOT DONE YET FOUNDATION INC", "city": "GARDEN CITY", "state": "NY", "zip": "11530-4413", "ntee": "T30", "ruling": "201902", "deductibility": "1", "assets": 204803, "income": 493774, "revenue": 467208}, {"ein": "932021830", "name": "DONE IN LOVE FOUNDATION INC", "city": "SAINT ALBANS", "state": "NY", "zip": "11412-3812", "ntee": "E60", "ruling": "202401", "deductibility": "1", "assets": 0, "income": 0, "revenue": 0}, {"ein": "993456998", "name": "WERE DONE DYING INC", "city": "FREEPORT", "state": "NY", "zip": "11520-3341", "ntee": "P20", "ruling": "202501", "deductibility": "1", "assets": 0, "income": 0, "revenue": 0}], "CLARISSE": [{"ein": "133347805", "name": "CLARISSE B KAMPEL FOUNDATION INC", "city": "SEAFORD", "state": "NY", "zip": "11783-2826", "ntee": "B82Z", "ruling": "198610", "deductibility": "1", "assets": 8744, "income": 10012, "revenue": 0}], "DRATSANG": [{"ein": "133355619", "name": "THE RATO DRATSANG FOUNDATION", "city": "NEW YORK", "state": "NY", "zip": "10156-1873", "ntee": "", "ruling": "198609", "deductibility": "1", "assets": 319640, "income": 83745, "revenue": 0}], "COOPERATIVES": [{"ein": "133377349", "name": "ASSOCIATION OF RIVERDALE COOPERATIVES INC", "city": "EAST MEADOW", "state": "NY", "zip": "11554-0000", "ntee": "S41", "ruling": "199906", "deductibility": "2", "assets": 64361, "income": 15603, "revenue": 15603}], "MAPLEBROOK": [{"ein": "133463471", "name": "THE MAPLEBROOK SCHOOL FOUNDATION INC", "city": "AMENIA", "state": "NY", "zip": "12501-5357", "ntee": "", "ruling": "199003", "deductibility": "1", "assets": 20858, "income": 1, "revenue": 0}, {"ein": "141377027", "name": "MAPLEBROOK SCHOOL INC", "city": "AMENIA", "state": "NY", "zip": "12501-5357", "ntee": "", "ruling": "195308", "deductibility": "1", "assets": 12106087, "income": 4677310, "revenue": 4586030}], "BRIGHTPOINT": [{"ein": "133464470", "name": "BRIGHTPOINT CARE INC", "city": "NEW YORK", "state": "NY", "zip": "10010-3509", "ntee": "", "ruling": "198809", "deductibility": "1", "assets": 23566585, "income": 17969532, "revenue": 17969532}], "SALAMANDER": [{"ein": "133535216", "name": "SALAMANDER REPERTORY THEATRE", "city": "NEW YORK", "state": "NY", "zip": "10036-6341", "ntee": "", "ruling": "199404", "deductibility": "1", "assets": 0, "income": 0, "revenue": 0}, {"ein": "463193847", "name": "SALAMANDER REALTY CORP", "city": "LONG IS CITY", "state": "NY", "zip": "11106-4416", "ntee": "S47", "ruling": "201410", "deductibility": "2", "assets": 12849282, "income": 563923, "revenue": 563923}, {"ein": "900646431", "name": "THE SALAMANDER HOOK LADDER AND BUCKET COMPANY OF OCEANSIDE", "city": "OCEANSIDE", "state": "NY", "zip": "11572-2204", "ntee": "M24", "ruling": "201402", "deductibility": "1", "assets": 155284, "income": 37649, "revenue": 37649}], "FEEKS": [{"ein": "133562887", "name": "IROQUOIS AVENUE FOUNDATION ATTN D FEEKS", "city": "NEW YORK", "state": "NY", "zip": "10010-0000", "ntee": "", "ruling": "199009", "deductibility": "1", "assets": 4148594, "income": 1682123, "revenue": 0}], "ENFORCE": [{"ein": "133579267", "name": "UNITED FEDERATION OF LAW ENFORCE MENT OFFICERS INC", "city": "BELLEROSE", "state": "NY", "zip": "11426-0058", "ntee": "J40", "ruling": "201209", "deductibility": "2", "assets": 394184, "income": 116835, "revenue": 116835}], "TREAMENT": [{"ein": "133631727", "name": "CENTERLIGHT HEALTHCARE DIAGNOSTIC AND TREAMENT CENTER", "city": "FLUSHING", "state": "NY", "zip": "11354-4110", "ntee": "E31Z", "ruling": "199201", "deductibility": "1", "assets": 1747511, "income": 18743734, "revenue": 18743734}], "CORPORAL": [{"ein": "133634076", "name": "CORPORAL ALLEN F KIVLEHAN KOREAN WAR VETERANS ASSOCIATION INC", "city": "STATEN ISLAND", "state": "NY", "zip": "10306-4914", "ntee": "", "ruling": "199209", "deductibility": "2", "assets": 0, "income": 0, "revenue": 0}, {"ein": "160667383", "name": "CORPORAL JOSEPH J MOONEY POST 2250 VFW OF US INC", "city": "HORNELL", "state": "NY", "zip": "14843-1816", "ntee": "W30", "ruling": "201712", "deductibility": "1", "assets": 102138, "income": 1006877, "revenue": 170415}], "SIMCHOS": [{"ein": "133697735", "name": "CHASODIM TOVIM KEREN SIMCHOS", "city": "SPRING VALLEY", "state": "NY", "zip": "10977-8111", "ntee": "", "ruling": "199303", "deductibility": "1", "assets": 0, "income": 0, "revenue": 0}, {"ein": "822049126", "name": "SIMCHOS BSIMCHA ORGANIZATION INC", "city": "MONSEY", "state": "NY", "zip": "10952-3130", "ntee": "P20", "ruling": "201812", "deductibility": "1", "assets": 0, "income": 0, "revenue": 0}], "WATERMARK": [{"ein": "133729352", "name": "WATERMARK THEATER INC", "city": "NEW YORK", "state": "NY", "zip": "10024-3606", "ntee": "A600", "ruling": "199309", "deductibility": "1", "assets": 21440, "income": 142489, "revenue": 74548}, {"ein": "990754684", "name": "WATERMARK ARTS INC", "city": "RED HOOK", "state": "NY", "zip": "12571-4510", "ntee": "A99", "ruling": "202405", "deductibility": "1", "assets": 0, "income": 0, "revenue": 0}], "WEB": [{"ein": "133889608", "name": "WEB CINEMA GROUP", "city": "PLAINVIEW", "state": "NY", "zip": "11803-3301", "ntee": "S41I", "ruling": "199610", "deductibility": "1", "assets": 1, "income": 1, "revenue": 0}, {"ein": "161494941", "name": "LEARNING WEB INC", "city": "ITHACA", "state": "NY", "zip": "14850-4364", "ntee": "O50", "ruling": "199608", "deductibility": "1", "assets": 756887, "income": 1514695, "revenue": 1347702}, {"ein": "205620848", "name": "NEW YORK WEB CENTER INC", "city": "BROOKLYN", "state": "NY", "zip": "11233-0000", "ntee": "O50", "ruling": "200812", "deductibility": "1", "assets": 75415, "income": 34496, "revenue": 34496}, {"ein": "842571099", "name": "WNY FOOD WEB INC", "city": "EAST AMHERST", "state": "NY", "zip": "14051-1739", "ntee": "K30", "ruling": "201909", "deductibility": "1", "assets": 0, "income": 0, "revenue": 0}, {"ein": "882759397", "name": "PHOENIX WEB INC", "city": "HUNTER", "state": "NY", "zip": "12442-0634", "ntee": "P29", "ruling": "202206", "deductibility": "1", "assets": 0, "income": 0, "revenue": 0}], "KAJMO": [{"ein": "133956173", "name": "KAJMO GMACH INC", "city": "MONSEY", "state": "NY", "zip": "10952-2126", "ntee": "X99Z", "ruling": "199804", "deductibility": "1", "assets": 0, "income": 0, "revenue": 0}], "LUCILE": [{"ein": "134039046", "name": "JOHN LUCILE RICHARD OLSON FOUNDATION INC", "city": "CROTON HDSN", "state": "NY", "zip": "10520-3609", "ntee": "B82", "ruling": "199906", "deductibility": "1", "assets": 228545, "income": 9060, "revenue": 0}, {"ein": "136089871", "name": "CARL & LUCILE OESTREICHER FOUNDATION INC", "city": "NEW YORK", "state": "NY", "zip": "10021-4985", "ntee": "", "ruling": "195506", "deductibility": "1", "assets": 86569, "income": 19165, "revenue": 0}, {"ein": "161292300", "name": "LUCILE M WRIGHT AIR MUSEUM", "city": "JAMESTOWN", "state": "NY", "zip": "14701-5112", "ntee": "", "ruling": "198812", "deductibility": "1", "assets": 0, "income": 0, "revenue": 0}], "KHAN": [{"ein": "134051134", "name": "KHAN UNIVERSAL FOUNDATION INC", "city": "ARMONK", "state": "NY", "zip": "10504-0503", "ntee": "M12", "ruling": "200305", "deductibility": "1", "assets": 93329, "income": 238238, "revenue": 0}, {"ein": "452241364", "name": "ZAKA KHAN FOUNDATION INC", "city": "MELVILLE", "state": "NY", "zip": "11747-2731", "ntee": "B82", "ruling": "201109", "deductibility": "1", "assets": 9940, "income": 23000, "revenue": 0}, {"ein": "471760686", "name": "AMIR KHAN FOUNDATION INC", "city": "STATEN ISLAND", "state": "NY", "zip": "10309-1742", "ntee": "S20", "ruling": "201611", "deductibility": "1", "assets": 0, "income": 0, "revenue": 0}, {"ein": "844283661", "name": "K-PAC KHAN-POOR AMERICAN CHARITY CORP", "city": "BROOKLYN", "state": "NY", "zip": "11201-3856", "ntee": "K6D", "ruling": "202405", "deductibility": "1", "assets": 0, "income": 0, "revenue": 0}, {"ein": "874762796", "name": "AMED KHAN FOUNDATION", "city": "SUFFERN", "state": "NY", "zip": "10901-0844", "ntee": "P20", "ruling": "202311", "deductibility": "1", "assets": 50065, "income": 400000, "revenue": 0}], "COACH": [{"ein": "134163940", "name": "NYC CHAPTER OF THE INTERNATIONAL COACH FEDERATION INC", "city": "NEW YORK", "state": "NY", "zip": "10019-3702", "ntee": "N40", "ruling": "200107", "deductibility": "2", "assets": 150414, "income": 88102, "revenue": 88102}, {"ein": "146024895", "name": "COACH HOUSE PLAYERS INC", "city": "KINGSTON", "state": "NY", "zip": "12402-3481", "ntee": "A65", "ruling": "201407", "deductibility": "1", "assets": 0, "income": 0, "revenue": 0}, {"ein": "161131933", "name": "FAMILY MOTOR COACH ASSOCIATION", "city": "CANAJOHARIE", "state": "NY", "zip": "13317-3403", "ntee": "", "ruling": "197501", "deductibility": "2", "assets": 0, "income": 0, "revenue": 0}, {"ein": "161398140", "name": "FAMILY MOTOR COACH ASSOCIATION", "city": "FREEVILLE", "state": "NY", "zip": "13068-8505", "ntee": "", "ruling": "197501", "deductibility": "2", "assets": 0, "income": 0, "revenue": 0}, {"ein": "161572289", "name": "COACH DONALD A CHICHESTER MEMORIAL FOUNDATION", "city": "GENESEO", "state": "NY", "zip": "14454-0083", "ntee": "B82", "ruling": "201705", "deductibility": "1", "assets": 0, "income": 0, "revenue": 0}, {"ein": "166200467", "name": "FAMILY MOTOR COACH ASSOCIATION", "city": "ANGOLA", "state": "NY", "zip": "14006-9408", "ntee": "", "ruling": "197501", "deductibility": "2", "assets": 0, "income": 0, "revenue": 0}, {"ein": "201542908", "name": "GORDON HEIGHTS SPORTS COACH & PARENTS ASSOCIATION INC", "city": "MIDDLE ISLAND", "state": "NY", "zip": "11953-4050", "ntee": "O50", "ruling": "202404", "deductibility": "1", "assets": 0, "income": 0, "revenue": 0}, {"ein": "262903192", "name": "COACH VINCENT CARBONARO SCHOLARSHIP FUND", "city": "BROOKLYN", "state": "NY", "zip": "11234-4829", "ntee": "N12", "ruling": "202408", "deductibility": "1", "assets": 58445, "income": 88071, "revenue": 28703}, {"ein": "262939018", "name": "COACH FOUNDATION INC", "city": "NEW YORK", "state": "NY", "zip": "10001-2157", "ntee": "", "ruling": "200902", "deductibility": "1", "assets": 73954524, "income": 3456265, "revenue": 0}, {"ein": "310979095", "name": "FAMILY MOTOR COACH ASSOCIATION", "city": "WHITE PLAINS", "state": "NY", "zip": "10607-2403", "ntee": "", "ruling": "197501", "deductibility": "2", "assets": 0, "income": 0, "revenue": 0}, {"ein": "310979135", "name": "FAMILY MOTOR COACH ASSOCIATION", "city": "SCHENEVUS", "state": "NY", "zip": "12155-3903", "ntee": "", "ruling": "197501", "deductibility": "2", "assets": 0, "income": 0, "revenue": 0}, {"ein": "332216283", "name": "COACH DEJULIA FUND INC", "city": "CENTRAL VLY", "state": "NY", "zip": "10917-5011", "ntee": "N6A", "ruling": "202412", "deductibility": "1", "assets": 0, "income": 0, "revenue": 0}, {"ein": "452992257", "name": "COACH JACK KOBUSKIE MEMORIAL SCHOLARSHIP", "city": "GLOVERSVILLE", "state": "NY", "zip": "12078-4111", "ntee": "B82", "ruling": "201112", "deductibility": "1", "assets": 0, "income": 0, "revenue": 0}, {"ein": "831167493", "name": "GODSTRENGTH COACH INC", "city": "LIVERPOOL", "state": "NY", "zip": "13090-1047", "ntee": "X90", "ruling": "201905", "deductibility": "1", "assets": 0, "income": 0, "revenue": 0}, {"ein": "833679464", "name": "UPSTATE NEW YORK CHARTER CHAPTER OF THE INTERNATIONAL COACH FEDERATIO", "city": "PITTSFORD", "state": "NY", "zip": "14534-2936", "ntee": "S41", "ruling": "201909", "deductibility": "2", "assets": 0, "income": 0, "revenue": 0}, {"ein": "843480806", "name": "COACH SCOT BASEBALL LTD", "city": "NEW YORK", "state": "NY", "zip": "10044-0023", "ntee": "N40", "ruling": "202301", "deductibility": "1", "assets": 1, "income": 6013, "revenue": 0}, {"ein": "911874778", "name": "FAMILY MOTOR COACH ASSOCIATION", "city": "FISHKILL", "state": "NY", "zip": "12524-1436", "ntee": "", "ruling": "197501", "deductibility": "2", "assets": 0, "income": 0, "revenue": 0}, {"ein": "921463103", "name": "COACH MO TENNIS FOUNDATION", "city": "NEW YORK", "state": "NY", "zip": "10018-8111", "ntee": "", "ruling": "202301", "deductibility": "1", "assets": 0, "income": 0, "revenue": 0}], "MFRS": [{"ein": "135642034", "name": "NEW YORK RAINCOAT MFRS ASSN INC", "city": "SYOSSET", "state": "NY", "zip": "11791-3434", "ntee": "", "ruling": "194502", "deductibility": "2", "assets": 0, "income": 0, "revenue": 0}, {"ein": "136125313", "name": "EXPANSION JOINT MFRS ASSN INC", "city": "TARRYTOWN", "state": "NY", "zip": "10591-3221", "ntee": "", "ruling": "195606", "deductibility": "2", "assets": 97007, "income": 91511, "revenue": 50036}, {"ein": "136132759", "name": "TUBULAR EXCHANGER MFRS ASSN INC", "city": "TARRYTOWN", "state": "NY", "zip": "10591-3221", "ntee": "S41", "ruling": "200003", "deductibility": "2", "assets": 731869, "income": 366212, "revenue": 359163}], "DAVISON": [{"ein": "136075621", "name": "G D MILLER CORP HENRY P DAVISON II", "city": "DOBBS FERRY", "state": "NY", "zip": "10522-2192", "ntee": "", "ruling": "196607", "deductibility": "2", "assets": 1598337, "income": 1760689, "revenue": 1760689}, {"ein": "306010237", "name": "THE DONALD F AND MAXINE B DAVISON FOUNDATION", "city": "SPENCERPORT", "state": "NY", "zip": "14559-0418", "ntee": "T22", "ruling": "200202", "deductibility": "1", "assets": 8531777, "income": 1113077, "revenue": 0}], "BOHEMIANS": [{"ein": "136167266", "name": "BOHEMIANS", "city": "NEW YORK", "state": "NY", "zip": "10010-1629", "ntee": "T20", "ruling": "200303", "deductibility": "1", "assets": 8105, "income": 53324, "revenue": 53324}], "LINEL": [{"ein": "136373887", "name": "CHARLES LINEL LINDEMANN SCIENTIFIC 39 15 C 023 598768", "city": "NEW YORK", "state": "NY", "zip": "10013-2362", "ntee": "", "ruling": "197306", "deductibility": "0", "assets": 3437176, "income": 3816718, "revenue": 0}], "BELFER": [{"ein": "136935616", "name": "ROBERT A AND RENEE E BELFER FAMILY FOUNDATION", "city": "NEW YORK", "state": "NY", "zip": "10153-0000", "ntee": "", "ruling": "199002", "deductibility": "1", "assets": 84949, "income": 2647, "revenue": 0}, {"ein": "137208162", "name": "THE LAURENCE AND CAROLYN BELFER FAMILY FOUNDATION", "city": "NEW YORK", "state": "NY", "zip": "10153-0023", "ntee": "T22", "ruling": "200003", "deductibility": "1", "assets": 40109, "income": 1665, "revenue": 0}], "MECHNER": [{"ein": "137104759", "name": "MECHNER FOUNDATION", "city": "NEW YORK", "state": "NY", "zip": "10019-1445", "ntee": "P20Z", "ruling": "199803", "deductibility": "1", "assets": 6266206, "income": 6249364, "revenue": 0}], "LINLITHGO": [{"ein": "141462251", "name": "LINLITHGO REFORMED CHURCH", "city": "LIVINGSTON", "state": "NY", "zip": "12541-0219", "ntee": "", "ruling": "196801", "deductibility": "1", "assets": 0, "income": 0, "revenue": 0}], "SCHWARTZBACH": [{"ein": "141596199", "name": "VIVEKANANDA VEDANTA VIHAR C O BARRY SCHWARTZBACH", "city": "GREENVILLE", "state": "NY", "zip": "12083-0000", "ntee": "", "ruling": "197807", "deductibility": "1", "assets": 0, "income": 0, "revenue": 0}], "ODELL": [{"ein": "141805402", "name": "SUSAN ODELL TAYLOR SCHOOL FOR CHILDREN", "city": "TROY", "state": "NY", "zip": "12180-4845", "ntee": "B24", "ruling": "199811", "deductibility": "1", "assets": 1811732, "income": 1169924, "revenue": 1169924}, {"ein": "160848946", "name": "A J ODELL FOUNDATION", "city": "ARCADE", "state": "NY", "zip": "14009-1501", "ntee": "", "ruling": "196509", "deductibility": "1", "assets": 368238, "income": 31892, "revenue": 0}, {"ein": "474793577", "name": "APOSTLE ODELL LYERLY FOUNDATION INC", "city": "NEW ROCHELLE", "state": "NY", "zip": "10801-3936", "ntee": "P20", "ruling": "201510", "deductibility": "1", "assets": 0, "income": 0, "revenue": 0}, {"ein": "842517086", "name": "FRIENDS OF ODELL HOUSE ROCHAMBEAU HEADQUARTERS INC", "city": "HARTSDALE", "state": "NY", "zip": "10530-3006", "ntee": "A80", "ruling": "200201", "deductibility": "1", "assets": 155838, "income": 83817, "revenue": 83817}], "SETTLERS": [{"ein": "146023426", "name": "DUTCH SETTLERS SOCIETY OF ALBANY", "city": "ALBANY", "state": "NY", "zip": "12203-2717", "ntee": "", "ruling": "194508", "deductibility": "2", "assets": 0, "income": 0, "revenue": 0}], "PAVILION": [{"ein": "160732051", "name": "PAVILION CEMETERY ASSOCIATION OF PAVILION N Y", "city": "PAVILION", "state": "NY", "zip": "14525-9614", "ntee": "", "ruling": "194608", "deductibility": "1", "assets": 0, "income": 0, "revenue": 0}, {"ein": "161234344", "name": "COMMUNITY FIRE CO OF PAVILION INC", "city": "PAVILION", "state": "NY", "zip": "14525-0156", "ntee": "M24", "ruling": "200607", "deductibility": "1", "assets": 677149, "income": 123646, "revenue": 113359}, {"ein": "161365310", "name": "PAVILION AMATEUR SOCCER ASSOCIATION", "city": "PAVILION", "state": "NY", "zip": "14525-0192", "ntee": "N64", "ruling": "201105", "deductibility": "1", "assets": 0, "income": 0, "revenue": 0}, {"ein": "260724624", "name": "PAVILION ELEMENTARY PARENT TEACHERSORGANZIATION", "city": "PAVILION", "state": "NY", "zip": "14525-9117", "ntee": "B94", "ruling": "201606", "deductibility": "1", "assets": 0, "income": 0, "revenue": 0}, {"ein": "274465946", "name": "REDEEMED CHRISTIAN CHURCH OF GOD RESTORATION PAVILION", "city": "VALHALLA", "state": "NY", "zip": "10595-2003", "ntee": "X20", "ruling": "201603", "deductibility": "1", "assets": 0, "income": 0, "revenue": 0}, {"ein": "311587828", "name": "MICHAEL MALOTZ SKILLED NURSING PAVILION", "city": "YONKERS", "state": "NY", "zip": "10703-3402", "ntee": "L20", "ruling": "199805", "deductibility": "1", "assets": 0, "income": 0, "revenue": 0}, {"ein": "334420750", "name": "JOHNNIE B WILEY SPORTS PAVILION INCORPORATED", "city": "BUFFALO", "state": "NY", "zip": "14208-2413", "ntee": "O20", "ruling": "202505", "deductibility": "1", "assets": 0, "income": 0, "revenue": 0}, {"ein": "471343751", "name": "PEOPLE FOR THE PAVILION", "city": "FOREST HILLS", "state": "NY", "zip": "11375-2681", "ntee": "S20", "ruling": "201410", "deductibility": "1", "assets": 0, "income": 0, "revenue": 0}, {"ein": "562308414", "name": "ISHMACHIAH WOMEN S PAVILION INC", "city": "BROOKLYN", "state": "NY", "zip": "11212-0000", "ntee": "X20", "ruling": "201001", "deductibility": "1", "assets": 0, "income": 0, "revenue": 0}, {"ein": "841839581", "name": "BETHEL DESTINY PAVILION HOUSING DEVELOPMENT FUND CORPORATION", "city": "NEW YORK", "state": "NY", "zip": "10035-2707", "ntee": "L20", "ruling": "202006", "deductibility": "1", "assets": 0, "income": 0, "revenue": 0}, {"ein": "870926955", "name": "PAVILION AT BROOKMEADE INC", "city": "RHINEBECK", "state": "NY", "zip": "12572-2317", "ntee": "P80", "ruling": "202204", "deductibility": "1", "assets": 1074918, "income": 105233, "revenue": 85976}, {"ein": "994209470", "name": "SPORTS BOOSTERS OF PAVILION NY INC", "city": "LINWOOD", "state": "NY", "zip": "14486-9705", "ntee": "N19", "ruling": "202408", "deductibility": "1", "assets": 0, "income": 0, "revenue": 0}], "WILLIAMSVILLE": [{"ein": "160743153", "name": "ST FRANCIS HOME OF WILLIAMSVILLE", "city": "BUFFALO", "state": "NY", "zip": "14203-1560", "ntee": "", "ruling": "194603", "deductibility": "1", "assets": 0, "income": 0, "revenue": 0}, {"ein": "161200165", "name": "THE JOLLY BOYS OF WILLIAMSVILLE NEW YORK INC", "city": "WILLIAMSVILLE", "state": "NY", "zip": "14231-0531", "ntee": "E20", "ruling": "199811", "deductibility": "1", "assets": 159039, "income": 337093, "revenue": 118199}, {"ein": "161206169", "name": "WILLIAMSVILLE ROTARY FOUNDATION INC", "city": "WILLIAMSVILLE", "state": "NY", "zip": "14221-0000", "ntee": "", "ruling": "198801", "deductibility": "1", "assets": 496096, "income": 23098, "revenue": 23098}, {"ein": "161501963", "name": "WILLIAMSVILLE EDUCATION FOUNDATION INC", "city": "EAST AMHERST", "state": "NY", "zip": "14051-5000", "ntee": "T22", "ruling": "199611", "deductibility": "1", "assets": 149539, "income": 18409, "revenue": 18144}, {"ein": "161607347", "name": "WILLIAMSVILLE TEACHERS ASSOCIATION BENEFITS TR", "city": "WILLIAMSVILLE", "state": "NY", "zip": "14221-6737", "ntee": "Y44", "ruling": "200207", "deductibility": "2", "assets": 9030559, "income": 24962405, "revenue": 21976088}, {"ein": "166036354", "name": "WILLIAMSVILLE UNITED METHODIST CHURCH", "city": "WILLIAMSVILLE", "state": "NY", "zip": "14221-5517", "ntee": "", "ruling": "197410", "deductibility": "2", "assets": 0, "income": 0, "revenue": 0}, {"ein": "223576711", "name": "WILLIAMSVILLE EXEMPT FIREMENS ASSOC IATION INC", "city": "WILLIAMSVILLE", "state": "NY", "zip": "14221-4520", "ntee": "T11", "ruling": "199903", "deductibility": "1", "assets": 0, "income": 0, "revenue": 0}, {"ein": "237086639", "name": "WILLIAMSVILLE JUNIOR FOOTBALL INC", "city": "GETZVILLE", "state": "NY", "zip": "14068-0682", "ntee": "N65", "ruling": "202003", "deductibility": "1", "assets": 85011, "income": 170980, "revenue": 170980}, {"ein": "261283241", "name": "WILLIAMSVILLE MUSIC BOOSTERS INC", "city": "EAST AMHERST", "state": "NY", "zip": "14051-2224", "ntee": "B20", "ruling": "201704", "deductibility": "1", "assets": 0, "income": 0, "revenue": 0}, {"ein": "271585472", "name": "WILLIAMSVILLE BUSINESS ASSOCIATION INC", "city": "WILLIAMSVILLE", "state": "NY", "zip": "14231-0061", "ntee": "", "ruling": "201101", "deductibility": "0", "assets": 0, "income": 0, "revenue": 0}, {"ein": "522091007", "name": "WILLIAMSVILLE EAST FOOTBALL BOOSTERS CLUB", "city": "WILLIAMSVILLE", "state": "NY", "zip": "14221-1933", "ntee": "N65", "ruling": "201106", "deductibility": "1", "assets": 0, "income": 0, "revenue": 0}, {"ein": "814566314", "name": "WILLIAMSVILLE STAMPEDE INC", "city": "AMHERST", "state": "NY", "zip": "14228-0000", "ntee": "O20", "ruling": "201612", "deductibility": "1", "assets": 75244, "income": 72017, "revenue": 72017}, {"ein": "923642160", "name": "WILLIAMSVILLE SOUTH FLAG FOOTBALL BOOSTER CLUB INC", "city": "WILLIAMSVILLE", "state": "NY", "zip": "14221-2835", "ntee": "O12", "ruling": "202306", "deductibility": "1", "assets": 0, "income": 0, "revenue": 0}, {"ein": "932438002", "name": "WILLIAMSVILLE NORTH FOOTBALL BOOSTERS", "city": "WILLIAMSVILLE", "state": "NY", "zip": "14221-8332", "ntee": "B12", "ruling": "202404", "deductibility": "1", "assets": 0, "income": 0, "revenue": 0}], "PERIODICAL": [{"ein": "161025704", "name": "SPECTRUM STUDENT PERIODICAL INC", "city": "BUFFALO", "state": "NY", "zip": "14260-2100", "ntee": "B99Z", "ruling": "197406", "deductibility": "1", "assets": 72072, "income": 61948, "revenue": 61948}], "FORESTVIEW": [{"ein": "161157630", "name": "FORESTVIEW CHURCH", "city": "NIAGARA FALLS", "state": "NY", "zip": "14305-1428", "ntee": "", "ruling": "196007", "deductibility": "1", "assets": 0, "income": 0, "revenue": 0}], "BGM": [{"ein": "161255123", "name": "BGM FOUNDATION", "city": "VESTAL", "state": "NY", "zip": "13851-0895", "ntee": "", "ruling": "198609", "deductibility": "1", "assets": 2714834, "income": 1836346, "revenue": 0}], "ICN": [{"ein": "161264464", "name": "NEW YORK STATE RURAL ELECTRIC COOPERATIVE ASSOCIATION ICN", "city": "BATH", "state": "NY", "zip": "14810-1633", "ntee": "", "ruling": "199007", "deductibility": "2", "assets": 50807, "income": 77854, "revenue": 77854}], "TERMINAL": [{"ein": "161536196", "name": "CENTRAL TERMINAL RESTORATION CORP", "city": "BUFFALO", "state": "NY", "zip": "14212-0051", "ntee": "A80", "ruling": "199805", "deductibility": "1", "assets": 19153835, "income": 1755116, "revenue": 1755116}], "POLISSENI": [{"ein": "161611263", "name": "POLISSENI FOUNDATION INC", "city": "ROCHESTER", "state": "NY", "zip": "14625-2833", "ntee": "T22", "ruling": "200205", "deductibility": "1", "assets": 21226, "income": 776172, "revenue": 0}], "BROWNFIELD": [{"ein": "200873462", "name": "ROME COMMUNITY BROWNFIELD RESTORATION CORPORATION", "city": "ROME", "state": "NY", "zip": "13441-4929", "ntee": "C34", "ruling": "200509", "deductibility": "1", "assets": 2057708, "income": 277005, "revenue": 277005}, {"ein": "202681698", "name": "BUFFALO BROWNFIELD RESTORATION CORPORATION", "city": "BUFFALO", "state": "NY", "zip": "14203-3030", "ntee": "S31", "ruling": "200505", "deductibility": "1", "assets": 3683564, "income": 34755, "revenue": 34755}, {"ein": "263861753", "name": "NIAGARA COUNTY BROWNFIELD DEVELOPMENT CORPORATION", "city": "SANBORN", "state": "NY", "zip": "14132-9012", "ntee": "C20", "ruling": "201007", "deductibility": "1", "assets": 2627085, "income": 812084, "revenue": 812084}, {"ein": "273846593", "name": "NEW YORK CITY BROWNFIELD PARTNERSHIP", "city": "NEW YORK", "state": "NY", "zip": "10116-8801", "ntee": "B82", "ruling": "201206", "deductibility": "1", "assets": 117998, "income": 140725, "revenue": 140725}], "11THSCHOLARSHIP": [{"ein": "203801172", "name": "JEROME LOHEZ SEPTEMBER 11THSCHOLARSHIP FOUNDATION", "city": "NEW YORK", "state": "NY", "zip": "10023-7451", "ntee": "B12", "ruling": "200610", "deductibility": "1", "assets": 76665, "income": 10317, "revenue": 10317}], "STARZ": [{"ein": "204594464", "name": "NY SWING AWAY STARZ", "city": "SHERRILL", "state": "NY", "zip": "13461-1367", "ntee": "N63", "ruling": "200605", "deductibility": "1", "assets": 0, "income": 0, "revenue": 0}, {"ein": "813750102", "name": "CHEERS STARZ SPORTS CLUB INC", "city": "WESTFIELD", "state": "NY", "zip": "14787-1033", "ntee": "N65", "ruling": "201909", "deductibility": "1", "assets": 0, "income": 0, "revenue": 0}, {"ein": "883959290", "name": "STARZ OF TOMORROW", "city": "HEMPSTEAD", "state": "NY", "zip": "11550-2502", "ntee": "A01", "ruling": "202211", "deductibility": "1", "assets": 0, "income": 0, "revenue": 0}, {"ein": "912187615", "name": "NEW YORK STARZ YOUTH CLUB", "city": "CORNWALL", "state": "NY", "zip": "12518-7103", "ntee": "O99", "ruling": "201406", "deductibility": "1", "assets": 1, "income": 11150, "revenue": 11150}, {"ein": "920634866", "name": "ALL-STARZ FH", "city": "HAUPPAUGE", "state": "NY", "zip": "11788-1619", "ntee": "P28", "ruling": "202210", "deductibility": "1", "assets": 0, "income": 0, "revenue": 0}, {"ein": "921680157", "name": "SHOOTING STARZ CORP", "city": "FAYETTEVILLE", "state": "NY", "zip": "13066-2504", "ntee": "P30", "ruling": "202301", "deductibility": "1", "assets": 0, "income": 0, "revenue": 0}, {"ein": "921948284", "name": "LI RISING STARZ CC", "city": "PLAINVIEW", "state": "NY", "zip": "11803-5622", "ntee": "N50", "ruling": "202309", "deductibility": "2", "assets": 0, "income": 0, "revenue": 0}], "NETS": [{"ein": "205370246", "name": "THE BROOKLYN NETS & NEW YORK LIBERTY FOUNDATION", "city": "BROOKLYN", "state": "NY", "zip": "11232-2549", "ntee": "T22", "ruling": "200708", "deductibility": "1", "assets": 595793, "income": 1164019, "revenue": 0}, {"ein": "271256146", "name": "SYRACUSE NETS LTD", "city": "BREWERTON", "state": "NY", "zip": "13029-8666", "ntee": "N62", "ruling": "201101", "deductibility": "1", "assets": 33840, "income": 88819, "revenue": 88819}, {"ein": "471327711", "name": "THE NETS PROJECT", "city": "BRONX", "state": "NY", "zip": "10456-6512", "ntee": "P20", "ruling": "201410", "deductibility": "1", "assets": 0, "income": 0, "revenue": 0}], "SEBONACK": [{"ein": "205411954", "name": "SEBONACK FOUNDATION", "city": "MELVILLE", "state": "NY", "zip": "11747-2339", "ntee": "T20", "ruling": "200610", "deductibility": "1", "assets": 254466, "income": 1000162, "revenue": 0}], "SPANIEL": [{"ein": "205776611", "name": "ABANDONED ANGELS COCKER SPANIEL RESCUE INC", "city": "FLUSHING", "state": "NY", "zip": "11354-7926", "ntee": "D20", "ruling": "201401", "deductibility": "1", "assets": 31462, "income": 232202, "revenue": 232202}, {"ein": "522291578", "name": "FINGER LAKES TIBETAN SPANIEL ASSOCIATION INC", "city": "TRUMANSBURG", "state": "NY", "zip": "14886-9148", "ntee": "D20", "ruling": "200311", "deductibility": "2", "assets": 0, "income": 0, "revenue": 0}, {"ein": "753117592", "name": "CAVALIER KING CHARLES SPANIEL CLUB OF NORTHEASTERN NEW YORK INC", "city": "LATHAM", "state": "NY", "zip": "12110-1552", "ntee": "S80", "ruling": "202006", "deductibility": "2", "assets": 0, "income": 0, "revenue": 0}, {"ein": "900621592", "name": "FIELD SPANIEL SOCIETY OF AMERICA INC", "city": "ROCHESTER", "state": "NY", "zip": "14609-2032", "ntee": "D03", "ruling": "201708", "deductibility": "2", "assets": 0, "income": 0, "revenue": 0}], "LTF": [{"ein": "206007671", "name": "LTF BENEFITS TRUST FUND", "city": "GLENWOOD", "state": "NY", "zip": "14069-9651", "ntee": "Y43", "ruling": "200502", "deductibility": "2", "assets": 234671, "income": 195808, "revenue": 195808}], "PATROLMENSASSOCIATION": [{"ein": "222322496", "name": "BRIGHTON POLICE PATROLMENSASSOCIATION", "city": "ROCHESTER", "state": "NY", "zip": "14618-2213", "ntee": "", "ruling": "198011", "deductibility": "2", "assets": 263394, "income": 63115, "revenue": 63115}], "WAMC": [{"ein": "222400593", "name": "WAMC", "city": "ALBANY", "state": "NY", "zip": "12206-2522", "ntee": "A340", "ruling": "199203", "deductibility": "1", "assets": 12797602, "income": 7752324, "revenue": 7449056}], "LEBERMAN": [{"ein": "222626028", "name": "CHANA LEAH & HERMAN L LIBERMAN FREE LOAN FUND UNDER PATRONG S LEBERMAN", "city": "BROOKLYN", "state": "NY", "zip": "11234-2620", "ntee": "", "ruling": "198511", "deductibility": "1", "assets": 20176, "income": 8, "revenue": 0}], "LINKAGES": [{"ein": "222867366", "name": "LINKAGES OF ROCHESTER INC", "city": "ROCHESTER", "state": "NY", "zip": "14617-4707", "ntee": "Z99Z", "ruling": "198804", "deductibility": "1", "assets": 0, "income": 0, "revenue": 0}], "POMRENZE": [{"ein": "222905892", "name": "JAY & HADASA POMRENZE FOUNDATION", "city": "NEW YORK", "state": "NY", "zip": "10171-0299", "ntee": "", "ruling": "198702", "deductibility": "1", "assets": 1179478, "income": 33266, "revenue": 0}], "RUTENBERG": [{"ein": "223625504", "name": "GOLDIE RUTENBERG AND PARENTS SHAINA RIVA ET AL FAMILY FOUNDATION", "city": "FLUSHING", "state": "NY", "zip": "11367-2817", "ntee": "T21", "ruling": "199904", "deductibility": "1", "assets": 1814122, "income": 1495240, "revenue": 0}], "SCHWARZ": [{"ein": "226100120", "name": "SCHWARZ FAMILY FOUNDATION", "city": "NEW YORK", "state": "NY", "zip": "10128-1001", "ntee": "", "ruling": "196804", "deductibility": "1", "assets": 162776, "income": 58516, "revenue": 0}, {"ein": "226743828", "name": "SCHWARZ FAM FOUNDATION TR", "city": "EAST HAMPTON", "state": "NY", "zip": "11937-0347", "ntee": "T20", "ruling": "200003", "deductibility": "1", "assets": 117067, "income": 120705, "revenue": 0}], "VINA": [{"ein": "237366678", "name": "WILLIAM & VINA BAKER YERDON FOUNDATION", "city": "FORT PLAIN", "state": "NY", "zip": "13339-0000", "ntee": "", "ruling": "197405", "deductibility": "1", "assets": 2039931, "income": 82906, "revenue": 0}, {"ein": "272813881", "name": "IGLESIA LA VINA INC", "city": "WHITESTONE", "state": "NY", "zip": "11357-2040", "ntee": "X20", "ruling": "196408", "deductibility": "2", "assets": 0, "income": 0, "revenue": 0}], "YERAM": [{"ein": "260882300", "name": "NEW YORK YERAM CHURCH", "city": "FLUSHING", "state": "NY", "zip": "11354-1500", "ntee": "X20", "ruling": "200807", "deductibility": "1", "assets": 0, "income": 0, "revenue": 0}], "ACHIEVEMENTS": [{"ein": "261533150", "name": "KEEP EMPOWERING YOUTH ACHIEVEMENTS KEYA", "city": "VALLEY STREAM", "state": "NY", "zip": "11581-3215", "ntee": "A40", "ruling": "201004", "deductibility": "1", "assets": 0, "income": 0, "revenue": 0}], "UMATZEL": [{"ein": "261895378", "name": "PODEH UMATZEL INC", "city": "BROOKLYN", "state": "NY", "zip": "11204-1123", "ntee": "X30", "ruling": "201006", "deductibility": "1", "assets": 10792, "income": 665013, "revenue": 665013}], "SALMAN": [{"ein": "262373169", "name": "SALMAN AND SAMINA GLOBAL WELLNESS INITIATIVE LTD", "city": "TAPPAN", "state": "NY", "zip": "10983-2301", "ntee": "P99", "ruling": "201005", "deductibility": "1", "assets": 0, "income": 0, "revenue": 0}], "APIOS": [{"ein": "263038395", "name": "APIOS INSTITUTE INC", "city": "ITHACA", "state": "NY", "zip": "14850-9045", "ntee": "K99", "ruling": "201803", "deductibility": "1", "assets": 0, "income": 0, "revenue": 0}], "ABILITY": [{"ein": "264419177", "name": "ABILITY PARTNERS FOUNDATION", "city": "GENEVA", "state": "NY", "zip": "14456-1335", "ntee": "P117", "ruling": "200909", "deductibility": "1", "assets": 4990638, "income": 986709, "revenue": 654476}, {"ein": "272995305", "name": "OUR ABILITY ALLIANCE INC", "city": "GLENMONT", "state": "NY", "zip": "12077-2959", "ntee": "P80", "ruling": "201012", "deductibility": "1", "assets": 3579, "income": 33254, "revenue": 33254}, {"ein": "334556861", "name": "SUPPORTIVE ABILITY INC", "city": "BRONX", "state": "NY", "zip": "10469-5900", "ntee": "P99", "ruling": "202506", "deductibility": "1", "assets": 0, "income": 0, "revenue": 0}, {"ein": "464354320", "name": "THIS ABILITY NOT DISABILITY INC", "city": "NEW YORK", "state": "NY", "zip": "10008-2217", "ntee": "G01", "ruling": "201410", "deductibility": "1", "assets": 0, "income": 0, "revenue": 0}, {"ein": "471611231", "name": "CREATIVE ABILITY DEVELOPMENT INC", "city": "ROCHESTER", "state": "NY", "zip": "14618-5704", "ntee": "A68", "ruling": "201410", "deductibility": "1", "assets": 1045051, "income": 420918, "revenue": 420918}, {"ein": "474624269", "name": "ABILITY PLAYSPACE INC", "city": "BROOKLYN", "state": "NY", "zip": "11234-4828", "ntee": "B80", "ruling": "201508", "deductibility": "1", "assets": 134238, "income": 55386, "revenue": 55386}, {"ein": "743113057", "name": "CENTS ABILITY INC", "city": "NEW YORK", "state": "NY", "zip": "10167-0006", "ntee": "S80", "ruling": "202504", "deductibility": "1", "assets": 51190, "income": 229342, "revenue": 229342}, {"ein": "822916736", "name": "ADAPT ABILITY INC", "city": "PINE ISLAND", "state": "NY", "zip": "10969-0454", "ntee": "P58", "ruling": "201806", "deductibility": "1", "assets": 23086, "income": 29852, "revenue": 29852}, {"ein": "823866280", "name": "ABILITY PRO INC", "city": "BROOKLYN", "state": "NY", "zip": "11229-2524", "ntee": "J30", "ruling": "201911", "deductibility": "1", "assets": 0, "income": 0, "revenue": 0}, {"ein": "993205813", "name": "AVAIL ABILITY INTERNATIONAL INC", "city": "NEW YORK", "state": "NY", "zip": "10025-6629", "ntee": "P99", "ruling": "202501", "deductibility": "1", "assets": 0, "income": 0, "revenue": 0}], "VORONOVSKY": [{"ein": "266235285", "name": "BORIS AND MARCIA VORONOVSKY EDUCATION FUND", "city": "NEW YORK", "state": "NY", "zip": "10118-0000", "ntee": "T20", "ruling": "200808", "deductibility": "1", "assets": 2230387, "income": 492865, "revenue": 0}], "PROS": [{"ein": "270530273", "name": "PROS-BIBLICAL LANGUAGE CHURCH", "city": "FLUSHING", "state": "NY", "zip": "11354-3424", "ntee": "X21", "ruling": "201004", "deductibility": "1", "assets": 0, "income": 0, "revenue": 0}, {"ein": "473864908", "name": "THE NATIONAL PROS & CONS ASSOCIATION INC", "city": "TROY", "state": "NY", "zip": "12180-5052", "ntee": "", "ruling": "202308", "deductibility": "1", "assets": 0, "income": 0, "revenue": 0}, {"ein": "851211108", "name": "LADY DIAMOND PROS INC", "city": "BELLEROSE", "state": "NY", "zip": "11426-1902", "ntee": "N63", "ruling": "202007", "deductibility": "1", "assets": 18987, "income": 56624, "revenue": 56624}, {"ein": "863636162", "name": "SAFETY CONSULTANT PROS INC", "city": "S OZONE PARK", "state": "NY", "zip": "11420-3614", "ntee": "Z99", "ruling": "202108", "deductibility": "1", "assets": 0, "income": 0, "revenue": 0}, {"ein": "881814447", "name": "BD PROS INC", "city": "N BELLMORE", "state": "NY", "zip": "11710-2722", "ntee": "P03", "ruling": "202312", "deductibility": "2", "assets": 0, "income": 0, "revenue": 0}, {"ein": "934704779", "name": "BATTLE TECH PROS INC", "city": "MOUNT SINAI", "state": "NY", "zip": "11766-1501", "ntee": "J22", "ruling": "202401", "deductibility": "1", "assets": 1, "income": 0, "revenue": 0}], "NORTHLAND": [{"ein": "272576430", "name": "NORTHLAND NEWFOUNDLAND CLUB INC", "city": "WATERVLIET", "state": "NY", "zip": "12189-3103", "ntee": "", "ruling": "202007", "deductibility": "0", "assets": 13390, "income": 10555, "revenue": 4605}], "THERA": [{"ein": "273904634", "name": "THERA-PETS INC", "city": "PERU", "state": "NY", "zip": "12972-0319", "ntee": "D60", "ruling": "201203", "deductibility": "1", "assets": 0, "income": 0, "revenue": 0}], "STEMPEL": [{"ein": "306015902", "name": "BRENDALYN AND ERNEST STEMPEL FOUNDATION", "city": "NEW YORK", "state": "NY", "zip": "10119-0000", "ntee": "T20", "ruling": "200204", "deductibility": "1", "assets": 2304111, "income": 758632, "revenue": 0}, {"ein": "510363381", "name": "ERNEST E STEMPEL FOUNDATION", "city": "NEW YORK", "state": "NY", "zip": "10017-2513", "ntee": "T20J", "ruling": "199505", "deductibility": "1", "assets": 24024259, "income": 4804329, "revenue": 0}], "URBANWORLD": [{"ein": "311595881", "name": "URBANWORLD FOUNDATION INC", "city": "NEW YORK", "state": "NY", "zip": "10014-3817", "ntee": "A31", "ruling": "201311", "deductibility": "1", "assets": 285103, "income": 427967, "revenue": 0}], "BUTTON": [{"ein": "316646167", "name": "ADELBERT L BUTTON CHARITABLE FOUNDATION", "city": "NORWICH", "state": "NY", "zip": "13815-0000", "ntee": "T20", "ruling": "200010", "deductibility": "1", "assets": 1171395, "income": 132868, "revenue": 0}, {"ein": "334530055", "name": "TAKE A CAMERA PUSH A BUTTON INC", "city": "BROOKLYN", "state": "NY", "zip": "11215-3609", "ntee": "A20", "ruling": "202505", "deductibility": "1", "assets": 0, "income": 0, "revenue": 0}, {"ein": "364802885", "name": "BUTTON FAMILY FOUNDATION INC", "city": "GLOVERSVILLE", "state": "NY", "zip": "12078-6785", "ntee": "", "ruling": "201603", "deductibility": "1", "assets": 346878, "income": 1022847, "revenue": 0}], "CATEGORY": [{"ein": "320498855", "name": "CATEGORY SIX PESTICIDE TRAINING COMMITTEE INC", "city": "ITHACA", "state": "NY", "zip": "14852-4491", "ntee": "C60", "ruling": "201701", "deductibility": "1", "assets": 0, "income": 0, "revenue": 0}], "RMC": [{"ein": "331292792", "name": "RMC MEMORIAL FOUNDATION INC", "city": "MASSAPEQUA PARK", "state": "NY", "zip": "11762-2931", "ntee": "P20", "ruling": "202410", "deductibility": "1", "assets": 0, "income": 0, "revenue": 0}], "SLICE": [{"ein": "331531973", "name": "SLICE OF CHARITY INC", "city": "NEW YORK", "state": "NY", "zip": "10003-1502", "ntee": "P20", "ruling": "202410", "deductibility": "1", "assets": 0, "income": 0, "revenue": 0}, {"ein": "474438249", "name": "SLICE OUT HUNGER INC", "city": "NEW YORK", "state": "NY", "zip": "10001-7604", "ntee": "P12", "ruling": "201510", "deductibility": "1", "assets": 132687, "income": 371911, "revenue": 371911}, {"ein": "562620872", "name": "SLICE LITERARY INC", "city": "NEW YORK", "state": "NY", "zip": "10014-0659", "ntee": "A33", "ruling": "200903", "deductibility": "1", "assets": 2059, "income": 11511, "revenue": 7339}, {"ein": "861348335", "name": "SLICE OF EXCELLENCE INC", "city": "NEW YORK", "state": "NY", "zip": "10009-5989", "ntee": "T31", "ruling": "202104", "deductibility": "1", "assets": 0, "income": 0, "revenue": 0}], "EXPERT": [{"ein": "331870989", "name": "EXPERT SYNERGY GROUP INC", "city": "NEW YORK", "state": "NY", "zip": "10036-7118", "ntee": "C05", "ruling": "202412", "deductibility": "1", "assets": 0, "income": 0, "revenue": 0}], "UNFOLDMENT": [{"ein": "332215256", "name": "FOUNDATION FOR INTERNATIONAL SPIRITUAL UNFOLDMENT", "city": "NEW YORK", "state": "NY", "zip": "10022-5115", "ntee": "B01", "ruling": "202506", "deductibility": "1", "assets": 0, "income": 0, "revenue": 0}], "XING": [{"ein": "342003808", "name": "SHAO XING ASSOCIATION OF AMERICA INC", "city": "JAMAICA", "state": "NY", "zip": "11435-1879", "ntee": "A23", "ruling": "200511", "deductibility": "1", "assets": 1347, "income": 0, "revenue": 0}, {"ein": "873085557", "name": "JIA HE WAN SHI XING CORPORATION", "city": "STATEN ISLAND", "state": "NY", "zip": "10306-5309", "ntee": "K35", "ruling": "202201", "deductibility": "1", "assets": 0, "income": 0, "revenue": 0}], "DOMAIN": [{"ein": "352696608", "name": "DOMAIN FOUNDATION INC", "city": "NEW YORK CITY", "state": "NY", "zip": "10016-2817", "ntee": "P20", "ruling": "202105", "deductibility": "1", "assets": 0, "income": 0, "revenue": 0}], "WOSEL": [{"ein": "364596589", "name": "KARMA WOSEL DOJOE LING", "city": "WOODSIDE", "state": "NY", "zip": "11377-4330", "ntee": "X50", "ruling": "200703", "deductibility": "1", "assets": 0, "income": 0, "revenue": 0}], "NADAL": [{"ein": "371832779", "name": "RAFA NADAL FOUNDATION INC", "city": "NEW YORK", "state": "NY", "zip": "10017-9117", "ntee": "T22", "ruling": "201709", "deductibility": "1", "assets": 651062, "income": 300000, "revenue": 0}], "HAITIEN": [{"ein": "421635320", "name": "COLLEGE CANADO-HAITIEN & FRERES DU SACRE COEUR ALUMNI ASSOCIATION", "city": "WESTBURY", "state": "NY", "zip": "11590-1115", "ntee": "B82", "ruling": "200608", "deductibility": "1", "assets": 47397, "income": 86685, "revenue": 86685}], "INCL": [{"ein": "432057878", "name": "GILGAL DIVINE REIEF CENTER INCL", "city": "SYOSSET", "state": "NY", "zip": "11791-6922", "ntee": "Q33", "ruling": "200503", "deductibility": "1", "assets": 6650, "income": 1800, "revenue": 1800}], "BURGIE": [{"ein": "452917564", "name": "WILBERT E BURGIE CADET CORPS", "city": "BRONX", "state": "NY", "zip": "10467-0328", "ntee": "O50", "ruling": "201308", "deductibility": "1", "assets": 0, "income": 0, "revenue": 0}], "RRENJET": [{"ein": "453978077", "name": "RRENJET SHQIPTARE ALBANIAN ROOTS INC", "city": "STATEN ISLAND", "state": "NY", "zip": "10306-4658", "ntee": "A23", "ruling": "201311", "deductibility": "1", "assets": 37296, "income": 73131, "revenue": 73131}], "HOLDS": [{"ein": "454891265", "name": "LOVE HOLDS LIFE INC", "city": "WHITE PLAINS", "state": "NY", "zip": "10604-2911", "ntee": "O12", "ruling": "201209", "deductibility": "1", "assets": 61471, "income": 158476, "revenue": 158476}], "LEPAGE": [{"ein": "455578275", "name": "ALBERT LEPAGE FOUNDATION INC", "city": "GARDEN CITY", "state": "NY", "zip": "11530-1650", "ntee": "T22", "ruling": "201401", "deductibility": "1", "assets": 381710, "income": 2667365, "revenue": 0}], "BROOKLYNONE": [{"ein": "460692076", "name": "BROOKLYNONE PRODUCTIONS INC", "city": "BROOKLYN", "state": "NY", "zip": "11228-2711", "ntee": "A60", "ruling": "201311", "deductibility": "1", "assets": 0, "income": 0, "revenue": 0}], "CHAMBERMUSICNY": [{"ein": "460839880", "name": "CHAMBERMUSICNY INC", "city": "NEW YORK", "state": "NY", "zip": "10023-0013", "ntee": "A68", "ruling": "201302", "deductibility": "1", "assets": 57, "income": 30000, "revenue": 30000}], "GRADUATION": [{"ein": "461041391", "name": "NEWFIELD PROJECT GRADUATION", "city": "NEWFIELD", "state": "NY", "zip": "14867-9336", "ntee": "B12", "ruling": "202311", "deductibility": "1", "assets": 0, "income": 0, "revenue": 0}, {"ein": "873586861", "name": "MINISINK PROJECT GRADUATION INCORPORATED", "city": "SLATE HILL", "state": "NY", "zip": "10973-0092", "ntee": "B80", "ruling": "202202", "deductibility": "1", "assets": 5324, "income": 30843, "revenue": 0}], "KALOS": [{"ein": "461066844", "name": "KALOS HEALTH INC", "city": "LOCKPORT", "state": "NY", "zip": "14094-1231", "ntee": "E21", "ruling": "201408", "deductibility": "1", "assets": 18924847, "income": 29901857, "revenue": 29901857}], "STACKPOLE": [{"ein": "461078738", "name": "FDNY CAPTAIN TIMOTHY STACKPOLE MEMORIAL FOUNDATION INC", "city": "BELLE HARBOR", "state": "NY", "zip": "11694-1628", "ntee": "S12", "ruling": "202302", "deductibility": "1", "assets": 0, "income": 0, "revenue": 0}], "LUVO": [{"ein": "462393364", "name": "LUVO NATION INC", "city": "WEBSTER", "state": "NY", "zip": "14580-7048", "ntee": "O50", "ruling": "201401", "deductibility": "1", "assets": 0, "income": 0, "revenue": 0}], "LAVREICHIM": [{"ein": "463384436", "name": "YESHIVA LAVREICHIM METZUYANIM INC", "city": "BROOKLYN", "state": "NY", "zip": "11204-1425", "ntee": "X30", "ruling": "201408", "deductibility": "1", "assets": 46097, "income": 371727, "revenue": 371727}], "RITTENBERG": [{"ein": "472317556", "name": "RITTENBERG FAMILY FOUNDATION", "city": "WHITE PLAINS", "state": "NY", "zip": "10601-2310", "ntee": "", "ruling": "201502", "deductibility": "1", "assets": 354799, "income": 68334, "revenue": 0}], "DEEN": [{"ein": "475352180", "name": "AD DEEN INC", "city": "WOODSIDE", "state": "NY", "zip": "11377-2439", "ntee": "P99", "ruling": "202212", "deductibility": "1", "assets": 31877, "income": 249002, "revenue": 249002}], "COPRORATION": [{"ein": "475516069", "name": "SAMARITAN-EXTERIOR HOUSING DEVELOPMENT FUND COPRORATION", "city": "BRIARWOOD", "state": "NY", "zip": "11435-2665", "ntee": "L40", "ruling": "201604", "deductibility": "2", "assets": 0, "income": 0, "revenue": 0}], "CATOLICO": [{"ein": "475605184", "name": "MOVIMIENTO MATRIMONIAL CATOLICO INC", "city": "BRONX", "state": "NY", "zip": "10451-3413", "ntee": "X20", "ruling": "201709", "deductibility": "1", "assets": 75999, "income": 122148, "revenue": 122148}, {"ein": "811037953", "name": "MOVIMIENTO FAMILIAR CRISTIANO CATOLICO USA", "city": "MALVERNE", "state": "NY", "zip": "11565-1025", "ntee": "P80", "ruling": "201702", "deductibility": "1", "assets": 0, "income": 0, "revenue": 0}, {"ein": "811038078", "name": "MOVIMIENTO FAMILIAR CRISTIANO CATOLICO USA", "city": "COPIAGUE", "state": "NY", "zip": "11726-1918", "ntee": "P80", "ruling": "201702", "deductibility": "1", "assets": 0, "income": 0, "revenue": 0}, {"ein": "811038110", "name": "MOVIMIENTO FAMILIAR CRISTIANO CATOLICO USA", "city": "EAST HAMPTON", "state": "NY", "zip": "11937-2240", "ntee": "P80", "ruling": "201702", "deductibility": "1", "assets": 0, "income": 0, "revenue": 0}, {"ein": "851404914", "name": "MOVIMIENTO FAMILIAR CRISTIANO CATOLICO USA", "city": "COPAKE", "state": "NY", "zip": "12516-1212", "ntee": "", "ruling": "201702", "deductibility": "1", "assets": 0, "income": 0, "revenue": 0}], "MAYBAUM": [{"ein": "510243952", "name": "MAYBAUM BROTHERS MEMORIAL FUND", "city": "NEW YORK", "state": "NY", "zip": "10055-0002", "ntee": "T22Z", "ruling": "197701", "deductibility": "1", "assets": 883418, "income": 199646, "revenue": 0}], "REGULATORS": [{"ein": "521663276", "name": "THE INTERNATIONAL ASSOCIATION OF TRANSPORTATION REGULATORS INC", "city": "NEW YORK", "state": "NY", "zip": "10023-1494", "ntee": "", "ruling": "199005", "deductibility": "2", "assets": 28688, "income": 257118, "revenue": 257118}], "DOMENICO": [{"ein": "522277543", "name": "DOMENICO PAULON FOUNDATION", "city": "BRONX", "state": "NY", "zip": "10471-1898", "ntee": "T22", "ruling": "200101", "deductibility": "1", "assets": 1169567, "income": 56304, "revenue": 0}], "ANTILLES": [{"ein": "550857719", "name": "MESSENGERS OF LIGHT IN THE ANTILLES INC", "city": "BRONX", "state": "NY", "zip": "10452-2301", "ntee": "X21", "ruling": "200410", "deductibility": "1", "assets": 0, "income": 0, "revenue": 0}], "RECCHI": [{"ein": "562281114", "name": "RECCHI FAMILY FOUNDATION INC", "city": "NEW YORK", "state": "NY", "zip": "10016-6302", "ntee": "T22", "ruling": "200301", "deductibility": "1", "assets": 80681, "income": 15621, "revenue": 0}], "EDITORS": [{"ein": "630861233", "name": "APSE ASSOCIATED PRESS SPORTS EDITORS", "city": "HUNTINGTON", "state": "NY", "zip": "11743-3237", "ntee": "", "ruling": "199010", "deductibility": "2", "assets": 51170, "income": 96412, "revenue": 96412}, {"ein": "842695271", "name": "AMERICAN SOCIETY OF MAGAZINE EDITORS", "city": "NEW YORK", "state": "NY", "zip": "10163-0112", "ntee": "S41", "ruling": "202005", "deductibility": "2", "assets": 577145, "income": 869297, "revenue": 869297}, {"ein": "844680334", "name": "ALLIANCE OF DOCUMENTARY EDITORS", "city": "NEW YORK CITY", "state": "NY", "zip": "10010-6622", "ntee": "S41", "ruling": "202208", "deductibility": "2", "assets": 15729, "income": 10616, "revenue": 10616}], "NINTZEL": [{"ein": "753177112", "name": "THE KEITH RYAN NINTZEL SCHOLARSHIP FOUNDATION INC", "city": "SAYVILLE", "state": "NY", "zip": "11782-2112", "ntee": "B82", "ruling": "200701", "deductibility": "1", "assets": 0, "income": 0, "revenue": 0}], "NECTARIOS": [{"ein": "800315098", "name": "ST NECTARIOS GREEK ORTHODOX CHURCH INC", "city": "BROOKLYN", "state": "NY", "zip": "11220-5301", "ntee": "X21", "ruling": "200902", "deductibility": "1", "assets": 0, "income": 0, "revenue": 0}], "KHM": [{"ein": "800510218", "name": "INTERNATIONAL FRIENDS OF KHM", "city": "NEW YORK", "state": "NY", "zip": "10128-1758", "ntee": "Q21", "ruling": "201006", "deductibility": "1", "assets": 278702, "income": 441982, "revenue": 441982}], "LIGHTFIELD": [{"ein": "811566611", "name": "LIGHTFIELD VISUALS INC", "city": "BROOKLYN", "state": "NY", "zip": "11225-3432", "ntee": "A40", "ruling": "201603", "deductibility": "1", "assets": 0, "income": 0, "revenue": 0}], "AVANSE": [{"ein": "811641830", "name": "AVANSE AYITI INC", "city": "BROOKLYN", "state": "NY", "zip": "11203-5735", "ntee": "Q32", "ruling": "202505", "deductibility": "1", "assets": 0, "income": 0, "revenue": 0}], "PENIMI": [{"ein": "811789981", "name": "PENIMI INC", "city": "BROOKLYN", "state": "NY", "zip": "11219-4505", "ntee": "B60", "ruling": "201606", "deductibility": "1", "assets": 632063, "income": 1695198, "revenue": 1695198}], "CRIOLLO": [{"ein": "814198118", "name": "EL RINCON CRIOLLO CENTRO CULTURAL INC", "city": "BRONX", "state": "NY", "zip": "10451-0000", "ntee": "A20", "ruling": "201809", "deductibility": "1", "assets": 0, "income": 0, "revenue": 0}], "CALVARO": [{"ein": "820599344", "name": "2ND IGLESIA BAUTISTA MONTE CALVARO", "city": "NANUET", "state": "NY", "zip": "10954-5234", "ntee": "X20", "ruling": "201710", "deductibility": "1", "assets": 0, "income": 0, "revenue": 0}], "CLARAS": [{"ein": "820976101", "name": "CLARAS CLOSET REFUGEE SERVICES INC", "city": "BUFFALO", "state": "NY", "zip": "14214-1742", "ntee": "P84", "ruling": "201706", "deductibility": "1", "assets": 0, "income": 0, "revenue": 0}], "CEYAT": [{"ein": "821225781", "name": "CEYAT FOUNDATION INC", "city": "SCHENECTADY", "state": "NY", "zip": "12303-3402", "ntee": "P60", "ruling": "201704", "deductibility": "1", "assets": 0, "income": 0, "revenue": 0}], "BACHMAN": [{"ein": "822678784", "name": "ALAN H BACHMAN AND JUDY L BACHMAN FOUNDATION", "city": "DOBBS FERRY", "state": "NY", "zip": "10522-3416", "ntee": "T20", "ruling": "201804", "deductibility": "1", "assets": 12421591, "income": 4337720, "revenue": 0}], "RUNWAY": [{"ein": "823101920", "name": "RUNWAY HEROES INC", "city": "NEW YORK", "state": "NY", "zip": "10019-8234", "ntee": "H12", "ruling": "201711", "deductibility": "1", "assets": 36716, "income": 1, "revenue": 0}, {"ein": "843402297", "name": "RUNWAY FOR A CAUSE OF THE SOUTHERN TIER", "city": "ELMIRA", "state": "NY", "zip": "14905-1906", "ntee": "A12", "ruling": "202505", "deductibility": "1", "assets": 0, "income": 0, "revenue": 0}, {"ein": "853008511", "name": "PUPS RUNWAY INC", "city": "BRONX", "state": "NY", "zip": "10467-8517", "ntee": "D99", "ruling": "202011", "deductibility": "1", "assets": 0, "income": 0, "revenue": 0}], "MAXIMOS": [{"ein": "825083846", "name": "SOCIETY OF SAINT MAXIMOS THE CONFESSOR INC", "city": "SAINT JAMES", "state": "NY", "zip": "11780-1920", "ntee": "Q33", "ruling": "202002", "deductibility": "1", "assets": 0, "income": 0, "revenue": 0}], "KALATY": [{"ein": "825240524", "name": "BNEI BINYAMIN & RIVKA KALATY CHARITABLE FOUNDATION INC", "city": "HICKSVILLE", "state": "NY", "zip": "11801-3640", "ntee": "T22", "ruling": "202001", "deductibility": "1", "assets": 3401, "income": 261000, "revenue": 0}], "PNIE": [{"ein": "830625950", "name": "CONG PNIE MOISHE INC", "city": "MONROE", "state": "NY", "zip": "10950-6191", "ntee": "X30", "ruling": "201903", "deductibility": "1", "assets": 0, "income": 0, "revenue": 0}], "VECSI": [{"ein": "830694125", "name": "MICHAEL J VECSI MEMORIAL FOUNDATION INC", "city": "STATEN ISLAND", "state": "NY", "zip": "10314-4604", "ntee": "B12", "ruling": "201806", "deductibility": "1", "assets": 95411, "income": 31732, "revenue": 22397}], "AFROFUTURIST": [{"ein": "832685928", "name": "INSTITUTE OF AFROFUTURIST ECOLOGY", "city": "HILLSDALE", "state": "NY", "zip": "12529-6210", "ntee": "R20", "ruling": "201902", "deductibility": "1", "assets": 841291, "income": 152500, "revenue": 152500}], "JOOMLA": [{"ein": "833277226", "name": "JOOMLA FOUNDATION INC", "city": "NEW YORK", "state": "NY", "zip": "10163-4668", "ntee": "B99", "ruling": "202109", "deductibility": "1", "assets": 0, "income": 0, "revenue": 0}], "LOYALTY": [{"ein": "833648826", "name": "THE LOYALTY FOUNDATION", "city": "NEW YORK", "state": "NY", "zip": "10019-1707", "ntee": "T23", "ruling": "201906", "deductibility": "1", "assets": 8483, "income": 99750, "revenue": 0}], "WARFARE": [{"ein": "834281524", "name": "AMERICAN CHRISTIAN SPIRITUAL WARFARE MINISTRIES", "city": "NIAGARA FALLS", "state": "NY", "zip": "14303-1306", "ntee": "X20", "ruling": "202108", "deductibility": "1", "assets": 19065, "income": 34213, "revenue": 34213}], "MAMI": [{"ein": "841868004", "name": "MAMI CHELO FOUNDATION INC", "city": "NEW YORK", "state": "NY", "zip": "10018-1228", "ntee": "P02", "ruling": "202405", "deductibility": "1", "assets": 134, "income": 69307, "revenue": 69307}], "TREATING": [{"ein": "842126324", "name": "VETS TREATING VETS INC", "city": "NEW ROCHELLE", "state": "NY", "zip": "10801-7710", "ntee": "W30", "ruling": "201907", "deductibility": "1", "assets": 0, "income": 0, "revenue": 0}], "UTICAWON": [{"ein": "842322218", "name": "UTICAWON TENNIS INC", "city": "COOPERSTOWN", "state": "NY", "zip": "13326-0523", "ntee": "N66", "ruling": "201911", "deductibility": "1", "assets": 70792, "income": 149910, "revenue": 149910}], "HAGARS": [{"ein": "842500456", "name": "HAGARS FOUNDATION FOR SINGLE MOTHERS INC", "city": "SCARSDALE", "state": "NY", "zip": "10583-7915", "ntee": "P20", "ruling": "202002", "deductibility": "1", "assets": 2138, "income": 0, "revenue": 0}], "ATONGI": [{"ein": "851540520", "name": "ATONGI FAMILY & FRIENDS BASIC NEEDS FOUNDATION INC", "city": "BROOKLYN", "state": "NY", "zip": "11208-3282", "ntee": "P20", "ruling": "202008", "deductibility": "1", "assets": 0, "income": 0, "revenue": 0}], "PROTESTRA": [{"ein": "851772369", "name": "PROTESTRA", "city": "NEW YORK", "state": "NY", "zip": "10025-6231", "ntee": "A68", "ruling": "202104", "deductibility": "1", "assets": 39109, "income": 59959, "revenue": 0}], "EMPATHETIC": [{"ein": "853987247", "name": "REAL EMPATHETIC WELLNESS INC", "city": "ROSEDALE", "state": "NY", "zip": "11422-1315", "ntee": "F99", "ruling": "202103", "deductibility": "1", "assets": 0, "income": 0, "revenue": 0}], "ROMANDI": [{"ein": "854036263", "name": "ROMANDI FOUNDATION INC", "city": "LONG ISLAND CITY", "state": "NY", "zip": "11101-3768", "ntee": "A20", "ruling": "202109", "deductibility": "1", "assets": 0, "income": 0, "revenue": 0}], "57TH": [{"ein": "856485049", "name": "1056 57TH FOUNDATION", "city": "BROOKLYN", "state": "NY", "zip": "11219-5167", "ntee": "", "ruling": "202102", "deductibility": "1", "assets": 81947, "income": 59400, "revenue": 0}, {"ein": "990855213", "name": "WEST 57TH ST NEIGHBORHOOD ASSOCIATION", "city": "NEW YORK CITY", "state": "NY", "zip": "10019-1701", "ntee": "M60", "ruling": "202404", "deductibility": "1", "assets": 0, "income": 0, "revenue": 0}], "MIZRAHI": [{"ein": "861569480", "name": "SAMI SEPHARDIC AMERICAN MIZRAHI INITIATIVE INC", "city": "HURLEYVILLE", "state": "NY", "zip": "12747-5721", "ntee": "B99", "ruling": "202104", "deductibility": "1", "assets": 0, "income": 0, "revenue": 0}], "IMAGINATIVE": [{"ein": "862753520", "name": "PASSIONATE IMAGINATIVE LEADERS OF TOMORROW INC", "city": "NEW YORK", "state": "NY", "zip": "10023-3434", "ntee": "O50", "ruling": "202106", "deductibility": "1", "assets": 0, "income": 0, "revenue": 0}], "AGAPELOVEGO": [{"ein": "863231591", "name": "AGAPELOVEGO CORP", "city": "GREAT NECK", "state": "NY", "zip": "11021-2510", "ntee": "B20", "ruling": "202208", "deductibility": "1", "assets": 0, "income": 0, "revenue": 0}], "MAFIA": [{"ein": "863570320", "name": "BROWN GIRLS DOC MAFIA", "city": "BRONX", "state": "NY", "zip": "10451-2755", "ntee": "A30", "ruling": "202204", "deductibility": "1", "assets": 625203, "income": 222011, "revenue": 222011}, {"ein": "934263255", "name": "CAT MAFIA RESCUE INC", "city": "LAKE RONKONKOMA", "state": "NY", "zip": "11779-0000", "ntee": "D99", "ruling": "202311", "deductibility": "1", "assets": 0, "income": 0, "revenue": 0}], "BRANDLE": [{"ein": "870736701", "name": "CINDY BRANDLE DANCE COMPANY", "city": "NEW YORK", "state": "NY", "zip": "10280-1505", "ntee": "A62", "ruling": "200505", "deductibility": "1", "assets": 0, "income": 0, "revenue": 0}], "MODARTS": [{"ein": "872210130", "name": "MODARTS DANCE COLLECTIVE INC", "city": "NEW YORK", "state": "NY", "zip": "10027-4345", "ntee": "A20", "ruling": "202112", "deductibility": "1", "assets": 179739, "income": 153373, "revenue": 153373}], "ISAACOFF": [{"ein": "872933863", "name": "BET ISAACOFF FUND", "city": "LIBERTY", "state": "NY", "zip": "12754-2124", "ntee": "X30", "ruling": "202112", "deductibility": "1", "assets": 0, "income": 0, "revenue": 0}], "KILMER": [{"ein": "872978795", "name": "FRIENDS OF KILMER MANSION", "city": "BINGHAMTON", "state": "NY", "zip": "13905-4611", "ntee": "A20", "ruling": "202201", "deductibility": "1", "assets": 45915, "income": 108531, "revenue": 108531}], "AVIGAILS": [{"ein": "873908380", "name": "AVIGAILS KITCHEN", "city": "LONG BEACH", "state": "NY", "zip": "11561-3406", "ntee": "K40", "ruling": "202406", "deductibility": "1", "assets": 0, "income": 0, "revenue": 0}], "PASSPORTROTARYFOUNDATIONINC": [{"ein": "880900103", "name": "PASSPORTROTARYFOUNDATIONINC", "city": "HOLBROOK", "state": "NY", "zip": "11741-0604", "ntee": "S80", "ruling": "202203", "deductibility": "1", "assets": 0, "income": 0, "revenue": 0}], "MOSHCHENI": [{"ein": "884109399", "name": "MOSHCHENI SKVER INC", "city": "SPRING VALLEY", "state": "NY", "zip": "10977-2059", "ntee": "P20", "ruling": "202211", "deductibility": "1", "assets": 94258, "income": 384350, "revenue": 384350}], "WORKSMART": [{"ein": "884178632", "name": "B-SMART TO WORKSMART INC", "city": "BROOKLYN", "state": "NY", "zip": "11216-2201", "ntee": "B90", "ruling": "202211", "deductibility": "1", "assets": 0, "income": 0, "revenue": 0}], "SWITCH": [{"ein": "921990831", "name": "SWITCH 2025 CORPORATION", "city": "SKANEATELES", "state": "NY", "zip": "13152-9688", "ntee": "B99", "ruling": "202305", "deductibility": "1", "assets": 0, "income": 0, "revenue": 0}], "OTRO": [{"ein": "922227916", "name": "MANANA OTRO DIA LTD", "city": "NEW YORK", "state": "NY", "zip": "10023-4435", "ntee": "P20", "ruling": "202312", "deductibility": "1", "assets": 0, "income": 0, "revenue": 0}], "VAYIZRA": [{"ein": "922366666", "name": "CONGREGATION VAYIZRA YITZCHOK", "city": "BROOKLYN", "state": "NY", "zip": "11211-7151", "ntee": "X30", "ruling": "202312", "deductibility": "1", "assets": 0, "income": 0, "revenue": 0}], "MELWORD": [{"ein": "922843192", "name": "MELWORD ELIZABETH WATSON MEMORIAL FOUNDATION INC", "city": "REGO PARK", "state": "NY", "zip": "11374-0473", "ntee": "A23", "ruling": "202406", "deductibility": "1", "assets": 0, "income": 0, "revenue": 0}], "M3": [{"ein": "931441081", "name": "M3 MUSICIANS INC", "city": "NEW YORK", "state": "NY", "zip": "10027-7728", "ntee": "B01", "ruling": "202309", "deductibility": "1", "assets": 272973, "income": 193752, "revenue": 193752}], "SHARE25": [{"ein": "931541790", "name": "SHARE25 INC", "city": "BROOKLYN", "state": "NY", "zip": "11224-4123", "ntee": "S30", "ruling": "202309", "deductibility": "1", "assets": 0, "income": 0, "revenue": 0}], "LUNGTOK": [{"ein": "931875417", "name": "GADEN SHARTSE LUNGTOK CHOKYI KYETSAL INC", "city": "ELMHURST", "state": "NY", "zip": "11373-3424", "ntee": "X50", "ruling": "202307", "deductibility": "1", "assets": 0, "income": 0, "revenue": 0}], "ETESS": [{"ein": "932109346", "name": "SUSAN ETESS AND HOWARD ZIMMERMAN FAMILY FOUNDATION", "city": "NEW YORK", "state": "NY", "zip": "10022-4728", "ntee": "P99", "ruling": "202308", "deductibility": "1", "assets": 0, "income": 0, "revenue": 0}], "LIBERATE": [{"ein": "933686562", "name": "NATIONAL COALITION TO LIBERATE METHADONE", "city": "LONG IS CITY", "state": "NY", "zip": "11102-2469", "ntee": "R20", "ruling": "202404", "deductibility": "2", "assets": 1, "income": 0, "revenue": 0}], "SISTASBACKINSISTAS": [{"ein": "934121986", "name": "SISTASBACKINSISTAS", "city": "BROOKLYN", "state": "NY", "zip": "11210-2915", "ntee": "P43", "ruling": "202312", "deductibility": "1", "assets": 0, "income": 0, "revenue": 0}], "PALY": [{"ein": "934398683", "name": "PROVIDING AID AND LEADERSHIP FOR YOUTH PALY INC", "city": "SHRUB OAK", "state": "NY", "zip": "10588-0484", "ntee": "O50", "ruling": "202312", "deductibility": "1", "assets": 0, "income": 0, "revenue": 0}], "EQUI": [{"ein": "990549582", "name": "SIT AT THE EQUI-TABLE INC", "city": "PRT WASHINGTN", "state": "NY", "zip": "11050-1706", "ntee": "E70", "ruling": "202401", "deductibility": "1", "assets": 0, "income": 0, "revenue": 0}], "RUNKLES": [{"ein": "993254812", "name": "JUSTIN RUNKLES MEMORIAL FUND", "city": "ADAMS", "state": "NY", "zip": "13605-3230", "ntee": "B82", "ruling": "202503", "deductibility": "1", "assets": 0, "income": 0, "revenue": 0}], "MESORAHS": [{"ein": "993580488", "name": "MESORAHS MIRIAM INC", "city": "NEW CITY", "state": "NY", "zip": "10956-1134", "ntee": "X30", "ruling": "202407", "deductibility": "1", "assets": 0, "income": 0, "revenue": 0}], "FRUITION": [{"ein": "994628893", "name": "FRUITION COMMUNITY SEED FARM", "city": "NAPLES", "state": "NY", "zip": "14512-9234", "ntee": "C40", "ruling": "202411", "deductibility": "1", "assets": 0, "income": 0, "revenue": 0}]}