{"MAINE": [{"ein": "010391592", "name": "MAINE JAZZ CAMP", "city": "BROOKLYN", "state": "NY", "zip": "11215-0000", "ntee": "B99Z", "ruling": "198809", "deductibility": "1", "assets": 18014, "income": 33133, "revenue": 33133}, {"ein": "010521096", "name": "SEA STROKES OF MAINE DECORATIVE PNT", "city": "ALTAMONT", "state": "NY", "zip": "12009-4309", "ntee": "", "ruling": "201501", "deductibility": "0", "assets": 0, "income": 0, "revenue": 0}, {"ein": "136192467", "name": "ADELAIDE C BIRD ESTATE-UNIVERSITY OF MAINE ET AL TRUST", "city": "NEW YORK", "state": "NY", "zip": "10008-1297", "ntee": "", "ruling": "197107", "deductibility": "1", "assets": 1572403, "income": 599566, "revenue": 0}, {"ein": "136579662", "name": "ADELAIDE C BIRD UNIVERSITY OF MAINE ET AL TRUST", "city": "NEW YORK", "state": "NY", "zip": "10008-1297", "ntee": "", "ruling": "197302", "deductibility": "1", "assets": 3699224, "income": 1473197, "revenue": 0}, {"ein": "150374451", "name": "MAINE CEMETERY CORPORATION", "city": "MAINE", "state": "NY", "zip": "13802-0321", "ntee": "Y50", "ruling": "201112", "deductibility": "1", "assets": 0, "income": 0, "revenue": 0}, {"ein": "161161489", "name": "EAST MAINE FIRE COMPANY INC", "city": "JOHNSON CITY", "state": "NY", "zip": "13790-4626", "ntee": "M24", "ruling": "201302", "deductibility": "1", "assets": 1197530, "income": 229247, "revenue": 229247}, {"ein": "200669459", "name": "RETAIL LUMBER DEALERS ASSOCIATION OF MAINE", "city": "RENSSELAER", "state": "NY", "zip": "12144-8419", "ntee": "", "ruling": "193601", "deductibility": "2", "assets": 87606, "income": 113619, "revenue": 104719}, {"ein": "222175329", "name": "MAINE ENDWELL BOOSTER CLUB INC", "city": "ENDWELL", "state": "NY", "zip": "13760-1128", "ntee": "", "ruling": "197711", "deductibility": "1", "assets": 0, "income": 0, "revenue": 0}, {"ein": "320042154", "name": "MAINE EMERGENCY SQUAD INC", "city": "MAINE", "state": "NY", "zip": "13802-0194", "ntee": "M41", "ruling": "200302", "deductibility": "1", "assets": 3915613, "income": 3338283, "revenue": 3338283}, {"ein": "812448683", "name": "MAINE FIRE COMPANY", "city": "MAINE", "state": "NY", "zip": "13802-0357", "ntee": "M24", "ruling": "202004", "deductibility": "1", "assets": 0, "income": 0, "revenue": 0}, {"ein": "921601901", "name": "EASTER SEALS MAINE INC", "city": "NEW YORK", "state": "NY", "zip": "10017-6706", "ntee": "P20", "ruling": "202301", "deductibility": "1", "assets": 0, "income": 0, "revenue": 0}, {"ein": "991430556", "name": "MAINE ENDWELL ALUMNI SCHOLARSHIP PROGRAM INC", "city": "ENDWELL", "state": "NY", "zip": "13760-3150", "ntee": "B84", "ruling": "202408", "deductibility": "1", "assets": 0, "income": 0, "revenue": 0}], "MIN": [{"ein": "010638816", "name": "VOICE OF ENDTIME DELIVERANCE MIN", "city": "PEEKSKILL", "state": "NY", "zip": "10566-0102", "ntee": "", "ruling": "199112", "deductibility": "1", "assets": 0, "income": 0, "revenue": 0}, {"ein": "061623741", "name": "GODS DELIVERENCE FOR PURPOSE MIN", "city": "JAMAICA", "state": "NY", "zip": "11434-5929", "ntee": "X21", "ruling": "200402", "deductibility": "1", "assets": 0, "income": 0, "revenue": 0}, {"ein": "112750472", "name": "KOREAN MOK-MIN PRESBYTERIAN CHURCH IN GREATER NEW YORK", "city": "NEW YORK", "state": "NY", "zip": "10025-0017", "ntee": "X21", "ruling": "199902", "deductibility": "1", "assets": 0, "income": 0, "revenue": 0}, {"ein": "112865551", "name": "MAN MIN PRESBYTERIAN CHURCH OF NEW YORK", "city": "FLUSHING", "state": "NY", "zip": "11358-3244", "ntee": "", "ruling": "198712", "deductibility": "1", "assets": 0, "income": 0, "revenue": 0}, {"ein": "113503631", "name": "NEW YORK SUN MIN PRESBYTERIAN CHURCH INC", "city": "FLUSHING", "state": "NY", "zip": "11357-2533", "ntee": "X21", "ruling": "200012", "deductibility": "1", "assets": 0, "income": 0, "revenue": 0}, {"ein": "133366820", "name": "ROBERT J MIN MD", "city": "NEW YORK", "state": "NY", "zip": "10022-6145", "ntee": "S80", "ruling": "202008", "deductibility": "1", "assets": 2723715, "income": 85688, "revenue": 85688}, {"ein": "412183533", "name": "JC EVAN WORD OF LIFE MIN", "city": "ROCHESTER", "state": "NY", "zip": "14609-0000", "ntee": "", "ruling": "199112", "deductibility": "1", "assets": 0, "income": 0, "revenue": 0}, {"ein": "465340434", "name": "IN THE MASTER S VINEYARD FAITH PROPHETIC DELIVERANCE TEACHING MIN", "city": "BROOKLYN", "state": "NY", "zip": "11225-5708", "ntee": "X21", "ruling": "201411", "deductibility": "1", "assets": 0, "income": 0, "revenue": 0}, {"ein": "800866369", "name": "MIN ENS CRISIANA IGLESIA CAMINO DE ESPERANZA", "city": "BROOKLYN", "state": "NY", "zip": "11237-5714", "ntee": "X20", "ruling": "201412", "deductibility": "1", "assets": 0, "income": 0, "revenue": 0}, {"ein": "833683041", "name": "RESURRECTION POWER & LIVING BREAD MIN INT NORTH BRONX NEW YORK INC", "city": "BRONX", "state": "NY", "zip": "10456-7202", "ntee": "X20", "ruling": "202103", "deductibility": "1", "assets": 0, "income": 0, "revenue": 0}], "CROSSFIRE": [{"ein": "010641844", "name": "CROSSFIRE STEEL ORCHESTRA INC", "city": "BROOKLYN", "state": "NY", "zip": "11207-0000", "ntee": "A69", "ruling": "201503", "deductibility": "1", "assets": 0, "income": 0, "revenue": 0}, {"ein": "822443853", "name": "CAPITAL DISTRICT CROSSFIRE FASTPITCH SOFTBALL INC", "city": "SCHENECTADY", "state": "NY", "zip": "12309-1824", "ntee": "O50", "ruling": "202012", "deductibility": "1", "assets": 16001, "income": 122025, "revenue": 122025}], "ROC": [{"ein": "010939141", "name": "RESTAURANT OPPORTUNITIES CENTERS ROC UNITED INC", "city": "NEW YORK", "state": "NY", "zip": "10001-6708", "ntee": "R20", "ruling": "201004", "deductibility": "1", "assets": 7130563, "income": 4080141, "revenue": 4080141}, {"ein": "160872846", "name": "LUTHERAN INNER MISSION SOC OF ROC & VICINITY", "city": "ROCHESTER", "state": "NY", "zip": "14605-2913", "ntee": "", "ruling": "196308", "deductibility": "1", "assets": 0, "income": 0, "revenue": 0}, {"ein": "204564022", "name": "ROC E6", "city": "FAIRPORT", "state": "NY", "zip": "14450-2471", "ntee": "N99", "ruling": "202109", "deductibility": "1", "assets": 0, "income": 0, "revenue": 0}, {"ein": "264227141", "name": "ROC CITY ROLLER DERBY INC", "city": "ROCHESTER", "state": "NY", "zip": "14617-0125", "ntee": "N70", "ruling": "201007", "deductibility": "1", "assets": 26406, "income": 66565, "revenue": 52909}, {"ein": "272091735", "name": "ROC THE DOGS RESCUE INC", "city": "NORTH CHILI", "state": "NY", "zip": "14514-0148", "ntee": "D20", "ruling": "201103", "deductibility": "1", "assets": 0, "income": 0, "revenue": 0}, {"ein": "273516640", "name": "ARTS ROC INC", "city": "PITTSFORD", "state": "NY", "zip": "14534-1204", "ntee": "A20", "ruling": "201101", "deductibility": "1", "assets": 101766, "income": 135139, "revenue": 135139}, {"ein": "320364419", "name": "FATHERS HEART MINISTRY ROC INC", "city": "ROCHESTER", "state": "NY", "zip": "14613-2438", "ntee": "K35", "ruling": "201211", "deductibility": "1", "assets": 167043, "income": 195178, "revenue": 183773}, {"ein": "333541446", "name": "ROC ELITE SPORTS INC", "city": "ROCHESTER", "state": "NY", "zip": "14606-4630", "ntee": "N60", "ruling": "202504", "deductibility": "1", "assets": 0, "income": 0, "revenue": 0}, {"ein": "474401999", "name": "ROC THE POSSIBILITIES INC", "city": "ROCHESTER", "state": "NY", "zip": "14621-1107", "ntee": "O99", "ruling": "201510", "deductibility": "1", "assets": 0, "income": 0, "revenue": 0}, {"ein": "821584054", "name": "FRIENDS OF THE ROC CITY SKATEPARK INC", "city": "ROCHESTER", "state": "NY", "zip": "14610-0070", "ntee": "N01", "ruling": "201806", "deductibility": "1", "assets": 0, "income": 0, "revenue": 0}, {"ein": "822457887", "name": "ROC THE PEACE INC", "city": "ROCHESTER", "state": "NY", "zip": "14624-0084", "ntee": "I11", "ruling": "201710", "deductibility": "1", "assets": 42165, "income": 135241, "revenue": 0}, {"ein": "822676245", "name": "ROC CITY HOPE INC", "city": "ROCHESTER", "state": "NY", "zip": "14618-3521", "ntee": "X20", "ruling": "201811", "deductibility": "1", "assets": 0, "income": 0, "revenue": 0}, {"ein": "824021563", "name": "ROC ROYAL INC", "city": "ROCHESTER", "state": "NY", "zip": "14619-1004", "ntee": "P20", "ruling": "201806", "deductibility": "1", "assets": 35512, "income": 203532, "revenue": 203532}, {"ein": "831801091", "name": "ROC GAME DEV INC", "city": "ROCHESTER", "state": "NY", "zip": "14609-5733", "ntee": "A20", "ruling": "202401", "deductibility": "1", "assets": 0, "income": 0, "revenue": 0}, {"ein": "833788141", "name": "ROC CITY SAILING INC", "city": "ROCHESTER", "state": "NY", "zip": "14622-3217", "ntee": "N67", "ruling": "201904", "deductibility": "1", "assets": 0, "income": 0, "revenue": 0}, {"ein": "841922918", "name": "ROC WIT ME INCORPORATED", "city": "BROOKLYN", "state": "NY", "zip": "11213-1469", "ntee": "F30", "ruling": "201906", "deductibility": "1", "assets": 536, "income": 18411, "revenue": 0}, {"ein": "861277419", "name": "ROC THAT INC", "city": "ROCHESTER", "state": "NY", "zip": "14618-0762", "ntee": "A25", "ruling": "202105", "deductibility": "1", "assets": 0, "income": 0, "revenue": 0}, {"ein": "862420489", "name": "ROC THE MAD CATTER INC", "city": "WEBSTER", "state": "NY", "zip": "14580-9731", "ntee": "D20", "ruling": "202107", "deductibility": "1", "assets": 0, "income": 0, "revenue": 0}, {"ein": "872141549", "name": "RAINBOW SENIORS ROC INC", "city": "ROCHESTER", "state": "NY", "zip": "14609-0381", "ntee": "A01", "ruling": "202111", "deductibility": "1", "assets": 41090, "income": 82381, "revenue": 72673}, {"ein": "872328362", "name": "ROC LOVE INC", "city": "HAMLIN", "state": "NY", "zip": "14464-0319", "ntee": "R62", "ruling": "202311", "deductibility": "1", "assets": 0, "income": 0, "revenue": 0}, {"ein": "873371318", "name": "ROC CYSTIC FIBROSIS AWARENESS INC", "city": "RUSH", "state": "NY", "zip": "14543-9443", "ntee": "G12", "ruling": "202201", "deductibility": "1", "assets": 0, "income": 0, "revenue": 0}, {"ein": "874532646", "name": "ROC AGAINST ANTISEMITISM", "city": "ROCHESTER", "state": "NY", "zip": "14618-0606", "ntee": "", "ruling": "202203", "deductibility": "0", "assets": 0, "income": 0, "revenue": 0}, {"ein": "882320011", "name": "ROC-A-NATURAL CULTURAL FOUNDATION INC", "city": "STATEN ISLAND", "state": "NY", "zip": "10304-1837", "ntee": "A23", "ruling": "202301", "deductibility": "1", "assets": 1, "income": 32077, "revenue": 0}, {"ein": "883301913", "name": "RIGHT MEOW RESCUE ROC CORP", "city": "PENFIELD", "state": "NY", "zip": "14526-2816", "ntee": "D20", "ruling": "202207", "deductibility": "1", "assets": 0, "income": 0, "revenue": 0}, {"ein": "883558984", "name": "TEACHING ARTISTS ROC", "city": "ROCHESTER", "state": "NY", "zip": "14608-1658", "ntee": "A99", "ruling": "202308", "deductibility": "1", "assets": 12464, "income": 113535, "revenue": 113535}, {"ein": "883881616", "name": "ROC THE BLOCK INC", "city": "PITTSFORD", "state": "NY", "zip": "14534-3842", "ntee": "B80", "ruling": "202303", "deductibility": "1", "assets": 0, "income": 0, "revenue": 0}, {"ein": "921441621", "name": "ROC ARTS UNITED INC", "city": "ROCHESTER", "state": "NY", "zip": "14604-2572", "ntee": "A26", "ruling": "202306", "deductibility": "1", "assets": 0, "income": 0, "revenue": 0}, {"ein": "922891343", "name": "ROC THE PLATE", "city": "ROCHESTER", "state": "NY", "zip": "14610-3044", "ntee": "T12", "ruling": "202402", "deductibility": "1", "assets": 0, "income": 0, "revenue": 0}, {"ein": "923302355", "name": "ROC AFFORDABLE HOUSING CORP", "city": "EAST AURORA", "state": "NY", "zip": "14052-9781", "ntee": "L20", "ruling": "202311", "deductibility": "1", "assets": 0, "income": 0, "revenue": 0}, {"ein": "934146644", "name": "BLOOM ROC INC", "city": "ROCHESTER", "state": "NY", "zip": "14607-1684", "ntee": "S20", "ruling": "202410", "deductibility": "1", "assets": 2260, "income": 38078, "revenue": 18727}, {"ein": "991216735", "name": "GREEDY FOR DA ROC", "city": "BROOKLYN", "state": "NY", "zip": "11208-2232", "ntee": "N62", "ruling": "202412", "deductibility": "1", "assets": 0, "income": 0, "revenue": 0}], "PHOENICIA": [{"ein": "010969358", "name": "PHOENICIA FESTIVAL OF THE VOICE FOUNDATION", "city": "PHOENICIA", "state": "NY", "zip": "12464-0327", "ntee": "A68", "ruling": "201108", "deductibility": "1", "assets": 155900, "income": 384430, "revenue": 223391}, {"ein": "141664557", "name": "PHOENICIA WESLEYAN CHURCH", "city": "PHOENICIA", "state": "NY", "zip": "12464-0554", "ntee": "", "ruling": "197005", "deductibility": "1", "assets": 0, "income": 0, "revenue": 0}, {"ein": "141775245", "name": "PHOENICIA BUSINESS ASSOCIATION INC", "city": "PHOENICIA", "state": "NY", "zip": "12464-0391", "ntee": "S41", "ruling": "201712", "deductibility": "2", "assets": 0, "income": 0, "revenue": 0}, {"ein": "146013687", "name": "PHOENICIA LIBRARY", "city": "PHOENICIA", "state": "NY", "zip": "12464-0000", "ntee": "B71Z", "ruling": "199402", "deductibility": "1", "assets": 1048014, "income": 251549, "revenue": 251549}, {"ein": "510165607", "name": "PHOENICIA ART CENTER LTD", "city": "WILLOW", "state": "NY", "zip": "12495-5000", "ntee": "A20Z", "ruling": "199309", "deductibility": "1", "assets": 0, "income": 0, "revenue": 0}], "CUNNINGHAM": [{"ein": "016186903", "name": "MERCE CUNNINGHAM TRUST", "city": "NEW YORK", "state": "NY", "zip": "10019-3962", "ntee": "T23", "ruling": "200212", "deductibility": "1", "assets": 8781541, "income": 4047659, "revenue": 0}, {"ein": "112593223", "name": "WEST CUNNINGHAM PARK CIVIC ASSOCIATION INC", "city": "FRESH MEADOWS", "state": "NY", "zip": "11366-1810", "ntee": "", "ruling": "198707", "deductibility": "2", "assets": 0, "income": 0, "revenue": 0}, {"ein": "137152819", "name": "CUNNINGHAM-GARDINER FOUNDATION", "city": "SCARBOROUGH", "state": "NY", "zip": "10510-2560", "ntee": "T30Z", "ruling": "199811", "deductibility": "1", "assets": 367690, "income": 71495, "revenue": 0}, {"ein": "274654091", "name": "EMMA L CUNNINGHAM MEMORIAL SCHOLARSHIP FUND", "city": "BROOKLYN", "state": "NY", "zip": "11203-5514", "ntee": "B82", "ruling": "201210", "deductibility": "1", "assets": 20862, "income": 8239, "revenue": 8239}], "PHILIPPINE": [{"ein": "020574478", "name": "PHILIPPINE INDEPENDENCE DAY COUNCIL INC", "city": "NEW YORK", "state": "NY", "zip": "10007-0000", "ntee": "P84", "ruling": "201908", "deductibility": "1", "assets": 69314, "income": 409636, "revenue": 247626}, {"ein": "112678787", "name": "ASSOCIATION OF PHILIPPINE PHYSICIANS OF NY", "city": "MELVILLE", "state": "NY", "zip": "11747-0000", "ntee": "", "ruling": "196101", "deductibility": "0", "assets": 0, "income": 0, "revenue": 0}, {"ein": "113190955", "name": "PHILIPPINE CHINESE AMERICAN MEDICAL ASSOCIATION INC", "city": "NEW YORK", "state": "NY", "zip": "10013-4617", "ntee": "E99Z", "ruling": "199512", "deductibility": "1", "assets": 223276, "income": 46844, "revenue": 39700}, {"ein": "113464096", "name": "PHILIPPINE ASSOCIATION OF MEDICAL TECHNOLOGISTS-NY INC", "city": "EAST MEADOW", "state": "NY", "zip": "11554-2825", "ntee": "P20", "ruling": "201809", "deductibility": "1", "assets": 0, "income": 0, "revenue": 0}, {"ein": "133255394", "name": "PHILIPPINE AMERICAN SENIOR CITIZENS OF ROCKLAND COUNTY", "city": "WESLEY HILLS", "state": "NY", "zip": "10952-0000", "ntee": "W99", "ruling": "201406", "deductibility": "1", "assets": 0, "income": 0, "revenue": 0}, {"ein": "133819482", "name": "PHILIPPINE NURSES ASSOCIATION INC", "city": "NEW YORK", "state": "NY", "zip": "10159-0727", "ntee": "B50", "ruling": "199705", "deductibility": "1", "assets": 194691, "income": 85283, "revenue": 85283}, {"ein": "135509550", "name": "PHILIPPINE AMERICAN CHAMBER OF COMMERCE INC", "city": "NEW YORK", "state": "NY", "zip": "10069-1007", "ntee": "", "ruling": "194412", "deductibility": "2", "assets": 0, "income": 0, "revenue": 0}, {"ein": "263664925", "name": "PHILIPPINE BASKETBALL MINISTRY NY", "city": "CORAM", "state": "NY", "zip": "11727-1924", "ntee": "N62", "ruling": "201008", "deductibility": "1", "assets": 0, "income": 0, "revenue": 0}, {"ein": "271650647", "name": "PHILIPPINE AMERICAN OUTREACH PROGRAM INC", "city": "STATEN ISLAND", "state": "NY", "zip": "10302-1463", "ntee": "Q33", "ruling": "201107", "deductibility": "1", "assets": 80694, "income": 161325, "revenue": 161325}, {"ein": "300114970", "name": "PHILIPPINE FIESTA USA INC", "city": "NEW YORK", "state": "NY", "zip": "10016-1766", "ntee": "A20", "ruling": "200304", "deductibility": "1", "assets": 717, "income": 130708, "revenue": 0}, {"ein": "421588688", "name": "PHILIPPINE JESUIT FOUNDATION", "city": "NEW YORK", "state": "NY", "zip": "10028-0810", "ntee": "Q123", "ruling": "200308", "deductibility": "1", "assets": 970153, "income": 576771, "revenue": 539458}, {"ein": "463573546", "name": "PHILIPPINE HERITAGE CENTER", "city": "FRESH MEADOWS", "state": "NY", "zip": "11365-0134", "ntee": "A23", "ruling": "201408", "deductibility": "1", "assets": 0, "income": 0, "revenue": 0}, {"ein": "464240673", "name": "PHILIPPINE DISASTER RELIEF CORPORATION INC", "city": "NEW YORK", "state": "NY", "zip": "10128-0000", "ntee": "M12", "ruling": "201505", "deductibility": "1", "assets": 7637, "income": 34, "revenue": 34}, {"ein": "471220635", "name": "JCI PHILIPPINE-NEW YORK FOUNDATION INC", "city": "NEW YORK", "state": "NY", "zip": "10163-0634", "ntee": "Z99", "ruling": "201409", "deductibility": "1", "assets": 0, "income": 0, "revenue": 0}, {"ein": "562387742", "name": "PHILIPPINE DISCIPLES OF MARY INC", "city": "SCARSDALE", "state": "NY", "zip": "10583-6950", "ntee": "X20", "ruling": "200612", "deductibility": "1", "assets": 1304972, "income": 1187706, "revenue": 1187706}, {"ein": "824757442", "name": "PHILIPPINE GOLF ASSOCIATION OF LONG ISLAND NY LIMITED", "city": "EAST MEADOW", "state": "NY", "zip": "11554-1644", "ntee": "P20", "ruling": "201908", "deductibility": "1", "assets": 0, "income": 0, "revenue": 0}, {"ein": "991142482", "name": "PHILIPPINE INDEPENDENCE COMMITTEE OF STATEN ISLAND INC", "city": "STATEN ISLAND", "state": "NY", "zip": "10310-1630", "ntee": "A23", "ruling": "202402", "deductibility": "1", "assets": 0, "income": 0, "revenue": 0}], "PROJECTS": [{"ein": "020708419", "name": "EQUUS PROJECTS INC", "city": "NEW YORK", "state": "NY", "zip": "10011-5436", "ntee": "A62", "ruling": "200406", "deductibility": "1", "assets": 33670, "income": 42754, "revenue": 42754}, {"ein": "020730941", "name": "PROJECTS WITH CARE INC", "city": "NEW YORK", "state": "NY", "zip": "10011-1328", "ntee": "P50", "ruling": "201308", "deductibility": "1", "assets": 289308, "income": 841505, "revenue": 708840}, {"ein": "042670249", "name": "DANCE PROJECTS INC", "city": "NEW YORK", "state": "NY", "zip": "10014-2010", "ntee": "", "ruling": "197906", "deductibility": "1", "assets": 0, "income": 0, "revenue": 0}, {"ein": "131655152", "name": "VAN ALEN INSTITUTE PROJECTS IN PUBLIC ARCHITECTURE", "city": "BROOKLYN", "state": "NY", "zip": "11231-5011", "ntee": "A40", "ruling": "193804", "deductibility": "1", "assets": 39887285, "income": 1432541, "revenue": 1432541}, {"ein": "133081486", "name": "AMERICAN OPERA PROJECTS INC", "city": "BROOKLYN", "state": "NY", "zip": "11217-1694", "ntee": "A6A0", "ruling": "198108", "deductibility": "1", "assets": 195112, "income": 532339, "revenue": 524289}, {"ein": "133221401", "name": "COLLABORATIVE PROJECTS INC", "city": "NEW YORK", "state": "NY", "zip": "10018-5700", "ntee": "A60", "ruling": "201602", "deductibility": "1", "assets": 0, "income": 0, "revenue": 0}, {"ein": "133378370", "name": "MUNA TSENG DANCE PROJECTS INC", "city": "NEW YORK", "state": "NY", "zip": "10014-4230", "ntee": "A62Z", "ruling": "198804", "deductibility": "1", "assets": 0, "income": 0, "revenue": 0}, {"ein": "133587176", "name": "AHRC NYC NEW PROJECTS INC", "city": "NEW YORK", "state": "NY", "zip": "10038-4812", "ntee": "P820", "ruling": "199102", "deductibility": "1", "assets": 65976837, "income": 12446172, "revenue": 7101485}, {"ein": "133711340", "name": "VITAL PROJECTS FUND INC", "city": "NEW YORK", "state": "NY", "zip": "10152-0000", "ntee": "", "ruling": "199306", "deductibility": "1", "assets": 355366295, "income": 91198105, "revenue": 0}, {"ein": "133804661", "name": "WHEELER WILSON AND JOHNSON COMMUNITY PROJECTS INC", "city": "BRONX", "state": "NY", "zip": "10469-0296", "ntee": "J22", "ruling": "199605", "deductibility": "1", "assets": 0, "income": 0, "revenue": 0}, {"ein": "133838879", "name": "THRESHOLD DANCE PROJECTS INC", "city": "NEW YORK", "state": "NY", "zip": "10036-6318", "ntee": "A620", "ruling": "199605", "deductibility": "1", "assets": 72846, "income": 231657, "revenue": 229151}, {"ein": "133856694", "name": "HIGHER GROUNDS PROJECTS INC", "city": "NEW YORK", "state": "NY", "zip": "10018-2915", "ntee": "A62", "ruling": "199608", "deductibility": "1", "assets": 0, "income": 0, "revenue": 0}, {"ein": "134022249", "name": "TAMAR ROGOFF PERFORMANCE PROJECTS INC", "city": "NEW YORK", "state": "NY", "zip": "10009-4241", "ntee": "A620", "ruling": "199801", "deductibility": "1", "assets": 37159, "income": 13120, "revenue": 13120}, {"ein": "134027467", "name": "EDUCATIONAL PROJECTS FOUNDATION INC", "city": "NEW YORK", "state": "NY", "zip": "10025-0000", "ntee": "B199", "ruling": "199902", "deductibility": "1", "assets": 6945600, "income": 1880198, "revenue": 0}, {"ein": "134029397", "name": "PERIMETER MEDIA AND CULTURE PROJECTS INCORPORATED", "city": "NEW YORK", "state": "NY", "zip": "10023-8505", "ntee": "A310", "ruling": "200104", "deductibility": "1", "assets": 0, "income": 0, "revenue": 0}, {"ein": "134093810", "name": "KIBOKO PROJECTS INC", "city": "NEW YORK", "state": "NY", "zip": "10025-6514", "ntee": "N20", "ruling": "200005", "deductibility": "1", "assets": 0, "income": 0, "revenue": 0}, {"ein": "141617634", "name": "SENIOR PROJECTS OF RAVENA INC", "city": "RAVENA", "state": "NY", "zip": "12143-1625", "ntee": "P81", "ruling": "198103", "deductibility": "1", "assets": 620462, "income": 736996, "revenue": 735758}, {"ein": "141737675", "name": "PEOPLE PROJECTS TO EMPOWER & ORGANIZE THE PSY LABELED INC", "city": "POUGHKEEPSIE", "state": "NY", "zip": "12603-2857", "ntee": "R20Z", "ruling": "199503", "deductibility": "1", "assets": 3156270, "income": 9699991, "revenue": 9629760}, {"ein": "141816470", "name": "NYEMA PROJECTS INC", "city": "WAPPINGERS FL", "state": "NY", "zip": "12590-1123", "ntee": "P80", "ruling": "200004", "deductibility": "1", "assets": 0, "income": 0, "revenue": 0}, {"ein": "161411199", "name": "GENEVA COMMUNITY PROJECTS INC", "city": "GENEVA", "state": "NY", "zip": "14456-0226", "ntee": "S24Z", "ruling": "199206", "deductibility": "1", "assets": 114154, "income": 86243, "revenue": 86243}, {"ein": "161494290", "name": "TEDDI PROJECTS INC", "city": "MENDON", "state": "NY", "zip": "14506-9776", "ntee": "T99I", "ruling": "199607", "deductibility": "1", "assets": 13001522, "income": 8244245, "revenue": 888081}, {"ein": "161603812", "name": "GREECE ECONOMIC DEVELOPMENT PROJECTS INC", "city": "ROCHESTER", "state": "NY", "zip": "14612-5016", "ntee": "S30", "ruling": "200309", "deductibility": "1", "assets": 0, "income": 0, "revenue": 0}, {"ein": "201637770", "name": "ETHER SEA PROJECTS INC", "city": "BROOKLYN", "state": "NY", "zip": "11238-3367", "ntee": "A70", "ruling": "200411", "deductibility": "1", "assets": 8104, "income": 232889, "revenue": 231637}, {"ein": "203498574", "name": "A PUBLIC SPACE LITERARY PROJECTS INC", "city": "NEW YORK", "state": "NY", "zip": "10159-1047", "ntee": "A33", "ruling": "200711", "deductibility": "1", "assets": 671588, "income": 500626, "revenue": 500626}, {"ein": "203563472", "name": "MOSTLY MODERN PROJECTS INC", "city": "NEW YORK", "state": "NY", "zip": "10036-6302", "ntee": "A20", "ruling": "200708", "deductibility": "1", "assets": 211345, "income": 987981, "revenue": 987981}, {"ein": "208355318", "name": "GOVOAH SPECIAL PROJECTS INC", "city": "BROOKLYN", "state": "NY", "zip": "11210-5418", "ntee": "N20", "ruling": "200804", "deductibility": "1", "assets": 671470, "income": 1473721, "revenue": 1473721}, {"ein": "208422447", "name": "BETH MORRISON PROJECTS", "city": "BROOKLYN", "state": "NY", "zip": "11217-1694", "ntee": "A65", "ruling": "200709", "deductibility": "1", "assets": 2092365, "income": 3212715, "revenue": 3212715}, {"ein": "222188736", "name": "HUBBARD HALL PROJECTS INC", "city": "CAMBRIDGE", "state": "NY", "zip": "12816-1219", "ntee": "A600", "ruling": "197803", "deductibility": "1", "assets": 1955721, "income": 607719, "revenue": 395737}, {"ein": "222906480", "name": "BETHLEHEM SENIOR PROJECTS INC", "city": "DELMAR", "state": "NY", "zip": "12054-3041", "ntee": "P81Z", "ruling": "199205", "deductibility": "1", "assets": 233272, "income": 69492, "revenue": 69492}, {"ein": "223282516", "name": "NEW YORK STATE ELKS ASSOCIATION MAJOR PROJECTS INC", "city": "WATERFORD", "state": "NY", "zip": "12188-1027", "ntee": "", "ruling": "199405", "deductibility": "1", "assets": 10114667, "income": 1258614, "revenue": 1258614}, {"ein": "261165730", "name": "URBAN ART PROJECTS INC", "city": "NEW YORK", "state": "NY", "zip": "10028-0134", "ntee": "A20", "ruling": "200803", "deductibility": "1", "assets": 0, "income": 0, "revenue": 0}, {"ein": "263067360", "name": "LIGHT INDUSTRY CINEMA PROJECTS LTD", "city": "BROOKLYN", "state": "NY", "zip": "11206-1743", "ntee": "A25", "ruling": "200902", "deductibility": "1", "assets": 39738, "income": 237814, "revenue": 226957}, {"ein": "272832354", "name": "BIDOUN PROJECTS INC", "city": "NEW YORK", "state": "NY", "zip": "10002-5800", "ntee": "A23", "ruling": "201109", "deductibility": "1", "assets": 40590, "income": 121327, "revenue": 121327}, {"ein": "311742615", "name": "FOREST HILLS COMMUNITY PROJECTS ASSOCIATION", "city": "FOREST HILLS", "state": "NY", "zip": "11375-8723", "ntee": "S30", "ruling": "200104", "deductibility": "1", "assets": 0, "income": 0, "revenue": 0}, {"ein": "331702648", "name": "AMERICAN FRIENDS OF CASTRO PROJECTS INC", "city": "WATER MILL", "state": "NY", "zip": "11976-2143", "ntee": "A20", "ruling": "202411", "deductibility": "1", "assets": 0, "income": 0, "revenue": 0}, {"ein": "332104794", "name": "RIOULT DANCE PROJECTS INC", "city": "NEW YORK", "state": "NY", "zip": "10024-5323", "ntee": "A62", "ruling": "202501", "deductibility": "1", "assets": 0, "income": 0, "revenue": 0}, {"ein": "364823538", "name": "EVERYDAY PROJECTS INC", "city": "BROOKLYN", "state": "NY", "zip": "11205-4201", "ntee": "B60", "ruling": "201904", "deductibility": "1", "assets": 29908, "income": 44061, "revenue": 44061}, {"ein": "454700820", "name": "HOME RUN PROJECTS INC", "city": "NEW YORK", "state": "NY", "zip": "10029-6302", "ntee": "B122", "ruling": "201308", "deductibility": "1", "assets": 26239368, "income": 182317, "revenue": 182317}, {"ein": "455568813", "name": "JAZZ PASSENGERS MUSIC PROJECTS", "city": "NEW YORK", "state": "NY", "zip": "10011-0000", "ntee": "A99", "ruling": "201509", "deductibility": "1", "assets": 12821, "income": 46763, "revenue": 46763}, {"ein": "462717584", "name": "PUBLIC GOOD PROJECTS", "city": "NEW YORK", "state": "NY", "zip": "10016-8808", "ntee": "E70", "ruling": "201406", "deductibility": "1", "assets": 3854836, "income": 9352507, "revenue": 9352507}, {"ein": "463242523", "name": "HOUSE OF ANGELS RENAISSANCE PROJECTS", "city": "COHOES", "state": "NY", "zip": "12047-3609", "ntee": "L40", "ruling": "201411", "deductibility": "1", "assets": 1561590, "income": 0, "revenue": 0}, {"ein": "464335287", "name": "INTERVAL PROJECTS INC", "city": "NEW YORK", "state": "NY", "zip": "10030-1871", "ntee": "S31", "ruling": "201802", "deductibility": "1", "assets": 0, "income": 0, "revenue": 0}, {"ein": "472323660", "name": "BLUE MOUNTAINS PROJECTS INC 1617 3RD AVE", "city": "CATSKILL", "state": "NY", "zip": "12414-1556", "ntee": "A20", "ruling": "201702", "deductibility": "1", "assets": 181569, "income": 159888, "revenue": 159888}, {"ein": "472404524", "name": "HERITAGE PROJECTS FOUNDATION", "city": "NEW YORK", "state": "NY", "zip": "10023-4422", "ntee": "A33", "ruling": "201504", "deductibility": "1", "assets": 38173, "income": 50272, "revenue": 50272}, {"ein": "473204519", "name": "EXTRA TERRESTRIAL PROJECTS INC", "city": "NEW YORK", "state": "NY", "zip": "10013-3624", "ntee": "A99", "ruling": "201503", "deductibility": "1", "assets": 13105, "income": 16000, "revenue": 16000}, {"ein": "473442650", "name": "INTEGRATIVE HEALTH PROJECTS INC", "city": "NEW YORK", "state": "NY", "zip": "10003-3959", "ntee": "K40", "ruling": "201503", "deductibility": "1", "assets": 0, "income": 0, "revenue": 0}, {"ein": "474571410", "name": "FLOURISHING PROJECTS INCORPORATED", "city": "BROOKLYN", "state": "NY", "zip": "11238-1028", "ntee": "A20", "ruling": "202008", "deductibility": "1", "assets": 31, "income": 0, "revenue": 0}, {"ein": "611682898", "name": "ARTBRIDGE PROJECTS INC", "city": "NEW YORK", "state": "NY", "zip": "10001-5521", "ntee": "A70", "ruling": "201403", "deductibility": "1", "assets": 176052, "income": 840225, "revenue": 840225}, {"ein": "814643607", "name": "TOMORROWLAND PROJECTS FOUNDATION", "city": "NEW YORK", "state": "NY", "zip": "10012-3868", "ntee": "S80", "ruling": "201704", "deductibility": "1", "assets": 153127, "income": 7559, "revenue": 0}, {"ein": "815177050", "name": "ORTEGA Y GASSET PROJECTS INC", "city": "BROOKLYN", "state": "NY", "zip": "11215-2745", "ntee": "A40", "ruling": "201702", "deductibility": "1", "assets": 15176, "income": 124741, "revenue": 124741}, {"ein": "820824072", "name": "MINERVA PROJECTS", "city": "PINE PLAINS", "state": "NY", "zip": "12567-6400", "ntee": "A20", "ruling": "201811", "deductibility": "1", "assets": 0, "income": 0, "revenue": 0}, {"ein": "821733625", "name": "ESS COMMUNITY PROJECTS INC", "city": "BROOKLYN", "state": "NY", "zip": "11222-0125", "ntee": "A25", "ruling": "201804", "deductibility": "1", "assets": 22005, "income": 220357, "revenue": 220357}, {"ein": "832346346", "name": "PROJECTS IN AFRO-CARIBBEAN COMMUNITY CHOICE LTD", "city": "KINGSTON", "state": "NY", "zip": "12401-4468", "ntee": "P20", "ruling": "201905", "deductibility": "1", "assets": 0, "income": 0, "revenue": 0}, {"ein": "833072725", "name": "BLACK BALL PROJECTS - NFP INC", "city": "BROOKLYN", "state": "NY", "zip": "11249-5513", "ntee": "A40", "ruling": "201905", "deductibility": "1", "assets": 11734, "income": 11959, "revenue": 11959}, {"ein": "833561681", "name": "WE PROJECTS INC", "city": "BROOKLYN", "state": "NY", "zip": "11204-4271", "ntee": "Q20", "ruling": "201906", "deductibility": "1", "assets": 0, "income": 0, "revenue": 0}, {"ein": "843881363", "name": "SILVER ART PROJECTS INC", "city": "NEW YORK", "state": "NY", "zip": "10007-0000", "ntee": "A25", "ruling": "202102", "deductibility": "1", "assets": 289273, "income": 271753, "revenue": 163886}, {"ein": "851703773", "name": "AIM PROJECTS INC", "city": "SAG HARBOR", "state": "NY", "zip": "11963-1735", "ntee": "T70", "ruling": "202103", "deductibility": "1", "assets": 0, "income": 0, "revenue": 0}, {"ein": "851912972", "name": "CLEA RSKY PROJECTS INC", "city": "BROOKLYN", "state": "NY", "zip": "11238-3367", "ntee": "A40", "ruling": "202011", "deductibility": "1", "assets": 0, "income": 0, "revenue": 0}, {"ein": "853729497", "name": "PROJECTS II PROJECTS", "city": "JAMAICA", "state": "NY", "zip": "11433-2010", "ntee": "P20", "ruling": "202102", "deductibility": "1", "assets": 0, "income": 0, "revenue": 0}, {"ein": "862098074", "name": "HUGHES AND VECCHIONE DANCE PROJECTS INC", "city": "CLINTON CORS", "state": "NY", "zip": "12514-2435", "ntee": "A20", "ruling": "202108", "deductibility": "1", "assets": 0, "income": 0, "revenue": 0}, {"ein": "871537944", "name": "LIONHEART PROJECTS INC", "city": "VLY COTTAGE", "state": "NY", "zip": "10989-2469", "ntee": "S20", "ruling": "202201", "deductibility": "1", "assets": 0, "income": 0, "revenue": 0}, {"ein": "871963522", "name": "OPEN AIR PROJECTS INC", "city": "RIDGEWOOD", "state": "NY", "zip": "11385-1149", "ntee": "A11", "ruling": "202202", "deductibility": "1", "assets": 0, "income": 0, "revenue": 0}, {"ein": "882650609", "name": "PURPOSE PROJECTS NY INC", "city": "FOREST HILLS", "state": "NY", "zip": "11375-5209", "ntee": "F19", "ruling": "202310", "deductibility": "1", "assets": 8436, "income": 75761, "revenue": 75761}, {"ein": "883560538", "name": "OWEGO ROTARY PROJECTS INC", "city": "OWEGO", "state": "NY", "zip": "13827-0574", "ntee": "S20", "ruling": "202210", "deductibility": "1", "assets": 0, "income": 0, "revenue": 0}, {"ein": "911917512", "name": "QUEENS COLLEGE SPECIAL PROJECTS FUND INC", "city": "FLUSHING", "state": "NY", "zip": "11367-1597", "ntee": "T50Z", "ruling": "199808", "deductibility": "1", "assets": 48268541, "income": 6638360, "revenue": 6638360}, {"ein": "920185730", "name": "LUQUER STREET PROJECTS INC", "city": "BROOKLYN", "state": "NY", "zip": "11231-4518", "ntee": "A70", "ruling": "200308", "deductibility": "1", "assets": 11565, "income": 0, "revenue": 0}, {"ein": "920347256", "name": "WONDERVILLE PROJECTS INC", "city": "BROOKLYN", "state": "NY", "zip": "11221-3588", "ntee": "A03", "ruling": "202212", "deductibility": "1", "assets": 0, "income": 0, "revenue": 0}, {"ein": "932157693", "name": "FOURONEONE PROJECTS INC", "city": "NEW YORK", "state": "NY", "zip": "10003-1224", "ntee": "A20", "ruling": "202403", "deductibility": "1", "assets": 143827, "income": 150850, "revenue": 150850}, {"ein": "992280889", "name": "WATER STREET PROJECTS INC", "city": "NEW YORK", "state": "NY", "zip": "10038-4972", "ntee": "A20", "ruling": "202406", "deductibility": "1", "assets": 0, "income": 0, "revenue": 0}, {"ein": "995028646", "name": "PROJECTS IN ENVIRONMENTAL AQUATICS AND RESEARCH LAB", "city": "TARRYTOWN", "state": "NY", "zip": "10591-2961", "ntee": "B25", "ruling": "202409", "deductibility": "1", "assets": 0, "income": 0, "revenue": 0}], "PARTY": [{"ein": "030581933", "name": "GLOBAL SERVICE CENTER FOR QUITTING CHINESE COMMUNIST PARTY INC", "city": "FLUSHING", "state": "NY", "zip": "11354-5523", "ntee": "Q70", "ruling": "200706", "deductibility": "1", "assets": 1367608, "income": 294500, "revenue": 294500}, {"ein": "133876715", "name": "COMMITTEE FOR A UNIFIED INDEPENDENT PARTY", "city": "SHUSHAN", "state": "NY", "zip": "12873-0094", "ntee": "W24", "ruling": "200004", "deductibility": "2", "assets": 156461, "income": 290721, "revenue": 290721}, {"ein": "453274524", "name": "NATIONAL ALUMNI ASSOCIATION OF THE BLACK PANTHER PARTY", "city": "GARDEN CITY", "state": "NY", "zip": "11530-0743", "ntee": "R99", "ruling": "201501", "deductibility": "1", "assets": 0, "income": 0, "revenue": 0}, {"ein": "475673445", "name": "DANCE PARTY FOR PARKINSONS INC", "city": "OLD WESTBURY", "state": "NY", "zip": "11568-1130", "ntee": "H12", "ruling": "201512", "deductibility": "1", "assets": 0, "income": 0, "revenue": 0}, {"ein": "611446247", "name": "THE NEW YORK CITY CHILDRENS HOLIDAY PARTY INC", "city": "NEW YORK", "state": "NY", "zip": "10128-2288", "ntee": "T30", "ruling": "200307", "deductibility": "1", "assets": 300981, "income": 14491, "revenue": 14491}, {"ein": "813058694", "name": "OPERATION BIRTHDAY PARTY", "city": "BROOKLYN", "state": "NY", "zip": "11204-5826", "ntee": "O50", "ruling": "201609", "deductibility": "1", "assets": 0, "income": 0, "revenue": 0}, {"ein": "824900610", "name": "CROSSING PARTY LINES INC", "city": "NEW YORK", "state": "NY", "zip": "10001-7604", "ntee": "W24", "ruling": "201902", "deductibility": "1", "assets": 0, "income": 0, "revenue": 0}, {"ein": "831339310", "name": "SUPER SOUL PARTY INC", "city": "BROOKLYN", "state": "NY", "zip": "11213-0000", "ntee": "S11", "ruling": "201906", "deductibility": "1", "assets": 6714, "income": 89558, "revenue": 89558}, {"ein": "831719518", "name": "GO PARTY ON DEMAND INCORPORATED", "city": "ROOSEVELT", "state": "NY", "zip": "11575-2403", "ntee": "X20", "ruling": "201810", "deductibility": "1", "assets": 0, "income": 0, "revenue": 0}, {"ein": "853868514", "name": "SIGNATURE BLOCK PARTY", "city": "BRONX", "state": "NY", "zip": "10457-2751", "ntee": "A26", "ruling": "202305", "deductibility": "1", "assets": 0, "income": 0, "revenue": 0}, {"ein": "880942615", "name": "PARTY PRINCESSES CNY INC", "city": "SYRACUSE", "state": "NY", "zip": "13208-2324", "ntee": "O99", "ruling": "202205", "deductibility": "1", "assets": 0, "income": 0, "revenue": 0}, {"ein": "880977752", "name": "CHINA FEDERAL PARTY FOUNDATION INC", "city": "GREAT NECK", "state": "NY", "zip": "11021-2912", "ntee": "S99", "ruling": "202302", "deductibility": "1", "assets": 0, "income": 0, "revenue": 0}, {"ein": "920899876", "name": "INDEPENDENT THIRD PARTY CORPORATION", "city": "PITTSFORD", "state": "NY", "zip": "14534-9610", "ntee": "B02", "ruling": "202306", "deductibility": "1", "assets": 0, "income": 0, "revenue": 0}, {"ein": "990584578", "name": "PARTY THEATER INC", "city": "STAMFORD", "state": "NY", "zip": "12167-2075", "ntee": "A65", "ruling": "202401", "deductibility": "1", "assets": 0, "income": 0, "revenue": 0}], "TRAUMA": [{"ein": "050621941", "name": "TRAUMA AND RESILIENCY RESOURCES INC", "city": "NEW YORK", "state": "NY", "zip": "10003-3245", "ntee": "F016", "ruling": "200603", "deductibility": "1", "assets": 2443281, "income": 141904, "revenue": 141904}, {"ein": "113328062", "name": "KIWANIS PEDIATRIC TRAUMA CTR FNDN", "city": "BOHEMIA", "state": "NY", "zip": "11716-1713", "ntee": "E11", "ruling": "199606", "deductibility": "1", "assets": 352215, "income": 107667, "revenue": 61298}, {"ein": "133764444", "name": "BRAIN TRAUMA FOUNDATION INC", "city": "NEW YORK", "state": "NY", "zip": "10004-1007", "ntee": "U50", "ruling": "199508", "deductibility": "1", "assets": 371457, "income": 95984, "revenue": 95984}, {"ein": "133867775", "name": "THE ASSOCIATION FOR TRAUMA OUTREACH AND PREVENTION INC", "city": "NEW YORK", "state": "NY", "zip": "10028-2140", "ntee": "B99", "ruling": "201111", "deductibility": "1", "assets": 2920, "income": 11480, "revenue": 11480}, {"ein": "204633109", "name": "FAMILIES IN TRAUMA FOUNDATION", "city": "MELVILLE", "state": "NY", "zip": "11747-4211", "ntee": "E86", "ruling": "200606", "deductibility": "1", "assets": 45524, "income": 21, "revenue": 21}, {"ein": "274023205", "name": "TRAUMA IMAGING FOUNDATION INC", "city": "ROCK HILL", "state": "NY", "zip": "12775-6617", "ntee": "G055", "ruling": "201112", "deductibility": "1", "assets": 52802, "income": 44787, "revenue": 44787}, {"ein": "472294632", "name": "GLOBAL TRAUMA RESEARCH", "city": "BROOKLYN", "state": "NY", "zip": "11210-3949", "ntee": "F32", "ruling": "201601", "deductibility": "1", "assets": 362416, "income": 746991, "revenue": 746991}, {"ein": "510172857", "name": "AMERICAN TRAUMA SOCIETY", "city": "SEAFORD", "state": "NY", "zip": "11783-2940", "ntee": "", "ruling": "197311", "deductibility": "1", "assets": 0, "income": 0, "revenue": 0}, {"ein": "550796026", "name": "UNITARIAN UNIVERSALIST TRAUMA RESPONSE MINISTRY INC", "city": "MANHASSET", "state": "NY", "zip": "11030-0000", "ntee": "P62", "ruling": "201206", "deductibility": "1", "assets": 26362, "income": 19114, "revenue": 0}, {"ein": "821638337", "name": "CHRISTINA FUND FOR HEAD TRAUMA LTD", "city": "BROOKLYN", "state": "NY", "zip": "11238-1803", "ntee": "H48", "ruling": "201708", "deductibility": "1", "assets": 0, "income": 0, "revenue": 0}, {"ein": "832422658", "name": "TRAUMA TO TRIUMPHS", "city": "NEWTONVILLE", "state": "NY", "zip": "12110-5101", "ntee": "P99", "ruling": "201902", "deductibility": "1", "assets": 0, "income": 0, "revenue": 0}, {"ein": "834662395", "name": "LINKING ARTS AGRICULTURE & SPORTS TRAUMA INC", "city": "STATEN ISLAND", "state": "NY", "zip": "10314-2608", "ntee": "B01", "ruling": "201908", "deductibility": "1", "assets": 0, "income": 0, "revenue": 0}, {"ein": "854178803", "name": "FLAMINGO TRAUMA RECOVERY", "city": "NEW YORK", "state": "NY", "zip": "10031-7348", "ntee": "F60", "ruling": "202110", "deductibility": "1", "assets": 0, "income": 0, "revenue": 0}, {"ein": "862590044", "name": "WNY TRAUMA COLLABORATIVE INC", "city": "WILLIAMSVILLE", "state": "NY", "zip": "14221-6054", "ntee": "F30", "ruling": "202302", "deductibility": "1", "assets": 0, "income": 0, "revenue": 0}, {"ein": "863411998", "name": "CHILDRENS TRAUMA RELIEF FOUNDATION", "city": "POMONA", "state": "NY", "zip": "10970-3565", "ntee": "P20", "ruling": "202108", "deductibility": "1", "assets": 0, "income": 0, "revenue": 0}, {"ein": "863950694", "name": "VOICE AND TRAUMA RESEARCH AND CONNECTION GROUP INC", "city": "NEW YORK", "state": "NY", "zip": "10021-4907", "ntee": "V20", "ruling": "202208", "deductibility": "1", "assets": 0, "income": 0, "revenue": 0}, {"ein": "871978433", "name": "L I F T LEADING INDIVIDUALS FROM TRAUMA INC", "city": "BROOKLYN", "state": "NY", "zip": "11206-3576", "ntee": "O20", "ruling": "202203", "deductibility": "1", "assets": 0, "income": 0, "revenue": 0}, {"ein": "933521216", "name": "NEW YORK CITY ASSOCIATION OF TRAUMA THERAPISTS", "city": "NEW HYDE PARK", "state": "NY", "zip": "11042-1022", "ntee": "B03", "ruling": "202407", "deductibility": "1", "assets": 0, "income": 0, "revenue": 0}, {"ein": "990597239", "name": "TRAUMA HEALING ALLIANCE INC", "city": "WEST HEMPSTEAD", "state": "NY", "zip": "11552-2052", "ntee": "F01", "ruling": "202401", "deductibility": "1", "assets": 0, "income": 0, "revenue": 0}], "PATENT": [{"ein": "060771475", "name": "MIDDLE PATENT RURAL CEMETERY ASSOC", "city": "BEDFORD", "state": "NY", "zip": "10506-0343", "ntee": "", "ruling": "196508", "deductibility": "1", "assets": 1781523, "income": 149711, "revenue": 149711}, {"ein": "061392628", "name": "INSTITUTE FOR PATENT STUDIES INC", "city": "ALBANY", "state": "NY", "zip": "12207-2922", "ntee": "V99", "ruling": "199408", "deductibility": "1", "assets": 1228837, "income": 236082, "revenue": 148207}, {"ein": "116028898", "name": "DONGAN PATENT LODGE NO 1134 FREE & ACCEPTED MASONS", "city": "SMITHTOWN", "state": "NY", "zip": "11787-1817", "ntee": "Y40", "ruling": "201802", "deductibility": "1", "assets": 0, "income": 0, "revenue": 0}, {"ein": "134023378", "name": "WEST PATENT ELEMENTARY SCHOOL ASSOCIATION", "city": "BEDFORD HILLS", "state": "NY", "zip": "10507-2223", "ntee": "B94", "ruling": "200011", "deductibility": "1", "assets": 140090, "income": 100657, "revenue": 100657}, {"ein": "134164793", "name": "JOINT PATENT PRACTICE CONTINUING LEGAL EDUCATION INC", "city": "STATEN ISLAND", "state": "NY", "zip": "10306-5929", "ntee": "B50", "ruling": "200111", "deductibility": "1", "assets": 73434, "income": 51086, "revenue": 51086}, {"ein": "156022689", "name": "HOLLAND PATENT FREE LIBRARY ASSOCIATION", "city": "HOLLAND PATNT", "state": "NY", "zip": "13354-0187", "ntee": "", "ruling": "195302", "deductibility": "1", "assets": 507530, "income": 152517, "revenue": 131935}, {"ein": "311579087", "name": "ASSOCIATION OF CORPORATE PATENT COUNSEL INC", "city": "LATHAM", "state": "NY", "zip": "12110-0213", "ntee": "", "ruling": "199801", "deductibility": "2", "assets": 669844, "income": 368625, "revenue": 368625}, {"ein": "364171032", "name": "ASSOCIATION OF PATENT LAW FIRMS", "city": "GARDEN CITY", "state": "NY", "zip": "11530-5766", "ntee": "G03", "ruling": "201409", "deductibility": "2", "assets": 187033, "income": 197385, "revenue": 197385}, {"ein": "813799663", "name": "ROCHESTER PATENT LAW ASSOCIATION INC", "city": "PENFIELD", "state": "NY", "zip": "14526-1909", "ntee": "S41", "ruling": "201705", "deductibility": "2", "assets": 0, "income": 0, "revenue": 0}], "SPONSORING": [{"ein": "061175503", "name": "SOUTH BRONX CHURCHES SPONSORING COMMITTEE", "city": "BRONX", "state": "NY", "zip": "10455-2706", "ntee": "", "ruling": "198912", "deductibility": "1", "assets": 1, "income": 11150, "revenue": 11150}, {"ein": "112542953", "name": "EAST BROOKLYN CHURCHES SPONSORING COMMITTEE", "city": "BROOKLYN", "state": "NY", "zip": "11239-2324", "ntee": "S200", "ruling": "198203", "deductibility": "1", "assets": 842745, "income": 429351, "revenue": 429351}, {"ein": "133152121", "name": "HEAD START SPONSORING BOARD COUNCIL OF THE CITY OF NEW YORK INC", "city": "NEW YORK", "state": "NY", "zip": "10036-6700", "ntee": "", "ruling": "198406", "deductibility": "1", "assets": 204309, "income": 128418, "revenue": 128418}], "DRUMMOND": [{"ein": "061458477", "name": "DRUMMOND C AND RUTH A BELL FOUNDATION INC", "city": "MELVILLE", "state": "NY", "zip": "11747-0000", "ntee": "T20Z", "ruling": "199703", "deductibility": "1", "assets": 201943, "income": 17783, "revenue": 0}], "MEUCCI": [{"ein": "061725844", "name": "GARIBALDI MEUCCI MUSEUM", "city": "STATEN ISLAND", "state": "NY", "zip": "10305-1704", "ntee": "A54", "ruling": "200405", "deductibility": "1", "assets": 173601, "income": 237017, "revenue": 207467}, {"ein": "824196731", "name": "ANTONIO MEUCCI LODGE 213 INC", "city": "WHITE PLAINS", "state": "NY", "zip": "10606-2615", "ntee": "T99", "ruling": "201902", "deductibility": "1", "assets": 125188, "income": 71200, "revenue": 71200}], "SAMAJ": [{"ein": "061826138", "name": "JAIN SAMAJ OF LONG ISLAND INC", "city": "HICKSVILLE", "state": "NY", "zip": "11801-4361", "ntee": "X50", "ruling": "201008", "deductibility": "1", "assets": 0, "income": 0, "revenue": 0}, {"ein": "112516285", "name": "ARYA SAMAJ INC NEW YORK", "city": "JAMAICA", "state": "NY", "zip": "11432-3320", "ntee": "", "ruling": "198002", "deductibility": "1", "assets": 0, "income": 0, "revenue": 0}, {"ein": "112695150", "name": "ARYA SAMAJ USA INC", "city": "JAMAICA", "state": "NY", "zip": "11419-1031", "ntee": "", "ruling": "199003", "deductibility": "1", "assets": 0, "income": 0, "revenue": 0}, {"ein": "133188811", "name": "ARYA SAMAJ OF SUBURBAN NEW YORK INC", "city": "PLEASANTVILLE", "state": "NY", "zip": "10570-1319", "ntee": "", "ruling": "198802", "deductibility": "1", "assets": 0, "income": 0, "revenue": 0}, {"ein": "133653701", "name": "THE BRONX ARYA SAMAJ INC", "city": "BRONX", "state": "NY", "zip": "10469-5322", "ntee": "", "ruling": "199312", "deductibility": "1", "assets": 0, "income": 0, "revenue": 0}, {"ein": "141819444", "name": "ARYA SAMAJ OF HUDSON VALLEY", "city": "HOPEWELL JCT", "state": "NY", "zip": "12533-0574", "ntee": "X50", "ruling": "200110", "deductibility": "1", "assets": 0, "income": 0, "revenue": 0}, {"ein": "205210298", "name": "MANANG SAMAJ OF NEW YORK INC", "city": "SUNNYSIDE", "state": "NY", "zip": "11104-3581", "ntee": "S80", "ruling": "201510", "deductibility": "1", "assets": 0, "income": 0, "revenue": 0}, {"ein": "205283119", "name": "ARYA SAMAJ OF LONG ISLAND INC", "city": "HAUPPAUGE", "state": "NY", "zip": "11788-0612", "ntee": "X70", "ruling": "201103", "deductibility": "1", "assets": 0, "income": 0, "revenue": 0}, {"ein": "222899860", "name": "CHAROTARIYA LEUA PATIDAR SEVA SAMAJ OF USA INC", "city": "CHEEKTOWAGA", "state": "NY", "zip": "14225-4905", "ntee": "B80Z", "ruling": "199405", "deductibility": "1", "assets": 934275, "income": 891527, "revenue": 891527}, {"ein": "237346761", "name": "GUJARATI SAMAJ OF NEW YORK INC", "city": "LEVITTOWN", "state": "NY", "zip": "11756-3754", "ntee": "A230", "ruling": "197408", "deductibility": "1", "assets": 1151973, "income": 422284, "revenue": 422284}, {"ein": "237411617", "name": "HINDU SAMAJ INC", "city": "WAPPINGERS FL", "state": "NY", "zip": "12590-4531", "ntee": "", "ruling": "197411", "deductibility": "1", "assets": 0, "income": 0, "revenue": 0}, {"ein": "331028456", "name": "ARYA DHARMA SAMAJ INC", "city": "FLORAL PARK", "state": "NY", "zip": "11001-2006", "ntee": "Q21", "ruling": "200310", "deductibility": "1", "assets": 146572, "income": 31593, "revenue": 31593}, {"ein": "352444354", "name": "GUJARATI SAMAJ OF BUFFALO & WESTERN NEW YORK INC", "city": "TONAWANDA", "state": "NY", "zip": "14217-1210", "ntee": "A23", "ruling": "201311", "deductibility": "1", "assets": 85493, "income": 65892, "revenue": 65892}, {"ein": "813969076", "name": "SANATAN DHARMIC TATHA SANSKRITIK SEVA SAMAJ INC", "city": "AMHERST", "state": "NY", "zip": "14226-2865", "ntee": "P80", "ruling": "201803", "deductibility": "1", "assets": 0, "income": 0, "revenue": 0}, {"ein": "814016351", "name": "GUJARATI SAMAJ OF THE CAPITAL DISTRICT", "city": "ALBANY", "state": "NY", "zip": "12212-2963", "ntee": "A23", "ruling": "202110", "deductibility": "1", "assets": 60784, "income": 53897, "revenue": 0}, {"ein": "814429551", "name": "SUDUR PASCHIM SAMAJ AMERICA INC", "city": "LYNBROOK", "state": "NY", "zip": "11563-1328", "ntee": "A23", "ruling": "201702", "deductibility": "1", "assets": 0, "income": 0, "revenue": 0}, {"ein": "834602573", "name": "CNY GUJARATI SAMAJ INC", "city": "SYRACUSE", "state": "NY", "zip": "13209-1824", "ntee": "A23", "ruling": "202002", "deductibility": "1", "assets": 59506, "income": 22317, "revenue": 22317}, {"ein": "872285317", "name": "SUFFOLK COUNTY NEPALI SAMAJ INC", "city": "SELDEN", "state": "NY", "zip": "11784-1918", "ntee": "E61", "ruling": "202111", "deductibility": "1", "assets": 0, "income": 0, "revenue": 0}, {"ein": "873783803", "name": "BRAHMAN SAMAJ OF NEW YORK INC", "city": "NEW HYDE PARK", "state": "NY", "zip": "11040-2201", "ntee": "A23", "ruling": "202401", "deductibility": "1", "assets": 37031, "income": 51778, "revenue": 51778}, {"ein": "923360904", "name": "GORKHA SAMAJ AMERICA INC", "city": "EAST ELMHURST", "state": "NY", "zip": "11370-1423", "ntee": "S80", "ruling": "202308", "deductibility": "1", "assets": 0, "income": 0, "revenue": 0}, {"ein": "933113717", "name": "BHOTEKOSHI SAMAJ INC", "city": "ELMHURST", "state": "NY", "zip": "11373-4818", "ntee": "W20", "ruling": "202503", "deductibility": "1", "assets": 0, "income": 0, "revenue": 0}], "KEWFOREST": [{"ein": "111666834", "name": "KEWFOREST SCHOOL INC", "city": "FOREST HILLS", "state": "NY", "zip": "11375-6143", "ntee": "B240", "ruling": "197304", "deductibility": "1", "assets": 15204332, "income": 10970751, "revenue": 8824252}], "TRAINING": [{"ein": "111672740", "name": "ALUMNAE ASSOCIATION OF THE TRAINING SCHOOL FOR NURSES OF LI COLL HOSP", "city": "BROOKLYN", "state": "NY", "zip": "11228-2921", "ntee": "", "ruling": "195206", "deductibility": "2", "assets": 102855, "income": 1454, "revenue": 1454}, {"ein": "112000172", "name": "APPRENTICESHIP TRAINING FUND LOCAL 138", "city": "FARMINGDALE", "state": "NY", "zip": "11735-0206", "ntee": "", "ruling": "196412", "deductibility": "1", "assets": 3651828, "income": 2198552, "revenue": 2198552}, {"ein": "112239383", "name": "LEADERSHIP TRAINING INCORPORATED", "city": "HEMPSTEAD", "state": "NY", "zip": "11550-4282", "ntee": "P20", "ruling": "197208", "deductibility": "1", "assets": 2560761, "income": 2806230, "revenue": 2806230}, {"ein": "112304203", "name": "SUFFOLK OBEDIENCE TRAINING CLUB INC", "city": "MT SINAI", "state": "NY", "zip": "11766-3404", "ntee": "D610", "ruling": "200103", "deductibility": "1", "assets": 104180, "income": 136783, "revenue": 136783}, {"ein": "112346422", "name": "TRAINING ORCHESTRA INC", "city": "MELVILLE", "state": "NY", "zip": "11747-0705", "ntee": "", "ruling": "197412", "deductibility": "1", "assets": 116433, "income": 106144, "revenue": 105636}, {"ein": "112602554", "name": "LOCAL 817 I B T SCHOLARSHIP TRAINING FUND", "city": "GREAT NECK", "state": "NY", "zip": "11021-2924", "ntee": "", "ruling": "198008", "deductibility": "2", "assets": 50000709, "income": 16902560, "revenue": 4161097}, {"ein": "112715180", "name": "LIFE-SKILLS HOME TRAINING TUTORIAL PROGRAM FOR PRE-SCHOOLERS INC", "city": "FLUSHING", "state": "NY", "zip": "11357-3444", "ntee": "E50Z", "ruling": "198509", "deductibility": "1", "assets": 3504488, "income": 13186368, "revenue": 13185714}, {"ein": "112816140", "name": "GENERAL BLDG LABORERS LOCAL 66 TRAINING PROGRAM FUND BOX 666", "city": "MELVILLE", "state": "NY", "zip": "11747-3088", "ntee": "B30", "ruling": "200109", "deductibility": "1", "assets": 1343231, "income": 1614190, "revenue": 1008027}, {"ein": "112885142", "name": "AMERICAN FRIENDS OF VOCATIONAL TRAINING CENTER INC", "city": "BROOKLYN", "state": "NY", "zip": "11204-2295", "ntee": "", "ruling": "198802", "deductibility": "1", "assets": 0, "income": 0, "revenue": 0}, {"ein": "113124063", "name": "PLUMBERS LOCAL UNION NO 200 APPRENTICESHIP TRAINING FUND", "city": "RONKONKOMA", "state": "NY", "zip": "11779-6908", "ntee": "B99Z", "ruling": "199308", "deductibility": "1", "assets": 1683501, "income": 2160106, "revenue": 1027536}, {"ein": "113240467", "name": "NEW YORK CHRISTIAN SHORT-TERM MISSION TRAINING CENTRE INC", "city": "FLUSHING", "state": "NY", "zip": "11354-3063", "ntee": "X21Z", "ruling": "199808", "deductibility": "1", "assets": 0, "income": 0, "revenue": 0}, {"ein": "113254725", "name": "ASBESTOS WORKERS LOCAL 12 ABATEMENT EDUCATION AND TRAINING FUND", "city": "LONG ISLAND CITY", "state": "NY", "zip": "11101-2433", "ntee": "B30Z", "ruling": "199610", "deductibility": "1", "assets": 346082, "income": 321347, "revenue": 321347}, {"ein": "113289827", "name": "NEW YORK PROSECUTORS TRAINING INSTITUTE INC", "city": "ALBANY", "state": "NY", "zip": "12207-2838", "ntee": "E20Z", "ruling": "199608", "deductibility": "1", "assets": 4960575, "income": 5862064, "revenue": 5862064}, {"ein": "113411856", "name": "RESOURCE TRAINING CENTER INC", "city": "STATEN ISLAND", "state": "NY", "zip": "10309-1315", "ntee": "B60Z", "ruling": "199804", "deductibility": "1", "assets": 1295180, "income": 3815208, "revenue": 3815208}, {"ein": "113443188", "name": "CENTURION PROFESSIONAL TRAINING INC", "city": "BROOKLYN", "state": "NY", "zip": "11235-4123", "ntee": "J20", "ruling": "199910", "deductibility": "1", "assets": 17530, "income": 226600, "revenue": 226600}, {"ein": "113443290", "name": "CEMENT AND CONCRETE WORKERS TRAINING AND APPRETICESHIP FUND", "city": "ASTORIA", "state": "NY", "zip": "11106-3041", "ntee": "T30", "ruling": "201709", "deductibility": "1", "assets": 8253325, "income": 6550003, "revenue": 1919826}, {"ein": "113522006", "name": "LOCAL 355 USW JOINT APPRENTICESHIP AND TRAINING FUND", "city": "NEW ROCHELLE", "state": "NY", "zip": "10801-5251", "ntee": "B30", "ruling": "200301", "deductibility": "1", "assets": 2531733, "income": 1151082, "revenue": 1151082}, {"ein": "113638368", "name": "TRAINING FOR LIFE INC", "city": "NEW YORK", "state": "NY", "zip": "10005-2818", "ntee": "M41", "ruling": "200611", "deductibility": "1", "assets": 402480, "income": 382517, "revenue": 361113}, {"ein": "116000935", "name": "JOINT APPRENTICESHIP & TRAINING COMM", "city": "HAUPPAUGE", "state": "NY", "zip": "11788-5181", "ntee": "J22Z", "ruling": "194811", "deductibility": "1", "assets": 4279554, "income": 1892592, "revenue": 1892592}, {"ein": "116399999", "name": "LOCAL 282 JOB TRAINING TRUST FUND", "city": "LAKE SUCCESS", "state": "NY", "zip": "11042-1097", "ntee": "", "ruling": "199109", "deductibility": "2", "assets": 2187832, "income": 681666, "revenue": 681666}, {"ein": "116472322", "name": "LABORERS LOCAL 1298 JOINT APPRENTICESHIP & TRAINING TR FUND", "city": "HEMPSTEAD", "state": "NY", "zip": "11550-4556", "ntee": "B300", "ruling": "199703", "deductibility": "1", "assets": 3928447, "income": 1662910, "revenue": 1662910}, {"ein": "131813817", "name": "HEPHZIBAH HOUSE BIBLE TRAINING SCHOOL & HOME OF REST INC", "city": "NEW YORK", "state": "NY", "zip": "10023-2001", "ntee": "P75Z", "ruling": "196102", "deductibility": "1", "assets": 723976, "income": 612699, "revenue": 612699}, {"ein": "131935212", "name": "JOURNEYMEN & APPRENTICESHIP TRAINING & EDUCATIONAL FUND", "city": "MOUNTAINVILLE", "state": "NY", "zip": "10953-0000", "ntee": "", "ruling": "197110", "deductibility": "2", "assets": 241362, "income": 387710, "revenue": 387710}, {"ein": "132571023", "name": "IRON WORKERS LOCAL 40 & 361 APPRENTICESHIP & TRAINING FUND", "city": "ASTORIA", "state": "NY", "zip": "11106-1335", "ntee": "J22Z", "ruling": "198602", "deductibility": "1", "assets": 2890000, "income": 2000143, "revenue": 2000143}, {"ein": "132613755", "name": "FOUNDATION FOR THE SUPPORT OF INTERNATIONAL MEDICAL TRAINING INC", "city": "NIAGARA FALLS", "state": "NY", "zip": "14304-1558", "ntee": "Q300", "ruling": "196906", "deductibility": "1", "assets": 143201, "income": 16978, "revenue": 16978}, {"ein": "132622315", "name": "SHEET METAL WORKERS CRAFT TRAINING FUND LOCAL UNION 38", "city": "BREWSTER", "state": "NY", "zip": "10509-0119", "ntee": "J22I", "ruling": "197912", "deductibility": "1", "assets": 2710949, "income": 1382179, "revenue": 1382179}, {"ein": "132628055", "name": "TRAINING INSTITUTE FOR MENTAL HEALTH PRACTITIONER", "city": "NEW YORK", "state": "NY", "zip": "10016-0825", "ntee": "", "ruling": "197002", "deductibility": "1", "assets": 108027, "income": 510228, "revenue": 411489}, {"ein": "132637580", "name": "1199 SEIU LEAGUE TRAINING AND UPGRADING FUND", "city": "NEW YORK", "state": "NY", "zip": "10108-0840", "ntee": "J200", "ruling": "197006", "deductibility": "1", "assets": 60817339, "income": 81917821, "revenue": 81917821}, {"ein": "132695683", "name": "EARL WARREN LEGAL TRAINING PROGRAM INC", "city": "NEW YORK", "state": "NY", "zip": "10006-1738", "ntee": "", "ruling": "199408", "deductibility": "1", "assets": 831097, "income": 487403, "revenue": 154060}, {"ein": "132728844", "name": "SMART LOCAL 137 APPRENTICE TRAINING FUND", "city": "LONG ISLAND CITY", "state": "NY", "zip": "11101-6164", "ntee": "J22Z", "ruling": "197305", "deductibility": "1", "assets": 3504462, "income": 1269119, "revenue": 939031}, {"ein": "132764717", "name": "NATIONAL INSTITUTE FOR THE PSYCHOTHERAPIES TRAINING INSTITUTE", "city": "NEW YORK", "state": "NY", "zip": "10010-4102", "ntee": "F00P", "ruling": "197410", "deductibility": "1", "assets": 8569000, "income": 2897605, "revenue": 2895440}, {"ein": "132911463", "name": "TRAINING INSTITUTE OF NATL PSYCHO LOGICAL ASSOC FOR PSYCHOANALYSIS", "city": "NEW YORK", "state": "NY", "zip": "10011-7940", "ntee": "", "ruling": "197808", "deductibility": "1", "assets": 1391734, "income": 630332, "revenue": 630332}, {"ein": "132946883", "name": "DGA-PRODUCER ASSISTANT DIRECTOR TRAINING PROGRAM TRUST FUND", "city": "NEW YORK", "state": "NY", "zip": "10019-5909", "ntee": "", "ruling": "197004", "deductibility": "1", "assets": 3944399, "income": 1281661, "revenue": 0}, {"ein": "133017119", "name": "TEAMSTERS LOCAL 237 TRAINING AND EDUCATIONAL FUND", "city": "NEW YORK", "state": "NY", "zip": "10011-7201", "ntee": "J200", "ruling": "198705", "deductibility": "1", "assets": 746888, "income": 1747999, "revenue": 791918}, {"ein": "133020617", "name": "CONSCIOUSNESS RESEARCH AND TRAINING PROJECT INC", "city": "SOMERS", "state": "NY", "zip": "10589-1755", "ntee": "", "ruling": "198004", "deductibility": "1", "assets": 0, "income": 0, "revenue": 0}, {"ein": "133043023", "name": "NY CITY AND LI BRICKLAYERS APPRENTICESHIP AND TRAINING FUND", "city": "REGO PARK", "state": "NY", "zip": "11374-5227", "ntee": "", "ruling": "198602", "deductibility": "1", "assets": 1731145, "income": 316617, "revenue": 316617}, {"ein": "133056021", "name": "COMMERCIAL EMPLOYEES LOCAL 94-94A TRAINING PROGRAM", "city": "NEW YORK", "state": "NY", "zip": "10036-5402", "ntee": "J220", "ruling": "198312", "deductibility": "1", "assets": 9582695, "income": 5805899, "revenue": 2564912}, {"ein": "133076314", "name": "METROPOLITAN INSTITUTE FOR TRAINING IN PSYCHOANALYTIC PSYCHOTHERAPY", "city": "NEW YORK", "state": "NY", "zip": "10024-4018", "ntee": "", "ruling": "198702", "deductibility": "1", "assets": 18231, "income": 246503, "revenue": 246503}, {"ein": "133156522", "name": "STONESETTERS APPRENTICESHIP AND TRAINING FUND", "city": "NEW YORK", "state": "NY", "zip": "10018-3726", "ntee": "", "ruling": "198306", "deductibility": "2", "assets": 466817, "income": 28589, "revenue": 28589}, {"ein": "133192994", "name": "PORT CHESTER OBEDIENCE TRAINING CLUB INC", "city": "WHITE PLAINS", "state": "NY", "zip": "10603-3462", "ntee": "", "ruling": "198802", "deductibility": "2", "assets": 281114, "income": 675424, "revenue": 675424}, {"ein": "133217233", "name": "TEAMSTERS LOCAL 456 EDUCATION & TRAINING FUND", "city": "ELMSFORD", "state": "NY", "zip": "10523-3521", "ntee": "B99", "ruling": "202007", "deductibility": "1", "assets": 772197, "income": 278425, "revenue": 0}, {"ein": "133226244", "name": "THE WHOLE TRUTH CHURCH CENTER AND RELIGIOUS TRAINING INSTITUTE OF", "city": "NEW YORK", "state": "NY", "zip": "10032-7439", "ntee": "", "ruling": "199004", "deductibility": "1", "assets": 0, "income": 0, "revenue": 0}, {"ein": "133381223", "name": "ISRAEL YOUTH TRAINING FUND INC", "city": "PURCHASE", "state": "NY", "zip": "10577-2118", "ntee": "", "ruling": "198810", "deductibility": "1", "assets": 0, "income": 0, "revenue": 0}, {"ein": "133458660", "name": "MASON TENDERS TRAINING FUND", "city": "LONG IS CITY", "state": "NY", "zip": "11101-4906", "ntee": "B30", "ruling": "200109", "deductibility": "1", "assets": 28395571, "income": 7352066, "revenue": 2490700}, {"ein": "133654270", "name": "CENTER FOR TRAINING JEWISH DAY SCHOOL TEACHERS INC", "city": "MONSEY", "state": "NY", "zip": "10952-2508", "ntee": "", "ruling": "199408", "deductibility": "1", "assets": 80742, "income": 40950, "revenue": 40950}, {"ein": "133697333", "name": "OBJECT RELATIONS INSTITUTE TRAINING FOUNDATION", "city": "FRESH MEADOWS", "state": "NY", "zip": "11366-1725", "ntee": "", "ruling": "199306", "deductibility": "1", "assets": 37472, "income": 126171, "revenue": 126171}, {"ein": "133705243", "name": "COMMON GROUND JOBS TRAINING CORP", "city": "NEW YORK", "state": "NY", "zip": "10018-6550", "ntee": "J200", "ruling": "199412", "deductibility": "1", "assets": 11266220, "income": 224738, "revenue": 0}, {"ein": "133753610", "name": "BROADWAY TRAINING CENTER OF WESTCHESTER INC", "city": "HASTINGS HDSN", "state": "NY", "zip": "10706-2223", "ntee": "B99Z", "ruling": "199403", "deductibility": "1", "assets": 1207213, "income": 752069, "revenue": 698001}, {"ein": "133801738", "name": "FU KAI CONTONEST OPERA TRAINING CENTER INC", "city": "NEW YORK", "state": "NY", "zip": "10013-5205", "ntee": "A65Z", "ruling": "199602", "deductibility": "1", "assets": 0, "income": 0, "revenue": 0}, {"ein": "133900715", "name": "LIUNA LOCAL 731 TRAINING FUND", "city": "ASTORIA", "state": "NY", "zip": "11106-1222", "ntee": "J22", "ruling": "199702", "deductibility": "1", "assets": 38521411, "income": 9418422, "revenue": 7462554}, {"ein": "133922732", "name": "STATEN ISLAND COMPANION DOG TRAINING CLUB INC", "city": "STATEN ISLAND", "state": "NY", "zip": "10307-1126", "ntee": "D61", "ruling": "199912", "deductibility": "2", "assets": 180368, "income": 240204, "revenue": 240204}, {"ein": "133946135", "name": "1199 SEIU LEAGUE HLTH CARE INDUSTRY RN TRAINING AND JOB SECURITY FUND", "city": "NEW YORK", "state": "NY", "zip": "10108-0840", "ntee": "Y43", "ruling": "200003", "deductibility": "2", "assets": 6410870, "income": 3283149, "revenue": 3283149}, {"ein": "134015617", "name": "PLUMBERS AND STEAMFITTERS LOCAL NO 21 EDUCATION AND TRAINING FUND", "city": "PEEKSKILL", "state": "NY", "zip": "10566-5604", "ntee": "B30", "ruling": "202101", "deductibility": "1", "assets": 2453494, "income": 3174661, "revenue": 1956916}, {"ein": "134140137", "name": "LOCAL USA 829 APPRENTICESHIP AND TRAINING FUND", "city": "NEW YORK", "state": "NY", "zip": "10018-5504", "ntee": "J22", "ruling": "200107", "deductibility": "1", "assets": 112188, "income": 185886, "revenue": 185886}, {"ein": "134165107", "name": "NEW YORK CITY EMPLOYMENT AND TRAINING COALITION INC", "city": "NEW YORK", "state": "NY", "zip": "10013-1510", "ntee": "J20", "ruling": "200107", "deductibility": "1", "assets": 0, "income": 0, "revenue": 0}, {"ein": "134195653", "name": "AFRICAN ORGANIZATION FOR RESEARCH AND TRAINING IN CANCER AORTIC INC", "city": "NEW YORK", "state": "NY", "zip": "10031-0633", "ntee": "H30", "ruling": "200203", "deductibility": "1", "assets": 0, "income": 0, "revenue": 0}, {"ein": "135596761", "name": "NATIONAL INSTITUTE FOR LAY TRAINING", "city": "NEW YORK", "state": "NY", "zip": "10011-4924", "ntee": "", "ruling": "194008", "deductibility": "1", "assets": 0, "income": 0, "revenue": 0}, {"ein": "135604788", "name": "SILVER BAY ASSOCIATION FOR CHRISTIAN CONFERENCE AND TRAINING", "city": "SILVER BAY", "state": "NY", "zip": "12874-1908", "ntee": "P27B", "ruling": "193808", "deductibility": "1", "assets": 46688189, "income": 16614599, "revenue": 11370034}, {"ein": "136132505", "name": "IBEW LOCAL UNION 363 JOINT APPRENTICE TRAINING FUND", "city": "HARRIMAN", "state": "NY", "zip": "10926-3100", "ntee": "J22I", "ruling": "197701", "deductibility": "1", "assets": 7551346, "income": 4538998, "revenue": 2026641}, {"ein": "136144019", "name": "INSTITUTE FOR PSYCHOANALYTIC TRAINING AND RESEARCH INC", "city": "NEW YORK", "state": "NY", "zip": "10128-3679", "ntee": "F00P", "ruling": "196507", "deductibility": "1", "assets": 973332, "income": 1499593, "revenue": 1499593}, {"ein": "136300270", "name": "HOTEL TRADES COUNCIL AND HOTEL INDUSTRY TRAINING FUND", "city": "NEW YORK", "state": "NY", "zip": "10036-5407", "ntee": "", "ruling": "197006", "deductibility": "1", "assets": 4090526, "income": 1205216, "revenue": 1205216}, {"ein": "136318522", "name": "OPERATING ENGINEERS LOCAL 14-14B TRAINING FUND", "city": "FLUSHING", "state": "NY", "zip": "11358-1655", "ntee": "J220", "ruling": "199203", "deductibility": "1", "assets": 12477111, "income": 3797554, "revenue": 2444357}, {"ein": "137237968", "name": "LOCAL 147 TRAINING FUND", "city": "BRONX", "state": "NY", "zip": "10470-1814", "ntee": "B60", "ruling": "200008", "deductibility": "1", "assets": 1446236, "income": 581157, "revenue": 199416}, {"ein": "141500495", "name": "IRONWORKERS TRAINING AND EDUCATION FUND", "city": "WALLKILL", "state": "NY", "zip": "12589-2708", "ntee": "B12", "ruling": "196807", "deductibility": "1", "assets": 2860092, "income": 577490, "revenue": 577490}, {"ein": "141556545", "name": "EASTERN NEW YORK LABORERS TRAINING CENTER INC", "city": "GLENMONT", "state": "NY", "zip": "12077-4010", "ntee": "B30", "ruling": "202409", "deductibility": "1", "assets": 4486307, "income": 2156960, "revenue": 2033598}, {"ein": "141609873", "name": "TRI CITY JOINT APPRENTICESHIP AND TRAINING COMMITTEE", "city": "LATHAM", "state": "NY", "zip": "12110-1569", "ntee": "", "ruling": "198112", "deductibility": "1", "assets": 2642675, "income": 1872318, "revenue": 1872318}, {"ein": "141645636", "name": "ROOFING INDUSTRY JOINT APPRENTICE & TRAINING COMMITTEE FOR NY ET AL", "city": "ROCHESTER", "state": "NY", "zip": "14623-2617", "ntee": "J22", "ruling": "202305", "deductibility": "1", "assets": 376531, "income": 256896, "revenue": 256896}, {"ein": "141701636", "name": "ADIRONDACK HIGH PEAKS DOG TRAINING CLUB", "city": "SARANAC LAKE", "state": "NY", "zip": "12983-0822", "ntee": "D61", "ruling": "201108", "deductibility": "2", "assets": 0, "income": 0, "revenue": 0}, {"ein": "141724142", "name": "SHEET METAL WORKERS LOCAL UNION 83 TRAINING SCHOOL INC", "city": "CLIFTON PARK", "state": "NY", "zip": "12065-1312", "ntee": "", "ruling": "199110", "deductibility": "2", "assets": 1512053, "income": 224640, "revenue": 224640}, {"ein": "141769085", "name": "NEW YORK LOGGER TRAINING INC", "city": "RENSSELAER", "state": "NY", "zip": "12144-8465", "ntee": "B99", "ruling": "199712", "deductibility": "1", "assets": 32008, "income": 63900, "revenue": 63900}, {"ein": "141791290", "name": "ZONE FIVE REGIONAL LAW ENFORCEMENT TRAINING CENTER INC", "city": "SCHENECTADY", "state": "NY", "zip": "12305-2202", "ntee": "B20", "ruling": "199612", "deductibility": "1", "assets": 866327, "income": 450720, "revenue": 450720}, {"ein": "150595908", "name": "ELECTRICAL JOINT APPRENTICE AND TRAINING COMMITTEE OF WATERTOWN NY", "city": "WATERTOWN", "state": "NY", "zip": "13601-2145", "ntee": "", "ruling": "196101", "deductibility": "1", "assets": 1455577, "income": 909527, "revenue": 667453}, {"ein": "160778849", "name": "NEW YORK STATE LINEMANS SAFETY TRAINING FUND", "city": "CICERO", "state": "NY", "zip": "13039-9465", "ntee": "J220", "ruling": "197902", "deductibility": "1", "assets": 43917413, "income": 30464089, "revenue": 13507972}, {"ein": "160977920", "name": "IRON WORKERS LOCAL 60 EDUCATION & TRAINING FUND", "city": "SYRACUSE", "state": "NY", "zip": "13204-2302", "ntee": "J40Z", "ruling": "198812", "deductibility": "1", "assets": 1037176, "income": 338476, "revenue": 269674}, {"ein": "161005993", "name": "BAC LOCAL 3 NY JOINT APPRENTICESHIP AND TRAINING COMMITTEE", "city": "ROCHESTER", "state": "NY", "zip": "14623-3131", "ntee": "", "ruling": "197512", "deductibility": "2", "assets": 2085919, "income": 1196445, "revenue": 1021932}, {"ein": "161019942", "name": "BUFFALO LABORERS TRAINING FUND", "city": "CHEEKTOWAGA", "state": "NY", "zip": "14227-2715", "ntee": "", "ruling": "198811", "deductibility": "1", "assets": 1050843, "income": 842567, "revenue": 842567}, {"ein": "161035162", "name": "ITHACA DOG TRAINING CLUB", "city": "ITHACA", "state": "NY", "zip": "14850-1056", "ntee": "", "ruling": "197110", "deductibility": "2", "assets": 55295, "income": 71357, "revenue": 71035}, {"ein": "161114221", "name": "CENTRAL NEW YORK DRESSAGE AND COMBINED TRAINING ASSOCIATION", "city": "MINOA", "state": "NY", "zip": "13116-1214", "ntee": "N69", "ruling": "200103", "deductibility": "1", "assets": 0, "income": 0, "revenue": 0}, {"ein": "161155693", "name": "DOG OBEDIENCE TRAINING CLUB OF ROCHESTER", "city": "AVON", "state": "NY", "zip": "14414-1112", "ntee": "D61", "ruling": "201109", "deductibility": "1", "assets": 43545, "income": 69885, "revenue": 69885}, {"ein": "161172173", "name": "IRONWORKERS LOCAL NO 6 JOINT APPRENTICE TRAINING & JOURNEYMAN", "city": "CHEEKTOWAGA", "state": "NY", "zip": "14227-1816", "ntee": "B30", "ruling": "200906", "deductibility": "1", "assets": 850457, "income": 361634, "revenue": 292083}, {"ein": "161182760", "name": "THE SYRACUSE OBEDIENCE TRAINING CLUB INC", "city": "SYRACUSE", "state": "NY", "zip": "13220-3457", "ntee": "", "ruling": "199103", "deductibility": "1", "assets": 1900991, "income": 776834, "revenue": 341370}, {"ein": "161193523", "name": "CAYUGA DRESSAGE AND COMBINED TRAINING INC", "city": "TRUMANSBURG", "state": "NY", "zip": "14886-9109", "ntee": "N69", "ruling": "200311", "deductibility": "1", "assets": 0, "income": 0, "revenue": 0}, {"ein": "161199782", "name": "ROOFERS LOCAL 195 JOINT APPRENTICESHIP TRAINING FUND", "city": "LIVERPOOL", "state": "NY", "zip": "13090-2513", "ntee": "J22I", "ruling": "198812", "deductibility": "1", "assets": 1731222, "income": 631188, "revenue": 631188}, {"ein": "161277705", "name": "LABORERS LOCAL NO 91 EDUCATIONAL AND TRAINING FUND", "city": "NIAGARA FALLS", "state": "NY", "zip": "14305-1386", "ntee": "B99", "ruling": "198606", "deductibility": "1", "assets": 1989033, "income": 552144, "revenue": 537112}, {"ein": "161282846", "name": "ROCHESTER LABORERS APPRENTICE AND TRAINING FUND", "city": "ROCHESTER", "state": "NY", "zip": "14613-1827", "ntee": "J22I", "ruling": "198710", "deductibility": "2", "assets": 5950378, "income": 2603013, "revenue": 1439854}, {"ein": "161292321", "name": "ADVANCED MANUFACTURING TRAINING CENTER INC", "city": "SIDNEY", "state": "NY", "zip": "13838-1715", "ntee": "", "ruling": "198802", "deductibility": "1", "assets": 0, "income": 0, "revenue": 0}, {"ein": "161399973", "name": "CALLAHAN MANAGEMENT TRAINING CENTER INC", "city": "SYRACUSE", "state": "NY", "zip": "13214-1974", "ntee": "", "ruling": "199112", "deductibility": "1", "assets": 1565771, "income": 2963676, "revenue": 2963676}, {"ein": "161411935", "name": "BUSINESS TRAINING INSTITUTE INC", "city": "UTICA", "state": "NY", "zip": "13502-4327", "ntee": "", "ruling": "199305", "deductibility": "1", "assets": 259434, "income": 1146341, "revenue": 1146341}, {"ein": "161600409", "name": "SAFETY AND HEALTH TRAINING CENTER INC", "city": "BUFFALO", "state": "NY", "zip": "14214-2152", "ntee": "E70", "ruling": "200103", "deductibility": "1", "assets": 30350, "income": 205339, "revenue": 205339}, {"ein": "166031488", "name": "CENTER FOR FINANCIAL TRAINING UPSTATE NEW YORK INC", "city": "SYRACUSE", "state": "NY", "zip": "13214-0032", "ntee": "J20Z", "ruling": "198111", "deductibility": "1", "assets": 0, "income": 0, "revenue": 0}, {"ein": "166051839", "name": "PLUMBERS & STEAMFITTERS LOCAL UNION 22 APPRENTICESHIP TRAINING TRUST", "city": "WEST SENECA", "state": "NY", "zip": "14224-1324", "ntee": "J22", "ruling": "196101", "deductibility": "2", "assets": 4529034, "income": 1845132, "revenue": 1845132}, {"ein": "166056237", "name": "IBEW 139 EDUCATIONAL & TRAINING TRUST FUND AGREEMENT", "city": "ELMIRA", "state": "NY", "zip": "14901-2618", "ntee": "", "ruling": "196512", "deductibility": "2", "assets": 2538050, "income": 1577118, "revenue": 577613}, {"ein": "166067509", "name": "ROCHESTER ELECTRICAL JOINT APPRENTICESHIP AND TRAINING TR", "city": "ROCHESTER", "state": "NY", "zip": "14623-2619", "ntee": "J220", "ruling": "199802", "deductibility": "1", "assets": 4203620, "income": 2416292, "revenue": 1959936}, {"ein": "166105880", "name": "SHEET METAL WORKERS UNION 58 EDUCATIONAL & APPRENTICE TRAINING", "city": "EAST SYRACUSE", "state": "NY", "zip": "13057-1006", "ntee": "", "ruling": "197002", "deductibility": "1", "assets": 472877, "income": 300381, "revenue": 300381}, {"ein": "166279211", "name": "CENTRAL NEW YORK LABORERS TRAINING FUND", "city": "E SYRACUSE", "state": "NY", "zip": "13057-9659", "ntee": "", "ruling": "198704", "deductibility": "1", "assets": 2248066, "income": 527195, "revenue": 514534}, {"ein": "166332350", "name": "UPSTATE NEW YORK LABORERS EDUCATION & TRAINING FUNDS TR", "city": "OSWEGO", "state": "NY", "zip": "13126-0434", "ntee": "J22Z", "ruling": "199011", "deductibility": "1", "assets": 1033263, "income": 565259, "revenue": 565259}, {"ein": "201365338", "name": "INSULATORS LOCAL 26 JOINT APPRENTICE TRAINING PLAN TRUST", "city": "ROCHESTER", "state": "NY", "zip": "14622-1552", "ntee": "J22", "ruling": "200506", "deductibility": "1", "assets": 134513, "income": 66650, "revenue": 66650}, {"ein": "202110306", "name": "NATIONAL DEFENDER TRAINING PROJECT INC", "city": "SARATOGA SPGS", "state": "NY", "zip": "12866-1028", "ntee": "B03", "ruling": "200508", "deductibility": "1", "assets": 0, "income": 3, "revenue": 3}, {"ein": "203945728", "name": "D & Y YOUTH APPRENTICESHIP TRAINING PROGRAM INC", "city": "BRONX", "state": "NY", "zip": "10466-6008", "ntee": "J22", "ruling": "201303", "deductibility": "1", "assets": 0, "income": 0, "revenue": 0}, {"ein": "204109489", "name": "FRED SINGER TRAINING SITECORPORATION", "city": "VESTAL", "state": "NY", "zip": "13850-1258", "ntee": "M23", "ruling": "200701", "deductibility": "1", "assets": 0, "income": 0, "revenue": 0}, {"ein": "204702026", "name": "NATIONAL INSTITUTE FOR HEALTHCAREEDUCATION & TRAINING", "city": "MANLIUS", "state": "NY", "zip": "13104-2371", "ntee": "B500", "ruling": "200611", "deductibility": "1", "assets": 4610, "income": 197193, "revenue": 197193}, {"ein": "205232706", "name": "JASON MORRIS ELITE JUDO TRAINING INC", "city": "GLENVILLE", "state": "NY", "zip": "12325-0505", "ntee": "N60", "ruling": "200801", "deductibility": "1", "assets": 15750, "income": 48330, "revenue": 48330}, {"ein": "205934240", "name": "AMERICAN GENERAL TRAINING INC", "city": "BROOKLYN", "state": "NY", "zip": "11214-3206", "ntee": "J22", "ruling": "200802", "deductibility": "1", "assets": 271698, "income": 594152, "revenue": 594152}, {"ein": "222188264", "name": "JOINT APPRENTICE AND TRAINING COMMITTEE OF THE ELEVATOR INDUSTRY", "city": "LONG ISLAND CITY", "state": "NY", "zip": "11106-1363", "ntee": "", "ruling": "197808", "deductibility": "2", "assets": 432674, "income": 967746, "revenue": 967746}, {"ein": "222199213", "name": "EASTERN NEW YORK DRESSAGE AND COMBINED TRAINING ASSOCIATION LTD", "city": "FEURA BUSH", "state": "NY", "zip": "12067-2700", "ntee": "P20", "ruling": "201004", "deductibility": "1", "assets": 0, "income": 0, "revenue": 0}, {"ein": "222387008", "name": "LABORERS LOCAL 17 EDUCATIONAL & TRAINING FUND", "city": "NEWBURGH", "state": "NY", "zip": "12550-5145", "ntee": "J22Z", "ruling": "198711", "deductibility": "1", "assets": 6706050, "income": 3077413, "revenue": 2614142}, {"ein": "222451787", "name": "FIRE TRAINING CENTER OF THE TOWN OF ONONDAGA INCORPORATED", "city": "SYRACUSE", "state": "NY", "zip": "13215-8778", "ntee": "M24", "ruling": "201908", "deductibility": "1", "assets": 286976, "income": 167181, "revenue": 167181}, {"ein": "222485445", "name": "INDIVIDUAL JOINT ROOFERS LOCAL 203 TRAINING COMMITTEE", "city": "BINGHAMTON", "state": "NY", "zip": "13901-2359", "ntee": "", "ruling": "198404", "deductibility": "2", "assets": 0, "income": 0, "revenue": 0}, {"ein": "222514036", "name": "IRONWORKERS LOCAL NUMBER 9 APPRENTICESHIP TRAINING PRGRM TR", "city": "NIAGARA FALLS", "state": "NY", "zip": "14303-0000", "ntee": "", "ruling": "199101", "deductibility": "2", "assets": 313877, "income": 190150, "revenue": 190150}, {"ein": "222549231", "name": "I U O E LOCAL 158 TRAINING FUND", "city": "CICERO", "state": "NY", "zip": "13039-9532", "ntee": "", "ruling": "198409", "deductibility": "1", "assets": 10290126, "income": 4947386, "revenue": 3572569}, {"ein": "223010593", "name": "NEW YORK ASSOCIATION OF TRAINING AND EMPLOYMENT PROFESSIONALS INC", "city": "ALBANY", "state": "NY", "zip": "12201-0648", "ntee": "", "ruling": "199203", "deductibility": "1", "assets": 656474, "income": 1213830, "revenue": 1213830}, {"ein": "223020054", "name": "ULSTER FIRE-RESCUE TRAINING CENTER ASSN INC", "city": "KINGSTON", "state": "NY", "zip": "12401-7329", "ntee": "M24", "ruling": "200008", "deductibility": "1", "assets": 0, "income": 0, "revenue": 0}, {"ein": "223053628", "name": "BELIEVERS FELLOWSHIP CTR CHRISTIAN ACADEMY & BIBLE TRAINING CTR INC", "city": "GLOVERSVILLE", "state": "NY", "zip": "12078-4501", "ntee": "", "ruling": "199310", "deductibility": "1", "assets": 0, "income": 0, "revenue": 0}, {"ein": "223101756", "name": "LABORERS LOCAL 621 TRAINING FUND", "city": "OLEAN", "state": "NY", "zip": "14760-1344", "ntee": "", "ruling": "199107", "deductibility": "2", "assets": 404588, "income": 383101, "revenue": 336085}, {"ein": "226452950", "name": "LABORERS LOCAL 785 TRAINING AND APPRENTICESHIP FUND", "city": "ITHACA", "state": "NY", "zip": "14850-3308", "ntee": "", "ruling": "199001", "deductibility": "1", "assets": 979562, "income": 233454, "revenue": 233454}, {"ein": "237060678", "name": "SCHENECTADY DOG TRAINING CLUB INC", "city": "SCHENECTADY", "state": "NY", "zip": "12302-6807", "ntee": "", "ruling": "197004", "deductibility": "2", "assets": 475582, "income": 120155, "revenue": 119462}, {"ein": "237063000", "name": "SHEET METAL CONTRACTORS & LOCAL 71 EDUCATIONAL & TRAINING FUND", "city": "BUFFALO", "state": "NY", "zip": "14215-2112", "ntee": "", "ruling": "197004", "deductibility": "2", "assets": 754652, "income": 352469, "revenue": 311818}, {"ein": "237087500", "name": "OPERATING ENGINEERS LOCAL 17 TRAINING FUND", "city": "LAKE VIEW", "state": "NY", "zip": "14085-9647", "ntee": "", "ruling": "197011", "deductibility": "1", "assets": 4379962, "income": 2091941, "revenue": 1858949}, {"ein": "237108214", "name": "EASTERN NEW YORK LABORERS 190 EMPLOYERS EDUCATION & TRAINING FUN", "city": "GLENMONT", "state": "NY", "zip": "12077-4010", "ntee": "", "ruling": "197201", "deductibility": "2", "assets": 4095010, "income": 1324254, "revenue": 1324254}, {"ein": "237121764", "name": "BRICKLAYERS & ALLIED CRAFTSMEN ALBANY NY TRAINING & EDUCATION FD", "city": "ALBANY", "state": "NY", "zip": "12203-4474", "ntee": "", "ruling": "197202", "deductibility": "2", "assets": 1002225, "income": 704388, "revenue": 510931}, {"ein": "237181663", "name": "JOINT APPRENTICESHIP & TRAINING COMMITTEE", "city": "JAMESTOWN", "state": "NY", "zip": "14701-9680", "ntee": "", "ruling": "197204", "deductibility": "1", "assets": 547307, "income": 228569, "revenue": 228569}, {"ein": "237232360", "name": "IRONWORKERS LOCAL 12 TRAINING & EDUCATION JOINT APPRENTICESHIP", "city": "LATHAM", "state": "NY", "zip": "12110-2203", "ntee": "B30", "ruling": "202004", "deductibility": "1", "assets": 1351780, "income": 434499, "revenue": 434499}, {"ein": "237257515", "name": "ITHACA ELECTRICAL JOINT APPRENTICESHIP TRAINING FUND LOCAL", "city": "ITHACA", "state": "NY", "zip": "14850-5124", "ntee": "B30", "ruling": "201302", "deductibility": "1", "assets": 1398162, "income": 549968, "revenue": 549968}, {"ein": "237263825", "name": "EAST NEW YORK LABORERS 157 EMPLOYERS EDUCATION AND TRAINING<F", "city": "SCHENECTADY", "state": "NY", "zip": "12306-2034", "ntee": "J22I", "ruling": "197202", "deductibility": "2", "assets": 2184492, "income": 972110, "revenue": 972110}, {"ein": "237278303", "name": "PLUMBERS & STEAMFITTERS LOCAL 7 APPRENTICE TRAINING FUND", "city": "LATHAM", "state": "NY", "zip": "12110-2605", "ntee": "J40Z", "ruling": "197310", "deductibility": "1", "assets": 2135717, "income": 1224541, "revenue": 1224541}, {"ein": "237400778", "name": "GESTALT CENTER FOR PSYCHOTHERAPY AND TRAINING", "city": "NEW YORK", "state": "NY", "zip": "10016-7919", "ntee": "F00B", "ruling": "197602", "deductibility": "1", "assets": 239025, "income": 387987, "revenue": 387788}, {"ein": "237424757", "name": "BUILDING SERVICE THOMAS SHORTMAN TRAINING SCHOLARSHIP AND", "city": "NEW YORK", "state": "NY", "zip": "10011-4677", "ntee": "J22", "ruling": "197501", "deductibility": "1", "assets": 24270877, "income": 24548434, "revenue": 22837187}, {"ein": "237448166", "name": "NIAGARA COUNTY ELECTRICAL JOINT APPRENTICESHIP TRAINING COMMITTEE", "city": "NIAGARA FALLS", "state": "NY", "zip": "14304-1987", "ntee": "J40Z", "ruling": "197505", "deductibility": "1", "assets": 1004896, "income": 477138, "revenue": 477138}, {"ein": "237450886", "name": "HUNTERSFIELD CHRISTIAN TRAINING CENTER INC", "city": "PRATTSVILLE", "state": "NY", "zip": "12468-7612", "ntee": "X20B", "ruling": "197505", "deductibility": "1", "assets": 1116103, "income": 741046, "revenue": 733882}, {"ein": "237456865", "name": "AMERICAN SOCIETY FOR TRAINING AND DEVELOPMENT", "city": "WATERFORD", "state": "NY", "zip": "12188-0000", "ntee": "", "ruling": "197709", "deductibility": "1", "assets": 0, "income": 0, "revenue": 0}, {"ein": "261241879", "name": "FOUNDATION TRAINING CENTER", "city": "AVOCA", "state": "NY", "zip": "14809-9422", "ntee": "X20", "ruling": "200811", "deductibility": "1", "assets": 0, "income": 0, "revenue": 0}, {"ein": "262646007", "name": "TRAINING FOR HEALTH EQUITY NETWORK INC", "city": "GARDEN CITY", "state": "NY", "zip": "11530-3017", "ntee": "Q30", "ruling": "200909", "deductibility": "1", "assets": 18105, "income": 166771, "revenue": 166771}, {"ein": "262717447", "name": "CROSS TRAINING FOOTBALL INC", "city": "BOWMANSVILLE", "state": "NY", "zip": "14026-0156", "ntee": "N65", "ruling": "200903", "deductibility": "1", "assets": 141485, "income": 287124, "revenue": 287124}, {"ein": "271908537", "name": "PERINTON JOINT TRAINING FACILITY INC", "city": "FAIRPORT", "state": "NY", "zip": "14450-9577", "ntee": "N40", "ruling": "201103", "deductibility": "1", "assets": 1106063, "income": 55409, "revenue": 55409}, {"ein": "271952078", "name": "IGBANS INSTITUTE OF VOCATIONAL TRAINING INC", "city": "LAURELTON", "state": "NY", "zip": "11413-1407", "ntee": "B40", "ruling": "202302", "deductibility": "1", "assets": 948096, "income": 0, "revenue": 0}, {"ein": "273157473", "name": "LOCAL 1010 APPRENTICESHIP SKILL IMPROVEMENT AND TRAINING FUND", "city": "WHITESTONE", "state": "NY", "zip": "11357-3000", "ntee": "J22", "ruling": "201204", "deductibility": "2", "assets": 12463567, "income": 12223635, "revenue": 3374193}, {"ein": "273263865", "name": "LIFE TRAINING INSTITUTE CHINA", "city": "CANANDAIGUA", "state": "NY", "zip": "14424-1163", "ntee": "X20", "ruling": "201105", "deductibility": "1", "assets": 0, "income": 0, "revenue": 0}, {"ein": "300433354", "name": "CENTER FOR VETERANS EDUCATIONAL TRAINING SERVICES INC", "city": "ALBANY", "state": "NY", "zip": "12205-3873", "ntee": "W30", "ruling": "200804", "deductibility": "1", "assets": 0, "income": 0, "revenue": 0}, {"ein": "311798408", "name": "CENTER FOR AUTOMOTIVE EDUCATION AND TRAINING INC", "city": "WHITESTONE", "state": "NY", "zip": "11357-3068", "ntee": "B28", "ruling": "200204", "deductibility": "1", "assets": 5008234, "income": 2803499, "revenue": 2379661}, {"ein": "320079340", "name": "TWU LOCAL 100-NYCTA TRAINING AND UPGRADING FUND", "city": "BROOKLYN", "state": "NY", "zip": "11201-3631", "ntee": "B99", "ruling": "200410", "deductibility": "1", "assets": 5991191, "income": 1371056, "revenue": 1371056}, {"ein": "320498855", "name": "CATEGORY SIX PESTICIDE TRAINING COMMITTEE INC", "city": "ITHACA", "state": "NY", "zip": "14852-4491", "ntee": "C60", "ruling": "201701", "deductibility": "1", "assets": 0, "income": 0, "revenue": 0}, {"ein": "332988547", "name": "WORKERS TRAINING PROJECT", "city": "BROOKLYN", "state": "NY", "zip": "11237-4986", "ntee": "J22", "ruling": "202507", "deductibility": "1", "assets": 0, "income": 0, "revenue": 0}, {"ein": "334442373", "name": "GLOBAL INSTITUTE OF PROTOCOL ETIQUETTE AND EDUCATIONAL TRAINING", "city": "GARDINER", "state": "NY", "zip": "12525-5531", "ntee": "B90", "ruling": "202506", "deductibility": "1", "assets": 0, "income": 0, "revenue": 0}, {"ein": "334817227", "name": "PURE EDGE PERFORMANCE TRAINING INC", "city": "PULASKI", "state": "NY", "zip": "13142-4419", "ntee": "N60", "ruling": "202506", "deductibility": "1", "assets": 0, "income": 0, "revenue": 0}, {"ein": "431953144", "name": "ST LAWRENCE COUNTY FIRE TRAINING FACILITY INC", "city": "CANTON", "state": "NY", "zip": "13617-1022", "ntee": "B90", "ruling": "200302", "deductibility": "1", "assets": 818183, "income": 62124, "revenue": 62124}, {"ein": "452487957", "name": "TRAINING EDUCATION AND TECHNOLOGY FUND OF LOCAL NO ONE IATSE", "city": "NEW YORK", "state": "NY", "zip": "10036-3845", "ntee": "B30", "ruling": "201111", "deductibility": "1", "assets": 2890352, "income": 865344, "revenue": 809803}, {"ein": "454203129", "name": "HOME HEALTH AIDE TRAINING INSTITUTE INC", "city": "WESTBURY", "state": "NY", "zip": "11590-2216", "ntee": "B60", "ruling": "202105", "deductibility": "1", "assets": 310254, "income": 742975, "revenue": 742975}, {"ein": "455499008", "name": "HOLY GROUP CHURCH AND SPIITUAL TRAINING CENTER", "city": "FLUSHING", "state": "NY", "zip": "11358-3127", "ntee": "X21", "ruling": "201209", "deductibility": "1", "assets": 0, "income": 0, "revenue": 0}, {"ein": "460778668", "name": "CENTER FOR HAVENING RESEARCH AND TRAINING INC", "city": "CAMBRIA HTS", "state": "NY", "zip": "11411-1810", "ntee": "F057", "ruling": "201402", "deductibility": "1", "assets": 40382, "income": 166116, "revenue": 166116}, {"ein": "463169525", "name": "SENTINEL VOCATIONAL APPRENTICE TRAINING INC", "city": "MOUNT VERNON", "state": "NY", "zip": "10550-3912", "ntee": "B30", "ruling": "202011", "deductibility": "1", "assets": 17269, "income": 15000, "revenue": 15000}, {"ein": "465438301", "name": "INTERNATIONAL ARBITRATION & MEDIATION TRAINING &ASSISTANCE INS", "city": "NEW YORK", "state": "NY", "zip": "10023-7407", "ntee": "B99", "ruling": "201609", "deductibility": "1", "assets": 0, "income": 0, "revenue": 0}, {"ein": "472884983", "name": "BAC LOCAL 7 TILE MARBLE AND TERRAZZO SKILLS TRAINING CORPORATI", "city": "LONG IS CITY", "state": "NY", "zip": "11101-4301", "ntee": "J40", "ruling": "201512", "deductibility": "2", "assets": 682530, "income": 68653, "revenue": 68653}, {"ein": "472984997", "name": "SOUTH ASIAN FUND FOR EDUCATION SCHOLARSHIP AND TRAINING INC", "city": "HOLLIS", "state": "NY", "zip": "11423-2025", "ntee": "R01", "ruling": "201809", "deductibility": "1", "assets": 75248, "income": 50902, "revenue": 50902}, {"ein": "473741686", "name": "DR M ROWLETT TRAINING FOUNDATION INC", "city": "ALBANY", "state": "NY", "zip": "12209-1901", "ntee": "J22", "ruling": "201507", "deductibility": "1", "assets": 0, "income": 0, "revenue": 0}, {"ein": "473830994", "name": "ROCHESTER CONSTRUCTION TRAINING CENTER", "city": "ROCHESTER", "state": "NY", "zip": "14624-1819", "ntee": "A25", "ruling": "201801", "deductibility": "1", "assets": 186034, "income": 321061, "revenue": 321061}, {"ein": "473946521", "name": "SOCIAL ENTERPRISE AND TRAINING CENTER", "city": "SCHENECTADY", "state": "NY", "zip": "12305-1707", "ntee": "B30", "ruling": "201703", "deductibility": "1", "assets": 3471947, "income": 2592331, "revenue": 2592331}, {"ein": "475000982", "name": "YOUNG ADULTS MANUFACTURER TRAINING EMPLOYMENT PROGRAM", "city": "ROCHESTER", "state": "NY", "zip": "14621-3235", "ntee": "J22", "ruling": "201608", "deductibility": "1", "assets": 1403026, "income": 1489569, "revenue": 1489569}, {"ein": "475322604", "name": "SPORT INDOOR TRAINING AND EDUCATIONAL CENTER", "city": "BOSTON", "state": "NY", "zip": "14025-9640", "ntee": "N30", "ruling": "201908", "deductibility": "1", "assets": 0, "income": 0, "revenue": 0}, {"ein": "510170643", "name": "NORTHEAST DISTRICT COUNCIL OF THE OPCMIA APPRENTICESHIP TRAINING FUN", "city": "BRONX", "state": "NY", "zip": "10461-2623", "ntee": "", "ruling": "197601", "deductibility": "2", "assets": 4825107, "income": 1802274, "revenue": 913512}, {"ein": "510222829", "name": "AMERICAN SOCIETY FOR TRAINING AND DEVELOPMENT", "city": "FAYETTEVILLE", "state": "NY", "zip": "13066-1905", "ntee": "", "ruling": "197709", "deductibility": "1", "assets": 0, "income": 0, "revenue": 0}, {"ein": "510222861", "name": "AMERICAN SOCIETY FOR TRAINING AND DEVELOPMENT", "city": "HAMBURG", "state": "NY", "zip": "14075-0888", "ntee": "", "ruling": "197709", "deductibility": "1", "assets": 0, "income": 0, "revenue": 0}, {"ein": "510222988", "name": "AMERICAN SOCIETY FOR TRAINING AND DEVELOPMENT", "city": "ROCHESTER", "state": "NY", "zip": "14623-3135", "ntee": "", "ruling": "197709", "deductibility": "1", "assets": 0, "income": 0, "revenue": 0}, {"ein": "510234093", "name": "PSYCHOANALYTIC TRAINING INSTITUTE O F THE CONTEMPORARY FREUDIAN SOCIET", "city": "BROOKLYN", "state": "NY", "zip": "11242-1114", "ntee": "", "ruling": "197704", "deductibility": "1", "assets": 135998, "income": 243080, "revenue": 243080}, {"ein": "522438047", "name": "NEW YORK INSTITUTE FOR PSYCHOTHEREPY TRAINING NYIPT", "city": "NEW YORK", "state": "NY", "zip": "10023-0000", "ntee": "I72", "ruling": "200412", "deductibility": "1", "assets": 11139, "income": 50822, "revenue": 50822}, {"ein": "550789221", "name": "CONSTRUCTION TRADES LICENSE TRAINING CORP", "city": "NEW YORK", "state": "NY", "zip": "10018-1716", "ntee": "S41", "ruling": "200305", "deductibility": "2", "assets": 103617, "income": 56400, "revenue": 56400}, {"ein": "550827028", "name": "SOUTHERN ADIRONDACK FIREARMS EDUCATION AND TRAINING INC", "city": "QUEENSBURY", "state": "NY", "zip": "12804-1139", "ntee": "B99", "ruling": "200403", "deductibility": "1", "assets": 0, "income": 0, "revenue": 0}, {"ein": "611735214", "name": "ELECTRICAL INDUSTRY APPRENTICE TRAINING PROGRAM", "city": "FLUSHING", "state": "NY", "zip": "11365-3085", "ntee": "J40", "ruling": "201512", "deductibility": "2", "assets": 44544642, "income": 36446366, "revenue": 11413766}, {"ein": "743240307", "name": "EMPIRE STATE LAW ENFORCEMENT TRAINING NETWORK", "city": "LEWIS", "state": "NY", "zip": "12950-0066", "ntee": "B03", "ruling": "202011", "deductibility": "1", "assets": 0, "income": 0, "revenue": 0}, {"ein": "800346030", "name": "TRAINING INDIVIDUALS MAKE BETTER ATTITUDES", "city": "BROOKLYN", "state": "NY", "zip": "11222-7597", "ntee": "J22", "ruling": "201304", "deductibility": "1", "assets": 0, "income": 0, "revenue": 0}, {"ein": "810998962", "name": "ADVANCED SECURITY TRAINING INSTITUTE INC", "city": "BROOKLYN", "state": "NY", "zip": "11230-6601", "ntee": "I20", "ruling": "201610", "deductibility": "1", "assets": 164408, "income": 315899, "revenue": 315899}, {"ein": "811023629", "name": "TRAINING THE NATIONALS INC", "city": "GREAT NECK", "state": "NY", "zip": "11020-1206", "ntee": "X20", "ruling": "201601", "deductibility": "1", "assets": 191007, "income": 222208, "revenue": 222208}, {"ein": "812381283", "name": "RESILIENCE EDUCATION TRAINING AND INNOVATION CENTER LIMITED", "city": "BROOKLYN", "state": "NY", "zip": "11231-1505", "ntee": "B99", "ruling": "201605", "deductibility": "1", "assets": 137090, "income": 611392, "revenue": 611392}, {"ein": "813739093", "name": "STUDENT MEDIA ARTS TRAINING INC", "city": "NEW YORK", "state": "NY", "zip": "10010-7903", "ntee": "O50", "ruling": "201609", "deductibility": "1", "assets": 0, "income": 0, "revenue": 0}, {"ein": "813915538", "name": "SAINT PAULS AUTISM RESEARCH & TRAINING ACADEMY", "city": "COLLEGE POINT", "state": "NY", "zip": "11356-1446", "ntee": "H84", "ruling": "201709", "deductibility": "1", "assets": 478034, "income": 1931271, "revenue": 1931271}, {"ein": "813933303", "name": "STAND WITH ME ASSISTANCE DOG TEAM TRAINING INC", "city": "BINGHAMTON", "state": "NY", "zip": "13903-5702", "ntee": "", "ruling": "201609", "deductibility": "1", "assets": 80315, "income": 106503, "revenue": 106503}, {"ein": "821613227", "name": "THE TEEN TRAINING AND EMPLOYMENT CENTER INC", "city": "BEACON", "state": "NY", "zip": "12508-2908", "ntee": "", "ruling": "201711", "deductibility": "1", "assets": 0, "income": 0, "revenue": 0}, {"ein": "822207684", "name": "PANAFRICAN CULTURAL AND TRAINING CENTER INC", "city": "STATEN ISLAND", "state": "NY", "zip": "10302-1553", "ntee": "A02", "ruling": "201802", "deductibility": "1", "assets": 0, "income": 0, "revenue": 0}, {"ein": "822602110", "name": "PUTNAM COUNTY REGIONAL TRAINING CENTER CORP", "city": "CARMEL", "state": "NY", "zip": "10512-1990", "ntee": "M99", "ruling": "201801", "deductibility": "1", "assets": 0, "income": 0, "revenue": 0}, {"ein": "823358162", "name": "CHARTER PHYSICAL TRAINING INC", "city": "BRONX", "state": "NY", "zip": "10451-5253", "ntee": "N02", "ruling": "202307", "deductibility": "1", "assets": 0, "income": 0, "revenue": 0}, {"ein": "823414172", "name": "ARMOURED ONE TRAINING INC", "city": "SYRACUSE", "state": "NY", "zip": "13206-2276", "ntee": "M40", "ruling": "201806", "deductibility": "1", "assets": 120181, "income": 235328, "revenue": 235328}, {"ein": "832359113", "name": "CONEY ISLAND TRAINING THE YOUTH OF NEW YORK INC", "city": "BROOKLYN", "state": "NY", "zip": "11224-1426", "ntee": "O53", "ruling": "201812", "deductibility": "1", "assets": 0, "income": 0, "revenue": 0}, {"ein": "832684445", "name": "GENESUS CONSTRUCTION TRAINING FOUNDATION INC", "city": "CORONA", "state": "NY", "zip": "11368-3504", "ntee": "P20", "ruling": "201902", "deductibility": "1", "assets": 0, "income": 0, "revenue": 0}, {"ein": "834289788", "name": "MERIT ALLIANCE CONSTRUCTION TRAINING INSTITUTE INC", "city": "EAST SYRACUSE", "state": "NY", "zip": "13057-9388", "ntee": "", "ruling": "201908", "deductibility": "1", "assets": 127143, "income": 123699, "revenue": 123699}, {"ein": "834397062", "name": "FAMILIES IN TRAINING INC", "city": "QUEENS VLG", "state": "NY", "zip": "11429-2412", "ntee": "O50", "ruling": "202304", "deductibility": "1", "assets": 0, "income": 0, "revenue": 0}, {"ein": "842427314", "name": "CORNERSTONE ONCOLOGY MASSAGE CLINICAL TRAINING RESEARCH AND DEV", "city": "NEW YORK", "state": "NY", "zip": "10025-4143", "ntee": "", "ruling": "202103", "deductibility": "1", "assets": 147340, "income": 63430, "revenue": 63430}, {"ein": "842867079", "name": "FARM TRAINING COLLECTIVE NYC INC", "city": "NEW YORK", "state": "NY", "zip": "10018-0000", "ntee": "B90", "ruling": "202005", "deductibility": "1", "assets": 756571, "income": 1351315, "revenue": 1351315}, {"ein": "843708071", "name": "GLENVILLE FIRE TRAINING FACILITY", "city": "GLENVILLE", "state": "NY", "zip": "12325-0863", "ntee": "M24", "ruling": "201912", "deductibility": "1", "assets": 0, "income": 0, "revenue": 0}, {"ein": "843876038", "name": "GOLISANO SKILLED TRADES TRAINING CENTER INC", "city": "VICTOR", "state": "NY", "zip": "14564-8906", "ntee": "J20", "ruling": "202003", "deductibility": "1", "assets": 63162, "income": 325000, "revenue": 325000}, {"ein": "844282620", "name": "IBI SEMPER TRAINING INC", "city": "NISKAYUNA", "state": "NY", "zip": "12309-1442", "ntee": "D60", "ruling": "202003", "deductibility": "1", "assets": 0, "income": 0, "revenue": 0}, {"ein": "852966029", "name": "REPRODUCTIVE HEALTH ACCESS TRAINING CENTER INC", "city": "NEW YORK", "state": "NY", "zip": "10017-4709", "ntee": "E40", "ruling": "202103", "deductibility": "1", "assets": 0, "income": 0, "revenue": 0}, {"ein": "862741754", "name": "IYAHO TRAINING CENTER OF NEW YORK", "city": "HEMPSTEAD", "state": "NY", "zip": "11550-3048", "ntee": "B30", "ruling": "202202", "deductibility": "1", "assets": 0, "income": 0, "revenue": 0}, {"ein": "863436489", "name": "NATIONAL OFFSHORE WIND TRAINING CENTER INC", "city": "HAUPPAUGE", "state": "NY", "zip": "11788-4244", "ntee": "B30", "ruling": "202403", "deductibility": "1", "assets": 2422572, "income": 3336891, "revenue": 3336891}, {"ein": "870911768", "name": "FUNDING ASPIRING CAREER TRAINING", "city": "MINEOLA", "state": "NY", "zip": "11501-2516", "ntee": "O50", "ruling": "202109", "deductibility": "1", "assets": 12004, "income": 7579, "revenue": 0}, {"ein": "871261996", "name": "TRADESMEN SAFETY TRAINING INC", "city": "N BELLMORE", "state": "NY", "zip": "11710-1603", "ntee": "I40", "ruling": "202109", "deductibility": "1", "assets": 0, "income": 0, "revenue": 0}, {"ein": "872052635", "name": "HEWISON AVIATION FLIGHT TRAINING SCHOLARSHIP FUND", "city": "COEYMANS HOLW", "state": "NY", "zip": "12046-2115", "ntee": "B82", "ruling": "202210", "deductibility": "1", "assets": 135900, "income": 0, "revenue": 0}, {"ein": "880979292", "name": "FOOD SERVICE EMPLOYERS & 100 UNION MEMBERS TRAINING & EDUCATION FUND", "city": "NEW YORK", "state": "NY", "zip": "10001-6708", "ntee": "", "ruling": "202302", "deductibility": "1", "assets": 0, "income": 0, "revenue": 0}, {"ein": "881623030", "name": "ACTION GURU TRAINING ACADEMY INC", "city": "NEW YORK", "state": "NY", "zip": "10023-9672", "ntee": "B28", "ruling": "202205", "deductibility": "1", "assets": 0, "income": 0, "revenue": 0}, {"ein": "882931854", "name": "GREENFORCE TRAINING INC", "city": "BUFFALO", "state": "NY", "zip": "14215-3148", "ntee": "J20", "ruling": "202302", "deductibility": "1", "assets": 0, "income": 0, "revenue": 0}, {"ein": "921587411", "name": "DOUS TACT SURVIVAL TRAINING MARTIAL SCI PROGRAM AND CADET CORPS INC", "city": "BRONX", "state": "NY", "zip": "10458-5712", "ntee": "T50", "ruling": "202308", "deductibility": "1", "assets": 0, "income": 0, "revenue": 0}, {"ein": "922402038", "name": "EDUCATION TRAINING CENTER", "city": "BUFFALO", "state": "NY", "zip": "14221-2655", "ntee": "F60", "ruling": "202303", "deductibility": "1", "assets": 0, "income": 0, "revenue": 0}, {"ein": "923543151", "name": "WOMENS TRAINING CENTER INC", "city": "FLUSHING", "state": "NY", "zip": "11358-4161", "ntee": "N99", "ruling": "202307", "deductibility": "1", "assets": 621, "income": 671, "revenue": 0}, {"ein": "926609629", "name": "TEAMSTERS LOCAL 317 TRAINING FUND", "city": "SYRACUSE", "state": "NY", "zip": "13204-1236", "ntee": "J22", "ruling": "202409", "deductibility": "1", "assets": 54322, "income": 0, "revenue": 0}, {"ein": "933208980", "name": "BRENTWOOD EXERCISE & SPORTS TRAINING INC", "city": "BAY SHORE", "state": "NY", "zip": "11706-2626", "ntee": "N62", "ruling": "202309", "deductibility": "1", "assets": 0, "income": 0, "revenue": 0}, {"ein": "934203715", "name": "PRIME VOCATIONAL TRAINING INSTITUTE INC", "city": "SELDEN", "state": "NY", "zip": "11784-3003", "ntee": "B30", "ruling": "202408", "deductibility": "1", "assets": 0, "income": 0, "revenue": 0}, {"ein": "934916482", "name": "ROCHESTER REGIONAL TRAINING CENTER INC", "city": "FAIRPORT", "state": "NY", "zip": "14450-1720", "ntee": "N60", "ruling": "202410", "deductibility": "1", "assets": 0, "income": 0, "revenue": 0}, {"ein": "943315170", "name": "FAITH AND LOVE BIBLE TRAINING CENTER", "city": "BROOKLYN", "state": "NY", "zip": "11208-4216", "ntee": "", "ruling": "197412", "deductibility": "0", "assets": 0, "income": 0, "revenue": 0}, {"ein": "991058259", "name": "JEWISH EMPOWERMENT TRAINING INC", "city": "NEW YORK", "state": "NY", "zip": "10017-1014", "ntee": "B90", "ruling": "202402", "deductibility": "1", "assets": 4378, "income": 18000, "revenue": 18000}, {"ein": "991298971", "name": "VANITY BEAUTY TRAINING CENTER INC", "city": "BROOKLYN", "state": "NY", "zip": "11210-4215", "ntee": "J20", "ruling": "202402", "deductibility": "1", "assets": 0, "income": 0, "revenue": 0}, {"ein": "991638367", "name": "FORENSIC TRAINING FOUNDATION INC", "city": "FISHERS ISLAND", "state": "NY", "zip": "06390-7889", "ntee": "B99", "ruling": "202404", "deductibility": "1", "assets": 0, "income": 0, "revenue": 0}, {"ein": "991830974", "name": "CANINE CONNECTIONS YOUTH TRAINING PROGRAM", "city": "ISLIP TERRACE", "state": "NY", "zip": "11752-1023", "ntee": "P30", "ruling": "202403", "deductibility": "1", "assets": 0, "income": 0, "revenue": 0}, {"ein": "992037942", "name": "UNITED BUSINESS DEVELOPMENT TRAINING CENTER CORP", "city": "NEW YORK", "state": "NY", "zip": "10034-3733", "ntee": "B02", "ruling": "202409", "deductibility": "1", "assets": 0, "income": 0, "revenue": 0}, {"ein": "992482075", "name": "CANNON FIRE SPORTS TRAINING", "city": "WATERVLIET", "state": "NY", "zip": "12189-1713", "ntee": "N20", "ruling": "202505", "deductibility": "1", "assets": 0, "income": 0, "revenue": 0}, {"ein": "995137079", "name": "BRAZILIAN ELITE ATHLETES TRAINING IN USA CORPORATION", "city": "NEW YORK", "state": "NY", "zip": "10016-2953", "ntee": "N71", "ruling": "202410", "deductibility": "1", "assets": 0, "income": 0, "revenue": 0}], "FRIEDBERG": [{"ein": "112002556", "name": "BARRY & FLORENCE FRIEDBERG JEWISH COMMUNITY CENTER", "city": "OCEANSIDE", "state": "NY", "zip": "11572-5815", "ntee": "X30", "ruling": "196308", "deductibility": "1", "assets": 7757068, "income": 14043094, "revenue": 14036459}, {"ein": "137154197", "name": "BARRY FRIEDBERG & CHARLOTTE MOSS FAM FOUNDATION", "city": "NEW YORK", "state": "NY", "zip": "10021-5011", "ntee": "T90", "ruling": "199912", "deductibility": "1", "assets": 4669200, "income": 1702800, "revenue": 0}, {"ein": "261373872", "name": "ERIC AND MARGARET FRIEDBERG FOUNDATION", "city": "NEW YORK", "state": "NY", "zip": "10128-0807", "ntee": "T20", "ruling": "200803", "deductibility": "1", "assets": 28109, "income": 75000, "revenue": 0}], "MINISTERS": [{"ein": "112393337", "name": "UNITED PENTECOSTAL MINISTERS COUNCIL INC C O FRANK A BAPTISTE", "city": "MT KISCO", "state": "NY", "zip": "10549-1710", "ntee": "", "ruling": "197709", "deductibility": "1", "assets": 0, "income": 0, "revenue": 0}, {"ein": "113161677", "name": "BAPTIST MINISTERS CONFERENCE OF QUEENS & VICINITY INC", "city": "QUEENS VLG", "state": "NY", "zip": "11428-1050", "ntee": "", "ruling": "199405", "deductibility": "1", "assets": 0, "income": 0, "revenue": 0}, {"ein": "131628182", "name": "MINISTERS AND MISSIONARIES BENEFIT BOARD OF THE AMERICAN BAPTIST CHUR", "city": "NEW YORK", "state": "NY", "zip": "10115-0002", "ntee": "", "ruling": "193411", "deductibility": "1", "assets": 0, "income": 0, "revenue": 0}, {"ein": "134111593", "name": "FATHERS HEART MINISTRIES NETWORK OF MINISTERS AND CHURCHES", "city": "NEW YORK", "state": "NY", "zip": "10009-4608", "ntee": "X212", "ruling": "200104", "deductibility": "1", "assets": 0, "income": 0, "revenue": 0}, {"ein": "137176917", "name": "PRESBYTERIAN MINISTERS TR", "city": "NEW YORK", "state": "NY", "zip": "10128-1316", "ntee": "X21", "ruling": "199902", "deductibility": "1", "assets": 0, "income": 0, "revenue": 0}, {"ein": "222392858", "name": "MINISTERS ELDERS AND DEACONS OF THE REFORMED PROTESTANT DUTCH CHURCH", "city": "GUILDRLND CTR", "state": "NY", "zip": "12085-0196", "ntee": "", "ruling": "000000", "deductibility": "1", "assets": 0, "income": 0, "revenue": 0}, {"ein": "262428003", "name": "ROCHESTER BAPTIST MINISTERS ALLIANCE", "city": "ROCHESTER", "state": "NY", "zip": "14621-4623", "ntee": "X20", "ruling": "201208", "deductibility": "1", "assets": 0, "income": 0, "revenue": 0}, {"ein": "471342550", "name": "INTERNATIONAL CONGRESS OF CHURCHES MINISTERS", "city": "BROOKLYN", "state": "NY", "zip": "11238-3113", "ntee": "X21", "ruling": "200612", "deductibility": "1", "assets": 0, "income": 0, "revenue": 0}, {"ein": "510217423", "name": "FULL GOSPEL FELLOWSHIP OF CHURCHES & MINISTERS INTL INC CALVARY GRACE", "city": "ROCHESTER", "state": "NY", "zip": "14611-3338", "ntee": "", "ruling": "196402", "deductibility": "1", "assets": 0, "income": 0, "revenue": 0}, {"ein": "800353359", "name": "MINISTERS ASSOCIATION AND PARTNERS LOCAL GLOBAL ALLIANCE", "city": "BRONX", "state": "NY", "zip": "10475-4502", "ntee": "P20", "ruling": "200912", "deductibility": "1", "assets": 0, "income": 0, "revenue": 0}, {"ein": "993830077", "name": "BAPTIST MINISTERS CONFERENCE OF WESTERN NEW YORK INC", "city": "LACKAWANNA", "state": "NY", "zip": "14218-1037", "ntee": "X20", "ruling": "202501", "deductibility": "1", "assets": 5786, "income": 25472, "revenue": 25472}], "EM": [{"ein": "112464372", "name": "CONGREGATION EM LEBINA", "city": "BKLYN", "state": "NY", "zip": "11204-1515", "ntee": "", "ruling": "197808", "deductibility": "1", "assets": 0, "income": 0, "revenue": 0}, {"ein": "113081200", "name": "KEREN EM LYISOMIM", "city": "BROOKLYN", "state": "NY", "zip": "11219-3550", "ntee": "", "ruling": "199201", "deductibility": "1", "assets": 0, "income": 0, "revenue": 0}, {"ein": "421542170", "name": "NEW CREATION EM", "city": "WOODSIDE", "state": "NY", "zip": "11377-2150", "ntee": "X20", "ruling": "200311", "deductibility": "1", "assets": 0, "income": 0, "revenue": 0}, {"ein": "474929327", "name": "EM ESS AAR INC", "city": "BROOKLYN", "state": "NY", "zip": "11223-1852", "ntee": "A20", "ruling": "202209", "deductibility": "1", "assets": 100, "income": 0, "revenue": 0}, {"ein": "510437003", "name": "EM KOL CHAI", "city": "BROOKLYN", "state": "NY", "zip": "11204-1017", "ntee": "X30", "ruling": "200310", "deductibility": "1", "assets": 0, "income": 0, "revenue": 0}, {"ein": "854127242", "name": "NEW EM BENEVOLENT ASSOCIATION INC", "city": "EAST MEADOW", "state": "NY", "zip": "11554-4550", "ntee": "Y41", "ruling": "202201", "deductibility": "2", "assets": 0, "income": 0, "revenue": 0}, {"ein": "871291571", "name": "SHOW EM BETTA ELITE", "city": "EAST ELMHURST", "state": "NY", "zip": "11369-1950", "ntee": "O50", "ruling": "202403", "deductibility": "1", "assets": 0, "income": 0, "revenue": 0}, {"ein": "881569482", "name": "EM ARTS & WELLNESS INC", "city": "BROOKLYN", "state": "NY", "zip": "11221-1608", "ntee": "A20", "ruling": "202209", "deductibility": "1", "assets": 0, "income": 0, "revenue": 0}], "RADIOLOGICAL": [{"ein": "112469427", "name": "LONG ISLAND RADIOLOGICAL SOCIETY INC", "city": "STONY BROOK", "state": "NY", "zip": "11794-0001", "ntee": "", "ruling": "197809", "deductibility": "2", "assets": 22928, "income": 26885, "revenue": 26885}, {"ein": "133492973", "name": "RADIOLOGICAL & MEDICAL PHYSICS SOCIETY OF N Y INC", "city": "REGO PARK", "state": "NY", "zip": "11374-0000", "ntee": "", "ruling": "199103", "deductibility": "2", "assets": 223562, "income": 52291, "revenue": 52291}, {"ein": "237031941", "name": "THE NEW YORK STATE RADIOLOGICAL SOCIETY INC", "city": "LOUDONVILLE", "state": "NY", "zip": "12211-0000", "ntee": "", "ruling": "196911", "deductibility": "2", "assets": 1232253, "income": 345533, "revenue": 345533}, {"ein": "844799770", "name": "NYS RADIOLOGICAL SOCIETY FOUNDATION", "city": "LOUDONVILLE", "state": "NY", "zip": "12211-0000", "ntee": "E12", "ruling": "202007", "deductibility": "1", "assets": 34159, "income": 6462, "revenue": 6462}], "BRESSLOV": [{"ein": "112516286", "name": "CONGREGATION CHASIDEI BRESSLOV JERUSALEM INC", "city": "BROOKLYN", "state": "NY", "zip": "11235-6812", "ntee": "", "ruling": "198001", "deductibility": "1", "assets": 0, "income": 0, "revenue": 0}], "KADESHIA": [{"ein": "112549681", "name": "KAHILA KADESHIA PARKOFSKI", "city": "BROOKLYN", "state": "NY", "zip": "11211-7911", "ntee": "", "ruling": "198102", "deductibility": "1", "assets": 0, "income": 0, "revenue": 0}], "PSYCHOANALYSIS": [{"ein": "112670802", "name": "ADELPHI SOCIETY FOR PSYCHOANALYSIS AND PSYCHOTHERAPY", "city": "GARDEN CITY", "state": "NY", "zip": "11530-7231", "ntee": "Y03", "ruling": "202402", "deductibility": "2", "assets": 0, "income": 0, "revenue": 0}, {"ein": "131624217", "name": "WILLIAM ALANSON WHITE INSTITUTE OF PSYCHIATRY PSYCHOANALYSIS AND PSYC", "city": "NEW YORK", "state": "NY", "zip": "10023-2401", "ntee": "Z99Z", "ruling": "194908", "deductibility": "1", "assets": 10335896, "income": 1599747, "revenue": 1599747}, {"ein": "131677399", "name": "ASSOCIATION FOR THE ADVANCEMENT OF PSYCHOANALYSIS INC", "city": "NEW YORK", "state": "NY", "zip": "10065-7769", "ntee": "F00B", "ruling": "195905", "deductibility": "1", "assets": 466988, "income": 70020, "revenue": 70020}, {"ein": "131679602", "name": "AMERICAN INSTITUTE FOR PSYCHOANALYSIS", "city": "NEW YORK", "state": "NY", "zip": "10065-7769", "ntee": "", "ruling": "194711", "deductibility": "1", "assets": 356110, "income": 126607, "revenue": 126607}, {"ein": "132881859", "name": "NATIONAL ASSOCIATION FOR THE ADVANCEMENT OF PSYCHOANALYSIS INC", "city": "NEW YORK", "state": "NY", "zip": "10019-4718", "ntee": "", "ruling": "197704", "deductibility": "2", "assets": 322340, "income": 184586, "revenue": 184586}, {"ein": "132911463", "name": "TRAINING INSTITUTE OF NATL PSYCHO LOGICAL ASSOC FOR PSYCHOANALYSIS", "city": "NEW YORK", "state": "NY", "zip": "10011-7940", "ntee": "", "ruling": "197808", "deductibility": "1", "assets": 1391734, "income": 630332, "revenue": 630332}, {"ein": "133049611", "name": "MANHATTAN INSTITUTE FOR PSYCHOANALYSIS", "city": "NEW YORK", "state": "NY", "zip": "10003-5641", "ntee": "F99P", "ruling": "198102", "deductibility": "1", "assets": 107389, "income": 263443, "revenue": 263443}, {"ein": "133988992", "name": "AMERICAN BOARD FOR ACCREDITATION IN PSYCHOANALYSIS INC", "city": "NEW YORK", "state": "NY", "zip": "10016-2555", "ntee": "B02", "ruling": "200103", "deductibility": "1", "assets": 85040, "income": 35692, "revenue": 35692}, {"ein": "135656340", "name": "NATIONAL PSYCHOLOGICAL ASSOCIATION FOR PSYCHOANALYSIS INC", "city": "NEW YORK", "state": "NY", "zip": "10011-7940", "ntee": "F00C", "ruling": "195302", "deductibility": "1", "assets": 5705430, "income": 196661, "revenue": 196661}, {"ein": "237196352", "name": "WILLIAM ALANSON WHITE INST OF PSYCH IATRY PSYCHOANALYSIS & PSYCHOLOGY", "city": "NEW YORK", "state": "NY", "zip": "10023-2401", "ntee": "B84Z", "ruling": "197209", "deductibility": "1", "assets": 170799, "income": 95212, "revenue": 95212}, {"ein": "237424192", "name": "WESTCHESTER CENTER FOR THE STUDY OF PSYCHOANALYSIS AND PSYCHOTHERAPY", "city": "LARCHMONT", "state": "NY", "zip": "10538-3050", "ntee": "F99Z", "ruling": "197602", "deductibility": "1", "assets": 495053, "income": 421152, "revenue": 421152}, {"ein": "521925325", "name": "ASSOCIATION FOR THE PSYCHOANALYSIS OF CULTURE AND SOCIETY INCORPORATE", "city": "PRT WASHINGTN", "state": "NY", "zip": "11050-2723", "ntee": "A23", "ruling": "199606", "deductibility": "1", "assets": 100936, "income": 21832, "revenue": 21832}, {"ein": "522281216", "name": "INTERNATIONAL ASSOCIATION FOR RELATIONAL PSYCHOANALYSIS AND", "city": "NEW YORK", "state": "NY", "zip": "10001-3224", "ntee": "F03", "ruling": "200211", "deductibility": "1", "assets": 762296, "income": 449665, "revenue": 449665}, {"ein": "842422992", "name": "CENTER FOR CHRISTIANITY AND PSYCHOANALYSIS", "city": "NEW YORK", "state": "NY", "zip": "10003-6745", "ntee": "B60", "ruling": "202003", "deductibility": "1", "assets": 0, "income": 0, "revenue": 0}, {"ein": "882707369", "name": "ASIAN AMERICAN CENTER FOR PSYCHOANALYSIS INC", "city": "BROOKLYN", "state": "NY", "zip": "11238-2268", "ntee": "B99", "ruling": "202302", "deductibility": "1", "assets": 27876, "income": 55736, "revenue": 55736}, {"ein": "921558499", "name": "FOUNDATION FOR THE ADVANCEMENT OF PSYCHOANALYSIS FOR THE PEOPLE INC", "city": "BROOKLYN", "state": "NY", "zip": "11201-5003", "ntee": "F30", "ruling": "202402", "deductibility": "1", "assets": 760366, "income": 252401, "revenue": 252401}, {"ein": "934894556", "name": "PULSION - THE INTERNATIONAL INSTITU TE OF PSYCHOANALYSIS AND PS", "city": "NEW YORK", "state": "NY", "zip": "10036-5464", "ntee": "B50", "ruling": "202504", "deductibility": "1", "assets": 0, "income": 0, "revenue": 0}], "TEHILAS": [{"ein": "112731438", "name": "CONGREGATION TEHILAS MOSHE OF PREMISLA", "city": "BROOKLYN", "state": "NY", "zip": "11210-3739", "ntee": "", "ruling": "198508", "deductibility": "1", "assets": 0, "income": 0, "revenue": 0}], "MOROS": [{"ein": "112744859", "name": "SEMINAR L MOROS BAIS YAAKOV B AMERICA", "city": "BROOKLYN", "state": "NY", "zip": "11219-1647", "ntee": "", "ruling": "198710", "deductibility": "1", "assets": 0, "income": 0, "revenue": 0}], "WATERFRONT": [{"ein": "112771371", "name": "BROOKLYN WATERFRONT ARTISTS COALITION INC", "city": "BROOKLYN", "state": "NY", "zip": "11231-1053", "ntee": "", "ruling": "198609", "deductibility": "1", "assets": 59966, "income": 186644, "revenue": 186644}, {"ein": "113240308", "name": "BAY RIDGE PARKS & WATERFRONT COUNCIL INC", "city": "BROOKLYN", "state": "NY", "zip": "11209-7742", "ntee": "C50", "ruling": "201501", "deductibility": "1", "assets": 0, "income": 0, "revenue": 0}, {"ein": "113569896", "name": "THE WATERFRONT MUSEUM", "city": "BROOKLYN", "state": "NY", "zip": "11231-1020", "ntee": "A54", "ruling": "200604", "deductibility": "1", "assets": 633755, "income": 176745, "revenue": 176745}, {"ein": "113783397", "name": "ROCKAWAY WATERFRONT ALLIANCE INC", "city": "FAR ROCKAWAY", "state": "NY", "zip": "11692-1801", "ntee": "C50", "ruling": "200703", "deductibility": "1", "assets": 3524309, "income": 1507571, "revenue": 1507571}, {"ein": "133798295", "name": "YONKERS DOWNTOWN WATERFRONT DEVELOPMENT CORPORATION", "city": "YONKERS", "state": "NY", "zip": "10701-3818", "ntee": "S31I", "ruling": "199707", "deductibility": "1", "assets": 267257, "income": 1074, "revenue": 0}, {"ein": "134229966", "name": "DRUMS ALONG THE WATERFRONT INC", "city": "COLLINS", "state": "NY", "zip": "14034-9798", "ntee": "A68", "ruling": "200404", "deductibility": "1", "assets": 0, "income": 0, "revenue": 0}, {"ein": "134355067", "name": "WATERFRONT ALLIANCE INC", "city": "NEW YORK", "state": "NY", "zip": "10018-7795", "ntee": "S20", "ruling": "200711", "deductibility": "1", "assets": 3044989, "income": 3559688, "revenue": 3485195}, {"ein": "141799220", "name": "AMSTERDAM WATERFRONT FOUNDATION INC", "city": "AMSTERDAM", "state": "NY", "zip": "12010-0636", "ntee": "A65", "ruling": "202502", "deductibility": "1", "assets": 0, "income": 0, "revenue": 0}, {"ein": "161388214", "name": "CORN HILL WATERFRONT & NAVIGATION FOUNDATION", "city": "ROCHESTER", "state": "NY", "zip": "14608-2707", "ntee": "", "ruling": "199305", "deductibility": "1", "assets": 780569, "income": 529116, "revenue": 529116}, {"ein": "161396236", "name": "WATERFRONT HEALTH CARE CENTER INC", "city": "BUFFALO", "state": "NY", "zip": "14210-1484", "ntee": "E910", "ruling": "199704", "deductibility": "1", "assets": 0, "income": 0, "revenue": 0}, {"ein": "203686339", "name": "HARLEM WATERFRONT COUNCIL INCORPORATED", "city": "NEW YORK", "state": "NY", "zip": "10031-0000", "ntee": "S30", "ruling": "200705", "deductibility": "1", "assets": 0, "income": 0, "revenue": 0}, {"ein": "204437085", "name": "NEW SUFFOLK WATERFRONT FUND INC", "city": "NEW SUFFOLK", "state": "NY", "zip": "11956-0146", "ntee": "C30", "ruling": "200609", "deductibility": "1", "assets": 3537482, "income": 401095, "revenue": 243350}, {"ein": "264814117", "name": "LONG BEACH WATERFRONT WARRIORS", "city": "LONG BEACH", "state": "NY", "zip": "11561-1723", "ntee": "P80", "ruling": "201008", "deductibility": "1", "assets": 42324, "income": 147909, "revenue": 147909}, {"ein": "300748329", "name": "FRIENDS OF THE DOBBS FERRY WATERFRONT PARK INC", "city": "DOBBS FERRY", "state": "NY", "zip": "10522-0543", "ntee": "N32", "ruling": "201301", "deductibility": "1", "assets": 0, "income": 0, "revenue": 0}, {"ein": "510611280", "name": "TROY WATERFRONT FARMERS MARKET INC", "city": "TROY", "state": "NY", "zip": "12181-1534", "ntee": "K990", "ruling": "200712", "deductibility": "2", "assets": 205654, "income": 352359, "revenue": 352359}, {"ein": "843520354", "name": "WATERFRONT FOUNDATION INC", "city": "JAMESTOWN", "state": "NY", "zip": "14701-6628", "ntee": "E11", "ruling": "202111", "deductibility": "1", "assets": 8219807, "income": 911213, "revenue": 911213}, {"ein": "882177013", "name": "EAST RIVER WATERFRONT PARKS ALLIANCE INC", "city": "NEW YORK", "state": "NY", "zip": "10009-5049", "ntee": "C99", "ruling": "202206", "deductibility": "1", "assets": 0, "income": 0, "revenue": 0}], "CHRISTWAY": [{"ein": "112866646", "name": "CHRISTWAY APOSTOLIC CHURCH NO 2 INC", "city": "BROOKLYN", "state": "NY", "zip": "11207-4711", "ntee": "", "ruling": "198703", "deductibility": "1", "assets": 0, "income": 0, "revenue": 0}, {"ein": "451006920", "name": "CHRISTWAY ROYAL FAMILY CHURCH", "city": "NEW YORK", "state": "NY", "zip": "10008-0073", "ntee": "X20", "ruling": "201501", "deductibility": "1", "assets": 0, "income": 0, "revenue": 0}], "PETS": [{"ein": "112975276", "name": "PETS ALIVE INC", "city": "MIDDLETOWN", "state": "NY", "zip": "10940-7294", "ntee": "D200", "ruling": "199008", "deductibility": "1", "assets": 5630539, "income": 2367374, "revenue": 1484162}, {"ein": "113126882", "name": "TEACHERS PETS CHILD CARE CENTER INC", "city": "WANTAGH", "state": "NY", "zip": "11793-1100", "ntee": "P33Z", "ruling": "199306", "deductibility": "1", "assets": 47288, "income": 940216, "revenue": 940216}, {"ein": "161543255", "name": "OPERATION PETS THE SPAY NEUTER CLINIC OF WESTERN NEW YORK INC", "city": "BUFFALO", "state": "NY", "zip": "14219-1059", "ntee": "D30", "ruling": "199901", "deductibility": "1", "assets": 1253427, "income": 1235902, "revenue": 1218420}, {"ein": "203536270", "name": "POSH PETS RESCUE INC", "city": "NEW YORK", "state": "NY", "zip": "10128-5547", "ntee": "N61", "ruling": "200704", "deductibility": "1", "assets": 169695, "income": 642688, "revenue": 642688}, {"ein": "204360404", "name": "PETS ALIVE WNY", "city": "N TONAWANDA", "state": "NY", "zip": "14120-9606", "ntee": "D20", "ruling": "202304", "deductibility": "1", "assets": 6102, "income": 75554, "revenue": 75554}, {"ein": "262720084", "name": "ROCHESTER HOPE FOR PETS", "city": "ROCHESTER", "state": "NY", "zip": "14618-4134", "ntee": "D122", "ruling": "200812", "deductibility": "1", "assets": 213264, "income": 177175, "revenue": 157141}, {"ein": "270998002", "name": "WILL SPAY PETS INC", "city": "MONTGOMERY", "state": "NY", "zip": "12549-0127", "ntee": "D20", "ruling": "201007", "deductibility": "1", "assets": 0, "income": 0, "revenue": 0}, {"ein": "271082210", "name": "PETS FOR PATRIOTS INC", "city": "LONG BEACH", "state": "NY", "zip": "11561-3521", "ntee": "D20", "ruling": "200911", "deductibility": "1", "assets": 558196, "income": 453615, "revenue": 395138}, {"ein": "273904634", "name": "THERA-PETS INC", "city": "PERU", "state": "NY", "zip": "12972-0319", "ntee": "D60", "ruling": "201203", "deductibility": "1", "assets": 0, "income": 0, "revenue": 0}, {"ein": "300946963", "name": "PETS STOP HERE INC", "city": "ROCHESTER", "state": "NY", "zip": "14612-2044", "ntee": "D99", "ruling": "201608", "deductibility": "1", "assets": 13103, "income": 75901, "revenue": 75901}, {"ein": "333147774", "name": "SHANXIN PETS RESCUE INC", "city": "FLUSHING", "state": "NY", "zip": "11358-3156", "ntee": "D99", "ruling": "202502", "deductibility": "1", "assets": 0, "income": 0, "revenue": 0}, {"ein": "352478873", "name": "PETS WITHOUT VETS", "city": "NEW YORK", "state": "NY", "zip": "10024-4343", "ntee": "D20", "ruling": "201409", "deductibility": "1", "assets": 0, "income": 0, "revenue": 0}, {"ein": "365066074", "name": "OPERATION HEALTHY PETS 4 CLYDE AND SAVANNAH INCORPORATED", "city": "SAVANNAH", "state": "NY", "zip": "13146-8700", "ntee": "D12", "ruling": "202311", "deductibility": "1", "assets": 0, "income": 0, "revenue": 0}, {"ein": "365113100", "name": "SAVE OUR PETS INC", "city": "STATEN ISLAND", "state": "NY", "zip": "10312-0212", "ntee": "D20", "ruling": "202408", "deductibility": "1", "assets": 0, "income": 0, "revenue": 0}, {"ein": "412061981", "name": "HOMES FOR ORPHANED PETS EXIST HOPE", "city": "SARATOGA SPRINGS", "state": "NY", "zip": "12866-0000", "ntee": "D20", "ruling": "200212", "deductibility": "1", "assets": 244975, "income": 151372, "revenue": 135449}, {"ein": "452431724", "name": "UNWANTED NYC PETS INC", "city": "WALDEN", "state": "NY", "zip": "12586-0000", "ntee": "D20", "ruling": "201110", "deductibility": "1", "assets": 11058, "income": 27053, "revenue": 27053}, {"ein": "463634821", "name": "PROTECT OUR PETS FOUNDATION", "city": "AUBURN", "state": "NY", "zip": "13021-8823", "ntee": "D20", "ruling": "201506", "deductibility": "1", "assets": 468, "income": 212, "revenue": 212}, {"ein": "474030180", "name": "PETS AFAR INC", "city": "ITHACA", "state": "NY", "zip": "14850-6258", "ntee": "D20", "ruling": "201603", "deductibility": "1", "assets": 0, "income": 0, "revenue": 0}, {"ein": "800233785", "name": "PETS ARE WONDERFUL SUPPORT INC", "city": "NEW YORK", "state": "NY", "zip": "10001-0157", "ntee": "D20", "ruling": "201210", "deductibility": "1", "assets": 889856, "income": 816026, "revenue": 760714}, {"ein": "812889969", "name": "LOST AND FOUND PETS STATEN ISLAND INC", "city": "STATEN ISLAND", "state": "NY", "zip": "10312-2312", "ntee": "D99", "ruling": "201606", "deductibility": "1", "assets": 0, "income": 0, "revenue": 0}, {"ein": "823495912", "name": "CARS 4 PETS ORGANIZATION CORP", "city": "MASPETH", "state": "NY", "zip": "11378-2224", "ntee": "D12", "ruling": "202105", "deductibility": "1", "assets": 0, "income": 0, "revenue": 0}, {"ein": "824042648", "name": "ALL ABOUT PETS RESCUE", "city": "TROUPSBURG", "state": "NY", "zip": "14885-9669", "ntee": "D20", "ruling": "201804", "deductibility": "1", "assets": 0, "income": 0, "revenue": 0}, {"ein": "824092669", "name": "PETS FOR REFUGEES INC", "city": "ROCHESTER", "state": "NY", "zip": "14617-2114", "ntee": "D60", "ruling": "201802", "deductibility": "1", "assets": 0, "income": 0, "revenue": 0}, {"ein": "831216293", "name": "MID-NORTHEAST ROTARY MULTI-DISTRICT PETS INC", "city": "COMMACK", "state": "NY", "zip": "11725-1730", "ntee": "B03", "ruling": "201902", "deductibility": "1", "assets": 67764, "income": 152065, "revenue": 152065}, {"ein": "852980494", "name": "FERAL PETS OF NYC", "city": "BRONX", "state": "NY", "zip": "10453-2929", "ntee": "D20", "ruling": "202403", "deductibility": "1", "assets": 0, "income": 0, "revenue": 0}, {"ein": "873067339", "name": "FAMILIES WITH PETS INC", "city": "NEW YORK", "state": "NY", "zip": "10034-2823", "ntee": "L41", "ruling": "202208", "deductibility": "1", "assets": 0, "income": 0, "revenue": 0}, {"ein": "922275762", "name": "GREENFIELD PETS INC", "city": "CORTLAND", "state": "NY", "zip": "13045-8851", "ntee": "D20", "ruling": "202303", "deductibility": "1", "assets": 0, "income": 0, "revenue": 0}, {"ein": "922320848", "name": "PETS SHOP RESCUE INC", "city": "BROOKLYN", "state": "NY", "zip": "11237-6478", "ntee": "D20", "ruling": "202303", "deductibility": "1", "assets": 250, "income": 385, "revenue": 385}, {"ein": "923858600", "name": "NOT JUST PETS", "city": "ELMONT", "state": "NY", "zip": "11003-1522", "ntee": "D99", "ruling": "202402", "deductibility": "1", "assets": 0, "income": 0, "revenue": 0}, {"ein": "932381422", "name": "OLIVERS FOUNDATION FOR THE HOMELESS PETS INC", "city": "NEW YORK", "state": "NY", "zip": "10002-5201", "ntee": "", "ruling": "202312", "deductibility": "1", "assets": 0, "income": 0, "revenue": 0}], "SUWALKER": [{"ein": "112996233", "name": "INDEPENDENT SUWALKER BENEVOLENT ASSN", "city": "NEW YORK", "state": "NY", "zip": "10023-3621", "ntee": "", "ruling": "199102", "deductibility": "1", "assets": 0, "income": 0, "revenue": 0}], "CHAVIE": [{"ein": "113014237", "name": "CHAVIE STERN FAMILY FOUNDATION INC", "city": "BROOKLYN", "state": "NY", "zip": "11219-3244", "ntee": "", "ruling": "199005", "deductibility": "1", "assets": 925784, "income": 416059, "revenue": 416059}, {"ein": "833032404", "name": "MOSHE AND CHAVIE FOUNDATION INC", "city": "BROOKLYN", "state": "NY", "zip": "11204-2932", "ntee": "", "ruling": "202008", "deductibility": "1", "assets": 2247, "income": 1, "revenue": 0}], "OLUTUNU": [{"ein": "113024002", "name": "OLUTUNU CHERUBIM AND SERAPHIM CHURCH MOVEMENT INC AYO NI O", "city": "BROOKLYN", "state": "NY", "zip": "11247-0894", "ntee": "", "ruling": "199403", "deductibility": "1", "assets": 0, "income": 0, "revenue": 0}], "BREAKWATER": [{"ein": "113055079", "name": "BREAKWATER SAILING CENTER INC", "city": "SAG HARBOR", "state": "NY", "zip": "11963-0118", "ntee": "", "ruling": "199309", "deductibility": "1", "assets": 470412, "income": 570766, "revenue": 570766}, {"ein": "161554955", "name": "BREAKWATER GALLERY", "city": "CAPE VINCENT", "state": "NY", "zip": "13618-0848", "ntee": "", "ruling": "199811", "deductibility": "2", "assets": 0, "income": 0, "revenue": 0}], "MEMON": [{"ein": "113159624", "name": "MEMON ASSOCIATION OF NORTH AMERICA INC", "city": "WILLISTON PARK", "state": "NY", "zip": "11596-0000", "ntee": "X40", "ruling": "199602", "deductibility": "1", "assets": 43952, "income": 66421, "revenue": 66421}, {"ein": "133762107", "name": "CUTCHI MEMON JAMAT OF NORTH AMERICA INC", "city": "NEW YORK", "state": "NY", "zip": "10001-1555", "ntee": "T30Z", "ruling": "199409", "deductibility": "1", "assets": 0, "income": 0, "revenue": 0}], "MAHANEH": [{"ein": "113210198", "name": "MAHANEH YEHUDAH INC", "city": "BROOKLYN", "state": "NY", "zip": "11233-0253", "ntee": "P21", "ruling": "200206", "deductibility": "1", "assets": 0, "income": 0, "revenue": 0}], "YASHREISH": [{"ein": "113221520", "name": "CONGREGATION G MACH YASHREISH YAKOV", "city": "BROOKLYN", "state": "NY", "zip": "11218-4418", "ntee": "", "ruling": "199409", "deductibility": "1", "assets": 0, "income": 0, "revenue": 0}], "FINKELSTEIN": [{"ein": "113271690", "name": "FINKELSTEIN FOUNDATION", "city": "BROOKLYN", "state": "NY", "zip": "11204-1094", "ntee": "T20J", "ruling": "199509", "deductibility": "1", "assets": 253982, "income": 54810, "revenue": 0}, {"ein": "113438221", "name": "FINKELSTEIN FAMILY FOUNDATION", "city": "JERICHO", "state": "NY", "zip": "11753-2008", "ntee": "T30", "ruling": "199904", "deductibility": "1", "assets": 380366, "income": 1733125, "revenue": 0}, {"ein": "134092400", "name": "HOWARD FINKELSTEIN FOUNDATION INC", "city": "WOODBURY", "state": "NY", "zip": "11797-0000", "ntee": "T22", "ruling": "200010", "deductibility": "1", "assets": 2928191, "income": 189237, "revenue": 0}, {"ein": "202083323", "name": "THE GERSON AND HELENE FINKELSTEIN BURN PATIENT FOUNDATION", "city": "FOREST HILLS", "state": "NY", "zip": "11375-4140", "ntee": "P20", "ruling": "200508", "deductibility": "1", "assets": 520380, "income": 20290, "revenue": 0}, {"ein": "421643540", "name": "FRIENDS OF THE FINKELSTEIN MEMORIAL LIBRARY", "city": "SPRING VALLEY", "state": "NY", "zip": "10977-5508", "ntee": "B117", "ruling": "200702", "deductibility": "1", "assets": 0, "income": 0, "revenue": 0}, {"ein": "476956313", "name": "HELENE GERSON AND JEROME FINKELSTEIN CHARITABLE TR", "city": "ARDSLEY", "state": "NY", "zip": "10502-1102", "ntee": "T22", "ruling": "201709", "deductibility": "1", "assets": 1545532, "income": 148527, "revenue": 0}], "MESHULEM": [{"ein": "113284904", "name": "YESHIVAS CHERNOBIL ATERES MESHULEM ZUSIA INC", "city": "BROOKLYN", "state": "NY", "zip": "11218-1906", "ntee": "X30Z", "ruling": "199701", "deductibility": "1", "assets": 0, "income": 0, "revenue": 0}, {"ein": "134057128", "name": "BNEI MESHULEM INC", "city": "MONSEY", "state": "NY", "zip": "10952-3000", "ntee": "X99", "ruling": "199908", "deductibility": "1", "assets": 0, "income": 0, "revenue": 0}, {"ein": "881109628", "name": "ZICHRON MESHULEM FEISH", "city": "PEARL RIVER", "state": "NY", "zip": "10965-1538", "ntee": "X30", "ruling": "202209", "deductibility": "1", "assets": 0, "income": 0, "revenue": 0}, {"ein": "990380344", "name": "YESHIVA GEDOLAH NER MESHULEM INC", "city": "BROOKLYN", "state": "NY", "zip": "11230-3058", "ntee": "X30", "ruling": "201306", "deductibility": "1", "assets": 0, "income": 0, "revenue": 0}], "77TH": [{"ein": "113463183", "name": "77TH PRECINCT COMMUNITY COUNCIL INC", "city": "BROOKLYN", "state": "NY", "zip": "11213-0000", "ntee": "M40", "ruling": "200209", "deductibility": "1", "assets": 90, "income": 7325, "revenue": 7325}, {"ein": "880897858", "name": "77TH PRECINCT UNITED CLERGY COUNCIL INC", "city": "BROOKLYN", "state": "NY", "zip": "11213-3911", "ntee": "W01", "ruling": "202207", "deductibility": "1", "assets": 0, "income": 0, "revenue": 0}], "UNDERWRITING": [{"ein": "113491419", "name": "METROPOLITAN UNDERWRITING DISCUSSION GROUP INC", "city": "KEW GARDENS", "state": "NY", "zip": "11415-0243", "ntee": "Y03", "ruling": "199912", "deductibility": "2", "assets": 102463, "income": 0, "revenue": 0}, {"ein": "823775525", "name": "TD SECURITIES UNDERWRITING HOPE FUND INC", "city": "NEW YORK", "state": "NY", "zip": "10017-3978", "ntee": "T30", "ruling": "201810", "deductibility": "1", "assets": 107710, "income": 938759, "revenue": 599267}], "SHECET": [{"ein": "116077719", "name": "RABBINICAL INSTITUTE SHEVET YEHUDA CONGREGATION SHECET YHUDAH", "city": "BROOKLYN", "state": "NY", "zip": "11219-3810", "ntee": "", "ruling": "196610", "deductibility": "1", "assets": 0, "income": 0, "revenue": 0}], "SOKOL": [{"ein": "130508060", "name": "BOHEMIAN GYMNASTIC ASSOCIATION SOKOL OF THE CITY OF NEW YORK", "city": "NEW YORK", "state": "NY", "zip": "10021-4827", "ntee": "", "ruling": "194612", "deductibility": "1", "assets": 2594664, "income": 365538, "revenue": 0}, {"ein": "136167240", "name": "SLOVAK GYMNASTIC UNION SOKOL OF THE USA NATIONAL HEADQUARTERS", "city": "SLEEPY HOLLOW", "state": "NY", "zip": "10591-2421", "ntee": "", "ruling": "197210", "deductibility": "2", "assets": 48670, "income": 35682, "revenue": 33266}, {"ein": "222442790", "name": "AMERICAN SOKOL ORGANIZATION AND EDUCATIONAL AND PHYSICAL CULTURE O", "city": "NEW YORK", "state": "NY", "zip": "10021-4827", "ntee": "", "ruling": "195303", "deductibility": "1", "assets": 0, "income": 0, "revenue": 0}, {"ein": "237523030", "name": "SLOVAK CATHOLIC SOKOL", "city": "BROOKLYN", "state": "NY", "zip": "11249-1908", "ntee": "", "ruling": "197209", "deductibility": "1", "assets": 0, "income": 0, "revenue": 0}, {"ein": "270305566", "name": "D A SOKOL INC", "city": "ASTORIA", "state": "NY", "zip": "11105-1803", "ntee": "N60", "ruling": "201006", "deductibility": "1", "assets": 189107, "income": 15766, "revenue": 15766}, {"ein": "832620010", "name": "BERNICE SOKOL FOUNDATION", "city": "NEW YORK", "state": "NY", "zip": "10022-2444", "ntee": "T50", "ruling": "201904", "deductibility": "1", "assets": 88618, "income": 3069, "revenue": 0}], "MACHINERY": [{"ein": "131921358", "name": "ASSOCIATION FOR COMPUTING MACHINERY INC", "city": "NEW YORK", "state": "NY", "zip": "10019-7434", "ntee": "U030", "ruling": "196805", "deductibility": "1", "assets": 264834596, "income": 124494984, "revenue": 88328249}, {"ein": "133546861", "name": "ASSOCIATION FOR COMPUTING MACHINERY", "city": "NEW YORK", "state": "NY", "zip": "10007-1044", "ntee": "", "ruling": "196805", "deductibility": "1", "assets": 0, "income": 0, "revenue": 0}, {"ein": "133638516", "name": "ASSOCIATION FOR COMPUTING MACHINERY", "city": "NEW YORK", "state": "NY", "zip": "10019-7434", "ntee": "", "ruling": "196805", "deductibility": "1", "assets": 1330044, "income": 856897, "revenue": 856897}, {"ein": "133773363", "name": "ASSOCIATION FOR COMPUTING MACHINERY", "city": "LOUDONVILLE", "state": "NY", "zip": "12211-1459", "ntee": "", "ruling": "196805", "deductibility": "1", "assets": 0, "income": 0, "revenue": 0}, {"ein": "141816951", "name": "NEVER SINK RONDOUT ANTIQUE MACHINERY ASSOCIATION", "city": "GRAHAMSVILLE", "state": "NY", "zip": "12740-0393", "ntee": "N52", "ruling": "201203", "deductibility": "1", "assets": 0, "income": 0, "revenue": 0}, {"ein": "222760179", "name": "ASSOCIATION FOR COMPUTING MACHINERY", "city": "POTSDAM", "state": "NY", "zip": "13699-0001", "ntee": "", "ruling": "196805", "deductibility": "1", "assets": 0, "income": 0, "revenue": 0}, {"ein": "223012901", "name": "ASSOCIATION FOR COMPUTING MACHINERY", "city": "POTSDAM", "state": "NY", "zip": "13676-2272", "ntee": "", "ruling": "196805", "deductibility": "1", "assets": 0, "income": 0, "revenue": 0}, {"ein": "223303259", "name": "ASSOCIATION FOR COMPUTING MACHINERY", "city": "ITHACA", "state": "NY", "zip": "14850-0000", "ntee": "", "ruling": "196805", "deductibility": "1", "assets": 0, "income": 0, "revenue": 0}, {"ein": "310973923", "name": "ASSOCIATION FOR COMPUTING MACHINERY", "city": "NEW YORK", "state": "NY", "zip": "10031-9101", "ntee": "", "ruling": "196805", "deductibility": "1", "assets": 0, "income": 0, "revenue": 0}, {"ein": "474557398", "name": "ASSOCIATION FOR COMPUTING MACHINERY", "city": "NEW YORK", "state": "NY", "zip": "10007-1044", "ntee": "", "ruling": "196805", "deductibility": "1", "assets": 0, "income": 0, "revenue": 0}, {"ein": "571195294", "name": "ASSOCIATION FOR COMPUTING MACHINERY", "city": "MORRISVILLE", "state": "NY", "zip": "13408-0000", "ntee": "", "ruling": "000000", "deductibility": "0", "assets": 0, "income": 0, "revenue": 0}, {"ein": "850692563", "name": "CATSKILL MOUNTAIN ANTIQUE ENGINE & MACHINERY CLUB INC", "city": "WALTON", "state": "NY", "zip": "13856-2259", "ntee": "N50", "ruling": "202007", "deductibility": "1", "assets": 0, "income": 0, "revenue": 0}, {"ein": "911839191", "name": "ASSOCIATION FOR COMPUTING MACHINERY", "city": "WAPPINGERS FL", "state": "NY", "zip": "12590-3009", "ntee": "", "ruling": "196805", "deductibility": "1", "assets": 0, "income": 0, "revenue": 0}, {"ein": "911841379", "name": "ASSOCIATION FOR COMPUTING MACHINERY", "city": "ALFRED", "state": "NY", "zip": "14802-0546", "ntee": "", "ruling": "196805", "deductibility": "1", "assets": 0, "income": 0, "revenue": 0}, {"ein": "911842722", "name": "ASSOCIATION FOR COMPUTING MACHINERY", "city": "NEW YORK", "state": "NY", "zip": "10012-1110", "ntee": "", "ruling": "196805", "deductibility": "1", "assets": 0, "income": 0, "revenue": 0}, {"ein": "911842733", "name": "ASSOCIATION FOR COMPUTING MACHINERY", "city": "NEW YORK", "state": "NY", "zip": "10027-6623", "ntee": "", "ruling": "196805", "deductibility": "1", "assets": 0, "income": 0, "revenue": 0}], "EPESCOPAL": [{"ein": "132878072", "name": "EL CENTRO EPESCOPAL HESPANO INC", "city": "WHITE PLAINS", "state": "NY", "zip": "10601-1902", "ntee": "", "ruling": "198002", "deductibility": "1", "assets": 0, "income": 0, "revenue": 0}], "KRISER": [{"ein": "132932531", "name": "DAVID B KRISER FOUNDATION INC", "city": "NEW YORK", "state": "NY", "zip": "10075-1721", "ntee": "", "ruling": "197804", "deductibility": "1", "assets": 6853687, "income": 8938403, "revenue": 0}], "DEUX": [{"ein": "133045287", "name": "REDUTA DEUX LTD", "city": "BRONX", "state": "NY", "zip": "10471-3728", "ntee": "A6A0", "ruling": "198001", "deductibility": "1", "assets": 0, "income": 0, "revenue": 0}], "LERRNER": [{"ein": "133067196", "name": "ITKA LERRNER BIKUR SHOLIM V CHESED INC", "city": "BROOKLYN", "state": "NY", "zip": "11218-3574", "ntee": "", "ruling": "198105", "deductibility": "1", "assets": 0, "income": 0, "revenue": 0}], "BIOENERGETIC": [{"ein": "133255134", "name": "NEW YORK SOCIETY FOR BIOENERGETIC", "city": "NEW YORK", "state": "NY", "zip": "10025-7020", "ntee": "S41", "ruling": "201401", "deductibility": "1", "assets": 0, "income": 0, "revenue": 0}], "PIBLY": [{"ein": "133396313", "name": "PIBLY RESIDENTIAL PROGRAMS INC", "city": "BRONX", "state": "NY", "zip": "10461-3538", "ntee": "", "ruling": "198704", "deductibility": "1", "assets": 29141061, "income": 34554068, "revenue": 29320116}], "LEFCOURT": [{"ein": "133499975", "name": "SACKLER LEFCOURT CENTER CHILD DEVELOPMENT INC", "city": "NEW YORK", "state": "NY", "zip": "10065-7204", "ntee": "", "ruling": "198804", "deductibility": "1", "assets": 524, "income": 1021, "revenue": 1021}], "TORO": [{"ein": "133510308", "name": "DUKOFF-TORO FOUNDATION", "city": "NEW YORK", "state": "NY", "zip": "10065-7409", "ntee": "", "ruling": "199007", "deductibility": "1", "assets": 4491, "income": 1, "revenue": 0}], "OSBORNE": [{"ein": "133517886", "name": "OSBORNE TREATMENT SERVICES INC", "city": "BROOKLYN", "state": "NY", "zip": "11201-4333", "ntee": "F22Z", "ruling": "199311", "deductibility": "1", "assets": 4276454, "income": 2140630, "revenue": 2140630}, {"ein": "135563028", "name": "OSBORNE ASSOCIATION INC", "city": "BROOKLYN", "state": "NY", "zip": "11201-4333", "ntee": "", "ruling": "193804", "deductibility": "1", "assets": 38010893, "income": 41025048, "revenue": 40786016}, {"ein": "136168306", "name": "THOMAS MOTT OSBORNE MEMORIAL FUND INC", "city": "BROOKLYN", "state": "NY", "zip": "11201-4333", "ntee": "", "ruling": "193503", "deductibility": "1", "assets": 46099738, "income": 2038457, "revenue": 2038457}, {"ein": "432083904", "name": "ALMA C OSBORNE LABOR SCHOLARSHIP AWARD", "city": "NEW YORK", "state": "NY", "zip": "10007-2233", "ntee": "B82", "ruling": "200807", "deductibility": "1", "assets": 0, "income": 0, "revenue": 0}, {"ein": "993924480", "name": "SHERIFF OSBORNE HERO FOUNDATION", "city": "ITHACA", "state": "NY", "zip": "14852-3785", "ntee": "S12", "ruling": "202409", "deductibility": "1", "assets": 0, "income": 0, "revenue": 0}, {"ein": "994428741", "name": "OSBORNE CENTER INCORPORATED", "city": "AUBURN", "state": "NY", "zip": "13021-4868", "ntee": "A20", "ruling": "202408", "deductibility": "1", "assets": 0, "income": 0, "revenue": 0}], "BARNABUS": [{"ein": "133622351", "name": "ST BARNABUS NURSING HOME INC", "city": "BRONX", "state": "NY", "zip": "10457-1663", "ntee": "E91Z", "ruling": "199109", "deductibility": "1", "assets": 932301, "income": 9110, "revenue": 9110}], "ELISHA": [{"ein": "133631872", "name": "ELISHA KENT KANE HISTORICAL SOCIETY", "city": "NEW YORK", "state": "NY", "zip": "10010-4102", "ntee": "A80", "ruling": "201410", "deductibility": "1", "assets": 0, "income": 0, "revenue": 0}], "MIDORI": [{"ein": "133682472", "name": "MIDORI FOUNDATION INC", "city": "NEW YORK", "state": "NY", "zip": "10001-2810", "ntee": "", "ruling": "199211", "deductibility": "1", "assets": 1437090, "income": 1918327, "revenue": 1881564}], "CONTROLLED": [{"ein": "133706959", "name": "COMMUNITY ASSISTED TENANT CONTROLLED HOUSING INC", "city": "NEW YORK", "state": "NY", "zip": "10013-1510", "ntee": "N51Z", "ruling": "199309", "deductibility": "1", "assets": 1439050, "income": 268627, "revenue": 268627}, {"ein": "521797480", "name": "CONTROLLED ENVIRONMENT TESTING ASSOCIATION", "city": "ALBANY", "state": "NY", "zip": "12203-5319", "ntee": "", "ruling": "199410", "deductibility": "2", "assets": 875137, "income": 723714, "revenue": 723714}], "HESUS": [{"ein": "133924264", "name": "HESUS FUND INC", "city": "NEW YORK", "state": "NY", "zip": "10012-2624", "ntee": "B82", "ruling": "202002", "deductibility": "1", "assets": 8996, "income": 5750, "revenue": 5750}], "UNFPA": [{"ein": "133996346", "name": "USA FOR UNFPA INC", "city": "NEW YORK", "state": "NY", "zip": "10158-0699", "ntee": "P80", "ruling": "199804", "deductibility": "1", "assets": 1681443, "income": 5912082, "revenue": 5721084}, {"ein": "522367876", "name": "FRIENDS OF AMERICANS FOR UNFPA INC", "city": "NEW YORK", "state": "NY", "zip": "10158-0699", "ntee": "T113", "ruling": "200209", "deductibility": "1", "assets": 47003, "income": 0, "revenue": 0}], "MALBISH": [{"ein": "134058900", "name": "MALBISH ZVI DKRULA", "city": "MONSEY", "state": "NY", "zip": "10952-3351", "ntee": "X30", "ruling": "199907", "deductibility": "1", "assets": 0, "income": 0, "revenue": 0}, {"ein": "383869433", "name": "MALBISH ARUMIM CORPORATION", "city": "BROOKLYN", "state": "NY", "zip": "11230-2201", "ntee": "P20", "ruling": "201408", "deductibility": "1", "assets": 0, "income": 0, "revenue": 0}], "CONCILIARES": [{"ein": "134063052", "name": "CONFRATERNIDAD DE LIDERES CONCILIARES INC", "city": "BRONX", "state": "NY", "zip": "10451-3403", "ntee": "", "ruling": "198510", "deductibility": "1", "assets": 0, "income": 0, "revenue": 0}], "GSUC": [{"ein": "134110220", "name": "GSUC CHILD DEVELOPMENT AND LEARNING CENTER INC", "city": "NEW YORK", "state": "NY", "zip": "10016-4309", "ntee": "P33", "ruling": "200010", "deductibility": "1", "assets": 380422, "income": 317785, "revenue": 317785}], "ENHANCED": [{"ein": "134201304", "name": "ENHANCED SECTION 8 OUTREACH PROGRAM", "city": "NEW ROCHELLE", "state": "NY", "zip": "10805-3426", "ntee": "L80", "ruling": "200310", "deductibility": "1", "assets": 25573, "income": 2, "revenue": 2}, {"ein": "871924832", "name": "ENHANCED SERVICES CENTER INC", "city": "BROOKLYN", "state": "NY", "zip": "11219-3823", "ntee": "X30", "ruling": "202202", "deductibility": "1", "assets": 0, "income": 0, "revenue": 0}], "PADRE": [{"ein": "134228604", "name": "SAINT PADRE PIO ROMAN CATHOLIC PARISH", "city": "OAKFIELD", "state": "NY", "zip": "14125-1037", "ntee": "", "ruling": "194603", "deductibility": "1", "assets": 0, "income": 0, "revenue": 0}, {"ein": "201244959", "name": "IGLESIA CRISTIANA CASA DE MI PADRE INC", "city": "BRONX", "state": "NY", "zip": "10471-0602", "ntee": "X21", "ruling": "201904", "deductibility": "1", "assets": 0, "income": 0, "revenue": 0}, {"ein": "204182608", "name": "ST PADRE PIO INSTITUTE OF ROCHESTERINC", "city": "ROCHESTER", "state": "NY", "zip": "14606-2110", "ntee": "X20", "ruling": "201405", "deductibility": "1", "assets": 2530178, "income": 101580, "revenue": 101580}, {"ein": "451074768", "name": "IGLESIA PENTECOSTAL JESUCRISTO EL CAMINO AL PADRE INC", "city": "NEW YORK", "state": "NY", "zip": "10032-6102", "ntee": "X21", "ruling": "201509", "deductibility": "1", "assets": 0, "income": 0, "revenue": 0}, {"ein": "562310185", "name": "PADRE HIJO Y ESPIRITU SANTO CHURCH", "city": "NEW YORK", "state": "NY", "zip": "10032-0502", "ntee": "X21", "ruling": "200308", "deductibility": "1", "assets": 0, "income": 0, "revenue": 0}, {"ein": "731718369", "name": "SAINT PADRE PIO SHELTER CORPORATION", "city": "BRONX", "state": "NY", "zip": "10455-1205", "ntee": "", "ruling": "194603", "deductibility": "1", "assets": 0, "income": 0, "revenue": 0}, {"ein": "743239633", "name": "SAINT PADRE PIO MIRACLE FOUNDATION INC", "city": "MASSAPEQUA", "state": "NY", "zip": "11758-6554", "ntee": "E86", "ruling": "200802", "deductibility": "1", "assets": 0, "income": 0, "revenue": 0}, {"ein": "853258243", "name": "COMUNINDAD MISIONERA PADRE FANTINO INC", "city": "NEW YORK", "state": "NY", "zip": "10031-1000", "ntee": "A23", "ruling": "202012", "deductibility": "1", "assets": 0, "income": 0, "revenue": 0}, {"ein": "881997829", "name": "SONS OF PADRE PIO INC", "city": "ROCHESTER", "state": "NY", "zip": "14608-1644", "ntee": "S20", "ruling": "202304", "deductibility": "1", "assets": 0, "income": 0, "revenue": 0}, {"ein": "920892700", "name": "PADRE PIO SHRINE OF LITTLE NECK NY CORP", "city": "WHITESTONE", "state": "NY", "zip": "11357-1345", "ntee": "X22", "ruling": "202302", "deductibility": "1", "assets": 785085, "income": 104085, "revenue": 0}], "SHOMRE": [{"ein": "135562271", "name": "KOLEL SHOMRE HACHOMOS OF JERUSALEM INC", "city": "BROOKLYN", "state": "NY", "zip": "11249-9210", "ntee": "Q330", "ruling": "193708", "deductibility": "1", "assets": 11905518, "income": 14259916, "revenue": 12656047}], "SHEVCHENKO": [{"ein": "135619660", "name": "SHEVCHENKO SCIENTIFIC SOCIETY INC", "city": "NEW YORK", "state": "NY", "zip": "10003-5202", "ntee": "U20C", "ruling": "195011", "deductibility": "1", "assets": 9351887, "income": 2261250, "revenue": 999302}], "ANALYTICAL": [{"ein": "136095660", "name": "ANALYTICAL PSYCHOLOGY CLUB OF NEW YORK INC", "city": "NEW YORK", "state": "NY", "zip": "10016-2555", "ntee": "", "ruling": "195001", "deductibility": "1", "assets": 1966909, "income": 83640, "revenue": 0}, {"ein": "136102804", "name": "C G JUNG FOUNDATION FOR ANALYTICAL PSYCHOLOGY INC", "city": "NEW YORK", "state": "NY", "zip": "10016-2555", "ntee": "B12", "ruling": "201812", "deductibility": "1", "assets": 2407330, "income": 550516, "revenue": 224869}, {"ein": "510200272", "name": "ANALYTICAL PSYCHOLOGY SOCIETY OF WESTERN NEW YORK INC", "city": "BUFFALO", "state": "NY", "zip": "14202-1671", "ntee": "", "ruling": "197609", "deductibility": "1", "assets": 39393, "income": 12791, "revenue": 12791}, {"ein": "510243845", "name": "NEW YORK ASSOCIATION FOR ANALYTICAL PSYCHOLOGY INC", "city": "NEW YORK", "state": "NY", "zip": "10016-2555", "ntee": "", "ruling": "196004", "deductibility": "1", "assets": 74241, "income": 21300, "revenue": 21300}], "CORTL": [{"ein": "136114242", "name": "AUXILIARY OF THE HUDSON VALLEY HOSPITAL CENTER AT PEEKSKILL-CORTL", "city": "CORTLANDT MNR", "state": "NY", "zip": "10567-4144", "ntee": "", "ruling": "196209", "deductibility": "1", "assets": 88856, "income": 110502, "revenue": 53494}], "SAMJO": [{"ein": "136147617", "name": "SAMJO ASSOCIATION INC", "city": "NEW YORK", "state": "NY", "zip": "10038-1073", "ntee": "", "ruling": "196903", "deductibility": "2", "assets": 22486, "income": 4052, "revenue": 4052}], "LIEBMANN": [{"ein": "136190605", "name": "HERMAN LIEBMANN FOUNDATION", "city": "NEW YORK", "state": "NY", "zip": "10025-6340", "ntee": "", "ruling": "196512", "deductibility": "1", "assets": 177767, "income": 52334, "revenue": 0}], "JANDON": [{"ein": "136199442", "name": "JANDON FOUNDATION", "city": "MOUNT KISCO", "state": "NY", "zip": "10549-4706", "ntee": "T20", "ruling": "196606", "deductibility": "1", "assets": 56039366, "income": 8443095, "revenue": 0}], "INTERIM": [{"ein": "136213586", "name": "REGIONAL AID FOR INTERIM NEEDS INC", "city": "BRONX", "state": "NY", "zip": "10462-3605", "ntee": "P81Z", "ruling": "196701", "deductibility": "1", "assets": 11944797, "income": 17940830, "revenue": 17836884}], "YUGNTRUF": [{"ein": "136272072", "name": "YUGNTRUF-YOUTH FOR YIDDISH INC", "city": "NEW YORK", "state": "NY", "zip": "10276-0596", "ntee": "", "ruling": "196801", "deductibility": "1", "assets": 126200, "income": 155812, "revenue": 155812}], "TAWISKAROU": [{"ein": "141501616", "name": "TAWISKAROU LOT OWNERS ASSOCIATION INC", "city": "CORINTH", "state": "NY", "zip": "12822-2901", "ntee": "L50", "ruling": "201411", "deductibility": "2", "assets": 0, "income": 0, "revenue": 0}], "COTTAGES": [{"ein": "141548418", "name": "SMOKEY COTTAGES ASSOCIATION", "city": "LAKE GEORGE", "state": "NY", "zip": "12845-6700", "ntee": "", "ruling": "197505", "deductibility": "2", "assets": 0, "income": 0, "revenue": 0}, {"ein": "260205709", "name": "SUNRISE COTTAGES INC", "city": "FLUSHING", "state": "NY", "zip": "11367-3141", "ntee": "N99", "ruling": "202410", "deductibility": "2", "assets": 5985, "income": 40166, "revenue": 40166}, {"ein": "471807433", "name": "SECOND WIND COTTAGES INC", "city": "NEWFIELD", "state": "NY", "zip": "14867-9345", "ntee": "L20", "ruling": "201502", "deductibility": "1", "assets": 1372048, "income": 319875, "revenue": 319875}, {"ein": "472153879", "name": "HARBOR COTTAGES INC", "city": "EAST HAMPTON", "state": "NY", "zip": "11937-6141", "ntee": "S47", "ruling": "201608", "deductibility": "2", "assets": 0, "income": 0, "revenue": 0}], "WENDYS": [{"ein": "141709512", "name": "WENDYS ALBANY ADI ASSOCIATION INC", "city": "FLORIDA", "state": "NY", "zip": "10921-0000", "ntee": "", "ruling": "199006", "deductibility": "2", "assets": 0, "income": 0, "revenue": 0}, {"ein": "813036151", "name": "WENDYS SUBWAY INC", "city": "BROOKLYN", "state": "NY", "zip": "11206-3713", "ntee": "A99", "ruling": "201607", "deductibility": "1", "assets": 66179, "income": 235887, "revenue": 235887}], "BH": [{"ein": "141777543", "name": "BH-BL BUSINESS & PROFESSIONAL ASSOCIATION INC", "city": "BALLSTON LAKE", "state": "NY", "zip": "12019-0043", "ntee": "S40", "ruling": "201810", "deductibility": "2", "assets": 0, "income": 0, "revenue": 0}, {"ein": "452364709", "name": "AMERICAN BH ISLAMIC CENTER OF UTICA INC", "city": "UTICA", "state": "NY", "zip": "13501-1549", "ntee": "X40", "ruling": "201308", "deductibility": "1", "assets": 0, "income": 0, "revenue": 0}, {"ein": "464286634", "name": "AMERICAN FRIENDS OF BH FOUNDATION INC", "city": "BROOKLYN", "state": "NY", "zip": "11219-4035", "ntee": "X30", "ruling": "201410", "deductibility": "1", "assets": 30437, "income": 121998, "revenue": 121998}, {"ein": "852166143", "name": "BH BRANDS CHARITY CORP", "city": "BROOKLYN", "state": "NY", "zip": "11204-2546", "ntee": "X30", "ruling": "202203", "deductibility": "1", "assets": 9665, "income": 125500, "revenue": 0}, {"ein": "872260707", "name": "BH-BL GIVING TREE FOUNDATION INC", "city": "BURNT HILLS", "state": "NY", "zip": "12019-0000", "ntee": "B99", "ruling": "202302", "deductibility": "1", "assets": 32431, "income": 56586, "revenue": 45271}], "SUPPORTE": [{"ein": "141784066", "name": "ASSOCIATION FOR PERSONS IN SUPPORTE D EMPLOYMENT", "city": "AMSTERDAM", "state": "NY", "zip": "12010-5635", "ntee": "", "ruling": "199308", "deductibility": "0", "assets": 0, "income": 0, "revenue": 0}], "DIEGO": [{"ein": "141964260", "name": "PARENT TEACHER ASSOCIATION OF P S 84 THE JOSE DE DIEGO SCHOOL INC", "city": "BROOKLYN", "state": "NY", "zip": "11249-4106", "ntee": "B94", "ruling": "201410", "deductibility": "1", "assets": 106743, "income": 151743, "revenue": 106743}, {"ein": "760709606", "name": "DIEGO BEEKMAN MUTUAL HOUSING ASSOC HOUSING DEVELOPMNT FUND CORP", "city": "BRONX", "state": "NY", "zip": "10454-2431", "ntee": "L20", "ruling": "200306", "deductibility": "1", "assets": 64668676, "income": 22015660, "revenue": 21928307}, {"ein": "822119139", "name": "DIEGO BEEKMAN LOCAL DEVELOPMENT CORPORATION", "city": "BRONX", "state": "NY", "zip": "10454-1500", "ntee": "T11", "ruling": "202005", "deductibility": "1", "assets": 1868453, "income": 68808, "revenue": -37578}, {"ein": "832054187", "name": "WORLDWIDE ALUMNI ASSOCIATION OF AUB SAN DIEGO CHAPTER", "city": "NEW YORK", "state": "NY", "zip": "10017-2322", "ntee": "B84", "ruling": "201903", "deductibility": "1", "assets": 0, "income": 0, "revenue": 0}], "NANTICOKE": [{"ein": "156017502", "name": "NANTICOKE VALLEY CEMETERY ASSOCIATION INC", "city": "ENDICOTT", "state": "NY", "zip": "13763-5659", "ntee": "Y50", "ruling": "201203", "deductibility": "1", "assets": 0, "income": 0, "revenue": 0}, {"ein": "237169492", "name": "NANTICOKE VALLEY HISTORICAL SOCIETY", "city": "MAINE", "state": "NY", "zip": "13802-0075", "ntee": "", "ruling": "197212", "deductibility": "1", "assets": 503787, "income": 251282, "revenue": 234362}, {"ein": "934105936", "name": "NANTICOKE CHRISTIAN CHURCH", "city": "LISLE", "state": "NY", "zip": "13797-0000", "ntee": "X20", "ruling": "202405", "deductibility": "1", "assets": 0, "income": 0, "revenue": 0}], "RELENDING": [{"ein": "161433308", "name": "REDEC RELENDING CORPORATION", "city": "PAINTED POST", "state": "NY", "zip": "14870-9153", "ntee": "S31Z", "ruling": "199306", "deductibility": "1", "assets": 1785787, "income": 357766, "revenue": 357766}], "EVEREST": [{"ein": "161570620", "name": "EVEREST FOUNDATION FOR FAMILY ENRICHMENT", "city": "AUBURN", "state": "NY", "zip": "13021-0833", "ntee": "P12", "ruling": "200001", "deductibility": "1", "assets": 7656139, "income": 1296893, "revenue": 1296893}, {"ein": "161570768", "name": "EVEREST ASSOCIATION FOR FAMILY ENRICHMENT INC", "city": "AUBURN", "state": "NY", "zip": "13021-0833", "ntee": "T110", "ruling": "200001", "deductibility": "1", "assets": 1444563, "income": 55707, "revenue": 55707}, {"ein": "812217691", "name": "EVEREST LEADERSHIP ACADEMY INC", "city": "CHAPPAQUA", "state": "NY", "zip": "10514-0587", "ntee": "B80", "ruling": "201605", "deductibility": "1", "assets": 112316, "income": 52459, "revenue": 52459}, {"ein": "834324097", "name": "EVEREST ENTERPRISERS INC", "city": "NEW YORK", "state": "NY", "zip": "10023-7868", "ntee": "S30", "ruling": "201905", "deductibility": "1", "assets": 0, "income": 0, "revenue": 0}], "WEARS": [{"ein": "161779228", "name": "YOUR MOTHER WEARS COMBAT BOOTS", "city": "DIX HILLS", "state": "NY", "zip": "11746-7806", "ntee": "T12", "ruling": "200708", "deductibility": "1", "assets": 0, "income": 0, "revenue": 0}], "KOZLOVA": [{"ein": "200350143", "name": "VALENTINA KOZLOVA DANCE FOUNDATION INC", "city": "NEW YORK CITY", "state": "NY", "zip": "10128-7810", "ntee": "A63", "ruling": "200403", "deductibility": "1", "assets": 37448, "income": 125373, "revenue": 125373}], "GEYER": [{"ein": "201716772", "name": "BURTON & PAULA GEYER FOUNDATION INC", "city": "POUND RIDGE", "state": "NY", "zip": "10576-0404", "ntee": "T20", "ruling": "200503", "deductibility": "1", "assets": 6102, "income": 295, "revenue": 0}], "SUBVERSIVE": [{"ein": "201839933", "name": "SUBVERSIVE THEATRE COLLECTIVE INC", "city": "ELMA", "state": "NY", "zip": "14059-9259", "ntee": "A20", "ruling": "200602", "deductibility": "1", "assets": 0, "income": 0, "revenue": 0}, {"ein": "833770376", "name": "SUBVERSIVE GARDENER INC", "city": "BROOKLYN", "state": "NY", "zip": "11206-3471", "ntee": "C42", "ruling": "201911", "deductibility": "1", "assets": 1603, "income": 0, "revenue": 0}], "ABG": [{"ein": "203978494", "name": "ABG CHESED FOUNDATION INC", "city": "BROOKLYN", "state": "NY", "zip": "11249-7804", "ntee": "T20", "ruling": "200605", "deductibility": "1", "assets": 1658618, "income": 91165, "revenue": 0}, {"ein": "813345844", "name": "ABG LIBERTY UNITED GRACE HOUSE OF PRAISE INC", "city": "JAMAICA", "state": "NY", "zip": "11434-5854", "ntee": "X20", "ruling": "201710", "deductibility": "1", "assets": 0, "income": 0, "revenue": 0}], "QUIET": [{"ein": "205830267", "name": "QUIET WATERS INC", "city": "NORTH COLLINS", "state": "NY", "zip": "14111-9742", "ntee": "X80", "ruling": "200710", "deductibility": "1", "assets": 0, "income": 0, "revenue": 0}, {"ein": "471481061", "name": "A QUIET PLACE INC", "city": "SMITHTOWN", "state": "NY", "zip": "11787-2811", "ntee": "X21", "ruling": "201807", "deductibility": "1", "assets": 0, "income": 0, "revenue": 0}, {"ein": "921360262", "name": "QUIET KINDNESS LLC", "city": "BROOKLYN", "state": "NY", "zip": "11207-7504", "ntee": "F01", "ruling": "202310", "deductibility": "1", "assets": 0, "income": 0, "revenue": 0}], "INDEGO": [{"ein": "205874831", "name": "INDEGO AFRICA PROJECT", "city": "NEW YORK", "state": "NY", "zip": "10018-6529", "ntee": "Q30", "ruling": "200706", "deductibility": "1", "assets": 232537, "income": 634251, "revenue": 502791}], "ELISA": [{"ein": "208111269", "name": "ELISA AND HOWARD MERMELSTEIN FOUNDATION", "city": "FLUSHING", "state": "NY", "zip": "11367-1938", "ntee": "T22", "ruling": "200706", "deductibility": "1", "assets": 2981943, "income": 486198, "revenue": 0}, {"ein": "271118111", "name": "ELISA LANERA FOUNDATION", "city": "AMAWALK", "state": "NY", "zip": "10501-1020", "ntee": "G81", "ruling": "201003", "deductibility": "1", "assets": 0, "income": 0, "revenue": 0}, {"ein": "473308084", "name": "ELISA G LIAKARIS FOUNDATION INC", "city": "ASTORIA", "state": "NY", "zip": "11105-1024", "ntee": "T12", "ruling": "201510", "deductibility": "1", "assets": 0, "income": 0, "revenue": 0}, {"ein": "820689828", "name": "ELISA B HUGHEY SCHOLARSHIP FOR THE ARTS", "city": "ELLICOTTVILLE", "state": "NY", "zip": "14731-1735", "ntee": "B82", "ruling": "201804", "deductibility": "1", "assets": 0, "income": 0, "revenue": 0}], "FESTIVALINC": [{"ein": "208357793", "name": "FINGER LAKES CHAMBER MUSIC FESTIVALINC", "city": "PENN YAN", "state": "NY", "zip": "14527-0605", "ntee": "A68", "ruling": "200704", "deductibility": "1", "assets": 36496, "income": 13422, "revenue": 13422}], "APPA": [{"ein": "222551363", "name": "APPA-ASSOCIATION OF HIGHER EDUCATION FACILITIES OFFICERS", "city": "MODENA", "state": "NY", "zip": "12548-0630", "ntee": "S41Z", "ruling": "197703", "deductibility": "1", "assets": 204141, "income": 58635, "revenue": 58635}], "BORHAANEYAH": [{"ein": "222808261", "name": "AL TAREEQAH AL BORHAANEYAH AL DESOOQEYAH ALSHAATHOLEYAH INC", "city": "ALBANY", "state": "NY", "zip": "12203-0845", "ntee": "", "ruling": "198801", "deductibility": "1", "assets": 0, "income": 0, "revenue": 0}], "VLADIMIR": [{"ein": "223458181", "name": "VLADIMIR NABOKOV LITERARY FOUNDATION INC", "city": "NEW YORK", "state": "NY", "zip": "10107-2199", "ntee": "T90Z", "ruling": "199806", "deductibility": "1", "assets": 5822426, "income": 1094625, "revenue": 0}, {"ein": "263471762", "name": "VLADIMIR NIELSEN FOUNDATION INC", "city": "SOUTHAMPTON", "state": "NY", "zip": "11969-2411", "ntee": "A68", "ruling": "201107", "deductibility": "1", "assets": 0, "income": 0, "revenue": 0}, {"ein": "431926832", "name": "INTERNATIONAL VLADIMIR NABOKOV SOCIETY", "city": "RED HOOK", "state": "NY", "zip": "12571-0354", "ntee": "A33", "ruling": "201210", "deductibility": "1", "assets": 0, "income": 0, "revenue": 0}, {"ein": "462586196", "name": "VLADIMIR AND HAEWON FELTSMAN PIANO FOUNDATION LTD", "city": "NEW PALTZ", "state": "NY", "zip": "12561-3800", "ntee": "A68", "ruling": "201907", "deductibility": "1", "assets": 993380, "income": 610403, "revenue": 272893}, {"ein": "472452520", "name": "THE PRINCE VLADIMIR YOUTH ASSOCIATION INC", "city": "NEW YORK", "state": "NY", "zip": "10128-1331", "ntee": "O55", "ruling": "201601", "deductibility": "1", "assets": 0, "income": 0, "revenue": 0}], "ELIZ": [{"ein": "236626269", "name": "ELIZABETH ADAMS TR FUND E ST IN THE WILL OF ELIZ ADAMS DECD", "city": "BUFFALO", "state": "NY", "zip": "14240-1504", "ntee": "", "ruling": "197902", "deductibility": "1", "assets": 1584394, "income": 490453, "revenue": 0}], "BABTKIS": [{"ein": "237029237", "name": "BABTKIS FOUNDATION", "city": "NORTHPORT", "state": "NY", "zip": "11768-1132", "ntee": "", "ruling": "196908", "deductibility": "1", "assets": 256753, "income": 9861, "revenue": 0}], "MEEK": [{"ein": "237044634", "name": "CHURCH OF THE MEEK", "city": "NEW YORK", "state": "NY", "zip": "10030-1409", "ntee": "", "ruling": "196912", "deductibility": "1", "assets": 0, "income": 0, "revenue": 0}], "VERNI": [{"ein": "260076179", "name": "VERNI FOUNDATION INC", "city": "MAMARONECK", "state": "NY", "zip": "10543-2245", "ntee": "T22", "ruling": "200504", "deductibility": "1", "assets": 205337, "income": 9581, "revenue": 0}], "HEUREUSE": [{"ein": "260364816", "name": "CLAIRE HEUREUSE COMMUNITY CENTER INC", "city": "JAMAICA", "state": "NY", "zip": "11433-3816", "ntee": "S21", "ruling": "200801", "deductibility": "1", "assets": 258881, "income": 1929318, "revenue": 1929318}], "GINZEI": [{"ein": "261468077", "name": "GINZEI HAMELECH FOUNDATION", "city": "BROOKLYN", "state": "NY", "zip": "11219-0000", "ntee": "T20", "ruling": "201103", "deductibility": "1", "assets": 101814, "income": 28314, "revenue": 0}, {"ein": "852990482", "name": "CONGREGATION GINZEI YOSEF KALISH", "city": "BROOKLYN", "state": "NY", "zip": "11229-2803", "ntee": "X30", "ruling": "202211", "deductibility": "1", "assets": 0, "income": 0, "revenue": 0}], "CORPOATION": [{"ein": "263539324", "name": "PASSAGE TO EXCELLENCE CORPOATION", "city": "WHITE PLAINS", "state": "NY", "zip": "10601-4119", "ntee": "P20", "ruling": "200904", "deductibility": "1", "assets": 0, "income": 0, "revenue": 0}], "WILHELM": [{"ein": "263865378", "name": "JASON CHRISTOPHER WILHELM SCHOLARSHIP FUND", "city": "WILTON", "state": "NY", "zip": "12831-2524", "ntee": "B82", "ruling": "201009", "deductibility": "1", "assets": 0, "income": 0, "revenue": 0}], "MIAGAOWANONS": [{"ein": "263879237", "name": "MIAGAOWANONS ASSOCIATION OF PHILIPPINES IN THE EAST COAST USA", "city": "QUEENS VLG", "state": "NY", "zip": "11428-1214", "ntee": "S99", "ruling": "201406", "deductibility": "1", "assets": 8143, "income": 240, "revenue": 0}], "FUNDAMENTOS": [{"ein": "270900638", "name": "FUNDAMENTOS DE LA FE ASAMBLEAS DE DIOS", "city": "SYRACUSE", "state": "NY", "zip": "13203-1010", "ntee": "", "ruling": "196408", "deductibility": "1", "assets": 0, "income": 0, "revenue": 0}], "DANE": [{"ein": "271707181", "name": "JARED DANE SCOTTO FOUNDATION INC", "city": "STATEN ISLAND", "state": "NY", "zip": "10312-1907", "ntee": "T30", "ruling": "201010", "deductibility": "1", "assets": 12356, "income": 600, "revenue": 600}], "RIDGELY": [{"ein": "272233047", "name": "VIVEKANANDA RETREAT RIDGELY", "city": "STONE RIDGE", "state": "NY", "zip": "12484-5113", "ntee": "X70", "ruling": "201007", "deductibility": "1", "assets": 983082, "income": 167290, "revenue": 167013}], "MCFADDEN": [{"ein": "274519158", "name": "TONY MCFADDEN JR II FOUNDATION INC", "city": "WEST BABYLON", "state": "NY", "zip": "11704-4235", "ntee": "P99", "ruling": "201507", "deductibility": "1", "assets": 0, "income": 0, "revenue": 0}], "MEANY": [{"ein": "300834285", "name": "GEORGE MEANY BOULEVARD REAL ESTATE COMPANY INC", "city": "LONG IS CITY", "state": "NY", "zip": "11101-6164", "ntee": "Y11", "ruling": "201502", "deductibility": "2", "assets": 1535822, "income": 205001, "revenue": 205001}], "ARCHAEOLOGISTS": [{"ein": "311706559", "name": "PROFESSIONAL ARCHAEOLOGISTS OF NEW YORK CITY INC", "city": "NEW YORK", "state": "NY", "zip": "10016-8012", "ntee": "A50", "ruling": "200007", "deductibility": "1", "assets": 0, "income": 0, "revenue": 0}], "VISHWA": [{"ein": "330240163", "name": "VISHWA NIRMALA DHARMA", "city": "FORT PLAIN", "state": "NY", "zip": "13339-4527", "ntee": "", "ruling": "199407", "deductibility": "1", "assets": 7089635, "income": 1886637, "revenue": 1860549}, {"ein": "830420464", "name": "AKHIL VISHWA HINDI SAMITI", "city": "FOREST HILLS", "state": "NY", "zip": "11375-2950", "ntee": "A23", "ruling": "201502", "deductibility": "1", "assets": 0, "income": 0, "revenue": 0}], "TALLAWAH": [{"ein": "331293824", "name": "TALLAWAH ARTS AND WELLNESS INC", "city": "VALATIE", "state": "NY", "zip": "12184-5024", "ntee": "A99", "ruling": "202501", "deductibility": "1", "assets": 0, "income": 0, "revenue": 0}], "149TH": [{"ein": "333195417", "name": "149TH SOUTH OZONE PARK CIVIC ASSOCIATION INC", "city": "JAMAICA", "state": "NY", "zip": "11436-1827", "ntee": "S20", "ruling": "202503", "deductibility": "1", "assets": 0, "income": 0, "revenue": 0}, {"ein": "770678138", "name": "FRIENDS AND NEIGHBORS OF 149TH STREET INC", "city": "NEW YORK", "state": "NY", "zip": "10031-3509", "ntee": "S22", "ruling": "201301", "deductibility": "2", "assets": 0, "income": 0, "revenue": 0}], "JAHANARA": [{"ein": "334886573", "name": "BEGUM JAHANARA MEMORIAL FOUNDATION INC", "city": "ROSLYN HTS", "state": "NY", "zip": "11577-2027", "ntee": "S20", "ruling": "202506", "deductibility": "1", "assets": 0, "income": 0, "revenue": 0}], "ENSURE": [{"ein": "352339901", "name": "HELPING ENSURE AFRICA LOOMS INTERNATIONAL INC", "city": "BUFFALO", "state": "NY", "zip": "14213-1815", "ntee": "P84", "ruling": "200907", "deductibility": "1", "assets": 290194, "income": 70914, "revenue": 70914}], "EXTREME": [{"ein": "352392415", "name": "EXTREME KIDS AND CREW INC", "city": "BROOKLYN", "state": "NY", "zip": "11213-1930", "ntee": "O50", "ruling": "201102", "deductibility": "1", "assets": 129734, "income": 335941, "revenue": 305825}, {"ein": "364428246", "name": "PROJECT EXTREME", "city": "LAWRENCE", "state": "NY", "zip": "11559-1698", "ntee": "O55", "ruling": "200109", "deductibility": "1", "assets": 971522, "income": 2378595, "revenue": 2232830}, {"ein": "823104146", "name": "DREAM EXTREME INC", "city": "SPRING VALLEY", "state": "NY", "zip": "10977-1209", "ntee": "", "ruling": "202010", "deductibility": "1", "assets": 0, "income": 0, "revenue": 0}, {"ein": "831141935", "name": "CHAMPION ACADEMY EXTREME MENTORING & EMPOWERMENT INITIATIVE", "city": "ROCHESTER", "state": "NY", "zip": "14604-1454", "ntee": "O50", "ruling": "201807", "deductibility": "1", "assets": 1575, "income": 211615, "revenue": 211615}], "WBVS": [{"ein": "352440289", "name": "STATION WBVS INC", "city": "WATERTOWN", "state": "NY", "zip": "13601-1626", "ntee": "T12", "ruling": "201406", "deductibility": "1", "assets": 0, "income": 0, "revenue": 0}], "SCRIPPS": [{"ein": "357053767", "name": "THE@WENDY E SCRIPPS FOUNDATION", "city": "PLAINVIEW", "state": "NY", "zip": "11803-0331", "ntee": "X20", "ruling": "201408", "deductibility": "1", "assets": 3198927, "income": 3508802, "revenue": 0}, {"ein": "650831285", "name": "CATHERINE SCRIPPS RODGRIGUEZ FAMILY FOUNDATION INC", "city": "NEW YORK", "state": "NY", "zip": "10022-0000", "ntee": "S20Z", "ruling": "199807", "deductibility": "1", "assets": 488522, "income": 168017, "revenue": 0}], "DKE": [{"ein": "382556353", "name": "MU OF DKE FOUNDATION", "city": "HAMILTON", "state": "NY", "zip": "13346-0157", "ntee": "", "ruling": "198508", "deductibility": "1", "assets": 2211606, "income": 305168, "revenue": 84172}, {"ein": "463811469", "name": "BETA PHI ALUMNI ASSOCIATION OF DKE INC", "city": "ROCHESTER", "state": "NY", "zip": "14627-0000", "ntee": "B84", "ruling": "201407", "deductibility": "2", "assets": 0, "income": 0, "revenue": 0}], "PIVOT": [{"ein": "384127342", "name": "PIVOT FOOD INVESTMENT INC", "city": "NEW YORK", "state": "NY", "zip": "10022-5827", "ntee": "W01", "ruling": "202004", "deductibility": "1", "assets": 9465, "income": 0, "revenue": 0}, {"ein": "853232932", "name": "PIVOT CAREERS LTD", "city": "BROOKLYN", "state": "NY", "zip": "11205-3901", "ntee": "J20", "ruling": "202206", "deductibility": "1", "assets": 7694, "income": 20849, "revenue": 20849}, {"ein": "933274631", "name": "PIVOT ELITE HOOPS", "city": "YONKERS", "state": "NY", "zip": "10703-2538", "ntee": "O50", "ruling": "202501", "deductibility": "1", "assets": 0, "income": 0, "revenue": 0}], "ARTANGEL": [{"ein": "421606593", "name": "ARTANGEL AMERICA", "city": "NEW YORK", "state": "NY", "zip": "10018-0000", "ntee": "A20", "ruling": "200406", "deductibility": "1", "assets": 37947, "income": 95044, "revenue": 95044}], "BSHS": [{"ein": "452299828", "name": "BSHS GOLF PROGRAM BOOSTER CLUB", "city": "BALLSTON SPA", "state": "NY", "zip": "12020-4503", "ntee": "N6A", "ruling": "202409", "deductibility": "1", "assets": 0, "income": 0, "revenue": 0}], "PB": [{"ein": "454015434", "name": "NY METRO PB INC", "city": "EAST SETAUKET", "state": "NY", "zip": "11733-1076", "ntee": "A6C", "ruling": "201401", "deductibility": "1", "assets": 0, "income": 0, "revenue": 0}, {"ein": "832215647", "name": "PB&J FOUNDATION INC", "city": "BROOKLYN", "state": "NY", "zip": "11215-2207", "ntee": "T20", "ruling": "201906", "deductibility": "1", "assets": 1284205, "income": 205345, "revenue": 0}], "KIOO": [{"ein": "461839375", "name": "KIOO PROJECT INC", "city": "NEW YORK", "state": "NY", "zip": "10010-3178", "ntee": "P80", "ruling": "201310", "deductibility": "1", "assets": 0, "income": 0, "revenue": 0}], "PRAY4US": [{"ein": "462593269", "name": "PRAY4US MINISTRIES INC", "city": "FREEPORT", "state": "NY", "zip": "11520-4519", "ntee": "X20", "ruling": "201407", "deductibility": "1", "assets": 0, "income": 0, "revenue": 0}], "DECCAN": [{"ein": "462945490", "name": "AMERICAN FRIENDS OF THE DECCAN HERITAGE FOUNDATION", "city": "NEW YORK", "state": "NY", "zip": "10024-0000", "ntee": "A23", "ruling": "201409", "deductibility": "1", "assets": 121967, "income": 119420, "revenue": 119420}], "MONASTERIES": [{"ein": "463189364", "name": "NEW SKETE MONASTERIES INC", "city": "CAMBRIDGE", "state": "NY", "zip": "12816-0128", "ntee": "", "ruling": "197210", "deductibility": "0", "assets": 0, "income": 0, "revenue": 0}], "LISKA": [{"ein": "463980666", "name": "KHAL BAIS LISKA", "city": "BROOKLYN", "state": "NY", "zip": "11219-2079", "ntee": "X30", "ruling": "201408", "deductibility": "1", "assets": 0, "income": 0, "revenue": 0}], "INTIATIVES": [{"ein": "464304915", "name": "CENTER FOR PUBLIC HEALTH INTIATIVES INC", "city": "BRONX", "state": "NY", "zip": "10469-1222", "ntee": "P20", "ruling": "201801", "deductibility": "1", "assets": 0, "income": 0, "revenue": 0}], "DONDON": [{"ein": "464379973", "name": "ORGANIZATION FOR THE DEVELOPMENT INTEGRAL OF DONDON", "city": "BROOKLYN", "state": "NY", "zip": "11210-4423", "ntee": "Q32", "ruling": "201502", "deductibility": "1", "assets": 0, "income": 0, "revenue": 0}], "CONTEMPORANEOUS": [{"ein": "471563887", "name": "CONTEMPORANEOUS", "city": "NEW YORK", "state": "NY", "zip": "10023-0000", "ntee": "A68", "ruling": "201506", "deductibility": "1", "assets": 22844, "income": 267141, "revenue": 249614}], "OBEROI": [{"ein": "472203959", "name": "RICKS OBEROI FOUNDATION", "city": "NEW YORK", "state": "NY", "zip": "10017-3204", "ntee": "G30", "ruling": "201607", "deductibility": "1", "assets": 1, "income": 0, "revenue": 0}], "WRECKING": [{"ein": "473144250", "name": "WARRIN WRECKING DOLLS", "city": "JAMESTOWN", "state": "NY", "zip": "14701-3961", "ntee": "N60", "ruling": "201603", "deductibility": "1", "assets": 0, "income": 0, "revenue": 0}], "HATHORN": [{"ein": "473357909", "name": "FRIENDS OF HATHORN HOUSE", "city": "WARWICK", "state": "NY", "zip": "10990-1129", "ntee": "A80", "ruling": "201504", "deductibility": "1", "assets": 6682, "income": 5510, "revenue": 5510}], "HAO": [{"ein": "473853918", "name": "HAO FAMILY FOUNDATION", "city": "SARATOGA SPGS", "state": "NY", "zip": "12866-2386", "ntee": "T20", "ruling": "201710", "deductibility": "1", "assets": 188281541, "income": 118288282, "revenue": 0}], "HAMLIRI": [{"ein": "474272026", "name": "BETHEL HAMLIRI", "city": "BRONX", "state": "NY", "zip": "10453-7225", "ntee": "Q30", "ruling": "201606", "deductibility": "1", "assets": 0, "income": 0, "revenue": 0}], "DEARIE": [{"ein": "475255236", "name": "DEARIE FAMILY CHARITABLE TRUST", "city": "NEW YORK", "state": "NY", "zip": "10175-0003", "ntee": "T12", "ruling": "201705", "deductibility": "1", "assets": 3088421, "income": 712793, "revenue": 0}], "SEHSA": [{"ein": "510547499", "name": "SEHSA ENVIRONMENTAL HEALTH & SAFETY ASSOCIATION OF NEW YORK INC", "city": "STONY BROOK", "state": "NY", "zip": "11794-6200", "ntee": "B990", "ruling": "200906", "deductibility": "1", "assets": 62815, "income": 16576, "revenue": 16576}], "OPTICS": [{"ein": "521582167", "name": "AMERICAN PRECISION OPTICS MANUFACTURERS ASSOCIATION", "city": "ROCHESTER", "state": "NY", "zip": "14602-0001", "ntee": "", "ruling": "198809", "deductibility": "2", "assets": 0, "income": 0, "revenue": 0}, {"ein": "844020441", "name": "AMERICAN CENTER FOR OPTICS MANUFACTURING INC", "city": "ROCHESTER", "state": "NY", "zip": "14623-3190", "ntee": "U20", "ruling": "202003", "deductibility": "1", "assets": 7671943, "income": 4932251, "revenue": 4932251}, {"ein": "860843480", "name": "OPTICS AND ELECTRO-OPTICS STANDARDS COUNCIL", "city": "WEBSTER", "state": "NY", "zip": "14580-7890", "ntee": "", "ruling": "199804", "deductibility": "2", "assets": 98896, "income": 102104, "revenue": 102104}, {"ein": "992336532", "name": "OPTICS FOR THE GREATER GOOD INC", "city": "ROCHESTER", "state": "NY", "zip": "14604-2100", "ntee": "B03", "ruling": "202411", "deductibility": "1", "assets": 0, "income": 0, "revenue": 0}], "MAFFEO": [{"ein": "562349419", "name": "JOSEPH MAFFEO FOUNDATION INC", "city": "STATEN ISLAND", "state": "NY", "zip": "10305-4900", "ntee": "T30", "ruling": "200407", "deductibility": "1", "assets": 193170, "income": 297983, "revenue": 297983}], "PUERTORIQUENA": [{"ein": "562525337", "name": "COMITE NOVIEMBRE-MES DE LA HERENCIA PUERTORIQUENA", "city": "HARTSDALE", "state": "NY", "zip": "10530-2763", "ntee": "P84", "ruling": "200512", "deductibility": "1", "assets": 43993, "income": 208930, "revenue": 208930}], "PKA": [{"ein": "651269388", "name": "CHRISTINE MELTON-SIMPSON PKA CHRISTINE MELTON-JORDAN", "city": "NEW YORK", "state": "NY", "zip": "10027-2014", "ntee": "A20", "ruling": "201903", "deductibility": "1", "assets": 0, "income": 0, "revenue": 0}], "ALM": [{"ein": "753212577", "name": "ALM-P-NUT CLUB", "city": "MIDDLETOWN", "state": "NY", "zip": "10940-0639", "ntee": "X21", "ruling": "200104", "deductibility": "1", "assets": 0, "income": 0, "revenue": 0}], "KG": [{"ein": "800675912", "name": "KG FOUNDATION INC", "city": "DEER PARK", "state": "NY", "zip": "11729-5813", "ntee": "B82", "ruling": "201106", "deductibility": "1", "assets": 0, "income": 0, "revenue": 0}, {"ein": "841787100", "name": "KG MIRACLE CHARITY INC", "city": "AMITYVILLE", "state": "NY", "zip": "11701-1430", "ntee": "O50", "ruling": "202001", "deductibility": "1", "assets": 0, "income": 0, "revenue": 0}, {"ein": "882649547", "name": "KG UNION INC", "city": "BROOKLYN", "state": "NY", "zip": "11230-7546", "ntee": "S80", "ruling": "202206", "deductibility": "1", "assets": 62429, "income": 33516, "revenue": 33516}], "COGOP": [{"ein": "811142062", "name": "BUSHWICK FAMILY MINISTRIES COGOP CORPORATION", "city": "BROOKLYN", "state": "NY", "zip": "11221-5120", "ntee": "", "ruling": "201602", "deductibility": "1", "assets": 0, "income": 0, "revenue": 0}], "RIKERS": [{"ein": "814128135", "name": "RIKERS DEBATE PROJECT INC", "city": "NEW YORK", "state": "NY", "zip": "10128-5177", "ntee": "I40", "ruling": "201701", "deductibility": "1", "assets": 0, "income": 0, "revenue": 0}, {"ein": "832085770", "name": "RIKERS ISLAND CAT RESCUE INC", "city": "NEW HYDE PARK", "state": "NY", "zip": "11040-3824", "ntee": "D20", "ruling": "201902", "deductibility": "1", "assets": 0, "income": 0, "revenue": 0}, {"ein": "931443919", "name": "RIKERS ISLAND BJJ CLUB INC", "city": "SEAFORD", "state": "NY", "zip": "11783-3130", "ntee": "M03", "ruling": "202402", "deductibility": "1", "assets": 0, "income": 0, "revenue": 0}], "CFFSJ": [{"ein": "821630361", "name": "CENTRE DE FORMATION FAMILIALE ET SOCIALE DE JACMEL CFFSJ INC", "city": "BRONX", "state": "NY", "zip": "10475-5432", "ntee": "P99", "ruling": "202007", "deductibility": "1", "assets": 0, "income": 0, "revenue": 0}], "ROQUE": [{"ein": "822842355", "name": "ROQUE FOUNDATION", "city": "NEW YORK", "state": "NY", "zip": "10030-3212", "ntee": "A99", "ruling": "201709", "deductibility": "1", "assets": 0, "income": 0, "revenue": 0}], "EMERENCY": [{"ein": "824828340", "name": "CROTON EMERENCY MEDICAL SERVICES INC", "city": "CROTON HDSN", "state": "NY", "zip": "10520-0358", "ntee": "E62", "ruling": "202005", "deductibility": "1", "assets": 0, "income": 0, "revenue": 0}], "CULTRUE": [{"ein": "825112147", "name": "CULTRUE", "city": "CHEEKTOWAGA", "state": "NY", "zip": "14215-1811", "ntee": "O50", "ruling": "201804", "deductibility": "1", "assets": 50071, "income": 188855, "revenue": 188855}], "BOTS": [{"ein": "831842795", "name": "COMMUNITY BOTS INC", "city": "NEW YORK", "state": "NY", "zip": "10128-7864", "ntee": "O50", "ruling": "201903", "deductibility": "1", "assets": 56894, "income": 66351, "revenue": 64805}], "CDO": [{"ein": "833203473", "name": "CHAZON YISRAEL CDO CONGREGATION CORP", "city": "BROOKLYN", "state": "NY", "zip": "11230-3058", "ntee": "X30", "ruling": "202001", "deductibility": "1", "assets": 0, "income": 0, "revenue": 0}], "ZYSMAN": [{"ein": "844366535", "name": "ZYSMAN FAMILY FOUNDATION INC", "city": "GREAT NECK", "state": "NY", "zip": "11021-3458", "ntee": "F21", "ruling": "202110", "deductibility": "1", "assets": 0, "income": 0, "revenue": 0}], "MARCHIV": [{"ein": "844641102", "name": "KHAL MARCHIV GUD INC", "city": "BROOKLYN", "state": "NY", "zip": "11211-6752", "ntee": "X30", "ruling": "202007", "deductibility": "1", "assets": 0, "income": 0, "revenue": 0}], "GUD": [{"ein": "844641102", "name": "KHAL MARCHIV GUD INC", "city": "BROOKLYN", "state": "NY", "zip": "11211-6752", "ntee": "X30", "ruling": "202007", "deductibility": "1", "assets": 0, "income": 0, "revenue": 0}], "SANOJA": [{"ein": "861216408", "name": "SONIA SANOJA - ALFREDO SILVA ESTRADA FOUNDATION INC", "city": "ASTORIA", "state": "NY", "zip": "11102-2990", "ntee": "A20", "ruling": "202109", "deductibility": "1", "assets": 0, "income": 0, "revenue": 0}], "ZHIQING": [{"ein": "871756740", "name": "CHINESE ZHIQING ASSOCIATION INC", "city": "GREAT NECK", "state": "NY", "zip": "11021-0000", "ntee": "Q21", "ruling": "202112", "deductibility": "1", "assets": 20466, "income": 13525, "revenue": 13525}], "BELONGS": [{"ein": "871915255", "name": "MUSIC BELONGS TO YOU INC", "city": "BROOKLYN", "state": "NY", "zip": "11235-3515", "ntee": "A20", "ruling": "202412", "deductibility": "1", "assets": 0, "income": 0, "revenue": 0}], "KONGA": [{"ein": "872653422", "name": "KONGA PROJECT INC", "city": "NEW YORK", "state": "NY", "zip": "10001-6575", "ntee": "T50", "ruling": "202203", "deductibility": "1", "assets": 0, "income": 0, "revenue": 0}], "BARCODE": [{"ein": "873915959", "name": "RAISING THE BARCODE", "city": "ROCHESTER", "state": "NY", "zip": "14613-1024", "ntee": "B90", "ruling": "202202", "deductibility": "1", "assets": 0, "income": 0, "revenue": 0}], "MAALAH": [{"ein": "874483965", "name": "MAALAH INT INC", "city": "BROOKLYN", "state": "NY", "zip": "11219-2088", "ntee": "E12", "ruling": "202203", "deductibility": "1", "assets": 4300, "income": 253539, "revenue": 253539}], "HAIDERI": [{"ein": "883283652", "name": "HAIDERI QADRI QALANDARI CHISHTI BALANOSHI SHERSHAHI CORPORATION", "city": "JAMAICA", "state": "NY", "zip": "11436-1105", "ntee": "T30", "ruling": "202208", "deductibility": "1", "assets": 1, "income": 1, "revenue": 1}], "THANAL": [{"ein": "884344852", "name": "THANAL INC", "city": "AIRMONT", "state": "NY", "zip": "10952-4101", "ntee": "T50", "ruling": "202402", "deductibility": "1", "assets": 0, "income": 0, "revenue": 0}], "ABATECOLA": [{"ein": "900283747", "name": "RICHARD & TEREZ ABATECOLA FOUNDATION INC", "city": "HUDSON", "state": "NY", "zip": "12534-3506", "ntee": "T20", "ruling": "200806", "deductibility": "1", "assets": 2651578, "income": 2884564, "revenue": 0}], "PROPHESY": [{"ein": "900864642", "name": "INTERIOR MINISTRIES CHURCH OF PROPHESY INC", "city": "BRONX", "state": "NY", "zip": "10469-1415", "ntee": "X20", "ruling": "202410", "deductibility": "1", "assets": 0, "income": 0, "revenue": 0}], "YY": [{"ein": "920432395", "name": "KEREN YY FOUNDATION", "city": "BROOKLYN", "state": "NY", "zip": "11204-0000", "ntee": "T50", "ruling": "202305", "deductibility": "1", "assets": 433079, "income": 9960, "revenue": 0}, {"ein": "921464690", "name": "ZICHRON YY FOUNDATION", "city": "BROOKLYN", "state": "NY", "zip": "11204-1927", "ntee": "T22", "ruling": "202403", "deductibility": "1", "assets": 172133, "income": 54089, "revenue": 0}], "TALLICHET": [{"ein": "920923392", "name": "TALLICHET FREEDMAN FOUNDATION LTD", "city": "RIDGEWOOD", "state": "NY", "zip": "11385-4723", "ntee": "A20", "ruling": "202301", "deductibility": "1", "assets": 44677, "income": 65789, "revenue": 65789}], "DUTERIMBERE": [{"ein": "921364907", "name": "DUTERIMBERE BAKERY A NONPROFIT CORPORATION", "city": "BROOKLYN", "state": "NY", "zip": "11201-6280", "ntee": "Q32", "ruling": "202301", "deductibility": "1", "assets": 1935, "income": 1935, "revenue": 1935}], "ORUGA": [{"ein": "921720043", "name": "ORUGA INTERNATIONAL INC", "city": "NEW YORK", "state": "NY", "zip": "10040-2669", "ntee": "B11", "ruling": "202201", "deductibility": "1", "assets": 0, "income": 0, "revenue": 0}], "EXTREMISM": [{"ein": "922192022", "name": "PROGRAM ON AMERICAN LAW AND EXTREMISM INC", "city": "NEW ROCHELLE", "state": "NY", "zip": "10804-2120", "ntee": "B99", "ruling": "202312", "deductibility": "1", "assets": 0, "income": 0, "revenue": 0}], "MANANA": [{"ein": "922227916", "name": "MANANA OTRO DIA LTD", "city": "NEW YORK", "state": "NY", "zip": "10023-4435", "ntee": "P20", "ruling": "202312", "deductibility": "1", "assets": 0, "income": 0, "revenue": 0}], "ICCNY": [{"ein": "922771801", "name": "ISLAMIC COMMUNITY CENTER OF NEW YORK ICCNY INC", "city": "BROOKLYN", "state": "NY", "zip": "11223-6343", "ntee": "X40", "ruling": "202303", "deductibility": "1", "assets": 0, "income": 0, "revenue": 0}], "PHINS": [{"ein": "931606101", "name": "PHINS MANAGEMENT INC", "city": "SYRACUSE", "state": "NY", "zip": "13214-1300", "ntee": "B02", "ruling": "202403", "deductibility": "1", "assets": 4333637, "income": 429569, "revenue": 429569}], "MISHPUCHA": [{"ein": "932085941", "name": "MISHPUCHA FUND INC", "city": "MONROE", "state": "NY", "zip": "10950-7048", "ntee": "P40", "ruling": "202405", "deductibility": "1", "assets": 0, "income": 0, "revenue": 0}], "IURIS": [{"ein": "933642056", "name": "ORDO IURIS INTERNATIONAL", "city": "NEW YORK", "state": "NY", "zip": "10036-6700", "ntee": "R05", "ruling": "202406", "deductibility": "1", "assets": 2236, "income": 1, "revenue": 0}], "ASPINALL": [{"ein": "934554345", "name": "ASPINALL FOUNDATION USA", "city": "NEW YORK", "state": "NY", "zip": "10019-4702", "ntee": "D30", "ruling": "202409", "deductibility": "1", "assets": 0, "income": 0, "revenue": 0}], "SUBMARINE": [{"ein": "954830806", "name": "U S SUBMARINE VETERANS CHARITABLE FOUNDATION INC", "city": "WATERVLIET", "state": "NY", "zip": "12189-1045", "ntee": "B82", "ruling": "200011", "deductibility": "1", "assets": 977940, "income": 132264, "revenue": 132264}], "KILLORAN": [{"ein": "990570903", "name": "CCE KILLORAN-CLANCY-WHELAN BRANCH INC", "city": "BRONX", "state": "NY", "zip": "10467-3302", "ntee": "A23", "ruling": "202402", "deductibility": "1", "assets": 0, "income": 0, "revenue": 0}], "OFFIT": [{"ein": "990991065", "name": "DANIEL W OFFIT FUND TO FIGHT GLIOBLASTOMA INC", "city": "NEW YORK", "state": "NY", "zip": "10017-2640", "ntee": "H30", "ruling": "202405", "deductibility": "1", "assets": 0, "income": 0, "revenue": 0}], "RELOCATION": [{"ein": "994298636", "name": "RELOCATION NATION INC", "city": "BROOKLYN", "state": "NY", "zip": "11214-3176", "ntee": "R01", "ruling": "202408", "deductibility": "1", "assets": 0, "income": 0, "revenue": 0}]}