{"PCMH": [{"ein": "010901301", "name": "PCMH 2950 GRAND CONCOURSE HOUSING DEVELOPMENT FUND CORPORATION", "city": "NEW YORK", "state": "NY", "zip": "10016-4102", "ntee": "L20", "ruling": "201408", "deductibility": "2", "assets": 0, "income": 0, "revenue": 0}, {"ein": "204769072", "name": "PCMH HOUSING DEVELOPMENT FUNDCORPORATION", "city": "NEW YORK", "state": "NY", "zip": "10016-4102", "ntee": "L20", "ruling": "200704", "deductibility": "1", "assets": 1, "income": 0, "revenue": 0}, {"ein": "261438583", "name": "PCMH SHAKESPEARE AVENUE HOUSING DEVELOPMENT FUND CORPORATION", "city": "NEW YORK", "state": "NY", "zip": "10016-4102", "ntee": "L20", "ruling": "201409", "deductibility": "2", "assets": 13361872, "income": 840670, "revenue": 840670}, {"ein": "272996144", "name": "PCMH TELLER HOUSING DEVELOPMENT FUND CORPORATION", "city": "NEW YORK", "state": "NY", "zip": "10016-4102", "ntee": "L24", "ruling": "201009", "deductibility": "2", "assets": 7665885, "income": 504028, "revenue": 504028}, {"ein": "273047041", "name": "PCMH HULL HOUSING DEVELOPMENT FUND CORPORATION", "city": "NEW YORK", "state": "NY", "zip": "10016-4102", "ntee": "L20", "ruling": "201406", "deductibility": "2", "assets": 9602246, "income": 646272, "revenue": 646272}, {"ein": "453009798", "name": "PCMH LYVERE HOUSING DEVELOPMENT FUND CORPORATION", "city": "NEW YORK", "state": "NY", "zip": "10016-4102", "ntee": "L20", "ruling": "201109", "deductibility": "2", "assets": 9711350, "income": 677837, "revenue": 677837}, {"ein": "461364063", "name": "PCMH GATES HOUSING DEVELOPMENT FUND CORPORATION", "city": "NEW YORK", "state": "NY", "zip": "10016-4102", "ntee": "F33", "ruling": "201408", "deductibility": "2", "assets": 0, "income": 0, "revenue": 0}, {"ein": "462043253", "name": "PCMH ECHO PLACE HOUSING DEVELOPMENT FUND CORPORATION", "city": "NEW YORK", "state": "NY", "zip": "10016-4102", "ntee": "L20", "ruling": "201305", "deductibility": "2", "assets": 0, "income": 0, "revenue": 0}, {"ein": "474500886", "name": "PCMH MARION AVENUE HOUSING DEVELOPMENT FUND CORPORATION", "city": "NEW YORK", "state": "NY", "zip": "10016-4102", "ntee": "F33", "ruling": "201706", "deductibility": "2", "assets": 0, "income": 0, "revenue": 0}, {"ein": "800797729", "name": "PCMH CROTONA HOUSING DEVELOPMENT FUND CORPORATION", "city": "NEW YORK", "state": "NY", "zip": "10016-4102", "ntee": "L20", "ruling": "201303", "deductibility": "2", "assets": 0, "income": 0, "revenue": 0}, {"ein": "813632004", "name": "PCMH 500 GATES HOUSING DEVELOPMENT FUND CORPORATION", "city": "NEW YORK", "state": "NY", "zip": "10016-4102", "ntee": "L20", "ruling": "201612", "deductibility": "2", "assets": 0, "income": 0, "revenue": 0}, {"ein": "833535037", "name": "PCMH WASHINGTON AVENUE HOUSING DEVELOPMENT FUND CORPORATION", "city": "NEW YORK", "state": "NY", "zip": "10016-4102", "ntee": "L21", "ruling": "201910", "deductibility": "2", "assets": 0, "income": 0, "revenue": 0}, {"ein": "833829101", "name": "PCMH EAST 177 HOUSING DEVELOPMENT FUND CORPORATION", "city": "NEW YORK", "state": "NY", "zip": "10016-4102", "ntee": "L20", "ruling": "201909", "deductibility": "2", "assets": 0, "income": 0, "revenue": 0}], "SEMINARS": [{"ein": "036010806", "name": "INTERNATIONAL FILM SEMINARS INC", "city": "BROOKLYN", "state": "NY", "zip": "11217-2998", "ntee": "", "ruling": "196308", "deductibility": "1", "assets": 619490, "income": 394085, "revenue": 313667}, {"ein": "331119637", "name": "WELL OF BEING SEMINARS INC", "city": "NEW YORK", "state": "NY", "zip": "10029-5768", "ntee": "B60", "ruling": "200603", "deductibility": "1", "assets": 0, "income": 0, "revenue": 0}], "NEUHEDEL": [{"ein": "043651509", "name": "LUKE NEUHEDEL FOUNDATION INC", "city": "GARDEN CITY", "state": "NY", "zip": "11530-7227", "ntee": "H30", "ruling": "200208", "deductibility": "1", "assets": 0, "income": 0, "revenue": 0}], "ARDEN": [{"ein": "061358298", "name": "GLEN ARDEN INCORPORATED", "city": "GOSHEN", "state": "NY", "zip": "10924-2422", "ntee": "P750", "ruling": "199403", "deductibility": "1", "assets": 17652586, "income": 10301889, "revenue": 10301889}, {"ein": "237325106", "name": "ARDEN HEIGHTS-BOULEVARD JEWISH CENTER", "city": "STATEN ISLAND", "state": "NY", "zip": "10312-1356", "ntee": "", "ruling": "197710", "deductibility": "1", "assets": 0, "income": 0, "revenue": 0}], "WIN": [{"ein": "061795627", "name": "CREATED TO WIN YOUTH OUTREACH MINISTRIES", "city": "WILLIAMSVILLE", "state": "NY", "zip": "14221-2422", "ntee": "O50", "ruling": "200811", "deductibility": "1", "assets": 0, "income": 0, "revenue": 0}, {"ein": "133376303", "name": "WIN HOUSING DEVELOPMENT FUND COMPANY INC", "city": "NEW YORK", "state": "NY", "zip": "10004-1787", "ntee": "L410", "ruling": "198702", "deductibility": "1", "assets": 262871, "income": 0, "revenue": 0}, {"ein": "134010016", "name": "WIN DECATUR HOUSING DEVELOPMENT FUND CORPORATION", "city": "NEW YORK", "state": "NY", "zip": "10004-1787", "ntee": "L40", "ruling": "201109", "deductibility": "1", "assets": 65293, "income": 0, "revenue": 0}, {"ein": "261486500", "name": "PLAY STUDY WIN INC", "city": "BRONXVILLE", "state": "NY", "zip": "10708-3818", "ntee": "B99", "ruling": "200901", "deductibility": "1", "assets": 2592569, "income": 3294055, "revenue": 3294055}, {"ein": "320147415", "name": "HELP YOURSELF WIN FOUNDATION", "city": "SCHENECTADY", "state": "NY", "zip": "12308-2404", "ntee": "B28", "ruling": "200508", "deductibility": "1", "assets": 745522, "income": 184017, "revenue": 184017}, {"ein": "453985669", "name": "LAKE GEORGE REGION WOMEN FOR WIN INC", "city": "LAKE GEORGE", "state": "NY", "zip": "12845-0110", "ntee": "P12", "ruling": "201205", "deductibility": "1", "assets": 79387, "income": 52572, "revenue": 40322}, {"ein": "460911787", "name": "WILL TO WIN MINISTRY", "city": "ROSEDALE", "state": "NY", "zip": "11422-3205", "ntee": "X99", "ruling": "201512", "deductibility": "1", "assets": 1, "income": 734, "revenue": 734}, {"ein": "471040016", "name": "I WIN GROUP INC", "city": "NEW YORK", "state": "NY", "zip": "10024-1212", "ntee": "B99", "ruling": "201410", "deductibility": "1", "assets": 0, "income": 0, "revenue": 0}, {"ein": "472035679", "name": "WIN 118TH STREET HOUSING DEVELOPMENT FUND CORPORATION", "city": "NEW YORK", "state": "NY", "zip": "10004-1787", "ntee": "L20", "ruling": "201504", "deductibility": "2", "assets": 0, "income": 0, "revenue": 0}, {"ein": "472290881", "name": "RIGHT TO WIN FOUNDATION INC", "city": "MANHASSET", "state": "NY", "zip": "11030-3317", "ntee": "O12", "ruling": "201411", "deductibility": "1", "assets": 0, "income": 0, "revenue": 0}, {"ein": "472310887", "name": "WIN GLENMORE HOUSING DEVELOPMENT FUND CORPORATION", "city": "NEW YORK", "state": "NY", "zip": "10004-1787", "ntee": "L80", "ruling": "201502", "deductibility": "2", "assets": 0, "income": 0, "revenue": 0}, {"ein": "821736821", "name": "PIN TO WIN WRESTLING PARENTS CLUB", "city": "LEVITTOWN", "state": "NY", "zip": "11756-3609", "ntee": "N12", "ruling": "201908", "deductibility": "1", "assets": 0, "income": 0, "revenue": 0}, {"ein": "824411042", "name": "LETS WIN PANCREATIC CANCER FOUNDATION", "city": "NEW YORK", "state": "NY", "zip": "10021-4618", "ntee": "G40", "ruling": "201808", "deductibility": "1", "assets": 2369692, "income": 1445834, "revenue": 1369512}, {"ein": "824854669", "name": "WATCH HER WIN NEW YORK INC", "city": "BRONX", "state": "NY", "zip": "10451-2705", "ntee": "B99", "ruling": "201811", "deductibility": "1", "assets": 0, "income": 0, "revenue": 0}, {"ein": "832706717", "name": "GRENADA BUILT TO WIN INC", "city": "BRONX", "state": "NY", "zip": "10466-5024", "ntee": "N70", "ruling": "201812", "deductibility": "1", "assets": 0, "income": 0, "revenue": 0}, {"ein": "832970758", "name": "WIN FAR ROCKAWAY HOUSING DEVELOPMENT FUND CORPORATION", "city": "NEW YORK", "state": "NY", "zip": "10004-1787", "ntee": "C21", "ruling": "202307", "deductibility": "2", "assets": 1, "income": 0, "revenue": 0}, {"ein": "843574682", "name": "WIN TOGETHER INC", "city": "NEW YORK", "state": "NY", "zip": "10007-2439", "ntee": "J22", "ruling": "202105", "deductibility": "1", "assets": 53799, "income": 66333, "revenue": 66333}, {"ein": "851396380", "name": "QUINN FOR THE WIN - FIND YOUR SMILE - FOUNDATION INC", "city": "BRONX", "state": "NY", "zip": "10470-1952", "ntee": "G50", "ruling": "202006", "deductibility": "1", "assets": 0, "income": 0, "revenue": 0}, {"ein": "871540930", "name": "NEAL DOBBINS BORN 2 WIN YOUTH SCHOLARSHIP FUND INC", "city": "BUFFALO", "state": "NY", "zip": "14215-1032", "ntee": "N60", "ruling": "202109", "deductibility": "1", "assets": 0, "income": 0, "revenue": 0}, {"ein": "873473844", "name": "WIN SOME GIVE SOME FOUNDATION INC", "city": "NEW YORK", "state": "NY", "zip": "10003-0000", "ntee": "O99", "ruling": "202301", "deductibility": "1", "assets": 9666, "income": 75664, "revenue": 75664}, {"ein": "882837863", "name": "WIN 91ST STREET HOUSING DEVELOPMENT FUND CORPORATION", "city": "NEW YORK", "state": "NY", "zip": "10004-1787", "ntee": "L21", "ruling": "202401", "deductibility": "1", "assets": 0, "income": 0, "revenue": 0}], "SERV": [{"ein": "112245967", "name": "PAUL J COOPER CTR FOR HUMAN SERV", "city": "BROOKLYN", "state": "NY", "zip": "11206-5772", "ntee": "E320", "ruling": "197604", "deductibility": "1", "assets": 4307833, "income": 7851676, "revenue": 7851676}, {"ein": "113632920", "name": "SOUTH ASIAN COUNCIL FOR SOCIAL SERV ICES INC", "city": "FLUSHING", "state": "NY", "zip": "11355-2231", "ntee": "P84", "ruling": "200311", "deductibility": "1", "assets": 6303466, "income": 6016216, "revenue": 5944816}, {"ein": "136940760", "name": "WESTCHESTER HEAVY CONSTRUCTION LABORERS LEGAL SERV FUND LOCAL 60", "city": "HAWTHORNE", "state": "NY", "zip": "10532-1149", "ntee": "", "ruling": "199703", "deductibility": "2", "assets": 250971, "income": 151875, "revenue": 151875}, {"ein": "161475278", "name": "DEPARTMENT OF MEDICINE MEDICAL SERV GRP AT SUNY HLTH SCI CTR AT SYR IN", "city": "SYRACUSE", "state": "NY", "zip": "13210-2306", "ntee": "E31", "ruling": "199603", "deductibility": "1", "assets": 0, "income": 0, "revenue": 0}, {"ein": "166282098", "name": "LEOPOLD ECKLER TRUST UW  FBO UNITED HEALTH SERV FND", "city": "BUFFALO", "state": "NY", "zip": "14240-1504", "ntee": "", "ruling": "199104", "deductibility": "1", "assets": 212992, "income": 39430, "revenue": 0}, {"ein": "202656477", "name": "MENTAL RETARDATION COMMUNITY SERV OF NASSAU CTY-PROJECT II INC", "city": "BROOKVILLE", "state": "NY", "zip": "11545-2641", "ntee": "L21", "ruling": "200609", "deductibility": "1", "assets": 1183465, "income": 50781, "revenue": 50781}, {"ein": "421545339", "name": "MIDDLE EAST NATIVES TESTING ORIENTATION & REFERRAL SERV INC", "city": "NEW YORK", "state": "NY", "zip": "10010-2622", "ntee": "C34", "ruling": "200301", "deductibility": "1", "assets": 0, "income": 0, "revenue": 0}], "PRIMARY": [{"ein": "112329960", "name": "ODA PRIMARY HEALTH CARE NETWORK INC", "city": "BROOKLYN", "state": "NY", "zip": "11249-7830", "ntee": "", "ruling": "197411", "deductibility": "1", "assets": 149410248, "income": 111468841, "revenue": 111468841}, {"ein": "113355019", "name": "CAMBA PRIMARY HEALTH CARE CENTER INC", "city": "BROOKLYN", "state": "NY", "zip": "11226-2630", "ntee": "E31Z", "ruling": "199707", "deductibility": "1", "assets": 0, "income": 0, "revenue": 0}, {"ein": "133080710", "name": "PRIMARY PERFORMANCE GROUP INC", "city": "SPENCER", "state": "NY", "zip": "14883-9668", "ntee": "", "ruling": "198201", "deductibility": "1", "assets": 0, "income": 0, "revenue": 0}, {"ein": "133258765", "name": "PRIMARY STAGES COMPANY INC", "city": "NEW YORK", "state": "NY", "zip": "10018-6507", "ntee": "A650", "ruling": "198512", "deductibility": "1", "assets": 523116, "income": 2812216, "revenue": 2599823}, {"ein": "133711803", "name": "PRIMARY CARE DEVELOPMENT CORPORATION", "city": "NEW YORK", "state": "NY", "zip": "10006-3048", "ntee": "E800", "ruling": "199306", "deductibility": "1", "assets": 148220209, "income": 21598438, "revenue": 13180974}, {"ein": "161418079", "name": "ST JOSEPHS PRIMARY SCHOOL", "city": "AUBURN", "state": "NY", "zip": "13021-4031", "ntee": "", "ruling": "194603", "deductibility": "1", "assets": 0, "income": 0, "revenue": 0}, {"ein": "452828381", "name": "HEIGHTS PRIMARY SCHOOL PARENT FACULTY ASSOCIATION INC", "city": "ROSLYN HTS", "state": "NY", "zip": "11577-1253", "ntee": "B94", "ruling": "201205", "deductibility": "1", "assets": 32090, "income": 56564, "revenue": 56564}, {"ein": "452850810", "name": "WAYNE PRIMARY AND ELEMENTARY PTO", "city": "ONTARIO", "state": "NY", "zip": "14519-0000", "ntee": "B24", "ruling": "201412", "deductibility": "1", "assets": 0, "income": 0, "revenue": 0}, {"ein": "453448794", "name": "KOINONIA PRIMARY CARE INC", "city": "ALBANY", "state": "NY", "zip": "12206-2738", "ntee": "E32", "ruling": "201307", "deductibility": "1", "assets": 1220038, "income": 1452552, "revenue": 1452552}, {"ein": "471770167", "name": "JOHN QUINCY ADAMS PRIMARY SCHOOL PARENT FACULTY CLUB", "city": "DEER PARK", "state": "NY", "zip": "11729-3508", "ntee": "B24", "ruling": "201906", "deductibility": "1", "assets": 24393, "income": 33930, "revenue": 0}, {"ein": "472312682", "name": "DUANVALE PRIMARY ALUMNI AND FRIENDS ASSOCIATION INC", "city": "BRONX", "state": "NY", "zip": "10469-1231", "ntee": "B90", "ruling": "201602", "deductibility": "1", "assets": 0, "income": 0, "revenue": 0}, {"ein": "680655296", "name": "PRIMARY INFORMATION INC", "city": "BROOKLYN", "state": "NY", "zip": "11215-2708", "ntee": "A33", "ruling": "200812", "deductibility": "1", "assets": 460359, "income": 683941, "revenue": 439309}, {"ein": "760622718", "name": "PRIMARY BILLARY CHOLANGITIS ORGANIZATION", "city": "ROCHESTER", "state": "NY", "zip": "14612-1960", "ntee": "G120", "ruling": "200002", "deductibility": "1", "assets": 117585, "income": 65717, "revenue": 65717}, {"ein": "813829287", "name": "MARILLA PRIMARY PTO", "city": "MARILLA", "state": "NY", "zip": "14102-9728", "ntee": "B94", "ruling": "201704", "deductibility": "1", "assets": 0, "income": 0, "revenue": 0}, {"ein": "843937300", "name": "PRIMARY HALL PREPARATORY CHARTER SCHOOL", "city": "BUFFALO", "state": "NY", "zip": "14214-2364", "ntee": "B29", "ruling": "202006", "deductibility": "1", "assets": 3165134, "income": 2790648, "revenue": 2790648}, {"ein": "922457385", "name": "FRIENDS OF KENDAL PRIMARY SCHOOL USA INC", "city": "BROOKLYN", "state": "NY", "zip": "11207-4306", "ntee": "B82", "ruling": "202303", "deductibility": "1", "assets": 500, "income": 2500, "revenue": 0}, {"ein": "922622405", "name": "ALDEN PRIMARY PTO", "city": "ALDEN", "state": "NY", "zip": "14004-9525", "ntee": "B24", "ruling": "202303", "deductibility": "1", "assets": 0, "income": 0, "revenue": 0}, {"ein": "922673272", "name": "BARRY PRIMARY PTO INC", "city": "CORTLAND", "state": "NY", "zip": "13045-3322", "ntee": "B94", "ruling": "202305", "deductibility": "1", "assets": 0, "income": 0, "revenue": 0}, {"ein": "922730837", "name": "BARRACKS ROAD PRIMARY SCHOOL ALUMNI ASSOCIATION", "city": "WESTBURY", "state": "NY", "zip": "11590-1223", "ntee": "B84", "ruling": "202309", "deductibility": "1", "assets": 0, "income": 0, "revenue": 0}, {"ein": "923061031", "name": "ELMA PRIMARY PARENT TEACHER ORGANIZATION", "city": "ELMA", "state": "NY", "zip": "14059-9521", "ntee": "B94", "ruling": "202407", "deductibility": "1", "assets": 0, "income": 0, "revenue": 0}, {"ein": "934454449", "name": "MT OSBORN PRIMARY SCHOOL ALUMNI ASSOCIATION NY INC", "city": "S FLORAL PARK", "state": "NY", "zip": "11001-0000", "ntee": "B84", "ruling": "202409", "deductibility": "1", "assets": 0, "income": 0, "revenue": 0}], "ZIO": [{"ein": "112409921", "name": "TRINITY ZIO PENTECOSTAL CHURCH OF AMERICA", "city": "BROOKLYN", "state": "NY", "zip": "11216-2515", "ntee": "", "ruling": "197701", "deductibility": "1", "assets": 0, "income": 0, "revenue": 0}], "FELLOWSHIPS": [{"ein": "112453480", "name": "WORLD MESSIANIC FELLOWSHIPS INC CO", "city": "SMITHTOWN", "state": "NY", "zip": "11787-2804", "ntee": "", "ruling": "197902", "deductibility": "1", "assets": 0, "income": 0, "revenue": 0}, {"ein": "113590109", "name": "PUSHCART PRIZE FELLOWSHIPS INC", "city": "WAINSCOTT", "state": "NY", "zip": "11975-0380", "ntee": "A12", "ruling": "200107", "deductibility": "1", "assets": 64460, "income": 79407, "revenue": 25633}, {"ein": "133740640", "name": "JERUSALEM FELLOWSHIPS INC", "city": "AIRMONT", "state": "NY", "zip": "10952-4513", "ntee": "Q220", "ruling": "199502", "deductibility": "1", "assets": 343874, "income": 639973, "revenue": 477189}, {"ein": "141836083", "name": "BRONFMAN YOUTH FELLOWSHIPS IN ISRAEL INC", "city": "NEW YORK", "state": "NY", "zip": "10170-0399", "ntee": "O55", "ruling": "200207", "deductibility": "1", "assets": 892127, "income": 2865010, "revenue": 0}, {"ein": "161423646", "name": "FELLOWSHIPS OF THE SPIRIT", "city": "LILY DALE", "state": "NY", "zip": "14752-0252", "ntee": "", "ruling": "199403", "deductibility": "1", "assets": 0, "income": 0, "revenue": 0}, {"ein": "201651102", "name": "HASBARA FELLOWSHIPS INC", "city": "NEW YORK", "state": "NY", "zip": "10003-1502", "ntee": "B80", "ruling": "201108", "deductibility": "1", "assets": 279758, "income": 1706506, "revenue": 1706506}, {"ein": "222514976", "name": "PRAYER AND PRAISE FELLOWSHIPS INC", "city": "BUFFALO", "state": "NY", "zip": "14209-2307", "ntee": "", "ruling": "199104", "deductibility": "1", "assets": 0, "income": 0, "revenue": 0}, {"ein": "463475962", "name": "MAIMONIDES FELLOWSHIPS FLORIDA CORP", "city": "NEW YORK", "state": "NY", "zip": "10025-5413", "ntee": "B99", "ruling": "201407", "deductibility": "1", "assets": 0, "income": 0, "revenue": 0}, {"ein": "810884172", "name": "FELLOWSHIPS AT AUSCHWITZ FOR THE STUDY OF PROFESSIONAL ETHICS INC", "city": "NEW YORK", "state": "NY", "zip": "10017-0000", "ntee": "Q01", "ruling": "201604", "deductibility": "1", "assets": 1904814, "income": 4455146, "revenue": 2867466}, {"ein": "851338112", "name": "FUND FOR THE GUGGENHEIM FELLOWSHIPS", "city": "NEW YORK", "state": "NY", "zip": "10016-1313", "ntee": "T30", "ruling": "202101", "deductibility": "1", "assets": 350642, "income": 422986, "revenue": 422986}], "HIBERNIAN": [{"ein": "112543482", "name": "HIBERNIAN FESTIVAL SINGERS OF SUFFOLK COUNTY", "city": "BAY SHORE", "state": "NY", "zip": "11706-7904", "ntee": "", "ruling": "198012", "deductibility": "1", "assets": 47182, "income": 27849, "revenue": 27849}, {"ein": "133254659", "name": "HIBERNIAN HOUSE OF ROCKLAND INC", "city": "PEARL RIVER", "state": "NY", "zip": "10965-2322", "ntee": "", "ruling": "198504", "deductibility": "1", "assets": 168857, "income": 11157, "revenue": 0}, {"ein": "161432598", "name": "HIBERNIAN PARADE COMMITTEE OF BROOME INC", "city": "BINGHAMTON", "state": "NY", "zip": "13905-2743", "ntee": "", "ruling": "199401", "deductibility": "2", "assets": 64032, "income": 76723, "revenue": 76723}, {"ein": "201993969", "name": "HIBERNIAN CHARITY", "city": "CLAYTON", "state": "NY", "zip": "13624-1212", "ntee": "T20", "ruling": "200503", "deductibility": "1", "assets": 362454, "income": 131274, "revenue": 131274}, {"ein": "392072333", "name": "HIBERNIAN BAILE NA NAGAEL", "city": "BROOKLYN", "state": "NY", "zip": "11229-5915", "ntee": "W99", "ruling": "201406", "deductibility": "1", "assets": 0, "income": 0, "revenue": 0}], "HATCHERY": [{"ein": "112563328", "name": "FRIENDS OF THE COLD SPRING HARBOR FISH HATCHERY INC", "city": "COLD SPG HBR", "state": "NY", "zip": "11724-1500", "ntee": "D330", "ruling": "198108", "deductibility": "1", "assets": 875541, "income": 501483, "revenue": 501483}, {"ein": "161459075", "name": "FRIENDS OF CARPENTERS BROOK FISH HATCHERY", "city": "LIVERPOOL", "state": "NY", "zip": "13090-3739", "ntee": "D113", "ruling": "199502", "deductibility": "1", "assets": 26915, "income": 178, "revenue": 178}, {"ein": "463179524", "name": "CONSCIENCE POINT SHELLFISH HATCHERY", "city": "SOUTHAMPTON", "state": "NY", "zip": "11968-1920", "ntee": "C30", "ruling": "201409", "deductibility": "1", "assets": 15249, "income": 84972, "revenue": 84972}], "STEAMERS": [{"ein": "112575889", "name": "LONG ISLAND LIVE STEAMERS INC", "city": "BROOKHAVEN", "state": "NY", "zip": "11719-4001", "ntee": "", "ruling": "198110", "deductibility": "1", "assets": 0, "income": 0, "revenue": 0}, {"ein": "141659828", "name": "ADIRONDACK LIVE STEAMERS INC", "city": "CLIFTON PARK", "state": "NY", "zip": "12065-0000", "ntee": "B99Z", "ruling": "199510", "deductibility": "1", "assets": 126427, "income": 44161, "revenue": 40408}, {"ein": "161568230", "name": "FINGER LAKES LIVE STEAMERS INC", "city": "PALMYRA", "state": "NY", "zip": "14522-0141", "ntee": "N99", "ruling": "202501", "deductibility": "1", "assets": 357523, "income": 28900, "revenue": 26565}], "AUDIO": [{"ein": "112664807", "name": "AUDIO ENGINEERING SOCIETY EDUCATIONAL FOUNDATION INC", "city": "NEW YORK", "state": "NY", "zip": "10017-4003", "ntee": "", "ruling": "198806", "deductibility": "1", "assets": 73548, "income": 39830, "revenue": 0}, {"ein": "133614862", "name": "AUDIO PUBLISHERS ASSOCIATION", "city": "NEW YORK", "state": "NY", "zip": "10013-1033", "ntee": "", "ruling": "199309", "deductibility": "2", "assets": 1574463, "income": 949090, "revenue": 949090}, {"ein": "133869026", "name": "AUDIO INDUSTRY RESOURCES INC", "city": "NEW YORK", "state": "NY", "zip": "10021-9274", "ntee": "B70", "ruling": "199703", "deductibility": "1", "assets": 296009, "income": 64097, "revenue": 64097}, {"ein": "135603831", "name": "AUDIO ENGINEERING SOCIETY INC", "city": "NEW YORK", "state": "NY", "zip": "10017-4003", "ntee": "S400", "ruling": "196612", "deductibility": "1", "assets": 2477468, "income": 3238587, "revenue": 3238587}, {"ein": "452487297", "name": "ASSOCIATION FOR QUALITY IN AUDIO VISUAL TECHNOLOGY INC", "city": "GREAT RIVER", "state": "NY", "zip": "11739-1001", "ntee": "Z99", "ruling": "201306", "deductibility": "1", "assets": 18476, "income": 120145, "revenue": 111429}, {"ein": "464835300", "name": "AL LARVICK AUDIO VISUAL CONSERVATION FUND", "city": "NEW YORK", "state": "NY", "zip": "10024-0302", "ntee": "A99", "ruling": "201710", "deductibility": "1", "assets": 0, "income": 0, "revenue": 0}, {"ein": "810869239", "name": "DEATH BY AUDIO ARCADE INC", "city": "BROOKLYN", "state": "NY", "zip": "11206-1709", "ntee": "A20", "ruling": "201702", "deductibility": "1", "assets": 0, "income": 0, "revenue": 0}, {"ein": "932094497", "name": "MOTES AUDIO SOLUTIONS MA SOL", "city": "GLEN COVE", "state": "NY", "zip": "11542-2549", "ntee": "P28", "ruling": "202403", "deductibility": "1", "assets": 0, "income": 0, "revenue": 0}], "BEC": [{"ein": "112689903", "name": "BEC NEW COMMUNITIES HOUSING DEVELOPMENT FUND COMPANY INC", "city": "BROOKLYN", "state": "NY", "zip": "11217-1549", "ntee": "L200", "ruling": "198409", "deductibility": "1", "assets": 65462, "income": 145229, "revenue": 145229}], "AHLUL": [{"ein": "112846109", "name": "AHLUL BAYT MOSQUE INC", "city": "BROOKLYN", "state": "NY", "zip": "11217-1913", "ntee": "", "ruling": "198707", "deductibility": "1", "assets": 0, "income": 0, "revenue": 0}, {"ein": "113471892", "name": "MAJID AHLUL QURAAN WA-SUNNAH INC", "city": "S OZONE PARK", "state": "NY", "zip": "11420-3701", "ntee": "X40", "ruling": "199907", "deductibility": "1", "assets": 0, "income": 0, "revenue": 0}, {"ein": "411971730", "name": "AHLUL BAYT DIGITAL ISLAMIC LIBRARY PROJECT", "city": "GUILDERLAND", "state": "NY", "zip": "12084-9539", "ntee": "X80", "ruling": "201908", "deductibility": "1", "assets": 0, "income": 0, "revenue": 0}], "TIBERIAN": [{"ein": "112894327", "name": "TIBERIAN BAPTIST CHURCH OF ST ALBANS NEW YORK INC", "city": "ST ALBANS", "state": "NY", "zip": "11412-2357", "ntee": "X21", "ruling": "200005", "deductibility": "1", "assets": 0, "income": 0, "revenue": 0}], "COMMISSIONS": [{"ein": "113063005", "name": "GREAT COMMISSIONS MINISTRIES INC", "city": "JAMAICA", "state": "NY", "zip": "11434-3811", "ntee": "", "ruling": "199306", "deductibility": "1", "assets": 0, "income": 0, "revenue": 0}, {"ein": "237220465", "name": "NEW YORK STATE ASSOCIATION OF CONSERVATION COMMISSIONS INC", "city": "KATONAH", "state": "NY", "zip": "10536-1572", "ntee": "C03", "ruling": "201304", "deductibility": "1", "assets": 0, "income": 0, "revenue": 0}], "BEARERS": [{"ein": "113190149", "name": "LIGHT BEARERS CHRISTIAN FELLOWSHIP INC", "city": "UNIONDALE", "state": "NY", "zip": "11553-2110", "ntee": "", "ruling": "199406", "deductibility": "1", "assets": 0, "income": 0, "revenue": 0}, {"ein": "510466012", "name": "LIGHT BEARERS MINISTRIES INC", "city": "BROOKLYN", "state": "NY", "zip": "11203-3510", "ntee": "X21", "ruling": "201105", "deductibility": "1", "assets": 0, "income": 0, "revenue": 0}, {"ein": "824367161", "name": "CROSS BEARERS MINISTRY", "city": "BROOKLYN", "state": "NY", "zip": "11206-6776", "ntee": "X20", "ruling": "201903", "deductibility": "1", "assets": 0, "income": 0, "revenue": 0}], "TAIMON": [{"ein": "113191742", "name": "HATZOLAS YEHUDY TAIMON", "city": "MONROE", "state": "NY", "zip": "10949-8073", "ntee": "", "ruling": "199406", "deductibility": "1", "assets": 0, "income": 0, "revenue": 0}], "COBURG": [{"ein": "113211085", "name": "COBURG VILLAGE INC", "city": "SCARSDALE", "state": "NY", "zip": "10583-5012", "ntee": "L22Z", "ruling": "200605", "deductibility": "1", "assets": 41667418, "income": 14207106, "revenue": 11178098}], "YSF": [{"ein": "113271689", "name": "YSF FOUNDATION", "city": "BROOKLYN", "state": "NY", "zip": "11219-3011", "ntee": "T21J", "ruling": "199508", "deductibility": "1", "assets": 562832, "income": 132907, "revenue": 0}], "MEKOR": [{"ein": "113283521", "name": "MEKOR HARACMIM", "city": "BROOKLYN", "state": "NY", "zip": "11210-3714", "ntee": "X30Z", "ruling": "199510", "deductibility": "1", "assets": 0, "income": 0, "revenue": 0}, {"ein": "113462862", "name": "KEREN YESOMIM MEKOR CHAIM", "city": "BROOKLYN", "state": "NY", "zip": "11211-7924", "ntee": "X30", "ruling": "199902", "deductibility": "1", "assets": 0, "income": 0, "revenue": 0}, {"ein": "133354128", "name": "KAHAL MEKOR CHAIM", "city": "MONSEY", "state": "NY", "zip": "10952-1701", "ntee": "", "ruling": "199206", "deductibility": "1", "assets": 0, "income": 0, "revenue": 0}, {"ein": "237101064", "name": "NACHAL NOVEA MEKOR CHOCHMA", "city": "NEW YORK", "state": "NY", "zip": "10002-6628", "ntee": "", "ruling": "197103", "deductibility": "1", "assets": 0, "income": 0, "revenue": 0}, {"ein": "270015245", "name": "CONG MEKOR BARUCH", "city": "BROOKLYN", "state": "NY", "zip": "11219-2202", "ntee": "X30", "ruling": "200210", "deductibility": "1", "assets": 0, "income": 0, "revenue": 0}, {"ein": "331674207", "name": "MEKOR HATORAH VHACHESED", "city": "BROOKLYN", "state": "NY", "zip": "11218-1934", "ntee": "X30", "ruling": "202507", "deductibility": "1", "assets": 0, "income": 0, "revenue": 0}, {"ein": "332131740", "name": "MEKOR CHAIM GROUP INC", "city": "KIRYAS JOEL", "state": "NY", "zip": "10950-1948", "ntee": "P32", "ruling": "202504", "deductibility": "1", "assets": 0, "income": 0, "revenue": 0}, {"ein": "371462434", "name": "AMERICAN FRIENDS OF YESHIVAT MEKOR CHAIM", "city": "FAR ROCKAWAY", "state": "NY", "zip": "11691-5255", "ntee": "X11", "ruling": "200404", "deductibility": "1", "assets": 17655, "income": 149494, "revenue": 149494}, {"ein": "392289558", "name": "MEKOR CHAIM", "city": "BROOKLYN", "state": "NY", "zip": "11219-3394", "ntee": "X30", "ruling": "202506", "deductibility": "1", "assets": 0, "income": 0, "revenue": 0}, {"ein": "812740889", "name": "MEKOR BARUCH", "city": "BROOKLYN", "state": "NY", "zip": "11218-5904", "ntee": "X30", "ruling": "201611", "deductibility": "1", "assets": 0, "income": 0, "revenue": 0}, {"ein": "823419922", "name": "MEKOR CHAIM INC", "city": "FAR ROCKAWAY", "state": "NY", "zip": "11691-1848", "ntee": "X30", "ruling": "201904", "deductibility": "1", "assets": 0, "income": 0, "revenue": 0}, {"ein": "842386678", "name": "MEKOR CHAIM OF PARK SLOPE", "city": "BROOKLYN", "state": "NY", "zip": "11215-6247", "ntee": "X30", "ruling": "202102", "deductibility": "1", "assets": 0, "income": 0, "revenue": 0}, {"ein": "862299695", "name": "THE MEKOR HAYIM CENTER INC", "city": "BROOKLYN", "state": "NY", "zip": "11229-2438", "ntee": "", "ruling": "202106", "deductibility": "1", "assets": 442924, "income": 211546, "revenue": 211546}, {"ein": "933853372", "name": "MEKOR HAMAYAN INC", "city": "BROOKLYN", "state": "NY", "zip": "11219-0000", "ntee": "X30", "ruling": "202311", "deductibility": "1", "assets": 0, "income": 0, "revenue": 0}], "MALCHUSE": [{"ein": "113407052", "name": "AMERICAN FRIENDS OF LEVUSH MALCHUSE", "city": "BROOKLYN", "state": "NY", "zip": "11229-1106", "ntee": "X30", "ruling": "200509", "deductibility": "1", "assets": 0, "income": 0, "revenue": 0}], "NEELKANTH": [{"ein": "113419375", "name": "NEELKANTH MAHADEV MANDIR INC", "city": "HOLLIS", "state": "NY", "zip": "11423-0000", "ntee": "X70", "ruling": "200301", "deductibility": "1", "assets": 0, "income": 0, "revenue": 0}, {"ein": "852940928", "name": "NEELKANTH MAHADEV CENTER INC", "city": "HOLLIS", "state": "NY", "zip": "11423-3037", "ntee": "X70", "ruling": "202204", "deductibility": "1", "assets": 54320, "income": 45456, "revenue": 45456}], "MERKOZ": [{"ein": "113512961", "name": "CONG MERKOZ HALACHA", "city": "MONSEY", "state": "NY", "zip": "10952-3304", "ntee": "X30", "ruling": "200002", "deductibility": "1", "assets": 0, "income": 0, "revenue": 0}], "ZN": [{"ein": "113521335", "name": "ZN GEMILAS CHESED FOUNDATION", "city": "BROOKLYN", "state": "NY", "zip": "11211-8048", "ntee": "T20", "ruling": "200410", "deductibility": "1", "assets": 3245848, "income": 443417, "revenue": 0}], "VALERIE": [{"ein": "113555767", "name": "VALERIE AND JEFFREY S WILPON FOUNDATION", "city": "GARDEN CITY", "state": "NY", "zip": "11530-0000", "ntee": "T20", "ruling": "200108", "deductibility": "1", "assets": 10049, "income": 89925, "revenue": 0}, {"ein": "133324859", "name": "VALERIE ANNE BRIEHL FOUNDATION INC", "city": "WACCABUC", "state": "NY", "zip": "10597-1005", "ntee": "", "ruling": "198604", "deductibility": "1", "assets": 19507, "income": 6686, "revenue": 0}, {"ein": "136075504", "name": "VALERIE-CHARLES DIKER FUND INC", "city": "NEW YORK", "state": "NY", "zip": "10022-6995", "ntee": "", "ruling": "196103", "deductibility": "1", "assets": 6586823, "income": 556209, "revenue": 0}, {"ein": "872321352", "name": "NOEL AND VALERIE GRIER FOUNDATION", "city": "JAMAICA", "state": "NY", "zip": "11434-1448", "ntee": "A12", "ruling": "202111", "deductibility": "1", "assets": 1684, "income": 1684, "revenue": 0}, {"ein": "932926978", "name": "VALERIE S COMMUNITY KINSHIP COALITION INC", "city": "HOLMES", "state": "NY", "zip": "12531-5051", "ntee": "S99", "ruling": "202310", "deductibility": "1", "assets": 0, "income": 0, "revenue": 0}], "VEG": [{"ein": "113635922", "name": "CLUB VEG", "city": "ITHACA", "state": "NY", "zip": "14851-6786", "ntee": "K99", "ruling": "200305", "deductibility": "1", "assets": 0, "income": 0, "revenue": 0}], "HUCKLEBERRY": [{"ein": "131535027", "name": "HUCKLEBERRY INDIANS INC", "city": "NEW YORK", "state": "NY", "zip": "10019-1562", "ntee": "", "ruling": "196909", "deductibility": "2", "assets": 147944, "income": 242797, "revenue": 242797}], "SHAN": [{"ein": "132558697", "name": "YEE SHAN BENEVOLENT SOCIETY INC", "city": "NEW YORK", "state": "NY", "zip": "10002-6810", "ntee": "S99", "ruling": "202001", "deductibility": "2", "assets": 1627604, "income": 205080, "revenue": 103602}, {"ein": "134169519", "name": "TING JIANG TAI SHAN GONG BUDDHIST INC", "city": "NEW YORK", "state": "NY", "zip": "10002-7386", "ntee": "X21", "ruling": "200309", "deductibility": "1", "assets": 830623, "income": 83396, "revenue": 83396}, {"ein": "134183015", "name": "LING YAN SHAN BUDDHIST TEMPLE OF NEW YORK INC", "city": "ELMHURST", "state": "NY", "zip": "11373-4354", "ntee": "X50", "ruling": "200112", "deductibility": "1", "assets": 776969, "income": 85853, "revenue": 85853}, {"ein": "134190698", "name": "INTERNATIONAL HSU MI SHAN BUDDHIST ASSOCIATION INC", "city": "COLLEGE POINT", "state": "NY", "zip": "11356-2526", "ntee": "X50", "ruling": "200204", "deductibility": "1", "assets": 456481, "income": 8080, "revenue": 8080}, {"ein": "260306937", "name": "NAN SHAN LOCAL DEVELOPMENT CORP", "city": "NEW YORK", "state": "NY", "zip": "10002-3912", "ntee": "P99", "ruling": "200906", "deductibility": "1", "assets": 19440952, "income": 1515599, "revenue": 1515599}, {"ein": "260539712", "name": "FU SHAN ASSOCIATION INC", "city": "NEW YORK", "state": "NY", "zip": "10013-0000", "ntee": "P84", "ruling": "202311", "deductibility": "1", "assets": 0, "income": 0, "revenue": 0}, {"ein": "274262299", "name": "US GAN TIAN YI SHAN TEMPLE ASSOCIATION", "city": "NEW YORK", "state": "NY", "zip": "10002-4728", "ntee": "X50", "ruling": "201106", "deductibility": "1", "assets": 0, "income": 0, "revenue": 0}, {"ein": "334317239", "name": "SHAN XIU TAOIST TEMPLE INC", "city": "BROOKLYN", "state": "NY", "zip": "11214-4995", "ntee": "X50", "ruling": "202505", "deductibility": "1", "assets": 0, "income": 0, "revenue": 0}, {"ein": "352832850", "name": "USA GUAN YIN SHAN BUDDHIST FEDERATION IN NEW YORK CORPORATION", "city": "LITTLE NECK", "state": "NY", "zip": "11362-1421", "ntee": "X50", "ruling": "202411", "deductibility": "1", "assets": 0, "income": 0, "revenue": 0}, {"ein": "464493508", "name": "GOO SHAN FOUNDATION INC", "city": "NEW YORK", "state": "NY", "zip": "10013-4960", "ntee": "B82", "ruling": "201407", "deductibility": "1", "assets": 34173, "income": 1164, "revenue": 0}, {"ein": "464529729", "name": "TAI SHAN DU HU ASSOCIATION OF AMERICA INC", "city": "BROOKLYN", "state": "NY", "zip": "11220-7721", "ntee": "P81", "ruling": "201507", "deductibility": "1", "assets": 292326, "income": 27895, "revenue": 27895}, {"ein": "743111659", "name": "SHAN AND RAJAM THEVENTHIRAN CHARITABLE FOUNDATION", "city": "STATEN ISLAND", "state": "NY", "zip": "10306-1231", "ntee": "T20", "ruling": "200402", "deductibility": "1", "assets": 954152, "income": 34041, "revenue": 0}, {"ein": "843490535", "name": "AMERICAN DONG QI TAI SHAN BUDDHA FOUNDATION INC", "city": "NEW YORK", "state": "NY", "zip": "10038-1087", "ntee": "X50", "ruling": "202305", "deductibility": "1", "assets": 109081, "income": 45630, "revenue": 45630}, {"ein": "873301893", "name": "SHAN & QIU FAMILY FOUNDATION", "city": "BAYSIDE", "state": "NY", "zip": "11361-1250", "ntee": "B11", "ruling": "202203", "deductibility": "1", "assets": 273116, "income": 50560, "revenue": 0}, {"ein": "990452911", "name": "AMERICAN LING SHAN ASSOCIATION INC", "city": "NEW YORK", "state": "NY", "zip": "10038-1257", "ntee": "X50", "ruling": "202406", "deductibility": "1", "assets": 0, "income": 0, "revenue": 0}], "INTEDENOMINATIONAL": [{"ein": "132806978", "name": "HOLY TRINITY INTEDENOMINATIONAL CHRISTIAN COUNCIL INC TRINITY DAY", "city": "BRONX", "state": "NY", "zip": "10460-1758", "ntee": "", "ruling": "198101", "deductibility": "1", "assets": 0, "income": 0, "revenue": 0}], "STOREFRONT": [{"ein": "132940671", "name": "THE CHILDRENS STOREFRONT", "city": "NEW YORK", "state": "NY", "zip": "10035-0807", "ntee": "", "ruling": "199408", "deductibility": "1", "assets": 5255246, "income": 745585, "revenue": 745585}, {"ein": "133525743", "name": "STOREFRONT FOR ART AND ARCHITECTURE INC", "city": "NEW YORK", "state": "NY", "zip": "10012-4506", "ntee": "A510", "ruling": "198907", "deductibility": "1", "assets": 2812636, "income": 2816753, "revenue": 2714386}, {"ein": "471938137", "name": "STOREFRONT ACADEMY CHARTER SCHOOL SOUTH BRONX", "city": "BRONX", "state": "NY", "zip": "10455-3106", "ntee": "B29", "ruling": "201608", "deductibility": "1", "assets": 32150831, "income": 9908266, "revenue": 9908266}, {"ein": "843819060", "name": "STOREFRONT CHURCH-MISSION", "city": "NEW YORK", "state": "NY", "zip": "10011-3307", "ntee": "", "ruling": "197404", "deductibility": "1", "assets": 0, "income": 0, "revenue": 0}, {"ein": "932594400", "name": "FRIENDS OF STOREFRONT ACADEMY CHARTER SCHOOL INC", "city": "NEW YORK", "state": "NY", "zip": "10029-1702", "ntee": "B19", "ruling": "202406", "deductibility": "1", "assets": 0, "income": 0, "revenue": 0}], "DREYFUS": [{"ein": "132947180", "name": "JEAN AND LOUIS DREYFUS FOUNDATION INC", "city": "NEW YORK", "state": "NY", "zip": "10022-5306", "ntee": "", "ruling": "197910", "deductibility": "1", "assets": 13131507, "income": 12149674, "revenue": 0}, {"ein": "135570117", "name": "CAMILLE AND HENRY DREYFUS FOUNDATION INC", "city": "NEW YORK", "state": "NY", "zip": "10174-0002", "ntee": "", "ruling": "194709", "deductibility": "1", "assets": 105827263, "income": 13801886, "revenue": 0}, {"ein": "136086089", "name": "DREYFUS CHARITABLE FOUNDATION", "city": "BAYPORT", "state": "NY", "zip": "11705-0817", "ntee": "", "ruling": "196207", "deductibility": "1", "assets": 1429922, "income": 371013, "revenue": 0}], "UFA": [{"ein": "133047544", "name": "UFA WIDOWS & CHILDRENS FUND", "city": "NEW YORK", "state": "NY", "zip": "10010-4628", "ntee": "", "ruling": "198107", "deductibility": "1", "assets": 14900394, "income": 10648996, "revenue": 998065}, {"ein": "133648182", "name": "UFA-UFOA WELFARE FUND OF NEW YORK", "city": "DOUGLASTON", "state": "NY", "zip": "11363-1122", "ntee": "", "ruling": "199306", "deductibility": "2", "assets": 0, "income": 0, "revenue": 0}], "NOVOMINSK": [{"ein": "133071539", "name": "YESHIVAS NOVOMINSK", "city": "BROOKLYN", "state": "NY", "zip": "11204-2138", "ntee": "", "ruling": "198108", "deductibility": "1", "assets": 0, "income": 0, "revenue": 0}], "INFINITY": [{"ein": "133159260", "name": "INFINITY BIBLE CHURCH INC", "city": "BRONX", "state": "NY", "zip": "10472-1602", "ntee": "X20", "ruling": "199902", "deductibility": "1", "assets": 0, "income": 0, "revenue": 0}, {"ein": "133829236", "name": "INFINITY DANCE THEATER COMPANY LTD", "city": "NEW YORK", "state": "NY", "zip": "10025-7484", "ntee": "A620", "ruling": "201611", "deductibility": "1", "assets": 40312, "income": 110150, "revenue": 110150}, {"ein": "300268598", "name": "INFINITY VISUAL AND PERFORMING ARTS INC", "city": "JAMESTOWN", "state": "NY", "zip": "14701-5444", "ntee": "", "ruling": "200510", "deductibility": "1", "assets": 1694574, "income": 777670, "revenue": 772193}, {"ein": "470978365", "name": "INFINITY LOVE FOUNDATION INC", "city": "CENTRAL ISLIP", "state": "NY", "zip": "11722-0922", "ntee": "O30", "ruling": "201510", "deductibility": "1", "assets": 0, "income": 0, "revenue": 0}, {"ein": "811046988", "name": "INFINITY EDUCATIONAL SPECIAL PROGRAMS CORP", "city": "BROOKLYN", "state": "NY", "zip": "11229-6528", "ntee": "B20", "ruling": "202107", "deductibility": "1", "assets": 10085, "income": 0, "revenue": 0}, {"ein": "823918584", "name": "INFINITY TWIRLERS INC", "city": "GRAND ISLAND", "state": "NY", "zip": "14072-2851", "ntee": "A6E", "ruling": "201805", "deductibility": "1", "assets": 0, "income": 0, "revenue": 0}, {"ein": "923537789", "name": "SOUTH JAMAICA INFINITY GARDEN", "city": "JAMAICA", "state": "NY", "zip": "11436-1414", "ntee": "B90", "ruling": "202505", "deductibility": "1", "assets": 0, "income": 0, "revenue": 0}, {"ein": "933258458", "name": "INFINITY 9 INC", "city": "ALBANY", "state": "NY", "zip": "12207-2834", "ntee": "P12", "ruling": "202309", "deductibility": "1", "assets": 0, "income": 0, "revenue": 0}], "PEST": [{"ein": "133206788", "name": "NEW YORK STATE PEST CONTROL ASSOCIATION INCORPORATED", "city": "ALBANY", "state": "NY", "zip": "12206-1350", "ntee": "S41", "ruling": "200204", "deductibility": "2", "assets": 192390, "income": 268203, "revenue": 268203}, {"ein": "223048438", "name": "NEW ENGLAND PEST CONTROL ASSOC INC", "city": "NEW YORK", "state": "NY", "zip": "10018-8403", "ntee": "", "ruling": "199303", "deductibility": "2", "assets": 303977, "income": 181791, "revenue": 181791}], "SEAVER": [{"ein": "133251432", "name": "BEATRICE & SAMUEL A SEAVER FOUNDATION", "city": "NEW YORK", "state": "NY", "zip": "10018-0000", "ntee": "", "ruling": "198606", "deductibility": "1", "assets": 124246545, "income": 13005381, "revenue": 0}, {"ein": "990800916", "name": "SEAVER AVENUE YOUTH SPORTS ORGANIZATION", "city": "STATEN ISLAND", "state": "NY", "zip": "10306-3130", "ntee": "N60", "ruling": "202401", "deductibility": "1", "assets": 2950, "income": 4450, "revenue": 4450}], "RICHMAN": [{"ein": "133332711", "name": "RICHMAN FAMILY FOUNDATION", "city": "NEW YORK", "state": "NY", "zip": "10016-7701", "ntee": "", "ruling": "198606", "deductibility": "1", "assets": 31331325, "income": 803555, "revenue": 0}, {"ein": "237332991", "name": "BAILEY-RICHMAN POST NO 9588 VETERANS OF FOREIGN WARS", "city": "MONTICELLO", "state": "NY", "zip": "12701-0035", "ntee": "", "ruling": "201602", "deductibility": "1", "assets": 0, "income": 0, "revenue": 0}], "MIMI": [{"ein": "133383348", "name": "HAROLD & MIMI STEINBERG CHARITABLE TRUST", "city": "NEW YORK", "state": "NY", "zip": "10022-3902", "ntee": "", "ruling": "198701", "deductibility": "1", "assets": 60933581, "income": 12202556, "revenue": 0}, {"ein": "237205214", "name": "MIMI GARRARD DANCE COMPANY INC", "city": "MIDDLETOWN", "state": "NY", "zip": "10940-7152", "ntee": "", "ruling": "197301", "deductibility": "1", "assets": 2752, "income": 4400, "revenue": 4400}, {"ein": "352813755", "name": "MIMI FAMILY FOUNDATION", "city": "CEDARHURST", "state": "NY", "zip": "11516-1415", "ntee": "B28", "ruling": "202309", "deductibility": "1", "assets": 45609, "income": 45609, "revenue": 45609}, {"ein": "471465110", "name": "THE MIMI SALTZMAN FAMILY FOUNDATION INC", "city": "NEW YORK", "state": "NY", "zip": "10010-0000", "ntee": "T22", "ruling": "201412", "deductibility": "1", "assets": 3599253, "income": 765547, "revenue": 0}, {"ein": "476391735", "name": "MIMI AND PAUL LEE FOUNDATION", "city": "BROOKLYN", "state": "NY", "zip": "11201-4579", "ntee": "T22", "ruling": "201502", "deductibility": "1", "assets": 502921, "income": 96733, "revenue": 0}, {"ein": "510220854", "name": "JACK & MIMI LEVITON AMSTERDAM FDN", "city": "BEDFORD HILLS", "state": "NY", "zip": "10507-2207", "ntee": "", "ruling": "197702", "deductibility": "1", "assets": 1557489, "income": 1024178, "revenue": 0}, {"ein": "851714135", "name": "MIMI SO FOUNDATION", "city": "NEW YORK", "state": "NY", "zip": "10017-2496", "ntee": "T30", "ruling": "202007", "deductibility": "1", "assets": 0, "income": 0, "revenue": 0}, {"ein": "920754070", "name": "YAYE MIMI CHARITY INC", "city": "BRONX", "state": "NY", "zip": "10460-5212", "ntee": "P40", "ruling": "202302", "deductibility": "1", "assets": 0, "income": 0, "revenue": 0}], "PHF": [{"ein": "133409677", "name": "PHF HOUSING DEVELOPMENT FUND COMPANY INC", "city": "WEST NYACK", "state": "NY", "zip": "10994-0000", "ntee": "", "ruling": "198708", "deductibility": "1", "assets": 4866062, "income": 443869, "revenue": 443869}], "DOROTHEA": [{"ein": "133420520", "name": "DOROTHEA L LEONHARDT FOUNDATION INC", "city": "BELLEROSE", "state": "NY", "zip": "11426-1846", "ntee": "", "ruling": "198709", "deductibility": "1", "assets": 3747674, "income": 1921653, "revenue": 0}, {"ein": "133864335", "name": "DOROTHEA TANNING FOUNDATION INC", "city": "NEW YORK", "state": "NY", "zip": "10013-1453", "ntee": "T20J", "ruling": "199701", "deductibility": "1", "assets": 17149, "income": 1, "revenue": 0}, {"ein": "134091650", "name": "DOROTHEA AND LEO RABKIN FOUNDATION", "city": "NEW YORK", "state": "NY", "zip": "10011-3502", "ntee": "T22", "ruling": "200010", "deductibility": "1", "assets": 25068528, "income": 8880511, "revenue": 0}, {"ein": "136028780", "name": "WILLIAM & DOROTHEA TITUS FOUNDATION INC", "city": "NEW YORK", "state": "NY", "zip": "10036-4195", "ntee": "", "ruling": "196009", "deductibility": "1", "assets": 150317, "income": 31483, "revenue": 0}, {"ein": "454909033", "name": "DOROTHEA HELINE GERSON FOUNDATION", "city": "TUCKAHOE", "state": "NY", "zip": "10707-4164", "ntee": "T20", "ruling": "202311", "deductibility": "1", "assets": 44697, "income": 47647, "revenue": 0}, {"ein": "823904385", "name": "DOROTHEA ROCKBURNE FOUNDATION INC", "city": "NEW YORK", "state": "NY", "zip": "10013-3132", "ntee": "T23", "ruling": "201812", "deductibility": "1", "assets": 795980, "income": 747647, "revenue": 0}], "WINGEN": [{"ein": "133491407", "name": "WINGEN FOUNDATION", "city": "WESTTOWN", "state": "NY", "zip": "10998-0000", "ntee": "", "ruling": "000000", "deductibility": "0", "assets": 209054, "income": 70578, "revenue": 0}], "GUIDO": [{"ein": "133506104", "name": "HELENKA AND GUIDO PANTALEONI FOUND ATION INC", "city": "WHITE PLAINS", "state": "NY", "zip": "10605-3824", "ntee": "", "ruling": "198903", "deductibility": "1", "assets": 23038, "income": 26934, "revenue": 0}, {"ein": "161559984", "name": "GUIDO AND ELLEN PALMA FOUNDATION INC", "city": "ROCHESTER", "state": "NY", "zip": "14604-2564", "ntee": "T20", "ruling": "199907", "deductibility": "1", "assets": 1206749, "income": 654960, "revenue": 0}], "KHOEI": [{"ein": "133572658", "name": "AL-KHOEI BENEVOLENT FOUNDATION INC", "city": "JAMAICA", "state": "NY", "zip": "11435-4123", "ntee": "", "ruling": "199008", "deductibility": "1", "assets": 0, "income": 0, "revenue": 0}], "WHOSOEVER": [{"ein": "133666464", "name": "WHOSOEVER WILL HOLY HOUSE OF PRAYER INC", "city": "BRONX", "state": "NY", "zip": "10460-2246", "ntee": "X20", "ruling": "200005", "deductibility": "1", "assets": 0, "income": 0, "revenue": 0}, {"ein": "133981444", "name": "CHURCH OF WHOSOEVER WILL LET THEM COME TO CHRIST INC", "city": "BRONX", "state": "NY", "zip": "10453-6210", "ntee": "X20Z", "ruling": "199808", "deductibility": "1", "assets": 0, "income": 0, "revenue": 0}, {"ein": "900482451", "name": "WHOSOEVER WILL COME CHURCH OF JESUS CHRIST INC", "city": "BROOKLYN", "state": "NY", "zip": "11233-3127", "ntee": "X20", "ruling": "201110", "deductibility": "1", "assets": 0, "income": 0, "revenue": 0}], "YANGTZE": [{"ein": "133698610", "name": "YANGTZE REPERTORY THEATRE OF AMERICA INC", "city": "NEW YORK", "state": "NY", "zip": "10013-4100", "ntee": "", "ruling": "199404", "deductibility": "1", "assets": 203693, "income": 186099, "revenue": 186099}], "NOSWAL": [{"ein": "133854719", "name": "NOSWAL PARK TAXPAYERS ASSOCIATION INC", "city": "PUTNAM VALLEY", "state": "NY", "zip": "10579-2130", "ntee": "N31", "ruling": "202004", "deductibility": "2", "assets": 0, "income": 0, "revenue": 0}], "NETANYA": [{"ein": "133937453", "name": "AMERICAN FRIENDS OF NETANYA COLLEGE INC", "city": "NEW YORK", "state": "NY", "zip": "10016-0601", "ntee": "T11", "ruling": "199705", "deductibility": "1", "assets": 568, "income": 270727, "revenue": 270727}, {"ein": "463042390", "name": "FRIENDS OF HADAR YISROEL NETANYA INC", "city": "BROOKLYN", "state": "NY", "zip": "11204-1533", "ntee": "X123", "ruling": "201310", "deductibility": "1", "assets": 3767, "income": 384257, "revenue": 384257}, {"ein": "521594262", "name": "THE NETANYA FOUNDATION INC", "city": "MELVILLE", "state": "NY", "zip": "11747-4909", "ntee": "", "ruling": "199001", "deductibility": "1", "assets": 97333, "income": 265293, "revenue": 265293}], "WAVERLY": [{"ein": "133948925", "name": "WAVERLY RESIDENCE INC", "city": "BOHEMIA", "state": "NY", "zip": "11716-1022", "ntee": "P82", "ruling": "199710", "deductibility": "1", "assets": 457072, "income": 76146, "revenue": 76146}, {"ein": "134273310", "name": "WAVERLY YOUTH COUNCIL", "city": "ST REGIS FLS", "state": "NY", "zip": "12980-0051", "ntee": "P30", "ruling": "200405", "deductibility": "1", "assets": 0, "income": 0, "revenue": 0}, {"ein": "150592911", "name": "WAVERLY FREE LIBRARY", "city": "WAVERLY", "state": "NY", "zip": "14892-1311", "ntee": "B71Z", "ruling": "197912", "deductibility": "1", "assets": 575566, "income": 423892, "revenue": 43826}, {"ein": "161299735", "name": "WAVERLY POLICE BEN ASSN", "city": "WAVERLY", "state": "NY", "zip": "14892-1532", "ntee": "I600", "ruling": "199312", "deductibility": "1", "assets": 0, "income": 0, "revenue": 0}, {"ein": "161429909", "name": "ROTARY CLUB OF WAVERLY NEW YORK FOUNDATION INC", "city": "WAVERLY", "state": "NY", "zip": "14892-0717", "ntee": "T30", "ruling": "202305", "deductibility": "1", "assets": 0, "income": 0, "revenue": 0}, {"ein": "166054516", "name": "COMMUNITY CHEST OF WAVERLY NEW YORK INC", "city": "WAVERLY", "state": "NY", "zip": "14892-0844", "ntee": "T700", "ruling": "199301", "deductibility": "1", "assets": 39858, "income": 43078, "revenue": 25182}, {"ein": "237056376", "name": "CHRISTIAN AND MISSIONARY ALLIANCE OF WAVERLY TIOGA COUNTY NY", "city": "WAVERLY", "state": "NY", "zip": "14892-1334", "ntee": "", "ruling": "197205", "deductibility": "1", "assets": 0, "income": 0, "revenue": 0}, {"ein": "237455752", "name": "WAVERLY AVENUE BLOCK ASSOCIATION", "city": "BROOKLYN", "state": "NY", "zip": "11205-2404", "ntee": "S22", "ruling": "201211", "deductibility": "2", "assets": 0, "income": 0, "revenue": 0}, {"ein": "261977953", "name": "FRIENDS OF WAVERLY CEMETERY PRESERVATION", "city": "WAVERLY", "state": "NY", "zip": "14892-1205", "ntee": "T30", "ruling": "200901", "deductibility": "1", "assets": 0, "income": 0, "revenue": 0}, {"ein": "471268218", "name": "WAVERLY HISTORICAL SOCIETY INC", "city": "WAVERLY", "state": "NY", "zip": "14892-0045", "ntee": "A80", "ruling": "201502", "deductibility": "1", "assets": 0, "income": 0, "revenue": 0}, {"ein": "814238797", "name": "WAVERLY RECREATION BOOSTER CLUB INC", "city": "WAVERLY", "state": "NY", "zip": "14892-1446", "ntee": "N99", "ruling": "201611", "deductibility": "1", "assets": 0, "income": 0, "revenue": 0}, {"ein": "815288230", "name": "WAVERLY POND FARM EQUINE RESCUE", "city": "BUFFALO", "state": "NY", "zip": "14202-1509", "ntee": "D20", "ruling": "201703", "deductibility": "1", "assets": 0, "income": 0, "revenue": 0}, {"ein": "821457256", "name": "WAVERLY CHOW FOR CHILDREN", "city": "WAVERLY", "state": "NY", "zip": "14892-1448", "ntee": "K31", "ruling": "201706", "deductibility": "1", "assets": 0, "income": 0, "revenue": 0}, {"ein": "831009642", "name": "CONGREGATION WAVERLY GARDENS", "city": "BROOKLYN", "state": "NY", "zip": "11219-3430", "ntee": "X30", "ruling": "202011", "deductibility": "1", "assets": 0, "income": 0, "revenue": 0}, {"ein": "881139750", "name": "WAVERLY AVENUE RESPECT LIFE INC", "city": "BAYPORT", "state": "NY", "zip": "11705-3005", "ntee": "P45", "ruling": "202204", "deductibility": "1", "assets": 0, "income": 0, "revenue": 0}, {"ein": "921718341", "name": "WAVERLY ARCHERY & SKEET TEAM", "city": "WAVERLY", "state": "NY", "zip": "14892-1426", "ntee": "N70", "ruling": "202301", "deductibility": "1", "assets": 0, "income": 0, "revenue": 0}, {"ein": "924021850", "name": "WAVERLY COMMUNITY METHODIST CHURCH", "city": "WAVERLY", "state": "NY", "zip": "14892-1341", "ntee": "X21", "ruling": "202505", "deductibility": "1", "assets": 0, "income": 0, "revenue": 0}], "NOLA": [{"ein": "134014432", "name": "NOLA FOUNDATION", "city": "NEW YORK", "state": "NY", "zip": "10017-1307", "ntee": "T20", "ruling": "199901", "deductibility": "1", "assets": 2759117, "income": 4173031, "revenue": 0}, {"ein": "271362277", "name": "NOLA TREE", "city": "LARCHMONT", "state": "NY", "zip": "10538-1314", "ntee": "T40", "ruling": "201006", "deductibility": "1", "assets": 0, "income": 0, "revenue": 0}], "PANO": [{"ein": "134019063", "name": "PANO PRA MANGA ARTS INC", "city": "NEW YORK", "state": "NY", "zip": "10009-3577", "ntee": "A62", "ruling": "200010", "deductibility": "1", "assets": 0, "income": 0, "revenue": 0}, {"ein": "832214603", "name": "PANO NETWORK INC", "city": "BRONX", "state": "NY", "zip": "10463-2600", "ntee": "A31", "ruling": "201811", "deductibility": "1", "assets": 40503, "income": 64336, "revenue": 64336}], "ELEMEN": [{"ein": "135602328", "name": "EAST END TEMPLE-CONGREGATION ELEMEN T", "city": "NEW YORK", "state": "NY", "zip": "10010-0000", "ntee": "X30", "ruling": "199810", "deductibility": "1", "assets": 0, "income": 0, "revenue": 0}], "YANOW": [{"ein": "137111098", "name": "MITCHELL AND ELAINE YANOW CHARITABLE TR 052097", "city": "NEW YORK", "state": "NY", "zip": "10005-0000", "ntee": "T20Z", "ruling": "199808", "deductibility": "1", "assets": 1405504, "income": 101047, "revenue": 0}], "OCONNOR": [{"ein": "137557714", "name": "OCONNOR FAM FOUNDATION", "city": "NEW YORK", "state": "NY", "zip": "10022-4214", "ntee": "T22", "ruling": "200711", "deductibility": "1", "assets": 7473871, "income": 1262791, "revenue": 0}, {"ein": "161540394", "name": "OCONNOR HOSPITAL", "city": "DELHI", "state": "NY", "zip": "13753-7407", "ntee": "E22Z", "ruling": "199806", "deductibility": "1", "assets": 41031766, "income": 22201131, "revenue": 22201131}, {"ein": "166063485", "name": "OCONNOR FOUNDATION", "city": "DELHI", "state": "NY", "zip": "13753-2202", "ntee": "", "ruling": "000000", "deductibility": "1", "assets": 63058220, "income": 37649985, "revenue": 0}, {"ein": "237224948", "name": "JAMES CHARLES OCONNOR FOUNDATION INC", "city": "NEW YORK", "state": "NY", "zip": "10119-0000", "ntee": "", "ruling": "197404", "deductibility": "1", "assets": 8492, "income": 1, "revenue": 0}, {"ein": "264557176", "name": "DENNIS JAMES OCONNOR JR SCHOLARSHIP FUND LTD", "city": "STONY POINT", "state": "NY", "zip": "10980-3404", "ntee": "T22", "ruling": "201105", "deductibility": "1", "assets": 78126, "income": 2632, "revenue": 0}, {"ein": "334131371", "name": "DAN OCONNOR FOUNDATION INC", "city": "YORKTOWN HTS", "state": "NY", "zip": "10598-3610", "ntee": "B82", "ruling": "202505", "deductibility": "1", "assets": 0, "income": 0, "revenue": 0}, {"ein": "883452820", "name": "TRINITY OCONNOR FOUNDATION", "city": "SIDNEY", "state": "NY", "zip": "13838-1403", "ntee": "W12", "ruling": "202209", "deductibility": "1", "assets": 0, "income": 0, "revenue": 0}], "SRS": [{"ein": "141348695", "name": "SRS OF THE CATHOLIC APOSTOLATE", "city": "MONROE", "state": "NY", "zip": "10950-5555", "ntee": "", "ruling": "194603", "deductibility": "1", "assets": 0, "income": 0, "revenue": 0}, {"ein": "472274823", "name": "SRS FAMILY FOUNDATION INC", "city": "NEW YORK", "state": "NY", "zip": "10003-3330", "ntee": "T22", "ruling": "201510", "deductibility": "1", "assets": 67963350, "income": 65077494, "revenue": 0}, {"ein": "843822152", "name": "SRS FOUNDATION", "city": "BROOKLYN", "state": "NY", "zip": "11211-6651", "ntee": "Z99", "ruling": "202001", "deductibility": "1", "assets": 307266, "income": 32175, "revenue": 0}], "NORTHWOOD": [{"ein": "141401103", "name": "NORTHWOOD SCHOOL", "city": "LAKE PLACID", "state": "NY", "zip": "12946-3625", "ntee": "", "ruling": "193806", "deductibility": "1", "assets": 28162813, "income": 10017816, "revenue": 9648094}, {"ein": "853498171", "name": "NORTHWOOD VOLUNTEER ELEMENTARY PARENT TEACHER ORG", "city": "HILTON", "state": "NY", "zip": "14468-1255", "ntee": "B94", "ruling": "202105", "deductibility": "1", "assets": 0, "income": 0, "revenue": 0}, {"ein": "991252318", "name": "NORTHWOOD PTO INC", "city": "WEST SENECA", "state": "NY", "zip": "14224-1524", "ntee": "B11", "ruling": "202402", "deductibility": "1", "assets": 0, "income": 0, "revenue": 0}], "MONDAY": [{"ein": "141601407", "name": "MONDAY CLUB OF SAUGERTIES", "city": "SAUGERTIES", "state": "NY", "zip": "12477-3830", "ntee": "T30", "ruling": "201504", "deductibility": "1", "assets": 0, "income": 0, "revenue": 0}, {"ein": "166041258", "name": "THE MONDAY EVENING MUSICAL CLUB", "city": "OXFORD", "state": "NY", "zip": "13830-3205", "ntee": "", "ruling": "198604", "deductibility": "1", "assets": 0, "income": 0, "revenue": 0}, {"ein": "300943540", "name": "GREEN MONDAY FOUNDATION USA", "city": "NEW YORK", "state": "NY", "zip": "10022-1106", "ntee": "C30", "ruling": "202012", "deductibility": "1", "assets": 3375, "income": 4000, "revenue": 4000}, {"ein": "331021506", "name": "UTICA MONDAY NITE CORPORATION", "city": "UTICA", "state": "NY", "zip": "13503-0277", "ntee": "B99", "ruling": "200309", "deductibility": "1", "assets": 10614, "income": 80681, "revenue": 80681}, {"ein": "562373510", "name": "THIRD MONDAY FOUNDATION", "city": "PAWLING", "state": "NY", "zip": "12564-1125", "ntee": "T30", "ruling": "200311", "deductibility": "1", "assets": 11584, "income": 9006, "revenue": 9006}, {"ein": "863604433", "name": "MONDAY MIRACLES INC", "city": "ROSLYN", "state": "NY", "zip": "11576-1735", "ntee": "K30", "ruling": "202108", "deductibility": "1", "assets": 0, "income": 0, "revenue": 0}], "SYNCHRO": [{"ein": "141795988", "name": "SCULPINS SYNCHRO", "city": "CLIFTON PARK", "state": "NY", "zip": "12065-0811", "ntee": "N67", "ruling": "199703", "deductibility": "1", "assets": 0, "income": 0, "revenue": 0}, {"ein": "822648959", "name": "GOTHAM CITY SYNCHRO", "city": "BROOKLYN", "state": "NY", "zip": "11215-6262", "ntee": "N50", "ruling": "201807", "deductibility": "2", "assets": 0, "income": 0, "revenue": 0}], "LUDDEN": [{"ein": "150628305", "name": "BISHOP LUDDEN HIGH SCHOOL", "city": "SYRACUSE", "state": "NY", "zip": "13219-3009", "ntee": "", "ruling": "194603", "deductibility": "0", "assets": 0, "income": 0, "revenue": 0}, {"ein": "161401398", "name": "LUDDEN HOUSING DEVELOPMENT FUND COMPANY INC", "city": "SYRACUSE", "state": "NY", "zip": "13219-3053", "ntee": "L22Z", "ruling": "000000", "deductibility": "1", "assets": 2150853, "income": 540923, "revenue": 540923}, {"ein": "237035411", "name": "MONSIGNOR DAVID C GILDEA FOUNDATION FOR BISHOP LUDDEN HIGH SCHOOL", "city": "SYRACUSE", "state": "NY", "zip": "13202-2608", "ntee": "", "ruling": "194603", "deductibility": "1", "assets": 0, "income": 0, "revenue": 0}], "TATLER": [{"ein": "160658345", "name": "TATLER INC", "city": "NIAGARA FALLS", "state": "NY", "zip": "14303-1237", "ntee": "Z99Z", "ruling": "193908", "deductibility": "2", "assets": 69102, "income": 55083, "revenue": 55083}, {"ein": "812863643", "name": "TATLER HISTORIC PRESERVATION FOUNDATION INC", "city": "NIAGARA FALLS", "state": "NY", "zip": "14303-1237", "ntee": "A80", "ruling": "201708", "deductibility": "1", "assets": 36202, "income": 53231, "revenue": 48796}], "RADIOPHARMACEUTICAL": [{"ein": "161272040", "name": "CENTRAL RADIOPHARMACEUTICAL SERVICE INC", "city": "BUFFALO", "state": "NY", "zip": "14214-3001", "ntee": "", "ruling": "198802", "deductibility": "1", "assets": 79156, "income": 93271, "revenue": 93271}], "MCDONOUGH": [{"ein": "161549223", "name": "MCDONOUGH IMPROVEMENT COMMITTEE INC", "city": "MCDONOUGH", "state": "NY", "zip": "13801-2153", "ntee": "", "ruling": "199808", "deductibility": "2", "assets": 0, "income": 0, "revenue": 0}, {"ein": "204576758", "name": "MCDONOUGH FOUNDATION INC", "city": "CARMEL", "state": "NY", "zip": "10512-3781", "ntee": "T20", "ruling": "200609", "deductibility": "1", "assets": 0, "income": 0, "revenue": 0}, {"ein": "651247861", "name": "JIMMY MCDONOUGH SCHOLARSHIP FUND", "city": "MAHOPAC", "state": "NY", "zip": "10541-2001", "ntee": "B82", "ruling": "200601", "deductibility": "1", "assets": 0, "income": 0, "revenue": 0}], "HAVJAZZ": [{"ein": "161606070", "name": "HAVJAZZ INC", "city": "VICTOR", "state": "NY", "zip": "14564-9016", "ntee": "A68", "ruling": "200107", "deductibility": "1", "assets": 0, "income": 0, "revenue": 0}], "MATTIE": [{"ein": "166237917", "name": "LYNN E & MATTIE G MCCONNELL FOUNDATION & SCHOLARSHIP FUND", "city": "PITTSFORD", "state": "NY", "zip": "14534-3838", "ntee": "", "ruling": "000000", "deductibility": "0", "assets": 145020, "income": 9812, "revenue": 0}], "CHSEE": [{"ein": "200349620", "name": "CHSEE INC", "city": "MINEOLA", "state": "NY", "zip": "11501-0361", "ntee": "A20", "ruling": "200401", "deductibility": "1", "assets": 120488, "income": 123771, "revenue": 123771}], "KNOTT": [{"ein": "200495479", "name": "KNOTT FAMILY FOUNDATION", "city": "SYOSSET", "state": "NY", "zip": "11791-3434", "ntee": "T30", "ruling": "200410", "deductibility": "1", "assets": 3609796, "income": 1541692, "revenue": 0}], "ZEVI": [{"ein": "200599281", "name": "ZEVI AND LILLIANNE SAMEL FOUNDATION INC", "city": "NEW YORK", "state": "NY", "zip": "10025-0000", "ntee": "T22", "ruling": "200810", "deductibility": "1", "assets": 336, "income": 1, "revenue": 0}], "DISCO": [{"ein": "200746920", "name": "UGLY DISCO INC", "city": "ROCHESTER", "state": "NY", "zip": "14618-3123", "ntee": "T20", "ruling": "200512", "deductibility": "1", "assets": 12228, "income": 47993, "revenue": 10689}], "CALENDARING": [{"ein": "200870121", "name": "CALENDARING AND SCHEDULING CONSORTIUM", "city": "TROY", "state": "NY", "zip": "12180-4463", "ntee": "S41", "ruling": "200411", "deductibility": "2", "assets": 53562, "income": 41500, "revenue": 41500}], "DURAND": [{"ein": "201373553", "name": "DURAND EASTMAN GOLF CLUB INC", "city": "ROCHESTER", "state": "NY", "zip": "14622-2716", "ntee": "N50", "ruling": "200806", "deductibility": "2", "assets": 15856, "income": 44613, "revenue": 18290}], "NOAHIDE": [{"ein": "202148688", "name": "INSTITUTE OF NOAHIDE CODE", "city": "BROOKLYN", "state": "NY", "zip": "11225-3047", "ntee": "X99", "ruling": "201304", "deductibility": "1", "assets": 0, "income": 0, "revenue": 0}], "SCHONBERGER": [{"ein": "203295496", "name": "BAIS YAAKOV FAIGEH SCHONBERGER OF ADAS YEREIM", "city": "BROOKLYN", "state": "NY", "zip": "11219-4104", "ntee": "B20", "ruling": "200608", "deductibility": "1", "assets": 0, "income": 0, "revenue": 0}, {"ein": "861144704", "name": "A AND R SCHONBERGER FAMILY FOUNDATION", "city": "BROOKLYN", "state": "NY", "zip": "11219-3628", "ntee": "T20", "ruling": "201001", "deductibility": "1", "assets": 7857030, "income": 3172255, "revenue": 0}, {"ein": "874355908", "name": "GLORIA SCHONBERGER CHARITABLE TRUST", "city": "BROOKLYN", "state": "NY", "zip": "11219-4523", "ntee": "T90", "ruling": "202204", "deductibility": "1", "assets": 1537836, "income": 222184, "revenue": 0}], "KASHPER": [{"ein": "203903199", "name": "KASHPER FAMILY FOUNDATION", "city": "FOREST HILLS", "state": "NY", "zip": "11375-7208", "ntee": "T20", "ruling": "200611", "deductibility": "1", "assets": 1502203, "income": 785473, "revenue": 0}], "NEIGHBORSBLOCK": [{"ein": "204307741", "name": "EAST LOVEJOY COALITION OF NEIGHBORSBLOCK CLUB", "city": "BUFFALO", "state": "NY", "zip": "14206-1206", "ntee": "S21", "ruling": "202501", "deductibility": "1", "assets": 0, "income": 0, "revenue": 0}], "ROEPERS": [{"ein": "206373575", "name": "ALEXANDER J ROEPERS FOUNDATION", "city": "NEW YORK", "state": "NY", "zip": "10019-0000", "ntee": "T22", "ruling": "200501", "deductibility": "1", "assets": 1109958, "income": 1695168, "revenue": 0}, {"ein": "462213924", "name": "SHAFI ROEPERS CHARITABLE FOUNDATION", "city": "NEW YORK", "state": "NY", "zip": "10065-6564", "ntee": "T20", "ruling": "201310", "deductibility": "1", "assets": 1256432, "income": 139212, "revenue": 0}], "KRAFT": [{"ein": "207233227", "name": "WILLIAM KRAFT TW FBO EMANUEL LUTHERAN CHURCH", "city": "BUFFALO", "state": "NY", "zip": "14240-1504", "ntee": "T20", "ruling": "200805", "deductibility": "1", "assets": 488070, "income": 160246, "revenue": 0}, {"ein": "207233312", "name": "WILLIAM KRAFT TW FBO ZION UNITEDMETHODIST CH", "city": "BUFFALO", "state": "NY", "zip": "14240-1504", "ntee": "T22", "ruling": "200806", "deductibility": "1", "assets": 470475, "income": 158519, "revenue": 0}], "IMPLANTS": [{"ein": "208263370", "name": "INTERNATIONAL ACADEMY OF MINIDENTAL IMPLANTS", "city": "AMHERST", "state": "NY", "zip": "14226-4927", "ntee": "E99", "ruling": "201407", "deductibility": "2", "assets": 25786, "income": 73569, "revenue": 73569}], "SOUTHFAL": [{"ein": "222736793", "name": "THE FIRST CHURCH OF GOD OF SOUTHFAL LSBURG INC", "city": "S FALLSBURG", "state": "NY", "zip": "12779-0508", "ntee": "", "ruling": "198607", "deductibility": "1", "assets": 0, "income": 0, "revenue": 0}], "BO8900": [{"ein": "236795638", "name": "HAROLD & EVELYN W MATTHEWS TRUST U-A CHARITABLE BO8900", "city": "AMHERST", "state": "NY", "zip": "14228-2307", "ntee": "", "ruling": "198612", "deductibility": "1", "assets": 598226, "income": 149785, "revenue": 0}], "SHMYEL": [{"ein": "237185841", "name": "CONGREGATION KOLLEL BETH SHMYEL ARON", "city": "BROOKLYN", "state": "NY", "zip": "11218-3511", "ntee": "", "ruling": "197207", "deductibility": "1", "assets": 0, "income": 0, "revenue": 0}], "GPA": [{"ein": "237373227", "name": "MILITARY AND HOSPITALLER ORD OF ST LAZARUS OF JERUSALEM GPA-ATLANTIC", "city": "NEW YORK", "state": "NY", "zip": "10021-4534", "ntee": "E20", "ruling": "197410", "deductibility": "1", "assets": 0, "income": 0, "revenue": 0}], "PROBER": [{"ein": "262092005", "name": "MICHAEL & BETTINA PROBER FAMILY FOUNDATION", "city": "CHAPPAQUA", "state": "NY", "zip": "10514-1216", "ntee": "T20", "ruling": "200809", "deductibility": "1", "assets": 166621, "income": 10336, "revenue": 0}], "CONSCIOUS": [{"ein": "262895352", "name": "CONSCIOUS KIDS INC", "city": "BROOKLYN", "state": "NY", "zip": "11231-2808", "ntee": "O55", "ruling": "200903", "deductibility": "1", "assets": 5568627, "income": 1163764, "revenue": 0}, {"ein": "832071311", "name": "CONSCIOUS GENERATION INC", "city": "NORTH SALEM", "state": "NY", "zip": "10560-0240", "ntee": "B90", "ruling": "202006", "deductibility": "1", "assets": 1000, "income": 0, "revenue": 0}, {"ein": "900476159", "name": "INSTITUTE FOR CONSCIOUS GLOBAL CHANGE", "city": "NEW YORK", "state": "NY", "zip": "10025-4302", "ntee": "B99", "ruling": "201012", "deductibility": "1", "assets": 1876, "income": 3440, "revenue": 3440}], "ASN": [{"ein": "263686639", "name": "UNIVERSITY OF PENNSYLVANIA WESTCHESTER & ROCKLAND ALUMNI ASN", "city": "LARCHMONT", "state": "NY", "zip": "10538-0000", "ntee": "B84", "ruling": "200905", "deductibility": "2", "assets": 0, "income": 0, "revenue": 0}], "OVED": [{"ein": "264776497", "name": "MORDECHAI & VIRGINIA OVED FOUNDATION", "city": "NEW YORK", "state": "NY", "zip": "10013-2326", "ntee": "T20", "ruling": "201204", "deductibility": "1", "assets": 4057672, "income": 685484, "revenue": 0}], "PALABR": [{"ein": "274043971", "name": "MISION PENTECOSTES INTERNACIONAL JESUCRISTO Y EL PODER DE SU PALABR", "city": "FRESH MEADOWS", "state": "NY", "zip": "11365-2018", "ntee": "X20", "ruling": "201103", "deductibility": "1", "assets": 0, "income": 0, "revenue": 0}], "ABDI": [{"ein": "274382004", "name": "DR HAWA ABDI FOUNDATION INC", "city": "NEW YORK", "state": "NY", "zip": "10159-9600", "ntee": "Q30", "ruling": "201203", "deductibility": "1", "assets": 23153, "income": 96185, "revenue": 96185}], "GRACELIFE": [{"ein": "275319938", "name": "GRACELIFE CHURCH", "city": "AVON", "state": "NY", "zip": "14414-1427", "ntee": "X21", "ruling": "201410", "deductibility": "1", "assets": 0, "income": 0, "revenue": 0}], "PRIASE": [{"ein": "320038889", "name": "TEMPLE OF PRIASE INC", "city": "BRONX", "state": "NY", "zip": "10462-3654", "ntee": "X20", "ruling": "201907", "deductibility": "1", "assets": 0, "income": 0, "revenue": 0}], "HIRSTJOHNSSON": [{"ein": "331808652", "name": "HIRSTJOHNSSON FAMILY FOUNDATION INC", "city": "FAIRPORT", "state": "NY", "zip": "14450-4512", "ntee": "T22", "ruling": "202502", "deductibility": "1", "assets": 1, "income": 8015, "revenue": 0}], "FITO": [{"ein": "333752722", "name": "FITO VILLAGE AND WELLNESS", "city": "NEW YORK", "state": "NY", "zip": "10024-4933", "ntee": "E60", "ruling": "202504", "deductibility": "1", "assets": 0, "income": 0, "revenue": 0}], "UNIVERSITESI": [{"ein": "341999302", "name": "ISTANBUL TEKNIK UNIVERSITESI MEZUNLARI DERNEGI INC", "city": "DIX HILLS", "state": "NY", "zip": "11746-6315", "ntee": "A23", "ruling": "200503", "deductibility": "1", "assets": 0, "income": 0, "revenue": 0}], "LEONIAN": [{"ein": "363204862", "name": "PHILLIP AND EDITH LEONIAN FOUNDATION", "city": "NEW YORK", "state": "NY", "zip": "10001-7472", "ntee": "", "ruling": "198305", "deductibility": "1", "assets": 4262317, "income": 1741980, "revenue": 0}, {"ein": "367691472", "name": "PHILLIP LEONIAN AND EDITH ROSENBAUM LEONIAN CHARITABLE TR", "city": "NEW YORK", "state": "NY", "zip": "10001-7472", "ntee": "T20", "ruling": "201708", "deductibility": "1", "assets": 9812240, "income": 495388, "revenue": 0}], "INDOPAK": [{"ein": "364540615", "name": "INDOPAK SPORTS NY INC", "city": "STATEN ISLAND", "state": "NY", "zip": "10307-0028", "ntee": "N62", "ruling": "200504", "deductibility": "2", "assets": 0, "income": 0, "revenue": 0}], "SUNCOAST": [{"ein": "431259794", "name": "SUNCOAST CHRISTIAN HOUSING", "city": "SPRING VALLEY", "state": "NY", "zip": "10977-5214", "ntee": "L99", "ruling": "195105", "deductibility": "1", "assets": 2358532, "income": 1259898, "revenue": 1259898}], "NAFFO": [{"ein": "452519842", "name": "FRIENDS OF NAFFO", "city": "NEW YORK", "state": "NY", "zip": "10036-7406", "ntee": "Q40", "ruling": "202401", "deductibility": "1", "assets": 4636, "income": 26000, "revenue": 26000}], "CHANTILLY": [{"ein": "453548631", "name": "FRIENDS OF THE DOMAINE DE CHANTILLY INC", "city": "NEW YORK", "state": "NY", "zip": "10019-4703", "ntee": "T30", "ruling": "201205", "deductibility": "1", "assets": 421726, "income": 420335, "revenue": 420335}], "TSNY": [{"ein": "461207894", "name": "TSNY BADMINTON ASSOCIATION INC", "city": "BROOKLYN", "state": "NY", "zip": "11220-3589", "ntee": "N66", "ruling": "201403", "deductibility": "1", "assets": 0, "income": 0, "revenue": 0}, {"ein": "874367276", "name": "GOSHEN TSNY INC", "city": "FREEPORT", "state": "NY", "zip": "11520-4327", "ntee": "X20", "ruling": "202312", "deductibility": "1", "assets": 0, "income": 0, "revenue": 0}], "INCCALEO": [{"ein": "461592772", "name": "CANADIAN AMERICAN LAW ENFORCEMENT ORGANIZATION CALEO INCCALEO", "city": "NIAGARA FALLS", "state": "NY", "zip": "14304-8100", "ntee": "I20", "ruling": "202406", "deductibility": "1", "assets": 0, "income": 0, "revenue": 0}], "RADIERS": [{"ein": "461804895", "name": "COLONIE JUNIOR RADIERS FOOTBALL", "city": "ALBANY", "state": "NY", "zip": "12205-0422", "ntee": "N65", "ruling": "201402", "deductibility": "1", "assets": 34691, "income": 94181, "revenue": 49840}], "JIVAN": [{"ein": "462449532", "name": "JIVAN JYOTI INC", "city": "FLORAL PARK", "state": "NY", "zip": "11002-0053", "ntee": "X70", "ruling": "201407", "deductibility": "1", "assets": 0, "income": 0, "revenue": 0}], "KULP": [{"ein": "466757077", "name": "KULP & DANNER COMBINED IRTUA FBO ETAL CHARITIES", "city": "BUFFALO", "state": "NY", "zip": "14240-1504", "ntee": "T22", "ruling": "201501", "deductibility": "1", "assets": 478695, "income": 142351, "revenue": 0}], "CHANGEMS": [{"ein": "471225720", "name": "CHANGEMS INC", "city": "ELMA", "state": "NY", "zip": "14059-9762", "ntee": "B01", "ruling": "201412", "deductibility": "1", "assets": 0, "income": 0, "revenue": 0}], "118TH": [{"ein": "472035679", "name": "WIN 118TH STREET HOUSING DEVELOPMENT FUND CORPORATION", "city": "NEW YORK", "state": "NY", "zip": "10004-1787", "ntee": "L20", "ruling": "201504", "deductibility": "2", "assets": 0, "income": 0, "revenue": 0}], "RATZFERT": [{"ein": "473583838", "name": "CONGREGATION BEIS RATZFERT", "city": "MONSEY", "state": "NY", "zip": "10952-2733", "ntee": "X30", "ruling": "201509", "deductibility": "1", "assets": 0, "income": 0, "revenue": 0}], "JUDAISIM": [{"ein": "510137641", "name": "TEMPLE OF UNIVERSAL JUDAISIM CONGREGATION DAAT ELOHIM THE KNOWL", "city": "NYC", "state": "NY", "zip": "10003-3705", "ntee": "", "ruling": "197506", "deductibility": "1", "assets": 0, "income": 0, "revenue": 0}], "HALI": [{"ein": "611600536", "name": "THE HALI FOUNDATION INC", "city": "NEW YORK", "state": "NY", "zip": "10024-6530", "ntee": "G84", "ruling": "201502", "deductibility": "1", "assets": 0, "income": 0, "revenue": 0}, {"ein": "884309699", "name": "HALI ACCESS NETWORK INC", "city": "BOVINA CENTER", "state": "NY", "zip": "13740-6648", "ntee": "P99", "ruling": "202405", "deductibility": "1", "assets": 104046, "income": 100480, "revenue": 100480}], "CONTEMPLATE": [{"ein": "810810470", "name": "MEDITATE AND CONTEMPLATE ON THIS INC", "city": "STATEN ISLAND", "state": "NY", "zip": "10305-1252", "ntee": "X99", "ruling": "201512", "deductibility": "1", "assets": 0, "income": 0, "revenue": 0}], "SOULSHINE": [{"ein": "812015371", "name": "SOULSHINE AMERICA CORPORATION", "city": "CORAM", "state": "NY", "zip": "11727-0000", "ntee": "F21", "ruling": "201707", "deductibility": "1", "assets": 23580, "income": 275639, "revenue": 275639}], "CHASADAI": [{"ein": "813940769", "name": "CHASADAI MESHILEM INC", "city": "BROOKLYN", "state": "NY", "zip": "11249-5969", "ntee": "X30", "ruling": "201704", "deductibility": "1", "assets": 0, "income": 0, "revenue": 0}], "BIZY": [{"ein": "814013681", "name": "BIZY BODYZ INC", "city": "ROCHESTER", "state": "NY", "zip": "14615-2307", "ntee": "A62", "ruling": "201803", "deductibility": "1", "assets": 0, "income": 0, "revenue": 0}], "FUNDER": [{"ein": "815234819", "name": "PAW FUNDER INC", "city": "RYE BROOK", "state": "NY", "zip": "10573-2816", "ntee": "D12", "ruling": "201702", "deductibility": "1", "assets": 2020, "income": 316, "revenue": 316}], "CLEATS": [{"ein": "822407366", "name": "PINK CLEATS COACHES AGAINST CANCER", "city": "WHITE PLAINS", "state": "NY", "zip": "10605-4511", "ntee": "G12", "ruling": "201711", "deductibility": "1", "assets": 0, "income": 0, "revenue": 0}, {"ein": "992389227", "name": "CITY CLEATS CORP", "city": "BUFFALO", "state": "NY", "zip": "14203-2710", "ntee": "O12", "ruling": "202404", "deductibility": "1", "assets": 0, "income": 0, "revenue": 0}], "DANGELO": [{"ein": "825332871", "name": "DAVID D DANGELO FOUNDATION", "city": "ARLINGTON", "state": "NY", "zip": "12603-1663", "ntee": "C12", "ruling": "201904", "deductibility": "1", "assets": 0, "income": 0, "revenue": 0}, {"ein": "934813792", "name": "EDWING DANGELO FOUNDATION INC", "city": "NEW YORK", "state": "NY", "zip": "10027-7805", "ntee": "O53", "ruling": "202504", "deductibility": "1", "assets": 0, "income": 0, "revenue": 0}], "KELEHER": [{"ein": "830773547", "name": "ROBERT KELEHER PRIVATE FOUNDATION INC", "city": "EAST ISLIP", "state": "NY", "zip": "11730-2602", "ntee": "B82", "ruling": "202307", "deductibility": "1", "assets": 8400951, "income": 272108, "revenue": 0}], "ARAKAN": [{"ein": "831587667", "name": "ARAKAN AMERICAN BUDDHIST INC", "city": "BUFFALO", "state": "NY", "zip": "14207-1609", "ntee": "X50", "ruling": "201902", "deductibility": "1", "assets": 0, "income": 81332, "revenue": 81332}], "STONEY": [{"ein": "832633668", "name": "FRIENDS OF STONEY POND INC", "city": "ERIEVILLE", "state": "NY", "zip": "13061-3160", "ntee": "N30", "ruling": "202302", "deductibility": "1", "assets": 0, "income": 0, "revenue": 0}], "UMD": [{"ein": "832748561", "name": "LOCAL 7 IBOTU UMD ILA AFL-CIO", "city": "CARLE PLACE", "state": "NY", "zip": "11514-1748", "ntee": "J40", "ruling": "201912", "deductibility": "2", "assets": 3105786, "income": 4572067, "revenue": 3396743}], "MITZVAS": [{"ein": "832831983", "name": "MITZVAS TEFILIN JEWISH CENTER", "city": "BROOKLYN", "state": "NY", "zip": "11203-1820", "ntee": "X30", "ruling": "202010", "deductibility": "1", "assets": 0, "income": 0, "revenue": 0}], "SKH": [{"ein": "832867957", "name": "SKH FOUNDATION INC", "city": "NEW YORK", "state": "NY", "zip": "10016-1607", "ntee": "T11", "ruling": "201906", "deductibility": "1", "assets": 1749312, "income": 109263, "revenue": 0}], "NODEN": [{"ein": "832894290", "name": "MERRELL NODEN TRACK CLUB INC", "city": "NEW YORK", "state": "NY", "zip": "10128-1126", "ntee": "N60", "ruling": "201902", "deductibility": "1", "assets": 0, "income": 0, "revenue": 0}], "LECTIO": [{"ein": "842017682", "name": "LECTIO DIVINA CHURCH", "city": "NEW YORK", "state": "NY", "zip": "10012-3526", "ntee": "X20", "ruling": "202012", "deductibility": "1", "assets": 0, "income": 0, "revenue": 0}], "MATOU": [{"ein": "851116178", "name": "USA MATOU FRATERNITY INC", "city": "FLUSHING", "state": "NY", "zip": "11355-5280", "ntee": "A12", "ruling": "202308", "deductibility": "1", "assets": 420669, "income": 72646, "revenue": 0}], "LEYELED": [{"ein": "851326748", "name": "LEV LEYELED INC", "city": "SPRING VALLEY", "state": "NY", "zip": "10977-4755", "ntee": "F60", "ruling": "202010", "deductibility": "1", "assets": 712930, "income": 2741646, "revenue": 2741646}], "PINARD": [{"ein": "852583668", "name": "SHANE PINARD FUTURE FISHERMENS FOUNDATION", "city": "CANASTOTA", "state": "NY", "zip": "13032-0498", "ntee": "T30", "ruling": "202102", "deductibility": "1", "assets": 23059, "income": 11808, "revenue": 5974}], "JACKTRIP": [{"ein": "852959037", "name": "JACKTRIP FOUNDATION", "city": "NEW YORK", "state": "NY", "zip": "10003-5504", "ntee": "A90", "ruling": "202104", "deductibility": "1", "assets": 0, "income": 0, "revenue": 0}], "OSTROY": [{"ein": "853913915", "name": "OSTROY-GUO DEVELOPMENT INC", "city": "NEW YORK", "state": "NY", "zip": "10002-5021", "ntee": "N70", "ruling": "202304", "deductibility": "1", "assets": 0, "income": 0, "revenue": 0}], "SCHOCH": [{"ein": "862349330", "name": "SCHOCH FAMILY FOUNDATION INC", "city": "JERICHO", "state": "NY", "zip": "11753-2702", "ntee": "T20", "ruling": "202106", "deductibility": "1", "assets": 79637, "income": 3604, "revenue": 0}], "HERBUSINESSLABORG": [{"ein": "873931263", "name": "HERBUSINESSLABORG INC", "city": "BRONX", "state": "NY", "zip": "10453-4464", "ntee": "P20", "ruling": "202202", "deductibility": "1", "assets": 1, "income": 1, "revenue": 1}], "DARNELL": [{"ein": "874481678", "name": "DARNELL CARES", "city": "BRONX", "state": "NY", "zip": "10466-5917", "ntee": "Z99", "ruling": "202304", "deductibility": "1", "assets": 0, "income": 0, "revenue": 0}], "JEWCULTURE": [{"ein": "880659552", "name": "JEWCULTURE INC", "city": "NEW YORK", "state": "NY", "zip": "10003-5768", "ntee": "A20", "ruling": "202304", "deductibility": "1", "assets": 0, "income": 0, "revenue": 0}], "LENAT": [{"ein": "880855823", "name": "THE LENAT FOUNDATION", "city": "NEW YORK", "state": "NY", "zip": "10030-2146", "ntee": "T22", "ruling": "202203", "deductibility": "1", "assets": 2650222, "income": 5479079, "revenue": 0}], "PIXIES": [{"ein": "882903168", "name": "PIXIES PLACE INC", "city": "SCARSDALE", "state": "NY", "zip": "10583-1349", "ntee": "D20", "ruling": "202207", "deductibility": "1", "assets": 0, "income": 0, "revenue": 0}], "UPGSA": [{"ein": "921414821", "name": "UPGSA - USA", "city": "NEW YORK", "state": "NY", "zip": "10016-1703", "ntee": "B12", "ruling": "202307", "deductibility": "1", "assets": 0, "income": 0, "revenue": 0}], "MIZUNO": [{"ein": "921672168", "name": "MIZUNO GROUP INC", "city": "NEW YORK", "state": "NY", "zip": "10023-5817", "ntee": "B90", "ruling": "202303", "deductibility": "1", "assets": 0, "income": 0, "revenue": 0}], "PUGH": [{"ein": "923303671", "name": "LEWIS PUGH FOUNDATION INC", "city": "MAMARONECK", "state": "NY", "zip": "10543-4531", "ntee": "T30", "ruling": "202312", "deductibility": "1", "assets": 0, "income": 0, "revenue": 0}], "BBF": [{"ein": "932147251", "name": "BBF PTO INC", "city": "BROOKLYN", "state": "NY", "zip": "11229-5701", "ntee": "B94", "ruling": "202308", "deductibility": "1", "assets": 0, "income": 0, "revenue": 0}], "TEAMLIFT": [{"ein": "932911627", "name": "TEAMLIFT FOUNDATION INCORPORATED", "city": "ROCHESTER", "state": "NY", "zip": "14619-1445", "ntee": "O50", "ruling": "202312", "deductibility": "1", "assets": 0, "income": 0, "revenue": 0}], "NIK": [{"ein": "933105603", "name": "NIK MATHURIN MINISTRIES", "city": "VALLEY STREAM", "state": "NY", "zip": "11580-4236", "ntee": "X20", "ruling": "202412", "deductibility": "1", "assets": 0, "income": 0, "revenue": 0}], "INMIGRANTE": [{"ein": "934045957", "name": "A M R GOODWILL AYUDA AL INMIGRANTE ORG INC", "city": "CORONA", "state": "NY", "zip": "11368-0000", "ntee": "P84", "ruling": "202311", "deductibility": "1", "assets": 0, "income": 0, "revenue": 0}], "SHLOCK": [{"ein": "990417773", "name": "SHLOCK ROCK FOUNDATION INC", "city": "KEW GARDENS", "state": "NY", "zip": "11415-2534", "ntee": "A68", "ruling": "202401", "deductibility": "1", "assets": 0, "income": 0, "revenue": 0}], "BITS": [{"ein": "990821102", "name": "BITS AND BYTES STEM FOUNDATION INC", "city": "BUFFALO", "state": "NY", "zip": "14221-3711", "ntee": "B90", "ruling": "202401", "deductibility": "1", "assets": 0, "income": 0, "revenue": 0}], "KITT": [{"ein": "991923062", "name": "KITT WARREN COMMUNITY FUND", "city": "DERUYTER", "state": "NY", "zip": "13052-9718", "ntee": "T12", "ruling": "202409", "deductibility": "1", "assets": 0, "income": 0, "revenue": 0}], "HIDAYAH": [{"ein": "994550026", "name": "DARUL HIDAYAH INC", "city": "JERICHO", "state": "NY", "zip": "11753-1655", "ntee": "Z99", "ruling": "202502", "deductibility": "1", "assets": 0, "income": 0, "revenue": 0}]}