{"RELIEF": [{"ein": "010885377", "name": "COMIC RELIEF INC", "city": "NEW YORK", "state": "NY", "zip": "10271-0042", "ntee": "T12", "ruling": "200703", "deductibility": "1", "assets": 48676610, "income": 49330137, "revenue": 47477210}, {"ein": "020749041", "name": "ASSOCIATED PRESS EMERGENCY RELIEF FUND", "city": "NEW YORK", "state": "NY", "zip": "10281-1110", "ntee": "M20", "ruling": "200511", "deductibility": "1", "assets": 1217540, "income": 133516, "revenue": 133516}, {"ein": "043810161", "name": "ICNA RELIEF USA PROGRAMS INC", "city": "NEW HYDE PARK", "state": "NY", "zip": "11040-4712", "ntee": "M20", "ruling": "200506", "deductibility": "1", "assets": 18764413, "income": 46368440, "revenue": 46368440}, {"ein": "050573009", "name": "MEDICAL RELIEF ALLIANCE INC", "city": "NEW YORK", "state": "NY", "zip": "10001-7604", "ntee": "E12", "ruling": "200310", "deductibility": "1", "assets": 0, "income": 0, "revenue": 0}, {"ein": "061376792", "name": "RELIEF COMMITTEE OF GREATER NEW YORK", "city": "SYOSSET", "state": "NY", "zip": "11791-3055", "ntee": "T30", "ruling": "201208", "deductibility": "1", "assets": 0, "income": 0, "revenue": 0}, {"ein": "061572059", "name": "AISHES CHAYIL DKIRYAS JOEL MOTHERS RELIEF CENTER INC", "city": "MONROE", "state": "NY", "zip": "10949-0625", "ntee": "L99", "ruling": "200011", "deductibility": "1", "assets": 16905655, "income": 10360696, "revenue": 10360696}, {"ein": "112649198", "name": "DOMINICA AMERICAN RELIEF & DEVELOPMENT ASSOCIATION INC", "city": "ELMONT", "state": "NY", "zip": "11003-2824", "ntee": "Q33", "ruling": "198209", "deductibility": "1", "assets": 65776, "income": 45276, "revenue": 45276}, {"ein": "112873118", "name": "AMERICAN TORAH RELIEF CENTER", "city": "BROOKLYN", "state": "NY", "zip": "11219-2611", "ntee": "", "ruling": "198712", "deductibility": "1", "assets": 0, "income": 0, "revenue": 0}, {"ein": "112922239", "name": "COMMUNITY RELIEF CENTER", "city": "BROOKLYN", "state": "NY", "zip": "11219-2610", "ntee": "", "ruling": "198902", "deductibility": "1", "assets": 0, "income": 0, "revenue": 0}, {"ein": "113010226", "name": "CONSTANTINOS & MARINA FAKIRIS CHILDRENS RELIEF FUND", "city": "ROSLYN HEIGHTS", "state": "NY", "zip": "11577-1309", "ntee": "E50Z", "ruling": "199008", "deductibility": "1", "assets": 5804, "income": 1700, "revenue": 1700}, {"ein": "113066803", "name": "MIAMONIDES RELIEF CENTER", "city": "BROOKLYN", "state": "NY", "zip": "11210-3714", "ntee": "", "ruling": "199109", "deductibility": "1", "assets": 0, "income": 0, "revenue": 0}, {"ein": "113090640", "name": "ST GEORGE AND ST ABRAAM COPTIC RELIEF ORGANIZATION", "city": "ALBERTSON", "state": "NY", "zip": "11507-1505", "ntee": "Q123", "ruling": "199210", "deductibility": "1", "assets": 1509279, "income": 867633, "revenue": 867633}, {"ein": "113095240", "name": "GLOBAL JEWISH ASSISTANCE AND RELIEF NETWORK", "city": "BROOKLYN", "state": "NY", "zip": "11213-4404", "ntee": "Q33", "ruling": "201512", "deductibility": "1", "assets": 667209, "income": 2700965, "revenue": 2700965}, {"ein": "113403494", "name": "BATEY RELIEF ALLIANCE INC", "city": "BROOKLYN", "state": "NY", "zip": "11230-0565", "ntee": "P60", "ruling": "199810", "deductibility": "1", "assets": 555476, "income": 845029, "revenue": 845029}, {"ein": "113454067", "name": "BILQUIS EDHI RELIEF FOUNDATION INC", "city": "CORONA", "state": "NY", "zip": "11368-2741", "ntee": "T23", "ruling": "200611", "deductibility": "1", "assets": 32757446, "income": 4033318, "revenue": 0}, {"ein": "113598794", "name": "CONG PESACH RELIEF HATZOLAS NEFOSHAS", "city": "BROOKLYN", "state": "NY", "zip": "11219-2027", "ntee": "X30", "ruling": "200105", "deductibility": "1", "assets": 0, "income": 0, "revenue": 0}, {"ein": "113761261", "name": "NEW YORK STATE UNITED TEACHERS DISASTER RELIEF & SCHOLARSHIP FUND", "city": "LATHAM", "state": "NY", "zip": "12110-2424", "ntee": "M20", "ruling": "200511", "deductibility": "1", "assets": 684954, "income": 225980, "revenue": 225980}, {"ein": "131624135", "name": "NEW YORK SOCIETY FOR THE RELIEF OF RUPTURED & CRIPPLED MAINTAINING", "city": "NEW YORK", "state": "NY", "zip": "10021-4823", "ntee": "E240", "ruling": "194601", "deductibility": "1", "assets": 3124359384, "income": 1768841090, "revenue": 1681682378}, {"ein": "131740039", "name": "SERVANTS OF RELIEF FOR INCURABLE CANCER", "city": "HAWTHORNE", "state": "NY", "zip": "10532-1362", "ntee": "", "ruling": "194603", "deductibility": "1", "assets": 0, "income": 0, "revenue": 0}, {"ein": "133490897", "name": "NEW YORK CITY CARPENTERS RELIEF AND CHARITY FUND", "city": "NEW YORK", "state": "NY", "zip": "10014-3669", "ntee": "", "ruling": "198903", "deductibility": "1", "assets": 660765, "income": 432752, "revenue": 432752}, {"ein": "133662743", "name": "WORLDWIDE RELIEF ORGANIZATION INC", "city": "NEW YORK", "state": "NY", "zip": "10010-5518", "ntee": "", "ruling": "199209", "deductibility": "1", "assets": 0, "income": 0, "revenue": 0}, {"ein": "133706646", "name": "FUND FOR ARMENIAN RELIEF INC", "city": "NEW YORK", "state": "NY", "zip": "10016-4806", "ntee": "Q300", "ruling": "199308", "deductibility": "1", "assets": 27945385, "income": 16806871, "revenue": 8556205}, {"ein": "133987722", "name": "GLOBAL MEDICAL RELIEF FUND INC", "city": "STATEN ISLAND", "state": "NY", "zip": "10305-4626", "ntee": "Q300", "ruling": "199808", "deductibility": "1", "assets": 1118832, "income": 439505, "revenue": 439505}, {"ein": "134040265", "name": "CONFERENCE FOR ECUADORIAN RELIEF INC", "city": "NEW YORK", "state": "NY", "zip": "10036-5104", "ntee": "X22", "ruling": "199910", "deductibility": "1", "assets": 0, "income": 0, "revenue": 0}, {"ein": "134044308", "name": "COLOMBIAN RELIEF FUND INC", "city": "NEW YORK", "state": "NY", "zip": "10022-2765", "ntee": "Q33", "ruling": "202109", "deductibility": "1", "assets": 4032790, "income": 444, "revenue": 0}, {"ein": "134095507", "name": "VIETNAMESE-AMERICAN RELIEF EFFORT", "city": "NEW YORK", "state": "NY", "zip": "10017-3539", "ntee": "B12", "ruling": "202411", "deductibility": "1", "assets": 0, "income": 0, "revenue": 0}, {"ein": "134188723", "name": "SRZ DISASTER RELIEF FUND", "city": "NEW YORK", "state": "NY", "zip": "10022-3905", "ntee": "M20", "ruling": "200110", "deductibility": "1", "assets": 6383, "income": 45, "revenue": 0}, {"ein": "134189179", "name": "THE CANTOR FITZGERALD RELIEF FUND", "city": "NEW YORK", "state": "NY", "zip": "10022-1304", "ntee": "M20", "ruling": "200109", "deductibility": "1", "assets": 23303518, "income": 8678581, "revenue": 8678581}, {"ein": "134189858", "name": "WINDOWS OF HOPE FAMILY RELIEF FUND", "city": "NEW YORK", "state": "NY", "zip": "10020-1513", "ntee": "M20", "ruling": "200109", "deductibility": "1", "assets": 1372532, "income": 2160656, "revenue": 0}, {"ein": "134190529", "name": "UFT DISASTER RELIEF FUND", "city": "NEW YORK", "state": "NY", "zip": "10004-1603", "ntee": "M20", "ruling": "200110", "deductibility": "1", "assets": 444808, "income": 153925, "revenue": 101311}, {"ein": "135562218", "name": "TORAH RELIEF SOCIETY INC", "city": "SUFFERN", "state": "NY", "zip": "10901-5103", "ntee": "Q330", "ruling": "194307", "deductibility": "1", "assets": 10348028, "income": 9290389, "revenue": 7267988}, {"ein": "135562382", "name": "HAVENS RELIEF FUND SOCIETY", "city": "NEW YORK", "state": "NY", "zip": "10115-0023", "ntee": "", "ruling": "193406", "deductibility": "1", "assets": 50734739, "income": 14142968, "revenue": 0}, {"ein": "135576607", "name": "ESTONIAN RELIEF COMMITTEE INC", "city": "NEW YORK", "state": "NY", "zip": "10016-4852", "ntee": "Q330", "ruling": "194208", "deductibility": "1", "assets": 1592324, "income": 100843, "revenue": 100843}, {"ein": "135645890", "name": "UNITED TIBERIAS INSTITUTIONS RELIEF SOCIETY INC", "city": "NEW YORK", "state": "NY", "zip": "10002-0576", "ntee": "Q300", "ruling": "194909", "deductibility": "1", "assets": 0, "income": 0, "revenue": 0}, {"ein": "136110872", "name": "HADASSAH MEDICAL RELIEF ASSOCIATION INC", "city": "NEW YORK", "state": "NY", "zip": "10005-1304", "ntee": "Q30", "ruling": "194112", "deductibility": "1", "assets": 635523164, "income": 134540910, "revenue": 32370760}, {"ein": "136142215", "name": "TRINITY RELIEF AND AID ASSOCIATION LONG ISLAND", "city": "WEST BABYLON", "state": "NY", "zip": "11704-6301", "ntee": "", "ruling": "194210", "deductibility": "2", "assets": 0, "income": 0, "revenue": 0}, {"ein": "136155701", "name": "AGMA RELIEF FUND", "city": "NEW YORK", "state": "NY", "zip": "10018-0000", "ntee": "P050", "ruling": "195907", "deductibility": "1", "assets": 2088939, "income": 949163, "revenue": 163858}, {"ein": "136161272", "name": "SOCIETY FOR THE RELIEF OF WOMEN AND CHILDREN", "city": "NEW YORK", "state": "NY", "zip": "10036-0000", "ntee": "", "ruling": "193502", "deductibility": "1", "assets": 3213775, "income": 195500, "revenue": 0}, {"ein": "136177716", "name": "CONSTANTINOPLE ARMENIAN RELIEF SOCIETY INC", "city": "NEW YORK", "state": "NY", "zip": "10108-0769", "ntee": "Q330", "ruling": "195707", "deductibility": "1", "assets": 1002513, "income": 207681, "revenue": 185797}, {"ein": "136222619", "name": "LOCAL 802 EMERGENCY RELIEF FUND", "city": "NEW YORK", "state": "NY", "zip": "10036-1308", "ntee": "", "ruling": "196707", "deductibility": "1", "assets": 402316, "income": 127741, "revenue": 0}, {"ein": "136222627", "name": "NINTH DISTRICT DENTAL SOCIETY RELIEF FUND", "city": "HAWTHORNE", "state": "NY", "zip": "10532-1283", "ntee": "", "ruling": "196707", "deductibility": "1", "assets": 0, "income": 0, "revenue": 0}, {"ein": "141762190", "name": "LAKE PLACID MASONIC HALL & RELIEF A SSOCIATION INC", "city": "LAKE PLACID", "state": "NY", "zip": "12946-1950", "ntee": "", "ruling": "201405", "deductibility": "0", "assets": 0, "income": 0, "revenue": 0}, {"ein": "146022783", "name": "NATIONAL GUARD & NAVAL MILITIA RELIEF SOCIETY OF NY INC", "city": "MECHANICVILLE", "state": "NY", "zip": "12118-3719", "ntee": "", "ruling": "193712", "deductibility": "1", "assets": 11734, "income": 29129, "revenue": 1531}, {"ein": "150622327", "name": "BROOME COUNTY HUMANE SOCIETY AND RELIEF ASSOCIATION", "city": "BINGHAMTON", "state": "NY", "zip": "13903-2491", "ntee": "D200", "ruling": "197212", "deductibility": "1", "assets": 5370594, "income": 1952300, "revenue": 1599298}, {"ein": "166021261", "name": "H A RICHMOND TRUST UW 12-2-0160 FBO TEACHERS RELIEF BANK", "city": "NORWICH", "state": "NY", "zip": "13815-0000", "ntee": "", "ruling": "197012", "deductibility": "1", "assets": 376758, "income": 59783, "revenue": 0}, {"ein": "166053324", "name": "UNION RELIEF ASSOCIATION OF WESTFIELD N Y", "city": "WESTFIELD", "state": "NY", "zip": "14787-0454", "ntee": "S80", "ruling": "202209", "deductibility": "1", "assets": 0, "income": 0, "revenue": 0}, {"ein": "166067584", "name": "EIGHTH DISTRICT DENTAL SOCIETY RELIEF FUND", "city": "BUFFALO", "state": "NY", "zip": "14215-1907", "ntee": "", "ruling": "196605", "deductibility": "1", "assets": 103956, "income": 0, "revenue": 0}, {"ein": "203468307", "name": "ALLIANCE FOR RELIEF MISSION IN HAITI", "city": "HAUPPAUGE", "state": "NY", "zip": "11788-3418", "ntee": "Q33", "ruling": "201210", "deductibility": "1", "assets": 0, "income": 0, "revenue": 0}, {"ein": "203513109", "name": "MUSICIANS DISASTER RELIEF FUND", "city": "NEW YORK", "state": "NY", "zip": "10036-5601", "ntee": "M20", "ruling": "200510", "deductibility": "1", "assets": 0, "income": 0, "revenue": 0}, {"ein": "203543722", "name": "NEW YORK STATE ASSOCIATION OF REALTORS DISASTER RELIEF FUN INC", "city": "ALBANY", "state": "NY", "zip": "12210-2219", "ntee": "T30", "ruling": "200602", "deductibility": "1", "assets": 78289, "income": 100015, "revenue": 100015}, {"ein": "205269657", "name": "JAMES B LEE JR SCHOLARSHIP AND RELIEF FUND IN HONOR OF JOSEPH", "city": "SOUTHAMPTON", "state": "NY", "zip": "11969-1366", "ntee": "B82", "ruling": "200609", "deductibility": "1", "assets": 3701751, "income": 1646659, "revenue": 675266}, {"ein": "205393122", "name": "BLESSED MARGARETS CANCER RELIEF FUND INC", "city": "HAWTHORNE", "state": "NY", "zip": "10532-0000", "ntee": "", "ruling": "194603", "deductibility": "1", "assets": 0, "income": 0, "revenue": 0}, {"ein": "231352039", "name": "BOARD OF PENSIONS AND RELIEF OF THE EVANGELICAL AND REFORMED CHURCH", "city": "NEW YORK", "state": "NY", "zip": "10010-4515", "ntee": "", "ruling": "197804", "deductibility": "1", "assets": 0, "income": 0, "revenue": 0}, {"ein": "237036545", "name": "TRUSTEES OF RIOT RELIEF FUND", "city": "NEW YORK", "state": "NY", "zip": "10016-0000", "ntee": "", "ruling": "196911", "deductibility": "2", "assets": 3216158, "income": 621262, "revenue": 176568}, {"ein": "237073519", "name": "AMERICAN GUILD OF VARIETY ARTISTS GENERAL SICK AND RELIEF FUND", "city": "NEW YORK", "state": "NY", "zip": "10001-3904", "ntee": "E81Z", "ruling": "196903", "deductibility": "1", "assets": 1074693, "income": 31006, "revenue": 31006}, {"ein": "237279145", "name": "CORP FOR RELIEF OF WIDOWS & CHLDRN OF CLERGYMEN OF PROT EPIS CH IN NY", "city": "NEW YORK", "state": "NY", "zip": "10021-9282", "ntee": "P60Z", "ruling": "193704", "deductibility": "1", "assets": 30345212, "income": 3195624, "revenue": 395151}, {"ein": "237331002", "name": "POLICE RELIEF FUND INC", "city": "NEW YORK CITY", "state": "NY", "zip": "10016-6823", "ntee": "", "ruling": "192506", "deductibility": "2", "assets": 10263710, "income": 2332840, "revenue": 1492056}, {"ein": "237346569", "name": "EDUCATIONAL RELIEF ASSOCIATION", "city": "BROOKLYN", "state": "NY", "zip": "11211-7834", "ntee": "", "ruling": "197501", "deductibility": "1", "assets": 0, "income": 0, "revenue": 0}, {"ein": "237436135", "name": "CYPRUS RELIEF FUND OF AMERICA INC", "city": "NEW YORK", "state": "NY", "zip": "10016-0110", "ntee": "Q123", "ruling": "197505", "deductibility": "1", "assets": 42320, "income": 21733, "revenue": 21733}, {"ein": "263477465", "name": "TROOPS RELIEF FUND", "city": "HOWARD BEACH", "state": "NY", "zip": "11414-2913", "ntee": "W30", "ruling": "200907", "deductibility": "1", "assets": 0, "income": 0, "revenue": 0}, {"ein": "263701623", "name": "ORDER OF MALTA WORLDWIDE RELIEF MALTESER INTERNATIONAL AMERICAS", "city": "NEW YORK", "state": "NY", "zip": "10168-1901", "ntee": "M20", "ruling": "194603", "deductibility": "1", "assets": 1998116, "income": 7171416, "revenue": 7171416}, {"ein": "263897812", "name": "ANIMAL AID & RELIEF FOUNDATION", "city": "BINGHAMTON", "state": "NY", "zip": "13905-5823", "ntee": "D20", "ruling": "200907", "deductibility": "1", "assets": 0, "income": 0, "revenue": 0}, {"ein": "263992091", "name": "ANIMAL RELIEF FUND INC", "city": "NEW YORK", "state": "NY", "zip": "10028-0049", "ntee": "D20", "ruling": "201103", "deductibility": "1", "assets": 0, "income": 0, "revenue": 0}, {"ein": "264346844", "name": "HOMELESS DISABILITY RELIEF FUNDS INC", "city": "GARDEN CITY", "state": "NY", "zip": "11530-0208", "ntee": "L41", "ruling": "200904", "deductibility": "1", "assets": 0, "income": 0, "revenue": 0}, {"ein": "270049239", "name": "CHABAD OF ARGENTINA RELIEF APPEAL INC", "city": "BROOKLYN", "state": "NY", "zip": "11203-1002", "ntee": "T30", "ruling": "200304", "deductibility": "1", "assets": 1896093, "income": 3468187, "revenue": 3468187}, {"ein": "271129260", "name": "NORTH AMERICAN HUMANITARIAN AID AND RELIEF INC", "city": "BROOKLYN", "state": "NY", "zip": "11208-2984", "ntee": "Q33", "ruling": "201009", "deductibility": "1", "assets": 112299, "income": 1225115, "revenue": 1225115}, {"ein": "271820509", "name": "HAITI RELIEF EFFORT", "city": "CAMBRIA HTS", "state": "NY", "zip": "11411-1622", "ntee": "B24", "ruling": "201709", "deductibility": "1", "assets": 1, "income": 29497, "revenue": 0}, {"ein": "272384049", "name": "SCHUYLERVILLE AREA FOOD AND EMERGENCY RELIEF", "city": "SCHUYLERVILLE", "state": "NY", "zip": "12871-1049", "ntee": "K31", "ruling": "201703", "deductibility": "1", "assets": 80901, "income": 33985, "revenue": 33985}, {"ein": "300046025", "name": "NATIONAL FOOTBALL LEAGUE DISASTER RELIEF FUND", "city": "NEW YORK", "state": "NY", "zip": "10154-0023", "ntee": "M20", "ruling": "200203", "deductibility": "1", "assets": 26665, "income": 1, "revenue": 0}, {"ein": "301392648", "name": "NY LAST CHANCE BAILOUT RELIEF & RESCUE INC", "city": "ALLEGANY", "state": "NY", "zip": "14706-9712", "ntee": "D60", "ruling": "202404", "deductibility": "1", "assets": 0, "income": 0, "revenue": 0}, {"ein": "311328125", "name": "CLERGY RELIEF FUND INC", "city": "LAKE PLACID", "state": "NY", "zip": "12946-5522", "ntee": "X20", "ruling": "200003", "deductibility": "1", "assets": 0, "income": 0, "revenue": 0}, {"ein": "311719181", "name": "HEALTH AND EDUCATIONAL RELIEF FOR GUYANA INC", "city": "BROOKLYN", "state": "NY", "zip": "11226-3105", "ntee": "Q33", "ruling": "202506", "deductibility": "1", "assets": 33433, "income": 120640, "revenue": 68890}, {"ein": "331906811", "name": "RELIEF RAYS FOUNDATION", "city": "STATEN ISLAND", "state": "NY", "zip": "10306-1361", "ntee": "P12", "ruling": "202501", "deductibility": "1", "assets": 0, "income": 0, "revenue": 0}, {"ein": "333116383", "name": "OUTBRAVE RELIEF INC", "city": "NEW YORK", "state": "NY", "zip": "10001-5666", "ntee": "Q33", "ruling": "202505", "deductibility": "1", "assets": 0, "income": 0, "revenue": 0}, {"ein": "334459166", "name": "SAND DOLLAR DIRECT RELIEF INC", "city": "SYRACUSE", "state": "NY", "zip": "13203-1316", "ntee": "S20", "ruling": "202505", "deductibility": "1", "assets": 0, "income": 0, "revenue": 0}, {"ein": "352867697", "name": "OPEIU MEMBER DISASTER RELIEF FUND INC", "city": "NEW YORK", "state": "NY", "zip": "10011-0607", "ntee": "M20", "ruling": "202410", "deductibility": "1", "assets": 0, "income": 0, "revenue": 0}, {"ein": "364722105", "name": "EXPECTING RELIEF", "city": "BROOKLYN", "state": "NY", "zip": "11207-2049", "ntee": "", "ruling": "201409", "deductibility": "1", "assets": 5360, "income": 251634, "revenue": 251634}, {"ein": "364754069", "name": "CSA EMERGENCY RELIEF FUND", "city": "NEW YORK", "state": "NY", "zip": "10006-1729", "ntee": "M20", "ruling": "201612", "deductibility": "1", "assets": 249800, "income": 50000, "revenue": 50000}, {"ein": "391280679", "name": "MASONIC RELIEF ASSOCIATION OF THE UNITED STATES AND CANADA", "city": "FREEPORT", "state": "NY", "zip": "11520-6500", "ntee": "", "ruling": "197806", "deductibility": "1", "assets": 0, "income": 0, "revenue": 0}, {"ein": "453187458", "name": "AMERICAN IMMIGRATION RELIEF CENTER INC", "city": "BRENTWOOD", "state": "NY", "zip": "11717-4501", "ntee": "I80", "ruling": "201501", "deductibility": "1", "assets": 0, "income": 0, "revenue": 0}, {"ein": "453302040", "name": "SECURITY MUTUAL LIFE INSURANCE COMPANY FLOOD RELIEF CHARITABLE TR", "city": "BINGHAMTON", "state": "NY", "zip": "13901-3400", "ntee": "T21", "ruling": "201202", "deductibility": "1", "assets": 714880, "income": 612566, "revenue": 485942}, {"ein": "454305465", "name": "HELLENIC RELIEF FOUNDATION", "city": "MINEOLA", "state": "NY", "zip": "11501-0735", "ntee": "P20", "ruling": "201410", "deductibility": "1", "assets": 3784, "income": 16301, "revenue": 16301}, {"ein": "454523635", "name": "ORTHOPAEDIC RELIEF SERVICES INTERNATIONAL INC", "city": "GOSHEN", "state": "NY", "zip": "10924-5327", "ntee": "E60", "ruling": "201111", "deductibility": "1", "assets": 3438, "income": 8483, "revenue": 8483}, {"ein": "455210146", "name": "INTERNATIONAL ANIMAL RELIEF CORPORATION", "city": "NEW YORK", "state": "NY", "zip": "10017-6853", "ntee": "D99", "ruling": "201405", "deductibility": "1", "assets": 0, "income": 0, "revenue": 0}, {"ein": "455629785", "name": "COMING ALONGSIDE A COMMUNITY RELIEF INC", "city": "ST JOHNSVILLE", "state": "NY", "zip": "13452-0177", "ntee": "P60", "ruling": "201308", "deductibility": "1", "assets": 0, "income": 0, "revenue": 0}, {"ein": "461331625", "name": "BREEZY POINT DISASTER RELIEF FUND INC", "city": "HARRISON", "state": "NY", "zip": "10528-1633", "ntee": "M20", "ruling": "201211", "deductibility": "1", "assets": 0, "income": 0, "revenue": 0}, {"ein": "461350336", "name": "ALTICE USA EMPLOYEE DISASTER RELIEF FUND", "city": "BETHPAGE", "state": "NY", "zip": "11714-0000", "ntee": "M20", "ruling": "201303", "deductibility": "1", "assets": 101683, "income": 84525, "revenue": 0}, {"ein": "461351121", "name": "BBH EMPLOYEE RELIEF FUND", "city": "NEW YORK", "state": "NY", "zip": "10005-0000", "ntee": "P60", "ruling": "201301", "deductibility": "1", "assets": 646277, "income": 19809, "revenue": 19809}, {"ein": "461354571", "name": "EMPIRE STATE RELIEF FUND", "city": "IRVINGTON", "state": "NY", "zip": "10533-2020", "ntee": "M20", "ruling": "201301", "deductibility": "1", "assets": 0, "income": 0, "revenue": 0}, {"ein": "461375621", "name": "LIBERTY STREET RELIEF FUND INC", "city": "NEW YORK", "state": "NY", "zip": "10045-0001", "ntee": "M20", "ruling": "201212", "deductibility": "1", "assets": 52776, "income": 0, "revenue": 0}, {"ein": "461388220", "name": "PEF RELIEF FUND", "city": "ALBANY", "state": "NY", "zip": "12212-2414", "ntee": "M20", "ruling": "201212", "deductibility": "1", "assets": 0, "income": 0, "revenue": 0}, {"ein": "461452791", "name": "METROPOLITAN TRANSPORTATION AUTHORITY DISASTER RELIEF FUND", "city": "NEW YORK", "state": "NY", "zip": "10004-0000", "ntee": "M20", "ruling": "202409", "deductibility": "1", "assets": 0, "income": 0, "revenue": 0}, {"ein": "461463073", "name": "ENTERPRISE ASSOCIATION LOCAL UNION 638 DISASTER RELIEF FUND", "city": "LONG IS CITY", "state": "NY", "zip": "11101-3725", "ntee": "M20", "ruling": "201301", "deductibility": "1", "assets": 0, "income": 0, "revenue": 0}, {"ein": "461487718", "name": "SANITATION LOCAL 831 IBT DISASTER RELIEF FUND", "city": "NEW YORK", "state": "NY", "zip": "10038-2820", "ntee": "M20", "ruling": "201302", "deductibility": "1", "assets": 0, "income": 0, "revenue": 0}, {"ein": "462048203", "name": "TOWN OF BABYLON FIRE CHIEFS RELIEF ORGANIZATION INC", "city": "LINDENHURST", "state": "NY", "zip": "11757-2512", "ntee": "P20", "ruling": "201410", "deductibility": "1", "assets": 0, "income": 0, "revenue": 0}, {"ein": "462094997", "name": "HALF-TABLE MAN DISASTER ASSISTANCE RELIEF INC", "city": "STATEN ISLAND", "state": "NY", "zip": "10306-5407", "ntee": "M20", "ruling": "201410", "deductibility": "1", "assets": 18, "income": 25062, "revenue": 25062}, {"ein": "462337442", "name": "UA PLUMBERS LOCAL 1 MEMBERS EMERGENCY RELIEF FUND", "city": "LONG IS CITY", "state": "NY", "zip": "11101-6164", "ntee": "M20", "ruling": "201408", "deductibility": "1", "assets": 0, "income": 0, "revenue": 0}, {"ein": "462861979", "name": "COMMUNITY DEVELOPMENT AND DISASTER RELIEF CORPORATION", "city": "HAUPPAUGE", "state": "NY", "zip": "11788-3737", "ntee": "P60", "ruling": "201401", "deductibility": "1", "assets": 5001, "income": 0, "revenue": 0}, {"ein": "464240673", "name": "PHILIPPINE DISASTER RELIEF CORPORATION INC", "city": "NEW YORK", "state": "NY", "zip": "10128-0000", "ntee": "M12", "ruling": "201505", "deductibility": "1", "assets": 7637, "income": 34, "revenue": 34}, {"ein": "464500132", "name": "FIFTH MANHATTAN PURPLE CIRCLE RELIEF FUND INC", "city": "W HEMPSTEAD", "state": "NY", "zip": "11552-2624", "ntee": "M20", "ruling": "201501", "deductibility": "1", "assets": 0, "income": 0, "revenue": 0}, {"ein": "465355232", "name": "INTERNATIONAL NETWORK FOR AID RELIEF AND ASSISTANCE INC", "city": "WASSAIC", "state": "NY", "zip": "12592-2512", "ntee": "Q33", "ruling": "201505", "deductibility": "1", "assets": 1052522, "income": 1879289, "revenue": 1879289}, {"ein": "472141467", "name": "HOPELINES HOMELESS RELIEF FUND INC", "city": "NEW YORK", "state": "NY", "zip": "10005-4301", "ntee": "L12", "ruling": "201411", "deductibility": "1", "assets": 0, "income": 0, "revenue": 0}, {"ein": "472544749", "name": "THE HEALTH EDUCATION RELIEF ORGANIZATION FOR CANCER INC HEROC", "city": "BROOKLYN", "state": "NY", "zip": "11202-1727", "ntee": "G30", "ruling": "202404", "deductibility": "1", "assets": 0, "income": 0, "revenue": 0}, {"ein": "474580582", "name": "MJS SURGICAL RELIEF FUND INC", "city": "NEW HYDE PARK", "state": "NY", "zip": "11042-1120", "ntee": "Q33", "ruling": "201605", "deductibility": "1", "assets": 0, "income": 0, "revenue": 0}, {"ein": "510200715", "name": "INTERNATIONAL RELIEF FRIENDSHIP FOUNDATION INC", "city": "RHINEBECK", "state": "NY", "zip": "12572-3713", "ntee": "Q300", "ruling": "197711", "deductibility": "1", "assets": 4393, "income": 21069, "revenue": 21069}, {"ein": "711005226", "name": "THE RELIEF ZONE INC", "city": "FREWSBURG", "state": "NY", "zip": "14738-0334", "ntee": "O50", "ruling": "200612", "deductibility": "1", "assets": 393995, "income": 482772, "revenue": 422889}, {"ein": "731635264", "name": "EPISCOPAL RELIEF AND DEVELOPMENT", "city": "NEW YORK", "state": "NY", "zip": "10017-4509", "ntee": "P20", "ruling": "200207", "deductibility": "1", "assets": 37606215, "income": 22520184, "revenue": 22520184}, {"ein": "800027020", "name": "INTERNATIONAL MEDICAL RELIEF FOUNDATION INC", "city": "HURLEY", "state": "NY", "zip": "12443-6212", "ntee": "Q33", "ruling": "200303", "deductibility": "1", "assets": 0, "income": 0, "revenue": 0}, {"ein": "800965759", "name": "SCOTIA RELIEF ASSOCIATION INC", "city": "SCOTIA", "state": "NY", "zip": "12302-1134", "ntee": "P60", "ruling": "201910", "deductibility": "1", "assets": 0, "income": 0, "revenue": 0}, {"ein": "810855308", "name": "TEEN RELIEF MISSIONS INC", "city": "NEW YORK", "state": "NY", "zip": "10004-1315", "ntee": "T20", "ruling": "202104", "deductibility": "1", "assets": 185, "income": 1788, "revenue": 0}, {"ein": "812929716", "name": "TRANS-ATLANTIC MEDICAL RELIEF FOUNDATION INC", "city": "BROOKLYN", "state": "NY", "zip": "11234-5605", "ntee": "Q33", "ruling": "201609", "deductibility": "1", "assets": 0, "income": 0, "revenue": 0}, {"ein": "814189408", "name": "ROCKLAND COUNTY HAITI RELIEF INC", "city": "SPRING VALLEY", "state": "NY", "zip": "10977-5048", "ntee": "M20", "ruling": "202212", "deductibility": "1", "assets": 0, "income": 0, "revenue": 0}, {"ein": "814728239", "name": "CV STARR DISASTER RELIEF FUND INC", "city": "NEW YORK", "state": "NY", "zip": "10022-4614", "ntee": "T20", "ruling": "201703", "deductibility": "1", "assets": 1, "income": 1, "revenue": 0}, {"ein": "820993187", "name": "DISASTER RELIEF ASSOCIATION IN THE NYC DEPARTMENT OF CORRECTION INC", "city": "S RICHMOND HL", "state": "NY", "zip": "11419-1609", "ntee": "M11", "ruling": "202212", "deductibility": "1", "assets": 13783, "income": 16050, "revenue": 16050}, {"ein": "822410422", "name": "CANSTOP GLOBAL RELIEF FUND INC", "city": "RYE BROOK", "state": "NY", "zip": "10573-1301", "ntee": "E80", "ruling": "201802", "deductibility": "1", "assets": 302, "income": 4000, "revenue": 4000}, {"ein": "822998411", "name": "NEW YORK HOTEL & MOTEL TRADES COUNCIL AFL-CIO RELIEF FUND INC", "city": "NEW YORK", "state": "NY", "zip": "10036-7102", "ntee": "P20", "ruling": "201812", "deductibility": "1", "assets": 0, "income": 0, "revenue": 0}, {"ein": "823930440", "name": "OPEN DOOR RELIEF CENTER INC", "city": "ONEIDA", "state": "NY", "zip": "13421-0175", "ntee": "X20", "ruling": "201802", "deductibility": "1", "assets": 0, "income": 0, "revenue": 0}, {"ein": "824708844", "name": "BURMA ROHINGYA RELIEF INC", "city": "ACCORD", "state": "NY", "zip": "12404-0003", "ntee": "Q33", "ruling": "201804", "deductibility": "1", "assets": 0, "income": 0, "revenue": 0}, {"ein": "830848201", "name": "SEPHARDIC RELIEF INC", "city": "BROOKLYN", "state": "NY", "zip": "11223-0532", "ntee": "M20", "ruling": "202312", "deductibility": "1", "assets": 38664, "income": 118632, "revenue": 118632}, {"ein": "830919620", "name": "HUMANITY FOR RELIEF AND DEVELOPMENT", "city": "BROOKLYN", "state": "NY", "zip": "11217-1160", "ntee": "M20", "ruling": "201811", "deductibility": "1", "assets": 5739989, "income": 3710744, "revenue": 3669260}, {"ein": "831633535", "name": "CHRISTIAN RELIEF OPERATION INC", "city": "SPRING VALLEY", "state": "NY", "zip": "10977-8634", "ntee": "X20", "ruling": "201905", "deductibility": "1", "assets": 1094, "income": 7370, "revenue": 7370}, {"ein": "832165198", "name": "HURRICANE MARIA ASSISTANCE & RELIEF INSTITUTIONAL ALLIANCE", "city": "NEW YORK", "state": "NY", "zip": "10031-9114", "ntee": "", "ruling": "201910", "deductibility": "1", "assets": 26550, "income": 159523, "revenue": 159523}, {"ein": "832187279", "name": "ASTHMA INTERVENTION AND RELIEF NETWORK INC", "city": "BRONX", "state": "NY", "zip": "10451-5603", "ntee": "E60", "ruling": "201906", "deductibility": "1", "assets": 0, "income": 0, "revenue": 0}, {"ein": "842638752", "name": "GLOBAL DISASTER RELIEF INC", "city": "NEW YORK", "state": "NY", "zip": "10128-5008", "ntee": "P20", "ruling": "201909", "deductibility": "1", "assets": 0, "income": 0, "revenue": 0}, {"ein": "843329274", "name": "B6 COMMUNITY RELIEF AND RECOVERY FUND", "city": "LONG ISLAND CITY", "state": "NY", "zip": "11101-4020", "ntee": "B90", "ruling": "202104", "deductibility": "1", "assets": 0, "income": 0, "revenue": 0}, {"ein": "843582083", "name": "MOTCHA AWURAJA RELIEF AND DEVEOPMENT ASSOCIATION INC", "city": "NEW YORK", "state": "NY", "zip": "10027-5237", "ntee": "S99", "ruling": "201911", "deductibility": "1", "assets": 0, "income": 0, "revenue": 0}, {"ein": "843653967", "name": "SDG RELIEF FUND INC", "city": "DIX HILLS", "state": "NY", "zip": "11746-8529", "ntee": "Q30", "ruling": "202001", "deductibility": "1", "assets": 0, "income": 0, "revenue": 0}, {"ein": "843737931", "name": "HAMDARD HUMANITARIAN RELIEF INC", "city": "LEVITTOWN", "state": "NY", "zip": "11756-5235", "ntee": "Q33", "ruling": "201912", "deductibility": "1", "assets": 984629, "income": 241589, "revenue": 241589}, {"ein": "844008747", "name": "NILE RELIEF INTERNATIONAL", "city": "BROOKLYN", "state": "NY", "zip": "11209-0000", "ntee": "Q33", "ruling": "202002", "deductibility": "1", "assets": 0, "income": 0, "revenue": 0}, {"ein": "844797096", "name": "NEW YORK RELIEF NETWORK", "city": "NEW YORK", "state": "NY", "zip": "10001-2908", "ntee": "E90", "ruling": "202107", "deductibility": "1", "assets": 238080, "income": 446600, "revenue": 446600}, {"ein": "845130649", "name": "MSG RELIEF FUND", "city": "NEW YORK", "state": "NY", "zip": "10121-0101", "ntee": "M20", "ruling": "202007", "deductibility": "1", "assets": 1536, "income": 0, "revenue": 0}, {"ein": "845187312", "name": "TAO CARES RELIEF FUND", "city": "NEW YORK", "state": "NY", "zip": "10003-1527", "ntee": "T21", "ruling": "202004", "deductibility": "1", "assets": 40393, "income": 52677, "revenue": 52677}, {"ein": "845188224", "name": "KELLER RESTAURANT RELIEF FUND", "city": "NEW YORK", "state": "NY", "zip": "10020-1300", "ntee": "M12", "ruling": "202004", "deductibility": "1", "assets": 219368, "income": 58374, "revenue": 58374}, {"ein": "846552236", "name": "SHADOWS VETERINARIAN RELIEF TR", "city": "RANDOLPH", "state": "NY", "zip": "14772-9410", "ntee": "D40", "ruling": "201908", "deductibility": "1", "assets": 255104, "income": 35972, "revenue": 0}, {"ein": "851093956", "name": "GOOD MORNING ZOOM COVID-19 RELIEF FUND", "city": "JERICHO", "state": "NY", "zip": "11753-1309", "ntee": "", "ruling": "202108", "deductibility": "1", "assets": 13925, "income": 906, "revenue": 906}, {"ein": "851371299", "name": "ONE HORSE HOLLOW SCHOLARSHIP AND RELIEF FUND INC", "city": "LOCUST VALLEY", "state": "NY", "zip": "11560-1133", "ntee": "B82", "ruling": "202008", "deductibility": "1", "assets": 261299, "income": 151318, "revenue": 151318}, {"ein": "851402467", "name": "FRIARS HEAD DISASTER RELIEF FUND", "city": "RIVERHEAD", "state": "NY", "zip": "11901-1113", "ntee": "T19", "ruling": "202102", "deductibility": "1", "assets": 0, "income": 0, "revenue": 0}, {"ein": "851606021", "name": "LIC RELIEF INC", "city": "LONG ISLAND CITY", "state": "NY", "zip": "11101-5352", "ntee": "K30", "ruling": "202009", "deductibility": "1", "assets": 0, "income": 0, "revenue": 0}, {"ein": "852665561", "name": "DALEY RELIEF INC", "city": "NORTH BALDWIN", "state": "NY", "zip": "11510-1132", "ntee": "P80", "ruling": "202010", "deductibility": "1", "assets": 0, "income": 0, "revenue": 0}, {"ein": "853676975", "name": "RELIEF FUND INC", "city": "HEWLETT", "state": "NY", "zip": "11557-1517", "ntee": "P80", "ruling": "202101", "deductibility": "1", "assets": 0, "income": 0, "revenue": 0}, {"ein": "854077340", "name": "FASHION RELIEF USA LTD", "city": "NEW YORK", "state": "NY", "zip": "10122-0000", "ntee": "T12", "ruling": "202107", "deductibility": "1", "assets": 985536, "income": 480000, "revenue": 480000}, {"ein": "854251922", "name": "BUFFALO CLERGY RELIEF SOCIETY", "city": "BEMUS POINT", "state": "NY", "zip": "14712-0000", "ntee": "X11", "ruling": "202210", "deductibility": "1", "assets": 0, "income": 0, "revenue": 0}, {"ein": "862705965", "name": "COMMUNITY TAX RELIEF INC", "city": "BROOKLYN", "state": "NY", "zip": "11235-3830", "ntee": "S31", "ruling": "202111", "deductibility": "1", "assets": 0, "income": 0, "revenue": 0}, {"ein": "862898583", "name": "GLOBAL RELIEF AND SUPPORT CORPORATION", "city": "CLIFTON PARK", "state": "NY", "zip": "12065-6752", "ntee": "G84", "ruling": "202201", "deductibility": "1", "assets": 108585, "income": 105000, "revenue": 0}, {"ein": "863411998", "name": "CHILDRENS TRAUMA RELIEF FOUNDATION", "city": "POMONA", "state": "NY", "zip": "10970-3565", "ntee": "P20", "ruling": "202108", "deductibility": "1", "assets": 0, "income": 0, "revenue": 0}, {"ein": "874022962", "name": "WORLD JEWISH RELIEF USA INC", "city": "NEW YORK", "state": "NY", "zip": "10019-0000", "ntee": "X12", "ruling": "202207", "deductibility": "1", "assets": 275927, "income": 722208, "revenue": 708097}, {"ein": "874385284", "name": "DANONE NORTH AMERICA EMPLOYEE RELIEF FUND", "city": "WHITE PLAINS", "state": "NY", "zip": "10605-1490", "ntee": "M12", "ruling": "202209", "deductibility": "1", "assets": 60649, "income": 4200, "revenue": 4200}, {"ein": "880680493", "name": "FAMILY RELIEF INITIATIVE INC", "city": "BROOKLYN", "state": "NY", "zip": "11210-3729", "ntee": "F99", "ruling": "202302", "deductibility": "1", "assets": 6901, "income": 143449, "revenue": 143449}, {"ein": "881014800", "name": "PUP RELIEF TOUR INC", "city": "NEW YORK", "state": "NY", "zip": "10031-4002", "ntee": "D99", "ruling": "202507", "deductibility": "1", "assets": 0, "income": 0, "revenue": 0}, {"ein": "881080181", "name": "BUTEWICZ RELIEF FUND FOR UKRAINE", "city": "FLY CREEK", "state": "NY", "zip": "13337-2207", "ntee": "Q71", "ruling": "202203", "deductibility": "1", "assets": 0, "income": 0, "revenue": 0}, {"ein": "881178119", "name": "DOOR3 QUALIFIED DISASTER RELIEF FUND", "city": "NEW YORK", "state": "NY", "zip": "10003-1502", "ntee": "P20", "ruling": "202203", "deductibility": "1", "assets": 10928, "income": 103, "revenue": 0}, {"ein": "881382225", "name": "UKRAINE RELIEF FUND INC", "city": "BUFFALO", "state": "NY", "zip": "14219-2956", "ntee": "Q33", "ruling": "202204", "deductibility": "1", "assets": 15062, "income": 7822, "revenue": 0}, {"ein": "882366484", "name": "LOCAL ONE RELIEF FUND", "city": "ORISKANY", "state": "NY", "zip": "13424-3904", "ntee": "M12", "ruling": "202311", "deductibility": "1", "assets": 2927, "income": 1053, "revenue": 1053}, {"ein": "883048015", "name": "IMPACT RELIEF INTERNATIONAL INC", "city": "MANLIUS", "state": "NY", "zip": "13104-8809", "ntee": "Q19", "ruling": "202306", "deductibility": "1", "assets": 0, "income": 0, "revenue": 0}, {"ein": "920875945", "name": "TRANA RELIEF ASSOCIATION INC", "city": "BROOKLYN", "state": "NY", "zip": "11235-8106", "ntee": "P60", "ruling": "202212", "deductibility": "1", "assets": 0, "income": 0, "revenue": 0}, {"ein": "921162268", "name": "RAHMA RELIEF USA CORP", "city": "BROOKLYN", "state": "NY", "zip": "11230-1511", "ntee": "S20", "ruling": "202301", "deductibility": "1", "assets": 0, "income": 0, "revenue": 0}, {"ein": "921569515", "name": "YONKERS FIREFIGHTERS RELIEF FUND INC", "city": "YONKERS", "state": "NY", "zip": "10701-6651", "ntee": "P60", "ruling": "202411", "deductibility": "1", "assets": 0, "income": 0, "revenue": 0}, {"ein": "922827854", "name": "TURKEY QUAKE RELIEF LTD", "city": "NEW YORK", "state": "NY", "zip": "10075-0450", "ntee": "M12", "ruling": "202303", "deductibility": "1", "assets": 0, "income": 0, "revenue": 0}, {"ein": "923203024", "name": "CNY EARTHQUAKE RELIEF ACTION INC", "city": "N SYRACUSE", "state": "NY", "zip": "13212-4200", "ntee": "M20", "ruling": "202305", "deductibility": "1", "assets": 0, "income": 0, "revenue": 0}, {"ein": "923592482", "name": "TECHNOLOGY RELIEF FOUNDATION INC", "city": "WARRENSBURG", "state": "NY", "zip": "12885-1215", "ntee": "W19", "ruling": "202307", "deductibility": "1", "assets": 0, "income": 0, "revenue": 0}, {"ein": "931756592", "name": "WARRIOR RELIEF FUND", "city": "FORESTVILLE", "state": "NY", "zip": "14062-0031", "ntee": "T12", "ruling": "202504", "deductibility": "1", "assets": 0, "income": 0, "revenue": 0}, {"ein": "931969263", "name": "ORGANIZING UKRAINE RELIEF FOUNDATION INC", "city": "POMONA", "state": "NY", "zip": "10970-3160", "ntee": "W99", "ruling": "202307", "deductibility": "1", "assets": 0, "income": 0, "revenue": 0}, {"ein": "932376121", "name": "PARC PRESERVATION AND RELIEF CONSERVANCY INC", "city": "E PATCHOGUE", "state": "NY", "zip": "11772-5989", "ntee": "D20", "ruling": "202308", "deductibility": "1", "assets": 0, "income": 0, "revenue": 0}, {"ein": "932391299", "name": "CURE RELIEF FOUNDATION INC", "city": "SCHENECTADY", "state": "NY", "zip": "12304-2514", "ntee": "P60", "ruling": "202308", "deductibility": "1", "assets": 0, "income": 0, "revenue": 0}, {"ein": "932540638", "name": "WEST INDIAN RELIEF AND EMPOWERMENT FOUNDATION INC", "city": "NEW YORK", "state": "NY", "zip": "10175-0003", "ntee": "A23", "ruling": "202308", "deductibility": "1", "assets": 7200, "income": 43795, "revenue": 43795}, {"ein": "932943041", "name": "RESPONDER RELIEF", "city": "WOODBURY", "state": "NY", "zip": "11797-2123", "ntee": "E19", "ruling": "202401", "deductibility": "1", "assets": 0, "income": 0, "revenue": 0}, {"ein": "933191483", "name": "786 RELIEF INC", "city": "JAMAICA", "state": "NY", "zip": "11432-2934", "ntee": "L41", "ruling": "202310", "deductibility": "1", "assets": 1, "income": 0, "revenue": 0}, {"ein": "933265963", "name": "AGRO RELIEF INC", "city": "NEW YORK", "state": "NY", "zip": "10003-5504", "ntee": "K30", "ruling": "202311", "deductibility": "1", "assets": 0, "income": 0, "revenue": 0}, {"ein": "934652556", "name": "TURKISH AMERICAN EMERGENCY RELIEF FOUNDATION", "city": "EAST ISLIP", "state": "NY", "zip": "11730-0000", "ntee": "M01", "ruling": "202312", "deductibility": "1", "assets": 0, "income": 0, "revenue": 0}, {"ein": "992519524", "name": "O U R ORGANIZING UKRAINE RELIEF FOUNDATION CORP", "city": "POMONA", "state": "NY", "zip": "10970-3160", "ntee": "W99", "ruling": "202405", "deductibility": "1", "assets": 0, "income": 0, "revenue": 0}, {"ein": "992986883", "name": "WORLD HEALTH RELIEF ORGANIZATION INC", "city": "BRONX", "state": "NY", "zip": "10462-6419", "ntee": "Q33", "ruling": "202412", "deductibility": "1", "assets": 0, "income": 0, "revenue": 0}, {"ein": "993116236", "name": "HUMANITARIAN RELIEF ORGANIZATION INC", "city": "BROOKLYN", "state": "NY", "zip": "11230-2449", "ntee": "P20", "ruling": "202406", "deductibility": "1", "assets": 0, "income": 0, "revenue": 0}, {"ein": "993295362", "name": "TAKAFUL FOR RELIEF AND DEVELOPMENT INC", "city": "S OZONE PARK", "state": "NY", "zip": "11420-1017", "ntee": "A12", "ruling": "202406", "deductibility": "1", "assets": 0, "income": 0, "revenue": 0}, {"ein": "993880088", "name": "KLLEZNA RELIEF FOUNDATION", "city": "BRONXVILLE", "state": "NY", "zip": "10708-5917", "ntee": "M99", "ruling": "202407", "deductibility": "1", "assets": 0, "income": 0, "revenue": 0}, {"ein": "994614674", "name": "RESTROOM RELIEF INC", "city": "BROOKLYN", "state": "NY", "zip": "11234-4595", "ntee": "P20", "ruling": "202410", "deductibility": "1", "assets": 0, "income": 0, "revenue": 0}, {"ein": "994997562", "name": "BLUKWA-KODIDE RELIEF INTERNATIONAL INC", "city": "LOCKPORT", "state": "NY", "zip": "14094-5702", "ntee": "Q71", "ruling": "202410", "deductibility": "1", "assets": 0, "income": 0, "revenue": 0}], "BATH": [{"ein": "016016020", "name": "BATH POLICE BENEVOLENT ASSOCIATION INCORPORATED", "city": "BATH", "state": "NY", "zip": "14810-1526", "ntee": "", "ruling": "195409", "deductibility": "2", "assets": 38549, "income": 37729, "revenue": 25389}, {"ein": "111014855", "name": "LLOYD NECK BATH CLUB INC", "city": "LLOYD HARBOR", "state": "NY", "zip": "11743-1627", "ntee": "", "ruling": "197203", "deductibility": "2", "assets": 3505721, "income": 2304078, "revenue": 2304078}, {"ein": "112966456", "name": "NATIONAL KITCHEN & BATH ASSOC", "city": "HUNTINGTN STA", "state": "NY", "zip": "11746-0853", "ntee": "", "ruling": "199407", "deductibility": "2", "assets": 0, "income": 0, "revenue": 0}, {"ein": "113572727", "name": "SOUTHAMPTON BATH & TENNIS CLUB CHARITABLE FUND", "city": "SOUTHAMPTON", "state": "NY", "zip": "11969-1208", "ntee": "T31", "ruling": "200102", "deductibility": "1", "assets": 261310, "income": 523536, "revenue": 463407}, {"ein": "133937338", "name": "NATIONAL KITCHEN & BATH ASSOC", "city": "SUNNYSIDE", "state": "NY", "zip": "11104-1872", "ntee": "", "ruling": "199407", "deductibility": "2", "assets": 0, "income": 0, "revenue": 0}, {"ein": "141718140", "name": "NATIONAL KITCHEN & BATH ASSOC", "city": "SCHENECTADY", "state": "NY", "zip": "12302-3405", "ntee": "S41", "ruling": "199407", "deductibility": "2", "assets": 0, "income": 0, "revenue": 0}, {"ein": "160464445", "name": "GROVE CEMETERY BATH N Y INC", "city": "BATH", "state": "NY", "zip": "14810-0289", "ntee": "", "ruling": "194907", "deductibility": "1", "assets": 0, "income": 0, "revenue": 0}, {"ein": "160542798", "name": "MASONIC TEMPLE ASSOCIATION OF BATH N Y", "city": "BATH", "state": "NY", "zip": "14810-0045", "ntee": "", "ruling": "194210", "deductibility": "2", "assets": 0, "income": 0, "revenue": 0}, {"ein": "160757759", "name": "TRS OF BATH PRESBYTERIAN CONGREGATION", "city": "BATH", "state": "NY", "zip": "14810-1516", "ntee": "", "ruling": "196401", "deductibility": "1", "assets": 0, "income": 0, "revenue": 0}, {"ein": "160765476", "name": "BATH CEMETERY ASSO", "city": "BATH", "state": "NY", "zip": "14810-0000", "ntee": "Y50", "ruling": "201201", "deductibility": "1", "assets": 211989, "income": 31717, "revenue": 31717}, {"ein": "160788241", "name": "BATH BAPTIST CHURCH", "city": "BATH", "state": "NY", "zip": "14810-1505", "ntee": "", "ruling": "195504", "deductibility": "1", "assets": 0, "income": 0, "revenue": 0}, {"ein": "160874186", "name": "BATH CHAMBER OF COMMERCE INC", "city": "BATH", "state": "NY", "zip": "14810-0488", "ntee": "", "ruling": "199306", "deductibility": "2", "assets": 28654, "income": 47384, "revenue": 47284}, {"ein": "161109902", "name": "BATH ROTARY STUDENT FUND INC", "city": "BATH", "state": "NY", "zip": "14810-0648", "ntee": "", "ruling": "198207", "deductibility": "1", "assets": 139778, "income": 13878, "revenue": 0}, {"ein": "161263209", "name": "BATH ROD & GUN CLUB INC", "city": "BATH", "state": "NY", "zip": "14810-0764", "ntee": "", "ruling": "199103", "deductibility": "2", "assets": 424768, "income": 125225, "revenue": 85956}, {"ein": "161405346", "name": "NATIONAL KITCHEN & BATH ASSOC", "city": "WALWORTH", "state": "NY", "zip": "14568-9610", "ntee": "S41", "ruling": "199407", "deductibility": "2", "assets": 0, "income": 0, "revenue": 0}, {"ein": "166017992", "name": "ST THOMAS EP BATH CHM 249016000601 FORM 20673", "city": "PITTSFORD", "state": "NY", "zip": "14534-3838", "ntee": "", "ruling": "197307", "deductibility": "0", "assets": 517179, "income": 136036, "revenue": 0}, {"ein": "208239576", "name": "BATH BAND BOOSTERS", "city": "BATH", "state": "NY", "zip": "14810-1107", "ntee": "B11", "ruling": "201409", "deductibility": "1", "assets": 0, "income": 0, "revenue": 0}, {"ein": "237049462", "name": "VOLUNTEER AMBULANCE CORPS OF BATH NEW YORK INC", "city": "BATH", "state": "NY", "zip": "14810-1622", "ntee": "M41", "ruling": "200106", "deductibility": "1", "assets": 2005877, "income": 1377559, "revenue": 1377559}, {"ein": "237454862", "name": "THE CALVARY BAPTIST CHURCH OF BATH NEW YORK", "city": "BATH", "state": "NY", "zip": "14810-1638", "ntee": "", "ruling": "197912", "deductibility": "1", "assets": 0, "income": 0, "revenue": 0}, {"ein": "300182198", "name": "BATH NY GIRLS MEMORIAL SCHOLARSHIP TR", "city": "PITTSFORD", "state": "NY", "zip": "14534-3838", "ntee": "B82", "ruling": "200909", "deductibility": "1", "assets": 114037, "income": 8627, "revenue": 0}, {"ein": "510139213", "name": "HEBREW BATH HOUSE SOCIETY", "city": "SYRACUSE", "state": "NY", "zip": "13214-2121", "ntee": "X11", "ruling": "201702", "deductibility": "1", "assets": 0, "income": 0, "revenue": 0}, {"ein": "521874654", "name": "UNIVERSITY OF BATH FOUNDATION LTD", "city": "NEW YORK", "state": "NY", "zip": "10019-4703", "ntee": "B84Z", "ruling": "199510", "deductibility": "1", "assets": 655770, "income": 2376527, "revenue": 1247249}, {"ein": "814815143", "name": "BATH YOUTH BASEBALL", "city": "BATH", "state": "NY", "zip": "14810-0205", "ntee": "N63", "ruling": "202109", "deductibility": "1", "assets": 0, "income": 0, "revenue": 0}, {"ein": "853051688", "name": "BATH AND GROOM CORP", "city": "BROOKLYN", "state": "NY", "zip": "11233-1011", "ntee": "P20", "ruling": "202101", "deductibility": "1", "assets": 0, "income": 0, "revenue": 0}, {"ein": "912145048", "name": "BATH VOLUNTEER FIRE DEPT INC", "city": "BATH", "state": "NY", "zip": "14810-1643", "ntee": "M24", "ruling": "200109", "deductibility": "1", "assets": 2377942, "income": 462195, "revenue": 462195}, {"ein": "933974617", "name": "BATH-ON-THE-HUDSON PRESERVATIONISTS INC", "city": "RENSSELAER", "state": "NY", "zip": "12144-0000", "ntee": "A82", "ruling": "202402", "deductibility": "1", "assets": 0, "income": 0, "revenue": 0}], "REFERRAL": [{"ein": "020674289", "name": "YOUTH REFERRAL & PLACEMENT UNIT INC", "city": "JAMAICA", "state": "NY", "zip": "11435-5237", "ntee": "P50", "ruling": "200704", "deductibility": "1", "assets": 0, "income": 0, "revenue": 0}, {"ein": "030555281", "name": "UNITED JEWISH REFERRAL NETWORK INC", "city": "BROOKLYN", "state": "NY", "zip": "11223-2329", "ntee": "G99", "ruling": "200704", "deductibility": "1", "assets": 0, "income": 0, "revenue": 0}, {"ein": "112518432", "name": "PROJECT OHR - OFFICE FOR HOMECARE REFERRAL INC", "city": "NEW YORK", "state": "NY", "zip": "10004-1561", "ntee": "P44Z", "ruling": "198010", "deductibility": "1", "assets": 6718137, "income": 255619, "revenue": 35003}, {"ein": "133551378", "name": "VOLUNTEER REFERRAL CENTER INC", "city": "NEW YORK", "state": "NY", "zip": "10028-7553", "ntee": "", "ruling": "199404", "deductibility": "1", "assets": 5941, "income": 4282, "revenue": 4282}, {"ein": "161217356", "name": "HOME ASSISTANCE REFERRAL TEAM INC", "city": "LEWISTON", "state": "NY", "zip": "14092-1653", "ntee": "", "ruling": "198505", "deductibility": "1", "assets": 23070, "income": 122733, "revenue": 122733}, {"ein": "421545339", "name": "MIDDLE EAST NATIVES TESTING ORIENTATION & REFERRAL SERV INC", "city": "NEW YORK", "state": "NY", "zip": "10010-2622", "ntee": "C34", "ruling": "200301", "deductibility": "1", "assets": 0, "income": 0, "revenue": 0}, {"ein": "455506428", "name": "FUR BABIES RESCUE AND REFERRAL INC", "city": "EAST ROCKAWAY", "state": "NY", "zip": "11518-1419", "ntee": "D20", "ruling": "201209", "deductibility": "1", "assets": 0, "income": 0, "revenue": 0}, {"ein": "463224425", "name": "RESTAURANT WORKERS REFERRAL PROGRAM", "city": "NEW YORK", "state": "NY", "zip": "10009-7069", "ntee": "J99", "ruling": "201407", "deductibility": "1", "assets": 0, "income": 0, "revenue": 0}, {"ein": "871258053", "name": "NETWORKING REFERRAL GROUP OF ROCHESTER INC", "city": "ROCHESTER", "state": "NY", "zip": "14609-7610", "ntee": "Y03", "ruling": "202304", "deductibility": "2", "assets": 0, "income": 0, "revenue": 0}], "HOLINESS": [{"ein": "020696684", "name": "ST LUKE UNITY HELPING AID PENTECOSTAL HOLINESS CHURCH INC", "city": "BROOKLYN", "state": "NY", "zip": "11233-3223", "ntee": "X21", "ruling": "200405", "deductibility": "1", "assets": 0, "income": 0, "revenue": 0}, {"ein": "061317272", "name": "WINGS OF FAITH OUTREACH HOLINESS CHURCH OF GOD", "city": "INWOOD", "state": "NY", "zip": "11096-1832", "ntee": "", "ruling": "199207", "deductibility": "1", "assets": 0, "income": 0, "revenue": 0}, {"ein": "112461817", "name": "MOUNT ZION OF BETH-EL HOLINESS CHURCH INC", "city": "HEMPSTEAD", "state": "NY", "zip": "11550-7419", "ntee": "", "ruling": "197808", "deductibility": "1", "assets": 0, "income": 0, "revenue": 0}, {"ein": "112513244", "name": "ZION TABERNACLE FIRE BAPTIZED HOLINESS CHURCH OF GOD OF AMERICA", "city": "OZONE PARK", "state": "NY", "zip": "11417-2320", "ntee": "", "ruling": "198701", "deductibility": "1", "assets": 0, "income": 0, "revenue": 0}, {"ein": "112553300", "name": "WORLD TABERNACLE APOSTOLIC HOLINESS INC", "city": "BKLYN", "state": "NY", "zip": "11221-1304", "ntee": "", "ruling": "198103", "deductibility": "1", "assets": 0, "income": 0, "revenue": 0}, {"ein": "112608613", "name": "TEMPLE OF PRAYER HOLINESS CHURCH", "city": "BROOKLYN", "state": "NY", "zip": "11213-2937", "ntee": "", "ruling": "198208", "deductibility": "1", "assets": 0, "income": 0, "revenue": 0}, {"ein": "112825975", "name": "APOSTOLIC HOLINESS CHURCH", "city": "BAYSHORE", "state": "NY", "zip": "11706-6619", "ntee": "", "ruling": "198703", "deductibility": "1", "assets": 0, "income": 0, "revenue": 0}, {"ein": "112851017", "name": "APOSTOLIC HOLINESS UNION HOUSE OF PRAYER INC", "city": "BROOKLYN", "state": "NY", "zip": "11216-1504", "ntee": "", "ruling": "198704", "deductibility": "1", "assets": 0, "income": 0, "revenue": 0}, {"ein": "112895686", "name": "RED HOOK PENTECOSTAL HOLINESS CHURCH", "city": "BROOKLYN", "state": "NY", "zip": "11231-0643", "ntee": "", "ruling": "196402", "deductibility": "1", "assets": 0, "income": 0, "revenue": 0}, {"ein": "112983896", "name": "NEW JERUSALEM HOLINESS CHURCH OF JESUS CHRIST INC", "city": "BROOKLYN", "state": "NY", "zip": "11212-5350", "ntee": "", "ruling": "199101", "deductibility": "1", "assets": 0, "income": 0, "revenue": 0}, {"ein": "113035725", "name": "NEW LIFE PENTECOSTAL HOLINESS CHURCH", "city": "ST ALBANS", "state": "NY", "zip": "11412-0536", "ntee": "", "ruling": "199211", "deductibility": "1", "assets": 0, "income": 0, "revenue": 0}, {"ein": "113074429", "name": "ROCK OF HOLINESS DELIVERANCE FAITH MINISTRY INC", "city": "BROOKLYN", "state": "NY", "zip": "11210-2550", "ntee": "", "ruling": "199312", "deductibility": "1", "assets": 0, "income": 0, "revenue": 0}, {"ein": "113091302", "name": "MOUNT HOLINESS CHRISTIAN CHURCH OF GOD INC", "city": "BROOKLYN", "state": "NY", "zip": "11221-1912", "ntee": "", "ruling": "199403", "deductibility": "1", "assets": 0, "income": 0, "revenue": 0}, {"ein": "113119031", "name": "MT OLIVE HOLINESS CHURCH INC", "city": "BROOKLYN", "state": "NY", "zip": "11207-1303", "ntee": "X20", "ruling": "202011", "deductibility": "1", "assets": 0, "income": 0, "revenue": 0}, {"ein": "113128603", "name": "MIRACLE TEMPLE CHURCH OF APOSTOLIC HOLINESS CHURCH OF AMERICA INC", "city": "BROOKLYN", "state": "NY", "zip": "11233-1705", "ntee": "", "ruling": "199411", "deductibility": "1", "assets": 0, "income": 0, "revenue": 0}, {"ein": "113133869", "name": "RIGHTWAY HOLINESS CHURCH OF THE APOSTOLIC FAITH INC", "city": "BAY SHORE", "state": "NY", "zip": "11706-8302", "ntee": "", "ruling": "199408", "deductibility": "1", "assets": 0, "income": 0, "revenue": 0}, {"ein": "113142446", "name": "EVANGELICAL HOLINESS CHURCH WESLEYAN INC", "city": "FAR ROCKAWAY", "state": "NY", "zip": "11691-2402", "ntee": "X20", "ruling": "199908", "deductibility": "1", "assets": 0, "income": 0, "revenue": 0}, {"ein": "113166160", "name": "TRINITY TABERNACLE PENTECOSTAL HOLINESS CHURCH INC", "city": "BROOKLYN", "state": "NY", "zip": "11221-5105", "ntee": "", "ruling": "199311", "deductibility": "1", "assets": 0, "income": 0, "revenue": 0}, {"ein": "113175478", "name": "THE CHURCH OF CHRIST HOLINESS UNTO THE LORD INC", "city": "BROOKLYN", "state": "NY", "zip": "11233-2622", "ntee": "X20Z", "ruling": "199506", "deductibility": "1", "assets": 0, "income": 0, "revenue": 0}, {"ein": "113187593", "name": "MOUNT CALVARY HOLINESS CHURCH HOUSE OF PRAISE", "city": "WYANDANCH", "state": "NY", "zip": "11798-4322", "ntee": "X99Z", "ruling": "199605", "deductibility": "1", "assets": 0, "income": 0, "revenue": 0}, {"ein": "113212382", "name": "EBENEZER FAITH TEMPLE HOLINESS CHURCH INC", "city": "BROOKLYN", "state": "NY", "zip": "11216-1506", "ntee": "", "ruling": "199412", "deductibility": "1", "assets": 0, "income": 0, "revenue": 0}, {"ein": "113279924", "name": "FAITH HOLINESS CHURCH OF THE FIRST BISHOP", "city": "BROOKLYN", "state": "NY", "zip": "11234-1622", "ntee": "X20Z", "ruling": "199512", "deductibility": "1", "assets": 0, "income": 0, "revenue": 0}, {"ein": "113283924", "name": "MT ZION PENTECOSTAL HOLINESS CHURCH INC", "city": "BROOKLYN", "state": "NY", "zip": "11207-1611", "ntee": "X20Z", "ruling": "199602", "deductibility": "1", "assets": 0, "income": 0, "revenue": 0}, {"ein": "113320957", "name": "TEMPLE OF HOLINESS CHURCH INC", "city": "BROOKLYN", "state": "NY", "zip": "11226-2701", "ntee": "X20Z", "ruling": "199806", "deductibility": "1", "assets": 0, "income": 0, "revenue": 0}, {"ein": "113322865", "name": "WAY OF HOLINESS CHURCH OF GOD PENTECOSTAL HEADQUARTERS INTERNATI", "city": "BROOKLYN", "state": "NY", "zip": "11238-2519", "ntee": "X20Z", "ruling": "199609", "deductibility": "1", "assets": 0, "income": 0, "revenue": 0}, {"ein": "113343057", "name": "NAZARETH HOLINESS FULL GOSPEL CHURCH OF GOD INC", "city": "JAMAICA", "state": "NY", "zip": "11433-1608", "ntee": "X21", "ruling": "200010", "deductibility": "1", "assets": 0, "income": 0, "revenue": 0}, {"ein": "113362558", "name": "BIBLE LIFE HOLINESS CHURCH INC", "city": "BROOKLYN", "state": "NY", "zip": "11203-3503", "ntee": "X21Z", "ruling": "199706", "deductibility": "1", "assets": 0, "income": 0, "revenue": 0}, {"ein": "113366201", "name": "HOLINESS CHURCH OF OUR LORD JESUS CHRIST APOSTOLIC INC", "city": "SPRNGFLD GDNS", "state": "NY", "zip": "11413-1034", "ntee": "X20", "ruling": "199910", "deductibility": "1", "assets": 0, "income": 0, "revenue": 0}, {"ein": "113378344", "name": "HOLY OF HOLINESS CHURCH INC", "city": "BROOKLYN", "state": "NY", "zip": "11224-4065", "ntee": "X20Z", "ruling": "199706", "deductibility": "1", "assets": 0, "income": 0, "revenue": 0}, {"ein": "113389504", "name": "JESUS WITNESS WAY OF HOLINESS CHURCH", "city": "WHEATLEY HTS", "state": "NY", "zip": "11798-2201", "ntee": "X20", "ruling": "200010", "deductibility": "1", "assets": 0, "income": 0, "revenue": 0}, {"ein": "113434536", "name": "KEYS OF THE KINGDOM PENTECOSTAL HOLINESS CHURCH INC", "city": "LAURELTON", "state": "NY", "zip": "11413-1219", "ntee": "X21", "ruling": "201604", "deductibility": "1", "assets": 0, "income": 0, "revenue": 0}, {"ein": "113502706", "name": "HOLINESS CENTER CATHEDRAL", "city": "SAINT ALBANS", "state": "NY", "zip": "11412-1049", "ntee": "X21", "ruling": "200102", "deductibility": "1", "assets": 0, "income": 0, "revenue": 0}, {"ein": "113545878", "name": "NEW YORK KOREAN PENTECOSTAL HOLINESS CHURCH", "city": "BAYSIDE", "state": "NY", "zip": "11361-2943", "ntee": "X21", "ruling": "200103", "deductibility": "1", "assets": 0, "income": 0, "revenue": 0}, {"ein": "113582694", "name": "MOUNT MORIAH FIRE BAPTIZED HOLINESS CHURCH OF GOD OF THE AMERICAS", "city": "WYANDANCH", "state": "NY", "zip": "11798-0985", "ntee": "X20", "ruling": "200105", "deductibility": "1", "assets": 0, "income": 0, "revenue": 0}, {"ein": "116102051", "name": "GETHSEMANE TEMPLE OF THE UNITED HOLINESS CHURCH OF AMERICA INC", "city": "LONG ISLAND", "state": "NY", "zip": "11101-0000", "ntee": "", "ruling": "196801", "deductibility": "1", "assets": 0, "income": 0, "revenue": 0}, {"ein": "119623601", "name": "PILGRIM HOLINESS CHURCH OF NY INC", "city": "PIERREPONT", "state": "NY", "zip": "13617-0795", "ntee": "", "ruling": "197609", "deductibility": "1", "assets": 0, "income": 0, "revenue": 0}, {"ein": "133004279", "name": "LORING PLACE HOLINESS CHURCH INC", "city": "BRONX", "state": "NY", "zip": "10453-5203", "ntee": "X20Z", "ruling": "198104", "deductibility": "1", "assets": 0, "income": 0, "revenue": 0}, {"ein": "133144646", "name": "FIRST BORN TRUE HOLINESS CHURCH INC", "city": "NEW YORK", "state": "NY", "zip": "10027-5326", "ntee": "", "ruling": "198409", "deductibility": "1", "assets": 0, "income": 0, "revenue": 0}, {"ein": "133162435", "name": "GETHSEMANE REVIVAL HOLINESS CENTER", "city": "NEW YORK", "state": "NY", "zip": "10027-4201", "ntee": "", "ruling": "198507", "deductibility": "1", "assets": 0, "income": 0, "revenue": 0}, {"ein": "133630575", "name": "HOLINESS", "city": "ELMONT", "state": "NY", "zip": "11003-1248", "ntee": "", "ruling": "196307", "deductibility": "1", "assets": 0, "income": 0, "revenue": 0}, {"ein": "133709585", "name": "MOUNT CALVARY HOLINESS CHURCH INC", "city": "NEW YORK", "state": "NY", "zip": "10028-0048", "ntee": "", "ruling": "199305", "deductibility": "1", "assets": 0, "income": 0, "revenue": 0}, {"ein": "133764214", "name": "HOLINESS CHRISTIAN CHURCH OF THE BRONX", "city": "BRONX", "state": "NY", "zip": "10469-3818", "ntee": "X20Z", "ruling": "199603", "deductibility": "1", "assets": 2527124, "income": 280215, "revenue": 280215}, {"ein": "133814170", "name": "HOLINESS UNTO THE LORD CHURCH INC", "city": "NEW YORK", "state": "NY", "zip": "10002-6514", "ntee": "X20Z", "ruling": "199711", "deductibility": "1", "assets": 0, "income": 0, "revenue": 0}, {"ein": "133902906", "name": "SECOND BORN HOLINESS PENTECOSTAL CHURCH", "city": "BRONX", "state": "NY", "zip": "10460-6132", "ntee": "X99", "ruling": "201409", "deductibility": "1", "assets": 0, "income": 0, "revenue": 0}, {"ein": "133938578", "name": "MOUNT SINAI FIRE BAPTIZED HOLINESS CHURCH OF THE AMERICAS", "city": "YONKERS", "state": "NY", "zip": "10701-2727", "ntee": "X200", "ruling": "200306", "deductibility": "1", "assets": 0, "income": 0, "revenue": 0}, {"ein": "134066405", "name": "NEW LIFE HOLINESS CHRISTIAN MINISTRIES", "city": "BRONX", "state": "NY", "zip": "10466-1605", "ntee": "X20", "ruling": "200105", "deductibility": "1", "assets": 0, "income": 0, "revenue": 0}, {"ein": "136729198", "name": "NEW COVENANAT HOLINESS CHURCH", "city": "NEW YORK", "state": "NY", "zip": "10032-7602", "ntee": "X20", "ruling": "200202", "deductibility": "1", "assets": 0, "income": 0, "revenue": 0}, {"ein": "161073271", "name": "ST PAUL BELIEVERS HOLINESS CHURCH OF ROCHESTER NY INC", "city": "ROCHESTER", "state": "NY", "zip": "14603-1767", "ntee": "", "ruling": "197809", "deductibility": "1", "assets": 0, "income": 0, "revenue": 0}, {"ein": "161384987", "name": "COMMUNITY TEMPLE HOLINESS CHURCH", "city": "ROCHESTER", "state": "NY", "zip": "14608-2651", "ntee": "", "ruling": "199307", "deductibility": "1", "assets": 0, "income": 0, "revenue": 0}, {"ein": "161495886", "name": "TRUE HOLINESS CHURCH OF THE LIVING GOD", "city": "ROCHESTER", "state": "NY", "zip": "14608-2919", "ntee": "X99Z", "ruling": "199605", "deductibility": "1", "assets": 0, "income": 0, "revenue": 0}, {"ein": "201168665", "name": "UNITED HOLINESS TEMPLE INC", "city": "BROOKLYN", "state": "NY", "zip": "11221-1403", "ntee": "X20", "ruling": "200507", "deductibility": "1", "assets": 0, "income": 0, "revenue": 0}, {"ein": "202829158", "name": "YOUTH UNITED THROUGH HOLINESS MINISTRIES INC", "city": "BRONX", "state": "NY", "zip": "10459-2280", "ntee": "X21", "ruling": "200508", "deductibility": "1", "assets": 0, "income": 0, "revenue": 0}, {"ein": "203426694", "name": "QUEENS PENTECOSTAL HOLINESS CHURCH", "city": "BINGHAMTON", "state": "NY", "zip": "13905-1950", "ntee": "X21", "ruling": "200607", "deductibility": "1", "assets": 0, "income": 0, "revenue": 0}, {"ein": "222514587", "name": "CHRIST TEMPLE DELIVERANCE HOLINESS CHURCH", "city": "NEW HAVEN", "state": "NY", "zip": "13121-0000", "ntee": "", "ruling": "198408", "deductibility": "1", "assets": 0, "income": 0, "revenue": 0}, {"ein": "223055345", "name": "BEZER HOLINESS CHURCH INC", "city": "NEW ROCHELLE", "state": "NY", "zip": "10801-7008", "ntee": "X21", "ruling": "200003", "deductibility": "1", "assets": 0, "income": 0, "revenue": 0}, {"ein": "223201489", "name": "UPPER ROOM CHURCH OF CHRIST HOLINESS UNTO THE LORD INC", "city": "FREEPORT", "state": "NY", "zip": "11520-1517", "ntee": "", "ruling": "199311", "deductibility": "1", "assets": 0, "income": 0, "revenue": 0}, {"ein": "237135058", "name": "YOUNGS TABERNACLE HOLINESS CHURCH INC", "city": "BUFFALO", "state": "NY", "zip": "14206-1739", "ntee": "", "ruling": "197309", "deductibility": "1", "assets": 0, "income": 0, "revenue": 0}, {"ein": "237336669", "name": "MOUNT ZION HOLINESS CHURCH INC", "city": "BUFFALO", "state": "NY", "zip": "14212-1044", "ntee": "", "ruling": "197312", "deductibility": "1", "assets": 0, "income": 0, "revenue": 0}, {"ein": "260617715", "name": "CANARSIE HOLINESS TABERNACLE", "city": "WOODHAVEN", "state": "NY", "zip": "11421-2140", "ntee": "", "ruling": "197005", "deductibility": "1", "assets": 0, "income": 0, "revenue": 0}, {"ein": "260791213", "name": "WEST CHAZY HOLINESS CAMPMEETING ASSOCIATION INC", "city": "WEST CHAZY", "state": "NY", "zip": "12992-0000", "ntee": "X20", "ruling": "200911", "deductibility": "1", "assets": 312249, "income": 79152, "revenue": 79152}, {"ein": "270007988", "name": "MT ZION PENTECOSTAL HOLINESS CHURCH INC", "city": "BROOKLYN", "state": "NY", "zip": "11233-2508", "ntee": "X21", "ruling": "200209", "deductibility": "1", "assets": 0, "income": 0, "revenue": 0}, {"ein": "270203938", "name": "TRUE HOLINESS FULL GOSPEL BAPTIST CHURCH INC", "city": "BROOKLYN", "state": "NY", "zip": "11239-2006", "ntee": "X21", "ruling": "200909", "deductibility": "1", "assets": 0, "income": 0, "revenue": 0}, {"ein": "274269525", "name": "KRONKRON NE AWURADE MINISTRY HOLINESS IS THE LORD", "city": "BRONX", "state": "NY", "zip": "10456-3914", "ntee": "X20", "ruling": "201609", "deductibility": "1", "assets": 0, "income": 0, "revenue": 0}, {"ein": "300389949", "name": "HOLINESS APOSTOLIC CHURCH OF JESUS CHRIST INC", "city": "MENANDS", "state": "NY", "zip": "12204-1747", "ntee": "X21", "ruling": "200702", "deductibility": "1", "assets": 0, "income": 0, "revenue": 0}, {"ein": "300715631", "name": "HOLINESS TEMPLE", "city": "BROOKLYN", "state": "NY", "zip": "11210-4302", "ntee": "", "ruling": "197210", "deductibility": "1", "assets": 0, "income": 0, "revenue": 0}, {"ein": "311659992", "name": "MOUNT HOREB HOLINESS CHURCH OF GOD INC", "city": "NEW YORK", "state": "NY", "zip": "10035-1004", "ntee": "X20", "ruling": "200002", "deductibility": "1", "assets": 0, "income": 0, "revenue": 0}, {"ein": "311665832", "name": "EBENEZER PILGRIM HOLINESS CHURCH", "city": "BRONX", "state": "NY", "zip": "10467-5815", "ntee": "X21", "ruling": "200004", "deductibility": "1", "assets": 0, "income": 0, "revenue": 0}, {"ein": "311704772", "name": "HOUSE OF FAITH CHURCH OF HOLINESS INCORPORATED", "city": "BROOKLYN", "state": "NY", "zip": "11233-4706", "ntee": "X21", "ruling": "200010", "deductibility": "1", "assets": 0, "income": 0, "revenue": 0}, {"ein": "311753380", "name": "EDUCATIONAL HOLINESS CHURCH OF GOD IN CHRIST", "city": "S OZONE PARK", "state": "NY", "zip": "11420-3418", "ntee": "X21", "ruling": "200102", "deductibility": "1", "assets": 0, "income": 0, "revenue": 0}, {"ein": "364649707", "name": "ROCK OF HOLINESS SCHOOL OF MINISTRY & SEMINARY", "city": "BROOKLYN", "state": "NY", "zip": "11210-2550", "ntee": "", "ruling": "197412", "deductibility": "1", "assets": 0, "income": 0, "revenue": 0}, {"ein": "454336572", "name": "BROOKLYN CHURCH OF GOD HOLINESS", "city": "BROOKLYN", "state": "NY", "zip": "11203-5812", "ntee": "X20", "ruling": "202108", "deductibility": "1", "assets": 0, "income": 0, "revenue": 0}, {"ein": "465737089", "name": "WAY OF HOLINESS CHURCH", "city": "ROCHESTER", "state": "NY", "zip": "14606-3900", "ntee": "X20", "ruling": "201606", "deductibility": "1", "assets": 0, "income": 0, "revenue": 0}, {"ein": "472946229", "name": "HOUSE OF ONE FAITH HOLINESS CHURCH", "city": "TONAWANDA", "state": "NY", "zip": "14150-6968", "ntee": "X20", "ruling": "201804", "deductibility": "1", "assets": 0, "income": 0, "revenue": 0}, {"ein": "570999697", "name": "NEW ZION FIRE BAPTIZED HOLINESS CHURCH OF GOD OF THE AMERICAS INC", "city": "LAWRENCE", "state": "NY", "zip": "11559-1208", "ntee": "X21", "ruling": "200105", "deductibility": "1", "assets": 0, "income": 0, "revenue": 0}, {"ein": "651248497", "name": "FULL GOSPEL HOLINESS CHURCH", "city": "QUEENS VLG", "state": "NY", "zip": "11427-2633", "ntee": "X21", "ruling": "200612", "deductibility": "1", "assets": 0, "income": 0, "revenue": 0}, {"ein": "753098731", "name": "NEW CHURCH OF CHRIST HOLINESS UNTO THE LORD", "city": "BROOKLYN", "state": "NY", "zip": "11233-4417", "ntee": "X21", "ruling": "200303", "deductibility": "1", "assets": 0, "income": 0, "revenue": 0}, {"ein": "800096640", "name": "UNITED HOLINESS CHURCH OF FAITH IN CHRIST INC", "city": "BROOKLYN", "state": "NY", "zip": "11238-4601", "ntee": "X21", "ruling": "200406", "deductibility": "1", "assets": 0, "income": 0, "revenue": 0}, {"ein": "800226522", "name": "WAY OF HOLINESS MINISTRY INC", "city": "BRONX", "state": "NY", "zip": "10472-3016", "ntee": "X20", "ruling": "200903", "deductibility": "1", "assets": 0, "income": 0, "revenue": 0}, {"ein": "813839223", "name": "GODS HOUSE OF DELIVERANCE HOLINESS MINISTRIES INC", "city": "BROOKLYN", "state": "NY", "zip": "11203-5310", "ntee": "X20", "ruling": "201708", "deductibility": "1", "assets": 0, "income": 0, "revenue": 0}, {"ein": "824692587", "name": "WEST HEMPSTEAD HOLINESS CHURCH", "city": "UNIONDALE", "state": "NY", "zip": "11553-2019", "ntee": "X20", "ruling": "201905", "deductibility": "1", "assets": 0, "income": 0, "revenue": 0}, {"ein": "900136356", "name": "OLD PATHWAY HOLINESS CHURCH", "city": "NIAGARA FALLS", "state": "NY", "zip": "14303-2214", "ntee": "X20", "ruling": "200406", "deductibility": "1", "assets": 0, "income": 0, "revenue": 0}, {"ein": "901021247", "name": "OVERCOMING THROUGH HOLINESS MINISTRIES INC", "city": "UNIONDALE", "state": "NY", "zip": "11556-0626", "ntee": "X20", "ruling": "201407", "deductibility": "1", "assets": 0, "income": 0, "revenue": 0}, {"ein": "933952347", "name": "HOLINESS CHAPEL", "city": "PIERREPNT MNR", "state": "NY", "zip": "13674-0795", "ntee": "", "ruling": "196105", "deductibility": "1", "assets": 0, "income": 0, "revenue": 0}, {"ein": "993952451", "name": "DEFENDERS OF HOLINESS INC", "city": "ALBION", "state": "NY", "zip": "14411-0452", "ntee": "X20", "ruling": "202408", "deductibility": "1", "assets": 0, "income": 0, "revenue": 0}], "CARA": [{"ein": "020806300", "name": "CLANN NA CARA PARENT ORGANIZATION INC", "city": "AKRON", "state": "NY", "zip": "14001-1108", "ntee": "A23", "ruling": "201301", "deductibility": "1", "assets": 32871, "income": 75178, "revenue": 75178}, {"ein": "271018038", "name": "CLAN NA CARA PARENT ORGANIZATION", "city": "VESTAL", "state": "NY", "zip": "13850-1608", "ntee": "O50", "ruling": "201306", "deductibility": "2", "assets": 0, "income": 0, "revenue": 0}, {"ein": "452945739", "name": "HUGS FROM CARA INC", "city": "AUBURN", "state": "NY", "zip": "13021-4801", "ntee": "F60", "ruling": "201203", "deductibility": "1", "assets": 0, "income": 0, "revenue": 0}], "SVMC": [{"ein": "036039885", "name": "EUNICE & WILLIAM BURRINGTON TRUST SVMC 31C014011", "city": "BUFFALO", "state": "NY", "zip": "14240-1504", "ntee": "T22", "ruling": "201904", "deductibility": "1", "assets": 84823, "income": 5642, "revenue": 0}], "BRITISH": [{"ein": "042673426", "name": "AMERICAN TRUST FOR THE BRITISH LBRY", "city": "NEW YORK", "state": "NY", "zip": "10034-1612", "ntee": "B76I", "ruling": "197908", "deductibility": "1", "assets": 3649352, "income": 433157, "revenue": 330141}, {"ein": "131621298", "name": "BRITISH-AMERICAN CHAMBER OF COMMERCE", "city": "NEW YORK", "state": "NY", "zip": "10017-3808", "ntee": "S41", "ruling": "200101", "deductibility": "2", "assets": 4194135, "income": 4770090, "revenue": 4528926}, {"ein": "132877889", "name": "THE NORTH AMERICAN CONFERENCE ON BRITISH STUDIES INC", "city": "BUFFALO", "state": "NY", "zip": "14260-4120", "ntee": "", "ruling": "199008", "deductibility": "1", "assets": 1330303, "income": 220905, "revenue": 220905}, {"ein": "133613378", "name": "THE BRITISH AMERICAN BUSINESS FOUNDATION INC", "city": "NEW YORK", "state": "NY", "zip": "10017-3808", "ntee": "", "ruling": "199111", "deductibility": "1", "assets": 0, "income": 0, "revenue": 0}, {"ein": "136161189", "name": "BRITISH SCHOOLS AND UNIVERSITIES FOUNDATION INC", "city": "NEW YORK", "state": "NY", "zip": "10022-4503", "ntee": "Q300", "ruling": "196404", "deductibility": "1", "assets": 4443460, "income": 16159471, "revenue": 15338164}, {"ein": "136167139", "name": "DAUGHTERS OF THE BRITISH EMPIRE IN THE STATE OF NEW YORK", "city": "NEW YORK", "state": "NY", "zip": "10128-1244", "ntee": "P75I", "ruling": "196404", "deductibility": "1", "assets": 70329, "income": 79136, "revenue": 64994}, {"ein": "464605388", "name": "BRITISH ARCHITECTURAL LIBRARY TRUST INC", "city": "NEW YORK", "state": "NY", "zip": "10022-0000", "ntee": "A80", "ruling": "201409", "deductibility": "1", "assets": 104178, "income": 221432, "revenue": 221432}, {"ein": "521902671", "name": "BRITISH-AMERICAN BUSINESS COUNCIL", "city": "NEW YORK", "state": "NY", "zip": "10017-3808", "ntee": "", "ruling": "199608", "deductibility": "2", "assets": 0, "income": 0, "revenue": 0}, {"ein": "943188993", "name": "BRITISH AMERICAN DRAMA ACADEMY", "city": "NEW YORK", "state": "NY", "zip": "10025-3581", "ntee": "B82Z", "ruling": "199404", "deductibility": "1", "assets": 0, "income": 0, "revenue": 0}], "ROBOTICS": [{"ein": "043779019", "name": "RUGRUNNERS ROBOTICS INC", "city": "BALLSTON LAKE", "state": "NY", "zip": "12019-2222", "ntee": "B99", "ruling": "200312", "deductibility": "1", "assets": 70541, "income": 134730, "revenue": 134730}, {"ein": "141809039", "name": "CAPITAL REGION ROBOTICS TEAM", "city": "ALBANY", "state": "NY", "zip": "12212-3024", "ntee": "B80", "ruling": "199902", "deductibility": "1", "assets": 0, "income": 0, "revenue": 0}, {"ein": "161686671", "name": "MILLER PLACE ROBOTICS BOOSTER CLUB", "city": "MILLER PLACE", "state": "NY", "zip": "11764-8774", "ntee": "B11", "ruling": "201501", "deductibility": "1", "assets": 0, "income": 0, "revenue": 0}, {"ein": "202033328", "name": "WEST ISLIP ROBOTICS BOOSTER CLUB INC", "city": "WEST ISLIP", "state": "NY", "zip": "11795-1324", "ntee": "B99", "ruling": "200610", "deductibility": "1", "assets": 0, "income": 0, "revenue": 0}, {"ein": "202469659", "name": "LOCKPORT ROBOTICS", "city": "LOCKPORT", "state": "NY", "zip": "14094-5531", "ntee": "O50", "ruling": "200604", "deductibility": "1", "assets": 84933, "income": 65642, "revenue": 62458}, {"ein": "202664969", "name": "SMITHTOWN ROBOTICS TEAM 810 BOOSTER CLUB INC", "city": "SMITHTOWN", "state": "NY", "zip": "11787-0045", "ntee": "B94", "ruling": "200909", "deductibility": "1", "assets": 0, "income": 0, "revenue": 0}, {"ein": "264765351", "name": "SAMADI ROBOTICS FOUNDATION", "city": "NEW YORK", "state": "NY", "zip": "10022-5812", "ntee": "H30", "ruling": "200909", "deductibility": "1", "assets": 1553678, "income": 11000, "revenue": 0}, {"ein": "270699733", "name": "ROCHESTER COMMUNITY ROBOTICS", "city": "WEBSTER", "state": "NY", "zip": "14580-8810", "ntee": "B90", "ruling": "201006", "deductibility": "1", "assets": 849802, "income": 825209, "revenue": 825209}, {"ein": "273014951", "name": "FOREST HILLS ROBOTICS LEAGUE INC", "city": "FOREST HILLS", "state": "NY", "zip": "11375-0416", "ntee": "O50", "ruling": "201012", "deductibility": "1", "assets": 0, "income": 0, "revenue": 0}, {"ein": "320242413", "name": "SACHEM ROBOTICS TEAM 263 BOOSTER CLUB INC", "city": "HOLBROOK", "state": "NY", "zip": "11741-0923", "ntee": "B11", "ruling": "201001", "deductibility": "1", "assets": 0, "income": 0, "revenue": 0}, {"ein": "453044002", "name": "FRIENDS OF SHAKER ROBOTICS INCORPORATED", "city": "MENANDS", "state": "NY", "zip": "12204-2312", "ntee": "B11", "ruling": "201112", "deductibility": "1", "assets": 86882, "income": 92847, "revenue": 92847}, {"ein": "454803430", "name": "SCHUYLERVILLE ROBOTICS INC", "city": "SARATOGA SPGS", "state": "NY", "zip": "12866-5843", "ntee": "B80", "ruling": "201311", "deductibility": "1", "assets": 0, "income": 0, "revenue": 0}, {"ein": "462436449", "name": "SUFFERN SYBORGS ROBOTICS TEAM BOOSTER CLUB INC", "city": "SUFFERN", "state": "NY", "zip": "10901-3228", "ntee": "B11", "ruling": "201604", "deductibility": "1", "assets": 0, "income": 0, "revenue": 0}, {"ein": "462861100", "name": "TRUMANSBURG ROBOTICS INC", "city": "TRUMANSBURG", "state": "NY", "zip": "14886-0356", "ntee": "O50", "ruling": "201508", "deductibility": "1", "assets": 49851, "income": 8972, "revenue": 8783}, {"ein": "464120748", "name": "CONNETQUOT ROBOTICS TEAM 3137 BOOSTER CLUB INC", "city": "BOHEMIA", "state": "NY", "zip": "11716-1300", "ntee": "U40", "ruling": "201407", "deductibility": "1", "assets": 0, "income": 0, "revenue": 0}, {"ein": "471152648", "name": "ROCKY POINT ROBOTICS CLUB LTD", "city": "ROCKY POINT", "state": "NY", "zip": "11778-9542", "ntee": "O50", "ruling": "201501", "deductibility": "1", "assets": 0, "income": 0, "revenue": 0}, {"ein": "472145255", "name": "LINDENHURST ROBOTICS COALITION", "city": "MELVILLE", "state": "NY", "zip": "11747-3672", "ntee": "B11", "ruling": "201411", "deductibility": "1", "assets": 2588, "income": 29736, "revenue": 29736}, {"ein": "472702496", "name": "HUNTINGTON ROBOTICS INC", "city": "HUNTINGTON", "state": "NY", "zip": "11743-0629", "ntee": "B12", "ruling": "201501", "deductibility": "1", "assets": 19145, "income": 21402, "revenue": 20683}, {"ein": "814289223", "name": "ROBOGYM ROBOTICS OF NORTH SHORE INC", "city": "GLEN HEAD", "state": "NY", "zip": "11545-0000", "ntee": "B80", "ruling": "201611", "deductibility": "1", "assets": 0, "income": 0, "revenue": 0}, {"ein": "823101152", "name": "KINGS PARK HIGH SCHOOL ROBOTICS BOOSTER ASSOCIATION", "city": "KINGS PARK", "state": "NY", "zip": "11754-0000", "ntee": "A12", "ruling": "201801", "deductibility": "1", "assets": 0, "income": 0, "revenue": 0}, {"ein": "823333043", "name": "STUYVESANT ROBOTICS TEAM INC", "city": "NEW YORK", "state": "NY", "zip": "10282-1000", "ntee": "B80", "ruling": "201802", "deductibility": "1", "assets": 0, "income": 0, "revenue": 0}, {"ein": "824860604", "name": "SEA LIONS ROBOTICS INC", "city": "WEST BABYLON", "state": "NY", "zip": "11704-4022", "ntee": "O50", "ruling": "201804", "deductibility": "1", "assets": 0, "income": 0, "revenue": 0}, {"ein": "832695596", "name": "ROBOHAWKS ROBOTICS CLUB INC", "city": "JERICHO", "state": "NY", "zip": "11753-1729", "ntee": "U40", "ruling": "201812", "deductibility": "1", "assets": 0, "income": 0, "revenue": 0}, {"ein": "833892874", "name": "HICKSVILLE ROBOTICS TEAM 1468 BOOSTER CLUB", "city": "HICKSVILLE", "state": "NY", "zip": "11801-4827", "ntee": "B94", "ruling": "202002", "deductibility": "1", "assets": 0, "income": 0, "revenue": 0}, {"ein": "834598115", "name": "GARY ISRAEL MORRIS ROBOTICS FOUNDATION INC", "city": "NEW YORK", "state": "NY", "zip": "10024-3226", "ntee": "B99", "ruling": "202003", "deductibility": "1", "assets": 0, "income": 0, "revenue": 0}, {"ein": "852787913", "name": "PLATTSBURGH ROBOTICS", "city": "PLATTSBURGH", "state": "NY", "zip": "12901-1786", "ntee": "O20", "ruling": "202104", "deductibility": "1", "assets": 0, "income": 0, "revenue": 0}, {"ein": "872808410", "name": "POB ROBOTICS AND ENGINEERING INC", "city": "PLAINVIEW", "state": "NY", "zip": "11803-3113", "ntee": "U42", "ruling": "202202", "deductibility": "1", "assets": 0, "income": 0, "revenue": 0}, {"ein": "922685296", "name": "FRIENDS OF BROOKLYN TECHKNIGHTS334 ROBOTICS INC", "city": "NEW YORK", "state": "NY", "zip": "10023-4917", "ntee": "N60", "ruling": "202303", "deductibility": "1", "assets": 0, "income": 0, "revenue": 0}, {"ein": "923837637", "name": "RAPTOR ROBOTICS", "city": "GLEN COVE", "state": "NY", "zip": "11542-1706", "ntee": "U40", "ruling": "202306", "deductibility": "1", "assets": 0, "income": 0, "revenue": 0}, {"ein": "931477659", "name": "LABORATORY ROBOTICS INTEREST GROUP OF NYC", "city": "NEW YORK", "state": "NY", "zip": "10012-1903", "ntee": "U03", "ruling": "202306", "deductibility": "1", "assets": 0, "income": 0, "revenue": 0}, {"ein": "934543882", "name": "STEEL HAWKS ROBOTICS INC", "city": "FLUSHING", "state": "NY", "zip": "11367-1306", "ntee": "B84", "ruling": "202401", "deductibility": "1", "assets": 0, "income": 0, "revenue": 0}, {"ein": "991559271", "name": "NEW YORK ROBOTICS NETWORK", "city": "BROOKLYN", "state": "NY", "zip": "11205-1095", "ntee": "S41", "ruling": "202409", "deductibility": "2", "assets": 0, "income": 0, "revenue": 0}, {"ein": "991910380", "name": "COAST 2 COAST ROBOTICS FOUNDATION INC", "city": "BAYSIDE", "state": "NY", "zip": "11361-2071", "ntee": "U40", "ruling": "202410", "deductibility": "1", "assets": 0, "income": 0, "revenue": 0}, {"ein": "994037092", "name": "AIM ROBOTICS INC", "city": "NEW YORK", "state": "NY", "zip": "10128-1675", "ntee": "U40", "ruling": "202407", "deductibility": "1", "assets": 0, "income": 0, "revenue": 0}, {"ein": "994163152", "name": "RISE FOR ROBOTICS INC", "city": "FLUSHING", "state": "NY", "zip": "11358-3639", "ntee": "B90", "ruling": "202408", "deductibility": "1", "assets": 0, "income": 0, "revenue": 0}], "PAULS": [{"ein": "060776754", "name": "ST PAULS EVANGELICAL LUTHERAN CHURCH", "city": "RYE BROOK", "state": "NY", "zip": "10573-1814", "ntee": "", "ruling": "198804", "deductibility": "1", "assets": 0, "income": 0, "revenue": 0}, {"ein": "111631822", "name": "ST PAULS CHURCH", "city": "GLEN COVE", "state": "NY", "zip": "11542-2630", "ntee": "", "ruling": "197206", "deductibility": "1", "assets": 0, "income": 0, "revenue": 0}, {"ein": "111642730", "name": "ST PAULS CHURCH", "city": "BROOKLYN", "state": "NY", "zip": "11226-2708", "ntee": "", "ruling": "197206", "deductibility": "1", "assets": 0, "income": 0, "revenue": 0}, {"ein": "111672800", "name": "ST PAULS CHURCH", "city": "BROOKLYN", "state": "NY", "zip": "11231-4203", "ntee": "", "ruling": "197206", "deductibility": "1", "assets": 0, "income": 0, "revenue": 0}, {"ein": "111672801", "name": "SAINT PAULS EVANGELICAL LUTHERAN CONGREGATION", "city": "RICHMOND HILL", "state": "NY", "zip": "11418-3029", "ntee": "", "ruling": "198804", "deductibility": "1", "assets": 0, "income": 0, "revenue": 0}, {"ein": "111711000", "name": "ST PAULS INTERNATIONAL", "city": "FLORAL PARK", "state": "NY", "zip": "11004-1347", "ntee": "", "ruling": "198804", "deductibility": "1", "assets": 0, "income": 0, "revenue": 0}, {"ein": "111855656", "name": "ST PAULS EVANGELICAL LUTHERAN CHURCH", "city": "S RICHMOND HL", "state": "NY", "zip": "11419-2206", "ntee": "", "ruling": "198804", "deductibility": "1", "assets": 0, "income": 0, "revenue": 0}, {"ein": "111981547", "name": "ST PAULS CHURCH", "city": "GREAT NECK", "state": "NY", "zip": "11021-2649", "ntee": "", "ruling": "197206", "deductibility": "1", "assets": 0, "income": 0, "revenue": 0}, {"ein": "112007577", "name": "ST PAULS CHURCH", "city": "PATCHOGUE", "state": "NY", "zip": "11772-3915", "ntee": "", "ruling": "197206", "deductibility": "1", "assets": 0, "income": 0, "revenue": 0}, {"ein": "112050524", "name": "ST PAULS CHURCH", "city": "COLLEGE POINT", "state": "NY", "zip": "11356-0000", "ntee": "", "ruling": "197206", "deductibility": "1", "assets": 0, "income": 0, "revenue": 0}, {"ein": "112126432", "name": "ROMAN CATHOLIC DIOCESE OF BROOKLYN ST PAULS CENTER", "city": "DOUGLASTON", "state": "NY", "zip": "11362-1941", "ntee": "", "ruling": "194603", "deductibility": "1", "assets": 0, "income": 0, "revenue": 0}, {"ein": "112211292", "name": "ST PAULS EVANGELICAL LUTHERAN CHURCH", "city": "BETHPAGE", "state": "NY", "zip": "11714-2720", "ntee": "", "ruling": "194107", "deductibility": "1", "assets": 0, "income": 0, "revenue": 0}, {"ein": "112443970", "name": "ST PAULS REFORMED CHURCH OF NORTH BABYLON", "city": "NORTH BABYLON", "state": "NY", "zip": "11703-4020", "ntee": "", "ruling": "196801", "deductibility": "1", "assets": 0, "income": 0, "revenue": 0}, {"ein": "112640727", "name": "ST PAULS UNITED METHODIST CHURCH", "city": "JAMAICA", "state": "NY", "zip": "11433-2505", "ntee": "", "ruling": "197410", "deductibility": "1", "assets": 0, "income": 0, "revenue": 0}, {"ein": "112975091", "name": "ST PAULS CHURCH", "city": "ROOSEVELT", "state": "NY", "zip": "11575-0514", "ntee": "", "ruling": "197206", "deductibility": "1", "assets": 0, "income": 0, "revenue": 0}, {"ein": "113064652", "name": "ST PETERS AND ST PAULS MALANKARA SYRIAN ORTHODOX CHURCH", "city": "MASSAPEQUA", "state": "NY", "zip": "11758-6008", "ntee": "X20", "ruling": "200007", "deductibility": "1", "assets": 0, "income": 0, "revenue": 0}, {"ein": "113083992", "name": "ST PAULS SEVEN DAY APOSTOLIC SPIRITUAL BAPTIST CHURCH INC", "city": "BROOKLYN", "state": "NY", "zip": "11213-2937", "ntee": "", "ruling": "199401", "deductibility": "1", "assets": 0, "income": 0, "revenue": 0}, {"ein": "113137273", "name": "ST PAULS GARDENS HOUSING DEVELOPEMENT FUND COMPANY INC", "city": "HICKSVILLE", "state": "NY", "zip": "11801-6232", "ntee": "", "ruling": "199304", "deductibility": "1", "assets": 4221261, "income": 1003048, "revenue": 1003048}, {"ein": "113198009", "name": "SAINT PAULS EPISCOPAL AFTER SCHOOL PROGRAM", "city": "COLLEGE POINT", "state": "NY", "zip": "11356-1729", "ntee": "B24Z", "ruling": "199505", "deductibility": "1", "assets": 0, "income": 0, "revenue": 0}, {"ein": "113329562", "name": "ST PAULS BAPTIST CHURCH", "city": "JAMAICA", "state": "NY", "zip": "11436-2337", "ntee": "X99Z", "ruling": "199612", "deductibility": "1", "assets": 0, "income": 0, "revenue": 0}, {"ein": "113474497", "name": "SPECIAL FUND IMO SOTIROS N CACHULES FBO ST PAULS GREEK ORTH CHURCH", "city": "HEMPSTEAD", "state": "NY", "zip": "11550-2050", "ntee": "X11", "ruling": "200101", "deductibility": "1", "assets": 2508911, "income": 217218, "revenue": 217218}, {"ein": "116001619", "name": "ST PAULS EVANGELICAL LUTHERAN CHURCH", "city": "BROOKLYN", "state": "NY", "zip": "11221-4739", "ntee": "", "ruling": "194107", "deductibility": "1", "assets": 0, "income": 0, "revenue": 0}, {"ein": "116001623", "name": "ST PAULS UNITED METHODIST CHURCH", "city": "NORTHPORT", "state": "NY", "zip": "11768-1868", "ntee": "", "ruling": "197410", "deductibility": "0", "assets": 0, "income": 0, "revenue": 0}, {"ein": "131839688", "name": "ST PAULS HOUSE INC", "city": "NEW YORK", "state": "NY", "zip": "10019-6401", "ntee": "P200", "ruling": "194709", "deductibility": "1", "assets": 1043628, "income": 142621, "revenue": 142621}, {"ein": "131953498", "name": "ST PAULS EPISCOPAL CHURCH", "city": "SPRING VALLEY", "state": "NY", "zip": "10977-5512", "ntee": "", "ruling": "194001", "deductibility": "1", "assets": 0, "income": 0, "revenue": 0}, {"ein": "131972408", "name": "ST PAULS EVANGELICAL LUTHERAN CHURCH", "city": "BRONX", "state": "NY", "zip": "10462-0502", "ntee": "", "ruling": "198804", "deductibility": "1", "assets": 0, "income": 0, "revenue": 0}, {"ein": "132886396", "name": "ST PAULS CHRISTIAN COMMUNITY CHURCH", "city": "NEW YORK", "state": "NY", "zip": "10019-6301", "ntee": "", "ruling": "197710", "deductibility": "1", "assets": 0, "income": 0, "revenue": 0}, {"ein": "133052470", "name": "ST PAULS REFUGE TABERNACLE", "city": "NEW ROCHELLE", "state": "NY", "zip": "10801-2205", "ntee": "", "ruling": "199203", "deductibility": "1", "assets": 0, "income": 0, "revenue": 0}, {"ein": "133148962", "name": "SOCIETY OF THE NATIONAL SHRINE OF THE BILL OF RIGHTS AT ST PAULS", "city": "MOUNT VERNON", "state": "NY", "zip": "10550-5018", "ntee": "X01", "ruling": "201407", "deductibility": "1", "assets": 1561, "income": 285571, "revenue": 285571}, {"ein": "133496858", "name": "ST PETERS AND ST PAULS MALANKARA ORTHODOX CHURCH INC", "city": "TAPPAN", "state": "NY", "zip": "10983-0122", "ntee": "X21", "ruling": "200003", "deductibility": "1", "assets": 0, "income": 0, "revenue": 0}, {"ein": "133976120", "name": "ST PAULS AFRICAN METHODIST EPISCOPAL ZION CHURCH", "city": "SPRING VALLEY", "state": "NY", "zip": "10977-3857", "ntee": "X21", "ruling": "200706", "deductibility": "1", "assets": 0, "income": 0, "revenue": 0}, {"ein": "136130536", "name": "ST PAULS WURTENBURG CEMETERY ASSOC", "city": "RHINEBECK", "state": "NY", "zip": "12572-3545", "ntee": "Y50", "ruling": "201801", "deductibility": "1", "assets": 0, "income": 0, "revenue": 0}, {"ein": "141338533", "name": "ST PAULS EPISCOPAL CHURCH", "city": "POUGHKEEPSIE", "state": "NY", "zip": "12601-2524", "ntee": "", "ruling": "194001", "deductibility": "1", "assets": 0, "income": 0, "revenue": 0}, {"ein": "141611870", "name": "ST PAULS REFORMED CHURCH", "city": "CALLICOON CTR", "state": "NY", "zip": "12724-0028", "ntee": "", "ruling": "198601", "deductibility": "1", "assets": 0, "income": 0, "revenue": 0}, {"ein": "146003562", "name": "ST PAULS LUTHERAN CHURCH", "city": "ALBANY", "state": "NY", "zip": "12203-3525", "ntee": "", "ruling": "194107", "deductibility": "1", "assets": 493129, "income": 135901, "revenue": 135901}, {"ein": "146019624", "name": "ST PAULS LUTHERAN CHURCH OF WURTEMBURG", "city": "RHINEBECK", "state": "NY", "zip": "12572-2750", "ntee": "", "ruling": "198804", "deductibility": "1", "assets": 0, "income": 0, "revenue": 0}, {"ein": "160743122", "name": "ST PAULS EPISCOPAL CHURCH", "city": "ROCHESTER", "state": "NY", "zip": "14607-2223", "ntee": "", "ruling": "194001", "deductibility": "1", "assets": 0, "income": 0, "revenue": 0}, {"ein": "160755721", "name": "ST VINCENT DE PAULS CHURCH SOCIETY", "city": "CHURCHVILLE", "state": "NY", "zip": "14428-8014", "ntee": "", "ruling": "194603", "deductibility": "1", "assets": 0, "income": 0, "revenue": 0}, {"ein": "160999453", "name": "ST PAULS LUTHERAN CHURCH", "city": "REDWOOD", "state": "NY", "zip": "13679-0186", "ntee": "", "ruling": "198804", "deductibility": "1", "assets": 0, "income": 0, "revenue": 0}, {"ein": "161096180", "name": "ST PAULS BAPTIST CHURCH", "city": "UTICA", "state": "NY", "zip": "13501-4528", "ntee": "", "ruling": "195504", "deductibility": "1", "assets": 0, "income": 0, "revenue": 0}, {"ein": "161142565", "name": "ST PAULS EVANGELICAL LUTHERAN CHURCH", "city": "PITTSFORD", "state": "NY", "zip": "14534-2006", "ntee": "", "ruling": "198804", "deductibility": "1", "assets": 0, "income": 0, "revenue": 0}, {"ein": "161316112", "name": "ST PAULS DAY CARE CENTER INC", "city": "ROCHESTER", "state": "NY", "zip": "14607-2121", "ntee": "", "ruling": "198903", "deductibility": "1", "assets": 568450, "income": 732275, "revenue": 732275}, {"ein": "161549436", "name": "ST PAULS ROMAN CATHOLIC CHURCH ENDOWMENT FUND", "city": "NORWICH", "state": "NY", "zip": "13815-0000", "ntee": "X11", "ruling": "199903", "deductibility": "1", "assets": 1068793, "income": 225559, "revenue": 0}, {"ein": "161575537", "name": "ST PAULS ENDOWMENT FUND FOR HOLY FAMILY SCHOOL", "city": "NORWICH", "state": "NY", "zip": "13815-0000", "ntee": "X112", "ruling": "200010", "deductibility": "1", "assets": 215433, "income": 65006, "revenue": 0}, {"ein": "166038759", "name": "ST PAULS UNITED METHODIST CHURCH", "city": "ONEIDA", "state": "NY", "zip": "13421-0296", "ntee": "", "ruling": "000000", "deductibility": "0", "assets": 0, "income": 0, "revenue": 0}, {"ein": "166038916", "name": "ST PAULS EVANGELICAL LUTHERAN CHURCH", "city": "PENN YAN", "state": "NY", "zip": "14527-1234", "ntee": "", "ruling": "198804", "deductibility": "1", "assets": 0, "income": 0, "revenue": 0}, {"ein": "166085043", "name": "ST PAULS R C CHURCH", "city": "WEBSTER", "state": "NY", "zip": "14580-8948", "ntee": "", "ruling": "194603", "deductibility": "1", "assets": 0, "income": 0, "revenue": 0}, {"ein": "208928879", "name": "ST PAULS CURSILLO AND RETREAT PROGRAMS INC", "city": "COLD SPG HBR", "state": "NY", "zip": "11724-1826", "ntee": "X20", "ruling": "200805", "deductibility": "1", "assets": 76860, "income": 92815, "revenue": 90115}, {"ein": "222487289", "name": "ST PAULS LUTHERAN CHURCH", "city": "ST JOHNSVILLE", "state": "NY", "zip": "13452-1224", "ntee": "", "ruling": "198804", "deductibility": "1", "assets": 0, "income": 0, "revenue": 0}, {"ein": "222509096", "name": "ST PAULS UNITED CHURCH OF CHRIST", "city": "PERKINSVILLE", "state": "NY", "zip": "14529-0232", "ntee": "", "ruling": "196406", "deductibility": "0", "assets": 0, "income": 0, "revenue": 0}, {"ein": "237356971", "name": "ST PAULS EPISCOPAL EVANGELICAL CHURCH", "city": "MOUNT VERNON", "state": "NY", "zip": "10550-1322", "ntee": "", "ruling": "197312", "deductibility": "1", "assets": 0, "income": 0, "revenue": 0}, {"ein": "273036085", "name": "LONG ISLAND LUTHERAN DAY SCHOOL AT ST PAULS", "city": "E NORTHPORT", "state": "NY", "zip": "11731-1429", "ntee": "B24", "ruling": "201409", "deductibility": "1", "assets": 0, "income": 0, "revenue": 0}, {"ein": "276467354", "name": "ROBERT J GALVIN TR FBO ST PAULS CEMETERY", "city": "NORWICH", "state": "NY", "zip": "13815-0000", "ntee": "X21", "ruling": "201012", "deductibility": "1", "assets": 1006384, "income": 69010, "revenue": 67596}, {"ein": "300327182", "name": "ST PAULS PENTECOSTAL CHURCH OF GOD INC", "city": "BROOKLYN", "state": "NY", "zip": "11233-2604", "ntee": "X21", "ruling": "200508", "deductibility": "1", "assets": 0, "income": 0, "revenue": 0}, {"ein": "371931659", "name": "ST PAULS CHURCH OF GOD IN CHRIST", "city": "YONKERS", "state": "NY", "zip": "10701-2503", "ntee": "X20", "ruling": "202202", "deductibility": "1", "assets": 0, "income": 0, "revenue": 0}, {"ein": "463710851", "name": "WOMEN OF ST PAULS CHURCH IN TROY INC", "city": "TROY", "state": "NY", "zip": "12181-0868", "ntee": "X20", "ruling": "201605", "deductibility": "1", "assets": 0, "income": 0, "revenue": 0}, {"ein": "562499960", "name": "ST PAULS CENTER INC", "city": "RENSSELAER", "state": "NY", "zip": "12144-2116", "ntee": "L41", "ruling": "200604", "deductibility": "1", "assets": 9514954, "income": 1802499, "revenue": 1802082}, {"ein": "810603795", "name": "ST PAULS CONSERVANCY CORP", "city": "GARDEN CITY", "state": "NY", "zip": "11530-2897", "ntee": "A80", "ruling": "200605", "deductibility": "1", "assets": 263, "income": 12401, "revenue": 12401}, {"ein": "813915538", "name": "SAINT PAULS AUTISM RESEARCH & TRAINING ACADEMY", "city": "COLLEGE POINT", "state": "NY", "zip": "11356-1446", "ntee": "H84", "ruling": "201709", "deductibility": "1", "assets": 478034, "income": 1931271, "revenue": 1931271}, {"ein": "932821713", "name": "COLET FOUNDATION OF ST PAULS SCHOOL LONDON", "city": "SHOKAN", "state": "NY", "zip": "12481-0000", "ntee": "T30", "ruling": "202311", "deductibility": "1", "assets": 0, "income": 0, "revenue": 0}], "GRADY": [{"ein": "061383651", "name": "THE O GRADY FOUNDATION INC", "city": "NEW YORK", "state": "NY", "zip": "10028-1807", "ntee": "", "ruling": "199312", "deductibility": "1", "assets": 2760370, "income": 1109692, "revenue": 0}], "AISHES": [{"ein": "061572059", "name": "AISHES CHAYIL DKIRYAS JOEL MOTHERS RELIEF CENTER INC", "city": "MONROE", "state": "NY", "zip": "10949-0625", "ntee": "L99", "ruling": "200011", "deductibility": "1", "assets": 16905655, "income": 10360696, "revenue": 10360696}], "SURE": [{"ein": "061599130", "name": "SURE FOUNDATION LUTHERAN CHURCH", "city": "WOODSIDE", "state": "NY", "zip": "11377-0935", "ntee": "", "ruling": "196601", "deductibility": "1", "assets": 0, "income": 0, "revenue": 0}, {"ein": "113425860", "name": "NEW BEGINING SURE WORD CHURCH INC", "city": "MINEOLA", "state": "NY", "zip": "11501-4614", "ntee": "X21Z", "ruling": "199806", "deductibility": "1", "assets": 0, "income": 0, "revenue": 0}, {"ein": "261217947", "name": "SURE WE CAN INC", "city": "BROOKLYN", "state": "NY", "zip": "11206-3508", "ntee": "C27", "ruling": "200810", "deductibility": "1", "assets": 3103822, "income": 1701489, "revenue": 1701489}, {"ein": "651272137", "name": "SURE FOUNDATION CHURCH OF JESUS CHRIST APOSTOLIC FAITH INC NO 2", "city": "BROOKLYN", "state": "NY", "zip": "11208-2691", "ntee": "X21", "ruling": "200906", "deductibility": "1", "assets": 0, "income": 0, "revenue": 0}], "VEISRAEL": [{"ein": "111752027", "name": "YESHIVOS KARLIN STOLIN BETH ARON VEISRAEL RABBINICAL INSTITUTE INC", "city": "BROOKLYN", "state": "NY", "zip": "11204-1545", "ntee": "", "ruling": "195308", "deductibility": "1", "assets": 0, "income": 0, "revenue": 0}], "SOPRON": [{"ein": "112352312", "name": "YESHIVA BNEI SHIMON YISROEL SOPRON", "city": "BROOKLYN", "state": "NY", "zip": "11211-8102", "ntee": "", "ruling": "197504", "deductibility": "1", "assets": 0, "income": 0, "revenue": 0}], "COMPOSERS": [{"ein": "112398117", "name": "LONG ISLAND COMPOSERS ALLIANCE INC", "city": "NEW SUFFOLK", "state": "NY", "zip": "11956-0635", "ntee": "", "ruling": "198912", "deductibility": "1", "assets": 0, "income": 0, "revenue": 0}, {"ein": "131550544", "name": "AMERICAN COMPOSERS ALLIANCE", "city": "NEW YORK", "state": "NY", "zip": "10040-0814", "ntee": "A68", "ruling": "200702", "deductibility": "1", "assets": 94330, "income": 316950, "revenue": 316950}, {"ein": "132838450", "name": "AMERICAN COMPOSERS ORCHESTRA INC", "city": "NEW YORK", "state": "NY", "zip": "10001-2538", "ntee": "A690", "ruling": "197603", "deductibility": "1", "assets": 4381207, "income": 3535104, "revenue": 3403926}, {"ein": "133205508", "name": "NEW YORK WOMEN COMPOSERS INC", "city": "JACKSON HEIGHTS", "state": "NY", "zip": "11372-2627", "ntee": "", "ruling": "198707", "deductibility": "1", "assets": 96972, "income": 43013, "revenue": 43013}, {"ein": "133469414", "name": "COMPOSERS COLLABORATIVE INC", "city": "NEW YORK", "state": "NY", "zip": "10025-6802", "ntee": "", "ruling": "198904", "deductibility": "1", "assets": 0, "income": 0, "revenue": 0}, {"ein": "133493264", "name": "COMPOSERS CONCORDANCE INC", "city": "NEW YORK", "state": "NY", "zip": "10075-0749", "ntee": "", "ruling": "198812", "deductibility": "1", "assets": 8958, "income": 63676, "revenue": 63676}, {"ein": "136201928", "name": "SOCIETY OF COMPOSERS INC", "city": "FREDONIA", "state": "NY", "zip": "14063-0551", "ntee": "Z99Z", "ruling": "196511", "deductibility": "1", "assets": 4788, "income": 9639, "revenue": 9639}, {"ein": "237028921", "name": "LEAGUE OF COMPOSERS INTL SOC FOR CONTEMPORARY MUSIC U S SECTION INC", "city": "NEW YORK", "state": "NY", "zip": "10003-6757", "ntee": "A6DC", "ruling": "196003", "deductibility": "1", "assets": 14851, "income": 54677, "revenue": 54677}, {"ein": "271475421", "name": "NATIONAL ASSOCIATION OF COMPOSERS USA", "city": "NEW YORK", "state": "NY", "zip": "10025-4462", "ntee": "A60", "ruling": "201105", "deductibility": "1", "assets": 0, "income": 0, "revenue": 0}, {"ein": "473363167", "name": "COMPOSERS COLLECTIVE INC", "city": "BROOKLYN", "state": "NY", "zip": "11209-3326", "ntee": "A6E", "ruling": "201507", "deductibility": "1", "assets": 0, "income": 0, "revenue": 0}, {"ein": "474527620", "name": "THEATRICAL SOUND DESIGNERS AND COMPOSERS ASSOCIATION", "city": "BRONX", "state": "NY", "zip": "10470-1716", "ntee": "A03", "ruling": "201604", "deductibility": "1", "assets": 44241, "income": 51795, "revenue": 51795}, {"ein": "812244711", "name": "COMPOSERS NOW INC", "city": "NEW YORK", "state": "NY", "zip": "10023-7905", "ntee": "A68", "ruling": "201902", "deductibility": "1", "assets": 124830, "income": 158543, "revenue": 145117}, {"ein": "861086019", "name": "NEW YORK COMPOSERS CIRCLE INC", "city": "BROOKLYN", "state": "NY", "zip": "11201-3809", "ntee": "A68", "ruling": "200706", "deductibility": "1", "assets": 0, "income": 0, "revenue": 0}], "ADMORIM": [{"ein": "112438611", "name": "HISTADRUTH ADMORIM INC", "city": "BROOKLYN", "state": "NY", "zip": "11204-1113", "ntee": "", "ruling": "198308", "deductibility": "1", "assets": 0, "income": 0, "revenue": 0}], "KOVETZ": [{"ein": "112444050", "name": "KOVETZ HAPOSKIM C O BENJAMIN ISAACS", "city": "BKLYN", "state": "NY", "zip": "11211-7912", "ntee": "", "ruling": "197712", "deductibility": "1", "assets": 0, "income": 0, "revenue": 0}], "METZIYONIM": [{"ein": "112453132", "name": "KOLEL METZIYONIM OHEL YOSEF CHASIDEI AMSHINOV C O ICCHOK KALIS", "city": "BKLYN", "state": "NY", "zip": "11219-1603", "ntee": "", "ruling": "197804", "deductibility": "1", "assets": 0, "income": 0, "revenue": 0}, {"ein": "113457849", "name": "KOLLEL METZIYONIM LHOROAH OF WILLIAMSBURG", "city": "BROOKLYN", "state": "NY", "zip": "11211-8749", "ntee": "X30", "ruling": "199901", "deductibility": "1", "assets": 0, "income": 0, "revenue": 0}, {"ein": "800056316", "name": "KOLLEL METZIYONIM BETH ARON ZEV", "city": "BROOKLYN", "state": "NY", "zip": "11211-8036", "ntee": "X30", "ruling": "200307", "deductibility": "1", "assets": 0, "income": 0, "revenue": 0}], "BENEFICA": [{"ein": "112548753", "name": "LA ASOCIACION BENEFICA CULTURALFATHER BILLINI", "city": "LYNBROOK", "state": "NY", "zip": "11563-2713", "ntee": "I210", "ruling": "198102", "deductibility": "1", "assets": 60038, "income": 246553, "revenue": 246553}], "BARRIER": [{"ein": "112612232", "name": "BARRIER BEACH ASSOCIATION INC", "city": "OAK BEACH", "state": "NY", "zip": "11702-4607", "ntee": "S22", "ruling": "201204", "deductibility": "2", "assets": 0, "income": 0, "revenue": 0}, {"ein": "112680024", "name": "BARRIER BEACH PRESERVATION ASSOCIATION INC", "city": "W HAMPTON BCH", "state": "NY", "zip": "11978-7448", "ntee": "", "ruling": "198407", "deductibility": "1", "assets": 778156, "income": 17461, "revenue": 17461}, {"ein": "133059155", "name": "BARRIER FREE LIVING HOLDING INC", "city": "BRONX", "state": "NY", "zip": "10454-2785", "ntee": "P124", "ruling": "200410", "deductibility": "1", "assets": 5522495, "income": 5317225, "revenue": 5317225}, {"ein": "133422705", "name": "BARRIER FREE LIVING HOLDING INC", "city": "BRONX", "state": "NY", "zip": "10454-2785", "ntee": "P124", "ruling": "200410", "deductibility": "1", "assets": 0, "income": 0, "revenue": 0}, {"ein": "452209522", "name": "BARRIER FREE LIVING HOLDING INC", "city": "BRONX", "state": "NY", "zip": "10454-2785", "ntee": "P124", "ruling": "200410", "deductibility": "1", "assets": 0, "income": 0, "revenue": 0}, {"ein": "542082224", "name": "BARRIER FREE LIVING HOLDING INC", "city": "BRONX", "state": "NY", "zip": "10454-2785", "ntee": "P124", "ruling": "200410", "deductibility": "1", "assets": 10651621, "income": 448162, "revenue": 448162}, {"ein": "542082229", "name": "BARRIER FREE LIVING HOLDING INC", "city": "BRONX", "state": "NY", "zip": "10454-2785", "ntee": "P124", "ruling": "200410", "deductibility": "1", "assets": 0, "income": 0, "revenue": 0}, {"ein": "542082237", "name": "BARRIER FREE LIVING HOLDING INC", "city": "BRONX", "state": "NY", "zip": "10454-2785", "ntee": "P124", "ruling": "200410", "deductibility": "1", "assets": 1689523, "income": 3852135, "revenue": 3852135}], "HASC": [{"ein": "112630071", "name": "HASC CENTER INC", "city": "BROOKLYN", "state": "NY", "zip": "11220-2517", "ntee": "P820", "ruling": "199410", "deductibility": "1", "assets": 93013892, "income": 111186936, "revenue": 111186936}, {"ein": "113387005", "name": "HASC TRANSPORTATION CORP", "city": "BROOKLYN", "state": "NY", "zip": "11220-2517", "ntee": "P52", "ruling": "199903", "deductibility": "1", "assets": 211022, "income": 1956441, "revenue": 1956441}, {"ein": "113570946", "name": "HASC DIAGNOSTIC & TREATMENT CENTER INC", "city": "BROOKLYN", "state": "NY", "zip": "11220-2517", "ntee": "E99", "ruling": "200106", "deductibility": "1", "assets": 15879579, "income": 18980191, "revenue": 16861416}, {"ein": "464784869", "name": "HASC PA INC", "city": "BROOKLYN", "state": "NY", "zip": "11204-4750", "ntee": "T30", "ruling": "201409", "deductibility": "1", "assets": 24817, "income": 9793, "revenue": 3473}, {"ein": "471105432", "name": "BAIS MALKA HASC LLC", "city": "MONSEY", "state": "NY", "zip": "10952-2803", "ntee": "S47", "ruling": "201502", "deductibility": "2", "assets": 6226493, "income": 429893, "revenue": 429893}, {"ein": "811146659", "name": "CAMP HASC INC", "city": "PARKSVILLE", "state": "NY", "zip": "12768-4004", "ntee": "X20", "ruling": "201702", "deductibility": "1", "assets": 18809366, "income": 15028621, "revenue": 12115304}], "YERUHAM": [{"ein": "112724213", "name": "YERUHAM CENTER OF TORAH EDUCATION", "city": "BROOKLYN", "state": "NY", "zip": "11214-1300", "ntee": "", "ruling": "198505", "deductibility": "1", "assets": 0, "income": 0, "revenue": 0}], "MUNKAC": [{"ein": "112862379", "name": "BIKUR CHOLIM MAZKERETH FRIMA MUNKAC", "city": "BROOKLYN", "state": "NY", "zip": "11219-3242", "ntee": "", "ruling": "198708", "deductibility": "1", "assets": 0, "income": 0, "revenue": 0}], "GRAVESEND": [{"ein": "113019763", "name": "GRAVESEND ATHLETIC ASSOCIATION INC", "city": "BROOKLYN", "state": "NY", "zip": "11214-0000", "ntee": "N40Z", "ruling": "199105", "deductibility": "1", "assets": 0, "income": 6930, "revenue": 6930}, {"ein": "820682282", "name": "CHABAD OF GRAVESEND INC", "city": "BROOKLYN", "state": "NY", "zip": "11223-6044", "ntee": "X30", "ruling": "201707", "deductibility": "1", "assets": 0, "income": 0, "revenue": 0}, {"ein": "863571814", "name": "GRAVESEND KIWANIS CHARITABLE FOUNDATION", "city": "BROOKLYN", "state": "NY", "zip": "11204-4941", "ntee": "S80", "ruling": "202108", "deductibility": "1", "assets": 0, "income": 0, "revenue": 0}], "BASIL": [{"ein": "113085408", "name": "ST BASIL ORTHODOX CHURCH", "city": "FRANKLIN SQ", "state": "NY", "zip": "11010-2601", "ntee": "X99Z", "ruling": "199603", "deductibility": "1", "assets": 0, "income": 0, "revenue": 0}, {"ein": "131671150", "name": "GREEK ARCHDIOCESE INSTITUTE OF ST BASIL", "city": "GARRISON", "state": "NY", "zip": "10524-0000", "ntee": "", "ruling": "195204", "deductibility": "1", "assets": 0, "income": 0, "revenue": 0}, {"ein": "237239145", "name": "ORDER OF ST BASIL THE GREAT INC", "city": "LOCUST VALLEY", "state": "NY", "zip": "11560-1018", "ntee": "", "ruling": "194603", "deductibility": "1", "assets": 0, "income": 0, "revenue": 0}, {"ein": "273044880", "name": "SAINT BASIL SCHOLARSHIP PROGRAM", "city": "NEW YORK", "state": "NY", "zip": "10010-4783", "ntee": "B82", "ruling": "201104", "deductibility": "1", "assets": 51405, "income": 40700, "revenue": 0}, {"ein": "830419314", "name": "THREE HOLY HIERARCHS BASIL GREGORY AND JOHN ROMANIAN ORTHODOX CHURCH", "city": "CAMILLUS", "state": "NY", "zip": "13031-0261", "ntee": "X22", "ruling": "201003", "deductibility": "1", "assets": 0, "income": 0, "revenue": 0}], "ALLAHU": [{"ein": "113124039", "name": "PROJECT ALLAHU AKBAR INC", "city": "WYANDANCH", "state": "NY", "zip": "11798-2103", "ntee": "Q33", "ruling": "201311", "deductibility": "1", "assets": 1462293, "income": 153025, "revenue": 153025}], "CHANANYA": [{"ein": "113141364", "name": "CONG BAIS CHANANYA", "city": "BROOKLYN", "state": "NY", "zip": "11210-3714", "ntee": "", "ruling": "199303", "deductibility": "1", "assets": 0, "income": 0, "revenue": 0}, {"ein": "473892034", "name": "CHANANYA CRISIS FUND INC", "city": "NEW YORK", "state": "NY", "zip": "10001-6207", "ntee": "P20", "ruling": "201509", "deductibility": "1", "assets": 1643095, "income": 541500, "revenue": 541500}], "SLOOP": [{"ein": "113146648", "name": "CHRISTEE OYSTER SLOOP PRESERVATION CORPORATION", "city": "OYSTER BAY", "state": "NY", "zip": "11771-0386", "ntee": "", "ruling": "199412", "deductibility": "1", "assets": 29713, "income": 141495, "revenue": 141495}, {"ein": "133789384", "name": "WALKABOUT CLEARWATER SLOOP INC", "city": "SPRING VALLEY", "state": "NY", "zip": "10977-1622", "ntee": "C20Z", "ruling": "199509", "deductibility": "1", "assets": 0, "income": 0, "revenue": 0}, {"ein": "146049022", "name": "HUDSON RIVER SLOOP CLEARWATER INC", "city": "BEACON", "state": "NY", "zip": "12508-4173", "ntee": "C60", "ruling": "202308", "deductibility": "1", "assets": 1553901, "income": 1160590, "revenue": 1125539}, {"ein": "223100801", "name": "BEACON SLOOP CLUB INC", "city": "BEACON", "state": "NY", "zip": "12508-0527", "ntee": "N50Z", "ruling": "199110", "deductibility": "1", "assets": 430068, "income": 79675, "revenue": 58306}, {"ein": "471946569", "name": "HUDSON SLOOP CLUB INC", "city": "HUDSON", "state": "NY", "zip": "12534-3115", "ntee": "C60", "ruling": "201509", "deductibility": "1", "assets": 243417, "income": 49234, "revenue": 49234}], "SUNSHINE": [{"ein": "113161010", "name": "SUNSHINE COMMUNITY CONGREGATION", "city": "BROOKLYN", "state": "NY", "zip": "11210-3714", "ntee": "", "ruling": "199307", "deductibility": "1", "assets": 0, "income": 0, "revenue": 0}, {"ein": "113181597", "name": "THE SUNSHINE CENTER INC", "city": "PORT JEFF STA", "state": "NY", "zip": "11776-4202", "ntee": "A20Z", "ruling": "199402", "deductibility": "1", "assets": 356108, "income": 246329, "revenue": 246329}, {"ein": "116035562", "name": "ALPHA GENESIS SUNSHINE FOUNDATION INC", "city": "SAYVILLE", "state": "NY", "zip": "11782-1367", "ntee": "T22", "ruling": "195112", "deductibility": "1", "assets": 66102, "income": 28862, "revenue": 0}, {"ein": "133769586", "name": "SUNSHINE CITY OF DELIVERANCE CHURCH INC", "city": "MOUNT VERNON", "state": "NY", "zip": "10550-3035", "ntee": "X20Z", "ruling": "199507", "deductibility": "1", "assets": 0, "income": 0, "revenue": 0}, {"ein": "141626349", "name": "SUNSHINE DAY NURSERY SCHOOL", "city": "E GREENBUSH", "state": "NY", "zip": "12061-1717", "ntee": "", "ruling": "198601", "deductibility": "0", "assets": 0, "income": 0, "revenue": 0}, {"ein": "161098891", "name": "ROCHESTER & VICINITY ELECTRICAL WORKERS SUNSHINE CLUB INC", "city": "ROCHESTER", "state": "NY", "zip": "14623-1036", "ntee": "P99", "ruling": "201304", "deductibility": "2", "assets": 0, "income": 0, "revenue": 0}, {"ein": "161174189", "name": "SUNSHINE CHRISTIAN NURSERY SCHOOL", "city": "LE ROY", "state": "NY", "zip": "14482-0342", "ntee": "B21Z", "ruling": "198609", "deductibility": "1", "assets": 0, "income": 0, "revenue": 0}, {"ein": "161280091", "name": "SUNSHINE VALLEY WESLEYAN CHURCH", "city": "WINDSOR", "state": "NY", "zip": "13865-3313", "ntee": "", "ruling": "197005", "deductibility": "1", "assets": 0, "income": 0, "revenue": 0}, {"ein": "161764721", "name": "SOUTHOLD SUNSHINE SOCIETY INC", "city": "SOUTHOLD", "state": "NY", "zip": "11971-0251", "ntee": "P58", "ruling": "200701", "deductibility": "1", "assets": 0, "income": 0, "revenue": 0}, {"ein": "205056373", "name": "BETHEL SUNSHINE CAMP OF THECATSKILL MOUNTAINS INC", "city": "NEW YORK", "state": "NY", "zip": "10150-8280", "ntee": "", "ruling": "195606", "deductibility": "2", "assets": 0, "income": 0, "revenue": 0}, {"ein": "208220996", "name": "SUNSHINE COMES FIRST LTD", "city": "RHINEBECK", "state": "NY", "zip": "12572-2336", "ntee": "T22", "ruling": "200811", "deductibility": "1", "assets": 517724, "income": 12908, "revenue": 0}, {"ein": "222513557", "name": "SUNSHINE HALL FREE LIBRARY", "city": "ELDRED", "state": "NY", "zip": "12732-0157", "ntee": "B70", "ruling": "200503", "deductibility": "1", "assets": 60805, "income": 93904, "revenue": 93651}, {"ein": "223607512", "name": "PROJECT SUNSHINE INC", "city": "NEW YORK", "state": "NY", "zip": "10017-8619", "ntee": "G81", "ruling": "199902", "deductibility": "1", "assets": 6566796, "income": 8985660, "revenue": 5849510}, {"ein": "272206232", "name": "JAMI ERLICH SUNSHINE MEMORIAL FUND INC", "city": "NEW CITY", "state": "NY", "zip": "10956-2903", "ntee": "B82", "ruling": "201105", "deductibility": "1", "assets": 5131, "income": 73, "revenue": 0}, {"ein": "274128249", "name": "SUNSHINE SPORTS CLUB INC", "city": "NEW YORK", "state": "NY", "zip": "10029-3025", "ntee": "N99", "ruling": "201408", "deductibility": "1", "assets": 0, "income": 0, "revenue": 0}, {"ein": "274599610", "name": "CHINESE-AMERICAN SUNSHINE HOUSE INC", "city": "BROOKLYN", "state": "NY", "zip": "11220-3662", "ntee": "P80", "ruling": "201108", "deductibility": "1", "assets": 109856, "income": 20454, "revenue": 20454}, {"ein": "300542481", "name": "NASSAU SUNSHINE FUND", "city": "NASSAU", "state": "NY", "zip": "12123-0010", "ntee": "P20", "ruling": "201011", "deductibility": "1", "assets": 0, "income": 0, "revenue": 0}, {"ein": "364884766", "name": "SUNSHINE CHARITY FOUNDATION", "city": "BROOKLYN", "state": "NY", "zip": "11204-1049", "ntee": "T22", "ruling": "201903", "deductibility": "1", "assets": 918939, "income": 654166, "revenue": 0}, {"ein": "365001621", "name": "SUNSHINE ACTION LIMITED", "city": "NEW YORK", "state": "NY", "zip": "10023-0003", "ntee": "K30", "ruling": "202303", "deductibility": "1", "assets": 0, "income": 0, "revenue": 0}, {"ein": "432046806", "name": "SUNSHINE HORSES INC", "city": "CLAY", "state": "NY", "zip": "13041-9650", "ntee": "D20", "ruling": "200705", "deductibility": "1", "assets": 976863, "income": 267162, "revenue": 201707}, {"ein": "453828097", "name": "SUNSHINE FOUNDATION OF SCHOHARIE VALLEY INC", "city": "SCHOHARIE", "state": "NY", "zip": "12157-5005", "ntee": "T12", "ruling": "201204", "deductibility": "1", "assets": 0, "income": 0, "revenue": 0}, {"ein": "461294888", "name": "SUNSHINE ALTERNATIVE EDUCATION CENTER", "city": "PORT JEFF STA", "state": "NY", "zip": "11776-4202", "ntee": "B25", "ruling": "201503", "deductibility": "1", "assets": 441861, "income": 425409, "revenue": 425409}, {"ein": "566615926", "name": "SUNSHINE FOUNDATION", "city": "WOODBURY", "state": "NY", "zip": "11797-2000", "ntee": "T90", "ruling": "200306", "deductibility": "1", "assets": 34443206, "income": 14834055, "revenue": 0}, {"ein": "581737441", "name": "J H FLOYD SUNSHINE VILLAGE INC", "city": "SPRING VALLEY", "state": "NY", "zip": "10977-0000", "ntee": "", "ruling": "198811", "deductibility": "1", "assets": 1594906, "income": 723536, "revenue": 723536}, {"ein": "812662785", "name": "SUNSHINE CREATIVE KIDZ INC", "city": "CAMBRIA HEIGHTS", "state": "NY", "zip": "11411-0000", "ntee": "P33", "ruling": "201608", "deductibility": "1", "assets": 52501, "income": 98461, "revenue": 98461}, {"ein": "822748534", "name": "SARATOGA SUNSHINE FUND INCORPORATED", "city": "SARATOGA SPGS", "state": "NY", "zip": "12866-5193", "ntee": "J12", "ruling": "202310", "deductibility": "1", "assets": 0, "income": 0, "revenue": 0}, {"ein": "824924603", "name": "SUNSHINE VILLAGE COMMUNITY CHILCARE CENTER INC", "city": "ROCHESTER", "state": "NY", "zip": "14611-1345", "ntee": "P20", "ruling": "202208", "deductibility": "1", "assets": 32796, "income": 197975, "revenue": 197975}, {"ein": "853646482", "name": "SUNSHINE OF HOPE IN MEMORY OF ASHLEY HOPE CORP", "city": "BAYPORT", "state": "NY", "zip": "11705-1235", "ntee": "L12", "ruling": "202108", "deductibility": "1", "assets": 0, "income": 0, "revenue": 0}, {"ein": "870906061", "name": "MARIAS SUNSHINE AND DREAM FUND", "city": "BASOM", "state": "NY", "zip": "14013-9717", "ntee": "P12", "ruling": "202411", "deductibility": "1", "assets": 0, "income": 0, "revenue": 0}, {"ein": "873233639", "name": "GOODWIN SUNSHINE FOUNDATION INC", "city": "BROOKLYN", "state": "NY", "zip": "11239-5743", "ntee": "C40", "ruling": "202201", "deductibility": "1", "assets": 0, "income": 0, "revenue": 0}, {"ein": "873792721", "name": "ROTARY E-CLUB OF SUNSHINE NEW YORK", "city": "YONKERS", "state": "NY", "zip": "10710-2318", "ntee": "T50", "ruling": "202202", "deductibility": "1", "assets": 0, "income": 0, "revenue": 0}, {"ein": "921536871", "name": "MAKE YOUR OWN SUNSHINE RLM FOUNDATION INC", "city": "BINGHAMTON", "state": "NY", "zip": "13901-1635", "ntee": "T50", "ruling": "202311", "deductibility": "1", "assets": 0, "income": 0, "revenue": 0}, {"ein": "993212735", "name": "SIENNAS SUNSHINE INC", "city": "SEAFORD", "state": "NY", "zip": "11783-1053", "ntee": "F60", "ruling": "202501", "deductibility": "1", "assets": 0, "income": 0, "revenue": 0}, {"ein": "995103046", "name": "SUNSHINE & SMILES FOUNDATION INC", "city": "BROOKLYN", "state": "NY", "zip": "11205-1984", "ntee": "P29", "ruling": "202410", "deductibility": "1", "assets": 0, "income": 0, "revenue": 0}], "PYONGHOA": [{"ein": "113273697", "name": "PYONGHOA GOSPEL CHURCH", "city": "WOODSIDE", "state": "NY", "zip": "11377-5064", "ntee": "X20Z", "ruling": "199701", "deductibility": "1", "assets": 0, "income": 0, "revenue": 0}], "CONSOLATION": [{"ein": "113284066", "name": "OUR LADY OF CONSOLATION NURSING & REHABILITATIVE CARE CENTER", "city": "WEST ISLIP", "state": "NY", "zip": "11795-4929", "ntee": "E910", "ruling": "194603", "deductibility": "1", "assets": 49872901, "income": 52023698, "revenue": 52023627}, {"ein": "134153694", "name": "MINISTERIO LUZ DEL CONSOLADOR LIGHT OF CONSOLATION MINISTRY", "city": "BRONX", "state": "NY", "zip": "10463-5506", "ntee": "X21", "ruling": "200106", "deductibility": "1", "assets": 0, "income": 0, "revenue": 0}, {"ein": "136126358", "name": "AUGUSTINIAN FATHERS OF OUR MOTHER OF CONSOLATION RIVERDALE N Y INC", "city": "NEW YORK", "state": "NY", "zip": "10463-3305", "ntee": "", "ruling": "194603", "deductibility": "1", "assets": 0, "income": 0, "revenue": 0}, {"ein": "450517566", "name": "OUR LADY OF CONSOLATION FOUNDATION", "city": "WEST ISLIP", "state": "NY", "zip": "11795-4929", "ntee": "", "ruling": "194603", "deductibility": "1", "assets": 386, "income": 316, "revenue": 316}], "BAITUL": [{"ein": "113291758", "name": "BAITUL-QURAN MASJID AND COMMUNITY CENTER INC", "city": "BROOKLYN", "state": "NY", "zip": "11232-3905", "ntee": "X40", "ruling": "200104", "deductibility": "1", "assets": 0, "income": 0, "revenue": 0}, {"ein": "113359563", "name": "BAITUL MAMUR MASJID & COMMUNITY", "city": "BROOKLYN", "state": "NY", "zip": "11208-2836", "ntee": "X40I", "ruling": "199706", "deductibility": "1", "assets": 2527244, "income": 1496057, "revenue": 1496057}, {"ein": "113434016", "name": "MASJID-E-BAITUL KARIM INC", "city": "BROOKLYN", "state": "NY", "zip": "11226-5776", "ntee": "X40Z", "ruling": "199812", "deductibility": "1", "assets": 0, "income": 0, "revenue": 0}, {"ein": "113469685", "name": "BAITUL JANNAH ZAME MASJID AND MUSLIM COMMUNITY CENTER INC", "city": "BROOKLYN", "state": "NY", "zip": "11218-3807", "ntee": "X40", "ruling": "200108", "deductibility": "1", "assets": 0, "income": 0, "revenue": 0}, {"ein": "133771857", "name": "BAITUL AMAN ISLAMIC CENTER INC", "city": "BRONX", "state": "NY", "zip": "10462-5353", "ntee": "X40Z", "ruling": "199504", "deductibility": "1", "assets": 0, "income": 0, "revenue": 0}, {"ein": "133810201", "name": "BAITUL ISLAM MASJID AND COMMUNITY CENTER INC", "city": "BRONX", "state": "NY", "zip": "10453-3303", "ntee": "X40C", "ruling": "199601", "deductibility": "1", "assets": 57354, "income": 84567, "revenue": 84567}, {"ein": "272119074", "name": "WOODSIDE BAITUL JANNAH MASJID INC", "city": "WOODSIDE", "state": "NY", "zip": "11377-2620", "ntee": "X20", "ruling": "201408", "deductibility": "1", "assets": 1551625, "income": 296418, "revenue": 296418}, {"ein": "331554219", "name": "BAITUL MUKARRAM JAME MASJID BUFFALO CORP", "city": "BUFFALO", "state": "NY", "zip": "14215-1613", "ntee": "P20", "ruling": "202502", "deductibility": "1", "assets": 0, "income": 0, "revenue": 0}, {"ein": "474653304", "name": "BAITUL MAMOOR INC", "city": "BUFFALO", "state": "NY", "zip": "14212-0000", "ntee": "X40", "ruling": "201803", "deductibility": "1", "assets": 11069, "income": 40152, "revenue": 40152}, {"ein": "871739259", "name": "BAITUL AHAD ISLAMIC CENTER INC", "city": "JAMAICA", "state": "NY", "zip": "11435-5486", "ntee": "X40", "ruling": "202306", "deductibility": "1", "assets": 15634, "income": 68164, "revenue": 68164}, {"ein": "872073687", "name": "BAITUL JANNAH JAME MASJID CHEEKTOWAGA MUSLIM CENTER INC", "city": "CHEEKTOWAGA", "state": "NY", "zip": "14225-3026", "ntee": "X40", "ruling": "202208", "deductibility": "1", "assets": 0, "income": 0, "revenue": 0}, {"ein": "932268136", "name": "BAITUL ABRAR", "city": "BRONX", "state": "NY", "zip": "10461-6202", "ntee": "X40", "ruling": "202308", "deductibility": "1", "assets": 977287, "income": 467748, "revenue": 467748}, {"ein": "932315217", "name": "JAMIAH BAITUL AMAAN NEW YORK INC", "city": "BRONX", "state": "NY", "zip": "10461-3601", "ntee": "B90", "ruling": "202401", "deductibility": "1", "assets": 0, "income": 0, "revenue": 0}], "REBUILT": [{"ein": "113330235", "name": "THE REBUILT CHURCH OF THE HOLY SPIRIT", "city": "FLUSHING", "state": "NY", "zip": "11358-2629", "ntee": "X21Z", "ruling": "199704", "deductibility": "1", "assets": 0, "income": 0, "revenue": 0}], "ADNAY": [{"ein": "113437614", "name": "CONGREGATION ADNAY HACHESED", "city": "BROOKLYN", "state": "NY", "zip": "11211-8180", "ntee": "X30", "ruling": "199905", "deductibility": "1", "assets": 0, "income": 0, "revenue": 0}], "BROOKLYNS": [{"ein": "113438383", "name": "BROOKLYNS THREE KINGS DAY PARADE INC", "city": "BROOKLYN", "state": "NY", "zip": "11206-3374", "ntee": "A23", "ruling": "194206", "deductibility": "1", "assets": 1, "income": 1600, "revenue": 1600}], "DEOLA": [{"ein": "113458694", "name": "YINKA AND DEOLA OJO MINISTRIES", "city": "BROOKLYN", "state": "NY", "zip": "11210-4426", "ntee": "X20", "ruling": "199906", "deductibility": "1", "assets": 0, "income": 0, "revenue": 0}], "BALAKH": [{"ein": "113496726", "name": "SHRI SIDH YOGI BABA BALAKH NATH INC", "city": "LONG IS CITY", "state": "NY", "zip": "11106-3920", "ntee": "X21", "ruling": "200003", "deductibility": "1", "assets": 0, "income": 0, "revenue": 0}], "PALLESCHI": [{"ein": "113507211", "name": "RALPH AND LUCY PALLESCHI FAMILY FOUNDATION", "city": "JERICHO", "state": "NY", "zip": "11753-0000", "ntee": "T22", "ruling": "200006", "deductibility": "1", "assets": 322731, "income": 69296, "revenue": 0}], "DEBRITZIN": [{"ein": "113583293", "name": "SHAREI DEBRITZIN", "city": "BROOKLYN", "state": "NY", "zip": "11211-7810", "ntee": "X30", "ruling": "200103", "deductibility": "1", "assets": 0, "income": 0, "revenue": 0}], "BEHAVORIAL": [{"ein": "113592081", "name": "CENTER FOR BEHAVORIAL HEALTH SERVIC ES INC", "city": "FAR ROCKAWAY", "state": "NY", "zip": "11691-4100", "ntee": "F30", "ruling": "200105", "deductibility": "1", "assets": 922098, "income": 1507766, "revenue": 1507766}, {"ein": "161545248", "name": "NIAGARA BEHAVORIAL HEALTH CARE NETWORK", "city": "NIAGARA FALLS", "state": "NY", "zip": "14303-1516", "ntee": "E02", "ruling": "200406", "deductibility": "1", "assets": 39708, "income": 3028, "revenue": 3028}, {"ein": "521237035", "name": "BOCES 2 TEACHER AIDE STUDENT BEHAVORIAL ASSISTANT TUTOR", "city": "ROCHESTER", "state": "NY", "zip": "14624-6215", "ntee": "", "ruling": "202104", "deductibility": "0", "assets": 0, "income": 0, "revenue": 0}], "BROXMEYER": [{"ein": "113636116", "name": "NEAL AND SUSAN BROXMEYER FAMILY FOUNDATION", "city": "UNIONDALE", "state": "NY", "zip": "11556-0000", "ntee": "T22", "ruling": "200211", "deductibility": "1", "assets": 1004394, "income": 832045, "revenue": 0}], "SUFFERN": [{"ein": "113749513", "name": "SUFFERN CHAMBER OF COMMERCE ASSOCIATION", "city": "SUFFERN", "state": "NY", "zip": "10901-0291", "ntee": "S41", "ruling": "200608", "deductibility": "2", "assets": 16621, "income": 54325, "revenue": 27554}, {"ein": "131737748", "name": "THE WOMENS CLUB OF SUFFERN INC", "city": "SUFFERN", "state": "NY", "zip": "10901-4217", "ntee": "", "ruling": "195107", "deductibility": "2", "assets": 0, "income": 0, "revenue": 0}, {"ein": "131763816", "name": "SUFFERN FREE LIBRARY", "city": "SUFFERN", "state": "NY", "zip": "10901-4708", "ntee": "", "ruling": "197104", "deductibility": "1", "assets": 8209363, "income": 3653772, "revenue": 3653772}, {"ein": "132687637", "name": "REFORM TEMPLE OF SUFFERN", "city": "SUFFERN", "state": "NY", "zip": "10901-3137", "ntee": "", "ruling": "197407", "deductibility": "1", "assets": 0, "income": 0, "revenue": 0}, {"ein": "133283961", "name": "SUFFERN UNITED METHODIST CHURCH", "city": "SUFFERN", "state": "NY", "zip": "10901-7644", "ntee": "", "ruling": "197410", "deductibility": "1", "assets": 0, "income": 0, "revenue": 0}, {"ein": "133341461", "name": "SUFFERN LITTLE LEAGUE INC", "city": "SUFFERN", "state": "NY", "zip": "10901-0315", "ntee": "N63", "ruling": "202006", "deductibility": "1", "assets": 17481, "income": 105160, "revenue": 0}, {"ein": "133869500", "name": "VILLAGE OF SUFFERN COMMUNITY FOUNDATION INC", "city": "SUFFERN", "state": "NY", "zip": "10901-5624", "ntee": "T31", "ruling": "202207", "deductibility": "1", "assets": 0, "income": 0, "revenue": 0}, {"ein": "133888938", "name": "SUFFERN ROTARY COMMUNITY FUND INC", "city": "SUFFERN", "state": "NY", "zip": "10901-0103", "ntee": "B82", "ruling": "199702", "deductibility": "1", "assets": 0, "income": 0, "revenue": 0}, {"ein": "133941946", "name": "SUFFERN TOUCHDOWN CLUB", "city": "SUFFERN", "state": "NY", "zip": "10901-3228", "ntee": "N60", "ruling": "201303", "deductibility": "1", "assets": 0, "income": 0, "revenue": 0}, {"ein": "134135916", "name": "SUFFERN SEA LIONS INC", "city": "SUFFERN", "state": "NY", "zip": "10901-0000", "ntee": "N67", "ruling": "200307", "deductibility": "1", "assets": 34934, "income": 82415, "revenue": 80705}, {"ein": "136113010", "name": "SUFFERN HIGH SCHOOL ALUMNI ASSOC", "city": "SUFFERN", "state": "NY", "zip": "10901-0184", "ntee": "H98", "ruling": "201403", "deductibility": "1", "assets": 311850, "income": 11188, "revenue": 11188}, {"ein": "161687757", "name": "SUFFERN PBA", "city": "SUFFERN", "state": "NY", "zip": "10901-0858", "ntee": "W99", "ruling": "201408", "deductibility": "1", "assets": 0, "income": 0, "revenue": 0}, {"ein": "200414016", "name": "SUFFERN PUCKS INC", "city": "SUFFERN", "state": "NY", "zip": "10901-3228", "ntee": "B112", "ruling": "201308", "deductibility": "1", "assets": 0, "income": 0, "revenue": 0}, {"ein": "263550021", "name": "SUFFERN BOYS BASKETBALL BOOSTER CLUB", "city": "SLOATSBURG", "state": "NY", "zip": "10974-1842", "ntee": "N62", "ruling": "201605", "deductibility": "1", "assets": 0, "income": 0, "revenue": 0}, {"ein": "270176588", "name": "CONGREGATION CHABAD JEWISH CENTER OF SUFFERN INC", "city": "SUFFERN", "state": "NY", "zip": "10901-3137", "ntee": "X30", "ruling": "201003", "deductibility": "1", "assets": 0, "income": 0, "revenue": 0}, {"ein": "316669440", "name": "MASONIC GUILD OF SUFFERN CHARITABLE TRUST", "city": "GOSHEN", "state": "NY", "zip": "10924-1804", "ntee": "T20", "ruling": "200108", "deductibility": "1", "assets": 458671, "income": 385881, "revenue": 0}, {"ein": "320107341", "name": "SUFFERN GIRLS YOUTH LACROSSE INC", "city": "SUFFERN", "state": "NY", "zip": "10901-0015", "ntee": "N99", "ruling": "201904", "deductibility": "1", "assets": 0, "income": 0, "revenue": 0}, {"ein": "352487763", "name": "SUFFERN HIGH SCHOOL MARCHING BAND ASSOCIATION", "city": "SUFFERN", "state": "NY", "zip": "10901-3228", "ntee": "B11", "ruling": "201408", "deductibility": "1", "assets": 0, "income": 0, "revenue": 0}, {"ein": "454438364", "name": "SUFFERN MOUNTIES BASEBALL INC", "city": "SUFFERN", "state": "NY", "zip": "10901-2708", "ntee": "N63", "ruling": "201304", "deductibility": "1", "assets": 0, "income": 0, "revenue": 0}, {"ein": "462436449", "name": "SUFFERN SYBORGS ROBOTICS TEAM BOOSTER CLUB INC", "city": "SUFFERN", "state": "NY", "zip": "10901-3228", "ntee": "B11", "ruling": "201604", "deductibility": "1", "assets": 0, "income": 0, "revenue": 0}, {"ein": "462531407", "name": "SUFFERN SOCCER BOOSTER CLUB INC", "city": "AIRMONT", "state": "NY", "zip": "10901-7536", "ntee": "N99", "ruling": "201407", "deductibility": "1", "assets": 0, "income": 0, "revenue": 0}, {"ein": "824589081", "name": "SUFFERN VOLUNTEER FIREFIGHTERS ASSOCIATION INC", "city": "SUFFERN", "state": "NY", "zip": "10901-5607", "ntee": "M24", "ruling": "201808", "deductibility": "1", "assets": 304588, "income": 94759, "revenue": 0}, {"ein": "832250323", "name": "KOLLEL OF SUFFERN", "city": "MONSEY", "state": "NY", "zip": "10952-2528", "ntee": "X30", "ruling": "201912", "deductibility": "1", "assets": 0, "income": 0, "revenue": 0}, {"ein": "843239183", "name": "SUFFERN BOYS LACROSSE BOOSTER CLUB INC", "city": "WEST NYACK", "state": "NY", "zip": "10994-1768", "ntee": "N12", "ruling": "201910", "deductibility": "1", "assets": 0, "income": 0, "revenue": 0}, {"ein": "844518865", "name": "SUFFERN GIRLS VOLLEYBALL BOOSTER CLUB INC", "city": "SUFFERN", "state": "NY", "zip": "10901-5436", "ntee": "O50", "ruling": "202201", "deductibility": "1", "assets": 0, "income": 0, "revenue": 0}], "COMFORTS": [{"ein": "116017689", "name": "SOCIETY FOR LENDING COMFORTS TO THE SICK OF THE TOWNSHIP OF SMITHTOWN", "city": "SMITHTOWN", "state": "NY", "zip": "11787-1803", "ntee": "", "ruling": "196610", "deductibility": "1", "assets": 368173, "income": 94096, "revenue": 59388}, {"ein": "161557693", "name": "SMALL COMFORTS FOUNDATION LTD", "city": "ITHACA", "state": "NY", "zip": "14850-9761", "ntee": "P20", "ruling": "199902", "deductibility": "1", "assets": 0, "income": 0, "revenue": 0}], "ATONEMENT": [{"ein": "116041072", "name": "CHURCH OF THE ATONEMENT", "city": "QUOGUE", "state": "NY", "zip": "11959-0000", "ntee": "", "ruling": "197206", "deductibility": "1", "assets": 0, "income": 0, "revenue": 0}, {"ein": "131929372", "name": "LUTHERAN CHURCH OF OUR SAVIOURS ATONEMENT", "city": "NEW YORK", "state": "NY", "zip": "10040-3830", "ntee": "", "ruling": "198804", "deductibility": "1", "assets": 0, "income": 0, "revenue": 0}, {"ein": "136120548", "name": "ATONEMENT LUTHERAN CHURCH", "city": "STONY POINT", "state": "NY", "zip": "10980-0000", "ntee": "", "ruling": "194107", "deductibility": "1", "assets": 0, "income": 0, "revenue": 0}, {"ein": "141363034", "name": "FRANCISCAN SISTERS OF THE ATONEMENT", "city": "GARRISON", "state": "NY", "zip": "10524-3400", "ntee": "", "ruling": "194603", "deductibility": "1", "assets": 0, "income": 0, "revenue": 0}, {"ein": "156000311", "name": "EVANGELICAL LUTHERAN CHURCH OF THE ATONEMENT", "city": "SYRACUSE", "state": "NY", "zip": "13205-2332", "ntee": "", "ruling": "198804", "deductibility": "1", "assets": 0, "income": 0, "revenue": 0}, {"ein": "161004651", "name": "EVANGELICAL LUTHERAN CHURCH OF THE ATONEMENT SAUGERTIES ULSTER CO NY", "city": "ONEONTA", "state": "NY", "zip": "13820-1420", "ntee": "", "ruling": "198804", "deductibility": "1", "assets": 0, "income": 0, "revenue": 0}, {"ein": "237042808", "name": "EVANGELICAL LUTHERAN CHURCH OF THE ATONEMENT", "city": "EAST ELMHURST", "state": "NY", "zip": "11369-1426", "ntee": "", "ruling": "198804", "deductibility": "1", "assets": 0, "income": 0, "revenue": 0}, {"ein": "510244192", "name": "ATONEMENT LUTHERAN CHURCH", "city": "ROCHESTER", "state": "NY", "zip": "14618-2832", "ntee": "", "ruling": "196603", "deductibility": "1", "assets": 0, "income": 0, "revenue": 0}, {"ein": "814553389", "name": "ATONEMENT-SOUTH VALLEY COMMUNITY MINISTRY", "city": "SYRACUSE", "state": "NY", "zip": "13205-2332", "ntee": "", "ruling": "198804", "deductibility": "1", "assets": 0, "income": 0, "revenue": 0}, {"ein": "831931189", "name": "JUST ATONEMENT INC", "city": "NEW YORK", "state": "NY", "zip": "10151-0099", "ntee": "Q70", "ruling": "201809", "deductibility": "1", "assets": 0, "income": 0, "revenue": 0}], "PRINTING": [{"ein": "116076743", "name": "PRINTING PACKAGING & PRODUCTION WORKERS UNION OF NORTH AMERICA", "city": "FARMINGDALE", "state": "NY", "zip": "11735-2657", "ntee": "", "ruling": "196603", "deductibility": "2", "assets": 416545, "income": 191079, "revenue": 191079}, {"ein": "134920470", "name": "PRINTING PACKAGING & PRODUCTION WORKERS UNTION OF NORTH AMERICA", "city": "NEW YORK", "state": "NY", "zip": "10003-0031", "ntee": "", "ruling": "194110", "deductibility": "2", "assets": 20937832, "income": 6813528, "revenue": 1663493}, {"ein": "135274605", "name": "PRINTING PACKAGING & PRODUTION WORKERS UNION OF NORTH AMERICA", "city": "FARMINGDALE", "state": "NY", "zip": "11735-1215", "ntee": "", "ruling": "198307", "deductibility": "2", "assets": 593109, "income": 327913, "revenue": 327913}, {"ein": "160758381", "name": "PRINTING PACKAGING & PRODUCTION WORKERS UNION OF NORTH AMERICA", "city": "ROCHESTER", "state": "NY", "zip": "14620-2830", "ntee": "", "ruling": "198307", "deductibility": "2", "assets": 2523811, "income": 470684, "revenue": 470684}, {"ein": "161037029", "name": "PRINTING AND IMAGING ASSOCIATION OF NEW YORK STATE INC", "city": "AMHERST", "state": "NY", "zip": "14228-1900", "ntee": "", "ruling": "197507", "deductibility": "2", "assets": 1819272, "income": 1115896, "revenue": 1115896}, {"ein": "237441237", "name": "AMERICAN PRINTING HISTORY ASSOCIATION INC", "city": "NEW YORK", "state": "NY", "zip": "10163-4519", "ntee": "", "ruling": "197508", "deductibility": "1", "assets": 407440, "income": 67606, "revenue": 67606}, {"ein": "350415390", "name": "INTERNATIONAL ALLIED PRINTING TRADES ASSOCIATION", "city": "MOHAWK", "state": "NY", "zip": "13407-3802", "ntee": "", "ruling": "194409", "deductibility": "2", "assets": 0, "income": 0, "revenue": 0}], "OLLIE": [{"ein": "116102248", "name": "MOUNT OLLIE BAPTIST CHURCH", "city": "BROOKLYN", "state": "NY", "zip": "11233-4319", "ntee": "", "ruling": "198102", "deductibility": "1", "assets": 0, "income": 0, "revenue": 0}, {"ein": "923875982", "name": "FRIENDS OF OLLIE INC", "city": "SAYVILLE", "state": "NY", "zip": "11782-2505", "ntee": "D20", "ruling": "202310", "deductibility": "1", "assets": 250, "income": 0, "revenue": 0}], "SIEGEL": [{"ein": "116465350", "name": "IRVING SIEGEL CHARITABLE FOUNDATION", "city": "MELVILLE", "state": "NY", "zip": "11747-0000", "ntee": "", "ruling": "199601", "deductibility": "0", "assets": 243186, "income": 46628, "revenue": 0}, {"ein": "133192850", "name": "THE JEANNE SORENSEN-SIEGEL FOUNDATION INC", "city": "NEW YORK", "state": "NY", "zip": "10022-5500", "ntee": "", "ruling": "198402", "deductibility": "1", "assets": 1951625, "income": 363240, "revenue": 0}, {"ein": "133253359", "name": "ELI SIEGEL-MARTHA BAIRD FOUNDATION INC", "city": "NEW YORK", "state": "NY", "zip": "10012-3201", "ntee": "", "ruling": "198503", "deductibility": "1", "assets": 3548103, "income": 710847, "revenue": 160178}, {"ein": "166383848", "name": "MARTHA LOVENHEIM SIEGEL CHARITABLE TRUST", "city": "NEW YORK", "state": "NY", "zip": "10021-4516", "ntee": "", "ruling": "199305", "deductibility": "1", "assets": 1076661, "income": 484195, "revenue": 0}, {"ein": "237015786", "name": "BERNARD & ESTELLE SIEGEL FOUNDATION INC", "city": "WILLIAMSVILLE", "state": "NY", "zip": "14221-5338", "ntee": "", "ruling": "196907", "deductibility": "1", "assets": 8260854, "income": 3659252, "revenue": 0}, {"ein": "330830411", "name": "FRED SIEGEL FOUNDATION", "city": "NEW YORK", "state": "NY", "zip": "10011-4235", "ntee": "T30", "ruling": "199903", "deductibility": "1", "assets": 3893194, "income": 4165239, "revenue": 0}, {"ein": "451742989", "name": "SIEGEL FAMILY ENDOWMENT INC", "city": "NEW YORK", "state": "NY", "zip": "10001-4590", "ntee": "T20", "ruling": "201106", "deductibility": "1", "assets": 500197981, "income": 82678444, "revenue": 0}, {"ein": "873004770", "name": "MYRON & SELINA SIEGEL FAMILY FOUNDATION INC", "city": "BROOKLYN", "state": "NY", "zip": "11230-3801", "ntee": "A20", "ruling": "202203", "deductibility": "1", "assets": 14421, "income": 234902, "revenue": 0}], "SUIT": [{"ein": "130430690", "name": "AMERICAN CLOAK AND SUIT MANUFACTURERS ASSOCIATION INC", "city": "SYOSSET", "state": "NY", "zip": "11791-3434", "ntee": "", "ruling": "193501", "deductibility": "2", "assets": 0, "income": 0, "revenue": 0}, {"ein": "131954389", "name": "NEW YORK COAT AND SUIT ASSOCIATION INC", "city": "SYOSSET", "state": "NY", "zip": "11791-3434", "ntee": "", "ruling": "196304", "deductibility": "2", "assets": 0, "income": 0, "revenue": 0}, {"ein": "132913180", "name": "COAT AND SUIT INDUSTRY TRUST FUND", "city": "SYOSSET", "state": "NY", "zip": "11791-3434", "ntee": "", "ruling": "197711", "deductibility": "2", "assets": 0, "income": 0, "revenue": 0}], "DEUTSCHER": [{"ein": "131611584", "name": "DEUTSCHER VEREIN", "city": "NEW YORK", "state": "NY", "zip": "10163-3524", "ntee": "", "ruling": "193912", "deductibility": "2", "assets": 228, "income": 4, "revenue": 4}], "MSQ": [{"ein": "132947410", "name": "MSQ ENTERPRISES INC", "city": "BRONX", "state": "NY", "zip": "10463-1277", "ntee": "", "ruling": "197810", "deductibility": "1", "assets": 175004, "income": 246265, "revenue": 246265}], "ASTRAEA": [{"ein": "132992977", "name": "ASTRAEA FOUNDATION INC", "city": "NEW YORK", "state": "NY", "zip": "10003-2159", "ntee": "", "ruling": "197909", "deductibility": "1", "assets": 25727488, "income": 18865795, "revenue": 17515698}], "LEMBERGER": [{"ein": "133018840", "name": "CONGREGATION IKVEI YOSEF INC C/O EFRAIM LEMBERGER", "city": "BROOKLYN", "state": "NY", "zip": "11211-7607", "ntee": "", "ruling": "198004", "deductibility": "1", "assets": 0, "income": 0, "revenue": 0}], "BELGRAVIA": [{"ein": "133109042", "name": "BELGRAVIA FOUNDATION", "city": "JERICHO", "state": "NY", "zip": "11753-2008", "ntee": "", "ruling": "197704", "deductibility": "1", "assets": 2506, "income": 9606, "revenue": 0}], "PARIS": [{"ein": "133219847", "name": "AMERICAN FRIENDS OF THE PARIS OPERA & BALLET", "city": "NEW YORK", "state": "NY", "zip": "10075-0104", "ntee": "A6AI", "ruling": "198503", "deductibility": "1", "assets": 1436218, "income": 2147062, "revenue": 1355369}, {"ein": "133276905", "name": "AMERICAN UNIVERSITY OF PARIS FOUND INC", "city": "NEW YORK", "state": "NY", "zip": "10022-5825", "ntee": "Q113", "ruling": "198510", "deductibility": "1", "assets": 2607067, "income": 780005, "revenue": 678800}, {"ein": "134081729", "name": "THE PARIS REVIEW FOUNDATION INC", "city": "NEW YORK", "state": "NY", "zip": "10001-5537", "ntee": "B20", "ruling": "200008", "deductibility": "1", "assets": 11312095, "income": 5015366, "revenue": 3754518}, {"ein": "136041166", "name": "HARRIET H WOOLLEY ESTATE UNIVERSITY OF PARIS TR", "city": "NEW YORK", "state": "NY", "zip": "10008-1297", "ntee": "", "ruling": "194011", "deductibility": "1", "assets": 1703209, "income": 365880, "revenue": 0}, {"ein": "136042039", "name": "H & A HARJES TRUST FOR THE AMERICAN HOSPITAL IN PARIS", "city": "NEW YORK", "state": "NY", "zip": "10008-1297", "ntee": "", "ruling": "197012", "deductibility": "0", "assets": 309896, "income": 66886, "revenue": 0}, {"ein": "141832004", "name": "LUTHERAN PARIS OF SOUTHERN COLUMBIA COUNTY", "city": "ELIZAVILLE", "state": "NY", "zip": "12523-1238", "ntee": "X20", "ruling": "200203", "deductibility": "1", "assets": 0, "income": 0, "revenue": 0}, {"ein": "474488022", "name": "REDEEMED CHRISTIAN CHURCH OF GOD ABUNDANT GRACE INTERNATIONAL PARIS", "city": "FREEPORT", "state": "NY", "zip": "11520-2030", "ntee": "X20", "ruling": "201511", "deductibility": "1", "assets": 0, "income": 0, "revenue": 0}, {"ein": "510266631", "name": "AMERICAN LIBRARY IN PARIS USA FOUNDATION", "city": "NEW YORK", "state": "NY", "zip": "10112-0002", "ntee": "Q113", "ruling": "198305", "deductibility": "1", "assets": 0, "income": 0, "revenue": 0}, {"ein": "522306187", "name": "PARIS AMERICAN CLUB INC", "city": "NEW YORK", "state": "NY", "zip": "10012-1277", "ntee": "N50", "ruling": "200202", "deductibility": "2", "assets": 66056, "income": 57234, "revenue": 57234}, {"ein": "541031618", "name": "AMERICAN HOSPITAL OF PARIS FOUNDATI ON", "city": "NEW YORK", "state": "NY", "zip": "10022-5827", "ntee": "Q300", "ruling": "197606", "deductibility": "1", "assets": 27714389, "income": 10629734, "revenue": 873499}, {"ein": "770689240", "name": "TOWN OF PARIS HISTORICAL SOCIETY", "city": "SAUQUOIT", "state": "NY", "zip": "13456-3218", "ntee": "A80", "ruling": "200802", "deductibility": "1", "assets": 0, "income": 0, "revenue": 0}, {"ein": "813115722", "name": "PATHWAY TO PARIS INC", "city": "BROOKLYN", "state": "NY", "zip": "11222-1579", "ntee": "C02", "ruling": "201708", "deductibility": "1", "assets": 0, "income": 0, "revenue": 0}, {"ein": "820626948", "name": "PARIS FOUNDATION INC", "city": "NEW YORK", "state": "NY", "zip": "10075-2002", "ntee": "Q21", "ruling": "201706", "deductibility": "1", "assets": 0, "income": 0, "revenue": 0}, {"ein": "832511248", "name": "PARIS-DAUPHINE FOUNDATION INC", "city": "NEW YORK", "state": "NY", "zip": "10018-4308", "ntee": "B82", "ruling": "201907", "deductibility": "1", "assets": 44655, "income": 154310, "revenue": 154310}, {"ein": "922977507", "name": "PARIS BRAIN INSTITUTE AMERICA INC", "city": "NEW YORK", "state": "NY", "zip": "10019-5401", "ntee": "H12", "ruling": "202307", "deductibility": "1", "assets": 490050, "income": 528755, "revenue": 528755}, {"ein": "980171445", "name": "AMERICAN LIBRARY IN PARIS USA FOUNDATION", "city": "NEW YORK", "state": "NY", "zip": "10004-2400", "ntee": "Q112", "ruling": "198305", "deductibility": "1", "assets": 4931869, "income": 1379460, "revenue": 352702}], "LENAPE": [{"ein": "133466792", "name": "LENAPE BLOEMENDAEL DISTRICT MANAGEMENT ASSOCIATION", "city": "NEW YORK", "state": "NY", "zip": "10025-2206", "ntee": "S22Z", "ruling": "199501", "deductibility": "1", "assets": 254409, "income": 566621, "revenue": 566621}, {"ein": "141714301", "name": "LENAPE VOLUNTEER AMBULANCE CORPS INC", "city": "UNIONVILLE", "state": "NY", "zip": "10988-0641", "ntee": "E62Z", "ruling": "199601", "deductibility": "1", "assets": 1984034, "income": 172363, "revenue": 172363}, {"ein": "455282136", "name": "LENAPE CENTER LTD", "city": "NEW YORK", "state": "NY", "zip": "10128-0623", "ntee": "A23", "ruling": "202301", "deductibility": "1", "assets": 0, "income": 0, "revenue": 0}, {"ein": "833352677", "name": "BIG HORN LENAPE NATION INC", "city": "NEWARK VALLEY", "state": "NY", "zip": "13811-2421", "ntee": "A23", "ruling": "201905", "deductibility": "1", "assets": 0, "income": 0, "revenue": 0}], "INFANTRY": [{"ein": "133490686", "name": "42ND INFANTRY RAINBOW DIVISION ASSOCIATION INC", "city": "VALLEY STREAM", "state": "NY", "zip": "11581-2129", "ntee": "W30", "ruling": "201604", "deductibility": "1", "assets": 0, "income": 0, "revenue": 0}, {"ein": "141729743", "name": "150TH NEW YORK STATE VOLUNTEER INFANTRY REGIMENT HISTORICAL", "city": "STAATSBURG", "state": "NY", "zip": "12580-5405", "ntee": "A84", "ruling": "200006", "deductibility": "1", "assets": 0, "income": 0, "revenue": 0}, {"ein": "161329983", "name": "140TH NEW YORK INFANTRY LIVING HISTORY ORGANIZATION INC", "city": "ROCHESTER", "state": "NY", "zip": "14692-0494", "ntee": "", "ruling": "199005", "deductibility": "1", "assets": 0, "income": 0, "revenue": 0}, {"ein": "161535922", "name": "155TH NEW YORK VOLUNTEER INFANTRY REENACTMENT REGIMENT", "city": "EAST AURORA", "state": "NY", "zip": "14052-9510", "ntee": "A80", "ruling": "199711", "deductibility": "1", "assets": 0, "income": 0, "revenue": 0}, {"ein": "251801436", "name": "CUSHINGS BATTERY A 4TH U S LIGHT ARTILLERY & INFANTRY INC", "city": "ONTARIO", "state": "NY", "zip": "14519-9792", "ntee": "A80", "ruling": "199611", "deductibility": "1", "assets": 0, "income": 0, "revenue": 0}, {"ein": "464778603", "name": "108TH INFANTRY REGIMENTAL ASSOCATION", "city": "UTICA", "state": "NY", "zip": "13501-4216", "ntee": "W30", "ruling": "202105", "deductibility": "1", "assets": 0, "income": 0, "revenue": 0}, {"ein": "472830065", "name": "INFANTRY MINISTRIES INTERNATIONAL", "city": "QUEENS VLG", "state": "NY", "zip": "11429-1705", "ntee": "X20", "ruling": "202208", "deductibility": "1", "assets": 0, "income": 0, "revenue": 0}, {"ein": "836295575", "name": "SIXTY-NINTH INFANTRY REGIMENT HISTORICAL TR", "city": "WOODSIDE", "state": "NY", "zip": "11377-0000", "ntee": "P20", "ruling": "201903", "deductibility": "1", "assets": 0, "income": 0, "revenue": 0}, {"ein": "841989439", "name": "NYC INFANTRY BASKETBALL INC", "city": "BROOKLYN", "state": "NY", "zip": "11207-2524", "ntee": "O50", "ruling": "201906", "deductibility": "1", "assets": 0, "income": 0, "revenue": 0}], "PANTALEONI": [{"ein": "133506104", "name": "HELENKA AND GUIDO PANTALEONI FOUND ATION INC", "city": "WHITE PLAINS", "state": "NY", "zip": "10605-3824", "ntee": "", "ruling": "198903", "deductibility": "1", "assets": 23038, "income": 26934, "revenue": 0}], "SMACNA": [{"ein": "133592031", "name": "SMACNA NEW YORK STATE INC", "city": "NEWBURGH", "state": "NY", "zip": "12550-3043", "ntee": "", "ruling": "000000", "deductibility": "0", "assets": 66998, "income": 69897, "revenue": 69897}, {"ein": "160953428", "name": "SMACNA BUFFALO INC", "city": "CHEEKTOWAGA", "state": "NY", "zip": "14227-1816", "ntee": "", "ruling": "196811", "deductibility": "2", "assets": 11459, "income": 70000, "revenue": 70000}, {"ein": "160970626", "name": "SMACNA ROCHESTER INC", "city": "ROCHESTER", "state": "NY", "zip": "14625-2837", "ntee": "", "ruling": "197009", "deductibility": "2", "assets": 843207, "income": 362751, "revenue": 335430}, {"ein": "237002801", "name": "SMACNA OF LONG ISLAND INC", "city": "BOHEMIA", "state": "NY", "zip": "11716-2711", "ntee": "Z99Z", "ruling": "196811", "deductibility": "2", "assets": 1481884, "income": 1210459, "revenue": 536002}], "SOANES": [{"ein": "133624437", "name": "SIR JOHN SOANES MUSEUM FOUNDATION", "city": "NEW YORK", "state": "NY", "zip": "10271-0033", "ntee": "A115", "ruling": "199110", "deductibility": "1", "assets": 1237100, "income": 817846, "revenue": 650201}], "UNIVERSTY": [{"ein": "133634775", "name": "UNIVERSTY COLLEGE LONDON FRIENDS AND ALUMNI ASSOCIATION INC", "city": "NEW YORK", "state": "NY", "zip": "10019-4703", "ntee": "Q300", "ruling": "199209", "deductibility": "1", "assets": 12789536, "income": 4413568, "revenue": 1677053}], "OMI": [{"ein": "133641616", "name": "ART OMI INC", "city": "GHENT", "state": "NY", "zip": "12075-3809", "ntee": "Q210", "ruling": "199301", "deductibility": "1", "assets": 42410957, "income": 9315379, "revenue": 3890761}, {"ein": "884167493", "name": "ART OMI PAVILIONS AT CHATHAM INC", "city": "NEW YORK", "state": "NY", "zip": "10003-4301", "ntee": "A20", "ruling": "202303", "deductibility": "1", "assets": 5885532, "income": 5874100, "revenue": 0}], "MKOR": [{"ein": "133960706", "name": "CONGREGATION MKOR HARFILOTH INC", "city": "SPRING VALLEY", "state": "NY", "zip": "10977-1931", "ntee": "X30", "ruling": "199907", "deductibility": "1", "assets": 0, "income": 0, "revenue": 0}], "MALAYALEE": [{"ein": "133993253", "name": "MALAYALEE ASSOCIATION OF STATEN ISLAND INC", "city": "STATEN ISLAND", "state": "NY", "zip": "10314-1099", "ntee": "A20", "ruling": "202111", "deductibility": "1", "assets": 0, "income": 0, "revenue": 0}, {"ein": "141762091", "name": "THE CAPITAL DISTRICT MALAYALEE ASSOCIATION INC", "city": "ALBANY", "state": "NY", "zip": "12205-5283", "ntee": "A23", "ruling": "201501", "deductibility": "1", "assets": 0, "income": 0, "revenue": 0}, {"ein": "263081631", "name": "MALAYALEE ASSOCIATION OF ROCKLAND COUNTY INC", "city": "VLY COTTAGE", "state": "NY", "zip": "10989-0027", "ntee": "B90", "ruling": "201103", "deductibility": "2", "assets": 0, "income": 0, "revenue": 0}, {"ein": "320247547", "name": "FEDERATION OF MALAYALEE ASSOCIATIONS OF AMERICAS FOMAA", "city": "BELLEROSE", "state": "NY", "zip": "11426-1737", "ntee": "Q30", "ruling": "200911", "deductibility": "1", "assets": 45762, "income": 79097, "revenue": 79097}, {"ein": "813829108", "name": "MALAYALEE ASSOCIATION OF WESTCHESTER INC", "city": "HAWTHORNE", "state": "NY", "zip": "10532-1913", "ntee": "P51", "ruling": "201609", "deductibility": "1", "assets": 136290, "income": 40244, "revenue": 40244}, {"ein": "842202880", "name": "WHITE PLAINS MALAYALEE ASSOCIATION INC", "city": "VALHALLA", "state": "NY", "zip": "10595-1118", "ntee": "K30", "ruling": "201907", "deductibility": "1", "assets": 0, "income": 0, "revenue": 0}, {"ein": "853301616", "name": "AMERICAN MALAYALEE LAW ENFORCEMENT UNITED INC", "city": "BELLMORE", "state": "NY", "zip": "11710-0546", "ntee": "W01", "ruling": "202101", "deductibility": "1", "assets": 2030, "income": 38807, "revenue": 38807}, {"ein": "862391994", "name": "WORLD MALAYALEE COUNCIL AMERICA REGION INC", "city": "EAST MEADOW", "state": "NY", "zip": "11554-3021", "ntee": "A23", "ruling": "202202", "deductibility": "1", "assets": 6272, "income": 60617, "revenue": 60617}], "DIVRIE": [{"ein": "133996981", "name": "CONGREGATION DIVRIE TZEDEK", "city": "TALLMAN", "state": "NY", "zip": "10982-0566", "ntee": "X30Z", "ruling": "199805", "deductibility": "1", "assets": 0, "income": 0, "revenue": 0}, {"ein": "264422137", "name": "CONGREGATION CAMP DIVRIE YOEL OF YESHIVA GEDOLA DSATMAR INC", "city": "BROOKLYN", "state": "NY", "zip": "11211-0000", "ntee": "X30", "ruling": "201110", "deductibility": "1", "assets": 0, "income": 0, "revenue": 0}], "TOFF": [{"ein": "134004905", "name": "BLUTHENTHAL-TOFF FAMILY FOUNDATION", "city": "NEW YORK", "state": "NY", "zip": "10075-1011", "ntee": "T30Z", "ruling": "199807", "deductibility": "1", "assets": 235359, "income": 285684, "revenue": 0}], "NISSIM": [{"ein": "134086914", "name": "ESMOND NISSIM FOUNDATION INC", "city": "BRONXVILLE", "state": "NY", "zip": "10708-4134", "ntee": "T22", "ruling": "200008", "deductibility": "1", "assets": 46287, "income": 41263, "revenue": 0}, {"ein": "461127083", "name": "AMERICAN FRIENDS OF CHACHAM NISSIM COHEN OF ARGENTINA", "city": "BROOKLYN", "state": "NY", "zip": "11230-6605", "ntee": "T30", "ruling": "201606", "deductibility": "1", "assets": 6774, "income": 44155, "revenue": 44155}, {"ein": "462342536", "name": "CONGREGATION NISSIM VE AHARON", "city": "BROOKLYN", "state": "NY", "zip": "11229-4304", "ntee": "X30", "ruling": "201506", "deductibility": "1", "assets": 0, "income": 0, "revenue": 0}], "EGBE": [{"ein": "134103638", "name": "EGBE OMO YORUBA NEW YORK CHAPTER INC", "city": "STATEN ISLAND", "state": "NY", "zip": "10301-2708", "ntee": "A23", "ruling": "202008", "deductibility": "1", "assets": 0, "income": 0, "revenue": 0}, {"ein": "204135646", "name": "EGBE IWA ODO KUNRIN EGBE IWA ODO BINRIN INC", "city": "BROOKLYN", "state": "NY", "zip": "11221-8860", "ntee": "O55", "ruling": "202110", "deductibility": "1", "assets": 0, "income": 0, "revenue": 0}, {"ein": "320146096", "name": "EGBE OMO YORUBA GREATER NEW YORK CHAPTER INC", "city": "ELMONT", "state": "NY", "zip": "11003-7038", "ntee": "A01", "ruling": "202410", "deductibility": "1", "assets": 0, "income": 0, "revenue": 0}, {"ein": "333264517", "name": "EGBE AGBELEBU TI OSHE INC", "city": "BRONX", "state": "NY", "zip": "10456-3369", "ntee": "X99", "ruling": "202502", "deductibility": "1", "assets": 0, "income": 0, "revenue": 0}, {"ein": "550814999", "name": "EGBE IFA ALAFIN", "city": "QUEENS", "state": "NY", "zip": "11429-2168", "ntee": "X90", "ruling": "200510", "deductibility": "1", "assets": 0, "income": 0, "revenue": 0}, {"ein": "921367620", "name": "EGBE OMO USI INC", "city": "STATEN ISLAND", "state": "NY", "zip": "10301-1363", "ntee": "S50", "ruling": "202301", "deductibility": "1", "assets": 2104, "income": 1400, "revenue": 0}], "ENDOWMENTINC": [{"ein": "135596791", "name": "JICUF ENDOWMENTINC", "city": "NEW YORK", "state": "NY", "zip": "10115-0090", "ntee": "B110", "ruling": "195105", "deductibility": "1", "assets": 44192319, "income": 11161676, "revenue": 4761285}], "SEID": [{"ein": "136134595", "name": "SEID CARRO FAMILY FOUNDATION", "city": "NEW YORK", "state": "NY", "zip": "10019-5124", "ntee": "", "ruling": "196404", "deductibility": "1", "assets": 164849, "income": 10211, "revenue": 0}], "YADDO": [{"ein": "141343055", "name": "CORPORATION OF YADDO", "city": "SARATOGA SPGS", "state": "NY", "zip": "12866-6420", "ntee": "A900", "ruling": "197910", "deductibility": "1", "assets": 53313056, "income": 50361255, "revenue": 3190547}], "KEESEVILLE": [{"ein": "141364625", "name": "THE ROMAN CATHOLIC COMMUNITY OF KEESEVILLE", "city": "AU SABLE FRKS", "state": "NY", "zip": "12912-0719", "ntee": "", "ruling": "194603", "deductibility": "1", "assets": 0, "income": 0, "revenue": 0}, {"ein": "141392212", "name": "KEESEVILLE FREE LIBRARY", "city": "KEESEVILLE", "state": "NY", "zip": "12944-3619", "ntee": "", "ruling": "195303", "deductibility": "1", "assets": 199964, "income": 92520, "revenue": 92520}, {"ein": "141545731", "name": "KEESEVILLE MEMORIAL POST 1505 VETERANS OF FOREIGN WARS OF THE", "city": "KEESEVILLE", "state": "NY", "zip": "12944-0308", "ntee": "W30", "ruling": "201503", "deductibility": "1", "assets": 0, "income": 329108, "revenue": 115271}, {"ein": "141604891", "name": "KEESEVILLE GOOD SHEPHERD CHURCH OF THE NAZARENE", "city": "KEESEVILLE", "state": "NY", "zip": "12944-4158", "ntee": "", "ruling": "196307", "deductibility": "1", "assets": 0, "income": 0, "revenue": 0}, {"ein": "300778045", "name": "KEESEVILLE VOLUNTEER FIRE DEPARTMENT", "city": "KEESEVILLE", "state": "NY", "zip": "12944-1116", "ntee": "M24", "ruling": "202204", "deductibility": "1", "assets": 0, "income": 0, "revenue": 0}, {"ein": "823536686", "name": "KEESEVILLE COMMUNITY DEVELOPMENT CORPORATION", "city": "MAMARONECK", "state": "NY", "zip": "10543-2516", "ntee": "S99", "ruling": "201712", "deductibility": "1", "assets": 0, "income": 0, "revenue": 0}, {"ein": "920789320", "name": "FRIENDS OF KEESEVILLE INC", "city": "MAMARONECK", "state": "NY", "zip": "10543-2516", "ntee": "W99", "ruling": "202211", "deductibility": "1", "assets": 0, "income": 0, "revenue": 0}], "STADIUM": [{"ein": "141979116", "name": "THE NEW YANKEE STADIUM COMMUNITY BENEFITS FUND INC", "city": "BRONX", "state": "NY", "zip": "10455-0000", "ntee": "T21", "ruling": "200709", "deductibility": "1", "assets": 454941, "income": 835000, "revenue": 0}, {"ein": "821502345", "name": "MAJESTY STADIUM INTERNATIONAL MINISTRY INC", "city": "BRONX", "state": "NY", "zip": "10457-3646", "ntee": "X99", "ruling": "201705", "deductibility": "1", "assets": 0, "income": 0, "revenue": 0}, {"ein": "831793744", "name": "ROGERS STADIUM PHYSICAL CULTURAL SP ORTING CLUB", "city": "YONKERS", "state": "NY", "zip": "10710-1033", "ntee": "B90", "ruling": "202402", "deductibility": "1", "assets": 0, "income": 0, "revenue": 0}, {"ein": "883010171", "name": "STADIUM AND MAIN FOUNDATION INC", "city": "NEW YORK", "state": "NY", "zip": "10022-5803", "ntee": "N99", "ruling": "202209", "deductibility": "1", "assets": 16297, "income": 77532, "revenue": 77532}], "LAMONT": [{"ein": "150564077", "name": "LAMONT MEMORIAL FREE LIBRARY", "city": "MCGRAW", "state": "NY", "zip": "13101-0559", "ntee": "B70", "ruling": "200006", "deductibility": "1", "assets": 549222, "income": 196339, "revenue": 74508}, {"ein": "994815259", "name": "FRIENDS OF THE LAMONT MEMORIAL FREE LIBRARY INC", "city": "MCGRAW", "state": "NY", "zip": "13101-7701", "ntee": "B11", "ruling": "202410", "deductibility": "1", "assets": 0, "income": 0, "revenue": 0}], "SHEA": [{"ein": "156015718", "name": "JOHN T SHEA TR UW RESIDUARY TR K-A JOHN T & MINA SHEA MEMRL FUND", "city": "NORWICH", "state": "NY", "zip": "13815-0000", "ntee": "", "ruling": "197012", "deductibility": "1", "assets": 496203, "income": 49958, "revenue": 0}, {"ein": "844189291", "name": "SHEA TREE CENTER", "city": "GARRISON", "state": "NY", "zip": "10524-3733", "ntee": "P50", "ruling": "202103", "deductibility": "1", "assets": 0, "income": 0, "revenue": 0}, {"ein": "883766118", "name": "NOREEN A SHEA MEMORIAL FOUNDATION", "city": "BROOKLYN", "state": "NY", "zip": "11229-2412", "ntee": "N62", "ruling": "202306", "deductibility": "1", "assets": 0, "income": 0, "revenue": 0}], "PAYNTER": [{"ein": "161097882", "name": "PAYNTER SENIOR CENTER INC", "city": "CLAYTON", "state": "NY", "zip": "13624-1410", "ntee": "P81Z", "ruling": "198104", "deductibility": "1", "assets": 145008, "income": 114426, "revenue": 96889}], "OUNDATION": [{"ein": "161487962", "name": "BUFFALO HEARING AND SPEECH CENTER F OUNDATION INC", "city": "BUFFALO", "state": "NY", "zip": "14203-1002", "ntee": "T20I", "ruling": "199704", "deductibility": "1", "assets": 2216029, "income": 622799, "revenue": 492828}], "CUVELIER": [{"ein": "166490063", "name": "ELINOR M CUVELIER RVOC LIVING TR AND FAMILY FOUNDATION", "city": "SODUS", "state": "NY", "zip": "14551-0188", "ntee": "T20", "ruling": "200901", "deductibility": "1", "assets": 2049377, "income": 584112, "revenue": 0}, {"ein": "266157257", "name": "LA FONDATION CUVELIER", "city": "NEW YORK", "state": "NY", "zip": "10014-3480", "ntee": "T22", "ruling": "200912", "deductibility": "1", "assets": 3380091, "income": 1164080, "revenue": 0}], "VYOM": [{"ein": "200780201", "name": "CROWN HEIGHTS CHEVRA SIMCHAS SHABBOS VYOM TOV INC", "city": "BROOKLYN", "state": "NY", "zip": "11225-3130", "ntee": "T30", "ruling": "200405", "deductibility": "1", "assets": 1084715, "income": 3826150, "revenue": 3826150}], "FUD": [{"ein": "202108716", "name": "YAKOV BEN MEIR THEDAKAH FUD INC", "city": "REGO PARK", "state": "NY", "zip": "11374-4256", "ntee": "P60", "ruling": "200502", "deductibility": "1", "assets": 0, "income": 0, "revenue": 0}], "AZURE": [{"ein": "203325898", "name": "AZURE MOUNTAIN FRIENDS", "city": "POTSDAM", "state": "NY", "zip": "13676-2303", "ntee": "A80", "ruling": "200605", "deductibility": "1", "assets": 0, "income": 0, "revenue": 0}], "MATAT": [{"ein": "204266983", "name": "MATAT MORDECHAI", "city": "BROOKLYN", "state": "NY", "zip": "11204-1608", "ntee": "T30", "ruling": "200804", "deductibility": "1", "assets": 997364, "income": 783533, "revenue": 783533}], "DEGLI": [{"ein": "205111564", "name": "CONFEDERAZIONE DEGLI IMPRENDITORI ITALIANI NEL MONDO USA", "city": "NEW YORK", "state": "NY", "zip": "10118-0000", "ntee": "S41", "ruling": "200801", "deductibility": "2", "assets": 180, "income": 0, "revenue": 0}], "BETHRAPHA": [{"ein": "205133142", "name": "BETHRAPHA MINISTRIES INC", "city": "JAMAICA", "state": "NY", "zip": "11431-0987", "ntee": "X21", "ruling": "200704", "deductibility": "1", "assets": 0, "income": 0, "revenue": 0}], "MOSHOLUMONTEFIORE": [{"ein": "208017249", "name": "BOYS AND GIRLS CLUB OF MOSHOLUMONTEFIORE COMMUNITY CENTER INC", "city": "BRONX", "state": "NY", "zip": "10467-2302", "ntee": "", "ruling": "200701", "deductibility": "1", "assets": 2815455, "income": 688102, "revenue": 688102}], "BLESSEDTRINITY": [{"ein": "208153743", "name": "CATHOLIC COMMUNITY OF THE BLESSEDTRINITY OF WOLCOTT NY", "city": "WOLCOTT", "state": "NY", "zip": "14590-1133", "ntee": "", "ruling": "194603", "deductibility": "1", "assets": 0, "income": 0, "revenue": 0}], "FIREMANSBENEVOLET": [{"ein": "208510047", "name": "VOLUNTEER AND EXEMPT FIREMANSBENEVOLET ASSOCIATION OF NORTH MERR", "city": "MERRICK", "state": "NY", "zip": "11566-2732", "ntee": "Y99", "ruling": "200807", "deductibility": "2", "assets": 1437704, "income": 71148, "revenue": 71148}], "DUFFIELD": [{"ein": "208709242", "name": "DUFFIELD CAMP AND RETREAT CENTER INC", "city": "BUFFALO", "state": "NY", "zip": "14217-0055", "ntee": "X21", "ruling": "200709", "deductibility": "1", "assets": 269112, "income": 62681, "revenue": 62681}, {"ein": "651221000", "name": "12 DUFFIELD GLEN SEATOR FOUNDATION", "city": "NEW YORK", "state": "NY", "zip": "10016-8711", "ntee": "A25", "ruling": "200410", "deductibility": "1", "assets": 0, "income": 0, "revenue": 0}], "READE": [{"ein": "216014506", "name": "WALTER READE FOUNDATION INC", "city": "NEW YORK", "state": "NY", "zip": "10019-0000", "ntee": "", "ruling": "195105", "deductibility": "1", "assets": 792482, "income": 676273, "revenue": 0}], "FOLKSINGING": [{"ein": "222197159", "name": "GOLDEN LINK FOLKSINGING SOCIETY INC", "city": "ROCHESTER", "state": "NY", "zip": "14692-0398", "ntee": "", "ruling": "197809", "deductibility": "1", "assets": 0, "income": 0, "revenue": 0}], "DIAGN": [{"ein": "223327692", "name": "THE NEW YORK UPSTATE SECTION OF THE ASSOC FOR DIAGN & LAB MEDICINE INC", "city": "PITTSFORD", "state": "NY", "zip": "14534-4201", "ntee": "B03", "ruling": "199507", "deductibility": "1", "assets": 0, "income": 0, "revenue": 0}], "DUNWALKE": [{"ein": "237043773", "name": "CLARENCE AND ANNE DILLON DUNWALKE TRUST", "city": "NEW YORK", "state": "NY", "zip": "10016-0000", "ntee": "", "ruling": "196911", "deductibility": "1", "assets": 28928455, "income": 13300363, "revenue": 0}], "RELIANT": [{"ein": "237107645", "name": "RELIANT COMMUNITY FEDERAL CREDIT UNION", "city": "SODUS", "state": "NY", "zip": "14551-0040", "ntee": "", "ruling": "000000", "deductibility": "0", "assets": 0, "income": 0, "revenue": 0}], "IATRY": [{"ein": "237196352", "name": "WILLIAM ALANSON WHITE INST OF PSYCH IATRY PSYCHOANALYSIS & PSYCHOLOGY", "city": "NEW YORK", "state": "NY", "zip": "10023-2401", "ntee": "B84Z", "ruling": "197209", "deductibility": "1", "assets": 170799, "income": 95212, "revenue": 95212}], "MILLENNIAL": [{"ein": "237286600", "name": "MILLENNIAL KINGDOM FAMILY CHURCH INC", "city": "HYDE PARK", "state": "NY", "zip": "12538-1123", "ntee": "", "ruling": "197411", "deductibility": "1", "assets": 0, "income": 0, "revenue": 0}, {"ein": "812747623", "name": "MILLENNIAL ENERGY PROJECT", "city": "BRONX", "state": "NY", "zip": "10475-2802", "ntee": "C35", "ruling": "201612", "deductibility": "1", "assets": 0, "income": 0, "revenue": 0}, {"ein": "841935765", "name": "MILLENNIAL SCNCE", "city": "BALDWIN", "state": "NY", "zip": "11510-0577", "ntee": "B90", "ruling": "202106", "deductibility": "1", "assets": 0, "income": 0, "revenue": 0}, {"ein": "933493567", "name": "MILLENNIAL HIJRAH", "city": "CHEEKTOWAGA", "state": "NY", "zip": "14211-2600", "ntee": "X40", "ruling": "202312", "deductibility": "1", "assets": 0, "income": 0, "revenue": 0}], "ORD": [{"ein": "237373227", "name": "MILITARY AND HOSPITALLER ORD OF ST LAZARUS OF JERUSALEM GPA-ATLANTIC", "city": "NEW YORK", "state": "NY", "zip": "10021-4534", "ntee": "E20", "ruling": "197410", "deductibility": "1", "assets": 0, "income": 0, "revenue": 0}], "SOCHOCHOW": [{"ein": "237375779", "name": "CONGREGATION ADATH SOCHOCHOW", "city": "BROOKLYN", "state": "NY", "zip": "11218-3613", "ntee": "", "ruling": "197406", "deductibility": "1", "assets": 0, "income": 0, "revenue": 0}], "RULERS": [{"ein": "260775411", "name": "RULERS ASSEMBLY MINISTRIES INC", "city": "WHITE PLAINS", "state": "NY", "zip": "10607-2030", "ntee": "X21", "ruling": "200807", "deductibility": "1", "assets": 0, "income": 0, "revenue": 0}], "DS": [{"ein": "261344106", "name": "3 DS AFTERCARE INC", "city": "BALDWIN", "state": "NY", "zip": "11510-3331", "ntee": "B99", "ruling": "201405", "deductibility": "1", "assets": 71334, "income": 542575, "revenue": 542575}, {"ein": "320518753", "name": "TONY DS T I E TAKE IT EASE CHARITIES INC", "city": "ROCHESTER", "state": "NY", "zip": "14624-4704", "ntee": "T11", "ruling": "201710", "deductibility": "1", "assets": 0, "income": 0, "revenue": 0}, {"ein": "616293719", "name": "A&DS FOUNDATION INC", "city": "NEW YORK", "state": "NY", "zip": "10123-4299", "ntee": "T22", "ruling": "201505", "deductibility": "1", "assets": 124245, "income": 2242, "revenue": 0}, {"ein": "852449955", "name": "BIG DS BIG DOG REHAB INC", "city": "CORTLANDT MNR", "state": "NY", "zip": "10567-4217", "ntee": "D99", "ruling": "202102", "deductibility": "1", "assets": 0, "income": 0, "revenue": 0}], "BRYCE": [{"ein": "261405409", "name": "BRYCE FAMILY FOUNDATION", "city": "SKANEATELES", "state": "NY", "zip": "13152-8901", "ntee": "T20", "ruling": "200805", "deductibility": "1", "assets": 896393, "income": 99868, "revenue": 0}, {"ein": "463786601", "name": "BRYCE BUCHHOLZ FUND INC", "city": "NEWFANE", "state": "NY", "zip": "14108-0000", "ntee": "T30", "ruling": "201408", "deductibility": "1", "assets": 0, "income": 0, "revenue": 0}], "EMPOWERING": [{"ein": "261533150", "name": "KEEP EMPOWERING YOUTH ACHIEVEMENTS KEYA", "city": "VALLEY STREAM", "state": "NY", "zip": "11581-3215", "ntee": "A40", "ruling": "201004", "deductibility": "1", "assets": 0, "income": 0, "revenue": 0}, {"ein": "270453133", "name": "EMPOWERING PRODUCTIONS", "city": "NEW YORK", "state": "NY", "zip": "10040-3613", "ntee": "F20", "ruling": "200911", "deductibility": "1", "assets": 0, "income": 0, "revenue": 0}, {"ein": "270781604", "name": "EMPOWERING OUR COMMUNITY MINISTRIES INC", "city": "BROOKLYN", "state": "NY", "zip": "11216-3267", "ntee": "X20", "ruling": "201004", "deductibility": "1", "assets": 0, "income": 0, "revenue": 0}, {"ein": "272246317", "name": "EMPOWERING YOUTH TOWARDS EXCELLENCE", "city": "VALLEY STREAM", "state": "NY", "zip": "11580-3403", "ntee": "Z99", "ruling": "201407", "deductibility": "1", "assets": 8111, "income": 124231, "revenue": 124231}, {"ein": "331656669", "name": "KITAMBAA EMPOWERING WOMEN INC", "city": "NEW YORK", "state": "NY", "zip": "10029-5636", "ntee": "W99", "ruling": "202411", "deductibility": "1", "assets": 0, "income": 0, "revenue": 0}, {"ein": "331740188", "name": "EMPOWERING DIVERSE ENTERPRISES INC", "city": "BROOKLYN", "state": "NY", "zip": "11212-1135", "ntee": "T12", "ruling": "202502", "deductibility": "1", "assets": 0, "income": 0, "revenue": 0}, {"ein": "352798839", "name": "EMPOWERING WOMEN INC", "city": "ALBANY", "state": "NY", "zip": "12207-2834", "ntee": "P12", "ruling": "202305", "deductibility": "1", "assets": 0, "income": 0, "revenue": 0}, {"ein": "454940453", "name": "EMPOWERING OURSELVES", "city": "BROOKLYN", "state": "NY", "zip": "11221-6996", "ntee": "O50", "ruling": "201207", "deductibility": "1", "assets": 0, "income": 0, "revenue": 0}, {"ein": "463363294", "name": "EMPOWERING U2 SUCSEED INC", "city": "WOODHAVEN", "state": "NY", "zip": "11421-6185", "ntee": "P99", "ruling": "201407", "deductibility": "1", "assets": 0, "income": 0, "revenue": 0}, {"ein": "463612066", "name": "EMPOWERING WORD INC", "city": "JAMAICA", "state": "NY", "zip": "11436-1525", "ntee": "X20", "ruling": "201509", "deductibility": "1", "assets": 0, "income": 0, "revenue": 0}, {"ein": "465651573", "name": "EMPOWERING PASTORS INC", "city": "BIG FLATS", "state": "NY", "zip": "14814-8902", "ntee": "X99", "ruling": "201408", "deductibility": "1", "assets": 0, "income": 0, "revenue": 0}, {"ein": "472414375", "name": "SASHAKTI EMPOWERING PEOPLE INC", "city": "BRONX", "state": "NY", "zip": "10461-1106", "ntee": "P20", "ruling": "202305", "deductibility": "1", "assets": 0, "income": 0, "revenue": 0}, {"ein": "473498026", "name": "EMPOWERING DEVELOPMENT PROJECT INC", "city": "BROOKLYN", "state": "NY", "zip": "11218-3733", "ntee": "J22", "ruling": "201806", "deductibility": "1", "assets": 0, "income": 0, "revenue": 0}, {"ein": "473783569", "name": "HUMAN SKILLS DEVELOPMENT AND EMPOWERING BY OUMOU INC", "city": "NEW YORK", "state": "NY", "zip": "10026-4351", "ntee": "X40", "ruling": "201504", "deductibility": "1", "assets": 0, "income": 0, "revenue": 0}, {"ein": "812447008", "name": "EMPOWERING COMMUNITY LIVES INC", "city": "BRENTWOOD", "state": "NY", "zip": "11717-7000", "ntee": "P20", "ruling": "202309", "deductibility": "1", "assets": 20643, "income": 60900, "revenue": 53877}, {"ein": "815427057", "name": "EMPOWERING YOUNG MINDS WITHIN INC", "city": "MILLER PLACE", "state": "NY", "zip": "11764-3045", "ntee": "P20", "ruling": "201707", "deductibility": "1", "assets": 0, "income": 0, "revenue": 0}, {"ein": "822042167", "name": "ESTHER - EMPOWERING SISTERS TO HAVE ENRICHING RELATIONSHIPS - PROJECT", "city": "AMHERST", "state": "NY", "zip": "14226-4169", "ntee": "P80", "ruling": "201801", "deductibility": "1", "assets": 0, "income": 0, "revenue": 0}, {"ein": "823961034", "name": "EMPOWERING YOUTH 2 EXCEL INC", "city": "ALBANY", "state": "NY", "zip": "12203-3318", "ntee": "W99", "ruling": "201803", "deductibility": "1", "assets": 0, "income": 0, "revenue": 0}, {"ein": "834678250", "name": "EMPOWERING FOR CHANGE FOUNDATION INC", "city": "WYANDANCH", "state": "NY", "zip": "11798-1027", "ntee": "S20", "ruling": "202003", "deductibility": "1", "assets": 0, "income": 0, "revenue": 0}, {"ein": "842510514", "name": "EMPOWERING STUDENTS OF DANCE", "city": "NISKAYUNA", "state": "NY", "zip": "12309-3019", "ntee": "A62", "ruling": "201908", "deductibility": "1", "assets": 0, "income": 0, "revenue": 0}, {"ein": "843970728", "name": "EMPOWERING ECONOMIC GROWTH FOUNDATION", "city": "NEW YORK", "state": "NY", "zip": "10011-9901", "ntee": "T23", "ruling": "202008", "deductibility": "1", "assets": 5018332, "income": 4000807, "revenue": 0}, {"ein": "872553197", "name": "EMPOWERING PARTNERS INC", "city": "BARNEVELD", "state": "NY", "zip": "13304-1927", "ntee": "X20", "ruling": "202207", "deductibility": "1", "assets": 111527, "income": 137592, "revenue": 137592}, {"ein": "874306541", "name": "GROWING AND EMPOWERING MYSELF AND MY SISTERS", "city": "WAPPINGERS FL", "state": "NY", "zip": "12590-7016", "ntee": "P30", "ruling": "202505", "deductibility": "1", "assets": 0, "income": 0, "revenue": 0}, {"ein": "880978971", "name": "EMPOWERING YOUTH FULL CIRCLE INC", "city": "DEER PARK", "state": "NY", "zip": "11729-4902", "ntee": "A23", "ruling": "202303", "deductibility": "1", "assets": 186, "income": 12627, "revenue": 12627}, {"ein": "881064992", "name": "CREATING HEALTHY EMPOWERING RELATIONSHIPS IN SISTERHOOD INC", "city": "ALBANY", "state": "NY", "zip": "12207-2922", "ntee": "P20", "ruling": "202207", "deductibility": "1", "assets": 0, "income": 0, "revenue": 0}, {"ein": "882551476", "name": "EMPOWERING ARTISTS WITH DISABILITIES INC", "city": "LEVITTOWN", "state": "NY", "zip": "11756-1551", "ntee": "A90", "ruling": "202208", "deductibility": "1", "assets": 2940, "income": 18282, "revenue": 18282}, {"ein": "882632561", "name": "EMPOWERING TECH FOR HUTCH TECH", "city": "BUFFALO", "state": "NY", "zip": "14222-1712", "ntee": "B90", "ruling": "202208", "deductibility": "1", "assets": 0, "income": 0, "revenue": 0}, {"ein": "923814173", "name": "RAMOS EMPOWERING PEOPLE WITH ESSENTIAL SERVICES REPWES", "city": "BRONX", "state": "NY", "zip": "10473-3023", "ntee": "B01", "ruling": "202307", "deductibility": "1", "assets": 0, "income": 0, "revenue": 0}, {"ein": "931836345", "name": "EMPOWERING EDUCATION INC", "city": "OCEANSIDE", "state": "NY", "zip": "11572-4602", "ntee": "B90", "ruling": "202306", "deductibility": "1", "assets": 0, "income": 0, "revenue": 0}, {"ein": "931913753", "name": "EMPOWERING WOMEN SOULS INC", "city": "ROCHESTER", "state": "NY", "zip": "14615-3304", "ntee": "P62", "ruling": "202406", "deductibility": "1", "assets": 0, "income": 0, "revenue": 0}, {"ein": "932331561", "name": "EMPOWERING AND EQUIPPING THE CHOSEN", "city": "NYACK", "state": "NY", "zip": "10960-1734", "ntee": "P42", "ruling": "202405", "deductibility": "1", "assets": 0, "income": 0, "revenue": 0}, {"ein": "991065165", "name": "EMPOWERING WOMEN AND YOUNG GIRL SERVICE CENTER", "city": "STATEN ISLAND", "state": "NY", "zip": "10304-3532", "ntee": "P80", "ruling": "202402", "deductibility": "1", "assets": 0, "income": 0, "revenue": 0}, {"ein": "991350296", "name": "EMPOWERING HUMANITY INC", "city": "SYOSSET", "state": "NY", "zip": "11791-6322", "ntee": "Z99", "ruling": "202404", "deductibility": "1", "assets": 0, "income": 0, "revenue": 0}, {"ein": "991383454", "name": "SPEAK A SUPPORTIVE PLACE FOR EMPOWERING ASIAN AMERICANS AND KIN", "city": "MOUNT KISCO", "state": "NY", "zip": "10549-7248", "ntee": "F05", "ruling": "202408", "deductibility": "1", "assets": 47727, "income": 88309, "revenue": 88309}, {"ein": "992969486", "name": "EMPOWERING IMPACT INC", "city": "SHOREHAM", "state": "NY", "zip": "11786-2359", "ntee": "T12", "ruling": "202405", "deductibility": "1", "assets": 0, "income": 0, "revenue": 0}, {"ein": "993130424", "name": "LEGACY EMPOWERING ADOLESCENT DEVELOPMENT CORPORATION", "city": "SCHENECTADY", "state": "NY", "zip": "12303-5401", "ntee": "O50", "ruling": "202405", "deductibility": "1", "assets": 0, "income": 0, "revenue": 0}], "TALEA": [{"ein": "263509934", "name": "TALEA ENSEMBLE INCORPORATED", "city": "BROOKLYN", "state": "NY", "zip": "11238-2211", "ntee": "A6C", "ruling": "200903", "deductibility": "1", "assets": 271035, "income": 394002, "revenue": 394002}], "SWINGTIME": [{"ein": "270689995", "name": "SWINGTIME JAZZ SOCIETY INC", "city": "SCHENECTADY", "state": "NY", "zip": "12306-3449", "ntee": "A68", "ruling": "201011", "deductibility": "1", "assets": 0, "income": 0, "revenue": 0}], "ESOPHAGEAL": [{"ein": "271275901", "name": "COHEN ESOPHAGEAL CANCER INITIATIVE INC", "city": "NEW YORK", "state": "NY", "zip": "10023-6946", "ntee": "G193", "ruling": "201003", "deductibility": "1", "assets": 0, "income": 0, "revenue": 0}], "EFRAIN": [{"ein": "271689118", "name": "IGLESIA EFRAIN PARA DIOS", "city": "BRONX", "state": "NY", "zip": "10454-4432", "ntee": "X30", "ruling": "201103", "deductibility": "1", "assets": 0, "income": 0, "revenue": 0}, {"ein": "876876677", "name": "EFRAIN AND MICHELE RIVERA FAMILY FOUNDATION", "city": "VICTOR", "state": "NY", "zip": "14564-1054", "ntee": "T22", "ruling": "202207", "deductibility": "1", "assets": 4685439, "income": 1436897, "revenue": 0}], "PISAPIA": [{"ein": "273087216", "name": "RYAN PISAPIA MEMORIAL FUND INC", "city": "STATEN ISLAND", "state": "NY", "zip": "10307-1229", "ntee": "O30", "ruling": "201110", "deductibility": "1", "assets": 0, "income": 0, "revenue": 0}], "KOSTKA": [{"ein": "273308141", "name": "ST STANISLAUS KOSTKA CATHOLIC ACADEMY", "city": "BROOKLYN", "state": "NY", "zip": "11222-0000", "ntee": "", "ruling": "194603", "deductibility": "1", "assets": 0, "income": 0, "revenue": 0}, {"ein": "831134202", "name": "ST STANISLAUS KOSTKA CATHOLIC ACADEMY OF QUEENS", "city": "MASPETH", "state": "NY", "zip": "11378-2826", "ntee": "", "ruling": "194603", "deductibility": "1", "assets": 0, "income": 0, "revenue": 0}], "INTEGRATE": [{"ein": "274152176", "name": "INTEGRATE AUTISM EMPLOYMENT ADVISORS INC", "city": "NEW YORK", "state": "NY", "zip": "10022-5596", "ntee": "P80", "ruling": "201105", "deductibility": "1", "assets": 386289, "income": 655917, "revenue": 655917}, {"ein": "934428506", "name": "INTEGRATE YOUR SOUL", "city": "BROOKLYN", "state": "NY", "zip": "11201-8525", "ntee": "F60", "ruling": "202311", "deductibility": "1", "assets": 0, "income": 0, "revenue": 0}], "DROPADI": [{"ein": "274374454", "name": "DROPADI JIGYASU ASHRAM INC", "city": "FLUSHING", "state": "NY", "zip": "11355-2152", "ntee": "X70", "ruling": "201311", "deductibility": "1", "assets": 0, "income": 0, "revenue": 0}], "IDONTKNOWMC": [{"ein": "274896203", "name": "IDONTKNOWMC INC", "city": "BOHEMIA", "state": "NY", "zip": "11716-3127", "ntee": "N50", "ruling": "201511", "deductibility": "2", "assets": 7203, "income": 28309, "revenue": 28309}], "STARRY": [{"ein": "311763109", "name": "STARRY NIGHT THEATRE INC", "city": "N TONAWANDA", "state": "NY", "zip": "14120-7209", "ntee": "A65", "ruling": "200106", "deductibility": "1", "assets": 65864, "income": 127876, "revenue": 124007}], "LATINA": [{"ein": "332894132", "name": "CONGRESO DE LA MUJER LATINA INC", "city": "HAMPTON BAYS", "state": "NY", "zip": "11946-2605", "ntee": "B90", "ruling": "202506", "deductibility": "1", "assets": 0, "income": 0, "revenue": 0}, {"ein": "471295926", "name": "LA UNIDAD LATINA SERVICE AND EDUCATION FUND INC", "city": "NEW YORK", "state": "NY", "zip": "10011-8436", "ntee": "B99", "ruling": "201408", "deductibility": "1", "assets": 0, "income": 0, "revenue": 0}, {"ein": "521891734", "name": "NATIONAL LATINA INSTITUTE FOR REPRODUCTIVE JUSTICE", "city": "NEW YORK", "state": "NY", "zip": "10038-4912", "ntee": "E014", "ruling": "199501", "deductibility": "1", "assets": 20992874, "income": 6715561, "revenue": 6715561}, {"ein": "522268102", "name": "LA UNIDAD LATINA FOUNDATION", "city": "NEW YORK", "state": "NY", "zip": "10017-4019", "ntee": "B82", "ruling": "202310", "deductibility": "1", "assets": 42238, "income": 55406, "revenue": 55406}, {"ein": "824303647", "name": "MISION LATINA DE ASCENSION", "city": "DEER PARK", "state": "NY", "zip": "11729-6601", "ntee": "", "ruling": "198804", "deductibility": "1", "assets": 0, "income": 0, "revenue": 0}, {"ein": "831907156", "name": "LA JOVEN GUARDIA DEL TEATRO Y LA DANZA LATINA INC", "city": "SYRACUSE", "state": "NY", "zip": "13202-2275", "ntee": "A20", "ruling": "201911", "deductibility": "1", "assets": 31549, "income": 51782, "revenue": 34818}, {"ein": "851031242", "name": "LATINA MOMS CONNECT INC", "city": "NORTH BABYLON", "state": "NY", "zip": "11703-1116", "ntee": "A23", "ruling": "202308", "deductibility": "1", "assets": 22220, "income": 51425, "revenue": 24815}, {"ein": "861953478", "name": "LATINA SISTERS SUPPORT INC", "city": "COMMACK", "state": "NY", "zip": "11725-3135", "ntee": "P20", "ruling": "202107", "deductibility": "1", "assets": 70118, "income": 165418, "revenue": 114483}, {"ein": "872582603", "name": "LATINA BUSINESS NETWORK OF NEW YORK INC", "city": "MASSAPEQUA PK", "state": "NY", "zip": "11762-1415", "ntee": "T03", "ruling": "202309", "deductibility": "1", "assets": 0, "income": 0, "revenue": 0}, {"ein": "933892579", "name": "CITY LIVING LATINA INC", "city": "NEW YORK", "state": "NY", "zip": "10018-9514", "ntee": "P20", "ruling": "202310", "deductibility": "1", "assets": 0, "income": 0, "revenue": 0}, {"ein": "990812498", "name": "INSPIRAME LATINA FOUNDATION INC", "city": "BLAUVELT", "state": "NY", "zip": "10913-1247", "ntee": "P01", "ruling": "202402", "deductibility": "1", "assets": 0, "income": 0, "revenue": 0}, {"ein": "992087802", "name": "INSPIRE LATINA INC", "city": "BRONX", "state": "NY", "zip": "10453-6997", "ntee": "B60", "ruling": "202404", "deductibility": "1", "assets": 0, "income": 0, "revenue": 0}], "ITHAQUA": [{"ein": "332909588", "name": "HOUSE OF ITHAQUA INC", "city": "ITHACA", "state": "NY", "zip": "14850-3444", "ntee": "A65", "ruling": "202502", "deductibility": "1", "assets": 0, "income": 0, "revenue": 0}], "SHANXIN": [{"ein": "333147774", "name": "SHANXIN PETS RESCUE INC", "city": "FLUSHING", "state": "NY", "zip": "11358-3156", "ntee": "D99", "ruling": "202502", "deductibility": "1", "assets": 0, "income": 0, "revenue": 0}], "EVERYBODY": [{"ein": "333569884", "name": "REASON EVERYBODY SAFE TRES INC", "city": "NEW YORK", "state": "NY", "zip": "10035-2005", "ntee": "O50", "ruling": "202503", "deductibility": "1", "assets": 0, "income": 0, "revenue": 0}, {"ein": "853416737", "name": "EVERYBODY EATS GLOBALLY INCORPORATED FOUNDATION", "city": "BROOKLYN", "state": "NY", "zip": "11223-2551", "ntee": "K30", "ruling": "202404", "deductibility": "1", "assets": 0, "income": 0, "revenue": 0}], "RESSORTISSANTS": [{"ein": "333735746", "name": "ASSOCIATION DES RESSORTISSANTS DE BEGUEDO EN AMERIQUE INC", "city": "BRONX", "state": "NY", "zip": "10453-3100", "ntee": "Q23", "ruling": "202505", "deductibility": "1", "assets": 0, "income": 0, "revenue": 0}], "DAHIRA": [{"ein": "334467779", "name": "DAHIRA EL HADJI MALICK SY NEW YORK INC", "city": "NEW YORK", "state": "NY", "zip": "10026-3593", "ntee": "X40", "ruling": "202506", "deductibility": "1", "assets": 0, "income": 0, "revenue": 0}], "EARS": [{"ein": "334979414", "name": "AEER ALL EYES AND EARS ON RACISM INC", "city": "ITHACA", "state": "NY", "zip": "14850-3128", "ntee": "R99", "ruling": "202506", "deductibility": "1", "assets": 0, "income": 0, "revenue": 0}], "RACISM": [{"ein": "334979414", "name": "AEER ALL EYES AND EARS ON RACISM INC", "city": "ITHACA", "state": "NY", "zip": "14850-3128", "ntee": "R99", "ruling": "202506", "deductibility": "1", "assets": 0, "income": 0, "revenue": 0}, {"ein": "651218069", "name": "ERASE RACISM INC", "city": "SYOSSET", "state": "NY", "zip": "11791-4401", "ntee": "R30", "ruling": "200410", "deductibility": "1", "assets": 425622, "income": 728968, "revenue": 657388}, {"ein": "842977552", "name": "COALITION FOR UNDERSTANDING RACISM THROUGH EDUCATION", "city": "LARCHMONT", "state": "NY", "zip": "10538-2437", "ntee": "B99", "ruling": "202104", "deductibility": "1", "assets": 0, "income": 0, "revenue": 0}, {"ein": "844819452", "name": "ANTI-RACISM PROJECT INC", "city": "ROCKVILLE CTR", "state": "NY", "zip": "11570-3129", "ntee": "R30", "ruling": "202003", "deductibility": "1", "assets": 94858, "income": 82179, "revenue": 82179}, {"ein": "852661025", "name": "IRONDEQUOIT ERASE ELIMINATING RACISM AND SEEKING EQUITY", "city": "ROCHESTER", "state": "NY", "zip": "14621-3014", "ntee": "R20", "ruling": "202012", "deductibility": "1", "assets": 0, "income": 0, "revenue": 0}, {"ein": "861487741", "name": "FOUNDATION AGAINST INTOLERANCE & RACISM INC", "city": "NEW YORK", "state": "NY", "zip": "10001-5666", "ntee": "R20", "ruling": "202303", "deductibility": "1", "assets": 812769, "income": 1016255, "revenue": 1016255}], "ITAC": [{"ein": "352574988", "name": "ITAC", "city": "ELMA", "state": "NY", "zip": "14059-9278", "ntee": "F21", "ruling": "202005", "deductibility": "1", "assets": 80535, "income": 238720, "revenue": 238720}], "CHAMPIONQU": [{"ein": "365001190", "name": "CHAMPIONQU INC", "city": "JAMAICA", "state": "NY", "zip": "11434-3624", "ntee": "B80", "ruling": "202412", "deductibility": "1", "assets": 0, "income": 0, "revenue": 0}], "MTREE": [{"ein": "452681641", "name": "MTREE INC", "city": "WOODBURY", "state": "NY", "zip": "11797-2507", "ntee": "A20", "ruling": "201301", "deductibility": "1", "assets": 16089, "income": 69784, "revenue": 69784}], "SICANA": [{"ein": "453091538", "name": "SICANA INC", "city": "NEW YORK", "state": "NY", "zip": "10017-7136", "ntee": "I51", "ruling": "201209", "deductibility": "1", "assets": 55034437, "income": 6583869, "revenue": 6583869}], "PARKTIVITY": [{"ein": "453598281", "name": "PARKTIVITY INC", "city": "ASTORIA", "state": "NY", "zip": "11106-4302", "ntee": "C30", "ruling": "201203", "deductibility": "1", "assets": 0, "income": 0, "revenue": 0}], "EIYNAYIM": [{"ein": "453845658", "name": "CONG MEOR EIYNAYIM INC", "city": "BROOKLYN", "state": "NY", "zip": "11211-8031", "ntee": "X30", "ruling": "201212", "deductibility": "1", "assets": 0, "income": 0, "revenue": 0}], "HWANG": [{"ein": "455089916", "name": "KAK HWANG ZEN CENTER", "city": "FLUSHING", "state": "NY", "zip": "11358-3651", "ntee": "X50", "ruling": "201306", "deductibility": "1", "assets": 220889, "income": 735431, "revenue": 735431}], "ORGANIZA": [{"ein": "461657874", "name": "EMERGENCY SHELTER NETWORK OF FAITH-BASED AND COMMUNITY ORGANIZA", "city": "NEW YORK", "state": "NY", "zip": "10036-7416", "ntee": "P20", "ruling": "201303", "deductibility": "1", "assets": 69562, "income": 58063, "revenue": 58063}], "AMERASIAN": [{"ein": "463396014", "name": "AMERASIAN RESEARCH NETWORK LTD", "city": "ALBANY", "state": "NY", "zip": "12205-1713", "ntee": "V05", "ruling": "201610", "deductibility": "1", "assets": 0, "income": 0, "revenue": 0}], "MUBARAK": [{"ein": "463964399", "name": "JAMAAT UL MUBARAK", "city": "STATEN ISLAND", "state": "NY", "zip": "10304-1921", "ntee": "", "ruling": "202309", "deductibility": "1", "assets": 0, "income": 0, "revenue": 0}, {"ein": "813789521", "name": "MASJID MUBARAK MUSLIM COMMUNITY CENTER INC", "city": "BRONX", "state": "NY", "zip": "10468-5228", "ntee": "O50", "ruling": "202006", "deductibility": "1", "assets": 0, "income": 0, "revenue": 0}], "USNSCC": [{"ein": "463990225", "name": "NEW YORK LPD-21 DIVISION USNSCC", "city": "BABYLON", "state": "NY", "zip": "11704-4549", "ntee": "O99", "ruling": "201503", "deductibility": "1", "assets": 0, "income": 0, "revenue": 0}, {"ein": "814063345", "name": "LT MICHAEL MURPHY DIVISION OF THE USNSCC", "city": "WEST SAYVILLE", "state": "NY", "zip": "11796-1908", "ntee": "O50", "ruling": "201701", "deductibility": "1", "assets": 0, "income": 0, "revenue": 0}], "PHYT": [{"ein": "464249147", "name": "PHYT CARES INC", "city": "NEW YORK", "state": "NY", "zip": "10022-2102", "ntee": "N50", "ruling": "201408", "deductibility": "1", "assets": 37457, "income": 119506, "revenue": 119506}], "ZAKARIA": [{"ein": "472054426", "name": "FAREED AND PAULA ZAKARIA FOUNDATION", "city": "NEW YORK", "state": "NY", "zip": "10025-4942", "ntee": "T90", "ruling": "201605", "deductibility": "1", "assets": 10705, "income": 25467, "revenue": 0}], "SABA": [{"ein": "472140227", "name": "SINGH SABA TEMPLE OF VESTAL NEW YORK INC", "city": "BINGHMATON", "state": "NY", "zip": "13901-3316", "ntee": "X20", "ruling": "201806", "deductibility": "1", "assets": 0, "income": 0, "revenue": 0}, {"ein": "993826269", "name": "MUNA AND SABA FOR CHARITY INC", "city": "LACKAWANNA", "state": "NY", "zip": "14218-2056", "ntee": "P20", "ruling": "202407", "deductibility": "1", "assets": 0, "income": 0, "revenue": 0}], "CONTINUED": [{"ein": "472555495", "name": "MACS SAFE RIDE CONTINUED INC", "city": "TUPPER LAKE", "state": "NY", "zip": "12986-2004", "ntee": "S20", "ruling": "201504", "deductibility": "1", "assets": 38733, "income": 15087, "revenue": 15087}], "POGAL": [{"ein": "472974897", "name": "MARISSA POGAL-SUSSMAN MESENCHYMAL CHONDROSARCOMA RESEARC", "city": "ROCHESTER", "state": "NY", "zip": "14618-4867", "ntee": "H30", "ruling": "201503", "deductibility": "1", "assets": 0, "income": 0, "revenue": 0}], "LWIRO": [{"ein": "473708814", "name": "FRIENDS OF LWIRO USA", "city": "OCEANSIDE", "state": "NY", "zip": "11572-2714", "ntee": "D11", "ruling": "201602", "deductibility": "1", "assets": 0, "income": 0, "revenue": 0}], "VEHAREV": [{"ein": "474205261", "name": "CONGREGATION VEHAREV", "city": "BROOKLYN", "state": "NY", "zip": "11249-7904", "ntee": "X30", "ruling": "201509", "deductibility": "1", "assets": 1628143, "income": 0, "revenue": 0}], "SONGSHOOTER": [{"ein": "474327237", "name": "SONGSHOOTER FOUNDATION CORP", "city": "NEW YORK", "state": "NY", "zip": "10002-3565", "ntee": "A31", "ruling": "202004", "deductibility": "1", "assets": 0, "income": 0, "revenue": 0}], "CLZ": [{"ein": "475549116", "name": "CLZ CHARITABLE FUND INC", "city": "SUFFERN", "state": "NY", "zip": "10901-2412", "ntee": "T12", "ruling": "201602", "deductibility": "1", "assets": 351, "income": 3000, "revenue": 0}], "SHLOIMA": [{"ein": "510173681", "name": "CONGREGATION BNAI SHLOIMA ZALMAN", "city": "BROOKLYN", "state": "NY", "zip": "11210-2845", "ntee": "", "ruling": "197601", "deductibility": "1", "assets": 0, "income": 0, "revenue": 0}, {"ein": "721589485", "name": "CONGREGATION MASMIDIM KEREM SHLOIMA INC", "city": "SPRING VALLEY", "state": "NY", "zip": "10977-4702", "ntee": "X30", "ruling": "200502", "deductibility": "1", "assets": 0, "income": 0, "revenue": 0}, {"ein": "852402376", "name": "CONGREGATION YERIAS SHLOIMA INC", "city": "SPRING VALLEY", "state": "NY", "zip": "10977-4744", "ntee": "X30", "ruling": "202105", "deductibility": "1", "assets": 0, "income": 0, "revenue": 0}], "CHRIPPLED": [{"ein": "527224365", "name": "SHRINERS HOSP FOR CHRIPPLED CHILDERN", "city": "BUFFALO", "state": "NY", "zip": "14240-1504", "ntee": "T22", "ruling": "200212", "deductibility": "1", "assets": 357053, "income": 108560, "revenue": 0}], "MANTEL": [{"ein": "571139392", "name": "OLCOTT MANTEL CLUB INC", "city": "OLCOTT", "state": "NY", "zip": "14126-0832", "ntee": "O50", "ruling": "200303", "deductibility": "1", "assets": 0, "income": 0, "revenue": 0}], "GAYATRI": [{"ein": "760840366", "name": "GAYATRI PARIWAR OF LONG ISLAND INC", "city": "DEER PARK", "state": "NY", "zip": "11729-2711", "ntee": "A23", "ruling": "200712", "deductibility": "1", "assets": 435070, "income": 54245, "revenue": 54245}, {"ein": "922688227", "name": "GAYATRI VEDIC HINDU CENTER INC", "city": "LEVITTOWN", "state": "NY", "zip": "11756-1315", "ntee": "X70", "ruling": "202412", "deductibility": "1", "assets": 0, "income": 0, "revenue": 0}], "THORNWILLOW": [{"ein": "810801936", "name": "THORNWILLOW INSTITUTE LTD", "city": "NEWBURGH", "state": "NY", "zip": "12551-0982", "ntee": "A20", "ruling": "201602", "deductibility": "1", "assets": 1068239, "income": 247415, "revenue": 247415}], "GLBT": [{"ein": "811231916", "name": "GLBT PROJECT INC", "city": "JAMAICA", "state": "NY", "zip": "11434-3436", "ntee": "R26", "ruling": "201607", "deductibility": "1", "assets": 0, "income": 0, "revenue": 0}], "ABBYS": [{"ein": "811794194", "name": "ABBYS PAWS FOR A CAUSE", "city": "ELMIRA", "state": "NY", "zip": "14905-1352", "ntee": "O99", "ruling": "201709", "deductibility": "1", "assets": 0, "income": 0, "revenue": 0}], "AMS": [{"ein": "812474814", "name": "AMS WOMEN BROOKLYN COUNSEL INC", "city": "BROOKLYN", "state": "NY", "zip": "11230-2313", "ntee": "S20", "ruling": "201607", "deductibility": "1", "assets": 0, "income": 0, "revenue": 0}, {"ein": "856577454", "name": "AMS TR", "city": "BROOKLYN", "state": "NY", "zip": "11219-5019", "ntee": "", "ruling": "202105", "deductibility": "1", "assets": 2740527, "income": 237847, "revenue": 0}], "RESISTANCE": [{"ein": "814884105", "name": "ART AND RESISTANCE THROUGH EDUCATION", "city": "BROOKLYN", "state": "NY", "zip": "11211-0082", "ntee": "A25", "ruling": "201706", "deductibility": "1", "assets": 56497, "income": 51396, "revenue": 50743}, {"ein": "993227449", "name": "ARTISTS IN RESISTANCE NYC", "city": "BROOKLYN", "state": "NY", "zip": "11216-4110", "ntee": "A20", "ruling": "202507", "deductibility": "1", "assets": 0, "income": 0, "revenue": 0}], "RETHINKX": [{"ein": "814898711", "name": "RETHINKX INC", "city": "NEW YORK", "state": "NY", "zip": "10019-0000", "ntee": "P05", "ruling": "201704", "deductibility": "1", "assets": 361623, "income": 1955855, "revenue": 1955855}], "UMUCO": [{"ein": "814939727", "name": "UMUCO INC", "city": "WILLIAMSVILLE", "state": "NY", "zip": "14221-7165", "ntee": "", "ruling": "201905", "deductibility": "1", "assets": 1074, "income": 3250, "revenue": 3250}], "MOBIUS": [{"ein": "820913183", "name": "MOBIUS PATH INC", "city": "OWEGO", "state": "NY", "zip": "13827-2428", "ntee": "D20", "ruling": "201703", "deductibility": "1", "assets": 0, "income": 0, "revenue": 0}], "CYNTHIAS": [{"ein": "821318724", "name": "CYNTHIAS HOUSE OF HOPE WITH A DIVINE PURPOSE INC", "city": "LAURELTON", "state": "NY", "zip": "11413-1826", "ntee": "Z99", "ruling": "202102", "deductibility": "1", "assets": 0, "income": 0, "revenue": 0}], "DAV": [{"ein": "821517617", "name": "DAV COMMUNITY DEVELOPMENT HOUSING ORGANIZATION INC", "city": "MONTICELLO", "state": "NY", "zip": "12701-7444", "ntee": "M20", "ruling": "201805", "deductibility": "1", "assets": 0, "income": 0, "revenue": 0}], "ASIKE": [{"ein": "821575508", "name": "KOLEL ASIKE SHMATASA", "city": "BROOKLYN", "state": "NY", "zip": "11219-3011", "ntee": "X30", "ruling": "201707", "deductibility": "1", "assets": 0, "income": 0, "revenue": 0}], "MAGNIFY": [{"ein": "821977638", "name": "MAGNIFY AUTISM INC", "city": "BRONX", "state": "NY", "zip": "10461-0000", "ntee": "G84", "ruling": "201806", "deductibility": "1", "assets": 0, "income": 0, "revenue": 0}], "TRAINI": [{"ein": "823035354", "name": "VICTORIOUS CHRISTIAN WOMAN S LEADERSHIP AND DISCIPLESHIP TRAINI", "city": "MOUNT VERNON", "state": "NY", "zip": "10550-1878", "ntee": "X20", "ruling": "201804", "deductibility": "1", "assets": 0, "income": 0, "revenue": 0}], "EDUCATIVOS": [{"ein": "824149759", "name": "CENTRO DE RECURSOS EDUCATIVOS PARA ADULTOS INC", "city": "NEW YORK", "state": "NY", "zip": "10029-1702", "ntee": "B90", "ruling": "201904", "deductibility": "1", "assets": 196649, "income": 230452, "revenue": 230452}], "ODEOMU": [{"ein": "824319129", "name": "ODEOMU DESCENDANTS USA INC", "city": "BROOKLYN", "state": "NY", "zip": "11208-3853", "ntee": "H01", "ruling": "202305", "deductibility": "1", "assets": 0, "income": 0, "revenue": 0}], "BUSY": [{"ein": "824870444", "name": "I GETS BUSY", "city": "BRONX", "state": "NY", "zip": "10470-0000", "ntee": "P99", "ruling": "201809", "deductibility": "1", "assets": 0, "income": 0, "revenue": 0}], "MOURNING": [{"ein": "824943989", "name": "CAMP GOOD MOURNING INC", "city": "HUNTINGTON", "state": "NY", "zip": "11743-0499", "ntee": "O50", "ruling": "201808", "deductibility": "1", "assets": 72656, "income": 160552, "revenue": 158183}], "ESIPOVA": [{"ein": "825334645", "name": "ESIPOVA YOUTH BALLET THEATER INC", "city": "PITTSFORD", "state": "NY", "zip": "14534-1330", "ntee": "A63", "ruling": "201810", "deductibility": "1", "assets": 0, "income": 0, "revenue": 0}], "ARUNI": [{"ein": "831746413", "name": "ARUNI SOLUTIONS INC", "city": "YONKERS", "state": "NY", "zip": "10701-3631", "ntee": "B90", "ruling": "201811", "deductibility": "1", "assets": 0, "income": 0, "revenue": 0}], "NYCFE": [{"ein": "832032089", "name": "NYCFE INC", "city": "NEW YORK", "state": "NY", "zip": "10108-2192", "ntee": "S12", "ruling": "201908", "deductibility": "1", "assets": 0, "income": 0, "revenue": 0}], "KHADIDIATOU": [{"ein": "832493667", "name": "KHADIDIATOU HAJJ & UMRAH INC", "city": "NEW YORK", "state": "NY", "zip": "10030-2462", "ntee": "X40", "ruling": "201904", "deductibility": "1", "assets": 0, "income": 0, "revenue": 0}], "BRYSON": [{"ein": "832520590", "name": "BRYSON DECHAMBEAU FOUNDATION", "city": "NEW YORK", "state": "NY", "zip": "10001-4509", "ntee": "T30", "ruling": "201908", "deductibility": "1", "assets": 104019, "income": 100057, "revenue": 100057}], "REFUIT": [{"ein": "832618797", "name": "REFUIT INC", "city": "BROOKLYN", "state": "NY", "zip": "11203-1002", "ntee": "E99", "ruling": "201906", "deductibility": "1", "assets": 15, "income": 199462, "revenue": 199462}], "TREEWATER": [{"ein": "833649993", "name": "TREEWATER INC", "city": "BRONX", "state": "NY", "zip": "10473-1849", "ntee": "C30", "ruling": "201904", "deductibility": "1", "assets": 5000, "income": 0, "revenue": 0}], "YBRP": [{"ein": "834191901", "name": "YBRP INC", "city": "NEW ROCHELLE", "state": "NY", "zip": "10804-1410", "ntee": "G80", "ruling": "202002", "deductibility": "1", "assets": 399299, "income": 220263, "revenue": 220210}], "BTC": [{"ein": "834603245", "name": "HOPE DEALERS BTC INC", "city": "ROCHESTER", "state": "NY", "zip": "14624-6664", "ntee": "F60", "ruling": "201906", "deductibility": "1", "assets": 0, "income": 0, "revenue": 0}], "PS317Q": [{"ein": "843555575", "name": "WATERSIDE PS317Q PTO INC", "city": "ROCKAWAY PARK", "state": "NY", "zip": "11694-2505", "ntee": "B94", "ruling": "202001", "deductibility": "1", "assets": 0, "income": 0, "revenue": 0}], "FELTMAN": [{"ein": "850509075", "name": "ERIC FELTMAN MEMORIAL FOUNDATION INC", "city": "UNIONDALE", "state": "NY", "zip": "11553-3632", "ntee": "A12", "ruling": "202104", "deductibility": "1", "assets": 16640, "income": 235235, "revenue": 58520}], "REKA": [{"ein": "852568150", "name": "REKA DARIDA FOUNDATION", "city": "NEW YORK", "state": "NY", "zip": "10028-0238", "ntee": "A24", "ruling": "202110", "deductibility": "1", "assets": 10982188, "income": 2070120, "revenue": 0}], "JSCONF": [{"ein": "854180384", "name": "JSCONF MEXICO INC", "city": "NEW YORK", "state": "NY", "zip": "10001-2538", "ntee": "J22", "ruling": "202303", "deductibility": "1", "assets": 0, "income": 0, "revenue": 0}], "SCHOONER": [{"ein": "854185187", "name": "FRIENDS OF THE SCHOONER LOTUS INC", "city": "SODUS POINT", "state": "NY", "zip": "14555-0002", "ntee": "A80", "ruling": "202108", "deductibility": "1", "assets": 54805, "income": 52274, "revenue": 52274}], "JUVENILES": [{"ein": "861444698", "name": "JUVENILES RUNNING 4 OFFICE INC", "city": "BROOKLYN", "state": "NY", "zip": "11213-1126", "ntee": "O50", "ruling": "202111", "deductibility": "1", "assets": 0, "income": 0, "revenue": 0}], "TENACITY": [{"ein": "873380882", "name": "TEAM TENACITY SST INC", "city": "MOUNT KISCO", "state": "NY", "zip": "10549-2912", "ntee": "N60", "ruling": "202307", "deductibility": "2", "assets": 0, "income": 0, "revenue": 0}], "YESODEINU": [{"ein": "873604701", "name": "YESODEINU INC", "city": "SPRING VALLEY", "state": "NY", "zip": "10977-6227", "ntee": "A80", "ruling": "202203", "deductibility": "1", "assets": 0, "income": 0, "revenue": 0}], "UGBEKA": [{"ein": "880936262", "name": "UGBEKA OLD STUDENT ASSOCIATION NORTH AMERICA INC", "city": "LAURELTON", "state": "NY", "zip": "11413-2833", "ntee": "B25", "ruling": "202309", "deductibility": "1", "assets": 162, "income": 5450, "revenue": 5450}], "MORIARTY": [{"ein": "882000965", "name": "SHARON A MORIARTY SCHOLARSHIP FOUNDATION INC", "city": "LONG BEACH", "state": "NY", "zip": "11561-1514", "ntee": "B82", "ruling": "202209", "deductibility": "1", "assets": 6095, "income": 2915, "revenue": 2915}], "YONTIF": [{"ein": "882350102", "name": "VILLAGE YONTIF INC", "city": "NEW YORK", "state": "NY", "zip": "10014-2704", "ntee": "X30", "ruling": "202301", "deductibility": "1", "assets": 0, "income": 0, "revenue": 0}], "BASMAS": [{"ein": "884269132", "name": "THE CHRISTOPHER BASMAS MEMORIAL FOUNDATION", "city": "MILLER PLACE", "state": "NY", "zip": "11764-3528", "ntee": "F12", "ruling": "202212", "deductibility": "1", "assets": 0, "income": 0, "revenue": 0}], "HERNANDO": [{"ein": "901018160", "name": "ANCIENT ORDER OF HIBERNIANS LADIES FL HERNANDO DIVISION 1", "city": "BROOKLYN", "state": "NY", "zip": "11229-4111", "ntee": "Y42", "ruling": "201612", "deductibility": "1", "assets": 0, "income": 0, "revenue": 0}], "WINNOWSKI": [{"ein": "911822239", "name": "WINNOWSKI FAMILY CHARITABLE FOUNDATION INC", "city": "SARATOGA SPGS", "state": "NY", "zip": "12866-2467", "ntee": "Z99Z", "ruling": "199808", "deductibility": "1", "assets": 36404, "income": 29540, "revenue": 0}], "GIANNAS": [{"ein": "920384805", "name": "GIANNAS HOUSE INC", "city": "BREWSTER", "state": "NY", "zip": "10509-1215", "ntee": "W19", "ruling": "202211", "deductibility": "1", "assets": 1035080, "income": 1270560, "revenue": 1248804}], "DOUS": [{"ein": "921587411", "name": "DOUS TACT SURVIVAL TRAINING MARTIAL SCI PROGRAM AND CADET CORPS INC", "city": "BRONX", "state": "NY", "zip": "10458-5712", "ntee": "T50", "ruling": "202308", "deductibility": "1", "assets": 0, "income": 0, "revenue": 0}], "BLUESTOCKINGS": [{"ein": "931629317", "name": "BLUESTOCKINGS COMMUNITY SUPPORT INC", "city": "NEW YORK", "state": "NY", "zip": "10002-3330", "ntee": "P20", "ruling": "202306", "deductibility": "1", "assets": 19454, "income": 39821, "revenue": 39821}], "MATTERING": [{"ein": "932739098", "name": "MATTERING MOVEMENT INC", "city": "NEW YORK", "state": "NY", "zip": "10128-1202", "ntee": "B80", "ruling": "202310", "deductibility": "1", "assets": 16304, "income": 52612, "revenue": 52612}], "PORCO": [{"ein": "934059904", "name": "JOSEPH A PORCO SCHOLARSHIP FOUNDATION INC", "city": "STONE RIDGE", "state": "NY", "zip": "12484-5304", "ntee": "T12", "ruling": "202505", "deductibility": "1", "assets": 0, "income": 0, "revenue": 0}], "139TH": [{"ein": "991176309", "name": "KINGS COURT WEST 139TH STREET PRESERVATION SOCIETY INC", "city": "NEW YORK CITY", "state": "NY", "zip": "10030-2104", "ntee": "P99", "ruling": "202410", "deductibility": "1", "assets": 0, "income": 0, "revenue": 0}], "LHASA": [{"ein": "993385956", "name": "LHASA INC", "city": "ALBANY", "state": "NY", "zip": "12207-0000", "ntee": "P20", "ruling": "202406", "deductibility": "1", "assets": 0, "income": 0, "revenue": 0}], "RACKETS": [{"ein": "995110316", "name": "RAINBOW RACKETS", "city": "NEW YORK", "state": "NY", "zip": "10019-6347", "ntee": "N66", "ruling": "202506", "deductibility": "1", "assets": 0, "income": 0, "revenue": 0}]}