{"HOBBS": [{"ein": "010924348", "name": "HOBBS COMMUNITY FARM", "city": "CENTEREACH", "state": "NY", "zip": "11720-1922", "ntee": "X19", "ruling": "201012", "deductibility": "1", "assets": 0, "income": 0, "revenue": 0}, {"ein": "262667525", "name": "HOBBS CIENA HOUSING DEVELOPMENT FUND CORPORATION", "city": "NEW YORK", "state": "NY", "zip": "10010-6002", "ntee": "L21", "ruling": "200904", "deductibility": "2", "assets": 0, "income": 0, "revenue": 0}], "WORTHSHIP": [{"ein": "020729159", "name": "MOUNT CARMEL WORTHSHIP OUTREACH CENTER", "city": "BROOKLYN", "state": "NY", "zip": "11203-5732", "ntee": "X20", "ruling": "200704", "deductibility": "1", "assets": 0, "income": 0, "revenue": 0}], "ATHLETIC": [{"ein": "020754404", "name": "SOUTH BRONX ATHLETIC CLUB INC", "city": "YONKERS", "state": "NY", "zip": "10710-0000", "ntee": "O990", "ruling": "200610", "deductibility": "1", "assets": 0, "income": 0, "revenue": 0}, {"ein": "111889426", "name": "PORT WASHINGTON POLICE ATHLETIC LEAGUE INC", "city": "PRT WASHINGTN", "state": "NY", "zip": "11050-7653", "ntee": "O200", "ruling": "196909", "deductibility": "1", "assets": 223542, "income": 49317, "revenue": 49317}, {"ein": "112018077", "name": "NEW YORK STATE PUBLIC HIGH SCHOOL ATHLETIC ASSOCIATION INC", "city": "FARMINGVILLE", "state": "NY", "zip": "11738-2145", "ntee": "N99", "ruling": "201002", "deductibility": "1", "assets": 1127674, "income": 6809037, "revenue": 6809037}, {"ein": "112523053", "name": "DWARF-GIRAFFE ATHLETIC LEAGUE OF WHITESTONE INC", "city": "FLUSHING", "state": "NY", "zip": "11357-0035", "ntee": "O200", "ruling": "198011", "deductibility": "1", "assets": 1206484, "income": 366621, "revenue": 366621}, {"ein": "112581922", "name": "BROAD CHANNEL ATHLETIC CLUB INC", "city": "FAR ROCKAWAY", "state": "NY", "zip": "11693-0001", "ntee": "O20", "ruling": "198308", "deductibility": "1", "assets": 413618, "income": 179931, "revenue": 179931}, {"ein": "112601046", "name": "NESCONSET ATHLETIC ASSOCIATION INC", "city": "NESCONSET", "state": "NY", "zip": "11767-0736", "ntee": "N63", "ruling": "202405", "deductibility": "1", "assets": 78345, "income": 202275, "revenue": 202275}, {"ein": "112631530", "name": "SECTION VIII OF THE NEW YORK STATE PUBLIC HIGH SCH ATHLETIC ASSN INC", "city": "GARDEN CITY", "state": "NY", "zip": "11530-4742", "ntee": "N30", "ruling": "200201", "deductibility": "1", "assets": 1580174, "income": 2013785, "revenue": 1963427}, {"ein": "112652408", "name": "NEW YORK STATE PUBLIC HIGH SCHOOL ATHLETIC ASSOCIATION INC", "city": "LATHAM", "state": "NY", "zip": "12110-6420", "ntee": "", "ruling": "198406", "deductibility": "1", "assets": 8563811, "income": 6245269, "revenue": 3936417}, {"ein": "113019763", "name": "GRAVESEND ATHLETIC ASSOCIATION INC", "city": "BROOKLYN", "state": "NY", "zip": "11214-0000", "ntee": "N40Z", "ruling": "199105", "deductibility": "1", "assets": 0, "income": 6930, "revenue": 6930}, {"ein": "113038221", "name": "DIX HILLS ATHLETIC CLUB INC", "city": "DIX HILLS", "state": "NY", "zip": "11746-6834", "ntee": "O50", "ruling": "199901", "deductibility": "1", "assets": 123581, "income": 880033, "revenue": 878033}, {"ein": "113173855", "name": "FREEPORT POLICE ATHLETIC LEAGUE INC", "city": "FREEPORT", "state": "NY", "zip": "11520-3374", "ntee": "O50", "ruling": "201807", "deductibility": "1", "assets": 18618, "income": 42750, "revenue": 42750}, {"ein": "113260908", "name": "NORTH SHORE COLTS ATHLETIC ASSOCIATION LTD", "city": "MILLER PLACE", "state": "NY", "zip": "11764-1094", "ntee": "N60", "ruling": "199507", "deductibility": "1", "assets": 2165, "income": 97560, "revenue": 97560}, {"ein": "113405187", "name": "OAK NECK ATHLETIC COUNCIL INC", "city": "BAYVILLE", "state": "NY", "zip": "11709-0421", "ntee": "N20", "ruling": "199903", "deductibility": "1", "assets": 497285, "income": 225659, "revenue": 225659}, {"ein": "113422707", "name": "DYKER HEIGHTS ATHLETIC ASSOC INC", "city": "BROOKLYN", "state": "NY", "zip": "11228-3015", "ntee": "N99", "ruling": "200303", "deductibility": "1", "assets": 184434, "income": 316407, "revenue": 316407}, {"ein": "113569112", "name": "WILDCAT ATHLETIC CLUB", "city": "WADING RIVER", "state": "NY", "zip": "11792-0335", "ntee": "N11", "ruling": "200605", "deductibility": "1", "assets": 73750, "income": 93504, "revenue": 93504}, {"ein": "113641566", "name": "EDGE ATHLETIC CLUB INC", "city": "POUGHKEEPSIE", "state": "NY", "zip": "12603-5515", "ntee": "N62", "ruling": "200209", "deductibility": "1", "assets": 549939, "income": 113459, "revenue": 113459}, {"ein": "116036655", "name": "PUBLIC SCHOOLS ATHLETIC LEAGUE", "city": "STATEN ISLAND", "state": "NY", "zip": "10310-2816", "ntee": "", "ruling": "195309", "deductibility": "1", "assets": 462704, "income": 30358, "revenue": 0}, {"ein": "116042187", "name": "FLORAL PARK INDIANS ATHLETIC CLUB INC", "city": "FLORAL PARK", "state": "NY", "zip": "11002-0876", "ntee": "N42Z", "ruling": "196506", "deductibility": "1", "assets": 263174, "income": 376122, "revenue": 376122}, {"ein": "116042656", "name": "CENTRAL NASSAU ATHLETIC ASSOCIATION INC", "city": "WESTBURY", "state": "NY", "zip": "11590-5445", "ntee": "N63", "ruling": "202409", "deductibility": "1", "assets": 82363, "income": 135251, "revenue": 135251}, {"ein": "116079119", "name": "INWOOD BUCCANEERS ATHLETIC CLUB", "city": "INWOOD", "state": "NY", "zip": "11096-0000", "ntee": "N60Z", "ruling": "196704", "deductibility": "1", "assets": 1, "income": 0, "revenue": 0}, {"ein": "116080807", "name": "D A C ATHLETIC CLUB INC", "city": "BAYSIDE", "state": "NY", "zip": "11361-0235", "ntee": "", "ruling": "195812", "deductibility": "1", "assets": 109309, "income": 107819, "revenue": 107819}, {"ein": "116540791", "name": "ATHLETIC SUPPORT TR", "city": "MANHASSET", "state": "NY", "zip": "11030-1908", "ntee": "N70", "ruling": "200401", "deductibility": "1", "assets": 13451, "income": 1, "revenue": 0}, {"ein": "131096640", "name": "NEW YORK ATHLETIC CLUB", "city": "NEW YORK", "state": "NY", "zip": "10019-1562", "ntee": "", "ruling": "193411", "deductibility": "2", "assets": 92426900, "income": 79569804, "revenue": 70874472}, {"ein": "131882465", "name": "HASTINGS SOUTH SIDE SOCIAL & ATHLETIC CLUB INC", "city": "HASTINGS HDSN", "state": "NY", "zip": "10706-2201", "ntee": "", "ruling": "196502", "deductibility": "2", "assets": 121845, "income": 122986, "revenue": 89082}, {"ein": "133027164", "name": "GRANITE ATHLETIC CLUB INC", "city": "STATEN ISLAND", "state": "NY", "zip": "10302-1734", "ntee": "", "ruling": "198609", "deductibility": "2", "assets": 101397, "income": 8059, "revenue": 8059}, {"ein": "133124825", "name": "STATEN ISLAND ATHLETIC CLUB", "city": "STATEN ISLAND", "state": "NY", "zip": "10306-6152", "ntee": "", "ruling": "198408", "deductibility": "1", "assets": 0, "income": 0, "revenue": 0}, {"ein": "133202087", "name": "KAYBEE ATHLETIC CLUB INC", "city": "EDEN", "state": "NY", "zip": "14057-9518", "ntee": "N41Z", "ruling": "199211", "deductibility": "1", "assets": 0, "income": 0, "revenue": 0}, {"ein": "133234145", "name": "THE POLICE ATHLETIC LEAGUE OF YONKERS FOUNDATION INC", "city": "YONKERS", "state": "NY", "zip": "10701-2729", "ntee": "O20", "ruling": "202210", "deductibility": "1", "assets": 1167784, "income": 907156, "revenue": 902515}, {"ein": "133451163", "name": "SHRUB OAK ATHLETIC CLUB INC", "city": "SHRUB OAK", "state": "NY", "zip": "10588-0000", "ntee": "N50", "ruling": "200806", "deductibility": "1", "assets": 421683, "income": 1103175, "revenue": 1103175}, {"ein": "133502982", "name": "ROCKLAND GAELIC ATHLETIC ASSOCIATION INC", "city": "ORANGEBURG", "state": "NY", "zip": "10962-1156", "ntee": "N64", "ruling": "201808", "deductibility": "1", "assets": 3552003, "income": 572220, "revenue": 552392}, {"ein": "133506539", "name": "NEW YORK STATE ATHLETIC TRAINERS ASSOCIATION", "city": "VALLEY STREAM", "state": "NY", "zip": "11581-2516", "ntee": "J03", "ruling": "202102", "deductibility": "2", "assets": 286311, "income": 81620, "revenue": 81620}, {"ein": "133837475", "name": "YORKVILLE YOUTH ATHLETIC ASSOCIATION INC", "city": "NEW YORK", "state": "NY", "zip": "10128-5123", "ntee": "O50", "ruling": "199511", "deductibility": "1", "assets": 6967910, "income": 5412676, "revenue": 2934400}, {"ein": "133964600", "name": "GAELIC ATHLETIC ASSOCIATION OF GREATER NEW YORK INC", "city": "YONKERS", "state": "NY", "zip": "10704-3145", "ntee": "A230", "ruling": "200012", "deductibility": "1", "assets": 2831751, "income": 1941243, "revenue": 1748967}, {"ein": "133988075", "name": "MORRIS PARK ATHLETIC LEAGUE INC", "city": "YONKERS", "state": "NY", "zip": "10710-2805", "ntee": "N70", "ruling": "199905", "deductibility": "1", "assets": 0, "income": 0, "revenue": 0}, {"ein": "134054798", "name": "HAVERSTRAW POLICE ATHLETIC LEAGUE INC", "city": "GARNERVILLE", "state": "NY", "zip": "10923-0238", "ntee": "O50", "ruling": "202409", "deductibility": "1", "assets": 149371, "income": 25664, "revenue": 25664}, {"ein": "134199518", "name": "OSSINING ATHLETIC BOOSTER CLUB INC", "city": "OSSINING", "state": "NY", "zip": "10562-0084", "ntee": "B94", "ruling": "201312", "deductibility": "1", "assets": 0, "income": 0, "revenue": 0}, {"ein": "134292734", "name": "CHARTER SCHOOL ATHLETIC ASSOCIATION", "city": "BRONX", "state": "NY", "zip": "10462-0578", "ntee": "N60", "ruling": "200510", "deductibility": "1", "assets": 0, "income": 0, "revenue": 0}, {"ein": "135596811", "name": "POLICE ATHLETIC LEAGUE INC", "city": "NEW YORK", "state": "NY", "zip": "10003-0000", "ntee": "O200", "ruling": "194203", "deductibility": "1", "assets": 37251777, "income": 37136530, "revenue": 36386566}, {"ein": "136272684", "name": "ARDSLEY LITTLE ATHLETIC ASSOCIATION INC", "city": "ARDSLEY", "state": "NY", "zip": "10502-0577", "ntee": "N63", "ruling": "202410", "deductibility": "1", "assets": 244408, "income": 250670, "revenue": 240331}, {"ein": "140639642", "name": "EMERALD ATHLETIC CLUB INC", "city": "TROY", "state": "NY", "zip": "12180-4306", "ntee": "", "ruling": "197209", "deductibility": "2", "assets": 159237, "income": 277414, "revenue": 160990}, {"ein": "141312915", "name": "ST JOSEPHS ATHLETIC CLUB OF SCHENECTADY N Y", "city": "SCHENECTADY", "state": "NY", "zip": "12308-3220", "ntee": "", "ruling": "195004", "deductibility": "2", "assets": 61441, "income": 59405, "revenue": 13232}, {"ein": "141639401", "name": "HOOSIC VALLEY ATHLETIC ASSOCIATION INC", "city": "VALLEY FALLS", "state": "NY", "zip": "12185-0281", "ntee": "O50", "ruling": "200509", "deductibility": "1", "assets": 248960, "income": 73439, "revenue": 65716}, {"ein": "141675267", "name": "LAKE PLACID PEE-WEE ATHLETIC ASSOCIATION INC", "city": "LAKE PLACID", "state": "NY", "zip": "12946-0129", "ntee": "N60Z", "ruling": "199003", "deductibility": "1", "assets": 295292, "income": 94689, "revenue": 94689}, {"ein": "141708276", "name": "ALBANY POLICE ATHLETIC LEAGUE INC PUBLIC SAFETY BLDG", "city": "ALBANY", "state": "NY", "zip": "12208-3320", "ntee": "O20Z", "ruling": "198908", "deductibility": "1", "assets": 2886317, "income": 1405090, "revenue": 1114784}, {"ein": "141731922", "name": "WEST ALBANY ATHLETIC ASSOCIATION INC", "city": "LOUDONVILLE", "state": "NY", "zip": "12211-0402", "ntee": "O50", "ruling": "202110", "deductibility": "1", "assets": 44127, "income": 75254, "revenue": 75254}, {"ein": "141785338", "name": "MAPLE HILL ATHLETIC BOOSTER CLUB", "city": "CASTLETON", "state": "NY", "zip": "12033-9644", "ntee": "Z99", "ruling": "201409", "deductibility": "1", "assets": 0, "income": 0, "revenue": 0}, {"ein": "141824537", "name": "CAYUGA YOUTH ATHLETIC ASSOCIATION INC", "city": "NIAGARA FALLS", "state": "NY", "zip": "14304-7301", "ntee": "N63", "ruling": "202309", "deductibility": "1", "assets": 130275, "income": 195676, "revenue": 195676}, {"ein": "141938525", "name": "KINGS PARK ATHLETIC BOOSTER ASSOCIATION", "city": "KINGS PARK", "state": "NY", "zip": "11754-0000", "ntee": "N11", "ruling": "200608", "deductibility": "1", "assets": 132600, "income": 211850, "revenue": 195345}, {"ein": "150412370", "name": "PASTIME ATHLETIC CLUB OF SYRACUSE INC", "city": "SYRACUSE", "state": "NY", "zip": "13208-1521", "ntee": "", "ruling": "194009", "deductibility": "2", "assets": 399863, "income": 260841, "revenue": 188245}, {"ein": "150616900", "name": "POLICE ATHLETIC LEAGUE OF BINGHAMTON NEW YORK INCORPORATED", "city": "BINGHAMTON", "state": "NY", "zip": "13902-1472", "ntee": "O20Z", "ruling": "196712", "deductibility": "1", "assets": 270946, "income": 130365, "revenue": 129973}, {"ein": "160620895", "name": "ST MARYS ATHLETIC CLUB INC", "city": "ALBION", "state": "NY", "zip": "14411-1149", "ntee": "", "ruling": "194607", "deductibility": "2", "assets": 18074, "income": 198893, "revenue": 37780}, {"ein": "160798774", "name": "NEW YORK STATE PUBLIC HIGH SCHOOL ATHLETIC ASSOC SEC V", "city": "NEWARK", "state": "NY", "zip": "14424-0000", "ntee": "", "ruling": "198408", "deductibility": "1", "assets": 730110, "income": 2022438, "revenue": 2022438}, {"ein": "160836525", "name": "IRON DEQUOIT ATHLETIC ASSOCIATION INC", "city": "ROCHESTER", "state": "NY", "zip": "14617-5633", "ntee": "N63Z", "ruling": "195207", "deductibility": "1", "assets": 135167, "income": 142626, "revenue": 142626}, {"ein": "160878327", "name": "GIRLS GYMNASTIC-ATHLETIC CLUB OF OWEGO NEW YORK INC", "city": "OWEGO", "state": "NY", "zip": "13827-3216", "ntee": "N6XZ", "ruling": "196707", "deductibility": "1", "assets": 333065, "income": 332795, "revenue": 323791}, {"ein": "160973558", "name": "GAELIC AMERICAN ATHLETIC ASSOCIATION OF BUFFALO NY", "city": "BUFFALO", "state": "NY", "zip": "14220-1305", "ntee": "A23Z", "ruling": "198506", "deductibility": "2", "assets": 60721, "income": 642927, "revenue": 258525}, {"ein": "161109292", "name": "GREECE POLICE ATHLETIC LEAGUE INC", "city": "ROCHESTER", "state": "NY", "zip": "14612-3094", "ntee": "O20Z", "ruling": "197903", "deductibility": "1", "assets": 13777, "income": 2326, "revenue": 2326}, {"ein": "161193284", "name": "SECTION IV OF NEW YORK STATE PUBLIC HIGH SCHOOL ATHLETIC ASSOCIATION", "city": "SIDNEY", "state": "NY", "zip": "13838-2716", "ntee": "O50", "ruling": "201804", "deductibility": "1", "assets": 682535, "income": 1087201, "revenue": 1087201}, {"ein": "161255929", "name": "OWEGO APALACHIN BOOSTER CLUB INC C/O OWEGO FREE ACADEMY ATHLETIC", "city": "OWEGO", "state": "NY", "zip": "13827-1062", "ntee": "B11", "ruling": "201906", "deductibility": "1", "assets": 93793, "income": 123337, "revenue": 123337}, {"ein": "161288094", "name": "THE BUFFALO POLICE ATHLETIC CLUB", "city": "BUFFALO", "state": "NY", "zip": "14202-3476", "ntee": "O20Z", "ruling": "199505", "deductibility": "2", "assets": 0, "income": 0, "revenue": 0}, {"ein": "161456164", "name": "WAYNE COUNTY ATHLETIC DIRECTORS ASSOCIATION", "city": "SODUS", "state": "NY", "zip": "14551-0220", "ntee": "B90Z", "ruling": "199501", "deductibility": "1", "assets": 0, "income": 0, "revenue": 0}, {"ein": "161459179", "name": "NORTH AREA ATHLETIC CLUB INC", "city": "SYRACUSE", "state": "NY", "zip": "13208-2117", "ntee": "N60", "ruling": "199407", "deductibility": "1", "assets": 341598, "income": 109248, "revenue": 94069}, {"ein": "161468698", "name": "POLICE ATHLETIC LEAGUE OF BUFFALO INC", "city": "BUFFALO", "state": "NY", "zip": "14202-3313", "ntee": "O20", "ruling": "199505", "deductibility": "1", "assets": 622607, "income": 1837845, "revenue": 1806966}, {"ein": "161470782", "name": "INDIAN RIVER ATHLETIC BOOSTER CLUB", "city": "PHILADELPHIA", "state": "NY", "zip": "13673-2161", "ntee": "B11", "ruling": "199909", "deductibility": "1", "assets": 0, "income": 0, "revenue": 0}, {"ein": "161485686", "name": "TOMPKINS GIRLS ATHLETIC ASSOCIATION INC", "city": "ITHACA", "state": "NY", "zip": "14850-2931", "ntee": "O20", "ruling": "199601", "deductibility": "1", "assets": 58218, "income": 86896, "revenue": 71655}, {"ein": "161508033", "name": "JAMESVILLE-DEWITT YOUTH ATHLETIC ASSOCIATION INC", "city": "JAMESVILLE", "state": "NY", "zip": "13078-0308", "ntee": "N66", "ruling": "201108", "deductibility": "1", "assets": 131071, "income": 60724, "revenue": 60724}, {"ein": "161550059", "name": "SCOTTSVILLE ATHLETIC ASSOCIATION", "city": "SCOTTSVILLE", "state": "NY", "zip": "14546-0183", "ntee": "N63", "ruling": "199902", "deductibility": "1", "assets": 1, "income": 22004, "revenue": 0}, {"ein": "161553655", "name": "FESSENDEN LAUMER & DEANGELO A ATHLETIC CLUB INC", "city": "JAMESTOWN", "state": "NY", "zip": "14702-0590", "ntee": "O12", "ruling": "200001", "deductibility": "1", "assets": 0, "income": 0, "revenue": 0}, {"ein": "161576525", "name": "NORTH AREA YOUTH ATHLETIC CLUB INC", "city": "CICERO", "state": "NY", "zip": "13039-8831", "ntee": "O50", "ruling": "200005", "deductibility": "1", "assets": 39283, "income": 34189, "revenue": 34189}, {"ein": "161576899", "name": "HOMER SCHOOL ATHLETIC BOOSTER CLUB", "city": "CORTLAND", "state": "NY", "zip": "13045-9115", "ntee": "N11", "ruling": "202303", "deductibility": "1", "assets": 0, "income": 0, "revenue": 0}, {"ein": "161603582", "name": "CHARLOTTE YOUTH ATHLETIC ASSOCIATION", "city": "ROCHESTER", "state": "NY", "zip": "14612-0524", "ntee": "N63", "ruling": "200206", "deductibility": "1", "assets": 1, "income": 37253, "revenue": 31958}, {"ein": "166044769", "name": "ROBERT D EATON ATHLETIC FUND", "city": "NORWICH", "state": "NY", "zip": "13815-0000", "ntee": "", "ruling": "197309", "deductibility": "1", "assets": 36987, "income": 2135, "revenue": 0}, {"ein": "200060379", "name": "FAIRPORT PACKERS ATHLETIC ASSOCIATION INC", "city": "FAIRPORT", "state": "NY", "zip": "14450-0721", "ntee": "O51", "ruling": "201501", "deductibility": "1", "assets": 40889, "income": 127867, "revenue": 127867}, {"ein": "200702024", "name": "ST JAMES ATHLETIC ASSOCIATION", "city": "ST JAMES", "state": "NY", "zip": "11780-0029", "ntee": "N70", "ruling": "200406", "deductibility": "1", "assets": 30431, "income": 168847, "revenue": 168847}, {"ein": "200951096", "name": "SAYVILLE ATHLETIC FOUNDATION INC", "city": "HOLBROOK", "state": "NY", "zip": "11741-4512", "ntee": "B90", "ruling": "202302", "deductibility": "1", "assets": 111716, "income": 228150, "revenue": 228150}, {"ein": "200975215", "name": "JAMAICA ATHLETIC AND LEARING CENTER", "city": "CAMBRIA HTS", "state": "NY", "zip": "11411-1517", "ntee": "N65", "ruling": "201512", "deductibility": "1", "assets": 0, "income": 0, "revenue": 0}, {"ein": "201654531", "name": "LITHUANIAN ATHLETIC UNION OF NORTH AMERICA NFP", "city": "SHIRLEY", "state": "NY", "zip": "11967-4125", "ntee": "N60", "ruling": "201410", "deductibility": "1", "assets": 0, "income": 0, "revenue": 0}, {"ein": "203731399", "name": "WESTSIDE WARRIORS ATHLETIC", "city": "NEW YORK", "state": "NY", "zip": "10025-5722", "ntee": "N60", "ruling": "201609", "deductibility": "1", "assets": 0, "income": 0, "revenue": 0}, {"ein": "205054594", "name": "CARLE PLACE ATHLETIC BOOSTER ANDPHYSICAL EDUCATION FOUNDATION", "city": "CARLE PLACE", "state": "NY", "zip": "11514-1415", "ntee": "B122", "ruling": "200610", "deductibility": "1", "assets": 0, "income": 0, "revenue": 0}, {"ein": "222191355", "name": "MIDLAKES JUNIOR EAGLES ATHLETIC", "city": "CLIFTON SPGS", "state": "NY", "zip": "14432-0131", "ntee": "N60", "ruling": "201208", "deductibility": "1", "assets": 11770, "income": 48682, "revenue": 39874}, {"ein": "222370636", "name": "EASTERN ATHLETIC TRAINERS ASSOCIATION", "city": "WEST POINT", "state": "NY", "zip": "10996-1347", "ntee": "", "ruling": "198111", "deductibility": "2", "assets": 373888, "income": 389410, "revenue": 240096}, {"ein": "222384580", "name": "SECTION VI OF THE NEW YORK STATE PUB HIGH SCHL ATHLETIC ASSOC", "city": "WEST SENECA", "state": "NY", "zip": "14224-1825", "ntee": "N41Z", "ruling": "198208", "deductibility": "1", "assets": 742034, "income": 1940648, "revenue": 1940648}, {"ein": "222536899", "name": "NEW YORK STATE ATHLETIC ADMINSTRATORS ASSOCIATION INC", "city": "BINGHAMTON", "state": "NY", "zip": "13903-5940", "ntee": "", "ruling": "198803", "deductibility": "1", "assets": 328732, "income": 493999, "revenue": 359031}, {"ein": "223061155", "name": "GREATER ROCHESTER AMATEUR ATHLETIC FEDERATION INC", "city": "FAIRPORT", "state": "NY", "zip": "14450-0637", "ntee": "", "ruling": "199405", "deductibility": "1", "assets": 493954, "income": 166696, "revenue": 145225}, {"ein": "223235330", "name": "LAKE ONTARIO YOUTH ATHLETIC LEAGUE INC", "city": "MEDINA", "state": "NY", "zip": "14103-0000", "ntee": "O50", "ruling": "199308", "deductibility": "1", "assets": 33714, "income": 45349, "revenue": 43549}, {"ein": "223237815", "name": "BOONVILLE YOUTH ATHLETIC ASSOCIATION INC", "city": "BOONVILLE", "state": "NY", "zip": "13309-0412", "ntee": "", "ruling": "199401", "deductibility": "1", "assets": 0, "income": 0, "revenue": 0}, {"ein": "223303716", "name": "NATIONAL ATHLETIC TRAINERS ASSOCIATION INC", "city": "SCHENECTADY", "state": "NY", "zip": "12303-3185", "ntee": "", "ruling": "199412", "deductibility": "2", "assets": 329832, "income": 650833, "revenue": 266381}, {"ein": "223607610", "name": "MINOR BOARD OF THE GAELIC ATHLETIC ASSOCIATION OF NEW YORK INC", "city": "YONKERS", "state": "NY", "zip": "10704-4131", "ntee": "N99", "ruling": "200105", "deductibility": "1", "assets": 1329088, "income": 1516490, "revenue": 1434590}, {"ein": "237009864", "name": "VALLEY JUNIOR ATHLETIC ASSOCIATION INC", "city": "SYRACUSE", "state": "NY", "zip": "13219-1531", "ntee": "N64", "ruling": "201701", "deductibility": "1", "assets": 3019, "income": 12284, "revenue": 12284}, {"ein": "237068754", "name": "MINEOLA ATHLETIC ASSOCIATION INC", "city": "MINEOLA", "state": "NY", "zip": "11501-0585", "ntee": "", "ruling": "197005", "deductibility": "1", "assets": 401529, "income": 545379, "revenue": 545379}, {"ein": "237081242", "name": "POLICE ATHLETIC LEAGUE OF NIAGARA FALLS N Y INC", "city": "NIAGARA FALLS", "state": "NY", "zip": "14305-3309", "ntee": "O200", "ruling": "197311", "deductibility": "1", "assets": 141467, "income": 144949, "revenue": 123111}, {"ein": "237181682", "name": "SOLVAY TIGERS ATHLETIC CLUB INC", "city": "SOLVAY", "state": "NY", "zip": "13209-1545", "ntee": "N31Z", "ruling": "196102", "deductibility": "1", "assets": 370855, "income": 780427, "revenue": 183094}, {"ein": "237209732", "name": "YORKTOWN ATHLETIC CLUB INC", "city": "YORKTOWN HTS", "state": "NY", "zip": "10598-0399", "ntee": "N60", "ruling": "202204", "deductibility": "1", "assets": 426294, "income": 1184807, "revenue": 1184807}, {"ein": "237270522", "name": "BLESSED SACRAMENT ATHLETIC CLUB", "city": "BUFFALO", "state": "NY", "zip": "14223-1904", "ntee": "", "ruling": "197304", "deductibility": "1", "assets": 0, "income": 0, "revenue": 0}, {"ein": "237271173", "name": "KINGS PARK YOUTH ATHLETIC ASSOCIATION INC", "city": "KINGS PARK", "state": "NY", "zip": "11754-0818", "ntee": "O50", "ruling": "201901", "deductibility": "2", "assets": 126967, "income": 388326, "revenue": 388326}, {"ein": "237356002", "name": "SUFFOLK COUNTY POLICE ATHLETIC LEAGUE INC", "city": "YAPHANK", "state": "NY", "zip": "11980-0026", "ntee": "O200", "ruling": "197403", "deductibility": "1", "assets": 625368, "income": 1095129, "revenue": 1003965}, {"ein": "237427679", "name": "PORT CHESTER OLD TIMES ATHLETIC ASSOC", "city": "PORT CHESTER", "state": "NY", "zip": "10573-0000", "ntee": "", "ruling": "197502", "deductibility": "1", "assets": 0, "income": 0, "revenue": 0}, {"ein": "261171209", "name": "ELWOOD ATHLETIC CLUB", "city": "GREENLAWN", "state": "NY", "zip": "11740-2723", "ntee": "N60", "ruling": "200810", "deductibility": "1", "assets": 7387, "income": 150378, "revenue": 150378}, {"ein": "261690411", "name": "LEVITTOWN SEAFORD WANTAGH ATHLETIC ASSOCIATION INC", "city": "WANTAGH", "state": "NY", "zip": "11793-0635", "ntee": "O50", "ruling": "200805", "deductibility": "1", "assets": 303900, "income": 544814, "revenue": 544814}, {"ein": "261800320", "name": "OLD SARATOGA ATHLETIC ASSOCIATION", "city": "SCHUYLERVILLE", "state": "NY", "zip": "12871-0072", "ntee": "B11", "ruling": "201507", "deductibility": "1", "assets": 77735, "income": 112890, "revenue": 101089}, {"ein": "262057010", "name": "EAST ROCKAWAY RAIDERS ATHLETIC ASSOCIATION INC", "city": "EAST ROCKAWAY", "state": "NY", "zip": "11518-0003", "ntee": "N65", "ruling": "200901", "deductibility": "1", "assets": 45795, "income": 84135, "revenue": 79034}, {"ein": "262409562", "name": "GREATER GLENS FALLS AMATEUR ATHLETIC CHAMPIONSHIPS ASSOCIATION", "city": "QUEENSBURY", "state": "NY", "zip": "12804-0680", "ntee": "N60", "ruling": "200809", "deductibility": "1", "assets": 35303, "income": 63754, "revenue": 63754}, {"ein": "263151839", "name": "EDGEWATER ATHLETIC ASSOCIATION CORP", "city": "BRONX", "state": "NY", "zip": "10465-5000", "ntee": "N50", "ruling": "202105", "deductibility": "1", "assets": 20013, "income": 44657, "revenue": 44657}, {"ein": "263727109", "name": "NEW YORK STATE FEDERATION OF HIGH SCHOOL ATHLETIC ASSOCIATIONS INC", "city": "AMSTERDAM", "state": "NY", "zip": "12010-6621", "ntee": "N70", "ruling": "201504", "deductibility": "1", "assets": 0, "income": 0, "revenue": 0}, {"ein": "263885113", "name": "PEKA ATHLETIC FAN CLUB INC", "city": "ASTORIA", "state": "NY", "zip": "11105-1949", "ntee": "N99", "ruling": "201408", "deductibility": "1", "assets": 0, "income": 0, "revenue": 0}, {"ein": "264164715", "name": "FOREST HILLS YOUTH ATHLETIC ASSOCIATION INC", "city": "FOREST HILLS", "state": "NY", "zip": "11375-3705", "ntee": "O99", "ruling": "201403", "deductibility": "1", "assets": 501073, "income": 670191, "revenue": 646723}, {"ein": "264338904", "name": "SACKETS HARBOR PATRIOTS ATHLETIC BOOSTER CLUB INC", "city": "SACKETS HBR", "state": "NY", "zip": "13685-2162", "ntee": "B11", "ruling": "201412", "deductibility": "1", "assets": 0, "income": 0, "revenue": 0}, {"ein": "264391503", "name": "PIERMONT POLICE ATHLETIC LEAGUE INC", "city": "PIERMONT", "state": "NY", "zip": "10968-1266", "ntee": "N60", "ruling": "202301", "deductibility": "1", "assets": 0, "income": 0, "revenue": 0}, {"ein": "264808876", "name": "LAFAYETTE ATHLETIC BOOSTER CLUB INCORPORATED", "city": "LAFAYETTE", "state": "NY", "zip": "13084-0294", "ntee": "N11", "ruling": "201103", "deductibility": "1", "assets": 0, "income": 0, "revenue": 0}, {"ein": "271735405", "name": "G O A LS ATHLETIC LEAGUE INC", "city": "BAYSIDE", "state": "NY", "zip": "11361-2071", "ntee": "N63", "ruling": "201012", "deductibility": "1", "assets": 103989, "income": 153345, "revenue": 153345}, {"ein": "271913148", "name": "COLONIAL STATES ATHLETIC CONFERENCE", "city": "LATHAM", "state": "NY", "zip": "12110-0404", "ntee": "N40", "ruling": "201101", "deductibility": "1", "assets": 218944, "income": 261401, "revenue": 261401}, {"ein": "272500620", "name": "BETHPAGE ATHLETIC CAMPS INC", "city": "BETHPAGE", "state": "NY", "zip": "11714-0029", "ntee": "N60", "ruling": "201306", "deductibility": "1", "assets": 8871, "income": 168280, "revenue": 168280}, {"ein": "274446725", "name": "SHERRILL ATHLETIC CLUB", "city": "ONEONTA", "state": "NY", "zip": "13820-2763", "ntee": "N63", "ruling": "201103", "deductibility": "1", "assets": 0, "income": 0, "revenue": 0}, {"ein": "274456943", "name": "CHAZY ATHLETIC ASSOCIATION", "city": "CHAZY", "state": "NY", "zip": "12921-3003", "ntee": "N60", "ruling": "202211", "deductibility": "1", "assets": 0, "income": 0, "revenue": 0}, {"ein": "300090163", "name": "CHECKERS ATHLETIC CLUB", "city": "TONAWANDA", "state": "NY", "zip": "14150-2806", "ntee": "N50", "ruling": "200208", "deductibility": "2", "assets": 0, "income": 0, "revenue": 0}, {"ein": "300569609", "name": "PLAINVIEW OLD BETHPAGE ATHLETIC BOOSTER CLUB INC", "city": "PLAINVIEW", "state": "NY", "zip": "11803-5410", "ntee": "B12", "ruling": "202302", "deductibility": "1", "assets": 0, "income": 0, "revenue": 0}, {"ein": "300895217", "name": "PENDLETON ATHLETIC BOOSTER ASSOCIATION INC", "city": "AMHERST", "state": "NY", "zip": "14228-2001", "ntee": "N60", "ruling": "202002", "deductibility": "1", "assets": 0, "income": 0, "revenue": 0}, {"ein": "311175374", "name": "AMATEUR ATHLETIC UNION OF THE UNITED STATES INC", "city": "LEVITTOWN", "state": "NY", "zip": "11756-2623", "ntee": "N60", "ruling": "202208", "deductibility": "1", "assets": 0, "income": 0, "revenue": 0}, {"ein": "311587583", "name": "SOUTHAMPTON TOWN POLICE ATHLETIC LEAGUE INC", "city": "W HAMPTON BCH", "state": "NY", "zip": "11978-0202", "ntee": "O200", "ruling": "199805", "deductibility": "1", "assets": 21623, "income": 87882, "revenue": 87882}, {"ein": "311705311", "name": "NATIONAL JUNIOR COLLEGE ATHLETIC ASSOCIATION REGION 3 CORPORATION", "city": "ROCHESTER", "state": "NY", "zip": "14623-5701", "ntee": "N03", "ruling": "200006", "deductibility": "1", "assets": 105944, "income": 58544, "revenue": 58544}, {"ein": "331042099", "name": "CHEEKTOWAGA LITTLE LOOP ATHLETIC ASSOCIATION INC", "city": "CHEEKTOWAGA", "state": "NY", "zip": "14225-1512", "ntee": "N65", "ruling": "202405", "deductibility": "1", "assets": 0, "income": 0, "revenue": 0}, {"ein": "331090458", "name": "SKYYE IS THE LIMIT CENTER FOR ACADEMIC ATHLETIC & CULTURAL EXCEL", "city": "BRENTWOOD", "state": "NY", "zip": "11717-2418", "ntee": "", "ruling": "200508", "deductibility": "1", "assets": 10316, "income": 129500, "revenue": 129500}, {"ein": "331137812", "name": "MILLER PLACE ATHLETIC BOOSTER CLUB", "city": "MILLER PLACE", "state": "NY", "zip": "11764-0790", "ntee": "B112", "ruling": "200902", "deductibility": "1", "assets": 80021, "income": 165564, "revenue": 55314}, {"ein": "332429983", "name": "MASSAPEQUA ATHLETIC CLUB INC", "city": "MASSAPEQUA PK", "state": "NY", "zip": "11762-0005", "ntee": "N64", "ruling": "202502", "deductibility": "1", "assets": 0, "income": 0, "revenue": 0}, {"ein": "332576782", "name": "CGA FIRST LOOK ATHLETIC HOUSE", "city": "OSSINING", "state": "NY", "zip": "10562-2427", "ntee": "N40", "ruling": "202503", "deductibility": "1", "assets": 0, "income": 0, "revenue": 0}, {"ein": "333039469", "name": "LIAMS LEGACY ATHLETIC ASSOCIATION INC", "city": "OCEANSIDE", "state": "NY", "zip": "11572-2627", "ntee": "N40", "ruling": "202502", "deductibility": "1", "assets": 0, "income": 0, "revenue": 0}, {"ein": "333243433", "name": "RIVERHEAD ATHLETIC CLUB INC", "city": "RIVERHEAD", "state": "NY", "zip": "11901-0969", "ntee": "N60", "ruling": "202502", "deductibility": "1", "assets": 0, "income": 0, "revenue": 0}, {"ein": "333457310", "name": "DOLGEVILLE ATHLETIC ASSOCIATION", "city": "DOLGEVILLE", "state": "NY", "zip": "13329-0000", "ntee": "N50", "ruling": "202503", "deductibility": "1", "assets": 0, "income": 0, "revenue": 0}, {"ein": "342033502", "name": "EDWARD C PICKEN TROY HS ATHLETIC HALL OF FAME SCHOLARSHIP FUND INC", "city": "TROY", "state": "NY", "zip": "12182-0138", "ntee": "B82", "ruling": "200506", "deductibility": "1", "assets": 0, "income": 0, "revenue": 0}, {"ein": "352165571", "name": "CHINESE FREE MASONS ATHLETIC CLUB INC", "city": "NEW YORK", "state": "NY", "zip": "10013-4440", "ntee": "A23", "ruling": "200909", "deductibility": "1", "assets": 213158, "income": 191049, "revenue": 191049}, {"ein": "352477129", "name": "AMATURE ATHLETIC UNION OF THE UNITED STATES INC", "city": "BELLRS MANOR", "state": "NY", "zip": "11427-2121", "ntee": "", "ruling": "200509", "deductibility": "1", "assets": 14934, "income": 128518, "revenue": 128518}, {"ein": "371932221", "name": "NIAGARA FRONTIER ATHLETIC LEAGUE INC", "city": "NIAGARA FALLS", "state": "NY", "zip": "14304-4641", "ntee": "N70", "ruling": "202005", "deductibility": "1", "assets": 44344, "income": 85715, "revenue": 85715}, {"ein": "383801767", "name": "CHAUTAUQUA LAKE THUNDERBIRD ATHLETIC CLUB INC", "city": "MAYVILLE", "state": "NY", "zip": "14757-9755", "ntee": "B11", "ruling": "201003", "deductibility": "1", "assets": 0, "income": 0, "revenue": 0}, {"ein": "383904765", "name": "HILL BUTLER ATHLETIC CLUB INC", "city": "BUFFALO", "state": "NY", "zip": "14208-1617", "ntee": "N65", "ruling": "201508", "deductibility": "1", "assets": 0, "income": 0, "revenue": 0}, {"ein": "383905354", "name": "LITHUANIAN ATHLETIC CLUB", "city": "GLENDALE", "state": "NY", "zip": "11385-7708", "ntee": "N60", "ruling": "201502", "deductibility": "1", "assets": 0, "income": 0, "revenue": 0}, {"ein": "384054346", "name": "CHERRY VALLEY - SPRINGFIELD ATHLETIC BOOSTER CLUB", "city": "CHERRY VALLEY", "state": "NY", "zip": "13320-2309", "ntee": "O11", "ruling": "201802", "deductibility": "1", "assets": 0, "income": 0, "revenue": 0}, {"ein": "421703286", "name": "SOUTHOLD SCHOOL ATHLETIC ASSOCIATION", "city": "SOUTHOLD", "state": "NY", "zip": "11971-1700", "ntee": "N12", "ruling": "201803", "deductibility": "1", "assets": 0, "income": 0, "revenue": 0}, {"ein": "451563654", "name": "GREENWICH ATHLETIC ASSOCIATION", "city": "GREENWICH", "state": "NY", "zip": "12834-0093", "ntee": "N63", "ruling": "201604", "deductibility": "1", "assets": 0, "income": 0, "revenue": 0}, {"ein": "451655746", "name": "MUSKETEER ATHLETIC BOOSTER CLUB INC", "city": "CENTRAL ISLIP", "state": "NY", "zip": "11722-2028", "ntee": "B11", "ruling": "201202", "deductibility": "1", "assets": 0, "income": 0, "revenue": 0}, {"ein": "452693893", "name": "MIDDLEBURGH ATHLETIC CENTER INC", "city": "MIDDLEBURGH", "state": "NY", "zip": "12122-6421", "ntee": "S80", "ruling": "201407", "deductibility": "1", "assets": 906772, "income": 78877, "revenue": 78877}, {"ein": "453344697", "name": "NESBITT ATHLETIC FOUNDATION", "city": "STATEN ISLAND", "state": "NY", "zip": "10306-4840", "ntee": "N11", "ruling": "201511", "deductibility": "1", "assets": 0, "income": 0, "revenue": 0}, {"ein": "453664348", "name": "SOUTH STARS ATHLETIC ASSOCIATION INC", "city": "BRONX", "state": "NY", "zip": "10459-1679", "ntee": "P20", "ruling": "201308", "deductibility": "1", "assets": 0, "income": 0, "revenue": 0}, {"ein": "454926570", "name": "VESTAL CENTRAL ATHLETIC CLUB INC", "city": "VESTAL", "state": "NY", "zip": "13850-5559", "ntee": "B11", "ruling": "201206", "deductibility": "1", "assets": 156337, "income": 237716, "revenue": 82687}, {"ein": "455536234", "name": "CORTLANDT YOUTH ATHLETIC ASSOCIATION INC", "city": "CORTLANDT MNR", "state": "NY", "zip": "10567-1150", "ntee": "N40", "ruling": "201306", "deductibility": "2", "assets": 0, "income": 0, "revenue": 0}, {"ein": "461188553", "name": "KEN-TON ATHLETIC HALL OF FAME BOOSTER CLUB INC", "city": "KENMORE", "state": "NY", "zip": "14217-1904", "ntee": "B12", "ruling": "201610", "deductibility": "1", "assets": 0, "income": 0, "revenue": 0}, {"ein": "462123734", "name": "EASTPORT-SOUTH MANOR ATHLETIC BOOSTER CLUB INC", "city": "MANORVILLE", "state": "NY", "zip": "11949-0655", "ntee": "B11", "ruling": "201412", "deductibility": "1", "assets": 87549, "income": 94901, "revenue": 94901}, {"ein": "462269306", "name": "STONY POINT POLICE ATHLETIC LEAGUE INC", "city": "STONY POINT", "state": "NY", "zip": "10980-1750", "ntee": "O50", "ruling": "201403", "deductibility": "1", "assets": 0, "income": 0, "revenue": 0}, {"ein": "462929385", "name": "NASSAU ATHLETIC AND ACTIVITY PROGRAMS INC", "city": "GLENWOOD LNDG", "state": "NY", "zip": "11547-0104", "ntee": "N60", "ruling": "201401", "deductibility": "1", "assets": 47638, "income": 54232, "revenue": 54232}, {"ein": "463275798", "name": "ZOGSPORTS ATHLETIC ASSOCIATION", "city": "NEW YORK", "state": "NY", "zip": "10018-4502", "ntee": "P12", "ruling": "201703", "deductibility": "1", "assets": 1, "income": 1, "revenue": 0}, {"ein": "463717400", "name": "BABYLON ATHLETIC BOOSTER CLUB INC", "city": "BABYLON", "state": "NY", "zip": "11702-0153", "ntee": "B11", "ruling": "201601", "deductibility": "1", "assets": 0, "income": 0, "revenue": 0}, {"ein": "464497412", "name": "MINUTEMEN COLONIAL ATHLETIC ASSOCIATION INC", "city": "BRONXVILLE", "state": "NY", "zip": "10708-1013", "ntee": "N62", "ruling": "201509", "deductibility": "1", "assets": 15271, "income": 66680, "revenue": 66680}, {"ein": "465517214", "name": "ROCKY POINT ATHLETIC BOOSTER CLUB INC", "city": "ROCKY POINT", "state": "NY", "zip": "11778-0272", "ntee": "S80", "ruling": "202406", "deductibility": "1", "assets": 91521, "income": 95603, "revenue": 95603}, {"ein": "471192504", "name": "ALBANY REBELS GAELIC ATHLETIC ASSOCIATION INC", "city": "DELMAR", "state": "NY", "zip": "12054-2423", "ntee": "S80", "ruling": "201606", "deductibility": "2", "assets": 0, "income": 0, "revenue": 0}, {"ein": "471662942", "name": "NORTHPORT-EAST NORTHPORT ATHLETIC HALL OF FAME INCORPORATED", "city": "E NORTHPORT", "state": "NY", "zip": "11731-1336", "ntee": "N60", "ruling": "201411", "deductibility": "1", "assets": 0, "income": 0, "revenue": 0}, {"ein": "472557836", "name": "AMATEUR ATHLETIC UNION OF THE UNITED STATES INC", "city": "BROOKLYN", "state": "NY", "zip": "11211-2312", "ntee": "O50", "ruling": "202101", "deductibility": "1", "assets": 4129, "income": 168259, "revenue": 168259}, {"ein": "473515719", "name": "SUFFOLK COUNTY ATHLETIC TRAINERS ASSOCIATION INC", "city": "MORICHES", "state": "NY", "zip": "11955-0245", "ntee": "E03", "ruling": "201511", "deductibility": "1", "assets": 0, "income": 0, "revenue": 0}, {"ein": "474457035", "name": "ARMY WEST POINT ATHLETIC ASSOCIATION INC", "city": "WEST POINT", "state": "NY", "zip": "10996-1510", "ntee": "N11", "ruling": "201607", "deductibility": "1", "assets": 0, "income": 0, "revenue": 0}, {"ein": "475004767", "name": "NEW YORK EXPLOSION ATHLETIC LEAGUE INC", "city": "FREEPORT", "state": "NY", "zip": "11520-3631", "ntee": "N60", "ruling": "201610", "deductibility": "1", "assets": 0, "income": 0, "revenue": 0}, {"ein": "510147684", "name": "NEW YORK STATE PUBLIC HIGH SCHOOL ATHLETIC ASSOCIATION SECTION III", "city": "EAST SYRACUSE", "state": "NY", "zip": "13057-4213", "ntee": "", "ruling": "197304", "deductibility": "1", "assets": 1741079, "income": 2658471, "revenue": 1586826}, {"ein": "510244334", "name": "AMATEUR ATHLETIC UNION OF THE UNITED STATES INC", "city": "DELMAR", "state": "NY", "zip": "12054-8213", "ntee": "", "ruling": "196601", "deductibility": "1", "assets": 0, "income": 0, "revenue": 0}, {"ein": "527224367", "name": "MOHRSVILLE ATHLETIC PLAYGROUNG ASSO", "city": "BUFFALO", "state": "NY", "zip": "14240-1504", "ntee": "T22", "ruling": "200212", "deductibility": "1", "assets": 356721, "income": 109485, "revenue": 0}, {"ein": "550846734", "name": "ATHLETIC ADMINISTRATORS ASSOCIATION CHAPTER 1", "city": "NEW ROCHELLE", "state": "NY", "zip": "10801-1200", "ntee": "B03", "ruling": "200706", "deductibility": "1", "assets": 8727, "income": 360, "revenue": 360}, {"ein": "550891892", "name": "GREATER NEW YORK SANDLOT ATHLETIC ALLIANCE INC", "city": "GREAT NECK", "state": "NY", "zip": "11023-1466", "ntee": "N63", "ruling": "201202", "deductibility": "1", "assets": 0, "income": 0, "revenue": 0}, {"ein": "611679582", "name": "MALTA ATHLETIC ASSOCIATION INC", "city": "MALTA", "state": "NY", "zip": "12020-8913", "ntee": "N99", "ruling": "201412", "deductibility": "1", "assets": 0, "income": 0, "revenue": 0}, {"ein": "743188071", "name": "AMATEUR ATHLETIC UNION OF THE UNITED STATES", "city": "PLAINVIEW", "state": "NY", "zip": "11803-4917", "ntee": "", "ruling": "196601", "deductibility": "1", "assets": 3599, "income": 62083, "revenue": 62083}, {"ein": "753027314", "name": "WESTLAKE ATHLETIC BOOSTER CLUB INC", "city": "HAWTHORNE", "state": "NY", "zip": "10532-0332", "ntee": "N12", "ruling": "202412", "deductibility": "1", "assets": 56080, "income": 162127, "revenue": 87916}, {"ein": "760801318", "name": "CENTRAL SQUARE REDHAWK ATHLETIC BOOSTERS INC", "city": "CENTRAL SQ", "state": "NY", "zip": "13036-0016", "ntee": "B112", "ruling": "200612", "deductibility": "1", "assets": 102804, "income": 209508, "revenue": 188375}, {"ein": "800081153", "name": "SECTION IX ATHLETIC COUNCIL INC", "city": "GOSHEN", "state": "NY", "zip": "10924-0656", "ntee": "N60", "ruling": "200403", "deductibility": "1", "assets": 321306, "income": 708730, "revenue": 708730}, {"ein": "800252435", "name": "MONROE COUNTY PUBLIC SCHOOL ATHLETIC CONFERENCE INC", "city": "BROCKPORT", "state": "NY", "zip": "14420-2509", "ntee": "N50", "ruling": "200901", "deductibility": "2", "assets": 89860, "income": 367448, "revenue": 367448}, {"ein": "800253605", "name": "HERRICKS ATHLETIC BOOSTERS", "city": "NEW HYDE PARK", "state": "NY", "zip": "11040-1356", "ntee": "B11", "ruling": "201005", "deductibility": "1", "assets": 91924, "income": 123330, "revenue": 74134}, {"ein": "811253895", "name": "NORTH SALEM ATHLETIC BOOSTER CLUB INC", "city": "SOMERS", "state": "NY", "zip": "10589-0199", "ntee": "N50", "ruling": "201602", "deductibility": "1", "assets": 24243, "income": 74920, "revenue": 59761}, {"ein": "811439504", "name": "PRIME TIME LACROSSE ATHLETIC OPPORTUNITY FUND INC", "city": "CROSS RIVER", "state": "NY", "zip": "10518-1127", "ntee": "N12", "ruling": "201609", "deductibility": "1", "assets": 0, "income": 0, "revenue": 0}, {"ein": "811868829", "name": "ST GEORGE ATHLETIC CENTER INC", "city": "BROOKLYN", "state": "NY", "zip": "11219-5205", "ntee": "N40", "ruling": "201609", "deductibility": "1", "assets": 0, "income": 0, "revenue": 0}, {"ein": "813669090", "name": "ATHLETIC HAVEN", "city": "ALBANY", "state": "NY", "zip": "12211-1180", "ntee": "", "ruling": "201608", "deductibility": "1", "assets": 0, "income": 0, "revenue": 0}, {"ein": "813808375", "name": "RAIDERS ATHLETIC FOUNDATION INC", "city": "BROOKLYN", "state": "NY", "zip": "11236-4709", "ntee": "O50", "ruling": "201810", "deductibility": "1", "assets": 8429, "income": 10000, "revenue": 10000}, {"ein": "814636939", "name": "INTERNATIONAL CULTURE ATHLETIC PROMOTION ASSOCIATION INC", "city": "BAYSIDE", "state": "NY", "zip": "11361-8010", "ntee": "A99", "ruling": "202408", "deductibility": "1", "assets": 0, "income": 0, "revenue": 0}, {"ein": "820718417", "name": "CAMBRIDGE VALLEY ATHLETIC ASSOCIATION", "city": "CAMBRIDGE", "state": "NY", "zip": "12816-0022", "ntee": "B11", "ruling": "201903", "deductibility": "1", "assets": 0, "income": 0, "revenue": 0}, {"ein": "822484738", "name": "REGIONAL EDUCATIONAL ATHLETIC DEVELOPMENT", "city": "ROCHESTER", "state": "NY", "zip": "14617-4508", "ntee": "O50", "ruling": "201708", "deductibility": "1", "assets": 0, "income": 0, "revenue": 0}, {"ein": "822696505", "name": "HUDSON VALLEY AMATEUR ATHLETIC ORGANIZATION INC", "city": "SLEEPY HOLLOW", "state": "NY", "zip": "10591-7808", "ntee": "N70", "ruling": "201709", "deductibility": "1", "assets": 0, "income": 0, "revenue": 0}, {"ein": "822961397", "name": "TAPPAN ZEE ATHLETIC HALL OF FAME", "city": "BLAUVELT", "state": "NY", "zip": "10913-1353", "ntee": "N60", "ruling": "202005", "deductibility": "1", "assets": 0, "income": 0, "revenue": 0}, {"ein": "823900848", "name": "SUPREME TEAM ATHLETIC ACADEMY", "city": "LONG ISLAND CITY", "state": "NY", "zip": "11101-2318", "ntee": "O50", "ruling": "201801", "deductibility": "1", "assets": 0, "income": 0, "revenue": 0}, {"ein": "824032092", "name": "AMATEUR ATHLETIC FOUNDATION INC", "city": "BUFFALO", "state": "NY", "zip": "14218-0113", "ntee": "O19", "ruling": "201908", "deductibility": "1", "assets": 0, "income": 0, "revenue": 0}, {"ein": "831964815", "name": "MICHJ ATHLETIC ASSOCIATION INC", "city": "JAMESTOWN", "state": "NY", "zip": "14701-2122", "ntee": "N63", "ruling": "201810", "deductibility": "1", "assets": 0, "income": 0, "revenue": 0}, {"ein": "832016120", "name": "INTERSCHOLASTIC ATHLETIC CONFERENCE INC", "city": "WHITNEY POINT", "state": "NY", "zip": "13862-1817", "ntee": "N60", "ruling": "201905", "deductibility": "1", "assets": 747574, "income": 1110936, "revenue": 1110936}, {"ein": "833553292", "name": "NORTH TONAWANDA ATHLETIC ASSOCIATION", "city": "BUFFALO", "state": "NY", "zip": "14228-2001", "ntee": "B99", "ruling": "202001", "deductibility": "1", "assets": 25505, "income": 194597, "revenue": 140501}, {"ein": "841623204", "name": "OYSTER BAY ATHLETIC BOOSTER CLUB INC", "city": "OYSTER BAY", "state": "NY", "zip": "11771-2402", "ntee": "B11", "ruling": "201108", "deductibility": "1", "assets": 81813, "income": 125610, "revenue": 125610}, {"ein": "841688680", "name": "MATTITUCK CUTCHOGUE ATHLETIC BOOSTER CLUB INC", "city": "MATTITUCK", "state": "NY", "zip": "11952-0922", "ntee": "B122", "ruling": "200509", "deductibility": "1", "assets": 45812, "income": 66792, "revenue": 66792}, {"ein": "841780120", "name": "PAWLING TIGERS ATHLETIC CLUB INC", "city": "HOLMES", "state": "NY", "zip": "12531-5428", "ntee": "O50", "ruling": "202301", "deductibility": "1", "assets": 0, "income": 0, "revenue": 0}, {"ein": "841913979", "name": "MONROE WOODBURY ATHLETIC BOOSTER CLUB", "city": "MONROE", "state": "NY", "zip": "10950-5245", "ntee": "N60", "ruling": "201907", "deductibility": "1", "assets": 72319, "income": 80885, "revenue": 80510}, {"ein": "841967532", "name": "CHAMPLAIN VALLEY ATHLETIC CONFERENCE INC", "city": "PLATTSBURGH", "state": "NY", "zip": "12901-7249", "ntee": "N60", "ruling": "202002", "deductibility": "1", "assets": 19312, "income": 31549, "revenue": 31549}, {"ein": "842330375", "name": "PIRATE ALUMNI ATHLETIC FOUNDATION INC", "city": "PEARL RIVER", "state": "NY", "zip": "10965-2309", "ntee": "B25", "ruling": "202305", "deductibility": "1", "assets": 4622, "income": 8825, "revenue": 0}, {"ein": "842394249", "name": "RYE YOUTH ATHLETIC FOUNDATION", "city": "RYE", "state": "NY", "zip": "10580-3234", "ntee": "O12", "ruling": "201908", "deductibility": "1", "assets": 1, "income": 0, "revenue": 0}, {"ein": "843674518", "name": "AMATEUR ATHLETIC UNION OF THE UNITED STATES INC", "city": "HUNTINGTON", "state": "NY", "zip": "11743-3233", "ntee": "N60", "ruling": "200509", "deductibility": "1", "assets": 0, "income": 0, "revenue": 0}, {"ein": "843953034", "name": "DUTCHESS COUNTY GAELIC ATHLETIC ASSOCIATION INC", "city": "LAGRANGEVILLE", "state": "NY", "zip": "12540-0000", "ntee": "A23", "ruling": "202002", "deductibility": "1", "assets": 48263, "income": 81378, "revenue": 80249}, {"ein": "844228019", "name": "UNIVERSITY ATHLETIC ASSOCIATION INC", "city": "ROCHESTER", "state": "NY", "zip": "14620-2223", "ntee": "N70", "ruling": "202109", "deductibility": "1", "assets": 181430, "income": 809170, "revenue": 809170}, {"ein": "851250148", "name": "ATHLETIC VICTOR INITIATIVE LTD", "city": "E NORTHPORT", "state": "NY", "zip": "11731-5407", "ntee": "T12", "ruling": "202006", "deductibility": "1", "assets": 0, "income": 0, "revenue": 0}, {"ein": "852640579", "name": "UNITY ATHLETIC CLUB INC", "city": "WATERTOWN", "state": "NY", "zip": "13601-5439", "ntee": "N60", "ruling": "202010", "deductibility": "1", "assets": 2190, "income": 110382, "revenue": 0}, {"ein": "854011512", "name": "AMATEUR ATHLETIC UNION OF THE UNITED STATES INC", "city": "ENDWELL", "state": "NY", "zip": "13760-1027", "ntee": "N60", "ruling": "200509", "deductibility": "1", "assets": 0, "income": 0, "revenue": 0}, {"ein": "862776526", "name": "ATHLETIC BOOSTER CLUB OF HICKSVILLE INC", "city": "HICKSVILLE", "state": "NY", "zip": "11801-4419", "ntee": "B94", "ruling": "202107", "deductibility": "1", "assets": 31376, "income": 58194, "revenue": 58194}, {"ein": "871569845", "name": "TUCKAHOE SCHOOLS ATHLETIC BOOSTER CLUB INC", "city": "EASTCHESTER", "state": "NY", "zip": "10709-3722", "ntee": "N12", "ruling": "202109", "deductibility": "1", "assets": 0, "income": 0, "revenue": 0}, {"ein": "871787140", "name": "SALISBURY MENS ATHLETIC ASSOCIATION OF EAST MEADOW INC", "city": "WESTBURY", "state": "NY", "zip": "11590-1773", "ntee": "B99", "ruling": "202309", "deductibility": "1", "assets": 0, "income": 0, "revenue": 0}, {"ein": "872907202", "name": "AMATEUR ATHLETIC UNION OF THE UNITED STATES INC", "city": "SCHENECTADY", "state": "NY", "zip": "12304-8510", "ntee": "N60", "ruling": "202209", "deductibility": "1", "assets": 370, "income": 1250, "revenue": 1250}, {"ein": "873354678", "name": "INTEGRATED ATHLETIC INITIATIVE CORP", "city": "STATEN ISLAND", "state": "NY", "zip": "10314-4312", "ntee": "N99", "ruling": "202503", "deductibility": "1", "assets": 91971, "income": 217089, "revenue": 217089}, {"ein": "881236605", "name": "HUDSON VALLEY ATHLETIC CLUB INC", "city": "COCHECTON", "state": "NY", "zip": "12726-0074", "ntee": "", "ruling": "202203", "deductibility": "1", "assets": 26799, "income": 127308, "revenue": 127308}, {"ein": "883610161", "name": "AMATEUR ATHLETIC UNION OF THE UNITED STATES", "city": "GERRY", "state": "NY", "zip": "14740-9535", "ntee": "", "ruling": "196601", "deductibility": "1", "assets": 625, "income": 73851, "revenue": 73851}, {"ein": "900725347", "name": "CLARKSTOWN CENTRAL ATHLETIC FOUNDATION", "city": "NEW CITY", "state": "NY", "zip": "10956-3755", "ntee": "O50", "ruling": "201107", "deductibility": "1", "assets": 0, "income": 0, "revenue": 0}, {"ein": "911876010", "name": "BEEKMAN ATHLETIC CLUB", "city": "POUGHQUAG", "state": "NY", "zip": "12570-0364", "ntee": "N63", "ruling": "202210", "deductibility": "1", "assets": 25545, "income": 119170, "revenue": 112622}, {"ein": "922515544", "name": "YOUTH ATHLETIC LEAGUE OF LAGRANGEVILLE NY INC", "city": "LAGRANGEVILLE", "state": "NY", "zip": "12540-0375", "ntee": "O20", "ruling": "202304", "deductibility": "1", "assets": 6742, "income": 54573, "revenue": 54573}, {"ein": "922610348", "name": "BROOKLYN NEW HORIZON ATHLETIC CLUB CORPORATION", "city": "BROOKLYN", "state": "NY", "zip": "11220-5412", "ntee": "N66", "ruling": "202305", "deductibility": "1", "assets": 0, "income": 0, "revenue": 0}, {"ein": "923122223", "name": "SHELTER ISLAND COMMUNITY AQUATICS & ATHLETIC CENTER INC", "city": "SHELTER IS", "state": "NY", "zip": "11964-0934", "ntee": "N31", "ruling": "202304", "deductibility": "1", "assets": 0, "income": 0, "revenue": 0}, {"ein": "931930816", "name": "COMSEWOGUE YOUTH ATHLETIC ASSOCIATION INC", "city": "PORT JEFF STA", "state": "NY", "zip": "11776-3187", "ntee": "O50", "ruling": "202307", "deductibility": "1", "assets": 22756, "income": 34446, "revenue": 34446}, {"ein": "933092110", "name": "AMATEUR ATHLETIC UNION OF THE UNITED STATES INC", "city": "WEST SENECA", "state": "NY", "zip": "14224-2920", "ntee": "X21", "ruling": "200102", "deductibility": "1", "assets": 0, "income": 0, "revenue": 0}, {"ein": "933841198", "name": "NEW YORK ETHIO ATHLETIC ASSOCIATION INC", "city": "BRONX", "state": "NY", "zip": "10463-5875", "ntee": "N80", "ruling": "202311", "deductibility": "1", "assets": 0, "income": 0, "revenue": 0}, {"ein": "934026181", "name": "EASTERN SCHOOLS FOR THE DEAF ATHLETIC ASSOCIATION", "city": "EAST ELMHURST", "state": "NY", "zip": "11370-1441", "ntee": "N31", "ruling": "202311", "deductibility": "1", "assets": 0, "income": 0, "revenue": 0}, {"ein": "934735181", "name": "ATHLETIC RENOVATIONS", "city": "BROOKLYN", "state": "NY", "zip": "11224-1918", "ntee": "S30", "ruling": "202402", "deductibility": "1", "assets": 0, "income": 0, "revenue": 0}, {"ein": "943447436", "name": "ATHLETIC BOOSTER FULTON I INC", "city": "FULTON", "state": "NY", "zip": "13069-4924", "ntee": "B11", "ruling": "200902", "deductibility": "1", "assets": 141799, "income": 70274, "revenue": 33147}, {"ein": "990864147", "name": "SOCIAL AND ATHLETIC CLUB OF THE ISLIPS INC", "city": "OAKDALE", "state": "NY", "zip": "11769-1626", "ntee": "W12", "ruling": "202403", "deductibility": "1", "assets": 7480, "income": 12640, "revenue": 0}, {"ein": "990980045", "name": "MINEOLA HIGH SCHOOL ATHLETIC HALL OF FAME CORP", "city": "WILLISTON PK", "state": "NY", "zip": "11596-1808", "ntee": "B84", "ruling": "202403", "deductibility": "1", "assets": 0, "income": 0, "revenue": 0}, {"ein": "991170230", "name": "TRINITY ATHLETIC COMMUNITY INC", "city": "NEW YORK", "state": "NY", "zip": "10007-2913", "ntee": "N40", "ruling": "202406", "deductibility": "1", "assets": 0, "income": 0, "revenue": 0}, {"ein": "991457130", "name": "LIVONIA ATHLETIC BOOSTER COMMUNITY INC", "city": "LIVONIA", "state": "NY", "zip": "14487-0041", "ntee": "N12", "ruling": "202404", "deductibility": "1", "assets": 0, "income": 0, "revenue": 0}, {"ein": "992049070", "name": "ABRAHAMIC ATHLETIC ACADEMY INC", "city": "NEW YORK", "state": "NY", "zip": "10018-3770", "ntee": "P20", "ruling": "202404", "deductibility": "1", "assets": 0, "income": 0, "revenue": 0}, {"ein": "992913637", "name": "STATEN ISLAND ATHLETIC INSTITUTE CORP", "city": "STATEN ISLAND", "state": "NY", "zip": "10310-1233", "ntee": "O50", "ruling": "202407", "deductibility": "1", "assets": 0, "income": 0, "revenue": 0}, {"ein": "993035888", "name": "SOUTH SHORE ATHLETIC ASSOCIATION INC", "city": "BROOKLYN", "state": "NY", "zip": "11207-6710", "ntee": "N60", "ruling": "202405", "deductibility": "1", "assets": 0, "income": 0, "revenue": 0}, {"ein": "994227225", "name": "CATSKILL ATHLETIC CLUB INC", "city": "HOBART", "state": "NY", "zip": "13788-2921", "ntee": "N60", "ruling": "202408", "deductibility": "1", "assets": 0, "income": 0, "revenue": 0}], "RESTAURACION": [{"ein": "030533692", "name": "CENTRO CRISTIANO DE RESTAURACION Y AVIVAMIENTO INC", "city": "BROOKLYN", "state": "NY", "zip": "11214-1603", "ntee": "X21", "ruling": "200405", "deductibility": "1", "assets": 0, "income": 0, "revenue": 0}, {"ein": "113090714", "name": "IGLESIA MISION CRISTIANA RESTAURACION INC", "city": "BAYSHORE", "state": "NY", "zip": "11706-0000", "ntee": "", "ruling": "199308", "deductibility": "1", "assets": 0, "income": 0, "revenue": 0}, {"ein": "113447053", "name": "IGLESIA BIBLICA RESTAURACION INC", "city": "SUNNYSIDE", "state": "NY", "zip": "11104-2209", "ntee": "X21", "ruling": "200008", "deductibility": "1", "assets": 0, "income": 0, "revenue": 0}, {"ein": "113506973", "name": "MINISTERIOS DE SALVACION Y RESTAURACION EN JESUCRISTO", "city": "ELMHURST", "state": "NY", "zip": "11373-2948", "ntee": "X20", "ruling": "200105", "deductibility": "1", "assets": 0, "income": 0, "revenue": 0}, {"ein": "113512267", "name": "IGLESIA CONSILIO DE RESTAURACION EVANGELICO ELIM", "city": "UNIONDALE", "state": "NY", "zip": "11553-2929", "ntee": "X21", "ruling": "200509", "deductibility": "1", "assets": 0, "income": 0, "revenue": 0}, {"ein": "113525398", "name": "RESTORATION PENTECOSTAL CHURCH INC IGLESIA PENTECOSTAL RESTAURACION", "city": "HEMPSTEAD", "state": "NY", "zip": "11550-6434", "ntee": "X20", "ruling": "201312", "deductibility": "1", "assets": 0, "income": 0, "revenue": 0}, {"ein": "113569271", "name": "IGLESIA CENTRO DE RESTAURACION DE LA COMUNIDAD", "city": "MINEOLA", "state": "NY", "zip": "11501-4614", "ntee": "X21", "ruling": "200012", "deductibility": "1", "assets": 0, "income": 0, "revenue": 0}, {"ein": "113582538", "name": "IGLESIA DEL NAZARENO RESTAURACION", "city": "MIDDLE ISLAND", "state": "NY", "zip": "11953-1835", "ntee": "", "ruling": "196307", "deductibility": "1", "assets": 0, "income": 0, "revenue": 0}, {"ein": "133759741", "name": "IGLESIA DE RESTAURACION ELIM INC", "city": "YONKERS", "state": "NY", "zip": "10703-0997", "ntee": "X20", "ruling": "200604", "deductibility": "1", "assets": 0, "income": 0, "revenue": 0}, {"ein": "205708884", "name": "IGLESIA DE DIOS CATEDRAL DE RESTAURACION", "city": "JAMAICA", "state": "NY", "zip": "11435-3612", "ntee": "X20", "ruling": "200706", "deductibility": "1", "assets": 0, "income": 0, "revenue": 0}, {"ein": "205735125", "name": "CENTRO CRISTIANO RESTAURACION INTL", "city": "HICKSVILLE", "state": "NY", "zip": "11801-5300", "ntee": "", "ruling": "196408", "deductibility": "1", "assets": 0, "income": 0, "revenue": 0}, {"ein": "264802881", "name": "MINISTERIO RESTAURACION A LAS NACIONES INC", "city": "HAMPTON BAYS", "state": "NY", "zip": "11946-2352", "ntee": "X21", "ruling": "201101", "deductibility": "1", "assets": 694089, "income": 197662, "revenue": 197662}, {"ein": "270038508", "name": "CASA CELESTIAL DE RESTAURACION MINISTERIO INTERNACIONAL INC", "city": "BRONX", "state": "NY", "zip": "10458-2610", "ntee": "X20", "ruling": "200304", "deductibility": "1", "assets": 0, "income": 0, "revenue": 0}, {"ein": "273109824", "name": "CASA DE RESTAURACION PUERTA DEL CIELO INC", "city": "BRONX", "state": "NY", "zip": "10452-1662", "ntee": "X21", "ruling": "201208", "deductibility": "1", "assets": 52102, "income": 196063, "revenue": 196063}, {"ein": "274396147", "name": "CENTRO BIBLICO CASA DE RESTAURACION INC", "city": "BALDWIN", "state": "NY", "zip": "11510-4060", "ntee": "X21", "ruling": "201106", "deductibility": "1", "assets": 1329096, "income": 375321, "revenue": 375321}, {"ein": "275024945", "name": "CASA DE RESTAURACION VINO NUEVO INC", "city": "BRONX", "state": "NY", "zip": "10462-2640", "ntee": "X20", "ruling": "201204", "deductibility": "1", "assets": 0, "income": 0, "revenue": 0}, {"ein": "275409576", "name": "IGLESIA FUENTE DE RESTAURACION INC", "city": "BROOKLYN", "state": "NY", "zip": "11208-0000", "ntee": "X20", "ruling": "201509", "deductibility": "1", "assets": 0, "income": 0, "revenue": 0}, {"ein": "452662955", "name": "IGLESIA CRISTIANA VOZ DE RESTAURACION INC", "city": "FREEPORT", "state": "NY", "zip": "11520-1506", "ntee": "X20", "ruling": "201108", "deductibility": "1", "assets": 0, "income": 0, "revenue": 0}, {"ein": "455453560", "name": "2DA IGLESIA FUENTE DE RESTAURACION", "city": "WOODHAVEN", "state": "NY", "zip": "11421-6255", "ntee": "X20", "ruling": "201306", "deductibility": "1", "assets": 0, "income": 0, "revenue": 0}, {"ein": "461198042", "name": "CENTRO CRISTIANO DE RESTAURACION", "city": "BRONX", "state": "NY", "zip": "10459-4494", "ntee": "X21", "ruling": "202406", "deductibility": "1", "assets": 0, "income": 0, "revenue": 0}, {"ein": "463428041", "name": "FUNDACION MINISTERIO DE RESTAURACION ARCA DEL PACTO INC", "city": "NEW YORK", "state": "NY", "zip": "10027-4230", "ntee": "X21", "ruling": "201410", "deductibility": "1", "assets": 0, "income": 0, "revenue": 0}, {"ein": "471149446", "name": "CENTRO CRISTIANO DE RESTAURACION ADULAM INC", "city": "PORT CHESTER", "state": "NY", "zip": "10573-4707", "ntee": "X20", "ruling": "201501", "deductibility": "1", "assets": 0, "income": 0, "revenue": 0}, {"ein": "473640538", "name": "IGLESIA DE RESTAURACION EL SHADDAI INC", "city": "YONKERS", "state": "NY", "zip": "10701-7424", "ntee": "X20", "ruling": "201601", "deductibility": "1", "assets": 0, "income": 0, "revenue": 0}, {"ein": "473675723", "name": "CASA DE RESTAURACION", "city": "BRONX", "state": "NY", "zip": "10457-3005", "ntee": "X20", "ruling": "201605", "deductibility": "1", "assets": 0, "income": 0, "revenue": 0}, {"ein": "473728151", "name": "CENTRO CRISTIANO DE RESTAURACION EL SHADDAI", "city": "BRONX", "state": "NY", "zip": "10454-2678", "ntee": "X21", "ruling": "201507", "deductibility": "1", "assets": 0, "income": 0, "revenue": 0}, {"ein": "810859603", "name": "CASA DE ADORACION ORACION Y RESTAURACION JESUCRISTO ES EL SENO", "city": "NEW YORK", "state": "NY", "zip": "10039-1314", "ntee": "X20", "ruling": "201605", "deductibility": "1", "assets": 15859, "income": 15859, "revenue": 15859}, {"ein": "824186861", "name": "CASA DE RESTAURACION LA GLORIA DE DIOS", "city": "NEW CITY", "state": "NY", "zip": "10956-1227", "ntee": "X20", "ruling": "201809", "deductibility": "1", "assets": 237626, "income": 177914, "revenue": 177914}, {"ein": "852295398", "name": "IGLESIA RESTAURACION ELIM LONG ISLAND", "city": "BRENTWOOD", "state": "NY", "zip": "11717-0000", "ntee": "X20", "ruling": "202009", "deductibility": "1", "assets": 0, "income": 0, "revenue": 0}, {"ein": "852679304", "name": "CASA DE RESTAURACION IGLESIA-HOUSE OF RESTORATION CHURCH", "city": "CAMBRIA HTS", "state": "NY", "zip": "11411-2022", "ntee": "X20", "ruling": "202201", "deductibility": "1", "assets": 0, "income": 0, "revenue": 0}, {"ein": "853756612", "name": "MINISTERIO RESTAURACION CRISTO VIVE INC", "city": "RIDGE", "state": "NY", "zip": "11961-2972", "ntee": "X21", "ruling": "202207", "deductibility": "1", "assets": 0, "income": 0, "revenue": 0}, {"ein": "872893836", "name": "IGLESIA CRISTIANA RESTAURACION VERDAD Y VIDA", "city": "BRONX", "state": "NY", "zip": "10468-2855", "ntee": "X99", "ruling": "202207", "deductibility": "1", "assets": 0, "income": 0, "revenue": 0}, {"ein": "922641292", "name": "CASA DE RESTAURACION ADORACION AL REY INC", "city": "BRONX", "state": "NY", "zip": "10460-4372", "ntee": "X20", "ruling": "202501", "deductibility": "1", "assets": 0, "income": 0, "revenue": 0}, {"ein": "931450930", "name": "CASA DE RESTAURACION Y MISERICORDIA INC", "city": "BUFFALO", "state": "NY", "zip": "14220-2041", "ntee": "X20", "ruling": "202405", "deductibility": "1", "assets": 1, "income": 109730, "revenue": 109730}, {"ein": "934460298", "name": "CASA DE RESTAURACION JEHOVA NISI INC", "city": "JAMAICA", "state": "NY", "zip": "11434-5000", "ntee": "X21", "ruling": "202507", "deductibility": "1", "assets": 0, "income": 0, "revenue": 0}], "CAMPBELL": [{"ein": "030597058", "name": "CAMPBELL-SAVONA BOOSTER CLUB", "city": "CAMPBELL", "state": "NY", "zip": "14821-9716", "ntee": "B112", "ruling": "200702", "deductibility": "1", "assets": 0, "income": 0, "revenue": 0}, {"ein": "066233812", "name": "CARL CAMPBELL TR FBO ROSCOE LIBRARY", "city": "GOSHEN", "state": "NY", "zip": "10924-1804", "ntee": "", "ruling": "000000", "deductibility": "0", "assets": 89713, "income": 3858, "revenue": 0}, {"ein": "161233102", "name": "CAMPBELL CHRISTIAN & MISSIONARY ALLIANCE CHURCH", "city": "CAMPBELL", "state": "NY", "zip": "14821-0459", "ntee": "", "ruling": "197205", "deductibility": "0", "assets": 0, "income": 0, "revenue": 0}, {"ein": "161500454", "name": "THE T COLIN CAMPBELL CENTER FOR NUTRITION STUDIES", "city": "WEBSTER", "state": "NY", "zip": "14580-8792", "ntee": "T50Z", "ruling": "199705", "deductibility": "1", "assets": 1599360, "income": 1412279, "revenue": 0}, {"ein": "261774454", "name": "EAST CAMPBELL FIRE DEPARTMENT INC", "city": "PAINTED POST", "state": "NY", "zip": "14870-9543", "ntee": "M24", "ruling": "200801", "deductibility": "1", "assets": 267673, "income": 105882, "revenue": 105882}, {"ein": "262609460", "name": "GEORGE K CAMPBELL SCHOLARSHIP", "city": "BROOKLYN", "state": "NY", "zip": "11212-4737", "ntee": "B82", "ruling": "200809", "deductibility": "1", "assets": 1085, "income": 28984, "revenue": 28984}, {"ein": "320426648", "name": "DREW CAMPBELL FOUNDATION INC", "city": "BROOKLYN", "state": "NY", "zip": "11216-0000", "ntee": "T22", "ruling": "202202", "deductibility": "1", "assets": 189141, "income": 25012, "revenue": 0}, {"ein": "333229263", "name": "CAMPBELL SAVONA PTO", "city": "SAVONA", "state": "NY", "zip": "14879-9714", "ntee": "B94", "ruling": "202502", "deductibility": "1", "assets": 0, "income": 0, "revenue": 0}, {"ein": "451858390", "name": "TY LOUIS CAMPBELL FOUNDATION INC", "city": "PAWLING", "state": "NY", "zip": "12564-2220", "ntee": "G12", "ruling": "201209", "deductibility": "1", "assets": 1008695, "income": 614837, "revenue": 464816}, {"ein": "454668300", "name": "FRIENDS OF MARTIN CAMPBELL", "city": "STONY POINT", "state": "NY", "zip": "10980-2906", "ntee": "T30", "ruling": "201311", "deductibility": "1", "assets": 0, "income": 0, "revenue": 0}, {"ein": "526480274", "name": "JANE W CAMPBELL CO TR UW", "city": "BUFFALO", "state": "NY", "zip": "14240-1504", "ntee": "", "ruling": "199308", "deductibility": "1", "assets": 2988533, "income": 942619, "revenue": 0}, {"ein": "831644347", "name": "CAMPBELL-SAVONA-BRADFORD YOUTH WRESTLING CLUB", "city": "CAMPBELL", "state": "NY", "zip": "14821-9715", "ntee": "N70", "ruling": "201901", "deductibility": "1", "assets": 0, "income": 0, "revenue": 0}, {"ein": "871916850", "name": "MIKE CAMPBELL MEMORIAL SCHOLARSHIP INC", "city": "STATEN ISLAND", "state": "NY", "zip": "10312-5606", "ntee": "T12", "ruling": "202110", "deductibility": "1", "assets": 0, "income": 0, "revenue": 0}, {"ein": "921966208", "name": "FRIENDS OF CAMPBELL TOWN INC", "city": "LK RONKONKOMA", "state": "NY", "zip": "11779-1664", "ntee": "O50", "ruling": "202308", "deductibility": "1", "assets": 0, "income": 0, "revenue": 0}, {"ein": "934070123", "name": "CAMPBELL CINDERELLA SOFTBALL", "city": "CAMPBELL", "state": "NY", "zip": "14821-9589", "ntee": "N63", "ruling": "202403", "deductibility": "1", "assets": 0, "income": 0, "revenue": 0}, {"ein": "991339170", "name": "JILL CAMPBELL INCORPORATED", "city": "WESTBURY", "state": "NY", "zip": "11590-6515", "ntee": "B28", "ruling": "202404", "deductibility": "1", "assets": 0, "income": 0, "revenue": 0}], "MARIA": [{"ein": "036033050", "name": "MARIA AGAN TUA FOR SELECTED CHARITIES", "city": "BUFFALO", "state": "NY", "zip": "14240-1504", "ntee": "T20", "ruling": "201906", "deductibility": "1", "assets": 1531734, "income": 337596, "revenue": 0}, {"ein": "111847126", "name": "MARIA REGINA ROMAN CATHOLIC CHURCH", "city": "SEAFORD", "state": "NY", "zip": "11783-1631", "ntee": "", "ruling": "196501", "deductibility": "1", "assets": 0, "income": 0, "revenue": 0}, {"ein": "112507361", "name": "MARIA S S DELL-ASSUNTA INC", "city": "WESTBURY", "state": "NY", "zip": "11590-3242", "ntee": "X20", "ruling": "199904", "deductibility": "1", "assets": 390990, "income": 67300, "revenue": 55700}, {"ein": "113059311", "name": "INCORPORATED SOCIETY OF SAINT MARIA DEL BUONCAMMINO NY", "city": "FRANKLIN SQUARE", "state": "NY", "zip": "11010-0000", "ntee": "", "ruling": "199406", "deductibility": "2", "assets": 836733, "income": 527146, "revenue": 212451}, {"ein": "113071205", "name": "MARIA SS DELLE GRAZIE DI MONTEVAGO INC", "city": "MERRICK", "state": "NY", "zip": "11566-1426", "ntee": "P84", "ruling": "199908", "deductibility": "1", "assets": 0, "income": 0, "revenue": 0}, {"ein": "113333294", "name": "FRIENDS OF PORT MARIA INC", "city": "BROOKLYN", "state": "NY", "zip": "11203-3709", "ntee": "Q30", "ruling": "200302", "deductibility": "1", "assets": 1697, "income": 11596, "revenue": 9336}, {"ein": "113454920", "name": "MARIA HULAI LION FOUNDATION INC", "city": "BROOKLYN", "state": "NY", "zip": "11235-5920", "ntee": "B82", "ruling": "199909", "deductibility": "1", "assets": 2118958, "income": 459215, "revenue": 0}, {"ein": "113568616", "name": "SANTA MARIA CLUB INC", "city": "SOUTHAMPTON", "state": "NY", "zip": "11969-0500", "ntee": "N200", "ruling": "200204", "deductibility": "1", "assets": 240617, "income": 11597, "revenue": 0}, {"ein": "113622376", "name": "POLISH SUPPLEMENTAL SCHOOL OF MARIA KONOPNICKA INC", "city": "GARDEN CITY", "state": "NY", "zip": "11530-0000", "ntee": "B20", "ruling": "200209", "deductibility": "1", "assets": 41888, "income": 21730, "revenue": 21730}, {"ein": "113637961", "name": "MARIA REGINA RESIDENCE INC", "city": "BRENTWOOD", "state": "NY", "zip": "11717-5543", "ntee": "", "ruling": "194603", "deductibility": "1", "assets": 10347113, "income": 24334781, "revenue": 24334781}, {"ein": "131623994", "name": "CASITA MARIA INC", "city": "BRONX", "state": "NY", "zip": "10459-4402", "ntee": "", "ruling": "194603", "deductibility": "1", "assets": 12363543, "income": 2944043, "revenue": 2702990}, {"ein": "132785353", "name": "EUGENIO MARIA DE HOSTOS COMMUNITY", "city": "BRONX", "state": "NY", "zip": "10451-5323", "ntee": "", "ruling": "198012", "deductibility": "1", "assets": 1236407, "income": 493585, "revenue": 493585}, {"ein": "132938892", "name": "BLACK MARIA INC", "city": "NEW YORK", "state": "NY", "zip": "10011-3232", "ntee": "A31", "ruling": "201202", "deductibility": "1", "assets": 0, "income": 0, "revenue": 0}, {"ein": "133103029", "name": "ASSOCIATION ARK OF REFUGEES INC C/O MARIA CINTRON", "city": "BRONX", "state": "NY", "zip": "10462-3502", "ntee": "", "ruling": "199308", "deductibility": "1", "assets": 0, "income": 0, "revenue": 0}, {"ein": "133116643", "name": "EUGENIO MARIA DE HOSTOS COMMUNITY COLLEGE FOUNDATION", "city": "BRONX", "state": "NY", "zip": "10451-5323", "ntee": "A200", "ruling": "198212", "deductibility": "1", "assets": 20404624, "income": 3232135, "revenue": 2671828}, {"ein": "133173593", "name": "ANNA MARIA AND STEPHEN KELLEN FOUNDATION INC", "city": "NEW YORK", "state": "NY", "zip": "10038-5117", "ntee": "", "ruling": "198310", "deductibility": "1", "assets": 226418946, "income": 61416419, "revenue": 0}, {"ein": "133702133", "name": "FRIENDS OF RADIO MARIA INC", "city": "RIDGEWOOD", "state": "NY", "zip": "11385-5901", "ntee": "", "ruling": "199407", "deductibility": "1", "assets": 249611, "income": 173201, "revenue": 138089}, {"ein": "133915004", "name": "DANIELLA MARIA ARTURI FOUNDATION INC", "city": "NEW YORK", "state": "NY", "zip": "10017-0000", "ntee": "T99J", "ruling": "199612", "deductibility": "1", "assets": 6720, "income": 7006, "revenue": 0}, {"ein": "134200099", "name": "MARIA I NEW CHILDRENS HORMONE FOUNDATION INC", "city": "NEW YORK", "state": "NY", "zip": "10028-2008", "ntee": "H12", "ruling": "200205", "deductibility": "1", "assets": 65157, "income": 1, "revenue": 0}, {"ein": "141463151", "name": "MARIA COLLEGE", "city": "ALBANY", "state": "NY", "zip": "12208-1715", "ntee": "", "ruling": "194603", "deductibility": "1", "assets": 27209111, "income": 17775068, "revenue": 17048493}, {"ein": "160871487", "name": "VILLA MARIA COLLEGE OF BUFFALO", "city": "BUFFALO", "state": "NY", "zip": "14225-3913", "ntee": "", "ruling": "196606", "deductibility": "1", "assets": 7995874, "income": 16340128, "revenue": 16334468}, {"ein": "161235269", "name": "SANTA MARIA TOWERS HOUSING DEVELOPMENT FUND COMPANY INC", "city": "BUFFALO", "state": "NY", "zip": "14203-1711", "ntee": "", "ruling": "194603", "deductibility": "1", "assets": 3133780, "income": 1218818, "revenue": 1218818}, {"ein": "161588384", "name": "EUGENIO MARIA DE HOSTOS CHARTER SCHOOL", "city": "ROCHESTER", "state": "NY", "zip": "14621-3411", "ntee": "B24", "ruling": "200101", "deductibility": "1", "assets": 17302631, "income": 19461813, "revenue": 19461813}, {"ein": "161609169", "name": "MARIA M LOVE CONVALESCENT FUND", "city": "BUFFALO", "state": "NY", "zip": "14213-0293", "ntee": "P20", "ruling": "200108", "deductibility": "1", "assets": 1004208, "income": 177199, "revenue": 131766}, {"ein": "166021284", "name": "MARIA L TALCOTT TRUST UW", "city": "NORWICH", "state": "NY", "zip": "13815-0000", "ntee": "", "ruling": "000000", "deductibility": "0", "assets": 32862, "income": 3734, "revenue": 0}, {"ein": "205599631", "name": "LEE AND MARIA FRIEDLANDER FAMILYFOUNDATION", "city": "NEW CITY", "state": "NY", "zip": "10956-2315", "ntee": "T20", "ruling": "200612", "deductibility": "1", "assets": 3018254, "income": 2487717, "revenue": 0}, {"ein": "205724058", "name": "CENTRO CORAZON DE MARIA INC", "city": "HAMPTON BAYS", "state": "NY", "zip": "11946-1816", "ntee": "", "ruling": "194603", "deductibility": "1", "assets": 192316, "income": 307343, "revenue": 307343}, {"ein": "208939982", "name": "CONGREGA DI MARIA SS ADDOLORATA", "city": "BROOKLYN", "state": "NY", "zip": "11228-2218", "ntee": "X20", "ruling": "201005", "deductibility": "1", "assets": 116542, "income": 78106, "revenue": 78106}, {"ein": "260307995", "name": "ASSOCIAZIONE CULTURALE PUGLIESEFIGLI MARIA SS ADDOLORATA INC", "city": "BROOKLYN", "state": "NY", "zip": "11219-6024", "ntee": "A23", "ruling": "200908", "deductibility": "1", "assets": 28473, "income": 67734, "revenue": 26271}, {"ein": "270293247", "name": "WORLD FAMILY OF RADIO MARIA INC", "city": "NEW YORK", "state": "NY", "zip": "10014-5002", "ntee": "X84", "ruling": "200907", "deductibility": "1", "assets": 56958, "income": 417657, "revenue": 417657}, {"ein": "272197268", "name": "SANTA MARIA FIGLI DITALIA", "city": "BRONX", "state": "NY", "zip": "10461-2903", "ntee": "S80", "ruling": "201905", "deductibility": "2", "assets": 0, "income": 0, "revenue": 0}, {"ein": "273050309", "name": "CATHOLIC PARISH OF SAINTS ISIDORE AND MARIA TORRIBIA STEUBEN", "city": "ADDISON", "state": "NY", "zip": "14801-1125", "ntee": "", "ruling": "194603", "deductibility": "1", "assets": 0, "income": 0, "revenue": 0}, {"ein": "311613163", "name": "MARIA GEMS", "city": "BRONX", "state": "NY", "zip": "10469-2049", "ntee": "P40", "ruling": "199911", "deductibility": "1", "assets": 0, "income": 0, "revenue": 0}, {"ein": "334577317", "name": "SAINT MARIA GORETTI OLD GIRLS ASSOCIATION NORTH AMERICA INC", "city": "POUND RIDGE", "state": "NY", "zip": "10576-1846", "ntee": "B90", "ruling": "202506", "deductibility": "1", "assets": 0, "income": 0, "revenue": 0}, {"ein": "352181050", "name": "RONALD MCDONALD HOUSE AT THE MARIA FARERI CHILDRENS HOSPITAL INC", "city": "VALHALLA", "state": "NY", "zip": "10595-1556", "ntee": "", "ruling": "200712", "deductibility": "1", "assets": 7891363, "income": 2764019, "revenue": 2557860}, {"ein": "364908479", "name": "THE MARIA ESPERANZA ORTIZ FOUNDATION INC", "city": "YONKERS", "state": "NY", "zip": "10705-3535", "ntee": "", "ruling": "201809", "deductibility": "1", "assets": 3083, "income": 1, "revenue": 0}, {"ein": "452891552", "name": "THE MARIA COPPOLA FOUNDATION INC", "city": "NEW YORK", "state": "NY", "zip": "10040-2715", "ntee": "T30", "ruling": "201203", "deductibility": "1", "assets": 0, "income": 0, "revenue": 0}, {"ein": "461771682", "name": "MARIA STELLA D EVANGELIZZAZIONE FOUNDATION INC", "city": "BRONX", "state": "NY", "zip": "10456-4306", "ntee": "O54", "ruling": "201609", "deductibility": "1", "assets": 0, "income": 0, "revenue": 0}, {"ein": "464114276", "name": "JOSEPHINE CARTOLANO AND MARIA PALAGONIA FOUNDATION INC", "city": "NORTHPORT", "state": "NY", "zip": "11768-1025", "ntee": "Z99", "ruling": "201407", "deductibility": "1", "assets": 559670, "income": 15737, "revenue": 0}, {"ein": "473544230", "name": "LOCAL 926S MARIA CONCILLO MEMORIAL SCHOLARSHIP FUND INC", "city": "BROOKLYN", "state": "NY", "zip": "11214-2868", "ntee": "B82", "ruling": "201504", "deductibility": "1", "assets": 263769, "income": 89547, "revenue": 32556}, {"ein": "474247532", "name": "LUZ MARIA FOUNDATION INC", "city": "NEW YORK", "state": "NY", "zip": "10017-4003", "ntee": "I71", "ruling": "201511", "deductibility": "1", "assets": 0, "income": 0, "revenue": 0}, {"ein": "474329338", "name": "MARIA KONOPNICKA SCHOOL OF POLISH LANGUAGE", "city": "POUGHKEEPSIE", "state": "NY", "zip": "12603-3106", "ntee": "B24", "ruling": "201607", "deductibility": "1", "assets": 69913, "income": 77106, "revenue": 77106}, {"ein": "475524296", "name": "CENTRO CULTURAL DEPORTIVO MARIA MONTEZ INC", "city": "BRONX", "state": "NY", "zip": "10458-6415", "ntee": "A23", "ruling": "202001", "deductibility": "1", "assets": 35000, "income": 0, "revenue": 0}, {"ein": "475594813", "name": "LA VOZ DE MARIA EVANGELIZATION NETWORK INC", "city": "FOREST HILLS", "state": "NY", "zip": "11375-4134", "ntee": "X80", "ruling": "201603", "deductibility": "1", "assets": 0, "income": 0, "revenue": 0}, {"ein": "477026273", "name": "MARIA AND JOEL@FINKLE CHARITABLE TRUST", "city": "BROOKLYN", "state": "NY", "zip": "11210-4744", "ntee": "T20", "ruling": "201604", "deductibility": "1", "assets": 4051078, "income": 891062, "revenue": 0}, {"ein": "542138510", "name": "BENEVOLENT SOCIETY OF MARIA SS MA ADDOLORATA DI PIGNATARO INTERAMNA", "city": "LONG IS CITY", "state": "NY", "zip": "11101-0354", "ntee": "X20", "ruling": "200608", "deductibility": "1", "assets": 48143, "income": 62852, "revenue": 35534}, {"ein": "832165198", "name": "HURRICANE MARIA ASSISTANCE & RELIEF INSTITUTIONAL ALLIANCE", "city": "NEW YORK", "state": "NY", "zip": "10031-9114", "ntee": "", "ruling": "201910", "deductibility": "1", "assets": 26550, "income": 159523, "revenue": 159523}, {"ein": "844188213", "name": "CARLO MARIA MARIANI AND CAROL LANE MARIANI FOUNDATION", "city": "NEW YORK", "state": "NY", "zip": "10023-3801", "ntee": "A25", "ruling": "202008", "deductibility": "1", "assets": 110585, "income": 110885, "revenue": 0}, {"ein": "844672085", "name": "PURA MARIA FOUNDATION INC", "city": "NEW YORK", "state": "NY", "zip": "10004-3604", "ntee": "I11", "ruling": "202003", "deductibility": "1", "assets": 0, "income": 0, "revenue": 0}, {"ein": "872421572", "name": "MARIA AND LUCIA LEGACY FOUNDATION", "city": "NORTH BABYLON", "state": "NY", "zip": "11703-4724", "ntee": "B90", "ruling": "202202", "deductibility": "1", "assets": 0, "income": 0, "revenue": 0}, {"ein": "934156551", "name": "MARIA SAFE HAVEN FARM INC", "city": "BRONX", "state": "NY", "zip": "10467-5806", "ntee": "D61", "ruling": "202405", "deductibility": "1", "assets": 0, "income": 0, "revenue": 0}, {"ein": "981486281", "name": "COMEDOR SANTA MARIA AC", "city": "NEW YORK", "state": "NY", "zip": "10006-0000", "ntee": "Q33", "ruling": "202108", "deductibility": "4", "assets": 6811631, "income": 6070042, "revenue": 6070042}, {"ein": "992060388", "name": "SANCTA MARIA HOUSE INC", "city": "SYRACUSE", "state": "NY", "zip": "13209-1307", "ntee": "L80", "ruling": "202404", "deductibility": "1", "assets": 0, "income": 0, "revenue": 0}], "FUNDRAISING": [{"ein": "043652972", "name": "ASSOCIATION OF FUNDRAISING PROFESSIONALS", "city": "ITHACA", "state": "NY", "zip": "14851-0194", "ntee": "", "ruling": "198709", "deductibility": "1", "assets": 0, "income": 0, "revenue": 0}, {"ein": "112831401", "name": "ASSOCIATION OF FUNDRAISING PROFESSIONALS", "city": "HUNTINGTON", "state": "NY", "zip": "11743-2060", "ntee": "", "ruling": "198709", "deductibility": "1", "assets": 94062, "income": 60282, "revenue": 60282}, {"ein": "132998061", "name": "ASSOCIATION OF FUNDRAISING PROFESSIONALS", "city": "NEW YORK", "state": "NY", "zip": "10018-8403", "ntee": "", "ruling": "198709", "deductibility": "1", "assets": 507347, "income": 722760, "revenue": 722760}, {"ein": "134251459", "name": "DC COMPETITION COMPANY FUNDRAISING TEAM DCCT", "city": "EAST ISLIP", "state": "NY", "zip": "11730-1000", "ntee": "A62", "ruling": "200403", "deductibility": "1", "assets": 0, "income": 0, "revenue": 0}, {"ein": "161324056", "name": "ASSOCIATION OF FUNDRAISING PROFESSIONALS", "city": "BUFFALO", "state": "NY", "zip": "14209-0535", "ntee": "", "ruling": "198709", "deductibility": "1", "assets": 150305, "income": 0, "revenue": 0}, {"ein": "161335588", "name": "ASSOCIATION OF FUNDRAISING PROFESSIONALS", "city": "ROCHESTER", "state": "NY", "zip": "14610-0313", "ntee": "", "ruling": "198709", "deductibility": "1", "assets": 152967, "income": 100622, "revenue": 100622}, {"ein": "161408293", "name": "ASSOCIATION OF FUNDRAISING PROFESSIONALS", "city": "SYRACUSE", "state": "NY", "zip": "13220-5074", "ntee": "", "ruling": "198709", "deductibility": "1", "assets": 0, "income": 0, "revenue": 0}, {"ein": "205768716", "name": "REHEMA HOME US FUNDRAISING INC", "city": "ROCHESTER", "state": "NY", "zip": "14606-1959", "ntee": "T30", "ruling": "200710", "deductibility": "1", "assets": 86036, "income": 407357, "revenue": 407357}, {"ein": "223315871", "name": "ASSOCIATION OF FUNDRAISING PROFESSIONALS", "city": "ALBANY", "state": "NY", "zip": "12203-8149", "ntee": "", "ruling": "198709", "deductibility": "1", "assets": 0, "income": 0, "revenue": 0}, {"ein": "421702446", "name": "ASSOCIATION OF FUNDRAISING PROFESSIONALS", "city": "MONTGOMERY", "state": "NY", "zip": "12549-2263", "ntee": "", "ruling": "198709", "deductibility": "1", "assets": 0, "income": 0, "revenue": 0}, {"ein": "871396215", "name": "NATIONAL HUMANITARIAN FUNDRAISING FOR MYANMAR INC", "city": "NEW YORK", "state": "NY", "zip": "10007-3617", "ntee": "P20", "ruling": "202205", "deductibility": "1", "assets": 15915, "income": 50000, "revenue": 50000}, {"ein": "922276026", "name": "BREAST CANCER FOR LIFE FUNDRAISING CORPORATION", "city": "LONG BEACH", "state": "NY", "zip": "11561-0961", "ntee": "E12", "ruling": "202401", "deductibility": "1", "assets": 0, "income": 0, "revenue": 0}, {"ein": "994816504", "name": "4TK FUNDRAISING SOLUTIONS INC", "city": "WEST BABYLON", "state": "NY", "zip": "11704-5239", "ntee": "O12", "ruling": "202409", "deductibility": "1", "assets": 0, "income": 0, "revenue": 0}], "FCI": [{"ein": "061397261", "name": "FCI OTISVILLES EMPLOYEES CLUB INC", "city": "OTISVILLE", "state": "NY", "zip": "10963-0000", "ntee": "", "ruling": "199507", "deductibility": "2", "assets": 0, "income": 0, "revenue": 0}], "ALEX": [{"ein": "066086137", "name": "PROFESSIONAL HORSEMENS SCHOLARSHIP FUND INC % ALEX FORMAN", "city": "NEW HAMPTON", "state": "NY", "zip": "10958-4422", "ntee": "", "ruling": "196707", "deductibility": "1", "assets": 97175, "income": 16657, "revenue": 0}, {"ein": "113203164", "name": "ALEX BENJAMIN NORRIS MEMORIAL FUND INC", "city": "NEW YORK", "state": "NY", "zip": "10022-8016", "ntee": "", "ruling": "199605", "deductibility": "1", "assets": 0, "income": 0, "revenue": 0}, {"ein": "132560546", "name": "THE RITA AND ALEX HILLMAN FOUNDATION", "city": "NEW YORK", "state": "NY", "zip": "10003-1500", "ntee": "", "ruling": "196607", "deductibility": "1", "assets": 92468865, "income": 2208714, "revenue": 0}, {"ein": "133056043", "name": "MAD ALEX ARTS FOUNDATION INC", "city": "NEW YORK", "state": "NY", "zip": "10002-0000", "ntee": "", "ruling": "198205", "deductibility": "1", "assets": 0, "income": 0, "revenue": 0}, {"ein": "136156031", "name": "ALEX & RUTH FRUCHTHANDLER FOUNDATION INC", "city": "NEW YORK", "state": "NY", "zip": "10004-1590", "ntee": "", "ruling": "194608", "deductibility": "1", "assets": 8794686, "income": 38247, "revenue": 0}, {"ein": "136899030", "name": "THE ALEX MARROW CHILDRENS FUND", "city": "RYE", "state": "NY", "zip": "10580-2229", "ntee": "", "ruling": "198811", "deductibility": "1", "assets": 99570, "income": 37110, "revenue": 25536}, {"ein": "150532223", "name": "ALEX ELIGH COMMUNITY CENTER INC", "city": "NEWARK", "state": "NY", "zip": "14513-0043", "ntee": "", "ruling": "195003", "deductibility": "1", "assets": 1113489, "income": 1379042, "revenue": 671021}, {"ein": "204856691", "name": "ALEX AND ZOLI FOUNDATION", "city": "LAWRENCE", "state": "NY", "zip": "11559-0000", "ntee": "T20", "ruling": "200808", "deductibility": "1", "assets": 12328, "income": 20021, "revenue": 0}, {"ein": "223786644", "name": "THE ALEX FUND INC", "city": "NEW YORK", "state": "NY", "zip": "10013-0778", "ntee": "T30", "ruling": "200107", "deductibility": "1", "assets": 208384, "income": 240233, "revenue": 130904}, {"ein": "472312280", "name": "ALEX CARES INCORPORATED", "city": "LARCHMONT", "state": "NY", "zip": "10538-1448", "ntee": "P30", "ruling": "201602", "deductibility": "1", "assets": 0, "income": 0, "revenue": 0}, {"ein": "475488301", "name": "ALEX HOUSE PROJECT INC", "city": "BROOKLYN", "state": "NY", "zip": "11201-5388", "ntee": "P40", "ruling": "201604", "deductibility": "1", "assets": 74890, "income": 757912, "revenue": 757912}, {"ein": "510529249", "name": "ALEX KATZ FOUNDATION", "city": "NEW YORK", "state": "NY", "zip": "10016-0000", "ntee": "T23", "ruling": "200502", "deductibility": "1", "assets": 110933332, "income": 47032150, "revenue": 0}, {"ein": "810910619", "name": "THE ALEX@NEUSTADT FOUNDATION", "city": "MONROE", "state": "NY", "zip": "10950-2407", "ntee": "T20", "ruling": "201603", "deductibility": "1", "assets": 410216, "income": 410019, "revenue": 0}, {"ein": "812161282", "name": "ALEX BHAK MEMORIAL FUND INCORPORATED", "city": "NEW YORK", "state": "NY", "zip": "10024-6652", "ntee": "B82", "ruling": "202303", "deductibility": "1", "assets": 0, "income": 0, "revenue": 0}, {"ein": "814974233", "name": "ALEX LIVINGSTON SCHOLARSHIP FUND INC", "city": "NEW YORK", "state": "NY", "zip": "10021-4038", "ntee": "B82", "ruling": "201808", "deductibility": "1", "assets": 285113, "income": 68611, "revenue": 68611}, {"ein": "815283414", "name": "ALEX PICHETTE MEMORIAL FOUNDATION", "city": "N TONAWANDA", "state": "NY", "zip": "14120-4858", "ntee": "O11", "ruling": "202103", "deductibility": "1", "assets": 0, "income": 0, "revenue": 0}, {"ein": "830604944", "name": "ALEX CEFALU MEMORIAL FOUNDATION INC", "city": "DIX HILLS", "state": "NY", "zip": "11746-6730", "ntee": "G12", "ruling": "201807", "deductibility": "1", "assets": 20680, "income": 35803, "revenue": 0}, {"ein": "831294075", "name": "ALEX AND FRIEDA ADJMI FOUNDATION INC", "city": "NEW YORK", "state": "NY", "zip": "10018-3372", "ntee": "T20", "ruling": "201811", "deductibility": "1", "assets": 1, "income": 1, "revenue": 0}, {"ein": "842840232", "name": "ALEX TUCH FOUNDATION", "city": "PITTSFORD", "state": "NY", "zip": "14534-1318", "ntee": "T12", "ruling": "201912", "deductibility": "1", "assets": 127613, "income": 114288, "revenue": 114288}, {"ein": "862059440", "name": "ALEX G DUNCAN FOUNDATION FOR FIGHTING TESTICULAR CANCER", "city": "NISKAYUNA", "state": "NY", "zip": "12309-4502", "ntee": "G30", "ruling": "202109", "deductibility": "1", "assets": 0, "income": 0, "revenue": 0}], "GASOLINE": [{"ein": "111019467", "name": "L I GASOLINE RETAILERS ASSOC", "city": "MELVILLE", "state": "NY", "zip": "11747-3516", "ntee": "", "ruling": "194411", "deductibility": "2", "assets": 449076, "income": 208150, "revenue": 208150}], "WARTBURG": [{"ein": "111631836", "name": "WARTBURG LUTHERAN HOME FOR THE AGING", "city": "SCARSDALE", "state": "NY", "zip": "10583-5012", "ntee": "", "ruling": "194209", "deductibility": "1", "assets": 1095072, "income": 344552, "revenue": 344552}, {"ein": "113051052", "name": "WARTBURG HOUSING DEVELOPMENT FUND CORPORATION", "city": "SCARSDALE", "state": "NY", "zip": "10583-5012", "ntee": "L80Z", "ruling": "199106", "deductibility": "1", "assets": 2235130, "income": 1520132, "revenue": 1520132}, {"ein": "131740497", "name": "WARTBURG HOME OF THE EVANGELICAL LUTHERAN CHURCH", "city": "MT VERNON", "state": "NY", "zip": "10552-0000", "ntee": "E910", "ruling": "194301", "deductibility": "1", "assets": 40699683, "income": 27704778, "revenue": 25034196}, {"ein": "133621265", "name": "WARTBURG MT VERNON INC", "city": "MT VERNON", "state": "NY", "zip": "10552-0000", "ntee": "", "ruling": "199204", "deductibility": "1", "assets": 27242647, "income": 180, "revenue": 180}, {"ein": "133621266", "name": "WARTBURG HOME FOUNDATION INC", "city": "MOUNT VERNON", "state": "NY", "zip": "10552-0000", "ntee": "L22Z", "ruling": "199207", "deductibility": "1", "assets": 21419413, "income": 11921689, "revenue": 1037521}, {"ein": "133695648", "name": "WARTBURG RESIDENTIAL COMMUNITY INC", "city": "MOUNT VERNON", "state": "NY", "zip": "10552-0000", "ntee": "L22Z", "ruling": "199308", "deductibility": "1", "assets": 7842709, "income": 2745798, "revenue": 2629062}, {"ein": "134043128", "name": "WARTBURG SENIOR HOUSING INC", "city": "MT VERNON", "state": "NY", "zip": "10552-0000", "ntee": "L22", "ruling": "199904", "deductibility": "1", "assets": 20853246, "income": 10012945, "revenue": 8455988}, {"ein": "811903312", "name": "WARTBURG MANAGEMENT SERVICES INC", "city": "MOUNT VERNON", "state": "NY", "zip": "10552-3821", "ntee": "L11", "ruling": "201808", "deductibility": "1", "assets": 12307, "income": 48784, "revenue": 48784}, {"ein": "874772633", "name": "WARTBURG REALTY INC", "city": "MOUNT VERNON", "state": "NY", "zip": "10552-3821", "ntee": "P75", "ruling": "202209", "deductibility": "1", "assets": 1367167, "income": 0, "revenue": 0}], "CHEMED": [{"ein": "111864921", "name": "BACHUREI CHEMED OF LONG BEACH", "city": "LONG BEACH", "state": "NY", "zip": "11561-0389", "ntee": "X30", "ruling": "200209", "deductibility": "1", "assets": 0, "income": 0, "revenue": 0}, {"ein": "113306532", "name": "CONG BETH MEDRESH CHEMED OF ROCKLAND", "city": "MONSEY", "state": "NY", "zip": "10952-3302", "ntee": "X30Z", "ruling": "199603", "deductibility": "1", "assets": 0, "income": 0, "revenue": 0}, {"ein": "113523883", "name": "CONGREGATION YESHIVA CHEMED SHLOMO TENKA", "city": "BROOKLYN", "state": "NY", "zip": "11219-2520", "ntee": "X30", "ruling": "200003", "deductibility": "1", "assets": 0, "income": 0, "revenue": 0}, {"ein": "113587024", "name": "GMACH CHEMED SHLOMO TENKA", "city": "BROOKLYN", "state": "NY", "zip": "11219-2520", "ntee": "X30", "ruling": "200108", "deductibility": "1", "assets": 0, "income": 0, "revenue": 0}, {"ein": "134172143", "name": "CONGREGATION YESHIVA BACHUREI CHEMED INC", "city": "SPRING VALLEY", "state": "NY", "zip": "10977-1912", "ntee": "X30", "ruling": "200204", "deductibility": "1", "assets": 0, "income": 0, "revenue": 0}, {"ein": "237225287", "name": "CONG BETH MEDRASH CHEMED", "city": "MT KISCO", "state": "NY", "zip": "10549-0000", "ntee": "", "ruling": "197209", "deductibility": "1", "assets": 0, "income": 0, "revenue": 0}, {"ein": "262314871", "name": "CONGREGATION T CHEMED", "city": "BROOKLYN", "state": "NY", "zip": "11219-3631", "ntee": "X30", "ruling": "201008", "deductibility": "1", "assets": 0, "income": 0, "revenue": 0}, {"ein": "611964875", "name": "YESHIVA BACHUREI CHEMED INC", "city": "WOODMERE", "state": "NY", "zip": "11598-2701", "ntee": "X30", "ruling": "202010", "deductibility": "1", "assets": 0, "income": 0, "revenue": 0}, {"ein": "800100879", "name": "YESHIVA TORAS CHEMED INC", "city": "MT KISCO", "state": "NY", "zip": "10549-4002", "ntee": "", "ruling": "200405", "deductibility": "1", "assets": 0, "income": 0, "revenue": 0}, {"ein": "843034605", "name": "TORAS CHEMED NITRA INC", "city": "BROOKLYN", "state": "NY", "zip": "11211-7108", "ntee": "X30", "ruling": "202104", "deductibility": "1", "assets": 0, "income": 0, "revenue": 0}, {"ein": "874111260", "name": "CONG TORAS CHEMED DNITRA", "city": "BROOKLYN", "state": "NY", "zip": "11211-8705", "ntee": "X30", "ruling": "202204", "deductibility": "1", "assets": 0, "income": 0, "revenue": 0}, {"ein": "933813211", "name": "CONGREGATION MASMIDEI CHEMED", "city": "BROOKLYN", "state": "NY", "zip": "11204-1126", "ntee": "X30", "ruling": "202405", "deductibility": "1", "assets": 0, "income": 0, "revenue": 0}], "CORAM": [{"ein": "112070472", "name": "CORAM VOLUNTEER FIRE DEPT INC", "city": "CORAM", "state": "NY", "zip": "11727-4401", "ntee": "", "ruling": "196708", "deductibility": "2", "assets": 0, "income": 0, "revenue": 0}, {"ein": "112495600", "name": "BREAD OF LIFE MINISTRIES OF CORAM NEW YORK", "city": "CORAM", "state": "NY", "zip": "11727-3112", "ntee": "", "ruling": "197908", "deductibility": "1", "assets": 0, "income": 0, "revenue": 0}, {"ein": "112955779", "name": "FAITH BAPTIST CHURCH OF CORAM YOUTH AWARENESS INC", "city": "CORAM", "state": "NY", "zip": "11727-0151", "ntee": "O40Z", "ruling": "199508", "deductibility": "1", "assets": 62777, "income": 156539, "revenue": 156539}, {"ein": "113047429", "name": "CORAM VOLUNTEER & EXEMPT FIREMENS BENEVOLENT ASSOCIATION INC", "city": "CORAM", "state": "NY", "zip": "11727-4401", "ntee": "", "ruling": "199810", "deductibility": "2", "assets": 1948218, "income": 192343, "revenue": 192343}, {"ein": "204630146", "name": "CORAM CIVIC ASSOCIATION", "city": "CORAM", "state": "NY", "zip": "11727-0021", "ntee": "S20", "ruling": "200809", "deductibility": "2", "assets": 0, "income": 0, "revenue": 0}, {"ein": "463054820", "name": "CORAM CENTER FOR DEVELOPMENTALLY DISABLED ADULTS INC", "city": "ISLANDIA", "state": "NY", "zip": "11749-4836", "ntee": "L20", "ruling": "201311", "deductibility": "1", "assets": 3860080, "income": 47425, "revenue": 47425}, {"ein": "820858577", "name": "CORAM DEO CHURCH", "city": "NEW YORK", "state": "NY", "zip": "10036-4211", "ntee": "X20", "ruling": "201708", "deductibility": "1", "assets": 0, "income": 0, "revenue": 0}, {"ein": "821315966", "name": "ISLAAMIC CENTER OF MEDFORD-CORAM", "city": "MEDFORD", "state": "NY", "zip": "11763-1041", "ntee": "X40", "ruling": "202401", "deductibility": "1", "assets": 0, "income": 0, "revenue": 0}, {"ein": "934509101", "name": "CORAM DEO MINISTRIES INC", "city": "CLAY", "state": "NY", "zip": "13041-8986", "ntee": "", "ruling": "202401", "deductibility": "0", "assets": 53000, "income": 53000, "revenue": 53000}], "SEAFORD": [{"ein": "112432600", "name": "SEAFORD HOOK LADDER AND ENGINE COMPANY NO 1 INC", "city": "SEAFORD", "state": "NY", "zip": "11783-2544", "ntee": "M24", "ruling": "201011", "deductibility": "1", "assets": 326228, "income": 137179, "revenue": 121204}, {"ein": "112764682", "name": "UNITED TEACHERS OF SEAFORD TRUST FUND", "city": "NEW YORK", "state": "NY", "zip": "10170-0000", "ntee": "", "ruling": "198601", "deductibility": "2", "assets": 510955, "income": 374581, "revenue": 374581}, {"ein": "113194039", "name": "OUR REDEEMER LUTHERAN SCHOOL OF SEAFORD", "city": "SEAFORD", "state": "NY", "zip": "11783-2251", "ntee": "B21P", "ruling": "199503", "deductibility": "1", "assets": 0, "income": 0, "revenue": 0}, {"ein": "113612034", "name": "SEAFORD WELLNESS COUNCIL", "city": "SEAFORD", "state": "NY", "zip": "11783-2009", "ntee": "P20", "ruling": "201211", "deductibility": "1", "assets": 30049, "income": 36295, "revenue": 36295}, {"ein": "116077272", "name": "SEAFORD VOLUNTEER & EXEMPT BENEVOLENT ASSOCIATION", "city": "SEAFORD", "state": "NY", "zip": "11783-2544", "ntee": "Y44", "ruling": "201003", "deductibility": "2", "assets": 3452903, "income": 435782, "revenue": 435782}, {"ein": "237066685", "name": "SEAFORD HISTORICAL SOCIETY", "city": "SEAFORD", "state": "NY", "zip": "11783-0166", "ntee": "", "ruling": "197006", "deductibility": "1", "assets": 23625, "income": 75369, "revenue": 67581}, {"ein": "261690411", "name": "LEVITTOWN SEAFORD WANTAGH ATHLETIC ASSOCIATION INC", "city": "WANTAGH", "state": "NY", "zip": "11793-0635", "ntee": "O50", "ruling": "200805", "deductibility": "1", "assets": 303900, "income": 544814, "revenue": 544814}, {"ein": "510196122", "name": "SEAFORD HARBOR CIVIC ASSOCIATION", "city": "SEAFORD", "state": "NY", "zip": "11783-0409", "ntee": "", "ruling": "197608", "deductibility": "2", "assets": 0, "income": 0, "revenue": 0}, {"ein": "873648827", "name": "SEAFORD VIKINGS BOOSTER CLUB INC", "city": "WANTAGH", "state": "NY", "zip": "11793-4248", "ntee": "N99", "ruling": "202204", "deductibility": "1", "assets": 0, "income": 0, "revenue": 0}, {"ein": "921221005", "name": "SEAFORD VIKING FOOTBALL CLUB INC", "city": "SEAFORD", "state": "NY", "zip": "11783-2006", "ntee": "N12", "ruling": "202212", "deductibility": "1", "assets": 0, "income": 0, "revenue": 0}, {"ein": "933436190", "name": "SEAFORD BLAZERS INC", "city": "SEAFORD", "state": "NY", "zip": "11783-2113", "ntee": "N63", "ruling": "202402", "deductibility": "1", "assets": 4514, "income": 5364, "revenue": 0}], "CPA": [{"ein": "112436145", "name": "KIRYAT ELIEZER C O O ABRAHAM CPA", "city": "BROOKLYN", "state": "NY", "zip": "11219-3956", "ntee": "", "ruling": "197710", "deductibility": "1", "assets": 0, "income": 0, "revenue": 0}, {"ein": "112905407", "name": "NASSAU SUFFOLK CHAPTER NATIONAL CONFERENCE OF CPA PRACTITIONERS", "city": "MINEOLA", "state": "NY", "zip": "11501-2990", "ntee": "", "ruling": "198810", "deductibility": "2", "assets": 203163, "income": 101118, "revenue": 101118}, {"ein": "132976429", "name": "NATIONAL CONFERENCE OF CPA", "city": "MINEOLA", "state": "NY", "zip": "11501-2937", "ntee": "", "ruling": "199104", "deductibility": "2", "assets": 284586, "income": 200062, "revenue": 200062}], "MOGEN": [{"ein": "112455388", "name": "MOGEN YITZCHOK C O CHAIM SCHNEEBALG", "city": "BKLYN", "state": "NY", "zip": "11211-8179", "ntee": "", "ruling": "197806", "deductibility": "1", "assets": 0, "income": 0, "revenue": 0}, {"ein": "203425740", "name": "MOGEN SAFETY COUNCIL INC", "city": "FRANKLIN SQUARE", "state": "NY", "zip": "11010-3247", "ntee": "M19", "ruling": "200706", "deductibility": "1", "assets": 0, "income": 0, "revenue": 0}, {"ein": "222670567", "name": "MOGEN FOUNDATION INC", "city": "NEW YORK", "state": "NY", "zip": "10023-8020", "ntee": "", "ruling": "199310", "deductibility": "1", "assets": 1709532, "income": 514503, "revenue": 0}, {"ein": "271198986", "name": "MOGEN AVRAHAM FOUNDATION", "city": "REGO PARK", "state": "NY", "zip": "11374-3866", "ntee": "T22", "ruling": "201003", "deductibility": "1", "assets": 40, "income": 10058, "revenue": 0}, {"ein": "510142250", "name": "MOGEN AUROHOM", "city": "BROOKLYN", "state": "NY", "zip": "11218-5904", "ntee": "", "ruling": "197506", "deductibility": "1", "assets": 0, "income": 0, "revenue": 0}], "BREAD": [{"ein": "112469008", "name": "FRESH BREAD MINISTRY OF NEW YORK", "city": "MEDFORD", "state": "NY", "zip": "11763-1927", "ntee": "", "ruling": "197904", "deductibility": "1", "assets": 0, "income": 0, "revenue": 0}, {"ein": "112495600", "name": "BREAD OF LIFE MINISTRIES OF CORAM NEW YORK", "city": "CORAM", "state": "NY", "zip": "11727-3112", "ntee": "", "ruling": "197908", "deductibility": "1", "assets": 0, "income": 0, "revenue": 0}, {"ein": "113019771", "name": "BREAD OF LIFE DEVELOPMENT INC", "city": "HUNTINGTN STA", "state": "NY", "zip": "11746-2221", "ntee": "", "ruling": "199102", "deductibility": "1", "assets": 0, "income": 0, "revenue": 0}, {"ein": "113068018", "name": "UNLEAVEN BREAD DELIVERANCE TEMPLE OF CHRIST INC", "city": "BROOKLYN", "state": "NY", "zip": "11213-4169", "ntee": "", "ruling": "199111", "deductibility": "1", "assets": 0, "income": 0, "revenue": 0}, {"ein": "113093519", "name": "BREAD OF LIFE", "city": "WYANDANCH", "state": "NY", "zip": "11798-4460", "ntee": "X20", "ruling": "199902", "deductibility": "1", "assets": 0, "income": 0, "revenue": 0}, {"ein": "113171798", "name": "BREAD OF LIFE FELLOWSHIP INC", "city": "FREEPORT", "state": "NY", "zip": "11520-1537", "ntee": "", "ruling": "196402", "deductibility": "1", "assets": 0, "income": 0, "revenue": 0}, {"ein": "113174514", "name": "ST JOHNS BREAD & LIFE PROGRAM INC", "city": "BROOKLYN", "state": "NY", "zip": "11221-2903", "ntee": "K300", "ruling": "194603", "deductibility": "1", "assets": 9773508, "income": 8083221, "revenue": 8028495}, {"ein": "113331272", "name": "BREAD OF LIFE CHRISTIAN FELLOWSHIP", "city": "ISLAND PARK", "state": "NY", "zip": "11558-1444", "ntee": "X20Z", "ruling": "199708", "deductibility": "1", "assets": 0, "income": 0, "revenue": 0}, {"ein": "132935188", "name": "BREAD & ROSES CULTURAL PROJECT INC", "city": "NEW YORK", "state": "NY", "zip": "10018-6798", "ntee": "A200", "ruling": "197808", "deductibility": "1", "assets": 0, "income": 0, "revenue": 0}, {"ein": "134063774", "name": "LIVING BREAD OF LIFE MINISTRIES INC", "city": "BRONX", "state": "NY", "zip": "10459-1803", "ntee": "X21", "ruling": "200107", "deductibility": "1", "assets": 0, "income": 0, "revenue": 0}, {"ein": "141731645", "name": "POUGHKEEPSIE BREAD OF LIFE CHURCH", "city": "POUGHKEEPSIE", "state": "NY", "zip": "12601-4410", "ntee": "", "ruling": "199103", "deductibility": "1", "assets": 0, "income": 0, "revenue": 0}, {"ein": "161272093", "name": "BREAD OF LIFE CHURCH INC", "city": "VERNON CENTER", "state": "NY", "zip": "13477-3621", "ntee": "", "ruling": "198802", "deductibility": "1", "assets": 0, "income": 0, "revenue": 0}, {"ein": "161556279", "name": "SATURDAYS BREAD", "city": "ONEONTA", "state": "NY", "zip": "13820-5012", "ntee": "P60", "ruling": "199904", "deductibility": "1", "assets": 202628, "income": 78277, "revenue": 76622}, {"ein": "202831174", "name": "BREAD AND ROSES COLLECTIVE HOUSE INC", "city": "SYRACUSE", "state": "NY", "zip": "13210-2206", "ntee": "L21", "ruling": "201407", "deductibility": "1", "assets": 385897, "income": 66523, "revenue": 66305}, {"ein": "222505154", "name": "BREAD OF LIFE CHURCH", "city": "BUFFALO", "state": "NY", "zip": "14220-1214", "ntee": "", "ruling": "198902", "deductibility": "1", "assets": 0, "income": 0, "revenue": 0}, {"ein": "223237056", "name": "BREAD OF LIFE ASSEMBLY OF GOD", "city": "BULLVILLE", "state": "NY", "zip": "10915-0456", "ntee": "", "ruling": "196408", "deductibility": "1", "assets": 0, "income": 0, "revenue": 0}, {"ein": "223464878", "name": "RESURRECTION POWER AND LIVING BREAD", "city": "BRONX", "state": "NY", "zip": "10457-6017", "ntee": "X20Z", "ruling": "199805", "deductibility": "1", "assets": 0, "income": 0, "revenue": 0}, {"ein": "262316333", "name": "HOUSE OF BREAD MINISTRIES INC", "city": "MOUNT VERNON", "state": "NY", "zip": "10550-4103", "ntee": "X20", "ruling": "200903", "deductibility": "1", "assets": 0, "income": 0, "revenue": 0}, {"ein": "262847686", "name": "THE BREAD AND GOSPEL OF EASTERN AMERICA INC", "city": "FLUSHING", "state": "NY", "zip": "11354-0802", "ntee": "K31", "ruling": "201304", "deductibility": "1", "assets": 12498, "income": 51057, "revenue": 51057}, {"ein": "263332972", "name": "HOT BREAD KITCHEN LTD", "city": "NEW YORK", "state": "NY", "zip": "10011-0000", "ntee": "P50", "ruling": "200905", "deductibility": "1", "assets": 13018041, "income": 11460978, "revenue": 11268897}, {"ein": "263907541", "name": "BREAD LOAF ROCK FOUNDATION", "city": "RYE", "state": "NY", "zip": "10580-1808", "ntee": "T22", "ruling": "201002", "deductibility": "1", "assets": 3560470, "income": 195093, "revenue": 0}, {"ein": "270063271", "name": "INTERNATIONAL HOUSE OF BREAD CHRISTIAN CENTER", "city": "BROOKLYN", "state": "NY", "zip": "11236-4818", "ntee": "X21", "ruling": "200409", "deductibility": "1", "assets": 0, "income": 0, "revenue": 0}, {"ein": "273172986", "name": "BREAD OF LIFE OUTREACH OF COLDEN NEW YORK INC", "city": "COLDEN", "state": "NY", "zip": "14033-0113", "ntee": "P20", "ruling": "201104", "deductibility": "1", "assets": 391101, "income": 134574, "revenue": 134574}, {"ein": "300046742", "name": "BREAD OF LIFE PENTECOSTAL MINISTRIES INC", "city": "BROOKLYN", "state": "NY", "zip": "11213-3799", "ntee": "X21", "ruling": "200206", "deductibility": "1", "assets": 0, "income": 0, "revenue": 0}, {"ein": "300092661", "name": "BREAD AND SOUP MINISTRIES", "city": "BAY SHORE", "state": "NY", "zip": "11706-4711", "ntee": "X21", "ruling": "200310", "deductibility": "1", "assets": 0, "income": 0, "revenue": 0}, {"ein": "301303715", "name": "BREAD OF LIFE CHURCH INC", "city": "BULLVILLE", "state": "NY", "zip": "10915-0456", "ntee": "X20", "ruling": "202210", "deductibility": "1", "assets": 0, "income": 0, "revenue": 0}, {"ein": "364974891", "name": "BREAD OF LIFE CHRISTIAN CHURCH", "city": "FLUSHING", "state": "NY", "zip": "11354-5752", "ntee": "X21", "ruling": "202112", "deductibility": "1", "assets": 121640, "income": 172437, "revenue": 172437}, {"ein": "455012469", "name": "LIVING BREAD INTERNATIONAL MINISTRIES INC", "city": "BROOKLYN", "state": "NY", "zip": "11234-4317", "ntee": "X21", "ruling": "201206", "deductibility": "1", "assets": 0, "income": 0, "revenue": 0}, {"ein": "471257505", "name": "BREAD RUN CORP", "city": "DIX HILLS", "state": "NY", "zip": "11746-5103", "ntee": "K30", "ruling": "201501", "deductibility": "1", "assets": 0, "income": 0, "revenue": 0}, {"ein": "522414924", "name": "BREAD AND WATER THEATRE INC", "city": "MUMFORD", "state": "NY", "zip": "14511-0171", "ntee": "A65", "ruling": "200410", "deductibility": "1", "assets": 0, "income": 0, "revenue": 0}, {"ein": "571139144", "name": "HOUSE OF LIVING BREAD", "city": "BROOKLYN", "state": "NY", "zip": "11236-0000", "ntee": "X20", "ruling": "200902", "deductibility": "1", "assets": 0, "income": 0, "revenue": 0}, {"ein": "760727581", "name": "BREAD OF LIFE FELLOWSHIP", "city": "MORAVIA", "state": "NY", "zip": "13118-2360", "ntee": "X21", "ruling": "200403", "deductibility": "1", "assets": 0, "income": 0, "revenue": 0}, {"ein": "810924266", "name": "JANET LUZON BREAD & HOPE FOUNDATION INC", "city": "MEDFORD", "state": "NY", "zip": "11763-1577", "ntee": "K30", "ruling": "201701", "deductibility": "1", "assets": 0, "income": 0, "revenue": 0}, {"ein": "811813254", "name": "HOUSE OF BREAD INTERNATIONAL MINISTRY", "city": "BRONX", "state": "NY", "zip": "10456-5777", "ntee": "X20", "ruling": "201605", "deductibility": "1", "assets": 49500, "income": 2001, "revenue": 0}, {"ein": "815285044", "name": "BREAD FOR ISRAEL INC", "city": "LAKE SUCCESS", "state": "NY", "zip": "11042-1126", "ntee": "Q33", "ruling": "201805", "deductibility": "1", "assets": 54035, "income": 208686, "revenue": 208686}, {"ein": "824077072", "name": "DAILY BREAD FOOD PANTRY", "city": "CHERRY VALLEY", "state": "NY", "zip": "13320-0328", "ntee": "K31", "ruling": "201802", "deductibility": "1", "assets": 0, "income": 0, "revenue": 0}, {"ein": "825105642", "name": "BREAD OF LIFE LUTHERAN CHURCH", "city": "ROME", "state": "NY", "zip": "13440-3942", "ntee": "", "ruling": "194107", "deductibility": "1", "assets": 0, "income": 0, "revenue": 0}, {"ein": "833683041", "name": "RESURRECTION POWER & LIVING BREAD MIN INT NORTH BRONX NEW YORK INC", "city": "BRONX", "state": "NY", "zip": "10456-7202", "ntee": "X20", "ruling": "202103", "deductibility": "1", "assets": 0, "income": 0, "revenue": 0}, {"ein": "851724645", "name": "CASSAVA BREAD INC", "city": "BRONX", "state": "NY", "zip": "10462-6031", "ntee": "F80", "ruling": "202103", "deductibility": "1", "assets": 0, "income": 0, "revenue": 0}, {"ein": "874381840", "name": "NOON DAY BREAD OF LIFE ASSEMBLY INC", "city": "BROOKLYN", "state": "NY", "zip": "11207-5701", "ntee": "X12", "ruling": "202503", "deductibility": "1", "assets": 0, "income": 0, "revenue": 0}, {"ein": "881266206", "name": "COMMUNITY BREAD CHARITY FOUNDATION", "city": "NEW PALTZ", "state": "NY", "zip": "12561-1224", "ntee": "P99", "ruling": "202204", "deductibility": "1", "assets": 0, "income": 0, "revenue": 0}, {"ein": "900934268", "name": "BREAD OF LIFE REVIVAL MINISTRIES INC", "city": "BUFFALO", "state": "NY", "zip": "14211-1306", "ntee": "X20", "ruling": "201408", "deductibility": "1", "assets": 0, "income": 0, "revenue": 0}, {"ein": "920543286", "name": "MY BROTHERS BREAD TODAY INC", "city": "BRONX", "state": "NY", "zip": "10470-1607", "ntee": "K30", "ruling": "202306", "deductibility": "1", "assets": 0, "income": 0, "revenue": 0}, {"ein": "932661674", "name": "LUKEN DAILY BREAD FOOD PANTRY INC", "city": "SCHENECTADY", "state": "NY", "zip": "12304-2620", "ntee": "K31", "ruling": "202404", "deductibility": "1", "assets": 0, "income": 0, "revenue": 0}, {"ein": "933687052", "name": "BREAD OF LIFE FOUNDATION CORP", "city": "HOLTSVILLE", "state": "NY", "zip": "11742-1713", "ntee": "K31", "ruling": "202310", "deductibility": "1", "assets": 0, "income": 0, "revenue": 0}], "OPTIONS": [{"ein": "112612035", "name": "OPTIONS FOR COMMUNITY LIVING INC", "city": "RONKONKOMA", "state": "NY", "zip": "11779-7206", "ntee": "F33Z", "ruling": "198303", "deductibility": "1", "assets": 38876589, "income": 27006705, "revenue": 24530656}, {"ein": "112721260", "name": "SELF INITIATED LIVING OPTIONS INC", "city": "MEDFORD", "state": "NY", "zip": "11763-1411", "ntee": "", "ruling": "198608", "deductibility": "1", "assets": 5713065, "income": 4641682, "revenue": 4641682}, {"ein": "133665184", "name": "CENTER FOR EDUCATIONAL OPTIONS INC", "city": "BRONX", "state": "NY", "zip": "10460-2666", "ntee": "", "ruling": "199401", "deductibility": "1", "assets": 1, "income": 800, "revenue": 800}, {"ein": "133887707", "name": "HOUSING OPTIONS & GERIATRIC ASSOCIATION & RESOURCES INC", "city": "BRONX", "state": "NY", "zip": "10459-5201", "ntee": "F34Z", "ruling": "199611", "deductibility": "1", "assets": 15520344, "income": 32742404, "revenue": 32742404}, {"ein": "134016169", "name": "SENIOR LIVING OPTIONS INC", "city": "NEW YORK", "state": "NY", "zip": "10031-4806", "ntee": "L22", "ruling": "201410", "deductibility": "1", "assets": 259492087, "income": 928927, "revenue": -2160811}, {"ein": "134063658", "name": "FUTURES AND OPTIONS INC", "city": "NEW YORK", "state": "NY", "zip": "10006-2026", "ntee": "B90", "ruling": "200006", "deductibility": "1", "assets": 5922071, "income": 4137415, "revenue": 3872666}, {"ein": "134133472", "name": "LIFESTYLE OPTIONS FOR SENIORS FOUNDATION INC", "city": "MONSEY", "state": "NY", "zip": "10952-2875", "ntee": "P81", "ruling": "200101", "deductibility": "1", "assets": 0, "income": 0, "revenue": 0}, {"ein": "141827002", "name": "BREAST CANCER OPTIONS INC", "city": "KINGSTON", "state": "NY", "zip": "12401-2800", "ntee": "G30", "ruling": "200106", "deductibility": "1", "assets": 61496, "income": 141611, "revenue": 141611}, {"ein": "161321323", "name": "STUDY THE OPTIONS PLEASE INC", "city": "NEWARK", "state": "NY", "zip": "14513-9201", "ntee": "", "ruling": "199211", "deductibility": "1", "assets": 163522, "income": 107673, "revenue": 102741}, {"ein": "161370949", "name": "HOUSING OPTIONS MADE EASY INC", "city": "GOWANDA", "state": "NY", "zip": "14070-1413", "ntee": "F33Z", "ruling": "199410", "deductibility": "1", "assets": 5159380, "income": 11063114, "revenue": 11042358}, {"ein": "261520311", "name": "CITIZENS OPTIONS UNLIMITED INC", "city": "BROOKVILLE", "state": "NY", "zip": "11545-2641", "ntee": "", "ruling": "200806", "deductibility": "1", "assets": 31561593, "income": 71042257, "revenue": 71032831}, {"ein": "272501533", "name": "GREEN OPTIONS BUFFALO", "city": "BUFFALO", "state": "NY", "zip": "14204-1543", "ntee": "B99", "ruling": "201102", "deductibility": "1", "assets": 624048, "income": 1483354, "revenue": 1394714}, {"ein": "274281672", "name": "VIABLE OPTIONS INC", "city": "CANTON", "state": "NY", "zip": "13617-0190", "ntee": "E19", "ruling": "201105", "deductibility": "1", "assets": 7011, "income": 54539, "revenue": 54539}, {"ein": "333029476", "name": "ADAPTIVE GREEN RESOURCE OPTIONS MATERIALS CORP", "city": "DOVER PLAINS", "state": "NY", "zip": "12522-5920", "ntee": "K20", "ruling": "202505", "deductibility": "1", "assets": 0, "income": 0, "revenue": 0}, {"ein": "432100844", "name": "HELPING OUR NEIGHBORS WITH OPTIONS FOR RIDES FOUNDATION", "city": "ROCHESTER", "state": "NY", "zip": "14609-6912", "ntee": "M11", "ruling": "200606", "deductibility": "1", "assets": 2530, "income": 0, "revenue": 0}, {"ein": "474815203", "name": "PERSON CENTERED HOUSING OPTIONS", "city": "FAIRPORT", "state": "NY", "zip": "14450-2109", "ntee": "L41", "ruling": "201601", "deductibility": "1", "assets": 2122802, "income": 4719772, "revenue": 4705717}, {"ein": "770673263", "name": "VENTURE CARES OPTIONS I INC", "city": "NANUET", "state": "NY", "zip": "10954-2970", "ntee": "L21", "ruling": "200708", "deductibility": "1", "assets": 1019538, "income": 98635, "revenue": 98635}, {"ein": "862726324", "name": "HELPING OTHERS WITH TREATMENT OPTIONS INC", "city": "BROOKLYN", "state": "NY", "zip": "11234-2638", "ntee": "F20", "ruling": "202109", "deductibility": "1", "assets": 0, "income": 0, "revenue": 0}], "PROSPECT": [{"ein": "112692076", "name": "PROSPECT PARK TRACK CLUB INC", "city": "BROOKLYN", "state": "NY", "zip": "11215-0658", "ntee": "P20", "ruling": "201305", "deductibility": "1", "assets": 268784, "income": 415639, "revenue": 372971}, {"ein": "112843763", "name": "PROSPECT PARK ALLIANCE INC", "city": "BROOKLYN", "state": "NY", "zip": "11215-3709", "ntee": "N32I", "ruling": "198703", "deductibility": "1", "assets": 45524475, "income": 18902468, "revenue": 18186735}, {"ein": "116001333", "name": "PROSPECT PARK YESHIVA INC", "city": "BROOKLYN", "state": "NY", "zip": "11229-2102", "ntee": "", "ruling": "198005", "deductibility": "1", "assets": 0, "income": 0, "revenue": 0}, {"ein": "133805150", "name": "920 PROSPECT AVENUE HOUSING DEVELOPMENT FUND CORPORATION", "city": "BRONX", "state": "NY", "zip": "10455-4000", "ntee": "L25Z", "ruling": "199504", "deductibility": "1", "assets": 0, "income": 0, "revenue": 0}, {"ein": "134098287", "name": "PROSPECT HOUSING DEVELOPMENT FUND CORPORATION", "city": "BRONX", "state": "NY", "zip": "10458-8742", "ntee": "L21", "ruling": "200506", "deductibility": "1", "assets": 1221571, "income": 340260, "revenue": 340260}, {"ein": "136075567", "name": "PROSPECT HILL FOUNDATION INC", "city": "NEW YORK", "state": "NY", "zip": "10016-1623", "ntee": "", "ruling": "196103", "deductibility": "1", "assets": 76184498, "income": 4970682, "revenue": 0}, {"ein": "140981920", "name": "PROSPECT HILL CEMETERY ASSOCIATION", "city": "GLOVERSVILLE", "state": "NY", "zip": "12078-0707", "ntee": "Y52Z", "ruling": "194303", "deductibility": "1", "assets": 1726498, "income": 349369, "revenue": 130843}, {"ein": "140981925", "name": "PROSPECT HILL CEMETERY ASSN", "city": "SCHUYLERVILLE", "state": "NY", "zip": "12871-0021", "ntee": "", "ruling": "194312", "deductibility": "1", "assets": 0, "income": 0, "revenue": 0}, {"ein": "141252966", "name": "NEW PROSPECT CEMETERY ASSOCIATION INC", "city": "PINE BUSH", "state": "NY", "zip": "12566-0902", "ntee": "", "ruling": "196909", "deductibility": "1", "assets": 0, "income": 0, "revenue": 0}, {"ein": "161228066", "name": "PROSPECT FREE LIBRARY", "city": "PROSPECT", "state": "NY", "zip": "13435-0177", "ntee": "B70", "ruling": "201408", "deductibility": "1", "assets": 47141, "income": 52821, "revenue": 52821}, {"ein": "161526063", "name": "PROSPECT PARK FOUNDATION INC", "city": "TROY", "state": "NY", "zip": "12180-3412", "ntee": "N32", "ruling": "199707", "deductibility": "1", "assets": 60355, "income": 46532, "revenue": 46532}, {"ein": "204575025", "name": "PROSPECT TERRACE FIRE COMPANY INC", "city": "BINGHAMTON", "state": "NY", "zip": "13905-0000", "ntee": "M24", "ruling": "201406", "deductibility": "1", "assets": 344852, "income": 156098, "revenue": 156098}, {"ein": "237064386", "name": "PROSPECT LEFFERTS GARDENS NEIGHBORHOOD ASSOCIATION INC", "city": "BROOKLYN", "state": "NY", "zip": "11225-5795", "ntee": "", "ruling": "197006", "deductibility": "1", "assets": 0, "income": 0, "revenue": 0}, {"ein": "261340053", "name": "PROSPECT PARK BASEBALL ASSOCIATION INC", "city": "BROOKLYN", "state": "NY", "zip": "11215-1783", "ntee": "N63", "ruling": "200905", "deductibility": "1", "assets": 20243, "income": 96640, "revenue": 96640}, {"ein": "261923993", "name": "AMERICAN FRIENDS OF PROSPECT BURMA", "city": "ACCORD", "state": "NY", "zip": "12404-0003", "ntee": "Q33", "ruling": "200910", "deductibility": "1", "assets": 189029, "income": 294191, "revenue": 294191}, {"ein": "263206518", "name": "BROOKLYN PROSPECT CHARTER SCHOOL", "city": "BROOKLYN", "state": "NY", "zip": "11201-5247", "ntee": "B29", "ruling": "200908", "deductibility": "1", "assets": 266566907, "income": 68150953, "revenue": 68150953}, {"ein": "272124967", "name": "PROSPECT PARK YOUTH RUNNING CLUB", "city": "BROOKLYN", "state": "NY", "zip": "11218-1029", "ntee": "O50", "ruling": "201204", "deductibility": "1", "assets": 41785, "income": 110032, "revenue": 110032}, {"ein": "273535245", "name": "PROSPECT FARM", "city": "BROOKLYN", "state": "NY", "zip": "11218-1141", "ntee": "X20", "ruling": "201410", "deductibility": "1", "assets": 0, "income": 0, "revenue": 0}, {"ein": "331174065", "name": "PROSPECT SCHOOLS INC", "city": "BROOKLYN", "state": "NY", "zip": "11201-5247", "ntee": "B122", "ruling": "200811", "deductibility": "1", "assets": 5175027, "income": 10722948, "revenue": 10660191}, {"ein": "412138050", "name": "PROSPECT HEIGHTS NEIGHBORHOOD DEVELOPMENT COUNCIL", "city": "BROOKLYN", "state": "NY", "zip": "11238-3906", "ntee": "S30", "ruling": "200509", "deductibility": "1", "assets": 74538, "income": 182599, "revenue": 182599}, {"ein": "464555144", "name": "HOUSING WORKS LYMAN PROSPECT HOUSING DEVELOPMENT FUND CORPORATI", "city": "BROOKLYN", "state": "NY", "zip": "11201-5290", "ntee": "L99", "ruling": "201406", "deductibility": "1", "assets": 566366, "income": 304514, "revenue": 304514}, {"ein": "470993173", "name": "PROSPECT PARK HOCKEY CLUB", "city": "BROOKLYN", "state": "NY", "zip": "11201-8337", "ntee": "N68", "ruling": "201611", "deductibility": "1", "assets": 0, "income": 0, "revenue": 0}, {"ein": "510241805", "name": "PROSPECT VOLUNTEER AMBULANCE INC", "city": "REMSEN", "state": "NY", "zip": "13438-0409", "ntee": "M20", "ruling": "201611", "deductibility": "1", "assets": 221428, "income": 646056, "revenue": 646056}, {"ein": "562450721", "name": "PROSPECT PARK SOUTH CHARITABLE TRUST", "city": "BROOKLYN", "state": "NY", "zip": "11218-2904", "ntee": "C34", "ruling": "201405", "deductibility": "1", "assets": 82248, "income": 98559, "revenue": 98559}, {"ein": "562582402", "name": "CHABAD OF PROSPECT HEIGHTS INC", "city": "BROOKLYN", "state": "NY", "zip": "11238-3013", "ntee": "X30", "ruling": "201008", "deductibility": "1", "assets": 0, "income": 0, "revenue": 0}, {"ein": "582400427", "name": "PROSPECT THEATER COMPANY INC", "city": "NEW YORK", "state": "NY", "zip": "10018-8643", "ntee": "A650", "ruling": "199809", "deductibility": "1", "assets": 376448, "income": 760174, "revenue": 760174}, {"ein": "800750046", "name": "PROSPECT HEIGHTS SHUL", "city": "BROOKLYN", "state": "NY", "zip": "11238-3206", "ntee": "X30", "ruling": "201910", "deductibility": "1", "assets": 0, "income": 0, "revenue": 0}, {"ein": "813302764", "name": "PROSPECT LEFFERTS GARDENS HERITAGE COUNCIL INC", "city": "BROOKLYN", "state": "NY", "zip": "11225-5369", "ntee": "S20", "ruling": "201609", "deductibility": "1", "assets": 0, "income": 0, "revenue": 0}, {"ein": "822686648", "name": "FEDERAL PROSPECT HOCKEY LEAGUE INC", "city": "BINGHAMTON", "state": "NY", "zip": "13904-2819", "ntee": "N60", "ruling": "201711", "deductibility": "1", "assets": 7143, "income": 99723, "revenue": 99723}, {"ein": "825209932", "name": "FRIENDS OF@PROSPECT SCHOOLS NY INC", "city": "BROOKLYN", "state": "NY", "zip": "11201-5247", "ntee": "B12", "ruling": "201906", "deductibility": "1", "assets": 200264507, "income": 17047846, "revenue": 17047846}, {"ein": "882887762", "name": "TRIANGLES AROUND PROSPECT PARK INCORPORATED", "city": "BROOKLYN", "state": "NY", "zip": "11218-1062", "ntee": "B01", "ruling": "202208", "deductibility": "1", "assets": 0, "income": 0, "revenue": 0}, {"ein": "900580955", "name": "CROWN PROSPECT HOUSES HOUSING DEVELOPMENT FUND CORPORATION", "city": "BROOKLYN", "state": "NY", "zip": "11238-4601", "ntee": "L20", "ruling": "202301", "deductibility": "1", "assets": 2641065, "income": 1418377, "revenue": 1418377}], "LENNA": [{"ein": "112800733", "name": "REGINALD A AND ELIZABETH S LENNA FOUNDATION INC", "city": "LAKEWOOD", "state": "NY", "zip": "14750-0013", "ntee": "", "ruling": "198605", "deductibility": "1", "assets": 34476322, "income": 6628094, "revenue": 0}, {"ein": "222552876", "name": "REG LENNA CENTER FOR THE ARTS INC", "city": "JAMESTOWN", "state": "NY", "zip": "14701-5402", "ntee": "", "ruling": "198503", "deductibility": "1", "assets": 7521353, "income": 1490827, "revenue": 1475423}], "48TH": [{"ein": "112815074", "name": "32 32 48TH AVENUE REALTY CORPORATION", "city": "LONG IS CITY", "state": "NY", "zip": "11101-3725", "ntee": "", "ruling": "198801", "deductibility": "2", "assets": 27751608, "income": 1138373, "revenue": -492859}, {"ein": "862370885", "name": "48TH PRECINCT COMMUNITY COUNCIL INC", "city": "BRONX", "state": "NY", "zip": "10457-7401", "ntee": "M01", "ruling": "202409", "deductibility": "1", "assets": 0, "income": 0, "revenue": 0}, {"ein": "920984310", "name": "48TH MILL ISLAND BLOCK ASSOCIATION INCORPORATED", "city": "BROOKLYN", "state": "NY", "zip": "11234-3711", "ntee": "S22", "ruling": "202305", "deductibility": "1", "assets": 0, "income": 0, "revenue": 0}], "MAJESTIC": [{"ein": "112956108", "name": "KINGS MAJESTIC CORPORATION", "city": "BROOKLYN", "state": "NY", "zip": "11217-5431", "ntee": "A610", "ruling": "199401", "deductibility": "1", "assets": 550313, "income": 1239337, "revenue": 1239337}, {"ein": "133411572", "name": "MAJESTIC PRAISE TABERNACLE", "city": "STATEN ISLAND", "state": "NY", "zip": "10301-0015", "ntee": "X99", "ruling": "199905", "deductibility": "1", "assets": 0, "income": 0, "revenue": 0}, {"ein": "383893090", "name": "MAJESTIC HOUSE OF MIRACLES INC", "city": "WYANDANCH", "state": "NY", "zip": "11798-4201", "ntee": "P20", "ruling": "201407", "deductibility": "1", "assets": 0, "income": 0, "revenue": 0}], "VISIONARY": [{"ein": "113050733", "name": "VISIONARY PURSUITS FELLOWSHIP INC", "city": "BROOKLYN", "state": "NY", "zip": "11212-0317", "ntee": "X99Z", "ruling": "199601", "deductibility": "1", "assets": 0, "income": 0, "revenue": 0}, {"ein": "134131152", "name": "VISIONARY FOUNDATION", "city": "NEW YORK", "state": "NY", "zip": "10021-3138", "ntee": "E65", "ruling": "200012", "deductibility": "1", "assets": 0, "income": 0, "revenue": 0}, {"ein": "260710575", "name": "VISIONARY MEDIA GROUP INC", "city": "NEW YORK", "state": "NY", "zip": "10023-6301", "ntee": "B300", "ruling": "200806", "deductibility": "1", "assets": 0, "income": 0, "revenue": 0}, {"ein": "273913394", "name": "VISIONARY EMPOWERMENT INC", "city": "NEW YORK", "state": "NY", "zip": "10065-5724", "ntee": "G81", "ruling": "202401", "deductibility": "1", "assets": 0, "income": 0, "revenue": 0}, {"ein": "823377584", "name": "STATEN ISLAND VISIONARY PROJECT INC", "city": "STATEN ISLAND", "state": "NY", "zip": "10314-5127", "ntee": "A25", "ruling": "201803", "deductibility": "1", "assets": 0, "income": 0, "revenue": 0}, {"ein": "841780707", "name": "LOWER ADIRONDACK VISIONARY ASSOCIATION CORP", "city": "GLENS FALLS", "state": "NY", "zip": "12801-3584", "ntee": "B02", "ruling": "201906", "deductibility": "1", "assets": 0, "income": 0, "revenue": 0}, {"ein": "870879392", "name": "LINDA AND BURTON PUGACH TRUST FOR THE VISIONARY IMPAIRED", "city": "HIGHLAND MLS", "state": "NY", "zip": "10930-2158", "ntee": "A12", "ruling": "202108", "deductibility": "1", "assets": 1, "income": 1, "revenue": 0}], "GLEASONS": [{"ein": "113093704", "name": "GLEASONS GIVE A KID A DREAM INC", "city": "BROOKLYN", "state": "NY", "zip": "11201-1040", "ntee": "Z99Z", "ruling": "202203", "deductibility": "1", "assets": 79805, "income": 188496, "revenue": 188496}], "RUDEL": [{"ein": "113187813", "name": "LOUISE AIMEE & MONIQUE RUDEL SCHOLARSHIP FUND", "city": "BRONX", "state": "NY", "zip": "10473-0000", "ntee": "B82", "ruling": "199408", "deductibility": "1", "assets": 0, "income": 0, "revenue": 0}, {"ein": "133262903", "name": "RITA RUDEL FOUNDATION", "city": "NEW YORK", "state": "NY", "zip": "10176-0000", "ntee": "", "ruling": "198508", "deductibility": "1", "assets": 99508, "income": 2407, "revenue": 0}], "BOWMAN": [{"ein": "113210782", "name": "THEA BOWMAN F S P A HOUSING DEVELOPMENT FUND COMPANY INC", "city": "HICKSVILLE", "state": "NY", "zip": "11801-6232", "ntee": "L210", "ruling": "199407", "deductibility": "1", "assets": 3430688, "income": 950517, "revenue": 950517}, {"ein": "161488620", "name": "THEA BOWMAN HOUSE INC", "city": "UTICA", "state": "NY", "zip": "13502-3418", "ntee": "P45", "ruling": "199604", "deductibility": "1", "assets": 1964799, "income": 2965295, "revenue": 2961320}, {"ein": "201850772", "name": "TRI CITIES BOWMAN INC", "city": "ENDICOTT", "state": "NY", "zip": "13763-5878", "ntee": "N99", "ruling": "201907", "deductibility": "2", "assets": 0, "income": 0, "revenue": 0}, {"ein": "222307217", "name": "TI YOGI BOWMAN INC", "city": "HYDE PARK", "state": "NY", "zip": "12538-2065", "ntee": "", "ruling": "198103", "deductibility": "2", "assets": 0, "income": 0, "revenue": 0}, {"ein": "237684738", "name": "BEATRICE V BOWMAN TRUST UW FBO PARKVILLE FIRE CO", "city": "BUFFALO", "state": "NY", "zip": "14240-1504", "ntee": "T22", "ruling": "200111", "deductibility": "1", "assets": 494031, "income": 156151, "revenue": 0}, {"ein": "237684863", "name": "ROBERT T & BEATRICE V BOWMAN SCHOLASHIP TR", "city": "BUFFALO", "state": "NY", "zip": "14240-1504", "ntee": "T22", "ruling": "200111", "deductibility": "1", "assets": 545649, "income": 169884, "revenue": 0}, {"ein": "881183855", "name": "THE BOWMAN FOUNDATION FOR WORKPLACE", "city": "NEW YORK", "state": "NY", "zip": "10032-6403", "ntee": "J99", "ruling": "202205", "deductibility": "1", "assets": 0, "income": 0, "revenue": 0}], "MECHEL": [{"ein": "113256120", "name": "KOLLEL ZICHRON YECHIEL MECHEL OF KRASNA", "city": "BROOKLYN", "state": "NY", "zip": "11210-3714", "ntee": "X30Z", "ruling": "199505", "deductibility": "1", "assets": 0, "income": 0, "revenue": 0}, {"ein": "134077974", "name": "CONGREGATION BAIS MECHEL", "city": "SPRING VALLEY", "state": "NY", "zip": "10977-1924", "ntee": "X30", "ruling": "199912", "deductibility": "1", "assets": 0, "income": 0, "revenue": 0}, {"ein": "856822856", "name": "ZICHRON YECHIEL MECHEL FOUNDATION", "city": "UNIONDALE", "state": "NY", "zip": "11556-4200", "ntee": "T20", "ruling": "202203", "deductibility": "1", "assets": 15309961, "income": 10240783, "revenue": 0}], "ANTAR": [{"ein": "113279421", "name": "DANIELLE ANTAR FOUNDATION INC", "city": "NEW YORK", "state": "NY", "zip": "10013-1301", "ntee": "T99Z", "ruling": "199601", "deductibility": "1", "assets": 61448, "income": 308005, "revenue": 0}], "HERMANSKY": [{"ein": "113283268", "name": "HERMANSKY PUDLAK SYNDROME NETWORK INC", "city": "OYSTER BAY", "state": "NY", "zip": "11771-1905", "ntee": "P20Z", "ruling": "199803", "deductibility": "1", "assets": 283257, "income": 323223, "revenue": 323223}], "HUA": [{"ein": "113400594", "name": "NEW YORK HUA LIAN TSU HUI TEMPLE INC", "city": "COLLEGE POINT", "state": "NY", "zip": "11356-2522", "ntee": "X99Z", "ruling": "199804", "deductibility": "1", "assets": 0, "income": 0, "revenue": 0}, {"ein": "133039170", "name": "TSING HUA ALUMNI ASSOCIATION INC", "city": "NEW YORK", "state": "NY", "zip": "10005-2800", "ntee": "B84Z", "ruling": "198104", "deductibility": "1", "assets": 131613, "income": 49019, "revenue": 49019}, {"ein": "301381408", "name": "YI HUA INC", "city": "STATEN ISLAND", "state": "NY", "zip": "10314-2813", "ntee": "E21", "ruling": "202403", "deductibility": "1", "assets": 1, "income": 0, "revenue": 0}, {"ein": "472094590", "name": "INTERNATIONAL HUA-YAN BUDDHIST FEDERATION", "city": "COLLEGE POINT", "state": "NY", "zip": "11356-2725", "ntee": "X50", "ruling": "201703", "deductibility": "1", "assets": 296785, "income": 37903, "revenue": 37903}, {"ein": "472516791", "name": "CI HUA CULTURE FOUNDATION OF NEW YORK INC", "city": "NEW YORK", "state": "NY", "zip": "10017-6872", "ntee": "X11", "ruling": "201804", "deductibility": "1", "assets": 0, "income": 0, "revenue": 0}, {"ein": "510518131", "name": "JIU HUA ZEN TEMPLE INC", "city": "BROOKLYN", "state": "NY", "zip": "11232-3905", "ntee": "X50", "ruling": "200501", "deductibility": "1", "assets": 0, "income": 0, "revenue": 0}, {"ein": "831221532", "name": "NEW YORK HUA XIA ARTS ASSOCIATION INC", "city": "LONG IS CITY", "state": "NY", "zip": "11101-6707", "ntee": "B03", "ruling": "201807", "deductibility": "1", "assets": 0, "income": 0, "revenue": 0}], "FILS": [{"ein": "113428157", "name": "SOCIETE DES FILS DE BAGUETTE INC", "city": "ROSEDALE", "state": "NY", "zip": "11422-0195", "ntee": "Q30", "ruling": "201509", "deductibility": "1", "assets": 0, "income": 0, "revenue": 0}], "BEREAVEMENT": [{"ein": "113486108", "name": "ASSOCIATION FOR PET LOSS AND BEREAVEMENT INC", "city": "ALBANY", "state": "NY", "zip": "12207-2922", "ntee": "D20", "ruling": "200001", "deductibility": "1", "assets": 62838, "income": 48864, "revenue": 48864}, {"ein": "223115050", "name": "WOUNDED HEALERS BEREAVEMENT SUPPORT GROUP INC", "city": "HORSEHEADS", "state": "NY", "zip": "14845-2142", "ntee": "P20", "ruling": "202406", "deductibility": "1", "assets": 0, "income": 0, "revenue": 0}, {"ein": "273216304", "name": "WESTERN NEW YORK PERINATAL BEREAVEMENT NETWORK INC", "city": "BUFFALO", "state": "NY", "zip": "14227-1443", "ntee": "E86", "ruling": "201105", "deductibility": "1", "assets": 37493, "income": 71392, "revenue": 50161}], "TRISKELION": [{"ein": "113595320", "name": "TRISKELION ARTS-KICK-STANDANCE INC", "city": "BROOKLYN", "state": "NY", "zip": "11222-2572", "ntee": "A62", "ruling": "200211", "deductibility": "1", "assets": 1109366, "income": 580907, "revenue": 573903}, {"ein": "991850293", "name": "TRISKELION SYNERGY", "city": "RIDGEWOOD", "state": "NY", "zip": "11385-1141", "ntee": "T50", "ruling": "202412", "deductibility": "1", "assets": 0, "income": 0, "revenue": 0}], "WAVES": [{"ein": "113612488", "name": "ISLAND WAVES INC", "city": "HUNTINGTON", "state": "NY", "zip": "11743-0837", "ntee": "N68", "ruling": "200110", "deductibility": "1", "assets": 3481, "income": 183606, "revenue": 183606}, {"ein": "261854683", "name": "WAVES FOR DEVELOPMENT INTERNATIONAL INC", "city": "BALLSTON SPA", "state": "NY", "zip": "12020-3215", "ntee": "O50", "ruling": "200905", "deductibility": "1", "assets": 0, "income": 0, "revenue": 0}, {"ein": "454445009", "name": "WAVES FOR CHANGE ALLIANCE INC", "city": "BROOKLYN", "state": "NY", "zip": "11221-7836", "ntee": "P12", "ruling": "202412", "deductibility": "1", "assets": 0, "income": 0, "revenue": 0}, {"ein": "461797878", "name": "WAVES OF GLORY MIRACLE MINISTRIES", "city": "DERBY", "state": "NY", "zip": "14047-9765", "ntee": "", "ruling": "197010", "deductibility": "1", "assets": 0, "income": 0, "revenue": 0}, {"ein": "473087530", "name": "LAKE CHAMPLAIN WAVES SWIM TEAM INC", "city": "PLATTSBURGH", "state": "NY", "zip": "12901-0030", "ntee": "N67", "ruling": "201503", "deductibility": "1", "assets": 30255, "income": 91548, "revenue": 89100}, {"ein": "851557804", "name": "CREATIVE WAVES FOUNDATION", "city": "NEW YORK", "state": "NY", "zip": "10003-0000", "ntee": "O12", "ruling": "202107", "deductibility": "1", "assets": 164317, "income": 76164, "revenue": 76164}, {"ein": "883949000", "name": "FLX WAVES", "city": "GENEVA", "state": "NY", "zip": "14456-1500", "ntee": "N60", "ruling": "202212", "deductibility": "1", "assets": 2941, "income": 24134, "revenue": 0}, {"ein": "900453935", "name": "AMBER WAVES FARM INC", "city": "AMAGANSETT", "state": "NY", "zip": "11930-2623", "ntee": "K20", "ruling": "201101", "deductibility": "1", "assets": 1458637, "income": 6371994, "revenue": 3923501}, {"ein": "922990804", "name": "WANTAGH WAVES SOFTBALL INC", "city": "WANTAGH", "state": "NY", "zip": "11793-0000", "ntee": "N63", "ruling": "202311", "deductibility": "2", "assets": 0, "income": 0, "revenue": 0}, {"ein": "923690820", "name": "WAVES BASEBALL CLUB INC", "city": "RIVERHEAD", "state": "NY", "zip": "11901-5056", "ntee": "N63", "ruling": "202403", "deductibility": "1", "assets": 0, "income": 0, "revenue": 0}, {"ein": "931814592", "name": "WAVES HFTR INC", "city": "PEARL RIVER", "state": "NY", "zip": "10965-1050", "ntee": "X30", "ruling": "202306", "deductibility": "1", "assets": 0, "income": 0, "revenue": 0}, {"ein": "992075946", "name": "BLUE WAVES BOYS BASKETBALL BOOSTER CLUB INC", "city": "RIVERHEAD", "state": "NY", "zip": "11901-2780", "ntee": "N62", "ruling": "202506", "deductibility": "1", "assets": 0, "income": 0, "revenue": 0}], "SINATRA": [{"ein": "113640905", "name": "FRANK SINATRA SCHOOL OF THE ARTS PARENT TEACHERS ASSOCIATION", "city": "ASTORIA", "state": "NY", "zip": "11106-1609", "ntee": "B19", "ruling": "201410", "deductibility": "1", "assets": 112928, "income": 136438, "revenue": 104565}], "TRIANGLE": [{"ein": "113663873", "name": "TRIANGLE SHIRTWAIST FACTORY FIRE MEMORIAL INC", "city": "WHITE PLAINS", "state": "NY", "zip": "10605-1542", "ntee": "A80", "ruling": "200305", "deductibility": "1", "assets": 118342, "income": 64235, "revenue": 39863}, {"ein": "132551868", "name": "COMMUNITY ASSOCIATION OF THE EAST HARLEM TRIANGLE INC", "city": "NEW YORK", "state": "NY", "zip": "10035-1725", "ntee": "", "ruling": "196707", "deductibility": "1", "assets": 2332357, "income": 20181, "revenue": 0}, {"ein": "133209637", "name": "TRIANGLE ARTS ASSOCIATION LIMITED", "city": "BROOKLYN", "state": "NY", "zip": "11201-8322", "ntee": "A20Z", "ruling": "198408", "deductibility": "1", "assets": 237928, "income": 201266, "revenue": 201266}, {"ein": "133557189", "name": "TRIANGLE THEATRE COMPANY INC", "city": "NSW YOK", "state": "NY", "zip": "10128-7807", "ntee": "", "ruling": "199006", "deductibility": "1", "assets": 0, "income": 0, "revenue": 0}, {"ein": "134134510", "name": "GRAND TRIANGLE INC", "city": "NEW YORK", "state": "NY", "zip": "10026-0966", "ntee": "A23", "ruling": "200210", "deductibility": "1", "assets": 0, "income": 0, "revenue": 0}, {"ein": "136123324", "name": "KNICKERBOCKER TRIANGLE ASSOCIATION INC", "city": "NEW YORK", "state": "NY", "zip": "10162-0007", "ntee": "", "ruling": "197308", "deductibility": "2", "assets": 1562935, "income": 894911, "revenue": 664806}, {"ein": "141787179", "name": "TEN BROECK TRIANGLE PRESERVATION LEAGUE INC", "city": "ALBANY", "state": "NY", "zip": "12210-2504", "ntee": "C50", "ruling": "202410", "deductibility": "1", "assets": 0, "income": 0, "revenue": 0}, {"ein": "161216297", "name": "TRIANGLE VOLUNTEER FIRE DEPARTMENT", "city": "WHITNEY POINT", "state": "NY", "zip": "13862-0000", "ntee": "M24", "ruling": "201708", "deductibility": "1", "assets": 178517, "income": 113463, "revenue": 113463}, {"ein": "237219920", "name": "TRIANGLE YACHT CLUB INC", "city": "GREENPORT", "state": "NY", "zip": "11944-0141", "ntee": "", "ruling": "197302", "deductibility": "2", "assets": 37718, "income": 61883, "revenue": 44462}, {"ein": "272189004", "name": "TRIANGLE FIRE MEMORIAL ASSOCIATION INC", "city": "MIDDLE VLG", "state": "NY", "zip": "11379-1622", "ntee": "A84", "ruling": "201103", "deductibility": "1", "assets": 0, "income": 0, "revenue": 0}, {"ein": "300212341", "name": "BRONX TRIANGLE INC", "city": "BRONX", "state": "NY", "zip": "10469-2611", "ntee": "P80", "ruling": "200509", "deductibility": "1", "assets": 0, "income": 0, "revenue": 0}, {"ein": "311591261", "name": "TRIANGLE FUND", "city": "CORNING", "state": "NY", "zip": "14830-2722", "ntee": "T90Z", "ruling": "199804", "deductibility": "1", "assets": 7512118, "income": 544260, "revenue": 0}, {"ein": "455137219", "name": "REMEMBER THE TRIANGLE FIRE COALITION INC", "city": "NEW YORK", "state": "NY", "zip": "10008-3330", "ntee": "A99", "ruling": "201406", "deductibility": "1", "assets": 418162, "income": 824123, "revenue": 824123}, {"ein": "464210176", "name": "TRIANGLE CAPITAL CHARITABLE FOUNDATION INC", "city": "NEW YORK", "state": "NY", "zip": "10018-2781", "ntee": "T20", "ruling": "201907", "deductibility": "1", "assets": 356, "income": 1600, "revenue": 0}, {"ein": "474077203", "name": "SPRINGS TRIANGLE CORP", "city": "EAST HAMPTON", "state": "NY", "zip": "11937-1611", "ntee": "W99", "ruling": "201601", "deductibility": "1", "assets": 0, "income": 0, "revenue": 0}, {"ein": "920251508", "name": "TRIANGLE HOUSE GOOD", "city": "EAST HAMPTON", "state": "NY", "zip": "11937-1544", "ntee": "A20", "ruling": "202209", "deductibility": "1", "assets": 0, "income": 0, "revenue": 0}, {"ein": "921994442", "name": "NORTHERN TRIANGLE COUNCIL INC", "city": "CENTRAL ISLIP", "state": "NY", "zip": "11722-1207", "ntee": "A70", "ruling": "202305", "deductibility": "1", "assets": 1, "income": 1, "revenue": 0}, {"ein": "932619762", "name": "ROONEY TRIANGLE FUND INITIATIVE", "city": "BROOKLYN", "state": "NY", "zip": "11222-7520", "ntee": "C50", "ruling": "202409", "deductibility": "1", "assets": 0, "income": 0, "revenue": 0}, {"ein": "992849714", "name": "FRIENDS OF BARNETT NEWMAN TRIANGLE INC", "city": "NEW YORK", "state": "NY", "zip": "10013-5276", "ntee": "S80", "ruling": "202501", "deductibility": "1", "assets": 0, "income": 0, "revenue": 0}, {"ein": "992998245", "name": "MERIDIAN TRIANGLE 71", "city": "RIVERHEAD", "state": "NY", "zip": "11901-0000", "ntee": "O50", "ruling": "202408", "deductibility": "1", "assets": 3030, "income": 1, "revenue": 0}, {"ein": "994377078", "name": "TRIANGLE TRACT HISTORICAL SOCIETY", "city": "BROCKPORT", "state": "NY", "zip": "14420-2212", "ntee": "A82", "ruling": "202408", "deductibility": "1", "assets": 0, "income": 0, "revenue": 0}], "NEUMAN": [{"ein": "116472710", "name": "NEUMAN FAM FOUNDATION TR", "city": "LAWRENCE", "state": "NY", "zip": "11559-1926", "ntee": "T70J", "ruling": "199611", "deductibility": "1", "assets": 199852, "income": 34949, "revenue": 0}, {"ein": "133620568", "name": "JEWISH HOME LIFECARE SARAH NEUMAN CENTER WESTCHESTER", "city": "MAMARONECK", "state": "NY", "zip": "10543-2406", "ntee": "E910", "ruling": "199108", "deductibility": "1", "assets": 38022914, "income": 45240384, "revenue": 45240384}, {"ein": "136161492", "name": "I & B NEUMAN FOUNDATION INC", "city": "NEW YORK", "state": "NY", "zip": "10168-0002", "ntee": "", "ruling": "196111", "deductibility": "1", "assets": 53892, "income": 1, "revenue": 0}, {"ein": "371759391", "name": "QUALITY OF LIFE IN MEMORY OF SHILOM NEUMAN INC", "city": "BROOKLYN", "state": "NY", "zip": "11211-8031", "ntee": "H30", "ruling": "201507", "deductibility": "1", "assets": 20478, "income": 897822, "revenue": 897822}], "MAYFLOWER": [{"ein": "131656691", "name": "SOCIETY OF MAYFLOWER DESCENDANTS IN THE STATE OF NEW YORK", "city": "NEW YORK", "state": "NY", "zip": "10036-6603", "ntee": "", "ruling": "194212", "deductibility": "1", "assets": 5929885, "income": 2479431, "revenue": 366771}], "SIWANOY": [{"ein": "131731831", "name": "SIWANOY COUNTRY CLUB", "city": "BRONXVILLE", "state": "NY", "zip": "10708-4314", "ntee": "", "ruling": "193809", "deductibility": "2", "assets": 34845818, "income": 16337000, "revenue": 14333433}], "DURLAND": [{"ein": "131825945", "name": "AGATHA DURLAND FOUNDATION INC", "city": "RYE", "state": "NY", "zip": "10580-0000", "ntee": "", "ruling": "198208", "deductibility": "1", "assets": 348621, "income": 123926, "revenue": 0}], "TUCKAHOE": [{"ein": "131852829", "name": "COMMUNITY FUND OF BRONXVILLE EASTCHESTER TUCKAHOE INC", "city": "BRONXVILLE", "state": "NY", "zip": "10708-1575", "ntee": "", "ruling": "198202", "deductibility": "1", "assets": 2581056, "income": 660524, "revenue": 593261}, {"ein": "133086511", "name": "TUCKAHOE YOUTH ASSOCIATION", "city": "TUCKAHOE", "state": "NY", "zip": "10707-0462", "ntee": "N63", "ruling": "200504", "deductibility": "1", "assets": 138677, "income": 342819, "revenue": 326972}, {"ein": "133355803", "name": "TUCKAHOE AFTER SCHOOL CARE INC", "city": "SCARSDALE", "state": "NY", "zip": "10583-6502", "ntee": "P33Z", "ruling": "198711", "deductibility": "1", "assets": 281405, "income": 517954, "revenue": 517954}, {"ein": "133439855", "name": "TUCKAHOE CHURCH OF THE CHRISTIAN AND MISSIONARY ALLIANCE", "city": "TUCKAHOE", "state": "NY", "zip": "10707-3457", "ntee": "", "ruling": "000000", "deductibility": "1", "assets": 0, "income": 0, "revenue": 0}, {"ein": "134100875", "name": "TUCKAHOE SCHOOL FOUNDATION", "city": "TUCKAHOE", "state": "NY", "zip": "10707-3903", "ntee": "T11", "ruling": "200006", "deductibility": "1", "assets": 0, "income": 0, "revenue": 0}, {"ein": "474458407", "name": "TUCKAHOE BEAUTIFICATION ASSOCIATION INC", "city": "TUCKAHOE", "state": "NY", "zip": "10707-0142", "ntee": "S20", "ruling": "201507", "deductibility": "1", "assets": 0, "income": 0, "revenue": 0}, {"ein": "800544287", "name": "FRIENDS OF THE TUCKAHOE LIBRARY", "city": "TUCKAHOE", "state": "NY", "zip": "10707-2504", "ntee": "B11", "ruling": "201101", "deductibility": "1", "assets": 0, "income": 0, "revenue": 0}, {"ein": "813895068", "name": "TUCKAHOE POLICE BENEVOLENT & SCHOLARSHIP FUND INC", "city": "TUCKAHOE", "state": "NY", "zip": "10707-2908", "ntee": "B82", "ruling": "201609", "deductibility": "1", "assets": 487, "income": 3968, "revenue": 3968}, {"ein": "871569845", "name": "TUCKAHOE SCHOOLS ATHLETIC BOOSTER CLUB INC", "city": "EASTCHESTER", "state": "NY", "zip": "10709-3722", "ntee": "N12", "ruling": "202109", "deductibility": "1", "assets": 0, "income": 0, "revenue": 0}, {"ein": "900504287", "name": "TUCKAHOE FOOTBALL PARENT ASSOCIATION", "city": "BRONXVILLE", "state": "NY", "zip": "10708-4420", "ntee": "N65", "ruling": "201206", "deductibility": "1", "assets": 0, "income": 0, "revenue": 0}, {"ein": "931818061", "name": "TUCKAHOE YOUTH FOOTBALL INC", "city": "EASTCHESTER", "state": "NY", "zip": "10709-3804", "ntee": "N65", "ruling": "202404", "deductibility": "1", "assets": 0, "income": 0, "revenue": 0}, {"ein": "993174601", "name": "TUCKAHOE NY PRIDE INC", "city": "TUCKAHOE", "state": "NY", "zip": "10707-4153", "ntee": "R26", "ruling": "202502", "deductibility": "1", "assets": 0, "income": 0, "revenue": 0}], "TILDEN": [{"ein": "131887440", "name": "THE NEW YORK PUBLIC LIBRARY ASTOR LENOX AND TILDEN FOUNDATIONS", "city": "NEW YORK", "state": "NY", "zip": "10016-0601", "ntee": "B700", "ruling": "193411", "deductibility": "1", "assets": 2738561736, "income": 644196228, "revenue": 397108128}, {"ein": "460922188", "name": "TILDEN GARDENS HOUSING DEVELOPMENT FUND COMPANY INC", "city": "NEW YORK", "state": "NY", "zip": "10027-4991", "ntee": "L21", "ruling": "201210", "deductibility": "2", "assets": 14170927, "income": 911826, "revenue": 911826}, {"ein": "811253742", "name": "HABITAT FOR HUMANITY ALMAT TILDEN STREET HOUSING DEVELOPMENT FUND CO", "city": "NEW YORK", "state": "NY", "zip": "10038-3101", "ntee": "L99", "ruling": "201708", "deductibility": "2", "assets": 0, "income": 0, "revenue": 0}, {"ein": "824451208", "name": "839 TILDEN STREET HOUSING DEVELOPMENT FUND CORPORATION", "city": "NEW YORK", "state": "NY", "zip": "10038-3101", "ntee": "L20", "ruling": "201808", "deductibility": "2", "assets": 0, "income": 0, "revenue": 0}], "GOMPA": [{"ein": "132875931", "name": "DUNGKAR GOMPA SOCIETY INC", "city": "LEW BEACH", "state": "NY", "zip": "12758-4133", "ntee": "", "ruling": "197705", "deductibility": "1", "assets": 0, "income": 0, "revenue": 0}], "GESTALT": [{"ein": "132943473", "name": "NEW YORK INSTITUTE FOR GESTALT THERAPY INC", "city": "NEW YORK", "state": "NY", "zip": "10011-9224", "ntee": "", "ruling": "197809", "deductibility": "1", "assets": 14056, "income": 8389, "revenue": 0}, {"ein": "133129300", "name": "GESTALT ASSOCIATION FOR PSYCHOTHERAPY INC", "city": "NEW YORK", "state": "NY", "zip": "10010-2753", "ntee": "F00P", "ruling": "198504", "deductibility": "1", "assets": 537004, "income": 710303, "revenue": 502092}, {"ein": "237400778", "name": "GESTALT CENTER FOR PSYCHOTHERAPY AND TRAINING", "city": "NEW YORK", "state": "NY", "zip": "10016-7919", "ntee": "F00B", "ruling": "197602", "deductibility": "1", "assets": 239025, "income": 387987, "revenue": 387788}, {"ein": "611626111", "name": "GESTALT PASTORAL CARE ASSOCIATES INC", "city": "STATEN ISLAND", "state": "NY", "zip": "10314-0636", "ntee": "X20", "ruling": "201105", "deductibility": "1", "assets": 83819, "income": 62283, "revenue": 62283}], "MAROVI": [{"ein": "133015809", "name": "CHEVRA TALMUD TORAH ANSHEI MAROVI OLD BROADWAY SYNAGOGUE", "city": "NEW YORK", "state": "NY", "zip": "10027-2426", "ntee": "", "ruling": "198003", "deductibility": "1", "assets": 0, "income": 0, "revenue": 0}], "PERUVIAN": [{"ein": "133418129", "name": "NORTHEAST PERUVIAN HORSE CLUB LTD", "city": "WHITE PLAINS", "state": "NY", "zip": "10606-1903", "ntee": "", "ruling": "199007", "deductibility": "2", "assets": 0, "income": 0, "revenue": 0}, {"ein": "135313975", "name": "PERUVIAN-AMERICAN ASSOCIATION INC", "city": "NEW YORK", "state": "NY", "zip": "10022-1200", "ntee": "", "ruling": "194107", "deductibility": "2", "assets": 0, "income": 0, "revenue": 0}, {"ein": "205826565", "name": "PERUVIAN AMERICAN CHAMBER OF COMMERCE OF LONG ISLAND", "city": "SHIRLEY", "state": "NY", "zip": "11967-2808", "ntee": "S41", "ruling": "202412", "deductibility": "2", "assets": 0, "income": 0, "revenue": 0}, {"ein": "262085084", "name": "PERUVIAN PROJECT INC", "city": "HENRIETTA", "state": "NY", "zip": "14467-8955", "ntee": "P30", "ruling": "200905", "deductibility": "1", "assets": 169874, "income": 79989, "revenue": 10798}, {"ein": "264064685", "name": "PACHAMAMA PERUVIAN ARTS", "city": "NEW YORK", "state": "NY", "zip": "10004-1609", "ntee": "A25", "ruling": "200904", "deductibility": "1", "assets": 0, "income": 0, "revenue": 0}, {"ein": "270817791", "name": "SOUL OF THE PERUVIAN ANDES INC", "city": "WOODSIDE", "state": "NY", "zip": "11377-2217", "ntee": "Q19", "ruling": "201804", "deductibility": "1", "assets": 43683, "income": 41060, "revenue": 41060}, {"ein": "845036069", "name": "PERUVIAN OUTREACH PROJECT INC", "city": "EAST PEMBROKE", "state": "NY", "zip": "14056-0234", "ntee": "P12", "ruling": "202004", "deductibility": "1", "assets": 42894, "income": 41697, "revenue": 40548}], "VLNTR": [{"ein": "133538907", "name": "DEATH BNFT FD OF VLNTR AND EXEMPT FRMNS BNVLNT ASSN OF PLSNTVLLE TR", "city": "PLEASANTVILLE", "state": "NY", "zip": "10570-0432", "ntee": "", "ruling": "199108", "deductibility": "2", "assets": 0, "income": 0, "revenue": 0}], "LIMITS": [{"ein": "133562668", "name": "NO LIMITS FOR YOUTH INC", "city": "LAURELTON", "state": "NY", "zip": "11413-2108", "ntee": "B82", "ruling": "201202", "deductibility": "1", "assets": 8180, "income": 5253, "revenue": 5253}, {"ein": "270218689", "name": "CITY LIMITS NEWS INC", "city": "NEW YORK", "state": "NY", "zip": "10027-3811", "ntee": "W50", "ruling": "200912", "deductibility": "1", "assets": 316450, "income": 986990, "revenue": 878716}, {"ein": "332443766", "name": "BEYOND LIMITS YOUTH BASKETBALL INC", "city": "DOUGLASTON", "state": "NY", "zip": "11363-1845", "ntee": "N62", "ruling": "202502", "deductibility": "1", "assets": 0, "income": 0, "revenue": 0}, {"ein": "852492472", "name": "DREAMS WITH NO LIMITS INC", "city": "SAINT ALBANS", "state": "NY", "zip": "11412-3324", "ntee": "O50", "ruling": "202011", "deductibility": "1", "assets": 0, "income": 0, "revenue": 0}, {"ein": "923152042", "name": "NO LIMITS MINISTRIES INTERNATIONAL INC", "city": "ELMONT", "state": "NY", "zip": "11003-2335", "ntee": "X20", "ruling": "202408", "deductibility": "1", "assets": 0, "income": 0, "revenue": 0}], "VANCOURT": [{"ein": "133745933", "name": "VANCOURT INC", "city": "NEW YORK", "state": "NY", "zip": "10156-1905", "ntee": "X99Z", "ruling": "199508", "deductibility": "1", "assets": 186005, "income": 46772, "revenue": 46772}], "MAHOU": [{"ein": "133763375", "name": "MAHOU ACADEMY", "city": "NEW YORK", "state": "NY", "zip": "10035-0815", "ntee": "A70", "ruling": "199508", "deductibility": "1", "assets": 0, "income": 0, "revenue": 0}], "FAIRMONT": [{"ein": "133819617", "name": "FAIRMONT PLACE HOUSING DEVELOPMENT FUND CORPORATION", "city": "BRONX", "state": "NY", "zip": "10460-0000", "ntee": "L20Z", "ruling": "199706", "deductibility": "1", "assets": 306342, "income": 226997, "revenue": 226997}], "SUMNER": [{"ein": "133899466", "name": "SUMNER SCHOLARSHIP ENDOWMENT FOUNDATION INC", "city": "NEW YORK", "state": "NY", "zip": "10128-3733", "ntee": "", "ruling": "199612", "deductibility": "1", "assets": 2727602, "income": 1012770, "revenue": 0}, {"ein": "136155552", "name": "SUMNER GERARD FOUNDATION", "city": "NEW YORK", "state": "NY", "zip": "10020-0000", "ntee": "", "ruling": "196406", "deductibility": "1", "assets": 3270480, "income": 1259698, "revenue": 0}], "SERIS": [{"ein": "133969875", "name": "SERIS FOUNDATION", "city": "RIVERDALE", "state": "NY", "zip": "10463-3224", "ntee": "T20Z", "ruling": "199712", "deductibility": "1", "assets": 264079, "income": 280125, "revenue": 0}], "SALVATI": [{"ein": "133983391", "name": "EDUARDO & ANTONELLA SALVATI FOUNDATION INC", "city": "NEW YORK", "state": "NY", "zip": "10022-2483", "ntee": "T22Z", "ruling": "199810", "deductibility": "1", "assets": 544587, "income": 113335, "revenue": 0}], "AMERICANJEWISH": [{"ein": "134033759", "name": "AMERICANJEWISH LEGACY INC", "city": "LAWRENCE", "state": "NY", "zip": "11559-1311", "ntee": "A23", "ruling": "202209", "deductibility": "1", "assets": 1, "income": 1, "revenue": 0}], "KABBALAH": [{"ein": "134093698", "name": "KABBALAH CENTRE OF NEW YORK INCORPORATED", "city": "NEW YORK", "state": "NY", "zip": "10017-1223", "ntee": "X30", "ruling": "200306", "deductibility": "1", "assets": 0, "income": 0, "revenue": 0}, {"ein": "650638140", "name": "THE KABBALAH CENTRE OF FLORIDA INC", "city": "NEW YORK", "state": "NY", "zip": "10017-1223", "ntee": "X99Z", "ruling": "199811", "deductibility": "1", "assets": 0, "income": 0, "revenue": 0}, {"ein": "883552796", "name": "KABBALAH LEARNING CENTRE OF JAMAICA INC", "city": "WESTBURY", "state": "NY", "zip": "11590-2825", "ntee": "X99", "ruling": "202209", "deductibility": "1", "assets": 0, "income": 0, "revenue": 0}, {"ein": "954436084", "name": "KABBALAH CENTRES OF THE UNITED STATES INC", "city": "NEW YORK", "state": "NY", "zip": "10017-1223", "ntee": "X300", "ruling": "199411", "deductibility": "1", "assets": 0, "income": 0, "revenue": 0}, {"ein": "954685000", "name": "KABBALAH CENTRE INTERNATIONAL INCORPORATED", "city": "NEW YORK", "state": "NY", "zip": "10017-1223", "ntee": "X30", "ruling": "199903", "deductibility": "1", "assets": 0, "income": 0, "revenue": 0}], "TCG": [{"ein": "134130071", "name": "TCG CENTRES FOR RESEARCH AND EDUCATION IN SCIENCE & TECHNOLOGY", "city": "NEW YORK", "state": "NY", "zip": "10106-0000", "ntee": "B124", "ruling": "200009", "deductibility": "1", "assets": 30366, "income": 100005, "revenue": 0}, {"ein": "861228018", "name": "TCG ARTS INC", "city": "NEW YORK", "state": "NY", "zip": "10016-4601", "ntee": "J22", "ruling": "202107", "deductibility": "1", "assets": 0, "income": 0, "revenue": 0}], "CALDWELL": [{"ein": "134171987", "name": "CALDWELL A M E ZION CHURCH", "city": "BRONX", "state": "NY", "zip": "10459-1703", "ntee": "X20", "ruling": "200602", "deductibility": "1", "assets": 0, "income": 0, "revenue": 0}, {"ein": "141425845", "name": "CALDWELL LAKE GEORGE LIBRARY", "city": "LAKE GEORGE", "state": "NY", "zip": "12845-1118", "ntee": "B70", "ruling": "200611", "deductibility": "1", "assets": 86838, "income": 167195, "revenue": 167195}, {"ein": "452442414", "name": "CALDWELL ENRICHMENT PROGRAM INC", "city": "BRONX", "state": "NY", "zip": "10459-1703", "ntee": "P30", "ruling": "201410", "deductibility": "1", "assets": 2901, "income": 25964, "revenue": 25964}], "MONTGOMERIE": [{"ein": "134195642", "name": "MONTGOMERIE FOUNDATION", "city": "NEW YORK", "state": "NY", "zip": "10178-0000", "ntee": "T22", "ruling": "200201", "deductibility": "1", "assets": 79968, "income": 34998, "revenue": 0}], "MARTINA": [{"ein": "134236056", "name": "MARTINA ARROYO FOUNDATION INC", "city": "NEW YORK", "state": "NY", "zip": "10019-1436", "ntee": "A6A", "ruling": "201904", "deductibility": "1", "assets": 235178, "income": 15978, "revenue": 15978}], "NOYES": [{"ein": "135600408", "name": "JESSIE SMITH NOYES FOUNDATION INC", "city": "NEW YORK", "state": "NY", "zip": "10016-1101", "ntee": "", "ruling": "194903", "deductibility": "1", "assets": 55705644, "income": 1448926, "revenue": 0}, {"ein": "136161124", "name": "A B & J NOYES FOUNDATION INC", "city": "GARDEN CITY", "state": "NY", "zip": "11530-0000", "ntee": "", "ruling": "195701", "deductibility": "1", "assets": 1052504, "income": 416252, "revenue": 0}, {"ein": "160743979", "name": "NICHOLAS H NOYES MEMORIAL HOSPITAL", "city": "DANSVILLE", "state": "NY", "zip": "14437-9503", "ntee": "E220", "ruling": "000000", "deductibility": "1", "assets": 88091636, "income": 93167873, "revenue": 93102253}, {"ein": "161584778", "name": "FOUNDATION FOR NOYES MEMORIAL HEALTH SYSTEM INC", "city": "DANSVILLE", "state": "NY", "zip": "14437-9503", "ntee": "E12", "ruling": "200005", "deductibility": "1", "assets": 19776263, "income": 1041098, "revenue": 981412}], "FACIAL": [{"ein": "136013760", "name": "NATIONAL FOUNDATION FOR FACIAL RECONSTRUCTION", "city": "NEW YORK", "state": "NY", "zip": "10016-6416", "ntee": "", "ruling": "195308", "deductibility": "1", "assets": 31707605, "income": 10256879, "revenue": 9870400}, {"ein": "454805875", "name": "VIRTUAL CENTER FOR VELO-CARDIO-FACIAL SYNDROME INC", "city": "MANLIUS", "state": "NY", "zip": "13104-9364", "ntee": "E70", "ruling": "201208", "deductibility": "1", "assets": 241208, "income": 219239, "revenue": 219239}], "SPINGARN": [{"ein": "136053785", "name": "SPINGARN MEDAL FUND UW JES 40 15 C 0131 537 68", "city": "NEW YORK", "state": "NY", "zip": "10013-2362", "ntee": "", "ruling": "198209", "deductibility": "0", "assets": 243863, "income": 74387, "revenue": 0}, {"ein": "611549715", "name": "SPINGARN COUNSELING SERVICE INC", "city": "MEDFORD", "state": "NY", "zip": "11763-1713", "ntee": "F60", "ruling": "201405", "deductibility": "1", "assets": 7783, "income": 25700, "revenue": 25700}], "GULLABI": [{"ein": "136104842", "name": "GULLABI GULBENKIAN FOUNDATION INC", "city": "POUND RIDGE", "state": "NY", "zip": "10576-2205", "ntee": "", "ruling": "194208", "deductibility": "1", "assets": 1065877, "income": 1038350, "revenue": 0}], "ROYCE": [{"ein": "136124271", "name": "ROYCE FAMILY FOUNDATION INC", "city": "LONG ISLAND CITY", "state": "NY", "zip": "11101-0000", "ntee": "", "ruling": "195706", "deductibility": "1", "assets": 1114413, "income": 1283282, "revenue": 0}, {"ein": "166333418", "name": "ROYCE W CLARK MEMORIAL TRUST", "city": "ONEONTA", "state": "NY", "zip": "13820-0430", "ntee": "", "ruling": "199008", "deductibility": "1", "assets": 163268, "income": 36134, "revenue": 0}], "DALHOUSIE": [{"ein": "136161449", "name": "DALHOUSIE UNIVERSITY FOUNDATION INC", "city": "NEW YORK", "state": "NY", "zip": "10116-0850", "ntee": "B43I", "ruling": "195711", "deductibility": "1", "assets": 485677, "income": 708784, "revenue": 708784}], "BLINDED": [{"ein": "136163166", "name": "BLINDED VETERANS ASSOC INC NEW YORK STATE REGIONAL GROUP", "city": "ELMONT", "state": "NY", "zip": "11003-2011", "ntee": "W30", "ruling": "201305", "deductibility": "2", "assets": 0, "income": 0, "revenue": 0}], "GUSTI": [{"ein": "136185337", "name": "GUSTI BRANDT FOUNDATION", "city": "NEW YORK", "state": "NY", "zip": "10020-0000", "ntee": "", "ruling": "195010", "deductibility": "1", "assets": 2888470, "income": 43485, "revenue": 0}], "ROSENSHEIN": [{"ein": "136260339", "name": "MAX J & WINNIE S ROSENSHEIN FOUNDATION", "city": "NEW YORK", "state": "NY", "zip": "10165-0048", "ntee": "", "ruling": "196805", "deductibility": "1", "assets": 8010387, "income": 1367389, "revenue": 0}], "ABRAMOWITZ": [{"ein": "136654707", "name": "UW ABRAHAM ABRAMOWITZ FNCB & LEROY", "city": "NEW YORK", "state": "NY", "zip": "10013-2362", "ntee": "", "ruling": "198209", "deductibility": "0", "assets": 941378, "income": 288296, "revenue": 0}], "DEWEY": [{"ein": "137109390", "name": "WILLIAM & DEWEY EDELMAN CHARITABLE TRUST", "city": "EAST MARION", "state": "NY", "zip": "11939-0306", "ntee": "T20", "ruling": "200907", "deductibility": "1", "assets": 13188899, "income": 1226637, "revenue": 0}, {"ein": "201583340", "name": "JOHN DEWEY ACADEMY INC", "city": "NEW YORK", "state": "NY", "zip": "10128-1246", "ntee": "T22", "ruling": "200610", "deductibility": "1", "assets": 473899, "income": 23765, "revenue": 0}, {"ein": "203706276", "name": "DEWEY DOES FOUNDATION", "city": "STATEN ISLAND", "state": "NY", "zip": "10303-0096", "ntee": "T12", "ruling": "200606", "deductibility": "1", "assets": 0, "income": 0, "revenue": 0}, {"ein": "272373158", "name": "1630 DEWEY AVENUE HOUSING DEVELOPMENT FUND CORP", "city": "NEW YORK", "state": "NY", "zip": "10018-6550", "ntee": "L19", "ruling": "201509", "deductibility": "1", "assets": 1, "income": 0, "revenue": 0}, {"ein": "825255414", "name": "COLONEL WADE F DEWEY SCHOLARSHIP INC", "city": "MARCY", "state": "NY", "zip": "13403-3226", "ntee": "T22", "ruling": "201805", "deductibility": "1", "assets": 245, "income": 5000, "revenue": 0}], "HALLOCK": [{"ein": "141443700", "name": "SARAH HULL HALLOCK FREE LIBRARY", "city": "MILTON", "state": "NY", "zip": "12547-5126", "ntee": "", "ruling": "196112", "deductibility": "1", "assets": 602409, "income": 268144, "revenue": 268144}], "SPENCERTOWN": [{"ein": "141595134", "name": "SPENCERTOWN FIRE COMPANY INC", "city": "SPENCERTOWN", "state": "NY", "zip": "12165-0001", "ntee": "M24", "ruling": "199911", "deductibility": "1", "assets": 0, "income": 0, "revenue": 0}, {"ein": "146035618", "name": "SPENCERTOWN CEMETERY ASSOC", "city": "SPENCERTOWN", "state": "NY", "zip": "12165-0224", "ntee": "", "ruling": "199306", "deductibility": "2", "assets": 0, "income": 0, "revenue": 0}, {"ein": "237208879", "name": "SPENCERTOWN ACADEMY SOCIETY", "city": "SPENCERTOWN", "state": "NY", "zip": "12165-0080", "ntee": "A61Z", "ruling": "197206", "deductibility": "1", "assets": 1178927, "income": 327124, "revenue": 303450}], "MAMAKATING": [{"ein": "141702464", "name": "MAMAKATING FIRST AID & RESCUE SQUAD", "city": "WURTSBORO", "state": "NY", "zip": "12790-0525", "ntee": "E99", "ruling": "201406", "deductibility": "1", "assets": 1192733, "income": 721235, "revenue": 721235}, {"ein": "274604983", "name": "FRIENDS OF MAMAKATING LIBRARY", "city": "WURTSBORO", "state": "NY", "zip": "12790-0806", "ntee": "A90", "ruling": "201501", "deductibility": "1", "assets": 0, "income": 0, "revenue": 0}, {"ein": "770692317", "name": "MAMAKATING HISTORICAL SOCIETY", "city": "SUMMITVILLE", "state": "NY", "zip": "12781-0163", "ntee": "A82", "ruling": "202301", "deductibility": "1", "assets": 0, "income": 0, "revenue": 0}, {"ein": "821159050", "name": "MAMAKATING LOCAL DEVELOPMENT CORPORATION", "city": "WURTSBORO", "state": "NY", "zip": "12790-0761", "ntee": "S30", "ruling": "202010", "deductibility": "1", "assets": 0, "income": 0, "revenue": 0}, {"ein": "861493247", "name": "MAMAKATING ENVIRONMENTAL EDUCATION CENTER INC", "city": "WURTSBORO", "state": "NY", "zip": "12790-7415", "ntee": "C60", "ruling": "202104", "deductibility": "1", "assets": 0, "income": 0, "revenue": 0}], "CAVALRY": [{"ein": "150508767", "name": "CAVALRY VETERANS OF SYRACUSE INC", "city": "MANLIUS", "state": "NY", "zip": "13104-1524", "ntee": "", "ruling": "194608", "deductibility": "2", "assets": 3713494, "income": 3557595, "revenue": 2289778}, {"ein": "742636251", "name": "FIRST CAVALRY DIVISION ASSOCIATION", "city": "HAMBURG", "state": "NY", "zip": "14075-3667", "ntee": "", "ruling": "197601", "deductibility": "1", "assets": 0, "income": 0, "revenue": 0}], "HURON": [{"ein": "150579947", "name": "HURON EVERGREEN CEMETERY INC", "city": "HURON", "state": "NY", "zip": "14590-0000", "ntee": "Y50", "ruling": "201209", "deductibility": "1", "assets": 173135, "income": 39657, "revenue": 39657}], "DIBERT": [{"ein": "160743055", "name": "WINIFRED CRAWFORD DIBERT BOYS AND GIRLS CLUB OF JAMESTOWN INC", "city": "JAMESTOWN", "state": "NY", "zip": "14701-0000", "ntee": "", "ruling": "195003", "deductibility": "1", "assets": 2718586, "income": 1192365, "revenue": 966330}], "GEDDES": [{"ein": "160876947", "name": "SOLVAY GEDDES COMMUNITY YOUTH CENTER INC", "city": "SYRACUSE", "state": "NY", "zip": "13209-1545", "ntee": "O20Z", "ruling": "197505", "deductibility": "1", "assets": 53599, "income": 390129, "revenue": 375365}, {"ein": "166066746", "name": "TOWN OF GEDDES VETERANS OF WORLD", "city": "SOLVAY", "state": "NY", "zip": "13209-0144", "ntee": "", "ruling": "196801", "deductibility": "1", "assets": 0, "income": 0, "revenue": 0}, {"ein": "222541466", "name": "SYRACUSE-GEDDES MICROD 1-4 MIDGET CLUB", "city": "SYRACUSE", "state": "NY", "zip": "13219-0000", "ntee": "N60", "ruling": "201411", "deductibility": "1", "assets": 7918, "income": 21767, "revenue": 21767}, {"ein": "263829072", "name": "SOLVAY GEDDES HISTORICAL SOCIETY", "city": "SOLVAY", "state": "NY", "zip": "13209-1545", "ntee": "A800", "ruling": "200908", "deductibility": "1", "assets": 0, "income": 0, "revenue": 0}, {"ein": "367429814", "name": "EDITH LUTYENS AND NORMAN BEL GEDDES FOUNDATION INC", "city": "HUDSON", "state": "NY", "zip": "12534-2537", "ntee": "", "ruling": "200412", "deductibility": "1", "assets": 1471989, "income": 1180079, "revenue": 0}, {"ein": "824106349", "name": "GEDDES THUNDERSTIX GIRLS SOFTBALL INC", "city": "SYRACUSE", "state": "NY", "zip": "13215-9322", "ntee": "N63", "ruling": "201812", "deductibility": "1", "assets": 0, "income": 0, "revenue": 0}, {"ein": "924019129", "name": "SOLVAY GEDDES CYC SERVICE ORGANIZATION INC", "city": "SYRACUSE", "state": "NY", "zip": "13209-1545", "ntee": "P30", "ruling": "202307", "deductibility": "1", "assets": 0, "income": 0, "revenue": 0}], "MOGADORE": [{"ein": "161040599", "name": "MOGADORE CHAPEL C O CHARLES W AUSTIN", "city": "BATAVIA", "state": "NY", "zip": "14020-9444", "ntee": "", "ruling": "197701", "deductibility": "1", "assets": 0, "income": 0, "revenue": 0}], "QUADRANT": [{"ein": "161318497", "name": "NORTHEAST QUADRANT ADVANCED LIFE SUPPORT INC", "city": "WEBSTER", "state": "NY", "zip": "14580-2485", "ntee": "E62", "ruling": "200710", "deductibility": "1", "assets": 2116226, "income": 2697811, "revenue": 2697811}, {"ein": "993729516", "name": "QUADRANT INTERNATIONAL ART ASSOCIATION INC", "city": "LONG ISLAND CITY", "state": "NY", "zip": "11101-4215", "ntee": "A60", "ruling": "202407", "deductibility": "1", "assets": 0, "income": 0, "revenue": 0}], "VIAHEALTH": [{"ein": "161504370", "name": "VIAHEALTH HOME CARE INC", "city": "ROCHESTER", "state": "NY", "zip": "14617-5504", "ntee": "X00Z", "ruling": "199609", "deductibility": "1", "assets": 1, "income": 1, "revenue": 0}, {"ein": "161538727", "name": "VIAHEALTH HOME CARE II INC", "city": "ROCHESTER", "state": "NY", "zip": "14617-5504", "ntee": "E99Z", "ruling": "199802", "deductibility": "1", "assets": 1, "income": 1, "revenue": 0}], "LOCKE": [{"ein": "161558347", "name": "LOCKE VOLUNTEER FIRE DEPARTMENT INC", "city": "LOCKE", "state": "NY", "zip": "13092-0183", "ntee": "M24", "ruling": "199904", "deductibility": "1", "assets": 1718686, "income": 147411, "revenue": 89162}, {"ein": "384130813", "name": "LOCKE SOCIETY INC", "city": "LK RONKONKOMA", "state": "NY", "zip": "11779-1954", "ntee": "P20", "ruling": "202009", "deductibility": "1", "assets": 0, "income": 0, "revenue": 0}], "CULL": [{"ein": "161609981", "name": "CULL MARTIN FOUNDATION", "city": "BINGHAMTON", "state": "NY", "zip": "13903-3153", "ntee": "T21", "ruling": "200111", "deductibility": "1", "assets": 601, "income": 3500, "revenue": 0}, {"ein": "831509687", "name": "NEW CULL INC", "city": "BROOKLYN", "state": "NY", "zip": "11216-3594", "ntee": "A20", "ruling": "201808", "deductibility": "1", "assets": 0, "income": 0, "revenue": 0}], "PENITAS": [{"ein": "161661092", "name": "LAS PENITAS INC", "city": "NEW YORK", "state": "NY", "zip": "10454-1139", "ntee": "A20", "ruling": "202203", "deductibility": "1", "assets": 1, "income": 0, "revenue": 0}], "WEBSERVESUS": [{"ein": "201779667", "name": "WEBSERVESUS", "city": "NEW YORK", "state": "NY", "zip": "10038-3703", "ntee": "U02", "ruling": "202203", "deductibility": "1", "assets": 50975, "income": 88678, "revenue": 88678}], "CONQUISTANDO": [{"ein": "202506225", "name": "IGLESIA DE CRISTO CONQUISTANDO LAS NACIONES", "city": "RICHMOND HILLS", "state": "NY", "zip": "11419-2519", "ntee": "X21", "ruling": "200601", "deductibility": "1", "assets": 0, "income": 0, "revenue": 0}], "PORCH": [{"ein": "202603293", "name": "SOLOMONS PORCH OUTREACH MINISTRIES", "city": "WILLIAMSON", "state": "NY", "zip": "14589-0103", "ntee": "X21", "ruling": "200506", "deductibility": "1", "assets": 0, "income": 0, "revenue": 0}, {"ein": "474812529", "name": "SOLOMONS PORCH LIFE RESERVATORY INC", "city": "MEDFORD", "state": "NY", "zip": "11763-1038", "ntee": "X90", "ruling": "201804", "deductibility": "1", "assets": 0, "income": 0, "revenue": 0}, {"ein": "851018329", "name": "THE PORCH PANTRY", "city": "GLEN COVE", "state": "NY", "zip": "11542-1804", "ntee": "P20", "ruling": "202407", "deductibility": "1", "assets": 0, "income": 0, "revenue": 0}], "NYLON": [{"ein": "203035957", "name": "NYLON WOUND INC", "city": "NEW YORK", "state": "NY", "zip": "10003-5550", "ntee": "A68", "ruling": "200509", "deductibility": "1", "assets": 0, "income": 0, "revenue": 0}], "SURVIVORSHIP": [{"ein": "203991558", "name": "SURVIVORSHIP A TO Z INC", "city": "NEW YORK", "state": "NY", "zip": "10019-3967", "ntee": "E70", "ruling": "200609", "deductibility": "1", "assets": 0, "income": 0, "revenue": 0}, {"ein": "814756368", "name": "N Y COLORECTAL CANCER SURVIVORSHIP SUPPORT GROUP", "city": "EAST ROCKAWAY", "state": "NY", "zip": "11518-1520", "ntee": "P20", "ruling": "201803", "deductibility": "1", "assets": 877, "income": 1701, "revenue": 1701}], "VRAYAI": [{"ein": "204432880", "name": "MACHNE ACHAI VRAYAI INC", "city": "MONSEY", "state": "NY", "zip": "10952-2409", "ntee": "O12", "ruling": "200612", "deductibility": "1", "assets": 0, "income": 0, "revenue": 0}], "BERNHART": [{"ein": "206934392", "name": "GREGORY T BERNHART AND ANNE MBERNHART FAMILY CHARITABLE TRUST", "city": "WESTHAMPTON", "state": "NY", "zip": "11977-1612", "ntee": "T22", "ruling": "200606", "deductibility": "1", "assets": 99544, "income": 12978, "revenue": 0}], "VIVE": [{"ein": "208183650", "name": "MINISTERIO JESUCRISTO VIVE JESUSCHRIST LIVE MINISTRY INC", "city": "SMITHTOWN", "state": "NY", "zip": "11787-1848", "ntee": "X20", "ruling": "201010", "deductibility": "1", "assets": 1, "income": 0, "revenue": 0}, {"ein": "208760474", "name": "MINISTERIOS CRISTO VIVE INC", "city": "BRONX", "state": "NY", "zip": "10458-3103", "ntee": "X20", "ruling": "200804", "deductibility": "1", "assets": 0, "income": 0, "revenue": 0}, {"ein": "460928254", "name": "IGLESIA CENTRO FAMILIAR CRISTO VIVE INC", "city": "BRENTWOOD", "state": "NY", "zip": "11717-4507", "ntee": "X20", "ruling": "201311", "deductibility": "1", "assets": 0, "income": 0, "revenue": 0}, {"ein": "463941020", "name": "CENTRE DE LEAU VIVE MINISTRY", "city": "UNIONDALE", "state": "NY", "zip": "11553-3016", "ntee": "X21", "ruling": "201805", "deductibility": "1", "assets": 0, "income": 0, "revenue": 0}, {"ein": "851445827", "name": "F A S JESUCRISTO VIVE INC", "city": "SHIRLEY", "state": "NY", "zip": "11967-2528", "ntee": "B82", "ruling": "202008", "deductibility": "1", "assets": 1269, "income": 10277, "revenue": 10277}, {"ein": "853756612", "name": "MINISTERIO RESTAURACION CRISTO VIVE INC", "city": "RIDGE", "state": "NY", "zip": "11961-2972", "ntee": "X21", "ruling": "202207", "deductibility": "1", "assets": 0, "income": 0, "revenue": 0}, {"ein": "932872145", "name": "IGLESIA CRISTIANA JESUS VIVE INC", "city": "WOODHAVEN", "state": "NY", "zip": "11421-3013", "ntee": "X20", "ruling": "202505", "deductibility": "1", "assets": 0, "income": 0, "revenue": 0}], "SUCCESSGREAT": [{"ein": "208183930", "name": "FRIENDS OF CHABAD OF LAKE SUCCESSGREAT NECK INC", "city": "GREAT NECK", "state": "NY", "zip": "11020-1404", "ntee": "X30", "ruling": "200801", "deductibility": "1", "assets": 0, "income": 0, "revenue": 0}], "ASCM": [{"ein": "222317575", "name": "ASCM ROCHESTER INC", "city": "ROCHESTER", "state": "NY", "zip": "14692-3553", "ntee": "", "ruling": "198207", "deductibility": "1", "assets": 98859, "income": 81083, "revenue": 81083}], "FOLLETT": [{"ein": "223270901", "name": "ROGER FOLLETT FOUNDATION INC", "city": "NORWICH", "state": "NY", "zip": "13815-1632", "ntee": "", "ruling": "199403", "deductibility": "1", "assets": 5119564, "income": 736306, "revenue": 0}], "USES": [{"ein": "236402643", "name": "MARTIN F HATCH FUND FBO RELIGIOUS & CHARITY USES", "city": "ITHACA", "state": "NY", "zip": "14850-8711", "ntee": "", "ruling": "196511", "deductibility": "1", "assets": 848069, "income": 52039, "revenue": 0}], "CONSERVATIONISTS": [{"ein": "237318743", "name": "FEDERATED CONSERVATIONISTS OF WESTCHESTER COUNTY INC", "city": "WHITE PLAINS", "state": "NY", "zip": "10603-0000", "ntee": "", "ruling": "196705", "deductibility": "1", "assets": 214932, "income": 56194, "revenue": 56194}], "HOFFERT": [{"ein": "237763256", "name": "VALERIA E HOFFERT SCHOLARSHIP TRUST", "city": "BUFFALO", "state": "NY", "zip": "14240-1504", "ntee": "", "ruling": "199405", "deductibility": "1", "assets": 947874, "income": 297204, "revenue": 0}, {"ein": "300126892", "name": "THE DELUCA HOFFERT FAMILY FOUNDATION", "city": "SELKIRK", "state": "NY", "zip": "12158-4000", "ntee": "T22", "ruling": "200211", "deductibility": "1", "assets": 1, "income": 285600, "revenue": 0}], "AUTHIER": [{"ein": "256820083", "name": "JEAN B AUTHIER TR UW 06251992 AMENDED BY CODICILS", "city": "NEW LEBANON", "state": "NY", "zip": "12125-0718", "ntee": "T20", "ruling": "200302", "deductibility": "1", "assets": 656194, "income": 254169, "revenue": 0}], "GODQUEST": [{"ein": "260111436", "name": "GODQUEST", "city": "SENECA FALLS", "state": "NY", "zip": "13148-9552", "ntee": "X20", "ruling": "201301", "deductibility": "1", "assets": 0, "income": 0, "revenue": 0}], "BANGALI": [{"ein": "260741506", "name": "AMERICAN BANGALI HINDU FOUNDATIONINC", "city": "JAMAICA", "state": "NY", "zip": "11432-4553", "ntee": "A20", "ruling": "200912", "deductibility": "1", "assets": 745506, "income": 34678, "revenue": 34678}], "JORDANIAN": [{"ein": "261981304", "name": "JORDANIAN AMERICN ASSOCIATION OF N Y INC", "city": "BELLMORE", "state": "NY", "zip": "11710-0000", "ntee": "N50", "ruling": "200805", "deductibility": "2", "assets": 0, "income": 0, "revenue": 0}], "BIOBUS": [{"ein": "262092282", "name": "BIOBUS INC", "city": "NEW YORK", "state": "NY", "zip": "10027-2510", "ntee": "E20", "ruling": "201001", "deductibility": "1", "assets": 4637103, "income": 5515528, "revenue": 5515528}], "LABS": [{"ein": "262506162", "name": "HARMONY LABS INC", "city": "NEW YORK", "state": "NY", "zip": "10036-7329", "ntee": "A31", "ruling": "200902", "deductibility": "1", "assets": 828877, "income": 3396262, "revenue": 3396262}, {"ein": "463953777", "name": "JUSTICE LABS INC", "city": "NEW YORK", "state": "NY", "zip": "10001-5742", "ntee": "Q30", "ruling": "201408", "deductibility": "1", "assets": 0, "income": 0, "revenue": 0}, {"ein": "465214867", "name": "CAMBIO LABS CO", "city": "LONG ISLAND CITY", "state": "NY", "zip": "11103-2381", "ntee": "B90", "ruling": "201503", "deductibility": "1", "assets": 90493, "income": 301937, "revenue": 301937}, {"ein": "474897004", "name": "CIVIC HALL LABS INC", "city": "NEW YORK", "state": "NY", "zip": "10017-6733", "ntee": "S20", "ruling": "201512", "deductibility": "1", "assets": 117201196, "income": 604221, "revenue": 604221}, {"ein": "475673329", "name": "LIFE CHANGING LABS FOUNDATION", "city": "ITHACA", "state": "NY", "zip": "14850-6701", "ntee": "B80", "ruling": "202308", "deductibility": "1", "assets": 44935, "income": 59202, "revenue": 59202}, {"ein": "830929125", "name": "MAROON AND GOLD LABS INC", "city": "NEW YORK", "state": "NY", "zip": "10021-5748", "ntee": "B30", "ruling": "201904", "deductibility": "1", "assets": 0, "income": 0, "revenue": 0}, {"ein": "843851585", "name": "IMPACT LABS LLC", "city": "NEW YORK", "state": "NY", "zip": "10024-6703", "ntee": "B80", "ruling": "202201", "deductibility": "1", "assets": 43619, "income": 109898, "revenue": 109898}, {"ein": "843878444", "name": "KURA LABS INC", "city": "NEW YORK", "state": "NY", "zip": "10003-1502", "ntee": "B90", "ruling": "202005", "deductibility": "1", "assets": 1492575, "income": 2080123, "revenue": 2080123}, {"ein": "883516168", "name": "MISSIONAL LABS INC", "city": "BROOKLYN", "state": "NY", "zip": "11222-6261", "ntee": "X21", "ruling": "202304", "deductibility": "1", "assets": 116042, "income": 179911, "revenue": 179911}, {"ein": "992000735", "name": "WHISTLING FINCH LABS INC", "city": "NEW YORK", "state": "NY", "zip": "10025-7904", "ntee": "B99", "ruling": "202502", "deductibility": "1", "assets": 0, "income": 0, "revenue": 0}, {"ein": "993199746", "name": "INNEREAR LABS INC", "city": "NEW YORK", "state": "NY", "zip": "10004-1617", "ntee": "F05", "ruling": "202406", "deductibility": "1", "assets": 0, "income": 0, "revenue": 0}, {"ein": "993312286", "name": "RAI IMPACT EQUITY LABS INC", "city": "NEW YORK", "state": "NY", "zip": "10019-7629", "ntee": "S02", "ruling": "202406", "deductibility": "1", "assets": 0, "income": 0, "revenue": 0}], "INDIANA": [{"ein": "263341315", "name": "WAAAUB-INDIANA CHAPTER", "city": "NEW YORK", "state": "NY", "zip": "10017-2322", "ntee": "B84", "ruling": "201410", "deductibility": "1", "assets": 0, "income": 0, "revenue": 0}], "NIELSEN": [{"ein": "263471762", "name": "VLADIMIR NIELSEN FOUNDATION INC", "city": "SOUTHAMPTON", "state": "NY", "zip": "11969-2411", "ntee": "A68", "ruling": "201107", "deductibility": "1", "assets": 0, "income": 0, "revenue": 0}, {"ein": "320363018", "name": "ANDERS NIELSEN AMERICAN FOUNDATION", "city": "SEA CLIFF", "state": "NY", "zip": "11579-4027", "ntee": "T20", "ruling": "201512", "deductibility": "1", "assets": 17157, "income": 225, "revenue": 0}], "QUESTION": [{"ein": "270631685", "name": "DRAMATIC QUESTION THEATER", "city": "BROOKLYN", "state": "NY", "zip": "11234-4837", "ntee": "A60", "ruling": "201007", "deductibility": "1", "assets": 227, "income": 55880, "revenue": 0}], "ZAMBIA": [{"ein": "272976168", "name": "SERVING ZAMBIA INC", "city": "BRONXVILLE", "state": "NY", "zip": "10708-1618", "ntee": "O11", "ruling": "201702", "deductibility": "1", "assets": 0, "income": 0, "revenue": 0}, {"ein": "463806815", "name": "ZAMBIA COMMUNITY EDUCATION INITIATIVE INC", "city": "ITHACA", "state": "NY", "zip": "14851-6794", "ntee": "W99", "ruling": "201409", "deductibility": "1", "assets": 0, "income": 0, "revenue": 0}], "BETANIA": [{"ein": "273304699", "name": "OUR MOTHER QUEEN OF PEACE MARIAN COALITION BETANIA XIII INC", "city": "GLENWOOD", "state": "NY", "zip": "11547-0000", "ntee": "X20", "ruling": "201105", "deductibility": "1", "assets": 0, "income": 0, "revenue": 0}], "FORERUNNER": [{"ein": "273615538", "name": "FORERUNNER MINISTRIES", "city": "SPARROWBUSH", "state": "NY", "zip": "12780-5402", "ntee": "X20", "ruling": "201406", "deductibility": "1", "assets": 0, "income": 0, "revenue": 0}, {"ein": "872044212", "name": "ST JOHN THE FORERUNNER ORTHODOX PRO LIFE SOCIETY", "city": "BRONXVILLE", "state": "NY", "zip": "10708-2333", "ntee": "R62", "ruling": "202211", "deductibility": "1", "assets": 0, "income": 0, "revenue": 0}], "RHYTHHM": [{"ein": "274511789", "name": "PROJECT RHYTHHM INC", "city": "JACKSON HEIGHTS", "state": "NY", "zip": "11372-4818", "ntee": "A25", "ruling": "201204", "deductibility": "1", "assets": 52471, "income": 50033, "revenue": 50033}], "KADAM": [{"ein": "276232891", "name": "KADAM FUND", "city": "LARCHMONT", "state": "NY", "zip": "10538-2437", "ntee": "B12", "ruling": "201005", "deductibility": "1", "assets": 0, "income": 0, "revenue": 0}], "TERRAPLANE": [{"ein": "310932018", "name": "HUDSON-ESSEX TERRAPLANE CLUB INC", "city": "ALBANY", "state": "NY", "zip": "12203-3425", "ntee": "", "ruling": "197407", "deductibility": "2", "assets": 0, "income": 0, "revenue": 0}, {"ein": "310932036", "name": "HUDSON-ESSEX TERRAPLANE CLUB INC", "city": "MIDDLEPORT", "state": "NY", "zip": "14105-9635", "ntee": "", "ruling": "197407", "deductibility": "2", "assets": 0, "income": 0, "revenue": 0}], "BONFIRES": [{"ein": "333030407", "name": "BEYOND BONFIRES CORP", "city": "DOVER PLAINS", "state": "NY", "zip": "12522-5920", "ntee": "N31", "ruling": "202505", "deductibility": "1", "assets": 0, "income": 0, "revenue": 0}], "WOLVES": [{"ein": "334323897", "name": "PHENOMENAL WOLVES ELITE INC", "city": "NEW YORK", "state": "NY", "zip": "10011-3074", "ntee": "O50", "ruling": "202505", "deductibility": "1", "assets": 0, "income": 0, "revenue": 0}, {"ein": "843799138", "name": "MAHOPAC WOLVES BASEBALL CORP", "city": "MAHOPAC", "state": "NY", "zip": "10541-1800", "ntee": "N63", "ruling": "202002", "deductibility": "1", "assets": 0, "income": 0, "revenue": 0}, {"ein": "993438128", "name": "NY WOLVES FOOTBALL INC", "city": "LEVITTOWN", "state": "NY", "zip": "11756-3302", "ntee": "N65", "ruling": "202406", "deductibility": "1", "assets": 0, "income": 0, "revenue": 0}], "ARTPORT": [{"ein": "334364711", "name": "ARTPORT WORKS INC", "city": "BLOOMINGTON", "state": "NY", "zip": "12411-5214", "ntee": "A99", "ruling": "202505", "deductibility": "1", "assets": 0, "income": 0, "revenue": 0}, {"ein": "991339766", "name": "ARTPORT KINGSTON", "city": "KINGSTON", "state": "NY", "zip": "12401-3912", "ntee": "A20", "ruling": "202404", "deductibility": "1", "assets": 0, "income": 0, "revenue": 0}], "MONOMOY": [{"ein": "383190289", "name": "MONOMOY FUND INC", "city": "NEW YORK", "state": "NY", "zip": "10022-6609", "ntee": "", "ruling": "199411", "deductibility": "1", "assets": 1425596, "income": 344180, "revenue": 0}], "DUAN": [{"ein": "421652591", "name": "ANAM DUAN", "city": "CLARKSVILLE", "state": "NY", "zip": "12041-0348", "ntee": "O50", "ruling": "200506", "deductibility": "1", "assets": 1035, "income": 1100, "revenue": 1100}], "TRABZONSPOR": [{"ein": "451486848", "name": "TRABZONSPOR-USA INC", "city": "BRENTWOOD", "state": "NY", "zip": "11717-8213", "ntee": "N64", "ruling": "202311", "deductibility": "1", "assets": 0, "income": 0, "revenue": 0}], "DESCRIPTIVE": [{"ein": "452414215", "name": "INSTITUTE ON DESCRIPTIVE INQUIRY INC", "city": "BROOKLYN", "state": "NY", "zip": "11216-4108", "ntee": "B03", "ruling": "201411", "deductibility": "1", "assets": 30434, "income": 34459, "revenue": 0}], "REPTILES": [{"ein": "453596244", "name": "RHONDAS REPTILES INC", "city": "NEW LEBANON", "state": "NY", "zip": "12125-0307", "ntee": "D60", "ruling": "201811", "deductibility": "1", "assets": 1, "income": 43740, "revenue": 0}], "ROWCO": [{"ein": "453971094", "name": "ROWCO INC", "city": "HAVERSTRAW", "state": "NY", "zip": "10927-1707", "ntee": "P80", "ruling": "201408", "deductibility": "1", "assets": 0, "income": 0, "revenue": 0}], "STEWARTVILLE": [{"ein": "454396538", "name": "ASSOCIATION FOR STEWARTVILLE AFFAIRS INC", "city": "BROOKLYN", "state": "NY", "zip": "11221-5226", "ntee": "T99", "ruling": "201612", "deductibility": "1", "assets": 0, "income": 0, "revenue": 0}], "PIETROS": [{"ein": "461031527", "name": "PIETROS FIGHT INC", "city": "STATEN ISLAND", "state": "NY", "zip": "10306-1410", "ntee": "G50", "ruling": "201405", "deductibility": "1", "assets": 71087, "income": 141669, "revenue": 80669}], "UNFED": [{"ein": "461197404", "name": "NO PET GOES UNFED INC", "city": "PLAINVIEW", "state": "NY", "zip": "11803-6309", "ntee": "D20", "ruling": "201401", "deductibility": "1", "assets": 0, "income": 0, "revenue": 0}], "CORAZONES": [{"ein": "462011553", "name": "IGLESIA UNIFICANDO CORAZONES CONTRICTOS PENTECOSTAL CHURCH", "city": "UTICA", "state": "NY", "zip": "13502-5428", "ntee": "X20", "ruling": "202111", "deductibility": "1", "assets": 122603, "income": 92034, "revenue": 92034}, {"ein": "522225847", "name": "CORAZONES UNIDOS SIEMPRE", "city": "NEW YORK", "state": "NY", "zip": "10016-0804", "ntee": "R99", "ruling": "201405", "deductibility": "2", "assets": 294333, "income": 162836, "revenue": 162836}], "FLCC": [{"ein": "462489072", "name": "FLCC VITICULTURE AND WINE TECHNOLOGY CORPORATION", "city": "CANANDAIGUA", "state": "NY", "zip": "14424-8405", "ntee": "B19", "ruling": "201503", "deductibility": "1", "assets": 0, "income": 0, "revenue": 0}], "LAFORCE": [{"ein": "462758257", "name": "LAFORCE FAMILY FOUNDATION", "city": "NORTH BABYLON", "state": "NY", "zip": "11703-3243", "ntee": "T20", "ruling": "201309", "deductibility": "1", "assets": 398199, "income": 245148, "revenue": 0}], "AMEILIM": [{"ein": "463203033", "name": "KOLLEL AMEILIM OF FAR ROCKAWAY", "city": "LAWRENCE", "state": "NY", "zip": "11559-2901", "ntee": "X99", "ruling": "201405", "deductibility": "1", "assets": 56229, "income": 60925, "revenue": 0}], "GIGI": [{"ein": "464323935", "name": "GIGI & AVERELL H MORTIMER FOUNDATION", "city": "HARRIMAN", "state": "NY", "zip": "10926-1022", "ntee": "T99", "ruling": "201407", "deductibility": "1", "assets": 1431678, "income": 618464, "revenue": 0}], "CLOSED": [{"ein": "472452889", "name": "CLOSED LOOP FOUNDATION", "city": "NEW YORK", "state": "NY", "zip": "10106-1099", "ntee": "C022", "ruling": "201511", "deductibility": "1", "assets": 306324, "income": 151788, "revenue": 151788}], "COLLECTIO": [{"ein": "473673133", "name": "COLLECTIO MUSICORUM INC", "city": "BROOKLYN", "state": "NY", "zip": "11209-4910", "ntee": "A6C", "ruling": "201505", "deductibility": "1", "assets": 5743, "income": 2640, "revenue": 2640}], "PILGRIMAGES": [{"ein": "473707020", "name": "PILGRIMAGES WITH ST JOSEPH THE PILGRIM", "city": "EAST MEADOW", "state": "NY", "zip": "11554-4535", "ntee": "P20", "ruling": "201508", "deductibility": "1", "assets": 0, "income": 0, "revenue": 0}], "FEMME": [{"ein": "474867327", "name": "LA FEMME THEATRE PRODUCTIONS", "city": "NEW YORK", "state": "NY", "zip": "10036-4005", "ntee": "A65", "ruling": "201612", "deductibility": "1", "assets": 1810948, "income": 3450402, "revenue": 3450402}, {"ein": "832564437", "name": "DKOL LA FEMME PROJECT INC", "city": "POUGHKEEPSIE", "state": "NY", "zip": "12603-6517", "ntee": "A31", "ruling": "201902", "deductibility": "1", "assets": 0, "income": 0, "revenue": 0}, {"ein": "844519515", "name": "FEMME HOUSE", "city": "NEW YORK", "state": "NY", "zip": "10003-1405", "ntee": "A68", "ruling": "202003", "deductibility": "1", "assets": 57611, "income": 186771, "revenue": 186771}, {"ein": "854216846", "name": "BE FEMME FINESSE", "city": "BUFFALO", "state": "NY", "zip": "14209-1920", "ntee": "O50", "ruling": "202104", "deductibility": "1", "assets": 0, "income": 0, "revenue": 0}, {"ein": "874635801", "name": "A DOPE FEMME", "city": "NEW YORK", "state": "NY", "zip": "10027-3970", "ntee": "A01", "ruling": "202212", "deductibility": "1", "assets": 0, "income": 0, "revenue": 0}, {"ein": "900765953", "name": "LA FEMME AU FOYER & COMMUNITY OUTREACH FOOD MINISTRY INC", "city": "NANUET", "state": "NY", "zip": "10954-1123", "ntee": "P20", "ruling": "201212", "deductibility": "1", "assets": 0, "income": 0, "revenue": 0}], "MAASIM": [{"ein": "527323922", "name": "MAASIM TOVIM FOUNDATION", "city": "SPRING VALLEY", "state": "NY", "zip": "10977-1908", "ntee": "T22", "ruling": "200312", "deductibility": "1", "assets": 311854, "income": 53115, "revenue": 0}], "JCHEN": [{"ein": "611844916", "name": "JCHEN PROJECT INC", "city": "NEW YORK", "state": "NY", "zip": "10036-3659", "ntee": "A20", "ruling": "201708", "deductibility": "1", "assets": 0, "income": 0, "revenue": 0}], "AIRLINE": [{"ein": "752679444", "name": "AIRLINE AMBASSADORS INTERNATIONAL INC", "city": "NEW YORK", "state": "NY", "zip": "10038-0000", "ntee": "Q330", "ruling": "199701", "deductibility": "1", "assets": 76095, "income": 153364, "revenue": 153364}], "SIROTE": [{"ein": "753000170", "name": "STANLEY SIROTE CHARITABLE FOUNDATION INC", "city": "UNIONDALE", "state": "NY", "zip": "11556-1232", "ntee": "T22", "ruling": "200301", "deductibility": "1", "assets": 92766, "income": 2764221, "revenue": 0}], "BILLITTIER": [{"ein": "753153966", "name": "LOUIS J BILLITTIER FUND", "city": "BUFFALO", "state": "NY", "zip": "14204-2011", "ntee": "T30", "ruling": "200408", "deductibility": "1", "assets": 40313, "income": 93716, "revenue": 62882}], "MIGRAINE": [{"ein": "800847761", "name": "CHRONIC MIGRAINE AWARENESS INC", "city": "HOLTSVILLE", "state": "NY", "zip": "11742-2559", "ntee": "G48", "ruling": "201406", "deductibility": "1", "assets": 24382, "income": 4083, "revenue": 4083}, {"ein": "852527027", "name": "AMERICAN MIGRAINE FOUNDATION INC", "city": "NEW YORK", "state": "NY", "zip": "10036-2714", "ntee": "E70", "ruling": "202111", "deductibility": "1", "assets": 704348, "income": 294663, "revenue": 294663}], "CYBERGREEN": [{"ein": "811120125", "name": "CYBERGREEN INSTITUTE", "city": "PALISADES", "state": "NY", "zip": "10964-1627", "ntee": "U41", "ruling": "201606", "deductibility": "1", "assets": 251900, "income": 463369, "revenue": 463369}], "MYCHAL": [{"ein": "811196691", "name": "FATHER MYCHAL JUDGE DIVISION OF THE L A O H INC OF PRINCE WILLIAM", "city": "BROOKLYN", "state": "NY", "zip": "11229-4111", "ntee": "Y42", "ruling": "201808", "deductibility": "1", "assets": 0, "income": 0, "revenue": 0}], "KOMENKOWSKI": [{"ein": "811514980", "name": "NED KOMENKOWSKI FOUNDATION INC", "city": "JAMAICA", "state": "NY", "zip": "11435-4416", "ntee": "T50", "ruling": "201805", "deductibility": "1", "assets": 0, "income": 0, "revenue": 0}], "LEEBLING": [{"ein": "813036385", "name": "LEEBLING INC", "city": "BROOKLYN", "state": "NY", "zip": "11219-2612", "ntee": "P33", "ruling": "201702", "deductibility": "1", "assets": 4378315, "income": 1325037, "revenue": 1207270}], "MALWA": [{"ein": "813507740", "name": "MALWA BROTHERS ORGANIZATION USA INC", "city": "GLENDALE", "state": "NY", "zip": "11385-7253", "ntee": "A23", "ruling": "202208", "deductibility": "1", "assets": 0, "income": 0, "revenue": 0}], "ZCM": [{"ein": "821929015", "name": "ZCM FOUNDATION TRUST", "city": "BROOKLYN", "state": "NY", "zip": "11204-2011", "ntee": "T20", "ruling": "201806", "deductibility": "1", "assets": 657072, "income": 498243, "revenue": 0}], "OURBRAINBANK": [{"ein": "822307232", "name": "OURBRAINBANK INC", "city": "BROOKLYN", "state": "NY", "zip": "11217-3304", "ntee": "G48", "ruling": "201803", "deductibility": "1", "assets": 272913, "income": 106900, "revenue": 106900}], "MASTERCARD": [{"ein": "824717403", "name": "MASTERCARD IMPACT FUND", "city": "PURCHASE", "state": "NY", "zip": "10577-2405", "ntee": "B82", "ruling": "201812", "deductibility": "1", "assets": 183357220, "income": 9024076, "revenue": 0}], "ECARDONATE": [{"ein": "832180784", "name": "WWW ECARDONATE ORG INC", "city": "BROOKLYN", "state": "NY", "zip": "11235-2000", "ntee": "P60", "ruling": "201908", "deductibility": "1", "assets": 1, "income": 0, "revenue": 0}], "CAMPIONE": [{"ein": "832704775", "name": "CAMPIONE MEMORIAL INC", "city": "BREEZY POINT", "state": "NY", "zip": "11697-1105", "ntee": "E12", "ruling": "201907", "deductibility": "1", "assets": 0, "income": 0, "revenue": 0}], "AMAYAS": [{"ein": "834167441", "name": "AMAYAS BOOKREADS INC", "city": "NEW YORK", "state": "NY", "zip": "10034-5144", "ntee": "B92", "ruling": "201904", "deductibility": "1", "assets": 0, "income": 0, "revenue": 0}], "ABODOM": [{"ein": "841697149", "name": "AGONA ABODOM DEVELOPMENT ASSOCIATION OF US", "city": "BRONX", "state": "NY", "zip": "10461-6118", "ntee": "A12", "ruling": "201108", "deductibility": "1", "assets": 0, "income": 0, "revenue": 0}], "SHISU": [{"ein": "842387792", "name": "SHISU FOUNDATION INC", "city": "BROOKLYN", "state": "NY", "zip": "11210-4619", "ntee": "P12", "ruling": "201907", "deductibility": "1", "assets": 665148, "income": 53337, "revenue": 0}], "GRATUS": [{"ein": "843037647", "name": "GRATUS-CUBED INC", "city": "JERICHO", "state": "NY", "zip": "11753-1133", "ntee": "A20", "ruling": "201909", "deductibility": "1", "assets": 0, "income": 0, "revenue": 0}], "BREWNITED": [{"ein": "850512291", "name": "BREWNITED", "city": "SARATOGA SPGS", "state": "NY", "zip": "12866-3606", "ntee": "T20", "ruling": "202409", "deductibility": "1", "assets": 4704, "income": 3300, "revenue": 0}], "41Q": [{"ein": "852827216", "name": "PS 41Q PARENT TEACHER ASSOCIATION CORP", "city": "BAYSIDE", "state": "NY", "zip": "11361-1711", "ntee": "B94", "ruling": "202104", "deductibility": "1", "assets": 103366, "income": 130715, "revenue": 127851}], "VOTER": [{"ein": "852839813", "name": "LATINO VOTER PROTECTION INC", "city": "PITTSFORD", "state": "NY", "zip": "14534-2116", "ntee": "R40", "ruling": "202011", "deductibility": "1", "assets": 335, "income": 0, "revenue": 0}, {"ein": "854009737", "name": "VOTER EDUCATION 365", "city": "BABYLON", "state": "NY", "zip": "11702-1709", "ntee": "R40", "ruling": "202202", "deductibility": "1", "assets": 0, "income": 0, "revenue": 0}], "DARK": [{"ein": "853521712", "name": "HOUSE OF ROSES IN THE DARK INC", "city": "BROOKLYN", "state": "NY", "zip": "11234-2005", "ntee": "A99", "ruling": "202103", "deductibility": "1", "assets": 0, "income": 0, "revenue": 0}, {"ein": "871548862", "name": "THE DARK YOUTH CENTER INC", "city": "ROCHESTER", "state": "NY", "zip": "14609-4835", "ntee": "F11", "ruling": "202110", "deductibility": "1", "assets": 0, "income": 0, "revenue": 0}], "VERRAZZANO": [{"ein": "853684595", "name": "S I VERRAZZANO 10 13 ASSOCIATION INC", "city": "STATEN ISLAND", "state": "NY", "zip": "10306-2923", "ntee": "N50", "ruling": "202106", "deductibility": "2", "assets": 5802, "income": 9726, "revenue": 9726}], "DT": [{"ein": "853962630", "name": "DT MERCY FOUNDATION", "city": "BUFFALO", "state": "NY", "zip": "14211-1821", "ntee": "O50", "ruling": "202103", "deductibility": "1", "assets": 0, "income": 0, "revenue": 0}], "TOTW": [{"ein": "854110873", "name": "CONGREGATION TOTW", "city": "BROOKLYN", "state": "NY", "zip": "11211-8104", "ntee": "X30", "ruling": "202106", "deductibility": "1", "assets": 0, "income": 0, "revenue": 0}], "YORKTOWN100": [{"ein": "854277352", "name": "YORKTOWN100", "city": "YORKTOWN HTS", "state": "NY", "zip": "10598-5007", "ntee": "C01", "ruling": "202106", "deductibility": "1", "assets": 0, "income": 0, "revenue": 0}], "JOYAS": [{"ein": "862001883", "name": "CONCILIO INTERNACIONAL JOYAS DE ISRAEL INC", "city": "BRONX", "state": "NY", "zip": "10459-2945", "ntee": "X20", "ruling": "202206", "deductibility": "1", "assets": 0, "income": 0, "revenue": 0}], "DECREE": [{"ein": "862140459", "name": "DECREE FOUNDATION INC", "city": "ROCHESTER", "state": "NY", "zip": "14621-4146", "ntee": "Q33", "ruling": "202107", "deductibility": "1", "assets": 0, "income": 0, "revenue": 0}], "ODI": [{"ein": "871096764", "name": "ODI MMA NDI IGBO INC", "city": "STATEN ISLAND", "state": "NY", "zip": "10304-7228", "ntee": "S80", "ruling": "202206", "deductibility": "1", "assets": 1, "income": 15970, "revenue": 0}], "PRESSED": [{"ein": "880650161", "name": "PRESSED PENNY HARDSHIP SERVICES INC", "city": "CASTILE", "state": "NY", "zip": "14427-9750", "ntee": "M12", "ruling": "202203", "deductibility": "1", "assets": 0, "income": 0, "revenue": 0}], "COMNUNITY": [{"ein": "882457612", "name": "ARE YOU READY COMNUNITY OUTREACH INC", "city": "BROOKLYN", "state": "NY", "zip": "11205-4448", "ntee": "B90", "ruling": "202406", "deductibility": "1", "assets": 0, "income": 0, "revenue": 0}], "RECOURCE": [{"ein": "883302161", "name": "ENLIGHTENING ANIMALS RECOURCE CENTER", "city": "STONE RIDGE", "state": "NY", "zip": "12484-5500", "ntee": "D20", "ruling": "202301", "deductibility": "1", "assets": 2, "income": 21414, "revenue": 21414}], "MININTRY": [{"ein": "883561269", "name": "PROPHETIC RUTH MININTRY", "city": "BROOKLYN", "state": "NY", "zip": "11213-1130", "ntee": "J21", "ruling": "202501", "deductibility": "1", "assets": 0, "income": 3420, "revenue": 3420}], "PAWFECT": [{"ein": "920452556", "name": "PAWFECT PET HAVEN", "city": "PARISH", "state": "NY", "zip": "13131-3190", "ntee": "D20", "ruling": "202302", "deductibility": "1", "assets": 0, "income": 0, "revenue": 0}], "GEES": [{"ein": "922809007", "name": "THREE GEES WORKSHOP CORP", "city": "BRONX", "state": "NY", "zip": "10463-1535", "ntee": "B90", "ruling": "202303", "deductibility": "1", "assets": 135215, "income": 165000, "revenue": 165000}], "KIDZONE": [{"ein": "923545755", "name": "KIDZONE PS178M", "city": "NEW YORK", "state": "NY", "zip": "10040-1905", "ntee": "O50", "ruling": "202309", "deductibility": "1", "assets": 2263, "income": 45423, "revenue": 45423}], "ANNASOR": [{"ein": "923590869", "name": "ANNASOR ANSWERS INC", "city": "LANCASTER", "state": "NY", "zip": "14086-9758", "ntee": "P12", "ruling": "202305", "deductibility": "1", "assets": 20880, "income": 92792, "revenue": 56598}], "NEWSWORTHY": [{"ein": "923678424", "name": "WE ARE NEWSWORTHY TOO INC", "city": "ALBANY", "state": "NY", "zip": "12203-0812", "ntee": "R20", "ruling": "202307", "deductibility": "1", "assets": 0, "income": 0, "revenue": 0}], "AMT": [{"ein": "923774513", "name": "AMT THEATER INC", "city": "NEW YORK", "state": "NY", "zip": "10036-3802", "ntee": "A65", "ruling": "202405", "deductibility": "1", "assets": 47632, "income": 444672, "revenue": 352939}], "PHYS": [{"ein": "923953785", "name": "META-PHYS ED", "city": "BROOKLYN", "state": "NY", "zip": "11232-3572", "ntee": "A65", "ruling": "202307", "deductibility": "1", "assets": 0, "income": 0, "revenue": 0}], "GIANI": [{"ein": "932008462", "name": "GIANI FAMILY FOUNDATION INC", "city": "CENTERPORT", "state": "NY", "zip": "11721-1036", "ntee": "T23", "ruling": "202309", "deductibility": "1", "assets": 0, "income": 0, "revenue": 0}], "VELOCE": [{"ein": "934172908", "name": "GATTO VELOCE FOUNDATION INC", "city": "SARATOGA SPRINGS", "state": "NY", "zip": "12866-4362", "ntee": "O99", "ruling": "202312", "deductibility": "1", "assets": 0, "income": 0, "revenue": 0}], "CARTIER": [{"ein": "934442455", "name": "FRIENDS FND H CARTIER-BRESSON INC", "city": "NEW YORK", "state": "NY", "zip": "10025-1945", "ntee": "A20", "ruling": "202502", "deductibility": "1", "assets": 0, "income": 0, "revenue": 0}], "SIGMAS": [{"ein": "934885742", "name": "HARLEM SIGMAS COMMUNITY EMPOWERMENT FOUNDATION", "city": "JAMAICA", "state": "NY", "zip": "11436-1142", "ntee": "S20", "ruling": "202404", "deductibility": "1", "assets": 0, "income": 0, "revenue": 0}], "NYPDS": [{"ein": "943381284", "name": "NYPDS FIGHTING FINEST INC", "city": "BROOKLYN", "state": "NY", "zip": "11203-5305", "ntee": "T30", "ruling": "200503", "deductibility": "1", "assets": 461309, "income": 240367, "revenue": 180597}], "ATSQUAREONE": [{"ein": "991662506", "name": "ATSQUAREONE INC", "city": "FLUSHING", "state": "NY", "zip": "11355-3193", "ntee": "P84", "ruling": "202403", "deductibility": "1", "assets": 1983, "income": 65155, "revenue": 65155}], "CHIZIK": [{"ein": "993804756", "name": "CONG CHIZIK HATORA TYY", "city": "MONSEY", "state": "NY", "zip": "10952-2625", "ntee": "X30", "ruling": "202502", "deductibility": "1", "assets": 0, "income": 0, "revenue": 0}], "COYLE": [{"ein": "994765185", "name": "2134 COYLE HOUSING DEVELOPMENT FUND CORPORATION", "city": "YONKERS", "state": "NY", "zip": "10701-2743", "ntee": "P85", "ruling": "202507", "deductibility": "1", "assets": 0, "income": 0, "revenue": 0}], "DANCIO": [{"ein": "995022874", "name": "DANCIO ARTS INC", "city": "RYE", "state": "NY", "zip": "10580-3255", "ntee": "A62", "ruling": "202411", "deductibility": "1", "assets": 0, "income": 0, "revenue": 0}], "BETTOR": [{"ein": "995086724", "name": "BETTOR OFF FOUNDATION INC", "city": "NEW YORK", "state": "NY", "zip": "10007-1186", "ntee": "F54", "ruling": "202410", "deductibility": "1", "assets": 1, "income": 1, "revenue": 0}]}