{"GAME": [{"ein": "010705972", "name": "HONEOYE FISH AND GAME CLUB INC", "city": "HONEOYE", "state": "NY", "zip": "14471-0793", "ntee": "N50", "ruling": "200906", "deductibility": "2", "assets": 178248, "income": 166926, "revenue": 83176}, {"ein": "112050561", "name": "SUNRISE FISH AND GAME ASSOC INC", "city": "AMITYVILLE", "state": "NY", "zip": "11701-0264", "ntee": "N61", "ruling": "201112", "deductibility": "2", "assets": 0, "income": 0, "revenue": 0}, {"ein": "113383599", "name": "EAST HAMPTON ARTISTS WRITERS SOFTBALL GAME INC", "city": "KINGS PARK", "state": "NY", "zip": "11754-0000", "ntee": "", "ruling": "199912", "deductibility": "1", "assets": 54691, "income": 48415, "revenue": 30573}, {"ein": "132622979", "name": "MASHOMACK FISH & GAME PRESERVE CLUB INC", "city": "PINE PLAINS", "state": "NY", "zip": "12567-0308", "ntee": "N50", "ruling": "202003", "deductibility": "2", "assets": 3556795, "income": 5137755, "revenue": 5137755}, {"ein": "133201206", "name": "NEW CITY FISH & GAME CLUB INC", "city": "HIGHLAND MLS", "state": "NY", "zip": "10930-2949", "ntee": "", "ruling": "199403", "deductibility": "2", "assets": 0, "income": 0, "revenue": 0}, {"ein": "141354835", "name": "HUDSON FISH AND GAME CLUB INC", "city": "HUDSON", "state": "NY", "zip": "12534-0085", "ntee": "", "ruling": "196310", "deductibility": "2", "assets": 334225, "income": 142022, "revenue": 142022}, {"ein": "141493538", "name": "WATERULIET FISH & GAME PROTECTIVE ASSOCIATION INC", "city": "ALBANY", "state": "NY", "zip": "12212-2486", "ntee": "", "ruling": "197202", "deductibility": "2", "assets": 451409, "income": 147554, "revenue": 147554}, {"ein": "141498870", "name": "PLEASANT VALLEY TROUT & GAME CLUB INC", "city": "PLEASANT VLY", "state": "NY", "zip": "12569-7019", "ntee": "N50", "ruling": "199904", "deductibility": "2", "assets": 0, "income": 0, "revenue": 0}, {"ein": "141642586", "name": "PUTNAM COUNTY FISH & GAME ASSOCIATION INC", "city": "CARMEL", "state": "NY", "zip": "10512-0418", "ntee": "N61", "ruling": "200405", "deductibility": "2", "assets": 1145048, "income": 175686, "revenue": 175686}, {"ein": "141664178", "name": "THE NORTHERN WASHINGTON COUNTY FISH AND GAME CLUB INC", "city": "PUTNAM STA", "state": "NY", "zip": "12861-0074", "ntee": "N50", "ruling": "201705", "deductibility": "2", "assets": 0, "income": 0, "revenue": 0}, {"ein": "141664356", "name": "MORGAN HILL GAME ASSOCIATION INC", "city": "HURLEY", "state": "NY", "zip": "12443-0000", "ntee": "Y11", "ruling": "201606", "deductibility": "2", "assets": 422496, "income": 49967, "revenue": 37253}, {"ein": "141794292", "name": "THE ESSEX COUNTY FISH AND GAME LEAGUE INC", "city": "PARADOX", "state": "NY", "zip": "12858-0123", "ntee": "N61", "ruling": "200106", "deductibility": "2", "assets": 0, "income": 0, "revenue": 0}, {"ein": "146018063", "name": "SOUTHERN NEW YORK FISH & GAME ASSN INC", "city": "AUSTERLITZ", "state": "NY", "zip": "12017-2006", "ntee": "N61", "ruling": "201405", "deductibility": "2", "assets": 0, "income": 0, "revenue": 0}, {"ein": "146022940", "name": "HENDRICK HUDSON FISH AND GAME", "city": "WYNANTSKILL", "state": "NY", "zip": "12198-0122", "ntee": "C34", "ruling": "201902", "deductibility": "1", "assets": 298524, "income": 149914, "revenue": 149428}, {"ein": "146028398", "name": "FEDERATION OF DUTCHESS COUNTY FISH & GAME CLUBS INC", "city": "POUGHKEEPSIE", "state": "NY", "zip": "12603-0201", "ntee": "", "ruling": "191303", "deductibility": "2", "assets": 0, "income": 0, "revenue": 0}, {"ein": "146029765", "name": "BLACK ROCK FISH AND GAME CLUB OF CORNWALL INC", "city": "MOUNTAINVILLE", "state": "NY", "zip": "10953-0142", "ntee": "", "ruling": "194612", "deductibility": "2", "assets": 1963768, "income": 510225, "revenue": 430536}, {"ein": "146030242", "name": "CASPERKILL GAME CLUB INC", "city": "STANFORDVILLE", "state": "NY", "zip": "12581-6244", "ntee": "", "ruling": "194508", "deductibility": "2", "assets": 0, "income": 0, "revenue": 0}, {"ein": "146075558", "name": "GUAN HO HA FISH & GAME CLUB INC", "city": "SCOTIA", "state": "NY", "zip": "12302-6713", "ntee": "", "ruling": "198209", "deductibility": "2", "assets": 683944, "income": 328234, "revenue": 225666}, {"ein": "160446075", "name": "GENESEE COUNTY FISH & GAME PROTECTIVE ASSOCIATION", "city": "BATAVIA", "state": "NY", "zip": "14021-0217", "ntee": "N61", "ruling": "201707", "deductibility": "2", "assets": 1064657, "income": 415321, "revenue": 333453}, {"ein": "160872481", "name": "IRONDEQUOIT BAY FISH-GAME CLUB INC", "city": "ROCHESTER", "state": "NY", "zip": "14609-7937", "ntee": "", "ruling": "000000", "deductibility": "2", "assets": 509071, "income": 398987, "revenue": 244503}, {"ein": "160995491", "name": "DEWITT FISH & GAME CLUB INC", "city": "DEWITT", "state": "NY", "zip": "13214-0000", "ntee": "", "ruling": "199302", "deductibility": "2", "assets": 131649, "income": 119294, "revenue": 82528}, {"ein": "161002505", "name": "ILION FISH AND GAME CLUB INC", "city": "ILION", "state": "NY", "zip": "13357-0177", "ntee": "", "ruling": "202108", "deductibility": "2", "assets": 77780, "income": 75701, "revenue": 44923}, {"ein": "161035169", "name": "WELLER MOUNTAIN FISH AND GAME SOCIAL & RECREATION CLUB PRESERVE", "city": "COLTON", "state": "NY", "zip": "13625-0002", "ntee": "", "ruling": "198812", "deductibility": "2", "assets": 304623, "income": 312904, "revenue": 272868}, {"ein": "161105333", "name": "PATHFINDER FISH & GAME CLUB INC", "city": "FULTON", "state": "NY", "zip": "13069-4630", "ntee": "", "ruling": "199605", "deductibility": "2", "assets": 755215, "income": 216065, "revenue": 206275}, {"ein": "161173203", "name": "WESTFIELD FISH AND GAME CLUB INC", "city": "WESTFIELD", "state": "NY", "zip": "14787-0481", "ntee": "", "ruling": "198611", "deductibility": "2", "assets": 260645, "income": 96900, "revenue": 26751}, {"ein": "161184833", "name": "LOWVILLE FISH AND GAME CLUB INC", "city": "LOWVILLE", "state": "NY", "zip": "13367-3244", "ntee": "Z99", "ruling": "201409", "deductibility": "2", "assets": 0, "income": 0, "revenue": 0}, {"ein": "161194963", "name": "CLINTON FISH & GAME CLUB INC", "city": "CLINTON", "state": "NY", "zip": "13323-0122", "ntee": "", "ruling": "197208", "deductibility": "2", "assets": 201127, "income": 76654, "revenue": 74483}, {"ein": "161328337", "name": "GREENWAY VERONA MILLS FISH & GAME CLUB INC", "city": "ROME", "state": "NY", "zip": "13442-0535", "ntee": "N61", "ruling": "201407", "deductibility": "2", "assets": 0, "income": 0, "revenue": 0}, {"ein": "161388426", "name": "BROWNVILLE FISH & GAME CLUB INC", "city": "DEXTER", "state": "NY", "zip": "13634-0156", "ntee": "N50", "ruling": "201702", "deductibility": "2", "assets": 0, "income": 0, "revenue": 0}, {"ein": "161399255", "name": "OATKA GAME MANAGEMENT SOCIETY INC", "city": "LEROY", "state": "NY", "zip": "14482-0275", "ntee": "D340", "ruling": "199202", "deductibility": "1", "assets": 0, "income": 0, "revenue": 0}, {"ein": "161425598", "name": "DUNBAR FISH & GAME CLUB INC", "city": "CARTHAGE", "state": "NY", "zip": "13619-9727", "ntee": "", "ruling": "199311", "deductibility": "2", "assets": 0, "income": 0, "revenue": 0}, {"ein": "161467127", "name": "WHITE OTTER FISH AND GAME CLUB", "city": "WOODGATE", "state": "NY", "zip": "13494-0000", "ntee": "C30Z", "ruling": "199509", "deductibility": "1", "assets": 0, "income": 0, "revenue": 0}, {"ein": "161551573", "name": "KAYADEROSSERAS FISH AND GAME CLUB", "city": "BALLSTON SPA", "state": "NY", "zip": "12020-0000", "ntee": "N60", "ruling": "201702", "deductibility": "2", "assets": 302521, "income": 160819, "revenue": 160819}, {"ein": "166027212", "name": "CORNING FISH & GAME CLUB INC", "city": "CORNING", "state": "NY", "zip": "14830-0671", "ntee": "N50", "ruling": "200401", "deductibility": "2", "assets": 177161, "income": 51533, "revenue": 51533}, {"ein": "166028038", "name": "DANSVILLE FISH & GAME PROTECTIVE ASSN INC", "city": "DANSVILLE", "state": "NY", "zip": "14437-0406", "ntee": "", "ruling": "194808", "deductibility": "2", "assets": 388556, "income": 88342, "revenue": 58050}, {"ein": "166041580", "name": "OTTOS MILLS FISH AND GAME CLUB INC", "city": "ALBANY", "state": "NY", "zip": "12208-2311", "ntee": "", "ruling": "197708", "deductibility": "2", "assets": 231549, "income": 37098, "revenue": 18979}, {"ein": "166052193", "name": "WEST WOODS FISH & GAME CLUB INC", "city": "CALEDONIA", "state": "NY", "zip": "14423-9745", "ntee": "N50", "ruling": "201403", "deductibility": "2", "assets": 0, "income": 0, "revenue": 0}, {"ein": "166052935", "name": "BIG MOOSE FISH AND GAME CLUB", "city": "EAGLE BAY", "state": "NY", "zip": "13331-0093", "ntee": "", "ruling": "195209", "deductibility": "2", "assets": 61186, "income": 20829, "revenue": 0}, {"ein": "166052954", "name": "GREENFIELD FISH & GAME CLUB INC", "city": "UTICA", "state": "NY", "zip": "13502-6913", "ntee": "", "ruling": "196410", "deductibility": "2", "assets": 0, "income": 0, "revenue": 0}, {"ein": "201268371", "name": "GET IN THE GAME INC", "city": "NEW YORK", "state": "NY", "zip": "10036-0078", "ntee": "B90", "ruling": "200412", "deductibility": "1", "assets": 0, "income": 0, "revenue": 0}, {"ein": "201965429", "name": "ONESQUETHAW FISH AND GAME CLUB", "city": "FEURA BUSH", "state": "NY", "zip": "12067-2224", "ntee": "N61", "ruling": "201612", "deductibility": "1", "assets": 0, "income": 0, "revenue": 0}, {"ein": "204781254", "name": "ADVENTURE GAME INC", "city": "KINGSTON", "state": "NY", "zip": "12401-4234", "ntee": "B99", "ruling": "200609", "deductibility": "1", "assets": 0, "income": 0, "revenue": 0}, {"ein": "222303775", "name": "MALONE FISH & GAME CLUB INC", "city": "MALONE", "state": "NY", "zip": "12953-0133", "ntee": "N50", "ruling": "201507", "deductibility": "2", "assets": 0, "income": 0, "revenue": 0}, {"ein": "222452981", "name": "POWAMPPOKONK FISH AND GAME CLUB INC", "city": "JOHNSONVILLE", "state": "NY", "zip": "12094-3828", "ntee": "N61", "ruling": "202408", "deductibility": "2", "assets": 0, "income": 0, "revenue": 0}, {"ein": "222789193", "name": "ADDISON FISH & GAME CLUB INC", "city": "ADDISON", "state": "NY", "zip": "14801-9115", "ntee": "N61Z", "ruling": "198707", "deductibility": "2", "assets": 0, "income": 0, "revenue": 0}, {"ein": "237024348", "name": "TRENTON FISH & GAME CLUB INC", "city": "HOLLAND PATNT", "state": "NY", "zip": "13354-0113", "ntee": "", "ruling": "196911", "deductibility": "2", "assets": 0, "income": 0, "revenue": 0}, {"ein": "237269026", "name": "OATKA FISH & GAME CLUB INC", "city": "LEROY", "state": "NY", "zip": "14482-0275", "ntee": "", "ruling": "197403", "deductibility": "2", "assets": 104358, "income": 66198, "revenue": 48510}, {"ein": "264115684", "name": "GAME KNIGHTS INC", "city": "NEW YORK", "state": "NY", "zip": "10022-1304", "ntee": "P30", "ruling": "200904", "deductibility": "1", "assets": 523980, "income": 2833, "revenue": 2833}, {"ein": "272711794", "name": "GARRISON FISH AND GAME CLUB INC", "city": "GARRISON", "state": "NY", "zip": "10524-3940", "ntee": "C30", "ruling": "202201", "deductibility": "1", "assets": 0, "income": 0, "revenue": 0}, {"ein": "333949056", "name": "WESTPORT FISH AND GAME CLUB INC", "city": "WESTPORT", "state": "NY", "zip": "12993-0557", "ntee": "N99", "ruling": "202505", "deductibility": "1", "assets": 0, "income": 0, "revenue": 0}, {"ein": "364680489", "name": "ALBION FISH & GAME CLUB INC", "city": "PULASKI", "state": "NY", "zip": "13142-0353", "ntee": "N50", "ruling": "201102", "deductibility": "2", "assets": 0, "income": 0, "revenue": 0}, {"ein": "371589034", "name": "BIG GAME RECOVERY SERVICE", "city": "GAINESVILLE", "state": "NY", "zip": "14066-0075", "ntee": "N61", "ruling": "201004", "deductibility": "1", "assets": 0, "income": 0, "revenue": 0}, {"ein": "453043686", "name": "CONSTABLEVILLE FISH AND GAME CLUB", "city": "CONSTABLEVLE", "state": "NY", "zip": "13325-0051", "ntee": "N61", "ruling": "201305", "deductibility": "2", "assets": 0, "income": 0, "revenue": 0}, {"ein": "454690079", "name": "SHAWANGUNK FISH & GAME ASSOCIATION INC", "city": "MIDDLETOWN", "state": "NY", "zip": "10940-0161", "ntee": "N61", "ruling": "201305", "deductibility": "2", "assets": 33332, "income": 64598, "revenue": 64598}, {"ein": "455545744", "name": "HOWELLS GAME CLUB INC", "city": "HOWELLS", "state": "NY", "zip": "10932-0072", "ntee": "Y99", "ruling": "201405", "deductibility": "2", "assets": 0, "income": 0, "revenue": 0}, {"ein": "464485683", "name": "HANOVER FISH AND GAME CLUB INC", "city": "SILVER CREEK", "state": "NY", "zip": "14136-0091", "ntee": "N61", "ruling": "202402", "deductibility": "2", "assets": 0, "income": 0, "revenue": 0}, {"ein": "465503645", "name": "BUFFALO GAME SPACE LTD", "city": "BUFFALO", "state": "NY", "zip": "14214-2154", "ntee": "A20", "ruling": "201412", "deductibility": "1", "assets": 9533, "income": 19045, "revenue": 19045}, {"ein": "473736424", "name": "TRUMANSBURG FISH & GAME CLUB INC", "city": "TRUMANSBURG", "state": "NY", "zip": "14886-0070", "ntee": "N61", "ruling": "201906", "deductibility": "2", "assets": 0, "income": 0, "revenue": 0}, {"ein": "473782589", "name": "TECH VALLEY GAME SPACE INC", "city": "TROY", "state": "NY", "zip": "12180-3906", "ntee": "A20", "ruling": "201808", "deductibility": "1", "assets": 10758, "income": 12113, "revenue": 12113}, {"ein": "474161692", "name": "CASTLETON FISH AND GAME PROTECTIVE ASSOCIATION INC", "city": "EAST SCHODACK", "state": "NY", "zip": "12063-0441", "ntee": "D33", "ruling": "201506", "deductibility": "1", "assets": 0, "income": 0, "revenue": 0}, {"ein": "475099493", "name": "FAIR GAME FOUNDATION CORP", "city": "MAMARONECK", "state": "NY", "zip": "10543-2675", "ntee": "B80", "ruling": "202005", "deductibility": "1", "assets": 0, "income": 0, "revenue": 0}, {"ein": "562362379", "name": "COBY FISH AND GAME CLUB INC", "city": "COBLESKILL", "state": "NY", "zip": "12043-5931", "ntee": "N50", "ruling": "200401", "deductibility": "2", "assets": 0, "income": 0, "revenue": 0}, {"ein": "562537343", "name": "BUCK KNOLL GAME CLUB INC", "city": "MAYFIELD", "state": "NY", "zip": "12117-4019", "ntee": "N61", "ruling": "200610", "deductibility": "2", "assets": 0, "income": 0, "revenue": 0}, {"ein": "800795800", "name": "SANDBAR VALLEY FISH & GAME ASSOCIATION INC", "city": "MOUNTAINDALE", "state": "NY", "zip": "12763-0000", "ntee": "N61", "ruling": "201410", "deductibility": "2", "assets": 0, "income": 0, "revenue": 0}, {"ein": "820548731", "name": "FALL BROOK FISH & GAME CLUB INC", "city": "HENRIETTA", "state": "NY", "zip": "14467-9209", "ntee": "N61", "ruling": "200701", "deductibility": "2", "assets": 0, "income": 0, "revenue": 0}, {"ein": "821943656", "name": "BLACK LAKE FISH & GAME ASSOCIATION", "city": "HAMMOND", "state": "NY", "zip": "13646-0125", "ntee": "N61", "ruling": "201707", "deductibility": "1", "assets": 500191, "income": 469621, "revenue": 450237}, {"ein": "822309916", "name": "GROW OUR GAME INC", "city": "BRIARWOOD", "state": "NY", "zip": "11435-2722", "ntee": "N60", "ruling": "202104", "deductibility": "1", "assets": 6718, "income": 74137, "revenue": 74137}, {"ein": "823142311", "name": "CHIPPEWA BAY FISH AND GAME CLUB INC", "city": "HAMMOND", "state": "NY", "zip": "13646-0000", "ntee": "C30", "ruling": "201711", "deductibility": "1", "assets": 0, "income": 0, "revenue": 0}, {"ein": "825288744", "name": "ADIRONDACK FISH & GAME SOCIAL CLUB CORP", "city": "DOBBS FERRY", "state": "NY", "zip": "10522-1212", "ntee": "N50", "ruling": "201811", "deductibility": "2", "assets": 0, "income": 0, "revenue": 0}, {"ein": "825518854", "name": "STILL GOT GAME FOUNDATION INC", "city": "WANTAGH", "state": "NY", "zip": "11793-0000", "ntee": "O50", "ruling": "201810", "deductibility": "1", "assets": 1084419, "income": 634208, "revenue": 558965}, {"ein": "825525046", "name": "EAST WORCESTER FISH AND GAME CLUB INC", "city": "E WORCESTER", "state": "NY", "zip": "12064-0700", "ntee": "N50", "ruling": "201904", "deductibility": "2", "assets": 144067, "income": 55043, "revenue": 48995}, {"ein": "830813573", "name": "4 LUV OF THE GAME LTD", "city": "CENTERPORT", "state": "NY", "zip": "11721-1715", "ntee": "N12", "ruling": "202301", "deductibility": "1", "assets": 0, "income": 0, "revenue": 0}, {"ein": "831801091", "name": "ROC GAME DEV INC", "city": "ROCHESTER", "state": "NY", "zip": "14609-5733", "ntee": "A20", "ruling": "202401", "deductibility": "1", "assets": 0, "income": 0, "revenue": 0}, {"ein": "833953198", "name": "DIGITAL GAME INDUSTRY ASSOCIATION OF ROCHESTER INCORPORATED", "city": "ROCHESTER", "state": "NY", "zip": "14604-0000", "ntee": "S41", "ruling": "202102", "deductibility": "2", "assets": 0, "income": 0, "revenue": 0}, {"ein": "843774850", "name": "IT S JUST A GAME INC", "city": "ALBANY", "state": "NY", "zip": "12209-0000", "ntee": "B01", "ruling": "201912", "deductibility": "1", "assets": 0, "income": 0, "revenue": 0}, {"ein": "851669308", "name": "GAME ON INITIATIVES CORP", "city": "COMMACK", "state": "NY", "zip": "11725-3442", "ntee": "P20", "ruling": "202106", "deductibility": "1", "assets": 0, "income": 0, "revenue": 0}, {"ein": "853070939", "name": "GAME OVER HICKS FAMILY FOUNDATION INC", "city": "JAMAICA", "state": "NY", "zip": "11434-4552", "ntee": "O20", "ruling": "202101", "deductibility": "1", "assets": 0, "income": 0, "revenue": 0}, {"ein": "863432002", "name": "GAME DEVS OF COLOR INC", "city": "BROOKLYN", "state": "NY", "zip": "11211-4171", "ntee": "O53", "ruling": "202108", "deductibility": "1", "assets": 52461, "income": 219032, "revenue": 219032}, {"ein": "933981051", "name": "FAST GAME CHANGERS INC", "city": "GLEN COVE", "state": "NY", "zip": "11542-1323", "ntee": "O20", "ruling": "202311", "deductibility": "1", "assets": 6281, "income": 18281, "revenue": 18281}, {"ein": "990717063", "name": "PIONEER FISH AND GAME CLUB", "city": "HOOSICK FALLS", "state": "NY", "zip": "12090-4616", "ntee": "C30", "ruling": "202408", "deductibility": "1", "assets": 0, "income": 0, "revenue": 0}, {"ein": "991097543", "name": "GEK IN THE GAME", "city": "BUFFALO", "state": "NY", "zip": "14206-3108", "ntee": "N99", "ruling": "202403", "deductibility": "1", "assets": 0, "income": 0, "revenue": 0}, {"ein": "991505036", "name": "NEW YORK GUANDAN CARD GAME ASSOCIATION INC", "city": "FOREST HILLS", "state": "NY", "zip": "11375-7208", "ntee": "N60", "ruling": "202404", "deductibility": "1", "assets": 0, "income": 0, "revenue": 0}, {"ein": "992160645", "name": "GAME 7 FOUNDATION INC", "city": "NEW YORK", "state": "NY", "zip": "10012-5800", "ntee": "T30", "ruling": "202502", "deductibility": "1", "assets": 0, "income": 0, "revenue": 0}, {"ein": "993441474", "name": "GAME ON CENTER INC", "city": "TROY", "state": "NY", "zip": "12180-3286", "ntee": "J22", "ruling": "202501", "deductibility": "1", "assets": 0, "income": 0, "revenue": 0}, {"ein": "993852093", "name": "FRIENDS OF HARRISON YOUTH GAME DAY CHEER INC", "city": "HARRISON", "state": "NY", "zip": "10528-2207", "ntee": "N60", "ruling": "202407", "deductibility": "1", "assets": 17615, "income": 33833, "revenue": 33833}, {"ein": "994076272", "name": "PERFECT GAME CHARITY FOUNDATION", "city": "ELLENVILLE", "state": "NY", "zip": "12428-0000", "ntee": "N63", "ruling": "202505", "deductibility": "1", "assets": 0, "income": 0, "revenue": 0}], "STRYDERS": [{"ein": "010946601", "name": "SARATOGA STRYDERS INC", "city": "SARATOGA SPGS", "state": "NY", "zip": "12866-0839", "ntee": "N99", "ruling": "201501", "deductibility": "1", "assets": 0, "income": 0, "revenue": 0}], "VVP": [{"ein": "020557576", "name": "FRIENDS OF THE PLAZA-VVP CORPORATION", "city": "NEW YORK", "state": "NY", "zip": "10041-0004", "ntee": "A50", "ruling": "200211", "deductibility": "1", "assets": 1039788, "income": 340108, "revenue": 141591}], "DIAMOND": [{"ein": "020621482", "name": "DIAMOND BUDDHIST TEMPLE INC", "city": "FLUSHING", "state": "NY", "zip": "11354-5742", "ntee": "X50", "ruling": "200311", "deductibility": "1", "assets": 0, "income": 0, "revenue": 0}, {"ein": "020657867", "name": "DIAMOND FOUNDATION", "city": "MONSEY", "state": "NY", "zip": "10952-2829", "ntee": "T20", "ruling": "200512", "deductibility": "1", "assets": 7624, "income": 37500, "revenue": 0}, {"ein": "020696028", "name": "DIAMOND LOTUS FOUNDATION INC", "city": "RENSSELAERVLE", "state": "NY", "zip": "12147-2830", "ntee": "V35", "ruling": "201108", "deductibility": "1", "assets": 0, "income": 0, "revenue": 0}, {"ein": "113003033", "name": "TRUE BUDDHA DIAMOND TEMPLE OF NEW YORK INC", "city": "FLUSHING", "state": "NY", "zip": "11354-3238", "ntee": "", "ruling": "199101", "deductibility": "1", "assets": 0, "income": 0, "revenue": 0}, {"ein": "113184100", "name": "DIAMOND POINT YACHT CLUB", "city": "BROOKLYN", "state": "NY", "zip": "11236-4181", "ntee": "N31", "ruling": "202507", "deductibility": "1", "assets": 0, "income": 0, "revenue": 0}, {"ein": "113384783", "name": "LEVITTOWN DIAMOND CLUB INC", "city": "WANTAGH", "state": "NY", "zip": "11793-4020", "ntee": "N40", "ruling": "199708", "deductibility": "1", "assets": 0, "income": 0, "revenue": 0}, {"ein": "130632945", "name": "DIAMOND DEALERS CLUB INC", "city": "NEW YORK", "state": "NY", "zip": "10036-8687", "ntee": "", "ruling": "194112", "deductibility": "1", "assets": 6014536, "income": 309267, "revenue": 309267}, {"ein": "132943929", "name": "DIAMOND DEALERS CHARITIES INC", "city": "NEW YORK", "state": "NY", "zip": "10036-8621", "ntee": "T70Z", "ruling": "197905", "deductibility": "1", "assets": 56121, "income": 60, "revenue": 60}, {"ein": "132968366", "name": "DIAMOND MERCHANTS BENEVOLENT ASSOCIATION INC", "city": "NEW YORK", "state": "NY", "zip": "10036-8687", "ntee": "", "ruling": "197908", "deductibility": "2", "assets": 904724, "income": 35877, "revenue": 35877}, {"ein": "133211019", "name": "INDIAN DIAMOND & COLORSTONE ASSOC INC", "city": "NEW YORK", "state": "NY", "zip": "10036-4725", "ntee": "", "ruling": "198507", "deductibility": "2", "assets": 409545, "income": 339125, "revenue": 339125}, {"ein": "134015297", "name": "LOWER HUDSON VALLEY DIAMOND FOUNDATION INC", "city": "WHITE PLAINS", "state": "NY", "zip": "10602-1193", "ntee": "B82", "ruling": "199902", "deductibility": "1", "assets": 36322, "income": 26010, "revenue": 25636}, {"ein": "134137606", "name": "WORLD DIAMOND COUNCIL ASSN", "city": "NEW YORK", "state": "NY", "zip": "10036-4725", "ntee": "S46", "ruling": "200105", "deductibility": "2", "assets": 1148373, "income": 505730, "revenue": 505730}, {"ein": "134151013", "name": "DIAMOND FAMILY CHARITABLE FOUNDATION INC", "city": "NEW YORK", "state": "NY", "zip": "10024-4934", "ntee": "T20", "ruling": "200106", "deductibility": "1", "assets": 147039, "income": 59537, "revenue": 0}, {"ein": "136110395", "name": "DIAMOND JUBILEE FUND OF KING SOLOMON BEETHOVEN LODGE 232 F&AM", "city": "BRONX", "state": "NY", "zip": "10463-2625", "ntee": "", "ruling": "195806", "deductibility": "1", "assets": 124397, "income": 9635, "revenue": 0}, {"ein": "137093689", "name": "MIRIAM AND ARTHUR DIAMOND CHARITABLE TRUST", "city": "NEW YORK", "state": "NY", "zip": "10010-3603", "ntee": "", "ruling": "199612", "deductibility": "1", "assets": 30725485, "income": 8702949, "revenue": 0}, {"ein": "161459422", "name": "DIAMOND BLACKFAN ANEMIA FOUNDATION", "city": "WEST SENECA", "state": "NY", "zip": "14224-3666", "ntee": "G12", "ruling": "199411", "deductibility": "1", "assets": 1649768, "income": 664145, "revenue": 664145}, {"ein": "200618456", "name": "ROBERT AND JENNIFER DIAMOND FAMILY FOUNDATION", "city": "MELVILLE", "state": "NY", "zip": "11747-4810", "ntee": "T20", "ruling": "200412", "deductibility": "1", "assets": 722829, "income": 732101, "revenue": 0}, {"ein": "202591057", "name": "SHWACHMAN-DIAMOND PROJECT LTD", "city": "SAYVILLE", "state": "NY", "zip": "11782-0820", "ntee": "G124", "ruling": "200509", "deductibility": "1", "assets": 0, "income": 0, "revenue": 0}, {"ein": "204623222", "name": "EMERALD DIAMOND INTERNATIONAL INC", "city": "KATONAH", "state": "NY", "zip": "10536-2110", "ntee": "N63", "ruling": "201301", "deductibility": "1", "assets": 30213, "income": 125482, "revenue": 89687}, {"ein": "205967103", "name": "DIAMOND EMPOWERMENT FUND INC", "city": "NEW YORK", "state": "NY", "zip": "10017-3912", "ntee": "Q33", "ruling": "200712", "deductibility": "1", "assets": 601415, "income": 1043616, "revenue": 826567}, {"ein": "223690492", "name": "ZUKOWSKI DIAMOND FOUNDATION", "city": "JERICHO", "state": "NY", "zip": "11753-2710", "ntee": "T22", "ruling": "200102", "deductibility": "1", "assets": 90151, "income": 303331, "revenue": 0}, {"ein": "237228694", "name": "DIAMOND POINT COMMUNITY CHURCH", "city": "DIAMOND POINT", "state": "NY", "zip": "12824-0025", "ntee": "X21", "ruling": "200707", "deductibility": "1", "assets": 0, "income": 0, "revenue": 0}, {"ein": "260428415", "name": "CARRIAGE HILL - DIAMOND POINT INC", "city": "DIAMOND POINT", "state": "NY", "zip": "12824-2904", "ntee": "S40", "ruling": "201209", "deductibility": "2", "assets": 0, "income": 0, "revenue": 0}, {"ein": "272993842", "name": "ELITE DIAMOND INTERNATIONAL CLUB", "city": "BRONX", "state": "NY", "zip": "10475-0261", "ntee": "Q30", "ruling": "201312", "deductibility": "1", "assets": 0, "income": 0, "revenue": 0}, {"ein": "273099127", "name": "DOBBS FERRY DIAMOND BOOSTER CLUB INC", "city": "DOBBS FERRY", "state": "NY", "zip": "10522-2138", "ntee": "N63", "ruling": "201802", "deductibility": "1", "assets": 0, "income": 0, "revenue": 0}, {"ein": "331284742", "name": "DR DEBORAH ANN DIAMOND DISCOVERY CENTER", "city": "COPIAGUE", "state": "NY", "zip": "11726-4203", "ntee": "A50", "ruling": "202410", "deductibility": "1", "assets": 0, "income": 0, "revenue": 0}, {"ein": "331556995", "name": "DIAMOND DREAMS ACADEMY CORPORATION", "city": "DIX HILLS", "state": "NY", "zip": "11746-5874", "ntee": "N63", "ruling": "202411", "deductibility": "1", "assets": 0, "income": 0, "revenue": 0}, {"ein": "332775154", "name": "DIAMOND CHARTER SCHOOL", "city": "NEW YORK", "state": "NY", "zip": "10022-4891", "ntee": "B24", "ruling": "202505", "deductibility": "1", "assets": 0, "income": 0, "revenue": 0}, {"ein": "431291177", "name": "DIAMOND COUNCIL OF AMERICA", "city": "NEW YORK", "state": "NY", "zip": "10271-0002", "ntee": "S410", "ruling": "199708", "deductibility": "1", "assets": 545889, "income": 633483, "revenue": 546976}, {"ein": "461637480", "name": "BDF ROUGH DIAMOND FOUNDATION", "city": "NEW YORK", "state": "NY", "zip": "10021-4561", "ntee": "T20", "ruling": "201408", "deductibility": "1", "assets": 249827, "income": 47007, "revenue": 0}, {"ein": "475179675", "name": "DIAMOND ROSE ANN FOUNDATION INC", "city": "WURTSBORO", "state": "NY", "zip": "12790-0209", "ntee": "T22", "ruling": "201602", "deductibility": "1", "assets": 5037183, "income": 1172609, "revenue": 0}, {"ein": "581885405", "name": "LINDA DIAMOND DANCE ENSEMBLE INC", "city": "WOODSTOCK", "state": "NY", "zip": "12498-0000", "ntee": "", "ruling": "199306", "deductibility": "1", "assets": 0, "income": 0, "revenue": 0}, {"ein": "813264830", "name": "NATURAL DIAMOND COUNCIL USA INC", "city": "NEW YORK", "state": "NY", "zip": "10036-7431", "ntee": "S41", "ruling": "201612", "deductibility": "2", "assets": 3452073, "income": 35245477, "revenue": 35245477}, {"ein": "834301972", "name": "MICHAEL DIAMOND CHARITABLE FOUNDATION INC", "city": "LONG BEACH", "state": "NY", "zip": "11561-2916", "ntee": "S12", "ruling": "202403", "deductibility": "1", "assets": 142507, "income": 176757, "revenue": 176757}, {"ein": "842361820", "name": "FREE & ACCEPTED MASONS OF NEW YORK 555 YORKTOWN DIAMOND THISTLE", "city": "TARRYTOWN", "state": "NY", "zip": "10591-3660", "ntee": "Y42", "ruling": "202111", "deductibility": "1", "assets": 0, "income": 0, "revenue": 0}, {"ein": "851211108", "name": "LADY DIAMOND PROS INC", "city": "BELLEROSE", "state": "NY", "zip": "11426-1902", "ntee": "N63", "ruling": "202007", "deductibility": "1", "assets": 18987, "income": 56624, "revenue": 56624}, {"ein": "862309625", "name": "A DIAMOND IN THE DIRT FOUNDATION", "city": "KENMORE", "state": "NY", "zip": "14217-2335", "ntee": "O30", "ruling": "202106", "deductibility": "1", "assets": 0, "income": 0, "revenue": 0}, {"ein": "874110693", "name": "DIAMOND PERFORMANCE COMPANY INC", "city": "E NORTHPORT", "state": "NY", "zip": "11731-5305", "ntee": "A60", "ruling": "202204", "deductibility": "1", "assets": 0, "income": 0, "revenue": 0}, {"ein": "874754643", "name": "NEW YORK DIAMOND GIRLS INC", "city": "WEST SENECA", "state": "NY", "zip": "14224-3201", "ntee": "N63", "ruling": "202306", "deductibility": "1", "assets": 0, "income": 0, "revenue": 0}, {"ein": "881280001", "name": "ISLAND TREES DIAMOND CLUB INC", "city": "LEVITTOWN", "state": "NY", "zip": "11756-5625", "ntee": "N63", "ruling": "202205", "deductibility": "1", "assets": 39391, "income": 42860, "revenue": 42860}, {"ein": "881871914", "name": "DIAMOND SERENITY HOMES INC", "city": "BROOKLYN", "state": "NY", "zip": "11233-3125", "ntee": "F99", "ruling": "202206", "deductibility": "1", "assets": 0, "income": 0, "revenue": 0}, {"ein": "900835042", "name": "DIAMOND TEARZ OF BEAUTY CORPORATION", "city": "BROOKLYN", "state": "NY", "zip": "11210-6902", "ntee": "T30", "ruling": "201603", "deductibility": "1", "assets": 0, "income": 0, "revenue": 0}, {"ein": "921031452", "name": "EXTENDED ARMS DIAMOND INC", "city": "BRONX", "state": "NY", "zip": "10467-6208", "ntee": "W70", "ruling": "202401", "deductibility": "1", "assets": 0, "income": 0, "revenue": 0}, {"ein": "932601056", "name": "GREATER ROCHESTER DIAMOND ACHIEVEMENT FOUNDATION", "city": "W HENRIETTA", "state": "NY", "zip": "14586-0050", "ntee": "B82", "ruling": "202308", "deductibility": "1", "assets": 0, "income": 0, "revenue": 0}, {"ein": "933774245", "name": "DIAMOND DAWGS TRAVEL BASEBALL", "city": "JAMESTOWN", "state": "NY", "zip": "14701-9278", "ntee": "N60", "ruling": "202405", "deductibility": "1", "assets": 0, "income": 0, "revenue": 0}, {"ein": "991436360", "name": "FRIENDS OF DIAMOND CHARTER SCHOOLS INC", "city": "NEW YORK", "state": "NY", "zip": "10022-4806", "ntee": "B19", "ruling": "202502", "deductibility": "1", "assets": 0, "income": 0, "revenue": 0}, {"ein": "992396665", "name": "DIAMOND RACE HORSE RETIREMENT FOUNDATION INC", "city": "JERICHO", "state": "NY", "zip": "11753-0000", "ntee": "D20", "ruling": "202405", "deductibility": "1", "assets": 39, "income": 10500, "revenue": 10500}], "SISTERHOOD": [{"ein": "020635410", "name": "SISTERHOOD OF AVALON INC", "city": "ITHACA", "state": "NY", "zip": "14850-6316", "ntee": "B99", "ruling": "202409", "deductibility": "1", "assets": 0, "income": 0, "revenue": 0}, {"ein": "133300107", "name": "THE SISTERHOOD IS GLOBAL INSTITUTE INC", "city": "NEW YORK", "state": "NY", "zip": "10017-3204", "ntee": "Q70", "ruling": "201409", "deductibility": "1", "assets": 2410993, "income": 2118041, "revenue": 2118041}, {"ein": "133987592", "name": "MALIK MELODIES SISTERHOOD INC", "city": "BELLEROSE", "state": "NY", "zip": "11426-0430", "ntee": "", "ruling": "200207", "deductibility": "2", "assets": 0, "income": 0, "revenue": 0}, {"ein": "134020958", "name": "SISTERHOOD MOBILIZED FOR AIDS-HIV RESOURCES AND TREATMENT", "city": "NEW YORK", "state": "NY", "zip": "10029-2025", "ntee": "E70", "ruling": "200008", "deductibility": "1", "assets": 0, "income": 0, "revenue": 0}, {"ein": "136107403", "name": "SISTERHOOD OF SPANISH & PORTUGUESE SYNAGOGUR IN THE CITY OF NY INC", "city": "NEW YORK", "state": "NY", "zip": "10023-4601", "ntee": "X30Z", "ruling": "195904", "deductibility": "1", "assets": 166092, "income": 33434, "revenue": 33434}, {"ein": "136127096", "name": "TEMPLE ISRAEL SISTERHOOD OF THE CITY OF NEW YORK INC", "city": "NEW YORK", "state": "NY", "zip": "10021-3204", "ntee": "", "ruling": "194207", "deductibility": "1", "assets": 0, "income": 0, "revenue": 0}, {"ein": "136139632", "name": "SHAARAY TEFILA SISTERHOOD", "city": "NEW YORK", "state": "NY", "zip": "10021-1274", "ntee": "", "ruling": "196502", "deductibility": "1", "assets": 0, "income": 0, "revenue": 0}, {"ein": "146017749", "name": "BETH ISRAEL SISTERHOOD", "city": "SCHENECTADY", "state": "NY", "zip": "12309-6305", "ntee": "", "ruling": "196411", "deductibility": "1", "assets": 0, "income": 0, "revenue": 0}, {"ein": "237534188", "name": "DANISH SISTERHOOD OF AMERICA", "city": "SCHENECTADY", "state": "NY", "zip": "12304-1627", "ntee": "", "ruling": "197210", "deductibility": "2", "assets": 0, "income": 0, "revenue": 0}, {"ein": "237534218", "name": "DANISH SISTERHOOD OF AMERICA", "city": "SCOTIA", "state": "NY", "zip": "12302-2613", "ntee": "", "ruling": "197210", "deductibility": "2", "assets": 0, "income": 0, "revenue": 0}, {"ein": "237534234", "name": "DANISH SISTERHOOD OF AMERICA", "city": "FAIRPORT", "state": "NY", "zip": "14450-2834", "ntee": "", "ruling": "197210", "deductibility": "2", "assets": 0, "income": 0, "revenue": 0}, {"ein": "352448322", "name": "DANISH SISTERHOOD OF AMERICA", "city": "STANLEY", "state": "NY", "zip": "14561-9747", "ntee": "Y42", "ruling": "194012", "deductibility": "2", "assets": 0, "income": 0, "revenue": 0}, {"ein": "452799430", "name": "SISTERHOOD OF DESTINY INC", "city": "JAMAICA", "state": "NY", "zip": "11433-3020", "ntee": "P40", "ruling": "201902", "deductibility": "1", "assets": 0, "income": 0, "revenue": 0}, {"ein": "812391633", "name": "PRECIOUS HEARTS SISTERHOOD INC", "city": "BROOKLYN", "state": "NY", "zip": "11208-4801", "ntee": "P20", "ruling": "201702", "deductibility": "1", "assets": 16845, "income": 518825, "revenue": 518825}, {"ein": "813615433", "name": "AISHA SISTERHOOD INC", "city": "NEW YORK", "state": "NY", "zip": "10039-1306", "ntee": "P20", "ruling": "201608", "deductibility": "1", "assets": 0, "income": 0, "revenue": 0}, {"ein": "851846631", "name": "UNITED IN SISTERHOOD INC", "city": "JAMAICA", "state": "NY", "zip": "11434-3953", "ntee": "P83", "ruling": "202104", "deductibility": "1", "assets": 0, "income": 0, "revenue": 0}, {"ein": "861220162", "name": "SISTERHOOD IN ME", "city": "BROOKLYN", "state": "NY", "zip": "11217-0000", "ntee": "S81", "ruling": "202103", "deductibility": "1", "assets": 0, "income": 0, "revenue": 0}, {"ein": "881064992", "name": "CREATING HEALTHY EMPOWERING RELATIONSHIPS IN SISTERHOOD INC", "city": "ALBANY", "state": "NY", "zip": "12207-2922", "ntee": "P20", "ruling": "202207", "deductibility": "1", "assets": 0, "income": 0, "revenue": 0}, {"ein": "991567817", "name": "AMERICAN ASIAN & PACIFIC ISLANDER SISTERHOOD INC", "city": "FLUSHING", "state": "NY", "zip": "11354-4107", "ntee": "R01", "ruling": "202410", "deductibility": "1", "assets": 0, "income": 0, "revenue": 0}, {"ein": "992319208", "name": "CHERRY LANE SISTERHOOD INC", "city": "GREAT NECK", "state": "NY", "zip": "11024-1209", "ntee": "P99", "ruling": "202405", "deductibility": "1", "assets": 0, "income": 0, "revenue": 0}], "LMAHN": [{"ein": "020703011", "name": "CONGREGATION LMAHN ACHI", "city": "BROOKLYN", "state": "NY", "zip": "11229-1520", "ntee": "X30", "ruling": "200401", "deductibility": "1", "assets": 0, "income": 0, "revenue": 0}, {"ein": "201740782", "name": "LMAHN ACHAI INC", "city": "BROOKLYN", "state": "NY", "zip": "11210-0000", "ntee": "X30", "ruling": "200601", "deductibility": "1", "assets": 0, "income": 519171, "revenue": 519171}], "EST": [{"ein": "020735133", "name": "FONDATION DES ANCIENS DE REGINA ASSUMPTA NORD-EST", "city": "WESTBURY", "state": "NY", "zip": "11590-2811", "ntee": "B11", "ruling": "201411", "deductibility": "1", "assets": 0, "income": 0, "revenue": 0}, {"ein": "136040014", "name": "EDNA WALLACE HOPPER EST HOME OF GOOD SHEPHERD TR", "city": "NEW YORK", "state": "NY", "zip": "10008-1297", "ntee": "", "ruling": "197107", "deductibility": "1", "assets": 1744636, "income": 464194, "revenue": 0}, {"ein": "136040899", "name": "C STRAUSS EST NY COUNTY LAWYERS ASSOCIATION TR", "city": "NEW YORK", "state": "NY", "zip": "10008-1297", "ntee": "", "ruling": "197012", "deductibility": "1", "assets": 391607, "income": 91388, "revenue": 0}, {"ein": "137053837", "name": "E BAMBERGER EST ART 5TH PERP CHAR TRUST", "city": "NEW YORK", "state": "NY", "zip": "10008-1297", "ntee": "", "ruling": "000000", "deductibility": "1", "assets": 12099129, "income": 2693281, "revenue": 0}, {"ein": "202482906", "name": "VALHALLA PUBLIC SCHOOLS JOY DISTENFELD FUND EST 01311984", "city": "VALHALLA", "state": "NY", "zip": "10595-1308", "ntee": "B82", "ruling": "201408", "deductibility": "1", "assets": 0, "income": 0, "revenue": 0}, {"ein": "262558186", "name": "WENSHAW PARK CIVIC ASSOCIATION EST 1958 INC", "city": "MERRICK", "state": "NY", "zip": "11566-1741", "ntee": "S20", "ruling": "200809", "deductibility": "1", "assets": 0, "income": 0, "revenue": 0}, {"ein": "470946937", "name": "FEDERATION DES ASSOCIATIONS POUR LE DEVELOPPEMENT DU SUD-EST INC", "city": "BROOKLYN", "state": "NY", "zip": "11218-0400", "ntee": "Q33", "ruling": "201203", "deductibility": "1", "assets": 0, "income": 0, "revenue": 0}, {"ein": "822591321", "name": "EAST COAST DURGA PUJA ASSOCIATION EST 1970 INC", "city": "ASTORIA", "state": "NY", "zip": "11106-1356", "ntee": "A23", "ruling": "201710", "deductibility": "1", "assets": 1, "income": 0, "revenue": 0}], "FARMING": [{"ein": "030259137", "name": "NORTHEAST ORGANIC FARMING ASSOCIATION OF NEW YORK INC", "city": "SYRACUSE", "state": "NY", "zip": "13203-2770", "ntee": "K2XC", "ruling": "198501", "deductibility": "1", "assets": 1208294, "income": 2753072, "revenue": 2882064}, {"ein": "332706923", "name": "CARNWATH COMMUNITY FARMING INC", "city": "WAPPINGERS FL", "state": "NY", "zip": "12590-3915", "ntee": "K20", "ruling": "202502", "deductibility": "1", "assets": 0, "income": 0, "revenue": 0}, {"ein": "461822635", "name": "COMPASSION IN WORLD FARMING", "city": "NEW YORK", "state": "NY", "zip": "10017-4707", "ntee": "P99", "ruling": "201501", "deductibility": "1", "assets": 2470690, "income": 2356610, "revenue": 2356610}, {"ein": "471858572", "name": "IMPACT FARMING FOUNDATION INC", "city": "BRIARCLIFF", "state": "NY", "zip": "10510-2211", "ntee": "Q32", "ruling": "201502", "deductibility": "1", "assets": 7597, "income": 83825, "revenue": 83825}, {"ein": "810799844", "name": "URBAN FARMING FOUNDATION INC", "city": "BROOKLYN", "state": "NY", "zip": "11205-3625", "ntee": "B60", "ruling": "201703", "deductibility": "1", "assets": 0, "income": 0, "revenue": 0}, {"ein": "831192242", "name": "GROUNDSWELL CENTER FOR LOCAL FOOD AND FARMING INC", "city": "ITHACA", "state": "NY", "zip": "14850-3344", "ntee": "", "ruling": "201905", "deductibility": "1", "assets": 151852, "income": 172059, "revenue": 172059}, {"ein": "834329292", "name": "ROCKLAND AGRICULTURAL AND FARMING CENTER INC", "city": "MONSEY", "state": "NY", "zip": "10952-0000", "ntee": "C60", "ruling": "201912", "deductibility": "1", "assets": 1, "income": 0, "revenue": 0}, {"ein": "884158118", "name": "LIFECYCLE ECO-FARMING INTERNATIONAL INC", "city": "KERHONKSON", "state": "NY", "zip": "12446-1518", "ntee": "K20", "ruling": "202305", "deductibility": "1", "assets": 0, "income": 0, "revenue": 0}, {"ein": "934211439", "name": "JAMAICA AGRICULTURAL FOOD FARMING ACCELERATOR INC", "city": "HOLLIS", "state": "NY", "zip": "11423-0168", "ntee": "P20", "ruling": "202311", "deductibility": "1", "assets": 0, "income": 0, "revenue": 0}, {"ein": "994174934", "name": "FARMING FOR OUR CITY INC", "city": "NEW YORK", "state": "NY", "zip": "10018-0005", "ntee": "K30", "ruling": "202408", "deductibility": "1", "assets": 0, "income": 0, "revenue": 0}], "PLEASANTVILLE": [{"ein": "030392268", "name": "PLEASANTVILLE COMMUNITY HOUSING DEVELOPMENT ORGANIZATION INC", "city": "PLEASANTVILLE", "state": "NY", "zip": "10570-2313", "ntee": "L20", "ruling": "200305", "deductibility": "1", "assets": 1, "income": 1, "revenue": 0}, {"ein": "132729538", "name": "PLEASANTVILLE CHILDRENS CENTER INC", "city": "PLEASANTVILLE", "state": "NY", "zip": "10570-3017", "ntee": "", "ruling": "197402", "deductibility": "1", "assets": 365396, "income": 192996, "revenue": 191776}, {"ein": "133091825", "name": "OAK LANE CHILD CARE CENTER OF PLEASANTVILLE INC", "city": "CHAPPAQUA", "state": "NY", "zip": "10514-3528", "ntee": "", "ruling": "198209", "deductibility": "1", "assets": 1083862, "income": 1618458, "revenue": 1606197}, {"ein": "133130232", "name": "PLEASANTVILLE CHAMBER MUSIC SOCIETY INC", "city": "PLEASANTVILLE", "state": "NY", "zip": "10570-0075", "ntee": "", "ruling": "198209", "deductibility": "1", "assets": 0, "income": 0, "revenue": 0}, {"ein": "133502188", "name": "POLICEMEN BENEVOLENT ASSOCIATION OF PLEASANTVILLE", "city": "PLEASANTVILLE", "state": "NY", "zip": "10570-0041", "ntee": "J40", "ruling": "200209", "deductibility": "2", "assets": 933417, "income": 118818, "revenue": 118726}, {"ein": "133784888", "name": "PLEASANTVILLE FUND FOR LEARNING", "city": "PLEASANTVILLE", "state": "NY", "zip": "10570-3123", "ntee": "B80", "ruling": "199502", "deductibility": "1", "assets": 67672, "income": 72743, "revenue": 37869}, {"ein": "133810515", "name": "PLEASANTVILLE HOUSING DEVELOPMENT FUND COMPANY INC", "city": "PLEASANTVILLE", "state": "NY", "zip": "10570-0000", "ntee": "L20", "ruling": "202410", "deductibility": "1", "assets": 4373942, "income": 384440, "revenue": 0}, {"ein": "133910728", "name": "PLEASANTVILLE COMMUNITY SYNAGOGUE", "city": "PLEASANTVILLE", "state": "NY", "zip": "10570-0148", "ntee": "X30", "ruling": "202103", "deductibility": "1", "assets": 0, "income": 0, "revenue": 0}, {"ein": "133945463", "name": "PLEASANTVILLE COMMUNITY TELEVISION INC", "city": "PLEASANTVILLE", "state": "NY", "zip": "10570-0426", "ntee": "A32", "ruling": "200109", "deductibility": "1", "assets": 45717, "income": 215766, "revenue": 211864}, {"ein": "134080918", "name": "PLEASANTVILLE ROTARY FOUNDATION INC", "city": "PLEASANTVILLE", "state": "NY", "zip": "10570-0169", "ntee": "B80", "ruling": "200904", "deductibility": "1", "assets": 21205, "income": 38803, "revenue": 38803}, {"ein": "136171229", "name": "PLEASANTVILLE AMBULANCE CORPS INC", "city": "PLEASANTVILLE", "state": "NY", "zip": "10570-0201", "ntee": "", "ruling": "195403", "deductibility": "1", "assets": 1328581, "income": 768661, "revenue": 754635}, {"ein": "201565352", "name": "PLEASANTVILLE BENEFIT TRUST FUND", "city": "PLEASANTVILLE", "state": "NY", "zip": "10570-0042", "ntee": "Y44", "ruling": "200704", "deductibility": "2", "assets": 940714, "income": 1151, "revenue": 1151}, {"ein": "237219456", "name": "PLEASANTVILLE INTERNATIONAL ASSOCIATION INC", "city": "PLEASANTVILLE", "state": "NY", "zip": "10570-0341", "ntee": "Q12", "ruling": "201312", "deductibility": "1", "assets": 0, "income": 0, "revenue": 0}, {"ein": "237347275", "name": "COMMUNITY SCHOLARSHIP FUND OF PLEASANTVILLE NY", "city": "PLEASANTVILLE", "state": "NY", "zip": "10570-0153", "ntee": "", "ruling": "197707", "deductibility": "1", "assets": 652886, "income": 40639, "revenue": 40639}, {"ein": "237354012", "name": "PLEASANTVILLE MUSIC THEATRE INC", "city": "OSSINING", "state": "NY", "zip": "10562-2621", "ntee": "", "ruling": "197510", "deductibility": "1", "assets": 4278, "income": 131, "revenue": 131}, {"ein": "237401194", "name": "PLEASANTVILLE VOLUNTEER FIRE DEPARTMENT", "city": "PLEASANTVILLE", "state": "NY", "zip": "10570-2846", "ntee": "M24Z", "ruling": "199801", "deductibility": "1", "assets": 102707, "income": 49492, "revenue": 49492}, {"ein": "264834803", "name": "DADS CLUB OF PLEASANTVILLE INC", "city": "PLEASANTVILLE", "state": "NY", "zip": "10570-0061", "ntee": "N60", "ruling": "200911", "deductibility": "1", "assets": 78479, "income": 226591, "revenue": 226591}, {"ein": "331734744", "name": "DOMINICAN FATHERS OF HOLY INNOCENTS PLEASANTVILLE INC", "city": "PLEASANTVILLE", "state": "NY", "zip": "10570-3002", "ntee": "X22", "ruling": "202505", "deductibility": "1", "assets": 0, "income": 0, "revenue": 0}, {"ein": "331871173", "name": "PLEASANTVILLE ORGANIZATION OF THEATER ARTS", "city": "PLEASANTVILLE", "state": "NY", "zip": "10570-1227", "ntee": "A61", "ruling": "202502", "deductibility": "1", "assets": 0, "income": 0, "revenue": 0}, {"ein": "453528309", "name": "PLEASANTVILLE SKI CLUB", "city": "PLEASANTVILLE", "state": "NY", "zip": "10570-2003", "ntee": "N50", "ruling": "201303", "deductibility": "2", "assets": 0, "income": 0, "revenue": 0}, {"ein": "461081940", "name": "AMERICAN FEDERATION OF TEACHERS 6499 PLEASANTVILLE AIDES", "city": "PLEASANTVILLE", "state": "NY", "zip": "10570-2223", "ntee": "J40", "ruling": "202007", "deductibility": "2", "assets": 0, "income": 0, "revenue": 0}, {"ein": "465766122", "name": "CHABAD OF ARMONK CHAPPAQUA AND PLEASANTVILLE INC", "city": "ARMONK", "state": "NY", "zip": "10504-1848", "ntee": "X30", "ruling": "201603", "deductibility": "1", "assets": 0, "income": 0, "revenue": 0}, {"ein": "471938420", "name": "PLEASANTVILLE FC INC", "city": "PLEASANTVILLE", "state": "NY", "zip": "10570-0132", "ntee": "N60", "ruling": "202211", "deductibility": "1", "assets": 66995, "income": 74521, "revenue": 74521}, {"ein": "473917454", "name": "PLEASANTVILLE FRIENDS OF STEM INC", "city": "PLEASANTVILLE", "state": "NY", "zip": "10570-1715", "ntee": "U01", "ruling": "201506", "deductibility": "1", "assets": 0, "income": 0, "revenue": 0}, {"ein": "811876080", "name": "PLEASANTVILLE FOOTBALL BOOSTER CLUB INC", "city": "PLEASANTVILLE", "state": "NY", "zip": "10570-3123", "ntee": "N65", "ruling": "201805", "deductibility": "1", "assets": 0, "income": 0, "revenue": 0}, {"ein": "820565518", "name": "AUXILLARY OF THE PLEASANTVILLE VOLUNTEER FIRE DEPARTMENT", "city": "PLEASANTVILLE", "state": "NY", "zip": "10570-2846", "ntee": "S20", "ruling": "200305", "deductibility": "2", "assets": 0, "income": 0, "revenue": 0}, {"ein": "921141606", "name": "PLEASANTVILLE SPORTS BOOSTER CLUB", "city": "PLEASANTVILLE", "state": "NY", "zip": "10570-1820", "ntee": "N12", "ruling": "202310", "deductibility": "1", "assets": 0, "income": 0, "revenue": 0}], "PROFIT": [{"ein": "030526866", "name": "FRIENDS OF THE BIYALA YESHIVA CORP A NOT FOR PROFIT FLORIDA CORP", "city": "BROOKLYN", "state": "NY", "zip": "11211-8919", "ntee": "X30", "ruling": "200503", "deductibility": "1", "assets": 0, "income": 0, "revenue": 0}, {"ein": "112720043", "name": "RECOVERIES ANONYMOUS A NOT-FOR- PROFIT CORPORATION", "city": "E NORTHPORT", "state": "NY", "zip": "11731-0558", "ntee": "", "ruling": "198809", "deductibility": "1", "assets": 0, "income": 0, "revenue": 0}, {"ein": "133952047", "name": "NON-PROFIT ASSISTANCE CORPORATION", "city": "NEW YORK", "state": "NY", "zip": "10007-3131", "ntee": "S30", "ruling": "199710", "deductibility": "1", "assets": 0, "income": 0, "revenue": 0}, {"ein": "134054353", "name": "THE PERSONNEL ASSOCIATION OF NON PROFIT ORGANIZATIONS", "city": "NEW YORK", "state": "NY", "zip": "10113-0636", "ntee": "S41", "ruling": "201806", "deductibility": "2", "assets": 0, "income": 0, "revenue": 0}, {"ein": "201792589", "name": "NEW JERSEY COUNCIL FOR EXCEPTIONAL CHILDREN A NON PROFIT CORPORATION", "city": "LEVITTOWN", "state": "NY", "zip": "11756-3705", "ntee": "B03", "ruling": "201711", "deductibility": "1", "assets": 0, "income": 0, "revenue": 0}, {"ein": "201877604", "name": "NOT FOR PROFIT PICTURES INC", "city": "BROOKLYN", "state": "NY", "zip": "11237-1629", "ntee": "A30", "ruling": "200608", "deductibility": "2", "assets": 0, "income": 0, "revenue": 0}, {"ein": "223463110", "name": "SOCIETY FOR THE INVESTIGATION OF EARLY PREGNANCY INC A NON-PROFIT C", "city": "NEW YORK", "state": "NY", "zip": "10016-1760", "ntee": "", "ruling": "199802", "deductibility": "2", "assets": 0, "income": 0, "revenue": 0}, {"ein": "223726345", "name": "CITIZEN FOR SOCIAL RESPONSIBILITY A NON-PROFIT CORPORATION", "city": "WHITEHALL", "state": "NY", "zip": "12887-1412", "ntee": "R99", "ruling": "200011", "deductibility": "1", "assets": 0, "income": 0, "revenue": 0}, {"ein": "260073030", "name": "THE WELL PROJECT INC A NOT FOR PROFIT CORPORATION", "city": "BROOKLYN", "state": "NY", "zip": "11222-2938", "ntee": "G81", "ruling": "200405", "deductibility": "1", "assets": 756101, "income": 1787423, "revenue": 1786115}, {"ein": "260335499", "name": "BOB & STACY SCHMETTERER FOUNDATIONINC A FLORIDA NOT FOR PROFIT CORP", "city": "NEW YORK", "state": "NY", "zip": "10020-0000", "ntee": "T20", "ruling": "200708", "deductibility": "1", "assets": 10913, "income": 36575, "revenue": 0}, {"ein": "270364845", "name": "QUEENS LAW ASSOCIATES NOT-FOR-PROFIT CORPORATION", "city": "FOREST HILLS", "state": "NY", "zip": "11375-7210", "ntee": "I80", "ruling": "201203", "deductibility": "1", "assets": 42782388, "income": 28647474, "revenue": 28647474}, {"ein": "275470953", "name": "HELPERS 4 SHELTERS A NON-PROFIT CORPORATION", "city": "MIDDLETOWN", "state": "NY", "zip": "10940-5225", "ntee": "D20", "ruling": "201305", "deductibility": "1", "assets": 0, "income": 0, "revenue": 0}, {"ein": "300693098", "name": "NEW YORK HUNGARIAN SCIENTIFIC SOCIETY NON PROFIT CORPORATION", "city": "NEW YORK", "state": "NY", "zip": "10028-0011", "ntee": "U039", "ruling": "201203", "deductibility": "1", "assets": 0, "income": 0, "revenue": 0}, {"ein": "331057705", "name": "PARTNERSHIP FOR NON-PROFIT ENTERPRISE EXCELLENCE INC", "city": "W HENRIETTA", "state": "NY", "zip": "14586-9627", "ntee": "B90", "ruling": "200311", "deductibility": "1", "assets": 0, "income": 0, "revenue": 0}, {"ein": "333891426", "name": "CONQUER NON-PROFIT INC", "city": "NEW YORK", "state": "NY", "zip": "10016-6800", "ntee": "N30", "ruling": "202504", "deductibility": "1", "assets": 0, "income": 0, "revenue": 0}, {"ein": "364741481", "name": "ST AMBROSE ALUMNI ASSOCIATION NEW YORK NON-PROFIT INC", "city": "BROOKLYN", "state": "NY", "zip": "11208-2623", "ntee": "P12", "ruling": "201407", "deductibility": "1", "assets": 3161, "income": 6537, "revenue": 6537}, {"ein": "412256622", "name": "SPIRITUAL LIVING IN ACTION INC A NEW YORK NOT-FOR-PROFIT CORP", "city": "BROOKLYN", "state": "NY", "zip": "11238-4978", "ntee": "P99", "ruling": "200902", "deductibility": "1", "assets": 0, "income": 0, "revenue": 0}, {"ein": "460852837", "name": "CENTER FOR NON-PROFIT DEVELOPMENT INC", "city": "ALBANY", "state": "NY", "zip": "12203-5319", "ntee": "T02", "ruling": "201401", "deductibility": "1", "assets": 0, "income": 0, "revenue": 0}, {"ein": "461741040", "name": "FOUNDATION FOR BEDFORD CENTRAL SCHOOLS A NOT-FOR-PROFIT-CORPORATI", "city": "BEDFORD HILLS", "state": "NY", "zip": "10507-0807", "ntee": "B122", "ruling": "201307", "deductibility": "1", "assets": 53011, "income": 79532, "revenue": 79532}, {"ein": "463119562", "name": "JUST BE CAUSE NOT-FOR-PROFIT DEVELOPMENT CENTER", "city": "ITHACA", "state": "NY", "zip": "14850-0000", "ntee": "P20", "ruling": "201601", "deductibility": "1", "assets": 35280, "income": 130780, "revenue": 61374}, {"ein": "611412695", "name": "UNIVERSAL HAGAR COMMUNITY DEVELOPMENT NON-PROFIT HOUSING", "city": "QUEENS VLG", "state": "NY", "zip": "11429-2650", "ntee": "P40", "ruling": "200401", "deductibility": "1", "assets": 0, "income": 0, "revenue": 0}, {"ein": "753245361", "name": "THE SHAPIRO CENTER FOR NON-PROFIT ORGANIZATIONS INC", "city": "BROOKLYN", "state": "NY", "zip": "11235-5369", "ntee": "T30", "ruling": "201008", "deductibility": "1", "assets": 0, "income": 0, "revenue": 0}, {"ein": "770609705", "name": "THE INNER SEARCH NOT-FOR-PROFIT FOUNDATION", "city": "BROOKLYN", "state": "NY", "zip": "11218-1110", "ntee": "X20", "ruling": "200410", "deductibility": "1", "assets": 0, "income": 0, "revenue": 0}, {"ein": "820881443", "name": "STUDENT MOVEMENT AGAINST CANCER INC A NJ NOT-FOR-PROFIT CORPORATIO", "city": "LAKE SUCCESS", "state": "NY", "zip": "11042-0000", "ntee": "G12", "ruling": "201807", "deductibility": "1", "assets": 19523, "income": 51540, "revenue": 51540}, {"ein": "822415590", "name": "ISLAMIC CENTER OF RIDGEWOOD NON PROFIT CORP", "city": "RIDGEWOOD", "state": "NY", "zip": "11385-5354", "ntee": "X40", "ruling": "201902", "deductibility": "1", "assets": 0, "income": 0, "revenue": 0}, {"ein": "862704532", "name": "NATIONAL UNION OF NON-PROFIT DOMINICAN REPUBLIC INC", "city": "BRONX", "state": "NY", "zip": "10457-2888", "ntee": "B19", "ruling": "202205", "deductibility": "1", "assets": 9767, "income": 109475, "revenue": 109475}, {"ein": "874080799", "name": "TFG NON PROFIT", "city": "WILLIAMSVILLE", "state": "NY", "zip": "14221-7892", "ntee": "P51", "ruling": "202202", "deductibility": "1", "assets": 0, "income": 0, "revenue": 0}, {"ein": "921666972", "name": "CHIAMAKA NON PROFIT ORGANIZATION OF NEW YORK INC", "city": "JAMAICA", "state": "NY", "zip": "11433-3030", "ntee": "T31", "ruling": "202309", "deductibility": "1", "assets": 0, "income": 0, "revenue": 0}, {"ein": "933930720", "name": "CENTRO COMUNITARIO INTERNACIONAL NON PROFIT CORP", "city": "CORONA", "state": "NY", "zip": "11368-1742", "ntee": "P20", "ruling": "202501", "deductibility": "1", "assets": 306, "income": 5000, "revenue": 5000}], "MCHV": [{"ein": "036006263", "name": "MARION BATCHELDER TRUST 378 FBO MCHV ET AL", "city": "BUFFALO", "state": "NY", "zip": "14240-1504", "ntee": "T22", "ruling": "201906", "deductibility": "1", "assets": 117543, "income": 100138, "revenue": 0}], "HUBBARD": [{"ein": "036104614", "name": "HUBBARD HOPE IRRV TR 43C433018", "city": "BUFFALO", "state": "NY", "zip": "14240-1504", "ntee": "T20", "ruling": "201911", "deductibility": "1", "assets": 371731, "income": 113217, "revenue": 0}, {"ein": "136056877", "name": "ANNA WEIR HUBBARD UW 39 15C", "city": "NEW YORK", "state": "NY", "zip": "10013-2362", "ntee": "", "ruling": "198209", "deductibility": "0", "assets": 4065065, "income": 4730527, "revenue": 0}, {"ein": "222188736", "name": "HUBBARD HALL PROJECTS INC", "city": "CAMBRIDGE", "state": "NY", "zip": "12816-1219", "ntee": "A600", "ruling": "197803", "deductibility": "1", "assets": 1955721, "income": 607719, "revenue": 395737}, {"ein": "226108097", "name": "JOHN C AND SUSAN K HUBBARD FOUNDATION INC", "city": "SCHENECTADY", "state": "NY", "zip": "12302-4734", "ntee": "", "ruling": "196811", "deductibility": "1", "assets": 253766, "income": 83488, "revenue": 0}, {"ein": "226500878", "name": "LEONARD D HUBBARD ONONDAGA NATION SCHOLARSHIP TRUST", "city": "ITHACA", "state": "NY", "zip": "14851-6437", "ntee": "", "ruling": "199004", "deductibility": "0", "assets": 308153, "income": 126469, "revenue": 0}], "ORGANIZATIONAL": [{"ein": "042973109", "name": "SWEDISH PROGRAM IN ORGANIZATIONAL STUDIES AND POLICY INC", "city": "ALTAMONT", "state": "NY", "zip": "12009-5804", "ntee": "Q220", "ruling": "198905", "deductibility": "1", "assets": 2273353, "income": 3655631, "revenue": 3084158}], "PSCH": [{"ein": "043618973", "name": "PSCH 78TH ST OZPK HOUSING DEVELOPMENT FUND CORP", "city": "NEW HYDE PARK", "state": "NY", "zip": "11042-2025", "ntee": "P70", "ruling": "200404", "deductibility": "1", "assets": 753977, "income": 119770, "revenue": 119770}, {"ein": "134011049", "name": "PSCH-NEW JERSEY INC", "city": "NEW HYDE PARK", "state": "NY", "zip": "11042-2025", "ntee": "P820", "ruling": "199812", "deductibility": "1", "assets": 28191, "income": 1, "revenue": 0}], "ANNE": [{"ein": "056145850", "name": "ANNE SPYCHALA FAM CHAR FDTN TR", "city": "BRONXVILLE", "state": "NY", "zip": "10708-4940", "ntee": "", "ruling": "200507", "deductibility": "1", "assets": 2412870, "income": 1099380, "revenue": 0}, {"ein": "111666878", "name": "ROMAN CATHOLIC CHURCH OF ST ANNE", "city": "GARDEN CITY", "state": "NY", "zip": "11530-5109", "ntee": "", "ruling": "194603", "deductibility": "1", "assets": 0, "income": 0, "revenue": 0}, {"ein": "113024956", "name": "ANNE & JACK ROSENBLATT FOUNDATION INC", "city": "LAWRENCE", "state": "NY", "zip": "11559-2009", "ntee": "", "ruling": "199306", "deductibility": "1", "assets": 144302, "income": 50048, "revenue": 0}, {"ein": "132918194", "name": "MANFRED & ANNE LEHMANN FOUNDATION", "city": "NEW YORK", "state": "NY", "zip": "10168-0000", "ntee": "", "ruling": "197712", "deductibility": "1", "assets": 1068590, "income": 19813, "revenue": 0}, {"ein": "132991719", "name": "ANNE FRANK CENTER USA", "city": "NEW YORK", "state": "NY", "zip": "10001-7604", "ntee": "A82Z", "ruling": "198408", "deductibility": "1", "assets": 493695, "income": 598413, "revenue": 598413}, {"ein": "133324859", "name": "VALERIE ANNE BRIEHL FOUNDATION INC", "city": "WACCABUC", "state": "NY", "zip": "10597-1005", "ntee": "", "ruling": "198604", "deductibility": "1", "assets": 19507, "income": 6686, "revenue": 0}, {"ein": "133579342", "name": "ANNE CLAIRE LESTER FOUNDATION INC", "city": "BRONX", "state": "NY", "zip": "10471-0000", "ntee": "", "ruling": "199106", "deductibility": "1", "assets": 1459979, "income": 46068, "revenue": 0}, {"ein": "134023553", "name": "ANNE WALKER SCHOLARSHIP FUND", "city": "NEW YORK", "state": "NY", "zip": "10036-1308", "ntee": "B82Z", "ruling": "199810", "deductibility": "1", "assets": 77950, "income": 6170, "revenue": 0}, {"ein": "136067980", "name": "ANNE BOYD LICHTENSTEIN FOUNDATION", "city": "GARDEN CITY", "state": "NY", "zip": "11530-1650", "ntee": "", "ruling": "196207", "deductibility": "1", "assets": 795662, "income": 160487, "revenue": 0}, {"ein": "136144221", "name": "ANNE OHARE MCCORMICK MEMORIAL FUND INC", "city": "NEW YORK", "state": "NY", "zip": "10003-1705", "ntee": "", "ruling": "195703", "deductibility": "1", "assets": 392632, "income": 47518, "revenue": 0}, {"ein": "136193022", "name": "ANNE & JACOB STARR FOUNDATION", "city": "NEW YORK", "state": "NY", "zip": "10002-9038", "ntee": "", "ruling": "196601", "deductibility": "1", "assets": 677933, "income": 128393, "revenue": 0}, {"ein": "136880921", "name": "ANNE AND JOHN J WALSH FOUNDATION", "city": "BROOKLYN", "state": "NY", "zip": "11215-7805", "ntee": "", "ruling": "198806", "deductibility": "1", "assets": 338584, "income": 25180, "revenue": 0}, {"ein": "137298842", "name": "BERNARD AND ANNE SPITZER CHARITABLE TR", "city": "NEW YORK", "state": "NY", "zip": "10022-3387", "ntee": "T22", "ruling": "200108", "deductibility": "1", "assets": 403894894, "income": 81844451, "revenue": 0}, {"ein": "141340098", "name": "SAINT ANNE INSTITUTE", "city": "ALBANY", "state": "NY", "zip": "12206-1821", "ntee": "", "ruling": "194603", "deductibility": "1", "assets": 7845599, "income": 14738409, "revenue": 14513907}, {"ein": "141804775", "name": "QUEEN ANNE SENIOR CITIZENS OF FORT ANN", "city": "FORT ANN", "state": "NY", "zip": "12827-0135", "ntee": "P81", "ruling": "199812", "deductibility": "1", "assets": 0, "income": 0, "revenue": 0}, {"ein": "160743305", "name": "SS JOACHIM & ANNE", "city": "ATTICA", "state": "NY", "zip": "14011-1146", "ntee": "", "ruling": "194603", "deductibility": "1", "assets": 0, "income": 0, "revenue": 0}, {"ein": "166182160", "name": "FOX MEMORIAL HOSPITAL TRUST UNDER WILL OF ANNE E SCOTT", "city": "ONEONTA", "state": "NY", "zip": "13820-2502", "ntee": "T11", "ruling": "199910", "deductibility": "1", "assets": 894778, "income": 316751, "revenue": 0}, {"ein": "200379869", "name": "JOHN AND ANNE ALBRIGHT FAMILY FOUNDATION", "city": "NEW YORK", "state": "NY", "zip": "10280-1448", "ntee": "T21", "ruling": "200312", "deductibility": "1", "assets": 24600, "income": 5972, "revenue": 0}, {"ein": "200648977", "name": "THE@MICHAEL AND ANNE KEITH FOUNDATION INC", "city": "GARDEN CITY", "state": "NY", "zip": "11530-0000", "ntee": "T22", "ruling": "200410", "deductibility": "1", "assets": 1, "income": 1, "revenue": 0}, {"ein": "204343134", "name": "ANNE BUSQUET FOUNDATION", "city": "NEW YORK", "state": "NY", "zip": "10021-2653", "ntee": "T20", "ruling": "200612", "deductibility": "1", "assets": 200894, "income": 50376, "revenue": 0}, {"ein": "206934392", "name": "GREGORY T BERNHART AND ANNE MBERNHART FAMILY CHARITABLE TRUST", "city": "WESTHAMPTON", "state": "NY", "zip": "11977-1612", "ntee": "T22", "ruling": "200606", "deductibility": "1", "assets": 99544, "income": 12978, "revenue": 0}, {"ein": "222218832", "name": "SAINT ANNE FOUNDATION", "city": "ALBANY", "state": "NY", "zip": "12206-0305", "ntee": "", "ruling": "198010", "deductibility": "1", "assets": 2344544, "income": 426155, "revenue": 49220}, {"ein": "222943712", "name": "SAINT JOACHIM & ANNE NURSING AND REHABILITATION CENTER", "city": "BROOKLYN", "state": "NY", "zip": "11224-1913", "ntee": "", "ruling": "194603", "deductibility": "1", "assets": 20232657, "income": 24044750, "revenue": 24044750}, {"ein": "236471389", "name": "ANNE MCCORMICK TRUST UNDER WILL", "city": "AMHERST", "state": "NY", "zip": "14228-2307", "ntee": "", "ruling": "000000", "deductibility": "0", "assets": 7930345, "income": 1390698, "revenue": 0}, {"ein": "236508184", "name": "ANNE MCCORMICK TR U/W CHARITABLE PURPOSES", "city": "AMHERST", "state": "NY", "zip": "14228-2307", "ntee": "", "ruling": "197502", "deductibility": "0", "assets": 174334, "income": 53775, "revenue": 0}, {"ein": "237043773", "name": "CLARENCE AND ANNE DILLON DUNWALKE TRUST", "city": "NEW YORK", "state": "NY", "zip": "10016-0000", "ntee": "", "ruling": "196911", "deductibility": "1", "assets": 28928455, "income": 13300363, "revenue": 0}, {"ein": "266689602", "name": "ANNE M SCHEFFLER CHARITABLE TRUST 12-18-08", "city": "S GLENS FALLS", "state": "NY", "zip": "12803-5400", "ntee": "", "ruling": "000000", "deductibility": "0", "assets": 80461, "income": 11765, "revenue": 0}, {"ein": "300041963", "name": "ST RAPHAEL AND ST ANNE CELESTIAL HEALING CHURCH", "city": "BRONX", "state": "NY", "zip": "10466-2220", "ntee": "X20", "ruling": "200206", "deductibility": "1", "assets": 0, "income": 0, "revenue": 0}, {"ein": "421750001", "name": "THE ROBERT L JAMES AND ANNE K JAMES FOUNDATION", "city": "ALBANY", "state": "NY", "zip": "12212-5201", "ntee": "T22", "ruling": "200901", "deductibility": "1", "assets": 475126, "income": 2300688, "revenue": 0}, {"ein": "451986299", "name": "ANNE FONTAINE FOUNDATION INC", "city": "NEW YORK", "state": "NY", "zip": "10012-3832", "ntee": "T21", "ruling": "201107", "deductibility": "1", "assets": 465633, "income": 92580, "revenue": 0}, {"ein": "460555084", "name": "ANNE & WILLIAM ROTHENBERG JR SCHOLARSHIP FUND", "city": "BRONX", "state": "NY", "zip": "10463-7779", "ntee": "B82", "ruling": "201310", "deductibility": "1", "assets": 18086, "income": 10756, "revenue": 10756}, {"ein": "522357309", "name": "ANNE & NATALIO FRIDMAN FOUNDATION", "city": "NEW YORK", "state": "NY", "zip": "10028-0922", "ntee": "T22", "ruling": "200206", "deductibility": "1", "assets": 9400397, "income": 228100, "revenue": 0}, {"ein": "650883794", "name": "THE@ANNE AND JOHN TATTA FAMILY FOUNDATION INC", "city": "OYSTER BAY", "state": "NY", "zip": "11771-3810", "ntee": "T22", "ruling": "199903", "deductibility": "1", "assets": 1662125, "income": 661088, "revenue": 0}, {"ein": "814564158", "name": "JAMES AND ANNE DOLLARD SCHOLARSHIP FUND", "city": "CALEDONIA", "state": "NY", "zip": "14423-1068", "ntee": "O12", "ruling": "201704", "deductibility": "1", "assets": 0, "income": 0, "revenue": 0}, {"ein": "820643977", "name": "ANNE V GRAZIANI FUND INC", "city": "SHIRLEY", "state": "NY", "zip": "11967-1569", "ntee": "N99", "ruling": "201704", "deductibility": "1", "assets": 0, "income": 0, "revenue": 0}, {"ein": "832812769", "name": "SOUTHERN CAYUGA ANNE FRANK TREE PROJECT INCORPORATED", "city": "AURORA", "state": "NY", "zip": "13026-0000", "ntee": "B90", "ruling": "201903", "deductibility": "1", "assets": 0, "income": 0, "revenue": 0}, {"ein": "873755775", "name": "ANNE SAXELBY LEGACY FUND INC", "city": "BROOKLYN", "state": "NY", "zip": "11238-6036", "ntee": "K20", "ruling": "202207", "deductibility": "1", "assets": 68803, "income": 888584, "revenue": 578431}, {"ein": "993373748", "name": "ANNE CLARKE FOUNDATION INC", "city": "NEW YORK", "state": "NY", "zip": "10030-9002", "ntee": "T30", "ruling": "202406", "deductibility": "1", "assets": 0, "income": 0, "revenue": 0}], "WALDMAN": [{"ein": "060959597", "name": "CONGREGATION OHEL YITZCHOK C O JUDITH WALDMAN", "city": "MONSEY", "state": "NY", "zip": "10952-2911", "ntee": "", "ruling": "197801", "deductibility": "1", "assets": 0, "income": 0, "revenue": 0}, {"ein": "261495686", "name": "WALDMAN FOUNDATION", "city": "HARRISON", "state": "NY", "zip": "10528-1648", "ntee": "T20", "ruling": "200802", "deductibility": "1", "assets": 44712186, "income": 24944872, "revenue": 0}], "NICKEL": [{"ein": "061563331", "name": "NICKEL FOUNDATION", "city": "NEW YORK", "state": "NY", "zip": "10001-0891", "ntee": "T20", "ruling": "200002", "deductibility": "1", "assets": 189352, "income": 135413, "revenue": 0}, {"ein": "161607450", "name": "NICKEL CITY HOUSING CORP", "city": "BUFFALO", "state": "NY", "zip": "14201-1529", "ntee": "L20", "ruling": "201701", "deductibility": "1", "assets": 46912, "income": 130689, "revenue": 130689}, {"ein": "200483601", "name": "NICKEL CITY OPERA INC", "city": "BUFFALO", "state": "NY", "zip": "14217-0235", "ntee": "A6A", "ruling": "201006", "deductibility": "1", "assets": 454, "income": 64185, "revenue": 64185}, {"ein": "811640376", "name": "NICKEL CITY FOUNDATION INC", "city": "BUFFALO", "state": "NY", "zip": "14208-1226", "ntee": "S11", "ruling": "201611", "deductibility": "1", "assets": 1527186, "income": 766569, "revenue": 401}, {"ein": "823608829", "name": "NICKEL CITY ULTIMATE", "city": "CHEEKTOWAGA", "state": "NY", "zip": "14225-1259", "ntee": "N60", "ruling": "201809", "deductibility": "1", "assets": 0, "income": 0, "revenue": 0}, {"ein": "832646059", "name": "NICKEL CITY CANINE RESCUE INC", "city": "WILLIAMSVILLE", "state": "NY", "zip": "14221-2864", "ntee": "D20", "ruling": "201901", "deductibility": "1", "assets": 186927, "income": 425964, "revenue": 396408}, {"ein": "994382076", "name": "NICKEL CITY COMMUNITY SERVICES INC", "city": "BUFFALO", "state": "NY", "zip": "14202-2604", "ntee": "O50", "ruling": "202409", "deductibility": "1", "assets": 1, "income": 1, "revenue": 0}], "SAVERS": [{"ein": "061796029", "name": "SELECT SAVERS CLUB INC", "city": "PURCHASE", "state": "NY", "zip": "10577-0566", "ntee": "B60", "ruling": "201412", "deductibility": "1", "assets": 0, "income": 0, "revenue": 0}, {"ein": "113131963", "name": "THE PET SAVERS FOUNDATION INC", "city": "PRT WASHINGTN", "state": "NY", "zip": "11050-3720", "ntee": "D200", "ruling": "199406", "deductibility": "1", "assets": 102093, "income": 67577, "revenue": 67577}, {"ein": "813646152", "name": "GLOBAL LIFE SAVERS INC", "city": "BRONX", "state": "NY", "zip": "10475-4072", "ntee": "M41", "ruling": "201612", "deductibility": "1", "assets": 1, "income": 35221, "revenue": 0}, {"ein": "870786565", "name": "MARRIAGE AND FAMILY SAVERS MINISTRIES INC", "city": "NEWBURGH", "state": "NY", "zip": "12550-3341", "ntee": "P46", "ruling": "200703", "deductibility": "1", "assets": 9692, "income": 57818, "revenue": 55966}], "SPOTLIGHT": [{"ein": "061823862", "name": "SPOTLIGHT ON CHILDREN INC", "city": "PATCHOGUE", "state": "NY", "zip": "11772-2519", "ntee": "O11", "ruling": "201306", "deductibility": "1", "assets": 19918, "income": 8373, "revenue": 8373}, {"ein": "134002892", "name": "SPOTLIGHT THEATRE PRODUCTION INC", "city": "PUTNAM VALLEY", "state": "NY", "zip": "10579-2050", "ntee": "A65", "ruling": "199905", "deductibility": "1", "assets": 0, "income": 0, "revenue": 0}, {"ein": "275140185", "name": "DANCE SPOTLIGHT INC", "city": "NEW YORK", "state": "NY", "zip": "10036-4028", "ntee": "A62", "ruling": "201411", "deductibility": "1", "assets": 8788, "income": 24591, "revenue": 24591}, {"ein": "320130389", "name": "SPOTLIGHT ON HOPE INC", "city": "ORCHARD PARK", "state": "NY", "zip": "14127-2824", "ntee": "E70", "ruling": "200509", "deductibility": "1", "assets": 0, "income": 0, "revenue": 0}, {"ein": "474207100", "name": "SHARE THE SPOTLIGHT INC", "city": "BROOKLYN", "state": "NY", "zip": "11201-1426", "ntee": "A60", "ruling": "201507", "deductibility": "1", "assets": 0, "income": 0, "revenue": 0}, {"ein": "833664191", "name": "BEHIND THE SPOTLIGHT INC", "city": "NEW YORK", "state": "NY", "zip": "10031-8355", "ntee": "A20", "ruling": "202002", "deductibility": "1", "assets": 0, "income": 0, "revenue": 0}, {"ein": "844083398", "name": "SPOTLIGHT THEATRE STATEN ISLAND INC", "city": "STATEN ISLAND", "state": "NY", "zip": "10301-2643", "ntee": "A20", "ruling": "202209", "deductibility": "1", "assets": 1728, "income": 174256, "revenue": 174256}, {"ein": "852028351", "name": "MATERNAL SPOTLIGHT", "city": "GARDEN CITY", "state": "NY", "zip": "11530-6233", "ntee": "E70", "ruling": "202103", "deductibility": "1", "assets": 0, "income": 0, "revenue": 0}, {"ein": "994486135", "name": "SPOTLIGHT PERFORMING ARTISTS INC", "city": "LOCKPORT", "state": "NY", "zip": "14094-3707", "ntee": "A60", "ruling": "202501", "deductibility": "1", "assets": 0, "income": 0, "revenue": 0}], "ETTINGER": [{"ein": "066038938", "name": "ETTINGER FOUNDATION INC", "city": "NEW YORK", "state": "NY", "zip": "10185-5016", "ntee": "", "ruling": "195006", "deductibility": "1", "assets": 11591385, "income": 1893604, "revenue": 0}, {"ein": "261557790", "name": "BERNARD ETTINGER FOUNDATION INC", "city": "MANHASSET", "state": "NY", "zip": "11030-4428", "ntee": "T22", "ruling": "201001", "deductibility": "1", "assets": 666398, "income": 112484, "revenue": 0}], "PLAIN": [{"ein": "111971516", "name": "PLAIN LAWN CEMETERY CORPORATION", "city": "HICKSVILLE", "state": "NY", "zip": "11801-4013", "ntee": "", "ruling": "196310", "deductibility": "1", "assets": 1910531, "income": 785913, "revenue": 301364}, {"ein": "132952606", "name": "PLAIN PATH CHURCH OF OUR LORD JESUS CHRIST APOSTOLIC INC", "city": "NEW YORK", "state": "NY", "zip": "10029-0243", "ntee": "", "ruling": "197901", "deductibility": "1", "assets": 0, "income": 0, "revenue": 0}, {"ein": "140669780", "name": "FORT PLAIN CEMETERY ASSOCIATION", "city": "FORT PLAIN", "state": "NY", "zip": "13339-0327", "ntee": "", "ruling": "197006", "deductibility": "1", "assets": 2083963, "income": 135796, "revenue": 135796}, {"ein": "141426728", "name": "FORT PLAIN FREE LIBRARY", "city": "FORT PLAIN", "state": "NY", "zip": "13339-1130", "ntee": "B71Z", "ruling": "194202", "deductibility": "1", "assets": 1650168, "income": 374140, "revenue": 240174}, {"ein": "141505721", "name": "FORT PLAIN MEDICAL FOUNDATION INC", "city": "FORT PLAIN", "state": "NY", "zip": "13339-0017", "ntee": "", "ruling": "197710", "deductibility": "1", "assets": 0, "income": 0, "revenue": 0}, {"ein": "141581346", "name": "CANAJOHARIE-FORT PLAIN GARDEN CLUB INC", "city": "FORT PLAIN", "state": "NY", "zip": "13339-1462", "ntee": "C42", "ruling": "199911", "deductibility": "1", "assets": 0, "income": 0, "revenue": 0}, {"ein": "146026454", "name": "SCHOLARSHIP ASSOCIATION OF FORT PLAIN", "city": "FORT PLAIN", "state": "NY", "zip": "13339-0065", "ntee": "B82", "ruling": "199904", "deductibility": "1", "assets": 2599643, "income": 569337, "revenue": 0}, {"ein": "222449483", "name": "FORT PLAIN SENIOR CENTER INC", "city": "FORT PLAIN", "state": "NY", "zip": "13339-0011", "ntee": "P81Z", "ruling": "199603", "deductibility": "1", "assets": 125661, "income": 51180, "revenue": 51180}, {"ein": "222512534", "name": "FIRST REFORMED PROTESTANT DUTCH CHURCH OF FORT PLAIN", "city": "FORT PLAIN", "state": "NY", "zip": "13339-1154", "ntee": "", "ruling": "196801", "deductibility": "1", "assets": 0, "income": 0, "revenue": 0}, {"ein": "264062909", "name": "FRIENDS OF THE FORT PLAIN", "city": "FORT PLAIN", "state": "NY", "zip": "13339-0145", "ntee": "A80", "ruling": "200903", "deductibility": "1", "assets": 357982, "income": 107349, "revenue": 107349}, {"ein": "843196018", "name": "PLAIN SIGHT PROJECT INC", "city": "EAST HAMPTON", "state": "NY", "zip": "11937-2716", "ntee": "A80", "ruling": "202101", "deductibility": "1", "assets": 0, "income": 0, "revenue": 0}, {"ein": "931768717", "name": "FORT PLAIN CORE INC", "city": "FORT PLAIN", "state": "NY", "zip": "13339-1152", "ntee": "T50", "ruling": "202310", "deductibility": "1", "assets": 18760, "income": 23019, "revenue": 23019}, {"ein": "934720616", "name": "CHAMPION HOOK AND LADDER COMPANY OF FORT PLAIN INC", "city": "FORT PLAIN", "state": "NY", "zip": "13339-0374", "ntee": "M24", "ruling": "202405", "deductibility": "1", "assets": 369811, "income": 69111, "revenue": 58012}], "AMBOY": [{"ein": "112343197", "name": "AMBOY NEIGHBORHOOD CENTER INC", "city": "BROOKLYN", "state": "NY", "zip": "11217-1807", "ntee": "L400", "ruling": "197707", "deductibility": "1", "assets": 0, "income": 0, "revenue": 0}, {"ein": "112814707", "name": "AMBOY PROPERTIES CORPORATION", "city": "BROOKLYN", "state": "NY", "zip": "11236-1902", "ntee": "E22I", "ruling": "198707", "deductibility": "1", "assets": 18381682, "income": 1863638, "revenue": 1863638}, {"ein": "263381883", "name": "AMBOY MEDICAL PRACTICE PC", "city": "STATEN ISLAND", "state": "NY", "zip": "10310-1664", "ntee": "E300", "ruling": "201408", "deductibility": "1", "assets": 8639169, "income": 34447303, "revenue": 34161426}, {"ein": "461085989", "name": "3948 AMBOY RD REALTY CORP", "city": "STATEN ISLAND", "state": "NY", "zip": "10308-2453", "ntee": "L02", "ruling": "201407", "deductibility": "0", "assets": 1946489, "income": 170213, "revenue": -19797}], "SUNSET": [{"ein": "112358277", "name": "UNITED SENIOR CITIZENS OF SUNSET PARK INC C O THOMAS J COSTELLO", "city": "BROOKLYN", "state": "NY", "zip": "11220-2712", "ntee": "", "ruling": "197810", "deductibility": "1", "assets": 194106, "income": 958742, "revenue": 958742}, {"ein": "112526067", "name": "MARIEN-HEIM OF SUNSET PARK", "city": "BROOKLYN", "state": "NY", "zip": "11220-1152", "ntee": "L210", "ruling": "199006", "deductibility": "1", "assets": 6632717, "income": 3428302, "revenue": 3428302}, {"ein": "112538648", "name": "SUNSET PARK RESTORATION COMMITTEE", "city": "STATEN ISLAND", "state": "NY", "zip": "10302-2437", "ntee": "", "ruling": "198310", "deductibility": "1", "assets": 0, "income": 0, "revenue": 0}, {"ein": "112628789", "name": "SUNSET PARK HOUSING DEVELOPMENT FUND COMPANY INC", "city": "BROOKLYN", "state": "NY", "zip": "11201-4306", "ntee": "", "ruling": "194603", "deductibility": "1", "assets": 420341, "income": 720757, "revenue": 720757}, {"ein": "112684169", "name": "SUNSET PARK SCHOOL OF MUSIC INC", "city": "BROOKLYN", "state": "NY", "zip": "11220-1180", "ntee": "A6EZ", "ruling": "198504", "deductibility": "1", "assets": 24315, "income": 64865, "revenue": 64865}, {"ein": "113251860", "name": "SUNSET PARK DISTRICT MANAGEMENT ASSOCIATION INC", "city": "BROOKLYN", "state": "NY", "zip": "11220-2715", "ntee": "S80I", "ruling": "199706", "deductibility": "1", "assets": 387460, "income": 469449, "revenue": 468235}, {"ein": "133880885", "name": "SUNSET TABERNACLE INC", "city": "BRONX", "state": "NY", "zip": "10462-5008", "ntee": "X20Z", "ruling": "199608", "deductibility": "1", "assets": 0, "income": 0, "revenue": 0}, {"ein": "146023215", "name": "SUNSET BAY CAMPERS ASSOCIATION INC", "city": "SCHENECTADY", "state": "NY", "zip": "12306-7503", "ntee": "N50", "ruling": "201902", "deductibility": "2", "assets": 0, "income": 0, "revenue": 0}, {"ein": "150539097", "name": "SUNSET HOME OF UTICA", "city": "NEW HARTFORD", "state": "NY", "zip": "13413-2358", "ntee": "P75Z", "ruling": "197702", "deductibility": "1", "assets": 3125686, "income": 1711706, "revenue": 1711706}, {"ein": "160654920", "name": "SUNSET HILL CEMETERY ASSN INC", "city": "LAKEWOOD", "state": "NY", "zip": "14750-0046", "ntee": "Y50", "ruling": "201602", "deductibility": "1", "assets": 1976725, "income": 669956, "revenue": 592893}, {"ein": "161562926", "name": "SUNSET HOME MANAGEMENT CORPORATION", "city": "NEW HARTFORD", "state": "NY", "zip": "13413-2358", "ntee": "L02", "ruling": "200104", "deductibility": "1", "assets": 1, "income": 0, "revenue": 0}, {"ein": "161562929", "name": "SUNSET HOME OF UTICA FOUNDATION", "city": "NEW HARTFORD", "state": "NY", "zip": "13413-2358", "ntee": "L11", "ruling": "200104", "deductibility": "1", "assets": 950260, "income": 610804, "revenue": 156045}, {"ein": "202508411", "name": "SUNSET PARK HEALTH COUNCIL INC", "city": "BROOKLYN", "state": "NY", "zip": "11220-2508", "ntee": "E80", "ruling": "200512", "deductibility": "1", "assets": 167690187, "income": 255604623, "revenue": 255604623}, {"ein": "205845534", "name": "SUNSET NEIGHBORHOOD CORPORATION", "city": "NEW HARTFORD", "state": "NY", "zip": "13413-2358", "ntee": "P81", "ruling": "200707", "deductibility": "1", "assets": 0, "income": 0, "revenue": 0}, {"ein": "222566089", "name": "SUNSET BAY VOLUNTEER FIRE CO NO 1 INC", "city": "IRVING", "state": "NY", "zip": "14081-9688", "ntee": "M24", "ruling": "200812", "deductibility": "1", "assets": 735101, "income": 205706, "revenue": 205706}, {"ein": "223070946", "name": "SUNSET HOUSE INC", "city": "ROCHESTER", "state": "NY", "zip": "14617-2737", "ntee": "P74Z", "ruling": "199407", "deductibility": "1", "assets": 1124504, "income": 337227, "revenue": 322426}, {"ein": "237165901", "name": "SUNSET PARK REDEVELOPMENT COMMITTEE INC", "city": "BROOKLYN", "state": "NY", "zip": "11220-1815", "ntee": "L20Z", "ruling": "197506", "deductibility": "1", "assets": 4108306, "income": 4549339, "revenue": 4190092}, {"ein": "334260903", "name": "SUNSET HUSTLE FOUNDATION INC", "city": "NEW YORK", "state": "NY", "zip": "10031-3913", "ntee": "A23", "ruling": "202505", "deductibility": "1", "assets": 0, "income": 0, "revenue": 0}, {"ein": "453177051", "name": "SUNSET ISLAMIC WORSHIP INC", "city": "BROOKLYN", "state": "NY", "zip": "11220-1756", "ntee": "X40", "ruling": "201407", "deductibility": "1", "assets": 0, "income": 0, "revenue": 0}, {"ein": "454277390", "name": "SUNSET MINISTRIES", "city": "BUFFALO", "state": "NY", "zip": "14213-2117", "ntee": "P60", "ruling": "201709", "deductibility": "1", "assets": 0, "income": 0, "revenue": 0}, {"ein": "454683418", "name": "SUNSET SPARK INC", "city": "BROOKLYN", "state": "NY", "zip": "11232-0145", "ntee": "B90", "ruling": "201608", "deductibility": "1", "assets": 34278, "income": 195116, "revenue": 195116}, {"ein": "472458264", "name": "FAC SUNSET PARK HOUSING DEVELOPMENT FUND CORPORATION", "city": "BROOKLYN", "state": "NY", "zip": "11217-4596", "ntee": "P20", "ruling": "201904", "deductibility": "2", "assets": 0, "income": 0, "revenue": 0}, {"ein": "472994664", "name": "BROOKLYN SUNSET PARK LIONS CLUB CORP", "city": "BROOKLYN", "state": "NY", "zip": "11220-4407", "ntee": "Z99", "ruling": "201502", "deductibility": "1", "assets": 3421, "income": 30143, "revenue": 30143}, {"ein": "823962695", "name": "SUNSET PARK KIDS INC", "city": "BROOKLYN", "state": "NY", "zip": "11232-2547", "ntee": "C50", "ruling": "201905", "deductibility": "1", "assets": 0, "income": 0, "revenue": 0}, {"ein": "824687727", "name": "SUNSET FOUNDATION INC", "city": "ROCKAWAY PT", "state": "NY", "zip": "11697-1901", "ntee": "P58", "ruling": "201803", "deductibility": "1", "assets": 207926, "income": 13188, "revenue": 13188}, {"ein": "832983615", "name": "NHPF-SUNSET GARDENS HOUSING DEVELOPMENT FUND CORPORATION", "city": "NEW YORK", "state": "NY", "zip": "10168-0002", "ntee": "L20", "ruling": "202004", "deductibility": "1", "assets": 1, "income": 1, "revenue": 0}, {"ein": "851058164", "name": "CENTER FOR FAMILY LIFE IN SUNSET PARK INC", "city": "BROOKLYN", "state": "NY", "zip": "11232-2037", "ntee": "", "ruling": "202007", "deductibility": "1", "assets": 11633758, "income": 23274819, "revenue": 23258972}, {"ein": "883696153", "name": "CHABAD OF SUNSET PARK INC", "city": "BROOKLYN", "state": "NY", "zip": "11215-7586", "ntee": "X30", "ruling": "202504", "deductibility": "1", "assets": 0, "income": 0, "revenue": 0}, {"ein": "920557128", "name": "SUNSET ARTS FOUNDATION INC", "city": "NEW YORK", "state": "NY", "zip": "10009-4125", "ntee": "A20", "ruling": "202210", "deductibility": "1", "assets": 0, "income": 0, "revenue": 0}, {"ein": "931841793", "name": "SUNSET PARK WIDE OPEN INC", "city": "BROOKLYN", "state": "NY", "zip": "11220-1035", "ntee": "A20", "ruling": "202307", "deductibility": "1", "assets": 0, "income": 0, "revenue": 0}, {"ein": "934209914", "name": "SUNSET PARK CATS INC", "city": "BROOKLYN", "state": "NY", "zip": "11220-7222", "ntee": "D20", "ruling": "202403", "deductibility": "1", "assets": 0, "income": 0, "revenue": 0}], "MINCHA": [{"ein": "112416900", "name": "CONGREGATION AND YESHIVA MINCHA CHADOSH", "city": "BROOKLYN", "state": "NY", "zip": "11219-3010", "ntee": "", "ruling": "197706", "deductibility": "1", "assets": 0, "income": 0, "revenue": 0}, {"ein": "871061164", "name": "CONGREGATION MINCHA CHADOSHA OF ROCKLAND INC", "city": "SPRING VALLEY", "state": "NY", "zip": "10977-2019", "ntee": "X30", "ruling": "202205", "deductibility": "1", "assets": 0, "income": 0, "revenue": 0}], "SAFETY": [{"ein": "112447683", "name": "UFCW LOCAL 342 SAFETY EDUCATIONAL CULTURAL AND ACTIVITIES FUND", "city": "BOHEMIA", "state": "NY", "zip": "11716-2174", "ntee": "", "ruling": "199008", "deductibility": "2", "assets": 3761544, "income": 2683657, "revenue": 2683657}, {"ein": "112926953", "name": "NEW YORK COALITION FOR TRANSPORTATION SAFETY INC", "city": "BAYSIDE", "state": "NY", "zip": "11361-2071", "ntee": "", "ruling": "198811", "deductibility": "1", "assets": 47886, "income": 188056, "revenue": 188056}, {"ein": "113339915", "name": "PAVERS & RD BUILDERS DIST APRNTSHP SKILL IMPROVEMENT & SAFETY FUND", "city": "WHITESTONE", "state": "NY", "zip": "11357-3065", "ntee": "J20", "ruling": "199902", "deductibility": "1", "assets": 118939, "income": 23467, "revenue": 23467}, {"ein": "113513108", "name": "NYS ASSOC OF TRAFFIC SAFETY BOARDS PROGRAMS INC", "city": "CENTRAL ISLIP", "state": "NY", "zip": "11722-2021", "ntee": "W20", "ruling": "200401", "deductibility": "1", "assets": 218063, "income": 433498, "revenue": 433498}, {"ein": "132935028", "name": "NEW YORK COMMITTEE FOR OCCUPATIONAL SAFETY AND HEALTH INC", "city": "NEW YORK", "state": "NY", "zip": "10005-2129", "ntee": "", "ruling": "198005", "deductibility": "1", "assets": 3289996, "income": 2740832, "revenue": 2726467}, {"ein": "132989233", "name": "CENTER FOR SAFETY & CHANGE INC", "city": "NEW CITY", "state": "NY", "zip": "10956-4730", "ntee": "P43Z", "ruling": "197908", "deductibility": "1", "assets": 4614583, "income": 7872700, "revenue": 7792793}, {"ein": "133454457", "name": "FIRE SAFETY DIRECTORS ASSOCIATION OF NEW YORK INC", "city": "NEW YORK", "state": "NY", "zip": "10185-5271", "ntee": "B03", "ruling": "201406", "deductibility": "2", "assets": 53674, "income": 10385, "revenue": 10385}, {"ein": "133522279", "name": "AMERICAN MARITIME SAFETY INC", "city": "WHITE PLAINS", "state": "NY", "zip": "10601-3200", "ntee": "", "ruling": "199008", "deductibility": "2", "assets": 625495, "income": 794903, "revenue": 794903}, {"ein": "133551716", "name": "ARTS CRAFTS AND THEATER SAFETY INC", "city": "NEW YORK", "state": "NY", "zip": "10012-2586", "ntee": "E73Z", "ruling": "199310", "deductibility": "1", "assets": 185537, "income": 66399, "revenue": 66399}, {"ein": "133983288", "name": "LOCAL 52 EDUCATION AND SAFETY TRUST FUND", "city": "ASTORIA", "state": "NY", "zip": "11105-1109", "ntee": "Y43", "ruling": "199903", "deductibility": "2", "assets": 260155, "income": 139681, "revenue": 139681}, {"ein": "133990047", "name": "NATIONAL PUBLIC SAFETY FOOTBALL LEAGUE INC", "city": "BRONX", "state": "NY", "zip": "10459-0951", "ntee": "T70", "ruling": "199808", "deductibility": "1", "assets": 10816, "income": 34625, "revenue": 34625}, {"ein": "135651238", "name": "ACCIDENT PREVENTION AND SAFETY LEAGUE INC", "city": "NEW YORK", "state": "NY", "zip": "10007-2635", "ntee": "", "ruling": "194607", "deductibility": "2", "assets": 342795, "income": 352544, "revenue": 352544}, {"ein": "136124094", "name": "THE JOCKEY CLUB SAFETY NET FOUNDATION", "city": "NEW YORK", "state": "NY", "zip": "10177-2021", "ntee": "", "ruling": "194501", "deductibility": "1", "assets": 13932100, "income": 6716168, "revenue": 0}, {"ein": "136128274", "name": "NATIONAL ROAD SAFETY FOUNDATION INC", "city": "NEW YORK", "state": "NY", "zip": "10022-6817", "ntee": "", "ruling": "199005", "deductibility": "1", "assets": 48760166, "income": 17196780, "revenue": 2888916}, {"ein": "138813388", "name": "WESTCHESTER COUNTY DEPARTMENT OF PUBLIC SAFETY PBA INC", "city": "HAWTHORNE", "state": "NY", "zip": "10532-0027", "ntee": "J99", "ruling": "201401", "deductibility": "2", "assets": 783693, "income": 564934, "revenue": 564934}, {"ein": "141591234", "name": "SCHOOL BUSINESS OFFICIALS SAFETY GROUP NUMBER 491 LTD", "city": "REXFORD", "state": "NY", "zip": "12148-1162", "ntee": "", "ruling": "198312", "deductibility": "2", "assets": 0, "income": 0, "revenue": 0}, {"ein": "141708276", "name": "ALBANY POLICE ATHLETIC LEAGUE INC PUBLIC SAFETY BLDG", "city": "ALBANY", "state": "NY", "zip": "12208-3320", "ntee": "O20Z", "ruling": "198908", "deductibility": "1", "assets": 2886317, "income": 1405090, "revenue": 1114784}, {"ein": "160778849", "name": "NEW YORK STATE LINEMANS SAFETY TRAINING FUND", "city": "CICERO", "state": "NY", "zip": "13039-9465", "ntee": "J220", "ruling": "197902", "deductibility": "1", "assets": 43917413, "income": 30464089, "revenue": 13507972}, {"ein": "160866078", "name": "ROCHESTER POLICE BENEVOLENT ASSOCIATION PUBLIC SAFETY BUILDING", "city": "ROCHESTER", "state": "NY", "zip": "14606-0000", "ntee": "I60I", "ruling": "195404", "deductibility": "2", "assets": 24511996, "income": 7519438, "revenue": 373107}, {"ein": "161454174", "name": "PUPIL TRANSPORTATION SAFETY INSTITUTE INC", "city": "EAST SYRACUSE", "state": "NY", "zip": "13057-1227", "ntee": "P52", "ruling": "199406", "deductibility": "1", "assets": 1127339, "income": 1506941, "revenue": 1401294}, {"ein": "161532853", "name": "NYS PUBLIC ENTITIES SAFETY GROUP 497", "city": "REXFORD", "state": "NY", "zip": "12148-1162", "ntee": "M40", "ruling": "200403", "deductibility": "2", "assets": 0, "income": 0, "revenue": 0}, {"ein": "161566945", "name": "CHAUTAUQUA CHILDRENS SAFETY EDUCATION VILLAGE INC", "city": "ASHVILLE", "state": "NY", "zip": "14710-9790", "ntee": "M40", "ruling": "200203", "deductibility": "1", "assets": 1349135, "income": 212128, "revenue": 202006}, {"ein": "161600409", "name": "SAFETY AND HEALTH TRAINING CENTER INC", "city": "BUFFALO", "state": "NY", "zip": "14214-2152", "ntee": "E70", "ruling": "200103", "deductibility": "1", "assets": 30350, "income": 205339, "revenue": 205339}, {"ein": "166058901", "name": "WESTERN NEW YORK SAFETY CONFERENCE INC", "city": "AMHERST", "state": "NY", "zip": "14226-0207", "ntee": "E73Z", "ruling": "194907", "deductibility": "1", "assets": 42294, "income": 64984, "revenue": 64984}, {"ein": "166098234", "name": "GENESEE VALLEY SAFETY CONFERENCE INC", "city": "ROCHESTER", "state": "NY", "zip": "14602-0616", "ntee": "", "ruling": "196805", "deductibility": "1", "assets": 44514, "income": 10504, "revenue": 10504}, {"ein": "200266930", "name": "SAFETY NET FOR CHILDREN INC", "city": "BRONX", "state": "NY", "zip": "10468-4725", "ntee": "B90", "ruling": "201302", "deductibility": "1", "assets": 0, "income": 0, "revenue": 0}, {"ein": "201724036", "name": "LAUNCH NO5 HUDSON RIVER ENVIROMENTAL AND SAFETY FOUND INC", "city": "OSSINING", "state": "NY", "zip": "10562-2008", "ntee": "C99", "ruling": "201405", "deductibility": "1", "assets": 0, "income": 0, "revenue": 0}, {"ein": "203244567", "name": "FLATBUSH SHOMRIM SAFETY PATROL INC", "city": "BROOKLYN", "state": "NY", "zip": "11230-4301", "ntee": "I60", "ruling": "200606", "deductibility": "1", "assets": 417112, "income": 637030, "revenue": 637030}, {"ein": "203274524", "name": "JODIE S LANE PUBLIC SAFETY FOUNDATION INC", "city": "NEW YORK", "state": "NY", "zip": "10033-1755", "ntee": "M40", "ruling": "200603", "deductibility": "1", "assets": 0, "income": 0, "revenue": 0}, {"ein": "203425740", "name": "MOGEN SAFETY COUNCIL INC", "city": "FRANKLIN SQUARE", "state": "NY", "zip": "11010-3247", "ntee": "M19", "ruling": "200706", "deductibility": "1", "assets": 0, "income": 0, "revenue": 0}, {"ein": "208802884", "name": "EVERYTOWN FOR GUN SAFETY ACTION FUND INC", "city": "NEW YORK", "state": "NY", "zip": "10163-4184", "ntee": "I192", "ruling": "200711", "deductibility": "2", "assets": 23196191, "income": 60673508, "revenue": 60651946}, {"ein": "222262978", "name": "WESTERN NEW YORK COUNCIL ON OCCUPATIONAL SAFETY & HEALTH INC", "city": "BUFFALO", "state": "NY", "zip": "14214-2154", "ntee": "E73Z", "ruling": "198801", "deductibility": "1", "assets": 278274, "income": 709148, "revenue": 709148}, {"ein": "222348129", "name": "NORTHEASTERN NEW YORK SAFETY AND HEALTH COUNCIL INC", "city": "ALBANY", "state": "NY", "zip": "12206-1105", "ntee": "M40Z", "ruling": "198107", "deductibility": "1", "assets": 686483, "income": 717017, "revenue": 717017}, {"ein": "223110941", "name": "NEW YORK LABORERS HEALTH AND SAFETY TRUST", "city": "ALBANY", "state": "NY", "zip": "12211-2522", "ntee": "", "ruling": "199203", "deductibility": "2", "assets": 11718272, "income": 4110419, "revenue": 4110419}, {"ein": "261234277", "name": "NATIONAL ORGANIZATION FOR WOMENS SAFETY AWARENESS INC", "city": "DIX HILLS", "state": "NY", "zip": "11746-6751", "ntee": "R24", "ruling": "201204", "deductibility": "1", "assets": 0, "income": 0, "revenue": 0}, {"ein": "261598353", "name": "EVERYTOWN FOR GUN SAFETY SUPPORT FUND INC", "city": "NEW YORK", "state": "NY", "zip": "10163-4184", "ntee": "I20", "ruling": "200807", "deductibility": "1", "assets": 40096027, "income": 33593611, "revenue": 33479284}, {"ein": "274812040", "name": "SUFFOLK COUNTY FIRE EMS SAFETY OFFICERS ASSOCIATION", "city": "SAYVILLE", "state": "NY", "zip": "11782-0781", "ntee": "M40", "ruling": "201503", "deductibility": "1", "assets": 0, "income": 0, "revenue": 0}, {"ein": "331174478", "name": "JOHN F FINN INSTITUTE FOR PUBLIC SAFETY INC", "city": "ALBANY", "state": "NY", "zip": "12205-3861", "ntee": "I052", "ruling": "200903", "deductibility": "1", "assets": 1261595, "income": 6560017, "revenue": 6560017}, {"ein": "334944427", "name": "MANHATTAN SHOMRIM SAFETY PATROL", "city": "BROOKLYN", "state": "NY", "zip": "11228-1004", "ntee": "M60", "ruling": "202506", "deductibility": "1", "assets": 0, "income": 0, "revenue": 0}, {"ein": "383870699", "name": "AUTO CLUB OF WESTERN & CENTRAL NY FOUNDATION FOR TRAFFIC SAFETY INC", "city": "WILLIAMSVILLE", "state": "NY", "zip": "14221-5757", "ntee": "M03", "ruling": "201206", "deductibility": "1", "assets": 0, "income": 0, "revenue": 0}, {"ein": "460924101", "name": "ROCKAWAY CITIZENS SAFETY PATROL INC", "city": "CEDARHURST", "state": "NY", "zip": "11516-0122", "ntee": "I99", "ruling": "201406", "deductibility": "1", "assets": 242176, "income": 462432, "revenue": 462432}, {"ein": "461556094", "name": "PAK AMERICAN SAFETY PATROL INC", "city": "BROOKLYN", "state": "NY", "zip": "11230-1401", "ntee": "S20", "ruling": "201609", "deductibility": "1", "assets": 0, "income": 0, "revenue": 0}, {"ein": "464552234", "name": "LETS TALK SAFETY INC", "city": "NEW YORK", "state": "NY", "zip": "10027-4805", "ntee": "P99", "ruling": "201409", "deductibility": "1", "assets": 679481, "income": 827520, "revenue": 827520}, {"ein": "464818178", "name": "MOUNTAIN OF FIRE AND MIRACLES MINISTRIES ARK OF SAFETY", "city": "BROOKLYN", "state": "NY", "zip": "11236-2803", "ntee": "X20", "ruling": "201509", "deductibility": "1", "assets": 0, "income": 0, "revenue": 0}, {"ein": "471090772", "name": "EMPIRE STATE MOTORCYCLE SAFETY EDUCATION PROGRAM INC", "city": "ROCKVILLE CTR", "state": "NY", "zip": "11570-5945", "ntee": "M42", "ruling": "201501", "deductibility": "1", "assets": 0, "income": 0, "revenue": 0}, {"ein": "471547546", "name": "PARTICIPATORY SAFETY INC", "city": "NEW YORK", "state": "NY", "zip": "10036-4319", "ntee": "A90", "ruling": "201501", "deductibility": "1", "assets": 143126, "income": 333575, "revenue": 333575}, {"ein": "471936436", "name": "NORTHEAST NEW YORK COALITION FOR OCCUPATIONAL SAFETY AND HEALTH INC", "city": "ALBANY", "state": "NY", "zip": "12203-8098", "ntee": "M40", "ruling": "201410", "deductibility": "1", "assets": 104238, "income": 189464, "revenue": 0}, {"ein": "472198047", "name": "LOCAL 33 SAFETY PROFESSIONALS OF AMERICA", "city": "HOWARD BEACH", "state": "NY", "zip": "11414-1709", "ntee": "J40", "ruling": "201503", "deductibility": "2", "assets": 20876, "income": 15123, "revenue": 15123}, {"ein": "472883583", "name": "ASHES ADVOCATING SAFETY IN HEALTHCARE E-SISTERS INC", "city": "TANNERSVILLE", "state": "NY", "zip": "12485-0309", "ntee": "B01", "ruling": "201502", "deductibility": "1", "assets": 0, "income": 0, "revenue": 0}, {"ein": "474484412", "name": "FULTON COUNTY NY PUBLIC SAFETY FOUNDATION", "city": "MAYFIELD", "state": "NY", "zip": "12117-0099", "ntee": "M99", "ruling": "201601", "deductibility": "1", "assets": 0, "income": 0, "revenue": 0}, {"ein": "475217900", "name": "CONSTRUCTION SAFETY ADVISORY COMMITTEE OF NEW YORK INC", "city": "LONG ISLAND CITY", "state": "NY", "zip": "11101-1702", "ntee": "S41", "ruling": "201808", "deductibility": "2", "assets": 48214, "income": 35500, "revenue": 35500}, {"ein": "475262447", "name": "LOCAL 33 SAFETY PROFESSIONALS OF AMERICA- HEALTH FUND", "city": "HOWARD BEACH", "state": "NY", "zip": "11414-1791", "ntee": "Y43", "ruling": "202307", "deductibility": "2", "assets": 25311, "income": 22062, "revenue": 22062}, {"ein": "510151311", "name": "ELECTRICAL EMPLOYERS SELF INSURANCE SAFETY PLAN", "city": "FLUSHING", "state": "NY", "zip": "11365-3085", "ntee": "", "ruling": "198408", "deductibility": "2", "assets": 318681579, "income": 212980175, "revenue": 96402737}, {"ein": "510547499", "name": "SEHSA ENVIRONMENTAL HEALTH & SAFETY ASSOCIATION OF NEW YORK INC", "city": "STONY BROOK", "state": "NY", "zip": "11794-6200", "ntee": "B990", "ruling": "200906", "deductibility": "1", "assets": 62815, "income": 16576, "revenue": 16576}, {"ein": "541909206", "name": "NATIONAL RADON SAFETY BOARD", "city": "ELMSFORD", "state": "NY", "zip": "10523-2502", "ntee": "S40", "ruling": "201111", "deductibility": "2", "assets": 0, "income": 0, "revenue": 0}, {"ein": "550884999", "name": "WORLDWIDE FERRY SAFETY ASSOCIATION", "city": "BROOKLYN", "state": "NY", "zip": "11201-4158", "ntee": "W40", "ruling": "201303", "deductibility": "1", "assets": 1000, "income": 15700, "revenue": 15700}, {"ein": "562616434", "name": "SAFETY IN ANESTHESIA FOUNDATION INC", "city": "HARRISON", "state": "NY", "zip": "10528-2436", "ntee": "B990", "ruling": "200706", "deductibility": "1", "assets": 1, "income": 0, "revenue": 0}, {"ein": "591427054", "name": "SAFETY GLAZING CERTIFICATION COUNCIL INC", "city": "SACKETS HBR", "state": "NY", "zip": "13685-0730", "ntee": "E73Z", "ruling": "197310", "deductibility": "1", "assets": 3837987, "income": 4118836, "revenue": 4118836}, {"ein": "611717777", "name": "GREATER SYRACUSE COUNCIL ON OCCUPATIONAL SAFETY AND HEALTH INC", "city": "SYRACUSE", "state": "NY", "zip": "13204-0000", "ntee": "P20", "ruling": "201408", "deductibility": "1", "assets": 4657, "income": 116241, "revenue": 116241}, {"ein": "660907102", "name": "USVI PUBLIC SAFETY SUPPORT FOUNDATION INC", "city": "NEW YORK", "state": "NY", "zip": "10150-1510", "ntee": "M40", "ruling": "201910", "deductibility": "1", "assets": 0, "income": 0, "revenue": 0}, {"ein": "800333461", "name": "EAST HAMPTON VILLAGE PUBLIC SAFETY DISPATCHER ASS", "city": "EAST HAMPTON", "state": "NY", "zip": "11937-2200", "ntee": "J40", "ruling": "201305", "deductibility": "2", "assets": 0, "income": 0, "revenue": 0}, {"ein": "800618724", "name": "FELLOWSHIP FOR CAMPUS SAFETY AND INTEGRITY INC", "city": "AIRMONT", "state": "NY", "zip": "10952-4514", "ntee": "R60", "ruling": "201209", "deductibility": "1", "assets": 0, "income": 0, "revenue": 0}, {"ein": "810865847", "name": "QUEENS BOROUGH SAFETY PATROL QBSP INC", "city": "FOREST HILLS", "state": "NY", "zip": "11375-1048", "ntee": "M99", "ruling": "201607", "deductibility": "1", "assets": 57266, "income": 7259, "revenue": 7259}, {"ein": "812724260", "name": "ROCKLAND TRAFFIC SAFETY BOARD FOUNDATION INC", "city": "BARDONIA", "state": "NY", "zip": "10954-1614", "ntee": "B90", "ruling": "201702", "deductibility": "1", "assets": 0, "income": 0, "revenue": 0}, {"ein": "825207118", "name": "NYC BUILDING AND CONSTRUCTION INDUSTRY SAFETY FUND", "city": "NEW YORK", "state": "NY", "zip": "10016-7390", "ntee": "S12", "ruling": "201902", "deductibility": "1", "assets": 871125, "income": 296253, "revenue": 248358}, {"ein": "830688412", "name": "WELLNESS INSTITUTE FOR PUBLIC SAFETY INC", "city": "FLUSHING", "state": "NY", "zip": "11358-1316", "ntee": "H05", "ruling": "201806", "deductibility": "1", "assets": 1, "income": 1, "revenue": 0}, {"ein": "831274506", "name": "SUNY COMMUNITY COLLEGE PUBLIC SAFETY ADMINISTRATORS ASSOCIATION", "city": "QUEENSBURY", "state": "NY", "zip": "12804-1445", "ntee": "I03", "ruling": "202003", "deductibility": "1", "assets": 0, "income": 0, "revenue": 0}, {"ein": "831429773", "name": "TRUE NORTH PATIENT SAFETY ORGANIZATION INC", "city": "WESTBURY", "state": "NY", "zip": "11590-1740", "ntee": "E19", "ruling": "201908", "deductibility": "1", "assets": 1, "income": 0, "revenue": 0}, {"ein": "833595752", "name": "DOCTORS 4 GUN SAFETY INC", "city": "MANHASSET", "state": "NY", "zip": "11030-1027", "ntee": "B01", "ruling": "201903", "deductibility": "1", "assets": 0, "income": 0, "revenue": 0}, {"ein": "834685393", "name": "NATIONAL SAFETY AND SECURITY PROTECTION ASSOCIATION INC", "city": "SYRACUSE", "state": "NY", "zip": "13206-2276", "ntee": "M40", "ruling": "201911", "deductibility": "1", "assets": 0, "income": 0, "revenue": 0}, {"ein": "842704107", "name": "INTERNATIONAL ROAD SAFETY INITIATIVE IROSI INC", "city": "GARRISON", "state": "NY", "zip": "10524-7406", "ntee": "M42", "ruling": "201910", "deductibility": "1", "assets": 0, "income": 0, "revenue": 0}, {"ein": "842725496", "name": "EMPIRE STATE SAFETY ASSOCIATION", "city": "OSWEGO", "state": "NY", "zip": "13126-2118", "ntee": "M40", "ruling": "202207", "deductibility": "1", "assets": 21959, "income": 13063, "revenue": 13063}, {"ein": "843980866", "name": "COMMUNITY ALLIANCE FOR PEACE EDUCATION AND SAFETY CORP", "city": "KINGSTON", "state": "NY", "zip": "12401-7451", "ntee": "B12", "ruling": "202004", "deductibility": "1", "assets": 0, "income": 0, "revenue": 0}, {"ein": "846958744", "name": "LONG ISLAND SAFETY PPE FUND TR", "city": "HAUPPAUGE", "state": "NY", "zip": "11788-2024", "ntee": "", "ruling": "202205", "deductibility": "0", "assets": 301490, "income": 686645, "revenue": 338688}, {"ein": "853419800", "name": "716 PROMOTING ANIMAL WELFARE & SAFETY INC", "city": "AMHERST", "state": "NY", "zip": "14226-4803", "ntee": "D20", "ruling": "202012", "deductibility": "1", "assets": 70720, "income": 391337, "revenue": 381066}, {"ein": "853422155", "name": "NEIGHBORHOOD YOUTH COUNCIL FOR PUBLIC SAFETY & HEALTH INC", "city": "BROOKLYN", "state": "NY", "zip": "11203-5637", "ntee": "O50", "ruling": "202102", "deductibility": "1", "assets": 0, "income": 0, "revenue": 0}, {"ein": "853660526", "name": "PATIENT SAFETY FOUNDATION INC", "city": "NEW YORK", "state": "NY", "zip": "10025-2424", "ntee": "E02", "ruling": "202102", "deductibility": "1", "assets": 0, "income": 0, "revenue": 0}, {"ein": "862252925", "name": "SAFETY SAINTS INC", "city": "NEW YORK", "state": "NY", "zip": "10013-1444", "ntee": "M99", "ruling": "202106", "deductibility": "1", "assets": 49122, "income": 190886, "revenue": 190886}, {"ein": "863636162", "name": "SAFETY CONSULTANT PROS INC", "city": "S OZONE PARK", "state": "NY", "zip": "11420-3614", "ntee": "Z99", "ruling": "202108", "deductibility": "1", "assets": 0, "income": 0, "revenue": 0}, {"ein": "871163426", "name": "CATSKILLS SHMIRA PUBLIC SAFETY INC", "city": "BROOKLYN", "state": "NY", "zip": "11219-1449", "ntee": "I20", "ruling": "202109", "deductibility": "1", "assets": 0, "income": 0, "revenue": 0}, {"ein": "871261996", "name": "TRADESMEN SAFETY TRAINING INC", "city": "N BELLMORE", "state": "NY", "zip": "11710-1603", "ntee": "I40", "ruling": "202109", "deductibility": "1", "assets": 0, "income": 0, "revenue": 0}, {"ein": "873002669", "name": "POMONA PUBLIC SAFETY INC", "city": "POMONA", "state": "NY", "zip": "10970-7500", "ntee": "S20", "ruling": "202112", "deductibility": "1", "assets": 109719, "income": 136489, "revenue": 136489}, {"ein": "873188679", "name": "FIRE-EMS SAFETY OFFICERS ASSOCIATION OF NEW YORK STATE", "city": "SELDEN", "state": "NY", "zip": "11784-1767", "ntee": "M40", "ruling": "202201", "deductibility": "1", "assets": 44684, "income": 71428, "revenue": 64333}, {"ein": "882150639", "name": "ASIAN AMERICAN COMMUNITY SAFETY FOUNDATION INC", "city": "BROOKLYN", "state": "NY", "zip": "11214-3735", "ntee": "A20", "ruling": "202206", "deductibility": "1", "assets": 0, "income": 0, "revenue": 0}, {"ein": "922679141", "name": "PUBLIC SAFETY PATROL NYC INC", "city": "FLUSHING", "state": "NY", "zip": "11355-3421", "ntee": "M99", "ruling": "202304", "deductibility": "1", "assets": 0, "income": 0, "revenue": 0}, {"ein": "923167342", "name": "EDUCATION AND SAFETY ALLIANCE FOR GIRLS INC", "city": "KINGS PARK", "state": "NY", "zip": "11754-3301", "ntee": "P30", "ruling": "202304", "deductibility": "1", "assets": 8859, "income": 43920, "revenue": 43920}, {"ein": "932061665", "name": "FLATBUSH SHMIRA PUBLIC SAFETY INC", "city": "BROOKLYN", "state": "NY", "zip": "11234-4437", "ntee": "M23", "ruling": "202307", "deductibility": "1", "assets": 0, "income": 0, "revenue": 0}, {"ein": "932475060", "name": "MATZILEI AISH FIRE SAFETY GROUP INC", "city": "SPRING VALLEY", "state": "NY", "zip": "10977-3837", "ntee": "M40", "ruling": "202309", "deductibility": "1", "assets": 0, "income": 0, "revenue": 0}, {"ein": "933605328", "name": "MATERNAL AND ADOLESCENT HEALTH SAFETY ALLIANCE INC", "city": "BROOKLYN", "state": "NY", "zip": "11215-6357", "ntee": "E40", "ruling": "202310", "deductibility": "1", "assets": 0, "income": 0, "revenue": 0}, {"ein": "934873046", "name": "A CULTURE OF SAFETY ALLIANCE INC", "city": "NEW YORK", "state": "NY", "zip": "10018-1618", "ntee": "M40", "ruling": "202404", "deductibility": "1", "assets": 0, "income": 0, "revenue": 0}, {"ein": "990438286", "name": "KRYSTAL & BELLA FOUNDATION FOR POSTPARTUM SAFETY & SUPPORT CORP", "city": "ALBANY", "state": "NY", "zip": "12207-2834", "ntee": "P12", "ruling": "202402", "deductibility": "1", "assets": 0, "income": 0, "revenue": 0}, {"ein": "990605987", "name": "GREAT NECK SAFETY PATROL CORP", "city": "GREAT NECK", "state": "NY", "zip": "11023-1309", "ntee": "I20", "ruling": "202410", "deductibility": "1", "assets": 0, "income": 0, "revenue": 0}, {"ein": "991074018", "name": "RUSH AND HENRIETTA COMMUNITY HEALTH & SAFETY COALITION INC", "city": "PITTSFORD", "state": "NY", "zip": "14534-2546", "ntee": "E70", "ruling": "202501", "deductibility": "1", "assets": 0, "income": 0, "revenue": 0}, {"ein": "993041518", "name": "CSEA UNIT 886-850904 SCHENECTADY CSD SAFETY OFFICERS", "city": "SCOTIA", "state": "NY", "zip": "12302-1933", "ntee": "", "ruling": "197007", "deductibility": "2", "assets": 0, "income": 0, "revenue": 0}, {"ein": "994289873", "name": "PECKSLIP ADVOCATES FOR SCHOOL SAFETY INC", "city": "NEW YORK", "state": "NY", "zip": "10038-1816", "ntee": "B94", "ruling": "202408", "deductibility": "1", "assets": 11070, "income": 50120, "revenue": 50120}], "RUGGED": [{"ein": "112535989", "name": "RUGGED CROSS CHURCH OF PRAYER FOR ALL PEOPLE INC", "city": "JAMAICA", "state": "NY", "zip": "11434-1526", "ntee": "", "ruling": "198008", "deductibility": "1", "assets": 0, "income": 0, "revenue": 0}, {"ein": "112924043", "name": "RUGGED CROSS BAPTIST CHURCH", "city": "BROOKLYN", "state": "NY", "zip": "11221-0465", "ntee": "", "ruling": "199003", "deductibility": "1", "assets": 1210808, "income": 245632, "revenue": 245632}, {"ein": "113369805", "name": "GREATER RUGGED CROSS MISSIONARY BAPTIST CHURCH INC", "city": "BROOKLYN", "state": "NY", "zip": "11216-2530", "ntee": "X20", "ruling": "199901", "deductibility": "1", "assets": 0, "income": 0, "revenue": 0}], "GYNECOLOGY": [{"ein": "112569522", "name": "UNIVERSITY ASSOCIATES IN OBSTETRICS & GYNECOLOGY P C", "city": "STONY BROOK", "state": "NY", "zip": "11790-0988", "ntee": "E20", "ruling": "200802", "deductibility": "1", "assets": 2926011, "income": 100096529, "revenue": 100096529}, {"ein": "113124294", "name": "PARK SLOPE OBSTETRICS & GYNECOLOGY P C", "city": "BROOKLYN", "state": "NY", "zip": "11215-3609", "ntee": "E30", "ruling": "199909", "deductibility": "1", "assets": 500, "income": 0, "revenue": 0}, {"ein": "821883445", "name": "BRIGHTWATERS GYNECOLOGY PC", "city": "WESTBURY", "state": "NY", "zip": "11590-1740", "ntee": "E11", "ruling": "201811", "deductibility": "1", "assets": 96233, "income": 4855891, "revenue": 4855891}], "SHEMEN": [{"ein": "112635951", "name": "CONGREGATION SHEMEN ROKEACH", "city": "BROOKLYN", "state": "NY", "zip": "11211-7911", "ntee": "", "ruling": "198605", "deductibility": "1", "assets": 0, "income": 0, "revenue": 0}, {"ein": "333147853", "name": "CONGREGATION SHEMEN LMOER", "city": "BROOKLYN", "state": "NY", "zip": "11205-5347", "ntee": "X30", "ruling": "202502", "deductibility": "1", "assets": 0, "income": 0, "revenue": 0}], "ROMAIN": [{"ein": "112708250", "name": "ELLA BAKER CHARLES ROMAIN CHILD DEVELOPMENT CENTER", "city": "BROOKLYN", "state": "NY", "zip": "11225-2201", "ntee": "B21", "ruling": "200401", "deductibility": "1", "assets": 604707, "income": 680002, "revenue": 680002}], "DEMOCR": [{"ein": "112945216", "name": "THE NEW YORK INSTITUTE FOR THE ADVACEMENT OF PARTICIPATORY DEMOCR", "city": "STATEN ISLAND", "state": "NY", "zip": "10302-2437", "ntee": "", "ruling": "198904", "deductibility": "1", "assets": 0, "income": 0, "revenue": 0}], "SEUNG": [{"ein": "113088605", "name": "SCHION SEUNG KOREAN PRESBYTERIAN CHURCH OF N Y", "city": "FRESH MEADOWS", "state": "NY", "zip": "11365-2123", "ntee": "", "ruling": "199306", "deductibility": "1", "assets": 0, "income": 0, "revenue": 0}], "TOOL": [{"ein": "113105790", "name": "CLOTHING & TOOL FUND OF THE ELECTRICAL INDUSTRY TR", "city": "FLUSHING", "state": "NY", "zip": "11365-3085", "ntee": "", "ruling": "199503", "deductibility": "2", "assets": 1076176, "income": 62744, "revenue": 62744}, {"ein": "166014301", "name": "ALLIANCE TOOL & MOLD ED FDN TR", "city": "ROCHESTER", "state": "NY", "zip": "14692-2900", "ntee": "", "ruling": "197012", "deductibility": "0", "assets": 0, "income": 0, "revenue": 0}, {"ein": "823550585", "name": "TOOL LIBRARY INC", "city": "BUFFALO", "state": "NY", "zip": "14214-2016", "ntee": "S20", "ruling": "201802", "deductibility": "1", "assets": 406731, "income": 247788, "revenue": 240805}], "ANCIANOS": [{"ein": "113198278", "name": "PLAZA DE LOS ANCIANOS DE WILSON HOUSING DEVELOPMENT FUND CO INC", "city": "BROOKLYN", "state": "NY", "zip": "11206-4628", "ntee": "L20Z", "ruling": "199505", "deductibility": "1", "assets": 2829377, "income": 1252443, "revenue": 1252443}, {"ein": "842642899", "name": "AMIGOS DEL HOGAR DE ANCIANOS ISRAELITA DEL URUGUAY INC", "city": "NEW YORK", "state": "NY", "zip": "10178-3499", "ntee": "P30", "ruling": "202005", "deductibility": "1", "assets": 1150257, "income": 603888, "revenue": 603888}], "GREGORIAN": [{"ein": "113292652", "name": "PAN GREGORIAN FUND OF METRO N Y AND L I INC", "city": "ASTORIA", "state": "NY", "zip": "11105-1949", "ntee": "A23", "ruling": "202311", "deductibility": "1", "assets": 0, "income": 0, "revenue": 0}, {"ein": "141790739", "name": "PAN GREGORIAN ENTERPRISES CHARITABLE FOUNDATION OF UPPER NEW", "city": "FISHKILL", "state": "NY", "zip": "12524-4201", "ntee": "T125", "ruling": "200012", "deductibility": "1", "assets": 95077, "income": 34673, "revenue": 34673}], "EIRGUN": [{"ein": "113405224", "name": "EIRGUN BARUCH U MARPEH", "city": "BROOKLYN", "state": "NY", "zip": "11219-2021", "ntee": "X30Z", "ruling": "199803", "deductibility": "1", "assets": 0, "income": 0, "revenue": 0}], "FD": [{"ein": "113454480", "name": "ROTARY CLUB OF NORTHPORT NEW YORK CHARITY FD INC", "city": "NORTHPORT", "state": "NY", "zip": "11768-0000", "ntee": "S82", "ruling": "199912", "deductibility": "1", "assets": 164652, "income": 141101, "revenue": 76224}, {"ein": "116490308", "name": "INTERNATIONAL BROTHERHOOD OF TRADE UNIONS HEALTH & WELFARE FD TR", "city": "CARLE PLACE", "state": "NY", "zip": "11514-1748", "ntee": "Y430", "ruling": "199904", "deductibility": "2", "assets": 48514654, "income": 243911891, "revenue": 207214422}, {"ein": "133116740", "name": "TTEE FD FOR THE BLIND OF VOCATIONS & COMMUNITY SERVICES FOR THE BLIND", "city": "NEW YORK", "state": "NY", "zip": "10013-2362", "ntee": "", "ruling": "198210", "deductibility": "0", "assets": 191670, "income": 57207, "revenue": 0}, {"ein": "133538907", "name": "DEATH BNFT FD OF VLNTR AND EXEMPT FRMNS BNVLNT ASSN OF PLSNTVLLE TR", "city": "PLEASANTVILLE", "state": "NY", "zip": "10570-0432", "ntee": "", "ruling": "199108", "deductibility": "2", "assets": 0, "income": 0, "revenue": 0}, {"ein": "133854497", "name": "EQUITY-LORT SUBSIDIARY RIGHTS TR FD II", "city": "NEW YORK", "state": "NY", "zip": "10036-2508", "ntee": "", "ruling": "199607", "deductibility": "2", "assets": 0, "income": 0, "revenue": 0}, {"ein": "137118118", "name": "GELFOND FAM FD", "city": "NEW YORK", "state": "NY", "zip": "10128-0144", "ntee": "T20J", "ruling": "199706", "deductibility": "1", "assets": 1316596, "income": 512889, "revenue": 0}, {"ein": "146099201", "name": "ALFRED N JOHNSON MEM FD UW", "city": "ITHACA", "state": "NY", "zip": "14851-6437", "ntee": "", "ruling": "197710", "deductibility": "1", "assets": 782943, "income": 851983, "revenue": 0}, {"ein": "156018065", "name": "COE W H MED & SURG FD ED", "city": "ITHACA", "state": "NY", "zip": "14851-6437", "ntee": "", "ruling": "000000", "deductibility": "1", "assets": 369991, "income": 433752, "revenue": 0}, {"ein": "161500669", "name": "IRON WORKERS LOCAL UNION NO 60 SUPL BENEFIT PL AND TR WEL FD", "city": "SYRACUSE", "state": "NY", "zip": "13204-2302", "ntee": "", "ruling": "199612", "deductibility": "2", "assets": 17226321, "income": 4151837, "revenue": 3291628}, {"ein": "166024150", "name": "WM J MOORE TRUST FD NY 28-2-0406-0 MARINE MIDLAND", "city": "OLEAN", "state": "NY", "zip": "14760-2738", "ntee": "", "ruling": "000000", "deductibility": "0", "assets": 554524, "income": 63880, "revenue": 24267}, {"ein": "166088537", "name": "GEORGE J HALLER TR FD", "city": "BUFFALO", "state": "NY", "zip": "14240-1504", "ntee": "", "ruling": "000000", "deductibility": "0", "assets": 435732, "income": 62919, "revenue": 20286}, {"ein": "200870866", "name": "NORTH SHORE SCHOOLS FEDERATED EMPLOYEES BENEFIT TRUST FD", "city": "GLEN HEAD", "state": "NY", "zip": "11545-1839", "ntee": "Y43", "ruling": "200606", "deductibility": "2", "assets": 591496, "income": 683051, "revenue": 683051}, {"ein": "226803017", "name": "TRI-VALLEY TEACHERS ASSOCIATION WELFARE TR FD", "city": "GRAHAMSVILLE", "state": "NY", "zip": "12740-0302", "ntee": "Y43", "ruling": "200007", "deductibility": "2", "assets": 352952, "income": 168360, "revenue": 168360}, {"ein": "237121764", "name": "BRICKLAYERS & ALLIED CRAFTSMEN ALBANY NY TRAINING & EDUCATION FD", "city": "ALBANY", "state": "NY", "zip": "12203-4474", "ntee": "", "ruling": "197202", "deductibility": "2", "assets": 1002225, "income": 704388, "revenue": 510931}, {"ein": "237851151", "name": "EDWARD & ALICE MCLAUGHLIN SCH FD TR", "city": "AMHERST", "state": "NY", "zip": "14228-2307", "ntee": "B82Z", "ruling": "199704", "deductibility": "1", "assets": 111094, "income": 29672, "revenue": 0}, {"ein": "256164956", "name": "CHARLES JOSHUA RIBBLET TRUST FD B TEST TR FBO ALLEGHENY LUTH HOME", "city": "BUFFALO", "state": "NY", "zip": "14240-1504", "ntee": "T20", "ruling": "200506", "deductibility": "1", "assets": 237590, "income": 64307, "revenue": 0}, {"ein": "277117405", "name": "ELSIE & MARJORIE GREEN MEMORIAL FD", "city": "BUFFALO", "state": "NY", "zip": "14240-1504", "ntee": "D11", "ruling": "201208", "deductibility": "1", "assets": 446661, "income": 136054, "revenue": 0}, {"ein": "811965620", "name": "NEWBURGH FD PIPE & DRUM CORP", "city": "MIDDLETOWN", "state": "NY", "zip": "10940-4112", "ntee": "A6C", "ruling": "201609", "deductibility": "1", "assets": 0, "income": 0, "revenue": 0}, {"ein": "852226222", "name": "SUFFOLK CTY ASSN MUN EMPLOYEES SUPPLEMENT BENEFITS FD TR", "city": "BOHEMIA", "state": "NY", "zip": "11716-2513", "ntee": "Y43", "ruling": "202104", "deductibility": "2", "assets": 13348500, "income": 3508500, "revenue": 3508500}, {"ein": "933322370", "name": "FD-GJW FOUNDATION INC", "city": "MIDDLETOWN", "state": "NY", "zip": "10940-6265", "ntee": "W11", "ruling": "202402", "deductibility": "1", "assets": 0, "income": 0, "revenue": 0}], "224TH": [{"ein": "113496435", "name": "224TH-225TH STREET BLOCK ASSOCIATION OF LAURELTON", "city": "LAURELTON", "state": "NY", "zip": "11413-1727", "ntee": "S22", "ruling": "199909", "deductibility": "2", "assets": 0, "income": 0, "revenue": 0}], "SMYRNA": [{"ein": "113496451", "name": "SMYRNA TABERNACLE DELIVERANCE CENTER INC", "city": "LAURELTON", "state": "NY", "zip": "11413-2940", "ntee": "X21", "ruling": "200405", "deductibility": "1", "assets": 0, "income": 0, "revenue": 0}, {"ein": "134126822", "name": "PENTECOSTAL SMYRNA CHURCH OF GOD", "city": "BRONX", "state": "NY", "zip": "10455-0000", "ntee": "X20", "ruling": "200103", "deductibility": "1", "assets": 0, "income": 0, "revenue": 0}, {"ein": "222717120", "name": "SMYRNA PUBLIC LIBRARY", "city": "SMYRNA", "state": "NY", "zip": "13464-0000", "ntee": "", "ruling": "198609", "deductibility": "1", "assets": 0, "income": 0, "revenue": 0}], "FULLNESS": [{"ein": "113521718", "name": "FULLNESS OF JOY MINISTRIES INC", "city": "ST ALBANS", "state": "NY", "zip": "11412-2425", "ntee": "X20", "ruling": "200409", "deductibility": "1", "assets": 0, "income": 0, "revenue": 0}, {"ein": "161552321", "name": "FULLNESS OF JESUS CHRIST MINISTRIES INC", "city": "BINGHAMTON", "state": "NY", "zip": "13901-2408", "ntee": "X20", "ruling": "199903", "deductibility": "1", "assets": 0, "income": 0, "revenue": 0}, {"ein": "237010470", "name": "FULLNESS OF GOD REVIVALS", "city": "BROOKLYN", "state": "NY", "zip": "11206-6501", "ntee": "", "ruling": "196903", "deductibility": "1", "assets": 0, "income": 0, "revenue": 0}, {"ein": "841764180", "name": "FULLNESS WORLD CHRISTIAN CENTER INC", "city": "LONG ISLAND CITY", "state": "NY", "zip": "11101-2243", "ntee": "", "ruling": "202009", "deductibility": "1", "assets": 0, "income": 0, "revenue": 0}], "JIA": [{"ein": "113522310", "name": "JIA CHARITABLE FOUNDATION", "city": "MONSEY", "state": "NY", "zip": "10952-1422", "ntee": "T22", "ruling": "200003", "deductibility": "1", "assets": 176034, "income": 537150, "revenue": 0}, {"ein": "872932458", "name": "JIA AND WANG VISION FOUNDATION", "city": "NEW YORK", "state": "NY", "zip": "10065-8453", "ntee": "T20", "ruling": "202207", "deductibility": "1", "assets": 1999161, "income": 2294006, "revenue": 0}, {"ein": "873085557", "name": "JIA HE WAN SHI XING CORPORATION", "city": "STATEN ISLAND", "state": "NY", "zip": "10306-5309", "ntee": "K35", "ruling": "202201", "deductibility": "1", "assets": 0, "income": 0, "revenue": 0}], "MCCORMICK": [{"ein": "113532010", "name": "MCCORMICK FAMILY FOUNDATION", "city": "NEW YORK", "state": "NY", "zip": "10017-3629", "ntee": "T20", "ruling": "200110", "deductibility": "1", "assets": 14057663, "income": 2022698, "revenue": 0}, {"ein": "136144221", "name": "ANNE OHARE MCCORMICK MEMORIAL FUND INC", "city": "NEW YORK", "state": "NY", "zip": "10003-1705", "ntee": "", "ruling": "195703", "deductibility": "1", "assets": 392632, "income": 47518, "revenue": 0}, {"ein": "146089372", "name": "BERNARD W MCCORMICK SCHOLARSHIP FUND TR", "city": "ITHACA", "state": "NY", "zip": "14851-6437", "ntee": "", "ruling": "197508", "deductibility": "1", "assets": 427689, "income": 71944, "revenue": 0}, {"ein": "236216167", "name": "MARGARET O MCCORMICK CHARITABLE TR ET AL", "city": "BUFFALO", "state": "NY", "zip": "14240-1504", "ntee": "", "ruling": "199306", "deductibility": "1", "assets": 3609322, "income": 922514, "revenue": 0}, {"ein": "236471389", "name": "ANNE MCCORMICK TRUST UNDER WILL", "city": "AMHERST", "state": "NY", "zip": "14228-2307", "ntee": "", "ruling": "000000", "deductibility": "0", "assets": 7930345, "income": 1390698, "revenue": 0}, {"ein": "236508184", "name": "ANNE MCCORMICK TR U/W CHARITABLE PURPOSES", "city": "AMHERST", "state": "NY", "zip": "14228-2307", "ntee": "", "ruling": "197502", "deductibility": "0", "assets": 174334, "income": 53775, "revenue": 0}, {"ein": "236508188", "name": "VANCE C MCCORMICK TR U/W LOCAL CHARITIES", "city": "AMHERST", "state": "NY", "zip": "14228-2307", "ntee": "", "ruling": "197309", "deductibility": "0", "assets": 537960, "income": 115937, "revenue": 0}, {"ein": "236899585", "name": "MARGARET O MCCORMICK ET AL FBO HARRISBURG HOSPITAL", "city": "AMHERST", "state": "NY", "zip": "14228-2307", "ntee": "T22", "ruling": "200204", "deductibility": "1", "assets": 244593, "income": 55710, "revenue": 0}, {"ein": "300166827", "name": "MCCORMICK FAMILY FOUNDATION", "city": "BUFFALO", "state": "NY", "zip": "14240-1504", "ntee": "T22", "ruling": "200305", "deductibility": "1", "assets": 1160, "income": 569846, "revenue": 0}, {"ein": "457017732", "name": "DOUGLAS AND KATHERINE MCCORMICK FAMILY FOUNDATION", "city": "NEW YORK", "state": "NY", "zip": "10110-0000", "ntee": "T22", "ruling": "201302", "deductibility": "1", "assets": 7361, "income": 61685, "revenue": 0}], "CARGO": [{"ein": "116076993", "name": "INTERNATIONAL CARGO GEAR BUREAU INC", "city": "NEW YORK", "state": "NY", "zip": "10001-1862", "ntee": "", "ruling": "196608", "deductibility": "2", "assets": 519036, "income": 682702, "revenue": 682702}, {"ein": "135615188", "name": "NATIONAL CARGO BUREAU INC", "city": "NEW YORK", "state": "NY", "zip": "10038-5184", "ntee": "", "ruling": "195312", "deductibility": "2", "assets": 137303136, "income": 26090607, "revenue": 24111629}], "PARKING": [{"ein": "130654670", "name": "METROPOLITAIN PARKING ASSOCIATION INC", "city": "LYNBROOK", "state": "NY", "zip": "11563-3038", "ntee": "", "ruling": "194303", "deductibility": "2", "assets": 303841, "income": 632722, "revenue": 632722}, {"ein": "136303105", "name": "PARKING ENFORCEMENT AGENTS LOCAL 1182 CWA SECURITY BENEFIT FUND", "city": "MASPETH", "state": "NY", "zip": "11378-2532", "ntee": "", "ruling": "196910", "deductibility": "2", "assets": 6054880, "income": 8545179, "revenue": 6094765}, {"ein": "141763692", "name": "NEW YORK STATE PARKING AND TRANSPORTATION ASSOCIATION", "city": "AMHERST", "state": "NY", "zip": "14228-0000", "ntee": "", "ruling": "199506", "deductibility": "2", "assets": 22689, "income": 77506, "revenue": 77506}], "KENSICO": [{"ein": "131715053", "name": "KENSICO CEMETERY", "city": "VALHALLA", "state": "NY", "zip": "10595-1617", "ntee": "", "ruling": "196103", "deductibility": "1", "assets": 313301088, "income": 88063624, "revenue": 39162925}, {"ein": "133582509", "name": "PERPETUAL CARE TR FUND ADMINISTERED BY THE KENSICO CEMETERY AS TTEE", "city": "VALHALLA", "state": "NY", "zip": "10595-0007", "ntee": "", "ruling": "199012", "deductibility": "2", "assets": 66339129, "income": 35263333, "revenue": 5150264}, {"ein": "237348768", "name": "KENSICO LITTLE LEAGUE INC", "city": "VALHALLA", "state": "NY", "zip": "10595-0011", "ntee": "", "ruling": "196701", "deductibility": "1", "assets": 28825, "income": 106483, "revenue": 106483}, {"ein": "853219300", "name": "FRIENDS OF THE KENSICO CEMETERY INC", "city": "VALHALLA", "state": "NY", "zip": "10595-0007", "ntee": "Y11", "ruling": "202103", "deductibility": "1", "assets": 0, "income": 0, "revenue": 0}], "DASSERN": [{"ein": "132631083", "name": "JOSEPH M DASSERN HOUSING CORPORATION", "city": "DOBBS FERRY", "state": "NY", "zip": "10522-3600", "ntee": "", "ruling": "197202", "deductibility": "2", "assets": 2517851, "income": 1370806, "revenue": 1370806}], "SENTENCING": [{"ein": "132668080", "name": "CENTER FOR ALTERNATIVE SENTENCING AND EMPLOYMENT SERVICES INC", "city": "BROOKLYN", "state": "NY", "zip": "11201-5240", "ntee": "", "ruling": "197201", "deductibility": "1", "assets": 39025467, "income": 58851055, "revenue": 58851055}], "LATINOJUSTICE": [{"ein": "132722664", "name": "LATINOJUSTICE PRLDEF", "city": "NEW YORK", "state": "NY", "zip": "10115-0018", "ntee": "I80Z", "ruling": "197205", "deductibility": "1", "assets": 13198725, "income": 12278050, "revenue": 7608265}], "DGA": [{"ein": "132946883", "name": "DGA-PRODUCER ASSISTANT DIRECTOR TRAINING PROGRAM TRUST FUND", "city": "NEW YORK", "state": "NY", "zip": "10019-5909", "ntee": "", "ruling": "197004", "deductibility": "1", "assets": 3944399, "income": 1281661, "revenue": 0}], "THORPE": [{"ein": "132986206", "name": "THORPE HOUSING DEVELOPMENT FUND COMPANY INC", "city": "SPARKILL", "state": "NY", "zip": "10976-1000", "ntee": "L210", "ruling": "197907", "deductibility": "1", "assets": 14774881, "income": 4032178, "revenue": 4032178}, {"ein": "133830057", "name": "PARK AVENUE THORPE HOUSING DEVELOPMENT FUND CORPORATION", "city": "BRONX", "state": "NY", "zip": "10458-7535", "ntee": "L40", "ruling": "201712", "deductibility": "1", "assets": 855971, "income": 296425, "revenue": 296425}], "QUARTER": [{"ein": "132994964", "name": "FOURTH QUARTER CLUB INC", "city": "NEW CITY", "state": "NY", "zip": "10956-8575", "ntee": "N65", "ruling": "198002", "deductibility": "1", "assets": 0, "income": 0, "revenue": 0}, {"ein": "150579975", "name": "SHERBURNE QUARTER CEMETERY ASSOCIATION INC", "city": "SHERBURNE", "state": "NY", "zip": "13460-0194", "ntee": "", "ruling": "199703", "deductibility": "2", "assets": 843438, "income": 54924, "revenue": 51498}, {"ein": "161515358", "name": "EMPIRE STATE QUARTER HORSES YOUTH ASSOCIATION", "city": "PINE CITY", "state": "NY", "zip": "14871-9577", "ntee": "", "ruling": "199711", "deductibility": "2", "assets": 3455, "income": 4305, "revenue": 4305}, {"ein": "222583168", "name": "EMPIRE STATE QUARTER HORSE ASSOCIATION INCORPORATED", "city": "PINE CITY", "state": "NY", "zip": "14871-9577", "ntee": "", "ruling": "198702", "deductibility": "2", "assets": 33116, "income": 177276, "revenue": 177276}, {"ein": "352656191", "name": "NEW YORK STATE QUARTER HORSE ASSOCIATION INC", "city": "COBLESKILL", "state": "NY", "zip": "12043-0000", "ntee": "D99", "ruling": "202007", "deductibility": "2", "assets": 21975, "income": 133716, "revenue": 133666}, {"ein": "364695733", "name": "FRIENDS OF HUNTINGTON STATION LATIN QUARTER", "city": "HUNTINGTON", "state": "NY", "zip": "11743-1513", "ntee": "P20", "ruling": "201110", "deductibility": "1", "assets": 0, "income": 0, "revenue": 0}, {"ein": "831688684", "name": "THE FOUNDATION FOR THE NETHERLANDS JEWISH CULTURAL QUARTER INC", "city": "PORT WASHINGTON", "state": "NY", "zip": "11050-3767", "ntee": "T20", "ruling": "201909", "deductibility": "1", "assets": 59060, "income": 27555, "revenue": 0}, {"ein": "911890154", "name": "WESTERN NY QUARTER HORSE CLUB INC", "city": "LOCKPORT", "state": "NY", "zip": "14094-0000", "ntee": "K26", "ruling": "199907", "deductibility": "2", "assets": 75153, "income": 95718, "revenue": 89707}], "YISROES": [{"ein": "133060270", "name": "CONGREGATION AVODAS YISROES OF KOSNIZT INC", "city": "BROOKLYN", "state": "NY", "zip": "11211-7393", "ntee": "", "ruling": "198103", "deductibility": "1", "assets": 0, "income": 0, "revenue": 0}], "AUSTEN": [{"ein": "133248928", "name": "FRIENDS OF ALICE AUSTEN HOUSE INC", "city": "STATEN ISLAND", "state": "NY", "zip": "10305-2002", "ntee": "A54I", "ruling": "198505", "deductibility": "1", "assets": 954805, "income": 1235702, "revenue": 1235702}, {"ein": "134052244", "name": "AUSTEN-STOKES ANCIENT AMERICAS FOUNDATION INC", "city": "UPPER NYACK", "state": "NY", "zip": "10960-1205", "ntee": "T21", "ruling": "199906", "deductibility": "1", "assets": 1935250, "income": 1840916, "revenue": 0}, {"ein": "521150918", "name": "JANE AUSTEN SOCIETY OF N AMERICA", "city": "NEW YORK", "state": "NY", "zip": "10025-5584", "ntee": "", "ruling": "197907", "deductibility": "1", "assets": 2669450, "income": 682345, "revenue": 676238}], "FEAR": [{"ein": "133363064", "name": "FREEDOM FROM FEAR", "city": "STATEN ISLAND", "state": "NY", "zip": "10305-2246", "ntee": "F70", "ruling": "198811", "deductibility": "1", "assets": 5813, "income": 2465, "revenue": 2465}], "FORTGANG": [{"ein": "133387892", "name": "CHAIM J AND FAY R FORTGANG FAMILY FOUNDATION", "city": "BROOKLYN", "state": "NY", "zip": "11220-0000", "ntee": "", "ruling": "198702", "deductibility": "1", "assets": 454289, "income": 49789, "revenue": 0}], "WATN": [{"ein": "133577252", "name": "HARLOW G FARMER MEMORIA WATN-YMCA 24-295440", "city": "BUFFALO", "state": "NY", "zip": "14203-2842", "ntee": "", "ruling": "000000", "deductibility": "0", "assets": 0, "income": 0, "revenue": 0}], "COMMITTE": [{"ein": "133583858", "name": "TIMES SQUARE BUSINESS IMPROVEMENT DISTRICT COMMITTE INC", "city": "NEW YORK", "state": "NY", "zip": "10036-1537", "ntee": "S46Z", "ruling": "199106", "deductibility": "1", "assets": 0, "income": 0, "revenue": 0}, {"ein": "161126186", "name": "CANASTOTA COMMITTE FOR HUMAN DEVELOPMENT INC", "city": "CANASTOTA", "state": "NY", "zip": "13032-0043", "ntee": "P600", "ruling": "198006", "deductibility": "1", "assets": 410540, "income": 49345, "revenue": 49345}, {"ein": "204393253", "name": "JACK G BUNCHER CHARITABLE FUND FORTHE AMER JEWISH JOINT DIST COMMITTE", "city": "NEW YORK", "state": "NY", "zip": "10017-5833", "ntee": "T20", "ruling": "200706", "deductibility": "1", "assets": 15503520, "income": 1507567, "revenue": 1507567}, {"ein": "272148229", "name": "NASSAU COUNTY FEIS COMMITTE CORP", "city": "HUNTINGTON", "state": "NY", "zip": "11743-3848", "ntee": "A23", "ruling": "201409", "deductibility": "1", "assets": 0, "income": 0, "revenue": 0}, {"ein": "472194445", "name": "BROOKHAVEN TOWN VOLUNTEER FIREFIGHTERS MUSEUM TRUCK COMMITTE", "city": "RIDGE", "state": "NY", "zip": "11961-0367", "ntee": "A50", "ruling": "201704", "deductibility": "1", "assets": 57213, "income": 21527, "revenue": 21527}, {"ein": "611804501", "name": "JASHANA-EID-MILADUN NABI COMMITTE-LAKSP-CC1", "city": "FLUSHING", "state": "NY", "zip": "11367-0789", "ntee": "Q33", "ruling": "201711", "deductibility": "1", "assets": 1, "income": 6738, "revenue": 6738}], "SADAAT": [{"ein": "133588100", "name": "ANJUMAN WAZIFA SADAAT O MOMINEEN NORTH AMERICA INC", "city": "RONKONKOMA", "state": "NY", "zip": "11779-3140", "ntee": "", "ruling": "199110", "deductibility": "1", "assets": 3378557, "income": 706919, "revenue": 307729}], "DISTINGUISHED": [{"ein": "133643603", "name": "HEART TO HEART-AMERICAN JEWISH SOCIETY FOR DISTINGUISHED CHILDREN", "city": "BROOKLYN", "state": "NY", "zip": "11213-4333", "ntee": "F60", "ruling": "201803", "deductibility": "1", "assets": 0, "income": 0, "revenue": 0}, {"ein": "455351734", "name": "DISTINGUISHED GENTLEMEN GROUP", "city": "STATEN ISLAND", "state": "NY", "zip": "10301-3345", "ntee": "P20", "ruling": "201712", "deductibility": "1", "assets": 0, "income": 0, "revenue": 0}], "HAYESHIVOT": [{"ein": "133702251", "name": "KEREN HAYESHIVOT TRUST", "city": "BROOKLYN", "state": "NY", "zip": "11223-2830", "ntee": "T70J", "ruling": "199307", "deductibility": "1", "assets": 2606888, "income": 17960633, "revenue": 17960633}, {"ein": "831326237", "name": "KEREN HAYESHIVOT FUND INC", "city": "BROOKLYN", "state": "NY", "zip": "11223-2322", "ntee": "T99", "ruling": "202404", "deductibility": "1", "assets": 1860746, "income": 186, "revenue": 186}], "VOLPERT": [{"ein": "133802670", "name": "VOLPERT FOUNDATION", "city": "NEW YORK", "state": "NY", "zip": "10128-1316", "ntee": "T22Z", "ruling": "199602", "deductibility": "1", "assets": 688461, "income": 710501, "revenue": 0}], "JAVNE": [{"ein": "133852855", "name": "JAVNE FUND", "city": "JEFFERSON VLY", "state": "NY", "zip": "10535-1513", "ntee": "J32", "ruling": "199603", "deductibility": "1", "assets": 1443494, "income": 61355, "revenue": 61355}], "ROBY": [{"ein": "133932915", "name": "ROBY FOUNDATION", "city": "GARDEN CITY", "state": "NY", "zip": "11530-0000", "ntee": "T22Z", "ruling": "199703", "deductibility": "1", "assets": 15148, "income": 405, "revenue": 0}], "ZIEV": [{"ein": "133958504", "name": "CONGREGATION ZIEV HATORAH OF MONSEY INC", "city": "MONSEY", "state": "NY", "zip": "10952-0814", "ntee": "X30Z", "ruling": "199710", "deductibility": "1", "assets": 0, "income": 0, "revenue": 0}], "SHARONE": [{"ein": "133962232", "name": "SHARONE EDRIY MEMORIAL FUND INC", "city": "NEW YORK", "state": "NY", "zip": "10021-0000", "ntee": "I20", "ruling": "200001", "deductibility": "1", "assets": 25175, "income": 103079, "revenue": 103079}], "HADASS": [{"ein": "134016938", "name": "CONGREGATION ERSTER LUTOWISKA MACHZIKE HADASS", "city": "NEW YORK", "state": "NY", "zip": "10002-3508", "ntee": "X30Z", "ruling": "199809", "deductibility": "1", "assets": 0, "income": 0, "revenue": 0}], "YITZHAK": [{"ein": "134103767", "name": "AMERICAN FRIENDS OF BETH YITZHAK HALEVY TORAH CENTER", "city": "NEW YORK", "state": "NY", "zip": "10036-1803", "ntee": "X30", "ruling": "200005", "deductibility": "1", "assets": 14791, "income": 97124, "revenue": 97124}, {"ein": "264480026", "name": "BEER YITZHAK FOUNDATION INC", "city": "BROOKLYN", "state": "NY", "zip": "11234-5505", "ntee": "G11", "ruling": "200908", "deductibility": "1", "assets": 258091, "income": 542983, "revenue": 351773}, {"ein": "473032672", "name": "FRIENDS OF NER YITZHAK INC", "city": "BROOKLYN", "state": "NY", "zip": "11230-0000", "ntee": "T30", "ruling": "201506", "deductibility": "1", "assets": 155772, "income": 209982, "revenue": 209982}, {"ein": "812891190", "name": "YITZHAK YEHUDA BEN SHMAYA FOR THE GOOD OF OTHERS FOUNDATION", "city": "LAWRENCE", "state": "NY", "zip": "11559-1440", "ntee": "T30", "ruling": "202011", "deductibility": "1", "assets": 1245, "income": 25001, "revenue": 25001}], "WAITHE": [{"ein": "134140165", "name": "THISTLE WAITHE LEARNING CENTER INC", "city": "KATONAH", "state": "NY", "zip": "10536-1802", "ntee": "B99", "ruling": "200109", "deductibility": "1", "assets": 2618483, "income": 2095760, "revenue": 2095760}], "FITZGERALD": [{"ein": "134189179", "name": "THE CANTOR FITZGERALD RELIEF FUND", "city": "NEW YORK", "state": "NY", "zip": "10022-1304", "ntee": "M20", "ruling": "200109", "deductibility": "1", "assets": 23303518, "income": 8678581, "revenue": 8678581}, {"ein": "237332988", "name": "VETERANS FOREIGN WARS UNITED STATES DEPT NY 9255 FITZGERALD CHAPMAN", "city": "HYDE PARK", "state": "NY", "zip": "12538-1356", "ntee": "", "ruling": "197210", "deductibility": "1", "assets": 0, "income": 0, "revenue": 0}, {"ein": "463352390", "name": "HEATHER FITZGERALD SCHOLARSHIP FUND CORP", "city": "SOUTHAMPTON", "state": "NY", "zip": "11968-4049", "ntee": "B99", "ruling": "201405", "deductibility": "1", "assets": 0, "income": 0, "revenue": 0}, {"ein": "810666671", "name": "FITZGERALD HOUSE INC", "city": "BRONX", "state": "NY", "zip": "10453-4801", "ntee": "L40", "ruling": "201401", "deductibility": "1", "assets": 58136, "income": 118675, "revenue": 118675}, {"ein": "832915738", "name": "EILEEN N FITZGERALD SCHOLARSHIP INC", "city": "AURORA", "state": "NY", "zip": "13026-7702", "ntee": "B82", "ruling": "201903", "deductibility": "1", "assets": 0, "income": 0, "revenue": 0}], "ASSCIATION": [{"ein": "134194783", "name": "ROOSEVELT ISLAND VISUAL ART ASSCIATION INC", "city": "ROOSEVELT ISL", "state": "NY", "zip": "10044-0025", "ntee": "A40", "ruling": "200206", "deductibility": "1", "assets": 16071, "income": 95270, "revenue": 75009}], "IMITATION": [{"ein": "134358536", "name": "SISTERS OF THE IMITATION OF CHRIST UNITED STATES MISSION INC", "city": "NEW HYDE PARK", "state": "NY", "zip": "11040-3943", "ntee": "", "ruling": "194603", "deductibility": "1", "assets": 1523005, "income": 651292, "revenue": 651292}], "BENDHEIM": [{"ein": "136103769", "name": "CHARLES & ELS BENDHEIM FOUNDATION INC", "city": "WOODBURY", "state": "NY", "zip": "11797-2012", "ntee": "", "ruling": "194905", "deductibility": "1", "assets": 12572, "income": 3509, "revenue": 0}], "LAURENTS": [{"ein": "136114331", "name": "LAURENTS HATCHER FOUNDATION INC", "city": "RIVERHEAD", "state": "NY", "zip": "11901-2669", "ntee": "", "ruling": "196506", "deductibility": "1", "assets": 18465476, "income": 7234538, "revenue": 0}], "SPEYER": [{"ein": "136158848", "name": "THE SPEYER FAMILY FOUNDATION INC", "city": "NEW YORK", "state": "NY", "zip": "10111-0100", "ntee": "", "ruling": "196103", "deductibility": "1", "assets": 4139112, "income": 2289012, "revenue": 0}, {"ein": "264274070", "name": "SPEYER LEGACY SCHOOL", "city": "NEW YORK", "state": "NY", "zip": "10019-1109", "ntee": "B24", "ruling": "201003", "deductibility": "1", "assets": 56525157, "income": 24199770, "revenue": 23799253}, {"ein": "333011945", "name": "NORA SPEYER & SIDEO FROMBOLUTI FOUNDATION", "city": "BROOKLYN", "state": "NY", "zip": "11217-1908", "ntee": "T22", "ruling": "202505", "deductibility": "1", "assets": 0, "income": 0, "revenue": 0}], "PIERREPONT": [{"ein": "136167950", "name": "PIERREPONT MANOR CEMETERY ASSOCIATION", "city": "PIERREPNT MNR", "state": "NY", "zip": "13674-0784", "ntee": "Y50", "ruling": "201112", "deductibility": "1", "assets": 0, "income": 0, "revenue": 0}, {"ein": "156024907", "name": "PIERREPONT FIRE CORPORATION", "city": "CANTON", "state": "NY", "zip": "13617-3453", "ntee": "M24", "ruling": "200810", "deductibility": "1", "assets": 437914, "income": 128021, "revenue": 84245}, {"ein": "156026133", "name": "PIERREPONT HILL CEMETERY ASSOCIATION", "city": "CANTON", "state": "NY", "zip": "13617-3468", "ntee": "Y50", "ruling": "202106", "deductibility": "2", "assets": 0, "income": 0, "revenue": 0}, {"ein": "166441898", "name": "COLTON-PIERREPONT TEACHERS BENEFIT TRUST", "city": "COLTON", "state": "NY", "zip": "13625-7780", "ntee": "", "ruling": "199706", "deductibility": "2", "assets": 0, "income": 0, "revenue": 0}, {"ein": "474241449", "name": "TOWN OF PIERREPONT VETERANS MEMORIAL FUND", "city": "HANNAWA FALLS", "state": "NY", "zip": "13647-0000", "ntee": "T19", "ruling": "201608", "deductibility": "1", "assets": 0, "income": 0, "revenue": 0}, {"ein": "562325850", "name": "BROOKLYN QUEENS LONG ISLAND AHEC WEST ONE PIERREPONT PLAZA 12TH FL", "city": "CANTON", "state": "NY", "zip": "13617-1279", "ntee": "E21", "ruling": "200309", "deductibility": "1", "assets": 132927, "income": 257142, "revenue": 257142}], "FONSSAGRIVES": [{"ein": "137024539", "name": "LISA FONSSAGRIVES-PENN TR", "city": "ROCKEFELLER PLAZA NEW", "state": "NY", "zip": "10020-0000", "ntee": "", "ruling": "199401", "deductibility": "1", "assets": 792940, "income": 20028, "revenue": 0}], "OBSERVATORY": [{"ein": "141455417", "name": "DUDLEY OBSERVATORY", "city": "LOUDONVILLE", "state": "NY", "zip": "12211-1459", "ntee": "", "ruling": "194301", "deductibility": "1", "assets": 1807543, "income": 46005, "revenue": 46005}, {"ein": "161479196", "name": "BRADDOCK BAY BIRD OBSERVATORY INC", "city": "ROCHESTER", "state": "NY", "zip": "14612-0876", "ntee": "D32", "ruling": "199507", "deductibility": "1", "assets": 260730, "income": 28927, "revenue": 28927}, {"ein": "203431833", "name": "HAMPTONS OBSERVATORY INC", "city": "EAST HAMPTON", "state": "NY", "zip": "11937-0396", "ntee": "U31", "ruling": "200707", "deductibility": "1", "assets": 0, "income": 0, "revenue": 0}, {"ein": "454104640", "name": "CCAT OBSERVATORY INC", "city": "ITHACA", "state": "NY", "zip": "14853-0000", "ntee": "U31", "ruling": "201208", "deductibility": "1", "assets": 32585639, "income": 91034, "revenue": 91034}, {"ein": "454553680", "name": "GENOMIC OBSERVATORY INC", "city": "STATEN ISLAND", "state": "NY", "zip": "10314-6930", "ntee": "B60", "ruling": "201612", "deductibility": "1", "assets": 15833, "income": 150000, "revenue": 150000}, {"ein": "471456637", "name": "GLOBAL OBSERVATORY LINKING RESEARCH TO ACTION", "city": "NEW YORK", "state": "NY", "zip": "10016-0801", "ntee": "C05", "ruling": "201503", "deductibility": "1", "assets": 0, "income": 0, "revenue": 0}, {"ein": "770616930", "name": "ADIRONDACK PUBLIC OBSERVATORY INC", "city": "TUPPER LAKE", "state": "NY", "zip": "12986-0332", "ntee": "U31", "ruling": "200404", "deductibility": "1", "assets": 690101, "income": 234395, "revenue": 222923}, {"ein": "821870902", "name": "SACRED HEART MARIST OBSERVATORY INC", "city": "NEW YORK", "state": "NY", "zip": "10028-0009", "ntee": "Q11", "ruling": "201805", "deductibility": "1", "assets": 0, "income": 0, "revenue": 0}], "CARMEN": [{"ein": "146089242", "name": "WIETING MEMORIAL ASSOCIATION ATTN CARMEN CAIAZZA", "city": "WORCESTER", "state": "NY", "zip": "12197-0000", "ntee": "", "ruling": "198503", "deductibility": "1", "assets": 0, "income": 0, "revenue": 0}, {"ein": "452215138", "name": "CHABAD OF PLAYA DEL CARMEN", "city": "BROOKLYN", "state": "NY", "zip": "11213-5280", "ntee": "X30", "ruling": "201211", "deductibility": "1", "assets": 0, "income": 0, "revenue": 0}, {"ein": "472294404", "name": "CARMEN A CAMPOLO MEMORIAL FUND INC", "city": "CLARENCE CTR", "state": "NY", "zip": "14032-9437", "ntee": "T99", "ruling": "201506", "deductibility": "1", "assets": 0, "income": 0, "revenue": 0}, {"ein": "472572472", "name": "CARMEN PABON DEL AMANECER GARDEN INC", "city": "NEW YORK", "state": "NY", "zip": "10009-5220", "ntee": "A20", "ruling": "201506", "deductibility": "1", "assets": 0, "income": 0, "revenue": 0}, {"ein": "824838646", "name": "CARMEN ANNA HOUSE WITH LOVE INC", "city": "ROOSEVELT", "state": "NY", "zip": "11575-1926", "ntee": "L41", "ruling": "201804", "deductibility": "1", "assets": 0, "income": 0, "revenue": 0}, {"ein": "834418486", "name": "CHABAD HOUSE PLAYA DEL CARMEN INC", "city": "BROOKLYN", "state": "NY", "zip": "11213-5155", "ntee": "X30", "ruling": "202103", "deductibility": "1", "assets": 0, "income": 0, "revenue": 0}, {"ein": "920986878", "name": "CARMEN HERRERA FOUNDATION", "city": "NEW YORK", "state": "NY", "zip": "10003-1323", "ntee": "T23", "ruling": "202306", "deductibility": "1", "assets": 1, "income": 1, "revenue": 0}], "FENTON": [{"ein": "160873606", "name": "FENTON FREE LIBRARY ASSOCIATION", "city": "BINGHAMTON", "state": "NY", "zip": "13901-1736", "ntee": "B71Z", "ruling": "196407", "deductibility": "1", "assets": 248929, "income": 270721, "revenue": 270721}, {"ein": "161409657", "name": "CHENANGO FENTON PROJECT CONCERN INC", "city": "CHENANGO BRG", "state": "NY", "zip": "13745-0024", "ntee": "P29", "ruling": "200307", "deductibility": "1", "assets": 0, "income": 0, "revenue": 0}, {"ein": "166093016", "name": "FENTON HISTORICAL SOCIETY", "city": "JAMESTOWN", "state": "NY", "zip": "14701-6631", "ntee": "", "ruling": "196801", "deductibility": "1", "assets": 359746, "income": 301181, "revenue": 291628}, {"ein": "201466032", "name": "EVE FENTON LOVE-ALL FOUNDATION INC", "city": "GREAT NECK", "state": "NY", "zip": "11021-2455", "ntee": "T30", "ruling": "200412", "deductibility": "1", "assets": 0, "income": 0, "revenue": 0}], "OTEGO": [{"ein": "161204341", "name": "OTEGO UNITED METHODIST CHURCH", "city": "OTEGO", "state": "NY", "zip": "13825-0288", "ntee": "", "ruling": "197410", "deductibility": "1", "assets": 134332, "income": 6540, "revenue": 0}, {"ein": "825008830", "name": "OTEGO COMMUNITY FOOD PANTRY INC", "city": "OTEGO", "state": "NY", "zip": "13825-3242", "ntee": "K31", "ruling": "201804", "deductibility": "1", "assets": 0, "income": 0, "revenue": 0}, {"ein": "912070454", "name": "FIRST METHODIST CHURCH OF OTEGO TUW DASA E HARRIS", "city": "ONEONTA", "state": "NY", "zip": "13820-0000", "ntee": "T11", "ruling": "199910", "deductibility": "1", "assets": 150743, "income": 41204, "revenue": 0}], "BARRETT": [{"ein": "161499447", "name": "RJ BARRETT MANOR HOUSING DEVELOPMENT FUND CO INC", "city": "SYRACUSE", "state": "NY", "zip": "13203-2879", "ntee": "L21", "ruling": "194603", "deductibility": "1", "assets": 1585651, "income": 454905, "revenue": 454905}, {"ein": "161547302", "name": "BARRETT DEWITT HOUSING DEVELOPMENT FUND COMPANY INC", "city": "EAST SYRACUSE", "state": "NY", "zip": "13057-1725", "ntee": "L22", "ruling": "199807", "deductibility": "1", "assets": 3032728, "income": 398607, "revenue": 398607}, {"ein": "273314095", "name": "BARRETT LENDING CORPORATION", "city": "CARMEL", "state": "NY", "zip": "10512-4435", "ntee": "S31", "ruling": "201107", "deductibility": "2", "assets": 0, "income": 0, "revenue": 0}], "OC": [{"ein": "161514680", "name": "GENERAL COUNCIL INTERNATIONAL FELLOWSHIP OC CHRISTIAN ASSEMBLIES", "city": "KIRKVILLE", "state": "NY", "zip": "13082-9607", "ntee": "", "ruling": "198512", "deductibility": "1", "assets": 0, "income": 0, "revenue": 0}, {"ein": "472973415", "name": "PIRATE DOGS OC INC", "city": "NEWBURGH", "state": "NY", "zip": "12550-0723", "ntee": "D12", "ruling": "201505", "deductibility": "1", "assets": 0, "income": 0, "revenue": 0}, {"ein": "813315946", "name": "OC SAFE CATS INC", "city": "WASHINGTONVLE", "state": "NY", "zip": "10992-0320", "ntee": "D20", "ruling": "201608", "deductibility": "1", "assets": 0, "income": 0, "revenue": 0}, {"ein": "823959068", "name": "OC SMASH", "city": "CHESTER", "state": "NY", "zip": "10918-4701", "ntee": "N63", "ruling": "202203", "deductibility": "1", "assets": 136911, "income": 205004, "revenue": 205004}, {"ein": "842448307", "name": "VIGILANCE LEMC OC INC", "city": "NEW WINDSOR", "state": "NY", "zip": "12553-6849", "ntee": "W11", "ruling": "202309", "deductibility": "2", "assets": 0, "income": 0, "revenue": 0}], "TSECHEN": [{"ein": "161605656", "name": "TSECHEN KUNCHAB LING", "city": "WALDEN", "state": "NY", "zip": "12586-1539", "ntee": "X50", "ruling": "200207", "deductibility": "1", "assets": 0, "income": 0, "revenue": 0}, {"ein": "464079608", "name": "SAKYA TSECHEN ASSOCIATION INC", "city": "WOODSIDE", "state": "NY", "zip": "11377-2138", "ntee": "X50", "ruling": "202206", "deductibility": "1", "assets": 1796554, "income": 448450, "revenue": 448450}], "TRUXTON": [{"ein": "161607398", "name": "TRUXTON SNOWMOBILE CLUB INC", "city": "TRUXTON", "state": "NY", "zip": "13158-3131", "ntee": "N50", "ruling": "201905", "deductibility": "2", "assets": 0, "income": 0, "revenue": 0}, {"ein": "364699222", "name": "TRUXTON FIRE DEPARTMENT INC", "city": "TRUXTON", "state": "NY", "zip": "13158-0118", "ntee": "M24", "ruling": "201106", "deductibility": "1", "assets": 129201, "income": 13239, "revenue": 13239}, {"ein": "455310317", "name": "21 TRUXTON STREET HOUSING DEVELOPMENT FUND CORPORATION", "city": "NEW YORK", "state": "NY", "zip": "10018-0092", "ntee": "L20", "ruling": "201606", "deductibility": "2", "assets": 0, "income": 0, "revenue": 0}, {"ein": "474916235", "name": "TRUXTON ALUMNI & COMMUNITY SUPPORTERS", "city": "TRUXTON", "state": "NY", "zip": "13158-0102", "ntee": "S20", "ruling": "201609", "deductibility": "1", "assets": 0, "income": 0, "revenue": 0}, {"ein": "832503414", "name": "TRUXTON ACADEMY CHARTER SCHOOL", "city": "TRUXTON", "state": "NY", "zip": "13158-0104", "ntee": "B29", "ruling": "201910", "deductibility": "1", "assets": 975274, "income": 1060789, "revenue": 1060789}], "VHATOV": [{"ein": "200314220", "name": "HAYOSHOR VHATOV", "city": "BROOKLYN", "state": "NY", "zip": "11211-7257", "ntee": "X30", "ruling": "200312", "deductibility": "1", "assets": 0, "income": 0, "revenue": 0}], "CYBELE": [{"ein": "203214687", "name": "MAETREUM OF CYBELE MAGNA MATER INC", "city": "PALENVILLE", "state": "NY", "zip": "12463-2312", "ntee": "X99", "ruling": "200703", "deductibility": "1", "assets": 0, "income": 0, "revenue": 0}], "DOORAE": [{"ein": "203455977", "name": "DOORAE KOREAN PRESBYTERIAN CHURCH", "city": "FLUSHING", "state": "NY", "zip": "11358-2720", "ntee": "X21", "ruling": "200605", "deductibility": "1", "assets": 0, "income": 0, "revenue": 0}], "SPACEINC": [{"ein": "203924540", "name": "FRIENDS OF CLIFTON PARK OPEN SPACEINC", "city": "CLIFTON PARK", "state": "NY", "zip": "12065-0801", "ntee": "N033", "ruling": "200705", "deductibility": "1", "assets": 0, "income": 0, "revenue": 0}], "EZRI": [{"ein": "204577371", "name": "CONGREGATION AVI EZRI", "city": "BROOKLYN", "state": "NY", "zip": "11219-3009", "ntee": "X30", "ruling": "200807", "deductibility": "1", "assets": 0, "income": 0, "revenue": 0}, {"ein": "474089293", "name": "AVI EZRI FOUNDATION", "city": "BROOKLYN", "state": "NY", "zip": "11230-3609", "ntee": "B99", "ruling": "201506", "deductibility": "1", "assets": 0, "income": 0, "revenue": 0}, {"ein": "884014696", "name": "EZRI TEAM INC", "city": "MONSEY", "state": "NY", "zip": "10952-1330", "ntee": "F60", "ruling": "202212", "deductibility": "1", "assets": 0, "income": 0, "revenue": 0}], "PURI": [{"ein": "206777049", "name": "THE BARRERA PURI FAMILY FOUNDATION", "city": "NEW YORK", "state": "NY", "zip": "10128-7600", "ntee": "T20", "ruling": "201509", "deductibility": "1", "assets": 4735201, "income": 641589, "revenue": 0}], "FEI": [{"ein": "208841475", "name": "FEI TIAN ACADEMY OF THE ARTS", "city": "CUDDEBACKVLLE", "state": "NY", "zip": "12729-5225", "ntee": "B25", "ruling": "200710", "deductibility": "1", "assets": 0, "income": 0, "revenue": 0}, {"ein": "452926542", "name": "FEI TIAN COLLEGE", "city": "CUDDEBACKVLLE", "state": "NY", "zip": "12729-5225", "ntee": "B42", "ruling": "201205", "deductibility": "1", "assets": 31886956, "income": 13390940, "revenue": 13390940}], "DEACON": [{"ein": "222489479", "name": "HOPEWELL BAPTIST CHURCH C/O DEACON CLIFFORD HOOKS", "city": "BUFFALO", "state": "NY", "zip": "14211-1205", "ntee": "", "ruling": "199111", "deductibility": "1", "assets": 0, "income": 0, "revenue": 0}, {"ein": "832757151", "name": "DEACON MARTUCCI DREAMS FOUNDATION INC", "city": "GLENVILLE", "state": "NY", "zip": "12302-5517", "ntee": "P99", "ruling": "201902", "deductibility": "1", "assets": 0, "income": 0, "revenue": 0}], "NIERMEYER": [{"ein": "223136955", "name": "NIERMEYER FOUNDATION", "city": "VESTAL", "state": "NY", "zip": "13850-2936", "ntee": "", "ruling": "199112", "deductibility": "1", "assets": 231310, "income": 30114, "revenue": 0}], "DRUSKIN": [{"ein": "223512395", "name": "DRUSKIN FAMILY FOUNDATION INC", "city": "ALBANY", "state": "NY", "zip": "12212-5201", "ntee": "T22Z", "ruling": "199710", "deductibility": "1", "assets": 32, "income": 500, "revenue": 0}], "FINERMAN": [{"ein": "237024610", "name": "FINERMAN FOUNDATION INC", "city": "NEW YORK", "state": "NY", "zip": "10023-6010", "ntee": "", "ruling": "196910", "deductibility": "1", "assets": 569855, "income": 244151, "revenue": 0}], "SPECIALTIES": [{"ein": "237271073", "name": "MARBLE TERRAZZO MOSAIC & SPECIALTIES CONTRACTORS ASSOCIATIO", "city": "ARMONK", "state": "NY", "zip": "10504-1715", "ntee": "", "ruling": "197304", "deductibility": "2", "assets": 102992, "income": 4364, "revenue": 4364}, {"ein": "953436257", "name": "SOCIETY OF AUSTRALASIAN SPECIALTIES OCEANIA", "city": "NEW YORK", "state": "NY", "zip": "10025-4112", "ntee": "Z99Z", "ruling": "199309", "deductibility": "1", "assets": 0, "income": 0, "revenue": 0}], "MOTTVILLE": [{"ein": "260504184", "name": "MOTTVILLE FIRE COMPANY", "city": "MOTTVILLE", "state": "NY", "zip": "13119-0009", "ntee": "M24", "ruling": "200712", "deductibility": "1", "assets": 591324, "income": 150416, "revenue": 103221}], "APRENDES": [{"ein": "260628369", "name": "APRENDES FOUNDATION", "city": "NYACK", "state": "NY", "zip": "10960-1400", "ntee": "T30", "ruling": "202104", "deductibility": "1", "assets": 0, "income": 0, "revenue": 0}], "BATISTA": [{"ein": "260855208", "name": "CARLOS M BATISTA FOUNDATION", "city": "NEW YORK", "state": "NY", "zip": "10013-2362", "ntee": "T20", "ruling": "201406", "deductibility": "1", "assets": 2119623, "income": 1283878, "revenue": 0}, {"ein": "454664177", "name": "CARLOS BATISTA BASEBALL LEAGUE INC", "city": "BRONX", "state": "NY", "zip": "10469-5620", "ntee": "N63", "ruling": "201204", "deductibility": "1", "assets": 145, "income": 17255, "revenue": 17255}, {"ein": "462789814", "name": "FUNDACION LUDOVINO BATISTA", "city": "NEW YORK", "state": "NY", "zip": "10033-4218", "ntee": "P20", "ruling": "201810", "deductibility": "1", "assets": 0, "income": 0, "revenue": 0}], "MACOMBS": [{"ein": "261438142", "name": "MACOMBS ROAD HOUSING DEVELOPMENT FUND CORPORATION", "city": "NEW YORK", "state": "NY", "zip": "10018-7595", "ntee": "P85", "ruling": "201407", "deductibility": "2", "assets": 0, "income": 0, "revenue": 0}], "BENEFACTORS": [{"ein": "262353008", "name": "ETHIOPIAN BENEFACTORS SOCIETY INC", "city": "BRONX", "state": "NY", "zip": "10462-7814", "ntee": "Q30", "ruling": "200903", "deductibility": "1", "assets": 0, "income": 0, "revenue": 0}, {"ein": "825171210", "name": "BENEFACTORS OF THE TREASURES OF NAPLES INC", "city": "RYE", "state": "NY", "zip": "10580-2141", "ntee": "A12", "ruling": "201805", "deductibility": "1", "assets": 0, "income": 0, "revenue": 0}, {"ein": "842315908", "name": "BENEFACTORS CLUB INC", "city": "BROOKLYN", "state": "NY", "zip": "11219-1833", "ntee": "T50", "ruling": "201912", "deductibility": "1", "assets": 0, "income": 0, "revenue": 0}, {"ein": "923760307", "name": "FRIENDS AND BENEFACTORS OF MARYMOUNT INTERNATIONAL SCHOOL OF", "city": "TARRYTOWN", "state": "NY", "zip": "10591-3022", "ntee": "J12", "ruling": "202408", "deductibility": "1", "assets": 0, "income": 0, "revenue": 0}], "RAHA": [{"ein": "262578183", "name": "RESTART A HEART ASSOCIATION RAHA INC", "city": "WOODMERE", "state": "NY", "zip": "11598-1364", "ntee": "E70", "ruling": "200806", "deductibility": "1", "assets": 0, "income": 0, "revenue": 0}], "ELY": [{"ein": "263725140", "name": "ELY-FAGAN AMERICAN LEGION AUXILIARY", "city": "HENRIETTA", "state": "NY", "zip": "14467-9312", "ntee": "W30", "ruling": "201311", "deductibility": "1", "assets": 0, "income": 0, "revenue": 0}, {"ein": "274374242", "name": "ELY & CHANI ROSENZVEIG CHARITABLE FOUNDATION", "city": "ELMSFORD", "state": "NY", "zip": "10523-2378", "ntee": "T22", "ruling": "201205", "deductibility": "1", "assets": 10002, "income": 1, "revenue": 0}, {"ein": "467377355", "name": "ELY & SARIT GUTTMAN FAMILY FOUNDATION", "city": "CEDARHURST", "state": "NY", "zip": "11598-0000", "ntee": "W99", "ruling": "201407", "deductibility": "1", "assets": 51244, "income": 2506, "revenue": 0}], "BEGINNER": [{"ein": "271711517", "name": "ADVANCED BEGINNER GROUP INC", "city": "THORNWOOD", "state": "NY", "zip": "10594-1614", "ntee": "A65", "ruling": "201212", "deductibility": "1", "assets": 36561, "income": 9732, "revenue": 9732}], "KATMARROON": [{"ein": "273129586", "name": "KATMARROON", "city": "NEWBURGH", "state": "NY", "zip": "12550-0834", "ntee": "D20", "ruling": "201308", "deductibility": "1", "assets": 0, "income": 0, "revenue": 0}], "KHEMIR": [{"ein": "273164098", "name": "SABIHA AL KHEMIR FOUNDATION INC", "city": "NEW YORK", "state": "NY", "zip": "10016-2400", "ntee": "T20", "ruling": "202209", "deductibility": "1", "assets": 186044, "income": 99, "revenue": 0}], "VELVETPARK": [{"ein": "274794293", "name": "VELVETPARK MEDIA INC", "city": "BROOKLYN", "state": "NY", "zip": "11206-3732", "ntee": "A30", "ruling": "201306", "deductibility": "1", "assets": 0, "income": 0, "revenue": 0}], "ALLY": [{"ein": "275527156", "name": "ATHLETE ALLY INC", "city": "NEW YORK", "state": "NY", "zip": "10020-1210", "ntee": "N01", "ruling": "201108", "deductibility": "1", "assets": 888105, "income": 2225567, "revenue": 1984420}], "AFC": [{"ein": "300563153", "name": "AFC RAPID SOCCER CLUB", "city": "BRONX", "state": "NY", "zip": "10465-1019", "ntee": "N64", "ruling": "202210", "deductibility": "1", "assets": 11243, "income": 30495, "revenue": 30495}], "KLASS": [{"ein": "300999955", "name": "KLASS INC", "city": "BROOKLYN", "state": "NY", "zip": "11236-1206", "ntee": "O50", "ruling": "201801", "deductibility": "1", "assets": 0, "income": 0, "revenue": 0}], "MONITORING": [{"ein": "311451739", "name": "INTERNATIONAL ASSOC FOR THERAPEUTIC DRUG MONITORING AND CLINICAL TOXI", "city": "ROCHESTER", "state": "NY", "zip": "14618-0000", "ntee": "", "ruling": "199604", "deductibility": "2", "assets": 1886137, "income": 334315, "revenue": 334315}, {"ein": "834346623", "name": "FAIR JUSTICE MONITORING SVCS INC", "city": "OCEANSIDE", "state": "NY", "zip": "11572-5049", "ntee": "I99", "ruling": "202001", "deductibility": "1", "assets": 0, "income": 0, "revenue": 0}, {"ein": "854170713", "name": "GLOBAL MONITORING CENTER INC", "city": "NEW YORK", "state": "NY", "zip": "10005-4301", "ntee": "Q01", "ruling": "202309", "deductibility": "1", "assets": 0, "income": 0, "revenue": 0}], "FLOUR": [{"ein": "334779637", "name": "FOUND TO FLOUR INC", "city": "EAST ISLIP", "state": "NY", "zip": "11730-1104", "ntee": "O50", "ruling": "202506", "deductibility": "1", "assets": 0, "income": 0, "revenue": 0}, {"ein": "813633442", "name": "FLOUR CITY ROLLER DERBY INC", "city": "ROCHESTER", "state": "NY", "zip": "14622-2010", "ntee": "N60", "ruling": "202410", "deductibility": "1", "assets": 0, "income": 0, "revenue": 0}, {"ein": "872516358", "name": "GENESEE COMMUNITY CHARTER SCHOOL FLOUR CITY CAMPUS", "city": "ROCHESTER", "state": "NY", "zip": "14620-2530", "ntee": "B24", "ruling": "202207", "deductibility": "1", "assets": 2943926, "income": 2172851, "revenue": 2172851}, {"ein": "934395320", "name": "FLOUR TOGETHER INC", "city": "DIX HILLS", "state": "NY", "zip": "11746-4804", "ntee": "J11", "ruling": "202305", "deductibility": "1", "assets": 10707, "income": 11657, "revenue": 11657}], "PRINCIPLE": [{"ein": "334786289", "name": "THE SCRUPULOUS PRINCIPLE LTD", "city": "BROOKLYN", "state": "NY", "zip": "11242-1134", "ntee": "A70", "ruling": "202506", "deductibility": "1", "assets": 0, "income": 0, "revenue": 0}, {"ein": "864494334", "name": "KINGDOM PRINCIPLE INTERNATIONAL MINISTRIES INC", "city": "BROOKLYN", "state": "NY", "zip": "11216-5754", "ntee": "X20", "ruling": "200802", "deductibility": "1", "assets": 0, "income": 0, "revenue": 0}], "IUECWA": [{"ein": "364635019", "name": "IUECWA FEDERATION OF SOCIAL WORKERS LOCAL 81381 RETIREE", "city": "ROCHESTER", "state": "NY", "zip": "14613-1534", "ntee": "J40", "ruling": "200909", "deductibility": "2", "assets": 0, "income": 0, "revenue": 0}], "PICKETT": [{"ein": "383855267", "name": "PICKETT FAM FOUNDATION", "city": "SARATOGA SPGS", "state": "NY", "zip": "12866-4196", "ntee": "T20", "ruling": "201210", "deductibility": "1", "assets": 970, "income": 1, "revenue": 0}], "GILLINGHAM": [{"ein": "411803953", "name": "ACADEMY OF ORTON-GILLINGHAM PRACTITIONERS AND EDUCATORS", "city": "AMENIA", "state": "NY", "zip": "12501-0234", "ntee": "B80", "ruling": "199505", "deductibility": "1", "assets": 1379005, "income": 912832, "revenue": 912832}], "MUSOMA": [{"ein": "412120320", "name": "FRIENDS OF MUSOMA SOCIETY", "city": "BURNT HILLS", "state": "NY", "zip": "12027-0074", "ntee": "M12", "ruling": "200706", "deductibility": "1", "assets": 0, "income": 0, "revenue": 0}], "KINYEN": [{"ein": "432005761", "name": "CONGREGATION KOLLEL KINYEN TORAH INC", "city": "BROOKLYN", "state": "NY", "zip": "11206-4850", "ntee": "X21", "ruling": "200312", "deductibility": "1", "assets": 0, "income": 0, "revenue": 0}], "CYL": [{"ein": "455152894", "name": "CONG YETEV LEV D SATMAR CYL INC", "city": "BROOKLYN", "state": "NY", "zip": "11205-3958", "ntee": "X30", "ruling": "201308", "deductibility": "1", "assets": 0, "income": 0, "revenue": 0}, {"ein": "611634416", "name": "CYL BEDFORD INC", "city": "BROOKLYN", "state": "NY", "zip": "11205-3581", "ntee": "X30", "ruling": "202211", "deductibility": "1", "assets": 0, "income": 0, "revenue": 0}, {"ein": "822138192", "name": "CONGREGATION YISMACH MOSHE OF CYL INC", "city": "BROOKLYN", "state": "NY", "zip": "11206-2346", "ntee": "X30", "ruling": "201806", "deductibility": "1", "assets": 0, "income": 0, "revenue": 0}, {"ein": "874303555", "name": "CONG CYL OF REMSEN", "city": "MONSEY", "state": "NY", "zip": "10952-2807", "ntee": "X30", "ruling": "202207", "deductibility": "1", "assets": 0, "income": 0, "revenue": 0}, {"ein": "882566943", "name": "BECHATZROS KODSHENI OF CYL", "city": "MONROE", "state": "NY", "zip": "10950-6169", "ntee": "X30", "ruling": "202208", "deductibility": "1", "assets": 0, "income": 0, "revenue": 0}, {"ein": "921079886", "name": "CYL CASCADE INC", "city": "BROOKLYN", "state": "NY", "zip": "11206-0000", "ntee": "X30", "ruling": "202305", "deductibility": "1", "assets": 0, "income": 0, "revenue": 0}, {"ein": "993110335", "name": "CONGREGATION CYL - LEV AHARON INC", "city": "BROOKLYN", "state": "NY", "zip": "11211-7216", "ntee": "X30", "ruling": "202406", "deductibility": "1", "assets": 0, "income": 0, "revenue": 0}], "LITZELMAN": [{"ein": "460594429", "name": "DON LITZELMAN FOUNDATION", "city": "ROCHESTER", "state": "NY", "zip": "14606-5124", "ntee": "Z99", "ruling": "201406", "deductibility": "1", "assets": 0, "income": 0, "revenue": 0}], "GREENJACKETS": [{"ein": "461241871", "name": "GREENJACKETS FOOTBALL TEAM INC", "city": "SOUTH GLENS FALLS", "state": "NY", "zip": "12803-5050", "ntee": "N60", "ruling": "201408", "deductibility": "1", "assets": 0, "income": 0, "revenue": 0}], "LOADBANG": [{"ein": "461899944", "name": "LOADBANG INC", "city": "NEW YORK", "state": "NY", "zip": "10033-3023", "ntee": "A60", "ruling": "201408", "deductibility": "1", "assets": 13151, "income": 153306, "revenue": 153264}], "DALEKSANDER": [{"ein": "462067830", "name": "TALMUD TORAH TIFERES YECHIEL DALEKSANDER INC", "city": "BROOKLYN", "state": "NY", "zip": "11218-3610", "ntee": "X30", "ruling": "201406", "deductibility": "1", "assets": 0, "income": 0, "revenue": 0}, {"ein": "462681265", "name": "BEIS HAMEDRESH BEIS YECHIEL DALEKSANDER", "city": "BROOKLYN", "state": "NY", "zip": "11204-1944", "ntee": "X30", "ruling": "201411", "deductibility": "1", "assets": 0, "income": 0, "revenue": 0}], "DANDY": [{"ein": "462582495", "name": "DANDY ASSOCIATION INC", "city": "YONKERS", "state": "NY", "zip": "10705-3449", "ntee": "O50", "ruling": "201412", "deductibility": "1", "assets": 0, "income": 0, "revenue": 0}], "JACOBY": [{"ein": "462777105", "name": "SYDNE JACOBY FOUNDATION INC", "city": "OCEANSIDE", "state": "NY", "zip": "11572-0000", "ntee": "Z99", "ruling": "201406", "deductibility": "1", "assets": 0, "income": 0, "revenue": 0}], "SPEAKEASY": [{"ein": "463820173", "name": "HOUSE OF SPEAKEASY FOUNDATION", "city": "NEW YORK", "state": "NY", "zip": "10003-2110", "ntee": "Y99", "ruling": "201405", "deductibility": "1", "assets": 501919, "income": 791490, "revenue": 622889}], "ALIVENTERTAINMENT": [{"ein": "464205233", "name": "ALIVENTERTAINMENT FOUNDATION", "city": "BUFFALO", "state": "NY", "zip": "14215-3116", "ntee": "Z99", "ruling": "201407", "deductibility": "1", "assets": 0, "income": 0, "revenue": 0}], "ONGOZA": [{"ein": "464299032", "name": "ONGOZA FOUNDATION INC", "city": "NEW YORK", "state": "NY", "zip": "10006-1914", "ntee": "Q30", "ruling": "201412", "deductibility": "1", "assets": 121646, "income": 70019, "revenue": 70019}], "CHROMEBOOKS": [{"ein": "464823899", "name": "CHROMEBOOKS FOR KIDS INC", "city": "WOODHAVEN", "state": "NY", "zip": "11421-1332", "ntee": "B19", "ruling": "201406", "deductibility": "1", "assets": 0, "income": 0, "revenue": 0}], "RUN4FUN": [{"ein": "471002325", "name": "RUN4FUN INC", "city": "BROOKLYN", "state": "NY", "zip": "11214-6209", "ntee": "N60", "ruling": "201506", "deductibility": "1", "assets": 119082, "income": 227671, "revenue": 227671}], "NITRO": [{"ein": "471296590", "name": "NITRO SOFTBALL ORGANIZATION INC", "city": "N TONAWANDA", "state": "NY", "zip": "14120-9641", "ntee": "N63", "ruling": "201501", "deductibility": "1", "assets": 3628, "income": 54555, "revenue": 53477}], "GOWNS": [{"ein": "471797986", "name": "ANGEL GOWNS OF WNY INC", "city": "HAMBURG", "state": "NY", "zip": "14075-3441", "ntee": "Z99", "ruling": "201410", "deductibility": "1", "assets": 0, "income": 0, "revenue": 0}, {"ein": "834268073", "name": "GOWNS FOR HER", "city": "MOUNT VERNON", "state": "NY", "zip": "10552-2875", "ntee": "P50", "ruling": "201904", "deductibility": "1", "assets": 0, "income": 0, "revenue": 0}, {"ein": "853143612", "name": "TERRACE GOWNS INC", "city": "MONSEY", "state": "NY", "zip": "10952-1645", "ntee": "P29", "ruling": "202406", "deductibility": "1", "assets": 0, "income": 0, "revenue": 0}, {"ein": "993898958", "name": "LUXURE GOWNS INC", "city": "MONROE", "state": "NY", "zip": "10950-4043", "ntee": "P20", "ruling": "202407", "deductibility": "1", "assets": 0, "income": 0, "revenue": 0}], "PAPEL": [{"ein": "472363254", "name": "CENTRO CULTURAL BARCO DE PAPEL INC", "city": "QUEENS", "state": "NY", "zip": "11373-1233", "ntee": "A70", "ruling": "201505", "deductibility": "1", "assets": 0, "income": 0, "revenue": 0}], "SUPERBLOOM": [{"ein": "472462310", "name": "SUPERBLOOM DESIGN", "city": "NEW YORK", "state": "NY", "zip": "10001-4527", "ntee": "V05", "ruling": "201511", "deductibility": "1", "assets": 257274, "income": 1433417, "revenue": 1433417}], "IAB": [{"ein": "472617174", "name": "IAB EDUCATION FOUNDATION", "city": "NEW YORK", "state": "NY", "zip": "10016-8942", "ntee": "S19", "ruling": "201505", "deductibility": "1", "assets": 0, "income": 0, "revenue": 0}, {"ein": "473384874", "name": "IAB TECHNOLOGY LABORATORY INC", "city": "NEW YORK", "state": "NY", "zip": "10016-8942", "ntee": "S41", "ruling": "201508", "deductibility": "2", "assets": 12212340, "income": 10164107, "revenue": 10164107}, {"ein": "921608570", "name": "IAB PRIVACY INC", "city": "NEW YORK", "state": "NY", "zip": "10016-8942", "ntee": "S40", "ruling": "202306", "deductibility": "2", "assets": 11286, "income": 115000, "revenue": 115000}], "PWISTA": [{"ein": "475298696", "name": "PWISTA-MAHOPAC", "city": "MAHOPAC", "state": "NY", "zip": "10541-3803", "ntee": "B03", "ruling": "201510", "deductibility": "1", "assets": 0, "income": 0, "revenue": 0}], "BLOOMINGTAILS": [{"ein": "475344148", "name": "BLOOMINGTAILS DOG PARK INC", "city": "STATEN ISLAND", "state": "NY", "zip": "10309-2840", "ntee": "D99", "ruling": "201512", "deductibility": "1", "assets": 0, "income": 0, "revenue": 0}], "ADOLF": [{"ein": "476789321", "name": "ADOLF EDITH AND RELLA WIEDER FOUNDATION", "city": "BROOKLYN", "state": "NY", "zip": "11230-3332", "ntee": "T22", "ruling": "201808", "deductibility": "1", "assets": 16804, "income": 3, "revenue": 0}], "SUSIEQ": [{"ein": "510623401", "name": "SUSIEQ DOG RESQ INC", "city": "CONESUS", "state": "NY", "zip": "14435-9508", "ntee": "", "ruling": "200712", "deductibility": "1", "assets": 32648, "income": 71678, "revenue": 71678}], "NYIPT": [{"ein": "522438047", "name": "NEW YORK INSTITUTE FOR PSYCHOTHEREPY TRAINING NYIPT", "city": "NEW YORK", "state": "NY", "zip": "10023-0000", "ntee": "I72", "ruling": "200412", "deductibility": "1", "assets": 11139, "income": 50822, "revenue": 50822}], "BASYA": [{"ein": "611618610", "name": "MACHON BASYA ROCHEL INC", "city": "LAWRENCE", "state": "NY", "zip": "11559-1446", "ntee": "X30", "ruling": "201104", "deductibility": "1", "assets": 1501270, "income": 0, "revenue": 0}], "ZEBS": [{"ein": "811969655", "name": "ZEBS FOUNDATION", "city": "BETHPAGE", "state": "NY", "zip": "11714-3533", "ntee": "Z99", "ruling": "201605", "deductibility": "1", "assets": 24141, "income": 70794, "revenue": 70794}], "POPLAR": [{"ein": "813311552", "name": "POPLAR RIDGE FIRE DEPARTMENT", "city": "POPLAR RIDGE", "state": "NY", "zip": "13139-0055", "ntee": "M24", "ruling": "202107", "deductibility": "1", "assets": 0, "income": 0, "revenue": 0}], "TEENSGIVE": [{"ein": "814036422", "name": "TEENSGIVE", "city": "PURCHASE", "state": "NY", "zip": "10577-1600", "ntee": "T40", "ruling": "201610", "deductibility": "1", "assets": 0, "income": 0, "revenue": 0}], "WORDSTART": [{"ein": "814533297", "name": "WORDSTART EARLY LITERACY FOUNDATION", "city": "VERNON", "state": "NY", "zip": "10552-0000", "ntee": "B90", "ruling": "201612", "deductibility": "1", "assets": 0, "income": 0, "revenue": 0}], "SECESSION": [{"ein": "814592771", "name": "VIENNA SECESSION AMERICAN FOUNDATION INC", "city": "NEW YORK", "state": "NY", "zip": "10128-1758", "ntee": "T20", "ruling": "201706", "deductibility": "1", "assets": 44757, "income": 40000, "revenue": 0}], "HAMATIV": [{"ein": "821573439", "name": "HAMATIV INC", "city": "BROOKLYN", "state": "NY", "zip": "11211-8919", "ntee": "X30", "ruling": "201905", "deductibility": "1", "assets": 81372, "income": 192136, "revenue": 192136}], "ASSOCIACION": [{"ein": "821693026", "name": "ASSOCIACION DE VENDEDORES COMUNITARIOS DE LA 207 INC", "city": "NEW YORK", "state": "NY", "zip": "10034-2667", "ntee": "S22", "ruling": "202311", "deductibility": "1", "assets": 0, "income": 0, "revenue": 0}], "NIKETAN": [{"ein": "821949061", "name": "SARASWATI VIDYA NIKETAN USA", "city": "QUEENS VLG", "state": "NY", "zip": "11428-2108", "ntee": "P99", "ruling": "201710", "deductibility": "1", "assets": 28474, "income": 14401, "revenue": 14401}, {"ein": "832790394", "name": "SRIMA VIDYA NIKETAN INC", "city": "WOODSIDE", "state": "NY", "zip": "11377-6935", "ntee": "X70", "ruling": "202506", "deductibility": "1", "assets": 0, "income": 0, "revenue": 0}], "HADRAN": [{"ein": "823134231", "name": "HADRAN ACADEMY INC", "city": "BROOKLYN", "state": "NY", "zip": "11219-2102", "ntee": "X30", "ruling": "201907", "deductibility": "1", "assets": 0, "income": 0, "revenue": 0}], "SWR": [{"ein": "825411477", "name": "SWR MADRID PROGRAM INC", "city": "SHOREHAM", "state": "NY", "zip": "11786-2364", "ntee": "B12", "ruling": "201808", "deductibility": "1", "assets": 0, "income": 0, "revenue": 0}], "RECREATIVO": [{"ein": "831053776", "name": "CENTRO RECREATIVO PORTUGUES DE JAMAICA NY INC", "city": "JAMAICA", "state": "NY", "zip": "11435-4727", "ntee": "A20", "ruling": "201907", "deductibility": "1", "assets": 74349, "income": 104238, "revenue": 77452}], "SHIVIM": [{"ein": "831570417", "name": "CONGREGATION KEREN SHIVIM", "city": "BROOKLYN", "state": "NY", "zip": "11204-1408", "ntee": "X30", "ruling": "202002", "deductibility": "1", "assets": 0, "income": 0, "revenue": 0}], "SPHINX": [{"ein": "832454435", "name": "SACRED SPHINX", "city": "ROCHESTER", "state": "NY", "zip": "14608-2801", "ntee": "A20", "ruling": "201902", "deductibility": "1", "assets": 0, "income": 0, "revenue": 0}], "DURAVIVA": [{"ein": "832510334", "name": "DURAVIVA DIABETES FOUNDATION INC", "city": "JERICHO", "state": "NY", "zip": "11753-1661", "ntee": "E31", "ruling": "201902", "deductibility": "1", "assets": 0, "income": 0, "revenue": 0}], "BKRESCUE": [{"ein": "832788589", "name": "BKRESCUE INC", "city": "MONTGOMERY", "state": "NY", "zip": "12549-2158", "ntee": "D20", "ruling": "202302", "deductibility": "1", "assets": 0, "income": 0, "revenue": 0}], "FLAW": [{"ein": "833400326", "name": "FLAW-FIGHT LIKE A WOMAN", "city": "GARDEN CITY", "state": "NY", "zip": "11530-5803", "ntee": "P20", "ruling": "201905", "deductibility": "1", "assets": 0, "income": 0, "revenue": 0}, {"ein": "881584664", "name": "FATAL FLAW LITERARY INC", "city": "NEW YORK", "state": "NY", "zip": "10003-2191", "ntee": "A33", "ruling": "202207", "deductibility": "1", "assets": 0, "income": 0, "revenue": 0}], "OBI": [{"ein": "833906533", "name": "OTU OBI NWANNE LADIES OF ANIOMA ASSOCIATION OOLAA INC", "city": "QUEENS VLG", "state": "NY", "zip": "11427-1829", "ntee": "A23", "ruling": "202005", "deductibility": "1", "assets": 0, "income": 0, "revenue": 0}], "RATHER": [{"ein": "841996035", "name": "RATHER FAMILY FOUNDATION", "city": "NEW YORK", "state": "NY", "zip": "10022-6030", "ntee": "T20", "ruling": "201908", "deductibility": "1", "assets": 1739345, "income": 2161411, "revenue": 0}], "GRUTMAN": [{"ein": "842773175", "name": "WILLARD LEROY METCALF PROJECT INC LAW OFFICES OF PAMELA GRUTMAN", "city": "IRVINGTON", "state": "NY", "zip": "10533-2306", "ntee": "A20", "ruling": "201910", "deductibility": "1", "assets": 0, "income": 0, "revenue": 0}], "SHLAVIM": [{"ein": "842973706", "name": "AMERICAN FRIENDS OF SHLAVIM", "city": "WOODMERE", "state": "NY", "zip": "11598-0000", "ntee": "B12", "ruling": "201910", "deductibility": "1", "assets": 42809, "income": 248594, "revenue": 248594}], "CHELSEAS": [{"ein": "843248889", "name": "CHELSEAS HOPE BOXER RESCUE", "city": "BETHEL", "state": "NY", "zip": "12720-0343", "ntee": "D20", "ruling": "202001", "deductibility": "1", "assets": 80738, "income": 295500, "revenue": 295500}], "ESTHERS": [{"ein": "844374461", "name": "ESTHERS DAUGHTERS", "city": "S OZONE PARK", "state": "NY", "zip": "11420-2229", "ntee": "X20", "ruling": "202005", "deductibility": "1", "assets": 0, "income": 0, "revenue": 0}], "AITCHISON": [{"ein": "844857925", "name": "FRIENDS OF AITCHISON COLLEGE LAHORE INC", "city": "NEW YORK", "state": "NY", "zip": "10011-5901", "ntee": "B90", "ruling": "202108", "deductibility": "1", "assets": 0, "income": 0, "revenue": 0}], "VARGAS": [{"ein": "851147713", "name": "SANTANA & VARGAS CHARITIES INC", "city": "BROOKLYN", "state": "NY", "zip": "11206-7784", "ntee": "K30", "ruling": "202006", "deductibility": "1", "assets": 0, "income": 0, "revenue": 0}], "KAVANAUGH": [{"ein": "852512430", "name": "JAMES V KAVANAUGH COLUMBIAN CLUB INC", "city": "MASTIC", "state": "NY", "zip": "11950-4603", "ntee": "Y42", "ruling": "202103", "deductibility": "1", "assets": 118260, "income": 130204, "revenue": 98834}], "FELICIAS": [{"ein": "853130808", "name": "FELICIAS PROMISE INCORPORATED", "city": "BROOKLYN", "state": "NY", "zip": "11216-1605", "ntee": "", "ruling": "202108", "deductibility": "1", "assets": 6361, "income": 67357, "revenue": 67357}], "KAVREPALANCHOK": [{"ein": "853728490", "name": "KAVREPALANCHOK AMERICA WELFARE SOCIETY CORP", "city": "MIDDLE VILLAGE", "state": "NY", "zip": "11379-1073", "ntee": "W99", "ruling": "202110", "deductibility": "1", "assets": 3906, "income": 6491, "revenue": 6491}], "MARZULLO": [{"ein": "863375999", "name": "LISA MARZULLO FLY AGAIN FOUNDATION", "city": "BRONXVILLE", "state": "NY", "zip": "10708-4603", "ntee": "G32", "ruling": "202107", "deductibility": "1", "assets": 0, "income": 0, "revenue": 0}], "HINA": [{"ein": "871383551", "name": "KULSUM HINA CARE CORPORATION", "city": "N BELLMORE", "state": "NY", "zip": "11710-5504", "ntee": "P20", "ruling": "202109", "deductibility": "1", "assets": 1819, "income": 13544, "revenue": 0}], "BLEMISH": [{"ein": "872914589", "name": "HOLY WITHOUT BLEMISH FELLOWSHIP INC", "city": "NEW YORK", "state": "NY", "zip": "10019-3702", "ntee": "X20", "ruling": "202112", "deductibility": "1", "assets": 0, "income": 0, "revenue": 0}], "ASYLIAS": [{"ein": "873946350", "name": "TRANS ASYLIAS INC", "city": "NEW YORK", "state": "NY", "zip": "10001-4649", "ntee": "P88", "ruling": "202503", "deductibility": "1", "assets": 0, "income": 0, "revenue": 0}], "CHEDVAS": [{"ein": "883264425", "name": "CHEDVAS HATORAH INC", "city": "BROOKLYN", "state": "NY", "zip": "11204-1338", "ntee": "P20", "ruling": "202306", "deductibility": "1", "assets": 3042, "income": 73325, "revenue": 73325}, {"ein": "883314227", "name": "CHEDVAS HATORAH", "city": "SPRING VALLEY", "state": "NY", "zip": "10977-7216", "ntee": "X30", "ruling": "202209", "deductibility": "1", "assets": 0, "income": 0, "revenue": 0}, {"ein": "992546325", "name": "CHEDVAS HATALMUD", "city": "SPRING VALLEY", "state": "NY", "zip": "10977-6030", "ntee": "X30", "ruling": "202405", "deductibility": "1", "assets": 0, "income": 0, "revenue": 0}], "SEYI": [{"ein": "883789025", "name": "SEYI ABDUL FOUNDATION INC", "city": "RONKONKOMA", "state": "NY", "zip": "11779-5039", "ntee": "O12", "ruling": "202307", "deductibility": "1", "assets": 0, "income": 0, "revenue": 0}], "HARGROVE": [{"ein": "920183406", "name": "HARGROVE PIERCE FOUNDATION", "city": "NEW YORK", "state": "NY", "zip": "10020-0000", "ntee": "T20", "ruling": "200305", "deductibility": "1", "assets": 4885046, "income": 1201789, "revenue": 0}], "KINDLINK": [{"ein": "920602256", "name": "KINDLINK FOUNDATION INC", "city": "NEW YORK", "state": "NY", "zip": "10013-2562", "ntee": "B12", "ruling": "202302", "deductibility": "1", "assets": 0, "income": 0, "revenue": 0}], "WIETSCHNER": [{"ein": "921691660", "name": "WIETSCHNER FAMILY FOUNDATION INC", "city": "WOODMERE", "state": "NY", "zip": "11598-2941", "ntee": "X30", "ruling": "202306", "deductibility": "1", "assets": 69259, "income": 1174, "revenue": 0}], "SONAS": [{"ein": "922160936", "name": "RINCE NA SONAS PARENT ORGANIZATION INC", "city": "LIVERPOOL", "state": "NY", "zip": "13088-6411", "ntee": "N60", "ruling": "202302", "deductibility": "1", "assets": 0, "income": 0, "revenue": 0}], "ZANGAS": [{"ein": "922650401", "name": "PENNY ZANGAS MEMORIAL FOUNDATION FOR WOMEN S HEALTH INC", "city": "SEA CLIFF", "state": "NY", "zip": "11579-1921", "ntee": "E12", "ruling": "202410", "deductibility": "1", "assets": 0, "income": 0, "revenue": 0}], "DUO": [{"ein": "923156950", "name": "SYDEBOOB DUO INC", "city": "BROOKLYN", "state": "NY", "zip": "11216-6069", "ntee": "A25", "ruling": "202304", "deductibility": "1", "assets": 0, "income": 0, "revenue": 0}], "MOHARAN": [{"ein": "923290074", "name": "AHTERES MOHARAN SPINKA INC", "city": "MONROE", "state": "NY", "zip": "10950-5486", "ntee": "X30", "ruling": "202401", "deductibility": "1", "assets": 0, "income": 0, "revenue": 0}], "TURKMEN": [{"ein": "931491647", "name": "TURKMEN COMMUNITY CENTER", "city": "BROOKLYN", "state": "NY", "zip": "11235-2312", "ntee": "A23", "ruling": "202501", "deductibility": "1", "assets": 0, "income": 0, "revenue": 0}], "BAZIL": [{"ein": "991357458", "name": "SELWYN BAZIL FOUNDATION INC", "city": "BROOKLYN", "state": "NY", "zip": "11203-1315", "ntee": "O50", "ruling": "202407", "deductibility": "1", "assets": 0, "income": 0, "revenue": 0}], "NADHA": [{"ein": "991787550", "name": "YAKKHA NADHA INC", "city": "STATEN ISLAND", "state": "NY", "zip": "10314-5656", "ntee": "A24", "ruling": "202412", "deductibility": "1", "assets": 0, "income": 0, "revenue": 0}], "GREENTAILS": [{"ein": "992011821", "name": "GREENTAILS FOUNDATION CORP", "city": "NEW YORK", "state": "NY", "zip": "10111-3193", "ntee": "T30", "ruling": "202507", "deductibility": "1", "assets": 0, "income": 0, "revenue": 0}], "SOPUM": [{"ein": "992550245", "name": "GLOBAL SOPUM HRINSOR FOUNDATION", "city": "BROOKLYN", "state": "NY", "zip": "11229-2421", "ntee": "P12", "ruling": "202404", "deductibility": "1", "assets": 0, "income": 0, "revenue": 0}], "GRASSIA": [{"ein": "993478649", "name": "JOHN MICHAEL GRASSIA III FOUNDATION INC", "city": "SARATOGA SPGS", "state": "NY", "zip": "12866-5130", "ntee": "M12", "ruling": "202407", "deductibility": "1", "assets": 0, "income": 0, "revenue": 0}], "BLUKWA": [{"ein": "994997562", "name": "BLUKWA-KODIDE RELIEF INTERNATIONAL INC", "city": "LOCKPORT", "state": "NY", "zip": "14094-5702", "ntee": "Q71", "ruling": "202410", "deductibility": "1", "assets": 0, "income": 0, "revenue": 0}]}