{"MUSTARD": [{"ein": "010558975", "name": "MUSTARD SEED MINISTRIES", "city": "TYRONE", "state": "NY", "zip": "14887-0073", "ntee": "X99", "ruling": "200211", "deductibility": "1", "assets": 0, "income": 0, "revenue": 0}, {"ein": "112904309", "name": "NEW YORK MUSTARD SEED CHURCH", "city": "SYOSSET", "state": "NY", "zip": "11791-2605", "ntee": "", "ruling": "199403", "deductibility": "1", "assets": 0, "income": 0, "revenue": 0}, {"ein": "113575640", "name": "MUSTARD SEED TABERNACLE OF PRAISE MINISTRIES", "city": "BROOKLYN", "state": "NY", "zip": "11203-4505", "ntee": "X20", "ruling": "200106", "deductibility": "1", "assets": 1, "income": 20839, "revenue": 20839}, {"ein": "132805581", "name": "MUSTARD SEED SOCIETY INC", "city": "NEW YORK", "state": "NY", "zip": "10016-3023", "ntee": "F22", "ruling": "201805", "deductibility": "1", "assets": 624057, "income": 130189, "revenue": 114525}, {"ein": "333018795", "name": "MUSTARD SEED SCHOLARSHIP FOUNDATION INC", "city": "MANHASSET", "state": "NY", "zip": "11030-1221", "ntee": "B82", "ruling": "202502", "deductibility": "1", "assets": 0, "income": 0, "revenue": 0}, {"ein": "464075666", "name": "MUSTARD SEED FAITH MINISTRIES", "city": "MIDDLETOWN", "state": "NY", "zip": "10940-5093", "ntee": "P99", "ruling": "201407", "deductibility": "1", "assets": 0, "income": 0, "revenue": 0}, {"ein": "991482679", "name": "MUSTARD SEED GLOBAL HEALTH AND WELLNESS INC", "city": "FINDLEY LAKE", "state": "NY", "zip": "14736-0279", "ntee": "Q33", "ruling": "202403", "deductibility": "1", "assets": 0, "income": 0, "revenue": 0}], "SHAR": [{"ein": "010570709", "name": "BERKSHIRE SPUR CHINESE SHAR PEI CLUB INC", "city": "SELKIRK", "state": "NY", "zip": "12158-1502", "ntee": "D60", "ruling": "200205", "deductibility": "2", "assets": 0, "income": 0, "revenue": 0}, {"ein": "113587464", "name": "AMERICAN FRIENDS OF YASHIVA HAGDOLAH SHAR HATORAH ELAD INC", "city": "BROOKLYN", "state": "NY", "zip": "11230-6475", "ntee": "X30", "ruling": "202212", "deductibility": "1", "assets": 0, "income": 0, "revenue": 0}, {"ein": "133706300", "name": "CONG ACHPRETVIA TAL CHAIM SHAR HAYU SHOR INC", "city": "BROOKLYN", "state": "NY", "zip": "11230-6354", "ntee": "", "ruling": "199308", "deductibility": "1", "assets": 0, "income": 0, "revenue": 0}, {"ein": "134025880", "name": "CONGREGATION SHAR HATALMID INC", "city": "MONSEY", "state": "NY", "zip": "10952-2625", "ntee": "X30", "ruling": "199902", "deductibility": "1", "assets": 0, "income": 0, "revenue": 0}, {"ein": "134216660", "name": "SHAR HAMISHPOT", "city": "BROOKLYN", "state": "NY", "zip": "11205-0226", "ntee": "X21", "ruling": "200301", "deductibility": "1", "assets": 0, "income": 0, "revenue": 0}, {"ein": "141803138", "name": "BER-SHAR RESCUE INC", "city": "STORMVILLE", "state": "NY", "zip": "12582-0000", "ntee": "D20", "ruling": "199901", "deductibility": "1", "assets": 7384, "income": 64000, "revenue": 64000}, {"ein": "474357174", "name": "CONGREGATION YASHIVA GEDOLA SHAR YISOSCHOR DINOV", "city": "BROOKLYN", "state": "NY", "zip": "11249-7833", "ntee": "X30", "ruling": "202210", "deductibility": "1", "assets": 0, "income": 0, "revenue": 0}, {"ein": "475485796", "name": "CONG SHAR HASHAMAYIM", "city": "BROOKLYN", "state": "NY", "zip": "11210-4617", "ntee": "X30", "ruling": "201808", "deductibility": "1", "assets": 0, "income": 0, "revenue": 0}, {"ein": "871487326", "name": "SHAR AND STARS INC", "city": "BROOKLYN", "state": "NY", "zip": "11233-3786", "ntee": "K31", "ruling": "202201", "deductibility": "1", "assets": 0, "income": 0, "revenue": 0}], "UNIFIED": [{"ein": "010595370", "name": "HEALING FELLOWSHIP OF THE UNIFIED MOTHER-FATHER", "city": "HUNTINGTON", "state": "NY", "zip": "11743-3436", "ntee": "X99", "ruling": "200305", "deductibility": "1", "assets": 0, "income": 0, "revenue": 0}, {"ein": "112655987", "name": "UNIFIED COUNCIL OF CLERGY", "city": "LONG BEACH", "state": "NY", "zip": "11561-2008", "ntee": "P20", "ruling": "201511", "deductibility": "1", "assets": 0, "income": 0, "revenue": 0}, {"ein": "112658418", "name": "GOOD SHEPHERD DELIVERANCE UNIFIED FREEWILL BAPTIST CHURCH INC", "city": "BROOKLYN", "state": "NY", "zip": "11221-1107", "ntee": "", "ruling": "198505", "deductibility": "1", "assets": 0, "income": 0, "revenue": 0}, {"ein": "113040771", "name": "GREATER UNIFIED FREEWILL BAPTIST CHURCH INC", "city": "BROOKLYN", "state": "NY", "zip": "11216-3502", "ntee": "", "ruling": "199202", "deductibility": "1", "assets": 0, "income": 0, "revenue": 0}, {"ein": "113068616", "name": "CALVARY UNIFIED FREE WILL BAPTIST CHURCH", "city": "BROOKLYN", "state": "NY", "zip": "11207-2316", "ntee": "", "ruling": "197411", "deductibility": "1", "assets": 0, "income": 0, "revenue": 0}, {"ein": "133115768", "name": "UNIFIED CREATIVE PROGRAMS INC", "city": "RYE BROOK", "state": "NY", "zip": "10573-1069", "ntee": "", "ruling": "198402", "deductibility": "1", "assets": 0, "income": 0, "revenue": 0}, {"ein": "133876715", "name": "COMMITTEE FOR A UNIFIED INDEPENDENT PARTY", "city": "SHUSHAN", "state": "NY", "zip": "12873-0094", "ntee": "W24", "ruling": "200004", "deductibility": "2", "assets": 156461, "income": 290721, "revenue": 290721}, {"ein": "133985467", "name": "FRIENDSHIP UNIFIED FREEWILL BAPTIST CHURCH OF MOUNT VERNON NEW YORK", "city": "MOUNT VERNON", "state": "NY", "zip": "10552-3307", "ntee": "", "ruling": "197411", "deductibility": "1", "assets": 0, "income": 0, "revenue": 0}, {"ein": "260666579", "name": "UNIFIED SOUL PRESBYTERIAN CHURCH OFNEW YORK", "city": "BAYSIDE", "state": "NY", "zip": "11361-2063", "ntee": "X200", "ruling": "200805", "deductibility": "1", "assets": 0, "income": 0, "revenue": 0}, {"ein": "352823369", "name": "585 PUPS PERSONAL UNIFIED POSSIBILITIES SUPPORT INC", "city": "E ROCHESTER", "state": "NY", "zip": "14445-1914", "ntee": "D20", "ruling": "202406", "deductibility": "1", "assets": 0, "income": 0, "revenue": 0}, {"ein": "833143803", "name": "FRIENDS OF UNIFIED SPORTS INC", "city": "NEWFANE", "state": "NY", "zip": "14108-9617", "ntee": "O99", "ruling": "201904", "deductibility": "1", "assets": 52329, "income": 80445, "revenue": 32102}, {"ein": "922143323", "name": "ADVOCACY UNIFIED NETWORK INC", "city": "MAHOPAC", "state": "NY", "zip": "10541-0000", "ntee": "P20", "ruling": "202305", "deductibility": "1", "assets": 0, "income": 0, "revenue": 0}, {"ein": "933976549", "name": "UNIFIED YOUTH INC", "city": "NEW YORK", "state": "NY", "zip": "10036-6551", "ntee": "E01", "ruling": "202403", "deductibility": "1", "assets": 257500, "income": 257500, "revenue": 257500}, {"ein": "992929344", "name": "UNIFIED BLACK CAUCUS INC", "city": "BRONX", "state": "NY", "zip": "10458-6378", "ntee": "", "ruling": "202405", "deductibility": "1", "assets": 0, "income": 0, "revenue": 0}], "KUNSTADT": [{"ein": "010710118", "name": "HERBERT AND DOROTHY KUNSTADT FOUNDATION INC", "city": "NEW YORK", "state": "NY", "zip": "10065-4907", "ntee": "T22", "ruling": "200211", "deductibility": "1", "assets": 428228, "income": 241658, "revenue": 0}], "HONDURAS": [{"ein": "020549910", "name": "HONDURAS COMMUNITY SUPPORT CORPORATION", "city": "CAMBRIDGE", "state": "NY", "zip": "12816-2220", "ntee": "Q30", "ruling": "200207", "deductibility": "1", "assets": 0, "income": 0, "revenue": 0}, {"ein": "453596602", "name": "HONDURAS EYE & LIFE PROGRAM INC", "city": "SYRACUSE", "state": "NY", "zip": "13214-0048", "ntee": "Q33", "ruling": "201202", "deductibility": "1", "assets": 0, "income": 0, "revenue": 0}, {"ein": "463712118", "name": "LITTLE ANGELS OF HONDURAS INC", "city": "FREWSBURG", "state": "NY", "zip": "14738-0994", "ntee": "T30", "ruling": "201402", "deductibility": "1", "assets": 0, "income": 0, "revenue": 0}, {"ein": "464733207", "name": "FOUNDATION FOR EDUCATION IN HONDURAS", "city": "NEW YORK", "state": "NY", "zip": "10150-1702", "ntee": "Q33", "ruling": "201409", "deductibility": "1", "assets": 280988, "income": 115632, "revenue": 115632}, {"ein": "800637002", "name": "NEW YORK HONDURAS SOCCER LEAGUE INC", "city": "BRONX", "state": "NY", "zip": "10456-1910", "ntee": "N64", "ruling": "201912", "deductibility": "1", "assets": 18, "income": 63768, "revenue": 63768}, {"ein": "921312514", "name": "GARIFUNA ENLACE USA AND HONDURAS INC", "city": "BRONX", "state": "NY", "zip": "10460-4304", "ntee": "B30", "ruling": "202301", "deductibility": "1", "assets": 0, "income": 0, "revenue": 0}, {"ein": "922740533", "name": "HONDURAS HEALTH HORIZONS INC", "city": "FREDONIA", "state": "NY", "zip": "14063-1653", "ntee": "Q33", "ruling": "202505", "deductibility": "1", "assets": 0, "income": 0, "revenue": 0}], "MEEHAN": [{"ein": "020602604", "name": "DAMIAN P MEEHAN MEMORIAL FUND INC", "city": "MAMARONECK", "state": "NY", "zip": "10543-2506", "ntee": "B82", "ruling": "200209", "deductibility": "1", "assets": 0, "income": 0, "revenue": 0}, {"ein": "136062834", "name": "WILLIAM M AND MIRIAM F MEEHAN FOUNDATION INC", "city": "NEW YORK", "state": "NY", "zip": "10128-1314", "ntee": "", "ruling": "195211", "deductibility": "1", "assets": 2308062, "income": 921488, "revenue": 0}, {"ein": "137099577", "name": "MEEHAN FOUNDATION", "city": "NEW YORK", "state": "NY", "zip": "10006-3053", "ntee": "", "ruling": "199702", "deductibility": "1", "assets": 8167981, "income": 2729628, "revenue": 0}, {"ein": "237348770", "name": "NANCY MEEHAN DANCE COMPANY INC", "city": "NEW YORK", "state": "NY", "zip": "10014-2040", "ntee": "", "ruling": "197402", "deductibility": "1", "assets": 0, "income": 0, "revenue": 0}, {"ein": "256117261", "name": "MEEHAN FAMILY CHARITY FUND", "city": "BUFFALO", "state": "NY", "zip": "14240-1504", "ntee": "", "ruling": "000000", "deductibility": "0", "assets": 168772, "income": 49715, "revenue": 0}, {"ein": "256450971", "name": "MEEHAN-HOLTZ CHARITY TA", "city": "BUFFALO", "state": "NY", "zip": "14240-1504", "ntee": "T22", "ruling": "200608", "deductibility": "1", "assets": 791327, "income": 206159, "revenue": 0}], "STAGE": [{"ein": "020604733", "name": "BRONX STAGE & FILM CO INC", "city": "BRONX", "state": "NY", "zip": "10801-0000", "ntee": "A65", "ruling": "200410", "deductibility": "1", "assets": 0, "income": 0, "revenue": 0}, {"ein": "061248379", "name": "NORTHEAST STAGE", "city": "GREENPORT", "state": "NY", "zip": "11944-0247", "ntee": "", "ruling": "198908", "deductibility": "1", "assets": 0, "income": 0, "revenue": 0}, {"ein": "111397920", "name": "INTERNATIONAL ALLIANCE THEATRICAL STAGE EMPLOYEES & MOVING PICTURE", "city": "BROOKLYN", "state": "NY", "zip": "11210-2631", "ntee": "", "ruling": "194104", "deductibility": "2", "assets": 3113561, "income": 2137954, "revenue": 1155635}, {"ein": "130460219", "name": "INTERNATIONAL ALLIANCE THEATRICAL STAGE EMPLOYEES & MOVING PICTURE", "city": "NEW YORK", "state": "NY", "zip": "10036-0322", "ntee": "", "ruling": "198403", "deductibility": "2", "assets": 367929, "income": 1133414, "revenue": 1133414}, {"ein": "131068240", "name": "INTERNATIONAL ALLIANCE THEATRICAL STAGE EMP & MVG PIC MACH OP-US&CAN", "city": "ASTORIA", "state": "NY", "zip": "11105-1109", "ntee": "", "ruling": "194104", "deductibility": "2", "assets": 52786163, "income": 126095447, "revenue": 14886443}, {"ein": "131374705", "name": "INTERNATIONAL ALLIANCE THEATRICAL STAGE EMPLOYEES & MOVING PICTURE", "city": "NEW YORK", "state": "NY", "zip": "10122-1405", "ntee": "", "ruling": "194104", "deductibility": "2", "assets": 6282681, "income": 1787268, "revenue": 1787268}, {"ein": "131374710", "name": "INTERNATIONAL ALLIANCE THEATRICAL STAGE EMPLOYEES & MOVING PICTURE", "city": "NEW YORK", "state": "NY", "zip": "10036-3845", "ntee": "", "ruling": "194104", "deductibility": "2", "assets": 17249708, "income": 31832169, "revenue": 14490633}, {"ein": "131374750", "name": "INTERNATIONAL ALLIANCE THEATRICAL STAGE EMPLOYEES & MOVING PICTURE", "city": "NEW YORK", "state": "NY", "zip": "10036-0322", "ntee": "", "ruling": "194104", "deductibility": "2", "assets": 10275004, "income": 3710305, "revenue": 3178851}, {"ein": "131395875", "name": "INTERNATIONAL ALLIANCE THEATRICAL STAGE EMPLOYEES & MOVING PICTURE", "city": "NEW YORK", "state": "NY", "zip": "10018-0000", "ntee": "J40", "ruling": "194104", "deductibility": "2", "assets": 3424206, "income": 1693138, "revenue": 1693138}, {"ein": "131426730", "name": "INTERNATIONAL ALLIANCE THEATRICAL STAGE EMPLOYEES & MOVING PICTURE", "city": "NEW YORK", "state": "NY", "zip": "10010-0000", "ntee": "", "ruling": "194104", "deductibility": "2", "assets": 12473713, "income": 10837889, "revenue": 7677387}, {"ein": "131575490", "name": "INTERNATIONAL ALLIANCE THEATRICAL STAGE EMPLOYEES", "city": "NEW YORK", "state": "NY", "zip": "10001-7141", "ntee": "", "ruling": "194102", "deductibility": "2", "assets": 102743917, "income": 136234987, "revenue": 42481110}, {"ein": "131663692", "name": "INTERNATIONAL ALLIANCE THEATRICAL STAGE EMPLOYEES & MOVING PICTURE", "city": "NEW YORK", "state": "NY", "zip": "10018-8040", "ntee": "", "ruling": "194104", "deductibility": "2", "assets": 12992119, "income": 4230997, "revenue": 4187808}, {"ein": "131915957", "name": "STAGE DIRECTORS AND CHOREOGRAPHERS SOCIETY INC", "city": "NEW YORK", "state": "NY", "zip": "10036-5477", "ntee": "", "ruling": "199112", "deductibility": "2", "assets": 2437845, "income": 4850722, "revenue": 3759832}, {"ein": "132570500", "name": "STAGE DIRECTORS & CHOREOGRAPHERS WORKSHOP FOUNDATION INC", "city": "NEW YORK", "state": "NY", "zip": "10036-5477", "ntee": "", "ruling": "196511", "deductibility": "1", "assets": 470398, "income": 520842, "revenue": 394575}, {"ein": "133021180", "name": "SECOND STAGE THEATRE", "city": "NEW YORK", "state": "NY", "zip": "10036-5505", "ntee": "A650", "ruling": "198005", "deductibility": "1", "assets": 57642356, "income": 29515025, "revenue": 28749503}, {"ein": "133166308", "name": "HARLEM STAGE INC", "city": "NEW YORK", "state": "NY", "zip": "10031-9127", "ntee": "Z99Z", "ruling": "198309", "deductibility": "1", "assets": 5412675, "income": 4011013, "revenue": 3702961}, {"ein": "133262501", "name": "INTERNATIONAL ALLIANCE THEATRICAL STAGE EMPLOYEES & MOVING PICTURE", "city": "NEW YORK", "state": "NY", "zip": "10018-0000", "ntee": "", "ruling": "194104", "deductibility": "2", "assets": 0, "income": 0, "revenue": 0}, {"ein": "133407817", "name": "NEW YORK STAGE AND FILM COMPANY INC", "city": "NEW YORK", "state": "NY", "zip": "10001-5318", "ntee": "A250", "ruling": "198707", "deductibility": "1", "assets": 615867, "income": 1542308, "revenue": 1343386}, {"ein": "133418140", "name": "INTERNATIONAL ALLIANCE THEATRICAL STAGE EMPLOYEES & MOVING PICTURE", "city": "NEW YORK", "state": "NY", "zip": "10036-3743", "ntee": "", "ruling": "194102", "deductibility": "2", "assets": 3958956, "income": 2372387, "revenue": 2372387}, {"ein": "133426203", "name": "STAGE MANAGERS ASSOCIATION", "city": "NEW YORK", "state": "NY", "zip": "10108-0526", "ntee": "S40", "ruling": "201506", "deductibility": "2", "assets": 24387, "income": 37857, "revenue": 37857}, {"ein": "133628440", "name": "CENTAUR STAGE INC", "city": "NEW YORK", "state": "NY", "zip": "10025-1960", "ntee": "Z99", "ruling": "199112", "deductibility": "1", "assets": 0, "income": 0, "revenue": 0}, {"ein": "133713229", "name": "INTERNATIONAL ALLIANCE THEATRICAL STAGE EMPLOYEES & MOVING PICTURE M", "city": "NEW YORK", "state": "NY", "zip": "10036-0322", "ntee": "", "ruling": "194102", "deductibility": "2", "assets": 0, "income": 0, "revenue": 0}, {"ein": "136227788", "name": "INTERNATIONAL ALLIANCE THEATRCIAL STAGE EMPLOYEES & MOVING PICTURE", "city": "NEW YORK", "state": "NY", "zip": "10021-0012", "ntee": "", "ruling": "196706", "deductibility": "2", "assets": 966690, "income": 576114, "revenue": 372951}, {"ein": "146029805", "name": "INTERNATIONAL ALLIANCE THEATRICAL STAGE EMPLOYEES & MOVING PICTURE", "city": "PORT JERVIS", "state": "NY", "zip": "12771-0332", "ntee": "", "ruling": "194104", "deductibility": "2", "assets": 0, "income": 0, "revenue": 0}, {"ein": "146039100", "name": "INTERNATIONAL ALLIANCE THEATRICAL STAGE EMPLOYEES & MOVING PICTURE M", "city": "ALBANY", "state": "NY", "zip": "12211-0074", "ntee": "", "ruling": "196706", "deductibility": "2", "assets": 237163, "income": 115290, "revenue": 115290}, {"ein": "146039103", "name": "INTERNATIONAL ALLIANCE THEATRICAL STAGE EMPLOYEES & MOVING PICTURE M", "city": "NEW HAMPTON", "state": "NY", "zip": "10958-0399", "ntee": "", "ruling": "196706", "deductibility": "2", "assets": 440446, "income": 206946, "revenue": 206946}, {"ein": "156021734", "name": "INTERNATIONAL ALLIANCE THEATRICAL STAGE EMPLOYEES & MOVING PICTURE M", "city": "VESTAL", "state": "NY", "zip": "13850-5413", "ntee": "", "ruling": "194104", "deductibility": "2", "assets": 21544, "income": 15075, "revenue": 15075}, {"ein": "166032035", "name": "INTERNATIONAL ALLIANCE THEATRICAL STAGE EMPLOYEES & MOVING PICTURE M", "city": "ROCHESTER", "state": "NY", "zip": "14623-2641", "ntee": "", "ruling": "194102", "deductibility": "2", "assets": 255226, "income": 214809, "revenue": 214809}, {"ein": "166050900", "name": "INTERNATIONAL ALLIANCE THEATRICAL STAGE EMPLOYEES & MOVING PICTURE", "city": "BUFFALO", "state": "NY", "zip": "14216-1501", "ntee": "", "ruling": "194104", "deductibility": "2", "assets": 0, "income": 0, "revenue": 0}, {"ein": "166050905", "name": "INTERNATIONAL ALLIANCE THEATRICAL STAGE EMP & MOV PICTURE OF US", "city": "ELMIRA", "state": "NY", "zip": "14902-1147", "ntee": "", "ruling": "194104", "deductibility": "2", "assets": 19783, "income": 312269, "revenue": 312269}, {"ein": "166052610", "name": "INTERNATIONAL ALLIANCE THEATRICAL STAGE EMP & MOV PICTURS ETAL", "city": "SYRACUSE", "state": "NY", "zip": "13201-0617", "ntee": "", "ruling": "194104", "deductibility": "2", "assets": 109516, "income": 171347, "revenue": 171347}, {"ein": "166085426", "name": "INTERNATIONAL ALLIANCE THEATRICAL STAGE EMPLOYEES & MOVING PICTURE", "city": "ROCHESTER", "state": "NY", "zip": "14605-2723", "ntee": "", "ruling": "196706", "deductibility": "2", "assets": 0, "income": 0, "revenue": 0}, {"ein": "166085553", "name": "INTERNATIONAL ALLIANCE THEATRICAL STAGE EMPLOYEES & MOVING PICTURE M", "city": "BUFFALO", "state": "NY", "zip": "14202-1928", "ntee": "", "ruling": "196706", "deductibility": "2", "assets": 79485, "income": 328961, "revenue": 328961}, {"ein": "166085554", "name": "INTERNATIONAL ALLIANCE THEATRICAL STAGE EMPLOYEES & MOVING PICTURE M", "city": "AMHERST", "state": "NY", "zip": "14228-3744", "ntee": "", "ruling": "196706", "deductibility": "2", "assets": 0, "income": 0, "revenue": 0}, {"ein": "201898341", "name": "CONFETTI STAGE INC", "city": "ALBANY", "state": "NY", "zip": "12207-1904", "ntee": "A65", "ruling": "200705", "deductibility": "1", "assets": 0, "income": 0, "revenue": 0}, {"ein": "223691252", "name": "STAGE LEFT CHILDRENS THEATRE INC", "city": "TAPPAN", "state": "NY", "zip": "10983-2134", "ntee": "A65", "ruling": "200009", "deductibility": "1", "assets": 487494, "income": 556733, "revenue": 550779}, {"ein": "237359747", "name": "HAMM & CLOV STAGE COMPANY INC", "city": "YONKERS", "state": "NY", "zip": "10705-2615", "ntee": "", "ruling": "197404", "deductibility": "1", "assets": 0, "income": 0, "revenue": 0}, {"ein": "263359352", "name": "TACONIC STAGE COMPANY INC", "city": "CRARYVILLE", "state": "NY", "zip": "12521-5060", "ntee": "A30", "ruling": "200905", "deductibility": "1", "assets": 0, "income": 0, "revenue": 0}, {"ein": "271131995", "name": "CENTRE STAGE COMMUNITY THEATRE", "city": "CORNING", "state": "NY", "zip": "14830-4985", "ntee": "A65", "ruling": "201204", "deductibility": "1", "assets": 0, "income": 0, "revenue": 0}, {"ein": "320714027", "name": "LONG ISLAND STAGE INC", "city": "BOHEMIA", "state": "NY", "zip": "11716-4113", "ntee": "A60", "ruling": "202505", "deductibility": "1", "assets": 0, "income": 0, "revenue": 0}, {"ein": "352178785", "name": "NEW STAGE THEATRE COMPANY INC", "city": "NEW YORK", "state": "NY", "zip": "10004-3236", "ntee": "A65", "ruling": "200301", "deductibility": "1", "assets": 13293, "income": 85600, "revenue": 83006}, {"ein": "352226380", "name": "INTERNATIONAL ALLIANCE THEATRICAL STAGE EMPLOYEES & MOVING PICTURES", "city": "HAUPPAUGE", "state": "NY", "zip": "11788-2512", "ntee": "", "ruling": "194104", "deductibility": "2", "assets": 1949798, "income": 1442810, "revenue": 1079823}, {"ein": "364670392", "name": "ACADEMY OF FILM TELEVISION STAGE AND PERFORMING ARTS INC", "city": "GOSHEN", "state": "NY", "zip": "10924-2015", "ntee": "A25", "ruling": "201402", "deductibility": "1", "assets": 0, "income": 0, "revenue": 0}, {"ein": "364710735", "name": "RVILLE STAGE CREATIONS", "city": "RENSSELAERVLE", "state": "NY", "zip": "12147-2315", "ntee": "A65", "ruling": "202311", "deductibility": "1", "assets": 0, "income": 0, "revenue": 0}, {"ein": "450705700", "name": "STAGE NOTES", "city": "WATERTOWN", "state": "NY", "zip": "13601-0421", "ntee": "A60", "ruling": "201308", "deductibility": "1", "assets": 47854, "income": 84753, "revenue": 80088}, {"ein": "452571008", "name": "YORKTOWN STAGE KIDS", "city": "YORKTOWN HTS", "state": "NY", "zip": "10598-4439", "ntee": "P12", "ruling": "201908", "deductibility": "1", "assets": 0, "income": 0, "revenue": 0}, {"ein": "463003829", "name": "SMITH STREET STAGE INC", "city": "BROOKLYN", "state": "NY", "zip": "11218-2715", "ntee": "A99", "ruling": "201407", "deductibility": "1", "assets": 108531, "income": 94169, "revenue": 93419}, {"ein": "471561014", "name": "STAGE THE CHANGE", "city": "DIX HILLS", "state": "NY", "zip": "11746-7927", "ntee": "A20", "ruling": "201409", "deductibility": "1", "assets": 39196, "income": 83990, "revenue": 83990}, {"ein": "471934614", "name": "PRISM STAGE COMPANY INC", "city": "NEW YORK", "state": "NY", "zip": "10016-3173", "ntee": "A65", "ruling": "202305", "deductibility": "1", "assets": 0, "income": 0, "revenue": 0}, {"ein": "474879221", "name": "STAGE LOVE THEATER COMPANY INC", "city": "MAMARONECK", "state": "NY", "zip": "10543-1112", "ntee": "A65", "ruling": "201603", "deductibility": "1", "assets": 0, "income": 0, "revenue": 0}, {"ein": "800491831", "name": "UNITY STAGE COMPANY INC", "city": "SUNNYSIDE", "state": "NY", "zip": "11104-1419", "ntee": "A65", "ruling": "201009", "deductibility": "1", "assets": 29708, "income": 62305, "revenue": 62305}, {"ein": "814353523", "name": "BEAT STAGE 3 INC", "city": "NEW YORK", "state": "NY", "zip": "10018-7726", "ntee": "G01", "ruling": "201701", "deductibility": "1", "assets": 0, "income": 0, "revenue": 0}, {"ein": "823960123", "name": "SPARKLE ON STAGE INC", "city": "FREEPORT", "state": "NY", "zip": "11520-5421", "ntee": "A60", "ruling": "202004", "deductibility": "1", "assets": 13344, "income": 66091, "revenue": 66091}, {"ein": "831799284", "name": "ADIRONDACK CENTER STAGE INC", "city": "CORINTH", "state": "NY", "zip": "12822-0053", "ntee": "A6E", "ruling": "201809", "deductibility": "1", "assets": 0, "income": 0, "revenue": 0}, {"ein": "831935295", "name": "GRAND STAGE INTERNATIONAL INC", "city": "NEW YORK", "state": "NY", "zip": "10023-6727", "ntee": "A6A", "ruling": "202309", "deductibility": "1", "assets": 1, "income": 1, "revenue": 0}, {"ein": "832112053", "name": "THE WORLDS BIGGEST STAGE INC", "city": "NEW YORK", "state": "NY", "zip": "10023-2152", "ntee": "A68", "ruling": "202003", "deductibility": "1", "assets": 0, "income": 0, "revenue": 0}, {"ein": "833782341", "name": "OPEN STAGE PROJECT INC", "city": "NEW YORK", "state": "NY", "zip": "10024-5805", "ntee": "B90", "ruling": "201905", "deductibility": "1", "assets": 115069, "income": 154252, "revenue": 154252}, {"ein": "834132708", "name": "CENTER STAGE FOR CHANGE INC", "city": "BRONX", "state": "NY", "zip": "10470-2122", "ntee": "O50", "ruling": "201909", "deductibility": "1", "assets": 0, "income": 0, "revenue": 0}, {"ein": "844037658", "name": "KATONAH CLASSIC STAGE INC", "city": "SOMERS", "state": "NY", "zip": "10589-0000", "ntee": "A65", "ruling": "202106", "deductibility": "1", "assets": 3180, "income": 147095, "revenue": 147095}, {"ein": "844352359", "name": "STAGE AURORA NEW YORK -NY", "city": "ASTORIA", "state": "NY", "zip": "11102-1628", "ntee": "A65", "ruling": "202108", "deductibility": "1", "assets": 0, "income": 0, "revenue": 0}, {"ein": "852892881", "name": "CREATIVE STAGE COLLECTIVE LTD", "city": "NEW YORK", "state": "NY", "zip": "10034-3163", "ntee": "A60", "ruling": "202205", "deductibility": "1", "assets": 0, "income": 0, "revenue": 0}, {"ein": "871116196", "name": "BEYOND THE STAGE DOOR INC", "city": "NEW YORK", "state": "NY", "zip": "10036-5600", "ntee": "A6E", "ruling": "202203", "deductibility": "1", "assets": 81960, "income": 108998, "revenue": 108998}, {"ein": "874683234", "name": "STAGE MANAGERS ASSOCIATION FOUNDATION", "city": "NEW YORK", "state": "NY", "zip": "10108-2225", "ntee": "A26", "ruling": "202401", "deductibility": "1", "assets": 0, "income": 0, "revenue": 0}, {"ein": "911836956", "name": "INTERNATIONAL ALLIANCE THEATRICAL STAGE EMPLOYEES & MOVING PICTURE", "city": "ONEONTA", "state": "NY", "zip": "13820-4678", "ntee": "", "ruling": "194104", "deductibility": "2", "assets": 0, "income": 0, "revenue": 0}, {"ein": "911836973", "name": "INTERNATIONAL ALLIANCE THEATRICAL STAGE EMPLOYEES & MOVING PICTURE", "city": "ROCHESTER", "state": "NY", "zip": "14623-5335", "ntee": "", "ruling": "194104", "deductibility": "2", "assets": 0, "income": 0, "revenue": 0}, {"ein": "911837209", "name": "INTERNATIONAL ALLIANCE THEATRICAL STAGE EMPLOYEES & MOVING PICTURE", "city": "ROCHESTER", "state": "NY", "zip": "14624-4433", "ntee": "", "ruling": "194104", "deductibility": "2", "assets": 0, "income": 0, "revenue": 0}, {"ein": "921760555", "name": "FRONTIER STAGE PRODUCTIONS INC", "city": "BRONX", "state": "NY", "zip": "10463-3430", "ntee": "B99", "ruling": "202505", "deductibility": "1", "assets": 0, "income": 0, "revenue": 0}, {"ein": "934454312", "name": "THE STAGE DOOR FOUNDATION INC", "city": "NEW YORK", "state": "NY", "zip": "10019-7434", "ntee": "A65", "ruling": "202411", "deductibility": "1", "assets": 0, "income": 0, "revenue": 0}, {"ein": "934765871", "name": "CENTER STAGE POPS", "city": "ROCHESTER", "state": "NY", "zip": "14616-2801", "ntee": "A69", "ruling": "202411", "deductibility": "1", "assets": 0, "income": 0, "revenue": 0}, {"ein": "990886805", "name": "EVANGOLA STAGE THEATER INC", "city": "BUFFALO", "state": "NY", "zip": "14220-2237", "ntee": "A60", "ruling": "202505", "deductibility": "1", "assets": 0, "income": 0, "revenue": 0}, {"ein": "991297029", "name": "GLOBE STAGE INC", "city": "SAG HARBOR", "state": "NY", "zip": "11963-2649", "ntee": "A60", "ruling": "202408", "deductibility": "1", "assets": 0, "income": 0, "revenue": 0}, {"ein": "994628069", "name": "NEXT STAGE ENSEMBLE", "city": "BROOKLYN", "state": "NY", "zip": "11201-3022", "ntee": "A20", "ruling": "202507", "deductibility": "1", "assets": 0, "income": 0, "revenue": 0}], "BEDS": [{"ein": "020712462", "name": "BEDS FROM BRIAN", "city": "MIDDLEPORT", "state": "NY", "zip": "14105-9634", "ntee": "P20", "ruling": "201508", "deductibility": "1", "assets": 2485, "income": 26224, "revenue": 25174}, {"ein": "811900934", "name": "BUBBAS BEDS FOR SHELTER FRIENDS", "city": "WHITESBORO", "state": "NY", "zip": "13492-4205", "ntee": "D12", "ruling": "201705", "deductibility": "1", "assets": 0, "income": 0, "revenue": 0}], "MIDAS": [{"ein": "043647164", "name": "MIDAS H CHASED INC", "city": "BROOKLYN", "state": "NY", "zip": "11211-7257", "ntee": "X30", "ruling": "200304", "deductibility": "1", "assets": 0, "income": 0, "revenue": 0}], "PREVENTION": [{"ein": "061157884", "name": "THE PREVENTION COUNCIL OF PUTNAM INC", "city": "CARMEL", "state": "NY", "zip": "10512-1208", "ntee": "G82Z", "ruling": "198703", "deductibility": "1", "assets": 523369, "income": 558532, "revenue": 558532}, {"ein": "112990626", "name": "SUFFOLK COUNTY SOCIETY FOR THE PREVENTION OF CRUELTY TO ANIMALS", "city": "HAUPPAUGE", "state": "NY", "zip": "11788-0000", "ntee": "D200", "ruling": "199508", "deductibility": "1", "assets": 1358861, "income": 542360, "revenue": 168315}, {"ein": "131623829", "name": "AMERICAN SOCIETY FOR THE PREVENTION OF CRUELTY TO ANIMALS", "city": "NEW YORK", "state": "NY", "zip": "10128-6804", "ntee": "D200", "ruling": "192103", "deductibility": "1", "assets": 640868499, "income": 446679148, "revenue": 379347127}, {"ein": "131624134", "name": "NEW YORK SOCIETY FOR THE PREVENTION OF CRUELTY TO CHILDREN", "city": "NEW YORK", "state": "NY", "zip": "10018-6513", "ntee": "I720", "ruling": "193804", "deductibility": "1", "assets": 41407701, "income": 13718850, "revenue": 3112466}, {"ein": "131739932", "name": "BRONX COUNTY SOCIETY FOR THE PREVENTION OF CRUELTY TO CHILDREN", "city": "BRONX", "state": "NY", "zip": "10475-0038", "ntee": "I720", "ruling": "193708", "deductibility": "1", "assets": 43743, "income": 86, "revenue": 86}, {"ein": "132765085", "name": "ARCHDIOCESE OF N Y OFFICE OF DRUG EDUC & PREVENTION", "city": "BRONX", "state": "NY", "zip": "10465-3247", "ntee": "", "ruling": "194603", "deductibility": "1", "assets": 0, "income": 0, "revenue": 0}, {"ein": "132885302", "name": "INTERNATIONAL INSTITUTE FOR CONFLICT PREVENTION AND RESOLUTION", "city": "NEW YORK", "state": "NY", "zip": "10016-5337", "ntee": "", "ruling": "197704", "deductibility": "1", "assets": 5952649, "income": 3373780, "revenue": 3146364}, {"ein": "132977273", "name": "ROCKLAND COUNTY SOCIETY FOR PREVENTION OF CRUELTY TO CHILDREN", "city": "SUFFERN", "state": "NY", "zip": "10901-5624", "ntee": "", "ruling": "197905", "deductibility": "1", "assets": 72550, "income": 28726, "revenue": 28726}, {"ein": "133393329", "name": "AMERICAN FOUNDATION FOR SUICIDE PREVENTION", "city": "NEW YORK", "state": "NY", "zip": "10038-3589", "ntee": "F110", "ruling": "199111", "deductibility": "1", "assets": 93817255, "income": 51459731, "revenue": 44650754}, {"ein": "133867775", "name": "THE ASSOCIATION FOR TRAUMA OUTREACH AND PREVENTION INC", "city": "NEW YORK", "state": "NY", "zip": "10028-2140", "ntee": "B99", "ruling": "201111", "deductibility": "1", "assets": 2920, "income": 11480, "revenue": 11480}, {"ein": "134017700", "name": "FOUNDATION FOR STROKE PREVENTION INC", "city": "BROOKLYN", "state": "NY", "zip": "11234-2644", "ntee": "B60", "ruling": "202411", "deductibility": "1", "assets": 0, "income": 0, "revenue": 0}, {"ein": "134047460", "name": "LABOR ASSISTANCE PROGRAM FOR THE PREVENTION OF DRUG AND ALCOHOL ABU", "city": "BRONX", "state": "NY", "zip": "10470-1814", "ntee": "F21", "ruling": "200007", "deductibility": "1", "assets": 28935, "income": 73462, "revenue": 26676}, {"ein": "135651238", "name": "ACCIDENT PREVENTION AND SAFETY LEAGUE INC", "city": "NEW YORK", "state": "NY", "zip": "10007-2635", "ntee": "", "ruling": "194607", "deductibility": "2", "assets": 342795, "income": 352544, "revenue": 352544}, {"ein": "136058184", "name": "TR BKLYN SOC FOR PREVENTION", "city": "NEW YORK", "state": "NY", "zip": "10013-2362", "ntee": "", "ruling": "198209", "deductibility": "0", "assets": 542950, "income": 166652, "revenue": 0}, {"ein": "141383470", "name": "MONTGOMERY COUNTY SOCIETY FOR THE PREVENTION OF CRUELTY TO ANIMALS", "city": "AMSTERDAM", "state": "NY", "zip": "12010-7788", "ntee": "D200", "ruling": "194809", "deductibility": "1", "assets": 2926322, "income": 874336, "revenue": 869170}, {"ein": "141422082", "name": "ULSTER COUNTY SOCIETY FOR THE PREVENTION OF CRUELTY TO ANIMALS", "city": "KINGSTON", "state": "NY", "zip": "12401-1237", "ntee": "D200", "ruling": "197511", "deductibility": "1", "assets": 3017598, "income": 2103154, "revenue": 1784779}, {"ein": "141423752", "name": "ELMORE SOCIETY FOR THE PREVENTION OF CRUELTY TO ANIMALS INC", "city": "PERU", "state": "NY", "zip": "12972-0686", "ntee": "D200", "ruling": "196803", "deductibility": "1", "assets": 622279, "income": 694781, "revenue": 683385}, {"ein": "141584091", "name": "CHILD ABUSE PREVENTION CENTER INC", "city": "POUGHKEEPSIE", "state": "NY", "zip": "12603-1619", "ntee": "I72P", "ruling": "197604", "deductibility": "1", "assets": 1604809, "income": 1150696, "revenue": 1112548}, {"ein": "141626662", "name": "ALCOHOL & SUBSTANCE ABUSE PREVENTION PROJECT INC", "city": "SARATOGA SPRINGS", "state": "NY", "zip": "12866-2307", "ntee": "", "ruling": "198203", "deductibility": "1", "assets": 1384893, "income": 2125669, "revenue": 2125669}, {"ein": "141649520", "name": "SOCIETY FOR THE PREVENTION OF CRUELTY TO ANIMALS OF UPSTATE", "city": "HUDSON FALLS", "state": "NY", "zip": "12839-0171", "ntee": "D200", "ruling": "199306", "deductibility": "1", "assets": 90979, "income": 510859, "revenue": 510859}, {"ein": "141670547", "name": "COUNCIL FOR PREVENTION INC", "city": "HUDSON FALLS", "state": "NY", "zip": "12839-1848", "ntee": "", "ruling": "199301", "deductibility": "0", "assets": 435931, "income": 1390291, "revenue": 1390291}, {"ein": "146027733", "name": "NEWBURGH SOCIETY FOR THE PREVENTION OF CRUELTY TO ANIMALS", "city": "NEW WINDSOR", "state": "NY", "zip": "12553-7209", "ntee": "D200", "ruling": "196906", "deductibility": "1", "assets": 664598, "income": 569423, "revenue": 569423}, {"ein": "146027998", "name": "SULLIAN COUNTY SOCIETY FOR THE PREVENTION OF CRUELTY TO ANIMALS", "city": "ROCK HILL", "state": "NY", "zip": "12775-0995", "ntee": "D200", "ruling": "197112", "deductibility": "1", "assets": 170929, "income": 603819, "revenue": 603819}, {"ein": "150532072", "name": "CENTRAL NEW YORK SOCIETY FOR THE PREVENTION OF CRUELTY TO ANIMALS", "city": "SYRACUSE", "state": "NY", "zip": "13211-2108", "ntee": "D200", "ruling": "195402", "deductibility": "1", "assets": 4861697, "income": 2540961, "revenue": 2009332}, {"ein": "150544693", "name": "SUSQUEHANNA SOCIETY FOR THE PREVENTION OF CRUELTY TO ANIMALS", "city": "COOPERSTOWN", "state": "NY", "zip": "13326-5704", "ntee": "D200", "ruling": "195111", "deductibility": "1", "assets": 9008266, "income": 2365911, "revenue": 1963097}, {"ein": "160743092", "name": "NIAGARA COUNTY SOCIETY FOR THE PREVENTION OF CRUELTY TO ANIMALS I", "city": "NIAGARA FALLS", "state": "NY", "zip": "14304-1156", "ntee": "D200", "ruling": "195805", "deductibility": "1", "assets": 3352944, "income": 1692602, "revenue": 1537929}, {"ein": "160743218", "name": "THE PREVENTION COUNCIL OF ERIE COUNTY INC", "city": "BUFFALO", "state": "NY", "zip": "14216-2905", "ntee": "F20L", "ruling": "199804", "deductibility": "1", "assets": 752203, "income": 1321029, "revenue": 1321029}, {"ein": "160743999", "name": "CHEMUNG COUNTY HUMANE SOCIETY FOR PREVENTION OF CRUELTY TO ANIMALS", "city": "ELMIRA", "state": "NY", "zip": "14903-7933", "ntee": "D200", "ruling": "195509", "deductibility": "1", "assets": 2476931, "income": 1343905, "revenue": 1321111}, {"ein": "160755822", "name": "ROCHESTER SOCIETY FOR THE PREVENTION OF CRUELTY TO CHILDREN", "city": "ROCHESTER", "state": "NY", "zip": "14608-2205", "ntee": "I72Z", "ruling": "196005", "deductibility": "1", "assets": 3274164, "income": 7064201, "revenue": 6692476}, {"ein": "160956222", "name": "SUICIDE PREVENTION AND CRISIS SERVICE INC", "city": "BUFFALO", "state": "NY", "zip": "14207-2163", "ntee": "F41Z", "ruling": "197105", "deductibility": "1", "assets": 5962351, "income": 7727142, "revenue": 7727142}, {"ein": "160957154", "name": "SOCIETY FOR PREVENTION OF CRUELTY TO ANIMALS IN CATTARAUGUS COUNTY C", "city": "OLEAN", "state": "NY", "zip": "14760-9713", "ntee": "D200", "ruling": "198206", "deductibility": "1", "assets": 740010, "income": 639880, "revenue": 636267}, {"ein": "160992587", "name": "SUICIDE PREVENTION AND CRISIS SERVICE OF TOMPKINS COUNTY INC", "city": "ITHACA", "state": "NY", "zip": "14850-4234", "ntee": "", "ruling": "197005", "deductibility": "1", "assets": 304580, "income": 857032, "revenue": 857032}, {"ein": "161037314", "name": "PREVENTION WORKS INC", "city": "JAMESTOWN", "state": "NY", "zip": "14701-4767", "ntee": "F20Z", "ruling": "197506", "deductibility": "1", "assets": 345418, "income": 1781230, "revenue": 1781230}, {"ein": "161071918", "name": "CHENANGO COUNTY SOCIETY FOR THE PREVENTION OF CRUELTY TO ANIMALS", "city": "NORWICH", "state": "NY", "zip": "13815-3302", "ntee": "D200", "ruling": "198808", "deductibility": "1", "assets": 2684597, "income": 488530, "revenue": 488530}, {"ein": "161272094", "name": "SUICIDE PREVENTION FOUNDATION INC", "city": "ITHACA", "state": "NY", "zip": "14851-6434", "ntee": "F41Z", "ruling": "198702", "deductibility": "1", "assets": 491991, "income": 136570, "revenue": 38211}, {"ein": "161288064", "name": "MOUNTAIN VIEW PREVENTION SERVICES", "city": "LOWVILLE", "state": "NY", "zip": "13367-0311", "ntee": "", "ruling": "198811", "deductibility": "1", "assets": 511175, "income": 484463, "revenue": 484463}, {"ein": "200367423", "name": "GREATER LANCASTER FIRE PREVENTION AND PREVENTION ORGANIZATION INC", "city": "LANCASTER", "state": "NY", "zip": "14086-2110", "ntee": "M40", "ruling": "200506", "deductibility": "1", "assets": 0, "income": 0, "revenue": 0}, {"ein": "204275448", "name": "COMMUNITY PREVENTION ALTERNATIVESFOR FAMILIES IN CRISIS - NATURE", "city": "FLUSHING", "state": "NY", "zip": "11355-1827", "ntee": "F20", "ruling": "200605", "deductibility": "1", "assets": 172, "income": 5684, "revenue": 5684}, {"ein": "204714242", "name": "AUSCHWITZ INSTUT FOR THE PREVENTION OF GENOCIDE AND MASS ATROCITIES", "city": "NEW YORK", "state": "NY", "zip": "10036-4230", "ntee": "Q20", "ruling": "200701", "deductibility": "1", "assets": 118496, "income": 2936098, "revenue": 2936098}, {"ein": "205822618", "name": "THE LOSS PREVENTION FOUNDATION", "city": "HUNTINGTN STA", "state": "NY", "zip": "11746-3680", "ntee": "B99", "ruling": "200802", "deductibility": "2", "assets": 2573014, "income": 3769952, "revenue": 3641418}, {"ein": "222365422", "name": "WYOMING COUNTY SOCIETY FOR THE PREVENTION OF CRUELTY TO ANIMALS", "city": "ATTICA", "state": "NY", "zip": "14011-0269", "ntee": "D200", "ruling": "198301", "deductibility": "1", "assets": 753309, "income": 672307, "revenue": 672307}, {"ein": "222804639", "name": "COUNCIL ON ADDICTION PREVENTION AND EDUCATION OF DUTCHESS COUNTY", "city": "WAPPINGERS FALLS", "state": "NY", "zip": "12590-4104", "ntee": "I23Z", "ruling": "198710", "deductibility": "1", "assets": 1356996, "income": 1319887, "revenue": 1300753}, {"ein": "222823721", "name": "SEAWAY VALLEY COUNCIL FOR ALCOHOL SUBSTANCE ABUSE PREVENTION INC", "city": "OGDENSBURG", "state": "NY", "zip": "13669-1426", "ntee": "F20Z", "ruling": "198810", "deductibility": "1", "assets": 3173326, "income": 3487816, "revenue": 3482870}, {"ein": "222959511", "name": "NEW YORK STATE CRIME PREVENTION COALITION INCORPORATED", "city": "ALBANY", "state": "NY", "zip": "12208-0633", "ntee": "I20Z", "ruling": "199510", "deductibility": "1", "assets": 0, "income": 0, "revenue": 0}, {"ein": "223010584", "name": "NATIONAL ASSOCIATION FOR SHOPLIFTING PREVENTION INC", "city": "HUNTINGTON STATION", "state": "NY", "zip": "11746-3640", "ntee": "", "ruling": "199402", "deductibility": "1", "assets": 520842, "income": 412011, "revenue": 412011}, {"ein": "223231441", "name": "SUBSTANCE ABUSE PREVENTION TEAM OF ESSEX COUNTY INC", "city": "TICONDEROGA", "state": "NY", "zip": "12883-1221", "ntee": "F21Z", "ruling": "199312", "deductibility": "1", "assets": 278816, "income": 1095606, "revenue": 1095606}, {"ein": "237139511", "name": "DRUG ADDICT PREVENTION SOCIETY", "city": "FLORAL PARK", "state": "NY", "zip": "11004-1012", "ntee": "", "ruling": "198202", "deductibility": "1", "assets": 840733, "income": 150477, "revenue": 150477}, {"ein": "237301597", "name": "NASSAU COUNTY SOCIETY PREVENTION OF CRUELTY TO ANIMALS INC", "city": "BETHPAGE", "state": "NY", "zip": "11714-3631", "ntee": "D200", "ruling": "197403", "deductibility": "1", "assets": 290994, "income": 156008, "revenue": 156008}, {"ein": "237379932", "name": "ALLEGANY COUNTY SOCIETY FOR PREVENTION OF CRUELTY TO ANIMALS", "city": "BELMONT", "state": "NY", "zip": "14813-0181", "ntee": "D200", "ruling": "197407", "deductibility": "1", "assets": 4138014, "income": 1529479, "revenue": 1529479}, {"ein": "270492679", "name": "PAYROLL FRAUD PREVENTION GROUP INC", "city": "ROCHESTER", "state": "NY", "zip": "14618-5513", "ntee": "S40", "ruling": "201001", "deductibility": "2", "assets": 10008, "income": 10000, "revenue": 10000}, {"ein": "270969454", "name": "STRANG CANCER PREVENTION INSTITUTE INC", "city": "NEW YORK", "state": "NY", "zip": "10022-2511", "ntee": "G12", "ruling": "201006", "deductibility": "1", "assets": 850785, "income": 14805, "revenue": 14805}, {"ein": "271103396", "name": "GLOBAL ANTI POVERTY AND DISEASE PREVENTION FOUNDATION", "city": "GREENWOOD AVE", "state": "NY", "zip": "11730-0000", "ntee": "T22", "ruling": "201312", "deductibility": "1", "assets": 62215, "income": 6030, "revenue": 0}, {"ein": "271508133", "name": "INTERNATIONAL ORGANIZATION TO PROMOTE THE PREVENTION OF SEXUAL", "city": "BUFFALO", "state": "NY", "zip": "14222-0000", "ntee": "E42", "ruling": "201007", "deductibility": "1", "assets": 0, "income": 0, "revenue": 0}, {"ein": "300443944", "name": "SCHENECTADY COUNTY SOCIETY FOR THE PREVENTION OF CRUELTY TO ANIMALS I", "city": "NISKAYUNA", "state": "NY", "zip": "12309-0516", "ntee": "D20", "ruling": "200803", "deductibility": "1", "assets": 0, "income": 0, "revenue": 0}, {"ein": "332811751", "name": "GLOBAL PREVENTION & HEALING FOUNDATION", "city": "MENANDS", "state": "NY", "zip": "12204-1228", "ntee": "E60", "ruling": "202505", "deductibility": "1", "assets": 0, "income": 0, "revenue": 0}, {"ein": "383918958", "name": "NYS ALLIANCE FOR THE PREVENTION OF SEXUAL ABUSE INC", "city": "ASTORIA", "state": "NY", "zip": "11105-1709", "ntee": "E01", "ruling": "201904", "deductibility": "1", "assets": 31175, "income": 88944, "revenue": 88944}, {"ein": "470878897", "name": "BROOME COUNTY GANG PREVENTION", "city": "BINGHAMTON", "state": "NY", "zip": "13901-0000", "ntee": "", "ruling": "200710", "deductibility": "1", "assets": 82858, "income": 466648, "revenue": 466648}, {"ein": "472382460", "name": "INNER CITY GUN VIOLENCE PREVENTION INC", "city": "BRONX", "state": "NY", "zip": "10453-7025", "ntee": "P99", "ruling": "201411", "deductibility": "1", "assets": 0, "income": 0, "revenue": 0}, {"ein": "472945414", "name": "MOHAWK VALLEY CRIME PREVENTION NETWORK INC", "city": "ROME", "state": "NY", "zip": "13442-4884", "ntee": "I20", "ruling": "201502", "deductibility": "1", "assets": 13720, "income": 8620, "revenue": 0}, {"ein": "473365360", "name": "ASAP ASSOCIATION FOR SEXUAL ABUSE PREVENTION AND TREATMENT", "city": "BROOKLYN", "state": "NY", "zip": "11218-3765", "ntee": "P20", "ruling": "201603", "deductibility": "1", "assets": 29232, "income": 111349, "revenue": 0}, {"ein": "510244203", "name": "CORTLAND COUNTY SOCIETY FOR THE PREVENTION OF CRUELTY TO ANIMALS", "city": "CORTLAND", "state": "NY", "zip": "13045-9395", "ntee": "D200", "ruling": "196802", "deductibility": "1", "assets": 421832, "income": 688833, "revenue": 517794}, {"ein": "582536509", "name": "PREVENTION ON WHEEL FOUNDATION INC", "city": "STATEN ISLAND", "state": "NY", "zip": "10303-2429", "ntee": "E30", "ruling": "200007", "deductibility": "1", "assets": 0, "income": 0, "revenue": 0}, {"ein": "611791111", "name": "FIRE PREVENTION EDUCATION CENTER INC", "city": "BRIDGEPORT", "state": "NY", "zip": "13030-9429", "ntee": "M40", "ruling": "201606", "deductibility": "1", "assets": 0, "income": 0, "revenue": 0}, {"ein": "811638667", "name": "LOSS PREVENTION BENEVOLENT FUND", "city": "HUNTINGTN STA", "state": "NY", "zip": "11746-3680", "ntee": "Y12", "ruling": "202002", "deductibility": "1", "assets": 0, "income": 0, "revenue": 0}, {"ein": "813661949", "name": "DEREK MARK KINGDESKI FOUNDATION FOR SUICIDE PREVENTION & AWARENESS IN", "city": "BALDWINSVILLE", "state": "NY", "zip": "13027-8740", "ntee": "F40", "ruling": "201706", "deductibility": "1", "assets": 0, "income": 0, "revenue": 0}, {"ein": "813675246", "name": "PREVENTION OF BLINDNESS FROM GLAUCOMA AND MACULAR DEGENERATION", "city": "HEWLETT", "state": "NY", "zip": "11557-0435", "ntee": "G41", "ruling": "201610", "deductibility": "1", "assets": 4800, "income": 0, "revenue": 0}, {"ein": "821875173", "name": "ALZHEIMERS PREVENTION CHARITY", "city": "TROY", "state": "NY", "zip": "12180-6506", "ntee": "G96", "ruling": "202312", "deductibility": "1", "assets": 0, "income": 0, "revenue": 0}, {"ein": "822582224", "name": "WNY MOBILE OVERDOSE PREVENTION SERVICES", "city": "BUFFALO", "state": "NY", "zip": "14212-1237", "ntee": "F20", "ruling": "201801", "deductibility": "1", "assets": 0, "income": 0, "revenue": 0}, {"ein": "830459789", "name": "SUICIDE PREVENTION INTERNATIONAL", "city": "NEW YORK", "state": "NY", "zip": "10028-1030", "ntee": "F30", "ruling": "200609", "deductibility": "1", "assets": 68903, "income": 9692, "revenue": 9692}, {"ein": "830524546", "name": "HEATHER HURLEY FOUNDATION FOR THE PREVENTION OF DOMESTIC VIOLENC", "city": "BROOKLYN", "state": "NY", "zip": "11212-4633", "ntee": "I73", "ruling": "202312", "deductibility": "1", "assets": 0, "income": 0, "revenue": 0}, {"ein": "832359098", "name": "INTERNATIONAL CENTER FOR THE STUDY PREVENTION AND TREATMENT OF MULTI", "city": "NEW YORK", "state": "NY", "zip": "10075-0643", "ntee": "T50", "ruling": "201907", "deductibility": "1", "assets": 65453, "income": 5806, "revenue": -29722}, {"ein": "832584579", "name": "HYPERTENSION PREVENTION FOR FIRST RESPONDERS", "city": "NEW YORK", "state": "NY", "zip": "10009-7069", "ntee": "G43", "ruling": "202302", "deductibility": "1", "assets": 0, "income": 0, "revenue": 0}, {"ein": "833757971", "name": "PREVENTION ACCESS CAMPAIGN INC", "city": "NEW YORK", "state": "NY", "zip": "10014-3817", "ntee": "G80", "ruling": "201907", "deductibility": "1", "assets": 8832, "income": 320548, "revenue": 320548}, {"ein": "841893234", "name": "CHILDHOOD OBESITY PREVENTION FOUNDATION INC", "city": "GLEN HEAD", "state": "NY", "zip": "11545-2901", "ntee": "E70", "ruling": "201906", "deductibility": "1", "assets": 17001, "income": 39500, "revenue": 39500}, {"ein": "851215728", "name": "METROPOLITAN NEW YORK CHAPTER OF THE SOCIETY OF FIRE PREVENTION", "city": "DOBBS FERRY", "state": "NY", "zip": "10522-1007", "ntee": "S41", "ruling": "202107", "deductibility": "2", "assets": 0, "income": 0, "revenue": 0}, {"ein": "852037541", "name": "CENTER FOR PREVENTION OF ELDER FINANCIAL FRAUD INC", "city": "MINEOLA", "state": "NY", "zip": "11501-4403", "ntee": "I99", "ruling": "202008", "deductibility": "1", "assets": 0, "income": 0, "revenue": 0}, {"ein": "883368299", "name": "COMMUNITY CRIME PREVENTION SECURITY UNIT INC", "city": "NEW YORK", "state": "NY", "zip": "10002-4026", "ntee": "I20", "ruling": "202208", "deductibility": "1", "assets": 0, "income": 0, "revenue": 0}, {"ein": "921997037", "name": "AKRON-NEWSTEAD DRUG AND ALCOHOL PREVENTION COALITION", "city": "AKRON", "state": "NY", "zip": "14001-9702", "ntee": "F21", "ruling": "202309", "deductibility": "1", "assets": 0, "income": 0, "revenue": 0}], "HILLTOP": [{"ein": "061306287", "name": "HILLTOP SPORT & CONSERVATION INC", "city": "BREWSTER", "state": "NY", "zip": "10509-5301", "ntee": "C20Z", "ruling": "199107", "deductibility": "1", "assets": 0, "income": 0, "revenue": 0}, {"ein": "161337940", "name": "HILLTOP FIRE CO", "city": "DOLGEVILLE", "state": "NY", "zip": "13329-1725", "ntee": "M24", "ruling": "201404", "deductibility": "1", "assets": 269889, "income": 180806, "revenue": 178522}, {"ein": "222833137", "name": "HILLTOP MANOR HOUSING DEVELOPMENT FUND CO INC", "city": "COLTON", "state": "NY", "zip": "13625-4161", "ntee": "P75Z", "ruling": "199012", "deductibility": "1", "assets": 418215, "income": 102700, "revenue": 102700}, {"ein": "320314759", "name": "THE FRIENDS OF HILLTOP HANOVER FARM AND ENVIRONMENTAL CENTER INC", "city": "YORKTOWN HTS", "state": "NY", "zip": "10598-5908", "ntee": "B90", "ruling": "201108", "deductibility": "1", "assets": 509014, "income": 573806, "revenue": 491571}, {"ein": "464769208", "name": "HILLTOP CARES FOUNDATION", "city": "NEW YORK", "state": "NY", "zip": "10026-0998", "ntee": "F42", "ruling": "201409", "deductibility": "1", "assets": 0, "income": 0, "revenue": 0}, {"ein": "815172520", "name": "HILLTOP HOMES HOMEOWNERS ASSOCIATION INC", "city": "CENTERPORT", "state": "NY", "zip": "11721-1759", "ntee": "L50", "ruling": "201810", "deductibility": "2", "assets": 0, "income": 0, "revenue": 0}, {"ein": "825013297", "name": "HILLTOP BAPTIST CHURCH", "city": "ANGOLA", "state": "NY", "zip": "14006-9718", "ntee": "X20", "ruling": "201902", "deductibility": "1", "assets": 0, "income": 0, "revenue": 0}, {"ein": "825516691", "name": "HILLTOP FELLOWSHIP CHURCH INC", "city": "NAPLES", "state": "NY", "zip": "14512-0833", "ntee": "X20", "ruling": "202001", "deductibility": "1", "assets": 0, "income": 0, "revenue": 0}], "DAMES": [{"ein": "061524694", "name": "NATIONAL SOCIETY COLONIAL DAMES XVII CENTURY", "city": "SINCLAIRVILLE", "state": "NY", "zip": "14782-1064", "ntee": "", "ruling": "196709", "deductibility": "0", "assets": 0, "income": 0, "revenue": 0}, {"ein": "131628185", "name": "NATIONAL SOCIETY OF COLONIAL DAMES IN THE STATE OF NEW YORK", "city": "NEW YORK", "state": "NY", "zip": "10021-4533", "ntee": "A800", "ruling": "194104", "deductibility": "1", "assets": 8567460, "income": 5171677, "revenue": 210832}, {"ein": "131677400", "name": "COLONIAL DAMES OF AMERICA", "city": "NEW YORK", "state": "NY", "zip": "10065-8736", "ntee": "A800", "ruling": "197507", "deductibility": "1", "assets": 9085507, "income": 3967197, "revenue": 1362237}, {"ein": "132997628", "name": "LES DAMES D ESCOFFIER LTD", "city": "NEW YORK", "state": "NY", "zip": "10001-7604", "ntee": "N500", "ruling": "198110", "deductibility": "1", "assets": 281976, "income": 143761, "revenue": 128177}, {"ein": "133692795", "name": "COLONIAL DAMES OF AMERICA", "city": "NEW YORK", "state": "NY", "zip": "10065-8736", "ntee": "", "ruling": "197507", "deductibility": "1", "assets": 0, "income": 0, "revenue": 0}, {"ein": "133692798", "name": "COLONIAL DAMES OF AMERICA", "city": "NEW YORK", "state": "NY", "zip": "10065-8736", "ntee": "", "ruling": "197507", "deductibility": "1", "assets": 0, "income": 0, "revenue": 0}, {"ein": "133872147", "name": "COLONIAL DAMES OF AMERICA", "city": "NEW YORK", "state": "NY", "zip": "10065-8736", "ntee": "", "ruling": "197507", "deductibility": "1", "assets": 0, "income": 0, "revenue": 0}, {"ein": "136163969", "name": "SOCIETY OF DAUGHTERS OF HOLLAND DAMES", "city": "NEW YORK", "state": "NY", "zip": "10023-4250", "ntee": "", "ruling": "194211", "deductibility": "1", "assets": 926728, "income": 106714, "revenue": 0}, {"ein": "161265559", "name": "NATIONAL SOCIETY COLONIAL DAMES XVII CENTURY", "city": "SINCLAIRVILLE", "state": "NY", "zip": "14782-1064", "ntee": "", "ruling": "196709", "deductibility": "1", "assets": 0, "income": 0, "revenue": 0}, {"ein": "237025183", "name": "COLONIAL DAMES OF AMERICA", "city": "NEW YORK", "state": "NY", "zip": "10065-8736", "ntee": "", "ruling": "197507", "deductibility": "1", "assets": 0, "income": 0, "revenue": 0}, {"ein": "237108689", "name": "NATIONAL SOCIETY COLONIAL DAMES XVII CENTURY", "city": "SINCLAIRVILLE", "state": "NY", "zip": "14782-1064", "ntee": "", "ruling": "196709", "deductibility": "1", "assets": 0, "income": 0, "revenue": 0}, {"ein": "237124590", "name": "NATIONAL SOCIETY COLONIAL DAMES XVII CENTURY", "city": "SINCLAIRVILLE", "state": "NY", "zip": "14782-1064", "ntee": "", "ruling": "196709", "deductibility": "1", "assets": 0, "income": 0, "revenue": 0}, {"ein": "237144575", "name": "NATIONAL SOCIETY DAMES OF THE COURT OF HONOR", "city": "NEW WINDSOR", "state": "NY", "zip": "12553-6919", "ntee": "", "ruling": "197110", "deductibility": "1", "assets": 0, "income": 0, "revenue": 0}, {"ein": "320438516", "name": "COLONIAL DAMES OF AMERICA", "city": "NEW YORK", "state": "NY", "zip": "10065-8736", "ntee": "", "ruling": "197507", "deductibility": "1", "assets": 0, "income": 0, "revenue": 0}, {"ein": "473606984", "name": "NATIONAL SOCIETY OF SOUTHERN DAMES OF AMERICA INC", "city": "NEW YORK", "state": "NY", "zip": "10023-4250", "ntee": "", "ruling": "197303", "deductibility": "1", "assets": 0, "income": 0, "revenue": 0}, {"ein": "474180045", "name": "COLONIAL DAMES OF AMERICA", "city": "NEW YORK", "state": "NY", "zip": "10065-8736", "ntee": "", "ruling": "197507", "deductibility": "1", "assets": 0, "income": 0, "revenue": 0}, {"ein": "474505210", "name": "COLONIAL DAMES OF AMERICA", "city": "NEW YORK", "state": "NY", "zip": "10065-8736", "ntee": "", "ruling": "197507", "deductibility": "1", "assets": 0, "income": 0, "revenue": 0}, {"ein": "475055676", "name": "COLONIAL DAMES OF AMERICA", "city": "NEW YORK", "state": "NY", "zip": "10065-8736", "ntee": "", "ruling": "197507", "deductibility": "1", "assets": 0, "income": 0, "revenue": 0}, {"ein": "510152320", "name": "COLONIAL DAMES OF AMERICA", "city": "NEW YORK", "state": "NY", "zip": "10065-8736", "ntee": "", "ruling": "197507", "deductibility": "1", "assets": 0, "income": 0, "revenue": 0}, {"ein": "510152326", "name": "COLONIAL DAMES OF AMERICA", "city": "NEW YORK", "state": "NY", "zip": "10065-8736", "ntee": "", "ruling": "197507", "deductibility": "1", "assets": 0, "income": 0, "revenue": 0}, {"ein": "510152354", "name": "COLONIAL DAMES OF AMERICA", "city": "NEW YORK", "state": "NY", "zip": "10065-8736", "ntee": "", "ruling": "197507", "deductibility": "1", "assets": 0, "income": 0, "revenue": 0}, {"ein": "510152945", "name": "COLONIAL DAMES OF AMERICA", "city": "NEW YORK", "state": "NY", "zip": "10065-8736", "ntee": "", "ruling": "197507", "deductibility": "0", "assets": 0, "income": 0, "revenue": 0}, {"ein": "510244811", "name": "COLONIAL DAMES OF AMERICA GROUP RETURN", "city": "NEW YORK", "state": "NY", "zip": "10065-8736", "ntee": "A800", "ruling": "197507", "deductibility": "1", "assets": 0, "income": 0, "revenue": 0}, {"ein": "646035351", "name": "COLONIAL DAMES OF AMERICA", "city": "NEW YORK", "state": "NY", "zip": "10065-8736", "ntee": "", "ruling": "197507", "deductibility": "1", "assets": 0, "income": 0, "revenue": 0}, {"ein": "800720787", "name": "COLONIAL DAMES OF AMERICA", "city": "NEW YORK", "state": "NY", "zip": "10065-8736", "ntee": "", "ruling": "197507", "deductibility": "1", "assets": 0, "income": 0, "revenue": 0}, {"ein": "811367024", "name": "COLONIAL DAMES OF AMERICA", "city": "NEW YORK", "state": "NY", "zip": "10065-8736", "ntee": "", "ruling": "197507", "deductibility": "1", "assets": 0, "income": 0, "revenue": 0}, {"ein": "812713573", "name": "COLONIAL DAMES OF AMERICA", "city": "NEW YORK", "state": "NY", "zip": "10065-8736", "ntee": "", "ruling": "197507", "deductibility": "1", "assets": 0, "income": 0, "revenue": 0}, {"ein": "812998086", "name": "COLONIAL DAMES OF AMERICA", "city": "NEW YORK", "state": "NY", "zip": "10065-8736", "ntee": "", "ruling": "197507", "deductibility": "1", "assets": 0, "income": 0, "revenue": 0}, {"ein": "820920637", "name": "COLONIAL DAMES OF AMERICA", "city": "NEW YORK", "state": "NY", "zip": "10065-8736", "ntee": "", "ruling": "197507", "deductibility": "1", "assets": 0, "income": 0, "revenue": 0}, {"ein": "821141692", "name": "COLONIAL DAMES OF AMERICA", "city": "NEW YORK", "state": "NY", "zip": "10065-8736", "ntee": "", "ruling": "197507", "deductibility": "1", "assets": 0, "income": 0, "revenue": 0}, {"ein": "842232038", "name": "COLONIAL DAMES OF AMERICA", "city": "NEW YORK", "state": "NY", "zip": "10065-8736", "ntee": "", "ruling": "197507", "deductibility": "0", "assets": 0, "income": 0, "revenue": 0}, {"ein": "842422883", "name": "COLONIAL DAMES OF AMERICA", "city": "NEW YORK", "state": "NY", "zip": "10065-8736", "ntee": "", "ruling": "197507", "deductibility": "1", "assets": 0, "income": 0, "revenue": 0}, {"ein": "900332026", "name": "COLONIAL DAMES OF AMERICA", "city": "NEW YORK", "state": "NY", "zip": "10065-8736", "ntee": "", "ruling": "197507", "deductibility": "0", "assets": 0, "income": 0, "revenue": 0}], "INFINITE": [{"ein": "061533274", "name": "INFINITE FAMILY", "city": "BRONX", "state": "NY", "zip": "10471-4326", "ntee": "T30", "ruling": "200004", "deductibility": "1", "assets": 41807, "income": 216814, "revenue": 183443}, {"ein": "202441730", "name": "INFINITE HOPE SERVICES INCORPORATED", "city": "BROOKLYN", "state": "NY", "zip": "11218-2595", "ntee": "D20", "ruling": "200605", "deductibility": "1", "assets": 0, "income": 0, "revenue": 0}, {"ein": "223792693", "name": "CHURCH OF INFINITE SPIRIT", "city": "ELMIRA", "state": "NY", "zip": "14904-2412", "ntee": "X99", "ruling": "200203", "deductibility": "1", "assets": 0, "income": 0, "revenue": 0}, {"ein": "334044642", "name": "JOY INFINITE COLLECTIVE FOUNDATION INC", "city": "NEW YORK", "state": "NY", "zip": "10031-7026", "ntee": "P99", "ruling": "202505", "deductibility": "1", "assets": 0, "income": 0, "revenue": 0}, {"ein": "472481993", "name": "INFINITE VARIETY PRODUCTIONS", "city": "BRONX", "state": "NY", "zip": "10451-2328", "ntee": "A65", "ruling": "201412", "deductibility": "1", "assets": 0, "income": 0, "revenue": 0}, {"ein": "753219439", "name": "CHURCH OF INFINITE MOTION IN CHRIST MINISTRIES INC", "city": "CENTRAL ISLIP", "state": "NY", "zip": "11722-0968", "ntee": "X20", "ruling": "200812", "deductibility": "1", "assets": 0, "income": 0, "revenue": 0}, {"ein": "841777929", "name": "INFINITE CARES-INFINITE HORIZONS CREATING AFFORDABLE HOUSNG WITH RE", "city": "JAMAICA", "state": "NY", "zip": "11436-1420", "ntee": "L20", "ruling": "202008", "deductibility": "1", "assets": 0, "income": 0, "revenue": 0}, {"ein": "853835542", "name": "INFINITE SEEDS FOUNDATION INC", "city": "BRONX", "state": "NY", "zip": "10460-0136", "ntee": "P20", "ruling": "202112", "deductibility": "1", "assets": 0, "income": 0, "revenue": 0}, {"ein": "881730056", "name": "INFINITE EQUITABLE HEALING", "city": "RED HOOK", "state": "NY", "zip": "12571-2368", "ntee": "E60", "ruling": "202207", "deductibility": "1", "assets": 0, "income": 0, "revenue": 0}, {"ein": "993417160", "name": "BERRS INFINITE MINDZ LEARNING PODS INC", "city": "ROCHESTER", "state": "NY", "zip": "14608-2353", "ntee": "O50", "ruling": "202502", "deductibility": "1", "assets": 0, "income": 0, "revenue": 0}], "REPORTING": [{"ein": "061611859", "name": "HONEST REPORTING COM INC", "city": "NEW YORK", "state": "NY", "zip": "10087-4658", "ntee": "A30", "ruling": "200112", "deductibility": "1", "assets": 2985222, "income": 9146759, "revenue": 3400544}, {"ein": "133392362", "name": "FAIRNESS & ACCURACY IN REPORTING INC", "city": "NEW YORK", "state": "NY", "zip": "10001-4009", "ntee": "S50Z", "ruling": "198805", "deductibility": "1", "assets": 895480, "income": 952806, "revenue": 441885}, {"ein": "204983722", "name": "BUREAU FOR INTERNATIONAL REPORTING INC", "city": "NEW YORK", "state": "NY", "zip": "10003-2231", "ntee": "P99", "ruling": "200703", "deductibility": "1", "assets": 25170, "income": 66371, "revenue": 66371}, {"ein": "223691017", "name": "NATIONAL PAYROLL REPORTING CONSORTIUM", "city": "ROCHESTER", "state": "NY", "zip": "14623-4278", "ntee": "S41", "ruling": "200003", "deductibility": "2", "assets": 545332, "income": 282151, "revenue": 282151}, {"ein": "271246184", "name": "COMMUNITY REPORTING ALLIANCE", "city": "CHESTER", "state": "NY", "zip": "10918-1032", "ntee": "A33", "ruling": "201009", "deductibility": "1", "assets": 46403, "income": 0, "revenue": 0}, {"ein": "272855786", "name": "DR ROBERT E BAINES SR YOUTH REPORTING CENTER INC", "city": "BUFFALO", "state": "NY", "zip": "14208-2405", "ntee": "O50", "ruling": "201010", "deductibility": "1", "assets": 0, "income": 0, "revenue": 0}, {"ein": "273730343", "name": "GLOBAL REPORTING INITIATIVE USA CORP", "city": "NEW YORK", "state": "NY", "zip": "10001-1993", "ntee": "W05", "ruling": "201108", "deductibility": "1", "assets": 23838, "income": 0, "revenue": 0}, {"ein": "274108978", "name": "FOOD AND ENVIRONMENT REPORTING NETWORK", "city": "NEW YORK", "state": "NY", "zip": "10036-4762", "ntee": "K05", "ruling": "201107", "deductibility": "1", "assets": 503192, "income": 1311279, "revenue": 1311279}, {"ein": "833523556", "name": "GLOBAL HEALTH REPORTING CENTER INC", "city": "NEW YORK", "state": "NY", "zip": "10024-0000", "ntee": "H99", "ruling": "202308", "deductibility": "1", "assets": 3989, "income": 529394, "revenue": 529394}, {"ein": "854054380", "name": "ECONOMIC HARDSHIP REPORTING PROJECT", "city": "BROOKLYN", "state": "NY", "zip": "11238-6201", "ntee": "A30", "ruling": "202107", "deductibility": "1", "assets": 1016337, "income": 1224191, "revenue": 1224191}, {"ein": "934517793", "name": "STOP FALSE POLICE REPORTING GROUP", "city": "NEW YORK", "state": "NY", "zip": "10019-8407", "ntee": "M01", "ruling": "202504", "deductibility": "1", "assets": 0, "income": 0, "revenue": 0}], "HAWKS": [{"ein": "061750000", "name": "RIVERSIDE HAWKS HOPE HEALTH AND HOOPS CORPORATION", "city": "NEW YORK", "state": "NY", "zip": "10027-5706", "ntee": "X20", "ruling": "200507", "deductibility": "1", "assets": 0, "income": 0, "revenue": 0}, {"ein": "204541835", "name": "HAWKS SWIMMING ASSOCIATION LTD", "city": "NEW PALTZ", "state": "NY", "zip": "12561-0061", "ntee": "N67", "ruling": "202405", "deductibility": "1", "assets": 70792, "income": 140198, "revenue": 140198}, {"ein": "843523105", "name": "HV HAWKS TRAVEL BASEBALL", "city": "CAMPBELL HALL", "state": "NY", "zip": "10916-2415", "ntee": "N60", "ruling": "202110", "deductibility": "1", "assets": 35824, "income": 122236, "revenue": 122236}, {"ein": "922782698", "name": "LIL HAWKS WRESTLING CLUB INC", "city": "PAINTED POST", "state": "NY", "zip": "14870-1101", "ntee": "N60", "ruling": "202303", "deductibility": "1", "assets": 0, "income": 0, "revenue": 0}, {"ein": "934543882", "name": "STEEL HAWKS ROBOTICS INC", "city": "FLUSHING", "state": "NY", "zip": "11367-1306", "ntee": "B84", "ruling": "202401", "deductibility": "1", "assets": 0, "income": 0, "revenue": 0}, {"ein": "993397903", "name": "CORNING HAWKS SPORTS BOOSTER CLUB INC", "city": "CORNING", "state": "NY", "zip": "14830-2018", "ntee": "O12", "ruling": "202501", "deductibility": "1", "assets": 0, "income": 0, "revenue": 0}], "BHAGAVANDAS": [{"ein": "066391187", "name": "BABA BHAGAVANDAS PUBLICATION TR", "city": "MONROE", "state": "NY", "zip": "10950-5536", "ntee": "X99Z", "ruling": "199503", "deductibility": "1", "assets": 0, "income": 0, "revenue": 0}], "ISAACS": [{"ein": "112405099", "name": "SHAARE TORAH C O BENJAMIN ISAACS ESQ", "city": "BROOKLYN", "state": "NY", "zip": "11211-7820", "ntee": "", "ruling": "197701", "deductibility": "1", "assets": 0, "income": 0, "revenue": 0}, {"ein": "112406582", "name": "SHAAREI TSHUVA C O BENJAMIN ISAACS", "city": "BKLYN", "state": "NY", "zip": "11218-5714", "ntee": "", "ruling": "197711", "deductibility": "1", "assets": 0, "income": 0, "revenue": 0}, {"ein": "112408587", "name": "KHAL YISROEL C O BENJAMIN ISAACS ESQ", "city": "BROOKLYN", "state": "NY", "zip": "11219-3244", "ntee": "", "ruling": "197701", "deductibility": "1", "assets": 0, "income": 0, "revenue": 0}, {"ein": "112416894", "name": "CONGREGATION DVAR MOSHE OF HORODENKE C O BENJAMIN ISAACS ESQ", "city": "BROOKLYN", "state": "NY", "zip": "11210-3739", "ntee": "", "ruling": "197704", "deductibility": "1", "assets": 0, "income": 0, "revenue": 0}, {"ein": "112416905", "name": "CONGREGATION KHAL BNEI JOSEPH C O BENJAMIN ISAACS ESQ", "city": "BROOKLYN", "state": "NY", "zip": "11211-8112", "ntee": "", "ruling": "197704", "deductibility": "1", "assets": 0, "income": 0, "revenue": 0}, {"ein": "112424203", "name": "YESHIVA ATERES YESHUA D ZIKOW C O BENJAMIN ISAACS ESQ", "city": "BROOKLYN", "state": "NY", "zip": "11219-3738", "ntee": "", "ruling": "197708", "deductibility": "1", "assets": 0, "income": 0, "revenue": 0}, {"ein": "112427923", "name": "YESHIVA BETH YEHUDA V CHAIM D BETLAN C O BENJAMIN ISAACS", "city": "BROOKLYN", "state": "NY", "zip": "11211-7504", "ntee": "", "ruling": "197708", "deductibility": "1", "assets": 0, "income": 0, "revenue": 0}, {"ein": "112431198", "name": "CONGREGATION BENEI YAKOV C O BENJAMIN ISAACS ESQ", "city": "BKLYN", "state": "NY", "zip": "11223-2216", "ntee": "", "ruling": "197709", "deductibility": "1", "assets": 0, "income": 0, "revenue": 0}, {"ein": "112433452", "name": "CONGREGATION ZICHRON CHAIM YESHUAH C O BENJAMIN ISAACS", "city": "BROOKLYN", "state": "NY", "zip": "11219-3746", "ntee": "", "ruling": "197711", "deductibility": "1", "assets": 0, "income": 0, "revenue": 0}, {"ein": "112436605", "name": "HACHNUSAS KALA V EZRA C O BENJAMIN ISAACS", "city": "BROOKLYN", "state": "NY", "zip": "11218-3574", "ntee": "", "ruling": "197711", "deductibility": "1", "assets": 0, "income": 0, "revenue": 0}, {"ein": "112436845", "name": "MOSAD BRUCHA TOVA C O BENJAMIN ISAACS ESQ", "city": "NEW YORK", "state": "NY", "zip": "10024-3371", "ntee": "", "ruling": "197711", "deductibility": "1", "assets": 0, "income": 0, "revenue": 0}, {"ein": "112443177", "name": "CHEVRA KADISHA OF BOBOV C O BENJAMIN ISAACS ESQ", "city": "BROOKLYN", "state": "NY", "zip": "11232-4210", "ntee": "", "ruling": "197712", "deductibility": "1", "assets": 0, "income": 0, "revenue": 0}, {"ein": "112443182", "name": "HEBREW CENTER FOR DEVELOPMENTAL LEARNING C O BRNJAMIN ISAACS", "city": "BROOKLYN", "state": "NY", "zip": "11219-1406", "ntee": "", "ruling": "197801", "deductibility": "1", "assets": 0, "income": 0, "revenue": 0}, {"ein": "112444050", "name": "KOVETZ HAPOSKIM C O BENJAMIN ISAACS", "city": "BKLYN", "state": "NY", "zip": "11211-7912", "ntee": "", "ruling": "197712", "deductibility": "1", "assets": 0, "income": 0, "revenue": 0}, {"ein": "112445071", "name": "RABBINICAL SEMINARY OF CHASAN SOFER C O BENJAMIN ISAACS ESQ", "city": "BKLYN", "state": "NY", "zip": "11204-1252", "ntee": "", "ruling": "197801", "deductibility": "1", "assets": 0, "income": 0, "revenue": 0}, {"ein": "112446003", "name": "GEMILAS CHESED ZICHRON ZVI D BOBOV C O BENJAMIN ISAACS", "city": "BROOKLYN", "state": "NY", "zip": "11219-3746", "ntee": "", "ruling": "197803", "deductibility": "1", "assets": 0, "income": 0, "revenue": 0}, {"ein": "112452763", "name": "KAHAL KNESES YECHESKEL OF DAGE INC C O BENJAMIN ISAACS", "city": "BROOKLYN", "state": "NY", "zip": "11211-7705", "ntee": "", "ruling": "197804", "deductibility": "1", "assets": 0, "income": 0, "revenue": 0}, {"ein": "112452764", "name": "CONG BAIS NAFTULY C O BENJAMIN ISAACS", "city": "BROOKLYN", "state": "NY", "zip": "11219-2919", "ntee": "", "ruling": "197804", "deductibility": "1", "assets": 0, "income": 0, "revenue": 0}, {"ein": "112461918", "name": "BIKOR CHOLIM C O BENJAMIN ISAACS", "city": "BKLYN", "state": "NY", "zip": "11211-7108", "ntee": "", "ruling": "197807", "deductibility": "1", "assets": 0, "income": 0, "revenue": 0}, {"ein": "112462934", "name": "BADERECH LAYISHIYU C O BENJAMIN ISAACS", "city": "MONSEY", "state": "NY", "zip": "10952-3906", "ntee": "", "ruling": "197807", "deductibility": "1", "assets": 0, "income": 0, "revenue": 0}, {"ein": "112467865", "name": "CENTER FOR GEIREM C O BENJAMIN ISAACS", "city": "BROOKLYN", "state": "NY", "zip": "11213-5424", "ntee": "", "ruling": "197809", "deductibility": "1", "assets": 0, "income": 0, "revenue": 0}, {"ein": "112468518", "name": "CONGREGATION BETH JOEL C O BENJAMIN ISAACS", "city": "BROOKLYN", "state": "NY", "zip": "11211-7607", "ntee": "", "ruling": "197809", "deductibility": "1", "assets": 0, "income": 0, "revenue": 0}, {"ein": "112468519", "name": "CONGREGATION MACHZEKEI TORAH C O BENJAMIN ISAACS", "city": "BROOKLYN", "state": "NY", "zip": "11211-7202", "ntee": "", "ruling": "197809", "deductibility": "1", "assets": 0, "income": 0, "revenue": 0}, {"ein": "112470134", "name": "KEDISHAS AHARON D HADAS C O BENJAMIN ISAACS", "city": "BROOKLYN", "state": "NY", "zip": "11211-8019", "ntee": "", "ruling": "197810", "deductibility": "1", "assets": 0, "income": 0, "revenue": 0}, {"ein": "112474281", "name": "DERECH EMMUNA C P BENJAMIN ISAACS", "city": "BROOKLYN", "state": "NY", "zip": "11210-5140", "ntee": "", "ruling": "197811", "deductibility": "1", "assets": 0, "income": 0, "revenue": 0}, {"ein": "132572034", "name": "STANLEY M ISAACS NEIGHBORHOOD CENTER INC", "city": "NEW YORK", "state": "NY", "zip": "10128-6904", "ntee": "P280", "ruling": "196412", "deductibility": "1", "assets": 12474880, "income": 13973549, "revenue": 12048290}, {"ein": "132952643", "name": "CONGREGATION MAHARI ASHKENAZI C O BENJAMIN ISAACS", "city": "MONROE", "state": "NY", "zip": "10950-2840", "ntee": "", "ruling": "197809", "deductibility": "1", "assets": 0, "income": 0, "revenue": 0}, {"ein": "834599391", "name": "FATHER ISAACS FOUNDATION INC", "city": "NIAGARA FALLS", "state": "NY", "zip": "14304-1805", "ntee": "E70", "ruling": "201907", "deductibility": "1", "assets": 0, "income": 0, "revenue": 0}], "CHIBAS": [{"ein": "112411679", "name": "YESHIVA CHIBAS AVROHOM C O MENAHE NEWHOUSE", "city": "RICHMOND HILL", "state": "NY", "zip": "11418-2608", "ntee": "", "ruling": "197704", "deductibility": "1", "assets": 0, "income": 0, "revenue": 0}, {"ein": "135655181", "name": "KOLEL CHIBAS JERUSALEM", "city": "BROOKLYN", "state": "NY", "zip": "11219-3002", "ntee": "Q113", "ruling": "195003", "deductibility": "1", "assets": 598701, "income": 5784613, "revenue": 4775817}, {"ein": "882898505", "name": "KOLEL CHIBAS YERUSHALAYIM CORP", "city": "MONSEY", "state": "NY", "zip": "10952-3263", "ntee": "X30", "ruling": "202406", "deductibility": "1", "assets": 0, "income": 0, "revenue": 0}], "MEPHAM": [{"ein": "112499150", "name": "W C MEPHAM HIGH SCHOOL ASSOC INC", "city": "N BELLMORE", "state": "NY", "zip": "11710-3029", "ntee": "B84", "ruling": "202402", "deductibility": "1", "assets": 0, "income": 0, "revenue": 0}, {"ein": "810829600", "name": "MEPHAM FOOTBALL PARENTS CLUB INC", "city": "N BELLMORE", "state": "NY", "zip": "11710-3029", "ntee": "N65", "ruling": "201512", "deductibility": "1", "assets": 0, "income": 0, "revenue": 0}, {"ein": "824713238", "name": "WC MEPHAM CLASS OF 1967 SCHOLARSHIP FUND INC", "city": "DIX HILLS", "state": "NY", "zip": "11746-5223", "ntee": "B82", "ruling": "201804", "deductibility": "1", "assets": 0, "income": 0, "revenue": 0}], "FINANCE": [{"ein": "112524715", "name": "NEW YORK STATE GOVERNMENT FINANCE OFFICERS ASSOCIATION INC", "city": "ALBANY", "state": "NY", "zip": "12205-5519", "ntee": "B99Z", "ruling": "199206", "deductibility": "1", "assets": 1227633, "income": 830693, "revenue": 830693}, {"ein": "113086911", "name": "INTERNATIONAL ASSOCIATION FOR QUANTITATIVE FINANCE INC", "city": "NEW YORK", "state": "NY", "zip": "10018-8403", "ntee": "", "ruling": "199210", "deductibility": "2", "assets": 43115, "income": 208961, "revenue": 208961}, {"ein": "116002725", "name": "GENERAL COUNCIL ON FINANCE & ADMINS OF THE UNITED METHODIST CHURCH", "city": "BROOKLYN", "state": "NY", "zip": "11216-1316", "ntee": "", "ruling": "197410", "deductibility": "1", "assets": 0, "income": 0, "revenue": 0}, {"ein": "133132485", "name": "WOMEN IN HOUSING AND FINANCE INC", "city": "NEW YORK", "state": "NY", "zip": "10013-0281", "ntee": "L03", "ruling": "202104", "deductibility": "1", "assets": 0, "income": 0, "revenue": 0}, {"ein": "133238657", "name": "NONPROFIT FINANCE FUND", "city": "NEW YORK", "state": "NY", "zip": "10004-2650", "ntee": "S500", "ruling": "198504", "deductibility": "1", "assets": 252356375, "income": 24618299, "revenue": 24618299}, {"ein": "133311292", "name": "THE ASSOCIATION OF COMMERCIAL FINANCE ATTORNEYS INC", "city": "NEW YORK", "state": "NY", "zip": "10022-0000", "ntee": "", "ruling": "198608", "deductibility": "2", "assets": 99365, "income": 98826, "revenue": 98826}, {"ein": "133540880", "name": "MUSEUM OF AMERICAN FINANCE", "city": "NEW YORK", "state": "NY", "zip": "10001-0614", "ntee": "", "ruling": "199201", "deductibility": "1", "assets": 463184, "income": 1691160, "revenue": 1410380}, {"ein": "133577148", "name": "SECURED FINANCE FOUNDATION", "city": "NEW YORK", "state": "NY", "zip": "10001-3979", "ntee": "T30J", "ruling": "199008", "deductibility": "1", "assets": 685320, "income": 1198381, "revenue": 794352}, {"ein": "135539122", "name": "SECURED FINANCE NETWORK INC", "city": "NEW YORK", "state": "NY", "zip": "10001-3979", "ntee": "V22C", "ruling": "195507", "deductibility": "2", "assets": 7202880, "income": 12038702, "revenue": 6302063}, {"ein": "160801904", "name": "GENERAL COUNCIL ON FINANCE & ADMINS OF THE UNITED METHODIST CHURCH", "city": "DUNKIRK", "state": "NY", "zip": "14048-0000", "ntee": "", "ruling": "197410", "deductibility": "1", "assets": 0, "income": 0, "revenue": 0}, {"ein": "161098123", "name": "GENERAL COUNCIL OF FINANCE & ADMINS OF THE UNITED METHODIST CHURCH", "city": "PULASKI", "state": "NY", "zip": "13142-4101", "ntee": "", "ruling": "197410", "deductibility": "1", "assets": 0, "income": 0, "revenue": 0}, {"ein": "201097171", "name": "FRIENDS OF THE FINANCE ACADEMY INC", "city": "PINE BUSH", "state": "NY", "zip": "12566-1412", "ntee": "B112", "ruling": "200406", "deductibility": "1", "assets": 0, "income": 0, "revenue": 0}, {"ein": "201519455", "name": "SECURE FINANCE NETWORK OHIO CHAPTER", "city": "NEW YORK", "state": "NY", "zip": "10001-3979", "ntee": "S41", "ruling": "200503", "deductibility": "2", "assets": 40829, "income": 48914, "revenue": 10864}, {"ein": "204983133", "name": "SMALL BUSINESS FINANCE ASSOCIATION INC", "city": "NEW YORK", "state": "NY", "zip": "10018-0000", "ntee": "S40", "ruling": "200708", "deductibility": "2", "assets": 376534, "income": 1221700, "revenue": 1221700}, {"ein": "237093216", "name": "CHURCH FINANCE CORPORATION", "city": "NEW YORK", "state": "NY", "zip": "10016-0109", "ntee": "", "ruling": "193501", "deductibility": "1", "assets": 0, "income": 0, "revenue": 0}, {"ein": "271754285", "name": "GENERAL COUNCIL ON FINANCE & ADMINS OF THE UNITED METHODIST CHURCH", "city": "LIVERPOOL", "state": "NY", "zip": "13088-3504", "ntee": "", "ruling": "197410", "deductibility": "1", "assets": 0, "income": 0, "revenue": 0}, {"ein": "272251428", "name": "CATHOLIC FINANCE ASSOCIATION INC", "city": "HICKSVILLE", "state": "NY", "zip": "11801-2909", "ntee": "X20", "ruling": "201010", "deductibility": "1", "assets": 0, "income": 0, "revenue": 0}, {"ein": "273563120", "name": "NORTHEAST WOMEN IN PUBLIC FINANCE INC", "city": "NEW YORK", "state": "NY", "zip": "10022-0000", "ntee": "W03", "ruling": "201505", "deductibility": "2", "assets": 0, "income": 0, "revenue": 0}, {"ein": "300607412", "name": "GLOBAL CLEARINGHOUSE FOR DEVELOPMENT FINANCE INC", "city": "STANFORDVILLE", "state": "NY", "zip": "12581-5742", "ntee": "Q32", "ruling": "201109", "deductibility": "1", "assets": 8474, "income": 0, "revenue": 0}, {"ein": "452024182", "name": "HAMBURG FINANCE ACADEMY ADVISORY BOARD INC", "city": "HAMBURG", "state": "NY", "zip": "14075-4313", "ntee": "B82", "ruling": "201108", "deductibility": "1", "assets": 0, "income": 0, "revenue": 0}, {"ein": "461209817", "name": "KOREA FINANCE SOCIETY LTD", "city": "BROOKLYN", "state": "NY", "zip": "11228-1604", "ntee": "B01", "ruling": "201509", "deductibility": "1", "assets": 267193, "income": 397366, "revenue": 397366}, {"ein": "464248304", "name": "MOUNT SINAI HEALTH SYSTEM EXECUTIVE V P FOR FINANCE", "city": "NEW YORK", "state": "NY", "zip": "10029-6504", "ntee": "P20", "ruling": "201408", "deductibility": "1", "assets": 0, "income": 100342291, "revenue": 100342291}, {"ein": "471070034", "name": "CLARENCE HIGH SCHOOL ACADEMY OF BUSINESS & FINANCE", "city": "CLARENCE", "state": "NY", "zip": "14031-2001", "ntee": "B80", "ruling": "201506", "deductibility": "1", "assets": 0, "income": 0, "revenue": 0}, {"ein": "471165071", "name": "AMERICA CHINA FINANCE ASSOCIATION INC", "city": "FOREST HILLS", "state": "NY", "zip": "11375-5810", "ntee": "Q03", "ruling": "201906", "deductibility": "1", "assets": 1831, "income": 1, "revenue": 0}, {"ein": "472665043", "name": "DEPEW HIGH SCHOOL ACADEMY OF FINANCE", "city": "DEPEW", "state": "NY", "zip": "14043-4335", "ntee": "B99", "ruling": "201501", "deductibility": "1", "assets": 0, "income": 0, "revenue": 0}, {"ein": "481150519", "name": "COMMERCIAL REAL ESTATE FINANCE COUNCIL INC", "city": "NEW YORK", "state": "NY", "zip": "10022-5056", "ntee": "", "ruling": "199707", "deductibility": "2", "assets": 29295036, "income": 17561967, "revenue": 17561967}, {"ein": "571174548", "name": "100 WOMEN IN FINANCE FOUNDATION", "city": "NEW YORK", "state": "NY", "zip": "10019-8511", "ntee": "P12", "ruling": "200401", "deductibility": "1", "assets": 2393986, "income": 1851874, "revenue": 1549173}, {"ein": "571174550", "name": "100 WOMEN IN FINANCE ASSOCIATION INC", "city": "NEW YORK", "state": "NY", "zip": "10019-8511", "ntee": "S41", "ruling": "200310", "deductibility": "2", "assets": 765755, "income": 2217542, "revenue": 2016321}, {"ein": "753257163", "name": "ADVISORY BOARD OF THE ORCHARD PARK ACADEMY OF FINANCE INC", "city": "ORCHARD PARK", "state": "NY", "zip": "14127-2052", "ntee": "B90", "ruling": "200805", "deductibility": "1", "assets": 0, "income": 0, "revenue": 0}, {"ein": "770368617", "name": "CHINESE FINANCE ASSOCIATES", "city": "NEW YORK", "state": "NY", "zip": "10163-4058", "ntee": "A99Z", "ruling": "199504", "deductibility": "1", "assets": 124875, "income": 38121, "revenue": 38121}, {"ein": "815368012", "name": "KOREA CENTER FOR INTERNATIONAL FINANCE LTD", "city": "NEW YORK", "state": "NY", "zip": "10020-1806", "ntee": "S40", "ruling": "201804", "deductibility": "2", "assets": 100282, "income": 647748, "revenue": 647748}, {"ein": "823476962", "name": "PRIME FINANCE DISPUTE RESOLUTION AND EDUCATION FOUNDATION", "city": "NEW YORK", "state": "NY", "zip": "10022-5908", "ntee": "I51", "ruling": "201805", "deductibility": "1", "assets": 10575, "income": 140848, "revenue": 140848}, {"ein": "832205524", "name": "KOREAN FINANCE AND TECHNOLOGY ASSOCIATION INC", "city": "BAYSIDE", "state": "NY", "zip": "11361-3580", "ntee": "W03", "ruling": "202009", "deductibility": "1", "assets": 249360, "income": 25, "revenue": 0}, {"ein": "834438628", "name": "CULTURAL HERITAGE FINANCE ALLIANCE INC", "city": "NEW YORK", "state": "NY", "zip": "10024-6449", "ntee": "A80", "ruling": "201912", "deductibility": "1", "assets": 195159, "income": 134418, "revenue": 134418}, {"ein": "841985954", "name": "LEWISTON PORTER ACADEMY OF INTERNATIONAL BUSINESS & FINANCE B", "city": "YOUNGSTOWN", "state": "NY", "zip": "14174-9609", "ntee": "B90", "ruling": "202001", "deductibility": "1", "assets": 0, "income": 0, "revenue": 0}, {"ein": "842283500", "name": "TRANSFORM FINANCE INC", "city": "NEW YORK", "state": "NY", "zip": "10013-2562", "ntee": "S30", "ruling": "202204", "deductibility": "1", "assets": 668914, "income": 399392, "revenue": 399392}, {"ein": "843053724", "name": "EMERGENT FOREST FINANCE ACCELERATOR INC", "city": "NEW YORK", "state": "NY", "zip": "10010-4573", "ntee": "P20", "ruling": "202304", "deductibility": "2", "assets": 26655842, "income": 5871063, "revenue": 5871063}, {"ein": "871222058", "name": "YOUTH ENTREPRENEURSHIP AND FINANCE ASSOCIATION INC", "city": "SCARSDALE", "state": "NY", "zip": "10583-2804", "ntee": "B03", "ruling": "202201", "deductibility": "1", "assets": 38998, "income": 71357, "revenue": 71357}, {"ein": "873529524", "name": "GIRLS FIRST FINANCE FOUNDATION", "city": "BROOKLYN", "state": "NY", "zip": "11201-1479", "ntee": "Q33", "ruling": "202502", "deductibility": "1", "assets": 0, "income": 0, "revenue": 0}, {"ein": "882550860", "name": "EQUIPMENT FINANCE CARES INC", "city": "GARDEN CITY", "state": "NY", "zip": "11530-3336", "ntee": "T30", "ruling": "202206", "deductibility": "1", "assets": 41223, "income": 152297, "revenue": 152297}, {"ein": "934238279", "name": "COUNCIL OF BLACK LEADERS IN FINANCE INC", "city": "NEW YORK", "state": "NY", "zip": "10019-3702", "ntee": "B03", "ruling": "202410", "deductibility": "1", "assets": 0, "income": 0, "revenue": 0}, {"ein": "981109293", "name": "LEBANESE INTERNATIONAL FINANCE EXECUTIVES", "city": "NEW YORK", "state": "NY", "zip": "10028-4305", "ntee": "S40", "ruling": "201502", "deductibility": "2", "assets": 1, "income": 0, "revenue": 0}], "STRAUSMAN": [{"ein": "112587343", "name": "STRAUSMAN FAMILY FUND INC", "city": "GREAT NECK", "state": "NY", "zip": "11021-3036", "ntee": "", "ruling": "198406", "deductibility": "1", "assets": 2892846, "income": 1914745, "revenue": 0}], "KODOMONO": [{"ein": "112587553", "name": "KODOMONO KUNI INC", "city": "WHITE PLAINS", "state": "NY", "zip": "10606-3822", "ntee": "B21Z", "ruling": "198210", "deductibility": "1", "assets": 4079254, "income": 1017564, "revenue": 1017564}], "ISREAL": [{"ein": "112594746", "name": "AMERICAN FRIENDS OF THE SHEMAYA SCHOOL FOR DEAF CHILDREN IN ISREAL", "city": "BROOKLYN", "state": "NY", "zip": "11210-2823", "ntee": "T11", "ruling": "198204", "deductibility": "1", "assets": 52317, "income": 83319, "revenue": 83319}, {"ein": "113130223", "name": "LOYAL SONS AND DAUGHTER OF THE HOUSE OF ISREAL INC", "city": "ROSEDALE", "state": "NY", "zip": "11422-1050", "ntee": "", "ruling": "199308", "deductibility": "1", "assets": 0, "income": 0, "revenue": 0}, {"ein": "522278784", "name": "CHABAD HOUSE OF RAMAT HASHARON ISREAL", "city": "BROOKLYN", "state": "NY", "zip": "11225-4545", "ntee": "X30", "ruling": "200404", "deductibility": "1", "assets": 0, "income": 0, "revenue": 0}, {"ein": "991199170", "name": "ISREAL & FEIGA GREENFELD TZUDKA FUND INC", "city": "BROOKLYN", "state": "NY", "zip": "11249-6712", "ntee": "T30", "ruling": "202409", "deductibility": "1", "assets": 0, "income": 0, "revenue": 0}], "SINFONIETTA": [{"ein": "112608012", "name": "THE LAKE PLACID SINFONIETTA INC", "city": "LAKE PLACID", "state": "NY", "zip": "12946-5303", "ntee": "", "ruling": "198207", "deductibility": "1", "assets": 1316810, "income": 514647, "revenue": 374067}, {"ein": "263555683", "name": "SINFONIETTA OF RIVERDALE", "city": "BRONX", "state": "NY", "zip": "10463-3207", "ntee": "A6C", "ruling": "200909", "deductibility": "1", "assets": 0, "income": 0, "revenue": 0}], "MORDECAI": [{"ein": "112635878", "name": "TIFERET MORDECAI INC", "city": "BROOKLYN", "state": "NY", "zip": "11223-3241", "ntee": "Z99", "ruling": "202401", "deductibility": "1", "assets": 12234, "income": 74309, "revenue": 74309}, {"ein": "452687147", "name": "DAVID K A MORDECAI & SAMANTHA KAPPAGODA CHARITABLE TRUST", "city": "MOHEGAN LAKE", "state": "NY", "zip": "10547-0076", "ntee": "T20", "ruling": "201109", "deductibility": "1", "assets": 12797, "income": 320, "revenue": 0}], "VAISHNAV": [{"ein": "112785459", "name": "VAISHNAV TEMPLE OF NEW YORK INC", "city": "NEW HYDE PARK", "state": "NY", "zip": "11040-3004", "ntee": "X70Z", "ruling": "198806", "deductibility": "1", "assets": 0, "income": 0, "revenue": 0}], "TORATH": [{"ein": "112796274", "name": "CONGREGATION TORATH CHAIM DFLATBUSH", "city": "BROOKLYN", "state": "NY", "zip": "11230-5402", "ntee": "", "ruling": "198607", "deductibility": "1", "assets": 0, "income": 0, "revenue": 0}, {"ein": "113235169", "name": "TORATH ISRAEL SEPHARDIC CONGREGATION", "city": "BROOKLYN", "state": "NY", "zip": "11235-3718", "ntee": "X30Z", "ruling": "199412", "deductibility": "1", "assets": 0, "income": 0, "revenue": 0}, {"ein": "113677969", "name": "CONGREGATION TORATH HAMISHNA INC", "city": "MONSEY", "state": "NY", "zip": "10952-3306", "ntee": "X21", "ruling": "200303", "deductibility": "1", "assets": 0, "income": 0, "revenue": 0}, {"ein": "133417315", "name": "KHAL TORATH CHAIM OF ROCKLAND", "city": "MONSEY", "state": "NY", "zip": "10952-0446", "ntee": "", "ruling": "198801", "deductibility": "1", "assets": 0, "income": 0, "revenue": 0}, {"ein": "135619651", "name": "HOLY YESHIVAH & TALMUD TORAH TORATH EMETH-JERUSALEM", "city": "BROOKLYN", "state": "NY", "zip": "11213-5409", "ntee": "", "ruling": "195303", "deductibility": "1", "assets": 0, "income": 0, "revenue": 0}, {"ein": "237379099", "name": "YESHIVATH VIZNITZ DKHAL TORATH CHAIM INC", "city": "MONSEY", "state": "NY", "zip": "10952-0446", "ntee": "", "ruling": "197407", "deductibility": "1", "assets": 0, "income": 0, "revenue": 0}, {"ein": "316672885", "name": "TORATH SHIMON", "city": "BROOKLYN", "state": "NY", "zip": "11205-0000", "ntee": "X30", "ruling": "200111", "deductibility": "1", "assets": 0, "income": 0, "revenue": 0}, {"ein": "462612703", "name": "CONG KHAL TORATH CHAIM VIZNITZ OF BP", "city": "BROOKLYN", "state": "NY", "zip": "11219-3828", "ntee": "X30", "ruling": "201410", "deductibility": "1", "assets": 0, "income": 0, "revenue": 0}, {"ein": "611902291", "name": "CONG KHAL TORATH CHAIM INC", "city": "KIAMESHA LAKE", "state": "NY", "zip": "12751-5420", "ntee": "X30", "ruling": "201908", "deductibility": "1", "assets": 0, "income": 0, "revenue": 0}, {"ein": "651225083", "name": "TORATH HAIM OHEL SARA", "city": "FLUSHING", "state": "NY", "zip": "11367-3129", "ntee": "X30", "ruling": "200506", "deductibility": "1", "assets": 0, "income": 0, "revenue": 0}, {"ein": "874002085", "name": "CONG KHAL TORATH CHAIM VIZNITZ OF MONSEY INC", "city": "MONSEY", "state": "NY", "zip": "10952-2726", "ntee": "X30", "ruling": "202202", "deductibility": "1", "assets": 0, "income": 0, "revenue": 0}, {"ein": "990972403", "name": "CONGREGATION KHAL TORATH CHAIM OF PHYLLIS", "city": "MONSEY", "state": "NY", "zip": "10952-5733", "ntee": "X30", "ruling": "202404", "deductibility": "1", "assets": 0, "income": 0, "revenue": 0}, {"ein": "993730918", "name": "CONGREGATION KOLLEL TORATH MORDECHAI VIZNITZ", "city": "KIAMESHA LAKE", "state": "NY", "zip": "12751-5413", "ntee": "X30", "ruling": "202412", "deductibility": "1", "assets": 0, "income": 0, "revenue": 0}], "UNLEAVEN": [{"ein": "113068018", "name": "UNLEAVEN BREAD DELIVERANCE TEMPLE OF CHRIST INC", "city": "BROOKLYN", "state": "NY", "zip": "11213-4169", "ntee": "", "ruling": "199111", "deductibility": "1", "assets": 0, "income": 0, "revenue": 0}], "BAVLY": [{"ein": "113071967", "name": "BAVLY RESEARCH INSTITUTE", "city": "BROOKLYN", "state": "NY", "zip": "11210-3714", "ntee": "", "ruling": "199110", "deductibility": "1", "assets": 0, "income": 0, "revenue": 0}], "CLOTHING": [{"ein": "113105790", "name": "CLOTHING & TOOL FUND OF THE ELECTRICAL INDUSTRY TR", "city": "FLUSHING", "state": "NY", "zip": "11365-3085", "ntee": "", "ruling": "199503", "deductibility": "2", "assets": 1076176, "income": 62744, "revenue": 62744}, {"ein": "222503892", "name": "GREECE ECUMENICAL FOOD SHELF AND CLOTHING CLOSET INC", "city": "ROCHESTER", "state": "NY", "zip": "14616-4147", "ntee": "K31Z", "ruling": "198501", "deductibility": "1", "assets": 336988, "income": 355888, "revenue": 355888}, {"ein": "472419920", "name": "OPERATION CLOTHING DROP INC", "city": "ROOSEVELT", "state": "NY", "zip": "11575-2403", "ntee": "P50", "ruling": "202408", "deductibility": "1", "assets": 0, "income": 0, "revenue": 0}, {"ein": "510634740", "name": "NEW BEGINNINGS CLOTHING AND FOOD OUTREACH INC", "city": "MADRID", "state": "NY", "zip": "13660-3101", "ntee": "P60", "ruling": "200906", "deductibility": "1", "assets": 0, "income": 0, "revenue": 0}, {"ein": "883111669", "name": "FINGER LAKES CLOTHING CENTER INC", "city": "GENEVA", "state": "NY", "zip": "14456-9002", "ntee": "P20", "ruling": "202209", "deductibility": "1", "assets": 340311, "income": 204917, "revenue": 204917}, {"ein": "900755156", "name": "WORN AGAIN CLOTHING SHOP", "city": "HAMILTON", "state": "NY", "zip": "13346-2009", "ntee": "P29", "ruling": "201406", "deductibility": "1", "assets": 0, "income": 0, "revenue": 0}, {"ein": "921438457", "name": "FREE LITTLE CLOTHING CLOSET INC", "city": "HALFMOON", "state": "NY", "zip": "12065-6584", "ntee": "P99", "ruling": "202302", "deductibility": "1", "assets": 0, "income": 0, "revenue": 0}, {"ein": "991771344", "name": "COMMON THREADS CLOTHING CLOSET INC", "city": "NEWARK", "state": "NY", "zip": "14513-8917", "ntee": "T99", "ruling": "202404", "deductibility": "1", "assets": 0, "income": 0, "revenue": 0}], "ACTING": [{"ein": "113120961", "name": "COMMUNITIES ACTING TO HEIGHTEN AWARENESS AND LEARNING INC", "city": "W HEMPSTEAD", "state": "NY", "zip": "11552-2920", "ntee": "B28J", "ruling": "199311", "deductibility": "1", "assets": 1026755, "income": 763218, "revenue": 763218}, {"ein": "113217233", "name": "SENIOR THEATER ACTING REPERTORY", "city": "GLENDALE", "state": "NY", "zip": "11385-6133", "ntee": "A65", "ruling": "201910", "deductibility": "1", "assets": 0, "income": 0, "revenue": 0}, {"ein": "132759292", "name": "GROUP I ACTING COMPANY INC", "city": "NEW YORK", "state": "NY", "zip": "10036-3748", "ntee": "A650", "ruling": "197310", "deductibility": "1", "assets": 1048675, "income": 2217543, "revenue": 1966686}, {"ein": "134112234", "name": "STELLA ADLER STUDIO OF ACTING", "city": "NEW YORK", "state": "NY", "zip": "10006-2503", "ntee": "A65", "ruling": "200008", "deductibility": "1", "assets": 19489802, "income": 8738119, "revenue": 8738119}, {"ein": "141689836", "name": "HIGHLIGHT ACTING TROUPE", "city": "CROPSEYVILLE", "state": "NY", "zip": "12052-0112", "ntee": "A60", "ruling": "201305", "deductibility": "1", "assets": 0, "income": 0, "revenue": 0}, {"ein": "223564602", "name": "NEIGHBORHOOD ACTING COMPANY INC", "city": "ONTARIO", "state": "NY", "zip": "14519-0098", "ntee": "A20", "ruling": "201808", "deductibility": "1", "assets": 0, "income": 0, "revenue": 0}, {"ein": "275247988", "name": "BROOKLYN ACTING LAB INC", "city": "BROOKLYN", "state": "NY", "zip": "11215-4440", "ntee": "A65", "ruling": "201204", "deductibility": "1", "assets": 649265, "income": 899204, "revenue": 899204}, {"ein": "364955920", "name": "ACTING OUR AGE INC", "city": "BROOKLYN", "state": "NY", "zip": "11217-2207", "ntee": "A65", "ruling": "202106", "deductibility": "1", "assets": 0, "income": 0, "revenue": 0}, {"ein": "371543175", "name": "ACTING AGAINST AGING", "city": "HOLBROOK", "state": "NY", "zip": "11741-1327", "ntee": "A25", "ruling": "200707", "deductibility": "1", "assets": 0, "income": 0, "revenue": 0}, {"ein": "461005069", "name": "NEW ACTING COMPANY INC", "city": "NEW YORK", "state": "NY", "zip": "10011-6022", "ntee": "A65", "ruling": "201305", "deductibility": "1", "assets": 0, "income": 0, "revenue": 0}, {"ein": "562589484", "name": "MOVING IN CONGREGATIONS ACTING IN HOPE INC", "city": "HOMER", "state": "NY", "zip": "13077-1018", "ntee": "J22", "ruling": "200703", "deductibility": "1", "assets": 0, "income": 0, "revenue": 0}, {"ein": "823767570", "name": "RESIDENT ACTING COMPANY", "city": "NEW YORK", "state": "NY", "zip": "10002-1250", "ntee": "A20", "ruling": "202005", "deductibility": "1", "assets": 8086, "income": 50448, "revenue": 50448}, {"ein": "862551549", "name": "CLASSICAL ACTING INSTITUTE INC", "city": "BROOKLYN", "state": "NY", "zip": "11209-4910", "ntee": "A25", "ruling": "202107", "deductibility": "1", "assets": 5357, "income": 1450, "revenue": 1450}], "STABLIZATION": [{"ein": "113163841", "name": "ALLEN CONSORTIUM FOR COMMUNITY EMPOWERMENT & STABLIZATION LTD", "city": "JAMAICA", "state": "NY", "zip": "11433-3440", "ntee": "J21", "ruling": "200005", "deductibility": "1", "assets": 0, "income": 0, "revenue": 0}], "GROWER": [{"ein": "113194666", "name": "GROWER FOUNDATION INC", "city": "LONG IS CITY", "state": "NY", "zip": "11106-4928", "ntee": "", "ruling": "199403", "deductibility": "1", "assets": 2792, "income": 0, "revenue": 0}], "CORVETTE": [{"ein": "113211631", "name": "CORVETTE SOCIETY INC", "city": "LEVITTOWN", "state": "NY", "zip": "11756-0783", "ntee": "N50", "ruling": "201111", "deductibility": "2", "assets": 0, "income": 0, "revenue": 0}, {"ein": "141792065", "name": "ADIRONDACK CORVETTE CLUB INC", "city": "GLENS FALLS", "state": "NY", "zip": "12801-0716", "ntee": "N50", "ruling": "201606", "deductibility": "2", "assets": 0, "income": 0, "revenue": 0}, {"ein": "300876323", "name": "ROCHESTER CORVETTE CLUB INC", "city": "ROCHESTER", "state": "NY", "zip": "14692-3972", "ntee": "N50", "ruling": "201602", "deductibility": "2", "assets": 10352, "income": 60175, "revenue": 60175}], "DENOMINATIONAL": [{"ein": "113223514", "name": "NEW SEED REVELATION NON DENOMINATIONAL CHURCH INC", "city": "JAMAICA", "state": "NY", "zip": "11434-1021", "ntee": "", "ruling": "199409", "deductibility": "1", "assets": 0, "income": 0, "revenue": 0}, {"ein": "113256222", "name": "NON-DENOMINATIONAL ASSEMBLY OF GOD IN CHRIST WORLD-WIDE FELLOWSHIP", "city": "BROOKLYN", "state": "NY", "zip": "11233-3033", "ntee": "X20Z", "ruling": "199509", "deductibility": "1", "assets": 0, "income": 0, "revenue": 0}, {"ein": "510187565", "name": "INTER-DENOMINATIONAL BROTHERHOOD INC", "city": "BROOKLYN", "state": "NY", "zip": "11213-4107", "ntee": "", "ruling": "197606", "deductibility": "1", "assets": 0, "income": 0, "revenue": 0}, {"ein": "873364262", "name": "NON-DENOMINATIONAL GLOBAL CHRIST CHURCH", "city": "BROOKLYN", "state": "NY", "zip": "11205-2566", "ntee": "X20", "ruling": "202412", "deductibility": "1", "assets": 0, "income": 0, "revenue": 0}], "NIDCHEI": [{"ein": "113245314", "name": "VAAD L HATZOLAS NIDCHEI YISROEL INC", "city": "SPRING VALLEY", "state": "NY", "zip": "10977-5281", "ntee": "X99", "ruling": "199506", "deductibility": "1", "assets": 33991, "income": 542504, "revenue": 542504}], "TEAMS": [{"ein": "113282756", "name": "BAY RIDGE AQUATIC TEAMS INC", "city": "BROOKLYN", "state": "NY", "zip": "11209-4314", "ntee": "N50", "ruling": "201402", "deductibility": "2", "assets": 0, "income": 0, "revenue": 0}, {"ein": "133007729", "name": "TEAMS HOUSING DEVELOPMENT FUND COMPANY INC", "city": "NEW YORK", "state": "NY", "zip": "10030-2501", "ntee": "F60", "ruling": "202208", "deductibility": "1", "assets": 575684, "income": 351104, "revenue": 351104}, {"ein": "141777604", "name": "NEW YORK STATE FEDERATION OF SEARCH AND RESCUE TEAMS INC", "city": "SYRACUSE", "state": "NY", "zip": "13206-2840", "ntee": "E62Z", "ruling": "199511", "deductibility": "1", "assets": 0, "income": 0, "revenue": 0}, {"ein": "264722637", "name": "TEAM IMAGE SYNCHRONIZED SKATING TEAMS LTD", "city": "NEW ROCHELLE", "state": "NY", "zip": "10802-0548", "ntee": "N68", "ruling": "201109", "deductibility": "1", "assets": 661868, "income": 1486186, "revenue": 1486186}, {"ein": "475651220", "name": "OWEGO HOSE TEAMS", "city": "OWEGO", "state": "NY", "zip": "13827-1230", "ntee": "M24", "ruling": "201603", "deductibility": "1", "assets": 11056, "income": 174119, "revenue": 87071}, {"ein": "921847545", "name": "DARE DEVILS SOFTBALL TEAMS", "city": "BLACK RIVER", "state": "NY", "zip": "13612-2198", "ntee": "N63", "ruling": "202302", "deductibility": "1", "assets": 0, "income": 0, "revenue": 0}], "ONO": [{"ein": "113310989", "name": "ONO HOUSE OF PRAYER GOSPEL SEEKERS INC", "city": "JAMAICA", "state": "NY", "zip": "11432-5217", "ntee": "X21Z", "ruling": "199608", "deductibility": "1", "assets": 0, "income": 0, "revenue": 0}, {"ein": "813753854", "name": "AMERICAN FRIENDS OF ONO ACADEMIC COLLEGE", "city": "NEW YORK", "state": "NY", "zip": "10069-1015", "ntee": "T20", "ruling": "201707", "deductibility": "1", "assets": 953, "income": 1, "revenue": 0}, {"ein": "815299703", "name": "ONO PHARMA FOUNDATION", "city": "NEW YORK", "state": "NY", "zip": "10001-0000", "ntee": "T20", "ruling": "201703", "deductibility": "1", "assets": 14793826, "income": 9516421, "revenue": 0}], "KLONIMUS": [{"ein": "113419055", "name": "CONGREGATION BETH KLONIMUS ELIEZER OF BUENOS AIRES", "city": "BROOKLYN", "state": "NY", "zip": "11211-8036", "ntee": "X30", "ruling": "200012", "deductibility": "1", "assets": 0, "income": 0, "revenue": 0}], "KIPPES": [{"ein": "113459846", "name": "KIPPES ZAHOV SHAVU", "city": "BROOKLYN", "state": "NY", "zip": "11223-2328", "ntee": "X20Z", "ruling": "199812", "deductibility": "1", "assets": 0, "income": 0, "revenue": 0}], "ZIKORON": [{"ein": "113522434", "name": "ZIKORON TOV", "city": "BROOKLYN", "state": "NY", "zip": "11206-4803", "ntee": "X30", "ruling": "200002", "deductibility": "1", "assets": 0, "income": 0, "revenue": 0}], "RENDER": [{"ein": "113540939", "name": "WHAT SHALL I RENDER MINISTRIES INC", "city": "CENTRAL ISLIP", "state": "NY", "zip": "11722-2635", "ntee": "X21", "ruling": "200010", "deductibility": "1", "assets": 0, "income": 0, "revenue": 0}], "TOURNIQUET": [{"ein": "113639854", "name": "TOURNIQUET", "city": "WHITESTONE", "state": "NY", "zip": "11357-0333", "ntee": "D20", "ruling": "202304", "deductibility": "1", "assets": 42247, "income": 163485, "revenue": 163485}], "NAVHDA": [{"ein": "113716642", "name": "HUDSON VALLEY NAVHDA INC", "city": "WAPPINGERS FL", "state": "NY", "zip": "12590-3352", "ntee": "", "ruling": "202408", "deductibility": "0", "assets": 0, "income": 0, "revenue": 0}, {"ein": "263355078", "name": "SOUTHERN ADIRONDACK CHAPTER - NAVHDA", "city": "GANSEVOORT", "state": "NY", "zip": "12831-2124", "ntee": "D60", "ruling": "201008", "deductibility": "2", "assets": 0, "income": 0, "revenue": 0}], "WOODLAND": [{"ein": "116013754", "name": "WOODLAND CEMETERY ASSN INC", "city": "BELLPORT", "state": "NY", "zip": "11713-0185", "ntee": "Y50", "ruling": "201402", "deductibility": "1", "assets": 1188534, "income": 113572, "revenue": 113572}, {"ein": "116039913", "name": "WOODLAND ENGINE COMPANY NO 4 OF ROCKVILLE CENTRE NASSAU COUNTY", "city": "ROCKVILLE CTR", "state": "NY", "zip": "11570-5915", "ntee": "", "ruling": "194505", "deductibility": "1", "assets": 174743, "income": 63828, "revenue": 63828}, {"ein": "136018244", "name": "WOODLAND FOUNDATION INC", "city": "NEW YORK", "state": "NY", "zip": "10019-5434", "ntee": "", "ruling": "195206", "deductibility": "1", "assets": 2061553, "income": 660190, "revenue": 0}, {"ein": "141495852", "name": "WOODLAND HILL MONTESSORI SCHOOL", "city": "RENSSELAER", "state": "NY", "zip": "12144-9509", "ntee": "B21Z", "ruling": "196907", "deductibility": "1", "assets": 13360798, "income": 6911188, "revenue": 6835588}, {"ein": "150496690", "name": "WOODLAND CEMETERY ASSOCIATION", "city": "DELHI", "state": "NY", "zip": "13753-0183", "ntee": "", "ruling": "198009", "deductibility": "1", "assets": 704293, "income": 83933, "revenue": 72071}, {"ein": "202733092", "name": "WOODLAND ELEMENTARY PTO INC", "city": "EAST SYRACUSE", "state": "NY", "zip": "13057-6000", "ntee": "B94", "ruling": "201712", "deductibility": "1", "assets": 0, "income": 0, "revenue": 0}, {"ein": "300164277", "name": "WOODLAND POND INC", "city": "NEW PALTZ", "state": "NY", "zip": "12561-6405", "ntee": "L22", "ruling": "200308", "deductibility": "1", "assets": 77347111, "income": 29732990, "revenue": 25660026}, {"ein": "510226111", "name": "WOODLAND CEMETERY ASSOCIATION", "city": "STATEN ISLAND", "state": "NY", "zip": "10310-0000", "ntee": "", "ruling": "197810", "deductibility": "1", "assets": 667445, "income": 196836, "revenue": 196836}], "SCHRAG": [{"ein": "116037030", "name": "CARL I SCHRAG SCHOLARSHIP FOUNDATION INC", "city": "FOREST HILLS", "state": "NY", "zip": "11375-3534", "ntee": "", "ruling": "196307", "deductibility": "1", "assets": 2772, "income": 1, "revenue": 0}], "SEXUALITY": [{"ein": "132642753", "name": "THE SOCIETY FOR THE SCIENTIFIC STUDY OF SEXUALITY INC", "city": "REGO PARK", "state": "NY", "zip": "11374-1136", "ntee": "", "ruling": "202102", "deductibility": "1", "assets": 601051, "income": 396797, "revenue": 395814}], "NEWSWOMENS": [{"ein": "132795571", "name": "NEWSWOMENS CLUB OF NEW YORK INC", "city": "NEW YORK", "state": "NY", "zip": "10003-1705", "ntee": "", "ruling": "197601", "deductibility": "2", "assets": 130147, "income": 181484, "revenue": 136642}], "INTEGRAL": [{"ein": "133170453", "name": "THE CHURCH AND CENTER OF INTEGRAL LIVING", "city": "NEW YORK", "state": "NY", "zip": "10003-1705", "ntee": "", "ruling": "198406", "deductibility": "1", "assets": 0, "income": 0, "revenue": 0}, {"ein": "133429329", "name": "NEW YORK INSTITUTE OF INTEGRAL HUMAN DEVELOPMENT INC", "city": "BRONX", "state": "NY", "zip": "10463-1205", "ntee": "", "ruling": "198801", "deductibility": "1", "assets": 2341, "income": 50, "revenue": 50}, {"ein": "136213660", "name": "INTEGRAL YOGA INSTITUTE INC", "city": "NEW YORK", "state": "NY", "zip": "10011-7701", "ntee": "", "ruling": "198811", "deductibility": "1", "assets": 0, "income": 0, "revenue": 0}, {"ein": "274056363", "name": "RIELO INSTITUTE FOR INTEGRAL DEVELOPMENT", "city": "SYOSSET", "state": "NY", "zip": "11791-0012", "ntee": "P20", "ruling": "201205", "deductibility": "1", "assets": 0, "income": 0, "revenue": 0}, {"ein": "331553793", "name": "INSTITUTE FOR INTEGRAL JUDAISM INC", "city": "NEW YORK", "state": "NY", "zip": "10025-0002", "ntee": "X30", "ruling": "202506", "deductibility": "1", "assets": 0, "income": 0, "revenue": 0}, {"ein": "460536088", "name": "INTEGRAL BALLET SCHOOL INC", "city": "MERRICK", "state": "NY", "zip": "11566-4530", "ntee": "A63", "ruling": "201306", "deductibility": "1", "assets": 83794, "income": 285611, "revenue": 285611}, {"ein": "464379973", "name": "ORGANIZATION FOR THE DEVELOPMENT INTEGRAL OF DONDON", "city": "BROOKLYN", "state": "NY", "zip": "11210-4423", "ntee": "Q32", "ruling": "201502", "deductibility": "1", "assets": 0, "income": 0, "revenue": 0}, {"ein": "824074936", "name": "FRIENDS OF FUNDACION HOGAR INTEGRAL INC", "city": "SAG HARBOR", "state": "NY", "zip": "11963-4691", "ntee": "P30", "ruling": "201802", "deductibility": "1", "assets": 5635, "income": 10000, "revenue": 10000}, {"ein": "863772745", "name": "INTEGRAL FAMILY CHURCH INC", "city": "MONTGOMERY", "state": "NY", "zip": "12549-1928", "ntee": "X20", "ruling": "202205", "deductibility": "1", "assets": 0, "income": 0, "revenue": 0}], "EXCELSIOR": [{"ein": "133197774", "name": "EXCELSIOR ENG COMPANY OF PEARL RIVER NY", "city": "PEARL RIVER", "state": "NY", "zip": "10965-1735", "ntee": "", "ruling": "000000", "deductibility": "0", "assets": 3122654, "income": 295401, "revenue": 151051}, {"ein": "161532850", "name": "EXCELSIOR UNIVERSITY", "city": "ALBANY", "state": "NY", "zip": "12203-5156", "ntee": "B42Z", "ruling": "199807", "deductibility": "1", "assets": 74733671, "income": 83328681, "revenue": 82983225}, {"ein": "237213245", "name": "EXCELSIOR ALUMNI ASSOCIATION USA INC", "city": "NEW YORK", "state": "NY", "zip": "10035-2754", "ntee": "B84", "ruling": "202311", "deductibility": "1", "assets": 3176, "income": 33763, "revenue": 23440}, {"ein": "421578168", "name": "BROOKLYN EXCELSIOR CHARTER SCHOOL", "city": "BROOKLYN", "state": "NY", "zip": "11221-3612", "ntee": "B300", "ruling": "200312", "deductibility": "1", "assets": 626871, "income": 13000788, "revenue": 13000788}, {"ein": "472422237", "name": "EXCELSIOR II HOUSING DEVELOPMENT FUND CORPORATION", "city": "BRONX", "state": "NY", "zip": "10452-1758", "ntee": "L20", "ruling": "201506", "deductibility": "1", "assets": 0, "income": 0, "revenue": 0}, {"ein": "822977051", "name": "EXCELSIOR BUSINESS DEVELOPMENT CORPORATION", "city": "BROOKLYN", "state": "NY", "zip": "11211-6345", "ntee": "S43", "ruling": "202006", "deductibility": "1", "assets": 5851, "income": 9653, "revenue": 9653}, {"ein": "833123327", "name": "EXCELSIOR THEATER FOUNDATION INC", "city": "MANHASSET", "state": "NY", "zip": "11030-3423", "ntee": "T20", "ruling": "201904", "deductibility": "1", "assets": 632, "income": 1, "revenue": 0}, {"ein": "842112665", "name": "EXCELSIOR LOCAL DEVELOPMENT CORPORATION", "city": "LATHAM", "state": "NY", "zip": "12110-0000", "ntee": "S30", "ruling": "202002", "deductibility": "1", "assets": 6798471, "income": 509067, "revenue": 509067}, {"ein": "844768702", "name": "LOGE LINITIE EXCELSIOR INC", "city": "BROOKLYN", "state": "NY", "zip": "11236-5029", "ntee": "X20", "ruling": "202303", "deductibility": "1", "assets": 9900, "income": 6600, "revenue": 6600}, {"ein": "873798986", "name": "EXCELSIOR VOCAL ENSEMBLE INC", "city": "SARATOGA SPGS", "state": "NY", "zip": "12866-5234", "ntee": "A68", "ruling": "202202", "deductibility": "1", "assets": 0, "income": 0, "revenue": 0}, {"ein": "911935802", "name": "EXCELSIOR LODGE NO 1177", "city": "BROOKLYN", "state": "NY", "zip": "11234-5625", "ntee": "Y42", "ruling": "201802", "deductibility": "1", "assets": 0, "income": 0, "revenue": 0}], "MASQUE": [{"ein": "133378557", "name": "MUSIC & MASQUE CO INC", "city": "NYC", "state": "NY", "zip": "10023-2779", "ntee": "", "ruling": "198805", "deductibility": "1", "assets": 0, "income": 0, "revenue": 0}], "JUG": [{"ein": "133384432", "name": "THE JUG TAVERN OF SPARTA INC", "city": "OSSINING", "state": "NY", "zip": "10562-5908", "ntee": "", "ruling": "198709", "deductibility": "1", "assets": 215080, "income": 49968, "revenue": 15866}], "TURNPIKE": [{"ein": "133624152", "name": "215 OLD NYACK TURNPIKE HOLDING CORP", "city": "CHESTNUT RDG", "state": "NY", "zip": "10977-5369", "ntee": "", "ruling": "000000", "deductibility": "0", "assets": 821502, "income": 126537, "revenue": 126537}, {"ein": "222515035", "name": "TURNPIKE WESLEYAN CHURCH", "city": "PLATTSBURGH", "state": "NY", "zip": "12901-7381", "ntee": "", "ruling": "197005", "deductibility": "2", "assets": 0, "income": 0, "revenue": 0}], "CENTAUR": [{"ein": "133628440", "name": "CENTAUR STAGE INC", "city": "NEW YORK", "state": "NY", "zip": "10025-1960", "ntee": "Z99", "ruling": "199112", "deductibility": "1", "assets": 0, "income": 0, "revenue": 0}, {"ein": "223203326", "name": "CENTAUR STRIDE INC", "city": "WESTFIELD", "state": "NY", "zip": "14787-0174", "ntee": "P80Z", "ruling": "199303", "deductibility": "1", "assets": 27208, "income": 115184, "revenue": 114661}], "FUEL": [{"ein": "133872294", "name": "WESTCHESTER PUTNAM FUEL DEALERS ASSOCIATION INC", "city": "MOUNT KISCO", "state": "NY", "zip": "10549-1011", "ntee": "T70", "ruling": "200301", "deductibility": "2", "assets": 0, "income": 0, "revenue": 0}, {"ein": "136152244", "name": "LOCAL 553 FUEL INDUSTRY OPTICAL BENEFITS TRUST FUND", "city": "NEW YORK", "state": "NY", "zip": "10011-7187", "ntee": "", "ruling": "196711", "deductibility": "2", "assets": 89942, "income": 70381, "revenue": 70381}, {"ein": "161423019", "name": "NATIONAL FUEL GAS DISTRIBUTION-NEW YORK DIVISION VOLUNTARY EMPLOYEES", "city": "WILLIAMSVILLE", "state": "NY", "zip": "14221-5855", "ntee": "Y43", "ruling": "199309", "deductibility": "2", "assets": 175543828, "income": 11376915, "revenue": 11376915}, {"ein": "161438191", "name": "NATIONAL FUEL GAS CO HLTH & WELFARE TRUST FOR SUPPLY CORP & PENN YORK", "city": "WILLIAMSVILLE", "state": "NY", "zip": "14221-5855", "ntee": "Y43", "ruling": "200506", "deductibility": "2", "assets": 29892154, "income": 1847963, "revenue": 1847963}, {"ein": "161438193", "name": "NATIONAL FUEL GAS DISTRIBUTION CORP -NY DIV VOL EMP BEN ASSOC FOR NON-", "city": "WILLIAMSVILLE", "state": "NY", "zip": "14221-5855", "ntee": "Y43", "ruling": "200506", "deductibility": "2", "assets": 43213825, "income": 2921738, "revenue": 2921738}, {"ein": "161438194", "name": "NATIONAL FUEL GAS DISTRIBUTION CORP PENN DIV VOL EMP BENE ASSOC FOR", "city": "WILLIAMSVILLE", "state": "NY", "zip": "14221-5855", "ntee": "Y43", "ruling": "200506", "deductibility": "2", "assets": 23358903, "income": 1487970, "revenue": 1487970}, {"ein": "161440168", "name": "NATIONAL FUEL GAS SUPPLY CORP & PENN YORK ENERGY CORP VOL EMP BENE", "city": "WILLIAMSVILLE", "state": "NY", "zip": "14221-5855", "ntee": "", "ruling": "199309", "deductibility": "2", "assets": 56798956, "income": 3626965, "revenue": 3626965}, {"ein": "161440169", "name": "NATIONAL FUEL GAS DISTRIBUTION CORP PENN DIVISION VEBA FOR C B E E U", "city": "WILLIAMSVILLE", "state": "NY", "zip": "14221-5855", "ntee": "Y43", "ruling": "199309", "deductibility": "2", "assets": 56441591, "income": 3616874, "revenue": 3616874}, {"ein": "201860605", "name": "NATIONAL FUEL GAS COMPANY FOUNDATION", "city": "WILLIAMSVILLE", "state": "NY", "zip": "14221-5855", "ntee": "T12", "ruling": "200503", "deductibility": "1", "assets": 1839805, "income": 1272470, "revenue": 0}, {"ein": "300129917", "name": "FUEL FOR TRUTH INC", "city": "SYOSSET", "state": "NY", "zip": "11791-6206", "ntee": "X90", "ruling": "200304", "deductibility": "1", "assets": 155061, "income": 69975, "revenue": 69975}, {"ein": "821103717", "name": "MISSION FUEL INC", "city": "PORT CHESTER", "state": "NY", "zip": "10573-3154", "ntee": "X20", "ruling": "201701", "deductibility": "1", "assets": 0, "income": 0, "revenue": 0}], "ANLA": [{"ein": "133948023", "name": "MARK AND ANLA CHENG KINGDON FUND", "city": "NEW YORK", "state": "NY", "zip": "10019-3480", "ntee": "T21Z", "ruling": "199801", "deductibility": "1", "assets": 196913000, "income": 18432230, "revenue": 0}], "RICHARDS": [{"ein": "133967587", "name": "TAKAKO AND PAUL RICHARDS FOUNDATION INC", "city": "NEW YORK", "state": "NY", "zip": "10023-7137", "ntee": "T20Z", "ruling": "199712", "deductibility": "1", "assets": 101859, "income": 42237, "revenue": 0}, {"ein": "141364588", "name": "RICHARDS LIBRARY", "city": "WARRENSBURG", "state": "NY", "zip": "12885-1625", "ntee": "", "ruling": "197308", "deductibility": "1", "assets": 1586806, "income": 269401, "revenue": 269401}, {"ein": "166141614", "name": "TEACHERS HOME F RICHARDS 16208560 TR", "city": "NORWICH", "state": "NY", "zip": "13815-0000", "ntee": "", "ruling": "000000", "deductibility": "0", "assets": 20014, "income": 893, "revenue": 0}, {"ein": "166379853", "name": "JASPER & ISABELLA RICHARDS SCHOLARSHIP TRUST", "city": "CANAJOHARIE", "state": "NY", "zip": "13317-0000", "ntee": "", "ruling": "199410", "deductibility": "1", "assets": 535836, "income": 117792, "revenue": 0}, {"ein": "166447603", "name": "JAMES BROWN AND MARGARET RICHARDS BROWN MEMORIAL FUND", "city": "ELMIRA", "state": "NY", "zip": "14902-0152", "ntee": "T90Z", "ruling": "199807", "deductibility": "1", "assets": 232764, "income": 21476, "revenue": 0}, {"ein": "208034361", "name": "BRUCE AND AVIS RICHARDS FAMILYFOUNDATION", "city": "NEW YORK", "state": "NY", "zip": "10023-7714", "ntee": "P20", "ruling": "200803", "deductibility": "1", "assets": 4582708, "income": 521359, "revenue": 0}, {"ein": "656236791", "name": "MARY LEAS JOHNSON RICHARDS 1997 CHARITABLE TRUST", "city": "NEW YORK", "state": "NY", "zip": "10167-0000", "ntee": "Z99Z", "ruling": "199802", "deductibility": "1", "assets": 852395, "income": 484440, "revenue": 0}, {"ein": "861420957", "name": "EUGENE S RICHARDS MEMORIAL FOUNDATION INC", "city": "BUFFALO", "state": "NY", "zip": "14211-3201", "ntee": "B82", "ruling": "202208", "deductibility": "1", "assets": 0, "income": 0, "revenue": 0}, {"ein": "992826446", "name": "RICHARDS WAY CORPORATION", "city": "NEW YORK", "state": "NY", "zip": "10019-3743", "ntee": "N31", "ruling": "202405", "deductibility": "1", "assets": 0, "income": 0, "revenue": 0}], "EDUARDO": [{"ein": "133983391", "name": "EDUARDO & ANTONELLA SALVATI FOUNDATION INC", "city": "NEW YORK", "state": "NY", "zip": "10022-2483", "ntee": "T22Z", "ruling": "199810", "deductibility": "1", "assets": 544587, "income": 113335, "revenue": 0}], "HUNG": [{"ein": "134107942", "name": "JOHN HUNG FOUNDATION INC", "city": "NEW YORK", "state": "NY", "zip": "10038-1146", "ntee": "T22", "ruling": "200108", "deductibility": "1", "assets": 2488999, "income": 538628, "revenue": 0}], "AMIDA": [{"ein": "134154068", "name": "AMIDA CARE INC", "city": "NEW YORK", "state": "NY", "zip": "10122-0049", "ntee": "E31", "ruling": "200112", "deductibility": "1", "assets": 235514900, "income": 348370565, "revenue": 339717772}], "PRESENTS": [{"ein": "134158573", "name": "VISION INTO ARTS PRESENTS INC", "city": "NEW YORK", "state": "NY", "zip": "10158-1804", "ntee": "A20", "ruling": "202112", "deductibility": "1", "assets": 35075, "income": 607037, "revenue": 607037}, {"ein": "262885752", "name": "NEW AMSTERDAM PRESENTS INC", "city": "BROOKLYN", "state": "NY", "zip": "11231-5246", "ntee": "A68", "ruling": "201107", "deductibility": "1", "assets": 113244, "income": 212935, "revenue": 212935}, {"ein": "264633491", "name": "OSA PRESENTS INC", "city": "BROOKLYN", "state": "NY", "zip": "11249-1913", "ntee": "N32", "ruling": "201103", "deductibility": "1", "assets": 0, "income": 0, "revenue": 0}, {"ein": "333748528", "name": "SPARK PRESENTS", "city": "PAWLING", "state": "NY", "zip": "12564-0728", "ntee": "W99", "ruling": "202506", "deductibility": "1", "assets": 0, "income": 0, "revenue": 0}, {"ein": "800783830", "name": "HARLEM PRESENTS INC", "city": "NEW YORK", "state": "NY", "zip": "10031-2818", "ntee": "A20", "ruling": "201602", "deductibility": "1", "assets": 104627, "income": 126749, "revenue": 126749}, {"ein": "883695077", "name": "HUSTLE PRESENTS INC", "city": "NEW YORK", "state": "NY", "zip": "10003-5208", "ntee": "B80", "ruling": "202303", "deductibility": "1", "assets": 0, "income": 0, "revenue": 0}, {"ein": "921215252", "name": "CHARLES CARLINI PRESENTS", "city": "NEW YORK", "state": "NY", "zip": "10019-4537", "ntee": "P20", "ruling": "202401", "deductibility": "1", "assets": 782, "income": 61620, "revenue": 61620}, {"ein": "922952700", "name": "BLAST PRESENTS", "city": "ENDICOTT", "state": "NY", "zip": "13760-4873", "ntee": "A60", "ruling": "202412", "deductibility": "1", "assets": 0, "income": 0, "revenue": 0}, {"ein": "923686099", "name": "PEW PEW PRESENTS INC", "city": "NEW YORK", "state": "NY", "zip": "10013-3729", "ntee": "A20", "ruling": "202304", "deductibility": "1", "assets": 0, "income": 0, "revenue": 0}], "GUSTAVUS": [{"ein": "135562234", "name": "GUSTAVUS ADOLPHUS LUTHERAN CHURCH", "city": "NEW YORK", "state": "NY", "zip": "10010-5508", "ntee": "", "ruling": "198804", "deductibility": "1", "assets": 0, "income": 0, "revenue": 0}, {"ein": "311610580", "name": "GUSTAVUS ADOLPHUS CHILD AND FAMILY SERVICES INC", "city": "JAMESTOWN", "state": "NY", "zip": "14701-1935", "ntee": "", "ruling": "198804", "deductibility": "1", "assets": 0, "income": 0, "revenue": 0}], "JOELSON": [{"ein": "136220799", "name": "JOELSON FOUNDATION", "city": "NEW YORK", "state": "NY", "zip": "10021-0057", "ntee": "", "ruling": "196708", "deductibility": "1", "assets": 16638703, "income": 23688038, "revenue": 0}], "FAWCETT": [{"ein": "136223755", "name": "WILLIAM RUSSELL FAWCETT FUND TRUST", "city": "NEW YORK", "state": "NY", "zip": "10008-1297", "ntee": "", "ruling": "196712", "deductibility": "1", "assets": 338487, "income": 68686, "revenue": 0}], "AMHERST": [{"ein": "136766004", "name": "WALTER E DICKINSON ART 6 TR 149812 UW FBO NORTH CONG CHURCH AMHERST", "city": "NEW YORK", "state": "NY", "zip": "10013-2362", "ntee": "", "ruling": "198210", "deductibility": "0", "assets": 394184, "income": 125952, "revenue": 0}, {"ein": "160803014", "name": "AMHERST ALLIANCE CHURCH", "city": "AMHERST", "state": "NY", "zip": "14228-1514", "ntee": "", "ruling": "197205", "deductibility": "0", "assets": 0, "income": 0, "revenue": 0}, {"ein": "160806883", "name": "AMHERST SYMPHONY ORCHESTRA ASSOCIATION INC", "city": "WILLIAMSVILLE", "state": "NY", "zip": "14231-1083", "ntee": "A690", "ruling": "195112", "deductibility": "1", "assets": 211594, "income": 85578, "revenue": 85578}, {"ein": "160822502", "name": "AMHERST NURSERY SCHOOL INC", "city": "AMHERST", "state": "NY", "zip": "14226-4629", "ntee": "B21Z", "ruling": "195002", "deductibility": "1", "assets": 82090, "income": 272293, "revenue": 262242}, {"ein": "160959485", "name": "AMHERST CHAMBER OF COMMERCE INC", "city": "WILLIAMSVILLE", "state": "NY", "zip": "14221-8228", "ntee": "", "ruling": "199106", "deductibility": "2", "assets": 1421112, "income": 949000, "revenue": 893284}, {"ein": "161193483", "name": "AMHERST MUSEUM FOUNDATION INC", "city": "AMHERST", "state": "NY", "zip": "14228-1563", "ntee": "", "ruling": "198311", "deductibility": "1", "assets": 0, "income": 0, "revenue": 0}, {"ein": "161206430", "name": "AMHERST YOUTH FOUNDATION INCORPORATED", "city": "WILLIAMSVILLE", "state": "NY", "zip": "14221-4549", "ntee": "O20I", "ruling": "198603", "deductibility": "1", "assets": 37053, "income": 89352, "revenue": 88991}, {"ein": "161240804", "name": "AMHERST MEALS ON WHEELS INC", "city": "BUFFALO", "state": "NY", "zip": "14228-1142", "ntee": "P81Z", "ruling": "198704", "deductibility": "1", "assets": 1796314, "income": 1462140, "revenue": 842471}, {"ein": "161318236", "name": "AMHERST", "city": "AMHERST", "state": "NY", "zip": "14228-1906", "ntee": "", "ruling": "196307", "deductibility": "1", "assets": 0, "income": 0, "revenue": 0}, {"ein": "161327625", "name": "AMHERST SCHOOL OF MUSIC INC", "city": "EAST AMHERST", "state": "NY", "zip": "14051-1577", "ntee": "A6E0", "ruling": "198907", "deductibility": "1", "assets": 30805, "income": 45623, "revenue": 45623}, {"ein": "161379181", "name": "EAST AMHERST FIRE DEPT INC", "city": "EAST AMHERST", "state": "NY", "zip": "14051-1804", "ntee": "", "ruling": "199804", "deductibility": "1", "assets": 5085696, "income": 1344951, "revenue": 1344951}, {"ein": "161414931", "name": "AMHERST SENIOR CITIZEN FOUNDATION INC", "city": "AMHERST", "state": "NY", "zip": "14228-1142", "ntee": "", "ruling": "199209", "deductibility": "1", "assets": 256441, "income": 36568, "revenue": 13866}, {"ein": "161429401", "name": "AMHERST TIGERS BOOSTER CLUB", "city": "AMHERST", "state": "NY", "zip": "14226-3504", "ntee": "N12", "ruling": "201709", "deductibility": "1", "assets": 0, "income": 0, "revenue": 0}, {"ein": "161436420", "name": "AMHERST YOUTH BASKETBALL INC", "city": "WILLIAMSVILLE", "state": "NY", "zip": "14221-2851", "ntee": "N62Z", "ruling": "199710", "deductibility": "1", "assets": 165405, "income": 152213, "revenue": 152213}, {"ein": "161443956", "name": "NORTH AMHERST FIRE COMPANY", "city": "AMHERST", "state": "NY", "zip": "14228-1401", "ntee": "M99", "ruling": "201405", "deductibility": "1", "assets": 668764, "income": 242919, "revenue": 242919}, {"ein": "161468410", "name": "UB AMHERST SWIMMING INC", "city": "GETZVILLE", "state": "NY", "zip": "14068-0425", "ntee": "N67Z", "ruling": "199710", "deductibility": "1", "assets": 120638, "income": 363991, "revenue": 363991}, {"ein": "161483610", "name": "AMHERST CHAMBER ENSEMBLES INC", "city": "WILLIAMSVILLE", "state": "NY", "zip": "14221-3850", "ntee": "A60", "ruling": "199510", "deductibility": "1", "assets": 0, "income": 0, "revenue": 0}, {"ein": "161489539", "name": "AMHERST LACROSSE ASSOCIATION INC", "city": "WILLIAMSVILLE", "state": "NY", "zip": "14221-2623", "ntee": "N70", "ruling": "200010", "deductibility": "1", "assets": 33733, "income": 61033, "revenue": 61033}, {"ein": "161516087", "name": "AMHERST PARAPROFESSIONAL ASSOCIATION 6018", "city": "N TONAWANDA", "state": "NY", "zip": "14120-1725", "ntee": "", "ruling": "202004", "deductibility": "2", "assets": 0, "income": 0, "revenue": 0}, {"ein": "161526534", "name": "ROTARY CLUB OF AMHERST EAST FOUNDATION", "city": "EAST AMHERST", "state": "NY", "zip": "14051-1265", "ntee": "T30", "ruling": "200406", "deductibility": "1", "assets": 0, "income": 0, "revenue": 0}, {"ein": "161546266", "name": "SPIRITUAL ASSEMBLY OF THE BAHAIS OF AMHERST TOWN", "city": "WILLIAMSVILLE", "state": "NY", "zip": "14231-1555", "ntee": "", "ruling": "199505", "deductibility": "1", "assets": 0, "income": 0, "revenue": 0}, {"ein": "161574937", "name": "AMHERST BEL CANTO CHOIR INC", "city": "AKRON", "state": "NY", "zip": "14001-9743", "ntee": "A6B", "ruling": "200008", "deductibility": "1", "assets": 0, "income": 0, "revenue": 0}, {"ein": "161577352", "name": "AMHERST COMMUNITY FOUNDATION", "city": "AMHERST", "state": "NY", "zip": "14221-8228", "ntee": "T31", "ruling": "200409", "deductibility": "1", "assets": 196317, "income": 75500, "revenue": 75500}, {"ein": "161601425", "name": "MESIVTA MENACHEM OF AMHERST", "city": "AMHERST", "state": "NY", "zip": "14226-1058", "ntee": "X30", "ruling": "200105", "deductibility": "1", "assets": 0, "income": 0, "revenue": 0}, {"ein": "161612376", "name": "AMHERST POLICE FOUNDATION INC", "city": "AMHERST", "state": "NY", "zip": "14221-8453", "ntee": "I60", "ruling": "200204", "deductibility": "1", "assets": 121787, "income": 156808, "revenue": 74474}, {"ein": "166028379", "name": "AMHERST POLICE CLUB INC", "city": "WILLIAMSVILLE", "state": "NY", "zip": "14231-0205", "ntee": "", "ruling": "199305", "deductibility": "2", "assets": 376858, "income": 268418, "revenue": 181653}, {"ein": "166411704", "name": "UNITARIAN UNIVERSALIST CHURCH OF AMHERST ENDOWMENT TRUST", "city": "WILLIAMSVILLE", "state": "NY", "zip": "14221-5821", "ntee": "X11", "ruling": "201211", "deductibility": "1", "assets": 0, "income": 0, "revenue": 0}, {"ein": "222284062", "name": "AMHERST SENIOR TRANSPORTATION SERVICES INC", "city": "AMHERST", "state": "NY", "zip": "14228-1142", "ntee": "", "ruling": "198211", "deductibility": "1", "assets": 405817, "income": 331947, "revenue": 331947}, {"ein": "222300465", "name": "AMHERST SOCCER ASSOCIATION INC", "city": "WILLIAMSVILLE", "state": "NY", "zip": "14231-0264", "ntee": "N64Z", "ruling": "198006", "deductibility": "1", "assets": 659492, "income": 550853, "revenue": 550853}, {"ein": "222322500", "name": "AMHERST MALE GLEE CLUB INC", "city": "WILLIAMSVILLE", "state": "NY", "zip": "14221-6750", "ntee": "A68", "ruling": "201408", "deductibility": "1", "assets": 42139, "income": 67026, "revenue": 67026}, {"ein": "222544684", "name": "AMHERST CENTRAL SCHOOLS FOUNDATION INC", "city": "AMHERST", "state": "NY", "zip": "14226-3504", "ntee": "", "ruling": "198506", "deductibility": "1", "assets": 1188408, "income": 54544, "revenue": 54544}, {"ein": "222563765", "name": "AMHERST SKATING CLUB INC", "city": "WILLIAMSVILLE", "state": "NY", "zip": "14221-2040", "ntee": "N68Z", "ruling": "199202", "deductibility": "1", "assets": 573701, "income": 330347, "revenue": 330347}, {"ein": "222867364", "name": "TOWN OF AMHERST DEVELOPMENT CORPORATION", "city": "AMHERST", "state": "NY", "zip": "14226-3504", "ntee": "", "ruling": "198811", "deductibility": "1", "assets": 23932, "income": 4000, "revenue": 0}, {"ein": "223073837", "name": "AMHERST HIGHWAY EMPLOYEES ASSOCIATION INC", "city": "WILLIAMSVILLE", "state": "NY", "zip": "14221-4402", "ntee": "", "ruling": "199012", "deductibility": "2", "assets": 219667, "income": 58991, "revenue": 58991}, {"ein": "510229821", "name": "AMHERST YOUTH HOCKEY", "city": "BUFFALO", "state": "NY", "zip": "14209-0411", "ntee": "P20", "ruling": "201203", "deductibility": "1", "assets": 415574, "income": 946894, "revenue": 946894}, {"ein": "542066744", "name": "AMHERST DRUG COURT & THERAPEUTIC FOUNDATION INC", "city": "GETZVILLE", "state": "NY", "zip": "14068-0764", "ntee": "F20", "ruling": "200209", "deductibility": "1", "assets": 0, "income": 0, "revenue": 0}, {"ein": "800198306", "name": "FELLOWSHIP BAPTIST CHURCH OF AMHERST", "city": "GETZVILLE", "state": "NY", "zip": "14068-1388", "ntee": "X20", "ruling": "200909", "deductibility": "1", "assets": 0, "income": 0, "revenue": 0}, {"ein": "820699765", "name": "AMHERST TIGER SHARKS SWIM TEAM", "city": "SNYDER", "state": "NY", "zip": "14226-4817", "ntee": "N67", "ruling": "202001", "deductibility": "1", "assets": 29564, "income": 97587, "revenue": 97587}, {"ein": "852066216", "name": "AMHERST HELPING HANDS INC", "city": "GETZVILLE", "state": "NY", "zip": "14068-1281", "ntee": "P60", "ruling": "202101", "deductibility": "1", "assets": 0, "income": 0, "revenue": 0}, {"ein": "863157839", "name": "AMHERST WORKING DOG CLUB INC", "city": "EAST AMHERST", "state": "NY", "zip": "14051-1016", "ntee": "D61", "ruling": "202211", "deductibility": "2", "assets": 0, "income": 0, "revenue": 0}, {"ein": "872647432", "name": "EAST AMHERST FIRE DEPARTMENT BENEVOLENT ASSOCIATION", "city": "EAST AMHERST", "state": "NY", "zip": "14051-1804", "ntee": "Y40", "ruling": "202203", "deductibility": "1", "assets": 0, "income": 0, "revenue": 0}, {"ein": "882407772", "name": "FRIENDS OF AMHERST YOUTH HOCKEY INC", "city": "WILLIAMSVILLE", "state": "NY", "zip": "14231-0000", "ntee": "N11", "ruling": "202506", "deductibility": "1", "assets": 217785, "income": 270000, "revenue": 270000}, {"ein": "931669913", "name": "AMHERST LITTLE FREE PANTRY LTD", "city": "WILLIAMSVILLE", "state": "NY", "zip": "14221-5821", "ntee": "K31", "ruling": "202310", "deductibility": "1", "assets": 0, "income": 0, "revenue": 0}, {"ein": "932138248", "name": "AMHERST QUILTERS GUILD INC", "city": "EAST AMHERST", "state": "NY", "zip": "14051-2928", "ntee": "N50", "ruling": "202412", "deductibility": "2", "assets": 0, "income": 0, "revenue": 0}], "SEGY": [{"ein": "136978310", "name": "HELENA SEGY FOUNDATION", "city": "NEW YORK", "state": "NY", "zip": "10036-6524", "ntee": "", "ruling": "199111", "deductibility": "1", "assets": 3709230, "income": 986644, "revenue": 0}], "MCNEIL": [{"ein": "137063382", "name": "GEORGE MCNEIL TR UW", "city": "BROOKLYN", "state": "NY", "zip": "11205-3605", "ntee": "T90Z", "ruling": "199508", "deductibility": "1", "assets": 63650, "income": 1815, "revenue": 0}, {"ein": "526854625", "name": "JOANNA MCNEIL TR", "city": "NEW YORK", "state": "NY", "zip": "10005-0000", "ntee": "T20Z", "ruling": "199712", "deductibility": "1", "assets": 8887814, "income": 2087139, "revenue": 0}, {"ein": "833255297", "name": "DAN AND ROSE MCNEIL FOUNDATION INC", "city": "CORTLAND", "state": "NY", "zip": "13045-2709", "ntee": "A61", "ruling": "202001", "deductibility": "1", "assets": 73045, "income": 88589, "revenue": 88047}], "ROUNDOUT": [{"ein": "141612335", "name": "ROUNDOUT VALLEY SCHOLARSHIP FUND INC", "city": "STONE RIDGE", "state": "NY", "zip": "12484-0096", "ntee": "", "ruling": "196204", "deductibility": "1", "assets": 271242, "income": 48019, "revenue": 48019}], "KVISTAD": [{"ein": "141702791", "name": "KVISTAD FOUNDATION", "city": "OLIVEBRIDGE", "state": "NY", "zip": "12461-5438", "ntee": "", "ruling": "198905", "deductibility": "1", "assets": 1526941, "income": 82166, "revenue": 0}], "AIRMEN": [{"ein": "141803183", "name": "TUSKEGEE AIRMEN INC", "city": "NEW WINDSOR", "state": "NY", "zip": "12553-8488", "ntee": "", "ruling": "198410", "deductibility": "0", "assets": 410033, "income": 106571, "revenue": 75485}, {"ein": "203286337", "name": "CHRISTIAN AIRMEN EDUCATIONAL FOUNDATION", "city": "CLARENCE", "state": "NY", "zip": "14031-1624", "ntee": "B82", "ruling": "200606", "deductibility": "1", "assets": 0, "income": 0, "revenue": 0}, {"ein": "222716676", "name": "TUSKEGEE AIRMEN INC", "city": "NEW YORK", "state": "NY", "zip": "10037-1602", "ntee": "B20J", "ruling": "198410", "deductibility": "1", "assets": 0, "income": 0, "revenue": 0}], "LISHAS": [{"ein": "146023052", "name": "LISHAS KILL REFORMED CHURCH OF LISHAS KILL ALBANY COUNTY NEW YORK", "city": "SCHENECTADY", "state": "NY", "zip": "12304-4468", "ntee": "", "ruling": "198601", "deductibility": "1", "assets": 0, "income": 0, "revenue": 0}], "HORTENSE": [{"ein": "146034010", "name": "JOSEPH G & HORTENSE L MINTZER TRUST", "city": "W SAND LAKE", "state": "NY", "zip": "12196-0442", "ntee": "", "ruling": "196512", "deductibility": "1", "assets": 170723, "income": 45744, "revenue": 0}], "KJELSEN": [{"ein": "146078613", "name": "KJELSEN TRUST UW MARY FBO BEN KJELSEN SCHOLARSHIP FUND", "city": "BERLIN", "state": "NY", "zip": "12022-0000", "ntee": "", "ruling": "000000", "deductibility": "0", "assets": 0, "income": 0, "revenue": 0}], "LIVERPOOL": [{"ein": "160876277", "name": "PUBLIC BROADCASTING COUNCIL OF CENTRAL NEW YORK INC OLD LIVERPOOL", "city": "SYRACUSE", "state": "NY", "zip": "13204-2941", "ntee": "A300", "ruling": "196503", "deductibility": "1", "assets": 16040585, "income": 7697310, "revenue": 7455227}, {"ein": "161093208", "name": "LIVERPOOL POLICE BENEVOLENT ASSOCIATION INC C O JOHN LANDERS", "city": "LIVERPOOL", "state": "NY", "zip": "13088-4943", "ntee": "Y99", "ruling": "202205", "deductibility": "2", "assets": 33212, "income": 8540, "revenue": 8540}, {"ein": "161094642", "name": "GREATER LIVERPOOL CHAMBER OF COMMERCE INC", "city": "LIVERPOOL", "state": "NY", "zip": "13088-4932", "ntee": "S41", "ruling": "201211", "deductibility": "2", "assets": 40678, "income": 98222, "revenue": 77920}, {"ein": "161129039", "name": "REDEEMER EVANGELICAL COVENANT CHURCH LIVERPOOL NY", "city": "LIVERPOOL", "state": "NY", "zip": "13090-3538", "ntee": "", "ruling": "197507", "deductibility": "1", "assets": 0, "income": 0, "revenue": 0}, {"ein": "161296115", "name": "LIVERPOOL COMMUNITY CHURCH", "city": "LIVERPOOL", "state": "NY", "zip": "13090-2518", "ntee": "", "ruling": "195806", "deductibility": "1", "assets": 0, "income": 0, "revenue": 0}, {"ein": "161366095", "name": "LIVERPOOL FIRE DEPARTMENT INC", "city": "LIVERPOOL", "state": "NY", "zip": "13088-5015", "ntee": "M24", "ruling": "199908", "deductibility": "1", "assets": 9158741, "income": 1949872, "revenue": 1859578}, {"ein": "161508989", "name": "LIVERPOOL GIRLS SOFTBALL LEAGUE INC", "city": "LIVERPOOL", "state": "NY", "zip": "13088-0645", "ntee": "N63", "ruling": "200403", "deductibility": "1", "assets": 13498, "income": 45722, "revenue": 45722}, {"ein": "161573047", "name": "LIVERPOOL INDEPENDENT FOUNDATION FOR EXCELLENCE INC", "city": "LIVERPOOL", "state": "NY", "zip": "13090-2458", "ntee": "T30", "ruling": "200106", "deductibility": "1", "assets": 0, "income": 0, "revenue": 0}, {"ein": "161581655", "name": "LIVERPOOL ELEMENTARY SCHOOL PARENT FACULTY ORGANIZATION", "city": "LIVERPOOL", "state": "NY", "zip": "13088-4425", "ntee": "B20", "ruling": "201512", "deductibility": "1", "assets": 0, "income": 0, "revenue": 0}, {"ein": "166317455", "name": "IRENE BARDES TR FBO LIVERPOOL METHODIST CHURCH", "city": "AMHERST", "state": "NY", "zip": "14228-2307", "ntee": "", "ruling": "199003", "deductibility": "1", "assets": 1001429, "income": 256149, "revenue": 0}, {"ein": "200049715", "name": "LIVERPOOL AMATEUR REPEATER CLUB", "city": "SYRACUSE", "state": "NY", "zip": "13220-5623", "ntee": "M99", "ruling": "201502", "deductibility": "1", "assets": 0, "income": 0, "revenue": 0}, {"ein": "222309674", "name": "LIVERPOOL HIGH MARCHING BAND BOOSTER CLUB INC", "city": "LIVERPOOL", "state": "NY", "zip": "13089-2371", "ntee": "", "ruling": "198008", "deductibility": "1", "assets": 160660, "income": 232628, "revenue": 194503}, {"ein": "222686995", "name": "LIVERPOOL YOUTH SOCCER LEAGUE INC", "city": "LIVERPOOL", "state": "NY", "zip": "13089-2456", "ntee": "N64", "ruling": "201705", "deductibility": "1", "assets": 13839, "income": 22759, "revenue": 22759}, {"ein": "237452783", "name": "VETERANS OF FOREIGN WARS DEPT OF NEW YORK LIVERPOOL-CLAY POST 951", "city": "CLAY", "state": "NY", "zip": "13041-8614", "ntee": "", "ruling": "197210", "deductibility": "0", "assets": 0, "income": 0, "revenue": 0}, {"ein": "262179384", "name": "LIVERPOOL SOCCER INC", "city": "LIVERPOOL", "state": "NY", "zip": "13090-3626", "ntee": "N64", "ruling": "201008", "deductibility": "1", "assets": 0, "income": 0, "revenue": 0}, {"ein": "332654494", "name": "LIVERPOOL LEGENDS WRESTLING INC", "city": "BALDWINSVILLE", "state": "NY", "zip": "13027-9843", "ntee": "N12", "ruling": "202501", "deductibility": "1", "assets": 0, "income": 0, "revenue": 0}, {"ein": "334423488", "name": "LIVERPOOL GIRLS BASKETBALL BOOSTER CLUB", "city": "LIVERPOOL", "state": "NY", "zip": "13090-6879", "ntee": "N62", "ruling": "202507", "deductibility": "1", "assets": 0, "income": 0, "revenue": 0}, {"ein": "460701956", "name": "LIVERPOOL HIGH SCHOOL PTSO INC", "city": "LIVERPOOL", "state": "NY", "zip": "13090-2011", "ntee": "B94", "ruling": "201209", "deductibility": "1", "assets": 0, "income": 0, "revenue": 0}, {"ein": "510157901", "name": "LIVERPOOL JETS SWIM CLUB INC", "city": "LIVERPOOL", "state": "NY", "zip": "13089-2130", "ntee": "N67", "ruling": "200906", "deductibility": "1", "assets": 3974, "income": 126667, "revenue": 117294}, {"ein": "844840613", "name": "LIVERPOOL FOUNDATION FOR EDUCATION", "city": "LIVERPOOL", "state": "NY", "zip": "13090-1937", "ntee": "B12", "ruling": "202106", "deductibility": "1", "assets": 35728, "income": 73502, "revenue": 73502}], "SNACK": [{"ein": "160955912", "name": "ROME TWIGS SNACK BAR & GIFT SHOP", "city": "ROME", "state": "NY", "zip": "13440-2844", "ntee": "E22I", "ruling": "196908", "deductibility": "1", "assets": 52530, "income": 70835, "revenue": 48034}, {"ein": "205934666", "name": "SNACK & FRIENDS INC", "city": "NEW YORK", "state": "NY", "zip": "10022-5218", "ntee": "P20", "ruling": "200701", "deductibility": "1", "assets": 811814, "income": 2772488, "revenue": 2565361}, {"ein": "332978328", "name": "POTSDAM SNACK PACK PROGRAM", "city": "POTSDAM", "state": "NY", "zip": "13676-1752", "ntee": "K30", "ruling": "202502", "deductibility": "1", "assets": 0, "income": 0, "revenue": 0}], "MICROD": [{"ein": "161412991", "name": "SODUS MICROD CLUB INC", "city": "SODUS", "state": "NY", "zip": "14551-0000", "ntee": "N70", "ruling": "202004", "deductibility": "1", "assets": 0, "income": 0, "revenue": 0}, {"ein": "222541466", "name": "SYRACUSE-GEDDES MICROD 1-4 MIDGET CLUB", "city": "SYRACUSE", "state": "NY", "zip": "13219-0000", "ntee": "N60", "ruling": "201411", "deductibility": "1", "assets": 7918, "income": 21767, "revenue": 21767}, {"ein": "472636256", "name": "SOUTHERN TIER MICROD CLUB INC", "city": "OWEGO", "state": "NY", "zip": "13827-2008", "ntee": "O50", "ruling": "201502", "deductibility": "1", "assets": 0, "income": 0, "revenue": 0}], "PROLITERACY": [{"ein": "161453756", "name": "PROLITERACY WORLDWIDE", "city": "BELMONT", "state": "NY", "zip": "14813-0000", "ntee": "", "ruling": "200401", "deductibility": "1", "assets": 0, "income": 0, "revenue": 0}, {"ein": "166076384", "name": "PROLITERACY WORLDWIDE", "city": "SYRACUSE", "state": "NY", "zip": "13204-1653", "ntee": "B92", "ruling": "197311", "deductibility": "1", "assets": 19898483, "income": 13759750, "revenue": 13383137}, {"ein": "237330109", "name": "PROLITERACY WORLDWIDE", "city": "PLATTSBURGH", "state": "NY", "zip": "12901-0259", "ntee": "", "ruling": "200312", "deductibility": "1", "assets": 52316, "income": 149218, "revenue": 149218}], "ASSESSING": [{"ein": "161482019", "name": "INTERNATIONAL ASSOCIATION OF ASSESSING OFFICERS", "city": "BATAVIA", "state": "NY", "zip": "14021-0414", "ntee": "", "ruling": "199511", "deductibility": "1", "assets": 0, "income": 0, "revenue": 0}], "PUMPKINFEST": [{"ein": "161506254", "name": "THE GREAT CORTLAND PUMPKINFEST INC", "city": "CORTLAND", "state": "NY", "zip": "13045-2684", "ntee": "N52", "ruling": "199908", "deductibility": "2", "assets": 8624, "income": 29355, "revenue": -5671}], "BOEHMLER": [{"ein": "161510757", "name": "ROBERT G BOEHMLER COMMUNITY FOUNDATION INC", "city": "PITTSFORD", "state": "NY", "zip": "14534-4527", "ntee": "A12", "ruling": "199903", "deductibility": "1", "assets": 1954660, "income": 65206, "revenue": 0}], "LINWOOD": [{"ein": "161520412", "name": "LINWOOD LTD", "city": "PAVILION", "state": "NY", "zip": "14525-0000", "ntee": "C114", "ruling": "199706", "deductibility": "1", "assets": 223797, "income": 64545, "revenue": 51799}, {"ein": "237372052", "name": "TWO HUNDRED SEVENTY-TWO TO TWO HUNDRED EIGHTY LINWOOD AVENUE INC", "city": "BUFFALO", "state": "NY", "zip": "14209-1838", "ntee": "L210", "ruling": "197602", "deductibility": "1", "assets": 7201453, "income": 1280331, "revenue": 1280331}, {"ein": "753216298", "name": "LINWOOD PRESERVATION DISTRICT AND FRIENDS", "city": "BUFFALO", "state": "NY", "zip": "14209-0000", "ntee": "A80", "ruling": "201409", "deductibility": "1", "assets": 0, "income": 0, "revenue": 0}], "YERMAN": [{"ein": "161527697", "name": "ELLEN YERMAN CHARITABLE FOUNDATION INC", "city": "SLINGERLANDS", "state": "NY", "zip": "12159-9285", "ntee": "T20Z", "ruling": "199806", "deductibility": "1", "assets": 133760, "income": 24402, "revenue": 0}], "NAKURU": [{"ein": "161599729", "name": "CATHOLIC DIOCESE OF NAKURU MISSION OFFICE INC", "city": "CANASTOTA", "state": "NY", "zip": "13032-1137", "ntee": "", "ruling": "194603", "deductibility": "1", "assets": 78617, "income": 100088, "revenue": 100088}], "TOUHEED": [{"ein": "161639301", "name": "DARUT TOUHEED INC", "city": "RICHMOND HILL", "state": "NY", "zip": "11418-2642", "ntee": "X40", "ruling": "200310", "deductibility": "1", "assets": 0, "income": 0, "revenue": 0}], "CHIKU": [{"ein": "161648415", "name": "CHIKU AWALI AFRICAN DANCE ARTS & CULTURE INC", "city": "SUFFERN", "state": "NY", "zip": "10901-0794", "ntee": "A20", "ruling": "200307", "deductibility": "1", "assets": 7814, "income": 59057, "revenue": 59057}], "NISONS": [{"ein": "200614340", "name": "NISONS TABLE TENNIS SCHOOL INC", "city": "FLUSHING", "state": "NY", "zip": "11367-1921", "ntee": "N60", "ruling": "200407", "deductibility": "1", "assets": 7251, "income": 64176, "revenue": 64176}], "SOCEITY": [{"ein": "201238129", "name": "RIDGEWOOD NEPALESE SOCEITY INC", "city": "RIDGEWOOD", "state": "NY", "zip": "11385-5346", "ntee": "A23", "ruling": "200910", "deductibility": "1", "assets": 2399482, "income": 285066, "revenue": 285066}, {"ein": "931763461", "name": "BROOKLYN AND QUEENS HOLY NAME SOCEITY", "city": "LEVITTOWN", "state": "NY", "zip": "11756-2020", "ntee": "Y40", "ruling": "202404", "deductibility": "1", "assets": 0, "income": 0, "revenue": 0}], "HCC": [{"ein": "201495711", "name": "HCC SUPPORT INC", "city": "HEMPSTEAD", "state": "NY", "zip": "11550-3923", "ntee": "P014", "ruling": "200411", "deductibility": "1", "assets": 0, "income": 359460, "revenue": 359460}], "VSHOMRON": [{"ein": "203458715", "name": "YAD EZRAH OF YEHUDA VSHOMRON INC", "city": "BROOKLYN", "state": "NY", "zip": "11219-2299", "ntee": "T123", "ruling": "200607", "deductibility": "1", "assets": 2934, "income": 109600, "revenue": 109600}], "BAKAS": [{"ein": "203755682", "name": "BAKAS PILIPINAS INCORPORATED", "city": "NEW YORK", "state": "NY", "zip": "10008-2706", "ntee": "A80", "ruling": "201004", "deductibility": "1", "assets": 0, "income": 0, "revenue": 0}], "OFSCHENECTADY": [{"ein": "204918456", "name": "JACK FALVO III FOUNDATION OFSCHENECTADY INC", "city": "GANSEVOORT", "state": "NY", "zip": "12831-2703", "ntee": "E86", "ruling": "200710", "deductibility": "1", "assets": 887610, "income": 167076, "revenue": 120498}], "THECATSKILL": [{"ein": "205056373", "name": "BETHEL SUNSHINE CAMP OF THECATSKILL MOUNTAINS INC", "city": "NEW YORK", "state": "NY", "zip": "10150-8280", "ntee": "", "ruling": "195606", "deductibility": "2", "assets": 0, "income": 0, "revenue": 0}], "ASIS": [{"ein": "222157291", "name": "ASIS INTERNATIONAL INC", "city": "LATHAM", "state": "NY", "zip": "12110-0108", "ntee": "", "ruling": "197808", "deductibility": "2", "assets": 0, "income": 0, "revenue": 0}, {"ein": "510227286", "name": "ASIS INTERNATIONAL INC", "city": "FARMINGTON", "state": "NY", "zip": "14425-9079", "ntee": "", "ruling": "197808", "deductibility": "2", "assets": 0, "income": 0, "revenue": 0}, {"ein": "510248996", "name": "ASIS INTERNATIONAL INC", "city": "NEW YORK", "state": "NY", "zip": "10018-3612", "ntee": "", "ruling": "197808", "deductibility": "2", "assets": 126986, "income": 188814, "revenue": 188814}, {"ein": "510249000", "name": "ASIS INTERNATIONAL INC", "city": "CHEEKTOWAGA", "state": "NY", "zip": "14225-4851", "ntee": "", "ruling": "197808", "deductibility": "2", "assets": 0, "income": 0, "revenue": 0}, {"ein": "510249026", "name": "ASIS INTERNATIONAL INC", "city": "WANTAGH", "state": "NY", "zip": "11793-4024", "ntee": "", "ruling": "197808", "deductibility": "2", "assets": 0, "income": 0, "revenue": 0}, {"ein": "510249032", "name": "ASIS INTERNATIONAL INC", "city": "POUGHKEEPSIE", "state": "NY", "zip": "12603-2629", "ntee": "", "ruling": "197808", "deductibility": "2", "assets": 0, "income": 0, "revenue": 0}, {"ein": "510249063", "name": "ASIS INTERNATIONAL INC", "city": "SYRACUSE", "state": "NY", "zip": "13209-1006", "ntee": "", "ruling": "197808", "deductibility": "2", "assets": 0, "income": 0, "revenue": 0}], "RAPTOR": [{"ein": "222779257", "name": "BRADDOCK BAY RAPTOR RESEARCH INC", "city": "HONEOYE FALLS", "state": "NY", "zip": "14472-9352", "ntee": "U50", "ruling": "201303", "deductibility": "1", "assets": 0, "income": 0, "revenue": 0}, {"ein": "473073228", "name": "FINGER LAKES RAPTOR CENTER INC", "city": "LODI", "state": "NY", "zip": "14860-9661", "ntee": "D30", "ruling": "201505", "deductibility": "1", "assets": 0, "income": 0, "revenue": 0}, {"ein": "834140430", "name": "WNY RAPTOR AND WILDLIFE CARE INC", "city": "ORCHARD PARK", "state": "NY", "zip": "14127-8151", "ntee": "D30", "ruling": "201905", "deductibility": "1", "assets": 0, "income": 0, "revenue": 0}, {"ein": "923837637", "name": "RAPTOR ROBOTICS", "city": "GLEN COVE", "state": "NY", "zip": "11542-1706", "ntee": "U40", "ruling": "202306", "deductibility": "1", "assets": 0, "income": 0, "revenue": 0}], "ECMC": [{"ein": "223283946", "name": "ECMC FOUNDATION INC", "city": "BUFFALO", "state": "NY", "zip": "14215-3021", "ntee": "E12", "ruling": "199407", "deductibility": "1", "assets": 7577834, "income": 4716650, "revenue": 3390096}], "LEIF": [{"ein": "237060367", "name": "LEIF ERICSON DAY SCHOOL", "city": "BROOKLYN", "state": "NY", "zip": "11228-1216", "ntee": "", "ruling": "198804", "deductibility": "1", "assets": 0, "income": 0, "revenue": 0}], "BORTNER": [{"ein": "237789712", "name": "FLORENCE W & STEWART R BORTNER CHARITABLE TR AGREEMENT", "city": "BUFFALO", "state": "NY", "zip": "14240-1504", "ntee": "T22", "ruling": "200611", "deductibility": "1", "assets": 745059, "income": 258767, "revenue": 0}], "HARJEN": [{"ein": "260276553", "name": "HARJEN CHARITABLE FOUNDATION", "city": "NEW YORK", "state": "NY", "zip": "10021-5158", "ntee": "T20", "ruling": "200709", "deductibility": "1", "assets": 9704584, "income": 1553988, "revenue": 0}], "DOSIMETRISTS": [{"ein": "260814764", "name": "AMERICAN ASSOCIATION OF MEDICAL DOSIMETRISTS EDUCATION AND", "city": "ROCHESTER", "state": "NY", "zip": "14618-2213", "ntee": "B82", "ruling": "200903", "deductibility": "1", "assets": 217126, "income": 88433, "revenue": 88433}], "NENNEH": [{"ein": "261739340", "name": "NENNEH CHILDREN FUND", "city": "BROOKLYN", "state": "NY", "zip": "11225-1821", "ntee": "Q33", "ruling": "200809", "deductibility": "1", "assets": 0, "income": 0, "revenue": 0}], "MANCUSO": [{"ein": "262962427", "name": "LOUIS MANCUSO SR SCHOLARSHIP FUND", "city": "RONKONKOMA", "state": "NY", "zip": "11779-7351", "ntee": "B82", "ruling": "200903", "deductibility": "1", "assets": 0, "income": 0, "revenue": 0}], "HOVER": [{"ein": "263994213", "name": "ALEXANDER AND MARJORIE HOVER FOUNDATION INC", "city": "GERMANTOWN", "state": "NY", "zip": "12526-0524", "ntee": "T22", "ruling": "200907", "deductibility": "1", "assets": 6631616, "income": 563713, "revenue": 0}], "75TH": [{"ein": "270368165", "name": "75TH PRECINCT CLERGY COUNCIL", "city": "BROOKLYN", "state": "NY", "zip": "11208-3553", "ntee": "S99", "ruling": "202401", "deductibility": "1", "assets": 0, "income": 0, "revenue": 0}], "RACEHORSE": [{"ein": "274556090", "name": "HEADING FOR HOME RACEHORSE RETRAINING ADOPTION CENTER INC", "city": "SARATOGA SPGS", "state": "NY", "zip": "12866-0810", "ntee": "D20", "ruling": "201107", "deductibility": "1", "assets": 175373, "income": 17220, "revenue": 14643}], "SISHU": [{"ein": "331494031", "name": "OGMIN JANGCHHUP SISHU TSOGPA USA INC", "city": "MIDDLE VLG", "state": "NY", "zip": "11379-2420", "ntee": "X50", "ruling": "202410", "deductibility": "1", "assets": 0, "income": 0, "revenue": 0}], "TOOLSHED": [{"ein": "331643353", "name": "ECO TOOLSHED", "city": "HUDSON", "state": "NY", "zip": "12534-3116", "ntee": "A20", "ruling": "202411", "deductibility": "1", "assets": 0, "income": 0, "revenue": 0}], "KVK": [{"ein": "331720023", "name": "KVK SCHOLARSHIP INC", "city": "HASTINGS HDSN", "state": "NY", "zip": "10706-2809", "ntee": "B82", "ruling": "202411", "deductibility": "1", "assets": 0, "income": 0, "revenue": 0}], "RESCUES": [{"ein": "331736563", "name": "RAMBARRAN RESCUES INC", "city": "CLARENCE CTR", "state": "NY", "zip": "14032-9293", "ntee": "D20", "ruling": "202412", "deductibility": "1", "assets": 0, "income": 0, "revenue": 0}, {"ein": "651183542", "name": "JOYFUL RESCUES INC", "city": "CUBA", "state": "NY", "zip": "14727-9452", "ntee": "D20", "ruling": "200305", "deductibility": "1", "assets": 186788, "income": 318471, "revenue": 313059}, {"ein": "811876458", "name": "NEW 2 U RESCUES INC", "city": "ROCHESTER", "state": "NY", "zip": "14615-2903", "ntee": "D99", "ruling": "202209", "deductibility": "1", "assets": 35002, "income": 162571, "revenue": 161571}, {"ein": "814206593", "name": "KITTYNAP KITTEN RESCUES & ADOPTIONS INC", "city": "BETHPAGE", "state": "NY", "zip": "11714-1227", "ntee": "D20", "ruling": "201705", "deductibility": "1", "assets": 0, "income": 0, "revenue": 0}, {"ein": "882432573", "name": "RITAS RESCUES INC", "city": "BRONX", "state": "NY", "zip": "10451-2427", "ntee": "D20", "ruling": "202402", "deductibility": "1", "assets": 0, "income": 0, "revenue": 0}], "SERENE": [{"ein": "332180996", "name": "SERENE AND GRATEFUL ENTERTAINMENT INC", "city": "LEVITTOWN", "state": "NY", "zip": "11756-5233", "ntee": "S11", "ruling": "202412", "deductibility": "1", "assets": 0, "income": 0, "revenue": 0}], "TGS": [{"ein": "421767394", "name": "TGS-THINK GLOBAL SCHOOL INC", "city": "NEW YORK", "state": "NY", "zip": "10021-2637", "ntee": "B25", "ruling": "200911", "deductibility": "1", "assets": 4096655, "income": 9451996, "revenue": 9451996}], "BIRCHES": [{"ein": "454778589", "name": "BIRCHES FOUNDATION", "city": "HUDSON", "state": "NY", "zip": "12534-2847", "ntee": "T20", "ruling": "201204", "deductibility": "1", "assets": 3934361, "income": 2862065, "revenue": 0}], "MAAWOC": [{"ein": "454880710", "name": "MUSEUM OF AFRICAN ART & WORLD CULTURES-MAAWOC-", "city": "BROOKLYN", "state": "NY", "zip": "11216-1803", "ntee": "A50", "ruling": "201909", "deductibility": "1", "assets": 0, "income": 0, "revenue": 0}], "PIANTINO": [{"ein": "455059623", "name": "PIANTINO FAMILY FOUNDATION INC", "city": "NEW YORK", "state": "NY", "zip": "10014-2239", "ntee": "T20", "ruling": "201208", "deductibility": "1", "assets": 811171, "income": 12416, "revenue": 0}], "CFC": [{"ein": "460529617", "name": "TEMPLE MINISTRIES CFC INC", "city": "SELDEN", "state": "NY", "zip": "11784-3901", "ntee": "X20", "ruling": "201407", "deductibility": "1", "assets": 308779, "income": 86753, "revenue": 86753}], "TAWWABEEN": [{"ein": "460863458", "name": "TAWWABEEN FOUNDATION INCORPORATED", "city": "NEW HYDE PARK", "state": "NY", "zip": "11040-4235", "ntee": "X40", "ruling": "201302", "deductibility": "1", "assets": 0, "income": 0, "revenue": 0}], "RADIKAL4KIDZ": [{"ein": "463440167", "name": "RADIKAL4KIDZ INC", "city": "LAURELTON", "state": "NY", "zip": "11413-2912", "ntee": "O20", "ruling": "201603", "deductibility": "1", "assets": 0, "income": 0, "revenue": 0}], "SHAINDY": [{"ein": "464427899", "name": "ARON AND SHAINDY GROSSMAN FOUNDATION", "city": "MONSEY", "state": "NY", "zip": "10952-2629", "ntee": "T20", "ruling": "201502", "deductibility": "1", "assets": 619646, "income": 1700017, "revenue": 0}, {"ein": "844786186", "name": "SIMCHA AND SHAINDY REGAL FOUNDATION", "city": "STATEN ISLAND", "state": "NY", "zip": "10314-6484", "ntee": "Z99", "ruling": "202012", "deductibility": "1", "assets": 1, "income": 1, "revenue": 0}], "SUNSALUTER": [{"ein": "464629815", "name": "SUNSALUTER", "city": "NEW YORK", "state": "NY", "zip": "10016-3137", "ntee": "Q32", "ruling": "201409", "deductibility": "1", "assets": 0, "income": 0, "revenue": 0}], "ORZOLEK": [{"ein": "466191764", "name": "WILLIAM E ORZOLEK AND MUNJA ORZOLEK FOUNDATION", "city": "NEW YORK", "state": "NY", "zip": "10023-8260", "ntee": "T90", "ruling": "201312", "deductibility": "1", "assets": 934266, "income": 373564, "revenue": 0}], "FPT": [{"ein": "471017382", "name": "FPT BEACON OF HOPE INC", "city": "BROOKLYN", "state": "NY", "zip": "11238-1412", "ntee": "P20", "ruling": "201505", "deductibility": "1", "assets": 0, "income": 0, "revenue": 0}], "MANDOLIN": [{"ein": "471208053", "name": "LONG ISLAND MANDOLIN AND GUITAR ORCHESTRA", "city": "DOUGLASTON", "state": "NY", "zip": "11362-1136", "ntee": "A6C", "ruling": "201503", "deductibility": "1", "assets": 0, "income": 0, "revenue": 0}, {"ein": "832813745", "name": "NEW YORK MANDOLIN ORCHESTRA INC", "city": "WARWICK", "state": "NY", "zip": "10990-0156", "ntee": "A69", "ruling": "201906", "deductibility": "1", "assets": 0, "income": 0, "revenue": 0}, {"ein": "852437512", "name": "MANDOLIN HERITAGE ASSOCIATION", "city": "SOUND BEACH", "state": "NY", "zip": "11789-1212", "ntee": "A68", "ruling": "202101", "deductibility": "1", "assets": 0, "income": 0, "revenue": 0}], "FROELICH": [{"ein": "471750161", "name": "FROELICH FAMILY FOUNDATION", "city": "SKANEATELES", "state": "NY", "zip": "13152-9617", "ntee": "T22", "ruling": "201411", "deductibility": "1", "assets": 2943171, "income": 1254581, "revenue": 0}], "SRINIKETAN": [{"ein": "471779450", "name": "SRINIKETAN FOUNDATION", "city": "FLUSHING", "state": "NY", "zip": "11355-2239", "ntee": "X70", "ruling": "201508", "deductibility": "1", "assets": 1717, "income": 56298, "revenue": 56298}], "MCCORD": [{"ein": "471821434", "name": "THE BOB & BARBARA MCCORD PRIVATE FOUNDATION INC", "city": "ALLEGANY", "state": "NY", "zip": "14706-9711", "ntee": "X20", "ruling": "201607", "deductibility": "2", "assets": 1469640, "income": 108983, "revenue": 0}], "ROZZIES": [{"ein": "471945760", "name": "ROZZIES EDUCATIONAL DAY CARE INC", "city": "ROOSEVELT", "state": "NY", "zip": "11575-1304", "ntee": "P33", "ruling": "201510", "deductibility": "1", "assets": 0, "income": 0, "revenue": 0}], "DOLLS": [{"ein": "473144250", "name": "WARRIN WRECKING DOLLS", "city": "JAMESTOWN", "state": "NY", "zip": "14701-3961", "ntee": "N60", "ruling": "201603", "deductibility": "1", "assets": 0, "income": 0, "revenue": 0}], "CHARUKANTHA": [{"ein": "473737101", "name": "CHARUKANTHA INC", "city": "BROOKLYN", "state": "NY", "zip": "11218-3012", "ntee": "A20", "ruling": "201607", "deductibility": "1", "assets": 0, "income": 0, "revenue": 0}], "CONSERVING": [{"ein": "474194447", "name": "CONSERVING TRADITION INC", "city": "LLOYD HARBOR", "state": "NY", "zip": "11743-9751", "ntee": "B60", "ruling": "201507", "deductibility": "1", "assets": 0, "income": 0, "revenue": 0}], "ANUANZEH": [{"ein": "474579946", "name": "ANUANZEH ASSOCIATION OF UNITED WOMEN OF THE CAPITAL DISTRICT INC", "city": "COLONIE", "state": "NY", "zip": "12205-2504", "ntee": "S81", "ruling": "202302", "deductibility": "1", "assets": 0, "income": 0, "revenue": 0}], "FORZA": [{"ein": "475531977", "name": "FORZA SOCCER CLUB OF NEW YORK INC", "city": "MINOA", "state": "NY", "zip": "13116-1938", "ntee": "N64", "ruling": "201904", "deductibility": "1", "assets": 4659, "income": 42732, "revenue": 42732}, {"ein": "994930544", "name": "FORZA GENTILE CORP", "city": "BRONXVILLE", "state": "NY", "zip": "10708-3818", "ntee": "A23", "ruling": "202411", "deductibility": "1", "assets": 0, "income": 0, "revenue": 0}], "ABAVAS": [{"ein": "510188249", "name": "CONGREGATION ABAVAS CHESED", "city": "BROOKLYN", "state": "NY", "zip": "11235-6825", "ntee": "", "ruling": "197605", "deductibility": "1", "assets": 0, "income": 0, "revenue": 0}], "VANMEW": [{"ein": "800819115", "name": "VANMEW HOUSING DEVELOPMENT FUND CORP", "city": "BROOKLYN", "state": "NY", "zip": "11213-2696", "ntee": "L21", "ruling": "201308", "deductibility": "1", "assets": 1466900, "income": 320460, "revenue": 320460}], "SOUTHER": [{"ein": "800821308", "name": "SOUTHER TIER HIGH TECHNOLOGY INCUBATOR INC", "city": "BINGHAMTON", "state": "NY", "zip": "13902-6005", "ntee": "B11", "ruling": "201210", "deductibility": "1", "assets": 11481525, "income": 964825, "revenue": 964825}], "ISHAM": [{"ein": "811703530", "name": "ISHAM PARK RESTORATION PROGRAM 1970 INC", "city": "NEW YORK", "state": "NY", "zip": "10034-1520", "ntee": "C42", "ruling": "202303", "deductibility": "1", "assets": 18706, "income": 55938, "revenue": 55938}], "TRAVELWITHCHAZ": [{"ein": "812007061", "name": "TRAVELWITHCHAZ INC", "city": "YONKERS", "state": "NY", "zip": "10704-3013", "ntee": "O50", "ruling": "201604", "deductibility": "1", "assets": 0, "income": 0, "revenue": 0}], "ASR": [{"ein": "812669158", "name": "ASR CONTINENTAL", "city": "CEDARHURST", "state": "NY", "zip": "11516-2037", "ntee": "N64", "ruling": "201904", "deductibility": "1", "assets": 1, "income": 0, "revenue": 0}, {"ein": "922404388", "name": "VALLONE ASR HOUSING DEVELOPMENT FUND CORPORATION", "city": "LONG IS CITY", "state": "NY", "zip": "11102-3331", "ntee": "L20", "ruling": "202501", "deductibility": "2", "assets": 11686911, "income": 910816, "revenue": 910816}], "PROTON": [{"ein": "812766298", "name": "NORTHWELL PROTON THERAPY PC", "city": "WESTBURY", "state": "NY", "zip": "11590-1740", "ntee": "E30", "ruling": "201810", "deductibility": "1", "assets": 1, "income": 0, "revenue": 0}], "CABERNET": [{"ein": "813590103", "name": "HUDSON VALLEY CABERNET FRANC COALITION INC", "city": "MARLBORO", "state": "NY", "zip": "12542-0013", "ntee": "S46", "ruling": "201902", "deductibility": "2", "assets": 0, "income": 0, "revenue": 0}], "LADISLAUS": [{"ein": "815473104", "name": "SAINT LADISLAUS POLISH SCHOOL OF LONG ISLAND INC", "city": "FARMINGDALE", "state": "NY", "zip": "11735-3109", "ntee": "A23", "ruling": "201804", "deductibility": "1", "assets": 0, "income": 0, "revenue": 0}], "HANANIA": [{"ein": "821018533", "name": "ALIAT BEIT HANANIA INC", "city": "BROOKLYN", "state": "NY", "zip": "11230-6610", "ntee": "X12", "ruling": "201712", "deductibility": "1", "assets": 0, "income": 951081, "revenue": 951081}, {"ein": "991214188", "name": "YESHIVAT KIBBUTZ HANANIA", "city": "BROOKLYN", "state": "NY", "zip": "11230-6610", "ntee": "X30", "ruling": "202402", "deductibility": "1", "assets": 0, "income": 0, "revenue": 0}], "MAXCEN": [{"ein": "821097516", "name": "MAXCEN HOUSING SOCIETY INC NEW YORK BRANCH", "city": "WYANDANCH", "state": "NY", "zip": "11798-3010", "ntee": "L40", "ruling": "201704", "deductibility": "1", "assets": 91394, "income": 91394, "revenue": 91394}], "BEIGEL": [{"ein": "824450173", "name": "SCOTT J BEIGEL MEMORIAL FUND INC", "city": "DIX HILLS", "state": "NY", "zip": "11746-6214", "ntee": "P12", "ruling": "201803", "deductibility": "1", "assets": 20723, "income": 633071, "revenue": 453343}], "NIMQALAM": [{"ein": "824555375", "name": "NIMQALAM FOUNDATION INC", "city": "NEW YORK", "state": "NY", "zip": "10022-6407", "ntee": "A99", "ruling": "201804", "deductibility": "1", "assets": 0, "income": 0, "revenue": 0}], "SAHAKYAN": [{"ein": "830664958", "name": "SAHAKYAN BAGRAMYAN FUND", "city": "BROOKLYN", "state": "NY", "zip": "11235-4903", "ntee": "O55", "ruling": "202112", "deductibility": "1", "assets": 46, "income": 67000, "revenue": 67000}], "DKRUKA": [{"ein": "830682014", "name": "CONG SIFSEI KOHEN DKRUKA", "city": "MONROE", "state": "NY", "zip": "10949-8166", "ntee": "X30", "ruling": "202011", "deductibility": "1", "assets": 0, "income": 0, "revenue": 0}], "ETIENNE": [{"ein": "830828489", "name": "ST ETIENNE FOUNDATION", "city": "NEW YORK", "state": "NY", "zip": "10019-3930", "ntee": "T22", "ruling": "201903", "deductibility": "1", "assets": 9790224, "income": 4433483, "revenue": 0}], "ATW": [{"ein": "832679023", "name": "ATW CHARITABLE FOUNDATION", "city": "NEW YORK", "state": "NY", "zip": "10119-4801", "ntee": "T20", "ruling": "201908", "deductibility": "1", "assets": 1, "income": 1, "revenue": 0}], "RAMDAS": [{"ein": "834648029", "name": "SHRI GURU RAMDAS GURMAT SOCIETY INC", "city": "BELLEROSE", "state": "NY", "zip": "11426-1151", "ntee": "A11", "ruling": "201906", "deductibility": "1", "assets": 0, "income": 0, "revenue": 0}], "ISOBEL": [{"ein": "841713816", "name": "RONALD AND ISOBEL KONECKY FAMILY FOUNDATION", "city": "NEW YORK", "state": "NY", "zip": "10016-0000", "ntee": "T20", "ruling": "200609", "deductibility": "1", "assets": 1, "income": 1, "revenue": 0}], "384Q": [{"ein": "842768994", "name": "P S 384Q PTA INC", "city": "LONG IS CITY", "state": "NY", "zip": "11101-6318", "ntee": "B94", "ruling": "202002", "deductibility": "1", "assets": 31621, "income": 62543, "revenue": 40473}], "ASCENDERS": [{"ein": "851441628", "name": "ASCENDERS EDUCATION ADVOCATES", "city": "NEW YORK", "state": "NY", "zip": "10027-3811", "ntee": "B90", "ruling": "202101", "deductibility": "1", "assets": 14290, "income": 99087, "revenue": 99087}], "NYCXD": [{"ein": "853379562", "name": "NYCXD INC", "city": "NEW YORK", "state": "NY", "zip": "10017-6751", "ntee": "", "ruling": "202104", "deductibility": "1", "assets": 53970, "income": 566219, "revenue": 392926}], "FITS": [{"ein": "854336949", "name": "IF THE CROWN FITS", "city": "BROOKLYN", "state": "NY", "zip": "11208-0000", "ntee": "O50", "ruling": "202507", "deductibility": "1", "assets": 0, "income": 0, "revenue": 0}], "HANDSONSTEM": [{"ein": "861945538", "name": "HANDSONSTEM INC", "city": "NISKAYUNA", "state": "NY", "zip": "12309-1254", "ntee": "O50", "ruling": "202109", "deductibility": "1", "assets": 0, "income": 0, "revenue": 0}], "MARVINS": [{"ein": "873862723", "name": "MARVINS HOUSE INC", "city": "EAST ELMHURST", "state": "NY", "zip": "11369-8037", "ntee": "P20", "ruling": "202302", "deductibility": "1", "assets": 0, "income": 0, "revenue": 0}], "LALI": [{"ein": "881688076", "name": "DREAM HAVEN HOUSE OF LALI INC", "city": "BROOKLYN", "state": "NY", "zip": "11208-1509", "ntee": "P20", "ruling": "202204", "deductibility": "1", "assets": 0, "income": 0, "revenue": 0}], "LHF": [{"ein": "881984576", "name": "LHF VETERANS INITIATIVE INC", "city": "COBLESKILL", "state": "NY", "zip": "12043-0000", "ntee": "W30", "ruling": "202205", "deductibility": "1", "assets": 0, "income": 0, "revenue": 0}], "TRINO": [{"ein": "882252854", "name": "TRINO ACADEMICS INC", "city": "STONY BROOK", "state": "NY", "zip": "11790-2301", "ntee": "B99", "ruling": "202206", "deductibility": "1", "assets": 0, "income": 0, "revenue": 0}], "SOLSTICE": [{"ein": "901237379", "name": "SOLSTICE CHARITABLE FOUNDATION INC", "city": "NEW YORK", "state": "NY", "zip": "10022-3111", "ntee": "T20", "ruling": "201811", "deductibility": "1", "assets": 54161, "income": 2829, "revenue": 0}], "BEAUTIES": [{"ein": "921450521", "name": "BEAUTIES WHO CODE", "city": "BRONX", "state": "NY", "zip": "10456-7806", "ntee": "B90", "ruling": "202301", "deductibility": "1", "assets": 0, "income": 0, "revenue": 0}], "SHORTAGES": [{"ein": "922829613", "name": "PHYSICIANS AGAINST DRUG SHORTAGES INC", "city": "NEW YORK", "state": "NY", "zip": "10016-2759", "ntee": "E01", "ruling": "202411", "deductibility": "1", "assets": 0, "income": 0, "revenue": 0}], "LEOREIR": [{"ein": "923754560", "name": "CONG LEOREIR LIBI", "city": "BROOKLYN", "state": "NY", "zip": "11205-2294", "ntee": "X30", "ruling": "202312", "deductibility": "1", "assets": 0, "income": 0, "revenue": 0}], "PISHKA": [{"ein": "932548045", "name": "CONGREGATION ADAS YEREIM PISHKA", "city": "BROOKLYN", "state": "NY", "zip": "11211-8587", "ntee": "X30", "ruling": "202403", "deductibility": "1", "assets": 0, "income": 0, "revenue": 0}], "ROONEY": [{"ein": "932619762", "name": "ROONEY TRIANGLE FUND INITIATIVE", "city": "BROOKLYN", "state": "NY", "zip": "11222-7520", "ntee": "C50", "ruling": "202409", "deductibility": "1", "assets": 0, "income": 0, "revenue": 0}], "WINSA": [{"ein": "933405335", "name": "WINSA HEALTH INC", "city": "FREEPORT", "state": "NY", "zip": "11520-3142", "ntee": "E32", "ruling": "202310", "deductibility": "1", "assets": 0, "income": 0, "revenue": 0}], "GESTA": [{"ein": "992005692", "name": "LA GESTA", "city": "BROOKLYN", "state": "NY", "zip": "11221-5120", "ntee": "A23", "ruling": "202404", "deductibility": "1", "assets": 0, "income": 0, "revenue": 0}], "AYAAN": [{"ein": "992377738", "name": "AYAAN COMMUNITY DEVELOPMENT ORGANIZATION INC", "city": "WOODSIDE", "state": "NY", "zip": "11377-4352", "ntee": "P20", "ruling": "202404", "deductibility": "1", "assets": 500, "income": 500, "revenue": 500}], "BERRS": [{"ein": "993417160", "name": "BERRS INFINITE MINDZ LEARNING PODS INC", "city": "ROCHESTER", "state": "NY", "zip": "14608-2353", "ntee": "O50", "ruling": "202502", "deductibility": "1", "assets": 0, "income": 0, "revenue": 0}], "PODS": [{"ein": "993417160", "name": "BERRS INFINITE MINDZ LEARNING PODS INC", "city": "ROCHESTER", "state": "NY", "zip": "14608-2353", "ntee": "O50", "ruling": "202502", "deductibility": "1", "assets": 0, "income": 0, "revenue": 0}], "GIMO": [{"ein": "993536649", "name": "GIMO HERITAGE INC", "city": "SAINT ALBANS", "state": "NY", "zip": "11412-2306", "ntee": "X20", "ruling": "202409", "deductibility": "1", "assets": 0, "income": 0, "revenue": 0}], "ADADIORAMMA": [{"ein": "994033924", "name": "ADADIORAMMA FOUNDATION INC", "city": "YONKERS", "state": "NY", "zip": "10701-2959", "ntee": "T50", "ruling": "202407", "deductibility": "1", "assets": 0, "income": 0, "revenue": 0}]}