{"SAMBO": [{"ein": "010550737", "name": "AMERICAN AMATEUR SAMBO FEDERATION INC", "city": "BROOKLYN", "state": "NY", "zip": "11235-8441", "ntee": "N70", "ruling": "200608", "deductibility": "1", "assets": 0, "income": 0, "revenue": 0}], "WILDLIFE": [{"ein": "020418794", "name": "NORTHEAST ASSOCIATION OF FISH AND WILDLIFE RESOURCES AGENCY", "city": "PETERSBURGH", "state": "NY", "zip": "12138-2707", "ntee": "D03", "ruling": "200510", "deductibility": "2", "assets": 351909, "income": 405813, "revenue": 405813}, {"ein": "030443315", "name": "WILDLIFE IN NEED OF RESCUE AND REHABILITATION INC", "city": "N MASSAPEQUA", "state": "NY", "zip": "11758-1512", "ntee": "D20", "ruling": "201302", "deductibility": "1", "assets": 0, "income": 0, "revenue": 0}, {"ein": "043585630", "name": "TEJAS WILDLIFE REFUGE INC", "city": "EAST CONCORD", "state": "NY", "zip": "14055-9714", "ntee": "D20", "ruling": "200203", "deductibility": "1", "assets": 0, "income": 0, "revenue": 0}, {"ein": "050622558", "name": "EAST HAMPTON GROUP FOR WILDLIFE INC", "city": "POUGHQUAG", "state": "NY", "zip": "12570-5831", "ntee": "D34", "ruling": "200507", "deductibility": "1", "assets": 0, "income": 0, "revenue": 0}, {"ein": "112660135", "name": "WILDLIFE CENTER OF LONG ISLAND INC", "city": "HUNTINGTON", "state": "NY", "zip": "11743-0484", "ntee": "D30N", "ruling": "198403", "deductibility": "1", "assets": 924124, "income": 495114, "revenue": 495114}, {"ein": "112963679", "name": "WILDLIFE REHABILITATION CENTER OF LONG ISLAND", "city": "HUNTINGTON", "state": "NY", "zip": "11743-6032", "ntee": "", "ruling": "199008", "deductibility": "1", "assets": 0, "income": 0, "revenue": 0}, {"ein": "113409551", "name": "EVELYN ALEXANDER WILDLIFE RESCUE CENTER INC", "city": "HAMPTON BAYS", "state": "NY", "zip": "11946-3510", "ntee": "D300", "ruling": "199803", "deductibility": "1", "assets": 1122367, "income": 603287, "revenue": 495795}, {"ein": "113450782", "name": "STARS IN THE FOREST WILDLIFE REHABILITATION INC", "city": "RIVERHEAD", "state": "NY", "zip": "11901-1223", "ntee": "D340", "ruling": "199901", "deductibility": "1", "assets": 862778, "income": 12343, "revenue": 0}, {"ein": "113460284", "name": "FRIENDS OF WERTHEIM NATIONAL WILDLIFE REFUGE INC", "city": "BROOKHAVEN", "state": "NY", "zip": "11719-0376", "ntee": "P20", "ruling": "200211", "deductibility": "1", "assets": 0, "income": 0, "revenue": 0}, {"ein": "113653228", "name": "WILDERNESS HAVEN WILDLIFE REHABILITATION CENTER INC", "city": "HAMBURG", "state": "NY", "zip": "14075-5541", "ntee": "D30", "ruling": "200307", "deductibility": "1", "assets": 0, "income": 0, "revenue": 0}, {"ein": "116036699", "name": "NORTH SHORE WILDLIFE SANCTUARY INC", "city": "BAYVILLE", "state": "NY", "zip": "11709-2430", "ntee": "D340", "ruling": "196306", "deductibility": "1", "assets": 4920376, "income": 402577, "revenue": 280649}, {"ein": "131740011", "name": "WILDLIFE CONSERVATION SOCIETY", "city": "BRONX", "state": "NY", "zip": "10460-1068", "ntee": "D500", "ruling": "193902", "deductibility": "1", "assets": 1254629446, "income": 484171829, "revenue": 389150742}, {"ein": "133076705", "name": "WILDLIFE WATCH INC", "city": "NEW PALTZ", "state": "NY", "zip": "12561-0562", "ntee": "D013", "ruling": "198209", "deductibility": "1", "assets": 132349, "income": 25342, "revenue": 25342}, {"ein": "133575549", "name": "FRIENDS OF READ WILDLIFE SANCTUARY INC", "city": "RYE", "state": "NY", "zip": "10580-0548", "ntee": "D30Z", "ruling": "199501", "deductibility": "1", "assets": 354732, "income": 92185, "revenue": 92185}, {"ein": "133582323", "name": "THE TANZANIA WILDLIFE FUND INC", "city": "NEW YORK", "state": "NY", "zip": "10012-5775", "ntee": "Z99Z", "ruling": "199101", "deductibility": "1", "assets": 49808, "income": 135252, "revenue": 135252}, {"ein": "134086486", "name": "FIRE ISLAND WILDLIFE FOUNDATION INC", "city": "BAY SHORE", "state": "NY", "zip": "11706-0228", "ntee": "D20", "ruling": "200005", "deductibility": "1", "assets": 0, "income": 0, "revenue": 0}, {"ein": "141790159", "name": "DIONONDEHOWA WILDLIFE SANCTUARY AND SCHOOL INC", "city": "SHUSHAN", "state": "NY", "zip": "12873-3215", "ntee": "C30", "ruling": "199607", "deductibility": "1", "assets": 0, "income": 0, "revenue": 0}, {"ein": "141793742", "name": "TR UW DP CORBIN ART 6 BO WILDLIFE", "city": "ALBANY", "state": "NY", "zip": "12205-5941", "ntee": "", "ruling": "199612", "deductibility": "1", "assets": 555276, "income": 77834, "revenue": 0}, {"ein": "141809174", "name": "WILDLIFE SPORTS AND EDUCATIONAL MUSEUM", "city": "JOHNSTOWN", "state": "NY", "zip": "12095-1217", "ntee": "A50", "ruling": "199904", "deductibility": "1", "assets": 1555128, "income": 16446, "revenue": 15706}, {"ein": "141825475", "name": "WILTON WILDLIFE PRESERVE & PARK INC", "city": "GANSEVOORT", "state": "NY", "zip": "12831-2403", "ntee": "D340", "ruling": "200101", "deductibility": "1", "assets": 380272, "income": 357568, "revenue": 351918}, {"ein": "141827520", "name": "HOLLY EDELSON WILDLIFE REHABILITATION CENTER INC", "city": "WOODSTOCK", "state": "NY", "zip": "12498-1432", "ntee": "D20", "ruling": "200202", "deductibility": "1", "assets": 0, "income": 0, "revenue": 0}, {"ein": "141835339", "name": "WILDLIFE INSTITUTE OF EASTERN NEW YORK", "city": "SARATOGA SPGS", "state": "NY", "zip": "12866-4327", "ntee": "D20", "ruling": "200110", "deductibility": "1", "assets": 44924, "income": 51595, "revenue": 17598}, {"ein": "161268017", "name": "BEAVERS WETLANDS & WILDLIFE INC", "city": "DOLGEVILLE", "state": "NY", "zip": "13329-2120", "ntee": "D30", "ruling": "202306", "deductibility": "1", "assets": 0, "income": 0, "revenue": 0}, {"ein": "161339231", "name": "NEW YORK STATE WILDLIFE REHABILITATION COUNCIL INC", "city": "OWEGO", "state": "NY", "zip": "13827-0246", "ntee": "D013", "ruling": "199009", "deductibility": "1", "assets": 149920, "income": 72288, "revenue": 72288}, {"ein": "161341213", "name": "WOODHAVEN WILDLIFE REHABILIATION CENTER INC", "city": "CHADWICKS", "state": "NY", "zip": "13319-0000", "ntee": "", "ruling": "199001", "deductibility": "1", "assets": 0, "income": 0, "revenue": 0}, {"ein": "161395421", "name": "HAWK CREEK WILDLIFE CENTER", "city": "EAST AURORA", "state": "NY", "zip": "14052-0662", "ntee": "D340", "ruling": "199609", "deductibility": "1", "assets": 1186883, "income": 485463, "revenue": 467265}, {"ein": "161514478", "name": "MESSINGER WOODS WILDLIFE CARE AND EDUCATION CENTER INC", "city": "ORCHARD PARK", "state": "NY", "zip": "14127-0508", "ntee": "D340", "ruling": "199703", "deductibility": "1", "assets": 562781, "income": 74514, "revenue": 74514}, {"ein": "161580124", "name": "KINDRED KINGDOMS WILDLIFE REHABILITATION INC", "city": "PENNELLVILLE", "state": "NY", "zip": "13132-3322", "ntee": "C340", "ruling": "200005", "deductibility": "1", "assets": 121102, "income": 40990, "revenue": 40990}, {"ein": "161580471", "name": "SECOND CHANCE WILDLIFE REHABILITATION NETWORK", "city": "MARTVILLE", "state": "NY", "zip": "13111-4143", "ntee": "D30", "ruling": "200004", "deductibility": "1", "assets": 0, "income": 0, "revenue": 0}, {"ein": "161584239", "name": "FRIENDS OF IROQUOIS NATIONAL WILDLIFE REFUGE INC", "city": "BASOM", "state": "NY", "zip": "14013-9730", "ntee": "D30", "ruling": "200105", "deductibility": "1", "assets": 0, "income": 0, "revenue": 0}, {"ein": "166034437", "name": "AMERICAN WILDLIFE CONSERVATION FOUNDATION INC", "city": "UNION SPRINGS", "state": "NY", "zip": "13160-0231", "ntee": "", "ruling": "196303", "deductibility": "1", "assets": 283860, "income": 200860, "revenue": 0}, {"ein": "201501867", "name": "SECOND CHANCE WILDLIFE RESCUE INC", "city": "FARMINGVILLE", "state": "NY", "zip": "11738-4205", "ntee": "", "ruling": "200511", "deductibility": "1", "assets": 0, "income": 0, "revenue": 0}, {"ein": "202842258", "name": "BLACK CREEK WILDLIFE STATION INC", "city": "CHURCHVILLE", "state": "NY", "zip": "14428-9398", "ntee": "D34", "ruling": "200509", "deductibility": "1", "assets": 0, "income": 0, "revenue": 0}, {"ein": "205920916", "name": "AUSTRALIAN WILDLIFE CONSERVANCY USA INC", "city": "NEW YORK", "state": "NY", "zip": "10163-0308", "ntee": "X80", "ruling": "200707", "deductibility": "1", "assets": 501070, "income": 191398, "revenue": 191398}, {"ein": "222136595", "name": "NATIONAL CAMPERS AND HIKERS WILDLIFE REFUGE INC", "city": "CHEEKTOWAGA", "state": "NY", "zip": "14225-3721", "ntee": "", "ruling": "197701", "deductibility": "1", "assets": 0, "income": 0, "revenue": 0}, {"ein": "222597047", "name": "SENECA WILDLIFE HAVEN INC", "city": "LODI", "state": "NY", "zip": "14860-9711", "ntee": "", "ruling": "198608", "deductibility": "1", "assets": 0, "income": 0, "revenue": 0}, {"ein": "223152612", "name": "CENTER FOR WILDLIFE AWARENESS AND REHABILITATION INC", "city": "CORNWALLVILLE", "state": "NY", "zip": "12418-1311", "ntee": "C30Z", "ruling": "199605", "deductibility": "1", "assets": 0, "income": 0, "revenue": 0}, {"ein": "223213107", "name": "FOX WOOD WILDLIFE RESCUE INC", "city": "EAST CONCORD", "state": "NY", "zip": "14055-9716", "ntee": "D34Z", "ruling": "199704", "deductibility": "1", "assets": 0, "income": 0, "revenue": 0}, {"ein": "231996716", "name": "WILDLIFE PRESERVATION TRUST INTERNATIONAL", "city": "NEW YORK", "state": "NY", "zip": "10018-6507", "ntee": "D30", "ruling": "201805", "deductibility": "1", "assets": 0, "income": 0, "revenue": 0}, {"ein": "263646119", "name": "LONG ISLAND WILDLIFE AND ANIMAL RESCUE INC", "city": "MASSAPEQUA", "state": "NY", "zip": "11758-6206", "ntee": "D20", "ruling": "200904", "deductibility": "1", "assets": 0, "income": 0, "revenue": 0}, {"ein": "271354838", "name": "SAFE HAVEN ANIMAL SHELTER & WILDLIFE CENTER", "city": "WAPPINGERS FL", "state": "NY", "zip": "12590-3612", "ntee": "D30", "ruling": "201008", "deductibility": "1", "assets": 825308, "income": 90454, "revenue": 89833}, {"ein": "300150474", "name": "RAVENSBEARD WILDLIFE CENTER INC", "city": "SAUGERTIES", "state": "NY", "zip": "12477-3663", "ntee": "D30", "ruling": "201803", "deductibility": "1", "assets": 104906, "income": 96209, "revenue": 68560}, {"ein": "300638396", "name": "ADIRONDACK WILDLIFE INC", "city": "KEENE VALLEY", "state": "NY", "zip": "12943-0824", "ntee": "C20", "ruling": "201106", "deductibility": "1", "assets": 0, "income": 0, "revenue": 0}, {"ein": "452641597", "name": "FRIENDS OF THE FEATHERED & FURRY WILDLIFE CENTER INC", "city": "HUNTER", "state": "NY", "zip": "12442-5525", "ntee": "", "ruling": "201110", "deductibility": "1", "assets": 47746, "income": 63087, "revenue": 63087}, {"ein": "455556571", "name": "WILDLIFE KIDS CLUB INTERNATIONAL INC", "city": "ROSENDALE", "state": "NY", "zip": "12472-9717", "ntee": "B11", "ruling": "201512", "deductibility": "1", "assets": 0, "income": 0, "revenue": 0}, {"ein": "465555745", "name": "URBAN UTOPIA WILDLIFE REHABILITATION INC", "city": "NEW YORK", "state": "NY", "zip": "10276-0308", "ntee": "D30", "ruling": "201407", "deductibility": "1", "assets": 0, "income": 0, "revenue": 0}, {"ein": "465752263", "name": "URBAN WILDLIFE ALLIANCE", "city": "NEW YORK", "state": "NY", "zip": "10023-8468", "ntee": "D01", "ruling": "201812", "deductibility": "1", "assets": 0, "income": 0, "revenue": 0}, {"ein": "471502713", "name": "FRIENDS OF WILDLIFE", "city": "SYRACUSE", "state": "NY", "zip": "13207-2859", "ntee": "D30", "ruling": "201501", "deductibility": "1", "assets": 90, "income": 14489, "revenue": 14489}, {"ein": "473288184", "name": "ORPHANED WILDLIFE CENTER INC", "city": "OTISVILLE", "state": "NY", "zip": "10963-0155", "ntee": "D20", "ruling": "201503", "deductibility": "1", "assets": 451383, "income": 151579, "revenue": 151579}, {"ein": "473691662", "name": "FINGER LAKES WILDLIFE CENTER", "city": "PALMYRA", "state": "NY", "zip": "14522-9409", "ntee": "D50", "ruling": "202202", "deductibility": "1", "assets": 0, "income": 0, "revenue": 0}, {"ein": "473747093", "name": "WILDLIFE FREEDOM FOUNDATION INC", "city": "NEW YORK", "state": "NY", "zip": "10044-0148", "ntee": "D30", "ruling": "201507", "deductibility": "1", "assets": 19020, "income": 64175, "revenue": 64175}, {"ein": "474298507", "name": "RIFT VALLEY WILDLIFE CLINICS", "city": "GREAT NECK", "state": "NY", "zip": "11021-4220", "ntee": "D12", "ruling": "201506", "deductibility": "1", "assets": 0, "income": 0, "revenue": 0}, {"ein": "521934148", "name": "WILDLIFE ALLIANCE INC", "city": "NEW YORK", "state": "NY", "zip": "10018-1879", "ntee": "D340", "ruling": "199602", "deductibility": "1", "assets": 38916024, "income": 16698737, "revenue": 15295266}, {"ein": "813687543", "name": "OUTPOST 4 WILDLIFE REHABILITATION SERVICES INC", "city": "DELANSON", "state": "NY", "zip": "12053-2165", "ntee": "D60", "ruling": "201612", "deductibility": "1", "assets": 0, "income": 0, "revenue": 0}, {"ein": "814001931", "name": "NORTHERN CATSKILLS HUNTING & WILDLIFE EXPO", "city": "LEXINGTON", "state": "NY", "zip": "12452-0385", "ntee": "N61", "ruling": "201709", "deductibility": "1", "assets": 0, "income": 0, "revenue": 0}, {"ein": "814986128", "name": "WILDLIFE WISHING WELL INC", "city": "ITHACA", "state": "NY", "zip": "14850-9252", "ntee": "D30", "ruling": "201702", "deductibility": "1", "assets": 0, "income": 0, "revenue": 0}, {"ein": "815241671", "name": "FRIENDS OF SHAWANGUNK GRASSLANDS NATIONAL WILDLIFE REFUGE INC", "city": "WALLKILL", "state": "NY", "zip": "12589-0541", "ntee": "D34", "ruling": "202106", "deductibility": "1", "assets": 0, "income": 0, "revenue": 0}, {"ein": "821911355", "name": "SOLDIERS FOR WILDLIFE INC", "city": "SPARKILL", "state": "NY", "zip": "10976-1245", "ntee": "Q30", "ruling": "201804", "deductibility": "1", "assets": 14140, "income": 139898, "revenue": 125546}, {"ein": "822112680", "name": "FRIENDS OF WILDLIFE JUSTICE COMMISSION INC", "city": "NEW YORK", "state": "NY", "zip": "10006-1404", "ntee": "D31", "ruling": "201711", "deductibility": "1", "assets": 202047, "income": 175767, "revenue": 175767}, {"ein": "823073761", "name": "GODS GLORY WILDLIFE FOUNDATION", "city": "MCGRAW", "state": "NY", "zip": "13101-0456", "ntee": "D20", "ruling": "201805", "deductibility": "1", "assets": 0, "income": 0, "revenue": 0}, {"ein": "823131595", "name": "WILDLIFE MANAGEMENT UNLIMITED", "city": "EAST AURORA", "state": "NY", "zip": "14052-9668", "ntee": "D30", "ruling": "201809", "deductibility": "1", "assets": 0, "income": 0, "revenue": 0}, {"ein": "830489386", "name": "PEACE IN NATURE WILDLIFE SANCTUARY", "city": "FORESTVILLE", "state": "NY", "zip": "14062-9610", "ntee": "D01", "ruling": "202303", "deductibility": "1", "assets": 0, "income": 0, "revenue": 0}, {"ein": "830547206", "name": "HI5AFAFA WILDLIFE REHABILITATION SERVICES", "city": "NISKAYUNA", "state": "NY", "zip": "12309-0438", "ntee": "D34", "ruling": "202004", "deductibility": "1", "assets": 0, "income": 0, "revenue": 0}, {"ein": "830794224", "name": "MUTUAL AID WILDLIFE REHABILITATION CENTER INC", "city": "PRATTSBURGH", "state": "NY", "zip": "14873-9769", "ntee": "D20", "ruling": "201905", "deductibility": "1", "assets": 60600, "income": 115767, "revenue": 115767}, {"ein": "830894898", "name": "CITIZEN COALITION FOR WILDLIFE AND ENVIRONMENT INC", "city": "GRAND ISLAND", "state": "NY", "zip": "14072-1546", "ntee": "C30", "ruling": "201807", "deductibility": "1", "assets": 97962, "income": 142725, "revenue": 142725}, {"ein": "832407806", "name": "ISLAND WILDLIFE INC", "city": "BRONX", "state": "NY", "zip": "10464-1549", "ntee": "D30", "ruling": "201812", "deductibility": "1", "assets": 0, "income": 0, "revenue": 0}, {"ein": "832797618", "name": "CHARLES N GORDON WILDLIFE REHABILITATION CENTER INC", "city": "EARLVILLE", "state": "NY", "zip": "13332-2833", "ntee": "D34", "ruling": "201904", "deductibility": "1", "assets": 416751, "income": 157152, "revenue": 157152}, {"ein": "833600099", "name": "WOLCOTTSVILLE WILDLIFE RESCUE INC", "city": "AKRON", "state": "NY", "zip": "14001-9022", "ntee": "D20", "ruling": "201910", "deductibility": "1", "assets": 0, "income": 0, "revenue": 0}, {"ein": "833729270", "name": "WE ARE THEIR VOICE WILDLIFE CARE AND RESCUE LLC", "city": "NEWARK VALLEY", "state": "NY", "zip": "13811-3209", "ntee": "D99", "ruling": "202012", "deductibility": "1", "assets": 0, "income": 0, "revenue": 0}, {"ein": "834140430", "name": "WNY RAPTOR AND WILDLIFE CARE INC", "city": "ORCHARD PARK", "state": "NY", "zip": "14127-8151", "ntee": "D30", "ruling": "201905", "deductibility": "1", "assets": 0, "income": 0, "revenue": 0}, {"ein": "842573330", "name": "WILDLIFE ON THE HILL INC", "city": "ALMOND", "state": "NY", "zip": "14804-9725", "ntee": "D30", "ruling": "202304", "deductibility": "1", "assets": 0, "income": 0, "revenue": 0}, {"ein": "843009988", "name": "BEAUTYS BELOVED BEASTS WILDLIFE SANCTUARY CORP", "city": "ISLIP", "state": "NY", "zip": "11751-4913", "ntee": "D30", "ruling": "201909", "deductibility": "1", "assets": 1, "income": 15112, "revenue": 15112}, {"ein": "843150831", "name": "SUMMIT TURTLE AND WILDLIFE REHABILITATION INC", "city": "OGDENSBURG", "state": "NY", "zip": "13669-4203", "ntee": "D30", "ruling": "202303", "deductibility": "1", "assets": 0, "income": 0, "revenue": 0}, {"ein": "851002141", "name": "MISSION MAYHEM WILDLIFE REHABILITATION", "city": "HUBBARDSVILLE", "state": "NY", "zip": "13355-1121", "ntee": "D30", "ruling": "202011", "deductibility": "1", "assets": 0, "income": 0, "revenue": 0}, {"ein": "852882203", "name": "TURTLE CROSSING WILDLIFE REHABILITATION FARM", "city": "ITHACA", "state": "NY", "zip": "14850-9611", "ntee": "", "ruling": "202105", "deductibility": "1", "assets": 0, "income": 0, "revenue": 0}, {"ein": "853867645", "name": "ARCTIC FOX DAILY WILDLIFE RESCUE INC", "city": "WILLIAMSON", "state": "NY", "zip": "14589-9348", "ntee": "D30", "ruling": "202102", "deductibility": "1", "assets": 236751, "income": 166356, "revenue": 166356}, {"ein": "862882860", "name": "WHISPERING WOODS WILDLIFE RESCUE AND REHABILITATION INC", "city": "OSWEGO", "state": "NY", "zip": "13126-0000", "ntee": "D30", "ruling": "202107", "deductibility": "1", "assets": 0, "income": 0, "revenue": 0}, {"ein": "870572187", "name": "LEWA WILDLIFE CONSERVANCY USA", "city": "NEW YORK", "state": "NY", "zip": "10021-5055", "ntee": "D30", "ruling": "199801", "deductibility": "1", "assets": 7845705, "income": 6482496, "revenue": 3730044}, {"ein": "871701363", "name": "HENRY L HEYMANN WILDLIFE PRESERVATION FOUNDATION", "city": "BRONX", "state": "NY", "zip": "10460-1068", "ntee": "D30", "ruling": "202210", "deductibility": "1", "assets": 48130685, "income": 9681224, "revenue": 2993617}, {"ein": "873112726", "name": "WILDLIFE WITH WILLOW INC", "city": "BINGHAMTON", "state": "NY", "zip": "13904-1326", "ntee": "D12", "ruling": "202201", "deductibility": "1", "assets": 0, "income": 0, "revenue": 0}, {"ein": "874382381", "name": "VOICES FOR URBAN WILDLIFE INC", "city": "NEW YORK", "state": "NY", "zip": "10280-1417", "ntee": "D30", "ruling": "202302", "deductibility": "1", "assets": 0, "income": 0, "revenue": 0}, {"ein": "881226211", "name": "NICKY FUND FOR WILDLIFE", "city": "NEW YORK", "state": "NY", "zip": "10128-1759", "ntee": "P20", "ruling": "202206", "deductibility": "1", "assets": 962291, "income": 107897, "revenue": 0}, {"ein": "881396406", "name": "ABC WILDLIFE REHAB INC", "city": "HEMLOCK", "state": "NY", "zip": "14466-9670", "ntee": "D20", "ruling": "202205", "deductibility": "1", "assets": 0, "income": 0, "revenue": 0}, {"ein": "900958388", "name": "CENTER FOR WILDLIFE RESCUE RESEARCH AND CONSERVATION INC", "city": "BRONXVILLE", "state": "NY", "zip": "10708-3602", "ntee": "D30", "ruling": "201604", "deductibility": "1", "assets": 0, "income": 0, "revenue": 0}, {"ein": "900999299", "name": "ANGELEYES ANIMAL RESCUE & WILDLIFE REHABILITATION", "city": "WILLSEYVILLE", "state": "NY", "zip": "13864-1304", "ntee": "D34", "ruling": "201606", "deductibility": "1", "assets": 0, "income": 0, "revenue": 0}, {"ein": "920311328", "name": "FUZZY FAWN WILDLIFE INC", "city": "LOCKPORT", "state": "NY", "zip": "14094-9041", "ntee": "D34", "ruling": "202210", "deductibility": "1", "assets": 1, "income": 140975, "revenue": 140975}, {"ein": "920733296", "name": "BALONEK WILDLIFE CENTER INC", "city": "ROCHESTER", "state": "NY", "zip": "14622-2402", "ntee": "D99", "ruling": "202211", "deductibility": "1", "assets": 0, "income": 0, "revenue": 0}, {"ein": "922604131", "name": "FOUNDATION FOR WILDLIFE SUSTAINABILITY INC", "city": "MANORVILLE", "state": "NY", "zip": "11949-0301", "ntee": "D30", "ruling": "202310", "deductibility": "1", "assets": 47555, "income": 58825, "revenue": 48681}, {"ein": "922623585", "name": "HOPPER HILLS WILDLIFE REHAB CENTER INC", "city": "HONEOYE FALLS", "state": "NY", "zip": "14472-9734", "ntee": "D30", "ruling": "202305", "deductibility": "1", "assets": 0, "income": 0, "revenue": 0}, {"ein": "931736719", "name": "COTTONTAIL COTTAGE WILDLIFE REHAB INC", "city": "RYE BROOK", "state": "NY", "zip": "10573-3501", "ntee": "D30", "ruling": "202309", "deductibility": "1", "assets": 0, "income": 0, "revenue": 0}, {"ein": "932075426", "name": "TEAM FAWN WILDLIFE HAVEN INC", "city": "LAURENS", "state": "NY", "zip": "13796-1131", "ntee": "D34", "ruling": "202307", "deductibility": "1", "assets": 2019, "income": 2019, "revenue": 0}, {"ein": "932783510", "name": "KOOP WILDLIFE REHABILITATION INC", "city": "NEW BERLIN", "state": "NY", "zip": "13411-3040", "ntee": "D30", "ruling": "202311", "deductibility": "1", "assets": 0, "income": 0, "revenue": 0}, {"ein": "933730752", "name": "FRIENDS OF THE FOREST WILDLIFE REHABILITATION INC", "city": "NAPLES", "state": "NY", "zip": "14512-9227", "ntee": "", "ruling": "202312", "deductibility": "1", "assets": 0, "income": 0, "revenue": 0}, {"ein": "933963024", "name": "LONG ISLAND WILDLIFE RESCUE AND REHABILITATION INC", "city": "MERRICK", "state": "NY", "zip": "11566-4603", "ntee": "D30", "ruling": "202405", "deductibility": "1", "assets": 0, "income": 0, "revenue": 0}, {"ein": "934900332", "name": "WILDLIFE DEFENSE INC", "city": "DELANSON", "state": "NY", "zip": "12053-2705", "ntee": "C30", "ruling": "202401", "deductibility": "1", "assets": 0, "income": 0, "revenue": 0}, {"ein": "991109154", "name": "CATSKILL MOUNTAIN WILDLIFE REHABILITATION INC", "city": "ROUND TOP", "state": "NY", "zip": "12473-5214", "ntee": "D30", "ruling": "202402", "deductibility": "1", "assets": 0, "income": 0, "revenue": 0}, {"ein": "991348544", "name": "SQUIRRELLY FARM WILDLIFE RESCUE INC", "city": "LAURENS", "state": "NY", "zip": "13796-0303", "ntee": "D34", "ruling": "202407", "deductibility": "1", "assets": 0, "income": 0, "revenue": 0}, {"ein": "991656902", "name": "WIDGET WILDLIFE WEE-HAB", "city": "CHITTENANGO", "state": "NY", "zip": "13037-8791", "ntee": "P20", "ruling": "202404", "deductibility": "1", "assets": 0, "income": 0, "revenue": 0}, {"ein": "992653089", "name": "STEWART MARINE FISH AND WILDLIFE FUND INC", "city": "CARMEL", "state": "NY", "zip": "10512-3901", "ntee": "N61", "ruling": "202405", "deductibility": "1", "assets": 0, "income": 0, "revenue": 0}, {"ein": "992874643", "name": "ALL CREATURES WILDLIFE REHABILITATION", "city": "WARWICK", "state": "NY", "zip": "10990-2112", "ntee": "D30", "ruling": "202410", "deductibility": "1", "assets": 0, "income": 0, "revenue": 0}, {"ein": "993270463", "name": "MUSKRAT BAY WILDLIFE INC", "city": "BREWERTON", "state": "NY", "zip": "13029-8622", "ntee": "D30", "ruling": "202411", "deductibility": "1", "assets": 0, "income": 0, "revenue": 0}, {"ein": "994622318", "name": "LAKE ROADS WILDLIFE REHAB INC", "city": "GLENFIELD", "state": "NY", "zip": "13343-2114", "ntee": "D34", "ruling": "202505", "deductibility": "1", "assets": 0, "income": 0, "revenue": 0}], "ACH": [{"ein": "020552853", "name": "ACH TOV V CHESED", "city": "BROOKLYN", "state": "NY", "zip": "11211-8739", "ntee": "X30", "ruling": "200205", "deductibility": "1", "assets": 0, "income": 0, "revenue": 0}, {"ein": "112966365", "name": "GEMILAS CHESED ACH TOV INC", "city": "BROOKLYN", "state": "NY", "zip": "11219-2202", "ntee": "", "ruling": "198909", "deductibility": "0", "assets": 0, "income": 0, "revenue": 0}, {"ein": "161335941", "name": "ACH PROPERTIES INC", "city": "AUBURN", "state": "NY", "zip": "13021-1983", "ntee": "", "ruling": "199005", "deductibility": "2", "assets": 180803, "income": 0, "revenue": 0}, {"ein": "454978702", "name": "CONG ACH TOV VUCHESED", "city": "BROOKLYN", "state": "NY", "zip": "11218-5904", "ntee": "X30", "ruling": "201401", "deductibility": "1", "assets": 0, "income": 0, "revenue": 0}, {"ein": "471713837", "name": "AMERICAN FRIENDS OF POSAY-ACH ES YO DECHO INC", "city": "MONROE", "state": "NY", "zip": "10950-5413", "ntee": "Q33", "ruling": "201804", "deductibility": "1", "assets": 455, "income": 87549, "revenue": 87549}, {"ein": "833146582", "name": "ACH CHARITABLE FOUNDATION", "city": "NEW YORK", "state": "NY", "zip": "10036-2518", "ntee": "T20", "ruling": "202007", "deductibility": "1", "assets": 1235516, "income": 1, "revenue": 0}], "FRESH": [{"ein": "020603772", "name": "FRESH SPRINGS MINISTRIES", "city": "BROOKLYN", "state": "NY", "zip": "11236-4422", "ntee": "X21", "ruling": "200403", "deductibility": "1", "assets": 0, "income": 0, "revenue": 0}, {"ein": "020697276", "name": "FLUSHING-FRESH MEADOWS JEWISH CENTER INC", "city": "FRESH MEADOWS", "state": "NY", "zip": "11365-2335", "ntee": "X30", "ruling": "200405", "deductibility": "1", "assets": 0, "income": 0, "revenue": 0}, {"ein": "110774640", "name": "FRESH MEADOW COUNTRY CLUB INC", "city": "LAKE SUCCESS", "state": "NY", "zip": "11020-1645", "ntee": "", "ruling": "197005", "deductibility": "2", "assets": 25548157, "income": 18161958, "revenue": 16392063}, {"ein": "112435450", "name": "FRESH FIRE MINISTRIES INC", "city": "ISLIP", "state": "NY", "zip": "11751-1024", "ntee": "X21", "ruling": "200210", "deductibility": "1", "assets": 0, "income": 0, "revenue": 0}, {"ein": "112469008", "name": "FRESH BREAD MINISTRY OF NEW YORK", "city": "MEDFORD", "state": "NY", "zip": "11763-1927", "ntee": "", "ruling": "197904", "deductibility": "1", "assets": 0, "income": 0, "revenue": 0}, {"ein": "112576855", "name": "COMMITTEE FOR THE PRESERVATION OF FRESH MEADOWS INC", "city": "FRESH MEADOWS", "state": "NY", "zip": "11365-0122", "ntee": "", "ruling": "198401", "deductibility": "2", "assets": 0, "income": 0, "revenue": 0}, {"ein": "112636835", "name": "FRESH MEADOWS HOME OWNERS CIVIC ASSOCIATION INC", "city": "FRESH MEADOWS", "state": "NY", "zip": "11365-3508", "ntee": "", "ruling": "198504", "deductibility": "2", "assets": 9083, "income": 4511, "revenue": 4511}, {"ein": "131656653", "name": "FRESH AIR FUND", "city": "NEW YORK", "state": "NY", "zip": "10017-6706", "ntee": "N20", "ruling": "193304", "deductibility": "1", "assets": 137616992, "income": 15469770, "revenue": 15036194}, {"ein": "133723207", "name": "FRESH YOUTH INITIATIVES INC", "city": "NEW YORK", "state": "NY", "zip": "10032-3402", "ntee": "P20Z", "ruling": "199405", "deductibility": "1", "assets": 4435557, "income": 4274090, "revenue": 3367248}, {"ein": "136400777", "name": "THE SOUTHAMPTON FRESH AIR HOME", "city": "SOUTHAMPTON", "state": "NY", "zip": "11969-0244", "ntee": "E50Z", "ruling": "195209", "deductibility": "1", "assets": 15206838, "income": 4152002, "revenue": 2374165}, {"ein": "161189716", "name": "FRESH FIRE WORSHIP CTR", "city": "OLEAN", "state": "NY", "zip": "14760-1833", "ntee": "", "ruling": "196408", "deductibility": "1", "assets": 0, "income": 0, "revenue": 0}, {"ein": "161382343", "name": "FRESH FIRE CHURCH INC", "city": "OLEAN", "state": "NY", "zip": "14760-1833", "ntee": "X20", "ruling": "201001", "deductibility": "1", "assets": 0, "income": 0, "revenue": 0}, {"ein": "201718696", "name": "START FRESH NY LTD", "city": "NEW YORK", "state": "NY", "zip": "10003-5388", "ntee": "B60", "ruling": "200412", "deductibility": "1", "assets": 0, "income": 0, "revenue": 0}, {"ein": "204783850", "name": "KINGDOM ORDER FRESH OIL MINISTRIES", "city": "JAMAICA", "state": "NY", "zip": "11436-0000", "ntee": "X20", "ruling": "200905", "deductibility": "1", "assets": 0, "income": 0, "revenue": 0}, {"ein": "205034746", "name": "FRESH MEADOWS BUKHARIAN SINAGOGE", "city": "FRESH MEADOWS", "state": "NY", "zip": "11365-3342", "ntee": "X30", "ruling": "200711", "deductibility": "1", "assets": 0, "income": 0, "revenue": 0}, {"ein": "263566042", "name": "FRESH FIRE INTERNATIONAL MINISTRIES INC", "city": "BROOKLYN", "state": "NY", "zip": "11201-5663", "ntee": "X21", "ruling": "201305", "deductibility": "1", "assets": 0, "income": 0, "revenue": 0}, {"ein": "320288969", "name": "NEW WINE FRESH FIRE TEMPLE INC", "city": "STATEN ISLAND", "state": "NY", "zip": "10304-2057", "ntee": "X21", "ruling": "201503", "deductibility": "1", "assets": 0, "income": 0, "revenue": 0}, {"ein": "331720441", "name": "WAN XIN FRESH HORIZONS INC", "city": "MIDDLETOWN", "state": "NY", "zip": "10940-7646", "ntee": "A99", "ruling": "202501", "deductibility": "1", "assets": 0, "income": 0, "revenue": 0}, {"ein": "454457832", "name": "FRESH START CHURCH", "city": "HORNELL", "state": "NY", "zip": "14843-1621", "ntee": "X20", "ruling": "201407", "deductibility": "1", "assets": 0, "income": 0, "revenue": 0}, {"ein": "460938884", "name": "FRESH START TATTOO REMOVAL PROGRAM INC", "city": "NEW YORK", "state": "NY", "zip": "10009-7069", "ntee": "P50", "ruling": "201408", "deductibility": "1", "assets": 0, "income": 0, "revenue": 0}, {"ein": "462714193", "name": "OPERATION FRESH START INC", "city": "YONKERS", "state": "NY", "zip": "10703-2634", "ntee": "P60", "ruling": "201408", "deductibility": "1", "assets": 0, "income": 0, "revenue": 0}, {"ein": "463714383", "name": "FRESH RHEMA", "city": "BRONX", "state": "NY", "zip": "10466-3115", "ntee": "X20", "ruling": "201507", "deductibility": "1", "assets": 0, "income": 0, "revenue": 0}, {"ein": "464491445", "name": "FRESH SQUEEZED OPERA COMPANY INC", "city": "NEW YORK", "state": "NY", "zip": "10040-2414", "ntee": "A60", "ruling": "201503", "deductibility": "1", "assets": 25535, "income": 68550, "revenue": 68550}, {"ein": "471406160", "name": "FRESH WIND MINISTRIES INC", "city": "BRENTWOOD", "state": "NY", "zip": "11717-6703", "ntee": "X21", "ruling": "201411", "deductibility": "1", "assets": 0, "income": 0, "revenue": 0}, {"ein": "510142893", "name": "JEAN S LANCASTER 1971 TRUST FOR THE FRESH AIR FUND ETAL", "city": "NEW YORK", "state": "NY", "zip": "10008-1297", "ntee": "T22", "ruling": "197506", "deductibility": "1", "assets": 4163963, "income": 434346, "revenue": 0}, {"ein": "812767730", "name": "FRESH WIND FRESH FIRE FAMILY MINISTRIES", "city": "STATEN ISLAND", "state": "NY", "zip": "10303-1718", "ntee": "X20", "ruling": "201708", "deductibility": "1", "assets": 0, "income": 0, "revenue": 0}, {"ein": "813686457", "name": "FRESH WATER FRIENDS INC", "city": "BALLSTON LAKE", "state": "NY", "zip": "12019-0025", "ntee": "Q30", "ruling": "201703", "deductibility": "1", "assets": 61022, "income": 148625, "revenue": 148625}, {"ein": "814606065", "name": "FRESH START RECOVERY SUPPORT CENTER INC", "city": "JAMESTOWN", "state": "NY", "zip": "14701-7405", "ntee": "P20", "ruling": "201704", "deductibility": "1", "assets": 0, "income": 0, "revenue": 0}, {"ein": "822527232", "name": "LITTLE FRESH POND ASSOCIATION", "city": "SOUTHAMPTON", "state": "NY", "zip": "11968-2245", "ntee": "C30", "ruling": "201803", "deductibility": "1", "assets": 13204, "income": 3923, "revenue": 3923}, {"ein": "823095137", "name": "FRESH START CHRISTIAN CENTER", "city": "MOUNT VERNON", "state": "NY", "zip": "10550-1703", "ntee": "X20", "ruling": "202412", "deductibility": "1", "assets": 0, "income": 0, "revenue": 0}, {"ein": "823200942", "name": "MARVIN & DOLLYS FRESH START HOUSE INC", "city": "JAMESTOWN", "state": "NY", "zip": "14701-7405", "ntee": "L40", "ruling": "201808", "deductibility": "1", "assets": 0, "income": 0, "revenue": 0}, {"ein": "823536997", "name": "FRESH POND NEIGHBORS ASSOCIATION", "city": "SHELTER IS HT", "state": "NY", "zip": "11965-0070", "ntee": "S22", "ruling": "201903", "deductibility": "1", "assets": 0, "income": 0, "revenue": 0}, {"ein": "824084317", "name": "FRESH AIR FOR THE EASTSIDE INC", "city": "ROCHESTER", "state": "NY", "zip": "14604-0000", "ntee": "C01", "ruling": "201902", "deductibility": "1", "assets": 0, "income": 0, "revenue": 0}, {"ein": "825291000", "name": "FRESH OILS MINISTRIES", "city": "NEW YORK", "state": "NY", "zip": "10026-1212", "ntee": "P20", "ruling": "201908", "deductibility": "1", "assets": 13140, "income": 15757, "revenue": 15757}, {"ein": "843791486", "name": "FRESH START ALLIANCE INC", "city": "WOODSIDE", "state": "NY", "zip": "11377-0000", "ntee": "P84", "ruling": "202310", "deductibility": "1", "assets": 0, "income": 0, "revenue": 0}, {"ein": "863702640", "name": "FRESH MANNA MINISTRIES INC", "city": "LAKE KATRINE", "state": "NY", "zip": "12449-0347", "ntee": "X20", "ruling": "202204", "deductibility": "1", "assets": 0, "income": 0, "revenue": 0}, {"ein": "873003512", "name": "FRESH CONNECTIONS NYC INC", "city": "NEW YORK", "state": "NY", "zip": "10017-3206", "ntee": "Y03", "ruling": "202308", "deductibility": "1", "assets": 0, "income": 0, "revenue": 0}, {"ein": "874271197", "name": "FRESH OIL CONFERENCE INC", "city": "FARMINGDALE", "state": "NY", "zip": "11735-3107", "ntee": "P83", "ruling": "202409", "deductibility": "1", "assets": 1, "income": 0, "revenue": 0}, {"ein": "883317113", "name": "BETH BECHOR OF FRESH MEADOWS INC", "city": "FRESH MEADOWS", "state": "NY", "zip": "11366-1316", "ntee": "S20", "ruling": "202208", "deductibility": "1", "assets": 0, "income": 0, "revenue": 0}, {"ein": "920324064", "name": "DUNDEE FRESH GROCERY INC", "city": "DUNDEE", "state": "NY", "zip": "14837-0144", "ntee": "K31", "ruling": "202301", "deductibility": "1", "assets": 0, "income": 0, "revenue": 0}, {"ein": "920803385", "name": "FRESH-MINDZ FRESH-LIVEZ INC", "city": "NEW YORK", "state": "NY", "zip": "10032-4412", "ntee": "I21", "ruling": "202301", "deductibility": "1", "assets": 0, "income": 0, "revenue": 0}, {"ein": "921985432", "name": "FRESH OIL MINISTRIES INTERNATIONAL CHURCH INC", "city": "HEMPSTEAD", "state": "NY", "zip": "11550-4125", "ntee": "X20", "ruling": "202403", "deductibility": "1", "assets": 0, "income": 0, "revenue": 0}, {"ein": "933690735", "name": "KEHILAT AVODAT HASHEM OF FRESH MEADOWS INC", "city": "FRESH MEADOWS", "state": "NY", "zip": "11366-1425", "ntee": "S20", "ruling": "202311", "deductibility": "1", "assets": 0, "income": 0, "revenue": 0}, {"ein": "934351686", "name": "SEW SO FRESH", "city": "BROOKLYN", "state": "NY", "zip": "11207-0000", "ntee": "A99", "ruling": "202407", "deductibility": "1", "assets": 0, "income": 0, "revenue": 0}, {"ein": "943369770", "name": "FRESH ANOINTING INTERNATIONAL CHURCH INC", "city": "WESTBURY", "state": "NY", "zip": "11590-1229", "ntee": "X20", "ruling": "200601", "deductibility": "1", "assets": 0, "income": 0, "revenue": 0}], "MAN": [{"ein": "030553092", "name": "MAN UP INC", "city": "BROOKLYN", "state": "NY", "zip": "11207-7804", "ntee": "O50", "ruling": "200512", "deductibility": "1", "assets": 4850213, "income": 6354127, "revenue": 6354127}, {"ein": "112865551", "name": "MAN MIN PRESBYTERIAN CHURCH OF NEW YORK", "city": "FLUSHING", "state": "NY", "zip": "11358-3244", "ntee": "", "ruling": "198712", "deductibility": "1", "assets": 0, "income": 0, "revenue": 0}, {"ein": "113527175", "name": "BROTHERHOOD OF MAN UNIVERSAL CHRISTIAN ORAYSHA CHURCH INC", "city": "BROOKLYN", "state": "NY", "zip": "11216-1474", "ntee": "X20", "ruling": "200202", "deductibility": "1", "assets": 0, "income": 0, "revenue": 0}, {"ein": "133672168", "name": "MAN CHEE DRAMATIC & BENEVOLENT ASSOCIATION INC", "city": "NEW YORK", "state": "NY", "zip": "10013-5024", "ntee": "A99", "ruling": "201909", "deductibility": "1", "assets": 0, "income": 0, "revenue": 0}, {"ein": "133753552", "name": "SUN OF MAN INC", "city": "ELMONT", "state": "NY", "zip": "11003-2909", "ntee": "P20", "ruling": "202401", "deductibility": "1", "assets": 0, "income": 0, "revenue": 0}, {"ein": "133922974", "name": "THIN MAN DANCE INC", "city": "NEW YORK", "state": "NY", "zip": "10014-2010", "ntee": "A620", "ruling": "199807", "deductibility": "1", "assets": 1057316, "income": 125218, "revenue": 125218}, {"ein": "136097298", "name": "VOLUNTEER & EXEMPT FIREMENS BENEVOLENT ASSOC OF BRIARCLIFF MAN", "city": "BRIARCLIFF", "state": "NY", "zip": "10510-0279", "ntee": "M24", "ruling": "202011", "deductibility": "2", "assets": 1913434, "income": 192067, "revenue": 192067}, {"ein": "136149942", "name": "FRAN-MAN FOUNDATION INC", "city": "NEW YORK", "state": "NY", "zip": "10075-0000", "ntee": "", "ruling": "195712", "deductibility": "1", "assets": 64193, "income": 2078, "revenue": 0}, {"ein": "161676330", "name": "ONE NEW MAN MINISTRIES INC", "city": "COPIAGUE", "state": "NY", "zip": "11726-4213", "ntee": "X20", "ruling": "201011", "deductibility": "1", "assets": 0, "income": 0, "revenue": 0}, {"ein": "222328464", "name": "CHURCH OF NATURE IN MAN", "city": "AVERILL PARK", "state": "NY", "zip": "12018-0000", "ntee": "", "ruling": "198811", "deductibility": "1", "assets": 0, "income": 0, "revenue": 0}, {"ein": "263078352", "name": "TOUGH MAN INC", "city": "RYE BROOK", "state": "NY", "zip": "10573-2810", "ntee": "T30", "ruling": "200811", "deductibility": "1", "assets": 452, "income": 11713, "revenue": 11713}, {"ein": "271865978", "name": "MITZVAH MAN FOUNDATION CORP", "city": "BROOKLYN", "state": "NY", "zip": "11210-4611", "ntee": "P20", "ruling": "201011", "deductibility": "1", "assets": 886782, "income": 422297, "revenue": 422297}, {"ein": "301046542", "name": "MAN CAVE HEALTH INC", "city": "OYSTER BAY", "state": "NY", "zip": "11771-1559", "ntee": "E60", "ruling": "201906", "deductibility": "1", "assets": 177537, "income": 86104, "revenue": 86104}, {"ein": "306001097", "name": "LOST MAN FOUNDATION", "city": "WEST NYACK", "state": "NY", "zip": "10994-1137", "ntee": "T22", "ruling": "200302", "deductibility": "1", "assets": 1495171, "income": 424705, "revenue": 0}, {"ein": "311386462", "name": "POINT MAN INTERNATIONAL MINISTRIES", "city": "WEST SENECA", "state": "NY", "zip": "14224-4442", "ntee": "", "ruling": "199007", "deductibility": "1", "assets": 0, "income": 0, "revenue": 0}, {"ein": "364755094", "name": "MAN IN THE MIRROR", "city": "WEST BABYLON", "state": "NY", "zip": "11704-1833", "ntee": "O50", "ruling": "201511", "deductibility": "1", "assets": 0, "income": 0, "revenue": 0}, {"ein": "412134651", "name": "MOUNTAIN MAN HUNTING CLUB INC", "city": "FORT PLAIN", "state": "NY", "zip": "13339-4130", "ntee": "N50", "ruling": "200511", "deductibility": "2", "assets": 69284, "income": 170175, "revenue": 39963}, {"ein": "462094997", "name": "HALF-TABLE MAN DISASTER ASSISTANCE RELIEF INC", "city": "STATEN ISLAND", "state": "NY", "zip": "10306-5407", "ntee": "M20", "ruling": "201410", "deductibility": "1", "assets": 18, "income": 25062, "revenue": 25062}, {"ein": "473978050", "name": "LAUGHING MAN FOUNDATION", "city": "QUOGUE", "state": "NY", "zip": "11959-0760", "ntee": "B90", "ruling": "201708", "deductibility": "1", "assets": 1746172, "income": 1655680, "revenue": 0}, {"ein": "800555355", "name": "ONE NEW MAN GOSPEL MINISTRIES", "city": "SCHENECTADY", "state": "NY", "zip": "12306-3207", "ntee": "X20", "ruling": "201106", "deductibility": "1", "assets": 0, "income": 0, "revenue": 0}, {"ein": "821908204", "name": "POINT MAN INTERNATIONAL MINISTRIES", "city": "DEPOSIT", "state": "NY", "zip": "13754-1369", "ntee": "", "ruling": "199007", "deductibility": "1", "assets": 0, "income": 0, "revenue": 0}, {"ein": "825034829", "name": "MAN US CHARITABLE FOUNDATION", "city": "NEW YORK", "state": "NY", "zip": "10105-0199", "ntee": "T20", "ruling": "201903", "deductibility": "1", "assets": 226724, "income": 180133, "revenue": 0}, {"ein": "832018939", "name": "MAN 2 MAN FOURM", "city": "ELMIRA", "state": "NY", "zip": "14902-0011", "ntee": "E70", "ruling": "201903", "deductibility": "1", "assets": 0, "income": 0, "revenue": 0}, {"ein": "863775313", "name": "VISIBLE MAN", "city": "FAIRPORT", "state": "NY", "zip": "14450-0653", "ntee": "F01", "ruling": "202209", "deductibility": "1", "assets": 0, "income": 0, "revenue": 0}, {"ein": "880653060", "name": "MISSION FOR CHRIST CARING FOR THE WHOLE MAN INC", "city": "OZONE PARK", "state": "NY", "zip": "11417-2221", "ntee": "X20", "ruling": "202203", "deductibility": "1", "assets": 0, "income": 0, "revenue": 0}, {"ein": "932077159", "name": "AWALI MAN FOUNDATION", "city": "ROCHESTER", "state": "NY", "zip": "14611-3751", "ntee": "O50", "ruling": "202310", "deductibility": "1", "assets": 0, "income": 0, "revenue": 0}, {"ein": "990766527", "name": "MAN BIBIL FOUNDATION INC", "city": "NEW YORK", "state": "NY", "zip": "10010-4573", "ntee": "B82", "ruling": "202404", "deductibility": "1", "assets": 0, "income": 0, "revenue": 0}], "PRIZE": [{"ein": "043612920", "name": "CHARLES R BRONFMAN PRIZE FOUNDATION INC", "city": "NEW YORK", "state": "NY", "zip": "10022-8604", "ntee": "T20", "ruling": "200208", "deductibility": "1", "assets": 319678, "income": 418834, "revenue": 0}, {"ein": "113590109", "name": "PUSHCART PRIZE FELLOWSHIPS INC", "city": "WAINSCOTT", "state": "NY", "zip": "11975-0380", "ntee": "A12", "ruling": "200107", "deductibility": "1", "assets": 64460, "income": 79407, "revenue": 25633}, {"ein": "207432171", "name": "MANES PEACE PRIZE FOUNDATION", "city": "PLAINVIEW", "state": "NY", "zip": "11803-2340", "ntee": "T20", "ruling": "200903", "deductibility": "1", "assets": 6155375, "income": 2340557, "revenue": 0}, {"ein": "474688745", "name": "PARDES HUMANITARIAN PRIZE INC", "city": "NEW YORK", "state": "NY", "zip": "10017-2803", "ntee": "T30", "ruling": "201601", "deductibility": "1", "assets": 1, "income": 0, "revenue": 0}, {"ein": "824263697", "name": "LEWIS PRIZE FOUNDATION INC", "city": "NEW YORK", "state": "NY", "zip": "10036-0000", "ntee": "T20", "ruling": "201906", "deductibility": "1", "assets": 1596428, "income": 7200958, "revenue": 0}, {"ein": "831327048", "name": "FREDERICK OREILLY HAYES PRIZE FOUNDATION INC", "city": "NEW YORK", "state": "NY", "zip": "10024-5126", "ntee": "T20", "ruling": "201808", "deductibility": "1", "assets": 0, "income": 0, "revenue": 0}], "CAREY": [{"ein": "043674272", "name": "PAUL ROBERT CAREY FOUNDATION", "city": "ALBANY", "state": "NY", "zip": "12211-2358", "ntee": "T12", "ruling": "200212", "deductibility": "1", "assets": 83061, "income": 136778, "revenue": 70837}, {"ein": "113472913", "name": "CAREY DADS CLUB INC", "city": "FRANKLIN SQ", "state": "NY", "zip": "11010-3842", "ntee": "B82", "ruling": "200908", "deductibility": "1", "assets": 132766, "income": 177586, "revenue": 177586}, {"ein": "133597510", "name": "W P CAREY FOUNDATION", "city": "NEW YORK", "state": "NY", "zip": "10001-8600", "ntee": "", "ruling": "199109", "deductibility": "1", "assets": 527928410, "income": 107507764, "revenue": 0}, {"ein": "453805249", "name": "CAREY INSTITUTE FOR GLOBAL GOOD INC", "city": "RENSSELAERVLE", "state": "NY", "zip": "12147-2108", "ntee": "Q05", "ruling": "201211", "deductibility": "1", "assets": 3785585, "income": 249440, "revenue": 193593}, {"ein": "813514569", "name": "CAREY GABAY FOUNDATION INC", "city": "BROOKLYN", "state": "NY", "zip": "11201-3548", "ntee": "P20", "ruling": "202410", "deductibility": "1", "assets": 0, "income": 0, "revenue": 0}, {"ein": "946793523", "name": "JONATHAN CAREY FOUNDATION TR", "city": "DELMAR", "state": "NY", "zip": "12054-1302", "ntee": "I70", "ruling": "200907", "deductibility": "1", "assets": 11616, "income": 68547, "revenue": 68547}], "ADM": [{"ein": "043727367", "name": "DIRECTORS GUILD OF AMERICA COMMERCIALS CONTRACT ADM TR", "city": "NEW YORK CITY", "state": "NY", "zip": "10019-5904", "ntee": "J40", "ruling": "200308", "deductibility": "2", "assets": 239180, "income": 501903, "revenue": 501903}, {"ein": "133411763", "name": "ASSOCIATION OF HEALTHCARE HUMAN RESOURCES ADM OF GREATER NEW YORK", "city": "COMMACK", "state": "NY", "zip": "11725-6503", "ntee": "E00B", "ruling": "198808", "deductibility": "2", "assets": 0, "income": 0, "revenue": 0}], "IGL": [{"ein": "061479290", "name": "IGL CHRISTIANA FUENTE DE VIDA ETERNA", "city": "MOUNT KISCO", "state": "NY", "zip": "10549-3518", "ntee": "X21", "ruling": "196408", "deductibility": "1", "assets": 0, "income": 0, "revenue": 0}, {"ein": "113084932", "name": "IGL PENTECOSTAL EL SHADDAI", "city": "OYSTER BAY", "state": "NY", "zip": "11771-0333", "ntee": "", "ruling": "196408", "deductibility": "1", "assets": 0, "income": 0, "revenue": 0}, {"ein": "113091684", "name": "SEGUNDA IGL CRISTIANA PRIMITIVA", "city": "BROOKLYN", "state": "NY", "zip": "11208-2117", "ntee": "", "ruling": "196408", "deductibility": "1", "assets": 0, "income": 0, "revenue": 0}, {"ein": "113138497", "name": "IGL FUENTE DE SALVACION", "city": "BROOKLYN", "state": "NY", "zip": "11226-4212", "ntee": "", "ruling": "196408", "deductibility": "1", "assets": 0, "income": 0, "revenue": 0}, {"ein": "113364789", "name": "IGL CRISTIANA MONTE SINAI AD", "city": "BROOKLYN", "state": "NY", "zip": "11230-5100", "ntee": "", "ruling": "196408", "deductibility": "1", "assets": 0, "income": 0, "revenue": 0}, {"ein": "132971715", "name": "SEGUNDA IGL PENTECOSTAL JUAN 3 16 A D", "city": "PORT CHESTER", "state": "NY", "zip": "10573-4009", "ntee": "", "ruling": "196408", "deductibility": "1", "assets": 0, "income": 0, "revenue": 0}, {"ein": "133395509", "name": "IGL CHRISTIANA EL SHADDAI", "city": "WASHINGTONVILLE", "state": "NY", "zip": "10992-1638", "ntee": "", "ruling": "196408", "deductibility": "1", "assets": 0, "income": 0, "revenue": 0}, {"ein": "133525280", "name": "IGL MONTE CALVARIO 2NDA", "city": "NEW YORK", "state": "NY", "zip": "10040-0150", "ntee": "", "ruling": "196408", "deductibility": "1", "assets": 0, "income": 0, "revenue": 0}, {"ein": "133755168", "name": "IGL BAUT HISPANA DE FORDHAM", "city": "BRONX", "state": "NY", "zip": "10468-6108", "ntee": "", "ruling": "195504", "deductibility": "1", "assets": 0, "income": 0, "revenue": 0}, {"ein": "134181918", "name": "IGL CRISTIANA SEGUNDA SILOE", "city": "YONKERS", "state": "NY", "zip": "10710-5306", "ntee": "", "ruling": "196408", "deductibility": "1", "assets": 0, "income": 0, "revenue": 0}, {"ein": "161369097", "name": "IGL VIDA NUEVA EN CRISTO", "city": "BINGHAMTON", "state": "NY", "zip": "13902-2245", "ntee": "", "ruling": "196408", "deductibility": "1", "assets": 0, "income": 0, "revenue": 0}, {"ein": "161700550", "name": "IGL PENTECOSTAL AD IRA JUAN 4 7", "city": "BROOKLYN", "state": "NY", "zip": "11226-2777", "ntee": "X20", "ruling": "196408", "deductibility": "1", "assets": 0, "income": 0, "revenue": 0}, {"ein": "460924832", "name": "IGL EVANGELICA JESUS EL CAMINO JN 14 6", "city": "HAMPTON BAYS", "state": "NY", "zip": "11946-1982", "ntee": "", "ruling": "196408", "deductibility": "1", "assets": 0, "income": 0, "revenue": 0}, {"ein": "462547653", "name": "IGL CRISTIANA CASA DE DIOS Y PUERTA DEL CIELO", "city": "BRONX", "state": "NY", "zip": "10458-4142", "ntee": "X99", "ruling": "196408", "deductibility": "1", "assets": 0, "income": 0, "revenue": 0}, {"ein": "510669333", "name": "IGL PENTECOSTAL MISION CRISTIANA EBENEZER", "city": "COPIAGUE", "state": "NY", "zip": "11726-3207", "ntee": "", "ruling": "196408", "deductibility": "1", "assets": 1122798, "income": 1243868, "revenue": 1243868}], "EAGLE": [{"ein": "111626409", "name": "EAGLE DOCK FOUNDATION INC", "city": "COLD SPG HBR", "state": "NY", "zip": "11724-0172", "ntee": "N32Z", "ruling": "197611", "deductibility": "1", "assets": 375328, "income": 189214, "revenue": 188206}, {"ein": "112602708", "name": "GOLDEN EAGLE FLYING CLUB LTD", "city": "WEST ISLIP", "state": "NY", "zip": "11795-2816", "ntee": "", "ruling": "198209", "deductibility": "2", "assets": 0, "income": 0, "revenue": 0}, {"ein": "113053106", "name": "EAGLE REALTY HOLDINGS INC", "city": "STONY BROOK", "state": "NY", "zip": "11790-0572", "ntee": "", "ruling": "199106", "deductibility": "2", "assets": 5757733, "income": 2788098, "revenue": 2788098}, {"ein": "113486431", "name": "CHURCH OF THE NEW EAGLE FOR JEASUS CHRIST", "city": "FARMINGDALE", "state": "NY", "zip": "11735-6303", "ntee": "X20", "ruling": "201407", "deductibility": "1", "assets": 0, "income": 0, "revenue": 0}, {"ein": "141748383", "name": "EAGLE-MATT LEE VOLUNTEER FIRE COMPANY", "city": "BALLSTON SPA", "state": "NY", "zip": "12020-0004", "ntee": "M24Z", "ruling": "199304", "deductibility": "1", "assets": 265920, "income": 71834, "revenue": 70599}, {"ein": "141761650", "name": "EAGLE LAKE PROPERTY OWNERS INC", "city": "TICONDEROGA", "state": "NY", "zip": "12883-0000", "ntee": "Z99Z", "ruling": "199607", "deductibility": "1", "assets": 0, "income": 0, "revenue": 0}, {"ein": "160864378", "name": "EAGLE FREE LIBRARY", "city": "BLISS", "state": "NY", "zip": "14024-0126", "ntee": "B71Z", "ruling": "199802", "deductibility": "1", "assets": 335499, "income": 50297, "revenue": 50297}, {"ein": "160978266", "name": "EAGLE RIDGE RECREATION ASSOCIATION INC", "city": "ORCHARD PARK", "state": "NY", "zip": "14127-0441", "ntee": "", "ruling": "197308", "deductibility": "2", "assets": 527349, "income": 358600, "revenue": 358600}, {"ein": "161556227", "name": "WHITE EAGLE MEDICAL BRIDGE OF UPSTATE NEW YORK INC", "city": "NEW YORK MLS", "state": "NY", "zip": "13417-1104", "ntee": "F80", "ruling": "200105", "deductibility": "1", "assets": 0, "income": 0, "revenue": 0}, {"ein": "200311886", "name": "EAGLE HABITAT AND OPEN SPACE FOUNDATION", "city": "BETHEL", "state": "NY", "zip": "12720-0338", "ntee": "D32", "ruling": "200411", "deductibility": "1", "assets": 54140, "income": 1, "revenue": 0}, {"ein": "201532382", "name": "THE EAGLE ACADEMY FOUNDATION INC", "city": "NEW YORK", "state": "NY", "zip": "10027-4597", "ntee": "", "ruling": "200502", "deductibility": "1", "assets": 5566278, "income": 5655350, "revenue": 5652136}, {"ein": "205195496", "name": "EAGLE ASSOCIATION OF CENTRAL NEWYORK INC", "city": "LIVERPOOL", "state": "NY", "zip": "13088-5437", "ntee": "A80", "ruling": "200702", "deductibility": "1", "assets": 0, "income": 0, "revenue": 0}, {"ein": "205908611", "name": "EAGLE VALLEY SEARCH RESCUE ANDRECOVERY TEAM INC", "city": "HIGH FALLS", "state": "NY", "zip": "12440-5437", "ntee": "M23", "ruling": "200705", "deductibility": "1", "assets": 48483, "income": 23592, "revenue": 23592}, {"ein": "222543836", "name": "EAGLE BAY VOLUNTEER HOSE COMPANY INC", "city": "EAGLE BAY", "state": "NY", "zip": "13331-0102", "ntee": "M24", "ruling": "200902", "deductibility": "1", "assets": 456921, "income": 191853, "revenue": 191853}, {"ein": "261743014", "name": "EAGLE RIDGE YOUTH RANCH", "city": "FEURA BUSH", "state": "NY", "zip": "12067-2133", "ntee": "P80", "ruling": "200807", "deductibility": "1", "assets": 0, "income": 0, "revenue": 0}, {"ein": "262364289", "name": "EAGLE ELEMENTARY SCHOOL PARENT TEACHER ORGANIZATION INC", "city": "DELMAR", "state": "NY", "zip": "12054-5112", "ntee": "B94", "ruling": "201403", "deductibility": "1", "assets": 0, "income": 0, "revenue": 0}, {"ein": "263237636", "name": "EAGLE WINGS ACADEMY SCHOLARSHIPS AND STUDENT SUPPORT INC", "city": "SYRACUSE", "state": "NY", "zip": "13205-2338", "ntee": "B20", "ruling": "200904", "deductibility": "1", "assets": 82144, "income": 193722, "revenue": 193722}, {"ein": "274548675", "name": "EAGLE ISLAND INC", "city": "SARANAC LAKE", "state": "NY", "zip": "12983-3064", "ntee": "N20", "ruling": "201105", "deductibility": "1", "assets": 5968766, "income": 807930, "revenue": 762658}, {"ein": "311695007", "name": "EAGLE CHRISTIAN MINISTRIES", "city": "EAST ELMHURST", "state": "NY", "zip": "11369-2524", "ntee": "X21", "ruling": "200011", "deductibility": "1", "assets": 0, "income": 0, "revenue": 0}, {"ein": "412171830", "name": "EAGLE SOARS MINISTRIES", "city": "BUFFALO", "state": "NY", "zip": "14215-1528", "ntee": "W30", "ruling": "202404", "deductibility": "1", "assets": 0, "income": 0, "revenue": 0}, {"ein": "455097554", "name": "EAGLE STAR HOUSING INC", "city": "ROCHESTER", "state": "NY", "zip": "14624-1535", "ntee": "F33", "ruling": "201403", "deductibility": "1", "assets": 3534807, "income": 3601247, "revenue": 3429911}, {"ein": "455188868", "name": "EAST MORICHES EAGLE RESTORATION INC", "city": "EAST MORICHES", "state": "NY", "zip": "11940-1324", "ntee": "A80", "ruling": "201304", "deductibility": "1", "assets": 0, "income": 0, "revenue": 0}, {"ein": "522343825", "name": "EAGLE CEMETERY", "city": "BLISS", "state": "NY", "zip": "14024-9718", "ntee": "Y50", "ruling": "200201", "deductibility": "1", "assets": 0, "income": 0, "revenue": 0}, {"ein": "811469411", "name": "EAGLE FIRE ENGINE AND HOSE COMPANY NUMBER 1 2 3", "city": "GILBERTSVILLE", "state": "NY", "zip": "13776-0072", "ntee": "M24", "ruling": "201802", "deductibility": "1", "assets": 759673, "income": 324314, "revenue": 324314}, {"ein": "831856108", "name": "VALLEY STREAM CENTRAL EAGLE CLUB INC", "city": "VALLEY STREAM", "state": "NY", "zip": "11580-0000", "ntee": "N12", "ruling": "201809", "deductibility": "1", "assets": 0, "income": 0, "revenue": 0}, {"ein": "833040993", "name": "EAGLE EYE CHARITIES INC", "city": "NEW YORK", "state": "NY", "zip": "10044-0129", "ntee": "A25", "ruling": "201910", "deductibility": "1", "assets": 0, "income": 0, "revenue": 0}, {"ein": "833082512", "name": "EAGLE HEIGHTS NEIGHBORHOOD ASSOCIATION INC", "city": "ROCHESTER", "state": "NY", "zip": "14617-3610", "ntee": "S22", "ruling": "202009", "deductibility": "1", "assets": 0, "income": 0, "revenue": 0}, {"ein": "842647739", "name": "PURPLE EAGLE WRESTLING ACADEMY", "city": "ALBION", "state": "NY", "zip": "14411-1508", "ntee": "N60", "ruling": "202305", "deductibility": "1", "assets": 0, "income": 0, "revenue": 0}, {"ein": "872623133", "name": "EAGLE WINGS PAGEANTRY", "city": "VICTOR", "state": "NY", "zip": "14564-9469", "ntee": "B82", "ruling": "202112", "deductibility": "1", "assets": 0, "income": 0, "revenue": 0}, {"ein": "920495598", "name": "EAGLE GLOBAL DEVELOPMENT CENTER INC", "city": "HEMPSTEAD", "state": "NY", "zip": "11550-3515", "ntee": "F30", "ruling": "202302", "deductibility": "1", "assets": 0, "income": 0, "revenue": 0}, {"ein": "933102808", "name": "GRAND COUNCIL OF EAGLE AND THE CONDOR INC", "city": "NEW YORK", "state": "NY", "zip": "10017-0000", "ntee": "X05", "ruling": "202309", "deductibility": "1", "assets": 149453, "income": 281145, "revenue": 281145}, {"ein": "943329241", "name": "EAGLE BIBLE INSTITUTE", "city": "BROOKLYN", "state": "NY", "zip": "11233-3218", "ntee": "", "ruling": "197412", "deductibility": "1", "assets": 0, "income": 0, "revenue": 0}, {"ein": "990770188", "name": "WINGS OS EAGLE CHARITY CORPORATION", "city": "ONEONTA", "state": "NY", "zip": "13820-2040", "ntee": "T50", "ruling": "202406", "deductibility": "1", "assets": 0, "income": 0, "revenue": 0}, {"ein": "991618500", "name": "EAGLE ROCK CARES FOUNDATION CORP", "city": "NEW YORK", "state": "NY", "zip": "10017-5627", "ntee": "L80", "ruling": "202403", "deductibility": "1", "assets": 0, "income": 0, "revenue": 0}, {"ein": "993298887", "name": "EAGLE RISING CATHOLIC MINISTRY INC", "city": "BROOKLYN", "state": "NY", "zip": "11203-3209", "ntee": "X20", "ruling": "202408", "deductibility": "1", "assets": 73598, "income": 75000, "revenue": 0}], "SCHNEUR": [{"ein": "112225179", "name": "YESHIVA HARBOTZAS TORAH ZICHRON SCHNEUR", "city": "BROOKLYN", "state": "NY", "zip": "11230-4407", "ntee": "", "ruling": "199107", "deductibility": "1", "assets": 0, "income": 0, "revenue": 0}], "BOHEMIABOOSTERS": [{"ein": "112482614", "name": "OAKDALE RONKONKOMA BOHEMIABOOSTERS FOR THE ARTS", "city": "BOHEMIA", "state": "NY", "zip": "11716-0226", "ntee": "", "ruling": "198102", "deductibility": "1", "assets": 0, "income": 0, "revenue": 0}], "GIRAFFE": [{"ein": "112523053", "name": "DWARF-GIRAFFE ATHLETIC LEAGUE OF WHITESTONE INC", "city": "FLUSHING", "state": "NY", "zip": "11357-0035", "ntee": "O200", "ruling": "198011", "deductibility": "1", "assets": 1206484, "income": 366621, "revenue": 366621}, {"ein": "113279675", "name": "COLLAPSABLE GIRAFFE INC", "city": "BROOKLYN", "state": "NY", "zip": "11206-6693", "ntee": "A650", "ruling": "199510", "deductibility": "1", "assets": 16795, "income": 109139, "revenue": 109139}], "TARSILE": [{"ein": "112579839", "name": "TAHRIKE TARSILE QURAN INC", "city": "ELMHURST", "state": "NY", "zip": "11373-4141", "ntee": "", "ruling": "198112", "deductibility": "1", "assets": 217737, "income": 83695, "revenue": 83695}], "NEBO": [{"ein": "112581432", "name": "MOUNT NEBO MISSIONARY BAPTIST CHURCH", "city": "AMITYVILLE", "state": "NY", "zip": "11701-0476", "ntee": "", "ruling": "198112", "deductibility": "1", "assets": 0, "income": 0, "revenue": 0}, {"ein": "112838995", "name": "MT NEBO BAPTIST CHURCH INC", "city": "NEW YORK", "state": "NY", "zip": "10026-2850", "ntee": "X20Z", "ruling": "199801", "deductibility": "1", "assets": 0, "income": 0, "revenue": 0}, {"ein": "113355468", "name": "MOUNT NEBO CHURCH INC", "city": "JAMAICA", "state": "NY", "zip": "11431-0187", "ntee": "X21Z", "ruling": "199803", "deductibility": "1", "assets": 0, "income": 0, "revenue": 0}, {"ein": "471976368", "name": "MOUNT NEBO GRAND LODGE COMMUNITY FOUNDATION LIMITED", "city": "BRONX", "state": "NY", "zip": "10459-2704", "ntee": "S12", "ruling": "201502", "deductibility": "1", "assets": 0, "income": 0, "revenue": 0}], "TRANSITIONAL": [{"ein": "112592828", "name": "TRANSITIONAL SERVICES OF NEW YORK FOR LONG ISLAND INC", "city": "BRENTWOOD", "state": "NY", "zip": "11717-4404", "ntee": "F34Z", "ruling": "199008", "deductibility": "1", "assets": 16965957, "income": 9205054, "revenue": 9205054}, {"ein": "113580024", "name": "INTERNATIONAL CENTER FOR TRANSITIONAL JUSTICE", "city": "NEW YORK", "state": "NY", "zip": "10004-3805", "ntee": "Q70", "ruling": "200206", "deductibility": "1", "assets": 11424589, "income": 9035410, "revenue": 9035410}, {"ein": "160990574", "name": "TRANSITIONAL SERVICES INC", "city": "BUFFALO", "state": "NY", "zip": "14222-2209", "ntee": "F34Z", "ruling": "197212", "deductibility": "1", "assets": 10029398, "income": 20262047, "revenue": 20249547}, {"ein": "161621304", "name": "GENESIS TRANSITIONAL HOUSING MINISTRIES INC", "city": "SAINT ALBANS", "state": "NY", "zip": "11412-1108", "ntee": "I31", "ruling": "200212", "deductibility": "1", "assets": 3259, "income": 102875, "revenue": 102875}, {"ein": "222325835", "name": "TRANSITIONAL SERVICES DYMPHNA PROJECT INC", "city": "BUFFALO", "state": "NY", "zip": "14222-2209", "ntee": "P73Z", "ruling": "198105", "deductibility": "1", "assets": 66315, "income": 69892, "revenue": 69892}, {"ein": "237376074", "name": "TRANSITIONAL SERVICES FOR NEW YORK INC", "city": "WHITESTONE", "state": "NY", "zip": "11357-2124", "ntee": "P72Z", "ruling": "197405", "deductibility": "1", "assets": 47938658, "income": 44709698, "revenue": 42804861}, {"ein": "271440474", "name": "NEW HOPE TRANSITIONAL HOUSING INC", "city": "BRONX", "state": "NY", "zip": "10472-5328", "ntee": "L41", "ruling": "201102", "deductibility": "1", "assets": 30166738, "income": 20753213, "revenue": 20753213}, {"ein": "273444964", "name": "HELPING HANDS TRANSITIONAL HOME INC", "city": "BROOKLYN", "state": "NY", "zip": "11221-2801", "ntee": "L40", "ruling": "201102", "deductibility": "1", "assets": 0, "income": 0, "revenue": 0}, {"ein": "275376029", "name": "ACM DIGNIFIED TRANSITIONAL HOUSING INC", "city": "BROOKLYN", "state": "NY", "zip": "11208-4420", "ntee": "L20", "ruling": "201104", "deductibility": "1", "assets": 106374, "income": 155294, "revenue": 155294}, {"ein": "311731465", "name": "EXODUS TRANSITIONAL COMMUNITY INC", "city": "NEW YORK", "state": "NY", "zip": "10035-2231", "ntee": "I400", "ruling": "200102", "deductibility": "1", "assets": 20998495, "income": 11491852, "revenue": 11491852}, {"ein": "465195281", "name": "MADE TRANSITIONAL SERVICES INC", "city": "SPRING VALLEY", "state": "NY", "zip": "10977-3005", "ntee": "I40", "ruling": "201512", "deductibility": "1", "assets": 0, "income": 0, "revenue": 0}, {"ein": "475059219", "name": "BARKSDALE GROUP TRANSITIONAL SERVICES INC", "city": "BRONX", "state": "NY", "zip": "10473-0961", "ntee": "P70", "ruling": "201604", "deductibility": "1", "assets": 0, "income": 0, "revenue": 0}, {"ein": "475115741", "name": "ELIJA TRANSITIONAL PROGRAMS & SERVICES INC", "city": "LEVITTOWN", "state": "NY", "zip": "11756-3134", "ntee": "G84", "ruling": "201709", "deductibility": "1", "assets": 361336, "income": 1133304, "revenue": 1133304}, {"ein": "820666911", "name": "TRANSITIONAL HOUSING & RESOURCES INC", "city": "BRENTWOOD", "state": "NY", "zip": "11717-0027", "ntee": "L40", "ruling": "201809", "deductibility": "1", "assets": 0, "income": 0, "revenue": 0}, {"ein": "842700602", "name": "BREATHONE TRANSITIONAL AND RE-ENTRY SERVICES", "city": "ALBION", "state": "NY", "zip": "14411-9748", "ntee": "I40", "ruling": "201911", "deductibility": "1", "assets": 0, "income": 0, "revenue": 0}, {"ein": "920288607", "name": "ARGO TRANSITIONAL HOUSING INC", "city": "WAPPINGERS FALLS", "state": "NY", "zip": "12590-1360", "ntee": "L40", "ruling": "202211", "deductibility": "1", "assets": 0, "income": 0, "revenue": 0}, {"ein": "920743179", "name": "INTERNATIONAL ORGANIZATION FOR TRANSITIONAL JUSTICE AND PEACE INC", "city": "NEW YORK", "state": "NY", "zip": "10016-5403", "ntee": "Q70", "ruling": "202304", "deductibility": "1", "assets": 0, "income": 0, "revenue": 0}, {"ein": "922653898", "name": "KINGS TRANSITIONAL PROGRAM", "city": "WHITE PLAINS", "state": "NY", "zip": "10607-1313", "ntee": "I80", "ruling": "202406", "deductibility": "1", "assets": 0, "income": 0, "revenue": 0}, {"ein": "923085296", "name": "HUSTLERS ANONYMOUS TRANSITIONAL INC", "city": "ALBANY", "state": "NY", "zip": "12202-1018", "ntee": "P20", "ruling": "202305", "deductibility": "1", "assets": 0, "income": 0, "revenue": 0}, {"ein": "923510884", "name": "COMMUNITY TRANSITIONAL SERVICES FOR OUTREACH AND DEVELOPMENT INC", "city": "STATEN ISLAND", "state": "NY", "zip": "10303-0674", "ntee": "P20", "ruling": "202304", "deductibility": "1", "assets": 0, "income": 0, "revenue": 0}, {"ein": "923901311", "name": "REECE PROGRAMS AND TRANSITIONAL HOUSES FOR YOUTH INCORPORATED", "city": "HEMPSTEAD", "state": "NY", "zip": "11550-7019", "ntee": "P30", "ruling": "202306", "deductibility": "1", "assets": 0, "income": 0, "revenue": 0}, {"ein": "933540636", "name": "SETT SETTING EARLY TRANSITIONAL TACTICS INC", "city": "NEW YORK", "state": "NY", "zip": "10023-9600", "ntee": "B80", "ruling": "202310", "deductibility": "1", "assets": 0, "income": 0, "revenue": 0}, {"ein": "992179475", "name": "SDF HB TRANSITIONAL HOUSING DEVELOPMENT FUND CORPORATION", "city": "BRIARWOOD", "state": "NY", "zip": "11435-2665", "ntee": "P20", "ruling": "202405", "deductibility": "1", "assets": 0, "income": 0, "revenue": 0}, {"ein": "992393905", "name": "487 WEST 129TH STREET TRANSITIONAL HOUSINGDEVELOPMENT FUND CORPORATIO", "city": "NEW YORK", "state": "NY", "zip": "10017-5752", "ntee": "L40", "ruling": "202412", "deductibility": "1", "assets": 13087650, "income": 0, "revenue": 0}], "LUFTHANSA": [{"ein": "112614325", "name": "LUFTHANSA GERMAN AIRLINES LONG TERM DISABILITY BENEFITS PL TR", "city": "UNIONDALE", "state": "NY", "zip": "11556-1401", "ntee": "", "ruling": "198210", "deductibility": "2", "assets": 0, "income": 17763625, "revenue": 17763625}], "DHARAMARTH": [{"ein": "112652581", "name": "SHRI SWAMI SATYANAND DHARAMARTH USA CORPORATION", "city": "JERICHO", "state": "NY", "zip": "11753-2540", "ntee": "", "ruling": "198404", "deductibility": "1", "assets": 0, "income": 0, "revenue": 0}], "SPECIALTY": [{"ein": "112689446", "name": "SPECIALTY TRADES UNION LOCAL 741", "city": "VALHALLA", "state": "NY", "zip": "10595-1372", "ntee": "", "ruling": "199104", "deductibility": "2", "assets": 348510, "income": 421816, "revenue": 421816}, {"ein": "112691482", "name": "NATIONAL ASSOCIATION SPECIALTY TRADES", "city": "VALHALLA", "state": "NY", "zip": "10595-1372", "ntee": "", "ruling": "199211", "deductibility": "2", "assets": 629525, "income": 5306112, "revenue": 5306112}, {"ein": "131864170", "name": "HENRY J CARTER SPECIALTY HOSPITAL AUXILIARY INC", "city": "NEW YORK", "state": "NY", "zip": "10035-2811", "ntee": "E22I", "ruling": "195306", "deductibility": "1", "assets": 953315, "income": 23601, "revenue": 23601}, {"ein": "131934121", "name": "SPECIALTY FOOD ASSOCIATION INC", "city": "NEW YORK", "state": "NY", "zip": "10016-6788", "ntee": "", "ruling": "198503", "deductibility": "2", "assets": 84400298, "income": 55686951, "revenue": 28151463}, {"ein": "472495307", "name": "NATIONAL ASSOCIATION OF SPECIALTY TRADE UNIONS", "city": "VALHALLA", "state": "NY", "zip": "10595-1372", "ntee": "J40", "ruling": "201503", "deductibility": "2", "assets": 1, "income": 0, "revenue": 0}], "SWEET": [{"ein": "112728857", "name": "SWEET REST BAPTIST CHURCH", "city": "JAMAICA", "state": "NY", "zip": "11434-1521", "ntee": "", "ruling": "198505", "deductibility": "1", "assets": 0, "income": 0, "revenue": 0}, {"ein": "112932664", "name": "SWEET HOLLOW COUNSELING CENTER INC", "city": "OYSTER BAY", "state": "NY", "zip": "11771-3404", "ntee": "F32Z", "ruling": "199403", "deductibility": "1", "assets": 0, "income": 0, "revenue": 0}, {"ein": "112955614", "name": "HOME SWEET HOME", "city": "BROOKLYN", "state": "NY", "zip": "11234-3121", "ntee": "", "ruling": "198904", "deductibility": "1", "assets": 0, "income": 0, "revenue": 0}, {"ein": "116036981", "name": "SWEET ADELINES INTERNATIONAL", "city": "FARMINGDALE", "state": "NY", "zip": "11735-5300", "ntee": "A6B0", "ruling": "195510", "deductibility": "1", "assets": 71471, "income": 28601, "revenue": 28501}, {"ein": "116043041", "name": "SWEET ADELINES INTERNATIONAL", "city": "HAMPTON BAYS", "state": "NY", "zip": "11946-2310", "ntee": "", "ruling": "195510", "deductibility": "1", "assets": 8164, "income": 42156, "revenue": 42156}, {"ein": "116044978", "name": "SWEET ADELINES INTERNATIONAL", "city": "HUNTINGTON", "state": "NY", "zip": "11743-5201", "ntee": "", "ruling": "195510", "deductibility": "1", "assets": 0, "income": 0, "revenue": 0}, {"ein": "116049114", "name": "SWEET ADELINES INTERNATIONAL", "city": "SETAUKET", "state": "NY", "zip": "11733-3004", "ntee": "A6B0", "ruling": "196507", "deductibility": "1", "assets": 0, "income": 0, "revenue": 0}, {"ein": "133931803", "name": "SWEET JANE PRODUCTIONS INC", "city": "BROOKLYN", "state": "NY", "zip": "11205-1309", "ntee": "A65", "ruling": "199710", "deductibility": "1", "assets": 264211, "income": 465782, "revenue": 465782}, {"ein": "133952169", "name": "A SWEET ENTERPRISE INC", "city": "VALLEY COTTAGE", "state": "NY", "zip": "10989-2035", "ntee": "P82", "ruling": "201706", "deductibility": "1", "assets": 0, "income": 0, "revenue": 0}, {"ein": "141594347", "name": "SWEET ADELINES INTERNATIONAL", "city": "REXFORD", "state": "NY", "zip": "12148-1633", "ntee": "A6B0", "ruling": "195510", "deductibility": "1", "assets": 0, "income": 0, "revenue": 0}, {"ein": "141827393", "name": "SWEET PILGRIM MISSIONARY BAPTIST CHURCH", "city": "ALBANY", "state": "NY", "zip": "12201-0125", "ntee": "X20", "ruling": "200107", "deductibility": "1", "assets": 0, "income": 0, "revenue": 0}, {"ein": "146078988", "name": "SWEET ADELINES INTERNATIONAL", "city": "CHESTER", "state": "NY", "zip": "10918-1528", "ntee": "", "ruling": "195510", "deductibility": "1", "assets": 0, "income": 0, "revenue": 0}, {"ein": "156016293", "name": "ARTISIAN SCHOOL TRUST UA FBO JOHN SWEET LECTURE FUND", "city": "NORWICH", "state": "NY", "zip": "13815-0000", "ntee": "", "ruling": "000000", "deductibility": "0", "assets": 30534, "income": 4204, "revenue": 0}, {"ein": "156022887", "name": "SWEET POND CLUB INC", "city": "PHOENIX", "state": "NY", "zip": "13135-2130", "ntee": "", "ruling": "197507", "deductibility": "2", "assets": 455161, "income": 71437, "revenue": 71437}, {"ein": "166052119", "name": "SWEET ADELINES INTERNATIONAL", "city": "SYRACUSE", "state": "NY", "zip": "13224-2254", "ntee": "A6B0", "ruling": "195510", "deductibility": "1", "assets": 70202, "income": 74550, "revenue": 74550}, {"ein": "166061478", "name": "SWEET ADELINES INTERNATIONAL", "city": "BOWMANSVILLE", "state": "NY", "zip": "14026-1034", "ntee": "", "ruling": "196507", "deductibility": "1", "assets": 229102, "income": 211436, "revenue": 211436}, {"ein": "237011005", "name": "SWEET ADELINES INTERNATIONAL", "city": "PLATTSBURG", "state": "NY", "zip": "12901-2329", "ntee": "", "ruling": "197001", "deductibility": "1", "assets": 0, "income": 0, "revenue": 0}, {"ein": "237028216", "name": "SWEET ADELINES INTERNATIONAL", "city": "PEEKSKILL", "state": "NY", "zip": "10566-6920", "ntee": "", "ruling": "197001", "deductibility": "1", "assets": 0, "income": 0, "revenue": 0}, {"ein": "237452666", "name": "SWEET ADELINES INTERNATIONAL", "city": "SMITHTOWN", "state": "NY", "zip": "11787-1665", "ntee": "A6B0", "ruling": "195510", "deductibility": "1", "assets": 122309, "income": 115371, "revenue": 115371}, {"ein": "300747215", "name": "SWEET ADELINES INTERNATIONAL", "city": "NEW YORK", "state": "NY", "zip": "10019-4295", "ntee": "", "ruling": "195510", "deductibility": "1", "assets": 0, "income": 0, "revenue": 0}, {"ein": "342039917", "name": "FOUNDATION SWEET SUCCESS INC", "city": "NEW YORK", "state": "NY", "zip": "10022-9242", "ntee": "T22", "ruling": "200504", "deductibility": "1", "assets": 5502014, "income": 262172, "revenue": 0}, {"ein": "352655236", "name": "SWEET HOME EDUCATION FOUNDATION INC", "city": "AMHERST", "state": "NY", "zip": "14226-0455", "ntee": "B12", "ruling": "201908", "deductibility": "1", "assets": 0, "income": 0, "revenue": 0}, {"ein": "462211689", "name": "HOME SWEET HOME ANIMAL RESCUE OF LONG ISLAND", "city": "HUNTINGTON", "state": "NY", "zip": "11743-5367", "ntee": "D20", "ruling": "201310", "deductibility": "1", "assets": 18271, "income": 60143, "revenue": 44763}, {"ein": "462766987", "name": "SWEET BEEZ", "city": "ROCHESTER", "state": "NY", "zip": "14619-1116", "ntee": "D99", "ruling": "201405", "deductibility": "1", "assets": 0, "income": 0, "revenue": 0}, {"ein": "463796513", "name": "LITTLE SWEET ANGELS NY 2 INC", "city": "FLUSHING", "state": "NY", "zip": "11355-2173", "ntee": "B90", "ruling": "201601", "deductibility": "1", "assets": 0, "income": 0, "revenue": 0}, {"ein": "474576350", "name": "SWEET FARM FOUNDATION", "city": "HIMROD", "state": "NY", "zip": "14842-9783", "ntee": "D20", "ruling": "201603", "deductibility": "1", "assets": 544779, "income": 1173420, "revenue": 1122882}, {"ein": "510622839", "name": "SWEET ADELINES INTERNATIONAL", "city": "GREENFLD CTR", "state": "NY", "zip": "12833-1124", "ntee": "A6BZ", "ruling": "195510", "deductibility": "1", "assets": 0, "income": 0, "revenue": 0}, {"ein": "510650327", "name": "HOME SWEET HOME EMBRACING FAMILIES INC", "city": "BRONX", "state": "NY", "zip": "10459-3159", "ntee": "X20", "ruling": "200808", "deductibility": "1", "assets": 0, "income": 0, "revenue": 0}, {"ein": "521405626", "name": "SWEET ADELINES INTERNATIONAL", "city": "BOHEMIA", "state": "NY", "zip": "11716-2163", "ntee": "", "ruling": "195510", "deductibility": "1", "assets": 0, "income": 0, "revenue": 0}, {"ein": "521412209", "name": "SWEET ADELINES INTERNATIONAL", "city": "ONEONTA", "state": "NY", "zip": "13820-1420", "ntee": "", "ruling": "195510", "deductibility": "1", "assets": 0, "income": 0, "revenue": 0}, {"ein": "521939269", "name": "SWEET ADELINES INTERNATIONAL", "city": "CANANDAIGUA", "state": "NY", "zip": "14424-8358", "ntee": "", "ruling": "195510", "deductibility": "0", "assets": 0, "income": 0, "revenue": 0}, {"ein": "581485409", "name": "SWEET ADELINES INTERNATIONAL", "city": "SOUTH COLTON", "state": "NY", "zip": "13687-3402", "ntee": "", "ruling": "195510", "deductibility": "1", "assets": 0, "income": 0, "revenue": 0}, {"ein": "742057354", "name": "SWEET ADELINES INTERNATIONAL", "city": "MIDDLETOWN", "state": "NY", "zip": "10940-4416", "ntee": "", "ruling": "195510", "deductibility": "1", "assets": 0, "income": 0, "revenue": 0}, {"ein": "812853848", "name": "SWEET HOME MASONIC HALL ASSOCIATION INC", "city": "EGGERTSVILLE", "state": "NY", "zip": "14226-1427", "ntee": "Y40", "ruling": "202104", "deductibility": "1", "assets": 0, "income": 0, "revenue": 0}, {"ein": "823331231", "name": "SWEET ASS FARM DONKEY SANCTUARY INC", "city": "SHOKAN", "state": "NY", "zip": "12481-5323", "ntee": "D20", "ruling": "201711", "deductibility": "1", "assets": 0, "income": 0, "revenue": 0}, {"ein": "831094993", "name": "SWEET BUFFALO ROCKS INC", "city": "N TONAWANDA", "state": "NY", "zip": "14120-3320", "ntee": "T31", "ruling": "201809", "deductibility": "1", "assets": 0, "income": 0, "revenue": 0}, {"ein": "831698873", "name": "SWEET SPIRIT MINISTRIES", "city": "MOHEGAN LAKE", "state": "NY", "zip": "10547-1000", "ntee": "X20", "ruling": "201902", "deductibility": "1", "assets": 0, "income": 0, "revenue": 0}, {"ein": "844002738", "name": "SWEET NELLIES SANCTUARY INC", "city": "EAST AMHERST", "state": "NY", "zip": "14051-1043", "ntee": "D20", "ruling": "202001", "deductibility": "1", "assets": 0, "income": 0, "revenue": 0}, {"ein": "871374405", "name": "THE SWEET LIFE ANIMAL RESCUE INC", "city": "ALBANY", "state": "NY", "zip": "12207-2922", "ntee": "D20", "ruling": "202110", "deductibility": "1", "assets": 0, "income": 0, "revenue": 0}, {"ein": "883946159", "name": "CANNOLIS SWEET LIFE SENIOR RESCUE INC", "city": "GLEN HEAD", "state": "NY", "zip": "11545-2007", "ntee": "D20", "ruling": "202209", "deductibility": "1", "assets": 0, "income": 0, "revenue": 0}, {"ein": "921199554", "name": "SWEET CENTER INC", "city": "NEW YORK", "state": "NY", "zip": "10029-1029", "ntee": "F30", "ruling": "202301", "deductibility": "1", "assets": 0, "income": 0, "revenue": 0}, {"ein": "923476610", "name": "SWEET ANNIE MEMORIAL GOLF OUTING INC", "city": "MASSAPEQUA", "state": "NY", "zip": "11758-8310", "ntee": "P20", "ruling": "202306", "deductibility": "1", "assets": 2650, "income": 112938, "revenue": 112938}, {"ein": "934583356", "name": "SWEET HOME BOYS LACROSSE BOOSTER CLUB INC", "city": "AMHERST", "state": "NY", "zip": "14226-7003", "ntee": "N11", "ruling": "202401", "deductibility": "1", "assets": 0, "income": 0, "revenue": 0}, {"ein": "954637536", "name": "THE SWEET ENUFF MOVEMENT", "city": "NEW YORK", "state": "NY", "zip": "10024-5129", "ntee": "E99", "ruling": "199712", "deductibility": "1", "assets": 0, "income": 0, "revenue": 0}], "HAYIM": [{"ein": "112877000", "name": "HAYIM SHAAL CONGREGATION INC", "city": "BROOKLYN", "state": "NY", "zip": "11230-5844", "ntee": "X30I", "ruling": "199208", "deductibility": "1", "assets": 0, "income": 0, "revenue": 0}, {"ein": "475587535", "name": "SIMHAT HAYIM INC", "city": "BROOKLYN", "state": "NY", "zip": "11210-4700", "ntee": "P99", "ruling": "201511", "deductibility": "1", "assets": 0, "income": 0, "revenue": 0}, {"ein": "810691878", "name": "CONG ZROR HAYIM SELISH", "city": "MONROE", "state": "NY", "zip": "10949-8318", "ntee": "X30", "ruling": "201609", "deductibility": "1", "assets": 0, "income": 0, "revenue": 0}, {"ein": "862299695", "name": "THE MEKOR HAYIM CENTER INC", "city": "BROOKLYN", "state": "NY", "zip": "11229-2438", "ntee": "", "ruling": "202106", "deductibility": "1", "assets": 442924, "income": 211546, "revenue": 211546}, {"ein": "870996438", "name": "AMERICAN FRIENDS OF DARKY HAYIM INC", "city": "BROOKLYN", "state": "NY", "zip": "11223-5444", "ntee": "", "ruling": "202109", "deductibility": "1", "assets": 0, "income": 0, "revenue": 0}, {"ein": "871915883", "name": "AHAVAT HAYIM VACHESED", "city": "BROOKLYN", "state": "NY", "zip": "11229-4106", "ntee": "X30", "ruling": "202111", "deductibility": "1", "assets": 0, "income": 0, "revenue": 0}, {"ein": "901251688", "name": "HAYIM SHELL TORAH INC", "city": "BROOKLYN", "state": "NY", "zip": "11229-6607", "ntee": "X20", "ruling": "202209", "deductibility": "1", "assets": 26307, "income": 281170, "revenue": 281170}, {"ein": "923335595", "name": "SIMCHAT HAYIM INC", "city": "NEW YORK", "state": "NY", "zip": "10018-7610", "ntee": "T20", "ruling": "202306", "deductibility": "1", "assets": 19018, "income": 321580, "revenue": 0}], "MARTINS": [{"ein": "112888752", "name": "SAINT MARTINS SPIRITUAL BAPTIST CHURCH INC", "city": "BROOKLYN", "state": "NY", "zip": "11213-2342", "ntee": "X20Z", "ruling": "199705", "deductibility": "1", "assets": 0, "income": 0, "revenue": 0}, {"ein": "113556801", "name": "ST MARTINS HOME ASSOCIATION INC", "city": "AMITYVILLE", "state": "NY", "zip": "11701-0900", "ntee": "N50", "ruling": "200101", "deductibility": "2", "assets": 0, "income": 0, "revenue": 0}, {"ein": "160852595", "name": "ST MARTINS LUTHERAN CHURCH", "city": "WEBSTER", "state": "NY", "zip": "14580-1645", "ntee": "", "ruling": "198804", "deductibility": "1", "assets": 0, "income": 0, "revenue": 0}, {"ein": "160968833", "name": "SAINT MARTINS LUTHERAN CHURCH", "city": "COLDEN", "state": "NY", "zip": "14033-0026", "ntee": "", "ruling": "194107", "deductibility": "1", "assets": 0, "income": 0, "revenue": 0}], "CART": [{"ein": "112972441", "name": "CARIBBEAN AMERICAN REPERTORY THEATRE CART", "city": "ST ALBANS", "state": "NY", "zip": "11412-2632", "ntee": "A99Z", "ruling": "199201", "deductibility": "1", "assets": 101346, "income": 100928, "revenue": 100928}], "KEHILAT": [{"ein": "113016030", "name": "KEHILAT SHAAREI TSHUVAH", "city": "FLUSHING", "state": "NY", "zip": "11367-2001", "ntee": "", "ruling": "199106", "deductibility": "0", "assets": 0, "income": 0, "revenue": 0}, {"ein": "113101774", "name": "KEHILAT SEPHARDIM OF AHAVAT ACHIM", "city": "FLUSHING", "state": "NY", "zip": "11367-3540", "ntee": "X30Z", "ruling": "199605", "deductibility": "1", "assets": 0, "income": 0, "revenue": 0}, {"ein": "113774106", "name": "KEHILAT ROMEMU", "city": "NEW YORK", "state": "NY", "zip": "10026-4366", "ntee": "X30", "ruling": "200611", "deductibility": "1", "assets": 0, "income": 0, "revenue": 0}, {"ein": "133188318", "name": "KEHILAT Y SHUA", "city": "BAY TERRACE", "state": "NY", "zip": "11360-4691", "ntee": "", "ruling": "198512", "deductibility": "1", "assets": 0, "income": 0, "revenue": 0}, {"ein": "133651009", "name": "KEHILAT ORACH ELIEZER", "city": "NEW YORK", "state": "NY", "zip": "10025-0000", "ntee": "X30", "ruling": "199901", "deductibility": "1", "assets": 0, "income": 0, "revenue": 0}, {"ein": "134183633", "name": "KEHILAT HADAR", "city": "NEW YORK", "state": "NY", "zip": "10025-0000", "ntee": "X30", "ruling": "202105", "deductibility": "1", "assets": 0, "income": 0, "revenue": 0}, {"ein": "461495687", "name": "KEHILAT MOSHE INC", "city": "BROOKLYN", "state": "NY", "zip": "11235-1910", "ntee": "X30", "ruling": "201401", "deductibility": "1", "assets": 0, "income": 0, "revenue": 0}, {"ein": "475312135", "name": "KEHILAT ZWEHIL INC", "city": "MONSEY", "state": "NY", "zip": "10952-2126", "ntee": "X30", "ruling": "201510", "deductibility": "1", "assets": 2376, "income": 83955, "revenue": 83955}, {"ein": "824128081", "name": "KEHILAT AHAVAT YISRAEL", "city": "W HEMPSTEAD", "state": "NY", "zip": "11552-0148", "ntee": "X30", "ruling": "202101", "deductibility": "1", "assets": 0, "income": 0, "revenue": 0}, {"ein": "830772886", "name": "KEHILAT DERECH YESHARA INC", "city": "BROOKLYN", "state": "NY", "zip": "11229-3505", "ntee": "X30", "ruling": "202107", "deductibility": "1", "assets": 21822, "income": 80443, "revenue": 80443}, {"ein": "933690735", "name": "KEHILAT AVODAT HASHEM OF FRESH MEADOWS INC", "city": "FRESH MEADOWS", "state": "NY", "zip": "11366-1425", "ntee": "S20", "ruling": "202311", "deductibility": "1", "assets": 0, "income": 0, "revenue": 0}, {"ein": "934844661", "name": "KEHILAT SHAARE SHALOM INC", "city": "WOODMERE", "state": "NY", "zip": "11598-1008", "ntee": "X30", "ruling": "202407", "deductibility": "1", "assets": 0, "income": 0, "revenue": 0}], "SECTARIAN": [{"ein": "113063101", "name": "NON-SECTARIAN CHURCH OF GOD INC", "city": "NEW YORK", "state": "NY", "zip": "10035-3018", "ntee": "X21", "ruling": "201807", "deductibility": "1", "assets": 0, "income": 0, "revenue": 0}], "YALDINY": [{"ein": "113081443", "name": "YALDINY INC", "city": "BROOKLYN", "state": "NY", "zip": "11210-3714", "ntee": "", "ruling": "199112", "deductibility": "1", "assets": 0, "income": 0, "revenue": 0}], "THIGH": [{"ein": "113150876", "name": "ZEUSS THIGH LTD", "city": "NEW YORK", "state": "NY", "zip": "10023-0031", "ntee": "A65", "ruling": "200408", "deductibility": "1", "assets": 7656, "income": 52230, "revenue": 52230}], "RENUEVO": [{"ein": "113169378", "name": "IGLESIA CRISTIANA EL RENUEVO INC", "city": "WOODSIDE", "state": "NY", "zip": "11377-2441", "ntee": "X21", "ruling": "200010", "deductibility": "1", "assets": 0, "income": 0, "revenue": 0}, {"ein": "464124045", "name": "MINISTERIO RENUEVO DE VIDA", "city": "BROOKLYN", "state": "NY", "zip": "11213-1700", "ntee": "X20", "ruling": "201601", "deductibility": "1", "assets": 0, "income": 0, "revenue": 0}], "HAKNESSETH": [{"ein": "113199799", "name": "BETH HAKNESSETH OHR HAMIZRACH CAUCASIAN JEWISH CONGREGATION", "city": "BROOKLYN", "state": "NY", "zip": "11218-4701", "ntee": "", "ruling": "199404", "deductibility": "1", "assets": 0, "income": 0, "revenue": 0}], "ROSES": [{"ein": "113244743", "name": "ST ROSES ALUMNI ASSOCIATION USA INC", "city": "BROOKLYN", "state": "NY", "zip": "11202-2321", "ntee": "B84J", "ruling": "199706", "deductibility": "1", "assets": 45224, "income": 80203, "revenue": 12873}, {"ein": "113639547", "name": "ROSES CARE AND SHARE OF RIVERHEAD", "city": "CALVERTON", "state": "NY", "zip": "11933-3052", "ntee": "P123", "ruling": "200601", "deductibility": "1", "assets": 0, "income": 0, "revenue": 0}, {"ein": "132935188", "name": "BREAD & ROSES CULTURAL PROJECT INC", "city": "NEW YORK", "state": "NY", "zip": "10018-6798", "ntee": "A200", "ruling": "197808", "deductibility": "1", "assets": 0, "income": 0, "revenue": 0}, {"ein": "202831174", "name": "BREAD AND ROSES COLLECTIVE HOUSE INC", "city": "SYRACUSE", "state": "NY", "zip": "13210-2206", "ntee": "L21", "ruling": "201407", "deductibility": "1", "assets": 385897, "income": 66523, "revenue": 66305}, {"ein": "332676473", "name": "CONCRETE ROSES FOUNDATION INC", "city": "BROOKLYN", "state": "NY", "zip": "11203-3410", "ntee": "O50", "ruling": "202501", "deductibility": "1", "assets": 0, "income": 0, "revenue": 0}, {"ein": "421689995", "name": "HOUSE OF THE ROSES VOLUNTEER DANCE COMPANY INC", "city": "NEW YORK", "state": "NY", "zip": "10150-0921", "ntee": "A62", "ruling": "200603", "deductibility": "1", "assets": 0, "income": 0, "revenue": 0}, {"ein": "450578506", "name": "SEVEN ROSES LEGACY FOUNDATION", "city": "BROOKLYN", "state": "NY", "zip": "11247-1785", "ntee": "P51", "ruling": "200803", "deductibility": "1", "assets": 0, "income": 0, "revenue": 0}, {"ein": "841731704", "name": "MY ROSES OF SHARON INC", "city": "STATEN ISLAND", "state": "NY", "zip": "10312-2123", "ntee": "X99", "ruling": "201911", "deductibility": "1", "assets": 0, "income": 0, "revenue": 0}, {"ein": "842302882", "name": "ALL ROSES UNITING INC", "city": "BUFFALO", "state": "NY", "zip": "14201-1985", "ntee": "P30", "ruling": "201907", "deductibility": "1", "assets": 0, "income": 0, "revenue": 0}, {"ein": "853521712", "name": "HOUSE OF ROSES IN THE DARK INC", "city": "BROOKLYN", "state": "NY", "zip": "11234-2005", "ntee": "A99", "ruling": "202103", "deductibility": "1", "assets": 0, "income": 0, "revenue": 0}, {"ein": "862017470", "name": "FROM CONCRETE TO ROSES CORPORATION", "city": "BROOKLYN", "state": "NY", "zip": "11226-2663", "ntee": "O30", "ruling": "202108", "deductibility": "1", "assets": 0, "income": 0, "revenue": 0}, {"ein": "863909734", "name": "100 ROSES FROM CONCRETE INC", "city": "NEW YORK", "state": "NY", "zip": "10040-1508", "ntee": "B90", "ruling": "202201", "deductibility": "1", "assets": 0, "income": 0, "revenue": 0}], "CRAFTSMENS": [{"ein": "113251383", "name": "SOUTH FORK CRAFTSMENS GUILD", "city": "WATER MILL", "state": "NY", "zip": "11976-2325", "ntee": "", "ruling": "199608", "deductibility": "2", "assets": 0, "income": 0, "revenue": 0}], "PAWLING": [{"ein": "113269257", "name": "LUTHERAN HOUSING DEVELOPMENT FUND CORPORATION OF PAWLING", "city": "SCARSDALE", "state": "NY", "zip": "10583-5012", "ntee": "L21", "ruling": "199605", "deductibility": "1", "assets": 3818380, "income": 880926, "revenue": 880926}, {"ein": "141601551", "name": "TRINITY-PAWLING SCHOOL CORPORATION", "city": "PAWLING", "state": "NY", "zip": "12564-1254", "ntee": "B200", "ruling": "197904", "deductibility": "1", "assets": 108626734, "income": 27687768, "revenue": 27540806}, {"ein": "141628848", "name": "PAWLING YOUTH HOCKEY INC", "city": "PAWLING", "state": "NY", "zip": "12564-0486", "ntee": "N68", "ruling": "201506", "deductibility": "1", "assets": 268000, "income": 232081, "revenue": 232081}, {"ein": "141712179", "name": "PAWLING CONCERT SERIES INC", "city": "PAWLING", "state": "NY", "zip": "12564-0163", "ntee": "A680", "ruling": "199310", "deductibility": "1", "assets": 290146, "income": 97761, "revenue": 97761}, {"ein": "141748758", "name": "PAWLING COMMUNITY FOUNDATION", "city": "PAWLING", "state": "NY", "zip": "12564-0657", "ntee": "", "ruling": "199207", "deductibility": "1", "assets": 86126, "income": 110336, "revenue": 0}, {"ein": "141748760", "name": "PAWLING CHAMBER OF COMMERCE", "city": "PAWLING", "state": "NY", "zip": "12564-0019", "ntee": "S41", "ruling": "200104", "deductibility": "2", "assets": 45979, "income": 34607, "revenue": 34607}, {"ein": "146020807", "name": "PAWLING FREE LIBRARY", "city": "PAWLING", "state": "NY", "zip": "12564-1002", "ntee": "B70", "ruling": "200012", "deductibility": "1", "assets": 1125942, "income": 685280, "revenue": 685280}, {"ein": "222658321", "name": "PAWLING TEACHERS ASSN BENEFIT TRUST FUND SIA", "city": "PAWLING", "state": "NY", "zip": "12564-1114", "ntee": "", "ruling": "000000", "deductibility": "0", "assets": 154882, "income": 274372, "revenue": 274372}, {"ein": "237154237", "name": "HISTORICAL SOCIETY OF QUAKER HILL AND PAWLING INC", "city": "PAWLING", "state": "NY", "zip": "12564-0099", "ntee": "", "ruling": "197212", "deductibility": "1", "assets": 300153, "income": 22100, "revenue": 22100}, {"ein": "264766967", "name": "PAWLING LACROSSE INC", "city": "PAWLING", "state": "NY", "zip": "12564-0831", "ntee": "N50", "ruling": "202312", "deductibility": "1", "assets": 0, "income": 0, "revenue": 0}, {"ein": "270380153", "name": "PAWLING FARMERS MARKET INC", "city": "PAWLING", "state": "NY", "zip": "12564-1833", "ntee": "S99", "ruling": "201109", "deductibility": "2", "assets": 0, "income": 0, "revenue": 0}, {"ein": "331767565", "name": "PAWLING COMMUNITY GARDEN INC", "city": "PAWLING", "state": "NY", "zip": "12564-0005", "ntee": "K99", "ruling": "202501", "deductibility": "1", "assets": 0, "income": 0, "revenue": 0}, {"ein": "521229751", "name": "PAWLING FIRE DEPARTMENT INC", "city": "PAWLING", "state": "NY", "zip": "12564-0132", "ntee": "", "ruling": "199203", "deductibility": "2", "assets": 903131, "income": 244762, "revenue": 244762}, {"ein": "824549727", "name": "CPC OF THE WMM-PAWLING NY -ONE INC", "city": "EAST ELMHURST", "state": "NY", "zip": "11369-1922", "ntee": "X20", "ruling": "201503", "deductibility": "1", "assets": 0, "income": 0, "revenue": 0}, {"ein": "841780120", "name": "PAWLING TIGERS ATHLETIC CLUB INC", "city": "HOLMES", "state": "NY", "zip": "12531-5428", "ntee": "O50", "ruling": "202301", "deductibility": "1", "assets": 0, "income": 0, "revenue": 0}, {"ein": "842506798", "name": "PAWLING YOGA AND WELLNESS", "city": "PAWLING", "state": "NY", "zip": "12564-0130", "ntee": "P20", "ruling": "201910", "deductibility": "1", "assets": 46979, "income": 153550, "revenue": 150387}], "BETWEEN": [{"ein": "113274916", "name": "THIRD STREET BLOCK ASSOCIATION- BETWEEN 7TH & 8TH AVENUES", "city": "BROOKLYN", "state": "NY", "zip": "11215-3001", "ntee": "L50", "ruling": "201110", "deductibility": "2", "assets": 0, "income": 0, "revenue": 0}, {"ein": "133810492", "name": "ELYSIUM BETWEEN TWO CONTINENTS INC", "city": "NEW YORK", "state": "NY", "zip": "10028-4319", "ntee": "Q210", "ruling": "199606", "deductibility": "1", "assets": 13829, "income": 146117, "revenue": 146117}, {"ein": "206435529", "name": "DECLARATION OF TRUST BY AND BETWEEN THE SOCIETY OF SAINT FRANCIS", "city": "MOUNT SINAI", "state": "NY", "zip": "11766-0389", "ntee": "X20", "ruling": "200605", "deductibility": "1", "assets": 0, "income": 0, "revenue": 0}, {"ein": "931522974", "name": "DREAM BETWEEN THE LINES", "city": "FARMINGVILLE", "state": "NY", "zip": "11738-1404", "ntee": "B90", "ruling": "202311", "deductibility": "1", "assets": 0, "income": 0, "revenue": 0}, {"ein": "932834459", "name": "BETWEEN RIVERS FOUNDATION INC", "city": "ASTORIA", "state": "NY", "zip": "11103-4711", "ntee": "W12", "ruling": "202311", "deductibility": "1", "assets": 0, "income": 0, "revenue": 0}], "STRINGER": [{"ein": "113288229", "name": "THE STRINGER FOUNDATION", "city": "NEW YORK", "state": "NY", "zip": "10016-4338", "ntee": "C99Z", "ruling": "199602", "deductibility": "1", "assets": 22629207, "income": 1200877, "revenue": 0}], "HONG": [{"ein": "113332971", "name": "HONG TEH TEMPLE CORPORATION", "city": "FLUSHING", "state": "NY", "zip": "11355-1329", "ntee": "X40Z", "ruling": "199610", "deductibility": "1", "assets": 0, "income": 0, "revenue": 0}, {"ein": "113513992", "name": "IL-KWAN-DO HONG-IN BUB BAN USA INC", "city": "FLUSHING", "state": "NY", "zip": "11358-2610", "ntee": "X50", "ruling": "200307", "deductibility": "1", "assets": 0, "income": 0, "revenue": 0}, {"ein": "133496835", "name": "HONG KONG TRADE DEVELOPMENT COUNCIL INC", "city": "NEW YORK", "state": "NY", "zip": "10017-2951", "ntee": "", "ruling": "199005", "deductibility": "2", "assets": 1262902, "income": 5549746, "revenue": 5549746}, {"ein": "133716785", "name": "HONG KONG DRAGON BOAT FESTIVAL IN NEW YORK INC", "city": "WHITESTONE", "state": "NY", "zip": "11357-3097", "ntee": "A230", "ruling": "199907", "deductibility": "1", "assets": 312204, "income": 721519, "revenue": 597385}, {"ein": "133755383", "name": "HONG KONG ASSOCIATION OF NEW YORK INC", "city": "NEW YORK", "state": "NY", "zip": "10022-4563", "ntee": "", "ruling": "199506", "deductibility": "2", "assets": 82571, "income": 89582, "revenue": 89582}, {"ein": "201782420", "name": "HONG KONG POLYTECHNIC UNIVERSITY EASTERN USA ASSOCIATION INC", "city": "BROOKLYN", "state": "NY", "zip": "11219-6287", "ntee": "N50", "ruling": "200611", "deductibility": "2", "assets": 0, "income": 0, "revenue": 0}, {"ein": "204900777", "name": "AMERICAN INTERNATIONAL BUDDHIST MASTER HONG YI RESEARCH CENTER INC", "city": "FLUSHING", "state": "NY", "zip": "11358-1517", "ntee": "X50", "ruling": "200610", "deductibility": "1", "assets": 0, "income": 0, "revenue": 0}, {"ein": "821751405", "name": "FU JIAN DO HONG ASSOCIATION INC", "city": "FLUSHING", "state": "NY", "zip": "11354-6549", "ntee": "C11", "ruling": "202301", "deductibility": "1", "assets": 0, "income": 0, "revenue": 0}, {"ein": "932248929", "name": "LO YANG HONG KONG KWAN TAI TONG CHARITY ASSOCIATION INC", "city": "STATEN ISLAND", "state": "NY", "zip": "10306-4146", "ntee": "X50", "ruling": "202312", "deductibility": "1", "assets": 0, "income": 0, "revenue": 0}, {"ein": "993136806", "name": "CHABAD OF KOWLOON-HONG KONG INC", "city": "BROOKLYN", "state": "NY", "zip": "11225-4795", "ntee": "X30", "ruling": "202412", "deductibility": "1", "assets": 0, "income": 0, "revenue": 0}], "ODED": [{"ein": "113346367", "name": "ALMANAH V YATOM YE ODED", "city": "MONSEY", "state": "NY", "zip": "10952-2501", "ntee": "X30Z", "ruling": "199707", "deductibility": "1", "assets": 0, "income": 0, "revenue": 0}, {"ein": "134135345", "name": "ODED HALAHMY FOUNDATION FOR THE ARTS INC", "city": "NEW YORK", "state": "NY", "zip": "10012-0000", "ntee": "A90", "ruling": "200202", "deductibility": "1", "assets": 0, "income": 346000, "revenue": 346000}, {"ein": "852827404", "name": "THE ODED PROJECT INC", "city": "BROOKLYN", "state": "NY", "zip": "11203-1002", "ntee": "S50", "ruling": "202111", "deductibility": "1", "assets": 0, "income": 0, "revenue": 0}], "GUITAR": [{"ein": "113352703", "name": "GUITAR AMONG OTHERS INC", "city": "BROOKLYN", "state": "NY", "zip": "11215-4833", "ntee": "A20", "ruling": "199903", "deductibility": "1", "assets": 0, "income": 0, "revenue": 0}, {"ein": "161568078", "name": "BUFFALO GUITAR SOCIETY INC", "city": "WILLIAMSVILLE", "state": "NY", "zip": "14221-1847", "ntee": "Y99", "ruling": "201409", "deductibility": "1", "assets": 0, "income": 0, "revenue": 0}, {"ein": "161608525", "name": "CLASSICAL GUITAR SOCIETY OF UPSTATE NEW YORK", "city": "OTEGO", "state": "NY", "zip": "13825-2180", "ntee": "A68", "ruling": "200312", "deductibility": "1", "assets": 0, "income": 0, "revenue": 0}, {"ein": "272985989", "name": "GREAT LAKES GUITAR SOCIETY INC", "city": "SYRACUSE", "state": "NY", "zip": "13210-2110", "ntee": "N11", "ruling": "202104", "deductibility": "1", "assets": 0, "income": 0, "revenue": 0}, {"ein": "300043455", "name": "NEW YORK CITY CLASSICAL GUITAR SOCIETY", "city": "NEW YORK", "state": "NY", "zip": "10033-4446", "ntee": "A6C", "ruling": "200407", "deductibility": "1", "assets": 0, "income": 0, "revenue": 0}, {"ein": "471208053", "name": "LONG ISLAND MANDOLIN AND GUITAR ORCHESTRA", "city": "DOUGLASTON", "state": "NY", "zip": "11362-1136", "ntee": "A6C", "ruling": "201503", "deductibility": "1", "assets": 0, "income": 0, "revenue": 0}, {"ein": "753157290", "name": "ELECTRIC GUITAR ARTS INC", "city": "ELMHURST", "state": "NY", "zip": "11373-3719", "ntee": "", "ruling": "200412", "deductibility": "1", "assets": 0, "income": 0, "revenue": 0}, {"ein": "994232279", "name": "CLASSICAL GUITAR SOCIETY OF BROOKLYN INC", "city": "BROOKLYN", "state": "NY", "zip": "11231-3697", "ntee": "A68", "ruling": "202409", "deductibility": "1", "assets": 0, "income": 0, "revenue": 0}], "CORMARIA": [{"ein": "113377557", "name": "CORMARIA RETREAT CENTER IN", "city": "SAG HARBOR", "state": "NY", "zip": "11963-0072", "ntee": "", "ruling": "194603", "deductibility": "1", "assets": 0, "income": 0, "revenue": 0}], "RITTEN": [{"ein": "113403089", "name": "LOVE CHURCH OF CHRIST RITTEN IN HEAVEN", "city": "BROOKLYN", "state": "NY", "zip": "11225-5044", "ntee": "X20Z", "ruling": "199805", "deductibility": "1", "assets": 0, "income": 0, "revenue": 0}], "INDIVIDUALS": [{"ein": "113457744", "name": "UNITING DISABLED INDIVIDUALS INC", "city": "RICHMOND HILL", "state": "NY", "zip": "11418-2759", "ntee": "P82", "ruling": "200103", "deductibility": "1", "assets": 16406, "income": 98507, "revenue": 98507}, {"ein": "113486874", "name": "ASCENT A SCHOOL FOR INDIVIDUALS WITH AUTISM", "city": "DEER PARK", "state": "NY", "zip": "11729-5780", "ntee": "B28", "ruling": "200004", "deductibility": "1", "assets": 2693711, "income": 2985493, "revenue": 1985493}, {"ein": "274000249", "name": "NATIONAL CONSORTIUM FOR PHYSICAL EDUCATION FOR INDIVIDUALS WITH DIS", "city": "CORTLAND", "state": "NY", "zip": "13045-0000", "ntee": "B90", "ruling": "201405", "deductibility": "1", "assets": 0, "income": 0, "revenue": 0}, {"ein": "800346030", "name": "TRAINING INDIVIDUALS MAKE BETTER ATTITUDES", "city": "BROOKLYN", "state": "NY", "zip": "11222-7597", "ntee": "J22", "ruling": "201304", "deductibility": "1", "assets": 0, "income": 0, "revenue": 0}, {"ein": "824126469", "name": "INDIVIDUALS MAKING POSITIVE ADVANCEMENTS IN THEIR COMMUNITIES", "city": "NEWBURGH", "state": "NY", "zip": "12550-4640", "ntee": "T40", "ruling": "201905", "deductibility": "1", "assets": 0, "income": 0, "revenue": 0}, {"ein": "871978433", "name": "L I F T LEADING INDIVIDUALS FROM TRAUMA INC", "city": "BROOKLYN", "state": "NY", "zip": "11206-3576", "ntee": "O20", "ruling": "202203", "deductibility": "1", "assets": 0, "income": 0, "revenue": 0}, {"ein": "872435284", "name": "PROUD RESPECTABLE INDIVIDUALS DETERMINED FOR EDUCATION INC", "city": "SAINT ALBANS", "state": "NY", "zip": "11412-3238", "ntee": "B01", "ruling": "202303", "deductibility": "1", "assets": 0, "income": 0, "revenue": 0}, {"ein": "992800243", "name": "LIBERATING INDIVIDUALS THROUGH LITERARY TEXT INC", "city": "ROCHESTER", "state": "NY", "zip": "14624-2494", "ntee": "B92", "ruling": "202406", "deductibility": "1", "assets": 0, "income": 0, "revenue": 0}], "SUNBEAMS": [{"ein": "113466459", "name": "SUNBEAMS INC", "city": "BELLMORE", "state": "NY", "zip": "11710-4050", "ntee": "P33", "ruling": "199905", "deductibility": "1", "assets": 0, "income": 0, "revenue": 0}], "HOLDER": [{"ein": "113570001", "name": "YI GUAN DAO FAYI CHUNGDE HOLDER CULTURAL AND EDUCATIONAL TEMPLE", "city": "FLUSHING", "state": "NY", "zip": "11355-4235", "ntee": "X50", "ruling": "200201", "deductibility": "1", "assets": 0, "income": 0, "revenue": 0}], "JUDA": [{"ein": "113576190", "name": "IGLESIA CRISTIANA FAMILIA DE JUDA", "city": "RICHMOND HILL", "state": "NY", "zip": "11418-2528", "ntee": "X21", "ruling": "200809", "deductibility": "1", "assets": 0, "income": 0, "revenue": 0}, {"ein": "133753771", "name": "CONGREGATION KOL JUDA", "city": "MONSEY", "state": "NY", "zip": "10952-2124", "ntee": "", "ruling": "199403", "deductibility": "1", "assets": 0, "income": 0, "revenue": 0}, {"ein": "270917147", "name": "IGLESIA DE JUDA MONTE DE SION INC", "city": "MELVILLE", "state": "NY", "zip": "11747-1132", "ntee": "X21", "ruling": "201503", "deductibility": "1", "assets": 0, "income": 67665, "revenue": 67665}, {"ein": "352666774", "name": "CONCILIO EVANGELICO PENTECOSTES LEON DE JUDA INC", "city": "BROOKLYN", "state": "NY", "zip": "11204-5266", "ntee": "X99", "ruling": "202505", "deductibility": "1", "assets": 0, "income": 0, "revenue": 0}, {"ein": "471490891", "name": "MINISTERIO EL LEON DE LA TRIBU DE JUDA INC", "city": "ROCHESTER", "state": "NY", "zip": "14621-4512", "ntee": "X21", "ruling": "201710", "deductibility": "1", "assets": 0, "income": 0, "revenue": 0}], "CHAKAL": [{"ein": "113634850", "name": "KOLLEL CHAKAL TZVI DSPINKA", "city": "BROOKLYN", "state": "NY", "zip": "11205-1641", "ntee": "X30", "ruling": "200201", "deductibility": "1", "assets": 0, "income": 0, "revenue": 0}, {"ein": "237391124", "name": "CONGREGATION CHAKAL YITZCHOK", "city": "BROOKLYN", "state": "NY", "zip": "11219-4617", "ntee": "", "ruling": "197408", "deductibility": "1", "assets": 0, "income": 0, "revenue": 0}], "LETINOK": [{"ein": "113634972", "name": "YAD MENACHEM LETINOK INC", "city": "NEW YORK", "state": "NY", "zip": "10033-2131", "ntee": "P60", "ruling": "200202", "deductibility": "1", "assets": 21501, "income": 133165, "revenue": 133165}], "NYSCC": [{"ein": "113835473", "name": "NYSCC TRANSCRIPTION PROGRAM FOR THE BLIND INC", "city": "STATEN ISLAND", "state": "NY", "zip": "10312-6404", "ntee": "P86", "ruling": "200902", "deductibility": "1", "assets": 15623, "income": 27952, "revenue": 27952}], "KRANKEN": [{"ein": "116014288", "name": "FOHRER UND AMRUMER KRANKEN UNTERSTUTZUNGS VEREIN VON NY", "city": "ROCKY POINT", "state": "NY", "zip": "11778-9585", "ntee": "", "ruling": "194806", "deductibility": "2", "assets": 0, "income": 0, "revenue": 0}], "INDIANS": [{"ein": "116042187", "name": "FLORAL PARK INDIANS ATHLETIC CLUB INC", "city": "FLORAL PARK", "state": "NY", "zip": "11002-0876", "ntee": "N42Z", "ruling": "196506", "deductibility": "1", "assets": 263174, "income": 376122, "revenue": 376122}, {"ein": "131535027", "name": "HUCKLEBERRY INDIANS INC", "city": "NEW YORK", "state": "NY", "zip": "10019-1562", "ntee": "", "ruling": "196909", "deductibility": "2", "assets": 147944, "income": 242797, "revenue": 242797}, {"ein": "161448788", "name": "SENECA NATION OF INDIANS ECONOMIC DEVELOPMENT COMPANY", "city": "SALAMANCA", "state": "NY", "zip": "14779-0437", "ntee": "S30", "ruling": "199501", "deductibility": "1", "assets": 0, "income": 0, "revenue": 0}, {"ein": "237192936", "name": "ASSOCIATION OF INDIANS IN AMERICA INC", "city": "OLD WESTBURY", "state": "NY", "zip": "11568-1312", "ntee": "P84Z", "ruling": "197301", "deductibility": "1", "assets": 971832, "income": 335272, "revenue": 335272}, {"ein": "260535525", "name": "INDIANS ROCK COMMUNITY FOUNDATION INC", "city": "MANHASSET", "state": "NY", "zip": "11030-8067", "ntee": "B11", "ruling": "200712", "deductibility": "1", "assets": 9060, "income": 1, "revenue": 1}, {"ein": "872078087", "name": "MONTAUK TRIBE OF INDIANS FUND INC", "city": "AMITYVILLE", "state": "NY", "zip": "11701-0236", "ntee": "I12", "ruling": "202203", "deductibility": "1", "assets": 3991, "income": 949, "revenue": 949}], "WAINWRIGHT": [{"ein": "131624069", "name": "WAINWRIGHT HOUSE INC", "city": "RYE", "state": "NY", "zip": "10580-3115", "ntee": "P500", "ruling": "194702", "deductibility": "1", "assets": 1082035, "income": 574784, "revenue": 574784}], "HUS": [{"ein": "131635255", "name": "JAN HUS PRESBYTERIAN CHURCH", "city": "NEW YORK", "state": "NY", "zip": "10128-5202", "ntee": "", "ruling": "196401", "deductibility": "1", "assets": 0, "income": 0, "revenue": 0}, {"ein": "237334430", "name": "JOHN HUS MORAVIAN CHURCH SCHOOL", "city": "BROOKLYN", "state": "NY", "zip": "11225-4701", "ntee": "", "ruling": "196412", "deductibility": "1", "assets": 0, "income": 0, "revenue": 0}, {"ein": "431934565", "name": "FOUNDATION FOR CHILDREN WITH ATYPICAL HUS", "city": "PENFIELD", "state": "NY", "zip": "14526-0775", "ntee": "G128", "ruling": "200108", "deductibility": "1", "assets": 127228, "income": 115370, "revenue": 0}], "GREN": [{"ein": "131813827", "name": "WENNER-GREN FOUNDATION FOR ANTHROPOLOGICAL RESEARCH INC", "city": "NEW YORK", "state": "NY", "zip": "10017-9136", "ntee": "", "ruling": "194107", "deductibility": "1", "assets": 204451756, "income": 20898202, "revenue": 0}], "RESOLUTION": [{"ein": "132733101", "name": "INSTITUTE FOR MEDIATION AND CONFLICT RESOLUTION INC", "city": "BEONX", "state": "NY", "zip": "10455-4041", "ntee": "I51Z", "ruling": "197212", "deductibility": "1", "assets": 326316, "income": 581725, "revenue": 581725}, {"ein": "132885302", "name": "INTERNATIONAL INSTITUTE FOR CONFLICT PREVENTION AND RESOLUTION", "city": "NEW YORK", "state": "NY", "zip": "10016-5337", "ntee": "", "ruling": "197704", "deductibility": "1", "assets": 5952649, "income": 3373780, "revenue": 3146364}, {"ein": "141639590", "name": "DISPUTE RESOLUTION CENTER INC", "city": "MIDDLETOWN", "state": "NY", "zip": "10940-4038", "ntee": "I5AZ", "ruling": "198405", "deductibility": "1", "assets": 565694, "income": 937303, "revenue": 937303}, {"ein": "141756034", "name": "COMMON GROUND DISPUTE RESOLUTION INC", "city": "CATSKILL", "state": "NY", "zip": "12414-1497", "ntee": "Z99Z", "ruling": "199302", "deductibility": "1", "assets": 150077, "income": 222738, "revenue": 222738}, {"ein": "161182234", "name": "ACCORD A CENTER FOR DISPUTE RESOLUTION INC", "city": "BINGHAMTON", "state": "NY", "zip": "13901-2321", "ntee": "I51Z", "ruling": "198305", "deductibility": "1", "assets": 100174, "income": 516158, "revenue": 497384}, {"ein": "161246354", "name": "NORTHERN NEW YORK CENTERS FOR CONFLICT RESOLUTION INC", "city": "CLAYTON", "state": "NY", "zip": "13624-0184", "ntee": "", "ruling": "199407", "deductibility": "1", "assets": 0, "income": 0, "revenue": 0}, {"ein": "161266087", "name": "NEW YORK STATE DISPUTE RESOLUTION ASSOCIATION INC", "city": "ALBANY", "state": "NY", "zip": "12203-7904", "ntee": "", "ruling": "199008", "deductibility": "0", "assets": 472521, "income": 946142, "revenue": 946142}, {"ein": "161393828", "name": "RESOLUTION CENTER OF JEFFERSON AND LEWIS COUNTIES INC", "city": "WATERTOWN", "state": "NY", "zip": "13601-4084", "ntee": "I51Z", "ruling": "199202", "deductibility": "1", "assets": 364177, "income": 321362, "revenue": 312427}, {"ein": "204478038", "name": "HUDSON VALLEY COLLABORATIVE DIVORCE AND DISPUTE RESOLUTION ASSOCIATIO", "city": "WAPPINGERS FL", "state": "NY", "zip": "12590-1401", "ntee": "S41", "ruling": "201203", "deductibility": "2", "assets": 0, "income": 0, "revenue": 0}, {"ein": "222330747", "name": "NEW JUSTICE CONFLICT RESOLUTION SERVICES INC", "city": "SYRACUSE", "state": "NY", "zip": "13204-1414", "ntee": "", "ruling": "198104", "deductibility": "1", "assets": 582744, "income": 643322, "revenue": 643322}, {"ein": "223093783", "name": "COMMUNITY DISPUTE RESOLUTION CENTER", "city": "ITHACA", "state": "NY", "zip": "14850-5566", "ntee": "S80Z", "ruling": "199107", "deductibility": "1", "assets": 406947, "income": 392888, "revenue": 392888}, {"ein": "264394051", "name": "RESOLUTION PROJECT INC", "city": "NEW YORK", "state": "NY", "zip": "10017-6595", "ntee": "S12", "ruling": "200910", "deductibility": "1", "assets": 709369, "income": 2735553, "revenue": 2684748}, {"ein": "462736440", "name": "EMPIRICAL RESOLUTION INC", "city": "NEW YORK", "state": "NY", "zip": "10003-4602", "ntee": "B80", "ruling": "201411", "deductibility": "1", "assets": 8839719, "income": 4364704, "revenue": 4364704}, {"ein": "462744492", "name": "DISPUTE RESOLUTION INSTITUTE OF NEW YORK INC", "city": "WESTBURY", "state": "NY", "zip": "11590-5732", "ntee": "I51", "ruling": "201408", "deductibility": "1", "assets": 0, "income": 0, "revenue": 0}, {"ein": "471442997", "name": "MEDICAL DEBT RESOLUTION INC", "city": "LONG ISLAND CITY", "state": "NY", "zip": "11101-3459", "ntee": "P50", "ruling": "201605", "deductibility": "1", "assets": 95897379, "income": 132520591, "revenue": 28294801}, {"ein": "810582070", "name": "ORGANIZATION FOR THE RESOLUTION OF AGUNOT INC", "city": "NEW YORK", "state": "NY", "zip": "10033-5002", "ntee": "I51", "ruling": "200403", "deductibility": "1", "assets": 400085, "income": 1043732, "revenue": 1043732}, {"ein": "823476962", "name": "PRIME FINANCE DISPUTE RESOLUTION AND EDUCATION FOUNDATION", "city": "NEW YORK", "state": "NY", "zip": "10022-5908", "ntee": "I51", "ruling": "201805", "deductibility": "1", "assets": 10575, "income": 140848, "revenue": 140848}, {"ein": "861061872", "name": "ASSOCIATION FOR CONFLICT RESOLUTION", "city": "NEW YORK", "state": "NY", "zip": "10028-0017", "ntee": "", "ruling": "198602", "deductibility": "2", "assets": 0, "income": 0, "revenue": 0}, {"ein": "863943366", "name": "MUSLIM CENTER FOR DISPUTE RESOLUTION INC", "city": "NEW YORK", "state": "NY", "zip": "10177-0799", "ntee": "I51", "ruling": "202109", "deductibility": "1", "assets": 0, "income": 0, "revenue": 0}, {"ein": "871393979", "name": "HAVOAS SHALOM DISPUTE RESOLUTION CENTER INC", "city": "BROOKLYN", "state": "NY", "zip": "11229-2403", "ntee": "R01", "ruling": "202505", "deductibility": "1", "assets": 0, "income": 0, "revenue": 0}], "DEAL": [{"ein": "133133363", "name": "NEW DEAL LODGE INC", "city": "BROOKLYN", "state": "NY", "zip": "11233-0050", "ntee": "Y43", "ruling": "201304", "deductibility": "1", "assets": 1406070, "income": 71223, "revenue": 45167}, {"ein": "150542489", "name": "SQUARE DEAL HOME OWNERS INC", "city": "ENDICOTT", "state": "NY", "zip": "13760-4022", "ntee": "", "ruling": "195206", "deductibility": "2", "assets": 150716, "income": 95262, "revenue": 58817}, {"ein": "161193810", "name": "SQUARE DEAL SPORTSMENT INC", "city": "ENDICOTT", "state": "NY", "zip": "13763-5572", "ntee": "N61", "ruling": "200704", "deductibility": "2", "assets": 122904, "income": 25339, "revenue": 25339}, {"ein": "161427846", "name": "SQUARE DEAL RIDERS MOTORCYCLE CLUB INC", "city": "BINGHAMTON", "state": "NY", "zip": "13904-1536", "ntee": "", "ruling": "199408", "deductibility": "2", "assets": 173184, "income": 73510, "revenue": 69010}, {"ein": "823093029", "name": "THE NEW DEAL CREATIVE ARTS CENTER INC", "city": "HYDE PARK", "state": "NY", "zip": "12538-0168", "ntee": "A20", "ruling": "201801", "deductibility": "1", "assets": 62383, "income": 51535, "revenue": 51535}], "MARKETING": [{"ein": "133317994", "name": "HOSPITALITY SALES & MARKETING ASSOCIATION INTERNATIONAL INC", "city": "BRIARCLIFF", "state": "NY", "zip": "10510-1736", "ntee": "", "ruling": "198503", "deductibility": "2", "assets": 34832, "income": 98794, "revenue": 98794}, {"ein": "133373593", "name": "SOCIETY FOR MARKETING PROFESSIONAL SERVICES", "city": "NEW YORK", "state": "NY", "zip": "10274-0077", "ntee": "", "ruling": "199105", "deductibility": "2", "assets": 171757, "income": 71942, "revenue": 71942}, {"ein": "133437471", "name": "RETAIL MARKETING SOCIETY", "city": "HARTSDALE", "state": "NY", "zip": "10530-2602", "ntee": "", "ruling": "198807", "deductibility": "0", "assets": 0, "income": 0, "revenue": 0}, {"ein": "141767866", "name": "AMERICAN MARKETING ASSOCIATION INC", "city": "ALBANY", "state": "NY", "zip": "12212-3192", "ntee": "", "ruling": "199207", "deductibility": "1", "assets": 209958, "income": 20803, "revenue": 20803}, {"ein": "161218035", "name": "CENTRAL NEW YORK SALES AND MARKETING EXECUTIVES INC", "city": "SYRACUSE", "state": "NY", "zip": "13220-5334", "ntee": "", "ruling": "198607", "deductibility": "2", "assets": 12726, "income": 70461, "revenue": 70461}, {"ein": "200421674", "name": "NEW YORK CITY MARKETING DEVELOPMENT CORPORATION", "city": "NEW YORK", "state": "NY", "zip": "10019-0000", "ntee": "W99", "ruling": "200409", "deductibility": "1", "assets": 0, "income": 0, "revenue": 0}, {"ein": "203940519", "name": "CANAL NEW YORK MARKETING AND BUSINESS ALLIANCE INC", "city": "SKANEATELES", "state": "NY", "zip": "13152-1252", "ntee": "R20", "ruling": "200705", "deductibility": "2", "assets": 6882, "income": 8115, "revenue": 8115}, {"ein": "222423934", "name": "THE DIRECT MARKETING CLUB OF NEW YORK INC", "city": "NEW YORK", "state": "NY", "zip": "10116-8470", "ntee": "B99", "ruling": "199505", "deductibility": "1", "assets": 73663, "income": 131152, "revenue": 131152}, {"ein": "222427019", "name": "SOCIETY FOR MARKETING PROFESSIONAL SERVICES", "city": "LATHAM", "state": "NY", "zip": "12110-0000", "ntee": "", "ruling": "198805", "deductibility": "2", "assets": 0, "income": 0, "revenue": 0}, {"ein": "222532410", "name": "AMERICAN MARKETING ASSOCIATION INC", "city": "ROCHESTER", "state": "NY", "zip": "14607-1325", "ntee": "", "ruling": "199207", "deductibility": "1", "assets": 75376, "income": 22662, "revenue": 22662}, {"ein": "237335595", "name": "AMERICAN MARKETING ASSOCIATION NEW YORK CHAPTER INC", "city": "NEW YORK", "state": "NY", "zip": "10001-7607", "ntee": "", "ruling": "196609", "deductibility": "2", "assets": 783890, "income": 92415, "revenue": 92415}, {"ein": "262290975", "name": "SOCIAL MARKETING INC", "city": "NEWBURGH", "state": "NY", "zip": "12550-3606", "ntee": "E70", "ruling": "200808", "deductibility": "1", "assets": 0, "income": 0, "revenue": 0}, {"ein": "264129509", "name": "BUSINESS & MARKETING EDUCATORS ASSOCIATION OF THE CAPITAL DISTRIC", "city": "LATHAM", "state": "NY", "zip": "12110-4622", "ntee": "B03", "ruling": "202311", "deductibility": "1", "assets": 3123, "income": 6450, "revenue": 6450}, {"ein": "453867018", "name": "WOSA EXPORT MARKETING LTD", "city": "GARDEN CITY", "state": "NY", "zip": "11530-1708", "ntee": "S41", "ruling": "201602", "deductibility": "2", "assets": 33406, "income": 282317, "revenue": 282317}, {"ein": "464228857", "name": "PUBLIC AFFAIRS & MARKETING NETWORK", "city": "BUFFALO", "state": "NY", "zip": "14263-0001", "ntee": "S41", "ruling": "201810", "deductibility": "2", "assets": 367620, "income": 30790, "revenue": 30790}, {"ein": "465048341", "name": "DESTINATION MARKETING CORPORATION FOR OTSEGO COUNTY", "city": "COOPERSTOWN", "state": "NY", "zip": "13326-1066", "ntee": "S41", "ruling": "201409", "deductibility": "2", "assets": 404946, "income": 1314818, "revenue": 1314818}, {"ein": "680647076", "name": "GLOBAL ASSET MANAGEMENT MARKETING ASSOCIATION", "city": "RYE BROOK", "state": "NY", "zip": "10573-2837", "ntee": "S46", "ruling": "200903", "deductibility": "2", "assets": 66615, "income": 17855, "revenue": 17855}, {"ein": "753090966", "name": "FINGER LAKES WINE COUNTRY TOURISM MARKETING ASSOCIATION INC", "city": "CORNING", "state": "NY", "zip": "14830-2680", "ntee": "S41", "ruling": "200408", "deductibility": "2", "assets": 375517, "income": 787351, "revenue": 787351}], "SUICIDE": [{"ein": "133393329", "name": "AMERICAN FOUNDATION FOR SUICIDE PREVENTION", "city": "NEW YORK", "state": "NY", "zip": "10038-3589", "ntee": "F110", "ruling": "199111", "deductibility": "1", "assets": 93817255, "income": 51459731, "revenue": 44650754}, {"ein": "160956222", "name": "SUICIDE PREVENTION AND CRISIS SERVICE INC", "city": "BUFFALO", "state": "NY", "zip": "14207-2163", "ntee": "F41Z", "ruling": "197105", "deductibility": "1", "assets": 5962351, "income": 7727142, "revenue": 7727142}, {"ein": "160992587", "name": "SUICIDE PREVENTION AND CRISIS SERVICE OF TOMPKINS COUNTY INC", "city": "ITHACA", "state": "NY", "zip": "14850-4234", "ntee": "", "ruling": "197005", "deductibility": "1", "assets": 304580, "income": 857032, "revenue": 857032}, {"ein": "161272094", "name": "SUICIDE PREVENTION FOUNDATION INC", "city": "ITHACA", "state": "NY", "zip": "14851-6434", "ntee": "F41Z", "ruling": "198702", "deductibility": "1", "assets": 491991, "income": 136570, "revenue": 38211}, {"ein": "813661949", "name": "DEREK MARK KINGDESKI FOUNDATION FOR SUICIDE PREVENTION & AWARENESS IN", "city": "BALDWINSVILLE", "state": "NY", "zip": "13027-8740", "ntee": "F40", "ruling": "201706", "deductibility": "1", "assets": 0, "income": 0, "revenue": 0}, {"ein": "830459789", "name": "SUICIDE PREVENTION INTERNATIONAL", "city": "NEW YORK", "state": "NY", "zip": "10028-1030", "ntee": "F30", "ruling": "200609", "deductibility": "1", "assets": 68903, "income": 9692, "revenue": 9692}, {"ein": "842777858", "name": "VETERANS SUICIDE AWARENESS & REMEMBRANCE FLAG CORP", "city": "HUNTINGTN STA", "state": "NY", "zip": "11746-9247", "ntee": "F01", "ruling": "202201", "deductibility": "1", "assets": 13565, "income": 21078, "revenue": 21078}, {"ein": "992665391", "name": "RIDE AGAINST SUICIDE NY LTD", "city": "WEBSTER", "state": "NY", "zip": "14580-1649", "ntee": "F12", "ruling": "202405", "deductibility": "1", "assets": 0, "income": 0, "revenue": 0}], "MALKO": [{"ein": "133435183", "name": "THE NICOLAI MALKO FOUNDATION INC", "city": "NEW YORK", "state": "NY", "zip": "10024-4739", "ntee": "", "ruling": "198801", "deductibility": "1", "assets": 0, "income": 0, "revenue": 0}], "TRANSPLANTATION": [{"ein": "133510056", "name": "NEW YORK CENTER FOR LIVER TRANSPLANTATION INC", "city": "TROY", "state": "NY", "zip": "12180-8394", "ntee": "", "ruling": "198908", "deductibility": "1", "assets": 612463, "income": 677797, "revenue": 677797}, {"ein": "823200901", "name": "NEW YORK CENTER FOR KIDNEY TRANSPLANTATION", "city": "LAKE GROVE", "state": "NY", "zip": "11755-0333", "ntee": "E01", "ruling": "201808", "deductibility": "1", "assets": 47077, "income": 155113, "revenue": 155113}], "NYSD": [{"ein": "133581374", "name": "NYSD HOUSING DEVELOPMENT FUND COMPANY INC", "city": "NEW YORK", "state": "NY", "zip": "10016-9306", "ntee": "P80Z", "ruling": "199011", "deductibility": "1", "assets": 3871467, "income": 1229863, "revenue": 1229863}, {"ein": "133807673", "name": "NYSD ROMBOUTS HOUSING DEVELOPMENT FUND COMPANY INC", "city": "NEW YORK", "state": "NY", "zip": "10016-9306", "ntee": "L99", "ruling": "199605", "deductibility": "1", "assets": 2341639, "income": 1069711, "revenue": 1069711}, {"ein": "133985586", "name": "NYSD FORSYTH HOUSING DEVELOPMENT FUND COMPANY INC", "city": "NEW YORK", "state": "NY", "zip": "10016-9306", "ntee": "L22", "ruling": "199809", "deductibility": "1", "assets": 3610888, "income": 1194716, "revenue": 1194716}], "VNSW": [{"ein": "133634734", "name": "HOSPICE-VNSW WPHC INC", "city": "WHITE PLAINS", "state": "NY", "zip": "10604-3508", "ntee": "Z99Z", "ruling": "199206", "deductibility": "1", "assets": 7366382, "income": 8590212, "revenue": 7847855}, {"ein": "475633860", "name": "VNSW FOUNDATION INC", "city": "WHITE PLAINS", "state": "NY", "zip": "10605-5225", "ntee": "E12", "ruling": "201605", "deductibility": "1", "assets": 20761758, "income": 4069215, "revenue": 1274090}], "BONE": [{"ein": "133674198", "name": "BONE MARROW AND CANCER FOUNDATION INC", "city": "NEW YORK", "state": "NY", "zip": "10022-5456", "ntee": "E20Z", "ruling": "199301", "deductibility": "1", "assets": 2001296, "income": 2069047, "revenue": 1612410}, {"ein": "462951063", "name": "BONE MARROW REGISTRY IN NIGERIA INC", "city": "NEW YORK", "state": "NY", "zip": "10022-5456", "ntee": "E99", "ruling": "201409", "deductibility": "1", "assets": 0, "income": 0, "revenue": 0}], "ABINGDON": [{"ein": "133741268", "name": "ABINGDON THEATRE COMPANY", "city": "NEW YORK", "state": "NY", "zip": "11106-0000", "ntee": "A65", "ruling": "199404", "deductibility": "1", "assets": 467588, "income": 572828, "revenue": 572828}, {"ein": "136182955", "name": "ABINGDON SQUARE PAINTERS INC", "city": "LONG ISLAND CITY", "state": "NY", "zip": "11101-5000", "ntee": "", "ruling": "197901", "deductibility": "1", "assets": 71401, "income": 0, "revenue": 0}, {"ein": "800242514", "name": "ABINGDON SQUARE ALLIANCE", "city": "NEW YORK", "state": "NY", "zip": "10014-7906", "ntee": "N32", "ruling": "201406", "deductibility": "1", "assets": 340558, "income": 158815, "revenue": 157025}], "KOCHEV": [{"ein": "133804491", "name": "CONGRGATION KOCHEV YITZCHOK D BOBOV", "city": "MONSEY", "state": "NY", "zip": "10952-2121", "ntee": "X99Z", "ruling": "199505", "deductibility": "1", "assets": 0, "income": 0, "revenue": 0}], "SALLIE": [{"ein": "133842759", "name": "SALLIE FOUNDATION INC", "city": "PURCHASE", "state": "NY", "zip": "10577-2614", "ntee": "J99Z", "ruling": "199510", "deductibility": "1", "assets": 215286, "income": 33139, "revenue": 0}, {"ein": "831304232", "name": "SALLIE & WILLIAM STEPHENS GROUP INC", "city": "BROOKLYN", "state": "NY", "zip": "11201-3959", "ntee": "O50", "ruling": "201902", "deductibility": "1", "assets": 3163, "income": 3370, "revenue": 0}], "KIANG": [{"ein": "133869851", "name": "SAN KIANG YOUTH SCHOLARSHIP INC", "city": "NEW YORK", "state": "NY", "zip": "10002-6707", "ntee": "B82", "ruling": "200512", "deductibility": "1", "assets": 257601, "income": 13500, "revenue": 13500}, {"ein": "135513175", "name": "SAN KIANG CHARITABLE ASSN INC", "city": "NEW YORK", "state": "NY", "zip": "10002-6707", "ntee": "", "ruling": "194906", "deductibility": "1", "assets": 2095634, "income": 243797, "revenue": 0}], "KINGDON": [{"ein": "133948023", "name": "MARK AND ANLA CHENG KINGDON FUND", "city": "NEW YORK", "state": "NY", "zip": "10019-3480", "ntee": "T21Z", "ruling": "199801", "deductibility": "1", "assets": 196913000, "income": 18432230, "revenue": 0}], "CAFH": [{"ein": "133949840", "name": "CAFH ORDER AT YORKTOWN INC", "city": "YORKTOWN HTS", "state": "NY", "zip": "10598-4010", "ntee": "X20Z", "ruling": "199709", "deductibility": "1", "assets": 0, "income": 0, "revenue": 0}, {"ein": "222451679", "name": "CAFH ORDER AT TIVOLI INC", "city": "TIVOLI", "state": "NY", "zip": "12583-0000", "ntee": "", "ruling": "198403", "deductibility": "1", "assets": 0, "income": 0, "revenue": 0}, {"ein": "237125962", "name": "CAFH FOUNDATION INC", "city": "REGO PARK", "state": "NY", "zip": "11374-3127", "ntee": "", "ruling": "197109", "deductibility": "1", "assets": 4880517, "income": 530683, "revenue": 410131}], "ATELIER": [{"ein": "133952075", "name": "EYEBEAM ATELIER INC", "city": "NEW YORK", "state": "NY", "zip": "10012-3396", "ntee": "J22Z", "ruling": "199710", "deductibility": "1", "assets": 1674027, "income": 1455741, "revenue": 1455741}, {"ein": "454937139", "name": "HARRISON ATELIER FOUNDATION", "city": "BROOKLYN", "state": "NY", "zip": "11222-3765", "ntee": "A99", "ruling": "201211", "deductibility": "1", "assets": 57891, "income": 1460, "revenue": 0}, {"ein": "463993047", "name": "GRAND CENTRAL ATELIER INC", "city": "RIDGEWOOD", "state": "NY", "zip": "11385-5739", "ntee": "A25", "ruling": "201403", "deductibility": "1", "assets": 2378396, "income": 1889172, "revenue": 1889172}, {"ein": "475310461", "name": "L ATELIER THEATRE NY INC", "city": "BRONX", "state": "NY", "zip": "10454-2503", "ntee": "A65", "ruling": "201604", "deductibility": "1", "assets": 18902, "income": 109543, "revenue": 109543}, {"ein": "812089198", "name": "THE ATELIER AT FLOWERFIELD INC", "city": "MELVILLE", "state": "NY", "zip": "11747-3600", "ntee": "A25", "ruling": "201610", "deductibility": "1", "assets": 559311, "income": 528559, "revenue": 528559}, {"ein": "991028494", "name": "ATELIER 17 PROJECT", "city": "NEW YORK", "state": "NY", "zip": "10025-1531", "ntee": "A25", "ruling": "202402", "deductibility": "1", "assets": 0, "income": 0, "revenue": 0}, {"ein": "993582717", "name": "REFUGEE ATELIER INC", "city": "BROOKLYN", "state": "NY", "zip": "11215-7609", "ntee": "J20", "ruling": "202505", "deductibility": "1", "assets": 0, "income": 0, "revenue": 0}], "AIRPLANE": [{"ein": "133963936", "name": "BLACK DIRT SQUADRON MODEL AIRPLANE CLUB INC", "city": "FLORIDA", "state": "NY", "zip": "10921-0101", "ntee": "", "ruling": "199710", "deductibility": "2", "assets": 0, "income": 0, "revenue": 0}], "TILTS": [{"ein": "135419681", "name": "LATVIAN CULTURAL ASSOCIATION TILTS INC", "city": "POUGHKEEPSIE", "state": "NY", "zip": "12603-3214", "ntee": "A60Z", "ruling": "199008", "deductibility": "1", "assets": 85676, "income": 68239, "revenue": 68239}], "CULLMAN": [{"ein": "136100041", "name": "LOUISE B AND EDGAR M CULLMAN FOUNDATION", "city": "NEW YORK", "state": "NY", "zip": "10022-4599", "ntee": "", "ruling": "195708", "deductibility": "1", "assets": 1695471, "income": 111706, "revenue": 0}, {"ein": "223125039", "name": "DOROTHY AND LEWIS B CULLMAN CHILD DEVELOPMENT CENTER INC", "city": "SIDNEY", "state": "NY", "zip": "13838-1024", "ntee": "P33Z", "ruling": "199512", "deductibility": "1", "assets": 4647035, "income": 2028908, "revenue": 2017710}], "SARITA": [{"ein": "136116447", "name": "SARITA KENEDY EAST FOUNDATION INC", "city": "MOUNT KISCO", "state": "NY", "zip": "10549-1321", "ntee": "", "ruling": "195112", "deductibility": "1", "assets": 21508793, "income": 17495832, "revenue": 0}, {"ein": "874090366", "name": "SARITA JAMES AND VISHAL GARG FOUNDATION INC", "city": "NEW YORK", "state": "NY", "zip": "10007-0042", "ntee": "T20", "ruling": "202206", "deductibility": "1", "assets": 149925, "income": 125000, "revenue": 0}], "SETTERS": [{"ein": "136121373", "name": "STONE SETTERS VACATION FUND 84", "city": "NEW YORK", "state": "NY", "zip": "10018-3726", "ntee": "", "ruling": "196601", "deductibility": "2", "assets": 573928, "income": 1756725, "revenue": 1756725}, {"ein": "200802803", "name": "STONE SETTERS LABOR-MANAGEMENT COMMITTEE", "city": "LONGISLAND CITY", "state": "NY", "zip": "11101-4351", "ntee": "J40", "ruling": "201302", "deductibility": "2", "assets": 0, "income": 0, "revenue": 0}], "JOPHED": [{"ein": "136147801", "name": "JOPHED THOMAS FOUNDATION", "city": "NEW YORK", "state": "NY", "zip": "10075-0569", "ntee": "", "ruling": "196105", "deductibility": "1", "assets": 365739, "income": 64926, "revenue": 0}], "GRUMBACHER": [{"ein": "136161277", "name": "STANLEY AND KATHLEEN GRUMBACHER FOUNDATION INC", "city": "NEW YORK", "state": "NY", "zip": "10075-1811", "ntee": "", "ruling": "195710", "deductibility": "1", "assets": 1890567, "income": 809260, "revenue": 0}], "EQUAL": [{"ein": "136274541", "name": "EQUAL EMPLOYMENT COUNCIL INC", "city": "NEW YORK", "state": "NY", "zip": "10013-1658", "ntee": "", "ruling": "196807", "deductibility": "1", "assets": 0, "income": 0, "revenue": 0}, {"ein": "166061434", "name": "HOUSING OPPORTUNITIES MADE EQUAL INC", "city": "BUFFALO", "state": "NY", "zip": "14209-1500", "ntee": "L20Z", "ruling": "196508", "deductibility": "1", "assets": 1896035, "income": 2040725, "revenue": 2013598}, {"ein": "166095039", "name": "PEOPLES EQUAL ACTION AND COMMUNITY EFFORT INC", "city": "SYRACUSE", "state": "NY", "zip": "13202-1370", "ntee": "P200", "ruling": "197112", "deductibility": "1", "assets": 10495767, "income": 25178196, "revenue": 25147339}, {"ein": "261316408", "name": "EQUAL JUSTICE USA INC", "city": "BROOKLYN", "state": "NY", "zip": "11201-4405", "ntee": "R600", "ruling": "200803", "deductibility": "1", "assets": 7763471, "income": 5359472, "revenue": 5359472}, {"ein": "451257384", "name": "EQUAL PROTECTION FOUNDATION", "city": "NEW YORK", "state": "NY", "zip": "10028-0936", "ntee": "P20", "ruling": "201407", "deductibility": "1", "assets": 0, "income": 0, "revenue": 0}, {"ein": "472028530", "name": "BORN EQUAL INC", "city": "NEW YORK", "state": "NY", "zip": "10024-5708", "ntee": "B01", "ruling": "201505", "deductibility": "1", "assets": 0, "income": 0, "revenue": 0}, {"ein": "800622166", "name": "EQUAL HOUSING DEVELOPMENT FUND CORPORATION", "city": "UTICA", "state": "NY", "zip": "13501-2450", "ntee": "L21", "ruling": "201008", "deductibility": "1", "assets": 0, "income": 0, "revenue": 0}, {"ein": "812001459", "name": "ENDERS PROJECT EQUAL ACCESS INC", "city": "NEW YORK", "state": "NY", "zip": "10001-5159", "ntee": "O50", "ruling": "201705", "deductibility": "1", "assets": 39332, "income": 57211, "revenue": 55058}, {"ein": "820758296", "name": "EQUAL RIGHTS FOUNDATION INC", "city": "NEW YORK", "state": "NY", "zip": "10014-4271", "ntee": "R22", "ruling": "201711", "deductibility": "1", "assets": 1, "income": 0, "revenue": 0}, {"ein": "822709135", "name": "THINK EQUAL USA INC", "city": "NEW YORK", "state": "NY", "zip": "10024-3923", "ntee": "O54", "ruling": "201807", "deductibility": "1", "assets": 1631989, "income": 1680818, "revenue": 1680818}, {"ein": "863729106", "name": "EQUAL RENTAL CHARITY INC", "city": "FLUSHING", "state": "NY", "zip": "11354-3444", "ntee": "W99", "ruling": "202109", "deductibility": "1", "assets": 334, "income": 57, "revenue": 57}, {"ein": "871821726", "name": "LAWYERS FOR EQUAL ACCESS TO ADVOCACY & DIGNITY FOUNDATION INC", "city": "NEW YORK", "state": "NY", "zip": "10001-7604", "ntee": "I11", "ruling": "202110", "deductibility": "1", "assets": 0, "income": 0, "revenue": 0}, {"ein": "872349949", "name": "BLACK WOMENS EQUAL PAY NETWORK INC", "city": "NEW YORK", "state": "NY", "zip": "10468-1394", "ntee": "R20", "ruling": "202112", "deductibility": "1", "assets": 0, "income": 0, "revenue": 0}, {"ein": "873752883", "name": "EQUAL FIRST AID", "city": "FRANKLIN SQ", "state": "NY", "zip": "11010-1625", "ntee": "E80", "ruling": "202202", "deductibility": "1", "assets": 6588, "income": 15300, "revenue": 0}, {"ein": "923544391", "name": "EVALUATIONS FOR EQUAL EDUCATION", "city": "WALLKILL", "state": "NY", "zip": "12589-3404", "ntee": "B28", "ruling": "202405", "deductibility": "1", "assets": 1, "income": 0, "revenue": 0}, {"ein": "992969192", "name": "INSTITUTE FOR EQUAL ACCESS INC", "city": "SYRACUSE", "state": "NY", "zip": "13211-0366", "ntee": "H03", "ruling": "202407", "deductibility": "1", "assets": 0, "income": 0, "revenue": 0}, {"ein": "993733755", "name": "NEW YORKERS FOR EQUAL RIGHTS INC", "city": "ALBANY", "state": "NY", "zip": "12210-2326", "ntee": "S01", "ruling": "202504", "deductibility": "2", "assets": 0, "income": 0, "revenue": 0}], "CARSON": [{"ein": "136957038", "name": "CARSON FAM CHARITABLE TR", "city": "NEW YORK", "state": "NY", "zip": "10022-1029", "ntee": "", "ruling": "199104", "deductibility": "1", "assets": 466593070, "income": 88206227, "revenue": 0}, {"ein": "208417786", "name": "CARSON LALLI POHLMAN BRAIN CANCERFOUNDATION", "city": "DIX HILLS", "state": "NY", "zip": "11746-6633", "ntee": "H12", "ruling": "200902", "deductibility": "1", "assets": 0, "income": 0, "revenue": 0}, {"ein": "923201790", "name": "CARSON SENFIELD FOUNDATION INC", "city": "ORCHARD PARK", "state": "NY", "zip": "14127-0190", "ntee": "T30", "ruling": "202304", "deductibility": "1", "assets": 367011, "income": 242137, "revenue": 242137}], "FOULKE": [{"ein": "137033827", "name": "FOULKE FOUNDATION TR UA 011593", "city": "MAMARONECK", "state": "NY", "zip": "10543-1108", "ntee": "T90Z", "ruling": "199508", "deductibility": "1", "assets": 537267, "income": 214118, "revenue": 0}], "WORCESTER": [{"ein": "141547364", "name": "WORCESTER FREE LIBRARY", "city": "WORCESTER", "state": "NY", "zip": "12197-0461", "ntee": "B70", "ruling": "201209", "deductibility": "1", "assets": 1026723, "income": 128690, "revenue": 124552}, {"ein": "166092886", "name": "SCHENEVUS WORCESTER NY ROTARY CLUB", "city": "WORCESTER", "state": "NY", "zip": "12197-1917", "ntee": "S80", "ruling": "201407", "deductibility": "2", "assets": 0, "income": 0, "revenue": 0}, {"ein": "237248570", "name": "WORCESTER HISTORICAL SOCIETY INC", "city": "WORCESTER", "state": "NY", "zip": "12197-0000", "ntee": "", "ruling": "197212", "deductibility": "1", "assets": 217443, "income": 35687, "revenue": 35687}, {"ein": "472227618", "name": "WORCESTER SPORTS BOOSTER CLUB", "city": "WORCESTER", "state": "NY", "zip": "12197-0000", "ntee": "B94", "ruling": "201507", "deductibility": "1", "assets": 0, "income": 0, "revenue": 0}, {"ein": "810692306", "name": "FRIENDS OF THE WORCESTER FREE LIBRARY INC", "city": "WORCESTER", "state": "NY", "zip": "12197-0461", "ntee": "T12", "ruling": "201602", "deductibility": "1", "assets": 0, "income": 0, "revenue": 0}, {"ein": "822437285", "name": "WORCESTER CENTRAL PTO", "city": "WORCESTER", "state": "NY", "zip": "12197-1900", "ntee": "B94", "ruling": "201801", "deductibility": "1", "assets": 0, "income": 0, "revenue": 0}, {"ein": "825525046", "name": "EAST WORCESTER FISH AND GAME CLUB INC", "city": "E WORCESTER", "state": "NY", "zip": "12064-0700", "ntee": "N50", "ruling": "201904", "deductibility": "2", "assets": 144067, "income": 55043, "revenue": 48995}, {"ein": "844788901", "name": "WORCESTER BACKPACK PROGRAM", "city": "WORCESTER", "state": "NY", "zip": "12197-0391", "ntee": "K30", "ruling": "202004", "deductibility": "1", "assets": 0, "income": 0, "revenue": 0}, {"ein": "851094081", "name": "WORCESTER FOOD PANTRY", "city": "WORCESTER", "state": "NY", "zip": "12197-0000", "ntee": "K31", "ruling": "202010", "deductibility": "1", "assets": 0, "income": 0, "revenue": 0}], "ALMANZO": [{"ein": "141694262", "name": "ALMANZO AND LAURA INGALLS WILDER ASSOCIATION", "city": "MALONE", "state": "NY", "zip": "12953-0283", "ntee": "T22Z", "ruling": "198710", "deductibility": "1", "assets": 428197, "income": 92865, "revenue": 77113}], "BACILE": [{"ein": "141730868", "name": "VICTOR A BACILE SCHOLARSHIP FUND", "city": "POUGHKEEPSIE", "state": "NY", "zip": "12602-4878", "ntee": "", "ruling": "199101", "deductibility": "1", "assets": 219079, "income": 54031, "revenue": 0}], "SQUARES": [{"ein": "141746914", "name": "VILLAGE SQUARES QUILTERS", "city": "SCARSDALE", "state": "NY", "zip": "10583-8575", "ntee": "A24Z", "ruling": "199304", "deductibility": "1", "assets": 0, "income": 0, "revenue": 0}, {"ein": "921214941", "name": "BLK SQUARES CHANGE FOR CHANGE INC", "city": "FARMINGDALE", "state": "NY", "zip": "11735-6827", "ntee": "P20", "ruling": "202301", "deductibility": "1", "assets": 0, "income": 0, "revenue": 0}], "UNITR": [{"ein": "146187187", "name": "JOHN KOT CHARITABLE REMAINDER UNITR", "city": "AMSTERDAM", "state": "NY", "zip": "12010-5023", "ntee": "", "ruling": "000000", "deductibility": "0", "assets": 30042, "income": 1037, "revenue": 1037}], "PRES": [{"ein": "156014845", "name": "BROWN-UNION PRES CH TA 24-205080", "city": "BUFFALO", "state": "NY", "zip": "14240-4203", "ntee": "", "ruling": "000000", "deductibility": "0", "assets": 0, "income": 0, "revenue": 0}, {"ein": "222861959", "name": "GORDON SALMON AND MARJORIE R PRES- ENT CHARITABLE FOUNDATION", "city": "PITTSFORD", "state": "NY", "zip": "14534-2874", "ntee": "", "ruling": "198802", "deductibility": "1", "assets": 394505, "income": 410181, "revenue": 0}], "MARIS": [{"ein": "160743941", "name": "CAMP STELLA MARIS OF LIVONIA INC", "city": "LIVONIA", "state": "NY", "zip": "14487-9627", "ntee": "", "ruling": "194603", "deductibility": "1", "assets": 0, "income": 0, "revenue": 0}], "EBEL": [{"ein": "161098233", "name": "BATAVIA CHRISTIAN FELLOWSHIP CHURCH INC C O JOHN J EBEL", "city": "BATAVIA", "state": "NY", "zip": "14020-1337", "ntee": "", "ruling": "197803", "deductibility": "1", "assets": 0, "income": 0, "revenue": 0}], "MILLTOWN": [{"ein": "161292063", "name": "MILLTOWN HOUSING DEVELOPEMNT FUND COMPANY INC", "city": "EVANS MILLS", "state": "NY", "zip": "13637-3263", "ntee": "L22Z", "ruling": "198809", "deductibility": "1", "assets": 307188, "income": 249526, "revenue": 242339}], "HORSES": [{"ein": "161515358", "name": "EMPIRE STATE QUARTER HORSES YOUTH ASSOCIATION", "city": "PINE CITY", "state": "NY", "zip": "14871-9577", "ntee": "", "ruling": "199711", "deductibility": "2", "assets": 3455, "income": 4305, "revenue": 4305}, {"ein": "208188492", "name": "A HORSES FRIEND INC", "city": "ROCHESTER", "state": "NY", "zip": "14692-0213", "ntee": "", "ruling": "202306", "deductibility": "1", "assets": 52162, "income": 170897, "revenue": 0}, {"ein": "262219064", "name": "PEACEFUL ACRES HORSES INC", "city": "PATTERSONVLE", "state": "NY", "zip": "12137-2104", "ntee": "E50", "ruling": "200903", "deductibility": "1", "assets": 255001, "income": 201405, "revenue": 201405}, {"ein": "432046806", "name": "SUNSHINE HORSES INC", "city": "CLAY", "state": "NY", "zip": "13041-9650", "ntee": "D20", "ruling": "200705", "deductibility": "1", "assets": 976863, "income": 267162, "revenue": 201707}, {"ein": "455201929", "name": "HORSES AND HEROES INC", "city": "ONEONTA", "state": "NY", "zip": "13820-4263", "ntee": "D12", "ruling": "201805", "deductibility": "1", "assets": 0, "income": 0, "revenue": 0}, {"ein": "463553658", "name": "HORSES FOR A CHANGE INC", "city": "ESOPUS", "state": "NY", "zip": "12429-0054", "ntee": "N69", "ruling": "201411", "deductibility": "1", "assets": 21851, "income": 158934, "revenue": 158934}, {"ein": "471337649", "name": "AMITY FOUNDATION FOR HEALING WITH HORSES INC", "city": "WARWICK", "state": "NY", "zip": "10990-2205", "ntee": "E60", "ruling": "201503", "deductibility": "1", "assets": 27683, "income": 66969, "revenue": 66969}, {"ein": "475605740", "name": "HEARTS AND HORSES FOUNDATION", "city": "SETAUKET", "state": "NY", "zip": "11733-1057", "ntee": "T23", "ruling": "201604", "deductibility": "1", "assets": 1478371, "income": 519532, "revenue": 0}, {"ein": "822123656", "name": "HUNDRED HORSES PROJECT INC", "city": "SCHENECTADY", "state": "NY", "zip": "12306-6718", "ntee": "D20", "ruling": "202107", "deductibility": "1", "assets": 0, "income": 0, "revenue": 0}, {"ein": "825164821", "name": "THERAPEUTIC HORSES OF SARATOGA INC", "city": "SARATOGA SPGS", "state": "NY", "zip": "12866-5403", "ntee": "D20", "ruling": "201805", "deductibility": "1", "assets": 393822, "income": 823518, "revenue": 613905}, {"ein": "853545296", "name": "HORSES ENCOURAGE ADVENTURE LEADERSHIP INC", "city": "CHAUMONT", "state": "NY", "zip": "13622-2200", "ntee": "F30", "ruling": "202107", "deductibility": "1", "assets": 0, "income": 0, "revenue": 0}, {"ein": "863545188", "name": "HORSES HEALING HEARTS INC", "city": "WARSAW", "state": "NY", "zip": "14569-9743", "ntee": "D99", "ruling": "202201", "deductibility": "1", "assets": 0, "income": 0, "revenue": 0}], "INK": [{"ein": "161582500", "name": "THE INK SHOP PRINTMAKING CENTER", "city": "ITHACA", "state": "NY", "zip": "14850-4366", "ntee": "A33", "ruling": "200111", "deductibility": "1", "assets": 85610, "income": 79190, "revenue": 79190}, {"ein": "263551869", "name": "INK WELL FOUNDATION INC", "city": "NEW YORK", "state": "NY", "zip": "10011-6372", "ntee": "P30", "ruling": "200909", "deductibility": "1", "assets": 0, "income": 0, "revenue": 0}, {"ein": "465319529", "name": "FRIENDS INK", "city": "SYRACUSE", "state": "NY", "zip": "13204-4004", "ntee": "R23", "ruling": "201408", "deductibility": "1", "assets": 0, "income": 0, "revenue": 0}, {"ein": "474542555", "name": "INK THINK TANK INC", "city": "WHITE PLAINS", "state": "NY", "zip": "10607-1365", "ntee": "B80", "ruling": "201508", "deductibility": "1", "assets": 0, "income": 0, "revenue": 0}, {"ein": "742972176", "name": "WET INK MUSIC PRODUCTIONS INC", "city": "BROOKLYN", "state": "NY", "zip": "11226-1980", "ntee": "A68", "ruling": "200203", "deductibility": "1", "assets": 51387, "income": 152239, "revenue": 152239}], "GEBBIE": [{"ein": "166050287", "name": "GEBBIE FOUNDATION INC", "city": "JAMESTOWN", "state": "NY", "zip": "14701-5203", "ntee": "", "ruling": "196511", "deductibility": "1", "assets": 75226464, "income": 10679277, "revenue": 0}], "MATOVU": [{"ein": "200105368", "name": "MATOVU FOUNDATION INC", "city": "MONSEY", "state": "NY", "zip": "10952-1038", "ntee": "T22", "ruling": "200308", "deductibility": "1", "assets": 790, "income": 1, "revenue": 0}], "INFODYNE": [{"ein": "201500040", "name": "INFODYNE HEALTH LITERACY PROJECT", "city": "GARDINER", "state": "NY", "zip": "12525-0340", "ntee": "E70", "ruling": "200506", "deductibility": "1", "assets": 0, "income": 0, "revenue": 0}], "SENESH": [{"ein": "203330699", "name": "HANNAH SENESH COMMUNITY DAY SCHOOL", "city": "BROOKLYN", "state": "NY", "zip": "11231-4818", "ntee": "B20", "ruling": "200511", "deductibility": "1", "assets": 20793542, "income": 7974038, "revenue": 7974038}], "DAYRATU": [{"ein": "204186305", "name": "DAYRATU ANASRU-DINE USA INC", "city": "BRONX", "state": "NY", "zip": "10457-3834", "ntee": "X40", "ruling": "201108", "deductibility": "1", "assets": 0, "income": 0, "revenue": 0}], "CONFEDERAZIONE": [{"ein": "205111564", "name": "CONFEDERAZIONE DEGLI IMPRENDITORI ITALIANI NEL MONDO USA", "city": "NEW YORK", "state": "NY", "zip": "10118-0000", "ntee": "S41", "ruling": "200801", "deductibility": "2", "assets": 180, "income": 0, "revenue": 0}], "COMMUNITAS": [{"ein": "205298137", "name": "COMMUNITAS DEI ASSOCIATION", "city": "NEW YORK", "state": "NY", "zip": "10002-7124", "ntee": "X82", "ruling": "201005", "deductibility": "1", "assets": 0, "income": 0, "revenue": 0}, {"ein": "300468772", "name": "COMMUNITAS", "city": "BROOKLYN", "state": "NY", "zip": "11233-1601", "ntee": "X20", "ruling": "200903", "deductibility": "1", "assets": 0, "income": 0, "revenue": 0}, {"ein": "824888932", "name": "COMMUNITAS AMERICA INC", "city": "NEW YORK", "state": "NY", "zip": "10027-2543", "ntee": "S20", "ruling": "201902", "deductibility": "1", "assets": 4378076, "income": 1396951, "revenue": 1396951}, {"ein": "850873431", "name": "COMMUNITAS", "city": "ITHACA", "state": "NY", "zip": "14850-9030", "ntee": "P28", "ruling": "202007", "deductibility": "1", "assets": 0, "income": 0, "revenue": 0}], "AEROSCIENCES": [{"ein": "222557826", "name": "EMPIRE STATE AEROSCIENCES MUSEUM", "city": "SCHENECTADY", "state": "NY", "zip": "12302-7135", "ntee": "A570", "ruling": "198501", "deductibility": "1", "assets": 1089842, "income": 485732, "revenue": 472727}], "MANGAN": [{"ein": "222565883", "name": "JOSEPH P MANGAN AUXILIARY UNIT 1194", "city": "BINGHAMTON", "state": "NY", "zip": "13901-1553", "ntee": "W30", "ruling": "201711", "deductibility": "1", "assets": 0, "income": 0, "revenue": 0}], "YUDANSHAKAI": [{"ein": "223230697", "name": "HUDSON JUDO YUDANSHAKAI INC", "city": "NEW YORK", "state": "NY", "zip": "10010-6121", "ntee": "N70Z", "ruling": "199405", "deductibility": "1", "assets": 0, "income": 0, "revenue": 0}], "CHUT": [{"ein": "223605774", "name": "CHUT HAMESHULASH INC", "city": "BROOKLYN", "state": "NY", "zip": "11204-0331", "ntee": "X30", "ruling": "201605", "deductibility": "1", "assets": 1999137, "income": 180051, "revenue": 65696}], "AYRES": [{"ein": "237349952", "name": "AYRES MEMORIAL ANIMAL SHELTER INC", "city": "SPRAKERS", "state": "NY", "zip": "12166-5009", "ntee": "D200", "ruling": "197403", "deductibility": "1", "assets": 866287, "income": 350426, "revenue": 337638}], "BOCHASANWAS": [{"ein": "237357602", "name": "BOCHASANWAS SWAMINARAYAN SANSTHA", "city": "FLUSHING", "state": "NY", "zip": "11355-3040", "ntee": "", "ruling": "197501", "deductibility": "1", "assets": 0, "income": 0, "revenue": 0}], "ALSTOM": [{"ein": "237447593", "name": "ALSTOM SIGNALING FOUNDATION INC", "city": "WEST HENRIETTA", "state": "NY", "zip": "14586-9024", "ntee": "", "ruling": "195312", "deductibility": "1", "assets": 590795, "income": 239011, "revenue": 0}], "PRODUCE": [{"ein": "261188925", "name": "PRIME PRODUCE LIMITED", "city": "NEW YORK", "state": "NY", "zip": "10019-4406", "ntee": "T40", "ruling": "200808", "deductibility": "1", "assets": 247674, "income": 1246352, "revenue": 1246352}, {"ein": "842482813", "name": "NATIONAL ASSOCIATION OF PRODUCE MARKET MANAGERS", "city": "SYRACUSE", "state": "NY", "zip": "13208-1041", "ntee": "S41", "ruling": "201908", "deductibility": "2", "assets": 0, "income": 0, "revenue": 0}], "BHAGWAN": [{"ein": "261586617", "name": "TEMPLE TIRKALDARSHI BHAGWAN VALMIK", "city": "RICHMOND HILL", "state": "NY", "zip": "11418-2335", "ntee": "X70", "ruling": "201001", "deductibility": "1", "assets": 0, "income": 0, "revenue": 0}, {"ein": "262283400", "name": "BHAGWAN SHREE LAKSMI NARAYAN DHAM INC", "city": "ELMHURST", "state": "NY", "zip": "11373-1153", "ntee": "X70", "ruling": "200906", "deductibility": "1", "assets": 0, "income": 0, "revenue": 0}], "RHAPSODY": [{"ein": "262200571", "name": "RHAPSODY PLAYERS", "city": "BROOKLYN", "state": "NY", "zip": "11209-7618", "ntee": "A68", "ruling": "200903", "deductibility": "1", "assets": 0, "income": 0, "revenue": 0}], "TURKEY": [{"ein": "262220028", "name": "TURKEY TROT RACE COMMITTEE INC", "city": "GARDEN CITY", "state": "NY", "zip": "11530-4525", "ntee": "P123", "ruling": "201406", "deductibility": "1", "assets": 173728, "income": 188350, "revenue": 188350}, {"ein": "453933742", "name": "UNITED FOR TURKEY INC", "city": "NEW YORK", "state": "NY", "zip": "10018-0659", "ntee": "T12", "ruling": "201303", "deductibility": "1", "assets": 1837, "income": 25000, "revenue": 25000}, {"ein": "814004031", "name": "RESEARCH INSTITUTE ON TURKEY INC", "city": "BROOKLYN", "state": "NY", "zip": "11231-4715", "ntee": "V05", "ruling": "201611", "deductibility": "1", "assets": 0, "income": 0, "revenue": 0}, {"ein": "823388588", "name": "COMMITTEE FOR THE OYSTER BAY TURKEY TROT INC", "city": "SYOSSET", "state": "NY", "zip": "11791-0247", "ntee": "N70", "ruling": "201905", "deductibility": "1", "assets": 4553, "income": 26979, "revenue": 0}, {"ein": "920605642", "name": "VICTOR TURKEY TROT", "city": "VICTOR", "state": "NY", "zip": "14564-9398", "ntee": "R12", "ruling": "202304", "deductibility": "1", "assets": 3432, "income": 58433, "revenue": 44804}, {"ein": "922827854", "name": "TURKEY QUAKE RELIEF LTD", "city": "NEW YORK", "state": "NY", "zip": "10075-0450", "ntee": "M12", "ruling": "202303", "deductibility": "1", "assets": 0, "income": 0, "revenue": 0}], "LENDER": [{"ein": "263594129", "name": "UNCOMMON LENDER INC", "city": "NEW YORK", "state": "NY", "zip": "10007-2650", "ntee": "B82", "ruling": "201208", "deductibility": "1", "assets": 180182405, "income": 12077824, "revenue": 12077824}, {"ein": "812973183", "name": "CIVIC CHARTER LENDER INC", "city": "NEW YORK", "state": "NY", "zip": "10014-5872", "ntee": "B12", "ruling": "201811", "deductibility": "1", "assets": 0, "income": 0, "revenue": 0}], "SHEAHAN": [{"ein": "264494916", "name": "MAURICE J COTTER AND MURIEL J SHEAHAN CHARITABLE FOUNDATION", "city": "WESTBURY", "state": "NY", "zip": "11590-1838", "ntee": "T20", "ruling": "200906", "deductibility": "1", "assets": 758939, "income": 236109, "revenue": 0}], "BENNY": [{"ein": "271218091", "name": "BENNY & KATHRIN NAMDAR FOUNDATION", "city": "GREAT NECK", "state": "NY", "zip": "11021-3340", "ntee": "T21", "ruling": "201202", "deductibility": "1", "assets": 91902, "income": 60426, "revenue": 0}, {"ein": "844403957", "name": "BENNY GOLDSTEIN FOUNDATION INC", "city": "CANAJOHARIE", "state": "NY", "zip": "13317-1376", "ntee": "L50", "ruling": "202002", "deductibility": "1", "assets": 0, "income": 0, "revenue": 0}, {"ein": "844665349", "name": "BENNY DEROSA FOUNDATION CORP", "city": "STATEN ISLAND", "state": "NY", "zip": "10307-1600", "ntee": "T50", "ruling": "202005", "deductibility": "1", "assets": 0, "income": 0, "revenue": 0}, {"ein": "852899694", "name": "BENNY S SPORT CLUB INCORPORATED", "city": "BROOKLYN", "state": "NY", "zip": "11224-1803", "ntee": "N11", "ruling": "202101", "deductibility": "1", "assets": 3094, "income": 19644, "revenue": 19644}, {"ein": "932546064", "name": "BENNY CAFOLLA MEMORIAL FUND", "city": "CANANDAIGUA", "state": "NY", "zip": "14424-9038", "ntee": "B82", "ruling": "202308", "deductibility": "1", "assets": 0, "income": 0, "revenue": 0}], "NEIGER": [{"ein": "271575042", "name": "NEIGER FOUNDATION IN MEMORY OF ROSE GETZ", "city": "SCARSDALE", "state": "NY", "zip": "10583-5316", "ntee": "T22", "ruling": "201007", "deductibility": "1", "assets": 9165, "income": 200648, "revenue": 0}], "LAWFARE": [{"ein": "272402908", "name": "LAWFARE PROJECT INC", "city": "NEW YORK", "state": "NY", "zip": "10017-8157", "ntee": "Q70", "ruling": "201104", "deductibility": "1", "assets": 5051462, "income": 3674570, "revenue": 3674570}], "LYFE": [{"ein": "273053442", "name": "SPEEK LYFE MOVEMENT INC", "city": "ROSEDALE", "state": "NY", "zip": "11422-2440", "ntee": "O50", "ruling": "202409", "deductibility": "1", "assets": 0, "income": 0, "revenue": 0}, {"ein": "453868500", "name": "NEW LYFE INTERNATIONAL MINISTRIES", "city": "JAMAICA", "state": "NY", "zip": "11434-5124", "ntee": "X21", "ruling": "201302", "deductibility": "1", "assets": 0, "income": 0, "revenue": 0}, {"ein": "464864239", "name": "BALL IS LYFE", "city": "QUEENS VLG", "state": "NY", "zip": "11428-1056", "ntee": "N62", "ruling": "201505", "deductibility": "1", "assets": 0, "income": 0, "revenue": 0}, {"ein": "811368186", "name": "NEW YORK LYFE INC", "city": "FLUSHING", "state": "NY", "zip": "11354-5934", "ntee": "A20", "ruling": "201809", "deductibility": "1", "assets": 0, "income": 0, "revenue": 0}, {"ein": "825304876", "name": "MY LYFE MATTERS", "city": "BROOKLYN", "state": "NY", "zip": "11236-0197", "ntee": "O01", "ruling": "201805", "deductibility": "1", "assets": 0, "income": 0, "revenue": 0}, {"ein": "873440866", "name": "TRU LYFE INC", "city": "BRONX", "state": "NY", "zip": "10466-5331", "ntee": "S20", "ruling": "202201", "deductibility": "1", "assets": 0, "income": 0, "revenue": 0}], "SCATS": [{"ein": "300044265", "name": "NEWBURGH SCATS INC", "city": "NEWBURGH", "state": "NY", "zip": "12552-0443", "ntee": "D01", "ruling": "202502", "deductibility": "1", "assets": 290324, "income": 85634, "revenue": 80151}], "IAKOVOS": [{"ein": "311472094", "name": "ARCHBISHOP IAKOVOS LEADERSHIP 100 ENDOWMENT FUND INCORPORATED", "city": "NEW YORK", "state": "NY", "zip": "10020-1703", "ntee": "T70Z", "ruling": "199809", "deductibility": "1", "assets": 0, "income": 0, "revenue": 0}], "COWBOYS": [{"ein": "311577961", "name": "THE FEDERATION OF BLACK COWBOYS INC", "city": "BROOKLYN", "state": "NY", "zip": "11205-1023", "ntee": "A80", "ruling": "200001", "deductibility": "1", "assets": 0, "income": 0, "revenue": 0}, {"ein": "921777249", "name": "HEROES COWBOYS AND COMPANIONS INC", "city": "MIDDLETOWN", "state": "NY", "zip": "10940-8707", "ntee": "P40", "ruling": "202301", "deductibility": "1", "assets": 0, "income": 0, "revenue": 0}], "JACKSONS": [{"ein": "331410434", "name": "JACKSONS SKYE CHARITABLE FOUNDATION INC", "city": "SUFFERN", "state": "NY", "zip": "10901-7339", "ntee": "F01", "ruling": "202501", "deductibility": "1", "assets": 13321, "income": 20990, "revenue": 20990}, {"ein": "811695840", "name": "JACKSONS LEGACY", "city": "BROADALBIN", "state": "NY", "zip": "12025-1077", "ntee": "D99", "ruling": "201604", "deductibility": "1", "assets": 0, "income": 0, "revenue": 0}, {"ein": "842823126", "name": "JACKSONS GIFT INC", "city": "DEER PARK", "state": "NY", "zip": "11729-1407", "ntee": "W12", "ruling": "202001", "deductibility": "1", "assets": 0, "income": 0, "revenue": 0}], "KWENDA": [{"ein": "332290359", "name": "FRIENDS OF KWENDA", "city": "NEW YORK CITY", "state": "NY", "zip": "10005-4301", "ntee": "B11", "ruling": "202503", "deductibility": "1", "assets": 0, "income": 0, "revenue": 0}, {"ein": "934594056", "name": "KWENDA COLLEGIATE GIRLS CHARTER SCHOOL", "city": "NEW YORK", "state": "NY", "zip": "10005-4301", "ntee": "B20", "ruling": "202404", "deductibility": "1", "assets": 598447, "income": 720525, "revenue": 720525}], "TOTE": [{"ein": "332450155", "name": "NANAS TOTE BAGS INC", "city": "HOLTSVILLE", "state": "NY", "zip": "11742-1930", "ntee": "P01", "ruling": "202501", "deductibility": "1", "assets": 0, "income": 0, "revenue": 0}], "CYCLONES": [{"ein": "332590899", "name": "CYCLONES TRAVEL SOFTBALL INC", "city": "DUANESBURG", "state": "NY", "zip": "12056-0314", "ntee": "N63", "ruling": "202501", "deductibility": "1", "assets": 0, "income": 0, "revenue": 0}, {"ein": "920522791", "name": "CI CYCLONES SC INC", "city": "BROOKLYN", "state": "NY", "zip": "11218-2772", "ntee": "N60", "ruling": "202303", "deductibility": "1", "assets": 1783, "income": 25460, "revenue": 0}, {"ein": "994257283", "name": "CYCLONES TRAVEL BALL ORGANIZATION", "city": "CICERO", "state": "NY", "zip": "13039-8316", "ntee": "A11", "ruling": "202408", "deductibility": "1", "assets": 0, "income": 0, "revenue": 0}], "KROSSINGPATHS": [{"ein": "332854844", "name": "KROSSINGPATHS", "city": "BROOKLYN", "state": "NY", "zip": "11210-2935", "ntee": "S20", "ruling": "202502", "deductibility": "1", "assets": 0, "income": 0, "revenue": 0}], "OBESE": [{"ein": "333607718", "name": "OBESE ATHLETE PROJECT CORP", "city": "STATEN ISLAND", "state": "NY", "zip": "10302-1304", "ntee": "E70", "ruling": "202503", "deductibility": "1", "assets": 0, "income": 0, "revenue": 0}], "CHUSON": [{"ein": "333760854", "name": "CONG KOL CHUSON", "city": "BROOKLYN", "state": "NY", "zip": "11219-3425", "ntee": "X20", "ruling": "202505", "deductibility": "1", "assets": 0, "income": 0, "revenue": 0}], "WHITES": [{"ein": "352422011", "name": "WHITES LIVERY HOUSING DEVELOPMENT FUND COMPANY INC", "city": "BUFFALO", "state": "NY", "zip": "14213-2547", "ntee": "L20", "ruling": "201711", "deductibility": "1", "assets": 2460781, "income": 106819, "revenue": 106819}, {"ein": "830739084", "name": "WHITES LUMBER FOUNDATION INC", "city": "WATERTOWN", "state": "NY", "zip": "13601-2834", "ntee": "T30", "ruling": "201906", "deductibility": "1", "assets": 5662, "income": 3250, "revenue": 3250}], "POMPANUCK": [{"ein": "450530981", "name": "POMPANUCK FARM INSTITUTE INC", "city": "CAMBRIDGE", "state": "NY", "zip": "12816-5108", "ntee": "P20", "ruling": "200411", "deductibility": "1", "assets": 0, "income": 0, "revenue": 0}], "TECUMSEH": [{"ein": "450611805", "name": "TECUMSEH ROAD HOUSING DEVELOPMENT FUND COMPANY INC", "city": "SYRACUSE", "state": "NY", "zip": "13203-2879", "ntee": "L21", "ruling": "201105", "deductibility": "1", "assets": 3887405, "income": 249366, "revenue": 249366}], "ABUNDANCIA": [{"ein": "452424886", "name": "IGLESIA PENTECOSTAL VIDA EN ABUNDANCIA", "city": "HOLLIS", "state": "NY", "zip": "11423-2403", "ntee": "X21", "ruling": "201407", "deductibility": "1", "assets": 0, "income": 0, "revenue": 0}], "COPPOLA": [{"ein": "452891552", "name": "THE MARIA COPPOLA FOUNDATION INC", "city": "NEW YORK", "state": "NY", "zip": "10040-2715", "ntee": "T30", "ruling": "201203", "deductibility": "1", "assets": 0, "income": 0, "revenue": 0}], "MCKIERNAN": [{"ein": "452941312", "name": "ROBERT MCKIERNAN SCHOLARSHIP FUND INC", "city": "BLAUVELT", "state": "NY", "zip": "10913-1631", "ntee": "B82", "ruling": "201110", "deductibility": "1", "assets": 26009, "income": 2, "revenue": 2}], "LOBARISHEREKI": [{"ein": "453837850", "name": "LOBARISHEREKI INITIATIVE INC", "city": "COLD SPRING HARBOR", "state": "NY", "zip": "11724-0000", "ntee": "T30", "ruling": "201311", "deductibility": "1", "assets": 428, "income": 0, "revenue": 0}], "VEDU": [{"ein": "455163425", "name": "VANA VEDU CARE INC", "city": "KINGSTON", "state": "NY", "zip": "12401-4312", "ntee": "P99", "ruling": "201404", "deductibility": "1", "assets": 0, "income": 0, "revenue": 0}], "THOROUGHBREDS": [{"ein": "455270565", "name": "FINGER LAKES FINEST THOROUGHBREDS INC", "city": "BUFFALO", "state": "NY", "zip": "14222-2409", "ntee": "D20", "ruling": "201311", "deductibility": "1", "assets": 0, "income": 0, "revenue": 0}, {"ein": "461182639", "name": "SECOND CHANCE THOROUGHBREDS INC", "city": "SPENCER", "state": "NY", "zip": "14883-9707", "ntee": "D20", "ruling": "201303", "deductibility": "1", "assets": 60355, "income": 85522, "revenue": 85522}], "MM": [{"ein": "456925702", "name": "MM SPONG IRTA FBO ST STEPHENS EP SCHL", "city": "BUFFALO", "state": "NY", "zip": "14240-1504", "ntee": "T20", "ruling": "201408", "deductibility": "1", "assets": 301272, "income": 97165, "revenue": 0}], "MUDFEST": [{"ein": "462633612", "name": "DANIEL BARDEN ANNUAL MUDFEST INC", "city": "DEANSBORO", "state": "NY", "zip": "13328-1405", "ntee": "M40", "ruling": "201611", "deductibility": "1", "assets": 0, "income": 0, "revenue": 0}], "KIDDIE": [{"ein": "463322622", "name": "KIDDIE SCIENCE INC", "city": "BROOKLYN", "state": "NY", "zip": "11213-0205", "ntee": "B21", "ruling": "201407", "deductibility": "1", "assets": 183311, "income": 114617, "revenue": 114617}, {"ein": "861305797", "name": "KIDDIE ZONE 44 INC", "city": "BROOKLYN", "state": "NY", "zip": "11219-1951", "ntee": "X30", "ruling": "202106", "deductibility": "1", "assets": 0, "income": 0, "revenue": 0}], "FARAH": [{"ein": "463492182", "name": "BENJAMIN TOFIK FARAH MOVEMENT", "city": "TROY", "state": "NY", "zip": "12180-8027", "ntee": "B01", "ruling": "201609", "deductibility": "1", "assets": 0, "income": 0, "revenue": 0}, {"ein": "863183210", "name": "FARAH DELANCE FOUNDATION INC", "city": "MEDFORD", "state": "NY", "zip": "11763-4131", "ntee": "R01", "ruling": "202202", "deductibility": "1", "assets": 0, "income": 0, "revenue": 0}], "SUNDIAL": [{"ein": "463559786", "name": "SUNDIAL FILM INITIATIVE INC", "city": "GLENFORD", "state": "NY", "zip": "12433-0194", "ntee": "A31", "ruling": "201503", "deductibility": "1", "assets": 0, "income": 0, "revenue": 0}], "LYTTON": [{"ein": "463593727", "name": "ANNA MIRABAI LYTTON FOUNDATION", "city": "AMAGANSETT", "state": "NY", "zip": "11930-0625", "ntee": "O50", "ruling": "201402", "deductibility": "1", "assets": 1464171, "income": 532078, "revenue": 88350}], "FLEET": [{"ein": "463632300", "name": "FLEET RESERVE ASSOCIATION BRANCH 226 INC", "city": "STATEN ISLAND", "state": "NY", "zip": "10312-3338", "ntee": "W30", "ruling": "201309", "deductibility": "2", "assets": 0, "income": 0, "revenue": 0}, {"ein": "541636461", "name": "PAST REGIONAL PRESIDENTS OF THE FLEET RESERVE ASSOCIATION INC", "city": "STATEN ISLAND", "state": "NY", "zip": "10312-0000", "ntee": "", "ruling": "199802", "deductibility": "1", "assets": 502429, "income": 99356, "revenue": 33360}], "VOELKE": [{"ein": "464822379", "name": "MAJOR PAUL C VOELKE MEMORIAL FUND INC", "city": "MONROE", "state": "NY", "zip": "10950-2515", "ntee": "B82", "ruling": "201404", "deductibility": "1", "assets": 0, "income": 0, "revenue": 0}], "PAGEANT": [{"ein": "464889357", "name": "EPIPHANY SCHOLARSHIP PAGEANT INC", "city": "BUFFALO", "state": "NY", "zip": "14215-2747", "ntee": "A60", "ruling": "201703", "deductibility": "1", "assets": 0, "income": 0, "revenue": 0}, {"ein": "472378045", "name": "MISS BUFFALO SCHOLARSHIP PAGEANT ORGANIZATION INC", "city": "BUFFALO", "state": "NY", "zip": "14207-0008", "ntee": "B82", "ruling": "201512", "deductibility": "1", "assets": 0, "income": 0, "revenue": 0}], "BEDGEAR": [{"ein": "465749134", "name": "BEDGEAR FOUNDATION INC", "city": "FARMINGDALE", "state": "NY", "zip": "11735-3900", "ntee": "T20", "ruling": "201505", "deductibility": "1", "assets": 0, "income": 0, "revenue": 0}], "HATAVSHEL": [{"ein": "471865717", "name": "CONG BAIS HATAVSHEL MBRESLOV INC", "city": "BROOKLYN", "state": "NY", "zip": "11211-6607", "ntee": "P20", "ruling": "201510", "deductibility": "1", "assets": 8397, "income": 106770, "revenue": 106770}], "JAZZHARMONIC": [{"ein": "473396193", "name": "NEW YORK JAZZHARMONIC INC", "city": "NEW YORK", "state": "NY", "zip": "10024-5592", "ntee": "A68", "ruling": "201503", "deductibility": "1", "assets": 1174, "income": 374, "revenue": 374}], "KOCARES": [{"ein": "474765200", "name": "KOCARES", "city": "CORAM", "state": "NY", "zip": "11727-1419", "ntee": "S20", "ruling": "201512", "deductibility": "1", "assets": 15223, "income": 24290, "revenue": 24290}], "HUMD": [{"ein": "475191417", "name": "HUMD INC", "city": "BETHPAGE", "state": "NY", "zip": "11714-1706", "ntee": "P99", "ruling": "201512", "deductibility": "1", "assets": 0, "income": 0, "revenue": 0}], "LESSER": [{"ein": "510180509", "name": "DANCE 2000 THE FELICE LESSER DANCE THEATER FOUNDATION INC", "city": "NEW YORK", "state": "NY", "zip": "10036-6344", "ntee": "", "ruling": "197602", "deductibility": "1", "assets": 114361, "income": 27133, "revenue": 27133}, {"ein": "814135083", "name": "LESSER AMERICA INC", "city": "BROOKLYN", "state": "NY", "zip": "11225-3656", "ntee": "A65", "ruling": "201611", "deductibility": "1", "assets": 0, "income": 0, "revenue": 0}], "COMREF": [{"ein": "522039191", "name": "COMREF 380 LLC", "city": "NEW YORK", "state": "NY", "zip": "10169-0005", "ntee": "S47", "ruling": "201512", "deductibility": "2", "assets": 0, "income": 0, "revenue": 0}], "ASIANETWORK": [{"ein": "561843606", "name": "ASIANETWORK INC", "city": "KEW GARDENS", "state": "NY", "zip": "11415-0200", "ntee": "B99Z", "ruling": "199803", "deductibility": "1", "assets": 2589252, "income": 341405, "revenue": 341405}], "LARKFIELD": [{"ein": "562435965", "name": "LARKFIELD AMATEUR RADIO CLUB INC", "city": "HUNTINGTON", "state": "NY", "zip": "11743-0747", "ntee": "A02", "ruling": "201509", "deductibility": "1", "assets": 0, "income": 0, "revenue": 0}], "AFCOM": [{"ein": "562493701", "name": "AFCOM AMBASSADORS FOR CHRIST OUTREACH MINISTRY INC", "city": "MOUNT VERNON", "state": "NY", "zip": "10553-1452", "ntee": "K31", "ruling": "201601", "deductibility": "1", "assets": 0, "income": 0, "revenue": 0}], "STRIKE": [{"ein": "611404777", "name": "STRIKE ANYWHERE INC", "city": "NEW YORK", "state": "NY", "zip": "10108-2396", "ntee": "A60", "ruling": "200405", "deductibility": "1", "assets": 307267, "income": 362504, "revenue": 362504}, {"ein": "871180389", "name": "FINAL STRIKE COLLABORATIVE INC", "city": "BRONX", "state": "NY", "zip": "10454-3438", "ntee": "A99", "ruling": "202211", "deductibility": "1", "assets": 0, "income": 0, "revenue": 0}, {"ein": "994392428", "name": "STRIKE VALLEY VOLLEYBALL CLUB INC", "city": "ESPERANCE", "state": "NY", "zip": "12066-1922", "ntee": "N60", "ruling": "202408", "deductibility": "1", "assets": 12207, "income": 38920, "revenue": 38920}], "RAI": [{"ein": "680615558", "name": "KIRAT RAI SOCIETY OF AMERICA", "city": "SUNNYSIDE", "state": "NY", "zip": "11104-1172", "ntee": "P84", "ruling": "200609", "deductibility": "1", "assets": 0, "income": 0, "revenue": 0}, {"ein": "993312286", "name": "RAI IMPACT EQUITY LABS INC", "city": "NEW YORK", "state": "NY", "zip": "10019-7629", "ntee": "S02", "ruling": "202406", "deductibility": "1", "assets": 0, "income": 0, "revenue": 0}], "LUICK": [{"ein": "753110730", "name": "LUICK FREEDOM FOR CHILDREN CHARITIES INC", "city": "MOUNT MORRIS", "state": "NY", "zip": "14510-1518", "ntee": "O12", "ruling": "200311", "deductibility": "1", "assets": 0, "income": 0, "revenue": 0}], "JUSMA": [{"ein": "760840668", "name": "CHRISTIAN HAND THE LEODA JUSMA FOUNDATION", "city": "DIX HILLS", "state": "NY", "zip": "11746-5515", "ntee": "S20", "ruling": "200807", "deductibility": "1", "assets": 92957, "income": 31380, "revenue": 31380}], "MOKO": [{"ein": "811190525", "name": "KAISOKAH MOKO JUMBIES USA INC", "city": "SPRNGFLD GDNS", "state": "NY", "zip": "11413-3153", "ntee": "A60", "ruling": "201603", "deductibility": "1", "assets": 0, "income": 0, "revenue": 0}], "NIGERIANS": [{"ein": "812923498", "name": "INTERNATIONAL COMMITTEE OF NIGERIANS ICON INCOPORATED", "city": "CAMBRIA HTS", "state": "NY", "zip": "11411-2109", "ntee": "N50", "ruling": "201709", "deductibility": "1", "assets": 0, "income": 0, "revenue": 0}, {"ein": "992933770", "name": "NIGERIANS IN USA INC", "city": "BROOKLYN", "state": "NY", "zip": "11216-0637", "ntee": "T31", "ruling": "202408", "deductibility": "1", "assets": 0, "income": 0, "revenue": 0}], "AUTH": [{"ein": "814209719", "name": "ILA LOCAL 217-A & OGDENSBURG BRIDGE & PORT AUTH HEALTH & WELFARE PLAN", "city": "OGDENSBURG", "state": "NY", "zip": "13669-2216", "ntee": "J40", "ruling": "202002", "deductibility": "2", "assets": 0, "income": 0, "revenue": 0}], "MADHABPUR": [{"ein": "820627423", "name": "MADHABPUR FOUNDATION USA INC", "city": "WOODHAVEN", "state": "NY", "zip": "11421-1812", "ntee": "P99", "ruling": "201805", "deductibility": "1", "assets": 0, "income": 0, "revenue": 0}], "WHOLENESS": [{"ein": "822830803", "name": "HARMONY HOMESTEAD & WHOLENESS CENTER", "city": "HILLSDALE", "state": "NY", "zip": "12529-6236", "ntee": "A23", "ruling": "201710", "deductibility": "1", "assets": 0, "income": 0, "revenue": 0}, {"ein": "863667087", "name": "ORISHA WHOLENESS CORP", "city": "BRONX", "state": "NY", "zip": "10475-2615", "ntee": "", "ruling": "202108", "deductibility": "1", "assets": 35477, "income": 48505, "revenue": 48505}], "DHANANJAY": [{"ein": "824813619", "name": "GLOBAL ORGANIZATION FOR DHANANJAY NIMBARKA CONSCIOUSNESS", "city": "QUEENS VLG", "state": "NY", "zip": "11429-2216", "ntee": "X50", "ruling": "201903", "deductibility": "1", "assets": 632642, "income": 41014, "revenue": 41014}], "INTANGIBLES": [{"ein": "825158641", "name": "BOOK OF INTANGIBLES INC", "city": "GREENFLD PARK", "state": "NY", "zip": "12435-5014", "ntee": "P20", "ruling": "201903", "deductibility": "1", "assets": 3724, "income": 3520, "revenue": 0}], "TDAY": [{"ein": "831141575", "name": "TDAY FOOD AND FAMILY", "city": "NEW YORK", "state": "NY", "zip": "10032-7041", "ntee": "K30", "ruling": "202005", "deductibility": "1", "assets": 0, "income": 0, "revenue": 0}], "HATORANI": [{"ein": "833684656", "name": "HAICHUD HATORANI SDEROT", "city": "BROOKLYN", "state": "NY", "zip": "11230-5703", "ntee": "X30", "ruling": "201903", "deductibility": "1", "assets": 0, "income": 0, "revenue": 0}], "KOORS": [{"ein": "833921754", "name": "PAUL KOORS MEMORIAL FOUNDATION INC", "city": "RYE", "state": "NY", "zip": "10580-3148", "ntee": "T99", "ruling": "201905", "deductibility": "1", "assets": 74345, "income": 63354, "revenue": 0}], "BTV": [{"ein": "833951508", "name": "BTV FOUNDATION", "city": "BUFFALO", "state": "NY", "zip": "14215-2707", "ntee": "O50", "ruling": "201905", "deductibility": "1", "assets": 0, "income": 0, "revenue": 0}], "PACTOS": [{"ein": "833957175", "name": "MINISTERIOS DIOS DE PACTOS INC", "city": "FLUSHING", "state": "NY", "zip": "11367-3140", "ntee": "X21", "ruling": "202005", "deductibility": "1", "assets": 0, "income": 0, "revenue": 0}], "SANKAT": [{"ein": "834552522", "name": "SHRI SANKAT MOCHAN", "city": "MINEOLA", "state": "NY", "zip": "11501-2937", "ntee": "X70", "ruling": "201912", "deductibility": "1", "assets": 0, "income": 0, "revenue": 0}], "NUICA": [{"ein": "842874626", "name": "NUICA INC", "city": "MELVILLE", "state": "NY", "zip": "11747-3665", "ntee": "S41", "ruling": "202004", "deductibility": "2", "assets": 81273, "income": 107500, "revenue": 107500}], "COMPROMISE": [{"ein": "844799870", "name": "HAPPY COMPROMISE FARM AND SANCTUARY", "city": "WAVERLY", "state": "NY", "zip": "14892-9577", "ntee": "D20", "ruling": "202003", "deductibility": "1", "assets": 884016, "income": 527453, "revenue": 524244}], "TWOFIVESIX": [{"ein": "852172555", "name": "EARLYBIRD TWOFIVESIX INC EARLYBIRD 256 INC", "city": "MASPETH", "state": "NY", "zip": "11378-1339", "ntee": "P99", "ruling": "202201", "deductibility": "1", "assets": 0, "income": 0, "revenue": 0}], "FANABALA": [{"ein": "852998680", "name": "FANABALA ALL CREATURES SANCTUARY INC", "city": "ROCHESTER", "state": "NY", "zip": "14620-2313", "ntee": "D20", "ruling": "202011", "deductibility": "1", "assets": 0, "income": 0, "revenue": 0}], "PRANA": [{"ein": "853684756", "name": "PRANA FARMS RESCUE INC", "city": "STAATSBURG", "state": "NY", "zip": "12580-6249", "ntee": "D20", "ruling": "202110", "deductibility": "1", "assets": 92775, "income": 266423, "revenue": 0}], "JOC": [{"ein": "861489756", "name": "AMMUD THE JOC TORAH ACADEMY INC", "city": "NEW YORK", "state": "NY", "zip": "10005-4301", "ntee": "B01", "ruling": "202104", "deductibility": "1", "assets": 264976, "income": 525911, "revenue": 525911}, {"ein": "921261807", "name": "JOC WOMEN LEARN INC", "city": "NEW YORK", "state": "NY", "zip": "10033-4309", "ntee": "T50", "ruling": "202301", "deductibility": "1", "assets": 0, "income": 0, "revenue": 0}], "NEIMOIS": [{"ein": "861511241", "name": "NEIMOIS HATORAH", "city": "MONROE", "state": "NY", "zip": "10950-2410", "ntee": "X30", "ruling": "202108", "deductibility": "1", "assets": 0, "income": 0, "revenue": 0}], "MULTILITERACY": [{"ein": "863559172", "name": "LEVEL UP MULTILITERACY FOUNDATION", "city": "NEW YORK", "state": "NY", "zip": "10001-2828", "ntee": "B80", "ruling": "202108", "deductibility": "1", "assets": 0, "income": 0, "revenue": 0}], "NEURORIGHTS": [{"ein": "871466237", "name": "NEURORIGHTS FOUNDATION INC", "city": "NEW YORK", "state": "NY", "zip": "10027-6809", "ntee": "Q70", "ruling": "202203", "deductibility": "1", "assets": 44114, "income": 125170, "revenue": 125170}], "GISMONDI": [{"ein": "871551585", "name": "NICHOLAS J GISMONDI MEMORIAL FUND", "city": "STATEN ISLAND", "state": "NY", "zip": "10301-3619", "ntee": "B12", "ruling": "202304", "deductibility": "1", "assets": 0, "income": 0, "revenue": 0}], "CHFM": [{"ein": "872217721", "name": "CHFM INCORPORATED", "city": "COPAKE", "state": "NY", "zip": "12516-0011", "ntee": "C01", "ruling": "202301", "deductibility": "1", "assets": 0, "income": 0, "revenue": 0}], "LLAMEID": [{"ein": "880537938", "name": "LLAMEID INC", "city": "BROOKLYN", "state": "NY", "zip": "11219-2025", "ntee": "X30", "ruling": "202208", "deductibility": "1", "assets": 0, "income": 0, "revenue": 0}], "GOODM": [{"ein": "881119651", "name": "A DAMN GOODM LIFE INC", "city": "EAST HAMPTON", "state": "NY", "zip": "11937-1336", "ntee": "E60", "ruling": "202204", "deductibility": "1", "assets": 0, "income": 0, "revenue": 0}], "VETZEIDA": [{"ein": "881122209", "name": "MAZON VETZEIDA", "city": "BROOKLYN", "state": "NY", "zip": "11219-4117", "ntee": "X30", "ruling": "202204", "deductibility": "1", "assets": 0, "income": 0, "revenue": 0}], "GREENFORCE": [{"ein": "882931854", "name": "GREENFORCE TRAINING INC", "city": "BUFFALO", "state": "NY", "zip": "14215-3148", "ntee": "J20", "ruling": "202302", "deductibility": "1", "assets": 0, "income": 0, "revenue": 0}], "ESHDTF": [{"ein": "900993146", "name": "ESHDTF", "city": "BROOKLYN", "state": "NY", "zip": "11212-2834", "ntee": "X99", "ruling": "201410", "deductibility": "1", "assets": 273520, "income": 202691, "revenue": 202691}], "CPS": [{"ein": "920964678", "name": "CPS PARENTS ASSOCIATION LIMITED", "city": "NEW YORK", "state": "NY", "zip": "10024-1475", "ntee": "B94", "ruling": "202501", "deductibility": "1", "assets": 0, "income": 0, "revenue": 0}], "BONIN": [{"ein": "922297209", "name": "BRYAN BONIN SCHOLARSHIP FUND LTD", "city": "DEER PARK", "state": "NY", "zip": "11729-2715", "ntee": "P12", "ruling": "202302", "deductibility": "1", "assets": 110093, "income": 67178, "revenue": 67178}], "RAYZORS": [{"ein": "932300802", "name": "RAYZORS FOUNDATION", "city": "ELMA", "state": "NY", "zip": "14059-9548", "ntee": "F12", "ruling": "202312", "deductibility": "1", "assets": 0, "income": 0, "revenue": 0}], "ONEZ": [{"ein": "932634179", "name": "1 ELP ONEZ", "city": "JAMAICA", "state": "NY", "zip": "11434-1403", "ntee": "P20", "ruling": "202308", "deductibility": "1", "assets": 0, "income": 0, "revenue": 0}], "ITAV": [{"ein": "933549760", "name": "ITAV CHESSED INC", "city": "BROOKLYN", "state": "NY", "zip": "11229-2196", "ntee": "X30", "ruling": "202310", "deductibility": "1", "assets": 70641, "income": 65848, "revenue": 65848}], "ANTHROPOLOGISTS": [{"ein": "990633130", "name": "INSANIYYAT - SOCIETY OF PALESTINIAN ANTHROPOLOGISTS", "city": "NEW YORK", "state": "NY", "zip": "10023-7414", "ntee": "V21", "ruling": "202405", "deductibility": "1", "assets": 0, "income": 0, "revenue": 0}], "MIGRATORIOS": [{"ein": "991957026", "name": "CMIGRA - CENTRO DE CERTIFICACION PARA SERVIDORES MIGRATORIOS DE LAS", "city": "BRONX", "state": "NY", "zip": "10457-2888", "ntee": "B19", "ruling": "202404", "deductibility": "1", "assets": 1, "income": 140496, "revenue": 140496}], "SMARTERPHONE": [{"ein": "991977921", "name": "SMARTERPHONE", "city": "NEW YORK", "state": "NY", "zip": "10128-2511", "ntee": "B94", "ruling": "202409", "deductibility": "1", "assets": 0, "income": 0, "revenue": 0}], "PLIE": [{"ein": "992319430", "name": "AMERICAN FRIENDS OF PLIE FOR THE ARTS INC", "city": "HICKSVILLE", "state": "NY", "zip": "11801-1736", "ntee": "A62", "ruling": "202405", "deductibility": "1", "assets": 0, "income": 0, "revenue": 0}], "RKMCNYXX": [{"ein": "992784258", "name": "RKMCNYXX BAYVILLE", "city": "BAYVILLE", "state": "NY", "zip": "11709-1333", "ntee": "N12", "ruling": "202405", "deductibility": "1", "assets": 0, "income": 0, "revenue": 0}], "LIGHTZ": [{"ein": "992823467", "name": "J STAR LIGHTZ CORPORATION", "city": "JAMAICA", "state": "NY", "zip": "11412-3361", "ntee": "L80", "ruling": "202407", "deductibility": "1", "assets": 0, "income": 0, "revenue": 0}], "BETAR": [{"ein": "993287943", "name": "BETAR ZIONIST ORGANIZATION INC", "city": "KATONAH", "state": "NY", "zip": "10536-0837", "ntee": "B01", "ruling": "202407", "deductibility": "1", "assets": 0, "income": 0, "revenue": 0}]}