{"EVANS": [{"ein": "010565816", "name": "ERIC EVANS MEMORIAL CHARITABLE FUND INC", "city": "NISKAYUNA", "state": "NY", "zip": "12309-1502", "ntee": "B82", "ruling": "201606", "deductibility": "1", "assets": 0, "income": 0, "revenue": 0}, {"ein": "061480414", "name": "R S EVANS FOUNDATION INC", "city": "GARDEN CITY", "state": "NY", "zip": "11530-1650", "ntee": "J00Z", "ruling": "199711", "deductibility": "1", "assets": 14991623, "income": 3022926, "revenue": 0}, {"ein": "113436897", "name": "RUSKIN MOSCOU EVANS & FALTISCHEK FOUNDATION INC", "city": "UNIONDALE", "state": "NY", "zip": "11556-1425", "ntee": "T21", "ruling": "199902", "deductibility": "1", "assets": 440, "income": 1, "revenue": 0}, {"ein": "150511352", "name": "EVANS MILLS CEMETERY ASSOCIATION INC", "city": "EVANS MILLS", "state": "NY", "zip": "13637-3231", "ntee": "", "ruling": "201112", "deductibility": "1", "assets": 0, "income": 0, "revenue": 0}, {"ein": "160793819", "name": "FIRST CHURCH OF EVANS", "city": "DERBY", "state": "NY", "zip": "14047-0364", "ntee": "", "ruling": "196804", "deductibility": "1", "assets": 0, "income": 0, "revenue": 0}, {"ein": "160999177", "name": "EVANS ROD AND GUN CLUB INC", "city": "ANGOLA", "state": "NY", "zip": "14006-9132", "ntee": "", "ruling": "197402", "deductibility": "2", "assets": 514087, "income": 231527, "revenue": 143746}, {"ein": "161000387", "name": "EVANS CENTER VOLUNTEER FIRE CO INC", "city": "ANGOLA", "state": "NY", "zip": "14006-8807", "ntee": "M24", "ruling": "199908", "deductibility": "1", "assets": 1186999, "income": 326878, "revenue": 326878}, {"ein": "161044134", "name": "SAINT ANDREWS CHURCH EVANS MILLS", "city": "EVANS MILLS", "state": "NY", "zip": "13637-0233", "ntee": "", "ruling": "194603", "deductibility": "1", "assets": 0, "income": 0, "revenue": 0}, {"ein": "166024690", "name": "HARDINGE ANDERSON EVANS FOUNDATION", "city": "ELMIRA", "state": "NY", "zip": "14901-2741", "ntee": "", "ruling": "196201", "deductibility": "1", "assets": 1254872, "income": 65060, "revenue": 0}, {"ein": "166067800", "name": "LIONS CLUB OF EVANS TOWNSHIP", "city": "ANGOLA", "state": "NY", "zip": "14006-1209", "ntee": "", "ruling": "201512", "deductibility": "2", "assets": 0, "income": 0, "revenue": 0}, {"ein": "166121655", "name": "LORRAINE EVANS TWU FBO WOMENS SOC 24200200", "city": "NORWICH", "state": "NY", "zip": "13815-0000", "ntee": "", "ruling": "197209", "deductibility": "1", "assets": 2754, "income": 3361, "revenue": 0}, {"ein": "222462656", "name": "EVANS MILLS VOLUNTEER AMBULANCE SQUAD INCORPORATED", "city": "EVANS MILLS", "state": "NY", "zip": "13637-3231", "ntee": "E62Z", "ruling": "198310", "deductibility": "1", "assets": 273697, "income": 456440, "revenue": 456440}, {"ein": "223115623", "name": "EVANS DEVEREUX MEMORIAL FUND UA11 UW VIRGINIA DEVEREUX", "city": "BUFFALO", "state": "NY", "zip": "14203-0000", "ntee": "", "ruling": "000000", "deductibility": "2", "assets": 2178040, "income": 1251683, "revenue": 0}, {"ein": "237334225", "name": "EVANS TOWNSHIP POST 5798 DEPARTMENT OF NEW YORK VETERANS OF FOREIGN", "city": "ANGOLA", "state": "NY", "zip": "14006-9556", "ntee": "W30", "ruling": "201306", "deductibility": "1", "assets": 0, "income": 0, "revenue": 0}, {"ein": "264611657", "name": "ASSOCIATION OF CHARLES EVANS HOUSING FOUNDATION", "city": "NEW YORK", "state": "NY", "zip": "10012-3830", "ntee": "P128", "ruling": "201005", "deductibility": "1", "assets": 10049711, "income": 1113500, "revenue": 0}, {"ein": "454584243", "name": "EVANS TEAM INC", "city": "CHAPPAQUA", "state": "NY", "zip": "10514-3018", "ntee": "E86", "ruling": "201208", "deductibility": "1", "assets": 55834, "income": 195411, "revenue": 50929}, {"ein": "473308399", "name": "CHARLES EVANS CENTER INC", "city": "BETHPAGE", "state": "NY", "zip": "11714-1030", "ntee": "F32", "ruling": "201507", "deductibility": "1", "assets": 23000506, "income": 21582002, "revenue": 21582002}, {"ein": "814311506", "name": "EVANS IMAFIDON GLOBAL INITIATIVE", "city": "BRONX", "state": "NY", "zip": "10457-6645", "ntee": "P80", "ruling": "201705", "deductibility": "1", "assets": 5705, "income": 0, "revenue": 0}, {"ein": "822267263", "name": "NANCY EVANS HAYS FOUNDATION", "city": "GLOVERSVILLE", "state": "NY", "zip": "12078-0354", "ntee": "T20", "ruling": "201806", "deductibility": "1", "assets": 477691, "income": 85803, "revenue": 0}, {"ein": "822437261", "name": "RICHARD & REBECCA EVANS FAMILY FOUNDATION INC", "city": "JOHNSTOWN", "state": "NY", "zip": "12095-1210", "ntee": "T20", "ruling": "201806", "deductibility": "1", "assets": 794995, "income": 377081, "revenue": 0}, {"ein": "931983383", "name": "EVANS COMMUNITY EVENTS", "city": "IRVING", "state": "NY", "zip": "14081-0239", "ntee": "A27", "ruling": "202307", "deductibility": "1", "assets": 0, "income": 0, "revenue": 0}, {"ein": "933269358", "name": "CHARLES EVANS HUGHES SOCIETY INC", "city": "WHITE PLAINS", "state": "NY", "zip": "10601-4413", "ntee": "V26", "ruling": "202311", "deductibility": "1", "assets": 0, "income": 0, "revenue": 0}], "STRUGGLE": [{"ein": "010725804", "name": "DEDICATED TO THE STRUGGLE INC", "city": "BROOKLYN", "state": "NY", "zip": "11213-4245", "ntee": "I20", "ruling": "201912", "deductibility": "1", "assets": 0, "income": 0, "revenue": 0}, {"ein": "133747492", "name": "TO THE STRUGGLE AGAINST WORLD TERRORISM CORP", "city": "NEW YORK", "state": "NY", "zip": "10022-0000", "ntee": "A20J", "ruling": "199505", "deductibility": "1", "assets": 1, "income": 1, "revenue": 0}, {"ein": "134113620", "name": "STRUGGLE TO SAVE ETHIOPIAN JEWRY INC", "city": "NEW YORK", "state": "NY", "zip": "10024-5129", "ntee": "T20", "ruling": "200008", "deductibility": "1", "assets": 4455634, "income": 4984926, "revenue": 4984926}, {"ein": "990741850", "name": "STRUGGLE AGAINST POVERTY FOUNDATION INC", "city": "SEAFORD", "state": "NY", "zip": "11783-3533", "ntee": "P20", "ruling": "202407", "deductibility": "1", "assets": 0, "income": 0, "revenue": 0}], "TAYLOR": [{"ein": "010773764", "name": "TAYLOR HISTORICAL SOCIETY", "city": "CINCINNATUS", "state": "NY", "zip": "13040-3203", "ntee": "A80", "ruling": "200305", "deductibility": "1", "assets": 0, "income": 0, "revenue": 0}, {"ein": "061483968", "name": "RUSSEL R TAYLOR FOUNDATION", "city": "LARCHMONT", "state": "NY", "zip": "10538-2009", "ntee": "T20J", "ruling": "199706", "deductibility": "1", "assets": 2390566, "income": 525210, "revenue": 0}, {"ein": "112946059", "name": "ST ANNES SHRINE C/O ARCHBISHOP PURA V TAYLOR", "city": "BAY SHORE", "state": "NY", "zip": "11706-2438", "ntee": "", "ruling": "199407", "deductibility": "1", "assets": 0, "income": 0, "revenue": 0}, {"ein": "132665475", "name": "PAUL TAYLOR DANCE FOUNDATION INC", "city": "NEW YORK", "state": "NY", "zip": "10018-9532", "ntee": "A620", "ruling": "198309", "deductibility": "1", "assets": 16459342, "income": 17307146, "revenue": 10962636}, {"ein": "134123316", "name": "BARBARA ALDEN TAYLOR FOUNDATION INC", "city": "NEW YORK", "state": "NY", "zip": "10128-0615", "ntee": "T22", "ruling": "200008", "deductibility": "1", "assets": 11029, "income": 11509, "revenue": 0}, {"ein": "137138118", "name": "TAYLOR FAM FOUNDATION", "city": "NEW YORK", "state": "NY", "zip": "10055-0002", "ntee": "T20Z", "ruling": "199805", "deductibility": "1", "assets": 359708, "income": 34090, "revenue": 0}, {"ein": "141805402", "name": "SUSAN ODELL TAYLOR SCHOOL FOR CHILDREN", "city": "TROY", "state": "NY", "zip": "12180-4845", "ntee": "B24", "ruling": "199811", "deductibility": "1", "assets": 1811732, "income": 1169924, "revenue": 1169924}, {"ein": "150568878", "name": "FULLER-TAYLOR AMERICAN LEGION POST NO 915 INC", "city": "CENTRAL SQ", "state": "NY", "zip": "13036-0085", "ntee": "W30", "ruling": "202406", "deductibility": "1", "assets": 195961, "income": 472065, "revenue": 221798}, {"ein": "161326324", "name": "TAYLOR WESLEYAN CHURCH", "city": "CINCINNATUS", "state": "NY", "zip": "13040-0000", "ntee": "", "ruling": "197005", "deductibility": "2", "assets": 0, "income": 0, "revenue": 0}, {"ein": "166098233", "name": "GREYTON H TAYLOR WINE MUSEUM", "city": "HAMMONDSPORT", "state": "NY", "zip": "14840-0458", "ntee": "A540", "ruling": "196805", "deductibility": "1", "assets": 18743, "income": 937, "revenue": 937}, {"ein": "222807734", "name": "TAYLOR BROWN HOUSING DEVELOPMENT FUND COMPANY INC", "city": "WATERLOO", "state": "NY", "zip": "13165-1634", "ntee": "L20Z", "ruling": "198708", "deductibility": "1", "assets": 1782632, "income": 492084, "revenue": 492084}, {"ein": "223218648", "name": "FRED AND HARRIET TAYLOR MEMORIAL LIBRARY", "city": "HAMMONDSPORT", "state": "NY", "zip": "14840-9451", "ntee": "", "ruling": "199305", "deductibility": "1", "assets": 1496609, "income": 223678, "revenue": 214458}, {"ein": "237075720", "name": "HOWARD D & SANDRA TAYLOR FAMILY FOUNDATION INC", "city": "NEW YORK", "state": "NY", "zip": "10006-2756", "ntee": "", "ruling": "197001", "deductibility": "1", "assets": 77673, "income": 23968, "revenue": 0}, {"ein": "270073151", "name": "TAYLOR FAMILY FOUNDATION INC", "city": "GLOVERSVILLE", "state": "NY", "zip": "12078-0356", "ntee": "T22", "ruling": "200403", "deductibility": "1", "assets": 214983, "income": 300000, "revenue": 0}, {"ein": "311695786", "name": "JOYCE TAYLOR MINISTRIES INC", "city": "JAMAICA", "state": "NY", "zip": "11436-2146", "ntee": "X21", "ruling": "200003", "deductibility": "1", "assets": 0, "income": 0, "revenue": 0}, {"ein": "455583670", "name": "ERYC TAYLOR DANCE INC", "city": "NEW YORK", "state": "NY", "zip": "10036-6880", "ntee": "A62", "ruling": "201311", "deductibility": "1", "assets": 21049, "income": 205752, "revenue": 205752}, {"ein": "464104553", "name": "TAYLOR WILSON THOMPSON FAMILY FOUNDATION", "city": "ALBANY", "state": "NY", "zip": "12212-5201", "ntee": "T20", "ruling": "201509", "deductibility": "1", "assets": 1986037, "income": 1598866, "revenue": 0}, {"ein": "933152350", "name": "TAYLOR MADE COMMUNITY RESOURCES CORP", "city": "WEST HEMPSTEAD", "state": "NY", "zip": "11552-1341", "ntee": "J22", "ruling": "202311", "deductibility": "1", "assets": 0, "income": 0, "revenue": 0}, {"ein": "933878539", "name": "TAYLOR LOVETT DANCE ACADEMY INC", "city": "BROOKLYN", "state": "NY", "zip": "11203-3459", "ntee": "A62", "ruling": "202312", "deductibility": "1", "assets": 0, "income": 0, "revenue": 0}, {"ein": "992288753", "name": "I B TAYLOR-KAMARA FOUNDATION CORPORATION", "city": "SLEEPY HOLLOW", "state": "NY", "zip": "10591-1032", "ntee": "T30", "ruling": "202407", "deductibility": "1", "assets": 0, "income": 0, "revenue": 0}, {"ein": "994152188", "name": "JAMES W TAYLOR FAMILY FOUNDATION", "city": "GREENFLD CTR", "state": "NY", "zip": "12833-1018", "ntee": "T22", "ruling": "202408", "deductibility": "1", "assets": 0, "income": 0, "revenue": 0}], "AUDITORS": [{"ein": "043232658", "name": "NEW ENGLAND HEALTHCARE INTERNAL AUDITORS", "city": "MONTGOMERY", "state": "NY", "zip": "12549-1723", "ntee": "", "ruling": "199406", "deductibility": "2", "assets": 0, "income": 0, "revenue": 0}, {"ein": "113105612", "name": "INSTITUTE OF INTERNAL AUDITORS", "city": "JERICHO", "state": "NY", "zip": "11753-1658", "ntee": "", "ruling": "199201", "deductibility": "0", "assets": 306247, "income": 134107, "revenue": 134107}, {"ein": "133758261", "name": "ASSOCIATION OF INTERNATIONAL BANK AUDITORS INC", "city": "NEW YORK", "state": "NY", "zip": "10150-8264", "ntee": "", "ruling": "199412", "deductibility": "2", "assets": 0, "income": 0, "revenue": 0}, {"ein": "141742654", "name": "ASSOCIATION OF PUBLIC PENSION FUND AUDITORS INC", "city": "ALBANY", "state": "NY", "zip": "12211-0057", "ntee": "Z99Z", "ruling": "199201", "deductibility": "1", "assets": 52988, "income": 121970, "revenue": 121970}, {"ein": "161164634", "name": "INSTITUTE OF INTERNAL AUDITORS", "city": "BUFFALO", "state": "NY", "zip": "14202-3511", "ntee": "", "ruling": "199201", "deductibility": "2", "assets": 0, "income": 0, "revenue": 0}, {"ein": "237350019", "name": "INSTITUTE OF INTERNAL AUDITORS", "city": "NEW YORK CITY", "state": "NY", "zip": "10163-4505", "ntee": "", "ruling": "199201", "deductibility": "2", "assets": 740928, "income": 264039, "revenue": 264039}, {"ein": "237408775", "name": "INSTITUTE OF INTERNAL AUDITORS", "city": "ALBANY", "state": "NY", "zip": "12201-0032", "ntee": "", "ruling": "199201", "deductibility": "2", "assets": 111173, "income": 97830, "revenue": 97830}, {"ein": "237408776", "name": "INSTITUE OF INTERNAL AUDITORS", "city": "SYRACUSE", "state": "NY", "zip": "13220-3552", "ntee": "", "ruling": "199201", "deductibility": "2", "assets": 0, "income": 0, "revenue": 0}, {"ein": "237408778", "name": "INSTITUTE OF INTERNAL AUDITORS", "city": "FAIRPORT", "state": "NY", "zip": "14450-0488", "ntee": "", "ruling": "199201", "deductibility": "2", "assets": 0, "income": 0, "revenue": 0}], "EQUITY": [{"ein": "043697166", "name": "GIRLS FOR GENDER EQUITY INC-G G E", "city": "BROOKLYN", "state": "NY", "zip": "11201-1917", "ntee": "I21", "ruling": "200212", "deductibility": "1", "assets": 7768809, "income": 4948424, "revenue": 4948424}, {"ein": "113144364", "name": "BROOKLYN HEALTH EQUITY FOUNDATION INC", "city": "BROOKLYN", "state": "NY", "zip": "11213-1126", "ntee": "T30Z", "ruling": "199308", "deductibility": "1", "assets": 6167653, "income": 512129, "revenue": 512129}, {"ein": "130413995", "name": "ACTORS EQUITY ASSOCIATION", "city": "NEW YORK", "state": "NY", "zip": "10036-2508", "ntee": "", "ruling": "199407", "deductibility": "2", "assets": 87727764, "income": 27788472, "revenue": 23771298}, {"ein": "132513378", "name": "ACTORS EQUITY FOUNDATION INC", "city": "NEW YORK", "state": "NY", "zip": "10036-2501", "ntee": "T70Z", "ruling": "197503", "deductibility": "1", "assets": 4407424, "income": 1272676, "revenue": 3449}, {"ein": "133168746", "name": "ASSOCIATION FOR CULTURAL EQUITY INC", "city": "NEW YORK", "state": "NY", "zip": "10010-2547", "ntee": "A200", "ruling": "198308", "deductibility": "1", "assets": 162517, "income": 542579, "revenue": 542579}, {"ein": "133300462", "name": "NEW YORK ARTISTS EQUITY ASSOCIATION INC", "city": "NEW YORK", "state": "NY", "zip": "10002-3839", "ntee": "A20Z", "ruling": "199201", "deductibility": "1", "assets": 809360, "income": 785199, "revenue": 707161}, {"ein": "133398825", "name": "ACTORS EQUITY HOLDING CORPORATION", "city": "NEW YORK", "state": "NY", "zip": "10036-2501", "ntee": "", "ruling": "198712", "deductibility": "2", "assets": 8345158, "income": 4370366, "revenue": 4370366}, {"ein": "133458820", "name": "BROADWAY CARES-EQUITY FIGHTS AIDS INC", "city": "NEW YORK", "state": "NY", "zip": "10036-2501", "ntee": "", "ruling": "199401", "deductibility": "1", "assets": 15664609, "income": 25636340, "revenue": 24219750}, {"ein": "133854497", "name": "EQUITY-LORT SUBSIDIARY RIGHTS TR FD II", "city": "NEW YORK", "state": "NY", "zip": "10036-2508", "ntee": "", "ruling": "199607", "deductibility": "2", "assets": 0, "income": 0, "revenue": 0}, {"ein": "136092981", "name": "BOARD OF TRUSTEES EQUITY LEAGUE HEALTH TRUST FUND", "city": "NEW YORK", "state": "NY", "zip": "10036-2508", "ntee": "", "ruling": "196401", "deductibility": "2", "assets": 125748623, "income": 102682395, "revenue": 71405273}, {"ein": "137221529", "name": "SELECT EQUITY GROUP FOUNDATION", "city": "NEW YORK", "state": "NY", "zip": "10003-6953", "ntee": "T21", "ruling": "200011", "deductibility": "1", "assets": 50134375, "income": 454375, "revenue": 0}, {"ein": "141949357", "name": "HUDSON CENTER FOR HEALTH EQUITY AND QUALITY INC", "city": "TARRYTOWN", "state": "NY", "zip": "10591-0000", "ntee": "E19", "ruling": "200805", "deductibility": "1", "assets": 1698378, "income": 1679581, "revenue": 1679581}, {"ein": "161568466", "name": "AMPLIFY EQUITY INC", "city": "ELMIRA", "state": "NY", "zip": "14901-2918", "ntee": "S30", "ruling": "199909", "deductibility": "1", "assets": 387036, "income": 147326, "revenue": 147326}, {"ein": "166054828", "name": "KNIGHTS OF EQUITY COURT-5", "city": "BUFFALO", "state": "NY", "zip": "14220-1305", "ntee": "", "ruling": "195005", "deductibility": "1", "assets": 0, "income": 0, "revenue": 0}, {"ein": "204539725", "name": "SEAWAY PRIVATE EQUITY CORPORATION", "city": "POTSDAM", "state": "NY", "zip": "13699-0001", "ntee": "S30", "ruling": "200703", "deductibility": "1", "assets": 6888506, "income": 40900, "revenue": 40900}, {"ein": "208848357", "name": "LEADERSHIP FOR EDUCATIONAL EQUITY", "city": "NEW YORK", "state": "NY", "zip": "10004-1081", "ntee": "B90", "ruling": "201804", "deductibility": "2", "assets": 3691580, "income": 17874100, "revenue": 17874100}, {"ein": "261878877", "name": "HEALTH EQUITY INITIATIVE INC", "city": "NEW YORK", "state": "NY", "zip": "10014-4811", "ntee": "E05", "ruling": "202304", "deductibility": "1", "assets": 139478, "income": 53285, "revenue": 53285}, {"ein": "262646007", "name": "TRAINING FOR HEALTH EQUITY NETWORK INC", "city": "GARDEN CITY", "state": "NY", "zip": "11530-3017", "ntee": "Q30", "ruling": "200909", "deductibility": "1", "assets": 18105, "income": 166771, "revenue": 166771}, {"ein": "264547952", "name": "ACTORS EQUITY CHICAGO HOLDING CORP", "city": "NEW YORK", "state": "NY", "zip": "10036-2501", "ntee": "S47", "ruling": "201008", "deductibility": "2", "assets": 5117329, "income": 484189, "revenue": 484189}, {"ein": "264795837", "name": "PRIVATE EQUITY WOMEN INVESTOR NETWORKS INC", "city": "NEW YORK", "state": "NY", "zip": "10011-8436", "ntee": "S41", "ruling": "201008", "deductibility": "2", "assets": 2118290, "income": 1076828, "revenue": 1076828}, {"ein": "331943127", "name": "GLOBAL OUTREACH FOR MEDICAL EQUITY AND DEVELOPMENT INC", "city": "ENDWELL", "state": "NY", "zip": "13760-7133", "ntee": "E99", "ruling": "202411", "deductibility": "1", "assets": 0, "income": 0, "revenue": 0}, {"ein": "332961861", "name": "SOUTHERN TIER DIGITAL EQUITY COALITION", "city": "PAINTED POST", "state": "NY", "zip": "14870-9598", "ntee": "P02", "ruling": "202502", "deductibility": "1", "assets": 0, "income": 0, "revenue": 0}, {"ein": "432116245", "name": "PRIVATE EQUITY FOUNDATION I INC", "city": "NEW YORK", "state": "NY", "zip": "10019-0000", "ntee": "T12", "ruling": "200710", "deductibility": "1", "assets": 682710, "income": 123250, "revenue": 123250}, {"ein": "462093041", "name": "LEADERSHIP FOR EDUCATIONAL EQUITY FOUNDATION", "city": "NEW YORK", "state": "NY", "zip": "10004-1081", "ntee": "P20", "ruling": "201408", "deductibility": "1", "assets": 4142017, "income": 9499395, "revenue": 9499395}, {"ein": "463576125", "name": "THE CENTER FOR LEARNER EQUITY INC", "city": "NEW YORK", "state": "NY", "zip": "10170-0002", "ntee": "B28", "ruling": "201407", "deductibility": "1", "assets": 4442096, "income": 709224, "revenue": 709224}, {"ein": "465606457", "name": "EQUITY GROUP FOUNDATION INTERNATIONAL", "city": "NEW YORK", "state": "NY", "zip": "10036-7904", "ntee": "Q33", "ruling": "201409", "deductibility": "1", "assets": 3468, "income": 3000, "revenue": 0}, {"ein": "753241288", "name": "LATINOS FOR HEALTHCARE EQUITY", "city": "NEW YORK", "state": "NY", "zip": "10002-5672", "ntee": "E05", "ruling": "200806", "deductibility": "1", "assets": 0, "income": 0, "revenue": 0}, {"ein": "811323278", "name": "KATAL CENTER FOR EQUITY HEALTH AND JUSTICE INC", "city": "BROOKLYN", "state": "NY", "zip": "11201-3022", "ntee": "Q33", "ruling": "201611", "deductibility": "1", "assets": 1321320, "income": 637449, "revenue": 637449}, {"ein": "813015359", "name": "KATAL ACTION FOR HEALTH EQUITY AND JUSTICE INC", "city": "BROOKLYN", "state": "NY", "zip": "11201-3022", "ntee": "R20", "ruling": "201905", "deductibility": "2", "assets": 0, "income": 0, "revenue": 0}, {"ein": "821176124", "name": "PERIOD EQUITY INC", "city": "NEW YORK", "state": "NY", "zip": "10027-6809", "ntee": "I83", "ruling": "201806", "deductibility": "1", "assets": 33532, "income": 328327, "revenue": 328327}, {"ein": "822116378", "name": "BUILDING EQUITY INITIATIVE INC", "city": "NEW YORK", "state": "NY", "zip": "10014-5872", "ntee": "P20", "ruling": "201711", "deductibility": "1", "assets": 228212427, "income": 9649843, "revenue": 9649843}, {"ein": "823627706", "name": "EQUITY CONSULTING GROUP", "city": "NEW HAMPTON", "state": "NY", "zip": "10958-3926", "ntee": "B11", "ruling": "202207", "deductibility": "1", "assets": 107828, "income": 425040, "revenue": 425040}, {"ein": "823885723", "name": "EQUITY ADVOCATES INC", "city": "HARRISON", "state": "NY", "zip": "10528-7541", "ntee": "K05", "ruling": "201812", "deductibility": "1", "assets": 525243, "income": 527551, "revenue": 527551}, {"ein": "833365132", "name": "ROAD TO 120-EDUCATION EQUITY FOR YOUNG WOMEN INC", "city": "BROOKLYN", "state": "NY", "zip": "11217-2136", "ntee": "T12", "ruling": "201910", "deductibility": "1", "assets": 210831, "income": 182330, "revenue": 182330}, {"ein": "833914379", "name": "NATIONAL EDUCATION EQUITY LAB INC", "city": "NEW YORK", "state": "NY", "zip": "10012-2348", "ntee": "B25", "ruling": "201905", "deductibility": "1", "assets": 3353666, "income": 5516137, "revenue": 5516137}, {"ein": "843348176", "name": "THE SIFE EQUITY PROJECT INC", "city": "BARRYTOWN", "state": "NY", "zip": "12507-5013", "ntee": "B90", "ruling": "202007", "deductibility": "1", "assets": 0, "income": 0, "revenue": 0}, {"ein": "850868589", "name": "BUFFALO CENTER FOR HEALTH EQUITY INC", "city": "BUFFALO", "state": "NY", "zip": "14208-1035", "ntee": "E70", "ruling": "202207", "deductibility": "1", "assets": 1297497, "income": 120750, "revenue": 120750}, {"ein": "851289207", "name": "SPORTS AND ENTERTAINMENT EQUITY NETWORK ASSOCIATION", "city": "NEW YORK", "state": "NY", "zip": "10101-0027", "ntee": "R03", "ruling": "202006", "deductibility": "1", "assets": 58687, "income": 143123, "revenue": 143123}, {"ein": "852661025", "name": "IRONDEQUOIT ERASE ELIMINATING RACISM AND SEEKING EQUITY", "city": "ROCHESTER", "state": "NY", "zip": "14621-3014", "ntee": "R20", "ruling": "202012", "deductibility": "1", "assets": 0, "income": 0, "revenue": 0}, {"ein": "852763488", "name": "TOTAL EQUITY NOW INC", "city": "NEW YORK", "state": "NY", "zip": "10026-3618", "ntee": "B01", "ruling": "202202", "deductibility": "1", "assets": 0, "income": 0, "revenue": 0}, {"ein": "853179615", "name": "THE PREPAREDNESS AND TREATMENT EQUITY COALITION CORP", "city": "NEW YORK", "state": "NY", "zip": "10020-0083", "ntee": "", "ruling": "202103", "deductibility": "1", "assets": 314876, "income": 255000, "revenue": 255000}, {"ein": "854278306", "name": "SOCIETY FOR EQUITY INC", "city": "NEW YORK", "state": "NY", "zip": "10025-0009", "ntee": "P20", "ruling": "202202", "deductibility": "1", "assets": 0, "income": 0, "revenue": 0}, {"ein": "861268187", "name": "FOUNDATION FOR EQUITY RESOURCES FOR COMMUNITY-BASED NEEDS INC", "city": "NORTHPORT", "state": "NY", "zip": "11768-2910", "ntee": "B99", "ruling": "202202", "deductibility": "1", "assets": 0, "income": 0, "revenue": 0}, {"ein": "863077312", "name": "WEALTH AND EQUITY INC", "city": "BROOKLYN", "state": "NY", "zip": "11205-5019", "ntee": "B60", "ruling": "202412", "deductibility": "1", "assets": 35850, "income": 96150, "revenue": 96150}, {"ein": "871783111", "name": "THE EQUITY IN LAW AND DIVERSITY FUND", "city": "NEW YORK", "state": "NY", "zip": "10069-0815", "ntee": "I80", "ruling": "202207", "deductibility": "1", "assets": 0, "income": 0, "revenue": 0}, {"ein": "872718794", "name": "STUDENTS ENCOURAGING EQUITY & DISCUSSION INITIATIVE INCORPORATED", "city": "BROOKLYN", "state": "NY", "zip": "11217-4192", "ntee": "B01", "ruling": "202112", "deductibility": "1", "assets": 32, "income": 176, "revenue": 176}, {"ein": "872967964", "name": "CANNABIS SOCIAL EQUITY COALITION - NYS", "city": "NEW YORK", "state": "NY", "zip": "10151-0502", "ntee": "R99", "ruling": "202303", "deductibility": "1", "assets": 5004, "income": 71304, "revenue": 71304}, {"ein": "874610272", "name": "PLANT BASED EQUITY INC", "city": "NEW YORK", "state": "NY", "zip": "10024-5125", "ntee": "K99", "ruling": "202203", "deductibility": "1", "assets": 0, "income": 0, "revenue": 0}, {"ein": "882084287", "name": "BLACK BROWN AND DIVERSE PLANT-BASED PEOPLE FOR EQUITY INC", "city": "ROCHESTER", "state": "NY", "zip": "14616-2605", "ntee": "K30", "ruling": "202304", "deductibility": "1", "assets": 0, "income": 0, "revenue": 0}, {"ein": "882779328", "name": "EQUITY IN LIGHTING CORPORATION", "city": "NEW YORK", "state": "NY", "zip": "10003-7626", "ntee": "B01", "ruling": "202208", "deductibility": "1", "assets": 0, "income": 0, "revenue": 0}, {"ein": "883446257", "name": "EQUITY THROUGH DESIGN MENTORSHIP INC", "city": "POUND RIDGE", "state": "NY", "zip": "10576-0056", "ntee": "A90", "ruling": "202209", "deductibility": "1", "assets": 0, "income": 0, "revenue": 0}, {"ein": "900354470", "name": "EQUITY PROJECT CHARTER SCHOOL", "city": "NEW YORK", "state": "NY", "zip": "10040-3401", "ntee": "B29", "ruling": "200905", "deductibility": "1", "assets": 27492634, "income": 28409479, "revenue": 28409479}, {"ein": "921209875", "name": "CANNABIS JUSTICE EQUITY INITIATIVE", "city": "NEW YORK", "state": "NY", "zip": "10034-9421", "ntee": "W99", "ruling": "202404", "deductibility": "1", "assets": 0, "income": 0, "revenue": 0}, {"ein": "921854136", "name": "DIGITAL EQUITY NOW INC", "city": "ROCHESTER", "state": "NY", "zip": "14620-2530", "ntee": "S01", "ruling": "202302", "deductibility": "1", "assets": 0, "income": 0, "revenue": 0}, {"ein": "931635821", "name": "MID-HUDSON ENERGY EQUITY FUND", "city": "KINGSTON", "state": "NY", "zip": "12401-3866", "ntee": "P11", "ruling": "202501", "deductibility": "1", "assets": 0, "income": 0, "revenue": 0}, {"ein": "932646919", "name": "ALLIANCE FOR HOSPITALITY EQUITY AND DIVERSITY INC", "city": "NEW YORK", "state": "NY", "zip": "10003-4475", "ntee": "B01", "ruling": "202405", "deductibility": "1", "assets": 215585, "income": 200967, "revenue": 200967}, {"ein": "933117707", "name": "GLOBAL MENSTRUAL EQUITY FOUNDATION", "city": "NEW YORK", "state": "NY", "zip": "10020-1605", "ntee": "T12", "ruling": "202310", "deductibility": "1", "assets": 1, "income": 1, "revenue": 0}, {"ein": "934674768", "name": "FILIPINO AMERICAN MOVEMENT FOR EQUITY F A M E INC", "city": "BRONX", "state": "NY", "zip": "10452-1680", "ntee": "S99", "ruling": "202402", "deductibility": "1", "assets": 0, "income": 0, "revenue": 0}, {"ein": "990724621", "name": "GLOBAL EQUITY EDUCATION INC", "city": "STATEN ISLAND", "state": "NY", "zip": "10303-2400", "ntee": "B90", "ruling": "202404", "deductibility": "1", "assets": 0, "income": 0, "revenue": 0}, {"ein": "991977441", "name": "CREATIVE EQUITY INITIATIVE", "city": "BROOKLYN", "state": "NY", "zip": "11216-2414", "ntee": "A30", "ruling": "202404", "deductibility": "1", "assets": 0, "income": 0, "revenue": 0}, {"ein": "993312286", "name": "RAI IMPACT EQUITY LABS INC", "city": "NEW YORK", "state": "NY", "zip": "10019-7629", "ntee": "S02", "ruling": "202406", "deductibility": "1", "assets": 0, "income": 0, "revenue": 0}, {"ein": "993487026", "name": "CGMR HOUSING EQUITY PROJECT INC", "city": "ROCKY POINT", "state": "NY", "zip": "11778-8886", "ntee": "L99", "ruling": "202505", "deductibility": "1", "assets": 9970, "income": 10000, "revenue": 10000}], "MONTGOMERY": [{"ein": "061623601", "name": "FORT MONTGOMERY BATTLE SITE ASSOCIATION", "city": "FT MONTGOMERY", "state": "NY", "zip": "10922-0376", "ntee": "A84", "ruling": "200602", "deductibility": "1", "assets": 0, "income": 0, "revenue": 0}, {"ein": "141364468", "name": "UNITED WAY OF MONTGOMERY CO INC", "city": "AMSTERDAM", "state": "NY", "zip": "12010-5526", "ntee": "T70Z", "ruling": "195307", "deductibility": "1", "assets": 32842, "income": 99808, "revenue": 53326}, {"ein": "141364564", "name": "HOME FOR ELDERLY WOMEN OF MONTGOMERY COUNTY INC", "city": "AMSTERDAM", "state": "NY", "zip": "12010-4108", "ntee": "", "ruling": "194606", "deductibility": "1", "assets": 2716020, "income": 1444613, "revenue": 997598}, {"ein": "141370253", "name": "MONTGOMERY COUNTY AGRICULTURAL SOCIETY", "city": "FONDA", "state": "NY", "zip": "12068-0000", "ntee": "N52", "ruling": "201905", "deductibility": "1", "assets": 1740295, "income": 1168896, "revenue": 1168896}, {"ein": "141383470", "name": "MONTGOMERY COUNTY SOCIETY FOR THE PREVENTION OF CRUELTY TO ANIMALS", "city": "AMSTERDAM", "state": "NY", "zip": "12010-7788", "ntee": "D200", "ruling": "194809", "deductibility": "1", "assets": 2926322, "income": 874336, "revenue": 869170}, {"ein": "141501155", "name": "MONTGOMERY NURSERY SCHOOL", "city": "MONTGOMERY", "state": "NY", "zip": "12549-1117", "ntee": "", "ruling": "196901", "deductibility": "1", "assets": 274640, "income": 326454, "revenue": 315550}, {"ein": "141506257", "name": "NYSARC INC MONTGOMERY COUNTY CHAPTER", "city": "AMSTERDAM", "state": "NY", "zip": "12010-5635", "ntee": "P820", "ruling": "195405", "deductibility": "1", "assets": 36548702, "income": 64071372, "revenue": 51896842}, {"ein": "141584150", "name": "FOUNDATION OF FULTON-MONTGOMERY COMMUNITY COLLEGE INC", "city": "JOHNSTOWN", "state": "NY", "zip": "12095-3749", "ntee": "T31", "ruling": "198303", "deductibility": "1", "assets": 7411418, "income": 1081253, "revenue": 672065}, {"ein": "141592849", "name": "CATHOLIC FAMILY & COMMUNITY SERVICES MONTGOMERY COUNTY", "city": "AMSTERDAM", "state": "NY", "zip": "12010-4109", "ntee": "F20F", "ruling": "194603", "deductibility": "1", "assets": 0, "income": 0, "revenue": 0}, {"ein": "141655621", "name": "FULTON MONTGOMERY AND SCHOHARIE COUNTIES PRIVATE INDUSTRY COUNCIL", "city": "AMSTERDAM", "state": "NY", "zip": "12010-4615", "ntee": "J220", "ruling": "198812", "deductibility": "1", "assets": 540926, "income": 1096487, "revenue": 1096487}, {"ein": "141680341", "name": "MENTAL HEALTH ASSOCIATION IN FULTON & MONTGOMERY COUNTIES", "city": "JOHNSTOWN", "state": "NY", "zip": "12095-2828", "ntee": "F80Z", "ruling": "199009", "deductibility": "1", "assets": 9711859, "income": 8226732, "revenue": 7704539}, {"ein": "141702774", "name": "MONTGOMERY COUNTY LITERACY PROJECT INC", "city": "AMSTERDAM", "state": "NY", "zip": "12010-4324", "ntee": "B60", "ruling": "200603", "deductibility": "1", "assets": 0, "income": 0, "revenue": 0}, {"ein": "141769716", "name": "THE TOWN OF MONTGOMERY POLICEMENS BENEVOLENT ASSOCIATION INC", "city": "MONTGOMERY", "state": "NY", "zip": "12549-0072", "ntee": "J40", "ruling": "200603", "deductibility": "2", "assets": 0, "income": 0, "revenue": 0}, {"ein": "141792216", "name": "MONTGOMERY COUNTY OFFICE FOR THE AGING INC", "city": "AMSTERDAM", "state": "NY", "zip": "12010-3205", "ntee": "P81", "ruling": "199610", "deductibility": "1", "assets": 1742551, "income": 2202141, "revenue": 2177680}, {"ein": "146022991", "name": "MONTGOMERY COUNTY HISTORICAL SOC", "city": "FORT JOHNSON", "state": "NY", "zip": "12070-0196", "ntee": "A82Z", "ruling": "197605", "deductibility": "1", "assets": 1025277, "income": 186795, "revenue": 89991}, {"ein": "161536318", "name": "WORKFORCE DEVELOPMENT BOARD OF FLTN MONTGOMERY & SCHOHARIE CNTIES INC", "city": "AMSTERDAM", "state": "NY", "zip": "12010-4615", "ntee": "J01", "ruling": "200510", "deductibility": "1", "assets": 149587, "income": 1616520, "revenue": 1616520}, {"ein": "161582745", "name": "MONTGOMERY COUNTY PARTNERSHIP INC", "city": "GLOVERSVILLE", "state": "NY", "zip": "12078-3004", "ntee": "S30", "ruling": "200006", "deductibility": "1", "assets": 111973, "income": 798, "revenue": 798}, {"ein": "222392252", "name": "MONTGOMERY HOSE HOOK & LADDER INC", "city": "ROUSES POINT", "state": "NY", "zip": "12979-0245", "ntee": "M24", "ruling": "201408", "deductibility": "1", "assets": 105966, "income": 33116, "revenue": 28949}, {"ein": "223173371", "name": "VILLAGE OF MONTGOMERY POLICE BENEVOLENT ASSOCIATION INC", "city": "MONTGOMERY", "state": "NY", "zip": "12549-0104", "ntee": "", "ruling": "000000", "deductibility": "0", "assets": 0, "income": 0, "revenue": 0}, {"ein": "237175929", "name": "CLASSIS OF MONTGOMERY", "city": "N SYRACUSE", "state": "NY", "zip": "13212-2740", "ntee": "", "ruling": "198601", "deductibility": "1", "assets": 0, "income": 0, "revenue": 0}, {"ein": "263353569", "name": "ANCIENT ORDER OF HIBERNIANS LADIES PA MONTGOMERY DIV 3", "city": "BROOKLYN", "state": "NY", "zip": "11229-4111", "ntee": "Y40", "ruling": "201612", "deductibility": "2", "assets": 0, "income": 0, "revenue": 0}, {"ein": "263572411", "name": "MONTGOMERY FIRE DEPARTMENT", "city": "MONTGOMERY", "state": "NY", "zip": "12549-0008", "ntee": "W11", "ruling": "201507", "deductibility": "1", "assets": 751592, "income": 141200, "revenue": 141200}, {"ein": "320364683", "name": "CSEA UNIT 829-750000 MONTGOMERY CO DEPT OF PUBLIC WORKS", "city": "FULTONVILLE", "state": "NY", "zip": "12072-1826", "ntee": "J40", "ruling": "197007", "deductibility": "2", "assets": 0, "income": 0, "revenue": 0}, {"ein": "352160952", "name": "MONTGOMERY DEVILS GIRLS SOFTBALL TEAM", "city": "MONTGOMERY", "state": "NY", "zip": "12549-2084", "ntee": "O20", "ruling": "202311", "deductibility": "1", "assets": 0, "income": 0, "revenue": 0}, {"ein": "462101950", "name": "MONTGOMERY HOUSING DEVELOPMENT FUND COMPANY INC", "city": "NEW YORK", "state": "NY", "zip": "10002-2374", "ntee": "L20", "ruling": "201503", "deductibility": "1", "assets": 0, "income": 0, "revenue": 0}, {"ein": "471642059", "name": "TUSK MONTGOMERY CHARITABLE FOUNDATION INC", "city": "NEW YORK", "state": "NY", "zip": "10010-7302", "ntee": "T30", "ruling": "201411", "deductibility": "1", "assets": 2150, "income": 399000, "revenue": 399000}, {"ein": "811096677", "name": "ARTS FACTORY OF MONTGOMERY COUNTY INC", "city": "NELLISTON", "state": "NY", "zip": "13410-0111", "ntee": "A40", "ruling": "202207", "deductibility": "1", "assets": 2445, "income": 3359, "revenue": 3359}, {"ein": "811224748", "name": "TUSK MONTGOMERY PHILANTHROPIES INC", "city": "NEW YORK", "state": "NY", "zip": "10010-7302", "ntee": "T11", "ruling": "201609", "deductibility": "2", "assets": 3730, "income": 331500, "revenue": 331500}, {"ein": "821036449", "name": "MONTGOMERY COUNTY DEPUTY SHERIFFS POLICE BENEVOLENT ASSOCIATION INC", "city": "FULTONVILLE", "state": "NY", "zip": "12072-0432", "ntee": "J40", "ruling": "201803", "deductibility": "2", "assets": 0, "income": 0, "revenue": 0}, {"ein": "830590522", "name": "MONTGOMERY FOOD PANTRY INC", "city": "MONTGOMERY", "state": "NY", "zip": "12549-0423", "ntee": "K30", "ruling": "201907", "deductibility": "1", "assets": 352705, "income": 226081, "revenue": 226081}, {"ein": "851877392", "name": "BUSINESS COUNCIL OF GREATER MONTGOMERY INC", "city": "MONTGOMERY", "state": "NY", "zip": "12549-2600", "ntee": "S41", "ruling": "202103", "deductibility": "2", "assets": 18168, "income": 80764, "revenue": 80764}, {"ein": "923063147", "name": "FULTON-MONTGOMERY MASONIC CHARITIES INC", "city": "ESPERANCE", "state": "NY", "zip": "12066-2001", "ntee": "Y42", "ruling": "202303", "deductibility": "1", "assets": 0, "income": 0, "revenue": 0}, {"ein": "931987252", "name": "MONTGOMERY MENTAL HEALTH WELLNESS FOUNDATION INC", "city": "NANUET", "state": "NY", "zip": "10954-2621", "ntee": "E80", "ruling": "202307", "deductibility": "1", "assets": 1, "income": 1, "revenue": 0}, {"ein": "934886582", "name": "FULTON MONTGOMERY FARM TO TABLE TOUR INC", "city": "PATTERSONVLE", "state": "NY", "zip": "12137-4329", "ntee": "K01", "ruling": "202312", "deductibility": "1", "assets": 0, "income": 0, "revenue": 0}], "HARTLEY": [{"ein": "066036296", "name": "HARTLEY CORPORATION", "city": "GARRISON", "state": "NY", "zip": "10524-0275", "ntee": "", "ruling": "192301", "deductibility": "1", "assets": 2445257, "income": 1513931, "revenue": 0}, {"ein": "131656652", "name": "HARTLEY HOUSE", "city": "NEW YORK", "state": "NY", "zip": "10036-3510", "ntee": "P280", "ruling": "193805", "deductibility": "1", "assets": 1230810, "income": 1826369, "revenue": 1722394}, {"ein": "137268307", "name": "SCHLOSSTEIN-HARTLEY FAM FOUNDATION TR", "city": "SARATOGA SPGS", "state": "NY", "zip": "12866-0471", "ntee": "T20", "ruling": "200112", "deductibility": "1", "assets": 3619174, "income": 3806043, "revenue": 0}, {"ein": "473129011", "name": "NEW YORK STATE ARCHAEOLOGICAL ASSOCIATION VAN EPPS-HARTLEY", "city": "REXFORD", "state": "NY", "zip": "12148-1615", "ntee": "A03", "ruling": "201810", "deductibility": "1", "assets": 0, "income": 0, "revenue": 0}], "GATE": [{"ein": "111308900", "name": "THE SEA GATE ASSOCIATION", "city": "BROOKLYN", "state": "NY", "zip": "11224-1227", "ntee": "", "ruling": "193506", "deductibility": "2", "assets": 28574487, "income": 6207197, "revenue": 5794307}, {"ein": "112571794", "name": "THE NEW GATE BAPTIST CHURCH OF NEW YORK", "city": "FRESH MEADOWS", "state": "NY", "zip": "11365-1338", "ntee": "", "ruling": "198107", "deductibility": "1", "assets": 0, "income": 0, "revenue": 0}, {"ein": "112641445", "name": "EAST GATE CHURCH", "city": "MASSAPEQUA", "state": "NY", "zip": "11758-1263", "ntee": "", "ruling": "198706", "deductibility": "1", "assets": 0, "income": 0, "revenue": 0}, {"ein": "113003517", "name": "EAST GATE PRESBYTERIAN CHURCH OF NY INC", "city": "JACKSON HTS", "state": "NY", "zip": "11372-7843", "ntee": "", "ruling": "199404", "deductibility": "1", "assets": 0, "income": 0, "revenue": 0}, {"ein": "113276384", "name": "CHABAD OF SEA GATE AND CONEY ISLAND INC", "city": "BROOKLYN", "state": "NY", "zip": "11224-1324", "ntee": "X30", "ruling": "199902", "deductibility": "1", "assets": 0, "income": 0, "revenue": 0}, {"ein": "113414336", "name": "CHURCH OUTSIDE THE GATE IN NEW YORK", "city": "NEW YORK", "state": "NY", "zip": "10001-3886", "ntee": "X21", "ruling": "200001", "deductibility": "1", "assets": 0, "income": 0, "revenue": 0}, {"ein": "113491025", "name": "GATE OF ZION MINISTRIES", "city": "VALLEY STREAM", "state": "NY", "zip": "11581-2510", "ntee": "X21", "ruling": "199911", "deductibility": "1", "assets": 0, "income": 0, "revenue": 0}, {"ein": "113502159", "name": "LAMBS GATE NEW YORK CHURCH INC", "city": "FLUSHING", "state": "NY", "zip": "11354-3259", "ntee": "X21", "ruling": "200204", "deductibility": "1", "assets": 0, "income": 0, "revenue": 0}, {"ein": "113506628", "name": "HOUSE OF GOD HEAVENS GATE CHRISTIAN CONGREGATION CHURCH INC", "city": "JAMAICA", "state": "NY", "zip": "11417-1012", "ntee": "X21", "ruling": "200012", "deductibility": "1", "assets": 0, "income": 0, "revenue": 0}, {"ein": "132863820", "name": "STRAIT GATE CHURCH", "city": "MAMARONECK", "state": "NY", "zip": "10543-0748", "ntee": "X20Z", "ruling": "199707", "deductibility": "1", "assets": 0, "income": 0, "revenue": 0}, {"ein": "133336710", "name": "QUEENS GATE FOUNDATION", "city": "NEW YORK", "state": "NY", "zip": "10019-5890", "ntee": "", "ruling": "198606", "deductibility": "1", "assets": 125732, "income": 1410195, "revenue": 0}, {"ein": "133900865", "name": "FIRST HOUSE OF GOD GATE TO HEAVEN PRIMERA CASA DE DIOS PUERTA", "city": "BRONX", "state": "NY", "zip": "10453-4025", "ntee": "X21", "ruling": "199902", "deductibility": "1", "assets": 0, "income": 0, "revenue": 0}, {"ein": "133969522", "name": "HEAVENS OPEN GATE MINISTRIES INC", "city": "SHRUB OAK", "state": "NY", "zip": "10588-1902", "ntee": "", "ruling": "196402", "deductibility": "0", "assets": 0, "income": 0, "revenue": 0}, {"ein": "141637018", "name": "VAILS GATE FIRE COMPANY INC", "city": "VAILS GATE", "state": "NY", "zip": "12584-0101", "ntee": "", "ruling": "198411", "deductibility": "2", "assets": 493261, "income": 193856, "revenue": 193856}, {"ein": "166063434", "name": "NORTH GATE GOSPEL CHAPEL", "city": "ROCHESTER", "state": "NY", "zip": "14616-2139", "ntee": "", "ruling": "196510", "deductibility": "1", "assets": 0, "income": 0, "revenue": 0}, {"ein": "204279183", "name": "CITY GATE INTL CHURCH INC", "city": "NEW YORK", "state": "NY", "zip": "10035-2206", "ntee": "X20", "ruling": "200611", "deductibility": "1", "assets": 0, "income": 0, "revenue": 0}, {"ein": "342023363", "name": "GATE OF HEAVEN MINISTRY INC", "city": "BROOKLYN", "state": "NY", "zip": "11226-6219", "ntee": "X20", "ruling": "201204", "deductibility": "1", "assets": 0, "income": 0, "revenue": 0}, {"ein": "463319601", "name": "GATE OF PRAISE GOSPEL OUTREACH MINISTRY", "city": "QUEENS VLG", "state": "NY", "zip": "11428-0029", "ntee": "X99", "ruling": "201411", "deductibility": "1", "assets": 0, "income": 0, "revenue": 0}, {"ein": "474279677", "name": "ST MARY GATE OF HEAVEN CATHOLIC ACADEMY", "city": "OZONE PARK", "state": "NY", "zip": "11416-2701", "ntee": "", "ruling": "194603", "deductibility": "0", "assets": 0, "income": 0, "revenue": 0}, {"ein": "611534315", "name": "STRAIGHT GATE INC", "city": "WALTON", "state": "NY", "zip": "13856-4327", "ntee": "X21", "ruling": "200711", "deductibility": "1", "assets": 0, "income": 0, "revenue": 0}, {"ein": "651231717", "name": "GATE KEEPERS CHRISTIAN CENTER", "city": "BUFFALO", "state": "NY", "zip": "14211-2639", "ntee": "X200", "ruling": "200701", "deductibility": "1", "assets": 0, "income": 0, "revenue": 0}, {"ein": "743038031", "name": "SHEPHERDS GATE CORP", "city": "RONKONKOMA", "state": "NY", "zip": "11779-4631", "ntee": "B21", "ruling": "200905", "deductibility": "1", "assets": 5336146, "income": 3594302, "revenue": 3594302}, {"ein": "812580497", "name": "FRIENDS OF EAST GATE INC", "city": "HILLSDALE", "state": "NY", "zip": "12529-0034", "ntee": "A80", "ruling": "201609", "deductibility": "1", "assets": 0, "income": 0, "revenue": 0}, {"ein": "825193288", "name": "STABLE GATE DHARMA COLLECTIVE", "city": "CASTLETON", "state": "NY", "zip": "12033-9727", "ntee": "X90", "ruling": "201902", "deductibility": "1", "assets": 0, "income": 0, "revenue": 0}, {"ein": "832970754", "name": "RACHELS GATE", "city": "WALLKILL", "state": "NY", "zip": "12589-4705", "ntee": "D20", "ruling": "201903", "deductibility": "1", "assets": 0, "income": 0, "revenue": 0}, {"ein": "832978868", "name": "LOW 12 RIDERS WEST GATE CHAPTER", "city": "BRONX", "state": "NY", "zip": "10465-3442", "ntee": "N50", "ruling": "202007", "deductibility": "2", "assets": 0, "income": 0, "revenue": 0}, {"ein": "852017353", "name": "GREEN GATE PROJECT", "city": "SYRACUSE", "state": "NY", "zip": "13224-1308", "ntee": "K20", "ruling": "202501", "deductibility": "1", "assets": 0, "income": 0, "revenue": 0}, {"ein": "863993924", "name": "WORSHIP CENTER GATE OF LIFE INC", "city": "WOODSIDE", "state": "NY", "zip": "11377-5585", "ntee": "X20", "ruling": "202201", "deductibility": "1", "assets": 0, "income": 0, "revenue": 0}, {"ein": "871086560", "name": "BARD AT THE GATE INC", "city": "NEW YORK", "state": "NY", "zip": "10106-0200", "ntee": "A65", "ruling": "202412", "deductibility": "1", "assets": 18408, "income": 10071, "revenue": 10071}, {"ein": "873966743", "name": "CITY GATE PRODUCTIONS INC", "city": "FOREST HILLS", "state": "NY", "zip": "11375-9055", "ntee": "A65", "ruling": "202202", "deductibility": "1", "assets": 9752, "income": 23117, "revenue": 23117}, {"ein": "922380792", "name": "GATE BEAUTIFUL WOMENS RESOURCE CENTER", "city": "POUGHKEEPSIE", "state": "NY", "zip": "12601-1922", "ntee": "P99", "ruling": "202303", "deductibility": "1", "assets": 0, "income": 0, "revenue": 0}], "PRATT": [{"ein": "111630822", "name": "PRATT INSTITUTE", "city": "BROOKLYN", "state": "NY", "zip": "11205-3817", "ntee": "B430", "ruling": "193501", "deductibility": "1", "assets": 797600847, "income": 430716419, "revenue": 398081898}, {"ein": "112451752", "name": "PRATT AREA COMMUNITY COUNCIL INC", "city": "BROOKLYN", "state": "NY", "zip": "11238-3386", "ntee": "L80Z", "ruling": "198310", "deductibility": "1", "assets": 7288241, "income": 4937216, "revenue": 4594825}, {"ein": "136272557", "name": "UNITED FEDERATION OF COLLEGE TEACHERS LOCAL 1460 PRATT INST", "city": "BROOKLYN", "state": "NY", "zip": "11205-3817", "ntee": "J40", "ruling": "202402", "deductibility": "2", "assets": 182656, "income": 239308, "revenue": 239308}, {"ein": "141561004", "name": "ZADOCK PRATT MUSEUM INC", "city": "PRATTSVILLE", "state": "NY", "zip": "12468-0333", "ntee": "A540", "ruling": "197507", "deductibility": "1", "assets": 716781, "income": 343006, "revenue": 343006}, {"ein": "161159220", "name": "DODGE-PRATT-NORTHAM & COMMUNITY CENTER INC", "city": "BOONVILLE", "state": "NY", "zip": "13309-1005", "ntee": "", "ruling": "198209", "deductibility": "1", "assets": 290180, "income": 120782, "revenue": 84897}, {"ein": "166088207", "name": "PRATT-NORTHAM FOUNDATION", "city": "LOWVILLE", "state": "NY", "zip": "13367-0104", "ntee": "", "ruling": "196709", "deductibility": "1", "assets": 5101241, "income": 2594969, "revenue": 0}, {"ein": "166364843", "name": "GRACE PRATT THOMAS CHAR TR 2 FBO RED CROSS", "city": "AMHERST", "state": "NY", "zip": "14228-2307", "ntee": "", "ruling": "199209", "deductibility": "1", "assets": 424333, "income": 131093, "revenue": 0}, {"ein": "166364844", "name": "G P THOMAS-PRATT LIBRARY", "city": "AMHERST", "state": "NY", "zip": "14228-2307", "ntee": "", "ruling": "199205", "deductibility": "1", "assets": 219671, "income": 57250, "revenue": 0}, {"ein": "475632455", "name": "PRATT FAMILY LEGACY FOUNDATION INC", "city": "WOODBOURNE", "state": "NY", "zip": "12788-0030", "ntee": "T20", "ruling": "201601", "deductibility": "1", "assets": 2067479, "income": 169537, "revenue": 0}, {"ein": "571199441", "name": "PRATT FAM FOUNDATION", "city": "NEW YORK", "state": "NY", "zip": "10065-6642", "ntee": "T21", "ruling": "200505", "deductibility": "1", "assets": 428876, "income": 99746, "revenue": 0}], "HORODENKE": [{"ein": "112416894", "name": "CONGREGATION DVAR MOSHE OF HORODENKE C O BENJAMIN ISAACS ESQ", "city": "BROOKLYN", "state": "NY", "zip": "11210-3739", "ntee": "", "ruling": "197704", "deductibility": "1", "assets": 0, "income": 0, "revenue": 0}], "HINENI": [{"ein": "112427999", "name": "HINENI INC", "city": "NEW YORK", "state": "NY", "zip": "10006-3163", "ntee": "", "ruling": "197309", "deductibility": "1", "assets": 4777882, "income": 2739707, "revenue": 2066571}, {"ein": "832395480", "name": "VA YOMER HINENI FOUNDATION", "city": "BROOKLYN", "state": "NY", "zip": "11223-6244", "ntee": "T30", "ruling": "202111", "deductibility": "1", "assets": 85995, "income": 463624, "revenue": 463624}], "DELL": [{"ein": "112507361", "name": "MARIA S S DELL-ASSUNTA INC", "city": "WESTBURY", "state": "NY", "zip": "11590-3242", "ntee": "X20", "ruling": "199904", "deductibility": "1", "assets": 390990, "income": 67300, "revenue": 55700}, {"ein": "134140107", "name": "DELL ARTE OPERA ENSEMBLE INC", "city": "NEW YORK", "state": "NY", "zip": "10040-3612", "ntee": "A68", "ruling": "200711", "deductibility": "1", "assets": 1, "income": 102122, "revenue": 102122}, {"ein": "201897019", "name": "JENNIFER DELL FOUNDATION INC", "city": "GOLDENS BRG", "state": "NY", "zip": "10526-1207", "ntee": "A62", "ruling": "200504", "deductibility": "1", "assets": 0, "income": 0, "revenue": 0}, {"ein": "222186084", "name": "CLUB ITALIANS 74 DELL IMMACOLATA INC", "city": "BUFFALO", "state": "NY", "zip": "14216-2339", "ntee": "", "ruling": "198002", "deductibility": "1", "assets": 0, "income": 0, "revenue": 0}], "HAVURAH": [{"ein": "112615772", "name": "NORTH SHORE HAVURAH INC", "city": "ROSLYN HGHTS", "state": "NY", "zip": "11577-1518", "ntee": "", "ruling": "198306", "deductibility": "1", "assets": 0, "income": 0, "revenue": 0}, {"ein": "133068230", "name": "NATIONAL HAVURAH COORDINATING COMMITTEE", "city": "NEW YORK", "state": "NY", "zip": "10038-5041", "ntee": "", "ruling": "199810", "deductibility": "1", "assets": 187076, "income": 186836, "revenue": 186836}, {"ein": "161001774", "name": "CONGREGATION HAVURAH OF BUFFALO NY", "city": "WILLIAMSVILLE", "state": "NY", "zip": "14221-5821", "ntee": "", "ruling": "197401", "deductibility": "1", "assets": 0, "income": 0, "revenue": 0}, {"ein": "923861698", "name": "HAVURAH", "city": "NYC", "state": "NY", "zip": "10024-3206", "ntee": "X30", "ruling": "202309", "deductibility": "1", "assets": 0, "income": 0, "revenue": 0}], "REVITILIZATION": [{"ein": "112616152", "name": "RURAL REVITILIZATION CORPORATION", "city": "OLEAN", "state": "NY", "zip": "14760-2614", "ntee": "S32Z", "ruling": "198210", "deductibility": "1", "assets": 418567, "income": 322154, "revenue": 322154}, {"ein": "222753716", "name": "HAMBURG ECONOMIC ARE REVITILIZATION TASKFORCE INC", "city": "HAMBURG", "state": "NY", "zip": "14075-3766", "ntee": "", "ruling": "199103", "deductibility": "2", "assets": 0, "income": 0, "revenue": 0}, {"ein": "883773828", "name": "GREATER NEW YORK REVITILIZATION", "city": "ROCHESTER", "state": "NY", "zip": "14626-4058", "ntee": "", "ruling": "202208", "deductibility": "1", "assets": 1537, "income": 12115, "revenue": 12115}], "AGENCIES": [{"ein": "112646820", "name": "ASSOCIATION OF COMMUNITY LIVING AGENCIES IN MENTAL HEALTH", "city": "HALFMOON", "state": "NY", "zip": "12065-8688", "ntee": "P70C", "ruling": "198403", "deductibility": "1", "assets": 2379056, "income": 1450597, "revenue": 1450597}, {"ein": "113282373", "name": "ALLIANCE OF LONG ISLAND AGENCIES INC", "city": "GARDEN CITY", "state": "NY", "zip": "11530-3336", "ntee": "", "ruling": "199604", "deductibility": "2", "assets": 0, "income": 0, "revenue": 0}, {"ein": "113603797", "name": "AGENCIES FOR CHILDRENS SERVICES ON LONG ISLAND INC", "city": "MELVILLE", "state": "NY", "zip": "11747-4899", "ntee": "S41", "ruling": "200109", "deductibility": "2", "assets": 138429, "income": 207872, "revenue": 207872}, {"ein": "131621786", "name": "AMERICAN ASSOCIATION OF ADVERTISING AGENCIES INC", "city": "NEW YORK", "state": "NY", "zip": "10036-4902", "ntee": "", "ruling": "195104", "deductibility": "2", "assets": 21397392, "income": 20354421, "revenue": 19455856}, {"ein": "133574590", "name": "ALLIANCE OF WESTCHESTER TRAVEL AGENCIES INC", "city": "BRONX", "state": "NY", "zip": "10461-1603", "ntee": "", "ruling": "199109", "deductibility": "2", "assets": 63839, "income": 107311, "revenue": 107311}, {"ein": "135562220", "name": "FEDERATION OF PROTESTANT WELFARE AGENCIES INC", "city": "NEW YORK", "state": "NY", "zip": "10004-2786", "ntee": "T700", "ruling": "193411", "deductibility": "1", "assets": 78587865, "income": 23423234, "revenue": 5236138}, {"ein": "136260008", "name": "COUNCIL OF FAMILY AND CHILD CARING AGENCIES INC", "city": "NEW YORK", "state": "NY", "zip": "10001-2813", "ntee": "P40", "ruling": "201907", "deductibility": "1", "assets": 4758483, "income": 2131211, "revenue": 2131211}, {"ein": "146021290", "name": "INTERNATIONAL ASSOCIATION OF MILK CONTROL AGENCIES NEW YORK STATE DE", "city": "ALBANY", "state": "NY", "zip": "12235-1000", "ntee": "", "ruling": "196308", "deductibility": "2", "assets": 0, "income": 0, "revenue": 0}, {"ein": "150461439", "name": "STUDENT AGENCIES FOUNDATION INC", "city": "ITHACA", "state": "NY", "zip": "14850-4694", "ntee": "", "ruling": "194604", "deductibility": "1", "assets": 2316894, "income": 131664, "revenue": 0}, {"ein": "161317511", "name": "COALITION OF ADOPTION AND FOSTER FAMILY AGENCIES", "city": "GETZVILLE", "state": "NY", "zip": "14068-0174", "ntee": "P31", "ruling": "200002", "deductibility": "1", "assets": 50244, "income": 17638, "revenue": 12808}, {"ein": "222640051", "name": "WESTERN NEW YORK ASSOCIATION OF HISTORICAL AGENCIES", "city": "GETZVILLE", "state": "NY", "zip": "14068-0039", "ntee": "", "ruling": "198608", "deductibility": "1", "assets": 0, "income": 0, "revenue": 0}, {"ein": "223901330", "name": "INTERNATIONAL FORUM OF BIBLE AGENCIES", "city": "NEW YORK", "state": "NY", "zip": "10008-2457", "ntee": "X83", "ruling": "200504", "deductibility": "1", "assets": 201814, "income": 183302, "revenue": 183302}, {"ein": "262114089", "name": "SOCIETY OF DIGITAL AGENCIES INC", "city": "NEW YORK", "state": "NY", "zip": "10163-4668", "ntee": "S41", "ruling": "200907", "deductibility": "2", "assets": 911130, "income": 988109, "revenue": 988109}, {"ein": "264439481", "name": "CATHOLIC FEDERATION OF SOCIAL SERVICE AGENCIES OF BROOKLYN AND Q", "city": "BROOKLYN", "state": "NY", "zip": "11201-2935", "ntee": "X20", "ruling": "201908", "deductibility": "1", "assets": 0, "income": 0, "revenue": 0}, {"ein": "472880294", "name": "EPIC FAMILY OF HUMAN SERVICE AGENCIES", "city": "EAST MEADOW", "state": "NY", "zip": "11554-1551", "ntee": "S80", "ruling": "201708", "deductibility": "1", "assets": 17362962, "income": 5584876, "revenue": 5584876}, {"ein": "510243019", "name": "AL SIGL CENTER FOR REHABILITATION AGENCIES INC", "city": "ROCHESTER", "state": "NY", "zip": "14620-3042", "ntee": "E120", "ruling": "196601", "deductibility": "1", "assets": 53559481, "income": 5890918, "revenue": 5890918}, {"ein": "822792159", "name": "WESTERN NY COALITION OF FARMWORKER SERVING AGENCIES", "city": "ROCHESTER", "state": "NY", "zip": "14608-2237", "ntee": "P01", "ruling": "201811", "deductibility": "1", "assets": 1093637, "income": 924099, "revenue": 922738}], "EMON": [{"ein": "112657844", "name": "BAYIS NE EMON", "city": "BROOKLYN", "state": "NY", "zip": "11219-3631", "ntee": "", "ruling": "198401", "deductibility": "1", "assets": 0, "income": 0, "revenue": 0}], "VETERINARY": [{"ein": "112661731", "name": "LONG ISLAND VETERINARY MEDICAL ASSOCIATION INC", "city": "GARDEN CITY", "state": "NY", "zip": "11530-0327", "ntee": "D40Z", "ruling": "198401", "deductibility": "2", "assets": 350925, "income": 221108, "revenue": 221108}, {"ein": "134006186", "name": "NEW YORK SAVE ANIMALS IN VETERINARY EMERGENCY INC", "city": "NEW YORK", "state": "NY", "zip": "10024-7018", "ntee": "D122", "ruling": "199808", "deductibility": "1", "assets": 616491, "income": 144994, "revenue": 100539}, {"ein": "150398686", "name": "NEW YORK STATE VETERINARY MEDICAL SOCIETY EDUCATIONAL FUND INC", "city": "ALBANY", "state": "NY", "zip": "12203-7911", "ntee": "D034", "ruling": "195204", "deductibility": "1", "assets": 57285, "income": 0, "revenue": 0}, {"ein": "161371070", "name": "NIAGARA FRONTIER VETERINARY", "city": "GRAND ISLAND", "state": "NY", "zip": "14072-2704", "ntee": "D03", "ruling": "202306", "deductibility": "1", "assets": 37036, "income": 65253, "revenue": 65253}, {"ein": "161557094", "name": "NIAGARA FRONTIER VETERINARY SOCIETY PET EMERGENCY FUND INC", "city": "BUFFALO", "state": "NY", "zip": "14240-2846", "ntee": "D20", "ruling": "201603", "deductibility": "1", "assets": 326431, "income": 161570, "revenue": 161570}, {"ein": "161576256", "name": "INTERNATIONAL VETERINARY INFORMATION SERVICE", "city": "SYRACUSE", "state": "NY", "zip": "13202-1190", "ntee": "D40", "ruling": "200012", "deductibility": "1", "assets": 45170, "income": 37317, "revenue": 37317}, {"ein": "161579387", "name": "BUFFALO ACADEMY OF VETERINARY MEDICINE INC", "city": "EAST BETHANY", "state": "NY", "zip": "14054-9713", "ntee": "S41", "ruling": "200010", "deductibility": "2", "assets": 125073, "income": 111669, "revenue": 111669}, {"ein": "204749463", "name": "NEW YORK CITY VETERINARY EMERGENCYRESPONSE TEAM", "city": "VALLEY STREAM", "state": "NY", "zip": "11581-1733", "ntee": "D20", "ruling": "200606", "deductibility": "1", "assets": 13692, "income": 0, "revenue": 0}, {"ein": "470815143", "name": "AMERICAN VETERINARY MEDICAL HISTORY", "city": "ITHACA", "state": "NY", "zip": "14850-1064", "ntee": "A80", "ruling": "199812", "deductibility": "1", "assets": 0, "income": 0, "revenue": 0}, {"ein": "471991365", "name": "AMERICAN COLLEGE OF VETERINARY BOTANICAL MEDICINE", "city": "COLDEN", "state": "NY", "zip": "14033-9610", "ntee": "B90", "ruling": "201604", "deductibility": "1", "assets": 0, "income": 0, "revenue": 0}, {"ein": "510193853", "name": "VETERINARY MEDICAL ASSOCIATION OF NYC INC", "city": "NEW YORK", "state": "NY", "zip": "10024-0541", "ntee": "", "ruling": "197705", "deductibility": "2", "assets": 381396, "income": 481168, "revenue": 157915}, {"ein": "612001426", "name": "PHILLIPINE AMERICAN VETERINARY MEDICAL ASSOCIATION INC", "city": "ELMHURST", "state": "NY", "zip": "11373-3548", "ntee": "D20", "ruling": "202205", "deductibility": "1", "assets": 0, "income": 0, "revenue": 0}, {"ein": "810760803", "name": "NEW YORK STATE VETERINARY MEDICAL SOCIETY INC", "city": "ALBANY", "state": "NY", "zip": "12203-7911", "ntee": "D03", "ruling": "201902", "deductibility": "2", "assets": 1656456, "income": 1180615, "revenue": 1104285}, {"ein": "821571887", "name": "ASSOCIATION OF WOMEN VETERINARY SURGEONS", "city": "ITHACA", "state": "NY", "zip": "14850-0000", "ntee": "R24", "ruling": "202311", "deductibility": "1", "assets": 0, "income": 0, "revenue": 0}, {"ein": "863832115", "name": "VETERINARY HOPE FOUNDATION", "city": "CAZENOVIA", "state": "NY", "zip": "13035-9751", "ntee": "F80", "ruling": "202112", "deductibility": "1", "assets": 265536, "income": 57073, "revenue": 57073}, {"ein": "920493801", "name": "CONTINUING EDUCATION FOR VETERINARY TECHNICIANS OF WESTERN NEW YORK I", "city": "ELMA", "state": "NY", "zip": "14059-9668", "ntee": "B90", "ruling": "202406", "deductibility": "1", "assets": 0, "income": 0, "revenue": 0}, {"ein": "923361495", "name": "ANN HARRIS INITIATIVE FOR EMERGENCY VETERINARY CARE INC", "city": "FAYETTEVILLE", "state": "NY", "zip": "13066-1313", "ntee": "D12", "ruling": "202306", "deductibility": "1", "assets": 0, "income": 0, "revenue": 0}, {"ein": "934202155", "name": "ROCHESTER EMERGENCY VETERINARY SERVICES", "city": "EAST ROCHESTER", "state": "NY", "zip": "14445-2277", "ntee": "D40", "ruling": "202402", "deductibility": "1", "assets": 94573, "income": 100261, "revenue": 100261}, {"ein": "992004670", "name": "GLOBAL INSTRUCTION FOR VETERINARY EMPOWERMENT INC", "city": "PLEASANTVILLE", "state": "NY", "zip": "10570-2701", "ntee": "P20", "ruling": "202404", "deductibility": "1", "assets": 0, "income": 0, "revenue": 0}], "FLYERS": [{"ein": "112692485", "name": "SESAME FLYERS INTERNATIONAL INC", "city": "BROOKLYN", "state": "NY", "zip": "11203-2804", "ntee": "A200", "ruling": "199203", "deductibility": "1", "assets": 539335, "income": 3531500, "revenue": 3531500}, {"ein": "113089666", "name": "NASSAU FLYERS CONDOR RADIO CONTROL CLUB INC", "city": "WESTBURY", "state": "NY", "zip": "11590-5312", "ntee": "N50", "ruling": "201108", "deductibility": "2", "assets": 0, "income": 0, "revenue": 0}, {"ein": "133707773", "name": "NEW YORK FLYERS INCORPORATED", "city": "NEW YORK", "state": "NY", "zip": "10022-0000", "ntee": "", "ruling": "199404", "deductibility": "2", "assets": 25226, "income": 45430, "revenue": 45430}, {"ein": "141800715", "name": "GREATER GLENS FALLS FLYERS SWIM CLUB INC", "city": "QUEENSBURY", "state": "NY", "zip": "12804-2659", "ntee": "N67Z", "ruling": "199811", "deductibility": "1", "assets": 2945, "income": 34393, "revenue": 34393}, {"ein": "161088800", "name": "HILTON SNO-FLYERS INC", "city": "HILTON", "state": "NY", "zip": "14468-0048", "ntee": "N32", "ruling": "200702", "deductibility": "1", "assets": 369973, "income": 54869, "revenue": 39119}, {"ein": "161613293", "name": "ROCHESTER AREA FLYERS", "city": "CANANDAIGUA", "state": "NY", "zip": "14424-0621", "ntee": "N50", "ruling": "200204", "deductibility": "2", "assets": 0, "income": 0, "revenue": 0}, {"ein": "736505118", "name": "CONDAIR FLYERS INC", "city": "LATHAM", "state": "NY", "zip": "12110-0095", "ntee": "", "ruling": "197901", "deductibility": "2", "assets": 891248, "income": 342614, "revenue": 342614}, {"ein": "800024441", "name": "SARATOGA FLYERS INC", "city": "S GLENS FALLS", "state": "NY", "zip": "12803-5471", "ntee": "N50", "ruling": "201706", "deductibility": "2", "assets": 0, "income": 0, "revenue": 0}, {"ein": "843717315", "name": "NEW YORK LADY FLYERS INC", "city": "BRONX", "state": "NY", "zip": "10472-6444", "ntee": "O50", "ruling": "201912", "deductibility": "1", "assets": 0, "income": 0, "revenue": 0}, {"ein": "853028089", "name": "HUDSON VALLEY FREE FLYERS", "city": "ELLENVILLE", "state": "NY", "zip": "12428-0725", "ntee": "P12", "ruling": "202104", "deductibility": "1", "assets": 195239, "income": 191041, "revenue": 191041}, {"ein": "920430161", "name": "NEW YORK CITY HIGH FLYERS INC", "city": "NEW YORK", "state": "NY", "zip": "10001-5404", "ntee": "N60", "ruling": "202210", "deductibility": "1", "assets": 1, "income": 1, "revenue": 0}], "REBECCA": [{"ein": "112801316", "name": "CHRIST TEMPLE OF LOVE CHURCH INC C/O REBECCA WILLIAMS", "city": "BROOKLYN", "state": "NY", "zip": "11207-1195", "ntee": "X20Z", "ruling": "199704", "deductibility": "1", "assets": 0, "income": 0, "revenue": 0}, {"ein": "113272593", "name": "ABRAHAM AND REBECCA CRYSTAL FOUNDATION INC", "city": "LAKE SUCCESS", "state": "NY", "zip": "11042-1059", "ntee": "T20Z", "ruling": "199508", "deductibility": "1", "assets": 495724, "income": 38680, "revenue": 0}, {"ein": "136043342", "name": "REBECCA WITHERELL TRUST YMCA GREENWICH CT 239704", "city": "NEW YORK", "state": "NY", "zip": "10008-1297", "ntee": "", "ruling": "000000", "deductibility": "2", "assets": 440812, "income": 66605, "revenue": 0}, {"ein": "136272700", "name": "REBECCA & VICTOR BAROCAS FOUNDATION INC", "city": "NEW YORK", "state": "NY", "zip": "10018-3650", "ntee": "", "ruling": "196805", "deductibility": "1", "assets": 190092, "income": 7469, "revenue": 0}, {"ein": "201811339", "name": "GEORGE AND REBECCA BARNES FOUNDATION INC", "city": "SYRACUSE", "state": "NY", "zip": "13203-2785", "ntee": "A80", "ruling": "200504", "deductibility": "1", "assets": 1053104, "income": 93634, "revenue": 93634}, {"ein": "205428135", "name": "REBECCA ASSOCIATION FOR AUTISM INC", "city": "NEW YORK", "state": "NY", "zip": "10010-6212", "ntee": "P80", "ruling": "200806", "deductibility": "1", "assets": 0, "income": 0, "revenue": 0}, {"ein": "237323166", "name": "SHALOM & REBECCA FOGEL FOUNDATION INC", "city": "BROOKLYN", "state": "NY", "zip": "11207-7609", "ntee": "", "ruling": "197311", "deductibility": "1", "assets": 1348192, "income": 32425, "revenue": 0}, {"ein": "266711434", "name": "REBECCA AND NATHAN MILIKOWSKY FAMILY FOUNDATION", "city": "NEW YORK", "state": "NY", "zip": "10023-6296", "ntee": "T22", "ruling": "201003", "deductibility": "1", "assets": 20965248, "income": 1666622, "revenue": 0}, {"ein": "476696062", "name": "REBECCA STEINDECKER CHARITABLE TR", "city": "NEW YORK", "state": "NY", "zip": "10028-0134", "ntee": "X30", "ruling": "201504", "deductibility": "1", "assets": 138587, "income": 7000, "revenue": 0}, {"ein": "550838102", "name": "REBECCA STENN PERKSDANCEMUSIC THEATRE INC", "city": "NEW YORK", "state": "NY", "zip": "10011-1217", "ntee": "A62", "ruling": "200404", "deductibility": "1", "assets": 0, "income": 0, "revenue": 0}, {"ein": "822437261", "name": "RICHARD & REBECCA EVANS FAMILY FOUNDATION INC", "city": "JOHNSTOWN", "state": "NY", "zip": "12095-1210", "ntee": "T20", "ruling": "201806", "deductibility": "1", "assets": 794995, "income": 377081, "revenue": 0}, {"ein": "825307839", "name": "REBECCA S LITTLE SURVIVORS FOUNDATION", "city": "STATEN ISLAND", "state": "NY", "zip": "10306-4762", "ntee": "O20", "ruling": "202008", "deductibility": "1", "assets": 0, "income": 0, "revenue": 0}, {"ein": "851254841", "name": "REBECCA MALKA ORPHAN FOUNDATION INC", "city": "LAWRENCE", "state": "NY", "zip": "11559-0000", "ntee": "T50", "ruling": "202009", "deductibility": "1", "assets": 0, "income": 0, "revenue": 0}, {"ein": "872464470", "name": "REBECCA ROSE & JA HAUSER SOBRIETY SERVICES INC", "city": "BUFFALO", "state": "NY", "zip": "14206-1421", "ntee": "F20", "ruling": "202410", "deductibility": "1", "assets": 0, "income": 0, "revenue": 0}, {"ein": "934858622", "name": "ST REBECCA FOR FAMILY COUNSELING AND LIFE COACHING CORP", "city": "MASPETH", "state": "NY", "zip": "11378-1555", "ntee": "P40", "ruling": "202401", "deductibility": "1", "assets": 0, "income": 0, "revenue": 0}], "HAMLET": [{"ein": "113053108", "name": "HAMLET FUND INC", "city": "STONY BROOK", "state": "NY", "zip": "11790-0572", "ntee": "", "ruling": "199108", "deductibility": "1", "assets": 54776048, "income": 16274846, "revenue": 2886981}, {"ein": "113142292", "name": "HISTORICAL SOCIETY OF ISLIP HAMLET", "city": "ISLIP", "state": "NY", "zip": "11751-0601", "ntee": "A99Z", "ruling": "199801", "deductibility": "1", "assets": 0, "income": 0, "revenue": 0}, {"ein": "161506540", "name": "RICHLAND HAMLET RECREATION ASSOCIATION INC", "city": "RICHLAND", "state": "NY", "zip": "13144-0073", "ntee": "N32", "ruling": "201510", "deductibility": "1", "assets": 0, "income": 0, "revenue": 0}, {"ein": "453731850", "name": "PALENVILLE THE HAMLET INC", "city": "PALENVILLE", "state": "NY", "zip": "12463-2519", "ntee": "B90", "ruling": "201604", "deductibility": "1", "assets": 0, "income": 0, "revenue": 0}, {"ein": "462671358", "name": "TRI-HAMLET SPORTS CLUB INC", "city": "SHIRLEY", "state": "NY", "zip": "11967-3238", "ntee": "N99", "ruling": "201406", "deductibility": "1", "assets": 0, "income": 0, "revenue": 0}, {"ein": "811760963", "name": "BROOKHAVEN HAMLET FOUNDATION INC", "city": "BROOKHAVEN", "state": "NY", "zip": "11719-0387", "ntee": "S20", "ruling": "201605", "deductibility": "1", "assets": 0, "income": 0, "revenue": 0}, {"ein": "812664633", "name": "GOLDENS BRIDGE HAMLET ORGANIZATION INC", "city": "GOLDENS BRG", "state": "NY", "zip": "10526-0299", "ntee": "S20", "ruling": "201607", "deductibility": "1", "assets": 0, "income": 0, "revenue": 0}, {"ein": "922331642", "name": "VISTA HAMLET STEWARDSHIP COUNCIL INC", "city": "SOUTH SALEM", "state": "NY", "zip": "10590-2626", "ntee": "S20", "ruling": "202303", "deductibility": "1", "assets": 5945, "income": 6205, "revenue": 6205}], "GRENADIAN": [{"ein": "113070316", "name": "GRENADIAN-AMERICAN EX-TEACHERS ASSOCIATION INC", "city": "BROOKLYN", "state": "NY", "zip": "11236-2617", "ntee": "B82Z", "ruling": "199406", "deductibility": "1", "assets": 0, "income": 0, "revenue": 0}], "RINGEL": [{"ein": "113083761", "name": "RINGEL FAMILY FOUNDATION", "city": "BROOKLYN", "state": "NY", "zip": "11204-1050", "ntee": "", "ruling": "199204", "deductibility": "1", "assets": 126867, "income": 11957, "revenue": 0}, {"ein": "920880711", "name": "JED RINGEL FOUNDATION INC", "city": "NEW YORK", "state": "NY", "zip": "10029-6527", "ntee": "W12", "ruling": "202305", "deductibility": "1", "assets": 531038, "income": 939178, "revenue": 0}], "PROMISED": [{"ein": "113096158", "name": "PROMISED MINISTRY INC", "city": "LONG BEACH", "state": "NY", "zip": "11561-0443", "ntee": "X20", "ruling": "201503", "deductibility": "1", "assets": 0, "income": 0, "revenue": 0}, {"ein": "161341043", "name": "PROMISED LAND MISSIONARY BAPTIST CHURCH INCORPORATED", "city": "BUFFALO", "state": "NY", "zip": "14204-0000", "ntee": "X21", "ruling": "199208", "deductibility": "1", "assets": 0, "income": 0, "revenue": 0}, {"ein": "205837552", "name": "PROMISED LAND CHURCH BRONX NY", "city": "BRONX", "state": "NY", "zip": "10472-1809", "ntee": "", "ruling": "197507", "deductibility": "1", "assets": 0, "income": 0, "revenue": 0}, {"ein": "205894106", "name": "PROMISED LAND CHURCH", "city": "BRONX", "state": "NY", "zip": "10472-0000", "ntee": "X21", "ruling": "197507", "deductibility": "1", "assets": 0, "income": 0, "revenue": 0}, {"ein": "550890925", "name": "CELESTIAL CHURCH OF CHRIST PROMISED LAND PARISH NEW YORK", "city": "BROOKLYN", "state": "NY", "zip": "11203-6735", "ntee": "X21", "ruling": "200705", "deductibility": "1", "assets": 0, "income": 0, "revenue": 0}, {"ein": "834207485", "name": "PROMISED LAND MINISTRIES INTERNATIONAL", "city": "FAIRPORT", "state": "NY", "zip": "14450-0272", "ntee": "X20", "ruling": "202206", "deductibility": "1", "assets": 67916, "income": 446429, "revenue": 446429}, {"ein": "844409277", "name": "PROMISED LAND CHURCH INC", "city": "E AURORA", "state": "NY", "zip": "14052-9501", "ntee": "X20", "ruling": "202007", "deductibility": "1", "assets": 0, "income": 0, "revenue": 0}], "CLAYWORKS": [{"ein": "113227149", "name": "CLAYWORKS ON COLUMBIA INC", "city": "BROOKLYN", "state": "NY", "zip": "11231-1425", "ntee": "A47P", "ruling": "199612", "deductibility": "1", "assets": 151064, "income": 261199, "revenue": 0}], "EIM": [{"ein": "113351902", "name": "EIM BEYISROEL INC", "city": "BROOKLYN", "state": "NY", "zip": "11211-7578", "ntee": "X30", "ruling": "200309", "deductibility": "1", "assets": 0, "income": 0, "revenue": 0}, {"ein": "471055296", "name": "FRIENDS OF EIM INC", "city": "BROOKLYN", "state": "NY", "zip": "11222-6143", "ntee": "A23", "ruling": "201502", "deductibility": "1", "assets": 1, "income": 20563, "revenue": 20563}, {"ein": "830992272", "name": "FRIENDS OF NETINA EIM NESHMA INC", "city": "BROOKLYN", "state": "NY", "zip": "11203-3110", "ntee": "X30", "ruling": "201807", "deductibility": "1", "assets": 225, "income": 6932, "revenue": 6932}], "ROLLING": [{"ein": "113357621", "name": "ROLLING THUNDER INC", "city": "BROOKLYN", "state": "NY", "zip": "11209-2618", "ntee": "", "ruling": "199608", "deductibility": "2", "assets": 0, "income": 0, "revenue": 0}, {"ein": "113488500", "name": "ROLLING THUNDER SPECIAL NEEDS PROGRAM", "city": "SHIRLEY", "state": "NY", "zip": "11967-2340", "ntee": "N69", "ruling": "200008", "deductibility": "1", "assets": 0, "income": 0, "revenue": 0}, {"ein": "222314666", "name": "ROLLING ANTIQUERS OLD CAR CLUB INC", "city": "NORWICH", "state": "NY", "zip": "13815-0712", "ntee": "", "ruling": "198009", "deductibility": "2", "assets": 122551, "income": 60185, "revenue": 60185}, {"ein": "223630907", "name": "ROLLING THUNDER INC", "city": "NEWBURGH", "state": "NY", "zip": "12552-0991", "ntee": "", "ruling": "199608", "deductibility": "2", "assets": 0, "income": 0, "revenue": 0}, {"ein": "260079216", "name": "ROLLING THUNDER INC", "city": "STATEN ISLAND", "state": "NY", "zip": "10309-1730", "ntee": "", "ruling": "199608", "deductibility": "2", "assets": 0, "income": 98096, "revenue": 98096}, {"ein": "300915071", "name": "ROLLING THUNDER INC", "city": "FLORAL PARK", "state": "NY", "zip": "11001-2527", "ntee": "", "ruling": "199608", "deductibility": "2", "assets": 0, "income": 0, "revenue": 0}, {"ein": "331015668", "name": "ROLLING THUNDER INC", "city": "YOUNGSVILLE", "state": "NY", "zip": "12791-0338", "ntee": "", "ruling": "199608", "deductibility": "0", "assets": 0, "income": 0, "revenue": 0}, {"ein": "830404882", "name": "ROLLING THUNDER INC", "city": "ALBANY", "state": "NY", "zip": "12205-2947", "ntee": "", "ruling": "199608", "deductibility": "2", "assets": 0, "income": 0, "revenue": 0}, {"ein": "873710741", "name": "NEW YORK ROLLING FURY CORP", "city": "DIX HILLS", "state": "NY", "zip": "11746-6614", "ntee": "N62", "ruling": "202205", "deductibility": "1", "assets": 0, "income": 0, "revenue": 0}, {"ein": "995138900", "name": "ROLLING FORWARD INCORPORATED", "city": "YONKERS", "state": "NY", "zip": "10701-2772", "ntee": "P20", "ruling": "202410", "deductibility": "1", "assets": 0, "income": 0, "revenue": 0}], "SURULERE": [{"ein": "113399185", "name": "HOLY ORDER OF CHERUBIM & SERAPHIM MISSIONARY CHURCH SURULERE", "city": "QUEENS NEW YORK", "state": "NY", "zip": "11434-2026", "ntee": "X21", "ruling": "200207", "deductibility": "1", "assets": 0, "income": 0, "revenue": 0}], "IDF": [{"ein": "113455324", "name": "IDF MEMORIAL FOUNDATION", "city": "BROOKLYN", "state": "NY", "zip": "11204-0000", "ntee": "T20Z", "ruling": "199811", "deductibility": "1", "assets": 3667739, "income": 4779, "revenue": 0}, {"ein": "922465019", "name": "AMERICAN FRIENDS OF IDF WIDOWS AND ORPHANS ORGANIZATION", "city": "SCARSDALE", "state": "NY", "zip": "10583-8556", "ntee": "P99", "ruling": "202403", "deductibility": "1", "assets": 0, "income": 0, "revenue": 0}, {"ein": "991044690", "name": "LOVE TO IDF INC", "city": "BROOKLYN", "state": "NY", "zip": "11204-1425", "ntee": "Q33", "ruling": "202403", "deductibility": "1", "assets": 0, "income": 0, "revenue": 0}], "HAREI": [{"ein": "113475559", "name": "AMERICAN FRIENDS OF YESHIVAT HAREI YEHUDA INC", "city": "CEDARHURST", "state": "NY", "zip": "11516-2614", "ntee": "X30", "ruling": "199906", "deductibility": "1", "assets": 5078, "income": 175811, "revenue": 175811}], "EFFECTIVE": [{"ein": "113481322", "name": "NATIONAL URBAN ALLIANCE FOR EFFECTIVE EDUCATION INC", "city": "SYOSSET", "state": "NY", "zip": "11791-4445", "ntee": "B02", "ruling": "200011", "deductibility": "1", "assets": 161242, "income": 565357, "revenue": 565357}, {"ein": "133083978", "name": "CAUSE EFFECTIVE INC", "city": "NEW YORK", "state": "NY", "zip": "10018-4539", "ntee": "W99B", "ruling": "198107", "deductibility": "1", "assets": 312209, "income": 1235731, "revenue": 1234731}, {"ein": "455064716", "name": "CENTER FOR COST EFFECTIVE GOVERNMENT INC", "city": "BAYPORT", "state": "NY", "zip": "11705-1411", "ntee": "R99", "ruling": "201407", "deductibility": "1", "assets": 114242, "income": 86886, "revenue": 86886}, {"ein": "571221864", "name": "FAMILIES FOR EFFECTIVE AUTISM TREATMENT OF CENTRAL NEW YORK INC", "city": "BALDWINSVILLE", "state": "NY", "zip": "13027-1225", "ntee": "G84", "ruling": "200607", "deductibility": "1", "assets": 12408, "income": 152668, "revenue": 152668}, {"ein": "822219361", "name": "CENTER FOR COST EFFECTIVE GOVERNANCE INC", "city": "BAYPORT", "state": "NY", "zip": "11705-1411", "ntee": "W22", "ruling": "201806", "deductibility": "2", "assets": 0, "income": 0, "revenue": 0}, {"ein": "823099486", "name": "EFFECTIVE ALTRUISM RATIONALITY TO HELP", "city": "CALVERTON", "state": "NY", "zip": "11933-1064", "ntee": "C01", "ruling": "201711", "deductibility": "1", "assets": 0, "income": 0, "revenue": 0}, {"ein": "884308838", "name": "EFFECTIVE MANAGEMENT ASSOCIATION OF NEW YORK INC", "city": "NEW HYDE PARK", "state": "NY", "zip": "11040-1219", "ntee": "W99", "ruling": "202212", "deductibility": "1", "assets": 1031, "income": 1632, "revenue": 1632}, {"ein": "932725003", "name": "EFFECTIVE INSTITUTIONS PROJECT INC", "city": "ALBANY", "state": "NY", "zip": "12207-2922", "ntee": "W99", "ruling": "202308", "deductibility": "1", "assets": 379903, "income": 435000, "revenue": 435000}], "ACCELERANDO": [{"ein": "113629722", "name": "ACCELERANDO", "city": "HICKSVILLE", "state": "NY", "zip": "11801-4813", "ntee": "A68", "ruling": "200111", "deductibility": "1", "assets": 0, "income": 0, "revenue": 0}], "SUWASSET": [{"ein": "116039907", "name": "SUWASSET GARDEN CLUB", "city": "PRT JEFFERSON", "state": "NY", "zip": "11777-0742", "ntee": "", "ruling": "194104", "deductibility": "2", "assets": 0, "income": 0, "revenue": 0}], "OPTOMETRY": [{"ein": "131819472", "name": "SUNY COLLEGE OF OPTOMETRY FOUNDATION", "city": "NEW YORK", "state": "NY", "zip": "10036-8005", "ntee": "B820", "ruling": "195708", "deductibility": "1", "assets": 14206242, "income": 4112785, "revenue": 1401504}, {"ein": "237248577", "name": "FACULTY STUDENT ASSOCIATION OF THE STATE COLLEGE OF OPTOMETRY INC", "city": "NEW YORK", "state": "NY", "zip": "10036-8005", "ntee": "H41", "ruling": "197212", "deductibility": "1", "assets": 246911, "income": 209010, "revenue": 190482}], "MOTOR": [{"ein": "132605838", "name": "NEW YORK STATE MOTOR TRUCK ASSOCIATION INC", "city": "CLIFTON PARK", "state": "NY", "zip": "12065-8635", "ntee": "", "ruling": "196911", "deductibility": "2", "assets": 46436842, "income": 71111725, "revenue": 12656760}, {"ein": "133157299", "name": "THOUGHT MOVEMENT MOTOR INC", "city": "NEW YORK", "state": "NY", "zip": "10013-2910", "ntee": "", "ruling": "198306", "deductibility": "1", "assets": 0, "income": 0, "revenue": 0}, {"ein": "135672354", "name": "MOTOR VEHICLE ACCIDENT INDEMNIFICATION CORPORATION", "city": "NEW YORK", "state": "NY", "zip": "10038-5059", "ntee": "", "ruling": "196003", "deductibility": "2", "assets": 112070139, "income": 62554974, "revenue": 62554974}, {"ein": "160743080", "name": "MEDICAL MOTOR SERVICE OF ROCHESTER AND MONROE COUNTY INC", "city": "ROCHESTER", "state": "NY", "zip": "14620-1349", "ntee": "P52Z", "ruling": "194705", "deductibility": "1", "assets": 2760937, "income": 6912608, "revenue": 6912608}, {"ein": "161131933", "name": "FAMILY MOTOR COACH ASSOCIATION", "city": "CANAJOHARIE", "state": "NY", "zip": "13317-3403", "ntee": "", "ruling": "197501", "deductibility": "2", "assets": 0, "income": 0, "revenue": 0}, {"ein": "161398140", "name": "FAMILY MOTOR COACH ASSOCIATION", "city": "FREEVILLE", "state": "NY", "zip": "13068-8505", "ntee": "", "ruling": "197501", "deductibility": "2", "assets": 0, "income": 0, "revenue": 0}, {"ein": "161572964", "name": "WATKINS GLEN MOTOR RACING RESEARCH COUNCIL INC", "city": "WATKINS GLEN", "state": "NY", "zip": "14891-1613", "ntee": "A540", "ruling": "199912", "deductibility": "1", "assets": 5064582, "income": 2485271, "revenue": 580566}, {"ein": "166200467", "name": "FAMILY MOTOR COACH ASSOCIATION", "city": "ANGOLA", "state": "NY", "zip": "14006-9408", "ntee": "", "ruling": "197501", "deductibility": "2", "assets": 0, "income": 0, "revenue": 0}, {"ein": "310979095", "name": "FAMILY MOTOR COACH ASSOCIATION", "city": "WHITE PLAINS", "state": "NY", "zip": "10607-2403", "ntee": "", "ruling": "197501", "deductibility": "2", "assets": 0, "income": 0, "revenue": 0}, {"ein": "310979135", "name": "FAMILY MOTOR COACH ASSOCIATION", "city": "SCHENEVUS", "state": "NY", "zip": "12155-3903", "ntee": "", "ruling": "197501", "deductibility": "2", "assets": 0, "income": 0, "revenue": 0}, {"ein": "352414025", "name": "MOTOR VEHICLE PROTECTION PRODUCTS ASSOCITION INC", "city": "ALBANY", "state": "NY", "zip": "12203-5390", "ntee": "S41", "ruling": "201203", "deductibility": "2", "assets": 271257, "income": 574125, "revenue": 574125}, {"ein": "364574584", "name": "MOTOR BUS SOCIETY II INC", "city": "BROOKLYN", "state": "NY", "zip": "11238-4933", "ntee": "B70", "ruling": "200607", "deductibility": "1", "assets": 0, "income": 0, "revenue": 0}, {"ein": "384024534", "name": "CHARITY MOTOR CLUB INC", "city": "NEW YORK MLS", "state": "NY", "zip": "13417-0212", "ntee": "T31", "ruling": "201702", "deductibility": "1", "assets": 0, "income": 0, "revenue": 0}, {"ein": "461612917", "name": "KEELER MOTOR CAR COMPANY CHARITABLE FOUNDATION", "city": "LOUDONVILLE", "state": "NY", "zip": "12211-0002", "ntee": "T22", "ruling": "201407", "deductibility": "1", "assets": 3750579, "income": 780426, "revenue": 0}, {"ein": "611975567", "name": "ASSOCIATION OF MOTOR EHICLE TRAIL ATTORNEYS INC", "city": "WOODMERE", "state": "NY", "zip": "11598-2163", "ntee": "S40", "ruling": "202111", "deductibility": "2", "assets": 28474, "income": 0, "revenue": 0}, {"ein": "882613482", "name": "BROOKLYN BADBOYZ MOTOR CYCLE CLUB INC", "city": "BROOKLYN", "state": "NY", "zip": "11221-6679", "ntee": "T50", "ruling": "202210", "deductibility": "1", "assets": 0, "income": 0, "revenue": 0}, {"ein": "911874778", "name": "FAMILY MOTOR COACH ASSOCIATION", "city": "FISHKILL", "state": "NY", "zip": "12524-1436", "ntee": "", "ruling": "197501", "deductibility": "2", "assets": 0, "income": 0, "revenue": 0}, {"ein": "922834922", "name": "AMERICA MOTOR VEHICLE ASSOCIATION INC", "city": "FLUSHING", "state": "NY", "zip": "11355-3899", "ntee": "M42", "ruling": "202401", "deductibility": "1", "assets": 1, "income": 0, "revenue": 0}, {"ein": "923767615", "name": "MOTOR COMPANY NYC INC", "city": "JACKSON HTS", "state": "NY", "zip": "11372-4960", "ntee": "A65", "ruling": "202305", "deductibility": "1", "assets": 15187, "income": 46750, "revenue": 46750}], "WHYHUNGER": [{"ein": "132805575", "name": "WHYHUNGER INC", "city": "NEW YORK", "state": "NY", "zip": "10018-4539", "ntee": "A68Z", "ruling": "197506", "deductibility": "1", "assets": 6477593, "income": 6674550, "revenue": 5748042}], "PARKSIDE": [{"ein": "132917881", "name": "PARKSIDE COMMUNITY ASSOCIATION OF BUFFALO INC", "city": "BUFFALO", "state": "NY", "zip": "14214-3302", "ntee": "T30", "ruling": "198112", "deductibility": "1", "assets": 127077, "income": 66606, "revenue": 66606}, {"ein": "133146920", "name": "PARKSIDE ASSEMBLY OF GOD", "city": "PORT CHESTER", "state": "NY", "zip": "10573-2707", "ntee": "", "ruling": "196408", "deductibility": "1", "assets": 0, "income": 0, "revenue": 0}, {"ein": "133404530", "name": "PARKSIDE SCHOOL", "city": "NEW YORK", "state": "NY", "zip": "10023-2401", "ntee": "", "ruling": "198807", "deductibility": "1", "assets": 14167954, "income": 6371935, "revenue": 6349452}, {"ein": "133526582", "name": "PARKSIDE HOUSING DEVELOPMENT FUND COMPANY INC", "city": "BREWSTER", "state": "NY", "zip": "10509-2654", "ntee": "L20Z", "ruling": "199405", "deductibility": "1", "assets": 3166933, "income": 436254, "revenue": 436254}, {"ein": "141795099", "name": "PARKSIDE COVENANT CHURCH-CLIFTON PARK NY", "city": "CLIFTON PARK", "state": "NY", "zip": "12065-7256", "ntee": "", "ruling": "197507", "deductibility": "1", "assets": 0, "income": 0, "revenue": 0}, {"ein": "150614055", "name": "PARKSIDE BIBLE CHURCH OF THE CHRISTIAN AND MISSIONARY ALLIANCE", "city": "WATERTOWN", "state": "NY", "zip": "13601-3107", "ntee": "", "ruling": "197205", "deductibility": "1", "assets": 0, "income": 0, "revenue": 0}, {"ein": "161173736", "name": "PARKSIDE ASSEMBLY OF GOD INC", "city": "CORTLAND", "state": "NY", "zip": "13045-2025", "ntee": "", "ruling": "196408", "deductibility": "1", "assets": 0, "income": 0, "revenue": 0}, {"ein": "263370180", "name": "PS 130 PARKSIDE PTA", "city": "BROOKLYN", "state": "NY", "zip": "11218-1532", "ntee": "B94", "ruling": "201408", "deductibility": "1", "assets": 131002, "income": 310035, "revenue": 264146}, {"ein": "473710354", "name": "PARKSIDE EMPIRE - FLATBUSH AVENUE MERCHANTS ASSOCIATION INC", "city": "CORONA", "state": "NY", "zip": "11368-4621", "ntee": "S20", "ruling": "201510", "deductibility": "1", "assets": 0, "income": 0, "revenue": 0}, {"ein": "822830474", "name": "PARKSIDE NEIGHBORHOOD ASSOCIATION", "city": "ROCHESTER", "state": "NY", "zip": "14617-3728", "ntee": "S22", "ruling": "202003", "deductibility": "1", "assets": 0, "income": 0, "revenue": 0}, {"ein": "830602694", "name": "YOGA PARKSIDE FOUNDATION INC", "city": "BUFFALO", "state": "NY", "zip": "14214-1515", "ntee": "P50", "ruling": "201806", "deductibility": "1", "assets": 40382, "income": 98830, "revenue": 98830}, {"ein": "844596042", "name": "SHERIDAN PARKSIDE LIFE CENTER INC", "city": "AMHERST", "state": "NY", "zip": "14228-3516", "ntee": "P28", "ruling": "202002", "deductibility": "1", "assets": 0, "income": 0, "revenue": 0}], "PNTRS": [{"ein": "132923724", "name": "ASSOCIATION OF MASTER PNTRS & DECO RATORS OF NYC IND PROMOTION FUND", "city": "NEW YORK", "state": "NY", "zip": "10001-0024", "ntee": "", "ruling": "197803", "deductibility": "2", "assets": 2409051, "income": 1316296, "revenue": 1316296}], "PAINTED": [{"ein": "132983403", "name": "ISABEL ONEIL FOUNDATION FOR THE ART OF THE PAINTED FINISH INC", "city": "NEW YORK", "state": "NY", "zip": "10128-5938", "ntee": "A400", "ruling": "197910", "deductibility": "1", "assets": 334619, "income": 147622, "revenue": 147622}, {"ein": "133901528", "name": "PAINTED FLOWER FOUNDATION INC", "city": "BROOKLYN", "state": "NY", "zip": "11215-5702", "ntee": "T99Z", "ruling": "199608", "deductibility": "1", "assets": 888235, "income": 1189232, "revenue": 0}, {"ein": "161223508", "name": "ERWIN VALLEY PAINTED CINDERELLA SOFTBALL LEAGUE", "city": "PAINTED POST", "state": "NY", "zip": "14870-0265", "ntee": "", "ruling": "197308", "deductibility": "1", "assets": 0, "income": 0, "revenue": 0}, {"ein": "166058406", "name": "CORNING - PAINTED POST CIVIC MUSIC ASSSOCIATION", "city": "CORNING", "state": "NY", "zip": "14830-1002", "ntee": "A6CZ", "ruling": "196502", "deductibility": "1", "assets": 199111, "income": 184479, "revenue": 184479}, {"ein": "205971191", "name": "CORNING-PAINTED POST SCHOOL DISTRICT FOUNDATION", "city": "PAINTED POST", "state": "NY", "zip": "14870-1100", "ntee": "B11", "ruling": "201603", "deductibility": "1", "assets": 0, "income": 0, "revenue": 0}, {"ein": "237110603", "name": "CORNING PAINTED POST HISTORICAL SOCIETY INC", "city": "CORNING", "state": "NY", "zip": "14830-2212", "ntee": "A82Z", "ruling": "197201", "deductibility": "1", "assets": 1471362, "income": 204991, "revenue": 184047}, {"ein": "237579229", "name": "CORNING PAINTED POST MASONIC LODGE NO 168 F & A M", "city": "CORNING", "state": "NY", "zip": "14830-0001", "ntee": "Y42", "ruling": "201711", "deductibility": "1", "assets": 0, "income": 0, "revenue": 0}, {"ein": "272196322", "name": "PAINTED POST FOOD PANTRY INC", "city": "CORNING", "state": "NY", "zip": "14830-3152", "ntee": "P20", "ruling": "201011", "deductibility": "1", "assets": 56611, "income": 84236, "revenue": 84236}, {"ein": "882569390", "name": "PAINTED POST PARKS AND ARTS INC", "city": "PAINTED POST", "state": "NY", "zip": "14870-0110", "ntee": "A20", "ruling": "202208", "deductibility": "1", "assets": 0, "income": 0, "revenue": 0}], "HARPSICHORD": [{"ein": "133122105", "name": "HARPSICHORD UNLIMITED INC", "city": "NEW YORK", "state": "NY", "zip": "10025-5633", "ntee": "", "ruling": "198307", "deductibility": "1", "assets": 80, "income": 9615, "revenue": 9615}], "KHYENTSE": [{"ein": "133187080", "name": "DILGO KHYENTSE FELLOWSHIP", "city": "NEW YORK", "state": "NY", "zip": "10001-1963", "ntee": "", "ruling": "198402", "deductibility": "1", "assets": 0, "income": 0, "revenue": 0}], "ELOW": [{"ein": "133365078", "name": "THE ADELA AND LAWRENCE ELOW FOUNDATION C/O LAWRENCE ELOW", "city": "KATONAH", "state": "NY", "zip": "10536-3845", "ntee": "", "ruling": "198701", "deductibility": "1", "assets": 1361296, "income": 148512, "revenue": 0}], "WKLW": [{"ein": "133374593", "name": "WKLW FOUNDATION", "city": "NEW YORK", "state": "NY", "zip": "10006-0000", "ntee": "", "ruling": "198710", "deductibility": "1", "assets": 1, "income": 1, "revenue": 0}], "MELROSE": [{"ein": "133501749", "name": "MELROSE VILLA HERMOSA HOUSING DEVELOPMENT FUND COMPANY INC", "city": "BROOKLYN", "state": "NY", "zip": "11232-0000", "ntee": "", "ruling": "199102", "deductibility": "1", "assets": 6377154, "income": 1036108, "revenue": 1036108}, {"ein": "146027473", "name": "MELROSE FIRE COMPANY INCORPORATED", "city": "MELROSE", "state": "NY", "zip": "12121-0058", "ntee": "M24", "ruling": "202406", "deductibility": "1", "assets": 0, "income": 0, "revenue": 0}, {"ein": "371950969", "name": "MELROSE HOUSING DEVELOPMENT FUND CORPORATION", "city": "NEW YORK", "state": "NY", "zip": "10018-0092", "ntee": "L21", "ruling": "202103", "deductibility": "2", "assets": 0, "income": 0, "revenue": 0}, {"ein": "461680265", "name": "MRC MELROSE HOUSING DEVELOPMENT FUND CORPORATION", "city": "BRONX", "state": "NY", "zip": "10456-6830", "ntee": "L21", "ruling": "202202", "deductibility": "1", "assets": 3679406, "income": 544053, "revenue": 544053}, {"ein": "473765654", "name": "MELROSE COMMONS SUPPORTIVE HOUSING DEVELOPMENT FUND COMPANY INC", "city": "NEW YORK", "state": "NY", "zip": "10027-4991", "ntee": "L20", "ruling": "201606", "deductibility": "2", "assets": 0, "income": 0, "revenue": 0}], "TAPERS": [{"ein": "133562352", "name": "BOARD OF TRUSTEES DRYWALL TAPERS INSURANCE FUND", "city": "LONG IS CITY", "state": "NY", "zip": "11106-2327", "ntee": "", "ruling": "000000", "deductibility": "0", "assets": 10707305, "income": 25002802, "revenue": 22071229}], "INDOCHINA": [{"ein": "133584616", "name": "INDOCHINA SINO-AMERICAN SENIOR CITIZEN CENTER", "city": "NEW YORK", "state": "NY", "zip": "10002-1385", "ntee": "", "ruling": "199210", "deductibility": "1", "assets": 1547879, "income": 335303, "revenue": 325303}], "NEVIS": [{"ein": "133621945", "name": "ST KITTS NEVIS CULTURAL ASSOCIATION INC", "city": "BRONX", "state": "NY", "zip": "10469-5119", "ntee": "A23Z", "ruling": "199503", "deductibility": "1", "assets": 0, "income": 0, "revenue": 0}], "LLENROC": [{"ein": "133680647", "name": "LLENROC FOUNDATION", "city": "RYE", "state": "NY", "zip": "10580-1939", "ntee": "", "ruling": "199207", "deductibility": "1", "assets": 1993183, "income": 615660, "revenue": 0}], "CROWING": [{"ein": "133693565", "name": "CROWING ROOSTER ARTS INC", "city": "NEW YORK", "state": "NY", "zip": "10013-4400", "ntee": "", "ruling": "199306", "deductibility": "1", "assets": 1072430, "income": 1006310, "revenue": 0}], "MOMMY": [{"ein": "133727309", "name": "TEACHER MOMMY DAY CARE INC", "city": "MONSEY", "state": "NY", "zip": "10952-0000", "ntee": "P33Z", "ruling": "199501", "deductibility": "1", "assets": 1477023, "income": 930821, "revenue": 930821}, {"ein": "800340449", "name": "MOMMY & DADDYS LITTLE ANGELS YOUTH & FAMIMLY SERVICES INC", "city": "STATEN ISLAND", "state": "NY", "zip": "10305-3634", "ntee": "P30", "ruling": "201001", "deductibility": "1", "assets": 0, "income": 0, "revenue": 0}, {"ein": "993294301", "name": "MOM CENTER - MOMMY ME TIME", "city": "NEW YORK", "state": "NY", "zip": "10031-2259", "ntee": "P80", "ruling": "202406", "deductibility": "1", "assets": 0, "income": 0, "revenue": 0}], "CAPISTRAN": [{"ein": "133757996", "name": "CAPISTRAN YOUTH FOUNDATION INC", "city": "NEW YORK", "state": "NY", "zip": "10028-0000", "ntee": "P20Z", "ruling": "199404", "deductibility": "1", "assets": 331464, "income": 17739, "revenue": 17739}], "DESAROLLO": [{"ein": "133766574", "name": "FUNDACION DEL DESAROLLO DEL NINO INC", "city": "ORANGEBURG", "state": "NY", "zip": "10962-2706", "ntee": "T31", "ruling": "201103", "deductibility": "1", "assets": 0, "income": 0, "revenue": 0}], "CITI": [{"ein": "133781879", "name": "CITI FOUNDATION", "city": "NEW YORK", "state": "NY", "zip": "10013-2362", "ntee": "T21", "ruling": "199503", "deductibility": "1", "assets": 88205234, "income": 84233338, "revenue": 0}, {"ein": "832434733", "name": "CITI SANTA INC", "city": "NANUET", "state": "NY", "zip": "10954-2423", "ntee": "P30", "ruling": "201811", "deductibility": "1", "assets": 60274, "income": 42063, "revenue": 42063}], "VALHALLA": [{"ein": "133861790", "name": "LIONS CLUB OF VALHALLA CHARITIES INC", "city": "VALHALLA", "state": "NY", "zip": "10595-1704", "ntee": "T70J", "ruling": "199604", "deductibility": "1", "assets": 0, "income": 0, "revenue": 0}, {"ein": "134164378", "name": "VALHALLA SCHOOLS FOUNDATION INC", "city": "VALHALLA", "state": "NY", "zip": "10595-0091", "ntee": "B112", "ruling": "200107", "deductibility": "1", "assets": 0, "income": 0, "revenue": 0}, {"ein": "136180877", "name": "VALHALLA AMBULANCE CORPS INC", "city": "VALHALLA", "state": "NY", "zip": "10595-0014", "ntee": "", "ruling": "196507", "deductibility": "1", "assets": 1196524, "income": 382684, "revenue": 382684}, {"ein": "137051713", "name": "VALHALLA TEACHERS ASSN BENEFIT FUND", "city": "VALHALLA", "state": "NY", "zip": "10595-1329", "ntee": "J40", "ruling": "200102", "deductibility": "2", "assets": 317927, "income": 526310, "revenue": 526310}, {"ein": "202482906", "name": "VALHALLA PUBLIC SCHOOLS JOY DISTENFELD FUND EST 01311984", "city": "VALHALLA", "state": "NY", "zip": "10595-1308", "ntee": "B82", "ruling": "201408", "deductibility": "1", "assets": 0, "income": 0, "revenue": 0}, {"ein": "320250697", "name": "VALHALLA FRIENDS OF THE ARTS", "city": "VALHALLA", "state": "NY", "zip": "10595-1329", "ntee": "B11", "ruling": "201302", "deductibility": "1", "assets": 0, "income": 0, "revenue": 0}, {"ein": "473728877", "name": "VALHALLA SOCCER ACADEMY INC", "city": "VALHALLA", "state": "NY", "zip": "10595-2027", "ntee": "N64", "ruling": "201512", "deductibility": "1", "assets": 0, "income": 0, "revenue": 0}, {"ein": "475384264", "name": "VALHALLA SPORTS BOOSTER CLUB INC", "city": "VALHALLA", "state": "NY", "zip": "10595-1329", "ntee": "N99", "ruling": "201512", "deductibility": "1", "assets": 52756, "income": 75043, "revenue": 38610}, {"ein": "812068549", "name": "VOLUNTEER AND EXEMPT FIREMAN BENEVOLENT ASSOCIATION OF VALHALLA", "city": "VALHALLA", "state": "NY", "zip": "10595-2003", "ntee": "Y44", "ruling": "201607", "deductibility": "2", "assets": 1056339, "income": 160324, "revenue": 103376}, {"ein": "821283902", "name": "VALHALLA JUNIOR VIKINGS LACROSSE INC", "city": "VALHALLA", "state": "NY", "zip": "10595-1831", "ntee": "O23", "ruling": "202204", "deductibility": "1", "assets": 0, "income": 0, "revenue": 0}, {"ein": "881356161", "name": "VALHALLA POST 1038 INC", "city": "VALHALLA", "state": "NY", "zip": "10595-0094", "ntee": "T50", "ruling": "202203", "deductibility": "1", "assets": 0, "income": 0, "revenue": 0}], "CONTINUATION": [{"ein": "133930673", "name": "APOSTLES CONTINUATION CHURCH", "city": "BRONX", "state": "NY", "zip": "10456-0000", "ntee": "X20Z", "ruling": "199804", "deductibility": "1", "assets": 0, "income": 0, "revenue": 0}, {"ein": "263310218", "name": "APOSTLES CONTINUATION CHURCH INC", "city": "BRONX", "state": "NY", "zip": "10452-1804", "ntee": "X21", "ruling": "200902", "deductibility": "1", "assets": 1530754, "income": 448004, "revenue": 448004}], "SCORSESE": [{"ein": "133968595", "name": "SCORSESE FAMILY FOUNDATION", "city": "NEW YORK", "state": "NY", "zip": "10020-0000", "ntee": "A31", "ruling": "199906", "deductibility": "1", "assets": 694172, "income": 50675, "revenue": 0}], "GELLER": [{"ein": "134029849", "name": "GELLER FAMILY RELIGIOUS FOUNDATION", "city": "SUFFERN", "state": "NY", "zip": "10901-2603", "ntee": "B12", "ruling": "199901", "deductibility": "1", "assets": 1, "income": 136620, "revenue": 0}, {"ein": "134138500", "name": "DEBRA AND JEFFREY GELLER FAMILY FOUNDATION INC", "city": "WATERMILL", "state": "NY", "zip": "11976-3601", "ntee": "T12", "ruling": "200012", "deductibility": "1", "assets": 646847, "income": 98401, "revenue": 0}, {"ein": "134160893", "name": "ROBERT AND LOIS GELLER FOUNDATION", "city": "NEW YORK", "state": "NY", "zip": "10021-2813", "ntee": "T22", "ruling": "200107", "deductibility": "1", "assets": 269882, "income": 31821, "revenue": 0}, {"ein": "137225775", "name": "RICHARD I GELLER CHARITABLE FOUNDATION TRUST", "city": "NEW CITY", "state": "NY", "zip": "10956-5407", "ntee": "T22", "ruling": "200101", "deductibility": "1", "assets": 298529, "income": 9974, "revenue": 0}, {"ein": "264382503", "name": "ADAM AND JENIFER GELLER FOUNDATION INC", "city": "NEW YORK", "state": "NY", "zip": "10024-3139", "ntee": "T20", "ruling": "201008", "deductibility": "1", "assets": 203772, "income": 206113, "revenue": 0}, {"ein": "266735427", "name": "IRENE GELLER SCHOLARSHIP FUND", "city": "SOUTHAMPTON", "state": "NY", "zip": "11969-6029", "ntee": "B82", "ruling": "200908", "deductibility": "1", "assets": 443413, "income": 322541, "revenue": 0}, {"ein": "357048970", "name": "GELLER FAM FOUNDATION DECLARATION OF TR", "city": "NEW YORK", "state": "NY", "zip": "10075-0406", "ntee": "T22", "ruling": "201506", "deductibility": "1", "assets": 4514036, "income": 1258572, "revenue": 0}], "GRUNFELD": [{"ein": "134093705", "name": "KROO-GRUNFELD FAMILY FOUNDATION INC", "city": "NEW YORK", "state": "NY", "zip": "10024-6022", "ntee": "T22", "ruling": "200008", "deductibility": "1", "assets": 635699, "income": 297022, "revenue": 0}], "PONEVEZ": [{"ein": "135600414", "name": "AMERICAN FRIENDS OF PONEVEZ YESHIVA IN ISRAEL INC", "city": "NEW YORK", "state": "NY", "zip": "10010-7903", "ntee": "Q123", "ruling": "195910", "deductibility": "1", "assets": 190745, "income": 408334, "revenue": 408334}, {"ein": "136271694", "name": "BATAY AVOTH OF PONEVEZ YESHIVA INC", "city": "NEW YORK", "state": "NY", "zip": "10010-7903", "ntee": "", "ruling": "195302", "deductibility": "1", "assets": 100, "income": 0, "revenue": 0}], "COURTAULD": [{"ein": "136296745", "name": "AMERICAN FOUNDATION FOR THE COURTAULD INSTITUTE OF ART", "city": "NEW YORK", "state": "NY", "zip": "10019-4702", "ntee": "", "ruling": "198602", "deductibility": "1", "assets": 997528, "income": 1504364, "revenue": 1504364}], "PEREPETUAL": [{"ein": "137122586", "name": "MORRIS KIRSCHNER PEREPETUAL CHARITABLE TR", "city": "NEW YORK", "state": "NY", "zip": "10008-1297", "ntee": "T99Z", "ruling": "199805", "deductibility": "1", "assets": 585324, "income": 85536, "revenue": 0}], "LOISABA": [{"ein": "140503540", "name": "LOISABA COMMUNITY CONSERVATION FOUNDATION INC", "city": "SARATOGA SPGS", "state": "NY", "zip": "12866-0655", "ntee": "S31", "ruling": "200309", "deductibility": "1", "assets": 34545, "income": 48929, "revenue": 0}], "MARCELLA": [{"ein": "141468258", "name": "MARCELLA SEMBRICH MEMORIAL ASSOCIATION INC", "city": "BOLTON LNDG", "state": "NY", "zip": "12814-0417", "ntee": "", "ruling": "196401", "deductibility": "1", "assets": 4784620, "income": 1261038, "revenue": 0}], "MOREAU": [{"ein": "141584561", "name": "CIVIC CENTER OF MOREAU INC", "city": "S GLENS FALLS", "state": "NY", "zip": "12803-4825", "ntee": "P20", "ruling": "200007", "deductibility": "1", "assets": 821387, "income": 1426115, "revenue": 1393303}, {"ein": "141616960", "name": "MOREAU EMERGENCY SQUAD INC", "city": "MOREAU", "state": "NY", "zip": "12828-2454", "ntee": "E62Z", "ruling": "198109", "deductibility": "1", "assets": 2016764, "income": 2624217, "revenue": 2624217}, {"ein": "141684340", "name": "HISTORICAL SOCIETY OF MOREAU AND SOUTH GLENS FALLS", "city": "S GLENS FALLS", "state": "NY", "zip": "12803-4954", "ntee": "P20", "ruling": "202207", "deductibility": "1", "assets": 0, "income": 0, "revenue": 0}, {"ein": "141794656", "name": "FRIENDS OF MOREAU LAKE STATE PARK", "city": "GANSEVOORT", "state": "NY", "zip": "12831-1165", "ntee": "N11", "ruling": "201305", "deductibility": "1", "assets": 0, "income": 0, "revenue": 0}], "PROPRIETARY": [{"ein": "141742188", "name": "ASSOCIATION OF PROPRIETARY COLLEGES", "city": "ALBANY", "state": "NY", "zip": "12207-1649", "ntee": "", "ruling": "199111", "deductibility": "2", "assets": 1243718, "income": 1249636, "revenue": 839766}], "FYFES": [{"ein": "141806156", "name": "FYFES & DRUMMS OF OLDE SARATOGA", "city": "COHOES", "state": "NY", "zip": "12047-2206", "ntee": "N50", "ruling": "200610", "deductibility": "1", "assets": 0, "income": 0, "revenue": 0}], "OPELE": [{"ein": "141811397", "name": "MOSDOS OPELE INC", "city": "BROOKLYN", "state": "NY", "zip": "11204-1482", "ntee": "X20", "ruling": "199903", "deductibility": "1", "assets": 88411, "income": 113772, "revenue": 113772}], "PASTIME": [{"ein": "150412370", "name": "PASTIME ATHLETIC CLUB OF SYRACUSE INC", "city": "SYRACUSE", "state": "NY", "zip": "13208-1521", "ntee": "", "ruling": "194009", "deductibility": "2", "assets": 399863, "income": 260841, "revenue": 188245}], "LOGGERS": [{"ein": "150561931", "name": "NORTHEASTERN LOGGERS ASSN INC", "city": "OLD FORGE", "state": "NY", "zip": "13420-0069", "ntee": "", "ruling": "196107", "deductibility": "2", "assets": 705643, "income": 918029, "revenue": 852472}], "NYSHFA": [{"ein": "161092681", "name": "DIST 10 NYSHFA", "city": "WILLIAMSVILLE", "state": "NY", "zip": "14231-1875", "ntee": "", "ruling": "198212", "deductibility": "2", "assets": 102281, "income": 34940, "revenue": 34940}], "COMMAND": [{"ein": "161145566", "name": "OGDENSBURG COMMAND PERFORMANCES INC", "city": "OGDENSBURG", "state": "NY", "zip": "13669-3352", "ntee": "A68Z", "ruling": "198211", "deductibility": "1", "assets": 271711, "income": 278251, "revenue": 278251}, {"ein": "222581434", "name": "TOWN OF HAMBURG POLICE COMMAND OFFICERS ASSOCIATION", "city": "LAKEVIEW", "state": "NY", "zip": "14085-0276", "ntee": "P20", "ruling": "201907", "deductibility": "2", "assets": 0, "income": 0, "revenue": 0}, {"ein": "222601723", "name": "COMMAND OFFICERS ASSOCIATION OF TROY INC", "city": "TROY", "state": "NY", "zip": "12180-3329", "ntee": "Y03", "ruling": "201111", "deductibility": "2", "assets": 0, "income": 0, "revenue": 0}, {"ein": "332786845", "name": "VIRTUAL JOINT FORCES COMMAND", "city": "SAYVILLE", "state": "NY", "zip": "11782-0208", "ntee": "B60", "ruling": "202501", "deductibility": "1", "assets": 0, "income": 0, "revenue": 0}, {"ein": "461481615", "name": "VETERANS-IN-COMMAND INC", "city": "ROCKAWAY PARK", "state": "NY", "zip": "11694-2016", "ntee": "W30", "ruling": "201409", "deductibility": "1", "assets": 2112, "income": 73249, "revenue": 73249}], "LISBON": [{"ein": "161161487", "name": "LISBON WESLEYAN CHURCH", "city": "LISBON", "state": "NY", "zip": "13658-3299", "ntee": "", "ruling": "197005", "deductibility": "1", "assets": 0, "income": 0, "revenue": 0}, {"ein": "161606494", "name": "LISBON VOLUNTEER FIRE CORPORATION INC", "city": "LISBON", "state": "NY", "zip": "13658-0160", "ntee": "M24", "ruling": "201903", "deductibility": "1", "assets": 157012, "income": 63615, "revenue": 60944}, {"ein": "824870877", "name": "LISBON PISTOL CLUB", "city": "OGDENSBURG", "state": "NY", "zip": "13669-4519", "ntee": "N11", "ruling": "201806", "deductibility": "1", "assets": 0, "income": 0, "revenue": 0}, {"ein": "841779213", "name": "LISBON SPORTSMANS CLUB", "city": "OGDENSBURG", "state": "NY", "zip": "13669-0124", "ntee": "N61", "ruling": "201906", "deductibility": "1", "assets": 0, "income": 0, "revenue": 0}, {"ein": "993222903", "name": "LISBON VARSITY CHEER BOOSTER CLUB", "city": "LISBON", "state": "NY", "zip": "13658-0132", "ntee": "N12", "ruling": "202411", "deductibility": "1", "assets": 0, "income": 0, "revenue": 0}], "TIBBETTS": [{"ein": "161322423", "name": "TIBBETTS POINT LIGHTHOUSE", "city": "CAPE VINCENT", "state": "NY", "zip": "13618-0683", "ntee": "", "ruling": "199105", "deductibility": "1", "assets": 266828, "income": 46350, "revenue": 28577}, {"ein": "823146369", "name": "TIBBETTS POINT ASSOCIATION INC", "city": "SYRACUSE", "state": "NY", "zip": "13212-1046", "ntee": "L50", "ruling": "202411", "deductibility": "2", "assets": 0, "income": 0, "revenue": 0}], "VEGAN": [{"ein": "161385218", "name": "ROCHESTER AREA VEGAN SOCIETY", "city": "ROCHESTER", "state": "NY", "zip": "14602-0185", "ntee": "", "ruling": "199703", "deductibility": "1", "assets": 0, "income": 0, "revenue": 0}, {"ein": "821068457", "name": "VEGAN LONG ISLAND INC", "city": "BELLPORT", "state": "NY", "zip": "11713-2914", "ntee": "D20", "ruling": "201704", "deductibility": "1", "assets": 0, "income": 0, "revenue": 0}, {"ein": "830470226", "name": "CAPITAL REGION VEGAN NETWORK", "city": "LATHAM", "state": "NY", "zip": "12110-0100", "ntee": "K40", "ruling": "200903", "deductibility": "1", "assets": 47066, "income": 99192, "revenue": 98996}, {"ein": "832089379", "name": "VEGAN CNY INC", "city": "SYRACUSE", "state": "NY", "zip": "13235-0641", "ntee": "D20", "ruling": "201811", "deductibility": "1", "assets": 0, "income": 0, "revenue": 0}, {"ein": "844929724", "name": "VEGAN EXTRAVAGANZA", "city": "COMMACK", "state": "NY", "zip": "11725-0000", "ntee": "D99", "ruling": "202004", "deductibility": "1", "assets": 435, "income": 0, "revenue": 0}, {"ein": "881072364", "name": "VEGAN FRIENDLY", "city": "NEW YORK", "state": "NY", "zip": "10005-0000", "ntee": "D01", "ruling": "202409", "deductibility": "1", "assets": 111012, "income": 505071, "revenue": 505071}], "INSTANT": [{"ein": "161452579", "name": "SOUTHERN CAYUGA INSTANT AID INC", "city": "POPLAR RIDGE", "state": "NY", "zip": "13139-0007", "ntee": "", "ruling": "197804", "deductibility": "1", "assets": 742001, "income": 614934, "revenue": 614934}], "WRKRS": [{"ein": "161531880", "name": "UPSTATE NEW YORK DISTRICT COUNCIL OF IRON WRKRS AND EMPLRS COOP TR", "city": "ROCHESTER", "state": "NY", "zip": "14623-2951", "ntee": "", "ruling": "199709", "deductibility": "2", "assets": 1115482, "income": 1858055, "revenue": 658081}, {"ein": "201072118", "name": "LAUNDRY DRY CLEANING WORKERS & ALLD INDUS EDUC & LEGAL FUND WRKRS UNTD", "city": "WHITE PLAINS", "state": "NY", "zip": "10604-2910", "ntee": "Y44", "ruling": "200608", "deductibility": "2", "assets": 1154112, "income": 226741, "revenue": 226741}], "TARNOGRODER": [{"ein": "161746462", "name": "FIRST TARNOGRODER BENEVOLENT ASSOCIATION INC", "city": "NEW YORK", "state": "NY", "zip": "10002-0000", "ntee": "Y50", "ruling": "201612", "deductibility": "1", "assets": 0, "income": 0, "revenue": 0}], "COPS": [{"ein": "201232312", "name": "COPS KIDS AND TOYS INC", "city": "DRYDEN", "state": "NY", "zip": "13053-0519", "ntee": "P58", "ruling": "200410", "deductibility": "1", "assets": 232791, "income": 104649, "revenue": 85764}, {"ein": "204771178", "name": "COPS HELPING COPS", "city": "MIDDLE ISLAND", "state": "NY", "zip": "11953-1408", "ntee": "M20", "ruling": "200704", "deductibility": "1", "assets": 0, "income": 0, "revenue": 0}, {"ein": "263686961", "name": "6TH PRECINCT COPS WHO CARE", "city": "SELDEN", "state": "NY", "zip": "11784-2501", "ntee": "T30", "ruling": "201009", "deductibility": "1", "assets": 16868, "income": 87300, "revenue": 87300}, {"ein": "473054095", "name": "COMMITTEE OF POLICE SOCIETIES INC - COPS", "city": "NEW YORK", "state": "NY", "zip": "10009-0000", "ntee": "W12", "ruling": "201601", "deductibility": "1", "assets": 0, "income": 0, "revenue": 0}, {"ein": "833128764", "name": "COPS 4 A CAUSE", "city": "VESTAL", "state": "NY", "zip": "13851-0293", "ntee": "P01", "ruling": "201905", "deductibility": "1", "assets": 24948, "income": 81180, "revenue": 0}, {"ein": "834476595", "name": "COPS AND KIDS NEW YORK INC", "city": "WEST BABYLON", "state": "NY", "zip": "11704-5812", "ntee": "O20", "ruling": "201910", "deductibility": "1", "assets": 0, "income": 0, "revenue": 0}, {"ein": "843471404", "name": "COPS CARE FOR KIDS FOUNDATION INC", "city": "STATEN ISLAND", "state": "NY", "zip": "10312-2017", "ntee": "P62", "ruling": "202003", "deductibility": "1", "assets": 106756, "income": 29880, "revenue": 29880}, {"ein": "844378338", "name": "QUILTS 4 COPS A LABOR OF LOVE PROJECT", "city": "LAURELTON", "state": "NY", "zip": "11413-1730", "ntee": "P40", "ruling": "202004", "deductibility": "1", "assets": 0, "income": 0, "revenue": 0}, {"ein": "871121456", "name": "WILSONS COPS AND KIDS", "city": "ROME", "state": "NY", "zip": "13440-1528", "ntee": "O50", "ruling": "202110", "deductibility": "1", "assets": 0, "income": 0, "revenue": 0}, {"ein": "884364605", "name": "COFFEE FOR COPS", "city": "ROCHESTER", "state": "NY", "zip": "14625-1528", "ntee": "X20", "ruling": "202303", "deductibility": "1", "assets": 0, "income": 0, "revenue": 0}], "WADE": [{"ein": "202764771", "name": "UEL WADE MUSIC SCHOLARSHIP FUND INC", "city": "CHATHAM", "state": "NY", "zip": "12037-1321", "ntee": "B82", "ruling": "200611", "deductibility": "1", "assets": 0, "income": 0, "revenue": 0}, {"ein": "825255414", "name": "COLONEL WADE F DEWEY SCHOLARSHIP INC", "city": "MARCY", "state": "NY", "zip": "13403-3226", "ntee": "T22", "ruling": "201805", "deductibility": "1", "assets": 245, "income": 5000, "revenue": 0}, {"ein": "871104654", "name": "WADE DANCE INC", "city": "NEW YORK", "state": "NY", "zip": "10034-4908", "ntee": "A62", "ruling": "202201", "deductibility": "1", "assets": 15405, "income": 68052, "revenue": 68052}, {"ein": "883769729", "name": "DR MARGARET WADE-LEWIS BLACK HISTORY CENTER", "city": "NEW PALTZ", "state": "NY", "zip": "12561-0000", "ntee": "A99", "ruling": "202209", "deductibility": "1", "assets": 32405, "income": 25283, "revenue": 20091}, {"ein": "932720269", "name": "WADE AND SHAFIC ABRAHAM FOUNDATION INC", "city": "STATEN ISLAND", "state": "NY", "zip": "10304-1844", "ntee": "P99", "ruling": "202401", "deductibility": "1", "assets": 0, "income": 0, "revenue": 0}], "BLUESTONE": [{"ein": "202850111", "name": "NYS BLUESTONE ASSOCIATION", "city": "DEPOSIT", "state": "NY", "zip": "13754-2100", "ntee": "S41", "ruling": "200506", "deductibility": "2", "assets": 76678, "income": 3750, "revenue": 3750}, {"ein": "550807934", "name": "JOAN N BLUESTONE FOUNDATION INC", "city": "JAMAICA", "state": "NY", "zip": "11432-6173", "ntee": "T20", "ruling": "200303", "deductibility": "1", "assets": 33735758, "income": 12154656, "revenue": 0}], "CASH": [{"ein": "203813654", "name": "CASH CAMP INC", "city": "NEW YORK CITY", "state": "NY", "zip": "10018-0000", "ntee": "B99", "ruling": "200603", "deductibility": "1", "assets": 170269, "income": 19298, "revenue": 19298}, {"ein": "256317149", "name": "BNA CASH BASIS VEBA TRUST", "city": "BROOKLYN", "state": "NY", "zip": "11245-0003", "ntee": "", "ruling": "000000", "deductibility": "0", "assets": 0, "income": 10714831, "revenue": 10714831}], "KUNRIN": [{"ein": "204135646", "name": "EGBE IWA ODO KUNRIN EGBE IWA ODO BINRIN INC", "city": "BROOKLYN", "state": "NY", "zip": "11221-8860", "ntee": "O55", "ruling": "202110", "deductibility": "1", "assets": 0, "income": 0, "revenue": 0}], "HVTC": [{"ein": "205649715", "name": "HVTC PARENTS ASSOCIATIONINCORPORATED", "city": "ELLICOTTVILLE", "state": "NY", "zip": "14731-1655", "ntee": "B94", "ruling": "200906", "deductibility": "1", "assets": 0, "income": 0, "revenue": 0}], "PAOLO": [{"ein": "205853364", "name": "PAOLO AND MARLENE FRESCO FOUNDATION", "city": "NEW YORK", "state": "NY", "zip": "10013-0000", "ntee": "T22", "ruling": "200809", "deductibility": "1", "assets": 3454296, "income": 116151, "revenue": 0}, {"ein": "263948210", "name": "PAOLO PELLEGRINI AND HENRIETTA JONES FOUNDATION", "city": "NEW YORK", "state": "NY", "zip": "10167-0000", "ntee": "T22", "ruling": "200910", "deductibility": "1", "assets": 1153729, "income": 28176, "revenue": 0}], "BANSAL": [{"ein": "207195494", "name": "BANSAL FAMILY FOUNDATION", "city": "OLD WESTBURY", "state": "NY", "zip": "11568-1044", "ntee": "T22", "ruling": "200704", "deductibility": "1", "assets": 39611, "income": 511, "revenue": 0}], "PLENITUD": [{"ein": "208026046", "name": "PLENITUD DE VIDA CHRISTIAN MINISTRYINC", "city": "ELMONT", "state": "NY", "zip": "11003-1127", "ntee": "X20", "ruling": "200901", "deductibility": "1", "assets": 0, "income": 0, "revenue": 0}], "EDUCATIONS": [{"ein": "222238119", "name": "ROCHESTER WALDORF EDUCATIONS ASSOC INC", "city": "ROCHESTER", "state": "NY", "zip": "14624-5361", "ntee": "", "ruling": "197904", "deductibility": "1", "assets": 0, "income": 0, "revenue": 0}, {"ein": "992397138", "name": "EDUCATIONS FOR NEW AMERICANS INC", "city": "BROOKLYN", "state": "NY", "zip": "11235-5924", "ntee": "P84", "ruling": "202405", "deductibility": "1", "assets": 0, "income": 0, "revenue": 0}], "RUPCO": [{"ein": "222368174", "name": "RUPCO INC", "city": "KINGSTON", "state": "NY", "zip": "12401-3843", "ntee": "L21Z", "ruling": "198203", "deductibility": "1", "assets": 28545761, "income": 12865403, "revenue": 12849253}], "CHRISTOS": [{"ein": "222519743", "name": "THE CHRISTOS FOUNDATION INC", "city": "ORCHARD PARK", "state": "NY", "zip": "14127-8112", "ntee": "", "ruling": "198408", "deductibility": "1", "assets": 539509, "income": 192602, "revenue": 0}], "COMFORTCARE": [{"ein": "222667155", "name": "COMFORTCARE OF CAYUGA COUNTY INC", "city": "AUBURN", "state": "NY", "zip": "13021-1637", "ntee": "P740", "ruling": "198603", "deductibility": "1", "assets": 452231, "income": 20923, "revenue": 20923}], "SALICE": [{"ein": "226902474", "name": "SALICE FAM CHARITABLE TR", "city": "RYE", "state": "NY", "zip": "10580-0936", "ntee": "T22", "ruling": "200202", "deductibility": "1", "assets": 31716031, "income": 11792584, "revenue": 0}], "BONHAM": [{"ein": "236421020", "name": "ELIZABETH S BONHAM TRUST 5276", "city": "BUFFALO", "state": "NY", "zip": "14240-1504", "ntee": "", "ruling": "197307", "deductibility": "1", "assets": 1453002, "income": 394416, "revenue": 115409}], "GORAH": [{"ein": "237160072", "name": "GORAH VHORRAH", "city": "BROOKLYN", "state": "NY", "zip": "11229-2703", "ntee": "", "ruling": "197202", "deductibility": "1", "assets": 0, "income": 0, "revenue": 0}], "MONTI": [{"ein": "237250667", "name": "DON MONTI MEMORIAL RESEARCH FOUNDATION", "city": "JERICHO", "state": "NY", "zip": "11753-1318", "ntee": "", "ruling": "197302", "deductibility": "1", "assets": 160253, "income": 536106, "revenue": 509606}], "PLBG": [{"ein": "237379398", "name": "UNITED ASSOCIATION OF JRNYMN & APPR OF THE PLBG & PIPE FITTING IND", "city": "LATHAM", "state": "NY", "zip": "12110-2605", "ntee": "", "ruling": "194101", "deductibility": "2", "assets": 881230, "income": 171183, "revenue": 171183}], "VERSE": [{"ein": "260380864", "name": "FOUNDATION FOR LIGHT VERSE INC", "city": "ROCHESTER", "state": "NY", "zip": "14627-0001", "ntee": "A33", "ruling": "200802", "deductibility": "1", "assets": 0, "income": 0, "revenue": 0}], "FITZSIMMONS": [{"ein": "261813209", "name": "RICHARD E FITZSIMMONS MEMORIAL WIDOWS AND ORPHANS FUND", "city": "BRONX", "state": "NY", "zip": "10470-1814", "ntee": "Y20", "ruling": "201005", "deductibility": "2", "assets": 277480, "income": 38077, "revenue": 30444}], "SACH": [{"ein": "263129057", "name": "SACH KHAND GURU NANAK DARBAR", "city": "S OZONE PARK", "state": "NY", "zip": "11420-3804", "ntee": "X99", "ruling": "201108", "deductibility": "1", "assets": 0, "income": 0, "revenue": 0}], "TZLOSA": [{"ein": "270008975", "name": "CONGREGATION TZLOSA DSHLOMO", "city": "BROOKLYN", "state": "NY", "zip": "11219-3102", "ntee": "X30", "ruling": "200206", "deductibility": "1", "assets": 0, "income": 0, "revenue": 0}], "PETROSINO": [{"ein": "270364200", "name": "LIEUTENANT DETECTIVE JOSEPH PETROSINO ASSOCIATION IN AMERICA", "city": "WHITESTONE", "state": "NY", "zip": "11357-1955", "ntee": "P12", "ruling": "201103", "deductibility": "1", "assets": 0, "income": 0, "revenue": 0}, {"ein": "467205790", "name": "THE PETROSINO FAMILY FOUNDATION", "city": "GARDEN CITY", "state": "NY", "zip": "11530-4220", "ntee": "T22", "ruling": "201510", "deductibility": "1", "assets": 1394498, "income": 130007, "revenue": 0}, {"ein": "872972607", "name": "THOMAS AND PAMELA PETROSINO FOUNDATION INC", "city": "GARDEN CITY", "state": "NY", "zip": "11530-4220", "ntee": "T20", "ruling": "202204", "deductibility": "1", "assets": 4744599, "income": 2730927, "revenue": 0}], "ICC": [{"ein": "270377373", "name": "ICC TRUTH INC", "city": "CHURCHVILLE", "state": "NY", "zip": "14428-9718", "ntee": "O50", "ruling": "201401", "deductibility": "1", "assets": 0, "income": 0, "revenue": 0}], "MODIFIED": [{"ein": "270466509", "name": "DIRT MODIFIED STOCK CAR MUSEUM", "city": "WEEDSPORT", "state": "NY", "zip": "13166-0416", "ntee": "A54", "ruling": "200911", "deductibility": "1", "assets": 0, "income": 0, "revenue": 0}, {"ein": "452665214", "name": "WEST GENESEE MODIFIED SPORTS BOOSTERS INC", "city": "CAMILLUS", "state": "NY", "zip": "13031-0121", "ntee": "B11", "ruling": "201202", "deductibility": "1", "assets": 0, "income": 0, "revenue": 0}], "ART2ACTION": [{"ein": "273413890", "name": "ART2ACTION INC", "city": "NEW YORK", "state": "NY", "zip": "10003-5327", "ntee": "A20", "ruling": "201108", "deductibility": "1", "assets": 190056, "income": 237990, "revenue": 237990}], "WILDS": [{"ein": "274035427", "name": "GENESEE RIVER WILDS INC", "city": "BELMONT", "state": "NY", "zip": "14813-9621", "ntee": "C34", "ruling": "201201", "deductibility": "1", "assets": 0, "income": 0, "revenue": 0}], "AFSCME": [{"ein": "300492244", "name": "AFSCME NY LOCAL 3005", "city": "NEW YORK", "state": "NY", "zip": "10007-2233", "ntee": "", "ruling": "195708", "deductibility": "2", "assets": 1474345, "income": 981884, "revenue": 981884}], "OPTOMETRISTS": [{"ein": "300835443", "name": "WESTERN NEW YORK SOCIETY OF OPTOMETRISTS INC", "city": "AMHERST", "state": "NY", "zip": "14226-1439", "ntee": "S41", "ruling": "201408", "deductibility": "2", "assets": 0, "income": 0, "revenue": 0}], "SELECTIONS": [{"ein": "301052027", "name": "AMERICAN GARDEN ROSE SELECTIONS TM INC", "city": "GLEN COVE", "state": "NY", "zip": "11542-1220", "ntee": "C40", "ruling": "202205", "deductibility": "2", "assets": 0, "income": 0, "revenue": 0}], "SALARIED": [{"ein": "320563423", "name": "TOWN OF TONAWANDA SALARIED WORKERS ASSOCIATION", "city": "TONAWANDA", "state": "NY", "zip": "14150-5801", "ntee": "J40", "ruling": "201911", "deductibility": "2", "assets": 127413, "income": 79284, "revenue": 79284}], "SISTAS": [{"ein": "331643197", "name": "MY SISTAS KEEPER INC", "city": "BROOKLYN", "state": "NY", "zip": "11207-3583", "ntee": "X20", "ruling": "202504", "deductibility": "1", "assets": 0, "income": 0, "revenue": 0}, {"ein": "331853965", "name": "SISTAS INTENTIONALLY STRIVING TOGETHER ACHIEVING SUCCESS INC", "city": "BROOKLYN", "state": "NY", "zip": "11216-3745", "ntee": "O50", "ruling": "202505", "deductibility": "1", "assets": 0, "income": 0, "revenue": 0}, {"ein": "863153498", "name": "WELL READ SISTAS INC", "city": "BRONX", "state": "NY", "zip": "10460-3735", "ntee": "A60", "ruling": "202202", "deductibility": "1", "assets": 0, "income": 0, "revenue": 0}, {"ein": "870725333", "name": "SISTAS ON THE RISE INC", "city": "BRONX", "state": "NY", "zip": "10474-6403", "ntee": "P42", "ruling": "200502", "deductibility": "1", "assets": 0, "income": 0, "revenue": 0}, {"ein": "993158367", "name": "PINEAPPLE SISTAS INC", "city": "SARATOGA SPGS", "state": "NY", "zip": "12866-9635", "ntee": "W99", "ruling": "202406", "deductibility": "1", "assets": 0, "income": 0, "revenue": 0}], "HAUS": [{"ein": "332154625", "name": "HAUS OF CREATORS FOUNDATION INC", "city": "NORTH BALDWIN", "state": "NY", "zip": "11510-2505", "ntee": "A25", "ruling": "202504", "deductibility": "1", "assets": 0, "income": 0, "revenue": 0}, {"ein": "882234036", "name": "KREATIVE HAUS INC", "city": "STATEN ISLAND", "state": "NY", "zip": "10306-2437", "ntee": "O50", "ruling": "202210", "deductibility": "1", "assets": 0, "income": 0, "revenue": 0}], "ATHANASOPOULOS": [{"ein": "332252838", "name": "IOANNIS ATHANASOPOULOS FOUNDATION", "city": "HUNTINGTN STA", "state": "NY", "zip": "11746-4349", "ntee": "T30", "ruling": "202412", "deductibility": "1", "assets": 0, "income": 0, "revenue": 0}], "LSN": [{"ein": "332304192", "name": "LSN", "city": "BROOKLYN", "state": "NY", "zip": "11230-5347", "ntee": "W30", "ruling": "202412", "deductibility": "1", "assets": 0, "income": 0, "revenue": 0}], "GISELE": [{"ein": "333690604", "name": "GISELE MANOR COMMUNITY CENTER", "city": "SYRACUSE", "state": "NY", "zip": "13204-2303", "ntee": "S30", "ruling": "202504", "deductibility": "1", "assets": 0, "income": 0, "revenue": 0}], "INTERMEDIUM": [{"ein": "363046751", "name": "ROULETTE INTERMEDIUM INC", "city": "BROOKLYN", "state": "NY", "zip": "11217-2129", "ntee": "A600", "ruling": "198105", "deductibility": "1", "assets": 4500643, "income": 2356104, "revenue": 2296777}], "MUNGAI": [{"ein": "383712448", "name": "CAROLINE WAMBUI MUNGAI FOUNDATION", "city": "NORTH BALDWIN", "state": "NY", "zip": "11510-1201", "ntee": "P70", "ruling": "200604", "deductibility": "1", "assets": 3487, "income": 41435, "revenue": 40955}], "TRACY": [{"ein": "452594680", "name": "FRIENDS AND ANGELS THE TRACY VICERE FOUNDATION INC", "city": "WANTAGH", "state": "NY", "zip": "11793-1864", "ntee": "E86", "ruling": "201109", "deductibility": "1", "assets": 11293, "income": 10757, "revenue": 10757}, {"ein": "460759819", "name": "BEAUTIFULLY RECKLESS THE TRACY HEIDENFELDER MEMORIAL FUND", "city": "VALLEY STREAM", "state": "NY", "zip": "11582-1643", "ntee": "T99", "ruling": "201403", "deductibility": "1", "assets": 0, "income": 0, "revenue": 0}, {"ein": "810841284", "name": "FRIENDS OF THE TRACY INC", "city": "CHATHAM", "state": "NY", "zip": "12037-0225", "ntee": "T70", "ruling": "201812", "deductibility": "1", "assets": 0, "income": 0, "revenue": 0}, {"ein": "831568241", "name": "FATHER LAURENCE -LARRY-TRACY ADVOCACY CENTER", "city": "ROCHESTER", "state": "NY", "zip": "14605-1103", "ntee": "R01", "ruling": "201808", "deductibility": "1", "assets": 213330, "income": 515588, "revenue": 515588}, {"ein": "853920055", "name": "TRACY FLANIGAN MCVEY FAMILY FOUNDATION", "city": "BRONXVILLE", "state": "NY", "zip": "10708-4905", "ntee": "T22", "ruling": "202111", "deductibility": "1", "assets": 638027, "income": 97882, "revenue": 0}], "BECHESED": [{"ein": "453117647", "name": "YAD BECHESED WOLBOROSH INC", "city": "BROOKLYN", "state": "NY", "zip": "11204-1395", "ntee": "X30", "ruling": "201507", "deductibility": "1", "assets": 3175, "income": 125889, "revenue": 125889}], "SHQIPTARE": [{"ein": "453978077", "name": "RRENJET SHQIPTARE ALBANIAN ROOTS INC", "city": "STATEN ISLAND", "state": "NY", "zip": "10306-4658", "ntee": "A23", "ruling": "201311", "deductibility": "1", "assets": 37296, "income": 73131, "revenue": 73131}], "ELBEUF": [{"ein": "455571924", "name": "AMERICAN FRIENDS OF THE ELBEUF SYNAGOGUE INC", "city": "NEW YORK", "state": "NY", "zip": "10028-0959", "ntee": "A50", "ruling": "201312", "deductibility": "1", "assets": 0, "income": 0, "revenue": 0}], "BAYIT": [{"ein": "470999974", "name": "BAYIT CHAM MORESHET CHANA INC", "city": "BROOKLYN", "state": "NY", "zip": "11230-6402", "ntee": "P12", "ruling": "201511", "deductibility": "1", "assets": 0, "income": 0, "revenue": 0}, {"ein": "472611386", "name": "BAYIT VGAN FUND", "city": "NEW YORK", "state": "NY", "zip": "10038-3114", "ntee": "B12", "ruling": "201709", "deductibility": "1", "assets": 4960, "income": 25000, "revenue": 25000}, {"ein": "853882884", "name": "SHALOM BAYIT INC", "city": "FOREST HILLS", "state": "NY", "zip": "11375-3839", "ntee": "P46", "ruling": "202102", "deductibility": "1", "assets": 1, "income": 0, "revenue": 0}, {"ein": "881108119", "name": "BAYIT CHAM", "city": "BROOKLYN", "state": "NY", "zip": "11204-1800", "ntee": "X30", "ruling": "202304", "deductibility": "1", "assets": 0, "income": 0, "revenue": 0}, {"ein": "922723260", "name": "CHABAD BAYIT BAPARK", "city": "BROOKLYN", "state": "NY", "zip": "11213-4432", "ntee": "X30", "ruling": "202409", "deductibility": "1", "assets": 0, "income": 0, "revenue": 0}], "AENY": [{"ein": "471555740", "name": "AENY - SPANISH ARTISTS IN NEW YORK INC", "city": "NEW YORK", "state": "NY", "zip": "10011-7149", "ntee": "A20", "ruling": "201506", "deductibility": "1", "assets": 0, "income": 0, "revenue": 0}], "YCS": [{"ein": "472084162", "name": "YCS EDUCATION FOUNDATION INC", "city": "PIFFARD", "state": "NY", "zip": "14533-9732", "ntee": "B94", "ruling": "201803", "deductibility": "1", "assets": 0, "income": 0, "revenue": 0}, {"ein": "882426859", "name": "YCS CHESED FOUNDATION INC", "city": "BROOKLYN", "state": "NY", "zip": "11219-4145", "ntee": "T50", "ruling": "202206", "deductibility": "1", "assets": 0, "income": 0, "revenue": 0}], "SUBRAJ": [{"ein": "472303192", "name": "GEORGE SUBRAJ FAMILY FOUNDATION", "city": "JAMAICA", "state": "NY", "zip": "11432-4250", "ntee": "Q33", "ruling": "201807", "deductibility": "1", "assets": 698947, "income": 74295, "revenue": 0}], "ZANIS": [{"ein": "472344925", "name": "ZANIS FURRY FRIENDS ZFF INC", "city": "NEW YORK", "state": "NY", "zip": "10028-7547", "ntee": "D20", "ruling": "201502", "deductibility": "1", "assets": 154371, "income": 44957, "revenue": 44957}], "MUPPIES": [{"ein": "472761990", "name": "MUPPIES INC", "city": "NEW YORK", "state": "NY", "zip": "10001-7604", "ntee": "X03", "ruling": "201508", "deductibility": "1", "assets": 277793, "income": 136943, "revenue": 136943}], "RESTFULL": [{"ein": "473204900", "name": "RESTFULL NIGHTS ORGANIZATION INC", "city": "JAMAICA", "state": "NY", "zip": "11435-5154", "ntee": "P20", "ruling": "201510", "deductibility": "1", "assets": 7987, "income": 65238, "revenue": 65238}], "HOLLANDER": [{"ein": "473758208", "name": "EUGENE AND MONICA E HOLLANDER FOUNDATION", "city": "SYOSSET", "state": "NY", "zip": "11791-2628", "ntee": "", "ruling": "201603", "deductibility": "0", "assets": 12128, "income": 14, "revenue": 0}, {"ein": "814800615", "name": "HOLLANDER FAMILY CHARITY FUND INC", "city": "W HEMPSTEAD", "state": "NY", "zip": "11552-3206", "ntee": "T20", "ruling": "201905", "deductibility": "1", "assets": 480817, "income": 120000, "revenue": 0}], "ACROJETS": [{"ein": "474344757", "name": "ACROJETS GYMNASTICS BOOSTER CLUB INC", "city": "WILLIAMSVILLE", "state": "NY", "zip": "14221-7038", "ntee": "N70", "ruling": "201508", "deductibility": "1", "assets": 99801, "income": 146298, "revenue": 129769}], "AYLECHA": [{"ein": "475509286", "name": "AMERICAN FRIENDS OF HASHEVEINU AYLECHA MOUNT ZION INC", "city": "LAWRENCE", "state": "NY", "zip": "11559-4000", "ntee": "X30", "ruling": "201909", "deductibility": "1", "assets": 82035, "income": 156273, "revenue": 156273}], "KHAC": [{"ein": "510153587", "name": "KHAC ADAS YEREIM OF HILLCREST INC", "city": "FLUSHING", "state": "NY", "zip": "11366-1402", "ntee": "", "ruling": "197507", "deductibility": "1", "assets": 0, "income": 0, "revenue": 0}], "DNA": [{"ein": "612118753", "name": "DNA FINDERS INCORPORATED", "city": "BALLSTON SPA", "state": "NY", "zip": "12020-2223", "ntee": "P99", "ruling": "202312", "deductibility": "1", "assets": 0, "income": 0, "revenue": 0}, {"ein": "831918238", "name": "LEONARDO DA VINCI DNA PROJECT INC", "city": "NEW YORK", "state": "NY", "zip": "10065-0000", "ntee": "P20", "ruling": "201907", "deductibility": "1", "assets": 67087, "income": 85000, "revenue": 85000}], "LIPSETT": [{"ein": "656319168", "name": "THE SAMUEL AND NATALIE LIPSETT FOUNDATION", "city": "NEW YORK", "state": "NY", "zip": "10020-1300", "ntee": "T22", "ruling": "200004", "deductibility": "1", "assets": 69261, "income": 41118, "revenue": 0}], "TATP": [{"ein": "800631181", "name": "THE ART THERAPY PROJECT CORPORATION TATP", "city": "NEW YORK", "state": "NY", "zip": "10011-3203", "ntee": "A25", "ruling": "201009", "deductibility": "1", "assets": 397875, "income": 699128, "revenue": 630611}], "MILOSCIA": [{"ein": "811835042", "name": "THOMAS MATTHEW MILOSCIA FOUNDATION INC", "city": "PRT JEFFERSON", "state": "NY", "zip": "11777-0091", "ntee": "T30", "ruling": "201604", "deductibility": "1", "assets": 61257, "income": 33129, "revenue": 17089}], "AHMED": [{"ein": "811942156", "name": "JOSEPH AHMED FOUNDATION INC", "city": "STATEN ISLAND", "state": "NY", "zip": "10303-2208", "ntee": "G30", "ruling": "202302", "deductibility": "1", "assets": 0, "income": 0, "revenue": 0}, {"ein": "812066145", "name": "HUMAYUN AHMED MEMORIAL FOUNDATION USA INC", "city": "JAMAICA", "state": "NY", "zip": "11432-3452", "ntee": "G01", "ruling": "202109", "deductibility": "1", "assets": 5575, "income": 4050, "revenue": 4050}], "XUNGEN": [{"ein": "813078707", "name": "XUNGEN ASSOCIATION OF CHINESE-AMERICANS INC", "city": "FOREST HILLS", "state": "NY", "zip": "11375-1409", "ntee": "A23", "ruling": "201806", "deductibility": "1", "assets": 9123, "income": 27832, "revenue": 27832}], "IPRHFF": [{"ein": "813830123", "name": "INTERNATIONAL PUERTO RICAN HERITAGE FILM FESTIVAL -IPRHFF- CORP", "city": "BROOKLYN", "state": "NY", "zip": "11218-1024", "ntee": "A31", "ruling": "202108", "deductibility": "1", "assets": 0, "income": 0, "revenue": 0}], "RINCON": [{"ein": "814198118", "name": "EL RINCON CRIOLLO CENTRO CULTURAL INC", "city": "BRONX", "state": "NY", "zip": "10451-0000", "ntee": "A20", "ruling": "201809", "deductibility": "1", "assets": 0, "income": 0, "revenue": 0}, {"ein": "814667860", "name": "RINCON DE PIEDRAS UNIDOS FOUNDATION INC", "city": "COPIAGUE", "state": "NY", "zip": "11726-2904", "ntee": "S99", "ruling": "201612", "deductibility": "1", "assets": 23467, "income": 45709, "revenue": 45709}], "BROMAN": [{"ein": "814258207", "name": "BROMAN EQUINE CHARITABLE FOUNDATION INC", "city": "WEST BABYLON", "state": "NY", "zip": "11704-1102", "ntee": "D12", "ruling": "201802", "deductibility": "1", "assets": 97428, "income": 22563, "revenue": 22563}], "PASCHIM": [{"ein": "814429551", "name": "SUDUR PASCHIM SAMAJ AMERICA INC", "city": "LYNBROOK", "state": "NY", "zip": "11563-1328", "ntee": "A23", "ruling": "201702", "deductibility": "1", "assets": 0, "income": 0, "revenue": 0}], "EWS": [{"ein": "815225653", "name": "EWS AND COMPANY FOUNDATION", "city": "QUEENS VILLAGE", "state": "NY", "zip": "11429-0000", "ntee": "T22", "ruling": "201710", "deductibility": "1", "assets": 313778, "income": 7000, "revenue": 0}], "UPLIFE": [{"ein": "822278679", "name": "UPLIFE FOUNDATION INC", "city": "BRONX", "state": "NY", "zip": "10470-1561", "ntee": "S20", "ruling": "201709", "deductibility": "1", "assets": 0, "income": 0, "revenue": 0}], "INCA": [{"ein": "822676899", "name": "PATRONATO INCA USA CORP", "city": "MELVILLE", "state": "NY", "zip": "11747-5078", "ntee": "T23", "ruling": "201904", "deductibility": "1", "assets": 1, "income": 577235, "revenue": 0}], "HARV": [{"ein": "823716549", "name": "HARV TOBACK SCHOLARSHIP FUND FOR THE ARTS INC", "city": "NEW YORK", "state": "NY", "zip": "10014-5369", "ntee": "B82", "ruling": "201902", "deductibility": "1", "assets": 0, "income": 0, "revenue": 0}], "GEMZ": [{"ein": "830735970", "name": "GEMZ INC", "city": "BROOKLYN", "state": "NY", "zip": "11234-4336", "ntee": "F60", "ruling": "201806", "deductibility": "1", "assets": 0, "income": 0, "revenue": 0}], "BRIELLE": [{"ein": "830806060", "name": "BRIELLE GRACE BREAST CANCER FOUNDATION INC", "city": "FISHKILL", "state": "NY", "zip": "12524-1456", "ntee": "G40", "ruling": "201903", "deductibility": "1", "assets": 88212, "income": 85994, "revenue": 85994}, {"ein": "831892653", "name": "BRIELLE SKY FOUNDATION INC", "city": "OSSINING", "state": "NY", "zip": "10562-3404", "ntee": "T01", "ruling": "201809", "deductibility": "1", "assets": 0, "income": 0, "revenue": 0}], "FOCOMAH": [{"ein": "831117718", "name": "FOCOMAH INC", "city": "BROOKLYN", "state": "NY", "zip": "11210-3942", "ntee": "E32", "ruling": "201808", "deductibility": "1", "assets": 0, "income": 0, "revenue": 0}], "NAFSHEINU": [{"ein": "833379334", "name": "OHR NAFSHEINU CORP", "city": "AIRMONT", "state": "NY", "zip": "10952-3510", "ntee": "B60", "ruling": "201909", "deductibility": "1", "assets": 2417775, "income": 1119909, "revenue": 119909}, {"ein": "922600319", "name": "CONGREGATION OHR NAFSHEINU", "city": "AIRMONT", "state": "NY", "zip": "10952-3510", "ntee": "X30", "ruling": "202307", "deductibility": "1", "assets": 0, "income": 0, "revenue": 0}], "ONEMUSIC": [{"ein": "833762064", "name": "ONEMUSIC PROJECT INC", "city": "NEW YORK", "state": "NY", "zip": "10011-7758", "ntee": "A68", "ruling": "201907", "deductibility": "1", "assets": 0, "income": 0, "revenue": 0}], "MEA": [{"ein": "843419315", "name": "LUX MEA WOMEN S CHORUS INCORPORATED", "city": "NEW YORK CITY", "state": "NY", "zip": "10024-6713", "ntee": "A6B", "ruling": "201912", "deductibility": "1", "assets": 0, "income": 0, "revenue": 0}, {"ein": "853527932", "name": "MUSLIM ENTREPRENEUR ASSOCIATION MEA INC", "city": "BELLEROSE VLG", "state": "NY", "zip": "11001-1004", "ntee": "W99", "ruling": "202103", "deductibility": "1", "assets": 53455, "income": 54375, "revenue": 0}], "CHICKWEED": [{"ein": "843867645", "name": "CHICKWEED ALLIANCE", "city": "BROOKLYN", "state": "NY", "zip": "11207-2965", "ntee": "A12", "ruling": "202002", "deductibility": "1", "assets": 0, "income": 0, "revenue": 0}], "UMPIRES": [{"ein": "844240442", "name": "WESTERN NEW YORK UMPIRES ASSOCIATION INC", "city": "ORCHARD PARK", "state": "NY", "zip": "14127-0583", "ntee": "N11", "ruling": "202105", "deductibility": "1", "assets": 0, "income": 0, "revenue": 0}], "HEALYOUHEALME": [{"ein": "851051436", "name": "HEALYOUHEALME INC", "city": "COLLEGE POINT", "state": "NY", "zip": "11356-1024", "ntee": "E19", "ruling": "202007", "deductibility": "1", "assets": 0, "income": 0, "revenue": 0}], "CHONA": [{"ein": "851903242", "name": "DIVREI CHONA KOLOSHITZ", "city": "MONROE", "state": "NY", "zip": "10950-4045", "ntee": "X30", "ruling": "202009", "deductibility": "1", "assets": 0, "income": 0, "revenue": 0}], "NIKAN": [{"ein": "853245991", "name": "NIKAN BARATIAN MEMORIAL FUND INC", "city": "GREAT NECK", "state": "NY", "zip": "11023-1651", "ntee": "B12", "ruling": "202311", "deductibility": "1", "assets": 0, "income": 0, "revenue": 0}], "RIVNITS": [{"ein": "862090598", "name": "MISHKEN CHAIM RIVNITS", "city": "MONROE", "state": "NY", "zip": "10950-0000", "ntee": "X30", "ruling": "202207", "deductibility": "1", "assets": 1, "income": 0, "revenue": 0}], "CONSTRUCT": [{"ein": "870925211", "name": "YOUTH CONSTRUCT INC", "city": "NEW YORK", "state": "NY", "zip": "10039-2904", "ntee": "O50", "ruling": "202112", "deductibility": "1", "assets": 30873, "income": 127352, "revenue": 126999}], "ASSIMILATION": [{"ein": "872348781", "name": "UNITED IMMIGRANTS AND MIGRANTS ASSIMILATION PROJECT INC", "city": "BROOKLYN", "state": "NY", "zip": "11208-2412", "ntee": "P20", "ruling": "202111", "deductibility": "1", "assets": 0, "income": 0, "revenue": 0}], "ROYS": [{"ein": "874092219", "name": "ROYS COMMUNITY FOUNDTION", "city": "POUGHKEEPSIE", "state": "NY", "zip": "12601-2858", "ntee": "O50", "ruling": "202208", "deductibility": "1", "assets": 0, "income": 0, "revenue": 0}], "AMED": [{"ein": "874762796", "name": "AMED KHAN FOUNDATION", "city": "SUFFERN", "state": "NY", "zip": "10901-0844", "ntee": "P20", "ruling": "202311", "deductibility": "1", "assets": 50065, "income": 400000, "revenue": 0}], "STAVNITZ": [{"ein": "880671987", "name": "CONG STAVNITZ INC", "city": "MONROE", "state": "NY", "zip": "10950-2538", "ntee": "X30", "ruling": "202207", "deductibility": "1", "assets": 0, "income": 0, "revenue": 0}], "KASSAL": [{"ein": "882643656", "name": "BARBARA AND BENTLEY KASSAL FOUNDATION", "city": "NEW YORK", "state": "NY", "zip": "10022-0000", "ntee": "K31", "ruling": "202208", "deductibility": "1", "assets": 52335, "income": 1366794, "revenue": 0}], "SUST": [{"ein": "883751956", "name": "SUST ALUMNI ASSOCIATION OF USA INC", "city": "JAMAICA", "state": "NY", "zip": "11433-1317", "ntee": "B84", "ruling": "202412", "deductibility": "1", "assets": 0, "income": 0, "revenue": 0}], "DREAMZ": [{"ein": "884103036", "name": "SAVING DREAMZ INC", "city": "JAMAICA", "state": "NY", "zip": "11432-1735", "ntee": "P12", "ruling": "202212", "deductibility": "1", "assets": 0, "income": 0, "revenue": 0}], "BELLEZA": [{"ein": "884142418", "name": "ASOCIACION DE PROFESIONALES EN BELLEZA NACIONAL E INTERNACIONAL I", "city": "YONKERS", "state": "NY", "zip": "10701-4878", "ntee": "W03", "ruling": "202402", "deductibility": "1", "assets": 0, "income": 0, "revenue": 0}], "BEADS": [{"ein": "900891804", "name": "BEADS OF HOPE INC", "city": "BROOKLYN", "state": "NY", "zip": "11226-5601", "ntee": "P20", "ruling": "201406", "deductibility": "1", "assets": 0, "income": 0, "revenue": 0}], "DIKEMAN": [{"ein": "900926425", "name": "DIKEMAN ENGINE AND HOSE CO NO 3 INC", "city": "GOSHEN", "state": "NY", "zip": "10924-0844", "ntee": "M24", "ruling": "201606", "deductibility": "1", "assets": 0, "income": 0, "revenue": 0}], "BLOCKERS": [{"ein": "921965453", "name": "BALLTOWN BLOCKERS VOLLEYBALL CLUB INC", "city": "NISKAYUNA", "state": "NY", "zip": "12309-5316", "ntee": "N99", "ruling": "202310", "deductibility": "1", "assets": 0, "income": 0, "revenue": 0}], "MIL1ION": [{"ein": "922225772", "name": "ONE IN A MIL1ION INC", "city": "HICKSVILLE", "state": "NY", "zip": "11801-2836", "ntee": "G80", "ruling": "202302", "deductibility": "1", "assets": 0, "income": 0, "revenue": 0}], "KAMARA": [{"ein": "923208547", "name": "BABOU KAMARA S FAMILY FOUNDATION CORP", "city": "BRONX", "state": "NY", "zip": "10454-1180", "ntee": "P20", "ruling": "202401", "deductibility": "0", "assets": 0, "income": 0, "revenue": 0}, {"ein": "992288753", "name": "I B TAYLOR-KAMARA FOUNDATION CORPORATION", "city": "SLEEPY HOLLOW", "state": "NY", "zip": "10591-1032", "ntee": "T30", "ruling": "202407", "deductibility": "1", "assets": 0, "income": 0, "revenue": 0}], "LIAMUIGA": [{"ein": "923538225", "name": "LIAMUIGA OUALIE ARTS FOUNDATION", "city": "BROOKLYN", "state": "NY", "zip": "11216-1703", "ntee": "B12", "ruling": "202310", "deductibility": "1", "assets": 0, "income": 0, "revenue": 0}], "IFTAS": [{"ein": "932011167", "name": "IFTAS INC", "city": "OSSINING", "state": "NY", "zip": "10562-8517", "ntee": "W90", "ruling": "202402", "deductibility": "1", "assets": 69283, "income": 7733, "revenue": 7733}], "DEWAL": [{"ein": "932885082", "name": "DEWAL PATHWAYS INC", "city": "POUGHKEEPSIE", "state": "NY", "zip": "12601-1245", "ntee": "P20", "ruling": "202309", "deductibility": "1", "assets": 0, "income": 0, "revenue": 0}], "NEPPERHAN": [{"ein": "934797659", "name": "NEPPERHAN CULTURAL CENTER INC", "city": "YONKERS", "state": "NY", "zip": "10701-2228", "ntee": "P28", "ruling": "202404", "deductibility": "1", "assets": 0, "income": 0, "revenue": 0}], "BAHEM": [{"ein": "934965616", "name": "CONGREGATION CHAIM SHEYESH BAHEM", "city": "MONROE", "state": "NY", "zip": "10950-1165", "ntee": "X30", "ruling": "202408", "deductibility": "1", "assets": 0, "income": 0, "revenue": 0}], "MANGALSINGH": [{"ein": "991437458", "name": "BRANDON JAMES MANGALSINGH MEMORIAL FUND INC", "city": "PITTSFORD", "state": "NY", "zip": "14534-4164", "ntee": "O12", "ruling": "202410", "deductibility": "1", "assets": 0, "income": 0, "revenue": 0}], "EMMYS": [{"ein": "991869451", "name": "EMMYS DREAM BUILDERS INC", "city": "BROOKLYN", "state": "NY", "zip": "11236-3118", "ntee": "P30", "ruling": "202403", "deductibility": "1", "assets": 1, "income": 150000, "revenue": 150000}]}