{"SOLID": [{"ein": "010598573", "name": "CATHEDRAL OF SOLID ROCK GOSPEL ASSEMBLY INC", "city": "JAMAICA", "state": "NY", "zip": "11432-5029", "ntee": "X21", "ruling": "200209", "deductibility": "1", "assets": 0, "income": 0, "revenue": 0}, {"ein": "112591196", "name": "SOLID ROCK PENTECOSTAL FELLOWSHIP CHURCH INC", "city": "BROOKLYN", "state": "NY", "zip": "11238-6101", "ntee": "", "ruling": "199301", "deductibility": "1", "assets": 0, "income": 0, "revenue": 0}, {"ein": "112632422", "name": "SOLID ROCK MINISTRIES INCORPORATED", "city": "QUEENS VLG", "state": "NY", "zip": "11428-1943", "ntee": "", "ruling": "198412", "deductibility": "1", "assets": 0, "income": 0, "revenue": 0}, {"ein": "112722563", "name": "UNITED SOLID ROCK BAPTIST CHURCH", "city": "S OZONE PARK", "state": "NY", "zip": "11420-1607", "ntee": "", "ruling": "198602", "deductibility": "1", "assets": 0, "income": 0, "revenue": 0}, {"ein": "112904595", "name": "SOLID ROCK CHURCH OF GOD IN CHRIST INC", "city": "CORAM", "state": "NY", "zip": "11727-4050", "ntee": "", "ruling": "199008", "deductibility": "1", "assets": 0, "income": 0, "revenue": 0}, {"ein": "112936601", "name": "SOLID ROCK MINISTRY OF L I INC", "city": "HUNTINGTON", "state": "NY", "zip": "11743-0730", "ntee": "X20", "ruling": "200201", "deductibility": "1", "assets": 0, "income": 0, "revenue": 0}, {"ein": "112999373", "name": "SOLID ROCK BAPTIST CHURCH", "city": "BROOKLYN", "state": "NY", "zip": "11206-6520", "ntee": "", "ruling": "195504", "deductibility": "1", "assets": 0, "income": 0, "revenue": 0}, {"ein": "113093064", "name": "SOLID ROCK CHRISTIAN TABERNACLE INC", "city": "FAR ROCKAWAY", "state": "NY", "zip": "11691-1823", "ntee": "", "ruling": "199405", "deductibility": "1", "assets": 0, "income": 0, "revenue": 0}, {"ein": "113202156", "name": "SOLID ROCK CHURCH OF THE NAZARENE", "city": "QUEENS", "state": "NY", "zip": "11429-1332", "ntee": "X21", "ruling": "200111", "deductibility": "1", "assets": 0, "income": 0, "revenue": 0}, {"ein": "133219630", "name": "SOLID ROCK FIRST BORN CHURCH OF THE LIVING GOD INCORPORATED", "city": "BRONX", "state": "NY", "zip": "10456-6754", "ntee": "", "ruling": "198412", "deductibility": "1", "assets": 0, "income": 0, "revenue": 0}, {"ein": "133979615", "name": "SOLID ROCK CHURCH INC", "city": "BRONX", "state": "NY", "zip": "10456-6754", "ntee": "X20", "ruling": "199905", "deductibility": "1", "assets": 0, "income": 0, "revenue": 0}, {"ein": "133981286", "name": "SOLID ROCK CHRISTIAN CENTER INC", "city": "YONKERS", "state": "NY", "zip": "10703-3151", "ntee": "X20", "ruling": "199904", "deductibility": "1", "assets": 0, "income": 0, "revenue": 0}, {"ein": "134360992", "name": "THE SOLID ROCK INTERNATIONAL MINISTRY CORPORATION", "city": "MOUNT VERNON", "state": "NY", "zip": "10550-2735", "ntee": "X21", "ruling": "201007", "deductibility": "1", "assets": 0, "income": 0, "revenue": 0}, {"ein": "141822852", "name": "ROCK SOLID CHURCH OF COLUMBIA COUNTY", "city": "HUDSON", "state": "NY", "zip": "12534-0424", "ntee": "X21", "ruling": "200110", "deductibility": "1", "assets": 0, "income": 0, "revenue": 0}, {"ein": "161375098", "name": "SOLID ROCK OUTREACH MINISTRIES", "city": "SYRACUSE", "state": "NY", "zip": "13203-2002", "ntee": "X21", "ruling": "200905", "deductibility": "1", "assets": 0, "income": 0, "revenue": 0}, {"ein": "161512987", "name": "SOLID ROCK CHRISTIAN FELLOWSHIP", "city": "ROCHESTER", "state": "NY", "zip": "14606-4901", "ntee": "X20Z", "ruling": "199805", "deductibility": "1", "assets": 0, "income": 0, "revenue": 0}, {"ein": "222453851", "name": "SOLID ROCK CHURCH MINISTRIES", "city": "GLENMONT", "state": "NY", "zip": "12077-4815", "ntee": "", "ruling": "198308", "deductibility": "1", "assets": 0, "income": 0, "revenue": 0}, {"ein": "222504667", "name": "SOLID ROCK ASSEMBLY OF GOD", "city": "BOLTON LNDG", "state": "NY", "zip": "12814-3612", "ntee": "", "ruling": "196408", "deductibility": "1", "assets": 0, "income": 0, "revenue": 0}, {"ein": "222957353", "name": "NEW YORK STATE ASSOCIATION FOR SOLID WASTE MANAGEMENT INC", "city": "ALBANY", "state": "NY", "zip": "12212-3461", "ntee": "", "ruling": "199202", "deductibility": "2", "assets": 440226, "income": 126033, "revenue": 126033}, {"ein": "263843065", "name": "SOLID ROCK CHRISTIAN CENTER INC", "city": "AVOCA", "state": "NY", "zip": "14809-9607", "ntee": "X21", "ruling": "201002", "deductibility": "1", "assets": 0, "income": 0, "revenue": 0}, {"ein": "264656805", "name": "JESUS CHRIST SOLID ROCK MINISTRIES INC", "city": "ROOSEVELT", "state": "NY", "zip": "11575-1110", "ntee": "X21", "ruling": "200909", "deductibility": "1", "assets": 0, "income": 0, "revenue": 0}, {"ein": "521684339", "name": "SOLID WASTE ASSOCIATION OF NORTH AMERICA INC", "city": "WHITE PLAINS", "state": "NY", "zip": "10601-4411", "ntee": "B99", "ruling": "198608", "deductibility": "1", "assets": 376210, "income": 379856, "revenue": 379856}, {"ein": "821276010", "name": "SOLID FOUNDATION PREP INC", "city": "BUFFALO", "state": "NY", "zip": "14222-1418", "ntee": "B90", "ruling": "201801", "deductibility": "1", "assets": 0, "income": 0, "revenue": 0}, {"ein": "824333046", "name": "SOLID ROCK REDEMPTION CHURCH OF GOD INC", "city": "BROOKLYN", "state": "NY", "zip": "11226-3273", "ntee": "X21", "ruling": "201904", "deductibility": "1", "assets": 1578, "income": 31965, "revenue": 31965}, {"ein": "853036297", "name": "ROCK SOLID FAITH INC", "city": "SYRACUSE", "state": "NY", "zip": "13203-2630", "ntee": "P99", "ruling": "202011", "deductibility": "1", "assets": 0, "income": 0, "revenue": 0}, {"ein": "861146340", "name": "SOLID ROCK BAPTIST CHURCH", "city": "JAMAICA", "state": "NY", "zip": "11434-1021", "ntee": "X21", "ruling": "201104", "deductibility": "1", "assets": 0, "income": 0, "revenue": 0}, {"ein": "862245844", "name": "SOLID ROCK SANCTUARY OF PRAISE INTERNATIONAL", "city": "BRONX", "state": "NY", "zip": "10466-2483", "ntee": "X20", "ruling": "202203", "deductibility": "1", "assets": 0, "income": 0, "revenue": 0}], "ARYEH": [{"ein": "010752883", "name": "REB MOSHE ARYEH CHARITY FOUNDATION", "city": "FOREST HILLS", "state": "NY", "zip": "11375-5837", "ntee": "B82", "ruling": "200309", "deductibility": "1", "assets": 564075, "income": 17725, "revenue": 0}, {"ein": "112450787", "name": "ZALMAN ARYEH HILSENRAD KEREN HACHESED C O MR Z HILSENRAD", "city": "BROOKLYN", "state": "NY", "zip": "11229-1953", "ntee": "", "ruling": "197805", "deductibility": "1", "assets": 0, "income": 0, "revenue": 0}, {"ein": "113056466", "name": "TOMASHOVER CONGREGATION AND YESHIVA KOL ARYEH", "city": "BROOKLYN", "state": "NY", "zip": "11230-2910", "ntee": "", "ruling": "199104", "deductibility": "1", "assets": 0, "income": 0, "revenue": 0}, {"ein": "113316615", "name": "CONGREGATION ZICHRON NAFTULE ARYEH INC", "city": "BROOKLYN", "state": "NY", "zip": "11211-1736", "ntee": "X30Z", "ruling": "199801", "deductibility": "1", "assets": 0, "income": 0, "revenue": 0}, {"ein": "113362308", "name": "CONGREGATION BNEI ARYEH", "city": "BROOKLYN", "state": "NY", "zip": "11211-7822", "ntee": "X30Z", "ruling": "199703", "deductibility": "1", "assets": 0, "income": 0, "revenue": 0}, {"ein": "113496806", "name": "BEIS YESOCHER TIFERES ARYEH", "city": "BROOKLYN", "state": "NY", "zip": "11219-4622", "ntee": "X30", "ruling": "199908", "deductibility": "1", "assets": 0, "income": 0, "revenue": 0}, {"ein": "113529836", "name": "SHAREI SHAGAS ARYEH", "city": "BROOKLYN", "state": "NY", "zip": "11211-8078", "ntee": "X30", "ruling": "200005", "deductibility": "1", "assets": 0, "income": 0, "revenue": 0}, {"ein": "116084720", "name": "CONGREGATION BETH ARYEH", "city": "BROOKLYN", "state": "NY", "zip": "11234-6324", "ntee": "", "ruling": "196710", "deductibility": "1", "assets": 0, "income": 0, "revenue": 0}, {"ein": "133550019", "name": "CONGREGATION BETH ARYEH", "city": "MONROE", "state": "NY", "zip": "10950-2418", "ntee": "X99I", "ruling": "199711", "deductibility": "1", "assets": 0, "income": 0, "revenue": 0}, {"ein": "133969939", "name": "CONGREGATION ZICHRON TZVI ARYEH INC", "city": "MONSEY", "state": "NY", "zip": "10952-2956", "ntee": "X30Z", "ruling": "199712", "deductibility": "1", "assets": 0, "income": 0, "revenue": 0}, {"ein": "134258585", "name": "AMERICAN FRIENDS OF NETIV ARYEH INC", "city": "MONSEY", "state": "NY", "zip": "10952-1507", "ntee": "X21", "ruling": "200312", "deductibility": "1", "assets": 817012, "income": 3094839, "revenue": 3094839}, {"ein": "137101874", "name": "ZICHRON ARYEH LEIB FOUNDATION TR", "city": "NEW ROCHELLE", "state": "NY", "zip": "10804-2115", "ntee": "T20Z", "ruling": "199708", "deductibility": "1", "assets": 1, "income": 1, "revenue": 0}, {"ein": "200924683", "name": "CONGERATION ZICHRON ARYEH MORDECHAI", "city": "BROOKLYN", "state": "NY", "zip": "11219-3527", "ntee": "X30", "ruling": "200602", "deductibility": "1", "assets": 0, "income": 0, "revenue": 0}, {"ein": "201560947", "name": "KEREN ZICHRON ARYEH LEIB", "city": "BROOKLYN", "state": "NY", "zip": "11230-6704", "ntee": "X30", "ruling": "200807", "deductibility": "1", "assets": 2341066, "income": 1739871, "revenue": 1739871}, {"ein": "204541876", "name": "MOISHE ARYEH LEHON TOMCHEI SHABBOSFUND", "city": "NEW YORK", "state": "NY", "zip": "10002-4181", "ntee": "P99", "ruling": "201407", "deductibility": "1", "assets": 0, "income": 0, "revenue": 0}, {"ein": "204731989", "name": "YISROEL ARYEH AND LEIB FOUNDATION", "city": "BROOKLYN", "state": "NY", "zip": "11210-5113", "ntee": "X123", "ruling": "200701", "deductibility": "1", "assets": 86304, "income": 165, "revenue": 0}, {"ein": "204942818", "name": "AVIVA RACHEL ARYEH FOUNDATION", "city": "OCEANSIDE", "state": "NY", "zip": "11572-4523", "ntee": "T90", "ruling": "200703", "deductibility": "1", "assets": 201330, "income": 29283, "revenue": 29283}, {"ein": "237212672", "name": "MACHON BETH-ARYEH INC", "city": "FOREST HILLS", "state": "NY", "zip": "11375-5817", "ntee": "", "ruling": "197205", "deductibility": "1", "assets": 0, "income": 0, "revenue": 0}, {"ein": "260708182", "name": "CONGREGATION ZICHRON YEHUDAH ARYEH", "city": "STATEN ISLAND", "state": "NY", "zip": "10314-5078", "ntee": "X30", "ruling": "201711", "deductibility": "1", "assets": 0, "income": 0, "revenue": 0}, {"ein": "264757213", "name": "CONGREGATION ARYEH SHUAG INC", "city": "BROOKLYN", "state": "NY", "zip": "11211-5969", "ntee": "X30", "ruling": "201003", "deductibility": "1", "assets": 0, "income": 0, "revenue": 0}, {"ein": "461909228", "name": "ZICHRON ARYEH MEIR FUND INC", "city": "AIRMONT", "state": "NY", "zip": "10952-3513", "ntee": "P60", "ruling": "201309", "deductibility": "1", "assets": 7044, "income": 791, "revenue": 791}, {"ein": "463908601", "name": "KEREV ZEV ARYEH INC", "city": "BROOKLYN", "state": "NY", "zip": "11213-3463", "ntee": "X30", "ruling": "201405", "deductibility": "1", "assets": 0, "income": 0, "revenue": 0}, {"ein": "464093747", "name": "CONGREGATION BAIS ARYEH LEIB INC", "city": "AIRMONT", "state": "NY", "zip": "10901-7715", "ntee": "X30", "ruling": "201507", "deductibility": "1", "assets": 0, "income": 0, "revenue": 0}, {"ein": "522338851", "name": "CONGREGATION GUR ARYEH INSTITUTE", "city": "BROOKLYN", "state": "NY", "zip": "11230-4715", "ntee": "X30", "ruling": "200111", "deductibility": "1", "assets": 0, "income": 0, "revenue": 0}, {"ein": "872998246", "name": "CONGREGATION BAIS ARYEH LEIB", "city": "POMONA", "state": "NY", "zip": "10970-3714", "ntee": "X30", "ruling": "202207", "deductibility": "1", "assets": 0, "income": 0, "revenue": 0}], "HIGHLAND": [{"ein": "010843024", "name": "HIGHLAND PARK TENNIS ASSOCIATION", "city": "BROOKLYN", "state": "NY", "zip": "11208-1917", "ntee": "O50", "ruling": "201708", "deductibility": "1", "assets": 0, "income": 0, "revenue": 0}, {"ein": "061282011", "name": "HIGHLAND ENGINE & HOSE COMPANY", "city": "FLORIDA", "state": "NY", "zip": "10921-0600", "ntee": "", "ruling": "199104", "deductibility": "1", "assets": 87923, "income": 35436, "revenue": 28185}, {"ein": "061586118", "name": "VISION 2002-TOWN OF HIGHLAND INC", "city": "FT MONTGOMERY", "state": "NY", "zip": "10922-0667", "ntee": "S22", "ruling": "200101", "deductibility": "1", "assets": 20541, "income": 7358, "revenue": 7358}, {"ein": "110879060", "name": "HIGHLAND VIEW CEMETERY CORP", "city": "GLENDALE", "state": "NY", "zip": "11385-6701", "ntee": "", "ruling": "193508", "deductibility": "1", "assets": 29327088, "income": 6540679, "revenue": 2806474}, {"ein": "112171976", "name": "HIGHLAND AVE BAPTIST CHURCH OF QUEENS INC", "city": "JAMAICA", "state": "NY", "zip": "11432-3412", "ntee": "X20", "ruling": "200803", "deductibility": "1", "assets": 0, "income": 0, "revenue": 0}, {"ein": "113462888", "name": "HIGHLAND PARK COMMUNITY DEVELOPMENT CORPORATION", "city": "BROOKLYN", "state": "NY", "zip": "11208-1908", "ntee": "L80", "ruling": "200307", "deductibility": "1", "assets": 21956462, "income": 61882653, "revenue": 61882653}, {"ein": "133116678", "name": "SOUTH HIGHLAND METHODIST EPISCOPAL CHURCH 103979", "city": "NEW YORK", "state": "NY", "zip": "10043-0001", "ntee": "", "ruling": "000000", "deductibility": "0", "assets": 0, "income": 0, "revenue": 0}, {"ein": "141341219", "name": "CONVENT OF JESUS AND MARY OF HIGHLAND MILLS NEW YORK INC", "city": "HIGHLAND MLS", "state": "NY", "zip": "10930-3130", "ntee": "", "ruling": "194603", "deductibility": "1", "assets": 0, "income": 0, "revenue": 0}, {"ein": "141384279", "name": "HIGHLAND FALLS LIBRARY", "city": "HIGHLAND FLS", "state": "NY", "zip": "10928-1804", "ntee": "B71Z", "ruling": "195012", "deductibility": "1", "assets": 1432312, "income": 268150, "revenue": 268150}, {"ein": "141511512", "name": "HIGHLAND VILLAGE NURSEY SCHOOL", "city": "HIGHLAND", "state": "NY", "zip": "12528-0713", "ntee": "", "ruling": "197006", "deductibility": "1", "assets": 30765, "income": 71112, "revenue": 71112}, {"ein": "141662530", "name": "HIGHLAND MILLS FIRE CO", "city": "HIGHLAND MLS", "state": "NY", "zip": "10930-0162", "ntee": "M24", "ruling": "200505", "deductibility": "1", "assets": 310565, "income": 52642, "revenue": 52642}, {"ein": "141686725", "name": "HIGHLAND PUBLIC LIBRARY", "city": "HIGHLAND", "state": "NY", "zip": "12528-1302", "ntee": "B71Z", "ruling": "198809", "deductibility": "1", "assets": 4766010, "income": 1002809, "revenue": 1002809}, {"ein": "141752071", "name": "HIGHLAND HOSE COMPANY NO 1 INC OF HIGHLAND NEW YORK", "city": "HIGHLAND", "state": "NY", "zip": "12528-0521", "ntee": "M24", "ruling": "202312", "deductibility": "1", "assets": 270512, "income": 105835, "revenue": 79324}, {"ein": "141753502", "name": "POUGHKEEPSIE-HIGHLAND RAILROAD BRIDGE CO INC", "city": "POUGHKEEPSIE", "state": "NY", "zip": "12601-2316", "ntee": "A99Z", "ruling": "199401", "deductibility": "1", "assets": 1524335, "income": 1895289, "revenue": 1679575}, {"ein": "146149596", "name": "HIGHLAND TEACHERS ASSOCIATION WELFARE BENEFIT FUND", "city": "HIGHLAND", "state": "NY", "zip": "12528-0903", "ntee": "", "ruling": "199302", "deductibility": "2", "assets": 298043, "income": 243343, "revenue": 243343}, {"ein": "150338093", "name": "HIGHLAND RURAL CEMETERY ASSOCIATION", "city": "HERKIMER", "state": "NY", "zip": "13350-1041", "ntee": "Y50", "ruling": "201203", "deductibility": "1", "assets": 0, "income": 0, "revenue": 0}, {"ein": "160743037", "name": "HIGHLAND HOSPITAL OF ROCHESTER", "city": "ROCHESTER", "state": "NY", "zip": "14620-2733", "ntee": "E220", "ruling": "199011", "deductibility": "1", "assets": 573674527, "income": 547342445, "revenue": 547342445}, {"ein": "161562933", "name": "CAYUGA COUNTY HIGHLAND SEARCH AND RESCUE INCORPORATED", "city": "AUBURN", "state": "NY", "zip": "13021-1043", "ntee": "M23", "ruling": "199904", "deductibility": "1", "assets": 0, "income": 0, "revenue": 0}, {"ein": "200312819", "name": "HIGHLAND FALLS VOLUNTEER FIRE DEPARTMENT INC", "city": "HIGHLAND FLS", "state": "NY", "zip": "10928-0170", "ntee": "M24", "ruling": "200402", "deductibility": "1", "assets": 492298, "income": 86796, "revenue": 86796}, {"ein": "222658044", "name": "HIGHLAND YOUTH SOCCER CLUB INC", "city": "HIGHLAND", "state": "NY", "zip": "12528-2704", "ntee": "N64Z", "ruling": "198604", "deductibility": "1", "assets": 54065, "income": 48422, "revenue": 48422}, {"ein": "223039077", "name": "HIGHLAND FACILITIES DEVELOPMENT CORPORATION", "city": "ROCHESTER", "state": "NY", "zip": "14620-2733", "ntee": "", "ruling": "199111", "deductibility": "1", "assets": 1070383, "income": 519847, "revenue": 519847}, {"ein": "223154715", "name": "HIGHLAND COMMUNITY DEVELOPMENT CORPORATION", "city": "PITTSFORD", "state": "NY", "zip": "14534-2355", "ntee": "P750", "ruling": "199204", "deductibility": "1", "assets": 45050143, "income": 12894958, "revenue": 12889705}, {"ein": "237310662", "name": "HIGHLAND HOSPITAL FOUNDATION INC", "city": "ROCHESTER", "state": "NY", "zip": "14620-2733", "ntee": "E22I", "ruling": "197308", "deductibility": "1", "assets": 15090906, "income": 1718424, "revenue": 1488173}, {"ein": "237591366", "name": "ROYAL ARCH MASONS OF NEW YORK 52 HIGHLAND", "city": "NEW WINDSOR", "state": "NY", "zip": "12553-0723", "ntee": "", "ruling": "197211", "deductibility": "1", "assets": 0, "income": 0, "revenue": 0}, {"ein": "273172314", "name": "FRIENDS OF THE HIGHLAND PUBLIC LIBRARY INC", "city": "HIGHLAND", "state": "NY", "zip": "12528-8556", "ntee": "B11", "ruling": "201106", "deductibility": "1", "assets": 0, "income": 0, "revenue": 0}, {"ein": "300755684", "name": "HIGHLAND MUSIC BOOSTERS INC", "city": "HIGHLAND", "state": "NY", "zip": "12528-2731", "ntee": "B11", "ruling": "201306", "deductibility": "1", "assets": 0, "income": 0, "revenue": 0}, {"ein": "300988414", "name": "HIGHLAND PARK BIBLE CHURCH", "city": "FOREST HILLS", "state": "NY", "zip": "11375-5850", "ntee": "X20", "ruling": "201710", "deductibility": "1", "assets": 0, "income": 0, "revenue": 0}, {"ein": "464224272", "name": "LONG ISLAND SCOTTISH FESTIVAL AND HIGHLAND GAMES CORPORATION", "city": "HUNTINGTON", "state": "NY", "zip": "11743-4304", "ntee": "A20", "ruling": "201412", "deductibility": "1", "assets": 80750, "income": 16277, "revenue": 16277}, {"ein": "472064418", "name": "CENTER OF HIGHLAND FALLS INC", "city": "HIGHLAND FALLS", "state": "NY", "zip": "10928-1845", "ntee": "P28", "ruling": "201710", "deductibility": "1", "assets": 0, "income": 0, "revenue": 0}, {"ein": "472278201", "name": "WEST POINT- HIGHLAND FALLS ROTARY FOUNDATION INC", "city": "WEST POINT", "state": "NY", "zip": "10996-0101", "ntee": "T01", "ruling": "201412", "deductibility": "1", "assets": 0, "income": 0, "revenue": 0}, {"ein": "474154232", "name": "HIGHLAND EDUCATIONAL FOUNDATION", "city": "HIGHLAND", "state": "NY", "zip": "12528-2317", "ntee": "B12", "ruling": "201612", "deductibility": "1", "assets": 0, "income": 0, "revenue": 0}, {"ein": "475086842", "name": "HIGHLAND YOUTH FOOTBALL & CHEER INC", "city": "HIGHLAND", "state": "NY", "zip": "12528-1358", "ntee": "N65", "ruling": "201703", "deductibility": "1", "assets": 0, "income": 0, "revenue": 0}, {"ein": "542128199", "name": "HIGHLAND PARK CONSERVANCY INC", "city": "ROCHESTER", "state": "NY", "zip": "14620-2729", "ntee": "C033", "ruling": "200503", "deductibility": "1", "assets": 1379340, "income": 155236, "revenue": 155236}, {"ein": "813307866", "name": "HIGHLAND FRONTIERS INC", "city": "GARRISON", "state": "NY", "zip": "10524-4200", "ntee": "N12", "ruling": "201610", "deductibility": "1", "assets": 0, "income": 0, "revenue": 0}, {"ein": "820745836", "name": "CONGREGATION SHAAREI CHAIM HIGHLAND MILLS", "city": "HIGHLAND MLS", "state": "NY", "zip": "10930-2027", "ntee": "X30", "ruling": "201803", "deductibility": "1", "assets": 0, "income": 0, "revenue": 0}, {"ein": "824922586", "name": "HIGHLAND ROTARY CLUB FOUNDATION INC", "city": "ULSTER PARK", "state": "NY", "zip": "12487-5243", "ntee": "T99", "ruling": "202007", "deductibility": "1", "assets": 42263, "income": 65589, "revenue": 24014}, {"ein": "825032976", "name": "HIGHLAND PARK NEIGHBORHOOD ASSOCIATION", "city": "ROCHESTER", "state": "NY", "zip": "14618-0103", "ntee": "S20", "ruling": "202110", "deductibility": "1", "assets": 0, "income": 0, "revenue": 0}, {"ein": "834430104", "name": "HIGHLAND CLUBHOUSE INC", "city": "NIAGARA FALLS", "state": "NY", "zip": "14302-7069", "ntee": "S20", "ruling": "201910", "deductibility": "1", "assets": 0, "income": 0, "revenue": 0}, {"ein": "843857823", "name": "RICHFORD HIGHLAND CEMETERY", "city": "RICHFORD", "state": "NY", "zip": "13835-1814", "ntee": "Y50", "ruling": "202003", "deductibility": "1", "assets": 0, "income": 0, "revenue": 0}, {"ein": "853144572", "name": "CONGREGATION OF HIGHLAND LAKE", "city": "HIGHLAND MLS", "state": "NY", "zip": "10930-2519", "ntee": "X30", "ruling": "202109", "deductibility": "1", "assets": 0, "income": 0, "revenue": 0}, {"ein": "854241927", "name": "HIGHLAND PROJECT INC", "city": "NEW YORK", "state": "NY", "zip": "10024-4157", "ntee": "B60", "ruling": "202105", "deductibility": "1", "assets": 4907939, "income": 2409946, "revenue": 2409946}, {"ein": "873993843", "name": "HIGHLAND AMBULANCE SERVICE INC", "city": "YULAN", "state": "NY", "zip": "12792-5123", "ntee": "E62", "ruling": "202206", "deductibility": "1", "assets": 149551, "income": 132358, "revenue": 132358}, {"ein": "881551070", "name": "HIGHLAND BIG BLUE FOOTBALL CLUB", "city": "HIGHLAND", "state": "NY", "zip": "12528-2293", "ntee": "N65", "ruling": "202303", "deductibility": "1", "assets": 0, "income": 0, "revenue": 0}, {"ein": "934694038", "name": "HIGHLAND VARSITY SOFTBALL BOOSTER CLUB", "city": "HIGHLAND", "state": "NY", "zip": "12528-1819", "ntee": "N63", "ruling": "202404", "deductibility": "1", "assets": 0, "income": 0, "revenue": 0}, {"ein": "943446538", "name": "CALVARY CHAPEL HIGHLAND INC", "city": "HIGHLAND", "state": "NY", "zip": "12528-0601", "ntee": "X21", "ruling": "200903", "deductibility": "1", "assets": 0, "income": 0, "revenue": 0}, {"ein": "991528682", "name": "SJH HIGHLAND INC", "city": "ROCHESTER", "state": "NY", "zip": "14620-3024", "ntee": "E11", "ruling": "202506", "deductibility": "1", "assets": 0, "income": 0, "revenue": 0}, {"ein": "992886602", "name": "HIGHLAND OPEN STUDIO TOUR", "city": "HIGHLAND", "state": "NY", "zip": "12528-1459", "ntee": "A26", "ruling": "202506", "deductibility": "1", "assets": 0, "income": 0, "revenue": 0}], "CHELKOM": [{"ein": "030411395", "name": "CONGREGATION CHELKOM BACHAIM", "city": "AIRMONT", "state": "NY", "zip": "10952-3631", "ntee": "X30", "ruling": "200209", "deductibility": "1", "assets": 0, "income": 0, "revenue": 0}], "GREG": [{"ein": "043679517", "name": "GREG WILLIAMSON MINISTRIES INC", "city": "HOPEWELL JCT", "state": "NY", "zip": "12533-6172", "ntee": "X20", "ruling": "202402", "deductibility": "1", "assets": 0, "income": 0, "revenue": 0}, {"ein": "320081054", "name": "THE GREG ALTMAN FOUNDATION INC", "city": "MOUNT KISCO", "state": "NY", "zip": "10549-4042", "ntee": "T20", "ruling": "200504", "deductibility": "1", "assets": 434044, "income": 68875, "revenue": 0}, {"ein": "863424972", "name": "GREG W SILL FOUNDATION CORP", "city": "LAKE GROVE", "state": "NY", "zip": "11755-1650", "ntee": "N12", "ruling": "202203", "deductibility": "1", "assets": 128883, "income": 81075, "revenue": 46552}, {"ein": "882993661", "name": "GREG WESTHOFF FOUNDATION INC", "city": "WANTAGH", "state": "NY", "zip": "11793-0209", "ntee": "W12", "ruling": "202208", "deductibility": "1", "assets": 0, "income": 0, "revenue": 0}, {"ein": "933857806", "name": "HEALTH AND UNITY FOR GREG INC", "city": "ITHACA", "state": "NY", "zip": "14850-1096", "ntee": "F01", "ruling": "202403", "deductibility": "1", "assets": 0, "income": 0, "revenue": 0}, {"ein": "934150209", "name": "GREG SPRING FOUNDATION", "city": "HILTON", "state": "NY", "zip": "14468-9186", "ntee": "Y12", "ruling": "202406", "deductibility": "1", "assets": 0, "income": 0, "revenue": 0}, {"ein": "992083491", "name": "GREG SCOTT FOUNDATION INC", "city": "BRONX", "state": "NY", "zip": "10473-1904", "ntee": "P20", "ruling": "202410", "deductibility": "1", "assets": 0, "income": 0, "revenue": 0}], "184TH": [{"ein": "043754294", "name": "VIP WEST 184TH STREET HOUSING DEVELOPMENT FUND CORPORATION", "city": "BRONX", "state": "NY", "zip": "10460-4617", "ntee": "L21", "ruling": "201109", "deductibility": "1", "assets": 707966, "income": 336196, "revenue": 336196}, {"ein": "475288214", "name": "UNITED CHURCH OF GOD OF 184TH STREET", "city": "BRONX", "state": "NY", "zip": "10461-5415", "ntee": "X20", "ruling": "201510", "deductibility": "1", "assets": 0, "income": 0, "revenue": 0}], "SUPERINTENDENTS": [{"ein": "061340227", "name": "LOWER HUDSON COUNCIL OF SCHOOL SUPERINTENDENTS INC", "city": "KATONAH", "state": "NY", "zip": "10536-0000", "ntee": "", "ruling": "199806", "deductibility": "2", "assets": 281343, "income": 191705, "revenue": 191705}, {"ein": "141746710", "name": "NORTHEASTERN GOLF COURSE SUPERINTENDENTS ASSOCIATION", "city": "LATHAM", "state": "NY", "zip": "12110-0391", "ntee": "", "ruling": "199703", "deductibility": "2", "assets": 104828, "income": 95301, "revenue": 77400}, {"ein": "141785275", "name": "COLUMBIA COUNTY ASSOCIATION OF TOWN SUPERINTENDENTS", "city": "GHENT", "state": "NY", "zip": "12075-0402", "ntee": "S40", "ruling": "202105", "deductibility": "2", "assets": 0, "income": 0, "revenue": 0}, {"ein": "146046622", "name": "NEW YORK STATE COUNCIL OF SCHOOL SUPERINTENDENTS", "city": "LATHAM", "state": "NY", "zip": "12110-1491", "ntee": "", "ruling": "196908", "deductibility": "2", "assets": 7612513, "income": 3945670, "revenue": 3945670}, {"ein": "161540792", "name": "GOLF COURSE SUPERINTENDENTS ASSOCIATION OF NEW YORK INC", "city": "CAMILLUS", "state": "NY", "zip": "13031-0070", "ntee": "", "ruling": "199803", "deductibility": "2", "assets": 54759, "income": 147112, "revenue": 122380}, {"ein": "201442389", "name": "SUFFOLK COUNTY SCHOOL SUPERINTENDENTS ASSOCIATION", "city": "PATCHOGUE", "state": "NY", "zip": "11772-1868", "ntee": "S41", "ruling": "200508", "deductibility": "2", "assets": 47478, "income": 162312, "revenue": 135719}, {"ein": "222855947", "name": "ERIE COUNTY ASSOCIATION OF THE TOWN SUPERINTENDENTS OF HIGHWAYS", "city": "EAST AURORA", "state": "NY", "zip": "14052-2113", "ntee": "", "ruling": "199110", "deductibility": "2", "assets": 29146, "income": 74006, "revenue": 60259}, {"ein": "237160642", "name": "NASSAU COUNTY COUNCIL OF SCHOOL SUPERINTENDENTS INC", "city": "WANTAGH", "state": "NY", "zip": "11793-3362", "ntee": "", "ruling": "199403", "deductibility": "2", "assets": 64821, "income": 114310, "revenue": 114310}, {"ein": "237370431", "name": "LONG ISLAND GOLF COURSE SUPERINTENDENTS ASSOCIATION", "city": "WADING RIVER", "state": "NY", "zip": "11792-1843", "ntee": "", "ruling": "197409", "deductibility": "2", "assets": 0, "income": 0, "revenue": 0}, {"ein": "270862464", "name": "ALLEGANY CATTARAUGUS SUPERINTENDENTS ASSOCIATION INC", "city": "BELFAST", "state": "NY", "zip": "14711-8682", "ntee": "S03", "ruling": "201507", "deductibility": "1", "assets": 0, "income": 0, "revenue": 0}, {"ein": "300719554", "name": "WESTERN NEW YORK GOLF COURSE SUPERINTENDENTS ASSOCIATION", "city": "CAMILLUS", "state": "NY", "zip": "13031-0070", "ntee": "S41", "ruling": "201301", "deductibility": "2", "assets": 0, "income": 0, "revenue": 0}, {"ein": "463099621", "name": "METROPOLITAN GOLF COURSE SUPERINTENDENTS ASSOCIATION FOUNDA", "city": "ELMSFORD", "state": "NY", "zip": "10523-2821", "ntee": "B82", "ruling": "201504", "deductibility": "1", "assets": 735498, "income": 146369, "revenue": 108317}, {"ein": "471642008", "name": "ONEIDA COUNTY HIGHWAY SUPERINTENDENTS ASSOCIATION", "city": "BRIDGEWATER", "state": "NY", "zip": "13313-7713", "ntee": "W11", "ruling": "201504", "deductibility": "2", "assets": 0, "income": 0, "revenue": 0}, {"ein": "934135935", "name": "LONG ISLAND GOLF COURSE SUPERINTENDENTS ASSOCIATION FOUNDA", "city": "WADING RIVER", "state": "NY", "zip": "11792-0084", "ntee": "P20", "ruling": "202409", "deductibility": "1", "assets": 0, "income": 0, "revenue": 0}, {"ein": "961017000", "name": "HUDSON VALLEY GOLF COURSE SUPERINTENDENTS ASSOCIATION INC", "city": "ELMSFORD", "state": "NY", "zip": "10523-2821", "ntee": "", "ruling": "199705", "deductibility": "2", "assets": 152654, "income": 100444, "revenue": 31157}, {"ein": "990525552", "name": "CHEMUNG COUNTY TOWN HIGHWAY SUPERINTENDENTS ASSOCIATION", "city": "BIG FLATS", "state": "NY", "zip": "14814-9701", "ntee": "J03", "ruling": "202409", "deductibility": "1", "assets": 0, "income": 0, "revenue": 0}], "COURAGEOUS": [{"ein": "061360469", "name": "COURAGEOUS OF THE APOSTOLIC FAITH CHURCH INC", "city": "BRONX", "state": "NY", "zip": "10474-4605", "ntee": "", "ruling": "199308", "deductibility": "1", "assets": 0, "income": 0, "revenue": 0}, {"ein": "842017261", "name": "MUSEUM OF THE COURAGEOUS INC", "city": "NYACK", "state": "NY", "zip": "10960-8039", "ntee": "A50", "ruling": "201908", "deductibility": "1", "assets": 0, "income": 0, "revenue": 0}], "ZEVILIN": [{"ein": "061450122", "name": "SMACH ZEVILIN OF NY INC", "city": "SPRING VALLEY", "state": "NY", "zip": "10977-3339", "ntee": "T70", "ruling": "202103", "deductibility": "1", "assets": 179075, "income": 467614, "revenue": 467614}, {"ein": "113242195", "name": "CONG AND KOLLEL YISOSCHOR ZEVILIN INC", "city": "BROOKLYN", "state": "NY", "zip": "11210-3714", "ntee": "X30Z", "ruling": "199502", "deductibility": "1", "assets": 0, "income": 0, "revenue": 0}], "YASH": [{"ein": "061587149", "name": "CONG TORAS CHAIM L-YASH INC", "city": "MONROE", "state": "NY", "zip": "10950-3866", "ntee": "X30", "ruling": "200008", "deductibility": "1", "assets": 0, "income": 0, "revenue": 0}], "BAYSIDE": [{"ein": "111665834", "name": "COLONIAL CHURCH OF BAYSIDE", "city": "BAYSIDE HILLS", "state": "NY", "zip": "11364-1429", "ntee": "", "ruling": "198601", "deductibility": "1", "assets": 0, "income": 0, "revenue": 0}, {"ein": "111773815", "name": "HOLY CROSS HIGH SCHOOL OF BAYSIDE", "city": "FLUSHING", "state": "NY", "zip": "11358-1144", "ntee": "B20", "ruling": "195806", "deductibility": "1", "assets": 0, "income": 0, "revenue": 0}, {"ein": "112329134", "name": "LUTHERAN CHURCH SCHOOLS OF FLUSHING AND BAYSIDE INC", "city": "BAYSIDE", "state": "NY", "zip": "11361-2031", "ntee": "", "ruling": "194107", "deductibility": "1", "assets": 0, "income": 0, "revenue": 0}, {"ein": "112423220", "name": "CHRISTIAN CHURCH OF BAYSIDE", "city": "BAYSIDE", "state": "NY", "zip": "11361-3040", "ntee": "", "ruling": "196202", "deductibility": "1", "assets": 0, "income": 0, "revenue": 0}, {"ein": "112722189", "name": "KOREAN PRESBYTERIAN CHURCH OF BAYSIDE", "city": "BAYSIDE", "state": "NY", "zip": "11360-2316", "ntee": "", "ruling": "198506", "deductibility": "1", "assets": 0, "income": 0, "revenue": 0}, {"ein": "113042895", "name": "KOREAN PRESBYTERIAN CHURCH OF BAYSIDE", "city": "BAYSIDE", "state": "NY", "zip": "11361-3248", "ntee": "", "ruling": "199406", "deductibility": "1", "assets": 0, "income": 0, "revenue": 0}, {"ein": "113144353", "name": "BAYSIDE KOREAN UNITED METHODIST CHURCH", "city": "BAYSIDE", "state": "NY", "zip": "11361-1731", "ntee": "", "ruling": "199312", "deductibility": "1", "assets": 0, "income": 0, "revenue": 0}, {"ein": "113247677", "name": "BAYSIDE ANGLERS GROUP LTD", "city": "FLUSHING", "state": "NY", "zip": "11358-1204", "ntee": "C60", "ruling": "199806", "deductibility": "1", "assets": 0, "income": 0, "revenue": 0}, {"ein": "113372987", "name": "BAYSIDE BUSINESS ASSOCIATION INC", "city": "BAYSIDE", "state": "NY", "zip": "11361-0241", "ntee": "", "ruling": "199804", "deductibility": "2", "assets": 98467, "income": 40871, "revenue": 40871}, {"ein": "116035566", "name": "BAYSIDE COMMUNITY AMBULANCE CORPS INC", "city": "BAYSIDE", "state": "NY", "zip": "11361-0606", "ntee": "E62Z", "ruling": "195701", "deductibility": "1", "assets": 1332275, "income": 495390, "revenue": 179017}, {"ein": "116049457", "name": "BAYSIDE HISTORICAL SOCIETY", "city": "BAYSIDE", "state": "NY", "zip": "11359-0000", "ntee": "E03", "ruling": "202002", "deductibility": "1", "assets": 258445, "income": 427905, "revenue": 423928}, {"ein": "142011185", "name": "BAYSIDE GABLES HOMEOWNERS ASSOCIATION INC", "city": "BAYSIDE", "state": "NY", "zip": "11360-2638", "ntee": "P20", "ruling": "202003", "deductibility": "2", "assets": 0, "income": 0, "revenue": 0}, {"ein": "150241025", "name": "BAYSIDE CEMETERY ASSN", "city": "POTSDAM", "state": "NY", "zip": "13676-0491", "ntee": "", "ruling": "000000", "deductibility": "1", "assets": 1254358, "income": 420725, "revenue": 190589}, {"ein": "204510245", "name": "BAYSIDE COMMUNITY BIBLE CHURCH", "city": "BAYSIDE", "state": "NY", "zip": "11360-2447", "ntee": "X21", "ruling": "201012", "deductibility": "1", "assets": 0, "income": 0, "revenue": 0}, {"ein": "237044016", "name": "BAYSIDE HILLS CIVIC ASSOCIATION INC", "city": "BAYSIDE HILLS", "state": "NY", "zip": "11364-0246", "ntee": "W99", "ruling": "201406", "deductibility": "2", "assets": 0, "income": 0, "revenue": 0}, {"ein": "237351959", "name": "JAMAICA ESTATES-HOLLISWOOD SOUTH BAYSIDE VOLUNTEER AMBULANCE CORP", "city": "OAKLAND GDNS", "state": "NY", "zip": "11364-3221", "ntee": "E62Z", "ruling": "197902", "deductibility": "1", "assets": 143069, "income": 79151, "revenue": 79151}, {"ein": "262931126", "name": "BAYSIDE VILLAGE BUSINESS IMPROVEMENT DISTRICT INC", "city": "BAYSIDE", "state": "NY", "zip": "11361-2092", "ntee": "S20", "ruling": "200907", "deductibility": "1", "assets": 231528, "income": 322011, "revenue": 322011}, {"ein": "270059211", "name": "BAYSIDE GLEE CLUB INC", "city": "BAYSIDE", "state": "NY", "zip": "11361-0065", "ntee": "A6B", "ruling": "200312", "deductibility": "1", "assets": 0, "income": 0, "revenue": 0}, {"ein": "363408592", "name": "NEW APOSTOLIC CHURCH OF BAYSIDE NY", "city": "MANHASSET", "state": "NY", "zip": "11030-2520", "ntee": "", "ruling": "198508", "deductibility": "1", "assets": 0, "income": 0, "revenue": 0}, {"ein": "460903689", "name": "BAYSIDE MEDITATION", "city": "BAYSIDE", "state": "NY", "zip": "11361-3645", "ntee": "X99", "ruling": "201407", "deductibility": "1", "assets": 0, "income": 0, "revenue": 0}, {"ein": "470961818", "name": "FRIENDS OF BAYSIDE HIGH SCHOOL INCORPORATED", "city": "BAYSIDE", "state": "NY", "zip": "11361-1061", "ntee": "B11", "ruling": "201507", "deductibility": "1", "assets": 0, "income": 0, "revenue": 0}, {"ein": "812151575", "name": "BAYSIDE KOREAN UNITED METHODIST", "city": "BAYSIDE", "state": "NY", "zip": "11361-2059", "ntee": "X20", "ruling": "201708", "deductibility": "1", "assets": 0, "income": 0, "revenue": 0}, {"ein": "812757227", "name": "SACRED HEART CATHOLIC ACADEMY OF BAYSIDE", "city": "BAYSIDE", "state": "NY", "zip": "11361-2203", "ntee": "", "ruling": "194603", "deductibility": "1", "assets": 0, "income": 0, "revenue": 0}], "EPHREM": [{"ein": "112461827", "name": "CONGREGATION SHAAREI CHAIM C O EPHREM HECHT ESQ", "city": "BKLYN", "state": "NY", "zip": "11225-3126", "ntee": "", "ruling": "197808", "deductibility": "1", "assets": 0, "income": 0, "revenue": 0}, {"ein": "113210176", "name": "ST EPHREM YOUTH PROGRAM INC", "city": "BROOKLYN", "state": "NY", "zip": "11209-5663", "ntee": "O50", "ruling": "201109", "deductibility": "1", "assets": 232495, "income": 100971, "revenue": 100971}, {"ein": "831621447", "name": "ST EPHREM CATHOLIC ACADEMY", "city": "BROOKLYN", "state": "NY", "zip": "11228-1918", "ntee": "", "ruling": "194603", "deductibility": "1", "assets": 0, "income": 0, "revenue": 0}], "LAYISHIYU": [{"ein": "112462934", "name": "BADERECH LAYISHIYU C O BENJAMIN ISAACS", "city": "MONSEY", "state": "NY", "zip": "10952-3906", "ntee": "", "ruling": "197807", "deductibility": "1", "assets": 0, "income": 0, "revenue": 0}], "EMMUNA": [{"ein": "112474281", "name": "DERECH EMMUNA C P BENJAMIN ISAACS", "city": "BROOKLYN", "state": "NY", "zip": "11210-5140", "ntee": "", "ruling": "197811", "deductibility": "1", "assets": 0, "income": 0, "revenue": 0}, {"ein": "133029082", "name": "DURECH EMMUNA D VIEN", "city": "BROOKLYN", "state": "NY", "zip": "11210-0000", "ntee": "", "ruling": "197811", "deductibility": "1", "assets": 0, "income": 0, "revenue": 0}], "NESEVOS": [{"ein": "112475966", "name": "YESHIVA NESEVOS OLUM", "city": "BROOKLYN", "state": "NY", "zip": "11211-8102", "ntee": "", "ruling": "199008", "deductibility": "1", "assets": 0, "income": 0, "revenue": 0}], "ELUZAR": [{"ein": "112481076", "name": "YESHIVA MINCHAS ELUZAR", "city": "BROOKLYN", "state": "NY", "zip": "11219-2622", "ntee": "", "ruling": "197902", "deductibility": "1", "assets": 0, "income": 0, "revenue": 0}, {"ein": "112526485", "name": "KARAN ELUZAR INC", "city": "BROOKLYN", "state": "NY", "zip": "11211-8112", "ntee": "", "ruling": "198005", "deductibility": "1", "assets": 0, "income": 0, "revenue": 0}, {"ein": "132941799", "name": "BAIS ELUZAR", "city": "BKLYN", "state": "NY", "zip": "11211-7311", "ntee": "", "ruling": "197807", "deductibility": "1", "assets": 0, "income": 0, "revenue": 0}, {"ein": "133061337", "name": "CHASDI ELUZAR INC", "city": "BROOKLYN", "state": "NY", "zip": "11230-5002", "ntee": "", "ruling": "198104", "deductibility": "1", "assets": 0, "income": 0, "revenue": 0}, {"ein": "922458395", "name": "MOSDOS MINCHAS ELUZAR", "city": "BROOKLYN", "state": "NY", "zip": "11219-3092", "ntee": "X30", "ruling": "202305", "deductibility": "1", "assets": 0, "income": 0, "revenue": 0}], "SHARED": [{"ein": "112587515", "name": "NASSAU-SUFFOLK HOSPITAL SHARED SERVICES INC", "city": "HAUPPAUGE", "state": "NY", "zip": "11788-3050", "ntee": "E83Z", "ruling": "198204", "deductibility": "1", "assets": 1406260, "income": 19385, "revenue": 19385}, {"ein": "133304172", "name": "INTERNATIONAL MULTIRACIAL SHARED CULTURAL ORGANIZATION", "city": "NEW YORK", "state": "NY", "zip": "10016-5339", "ntee": "S31", "ruling": "200710", "deductibility": "1", "assets": 0, "income": 0, "revenue": 0}, {"ein": "133836581", "name": "SHARED INTEREST INC", "city": "NEW YORK", "state": "NY", "zip": "10018-9243", "ntee": "Q320", "ruling": "199509", "deductibility": "1", "assets": 12827933, "income": 5254161, "revenue": 1153728}, {"ein": "133856797", "name": "SHARED JOURNEYS INC", "city": "ITHACA", "state": "NY", "zip": "14850-3727", "ntee": "W90Z", "ruling": "199604", "deductibility": "1", "assets": 61869, "income": 91425, "revenue": 86537}, {"ein": "454026946", "name": "A SHARED DREAM FOUNDATION", "city": "BROOKLYN", "state": "NY", "zip": "11217-2813", "ntee": "R99", "ruling": "202110", "deductibility": "1", "assets": 0, "income": 0, "revenue": 0}, {"ein": "465072814", "name": "SHARED MOBILITY INC", "city": "BUFFALO", "state": "NY", "zip": "14203-1254", "ntee": "P52", "ruling": "201603", "deductibility": "1", "assets": 3319118, "income": 2132490, "revenue": 2132490}, {"ein": "510202367", "name": "SHARED FORMS THEATRE INC", "city": "NEW YORK CITY", "state": "NY", "zip": "10013-2850", "ntee": "", "ruling": "197610", "deductibility": "1", "assets": 0, "income": 0, "revenue": 0}, {"ein": "814779513", "name": "COLUMBIA GREENE SHARED SERVICES RESPONSE TEAM", "city": "HUDSON", "state": "NY", "zip": "12534-3902", "ntee": "M23", "ruling": "201704", "deductibility": "1", "assets": 0, "income": 0, "revenue": 0}, {"ein": "822455374", "name": "SHARED HUMANITY INC", "city": "GREAT NECK", "state": "NY", "zip": "11021-4917", "ntee": "Q71", "ruling": "201708", "deductibility": "1", "assets": 504901, "income": 466755, "revenue": 121755}, {"ein": "882387133", "name": "SHARED MINISTRIES OF HOPE INC", "city": "WARWICK", "state": "NY", "zip": "10990-8122", "ntee": "X20", "ruling": "202411", "deductibility": "1", "assets": 124488, "income": 92981, "revenue": 92981}, {"ein": "933883563", "name": "SHARED KITCHEN ITHACA INC", "city": "ITHACA", "state": "NY", "zip": "14850-3320", "ntee": "K99", "ruling": "202405", "deductibility": "1", "assets": 0, "income": 0, "revenue": 0}, {"ein": "934613806", "name": "ROCKLAND SHARED STREETS INC", "city": "NYACK", "state": "NY", "zip": "10960-4330", "ntee": "S20", "ruling": "202404", "deductibility": "1", "assets": 0, "income": 0, "revenue": 0}], "MISHNAYES": [{"ein": "112587771", "name": "CONGREGATION KEREN LEDOVID CHEVRE MISHNAYES INC", "city": "BROOKLYN", "state": "NY", "zip": "11211-7912", "ntee": "", "ruling": "198112", "deductibility": "1", "assets": 0, "income": 0, "revenue": 0}, {"ein": "136167133", "name": "CHEVRA MISHNAYES OF HEBREW INSTITUTE OF UNIVERSITY HEIGHTS", "city": "BRONX", "state": "NY", "zip": "10453-4403", "ntee": "", "ruling": "194308", "deductibility": "1", "assets": 0, "income": 0, "revenue": 0}], "CYPRECO": [{"ein": "112644226", "name": "CYPRECO OF AMERICA INC", "city": "ASTORIA", "state": "NY", "zip": "11105-3110", "ntee": "A650", "ruling": "198502", "deductibility": "1", "assets": 1, "income": 53914, "revenue": 53914}], "COUNSELLING": [{"ein": "112678543", "name": "SOUTH NASSAU COUNSELLING SERVICE INC C/O IRENE MINKOFF", "city": "NEW YORK", "state": "NY", "zip": "10036-4338", "ntee": "", "ruling": "198411", "deductibility": "1", "assets": 58159, "income": 5, "revenue": 0}], "YONA": [{"ein": "112922262", "name": "CONGREGATION CHASDEI YONA", "city": "BROOKLYN", "state": "NY", "zip": "11219-3631", "ntee": "", "ruling": "198808", "deductibility": "1", "assets": 0, "income": 0, "revenue": 0}, {"ein": "137171873", "name": "ZICHRON YONA VSARA CHARITABLE FOUNDATION", "city": "MONSEY", "state": "NY", "zip": "10952-0000", "ntee": "T122", "ruling": "199901", "deductibility": "1", "assets": 868426, "income": 36147, "revenue": 0}, {"ein": "474581068", "name": "CHASDEI YONA INC", "city": "BROOKLYN", "state": "NY", "zip": "11219-4601", "ntee": "P99", "ruling": "201512", "deductibility": "1", "assets": 0, "income": 0, "revenue": 0}, {"ein": "824041725", "name": "CHASDEI YONA MEIR INC", "city": "SPRING VALLEY", "state": "NY", "zip": "10977-7705", "ntee": "P19", "ruling": "201812", "deductibility": "1", "assets": 80096, "income": 1535480, "revenue": 1535480}], "VODAATH": [{"ein": "113091709", "name": "YESHIVATH TORAH VODAATH", "city": "BROOKLYN", "state": "NY", "zip": "11218-5209", "ntee": "", "ruling": "199206", "deductibility": "1", "assets": 0, "income": 0, "revenue": 0}], "FANGS": [{"ein": "113093248", "name": "QI SHU FANGS PEKING OPERA ASSOCIATION INC", "city": "WOODHAVEN", "state": "NY", "zip": "11421-2423", "ntee": "A6A0", "ruling": "199607", "deductibility": "1", "assets": 11414, "income": 28200, "revenue": 28200}], "ALLAHI": [{"ein": "113132862", "name": "BAYT-ALLAHI AL BAHRI INC", "city": "FAR ROCKAWAY", "state": "NY", "zip": "11690-1481", "ntee": "X40", "ruling": "199905", "deductibility": "1", "assets": 0, "income": 0, "revenue": 0}], "ACA": [{"ein": "113139395", "name": "MILLERS PLACE ACA INC", "city": "WADING RIVER", "state": "NY", "zip": "11792-1013", "ntee": "P20", "ruling": "202003", "deductibility": "2", "assets": 0, "income": 0, "revenue": 0}], "DO": [{"ein": "113140857", "name": "JEUNG SAN DO OF AMERICA INC", "city": "BAYSIDE", "state": "NY", "zip": "11360-1623", "ntee": "", "ruling": "199308", "deductibility": "1", "assets": 0, "income": 0, "revenue": 0}, {"ein": "113306183", "name": "DO SUN SO BUDDHIST TEMPLE", "city": "BAYSIDE", "state": "NY", "zip": "11361-3534", "ntee": "X50", "ruling": "199912", "deductibility": "1", "assets": 0, "income": 0, "revenue": 0}, {"ein": "113513992", "name": "IL-KWAN-DO HONG-IN BUB BAN USA INC", "city": "FLUSHING", "state": "NY", "zip": "11358-2610", "ntee": "X50", "ruling": "200307", "deductibility": "1", "assets": 0, "income": 0, "revenue": 0}, {"ein": "133720473", "name": "DO SOMETHING INC", "city": "NEW YORK", "state": "NY", "zip": "10011-5702", "ntee": "O20Z", "ruling": "199512", "deductibility": "1", "assets": 10167449, "income": 3026692, "revenue": 2329517}, {"ein": "161584540", "name": "DO THE RIGHT THING OF ROCHESTER INC", "city": "ROCHESTER", "state": "NY", "zip": "14614-2124", "ntee": "B82", "ruling": "200012", "deductibility": "1", "assets": 0, "income": 0, "revenue": 0}, {"ein": "204345998", "name": "ALBANY COUNCIL OF THE TRADITIONALKARATE-DO ORGANIZATION", "city": "MENANDS", "state": "NY", "zip": "12204-2797", "ntee": "N60", "ruling": "200712", "deductibility": "1", "assets": 40442, "income": 15364, "revenue": 0}, {"ein": "208649864", "name": "BALD GIRLS DO LUNCH INC", "city": "SCARBOROUGH", "state": "NY", "zip": "10510-9122", "ntee": "G80", "ruling": "200705", "deductibility": "1", "assets": 0, "income": 0, "revenue": 0}, {"ein": "272774917", "name": "16 THINGS KIDS CAN DO INC", "city": "NEW YORK", "state": "NY", "zip": "10002-6814", "ntee": "B90", "ruling": "201508", "deductibility": "1", "assets": 0, "income": 0, "revenue": 0}, {"ein": "300037741", "name": "DREAM IT DO IT WESTERN NEW YORK INC", "city": "JAMESTOWN", "state": "NY", "zip": "14701-5109", "ntee": "B90", "ruling": "200205", "deductibility": "1", "assets": 197892, "income": 232010, "revenue": 232010}, {"ein": "332362806", "name": "GYUTO RAMOCHE DO-NGAK CHOELING INC", "city": "HICKSVILLE", "state": "NY", "zip": "11801-1100", "ntee": "X50", "ruling": "202412", "deductibility": "1", "assets": 0, "income": 0, "revenue": 0}, {"ein": "333026686", "name": "DO NOT RESEARCH INCORPORATED", "city": "BROOKLYN", "state": "NY", "zip": "11215-2246", "ntee": "A20", "ruling": "202504", "deductibility": "1", "assets": 0, "income": 0, "revenue": 0}, {"ein": "333813181", "name": "DO IT WITH COMPASSION INC", "city": "FLUSHING", "state": "NY", "zip": "11365-3066", "ntee": "P99", "ruling": "202505", "deductibility": "1", "assets": 0, "income": 0, "revenue": 0}, {"ein": "431908659", "name": "DO WELL FOUNDATION", "city": "NEW YORK", "state": "NY", "zip": "10003-2110", "ntee": "T21", "ruling": "200101", "deductibility": "1", "assets": 272397, "income": 54499, "revenue": 0}, {"ein": "455461984", "name": "DO FOR ONE NYC", "city": "NEW YORK", "state": "NY", "zip": "10044-0194", "ntee": "P20", "ruling": "201703", "deductibility": "1", "assets": 291585, "income": 283753, "revenue": 283753}, {"ein": "462750009", "name": "LETS DO THIZ ENTERTAINMENT", "city": "ROOSEVELT", "state": "NY", "zip": "11575-1223", "ntee": "P50", "ruling": "201902", "deductibility": "1", "assets": 1, "income": 1608, "revenue": 1608}, {"ein": "463185007", "name": "CHI-I-DO INTERNATIONAL ORGANIZATION INC", "city": "NEW YORK", "state": "NY", "zip": "10013-3616", "ntee": "Z99", "ruling": "201407", "deductibility": "1", "assets": 0, "income": 0, "revenue": 0}, {"ein": "510418963", "name": "RONIN SHOTOKAN KARATE-DO ASSOCIATION INC", "city": "BROOKLYN", "state": "NY", "zip": "11210-3119", "ntee": "N60", "ruling": "200306", "deductibility": "1", "assets": 0, "income": 0, "revenue": 0}, {"ein": "510450528", "name": "LIBERAL DO-GOODER FOUNDATION", "city": "DOBBS FERRY", "state": "NY", "zip": "10522-2204", "ntee": "T22", "ruling": "200404", "deductibility": "1", "assets": 172746, "income": 50222, "revenue": 0}, {"ein": "821751405", "name": "FU JIAN DO HONG ASSOCIATION INC", "city": "FLUSHING", "state": "NY", "zip": "11354-6549", "ntee": "C11", "ruling": "202301", "deductibility": "1", "assets": 0, "income": 0, "revenue": 0}, {"ein": "821860830", "name": "SHOTOKAN KARATE DO FEDERATION INC", "city": "FLUSHING", "state": "NY", "zip": "11367-3921", "ntee": "N99", "ruling": "201803", "deductibility": "1", "assets": 0, "income": 0, "revenue": 0}, {"ein": "822271334", "name": "DO MORE TOGETHER", "city": "WEST POINT", "state": "NY", "zip": "10996-0110", "ntee": "W30", "ruling": "202202", "deductibility": "1", "assets": 16333, "income": 9914, "revenue": 9914}, {"ein": "822525172", "name": "DO-DADS CLUB INC", "city": "E PATCHOGUE", "state": "NY", "zip": "11772-5580", "ntee": "O31", "ruling": "201712", "deductibility": "1", "assets": 0, "income": 0, "revenue": 0}, {"ein": "832091778", "name": "WHERE DO WE GO FROM HERE INC", "city": "JAMAICA", "state": "NY", "zip": "11435-5483", "ntee": "I01", "ruling": "201811", "deductibility": "1", "assets": 1, "income": 133847, "revenue": 133847}, {"ein": "844099535", "name": "DO YOU HEAR THE CHILDREN SING INC", "city": "HOLTSVILLE", "state": "NY", "zip": "11742-1133", "ntee": "A25", "ruling": "202201", "deductibility": "1", "assets": 1188, "income": 4022, "revenue": 4022}, {"ein": "850845005", "name": "DO GOOD AUTO COALITION A NJ NONPROFIT CORPORATION", "city": "NEW YORK", "state": "NY", "zip": "10007-0166", "ntee": "M01", "ruling": "202009", "deductibility": "1", "assets": 0, "income": 0, "revenue": 0}, {"ein": "851281227", "name": "INTERNATIONAL JEET KUNE DO FEDERATION", "city": "ARDSLEY", "state": "NY", "zip": "10502-1527", "ntee": "N60", "ruling": "202111", "deductibility": "1", "assets": 59453, "income": 7300, "revenue": 7300}, {"ein": "853942025", "name": "WE DO GOODWORKS", "city": "S OZONE PARK", "state": "NY", "zip": "11420-3039", "ntee": "", "ruling": "202102", "deductibility": "1", "assets": 0, "income": 0, "revenue": 0}, {"ein": "862047772", "name": "DO GIVE BACK INC", "city": "BROOKLYN", "state": "NY", "zip": "11210-4732", "ntee": "X30", "ruling": "202107", "deductibility": "1", "assets": 0, "income": 0, "revenue": 0}, {"ein": "862946793", "name": "DO BETTER FOUNDATION INC", "city": "BROOKLYN", "state": "NY", "zip": "11233-1308", "ntee": "T20", "ruling": "202203", "deductibility": "1", "assets": 20218, "income": 50100, "revenue": 0}, {"ein": "863713837", "name": "STUDIO MOO DO FOUNDATION", "city": "WESTHAMPTON BEACH", "state": "NY", "zip": "11978-1402", "ntee": "P20", "ruling": "202108", "deductibility": "1", "assets": 82488, "income": 76939, "revenue": 76939}, {"ein": "871823848", "name": "DO MO LIFE INC", "city": "NEW ROCHELLE", "state": "NY", "zip": "10801-3622", "ntee": "B82", "ruling": "202112", "deductibility": "1", "assets": 0, "income": 0, "revenue": 0}, {"ein": "900873900", "name": "ACADEMIA DO BACALHAU DE LONG ISLAND NEW YORK INC", "city": "MINEOLA", "state": "NY", "zip": "11501-3325", "ntee": "B12", "ruling": "201309", "deductibility": "1", "assets": 0, "income": 0, "revenue": 0}, {"ein": "922949444", "name": "DO FOR SELF FOUNDATION", "city": "BUFFALO", "state": "NY", "zip": "14212-1003", "ntee": "O50", "ruling": "202306", "deductibility": "1", "assets": 0, "income": 0, "revenue": 0}, {"ein": "934445255", "name": "ROVERS DO OVER INC", "city": "FRANKFORT", "state": "NY", "zip": "13340-5000", "ntee": "D20", "ruling": "202312", "deductibility": "1", "assets": 31380, "income": 103213, "revenue": 103213}, {"ein": "934874076", "name": "THOKAR-RYU KARATE DO USA INC", "city": "WOODSIDE", "state": "NY", "zip": "11377-4988", "ntee": "N99", "ruling": "202408", "deductibility": "1", "assets": 0, "income": 0, "revenue": 0}, {"ein": "990621395", "name": "DO GOOD RESCUE INC", "city": "EASTCHESTER", "state": "NY", "zip": "10709-3519", "ntee": "D12", "ruling": "202404", "deductibility": "1", "assets": 0, "income": 0, "revenue": 0}], "PAWAN": [{"ein": "113188352", "name": "PAWAN SUT RELIGIOUS AND CULTURAL GROUP", "city": "RICHMOND HILL", "state": "NY", "zip": "11418-1337", "ntee": "X99Z", "ruling": "199511", "deductibility": "1", "assets": 0, "income": 0, "revenue": 0}], "NELL": [{"ein": "113218457", "name": "CLARENCE J NELL APARTMENTS HOUSING DEVELOPMENT FUND CORPORATION", "city": "BROOKLYN", "state": "NY", "zip": "11233-1773", "ntee": "L25", "ruling": "199501", "deductibility": "1", "assets": 360938, "income": 272674, "revenue": 272674}], "MACARTHUR": [{"ein": "113244707", "name": "MACARTHUR BUSINESS ALLIANCE INC", "city": "RONKONKOMA", "state": "NY", "zip": "11779-7422", "ntee": "S41", "ruling": "201009", "deductibility": "2", "assets": 0, "income": 0, "revenue": 0}, {"ein": "273141382", "name": "MACARTHUR FAMILY CHARITABLE FOUNDATION", "city": "NEW YORK", "state": "NY", "zip": "10171-0299", "ntee": "T22", "ruling": "201107", "deductibility": "1", "assets": 3444374, "income": 3274858, "revenue": 0}, {"ein": "474574639", "name": "ELLEN MACARTHUR FOUNDATION USA INC", "city": "NEW YORK", "state": "NY", "zip": "10011-1913", "ntee": "B99", "ruling": "201605", "deductibility": "1", "assets": 143693, "income": 1066723, "revenue": 1066723}], "SHEEP": [{"ein": "113245089", "name": "FEED MY SHEEP MISSIONARY BAPTIST CHURCH OF MEDFORD INC", "city": "CORAM", "state": "NY", "zip": "11727-0522", "ntee": "X20Z", "ruling": "199706", "deductibility": "1", "assets": 0, "income": 0, "revenue": 0}, {"ein": "113554811", "name": "FINDING THE LOST SHEEP CENTER INC", "city": "BROOKLYN", "state": "NY", "zip": "11225-0538", "ntee": "X21", "ruling": "200008", "deductibility": "1", "assets": 0, "income": 0, "revenue": 0}, {"ein": "132879843", "name": "SHEEP MEADOW PRESS INC", "city": "CLINTON CORS", "state": "NY", "zip": "12514-2841", "ntee": "A76Z", "ruling": "198108", "deductibility": "1", "assets": 501732, "income": 49417, "revenue": 49417}, {"ein": "133786404", "name": "LOST SHEEP CHRISTIAN CENTER FOR ALL PEOPLE INC", "city": "ROOSEVELT", "state": "NY", "zip": "11575-2432", "ntee": "X99Z", "ruling": "199507", "deductibility": "1", "assets": 0, "income": 0, "revenue": 0}, {"ein": "141800663", "name": "DUTCHESS COUNTY SHEEP & WOOL GROWERS ASSOCIATION INC", "city": "RED HOOK", "state": "NY", "zip": "12571-0415", "ntee": "K26", "ruling": "200610", "deductibility": "1", "assets": 1284876, "income": 521525, "revenue": 415085}, {"ein": "300279391", "name": "THE LORDS SHEEP", "city": "BRONX", "state": "NY", "zip": "10473-3049", "ntee": "X21", "ruling": "200412", "deductibility": "1", "assets": 0, "income": 0, "revenue": 0}, {"ein": "453535320", "name": "DAIRY SHEEP ASSOCIATION OF NORTH AMERICA", "city": "OLD CHATHAM", "state": "NY", "zip": "12136-2605", "ntee": "K26", "ruling": "201609", "deductibility": "2", "assets": 86518, "income": 73853, "revenue": 73853}, {"ein": "472207166", "name": "FEED & CLOTHE MY SHEEP INTERNATIONAL", "city": "BRENTWOOD", "state": "NY", "zip": "11717-3133", "ntee": "P99", "ruling": "201412", "deductibility": "1", "assets": 0, "income": 0, "revenue": 0}, {"ein": "474043468", "name": "CARE FOR THE SHEEP", "city": "ALBANY", "state": "NY", "zip": "12205-0000", "ntee": "M20", "ruling": "201612", "deductibility": "1", "assets": 0, "income": 0, "revenue": 0}, {"ein": "510153250", "name": "SHEEP OF CHRIST FELLOWSHIP", "city": "FLUSHING", "state": "NY", "zip": "11366-1323", "ntee": "", "ruling": "197508", "deductibility": "1", "assets": 0, "income": 0, "revenue": 0}, {"ein": "800837738", "name": "FEED MY SHEEP WORLD OUTREACH MINISTRIES INC", "city": "STATEN ISLAND", "state": "NY", "zip": "10302-1628", "ntee": "X99", "ruling": "201708", "deductibility": "1", "assets": 0, "income": 0, "revenue": 0}, {"ein": "870932267", "name": "BLACK SHEEP SANCTUARY AND RETREAT INC", "city": "SAG HARBOR", "state": "NY", "zip": "11963-3442", "ntee": "D20", "ruling": "202108", "deductibility": "1", "assets": 282291, "income": 129874, "revenue": 129874}, {"ein": "883047705", "name": "IRON SHEEP MINISTRIES INC", "city": "SARATOGA SPGS", "state": "NY", "zip": "12866-2975", "ntee": "X99", "ruling": "202207", "deductibility": "1", "assets": 0, "income": 0, "revenue": 0}, {"ein": "923503210", "name": "SHEEP OF HIS PASTURE", "city": "ROCHESTER", "state": "NY", "zip": "14605-2408", "ntee": "P20", "ruling": "202305", "deductibility": "1", "assets": 0, "income": 0, "revenue": 0}], "LIGHTS": [{"ein": "113342670", "name": "LITTLE LIGHTS CHRISTIAN PRESCHOOL", "city": "E NORTHPORT", "state": "NY", "zip": "11731-5406", "ntee": "", "ruling": "198804", "deductibility": "1", "assets": 0, "income": 0, "revenue": 0}, {"ein": "161522782", "name": "NORTHERN LIGHTS GUARDIANSHIP", "city": "SARANAC LAKE", "state": "NY", "zip": "12983-5637", "ntee": "B24Z", "ruling": "199711", "deductibility": "1", "assets": 481422, "income": 576906, "revenue": 572967}, {"ein": "201867060", "name": "HARBOR LIGHTS FELLOWSHIP", "city": "GRAND ISLAND", "state": "NY", "zip": "14072-0672", "ntee": "X21", "ruling": "200507", "deductibility": "1", "assets": 159893, "income": 85742, "revenue": 85742}, {"ein": "334181500", "name": "LIGHTS OF TOMORROW", "city": "YORKTOWN HTS", "state": "NY", "zip": "10598-5904", "ntee": "X30", "ruling": "202505", "deductibility": "1", "assets": 0, "income": 0, "revenue": 0}, {"ein": "364705921", "name": "ARKADIAS LIGHTS SPIRITUAL MINISTRY", "city": "DEER PARK", "state": "NY", "zip": "11729-2410", "ntee": "X20", "ruling": "201512", "deductibility": "1", "assets": 0, "income": 0, "revenue": 0}, {"ein": "452475624", "name": "LIGHTS ON THE RIVER INCORPORATED", "city": "LISBON", "state": "NY", "zip": "13658-0027", "ntee": "A12", "ruling": "202111", "deductibility": "1", "assets": 0, "income": 0, "revenue": 0}, {"ein": "462500951", "name": "NORTHERN LIGHTS HEALTH CARE PARTNERSHIP INC", "city": "CANTON", "state": "NY", "zip": "13617-0000", "ntee": "E92", "ruling": "201506", "deductibility": "1", "assets": 591848, "income": 2964917, "revenue": 2964917}, {"ein": "474452183", "name": "SHINING LIGHTS HELPING HANDS CORPORATION", "city": "HILLBURN", "state": "NY", "zip": "10931-0054", "ntee": "P50", "ruling": "201905", "deductibility": "1", "assets": 0, "income": 0, "revenue": 0}, {"ein": "510208590", "name": "NORTHERN LIGHTS POST NO 8793 VETERANS OF FOREIGN WARS OF THE US", "city": "ELLENBURG DEP", "state": "NY", "zip": "12935-0147", "ntee": "W30", "ruling": "201803", "deductibility": "1", "assets": 221076, "income": 120978, "revenue": 52553}, {"ein": "800444929", "name": "AZZAHRA ASLAM QUIM THESE ARE THE LIGHTS KRST INC", "city": "BUFFALO", "state": "NY", "zip": "14222-2202", "ntee": "X99", "ruling": "201001", "deductibility": "1", "assets": 0, "income": 0, "revenue": 0}, {"ein": "820657735", "name": "LIGHTS CAMERA LEARN INC", "city": "ITHACA", "state": "NY", "zip": "14850-5637", "ntee": "A31", "ruling": "202305", "deductibility": "1", "assets": 0, "income": 0, "revenue": 0}, {"ein": "842929502", "name": "LIGHTS UP PRODUCTIONS INC", "city": "EARLTON", "state": "NY", "zip": "12058-2110", "ntee": "A60", "ruling": "201909", "deductibility": "1", "assets": 0, "income": 0, "revenue": 0}, {"ein": "921054720", "name": "STONY BROOK LEGENDARY LIGHTS INC", "city": "LANCASTER", "state": "NY", "zip": "14086-1418", "ntee": "P12", "ruling": "202406", "deductibility": "1", "assets": 2160, "income": 151637, "revenue": 151637}, {"ein": "933669265", "name": "UPTOWN LITERACY LIGHTS INC", "city": "NEW YORK", "state": "NY", "zip": "10030-0556", "ntee": "B90", "ruling": "202311", "deductibility": "1", "assets": 0, "income": 0, "revenue": 0}, {"ein": "994084841", "name": "LIGHTS OF HOPE FOUNDATION INC", "city": "BRONX", "state": "NY", "zip": "10458-8275", "ntee": "P99", "ruling": "202408", "deductibility": "1", "assets": 0, "income": 0, "revenue": 0}, {"ein": "994670391", "name": "LIGHTS OUT COALITION", "city": "NEW YORK", "state": "NY", "zip": "10001-6545", "ntee": "D30", "ruling": "202505", "deductibility": "2", "assets": 0, "income": 0, "revenue": 0}], "EXODO": [{"ein": "113344440", "name": "IGLESIA CRISTIANA PENTECOSTAL LAS MARAVILLAS DEL EXODO", "city": "BROOKLYN", "state": "NY", "zip": "11229-5418", "ntee": "X21", "ruling": "200006", "deductibility": "1", "assets": 0, "income": 0, "revenue": 0}, {"ein": "660507066", "name": "PENTECOSTAL CHURCH EXODUS 3 14 INC MINISTERIO EXODO 3 14 INC", "city": "ROCHESTER", "state": "NY", "zip": "14617-0244", "ntee": "X20Z", "ruling": "199701", "deductibility": "1", "assets": 0, "income": 0, "revenue": 0}], "SHIURAI": [{"ein": "113407360", "name": "IRGUN SHIURAI TORAH", "city": "BROOKLYN", "state": "NY", "zip": "11218-3510", "ntee": "X30Z", "ruling": "199802", "deductibility": "1", "assets": 0, "income": 0, "revenue": 0}], "AMAZING": [{"ein": "113409602", "name": "AMAZING GRACE OUTREACH MINISTRY FOR ALL PEOPLE INC", "city": "BALDWIN", "state": "NY", "zip": "11510-0632", "ntee": "X20", "ruling": "200006", "deductibility": "1", "assets": 0, "income": 0, "revenue": 0}, {"ein": "113747654", "name": "AMAZING GRACE AFRICA INC", "city": "AKRON", "state": "NY", "zip": "14001-9216", "ntee": "Q33", "ruling": "200706", "deductibility": "1", "assets": 0, "income": 0, "revenue": 0}, {"ein": "133943299", "name": "AMAZING GRACE INTERFAITH MINISTRY", "city": "STATEN ISLAND", "state": "NY", "zip": "10309-2328", "ntee": "X21", "ruling": "199808", "deductibility": "1", "assets": 0, "income": 0, "revenue": 0}, {"ein": "141713297", "name": "AMAZING GRACE APOSTOLIC FAITH CHURCH INC", "city": "NEWBURGH", "state": "NY", "zip": "12550-5301", "ntee": "", "ruling": "196007", "deductibility": "1", "assets": 0, "income": 0, "revenue": 0}, {"ein": "161508722", "name": "AMAZING GRACE FELLOWSHIP TRUMANSBURG", "city": "JACKSONVILLE", "state": "NY", "zip": "14854-0025", "ntee": "X99Z", "ruling": "196408", "deductibility": "1", "assets": 0, "income": 0, "revenue": 0}, {"ein": "161511976", "name": "AMAZING GRACE CHURCH INC", "city": "ROCHESTER", "state": "NY", "zip": "14621-4622", "ntee": "X20", "ruling": "199901", "deductibility": "1", "assets": 0, "income": 0, "revenue": 0}, {"ein": "161553037", "name": "AMAZING GRACE PENTACOSTAL CHURCH INTERNATIONAL INC", "city": "BRONX", "state": "NY", "zip": "10466-2985", "ntee": "X21", "ruling": "200812", "deductibility": "1", "assets": 0, "income": 0, "revenue": 0}, {"ein": "222533293", "name": "AMAZING GRACE ASSEMBLY OF GOD", "city": "TROY", "state": "NY", "zip": "12180-0000", "ntee": "", "ruling": "196408", "deductibility": "0", "assets": 0, "income": 0, "revenue": 0}, {"ein": "222621681", "name": "AMAZING GRACE CHURCH", "city": "CATSKILL", "state": "NY", "zip": "12414-0398", "ntee": "", "ruling": "198508", "deductibility": "1", "assets": 0, "income": 0, "revenue": 0}, {"ein": "264417161", "name": "TELL EVERY AMAZING LADY ABOUT OVARIAN CANCER FOUNDATION", "city": "BROOKLYN", "state": "NY", "zip": "11215-5914", "ntee": "T30", "ruling": "200908", "deductibility": "1", "assets": 721218, "income": 822287, "revenue": 818326}, {"ein": "451199199", "name": "AMAZING CHURCH OF GOD INC", "city": "BROOKLYN", "state": "NY", "zip": "11229-5051", "ntee": "X01", "ruling": "202404", "deductibility": "1", "assets": 0, "income": 0, "revenue": 0}, {"ein": "455116914", "name": "AMAZING GRACIES GIFT FOUNDATION", "city": "MOHAWK", "state": "NY", "zip": "13407-1508", "ntee": "E86", "ruling": "201306", "deductibility": "1", "assets": 410496, "income": 88738, "revenue": 88321}, {"ein": "455493914", "name": "THE AMAZING ORGANIZATION INC", "city": "NEW YORK", "state": "NY", "zip": "10002-7037", "ntee": "U40", "ruling": "202001", "deductibility": "1", "assets": 0, "income": 0, "revenue": 0}, {"ein": "800557196", "name": "AMAZING GRACE HEALING & DELIVERANCE TEMPLE", "city": "BROOKLYN", "state": "NY", "zip": "11221-3705", "ntee": "X21", "ruling": "201407", "deductibility": "1", "assets": 0, "income": 0, "revenue": 0}, {"ein": "824365861", "name": "AMAZING GRACE MINISTRIES INC", "city": "EAST MEADOW", "state": "NY", "zip": "11554-1712", "ntee": "X20", "ruling": "201812", "deductibility": "1", "assets": 90131, "income": 6502, "revenue": 6502}, {"ein": "850814389", "name": "AMAZING GRACE CHARITY FOUNDATION NFP", "city": "MIDDLETOWN", "state": "NY", "zip": "10941-1357", "ntee": "X20", "ruling": "202005", "deductibility": "1", "assets": 0, "income": 0, "revenue": 0}, {"ein": "873290610", "name": "AMAZING GREEN INC", "city": "NEW YORK", "state": "NY", "zip": "10002-3529", "ntee": "P20", "ruling": "202208", "deductibility": "1", "assets": 3573, "income": 10350, "revenue": 10350}, {"ein": "873515633", "name": "YOURE AMAZING FITNESS", "city": "LIVERPOOL", "state": "NY", "zip": "13088-6102", "ntee": "N30", "ruling": "202203", "deductibility": "1", "assets": 0, "income": 0, "revenue": 0}, {"ein": "882083985", "name": "AMAZING WOMEN S SHELTER INC", "city": "BUFFALO", "state": "NY", "zip": "14204-1856", "ntee": "L41", "ruling": "202309", "deductibility": "1", "assets": 1, "income": 0, "revenue": 0}], "SHAMSON": [{"ein": "113415911", "name": "BEIS SHAMSON", "city": "BROOKLYN", "state": "NY", "zip": "11219-3212", "ntee": "X30Z", "ruling": "199803", "deductibility": "1", "assets": 0, "income": 0, "revenue": 0}], "MIKDASH": [{"ein": "113432329", "name": "AMERICAN FRIENDS OF MIKDASH SHAUL", "city": "NEW YORK", "state": "NY", "zip": "10001-3304", "ntee": "X12", "ruling": "200203", "deductibility": "1", "assets": 35929, "income": 847667, "revenue": 847667}, {"ein": "133948140", "name": "CONGREGATION MIKDASH DOVID INC", "city": "MONSEY", "state": "NY", "zip": "10952-2537", "ntee": "X30", "ruling": "200301", "deductibility": "1", "assets": 0, "income": 0, "revenue": 0}, {"ein": "237343102", "name": "YESHIVA MIKDASH MELECH", "city": "BROOKLYN", "state": "NY", "zip": "11230-5601", "ntee": "", "ruling": "197401", "deductibility": "1", "assets": 0, "income": 0, "revenue": 0}, {"ein": "306013642", "name": "CONGREGATION MEKOM MIKDASH", "city": "BROOKLYN", "state": "NY", "zip": "11218-3552", "ntee": "X30", "ruling": "200203", "deductibility": "1", "assets": 0, "income": 0, "revenue": 0}], "GOBIND": [{"ein": "113470376", "name": "GURU GOBIND SINGH CENTER INC", "city": "PLAINVIEW", "state": "NY", "zip": "11803-0000", "ntee": "X700", "ruling": "200007", "deductibility": "1", "assets": 0, "income": 0, "revenue": 0}, {"ein": "161311788", "name": "GOBIND SADAN USA", "city": "CENTRAL SQ", "state": "NY", "zip": "13036-2286", "ntee": "Z99Z", "ruling": "198805", "deductibility": "1", "assets": 423193, "income": 32923, "revenue": 32923}, {"ein": "461638958", "name": "GOBIND MARG CHARITABLE SOCIETY INC", "city": "NEW HYDE PARK", "state": "NY", "zip": "11040-0000", "ntee": "X99", "ruling": "201408", "deductibility": "1", "assets": 4753192, "income": 720760, "revenue": 720760}, {"ein": "993957646", "name": "GURU GOBIND SINGH STUDY CIRCLE USA INC", "city": "BETHPAGE", "state": "NY", "zip": "11714-4428", "ntee": "P99", "ruling": "202409", "deductibility": "1", "assets": 0, "income": 0, "revenue": 0}], "COUNT": [{"ein": "113493688", "name": "FRIENDS OF THE RETIRED AND SENIOR VOLUNTEER PROGRAM OF SUFFOLK COUNT", "city": "SMITHTOWN", "state": "NY", "zip": "11787-3220", "ntee": "P20", "ruling": "199911", "deductibility": "1", "assets": 167107, "income": 436186, "revenue": 436186}, {"ein": "133200666", "name": "COUNT ME IN FOR WOMENS ECONOMIC INDEPENDENCE INC", "city": "NEW YORK", "state": "NY", "zip": "10019-1435", "ntee": "S43", "ruling": "198905", "deductibility": "1", "assets": 994, "income": 60030, "revenue": 60030}, {"ein": "141836540", "name": "KIDS COUNT", "city": "WATERVLIET", "state": "NY", "zip": "12189-3729", "ntee": "O20", "ruling": "201411", "deductibility": "1", "assets": 0, "income": 0, "revenue": 0}, {"ein": "237037120", "name": "LEAGUE OF WOMEN VOTERS OF NEW YORK STATE INC LEAGUE OF SCHUYLER COUNT", "city": "READING CTR", "state": "NY", "zip": "14876-0065", "ntee": "", "ruling": "196908", "deductibility": "2", "assets": 0, "income": 0, "revenue": 0}, {"ein": "272037456", "name": "MAKE IT COUNT FOUNDATION INC", "city": "WEST ISLIP", "state": "NY", "zip": "11795-0370", "ntee": "L20", "ruling": "201007", "deductibility": "1", "assets": 132382, "income": 63767, "revenue": 63767}, {"ein": "352787455", "name": "COUNT ME IN INC", "city": "BROOKLYN", "state": "NY", "zip": "11219-7036", "ntee": "T30", "ruling": "202410", "deductibility": "1", "assets": 0, "income": 0, "revenue": 0}, {"ein": "421640176", "name": "NORTHEAST KIDS COUNT INC", "city": "ITHACA", "state": "NY", "zip": "14852-3874", "ntee": "B11", "ruling": "200602", "deductibility": "1", "assets": 96611, "income": 298809, "revenue": 298809}, {"ein": "770626772", "name": "HEAD COUNT INC", "city": "NEW YORK", "state": "NY", "zip": "10001-5310", "ntee": "R40", "ruling": "200406", "deductibility": "1", "assets": 5982422, "income": 4637533, "revenue": 4637533}, {"ein": "811325889", "name": "SMALL HANDS COUNT INC", "city": "ROSLYN HTS", "state": "NY", "zip": "11577-2806", "ntee": "A20", "ruling": "201602", "deductibility": "1", "assets": 0, "income": 0, "revenue": 0}, {"ein": "821753782", "name": "CONNERS COUNT ON ME", "city": "NORTHPORT", "state": "NY", "zip": "11768-2819", "ntee": "W12", "ruling": "201706", "deductibility": "1", "assets": 0, "income": 0, "revenue": 0}, {"ein": "832058630", "name": "SCHOHARIE COUNT AMATEUR RADIO CLUB", "city": "WARNERVILLE", "state": "NY", "zip": "12187-0394", "ntee": "M20", "ruling": "202406", "deductibility": "1", "assets": 0, "income": 0, "revenue": 0}], "LYISROEL": [{"ein": "113525524", "name": "YAD LACHMU ANYU LENITZRUCHIN CHOQ LYISROEL", "city": "BROOKLYN", "state": "NY", "zip": "11211-7923", "ntee": "X30", "ruling": "200003", "deductibility": "1", "assets": 0, "income": 0, "revenue": 0}, {"ein": "463981152", "name": "CONG CHOK LYISROEL INC", "city": "BROOKLYN", "state": "NY", "zip": "11211-7115", "ntee": "X30", "ruling": "201406", "deductibility": "1", "assets": 0, "income": 0, "revenue": 0}, {"ein": "823162935", "name": "YAD LYISROEL INC", "city": "SPRING VALLEY", "state": "NY", "zip": "10977-8991", "ntee": "K99", "ruling": "201904", "deductibility": "1", "assets": 12812, "income": 68563, "revenue": 68563}], "MOYNIHAN": [{"ein": "113586652", "name": "MOYNIHAN CHARITABLE FOUNDATION", "city": "GLEN HEAD", "state": "NY", "zip": "11545-1101", "ntee": "T20", "ruling": "200112", "deductibility": "1", "assets": 4183, "income": 1209, "revenue": 0}, {"ein": "822444864", "name": "MOYNIHAN SCHOLARSHIP FUND INC", "city": "NEW YORK", "state": "NY", "zip": "10016-4049", "ntee": "B82", "ruling": "201809", "deductibility": "1", "assets": 2828403, "income": 1444288, "revenue": 226407}], "SCHOOOL": [{"ein": "113661151", "name": "IMMACULATE HEART CENTRAL SCHOOOL", "city": "WATERTOWN", "state": "NY", "zip": "13601-3420", "ntee": "", "ruling": "194603", "deductibility": "1", "assets": 0, "income": 0, "revenue": 0}], "RODFEK": [{"ein": "116037242", "name": "CONGREGATION RODFEK ZEDEK INC", "city": "NEW YORK", "state": "NY", "zip": "10016-5570", "ntee": "X30Z", "ruling": "198009", "deductibility": "1", "assets": 15865728, "income": 6017331, "revenue": 1249897}], "MECHANICS": [{"ein": "131624013", "name": "GENERAL SOCIETY OF MECHANICS & TRADESMEN", "city": "NEW YORK", "state": "NY", "zip": "10036-6603", "ntee": "S41Z", "ruling": "193410", "deductibility": "1", "assets": 34878279, "income": 8153278, "revenue": 2928386}, {"ein": "133237986", "name": "BENEFIT FUND OF THE MOTION PICTURE STUDIO MECHANICS LOCAL 52 OF IATSE", "city": "ASTORIA", "state": "NY", "zip": "11105-1109", "ntee": "J40", "ruling": "198605", "deductibility": "2", "assets": 29245794, "income": 28945997, "revenue": 5589699}, {"ein": "843212469", "name": "SUPREME GRAND LODGE THE INDEPENDENT ORDER OF MECHANICS PUF", "city": "CAMBRIA HEIGHTS", "state": "NY", "zip": "11411-0000", "ntee": "Y40", "ruling": "202303", "deductibility": "1", "assets": 0, "income": 0, "revenue": 0}], "ELTINGVILLE": [{"ein": "131974368", "name": "ELTINGVILLE LUTHERAN SCHOOL & PRESCHOOL", "city": "STATEN ISLAND", "state": "NY", "zip": "10312-2449", "ntee": "", "ruling": "198804", "deductibility": "1", "assets": 0, "income": 0, "revenue": 0}, {"ein": "300500629", "name": "PS 42 PTA ELTINGVILLE SCHOOL", "city": "STATEN ISLAND", "state": "NY", "zip": "10312-3202", "ntee": "B94", "ruling": "200909", "deductibility": "1", "assets": 83293, "income": 210775, "revenue": 116834}], "SUBWAY": [{"ein": "132600913", "name": "SUBWAY SUPERVISORS ASSOCIATION", "city": "BROOKLYN", "state": "NY", "zip": "11217-1707", "ntee": "", "ruling": "197106", "deductibility": "2", "assets": 5357739, "income": 2858744, "revenue": 2858744}, {"ein": "264336936", "name": "SUBWAY CINEMA INC", "city": "NEW YORK", "state": "NY", "zip": "10016-8194", "ntee": "A31", "ruling": "201407", "deductibility": "1", "assets": 15844, "income": 16204, "revenue": 16204}, {"ein": "300986390", "name": "SUBWAY-SURFACE TRANSIT SUPERVISORS POLITICAL ACTIVITY CORP", "city": "BRONX", "state": "NY", "zip": "10471-2206", "ntee": "J40", "ruling": "201712", "deductibility": "2", "assets": 2000, "income": 0, "revenue": 0}, {"ein": "813036151", "name": "WENDYS SUBWAY INC", "city": "BROOKLYN", "state": "NY", "zip": "11206-3713", "ntee": "A99", "ruling": "201607", "deductibility": "1", "assets": 66179, "income": 235887, "revenue": 235887}], "SAVA": [{"ein": "132685013", "name": "SERBIAN ORTHODOX CHURCH & SCHOOL COMMUNITY OF ST SAVA CATHEDRAL", "city": "NEW YORK", "state": "NY", "zip": "10010-2032", "ntee": "", "ruling": "195608", "deductibility": "1", "assets": 0, "income": 0, "revenue": 0}], "USDAN": [{"ein": "132792668", "name": "USDAN CENTER FOR THE CREATIVE AND PERFORMING ARTS", "city": "WHEATLEY HTS", "state": "NY", "zip": "11798-1016", "ntee": "A6E0", "ruling": "197411", "deductibility": "1", "assets": 8567907, "income": 10708639, "revenue": 8888646}, {"ein": "273726563", "name": "HANNA AND MATTHEW USDAN FOUNDATION", "city": "NEW YORK", "state": "NY", "zip": "10022-3562", "ntee": "T22", "ruling": "201101", "deductibility": "1", "assets": 11453993, "income": 2330795, "revenue": 0}], "CARVEL": [{"ein": "132879673", "name": "THOMAS AND AGNES CARVEL FOUNDATION", "city": "YONKERS", "state": "NY", "zip": "10710-4620", "ntee": "", "ruling": "197701", "deductibility": "1", "assets": 49177623, "income": 16026753, "revenue": 0}], "READY": [{"ein": "132894682", "name": "NEW YORK CITY READY MIXED CONCRETE INDUSTRY ADVANCEMENT FUND", "city": "HUNTINGTON", "state": "NY", "zip": "11743-2060", "ntee": "", "ruling": "199405", "deductibility": "2", "assets": 1535107, "income": 1421538, "revenue": 137413}, {"ein": "133607921", "name": "READY WILLING & ABLE", "city": "NEW YORK", "state": "NY", "zip": "10029-5611", "ntee": "J20", "ruling": "199508", "deductibility": "1", "assets": 0, "income": 0, "revenue": 0}, {"ein": "271780905", "name": "READY WILLING AND ABLE AMERICA INC", "city": "NEW YORK", "state": "NY", "zip": "10029-5611", "ntee": "P20", "ruling": "201408", "deductibility": "1", "assets": 0, "income": 0, "revenue": 0}, {"ein": "272424487", "name": "READY FOR RESCUE", "city": "NEW YORK", "state": "NY", "zip": "10011-6281", "ntee": "D20", "ruling": "201012", "deductibility": "1", "assets": 38337, "income": 293148, "revenue": 293148}, {"ein": "311698832", "name": "LETS GET READY INC", "city": "NEW YORK", "state": "NY", "zip": "10038-3703", "ntee": "B90", "ruling": "200005", "deductibility": "1", "assets": 3138215, "income": 4972010, "revenue": 3521201}, {"ein": "352832934", "name": "FUTURE READY SOCIETY FOUNDATIONS INC", "city": "NEW YORK", "state": "NY", "zip": "10005-4301", "ntee": "B20", "ruling": "202401", "deductibility": "1", "assets": 0, "income": 0, "revenue": 0}, {"ein": "833892226", "name": "GENERATION READY MINISTRIES THE GOOD NEWS CHURCH INC", "city": "SAINT ALBANS", "state": "NY", "zip": "11412-1900", "ntee": "X20", "ruling": "202004", "deductibility": "1", "assets": 0, "income": 0, "revenue": 0}, {"ein": "833976661", "name": "READY 2 SUCCEED", "city": "BROOKLYN", "state": "NY", "zip": "11236-5221", "ntee": "B90", "ruling": "202501", "deductibility": "1", "assets": 0, "income": 0, "revenue": 0}, {"ein": "845137538", "name": "READY SET GROW LEARNING ACADEMY INC", "city": "FREEPORT", "state": "NY", "zip": "11520-1830", "ntee": "P33", "ruling": "202301", "deductibility": "1", "assets": 0, "income": 0, "revenue": 0}, {"ein": "862273974", "name": "READY SET GROW TO GLOW INC", "city": "BROOKLYN", "state": "NY", "zip": "11221-2105", "ntee": "T50", "ruling": "202502", "deductibility": "1", "assets": 0, "income": 0, "revenue": 0}, {"ein": "863509482", "name": "READY RETREAT INC", "city": "SCARSDALE", "state": "NY", "zip": "10583-1016", "ntee": "E01", "ruling": "202109", "deductibility": "1", "assets": 0, "income": 0, "revenue": 0}, {"ein": "882457612", "name": "ARE YOU READY COMNUNITY OUTREACH INC", "city": "BROOKLYN", "state": "NY", "zip": "11205-4448", "ntee": "B90", "ruling": "202406", "deductibility": "1", "assets": 0, "income": 0, "revenue": 0}, {"ein": "883100403", "name": "READY CARES", "city": "NEW YORK", "state": "NY", "zip": "10038-2015", "ntee": "T50", "ruling": "202210", "deductibility": "1", "assets": 14511, "income": 20672, "revenue": 0}, {"ein": "921349916", "name": "PROJECT READY INC", "city": "SCARSDALE", "state": "NY", "zip": "10583-5546", "ntee": "P40", "ruling": "202302", "deductibility": "1", "assets": 17477, "income": 20597, "revenue": 20597}, {"ein": "932536480", "name": "READY ENLIGHTEN DELIVER INC", "city": "ROSEDALE", "state": "NY", "zip": "11422-2740", "ntee": "P30", "ruling": "202309", "deductibility": "1", "assets": 0, "income": 0, "revenue": 0}, {"ein": "990722071", "name": "READY SET SHINE INC", "city": "STATEN ISLAND", "state": "NY", "zip": "10309-1350", "ntee": "A20", "ruling": "202402", "deductibility": "1", "assets": 0, "income": 0, "revenue": 0}], "DELIVERNCE": [{"ein": "132911651", "name": "PENTECOSTAL UNIVERSAL CHURCH OF DELIVERNCE INC", "city": "BRONX", "state": "NY", "zip": "10456-6509", "ntee": "", "ruling": "198511", "deductibility": "1", "assets": 0, "income": 0, "revenue": 0}], "TTEES": [{"ein": "133052489", "name": "ROY J ZUCKERBERG FAMILY FOUNDATION LLOYD P & DINA R ZUCKERBERG TTEES", "city": "NEW YORK", "state": "NY", "zip": "10022-8110", "ntee": "", "ruling": "198112", "deductibility": "1", "assets": 27617377, "income": 33932177, "revenue": 0}, {"ein": "133117681", "name": "LITTLE SISTERS POOR OF L A TTEES UW", "city": "NEW YORK", "state": "NY", "zip": "10013-2362", "ntee": "", "ruling": "000000", "deductibility": "0", "assets": 179641, "income": 53552, "revenue": 0}, {"ein": "136054133", "name": "TTEES U W IRENE LEWISOHN 122905", "city": "NEW YORK", "state": "NY", "zip": "10013-2362", "ntee": "", "ruling": "197012", "deductibility": "0", "assets": 1193767, "income": 434423, "revenue": 0}, {"ein": "136132268", "name": "BOARD OF TTEES ST JAMES AMER PROT- ESTANT EPISC CHURCH FLORENCE ITALY", "city": "NEW YORK", "state": "NY", "zip": "10029-5212", "ntee": "", "ruling": "195701", "deductibility": "1", "assets": 0, "income": 0, "revenue": 0}, {"ein": "136159975", "name": "DILMAGHANI FOUNDATION GEORGE W MALLISON ET AL TTEES", "city": "SCARSDALE", "state": "NY", "zip": "10583-1019", "ntee": "", "ruling": "196505", "deductibility": "1", "assets": 229324, "income": 10680, "revenue": 0}, {"ein": "136161532", "name": "TTEES JOSEPH MARTINSON MEMORIAL FUND 1473764", "city": "NEW YORK", "state": "NY", "zip": "10013-2362", "ntee": "", "ruling": "195205", "deductibility": "1", "assets": 2775794, "income": 761716, "revenue": 0}, {"ein": "141770877", "name": "ASSOC OF BDS OF TTEES OF COMM COLL STATE UNIV OF NEW YORK EDL FDN", "city": "ALBANY", "state": "NY", "zip": "12246-2915", "ntee": "B82Z", "ruling": "199411", "deductibility": "1", "assets": 0, "income": 0, "revenue": 0}], "SLATER": [{"ein": "133058584", "name": "THOMAS H SLATER CENTER INC", "city": "WHITE PLAINS", "state": "NY", "zip": "10601-4141", "ntee": "P36Z", "ruling": "198212", "deductibility": "1", "assets": 161205, "income": 761276, "revenue": 761276}, {"ein": "844233107", "name": "USS SLATER DE 766 & FRANK J LASCH", "city": "ALBANY", "state": "NY", "zip": "12207-1649", "ntee": "A54", "ruling": "202010", "deductibility": "1", "assets": 1240276, "income": 31202, "revenue": 31202}, {"ein": "993690260", "name": "SLATER FOUNDATION INC", "city": "YONKERS", "state": "NY", "zip": "10705-3116", "ntee": "P20", "ruling": "202411", "deductibility": "1", "assets": 0, "income": 0, "revenue": 0}], "BHARATI": [{"ein": "133064425", "name": "BHARATI CENTER INC", "city": "BROOKLYN", "state": "NY", "zip": "11217-1024", "ntee": "", "ruling": "198207", "deductibility": "1", "assets": 0, "income": 0, "revenue": 0}, {"ein": "992884504", "name": "AKSHAR BHARATI MISSION CORPORATION", "city": "OAKLAND GDNS", "state": "NY", "zip": "11364-3531", "ntee": "V30", "ruling": "202405", "deductibility": "1", "assets": 0, "income": 0, "revenue": 0}], "FINNISH": [{"ein": "133153644", "name": "FINNISH-AMERICAN CHAMBER OF COMMERCE INC", "city": "NEW YORK", "state": "NY", "zip": "10022-4728", "ntee": "", "ruling": "198305", "deductibility": "2", "assets": 1, "income": 146777, "revenue": 146777}, {"ein": "133573737", "name": "FINNISH CULTURAL INSTITUTE IN NEW YORK", "city": "NEW YORK", "state": "NY", "zip": "10012-4203", "ntee": "A23Z", "ruling": "199011", "deductibility": "1", "assets": 46673, "income": 656556, "revenue": 0}, {"ein": "136170061", "name": "NEW YORK FINNISH LUTHERAN CONGREGATION", "city": "NEW YORK", "state": "NY", "zip": "10014-4248", "ntee": "", "ruling": "198804", "deductibility": "1", "assets": 0, "income": 0, "revenue": 0}], "DILGO": [{"ein": "133187080", "name": "DILGO KHYENTSE FELLOWSHIP", "city": "NEW YORK", "state": "NY", "zip": "10001-1963", "ntee": "", "ruling": "198402", "deductibility": "1", "assets": 0, "income": 0, "revenue": 0}], "RSVP": [{"ein": "133335293", "name": "FRIENDS OF RSVP INC", "city": "NEW YORK", "state": "NY", "zip": "10017-6701", "ntee": "", "ruling": "198605", "deductibility": "1", "assets": 41094, "income": 452, "revenue": 0}, {"ein": "161507331", "name": "RSVP ADVISORY COUNCIL", "city": "BATH", "state": "NY", "zip": "14810-1557", "ntee": "Z99", "ruling": "199812", "deductibility": "2", "assets": 0, "income": 0, "revenue": 0}], "MD": [{"ein": "133366820", "name": "ROBERT J MIN MD", "city": "NEW YORK", "state": "NY", "zip": "10022-6145", "ntee": "S80", "ruling": "202008", "deductibility": "1", "assets": 2723715, "income": 85688, "revenue": 85688}, {"ein": "133732603", "name": "NEIL B KAVEY MD PC", "city": "CHAPPAQUA", "state": "NY", "zip": "10514-1004", "ntee": "S41", "ruling": "200202", "deductibility": "2", "assets": 0, "income": 0, "revenue": 0}, {"ein": "134178135", "name": "MICHAEL I JACOBS MD CHARITABLE FOUNDATION", "city": "RYE BROOK", "state": "NY", "zip": "10573-7501", "ntee": "T20", "ruling": "200201", "deductibility": "1", "assets": 31561, "income": 32565, "revenue": 0}, {"ein": "141580597", "name": "CHARLES F WOLF MD SCHOLARSHIP FUND", "city": "BEACON", "state": "NY", "zip": "12508-3020", "ntee": "", "ruling": "197701", "deductibility": "1", "assets": 1958597, "income": 405282, "revenue": 0}, {"ein": "223086266", "name": "T FRANKLIN WILLIAMS MD FOUNDATION INC", "city": "ROCHESTER", "state": "NY", "zip": "14620-0000", "ntee": "T20", "ruling": "199103", "deductibility": "1", "assets": 1078097, "income": 375905, "revenue": 298061}, {"ein": "261175082", "name": "MICHELLE CARLSON MD FOUNDATION INC", "city": "NEW YORK", "state": "NY", "zip": "10021-4099", "ntee": "T30", "ruling": "200808", "deductibility": "1", "assets": 34126, "income": 35, "revenue": 0}, {"ein": "332210483", "name": "MD SPORTIV FC INC", "city": "QUEENS VLG", "state": "NY", "zip": "11428-2145", "ntee": "N64", "ruling": "202412", "deductibility": "1", "assets": 0, "income": 0, "revenue": 0}, {"ein": "815044758", "name": "MD FRIEDMAN FAMILY FOUNDATION", "city": "BROOKLYN", "state": "NY", "zip": "11210-3638", "ntee": "T20", "ruling": "201712", "deductibility": "1", "assets": 7694698, "income": 6775139, "revenue": 0}, {"ein": "820834667", "name": "MARY TYLER MOORE LEVINE AND S ROBERT LEVINE MD CHARITABLE FOUNDA", "city": "QUOGUE", "state": "NY", "zip": "11959-2029", "ntee": "T22", "ruling": "201708", "deductibility": "1", "assets": 635973, "income": 1185880, "revenue": 0}, {"ein": "851245584", "name": "MD PLUS PLUS INCORPORATED", "city": "NEW YORK", "state": "NY", "zip": "10012-4436", "ntee": "E01", "ruling": "202007", "deductibility": "1", "assets": 0, "income": 0, "revenue": 0}, {"ein": "852738658", "name": "MD 20 ALERT FOUNDATION INC", "city": "NORTH SYRACUSE", "state": "NY", "zip": "13212-3760", "ntee": "M20", "ruling": "202208", "deductibility": "1", "assets": 0, "income": 0, "revenue": 0}, {"ein": "854346401", "name": "UNIV OF MD EASTERN SHORE NATL ALUMNI ASSOC TRI-STATE ALUMNI CHAP", "city": "BROOKLYN", "state": "NY", "zip": "11207-1609", "ntee": "B84", "ruling": "202502", "deductibility": "1", "assets": 0, "income": 0, "revenue": 0}, {"ein": "871300307", "name": "WILLIAM L JAFFE MD FOUNDATION INC", "city": "BRONXVILLE", "state": "NY", "zip": "10708-5820", "ntee": "W12", "ruling": "202204", "deductibility": "1", "assets": 706416, "income": 417410, "revenue": 0}, {"ein": "993251060", "name": "MICHAEL I WEINTRAUB MD DIABETIC NEUROPATHY RESEARCH CENTER INC", "city": "CROTON HDSN", "state": "NY", "zip": "10520-3100", "ntee": "P12", "ruling": "202406", "deductibility": "1", "assets": 0, "income": 0, "revenue": 0}], "FOCO": [{"ein": "133378184", "name": "EN FOCO INCORPORATED", "city": "BRONX", "state": "NY", "zip": "10451-1757", "ntee": "", "ruling": "198610", "deductibility": "1", "assets": 570694, "income": 276241, "revenue": 276241}], "KOC": [{"ein": "133407012", "name": "KOC EDUCATION CULTURE AND HEALTHCARE FOUNDATION", "city": "NEW YORK", "state": "NY", "zip": "10021-3502", "ntee": "", "ruling": "201908", "deductibility": "0", "assets": 2355177, "income": 199111, "revenue": 199111}], "52ND": [{"ein": "133467948", "name": "52ND STREET PROJECT INC", "city": "NEW YORK", "state": "NY", "zip": "10019-5027", "ntee": "A650", "ruling": "199312", "deductibility": "1", "assets": 18365672, "income": 7912347, "revenue": 1055298}], "IMPORT": [{"ein": "133472810", "name": "AMERICAN IMPORT SHIPPERS ASSOCIATION INC", "city": "PELHAM", "state": "NY", "zip": "10803-8618", "ntee": "", "ruling": "199109", "deductibility": "2", "assets": 61618, "income": 521343, "revenue": 521343}], "VIOLEN": [{"ein": "133526938", "name": "COMMITTEE AGAINST ANTI ASIAN VIOLEN CE", "city": "NEW YORK", "state": "NY", "zip": "10002-4895", "ntee": "R22Z", "ruling": "199211", "deductibility": "1", "assets": 3480050, "income": 2080484, "revenue": 2080484}], "CRISTIAN": [{"ein": "133716436", "name": "SMIRNA CRISTIAN CHURCH INC", "city": "NEW YORK", "state": "NY", "zip": "10029-4740", "ntee": "", "ruling": "199309", "deductibility": "1", "assets": 0, "income": 0, "revenue": 0}, {"ein": "161252853", "name": "ROCHESTER CHINESE CRISTIAN CHURCH", "city": "PENFIELD", "state": "NY", "zip": "14526-9736", "ntee": "", "ruling": "199010", "deductibility": "1", "assets": 0, "income": 0, "revenue": 0}, {"ein": "843011236", "name": "IGLESIA CRISTIAN EL SANTUARIO INC", "city": "BRONX", "state": "NY", "zip": "10465-0000", "ntee": "X20", "ruling": "202001", "deductibility": "1", "assets": 0, "income": 0, "revenue": 0}, {"ein": "900499789", "name": "CRISTIAN RIVERA FOUNDATION", "city": "BRONX", "state": "NY", "zip": "10465-1972", "ntee": "T30", "ruling": "200909", "deductibility": "1", "assets": 130463, "income": 880180, "revenue": 626647}], "POSTRETIREMENT": [{"ein": "133751052", "name": "CON EDISON POSTRETIREMENT LIFE INS VEBA TR FOR MANAGEMENT EMPLOYEES", "city": "NEW YORK", "state": "NY", "zip": "10003-3502", "ntee": "", "ruling": "199412", "deductibility": "2", "assets": 65658144, "income": 11069468, "revenue": 7024300}, {"ein": "464309365", "name": "HEALTH RESEARCH INC POSTRETIREMENT HEALTH BENEFITS TRUST", "city": "MENANDS", "state": "NY", "zip": "12204-2702", "ntee": "Y43", "ruling": "201503", "deductibility": "2", "assets": 120325911, "income": 25195812, "revenue": 4724092}], "JIOU": [{"ein": "133784086", "name": "LING JIOU MOUNTAIN BUDDHIST SOCIETY", "city": "NEW YORK", "state": "NY", "zip": "10022-1438", "ntee": "X50Z", "ruling": "199506", "deductibility": "1", "assets": 0, "income": 0, "revenue": 0}], "GLYNWOOD": [{"ein": "133852957", "name": "GLYNWOOD CENTER INC", "city": "COLD SPRING", "state": "NY", "zip": "10516-0157", "ntee": "W70", "ruling": "199601", "deductibility": "1", "assets": 32039796, "income": 15261496, "revenue": 5700915}], "CARRON": [{"ein": "133860420", "name": "RICHARD HOGAN & CARRON SHERRY FOUNDATION INC", "city": "LAKE SUCCESS", "state": "NY", "zip": "11042-0000", "ntee": "T99Z", "ruling": "199601", "deductibility": "1", "assets": 1169200, "income": 37996, "revenue": 0}], "SIRE": [{"ein": "134012985", "name": "SIRE FOUNDATION", "city": "NEW YORK", "state": "NY", "zip": "10019-3757", "ntee": "I20Z", "ruling": "199808", "deductibility": "1", "assets": 954215, "income": 460004, "revenue": 0}], "HUMPTY": [{"ein": "134028567", "name": "HUMPTY DUMPTY INSTITUTE INC", "city": "NEW YORK", "state": "NY", "zip": "10014-2678", "ntee": "Q014", "ruling": "199910", "deductibility": "1", "assets": 43211, "income": 746251, "revenue": 746251}], "ELIOT": [{"ein": "134085329", "name": "EMILY UNTERBERG SATLOFF AND JAMES ELIOT SATLOFF FOUNDATION INC", "city": "NEW YORK", "state": "NY", "zip": "10028-8031", "ntee": "T22", "ruling": "199912", "deductibility": "1", "assets": 1, "income": 2435, "revenue": 0}], "BISHAN": [{"ein": "134147472", "name": "MUNSHI BISHAN SINGH KOCHHAR FOUNDATION INC", "city": "NEW YORK", "state": "NY", "zip": "10016-2784", "ntee": "T20", "ruling": "200103", "deductibility": "1", "assets": 3750420, "income": 75000, "revenue": 0}], "WYA": [{"ein": "134196230", "name": "WYA FOUNDATION INC", "city": "NEW YORK", "state": "NY", "zip": "10021-5136", "ntee": "O54", "ruling": "200205", "deductibility": "1", "assets": 235009, "income": 749478, "revenue": 749478}], "SOLINGER": [{"ein": "136098429", "name": "DAVID M & HOPE G SOLINGER FOUNDATION INC", "city": "NEW YORK", "state": "NY", "zip": "10023-0000", "ntee": "", "ruling": "194805", "deductibility": "1", "assets": 100810, "income": 19741, "revenue": 0}], "SYNAGOGUR": [{"ein": "136107403", "name": "SISTERHOOD OF SPANISH & PORTUGUESE SYNAGOGUR IN THE CITY OF NY INC", "city": "NEW YORK", "state": "NY", "zip": "10023-4601", "ntee": "X30Z", "ruling": "195904", "deductibility": "1", "assets": 166092, "income": 33434, "revenue": 33434}], "ORENTREICH": [{"ein": "136154215", "name": "ORENTREICH FOUNDATION FOR THE ADVANCEMENT OF SCIENCE INC", "city": "NEW YORK", "state": "NY", "zip": "10021-0000", "ntee": "", "ruling": "196401", "deductibility": "1", "assets": 44555002, "income": 9705461, "revenue": 0}, {"ein": "136879797", "name": "ORENTREICH FAMILY FOUNDATION", "city": "NEW YORK", "state": "NY", "zip": "10021-4115", "ntee": "", "ruling": "198709", "deductibility": "1", "assets": 16761918, "income": 3951876, "revenue": 0}], "GREENPARK": [{"ein": "136155738", "name": "GREENPARK FOUNDATION INC", "city": "JEFFERSON VLY", "state": "NY", "zip": "10535-1513", "ntee": "", "ruling": "196401", "deductibility": "1", "assets": 25244361, "income": 1425439, "revenue": 0}], "NEXSTAR": [{"ein": "136161525", "name": "NEXSTAR CHARITABLE FOUNDATION", "city": "NEW YORK", "state": "NY", "zip": "10017-4141", "ntee": "", "ruling": "196006", "deductibility": "1", "assets": 7262451, "income": 635010, "revenue": 0}], "ALBEE": [{"ein": "136168827", "name": "EDWARD ALBEE FOUNDATION INC", "city": "NEW YORK", "state": "NY", "zip": "10016-6970", "ntee": "A20", "ruling": "196412", "deductibility": "1", "assets": 27711703, "income": 7173071, "revenue": 0}, {"ein": "332638462", "name": "ALBEE SQUARE MONTESSORI PTA", "city": "BROOKLYN", "state": "NY", "zip": "11201-5306", "ntee": "B94", "ruling": "202505", "deductibility": "1", "assets": 0, "income": 0, "revenue": 0}], "EXT": [{"ein": "136201467", "name": "BOARD OF MGRS OF DIOCESAN MISS & CHRCH EXT SOC PROT EPIS CHCH IN NY", "city": "NEW YORK", "state": "NY", "zip": "10025-1702", "ntee": "", "ruling": "196605", "deductibility": "1", "assets": 0, "income": 0, "revenue": 0}], "MORGADO": [{"ein": "137072672", "name": "ROBERT & MARY LOU MORGADO CHARITABLE TRUST", "city": "NEW YORK", "state": "NY", "zip": "10019-0000", "ntee": "T20Z", "ruling": "199606", "deductibility": "1", "assets": 8399513, "income": 8015177, "revenue": 0}], "LOUDONVILLE": [{"ein": "141460899", "name": "LOUDONVILLE CHRISTIAN SCHOOL", "city": "LOUDONVILLE", "state": "NY", "zip": "12211-1730", "ntee": "", "ruling": "199307", "deductibility": "1", "assets": 0, "income": 0, "revenue": 0}, {"ein": "222309680", "name": "GREATER LOUDONVILLE ASSOCIATION INC", "city": "LOUDONVILLE", "state": "NY", "zip": "12211-2000", "ntee": "", "ruling": "198102", "deductibility": "1", "assets": 0, "income": 0, "revenue": 0}, {"ein": "222534501", "name": "SHAKER-ROAD LOUDONVILLE FIRE DEPT INC", "city": "LOUDONVILLE", "state": "NY", "zip": "12211-2100", "ntee": "", "ruling": "198708", "deductibility": "1", "assets": 7669986, "income": 1961335, "revenue": 1896375}], "MALDEN": [{"ein": "141504403", "name": "MALDEN-WEST CAMP FIRE COMPANY INC", "city": "MALDEN", "state": "NY", "zip": "12453-0000", "ntee": "M24", "ruling": "201109", "deductibility": "1", "assets": 0, "income": 0, "revenue": 0}, {"ein": "264489814", "name": "MALDEN BRIDGE COMMUNITY CENTER INC", "city": "MALDEN BRIDGE", "state": "NY", "zip": "12115-0084", "ntee": "N31", "ruling": "200907", "deductibility": "1", "assets": 0, "income": 0, "revenue": 0}], "NEWMEADOW": [{"ein": "141637035", "name": "NEWMEADOW INC", "city": "HALFMOON", "state": "NY", "zip": "12065-5613", "ntee": "", "ruling": "198404", "deductibility": "1", "assets": 5119828, "income": 7980314, "revenue": 7954818}], "BENEEVALENT": [{"ein": "141662293", "name": "VOLUNTEER AND EXEMPT FIREMEN BENEEVALENT ASSOCIATION OF SALISBU", "city": "SALISBURY MLS", "state": "NY", "zip": "12577-0279", "ntee": "I60", "ruling": "201112", "deductibility": "2", "assets": 0, "income": 0, "revenue": 0}], "PISECO": [{"ein": "141694186", "name": "PISECO LAKE HISTORICAL SOCIETY", "city": "PISECO", "state": "NY", "zip": "12139-0115", "ntee": "", "ruling": "198810", "deductibility": "1", "assets": 0, "income": 0, "revenue": 0}, {"ein": "141739478", "name": "PISECO VOLUNTEER FIRE DEPT INC", "city": "PISECO", "state": "NY", "zip": "12139-0001", "ntee": "M24Z", "ruling": "199209", "deductibility": "1", "assets": 1328801, "income": 240260, "revenue": 179800}, {"ein": "451056325", "name": "PISECO LAKE ASSOCIATION INC", "city": "PISECO", "state": "NY", "zip": "12139-0084", "ntee": "C30", "ruling": "201406", "deductibility": "1", "assets": 0, "income": 0, "revenue": 0}], "THEVENET": [{"ein": "141744130", "name": "THEVENET MONTESSORI SCHOOL", "city": "HIGHLAND MLS", "state": "NY", "zip": "10930-3130", "ntee": "", "ruling": "194603", "deductibility": "1", "assets": 0, "income": 0, "revenue": 0}], "MAZOH": [{"ein": "141800054", "name": "MAZOH FOUNDATION", "city": "RHINEBECK", "state": "NY", "zip": "12572-3101", "ntee": "T22Z", "ruling": "199801", "deductibility": "1", "assets": 1423, "income": 1, "revenue": 0}], "CARBENSAN": [{"ein": "141826681", "name": "CARBENSAN FOUNDATION", "city": "EAST NASSAU", "state": "NY", "zip": "12062-2532", "ntee": "T22", "ruling": "200011", "deductibility": "1", "assets": 1, "income": 1, "revenue": 0}], "CIDER": [{"ein": "141830522", "name": "CIDER MILL FRIENDS OF OPEN SPACE AND HISTORIC PRESERVATION INC", "city": "POUGHKEEPSIE", "state": "NY", "zip": "12603-8873", "ntee": "C34", "ruling": "200111", "deductibility": "1", "assets": 265909, "income": 20704, "revenue": 20704}, {"ein": "611759199", "name": "NEW YORK CIDER ASSOCIATION INC", "city": "SHRUB OAK", "state": "NY", "zip": "10588-1303", "ntee": "S46", "ruling": "201507", "deductibility": "2", "assets": 173856, "income": 119257, "revenue": 119257}], "GRADE": [{"ein": "141909228", "name": "MAKE THE GRADE FOUNDATION INC", "city": "NEW YORK", "state": "NY", "zip": "10016-2817", "ntee": "B80", "ruling": "200412", "deductibility": "1", "assets": 61626, "income": 110820, "revenue": 73109}, {"ein": "371646328", "name": "109TH COMPANY GRADE OFFICERS COUNCIL", "city": "SCHENECTADY", "state": "NY", "zip": "12302-9752", "ntee": "W30", "ruling": "201311", "deductibility": "2", "assets": 0, "income": 0, "revenue": 0}, {"ein": "475339250", "name": "EAST SCHOOL FIFTH GRADE COMMITTEE INC", "city": "LONG BEACH", "state": "NY", "zip": "11561-2308", "ntee": "P20", "ruling": "201602", "deductibility": "2", "assets": 0, "income": 0, "revenue": 0}, {"ein": "812633110", "name": "WILLIAM L BUCK 6TH GRADE PARENTS CLUB", "city": "VALLEY STREAM", "state": "NY", "zip": "11581-0000", "ntee": "B94", "ruling": "201606", "deductibility": "1", "assets": 0, "income": 0, "revenue": 0}, {"ein": "921242201", "name": "LIDO 5TH GRADE COMMITTEE INC", "city": "LIDO BEACH", "state": "NY", "zip": "11561-5092", "ntee": "B12", "ruling": "202303", "deductibility": "1", "assets": 0, "income": 0, "revenue": 0}, {"ein": "934389650", "name": "POST ROAD SCHOOL 5TH GRADE COMMITTEE", "city": "WHITE PLAINS", "state": "NY", "zip": "10606-2910", "ntee": "B94", "ruling": "202312", "deductibility": "1", "assets": 0, "income": 0, "revenue": 0}], "ALEC": [{"ein": "160763708", "name": "FRIENDS OF ALEC WILDER INC", "city": "BROOKLYN", "state": "NY", "zip": "11215-7301", "ntee": "A68", "ruling": "202202", "deductibility": "1", "assets": 0, "income": 0, "revenue": 0}, {"ein": "202310211", "name": "ALEC WILLIAM NELSON COMMUNITY FOUNDATION", "city": "DIX HILLS", "state": "NY", "zip": "11746-7847", "ntee": "Z99", "ruling": "201405", "deductibility": "1", "assets": 0, "income": 0, "revenue": 0}, {"ein": "205062031", "name": "ALEC BALDWIN FOUNDATION INC", "city": "NEW YORK", "state": "NY", "zip": "10022-5643", "ntee": "T22", "ruling": "200609", "deductibility": "1", "assets": 565, "income": 169500, "revenue": 0}, {"ein": "931978660", "name": "ALEC WILLIAMSON MEMORIAL FUND", "city": "WATERTOWN", "state": "NY", "zip": "13601-2308", "ntee": "B82", "ruling": "202311", "deductibility": "1", "assets": 0, "income": 0, "revenue": 0}], "HOMSITE": [{"ein": "160999976", "name": "CAYUGA COUNTY HOMSITE DEVELOPMENT CORP", "city": "AUBURN", "state": "NY", "zip": "13021-3379", "ntee": "L210", "ruling": "197208", "deductibility": "1", "assets": 913099, "income": 1089753, "revenue": 1089753}, {"ein": "222544626", "name": "HOMSITE HOLDING COMPANY INC", "city": "AUBURN", "state": "NY", "zip": "13021-3379", "ntee": "", "ruling": "198504", "deductibility": "2", "assets": 318038, "income": 58528, "revenue": 58528}, {"ein": "237368656", "name": "HOMSITE FUND INC", "city": "AUBURN", "state": "NY", "zip": "13021-3379", "ntee": "S200", "ruling": "197504", "deductibility": "1", "assets": 444663, "income": 333879, "revenue": 333879}], "MIDDLEVILLE": [{"ein": "161429365", "name": "MIDDLEVILLE FREE LIBRARY", "city": "MIDDLEVILLE", "state": "NY", "zip": "13406-2714", "ntee": "B70", "ruling": "202201", "deductibility": "1", "assets": 128387, "income": 65720, "revenue": 65720}], "CENTS": [{"ein": "161514810", "name": "COMMON CENTS PROPERTY OWNERS ASSOCIATION INC", "city": "UTICA", "state": "NY", "zip": "13501-3784", "ntee": "Z99", "ruling": "199812", "deductibility": "2", "assets": 0, "income": 0, "revenue": 0}, {"ein": "352372329", "name": "COMMON CENTS THRIFT SHOP", "city": "OXFORD", "state": "NY", "zip": "13830-3434", "ntee": "P29", "ruling": "201103", "deductibility": "1", "assets": 157149, "income": 64233, "revenue": 64233}, {"ein": "743113057", "name": "CENTS ABILITY INC", "city": "NEW YORK", "state": "NY", "zip": "10167-0006", "ntee": "S80", "ruling": "202504", "deductibility": "1", "assets": 51190, "income": 229342, "revenue": 229342}], "DICK": [{"ein": "161555913", "name": "DICK STACK MEMORIAL SCHOLARSHIP FUND", "city": "VESTAL", "state": "NY", "zip": "13850-2833", "ntee": "B82", "ruling": "200108", "deductibility": "1", "assets": 100892, "income": 7670, "revenue": 0}, {"ein": "272057989", "name": "DICK TIGER FOUNDATION INCORPORATED", "city": "WESTBURY", "state": "NY", "zip": "11590-2709", "ntee": "Q32", "ruling": "201109", "deductibility": "1", "assets": 0, "income": 0, "revenue": 0}, {"ein": "861744629", "name": "DICK YOUNG HERITAGE HOUSE", "city": "WILLIAMSVILLE", "state": "NY", "zip": "14221-1475", "ntee": "T50", "ruling": "202108", "deductibility": "1", "assets": 0, "income": 0, "revenue": 0}, {"ein": "921825759", "name": "JULIE BAKER AND DICK BAKER MEMORIAL FUND INC", "city": "ROCHESTER", "state": "NY", "zip": "14623-1105", "ntee": "B82", "ruling": "202304", "deductibility": "1", "assets": 56141, "income": 119136, "revenue": 0}], "COPPER": [{"ein": "161556887", "name": "COPPER CITY UNITED SOCCER CLUB INC", "city": "ROME", "state": "NY", "zip": "13440-2212", "ntee": "N64", "ruling": "201502", "deductibility": "1", "assets": 3155, "income": 5002, "revenue": 0}, {"ein": "222983682", "name": "COPPER LAKE CLUB INC", "city": "FULTON", "state": "NY", "zip": "13069-0008", "ntee": "", "ruling": "199001", "deductibility": "2", "assets": 0, "income": 0, "revenue": 0}, {"ein": "223793126", "name": "COPPER BEECH FOUNDATION", "city": "NEW YORK", "state": "NY", "zip": "10020-0000", "ntee": "T20", "ruling": "200111", "deductibility": "1", "assets": 3232556, "income": 4425199, "revenue": 0}], "BENV": [{"ein": "166023212", "name": "LACKAWANNA POLICE BENV ASSN", "city": "BUFFALO", "state": "NY", "zip": "14218-0019", "ntee": "", "ruling": "199209", "deductibility": "2", "assets": 0, "income": 0, "revenue": 0}], "RAGHAVENDRA": [{"ein": "200275592", "name": "SRI GURU RAGHAVENDRA INTERNATIONAL PRATHISTHAANA", "city": "NEW ROCHELLE", "state": "NY", "zip": "10804-2816", "ntee": "X70", "ruling": "200606", "deductibility": "1", "assets": 0, "income": 0, "revenue": 0}], "CAWLEY": [{"ein": "200859871", "name": "MICHAEL J CAWLEY MEMORIAL FUND INC", "city": "FLUSHING", "state": "NY", "zip": "11355-2304", "ntee": "T30", "ruling": "200502", "deductibility": "1", "assets": 545223, "income": 78981, "revenue": 78981}], "BENFREY": [{"ein": "201116279", "name": "BENFREY CHARITABLE TRUST INC", "city": "MONSEY", "state": "NY", "zip": "10952-0000", "ntee": "T22", "ruling": "200512", "deductibility": "1", "assets": 1, "income": 1, "revenue": 0}], "ONES": [{"ein": "201596817", "name": "FRIENDS OF LITTLE ONES INC", "city": "ACCORD", "state": "NY", "zip": "12404-5750", "ntee": "B92", "ruling": "200411", "deductibility": "1", "assets": 0, "income": 0, "revenue": 0}, {"ein": "452389380", "name": "ELITE ONES ORGANIZATION", "city": "BROOKLYN", "state": "NY", "zip": "11207-4804", "ntee": "O50", "ruling": "201506", "deductibility": "1", "assets": 0, "income": 0, "revenue": 0}, {"ein": "812936119", "name": "FINDING ONES WAY THE BRIAN M LANGDON FOUNDATION INC", "city": "QUEENSBURY", "state": "NY", "zip": "12804-7867", "ntee": "T12", "ruling": "201608", "deductibility": "1", "assets": 21853, "income": 18834, "revenue": 18034}, {"ein": "832714677", "name": "LITTLE ONES PLAY PLACE INC", "city": "JAMESTOWN", "state": "NY", "zip": "14701-4622", "ntee": "B99", "ruling": "202001", "deductibility": "1", "assets": 0, "income": 0, "revenue": 0}], "MOLAR": [{"ein": "202090367", "name": "DR MOLAR MAGIC FOUNDATION", "city": "BROOKLYN", "state": "NY", "zip": "11234-6235", "ntee": "E70", "ruling": "201202", "deductibility": "1", "assets": 0, "income": 0, "revenue": 0}], "PASTASSOCIATION": [{"ein": "203863862", "name": "MOHAWK VALLEY POWER OF THE PASTASSOCIATION", "city": "CLINTON", "state": "NY", "zip": "13323-4615", "ntee": "A80", "ruling": "202403", "deductibility": "1", "assets": 0, "income": 0, "revenue": 0}], "MELTZER": [{"ein": "203985465", "name": "MELTZER LIPPE FOUNDATION", "city": "MINEOLA", "state": "NY", "zip": "11501-2672", "ntee": "T22", "ruling": "200801", "deductibility": "1", "assets": 126439, "income": 35000, "revenue": 0}], "BROWNS": [{"ein": "204204780", "name": "MAYOR BROWNS FUND TO ADVANCEBUFFALO", "city": "BUFFALO", "state": "NY", "zip": "14201-0841", "ntee": "T30", "ruling": "200610", "deductibility": "1", "assets": 270026, "income": 0, "revenue": 0}, {"ein": "770663142", "name": "RABBINICAL COMMITTEE OF BROWNS", "city": "BROOKLYN", "state": "NY", "zip": "11215-5006", "ntee": "X30", "ruling": "201206", "deductibility": "1", "assets": 0, "income": 0, "revenue": 0}], "INTERNATIONALCHURCH": [{"ein": "204538752", "name": "INTERNATIONALCHURCH ALIVE CENTER", "city": "BRONX", "state": "NY", "zip": "10455-0000", "ntee": "X20", "ruling": "200606", "deductibility": "1", "assets": 0, "income": 0, "revenue": 0}], "WEAVERLAND": [{"ein": "205334261", "name": "WEAVERLAND FINANCIAL AID OF NEWYORK", "city": "SENECA FALLS", "state": "NY", "zip": "13148-0000", "ntee": "P20", "ruling": "200611", "deductibility": "1", "assets": 29025104, "income": 1760222, "revenue": 1760222}], "BRUCE": [{"ein": "205921672", "name": "BRUCE T WILLIAMS FAMILY FOUNDATION", "city": "AMHERST", "state": "NY", "zip": "14226-4245", "ntee": "T22", "ruling": "200702", "deductibility": "1", "assets": 1419169, "income": 464659, "revenue": 0}, {"ein": "206070287", "name": "RANDI & BRUCE PERGAMENT FOUNDATION", "city": "WOODBURY", "state": "NY", "zip": "11797-2930", "ntee": "T22", "ruling": "200501", "deductibility": "1", "assets": 11918, "income": 2, "revenue": 0}, {"ein": "208034361", "name": "BRUCE AND AVIS RICHARDS FAMILYFOUNDATION", "city": "NEW YORK", "state": "NY", "zip": "10023-7714", "ntee": "P20", "ruling": "200803", "deductibility": "1", "assets": 4582708, "income": 521359, "revenue": 0}, {"ein": "208075415", "name": "BRUCE G GEARY FOUNDATION", "city": "STATEN ISLAND", "state": "NY", "zip": "10314-0732", "ntee": "T22", "ruling": "200703", "deductibility": "1", "assets": 22569662, "income": 26389789, "revenue": 0}, {"ein": "226389588", "name": "THE BRUCE M EPSTEIN FAMILY CHARITABLE TRUST", "city": "BRIARCLIFF", "state": "NY", "zip": "10510-1949", "ntee": "", "ruling": "198508", "deductibility": "1", "assets": 300931, "income": 25174, "revenue": 0}, {"ein": "226966373", "name": "BRUCE AND MELISSA FISCHER FAMILY FOUNDATION", "city": "NEW YORK", "state": "NY", "zip": "10018-5007", "ntee": "T22", "ruling": "200501", "deductibility": "1", "assets": 4905657, "income": 1089813, "revenue": 0}, {"ein": "237366844", "name": "BRUCE L CRARY FOUNDATION INC", "city": "ELIZABETHTOWN", "state": "NY", "zip": "12932-0396", "ntee": "B82Z", "ruling": "197402", "deductibility": "1", "assets": 10180265, "income": 328539, "revenue": 324116}, {"ein": "454795955", "name": "MELISSA AND BRUCE SPOHLER FAMILY FOUNDATION INC", "city": "GARDEN CITY", "state": "NY", "zip": "11530-4843", "ntee": "Z99", "ruling": "201407", "deductibility": "1", "assets": 2589330, "income": 93398, "revenue": 0}, {"ein": "463455479", "name": "BRUCE ALAN EBERSOLE SCHOLARSHIP FOUNDATION", "city": "BROOKLYN", "state": "NY", "zip": "11216-2611", "ntee": "B82", "ruling": "201609", "deductibility": "1", "assets": 0, "income": 0, "revenue": 0}, {"ein": "464779654", "name": "BRUCE ARNOLD FOUNDATION INC", "city": "FLUSHING", "state": "NY", "zip": "11355-1173", "ntee": "A20", "ruling": "201408", "deductibility": "1", "assets": 1, "income": 0, "revenue": 0}, {"ein": "466458104", "name": "IAN BRUCE EICHNER FOUNDATION", "city": "NEW YORK", "state": "NY", "zip": "10022-5460", "ntee": "T22", "ruling": "201308", "deductibility": "1", "assets": 250, "income": 1, "revenue": 0}, {"ein": "471439173", "name": "LOUISE ESTE BRUCE FOUNDATION INC", "city": "WHITE PLAINS", "state": "NY", "zip": "10601-1832", "ntee": "T50", "ruling": "201507", "deductibility": "1", "assets": 3886674, "income": 3376571, "revenue": 0}, {"ein": "656243539", "name": "H BRUCE STAHL TRUST FBO MIDDLEBURY COLLEGE", "city": "NEW YORK", "state": "NY", "zip": "10010-0000", "ntee": "", "ruling": "202401", "deductibility": "1", "assets": 683773, "income": 121181, "revenue": 0}, {"ein": "825223441", "name": "BRUCE AND CAROLE HART FOUNDATION INC", "city": "NEW YORK", "state": "NY", "zip": "10019-0000", "ntee": "T22", "ruling": "201904", "deductibility": "1", "assets": 695120, "income": 39850, "revenue": 0}], "DEMILAGROS": [{"ein": "208600512", "name": "IGLESIA CRISTIANA TABERNACULO DEMILAGROS", "city": "HOLLIS", "state": "NY", "zip": "11423-2329", "ntee": "X21", "ruling": "201209", "deductibility": "1", "assets": 0, "income": 0, "revenue": 0}], "TELSHE": [{"ein": "222368223", "name": "CONGREGATION YESHIVA OF TELSHE ALUMNI", "city": "BRONX", "state": "NY", "zip": "10471-2802", "ntee": "", "ruling": "198203", "deductibility": "1", "assets": 0, "income": 0, "revenue": 0}, {"ein": "237161565", "name": "TELSHE ALUMNI BAIS HAMEDRASH", "city": "BROOKLYN", "state": "NY", "zip": "11219-2105", "ntee": "", "ruling": "197203", "deductibility": "1", "assets": 0, "income": 0, "revenue": 0}], "ERIEVILLE": [{"ein": "222553628", "name": "ERIEVILLE NELSON HERITAGE SOCIETY", "city": "CAZENOVIA", "state": "NY", "zip": "13035-8406", "ntee": "A80", "ruling": "202203", "deductibility": "1", "assets": 0, "income": 0, "revenue": 0}, {"ein": "455177015", "name": "ERIEVILLE FIRE DEPARTMENT INC", "city": "ERIEVILLE", "state": "NY", "zip": "13061-0225", "ntee": "M24", "ruling": "201009", "deductibility": "1", "assets": 0, "income": 0, "revenue": 0}], "HOURS": [{"ein": "222845226", "name": "MOODIES CHILDRENS HOURS SCHOOL", "city": "GENEVA", "state": "NY", "zip": "14456-1742", "ntee": "", "ruling": "198712", "deductibility": "1", "assets": 215044, "income": 183317, "revenue": 183317}, {"ein": "331007278", "name": "AFTER HOURS PROJECT INC", "city": "BROOKLYN", "state": "NY", "zip": "11221-2906", "ntee": "F20", "ruling": "200209", "deductibility": "1", "assets": 6576315, "income": 9126952, "revenue": 9126952}, {"ein": "371921395", "name": "RESTAURANT AFTER HOURS INC", "city": "BROOKLYN", "state": "NY", "zip": "11215-3948", "ntee": "F80", "ruling": "201906", "deductibility": "1", "assets": 0, "income": 0, "revenue": 0}, {"ein": "834394370", "name": "AFTER HOURS WEDDING MINISTRY INC", "city": "RONKONKOMA", "state": "NY", "zip": "11779-6578", "ntee": "F60", "ruling": "202003", "deductibility": "1", "assets": 0, "income": 0, "revenue": 0}], "PATRISTIC": [{"ein": "223336467", "name": "PATRISTIC SOCIETY", "city": "TARRYTOWN", "state": "NY", "zip": "10591-5425", "ntee": "X20Z", "ruling": "199602", "deductibility": "1", "assets": 0, "income": 0, "revenue": 0}], "TAHARE": [{"ein": "223765784", "name": "MIKVE TAHARE DIVREI CHAIM OF WOODBURN", "city": "BROOKLYN", "state": "NY", "zip": "11211-8036", "ntee": "X30", "ruling": "200102", "deductibility": "1", "assets": 0, "income": 0, "revenue": 0}], "LAYMANS": [{"ein": "223843789", "name": "EVANGELICAL LAYMANS CHURCH", "city": "KATONAH", "state": "NY", "zip": "10536-3181", "ntee": "X20", "ruling": "200302", "deductibility": "1", "assets": 0, "income": 0, "revenue": 0}], "ADD": [{"ein": "223844882", "name": "FAMILIES WITH ADD AND OTHER SERIOUS EMOTIONAL DISABILITIES INC", "city": "OSWEGO", "state": "NY", "zip": "13126-2205", "ntee": "F60", "ruling": "200207", "deductibility": "1", "assets": 0, "income": 0, "revenue": 0}, {"ein": "263271587", "name": "ADD ADHD HOUSING GROUP INC", "city": "FREEPORT", "state": "NY", "zip": "11520-3341", "ntee": "L41", "ruling": "200905", "deductibility": "1", "assets": 1909705, "income": 900000, "revenue": 900000}], "STUDIUM": [{"ein": "223935222", "name": "AMERICAN FRIENDS OF THE STUDIUM GENERALE MARCIANUM", "city": "NEW YORK", "state": "NY", "zip": "10022-8077", "ntee": "A128", "ruling": "200608", "deductibility": "1", "assets": 4048, "income": 1, "revenue": 0}], "WESTOVER": [{"ein": "237282967", "name": "WESTOVER EMPLOYEES ASSOCIATION", "city": "ENDICOTT", "state": "NY", "zip": "13760-2815", "ntee": "", "ruling": "198304", "deductibility": "2", "assets": 73264, "income": 54386, "revenue": 44875}], "TORANI": [{"ein": "237405609", "name": "MERKAZ LECHINUCH TORANI", "city": "BROOKLYN", "state": "NY", "zip": "11219-3909", "ntee": "", "ruling": "197408", "deductibility": "1", "assets": 0, "income": 0, "revenue": 0}, {"ein": "831613327", "name": "MERKAZ TORANI ORAITA INC", "city": "BROOKLYN", "state": "NY", "zip": "11249-7863", "ntee": "T30", "ruling": "202104", "deductibility": "1", "assets": 79469, "income": 1424438, "revenue": 1424438}, {"ein": "993038468", "name": "MERKAZ TORANI MIDRASH BET NASSI", "city": "BROOKLYN", "state": "NY", "zip": "11223-5142", "ntee": "X30", "ruling": "202405", "deductibility": "1", "assets": 0, "income": 0, "revenue": 0}], "MERLE": [{"ein": "256585691", "name": "MERLE BROWN SECHRIST TW FBO ELAINE H ROYAHN", "city": "BUFFALO", "state": "NY", "zip": "14240-1504", "ntee": "T22", "ruling": "201008", "deductibility": "1", "assets": 438836, "income": 142317, "revenue": 0}], "ANETTE": [{"ein": "256648479", "name": "THE KERMIT AND ANETTE BERMAN CHARITABLE FOUNDATION", "city": "STATEN ISLAND", "state": "NY", "zip": "10312-3859", "ntee": "T20", "ruling": "199911", "deductibility": "1", "assets": 2693, "income": 12, "revenue": 0}], "JORDANS": [{"ein": "272104679", "name": "IN JORDANS HONOR LTD", "city": "SAG HARBOR", "state": "NY", "zip": "11963-2943", "ntee": "B82", "ruling": "201501", "deductibility": "1", "assets": 0, "income": 0, "revenue": 0}, {"ein": "474483368", "name": "JORDANS PROMISE FOUNDATION INC", "city": "BROOKLYN", "state": "NY", "zip": "11225-4908", "ntee": "P80", "ruling": "201611", "deductibility": "1", "assets": 0, "income": 0, "revenue": 0}], "OUTER": [{"ein": "272151031", "name": "OUTER LOOP THEATER EXPERIENCE", "city": "FAIRPORT", "state": "NY", "zip": "14450-7064", "ntee": "A65", "ruling": "201104", "deductibility": "1", "assets": 120217, "income": 193432, "revenue": 193432}, {"ein": "462638152", "name": "21ST CENTURY PARK ON THE OUTER HARBOR INC", "city": "BUFFALO", "state": "NY", "zip": "14216-2507", "ntee": "C01", "ruling": "201702", "deductibility": "1", "assets": 0, "income": 0, "revenue": 0}], "MEADOWLARK": [{"ein": "274327976", "name": "MEADOWLARK FOUNDATION", "city": "SARATOGA SPGS", "state": "NY", "zip": "12866-2386", "ntee": "T20", "ruling": "201105", "deductibility": "1", "assets": 18807403, "income": 4466534, "revenue": 0}], "M66": [{"ein": "274378922", "name": "M66 FOUNDATION INC", "city": "NEW YORK", "state": "NY", "zip": "10023-0000", "ntee": "T19", "ruling": "201106", "deductibility": "1", "assets": 3146605, "income": 4345282, "revenue": 0}], "MAYNARDA": [{"ein": "276030602", "name": "CLARENCE L AND MAYNARDA L MOORE EDUCATION FUND TR", "city": "PITTSFORD", "state": "NY", "zip": "14534-3838", "ntee": "T22", "ruling": "200907", "deductibility": "1", "assets": 260161, "income": 40696, "revenue": 0}], "ALOUD": [{"ein": "300483850", "name": "CRY ALOUD MINISTRIES", "city": "BRONX", "state": "NY", "zip": "10473-2207", "ntee": "X20", "ruling": "200811", "deductibility": "1", "assets": 0, "income": 0, "revenue": 0}], "CHIAPAS": [{"ein": "320581612", "name": "CHABAD OF CHIAPAS MEXICO INC", "city": "BROOKLYN", "state": "NY", "zip": "11213-4056", "ntee": "X30", "ruling": "201811", "deductibility": "1", "assets": 28651, "income": 99474, "revenue": 99474}], "SKENDERBEJ": [{"ein": "320690255", "name": "SHOQATA SHQIPTARO-AMERIKANE SKENDERBEJ INC", "city": "STATEN ISLAND", "state": "NY", "zip": "10312-2429", "ntee": "A23", "ruling": "202208", "deductibility": "1", "assets": 0, "income": 0, "revenue": 0}, {"ein": "833780733", "name": "ASSOCIATION OF SKENDERBEJ INC", "city": "FOREST HILLS", "state": "NY", "zip": "11375-6359", "ntee": "S20", "ruling": "202109", "deductibility": "1", "assets": 1, "income": 2111, "revenue": 0}], "PAULO": [{"ein": "332813514", "name": "RUN-WALK FOR KATHY&PAULO INC", "city": "NEW YORK", "state": "NY", "zip": "10128-4267", "ntee": "O12", "ruling": "202501", "deductibility": "1", "assets": 0, "income": 0, "revenue": 0}, {"ein": "844147131", "name": "LA PLAZA DE PAULO INC", "city": "RYE", "state": "NY", "zip": "10580-1860", "ntee": "B60", "ruling": "202003", "deductibility": "1", "assets": 0, "income": 0, "revenue": 0}], "MAG": [{"ein": "332869731", "name": "MAG FOUNDATION", "city": "BROOKLYN", "state": "NY", "zip": "11210-4515", "ntee": "T22", "ruling": "202501", "deductibility": "1", "assets": 0, "income": 0, "revenue": 0}, {"ein": "862588256", "name": "NOVEMBER MAG INC", "city": "NEW YORK", "state": "NY", "zip": "10013-9404", "ntee": "A20", "ruling": "202107", "deductibility": "1", "assets": 0, "income": 0, "revenue": 0}], "SUPERFINE": [{"ein": "333133147", "name": "SUPERFINE SYNERGY", "city": "NARROWSBURG", "state": "NY", "zip": "12764-6017", "ntee": "F60", "ruling": "202502", "deductibility": "1", "assets": 0, "income": 0, "revenue": 0}], "SUENOS": [{"ein": "334745955", "name": "MI SUENOS CELESTE", "city": "BRONX", "state": "NY", "zip": "10473-1611", "ntee": "P20", "ruling": "202506", "deductibility": "1", "assets": 0, "income": 0, "revenue": 0}], "ADMINISTRATIONS": [{"ein": "352468463", "name": "COUNCIL OF SCHOOL SUPERVISORS & ADMINISTRATIONS SCHOLARSHIP FUND", "city": "NEW YORK", "state": "NY", "zip": "10006-1729", "ntee": "B82", "ruling": "201408", "deductibility": "1", "assets": 297427, "income": 80489, "revenue": 63959}], "BOCCONI": [{"ein": "364769050", "name": "FRIENDS OF BOCCONI UNIVERSITY INC", "city": "NEW YORK", "state": "NY", "zip": "10022-2524", "ntee": "B11", "ruling": "201408", "deductibility": "1", "assets": 124166, "income": 336499, "revenue": 278876}], "COMMONWISE": [{"ein": "452201993", "name": "COMMONWISE EDUCATION INC", "city": "BRONX", "state": "NY", "zip": "10468-6577", "ntee": "S43", "ruling": "201109", "deductibility": "1", "assets": 529521, "income": 653023, "revenue": 653023}], "SIERVAS": [{"ein": "460739682", "name": "SIERVAS DE CRISTO RESUCITADO INC", "city": "BRONX", "state": "NY", "zip": "10459-2723", "ntee": "", "ruling": "194603", "deductibility": "1", "assets": 78331, "income": 199907, "revenue": 199907}], "FUZEHUB": [{"ein": "463122950", "name": "FUZEHUB INC", "city": "ALBANY", "state": "NY", "zip": "12210-2729", "ntee": "S30", "ruling": "201506", "deductibility": "2", "assets": 3958719, "income": 4500849, "revenue": 4500849}], "ACADEMIA": [{"ein": "463323688", "name": "LA ACADEMIA MUNDIAL BOMBEROS INC", "city": "NEW YORK", "state": "NY", "zip": "10032-2440", "ntee": "P99", "ruling": "201408", "deductibility": "1", "assets": 0, "income": 0, "revenue": 0}, {"ein": "821920694", "name": "ACADEMIA ARGENTINA DE FUTBOL NY CORP", "city": "FRESH MEADOWS", "state": "NY", "zip": "11366-1137", "ntee": "N64", "ruling": "202210", "deductibility": "1", "assets": 3154, "income": 42741, "revenue": 0}, {"ein": "900873900", "name": "ACADEMIA DO BACALHAU DE LONG ISLAND NEW YORK INC", "city": "MINEOLA", "state": "NY", "zip": "11501-3325", "ntee": "B12", "ruling": "201309", "deductibility": "1", "assets": 0, "income": 0, "revenue": 0}], "SAKYA": [{"ein": "464079608", "name": "SAKYA TSECHEN ASSOCIATION INC", "city": "WOODSIDE", "state": "NY", "zip": "11377-2138", "ntee": "X50", "ruling": "202206", "deductibility": "1", "assets": 1796554, "income": 448450, "revenue": 448450}], "ORIGINS": [{"ein": "464648126", "name": "CENTER FOR THE STUDY OF ANCIENT JUDAISM AND CHRISTIAN ORIGINS INC", "city": "SUFFERN", "state": "NY", "zip": "10901-6809", "ntee": "P99", "ruling": "201407", "deductibility": "1", "assets": 131605, "income": 273521, "revenue": 273521}, {"ein": "465653493", "name": "ORIGINS PARTNERSHIP", "city": "HYDE PARK", "state": "NY", "zip": "12538-2304", "ntee": "W70", "ruling": "201503", "deductibility": "1", "assets": 54105, "income": 45711, "revenue": 45711}, {"ein": "934153954", "name": "ORIGINS COMMUNITY FOUNDATION INC", "city": "COOPERSTOWN", "state": "NY", "zip": "13326-0000", "ntee": "S20", "ruling": "202311", "deductibility": "1", "assets": 0, "income": 0, "revenue": 0}], "ENDAM": [{"ein": "464897772", "name": "RENDO ENDAM MEN INC", "city": "BROOKLYN", "state": "NY", "zip": "11210-2915", "ntee": "S99", "ruling": "201807", "deductibility": "1", "assets": 0, "income": 0, "revenue": 0}], "THANOS": [{"ein": "465117937", "name": "THANOS ASSOCIATION OF LIMNOS", "city": "BROOKLYN", "state": "NY", "zip": "11209-4002", "ntee": "", "ruling": "201412", "deductibility": "1", "assets": 22257, "income": 10604, "revenue": 0}], "SUPERMARVELOUS": [{"ein": "472230684", "name": "SUPERMARVELOUS SOCIETY INC", "city": "ARVERNE", "state": "NY", "zip": "11692-1330", "ntee": "P80", "ruling": "201609", "deductibility": "1", "assets": 0, "income": 0, "revenue": 0}], "PROFANA": [{"ein": "474376177", "name": "CANTATA PROFANA INC", "city": "BROOKLYN", "state": "NY", "zip": "11217-3700", "ntee": "A6C", "ruling": "201507", "deductibility": "1", "assets": 0, "income": 0, "revenue": 0}], "SEMINAIRE": [{"ein": "474509863", "name": "EGLISE EMMANUEL ET SEMINAIRE THEOLOGIQUE DE LONG ISLAND", "city": "AMITYVILLE", "state": "NY", "zip": "11701-2704", "ntee": "X20", "ruling": "201907", "deductibility": "1", "assets": 0, "income": 0, "revenue": 0}], "TRANSLATINA": [{"ein": "474807380", "name": "TRANSLATINA NETWORK INC", "city": "NEW YORK", "state": "NY", "zip": "10001-6881", "ntee": "S80", "ruling": "201604", "deductibility": "1", "assets": 5305355, "income": 2150624, "revenue": 2150624}], "BITES": [{"ein": "474954148", "name": "F BITES INC", "city": "BUFFALO", "state": "NY", "zip": "14201-1213", "ntee": "B90", "ruling": "201602", "deductibility": "1", "assets": 264006, "income": 785872, "revenue": 785872}, {"ein": "923673139", "name": "WORK-BITES INC", "city": "BROOKLYN", "state": "NY", "zip": "11218-2772", "ntee": "A30", "ruling": "202312", "deductibility": "1", "assets": 2093, "income": 119391, "revenue": 119391}], "REPERTOIRE": [{"ein": "522274965", "name": "REPERTOIRE INTERNATIONAL DE LITTERATURE MUSICALE INC", "city": "NEW YORK", "state": "NY", "zip": "10016-4309", "ntee": "A33", "ruling": "200109", "deductibility": "1", "assets": 6186015, "income": 4984404, "revenue": 4984404}], "LYMPHATIC": [{"ein": "582404527", "name": "LYMPHATIC EDUCATION & RESEARCH NETWORK INC LE&RN", "city": "NEW YORK", "state": "NY", "zip": "10011-7307", "ntee": "H90", "ruling": "199902", "deductibility": "1", "assets": 4009793, "income": 3061017, "revenue": 1755810}], "STITCH": [{"ein": "611661580", "name": "A STITCH IN TIME NEW YORK INC", "city": "NEW HYDE PARK", "state": "NY", "zip": "11040-0000", "ntee": "Q33", "ruling": "201201", "deductibility": "1", "assets": 0, "income": 0, "revenue": 0}, {"ein": "820848653", "name": "STITCH BUFFALO INC", "city": "BUFFALO", "state": "NY", "zip": "14213-1715", "ntee": "A20", "ruling": "201703", "deductibility": "1", "assets": 949603, "income": 1118733, "revenue": 1118733}, {"ein": "820927081", "name": "UP-STITCH", "city": "ALBANY", "state": "NY", "zip": "12208-3007", "ntee": "C27", "ruling": "201904", "deductibility": "1", "assets": 0, "income": 0, "revenue": 0}, {"ein": "922954875", "name": "ONE STITCH FOUNDATION", "city": "PRT WASHINGTN", "state": "NY", "zip": "11050-0190", "ntee": "P20", "ruling": "202303", "deductibility": "1", "assets": 0, "income": 0, "revenue": 0}], "MANDELL": [{"ein": "650937789", "name": "MANDELL FAMILY FOUNDATION INC", "city": "NEW YORK", "state": "NY", "zip": "10018-0000", "ntee": "T20", "ruling": "199912", "deductibility": "1", "assets": 199043, "income": 33481, "revenue": 0}], "CAPOBIANCO": [{"ein": "651285528", "name": "CAPOBIANCO SCHOLARSHIP FOUNDATION INC", "city": "GLEN COVE", "state": "NY", "zip": "11542-3070", "ntee": "B82", "ruling": "200610", "deductibility": "1", "assets": 57563, "income": 2240, "revenue": 0}], "RIFAI": [{"ein": "680345095", "name": "ISLAMIC SUFI ORDER OF QADIRI RIFAI TARIQA OF THE AMERICAS", "city": "NASSAU", "state": "NY", "zip": "12123-2605", "ntee": "X20Z", "ruling": "199601", "deductibility": "1", "assets": 0, "income": 0, "revenue": 0}], "ISTIJAABATUL": [{"ein": "811883085", "name": "JAMUIYYATUL-ISTIJAABATUL-ALAMIYYAH", "city": "BROOKLYN", "state": "NY", "zip": "11208-5002", "ntee": "X40", "ruling": "201807", "deductibility": "1", "assets": 0, "income": 0, "revenue": 0}], "BRONSON": [{"ein": "812912594", "name": "ALFRED AND LUCILLE BRONSON FOUNDATION INC", "city": "ASTORIA", "state": "NY", "zip": "11103-2671", "ntee": "T20", "ruling": "201703", "deductibility": "1", "assets": 5134454, "income": 1974847, "revenue": 0}], "PLAINSMEN": [{"ein": "814200695", "name": "WP PLAINSMEN HOCKEY CLUB INC", "city": "WHITE PLAINS", "state": "NY", "zip": "10605-4508", "ntee": "N68", "ruling": "202308", "deductibility": "1", "assets": 42067, "income": 93283, "revenue": 93283}], "ROCHFORD": [{"ein": "820922088", "name": "LOIS E ROCHFORD FOUNDATION INC", "city": "BROOKLYN", "state": "NY", "zip": "11212-8029", "ntee": "P20", "ruling": "201704", "deductibility": "1", "assets": 0, "income": 0, "revenue": 0}], "DOGGIE": [{"ein": "822697981", "name": "OPERATION DOGGIE TREATS INC", "city": "SCHENECTADY", "state": "NY", "zip": "12304-2544", "ntee": "D20", "ruling": "201711", "deductibility": "1", "assets": 0, "income": 0, "revenue": 0}, {"ein": "883641552", "name": "DOGGIE TRICKS 4 TREATS INC", "city": "SAUGERTIES", "state": "NY", "zip": "12477-0703", "ntee": "D20", "ruling": "202306", "deductibility": "1", "assets": 0, "income": 0, "revenue": 0}, {"ein": "923993329", "name": "DOGGIE PADDLE FOR VETERANS", "city": "SCHENECTADY", "state": "NY", "zip": "12305-2003", "ntee": "W30", "ruling": "202308", "deductibility": "1", "assets": 0, "income": 0, "revenue": 0}, {"ein": "934838444", "name": "PURPOSE LOVE DOGGIE RESCUE INC", "city": "POUGHKEEPSIE", "state": "NY", "zip": "12603-0000", "ntee": "D20", "ruling": "202401", "deductibility": "1", "assets": 0, "income": 0, "revenue": 0}], "DOLLYS": [{"ein": "823200942", "name": "MARVIN & DOLLYS FRESH START HOUSE INC", "city": "JAMESTOWN", "state": "NY", "zip": "14701-7405", "ntee": "L40", "ruling": "201808", "deductibility": "1", "assets": 0, "income": 0, "revenue": 0}], "PLAYROOM": [{"ein": "823616463", "name": "PLAYROOM COMMUNITY CENTER INC", "city": "POMONA", "state": "NY", "zip": "10970-3519", "ntee": "G84", "ruling": "201906", "deductibility": "1", "assets": 618042, "income": 1557426, "revenue": 1557426}], "HWPL": [{"ein": "823877875", "name": "HEAVENLY CULTURE WORLD PEACE RESTORATION OF LIGHT - HWPL NY", "city": "LONG IS CITY", "state": "NY", "zip": "11101-3906", "ntee": "X90", "ruling": "202401", "deductibility": "1", "assets": 0, "income": 0, "revenue": 0}], "PERACH": [{"ein": "824042221", "name": "BAIS YEHUDA PERACH ROCHEL FOUNDATOIN", "city": "BROOKLYN", "state": "NY", "zip": "11219-2686", "ntee": "W99", "ruling": "201802", "deductibility": "1", "assets": 5327, "income": 117274, "revenue": 0}, {"ein": "853898388", "name": "AMERICAN FRIENDS OF PERACH INC", "city": "BROOKLYN", "state": "NY", "zip": "11219-3011", "ntee": "T30", "ruling": "202111", "deductibility": "1", "assets": 0, "income": 0, "revenue": 0}], "GOJO": [{"ein": "824759756", "name": "GOJO CLAN PRODUCTIONS", "city": "HASTINGS HDSN", "state": "NY", "zip": "10706-3208", "ntee": "A65", "ruling": "201803", "deductibility": "1", "assets": 0, "income": 0, "revenue": 0}], "JEHUS": [{"ein": "831735472", "name": "JEHUS TABLE", "city": "BROOKLYN", "state": "NY", "zip": "11208-4829", "ntee": "", "ruling": "198804", "deductibility": "1", "assets": 0, "income": 0, "revenue": 0}], "EVENINGS": [{"ein": "832327326", "name": "PIANO EVENINGS WITH DAVID DUBAL", "city": "NEW YORK", "state": "NY", "zip": "10001-5923", "ntee": "A68", "ruling": "201907", "deductibility": "1", "assets": 7138, "income": 59803, "revenue": 59803}], "IBOTU": [{"ein": "832748561", "name": "LOCAL 7 IBOTU UMD ILA AFL-CIO", "city": "CARLE PLACE", "state": "NY", "zip": "11514-1748", "ntee": "J40", "ruling": "201912", "deductibility": "2", "assets": 3105786, "income": 4572067, "revenue": 3396743}], "SEESU": [{"ein": "833681599", "name": "KEE SEESU FOUNDATION", "city": "BROOKLYN", "state": "NY", "zip": "11206-5533", "ntee": "T12", "ruling": "201906", "deductibility": "1", "assets": 3769, "income": 3078, "revenue": 0}], "GARVIES": [{"ein": "841684685", "name": "FRIENDS OF GARVIES POINT MUSEUM AND PRESERVE", "city": "GLEN COVE", "state": "NY", "zip": "11542-1765", "ntee": "A115", "ruling": "200606", "deductibility": "1", "assets": 467301, "income": 290989, "revenue": 247326}], "DEMERARA": [{"ein": "841877231", "name": "WEST DEMERARA REUNION ORGANIZATION INC", "city": "BROOKLYN", "state": "NY", "zip": "11213-1331", "ntee": "A12", "ruling": "202001", "deductibility": "1", "assets": 0, "income": 0, "revenue": 0}], "FELIPE": [{"ein": "843257698", "name": "FUNDACION SAN FELIPE FUDSAFE", "city": "NEW YORK", "state": "NY", "zip": "10034-4101", "ntee": "B12", "ruling": "202002", "deductibility": "1", "assets": 0, "income": 0, "revenue": 0}], "VALENS": [{"ein": "843785951", "name": "VITA VALENS FOUNDATION INC", "city": "BROOKLYN", "state": "NY", "zip": "11232-2212", "ntee": "P81", "ruling": "201907", "deductibility": "1", "assets": 391265, "income": 200031, "revenue": 200031}], "FRISCIA": [{"ein": "844034858", "name": "MICHAEL B FRISCIA MEMORIAL SCHOLARSHIP", "city": "BOHEMIA", "state": "NY", "zip": "11716-1512", "ntee": "B82", "ruling": "202003", "deductibility": "1", "assets": 48870, "income": 21573, "revenue": 0}], "NEKI": [{"ein": "844525437", "name": "NEKI CHAPAYIM INC", "city": "BROOKLYN", "state": "NY", "zip": "11219-3178", "ntee": "X30", "ruling": "202402", "deductibility": "1", "assets": 92989, "income": 354945, "revenue": 354945}], "DEPLORABLES": [{"ein": "852346310", "name": "DEPLORABLES INC", "city": "STATEN ISLAND", "state": "NY", "zip": "10308-2737", "ntee": "W12", "ruling": "202406", "deductibility": "1", "assets": 0, "income": 0, "revenue": 0}], "WIRED": [{"ein": "853995307", "name": "WIRED BROADBAND INC", "city": "FOREST HILLS", "state": "NY", "zip": "11375-0401", "ntee": "R01", "ruling": "202108", "deductibility": "1", "assets": 0, "income": 0, "revenue": 0}], "TZUHARI": [{"ein": "854399960", "name": "TZUHARI GLOBAL FOUNDATION", "city": "BROOKLYN", "state": "NY", "zip": "11204-1292", "ntee": "T22", "ruling": "202105", "deductibility": "1", "assets": 1, "income": 1, "revenue": 0}], "BLACKLOVE": [{"ein": "862234129", "name": "BLACKLOVE INC", "city": "BROOKLYN", "state": "NY", "zip": "11226-1959", "ntee": "A20", "ruling": "202112", "deductibility": "1", "assets": 0, "income": 0, "revenue": 0}], "DIOCES": [{"ein": "872358296", "name": "HOLY APOSTOLIC CATHOLIC ASSYRIAN CHURCH OF THE EAST DIOCES", "city": "YONKERS", "state": "NY", "zip": "10701-3528", "ntee": "X22", "ruling": "202203", "deductibility": "1", "assets": 0, "income": 0, "revenue": 0}], "JA": [{"ein": "872464470", "name": "REBECCA ROSE & JA HAUSER SOBRIETY SERVICES INC", "city": "BUFFALO", "state": "NY", "zip": "14206-1421", "ntee": "F20", "ruling": "202410", "deductibility": "1", "assets": 0, "income": 0, "revenue": 0}], "TINGJIANG": [{"ein": "873800338", "name": "US FUZHOU TINGJIANG QIAOZHONG YOUTH FOUNDATION INC", "city": "FLUSHING", "state": "NY", "zip": "11354-3137", "ntee": "A20", "ruling": "202202", "deductibility": "1", "assets": 0, "income": 0, "revenue": 0}], "YESODEINI": [{"ein": "874251380", "name": "YESODEINI INC", "city": "SPRING VALLEY", "state": "NY", "zip": "10977-6225", "ntee": "P20", "ruling": "202207", "deductibility": "1", "assets": 0, "income": 0, "revenue": 0}], "LARIVIERE": [{"ein": "881282090", "name": "ELLIS LARIVIERE FOUNDATION INC", "city": "BROOKLYN", "state": "NY", "zip": "11231-1026", "ntee": "T22", "ruling": "202301", "deductibility": "1", "assets": 8000, "income": 510000, "revenue": 0}], "KOEHN": [{"ein": "912170805", "name": "EDWARD T HABERMANN AND SUSAN B KOEHN FOUNDATION", "city": "WATER MILL", "state": "NY", "zip": "11976-3104", "ntee": "T22", "ruling": "200211", "deductibility": "1", "assets": 724380, "income": 85764, "revenue": 0}], "DAVAO": [{"ein": "920564089", "name": "HIJOS DE DAVAO USA INC", "city": "NEW YORK", "state": "NY", "zip": "10128-3741", "ntee": "P12", "ruling": "202304", "deductibility": "1", "assets": 0, "income": 0, "revenue": 0}], "LIVISTRONG": [{"ein": "921117363", "name": "LIVISTRONG FOUNDATION INC", "city": "WHITESBORO", "state": "NY", "zip": "13492-1222", "ntee": "W12", "ruling": "202301", "deductibility": "1", "assets": 0, "income": 0, "revenue": 0}], "ZAHKA": [{"ein": "922109494", "name": "ZAHKA CHARITY COMMUNITY SERVICES INC", "city": "BRENTWOOD", "state": "NY", "zip": "11717-3515", "ntee": "", "ruling": "202312", "deductibility": "1", "assets": 1, "income": 0, "revenue": 0}], "YOULL": [{"ein": "923082804", "name": "YOULL BE OK TOO", "city": "BETHPAGE", "state": "NY", "zip": "11714-4103", "ntee": "S19", "ruling": "202303", "deductibility": "1", "assets": 0, "income": 0, "revenue": 0}], "MALCOLMX": [{"ein": "992309686", "name": "MALCOLMX UTICA AVENUE MERCHANTS ASSOICATION", "city": "BROOKLYN", "state": "NY", "zip": "11233-1013", "ntee": "S43", "ruling": "202504", "deductibility": "1", "assets": 0, "income": 0, "revenue": 0}], "FORGETMENOTINTL": [{"ein": "994629794", "name": "FORGETMENOTINTL", "city": "PLAINVIEW", "state": "NY", "zip": "11803-1124", "ntee": "P81", "ruling": "202505", "deductibility": "1", "assets": 0, "income": 0, "revenue": 0}], "KOOGI": [{"ein": "995147547", "name": "KOOGI INTERNATIONAL INC", "city": "S SETAUKET", "state": "NY", "zip": "11720-1236", "ntee": "Q30", "ruling": "202412", "deductibility": "1", "assets": 0, "income": 0, "revenue": 0}]}