{"ARM": [{"ein": "010801538", "name": "JESUS HOUSE CHURCH ARM OF THE LIVING WORD MINISTRIES INC", "city": "BROOKLYN", "state": "NY", "zip": "11207-6223", "ntee": "X21", "ruling": "200410", "deductibility": "1", "assets": 0, "income": 0, "revenue": 0}, {"ein": "061607625", "name": "EAST ARM ROWING CLUB INC", "city": "GREENWOOD LK", "state": "NY", "zip": "10925-0301", "ntee": "N67", "ruling": "201809", "deductibility": "1", "assets": 301176, "income": 87185, "revenue": 87185}, {"ein": "141745940", "name": "ARM OF THE SEA PRODUCTIONS INC", "city": "MALDEN HUDSON", "state": "NY", "zip": "12453-0175", "ntee": "", "ruling": "199204", "deductibility": "1", "assets": 402640, "income": 237054, "revenue": 237054}, {"ein": "412268299", "name": "JAMAICA BENEVOLENT ARM & CULTURAL CENTER INC", "city": "BRONX", "state": "NY", "zip": "10466-1136", "ntee": "S20", "ruling": "201809", "deductibility": "1", "assets": 454, "income": 8625, "revenue": 8625}, {"ein": "824488204", "name": "STRONG ARM DELIVERANCE MINISTRIES", "city": "NEW YORK", "state": "NY", "zip": "10039-1910", "ntee": "P20", "ruling": "202203", "deductibility": "1", "assets": 1, "income": 771, "revenue": 771}, {"ein": "912047553", "name": "ST GREGORY ILLMN ARM CHRH BROOKLYN", "city": "NEW YORK", "state": "NY", "zip": "10016-4806", "ntee": "", "ruling": "194909", "deductibility": "1", "assets": 0, "income": 0, "revenue": 0}], "SIGNS": [{"ein": "010973278", "name": "MIRACLES SIGNS AND WONDERS MINISTRIES INTERNATIONAL INC", "city": "BROOKLYN", "state": "NY", "zip": "11203-5905", "ntee": "X21", "ruling": "201107", "deductibility": "1", "assets": 19473, "income": 198723, "revenue": 198723}, {"ein": "332806563", "name": "SIGNS OF SUCCESS FOUNDATION INC", "city": "RYE", "state": "NY", "zip": "10580-1942", "ntee": "B28", "ruling": "202501", "deductibility": "1", "assets": 0, "income": 0, "revenue": 0}, {"ein": "611619603", "name": "WORD DOERS SIGNS AND WONDERS MINISTRIES INC", "city": "BROOKLYN", "state": "NY", "zip": "11236-3316", "ntee": "X20", "ruling": "201104", "deductibility": "1", "assets": 0, "income": 0, "revenue": 0}, {"ein": "611725001", "name": "SIGNS AND WONDERS OF CHRIST MINISTRIES", "city": "VALLEY STREAM", "state": "NY", "zip": "11580-2508", "ntee": "X20", "ruling": "201505", "deductibility": "1", "assets": 0, "income": 0, "revenue": 0}, {"ein": "822965349", "name": "SIGNS AND WONDERS PRAYER HEALING AND DELIVERANCE MINISTRY", "city": "FREEPORT", "state": "NY", "zip": "11520-1219", "ntee": "X20", "ruling": "202111", "deductibility": "1", "assets": 0, "income": 0, "revenue": 0}], "DESTINY": [{"ein": "020582346", "name": "PROPHETIC DESTINY MINISTRY INC", "city": "JOHNSTOWN", "state": "NY", "zip": "12095-0899", "ntee": "X20", "ruling": "200311", "deductibility": "1", "assets": 0, "income": 0, "revenue": 0}, {"ein": "043787439", "name": "REDEEMED CHRISTIAN CHURCH OF GOD DESTINY SANCTUARY FOR ALL NATIONS", "city": "ELMONT", "state": "NY", "zip": "11003-1730", "ntee": "X20", "ruling": "200704", "deductibility": "1", "assets": 0, "income": 0, "revenue": 0}, {"ein": "061726429", "name": "DREAM FOR DESTINY", "city": "ITHACA", "state": "NY", "zip": "14850-9548", "ntee": "P46", "ruling": "200502", "deductibility": "1", "assets": 87535, "income": 125710, "revenue": 0}, {"ein": "112965450", "name": "TRIUMPHANT NEW DESTINY MINISTRIES INC", "city": "BROOKLYN", "state": "NY", "zip": "11221-5122", "ntee": "", "ruling": "199102", "deductibility": "1", "assets": 0, "income": 0, "revenue": 0}, {"ein": "113260174", "name": "PEOPLE OF DESTINY MINISTRIES INTERNATIONAL INC", "city": "BROOKLYN", "state": "NY", "zip": "11203-3114", "ntee": "X20Z", "ruling": "199804", "deductibility": "1", "assets": 0, "income": 0, "revenue": 0}, {"ein": "113307611", "name": "DESTINY WORSHIP CENTER INC", "city": "HOWARD BEACH", "state": "NY", "zip": "11414-2856", "ntee": "X20Z", "ruling": "199705", "deductibility": "1", "assets": 0, "income": 0, "revenue": 0}, {"ein": "113329244", "name": "DESTINY CATHEDRAL INC", "city": "HEMPSTEAD", "state": "NY", "zip": "11550-7622", "ntee": "X20Z", "ruling": "199802", "deductibility": "1", "assets": 1102809, "income": 144391, "revenue": 144391}, {"ein": "113488956", "name": "DESTINY DELIVERANCE MINISTRIES", "city": "BROOKLYN", "state": "NY", "zip": "11226-0000", "ntee": "X20", "ruling": "199909", "deductibility": "1", "assets": 0, "income": 0, "revenue": 0}, {"ein": "133778489", "name": "NEW DESTINY HOUSING CORPORATION", "city": "NEW YORK", "state": "NY", "zip": "10018-7384", "ntee": "L20", "ruling": "199505", "deductibility": "1", "assets": 16061459, "income": 11486854, "revenue": 10789755}, {"ein": "161585279", "name": "NEW DESTINY CHURCH", "city": "ROCHESTER", "state": "NY", "zip": "14611-3611", "ntee": "X21", "ruling": "200010", "deductibility": "1", "assets": 0, "income": 0, "revenue": 0}, {"ein": "161670993", "name": "DESTINY PREPARATION CHURCH INC", "city": "ROCHESTER", "state": "NY", "zip": "14612-3094", "ntee": "X21", "ruling": "200308", "deductibility": "1", "assets": 0, "income": 0, "revenue": 0}, {"ein": "260100892", "name": "DESTINY TEMPLE", "city": "COHOES", "state": "NY", "zip": "12047-4981", "ntee": "X20", "ruling": "200608", "deductibility": "1", "assets": 0, "income": 0, "revenue": 0}, {"ein": "264440841", "name": "THE SCHOOL OF DESTINY", "city": "SCHENECTADY", "state": "NY", "zip": "12308-1009", "ntee": "", "ruling": "196402", "deductibility": "1", "assets": 0, "income": 0, "revenue": 0}, {"ein": "270765644", "name": "DESTINY CHURCH", "city": "BRONX", "state": "NY", "zip": "10472-5110", "ntee": "", "ruling": "196408", "deductibility": "1", "assets": 0, "income": 0, "revenue": 0}, {"ein": "273097425", "name": "REVERSIBLE DESTINY FOUNDATION INC", "city": "BROOKLYN", "state": "NY", "zip": "11205-1072", "ntee": "V20", "ruling": "201103", "deductibility": "1", "assets": 5615534, "income": 6663492, "revenue": 0}, {"ein": "331377597", "name": "WOMEN OF DESTINY ARISE NY INC", "city": "BROOKLYN", "state": "NY", "zip": "11226-5085", "ntee": "S81", "ruling": "202410", "deductibility": "1", "assets": 0, "income": 0, "revenue": 0}, {"ein": "334469833", "name": "HAPPY DESTINY FOUNDATION INC", "city": "NEW CITY", "state": "NY", "zip": "10956-3743", "ntee": "F20", "ruling": "202506", "deductibility": "1", "assets": 0, "income": 0, "revenue": 0}, {"ein": "383885843", "name": "NEW DESTINY CHRISTIAN CHURCH", "city": "BROOKLYN", "state": "NY", "zip": "11216-1407", "ntee": "", "ruling": "195105", "deductibility": "1", "assets": 0, "income": 0, "revenue": 0}, {"ein": "412214968", "name": "DESTINY FOUNDATION", "city": "HUNTINGTON STATION", "state": "NY", "zip": "11746-7507", "ntee": "K30", "ruling": "200612", "deductibility": "1", "assets": 0, "income": 0, "revenue": 0}, {"ein": "452634049", "name": "DESTINY CHRISTIAN SCHOOL", "city": "ROCHESTER", "state": "NY", "zip": "14620-3422", "ntee": "B20", "ruling": "201311", "deductibility": "1", "assets": 0, "income": 0, "revenue": 0}, {"ein": "452799430", "name": "SISTERHOOD OF DESTINY INC", "city": "JAMAICA", "state": "NY", "zip": "11433-3020", "ntee": "P40", "ruling": "201902", "deductibility": "1", "assets": 0, "income": 0, "revenue": 0}, {"ein": "461709913", "name": "WINGS OF DESTINY", "city": "STATEN ISLAND", "state": "NY", "zip": "10312-6417", "ntee": "B99", "ruling": "201503", "deductibility": "1", "assets": 1, "income": 0, "revenue": 0}, {"ein": "471469550", "name": "DIVINE DESTINY KIDZ CENTER INC", "city": "WHEATLEY HTS", "state": "NY", "zip": "11798-1114", "ntee": "O20", "ruling": "202201", "deductibility": "1", "assets": 0, "income": 0, "revenue": 0}, {"ein": "473688718", "name": "DESTINY HOUSE CHRISTIAN CENTER INC", "city": "MASSAPEQUA", "state": "NY", "zip": "11758-5525", "ntee": "X20", "ruling": "201510", "deductibility": "1", "assets": 0, "income": 0, "revenue": 0}, {"ein": "475041364", "name": "DESTINY CARES FOUNDATION", "city": "FLUSHING", "state": "NY", "zip": "11354-5115", "ntee": "T20", "ruling": "201604", "deductibility": "1", "assets": 498182, "income": 364230, "revenue": 0}, {"ein": "611509891", "name": "DESTINY TABERNACLE", "city": "BROOKLYN", "state": "NY", "zip": "11236-4804", "ntee": "", "ruling": "196408", "deductibility": "1", "assets": 0, "income": 0, "revenue": 0}, {"ein": "731688091", "name": "DESTINY CHRISTIAN CENTER ASSEMBLY OF GOD", "city": "SYRACUSE", "state": "NY", "zip": "13208-1636", "ntee": "", "ruling": "196408", "deductibility": "1", "assets": 0, "income": 0, "revenue": 0}, {"ein": "824538015", "name": "DESTINY HELPERS HUMAN SERVICES INC", "city": "NANUET", "state": "NY", "zip": "10954-2610", "ntee": "E90", "ruling": "201905", "deductibility": "1", "assets": 0, "income": 0, "revenue": 0}, {"ein": "830829558", "name": "DESTINY REALIZED EDUCATION ACHIEVEMENT MENTORSHIP SIGMA FOUND", "city": "WHITE PLAINS", "state": "NY", "zip": "10602-8312", "ntee": "B80", "ruling": "202004", "deductibility": "1", "assets": 0, "income": 0, "revenue": 0}, {"ein": "830985822", "name": "DESTINY RESTORATION HUMAN SERVICES INC", "city": "BROOKLYN", "state": "NY", "zip": "11234-1008", "ntee": "P20", "ruling": "201902", "deductibility": "1", "assets": 0, "income": 0, "revenue": 0}, {"ein": "841839581", "name": "BETHEL DESTINY PAVILION HOUSING DEVELOPMENT FUND CORPORATION", "city": "NEW YORK", "state": "NY", "zip": "10035-2707", "ntee": "L20", "ruling": "202006", "deductibility": "1", "assets": 0, "income": 0, "revenue": 0}, {"ein": "842837530", "name": "DESTINY HELPERS OUTREACH INC", "city": "BROOKLYN", "state": "NY", "zip": "11236-3924", "ntee": "P40", "ruling": "201910", "deductibility": "1", "assets": 0, "income": 0, "revenue": 0}, {"ein": "843178846", "name": "DESTINY BOUND INC", "city": "BELLEROSE", "state": "NY", "zip": "11426-2132", "ntee": "P20", "ruling": "202007", "deductibility": "1", "assets": 0, "income": 0, "revenue": 0}, {"ein": "861519227", "name": "NEW DESTINY CHRISTIAN CENTER", "city": "QUEENS", "state": "NY", "zip": "11101-7141", "ntee": "X20", "ruling": "202206", "deductibility": "1", "assets": 0, "income": 0, "revenue": 0}, {"ein": "871266060", "name": "ADOPT A DESTINY INC", "city": "JAMAICA", "state": "NY", "zip": "11434-3950", "ntee": "B82", "ruling": "202201", "deductibility": "1", "assets": 0, "income": 0, "revenue": 0}, {"ein": "873085010", "name": "NEW DESTINY CHURCH AND MINISTRIES", "city": "BROOKLYN", "state": "NY", "zip": "11212-5737", "ntee": "X20", "ruling": "202312", "deductibility": "1", "assets": 0, "income": 0, "revenue": 0}, {"ein": "884147889", "name": "NEW DESTINY CHURCH INC", "city": "YAPHANK", "state": "NY", "zip": "11980-9621", "ntee": "X20", "ruling": "202304", "deductibility": "1", "assets": 0, "income": 0, "revenue": 0}, {"ein": "934528955", "name": "TRUE DESTINY LEADERSHIP LEGACY PROJECT INC", "city": "NEW YORK", "state": "NY", "zip": "10005-0000", "ntee": "O50", "ruling": "202403", "deductibility": "1", "assets": 0, "income": 0, "revenue": 0}, {"ein": "992136571", "name": "DESTINY HOUSE OF MOTHE FOR THE NEEDY INC", "city": "STATEN ISLAND", "state": "NY", "zip": "10303-2009", "ntee": "L41", "ruling": "202404", "deductibility": "1", "assets": 0, "income": 0, "revenue": 0}], "ELMHURST": [{"ein": "020630328", "name": "ELMHURST MEMORIAL LEAGUE INC", "city": "ELMHURST", "state": "NY", "zip": "11373-3445", "ntee": "A99", "ruling": "201002", "deductibility": "1", "assets": 0, "income": 117737, "revenue": 70471}, {"ein": "111879800", "name": "AUXILIARY OF CITY HOSPITAL AT ELMHURST", "city": "ELMHURST", "state": "NY", "zip": "11373-1329", "ntee": "", "ruling": "195504", "deductibility": "1", "assets": 403915, "income": 713000, "revenue": 255347}, {"ein": "111976425", "name": "ELMHURST BAPTIST CHURCH", "city": "ELMHURST", "state": "NY", "zip": "11373-3404", "ntee": "", "ruling": "195504", "deductibility": "1", "assets": 0, "income": 0, "revenue": 0}, {"ein": "112050254", "name": "EAST ELMHURST CORONA CIVIC ASSOCIATION INC", "city": "EAST ELMHURST", "state": "NY", "zip": "11369-0065", "ntee": "T30", "ruling": "201605", "deductibility": "1", "assets": 7592, "income": 106296, "revenue": 63194}, {"ein": "112228514", "name": "LIBRARY ACTION COMMITTEE OF CORONA EAST ELMHURST", "city": "CORONA", "state": "NY", "zip": "11368-1038", "ntee": "", "ruling": "198312", "deductibility": "1", "assets": 6483, "income": 26870, "revenue": 26870}, {"ein": "112563044", "name": "ELMHURST MUSLIM SOCIETY INC", "city": "ELMHURST", "state": "NY", "zip": "11373-1428", "ntee": "", "ruling": "198110", "deductibility": "1", "assets": 0, "income": 0, "revenue": 0}, {"ein": "113190583", "name": "COMMUNITIES OF MASPETH-ELMHURST TOGETHER INC", "city": "MASPETH", "state": "NY", "zip": "11378-1445", "ntee": "I20Z", "ruling": "199812", "deductibility": "1", "assets": 0, "income": 0, "revenue": 0}, {"ein": "113318004", "name": "ELMHURST ISLAMIC CENTER INC", "city": "ELMHURST", "state": "NY", "zip": "11373-4421", "ntee": "X50Z", "ruling": "199701", "deductibility": "1", "assets": 1432365, "income": 230669, "revenue": 230669}, {"ein": "113381283", "name": "ELMHURST CHRISTIAN GOSPEL CHURCH", "city": "ELMHURST", "state": "NY", "zip": "11373-4046", "ntee": "X20", "ruling": "200410", "deductibility": "1", "assets": 0, "income": 0, "revenue": 0}, {"ein": "116105238", "name": "ELMHURST JEWISH CENTER INC", "city": "RICHMOND HILL", "state": "NY", "zip": "11418-1316", "ntee": "", "ruling": "195211", "deductibility": "1", "assets": 0, "income": 0, "revenue": 0}, {"ein": "270849264", "name": "ELMHURST MUSLIM CENTER INC", "city": "ELMHURST", "state": "NY", "zip": "11373-3057", "ntee": "X99", "ruling": "201207", "deductibility": "1", "assets": 994991, "income": 105461, "revenue": 105461}, {"ein": "352380057", "name": "EAST ELMHURST JAME-E MASJID & MUSLIM CENTER INC", "city": "EAST ELMHURST", "state": "NY", "zip": "11369-1231", "ntee": "X40", "ruling": "201504", "deductibility": "1", "assets": 0, "income": 0, "revenue": 0}, {"ein": "820570675", "name": "ELMHURST COMMUNITY SERVICES INC", "city": "ELMHURST", "state": "NY", "zip": "11373-3901", "ntee": "S20", "ruling": "200305", "deductibility": "1", "assets": 25671, "income": 1250, "revenue": 0}, {"ein": "821513220", "name": "ELMHURST HISTORY AND CEMETERIES PRESERVATION SOCIETY", "city": "QUEENS", "state": "NY", "zip": "11362-1280", "ntee": "A80", "ruling": "201803", "deductibility": "1", "assets": 0, "income": 0, "revenue": 0}], "ZION": [{"ein": "020789235", "name": "CONGREGATION ZION D C C", "city": "BROOKLYN", "state": "NY", "zip": "11219-3621", "ntee": "X30", "ruling": "200801", "deductibility": "1", "assets": 0, "income": 0, "revenue": 0}, {"ein": "043186198", "name": "MT ZION INC", "city": "BRUSTON", "state": "NY", "zip": "12916-9769", "ntee": "", "ruling": "199308", "deductibility": "1", "assets": 0, "income": 0, "revenue": 0}, {"ein": "043698619", "name": "FREEDOM O DAUGHTER OF ZION", "city": "HAUPPAUGE", "state": "NY", "zip": "11788-2208", "ntee": "F192", "ruling": "201409", "deductibility": "1", "assets": 0, "income": 0, "revenue": 0}, {"ein": "063012879", "name": "CONGREGATION SHAAREY ZION", "city": "BROOKLYN", "state": "NY", "zip": "11229-1101", "ntee": "", "ruling": "198003", "deductibility": "1", "assets": 0, "income": 0, "revenue": 0}, {"ein": "111633483", "name": "ZION CHURCH", "city": "DOUGLASTON", "state": "NY", "zip": "11363-0000", "ntee": "", "ruling": "197206", "deductibility": "1", "assets": 0, "income": 0, "revenue": 0}, {"ein": "111735956", "name": "SHAARE ZION CONGREGATION", "city": "BROOKLYN", "state": "NY", "zip": "11223-4045", "ntee": "", "ruling": "199402", "deductibility": "1", "assets": 0, "income": 0, "revenue": 0}, {"ein": "111735960", "name": "TEMPLE GATES OF ZION", "city": "W HEMPSTEAD", "state": "NY", "zip": "11552-3425", "ntee": "", "ruling": "196002", "deductibility": "1", "assets": 0, "income": 0, "revenue": 0}, {"ein": "111753991", "name": "BOBOVER YESHIVAH BNEI ZION", "city": "BKLYN", "state": "NY", "zip": "11219-1512", "ntee": "", "ruling": "195105", "deductibility": "1", "assets": 0, "income": 0, "revenue": 0}, {"ein": "111988253", "name": "ZION BAPTIST CHURCH", "city": "BROOKLYN", "state": "NY", "zip": "11238-2724", "ntee": "", "ruling": "195504", "deductibility": "1", "assets": 0, "income": 0, "revenue": 0}, {"ein": "112202774", "name": "RABBINICAL COLLEGE BOBOVER YESHIVA BNEI ZION", "city": "BROOKLYN", "state": "NY", "zip": "11219-3250", "ntee": "X30Z", "ruling": "199608", "deductibility": "1", "assets": 0, "income": 0, "revenue": 0}, {"ein": "112288765", "name": "BNOS ZION OF BOBOV INC", "city": "BROOKLYN", "state": "NY", "zip": "11219-3621", "ntee": "", "ruling": "197502", "deductibility": "1", "assets": 0, "income": 0, "revenue": 0}, {"ein": "112330124", "name": "BROOKLYN BEDFORD ZION CHURCH OF THE NAZARENE", "city": "BROOKLYN", "state": "NY", "zip": "11238-2705", "ntee": "", "ruling": "196307", "deductibility": "1", "assets": 0, "income": 0, "revenue": 0}, {"ein": "112419185", "name": "ZION SHILOH BAPTIST CHURCH", "city": "BROOKLYN", "state": "NY", "zip": "11205-3304", "ntee": "", "ruling": "197707", "deductibility": "1", "assets": 0, "income": 0, "revenue": 0}, {"ein": "112425345", "name": "SHAAREI ZION C O SHULEMAN WEIDER", "city": "BROOKLYN", "state": "NY", "zip": "11206-4955", "ntee": "", "ruling": "197707", "deductibility": "1", "assets": 0, "income": 0, "revenue": 0}, {"ein": "112455243", "name": "ZION CHRISTIAN CHURCH", "city": "FLUSHING", "state": "NY", "zip": "11352-0571", "ntee": "", "ruling": "198501", "deductibility": "1", "assets": 0, "income": 0, "revenue": 0}, {"ein": "112461817", "name": "MOUNT ZION OF BETH-EL HOLINESS CHURCH INC", "city": "HEMPSTEAD", "state": "NY", "zip": "11550-7419", "ntee": "", "ruling": "197808", "deductibility": "1", "assets": 0, "income": 0, "revenue": 0}, {"ein": "112462933", "name": "CHOMAT ZION INC", "city": "BROOKLYN", "state": "NY", "zip": "11229-4304", "ntee": "X30", "ruling": "202405", "deductibility": "1", "assets": 0, "income": 0, "revenue": 0}, {"ein": "112513244", "name": "ZION TABERNACLE FIRE BAPTIZED HOLINESS CHURCH OF GOD OF AMERICA", "city": "OZONE PARK", "state": "NY", "zip": "11417-2320", "ntee": "", "ruling": "198701", "deductibility": "1", "assets": 0, "income": 0, "revenue": 0}, {"ein": "112547298", "name": "ZION HOUSE OF WORSHIP", "city": "S OZONE PARK", "state": "NY", "zip": "11420-2014", "ntee": "", "ruling": "198101", "deductibility": "1", "assets": 0, "income": 0, "revenue": 0}, {"ein": "112559799", "name": "CHURCH OF GOD AND PILLAR OF ZION CHURCH", "city": "CENTRAL ISLIP", "state": "NY", "zip": "11722-0391", "ntee": "", "ruling": "198104", "deductibility": "1", "assets": 0, "income": 0, "revenue": 0}, {"ein": "112575751", "name": "AMIDEI ZION OF BOBOV INC", "city": "BROOKLYN", "state": "NY", "zip": "11219-3250", "ntee": "", "ruling": "198112", "deductibility": "1", "assets": 0, "income": 0, "revenue": 0}, {"ein": "112594765", "name": "HADAR ZION INC", "city": "BROOKLYN", "state": "NY", "zip": "11204-1228", "ntee": "", "ruling": "198204", "deductibility": "1", "assets": 0, "income": 0, "revenue": 0}, {"ein": "112612506", "name": "ZION GOSPEL CHURCH", "city": "COPIAGUE", "state": "NY", "zip": "11726-1145", "ntee": "", "ruling": "198402", "deductibility": "1", "assets": 47490, "income": 134794, "revenue": 134794}, {"ein": "112627625", "name": "TIFERATH BRAI ZION INC", "city": "BROOKLYN", "state": "NY", "zip": "11210-3734", "ntee": "", "ruling": "198311", "deductibility": "1", "assets": 0, "income": 0, "revenue": 0}, {"ein": "112692747", "name": "ZION GOSPEL CHURCH OF THE APOSTIC INC", "city": "JAMAICA", "state": "NY", "zip": "11433-3811", "ntee": "X20", "ruling": "200811", "deductibility": "1", "assets": 0, "income": 0, "revenue": 0}, {"ein": "112725614", "name": "SHAW TEMPLE AME ZION CHURCH", "city": "AMITYVILLE", "state": "NY", "zip": "11701-2539", "ntee": "", "ruling": "199409", "deductibility": "1", "assets": 0, "income": 0, "revenue": 0}, {"ein": "112800763", "name": "ZION ORPHAN HOME", "city": "BROOKLYN", "state": "NY", "zip": "11219-0430", "ntee": "", "ruling": "198811", "deductibility": "1", "assets": 16054, "income": 141182, "revenue": 0}, {"ein": "112874574", "name": "GREATER ZION DELIVERANCE TABERNACLE INC", "city": "JAMAICA", "state": "NY", "zip": "11433-1326", "ntee": "X20", "ruling": "199906", "deductibility": "1", "assets": 0, "income": 0, "revenue": 0}, {"ein": "112894209", "name": "LITTLE MT ZION BAPTIST CHURCH INC", "city": "BROOKLYN", "state": "NY", "zip": "11216-1503", "ntee": "X21", "ruling": "200501", "deductibility": "1", "assets": 0, "income": 0, "revenue": 0}, {"ein": "112911165", "name": "MT ZION BAPTIST CHURCH OF JAMAICA QUEENS COUNTY NEW YORK", "city": "JAMAICA", "state": "NY", "zip": "11433-2109", "ntee": "X21", "ruling": "200311", "deductibility": "1", "assets": 0, "income": 0, "revenue": 0}, {"ein": "112965782", "name": "ZION PRESBYTERIAN KOREAN CHURCH", "city": "FLUSHING", "state": "NY", "zip": "11358-3107", "ntee": "", "ruling": "199102", "deductibility": "1", "assets": 0, "income": 0, "revenue": 0}, {"ein": "112996507", "name": "ZION APOSTOLIC CHURCH INC", "city": "BROOKLYN", "state": "NY", "zip": "11203-5009", "ntee": "", "ruling": "199307", "deductibility": "1", "assets": 0, "income": 0, "revenue": 0}, {"ein": "113025346", "name": "OLD MOUNT ZION BAPTIST CHURCH INC", "city": "BROOKLYN", "state": "NY", "zip": "11221-3508", "ntee": "", "ruling": "199301", "deductibility": "1", "assets": 0, "income": 0, "revenue": 0}, {"ein": "113033614", "name": "BENE SHAARE ZION", "city": "BROOKLYN", "state": "NY", "zip": "11210-3714", "ntee": "", "ruling": "199103", "deductibility": "1", "assets": 0, "income": 0, "revenue": 0}, {"ein": "113062761", "name": "LE ZION B RINA INC", "city": "BROOKLYN", "state": "NY", "zip": "11219-1501", "ntee": "Q710", "ruling": "199202", "deductibility": "1", "assets": 22786, "income": 102997, "revenue": 102997}, {"ein": "113081327", "name": "ASSEMBLY OF ZION INC", "city": "JAMAICA", "state": "NY", "zip": "11436-1632", "ntee": "X21", "ruling": "200310", "deductibility": "1", "assets": 0, "income": 0, "revenue": 0}, {"ein": "113102713", "name": "MOSDOS BNEI ZION", "city": "LIVINGSTN MNR", "state": "NY", "zip": "12758-5541", "ntee": "", "ruling": "199304", "deductibility": "1", "assets": 0, "income": 0, "revenue": 0}, {"ein": "113130929", "name": "MOUNT OLIVE ZION CHRIST CHURCH INC", "city": "BROOKLYN", "state": "NY", "zip": "11226-1448", "ntee": "X20Z", "ruling": "199505", "deductibility": "1", "assets": 0, "income": 0, "revenue": 0}, {"ein": "113133004", "name": "ZION PRESBYTERIAN CHURCH", "city": "BROOKLYN", "state": "NY", "zip": "11220-1303", "ntee": "", "ruling": "198205", "deductibility": "1", "assets": 0, "income": 0, "revenue": 0}, {"ein": "113140630", "name": "MT ZION BAPTIST CHURCH OF BENSONHURST", "city": "BENSONHURST", "state": "NY", "zip": "11214-4646", "ntee": "", "ruling": "199308", "deductibility": "1", "assets": 0, "income": 0, "revenue": 0}, {"ein": "113183560", "name": "THE CHURCH OF THE CHILDREN OF ZION", "city": "BROOKLYN", "state": "NY", "zip": "11203-3101", "ntee": "X20", "ruling": "201603", "deductibility": "1", "assets": 0, "income": 0, "revenue": 0}, {"ein": "113188710", "name": "MT ZION CHURCH OF GOD-7TH DAY", "city": "BROOKLYN", "state": "NY", "zip": "11203-2807", "ntee": "", "ruling": "199403", "deductibility": "1", "assets": 0, "income": 0, "revenue": 0}, {"ein": "113192715", "name": "SHAARE ZION OF GREAT NECK CORP", "city": "GREAT NECK", "state": "NY", "zip": "11021-1102", "ntee": "X30Z", "ruling": "199501", "deductibility": "1", "assets": 0, "income": 0, "revenue": 0}, {"ein": "113211670", "name": "ZION HOUSE OF PRAYER INC", "city": "BROOKLYN", "state": "NY", "zip": "11216-1851", "ntee": "X20Z", "ruling": "199804", "deductibility": "1", "assets": 0, "income": 0, "revenue": 0}, {"ein": "113247485", "name": "MT FAITH ZION CHURCH", "city": "BROOKLYN", "state": "NY", "zip": "11225-3008", "ntee": "X99Z", "ruling": "199704", "deductibility": "1", "assets": 0, "income": 0, "revenue": 0}, {"ein": "113269211", "name": "LIGHT EVERLASTING CHURCH MINISTRIES CHERUBIM & SERAPHIM MOUNT ZION", "city": "BROOKLYN", "state": "NY", "zip": "11221-4302", "ntee": "X20Z", "ruling": "199509", "deductibility": "1", "assets": 0, "income": 0, "revenue": 0}, {"ein": "113283924", "name": "MT ZION PENTECOSTAL HOLINESS CHURCH INC", "city": "BROOKLYN", "state": "NY", "zip": "11207-1611", "ntee": "X20Z", "ruling": "199602", "deductibility": "1", "assets": 0, "income": 0, "revenue": 0}, {"ein": "113318491", "name": "BROWNSVILLE A M E ZION CHURCH INC", "city": "BROOKLYN", "state": "NY", "zip": "11212-6860", "ntee": "X20I", "ruling": "199801", "deductibility": "1", "assets": 0, "income": 0, "revenue": 0}, {"ein": "113333530", "name": "ZION DELIVERANCE TEMPLE INC", "city": "BROOKLYN", "state": "NY", "zip": "11233-2304", "ntee": "X20Z", "ruling": "199803", "deductibility": "1", "assets": 0, "income": 0, "revenue": 0}, {"ein": "113341633", "name": "WILLIAMSBURG AFRICAN METHODIST EPISCOPAL ZION CHURCH", "city": "BROOKLYN", "state": "NY", "zip": "11221-4013", "ntee": "X21Z", "ruling": "199709", "deductibility": "1", "assets": 0, "income": 0, "revenue": 0}, {"ein": "113392783", "name": "CONGREGATION MENACHEM ZION YOTZEI RUSSIA INC", "city": "BROOKLYN", "state": "NY", "zip": "11219-1737", "ntee": "X30Z", "ruling": "199808", "deductibility": "1", "assets": 0, "income": 0, "revenue": 0}, {"ein": "113410526", "name": "CONGREGATION TIFERES ZION OF VYELIPOL INC", "city": "BROOKLYN", "state": "NY", "zip": "11210-2845", "ntee": "X30", "ruling": "199907", "deductibility": "1", "assets": 0, "income": 0, "revenue": 0}, {"ein": "113436513", "name": "RUSH TEMPLE AFRICAN METHODIST EPISTICLE ZION CHURCH", "city": "JAMAICA", "state": "NY", "zip": "11434-2027", "ntee": "X21", "ruling": "200112", "deductibility": "1", "assets": 0, "income": 0, "revenue": 0}, {"ein": "113444401", "name": "ZION SACRED HEART SABBATH CHURCH", "city": "BROOKLYN", "state": "NY", "zip": "11203-5812", "ntee": "X20", "ruling": "199912", "deductibility": "1", "assets": 0, "income": 0, "revenue": 0}, {"ein": "113491025", "name": "GATE OF ZION MINISTRIES", "city": "VALLEY STREAM", "state": "NY", "zip": "11581-2510", "ntee": "X21", "ruling": "199911", "deductibility": "1", "assets": 0, "income": 0, "revenue": 0}, {"ein": "113493402", "name": "MT ZION TEMPLE APOSTOLIC CHURCH", "city": "ROOSEVELT", "state": "NY", "zip": "11575-2338", "ntee": "T21", "ruling": "200007", "deductibility": "1", "assets": 0, "income": 0, "revenue": 0}, {"ein": "113497541", "name": "WOODHAVEN CHINESE ZION CHURCH", "city": "WOODHAVEN", "state": "NY", "zip": "11421-1131", "ntee": "X20", "ruling": "201502", "deductibility": "1", "assets": 0, "income": 0, "revenue": 0}, {"ein": "113531675", "name": "ZION CHRISTIAN MINISTRIES INC", "city": "JAMAICA", "state": "NY", "zip": "11432-3315", "ntee": "X21", "ruling": "200103", "deductibility": "1", "assets": 0, "income": 0, "revenue": 0}, {"ein": "113533978", "name": "MOSDOS SHAAREI ZION", "city": "BROOKLYN", "state": "NY", "zip": "11210-5422", "ntee": "X30", "ruling": "200006", "deductibility": "1", "assets": 0, "income": 0, "revenue": 0}, {"ein": "113564355", "name": "THE STONE IN ZION GOSPEL TEMPLE OF PRAYER", "city": "KEW GARDENS", "state": "NY", "zip": "11415-1162", "ntee": "X21", "ruling": "201206", "deductibility": "1", "assets": 0, "income": 0, "revenue": 0}, {"ein": "113618267", "name": "DAUGHTERS OF ZION INTERNATIONAL MINISTRIES INC WARRIORS FOR CHRIST", "city": "WESTBURY", "state": "NY", "zip": "11590-0806", "ntee": "X21", "ruling": "200306", "deductibility": "1", "assets": 0, "income": 0, "revenue": 0}, {"ein": "113667451", "name": "HATIKVA THE HOPE OF ZION MINISTRIES INC", "city": "E PATCHOGUE", "state": "NY", "zip": "11772-4223", "ntee": "X30", "ruling": "200309", "deductibility": "1", "assets": 0, "income": 0, "revenue": 0}, {"ein": "113833925", "name": "ZION EVANGELICAL LUTHERAN CHURCH", "city": "NEW YORK", "state": "NY", "zip": "10022-4613", "ntee": "", "ruling": "198804", "deductibility": "1", "assets": 0, "income": 0, "revenue": 0}, {"ein": "116003010", "name": "BOBOWER SHA-ARE ZION CONG", "city": "BROOKLYN", "state": "NY", "zip": "11219-3250", "ntee": "", "ruling": "198201", "deductibility": "1", "assets": 0, "income": 0, "revenue": 0}, {"ein": "116030466", "name": "JACKSON MEMORIAL AFRICAN METHODIST EPISCOPAL ZION CHURCH", "city": "HEMPSTEAD", "state": "NY", "zip": "11550-4205", "ntee": "", "ruling": "198608", "deductibility": "1", "assets": 0, "income": 0, "revenue": 0}, {"ein": "116049402", "name": "SONS & DAUGHTERS OF ZION PENTACOSTAL CHURCH OF THE APOSTOLI", "city": "BROOKLYN", "state": "NY", "zip": "11221-2108", "ntee": "", "ruling": "196610", "deductibility": "1", "assets": 0, "income": 0, "revenue": 0}, {"ein": "118098050", "name": "MT ZION BAPTIST CHURCH", "city": "BROOKLYN", "state": "NY", "zip": "11233-4415", "ntee": "", "ruling": "199208", "deductibility": "1", "assets": 0, "income": 62020, "revenue": 48725}, {"ein": "131655254", "name": "MOTHER A M E ZION CHURCH", "city": "NEW YORK", "state": "NY", "zip": "10027-1785", "ntee": "X20Z", "ruling": "199711", "deductibility": "1", "assets": 0, "income": 0, "revenue": 0}, {"ein": "131813820", "name": "MT ZION LUTHERN CHURCH", "city": "NEW YORK", "state": "NY", "zip": "10031-5203", "ntee": "", "ruling": "194107", "deductibility": "1", "assets": 0, "income": 0, "revenue": 0}, {"ein": "131976476", "name": "AME ZION CHURCH-BOARD OF FOREIGN MISSIONS", "city": "NEW YORK", "state": "NY", "zip": "10115-0002", "ntee": "", "ruling": "196903", "deductibility": "1", "assets": 0, "income": 0, "revenue": 0}, {"ein": "132572288", "name": "BNAI ZION FOUNDATION INC", "city": "NEW YORK", "state": "NY", "zip": "10003-1502", "ntee": "Q300", "ruling": "195306", "deductibility": "1", "assets": 17883977, "income": 4900309, "revenue": 4900309}, {"ein": "132795194", "name": "AME ZION TRINITY HOUSING DEVELOPMENT FUND CO INC", "city": "POUGHKEEPSIE", "state": "NY", "zip": "12601-0000", "ntee": "L20", "ruling": "200206", "deductibility": "1", "assets": 14118920, "income": 4234004, "revenue": 4234004}, {"ein": "132909883", "name": "SECOND ZION BAPTIST CHURCH", "city": "BRONX", "state": "NY", "zip": "10459-2801", "ntee": "", "ruling": "197711", "deductibility": "1", "assets": 0, "income": 0, "revenue": 0}, {"ein": "133082088", "name": "AMERICAN FRIENDS OF THE BNAI ZION MEDICAL CENTER", "city": "NEW YORK", "state": "NY", "zip": "10018-3352", "ntee": "E22I", "ruling": "198109", "deductibility": "2", "assets": 0, "income": 0, "revenue": 0}, {"ein": "133108778", "name": "MOUNT ZION HOUSE OF PRAYER", "city": "NEW ROCHELLE", "state": "NY", "zip": "10801-3411", "ntee": "X20", "ruling": "200307", "deductibility": "1", "assets": 0, "income": 0, "revenue": 0}, {"ein": "133119118", "name": "AMERICAN FRIENDS OF NEVEH ZION", "city": "BROOKLYN", "state": "NY", "zip": "11210-4824", "ntee": "X110", "ruling": "198208", "deductibility": "1", "assets": 86537, "income": 1245589, "revenue": 1245589}, {"ein": "133240953", "name": "ZION LUTHERAN PRESCHOOL", "city": "STATEN ISLAND", "state": "NY", "zip": "10314-1903", "ntee": "", "ruling": "196111", "deductibility": "1", "assets": 0, "income": 0, "revenue": 0}, {"ein": "133382007", "name": "NEW ZION PILGRIM BAPTIST CHURCH", "city": "BRONX", "state": "NY", "zip": "10456-2338", "ntee": "", "ruling": "195504", "deductibility": "1", "assets": 0, "income": 0, "revenue": 0}, {"ein": "133507801", "name": "ZION ST MARK EVANGELICAL LUTHERAN CHURCH", "city": "NEW YORK", "state": "NY", "zip": "10028-2903", "ntee": "", "ruling": "198804", "deductibility": "1", "assets": 0, "income": 0, "revenue": 0}, {"ein": "133560448", "name": "THE ETERNAL SACRED ORDER OF THE CHERUBIM & SERAPHIM CHURCH-MT ZION", "city": "BRONX", "state": "NY", "zip": "10452-6104", "ntee": "", "ruling": "199010", "deductibility": "1", "assets": 0, "income": 0, "revenue": 0}, {"ein": "133570165", "name": "CONGREGATION MENACHEM ZION", "city": "SPRING VALLEY", "state": "NY", "zip": "10977-2027", "ntee": "", "ruling": "199008", "deductibility": "1", "assets": 0, "income": 0, "revenue": 0}, {"ein": "133602920", "name": "MOUNT HOPE A M E ZION CHURCH", "city": "WHITE PLAINS", "state": "NY", "zip": "10604-2420", "ntee": "", "ruling": "200012", "deductibility": "1", "assets": 0, "income": 0, "revenue": 0}, {"ein": "133619317", "name": "ZION HOPE BAPTIST CHURCH INC", "city": "NEW YORK", "state": "NY", "zip": "10035-1618", "ntee": "", "ruling": "199209", "deductibility": "1", "assets": 0, "income": 0, "revenue": 0}, {"ein": "133732877", "name": "ZION CELESTIAL CITY APOSTOLIC TEMPLE SPIRITUAL BAPTIST CHURCH", "city": "NEW YORK", "state": "NY", "zip": "10027-5636", "ntee": "", "ruling": "199404", "deductibility": "1", "assets": 0, "income": 0, "revenue": 0}, {"ein": "133758844", "name": "THE WAY TO ZION CHRISTIAN CHURCH INC", "city": "BRONX", "state": "NY", "zip": "10469-1317", "ntee": "", "ruling": "199409", "deductibility": "1", "assets": 0, "income": 0, "revenue": 0}, {"ein": "133768680", "name": "GRAND AVENUE MT ZION CHURCH INC", "city": "BRONX", "state": "NY", "zip": "10453-7706", "ntee": "X20Z", "ruling": "199803", "deductibility": "1", "assets": 0, "income": 0, "revenue": 0}, {"ein": "133781976", "name": "ROSSVILLE A M E ZION CHURCH", "city": "STATEN ISLAND", "state": "NY", "zip": "10309-2009", "ntee": "X21", "ruling": "200503", "deductibility": "1", "assets": 0, "income": 0, "revenue": 0}, {"ein": "133795193", "name": "MOUNT ZION SANCTUARY OF ROCKLAND COUNTY", "city": "SPRING VALLEY", "state": "NY", "zip": "10977-0000", "ntee": "X20I", "ruling": "199706", "deductibility": "1", "assets": 0, "income": 0, "revenue": 0}, {"ein": "133807181", "name": "ST MARY OF ZION ETHIOPIAN ORTHODOX TEWAHEDO CHURCH", "city": "YONKERS", "state": "NY", "zip": "10703-3261", "ntee": "X30Z", "ruling": "199508", "deductibility": "1", "assets": 0, "income": 0, "revenue": 0}, {"ein": "133817717", "name": "FIRST NEW ZION BAPTIST CHURCH INC", "city": "BRONX", "state": "NY", "zip": "10454-0715", "ntee": "X20Z", "ruling": "199509", "deductibility": "1", "assets": 0, "income": 0, "revenue": 0}, {"ein": "133914699", "name": "HOLY MOUNT ZION CHURCH", "city": "MOUNT VERNON", "state": "NY", "zip": "10553-1907", "ntee": "X20", "ruling": "200301", "deductibility": "1", "assets": 0, "income": 0, "revenue": 0}, {"ein": "133976120", "name": "ST PAULS AFRICAN METHODIST EPISCOPAL ZION CHURCH", "city": "SPRING VALLEY", "state": "NY", "zip": "10977-3857", "ntee": "X21", "ruling": "200706", "deductibility": "1", "assets": 0, "income": 0, "revenue": 0}, {"ein": "134171987", "name": "CALDWELL A M E ZION CHURCH", "city": "BRONX", "state": "NY", "zip": "10459-1703", "ntee": "X20", "ruling": "200602", "deductibility": "1", "assets": 0, "income": 0, "revenue": 0}, {"ein": "135626348", "name": "ZION ORPHANAGE INC", "city": "BROOKLYN", "state": "NY", "zip": "11230-6116", "ntee": "Q330", "ruling": "196107", "deductibility": "1", "assets": 70992, "income": 1157100, "revenue": 1157100}, {"ein": "136272677", "name": "ZION HILL PENTECOSTAL CHURCH", "city": "BRONX", "state": "NY", "zip": "10456-6755", "ntee": "", "ruling": "196805", "deductibility": "1", "assets": 0, "income": 0, "revenue": 0}, {"ein": "141409841", "name": "ZION LUTHERAN CHURCH", "city": "SCHENECTADY", "state": "NY", "zip": "12308-3130", "ntee": "", "ruling": "194107", "deductibility": "1", "assets": 0, "income": 0, "revenue": 0}, {"ein": "141422076", "name": "ZION EVANGELICAL LUTHERAN CHURCH", "city": "COBLESKILL", "state": "NY", "zip": "12043-3823", "ntee": "", "ruling": "198804", "deductibility": "1", "assets": 0, "income": 0, "revenue": 0}, {"ein": "150626177", "name": "ZION EVANGELICAL LUTHERAN CHURCH", "city": "NEW HARTFORD", "state": "NY", "zip": "13413-1014", "ntee": "", "ruling": "198804", "deductibility": "1", "assets": 0, "income": 0, "revenue": 0}, {"ein": "160842302", "name": "ZION EVANGELICAL LUTHERAN CHURCH 11 PORTER AVE", "city": "SILVER CREEK", "state": "NY", "zip": "14136-1649", "ntee": "", "ruling": "198804", "deductibility": "1", "assets": 0, "income": 0, "revenue": 0}, {"ein": "160866072", "name": "ZION LUTHERAN CHURCH", "city": "GENEVA", "state": "NY", "zip": "14456-3241", "ntee": "", "ruling": "198804", "deductibility": "1", "assets": 0, "income": 0, "revenue": 0}, {"ein": "161163570", "name": "ZION EVANGELICAL LUTHERAN CHURCH", "city": "FREWSBURG", "state": "NY", "zip": "14738-0000", "ntee": "", "ruling": "198804", "deductibility": "1", "assets": 0, "income": 0, "revenue": 0}, {"ein": "161168981", "name": "ZION FELLOWSHIP", "city": "CANANDAIGUA", "state": "NY", "zip": "14424-8342", "ntee": "", "ruling": "198403", "deductibility": "1", "assets": 0, "income": 0, "revenue": 0}, {"ein": "161222639", "name": "ST LUKE AME ZION CHURCH", "city": "BUFFALO", "state": "NY", "zip": "14208-1505", "ntee": "X20", "ruling": "200506", "deductibility": "1", "assets": 0, "income": 0, "revenue": 0}, {"ein": "161341423", "name": "DURHAM MEMORIAL A M E ZION CHURCH", "city": "BUFFALO", "state": "NY", "zip": "14204-1717", "ntee": "X21", "ruling": "199909", "deductibility": "1", "assets": 0, "income": 0, "revenue": 0}, {"ein": "161349383", "name": "SONG OF ZION FELLOWSHIP", "city": "LA FARGEVILLE", "state": "NY", "zip": "13656-3113", "ntee": "", "ruling": "199110", "deductibility": "1", "assets": 0, "income": 0, "revenue": 0}, {"ein": "161444740", "name": "ZION DOMINION CHURCH OF GOD IN CHRIST INC", "city": "WILLIAMSVILLE", "state": "NY", "zip": "14221-4422", "ntee": "X20", "ruling": "200710", "deductibility": "1", "assets": 0, "income": 0, "revenue": 0}, {"ein": "161502542", "name": "MEMORIAL AME ZION CHURCH INC", "city": "ROCHESTER", "state": "NY", "zip": "14608-2446", "ntee": "X21", "ruling": "200208", "deductibility": "1", "assets": 0, "income": 0, "revenue": 0}, {"ein": "161550026", "name": "ZION ST JOHNS EVANGELICAL LUTHERAN CHURCH", "city": "COBLESKILL", "state": "NY", "zip": "12043-7029", "ntee": "", "ruling": "198804", "deductibility": "1", "assets": 0, "income": 0, "revenue": 0}, {"ein": "161608905", "name": "MT ZION ASSEMBLY INC", "city": "JAMESTOWN", "state": "NY", "zip": "14701-6709", "ntee": "X20", "ruling": "200111", "deductibility": "1", "assets": 0, "income": 0, "revenue": 0}, {"ein": "166001258", "name": "ZION COVENANT CHURCH JAMESTOWN NY", "city": "JAMESTOWN", "state": "NY", "zip": "14701-2749", "ntee": "", "ruling": "197507", "deductibility": "1", "assets": 0, "income": 0, "revenue": 0}, {"ein": "166036594", "name": "ZION LUTHERAN CHURCH", "city": "CLARENCE CTR", "state": "NY", "zip": "14032-0235", "ntee": "", "ruling": "198804", "deductibility": "1", "assets": 0, "income": 0, "revenue": 0}, {"ein": "200260534", "name": "U S ZION CHURCH", "city": "FLUSHING", "state": "NY", "zip": "11354-5029", "ntee": "X21", "ruling": "200312", "deductibility": "1", "assets": 0, "income": 0, "revenue": 0}, {"ein": "200365286", "name": "MT ZION BAPTIST CHURCH", "city": "JAMAICA", "state": "NY", "zip": "11434-2205", "ntee": "X20", "ruling": "200803", "deductibility": "1", "assets": 0, "income": 0, "revenue": 0}, {"ein": "201075860", "name": "MOUNT ZION SPIRITUAL HEALING TEMPLE INC", "city": "BROOKLYN", "state": "NY", "zip": "11203-1103", "ntee": "X22", "ruling": "200502", "deductibility": "1", "assets": 0, "income": 0, "revenue": 0}, {"ein": "202403356", "name": "REDEEMED CHRISTIAN CHURCH OF GOD ZION SANCTUARY QUEENS NY INC", "city": "LYNBROOK", "state": "NY", "zip": "11563-3935", "ntee": "X20", "ruling": "201411", "deductibility": "1", "assets": 0, "income": 0, "revenue": 0}, {"ein": "205806710", "name": "NEW YORK ZION CHURCH", "city": "NEW YORK", "state": "NY", "zip": "10001-3886", "ntee": "X20", "ruling": "200705", "deductibility": "1", "assets": 0, "income": 0, "revenue": 0}, {"ein": "207233312", "name": "WILLIAM KRAFT TW FBO ZION UNITEDMETHODIST CH", "city": "BUFFALO", "state": "NY", "zip": "14240-1504", "ntee": "T22", "ruling": "200806", "deductibility": "1", "assets": 470475, "income": 158519, "revenue": 0}, {"ein": "208776156", "name": "ZION MISSION CHURCH OF CHRIST INC", "city": "SAINT ALBANS", "state": "NY", "zip": "11412-2729", "ntee": "X21", "ruling": "201006", "deductibility": "1", "assets": 3, "income": 63939, "revenue": 63939}, {"ein": "222156334", "name": "MINNIE L FLOYD MEMORIAL AFRICAN METHODIST EPISCOPAL ZION CHURCH", "city": "ELMIRA", "state": "NY", "zip": "14901-2505", "ntee": "", "ruling": "197710", "deductibility": "1", "assets": 0, "income": 0, "revenue": 0}, {"ein": "222258023", "name": "ZION PEOPLES FELLOWSHIP INC", "city": "ROCHESTER", "state": "NY", "zip": "14624-4605", "ntee": "", "ruling": "197908", "deductibility": "1", "assets": 0, "income": 0, "revenue": 0}, {"ein": "222291387", "name": "MT ZION TABERNACLE", "city": "SILVER SPGS", "state": "NY", "zip": "14550-0318", "ntee": "", "ruling": "198004", "deductibility": "1", "assets": 0, "income": 0, "revenue": 0}, {"ein": "222500806", "name": "ZION FELLOWSHIP INC", "city": "WAVERLY", "state": "NY", "zip": "14892-0070", "ntee": "", "ruling": "198412", "deductibility": "1", "assets": 0, "income": 0, "revenue": 0}, {"ein": "222511719", "name": "ZION EPISCOPAL CHURCH", "city": "AVON", "state": "NY", "zip": "14414-1055", "ntee": "", "ruling": "194001", "deductibility": "1", "assets": 0, "income": 0, "revenue": 0}, {"ein": "222532343", "name": "MT ZION CHRISTIAN ASSEMBLY", "city": "OLEAN", "state": "NY", "zip": "14760-0000", "ntee": "", "ruling": "198509", "deductibility": "1", "assets": 0, "income": 0, "revenue": 0}, {"ein": "222543131", "name": "CENTENNIAL AFRICAN METHODIST EPISCOPAL ZION CHURCH", "city": "BUFFALO", "state": "NY", "zip": "14211-2046", "ntee": "X20", "ruling": "200411", "deductibility": "1", "assets": 0, "income": 0, "revenue": 0}, {"ein": "223030490", "name": "ZION HILL MISSIONARY BAPTIST CHURCH", "city": "ROCHESTER", "state": "NY", "zip": "14619-0507", "ntee": "", "ruling": "195504", "deductibility": "1", "assets": 0, "income": 0, "revenue": 0}, {"ein": "223240218", "name": "FIRST ZION TABERNACLE CHURCH INC", "city": "ROCHESTER", "state": "NY", "zip": "14611-3609", "ntee": "", "ruling": "199309", "deductibility": "1", "assets": 0, "income": 0, "revenue": 0}, {"ein": "237029162", "name": "HOPE CHAPEL A M E ZION CHURCH", "city": "UTICA", "state": "NY", "zip": "13501-3247", "ntee": "", "ruling": "196907", "deductibility": "1", "assets": 0, "income": 0, "revenue": 0}, {"ein": "237043153", "name": "ZION LUTHERAN CHURCH", "city": "OWEGO", "state": "NY", "zip": "13827-2841", "ntee": "", "ruling": "194107", "deductibility": "1", "assets": 0, "income": 0, "revenue": 0}, {"ein": "237111015", "name": "KEDUSHAT ZION", "city": "BROOKLYN", "state": "NY", "zip": "11219-2756", "ntee": "", "ruling": "197108", "deductibility": "1", "assets": 0, "income": 0, "revenue": 0}, {"ein": "237222180", "name": "MT ZION MISSIONARY BAPTIST CHURCH OF WYANDANCH NEW YORK", "city": "WYANDANCH", "state": "NY", "zip": "11798-3409", "ntee": "", "ruling": "197301", "deductibility": "1", "assets": 0, "income": 0, "revenue": 0}, {"ein": "237235971", "name": "YESHIVAH MENACHEM ZION", "city": "AIRMONT", "state": "NY", "zip": "10952-4600", "ntee": "", "ruling": "197206", "deductibility": "1", "assets": 0, "income": 0, "revenue": 0}, {"ein": "237283023", "name": "ST MARK AFRICAN METHODIST EPISCOPAL ZION CHURCH IN AMERICA", "city": "POUGHKEEPSIE", "state": "NY", "zip": "12601-0770", "ntee": "", "ruling": "197304", "deductibility": "1", "assets": 0, "income": 0, "revenue": 0}, {"ein": "237336669", "name": "MOUNT ZION HOLINESS CHURCH INC", "city": "BUFFALO", "state": "NY", "zip": "14212-1044", "ntee": "", "ruling": "197312", "deductibility": "1", "assets": 0, "income": 0, "revenue": 0}, {"ein": "237380662", "name": "FIFTH AVENUE AFRICAN METHODIST EPISCOPAL ZION CHURCH", "city": "TROY", "state": "NY", "zip": "12180-1048", "ntee": "", "ruling": "197407", "deductibility": "1", "assets": 0, "income": 0, "revenue": 0}, {"ein": "237441942", "name": "ST MARY OF ZION ETHIOPIAN ORTHODOX CHURCH INC", "city": "NEW YORK", "state": "NY", "zip": "10115-0052", "ntee": "", "ruling": "197509", "deductibility": "1", "assets": 0, "income": 0, "revenue": 0}, {"ein": "260881383", "name": "ZION COMMUNITY FOOD PANTRY", "city": "HUDSON", "state": "NY", "zip": "12534-9058", "ntee": "K30", "ruling": "200902", "deductibility": "1", "assets": 0, "income": 0, "revenue": 0}, {"ein": "262612976", "name": "SHAAREI ZION YERUSHALYIM INC", "city": "BROOKLYN", "state": "NY", "zip": "11206-4479", "ntee": "G129", "ruling": "201011", "deductibility": "1", "assets": 10000, "income": 10000, "revenue": 10000}, {"ein": "263317362", "name": "WOMEN IN TOUCH OF ZION", "city": "WHEATLEY HTS", "state": "NY", "zip": "11798-1210", "ntee": "S81", "ruling": "201506", "deductibility": "1", "assets": 0, "income": 0, "revenue": 0}, {"ein": "270007988", "name": "MT ZION PENTECOSTAL HOLINESS CHURCH INC", "city": "BROOKLYN", "state": "NY", "zip": "11233-2508", "ntee": "X21", "ruling": "200209", "deductibility": "1", "assets": 0, "income": 0, "revenue": 0}, {"ein": "272836223", "name": "MOUNT ZION WORLDWIDE MINISTRIES", "city": "LAURELTON", "state": "NY", "zip": "11413-2842", "ntee": "X20", "ruling": "201611", "deductibility": "1", "assets": 0, "income": 0, "revenue": 0}, {"ein": "300053849", "name": "THOMORIAL A M E ZION CHURCH", "city": "SYRACUSE", "state": "NY", "zip": "13205-1958", "ntee": "", "ruling": "200204", "deductibility": "1", "assets": 0, "income": 0, "revenue": 0}, {"ein": "300178558", "name": "DURHAM A M E ZION CHURCH", "city": "BAY SHORE", "state": "NY", "zip": "11706-1125", "ntee": "X21", "ruling": "200812", "deductibility": "1", "assets": 0, "income": 0, "revenue": 0}, {"ein": "301224997", "name": "MOUNT ZION HOUSE OF PRAYER MINISTRY NATIONS WIDE OUTREACH FOR THE LO", "city": "BROOKLYN", "state": "NY", "zip": "11207-8507", "ntee": "X20", "ruling": "202109", "deductibility": "1", "assets": 0, "income": 0, "revenue": 0}, {"ein": "311583079", "name": "NEW TEMPLE MT ZION CHRIST CHURCH INC", "city": "BROOKLYN", "state": "NY", "zip": "11226-5101", "ntee": "X20Z", "ruling": "198505", "deductibility": "1", "assets": 0, "income": 0, "revenue": 0}, {"ein": "320175229", "name": "SHILOH A M E ZION CHURCH", "city": "STATEN ISLAND", "state": "NY", "zip": "10310-1306", "ntee": "X21", "ruling": "200812", "deductibility": "1", "assets": 0, "income": 0, "revenue": 0}, {"ein": "320468666", "name": "ZION NEWBURGH COMMUNITY DEVELOPMENT CORPORATION", "city": "NEWBURGH", "state": "NY", "zip": "12550-5537", "ntee": "P80", "ruling": "201601", "deductibility": "1", "assets": 1652, "income": 120, "revenue": 120}, {"ein": "331246648", "name": "MT ZION INTERNAL CHANGE MINISTRIES", "city": "BROOKLYN", "state": "NY", "zip": "11214-4646", "ntee": "X20", "ruling": "202410", "deductibility": "1", "assets": 0, "income": 0, "revenue": 0}, {"ein": "352234640", "name": "ZION INTERNATIONAL OUTREACH MINISTRIES", "city": "BRONX", "state": "NY", "zip": "10456-0399", "ntee": "X21", "ruling": "200811", "deductibility": "1", "assets": 0, "income": 0, "revenue": 0}, {"ein": "364777959", "name": "FRIENDS OF HADAR ZION INC", "city": "BROOKLYN", "state": "NY", "zip": "11219-3823", "ntee": "P40", "ruling": "202502", "deductibility": "1", "assets": 0, "income": 0, "revenue": 0}, {"ein": "412221236", "name": "PEOPLES AME ZION CHURCH", "city": "SYRACUSE", "state": "NY", "zip": "13205-1518", "ntee": "X20", "ruling": "200806", "deductibility": "1", "assets": 0, "income": 0, "revenue": 0}, {"ein": "421580760", "name": "NEWBURGH ZION LIONS INC", "city": "NEWBURGH", "state": "NY", "zip": "12551-1526", "ntee": "O20", "ruling": "200401", "deductibility": "1", "assets": 5185, "income": 55330, "revenue": 55330}, {"ein": "431993286", "name": "AFRICAN METHODIST EPISCOPAL ZION CHURCH OF NEWBURGH", "city": "NEWBURGH", "state": "NY", "zip": "12550-5537", "ntee": "X20", "ruling": "201610", "deductibility": "1", "assets": 0, "income": 0, "revenue": 0}, {"ein": "453145016", "name": "DAUGHTERS OF ZION ETERNALLY NEW INC", "city": "MIDDLETOWN", "state": "NY", "zip": "10940-5319", "ntee": "X99", "ruling": "201603", "deductibility": "1", "assets": 0, "income": 0, "revenue": 0}, {"ein": "454223946", "name": "ZION CATHEDRAL CHURCH OF GOD IN CHRIST", "city": "FREEPORT", "state": "NY", "zip": "11520-2512", "ntee": "X20", "ruling": "201709", "deductibility": "1", "assets": 0, "income": 0, "revenue": 0}, {"ein": "454307661", "name": "SHIVAT ZION TORAH CENTER INC", "city": "BROOKLYN", "state": "NY", "zip": "11230-6512", "ntee": "X30", "ruling": "201709", "deductibility": "1", "assets": 0, "income": 0, "revenue": 0}, {"ein": "454819277", "name": "ZION HOLY HOUSE OF FAITH CHURCH", "city": "CENTRAL ISLIP", "state": "NY", "zip": "11722-3109", "ntee": "X20", "ruling": "201812", "deductibility": "1", "assets": 0, "income": 0, "revenue": 0}, {"ein": "455374210", "name": "SYNAGOGUE SHAAREI ZION OF HOLLIS HILLS", "city": "QUEENS VLG", "state": "NY", "zip": "11427-1026", "ntee": "X30", "ruling": "201302", "deductibility": "1", "assets": 0, "income": 0, "revenue": 0}, {"ein": "463407648", "name": "POWER OF IDENTITY ZION DELIVERANCE INTERNATIONAL MINISTRI", "city": "BROOKLYN", "state": "NY", "zip": "11238-1606", "ntee": "X99", "ruling": "202506", "deductibility": "1", "assets": 0, "income": 0, "revenue": 0}, {"ein": "463743919", "name": "MT ZION TEMPLE APOSTOLIC CHURCH COMMUNITY DEVELOPMENT CENTER", "city": "ROOSEVELT", "state": "NY", "zip": "11575-2338", "ntee": "P20", "ruling": "201609", "deductibility": "1", "assets": 0, "income": 0, "revenue": 0}, {"ein": "465257870", "name": "ZION CARE INTERNATIONAL ORGANIZATION INC", "city": "BRONX", "state": "NY", "zip": "10467-5637", "ntee": "X21", "ruling": "201508", "deductibility": "1", "assets": 0, "income": 90438, "revenue": 90438}, {"ein": "473644631", "name": "MOUNT ZION CHURCH OF GOD", "city": "BELLEROSE", "state": "NY", "zip": "11426-1110", "ntee": "", "ruling": "197210", "deductibility": "1", "assets": 0, "income": 0, "revenue": 0}, {"ein": "473965968", "name": "CONGREGATION BNOS ZION OF BOBOV MONSEY", "city": "MONSEY", "state": "NY", "zip": "10952-0383", "ntee": "X30", "ruling": "201601", "deductibility": "1", "assets": 0, "income": 0, "revenue": 0}, {"ein": "474399341", "name": "ZION STEPS INC", "city": "BROOKLYN", "state": "NY", "zip": "11238-5472", "ntee": "A68", "ruling": "201811", "deductibility": "1", "assets": 0, "income": 0, "revenue": 0}, {"ein": "475411535", "name": "SHAAREI ZION INSTITUTIONS INC", "city": "FOREST HILLS", "state": "NY", "zip": "11375-5557", "ntee": "B12", "ruling": "201908", "deductibility": "1", "assets": 2166944, "income": 2615583, "revenue": 2615583}, {"ein": "475509286", "name": "AMERICAN FRIENDS OF HASHEVEINU AYLECHA MOUNT ZION INC", "city": "LAWRENCE", "state": "NY", "zip": "11559-4000", "ntee": "X30", "ruling": "201909", "deductibility": "1", "assets": 82035, "income": 156273, "revenue": 156273}, {"ein": "522207910", "name": "WORLD PEACE CENTER MOUNT ZION", "city": "BROOKLYN", "state": "NY", "zip": "11203-1006", "ntee": "X30", "ruling": "200208", "deductibility": "1", "assets": 0, "income": 0, "revenue": 0}, {"ein": "570999697", "name": "NEW ZION FIRE BAPTIZED HOLINESS CHURCH OF GOD OF THE AMERICAS INC", "city": "LAWRENCE", "state": "NY", "zip": "11559-1208", "ntee": "X21", "ruling": "200105", "deductibility": "1", "assets": 0, "income": 0, "revenue": 0}, {"ein": "581618592", "name": "OLD SHIP OF ZION HOLY CHURCH", "city": "CTR MORICHES", "state": "NY", "zip": "11934-1909", "ntee": "", "ruling": "199203", "deductibility": "1", "assets": 0, "income": 0, "revenue": 0}, {"ein": "581912530", "name": "OLD SHIP OF ZION UNITED HOLY CHURCH", "city": "CTR MORICHES", "state": "NY", "zip": "11934-1911", "ntee": "", "ruling": "199007", "deductibility": "1", "assets": 0, "income": 0, "revenue": 0}, {"ein": "582464237", "name": "ZION TABERNACLE DELIVERANCE MINISTRY INC", "city": "BROOKLYN", "state": "NY", "zip": "11212-0506", "ntee": "X20", "ruling": "200104", "deductibility": "1", "assets": 0, "income": 0, "revenue": 0}, {"ein": "680621520", "name": "MOUNT ZION MIRACLE LIFE FELLOWSHIP SPIRITUAL CHURCH", "city": "BRONX", "state": "NY", "zip": "10472-1329", "ntee": "X20", "ruling": "200904", "deductibility": "1", "assets": 0, "income": 0, "revenue": 0}, {"ein": "743202146", "name": "VARICK MEMORIAL A M E ZION CHURCH", "city": "BROOKLYN", "state": "NY", "zip": "11221-0435", "ntee": "X21", "ruling": "200906", "deductibility": "1", "assets": 0, "income": 0, "revenue": 0}, {"ein": "753060586", "name": "CHRISTIAN COMMUNITY STRENGTH OF ZION INC", "city": "BRONX", "state": "NY", "zip": "10456-6215", "ntee": "X21", "ruling": "200308", "deductibility": "1", "assets": 0, "income": 0, "revenue": 0}, {"ein": "800224755", "name": "HERALD ZION CHRISTIAN PENTECOSTAL CHURCH INC", "city": "BRONX", "state": "NY", "zip": "10455-4517", "ntee": "X21", "ruling": "200902", "deductibility": "1", "assets": 0, "income": 0, "revenue": 0}, {"ein": "800638108", "name": "ZION YOUTH & FAMILY COMMUNITY CENTER OF ELMONT INC", "city": "ELMONT", "state": "NY", "zip": "11003-2950", "ntee": "P28", "ruling": "201401", "deductibility": "1", "assets": 0, "income": 0, "revenue": 0}, {"ein": "812280437", "name": "ZION PRAYER LINE INC", "city": "BRONX", "state": "NY", "zip": "10453-5429", "ntee": "X99", "ruling": "201705", "deductibility": "1", "assets": 0, "income": 0, "revenue": 0}, {"ein": "813175052", "name": "MOUNT ZION SPIRITUAL CHURCH OF GOD", "city": "BROOKLYN", "state": "NY", "zip": "11226-4224", "ntee": "X20", "ruling": "202011", "deductibility": "1", "assets": 0, "income": 0, "revenue": 0}, {"ein": "814796317", "name": "ZION FAMILY MINISTRIES", "city": "BRONX", "state": "NY", "zip": "10467-5105", "ntee": "X20", "ruling": "201703", "deductibility": "1", "assets": 0, "income": 0, "revenue": 0}, {"ein": "820543411", "name": "NEW MOUNT ZION PENTACOSTAL HOLY CHURCH NO2", "city": "BROOKLYN", "state": "NY", "zip": "11236-2602", "ntee": "X21", "ruling": "200304", "deductibility": "1", "assets": 0, "income": 0, "revenue": 0}, {"ein": "822068808", "name": "POWER HOUSE ZION APOSTOLIC", "city": "JAMAICA", "state": "NY", "zip": "11434-3703", "ntee": "X20", "ruling": "201806", "deductibility": "1", "assets": 0, "income": 0, "revenue": 0}, {"ein": "822178174", "name": "HOUSE OF ZION INTERNATIONAL MINISTRIES INC", "city": "BROOKLYN", "state": "NY", "zip": "11225-2838", "ntee": "X20", "ruling": "201807", "deductibility": "1", "assets": 0, "income": 0, "revenue": 0}, {"ein": "825097991", "name": "CONGREGATION@BOBOWER SHAREI ZION 45", "city": "BROOKLYN", "state": "NY", "zip": "11219-3132", "ntee": "X30", "ruling": "201909", "deductibility": "1", "assets": 0, "income": 0, "revenue": 0}, {"ein": "825519401", "name": "ZION DAY CARE CENTER INC", "city": "BROOKLYN", "state": "NY", "zip": "11219-3621", "ntee": "X99", "ruling": "201904", "deductibility": "1", "assets": 403691, "income": 1480176, "revenue": 1480176}, {"ein": "831339750", "name": "MOUNT ZION SANCTUARY ASSEMBLY CHURCH OF GOD 7TH DAY INC", "city": "GARNERVILLE", "state": "NY", "zip": "10923-1415", "ntee": "X20", "ruling": "202407", "deductibility": "1", "assets": 0, "income": 0, "revenue": 0}, {"ein": "831628379", "name": "HEARTS OF ZION", "city": "STATEN ISLAND", "state": "NY", "zip": "10304-3346", "ntee": "N63", "ruling": "201903", "deductibility": "1", "assets": 0, "income": 0, "revenue": 0}, {"ein": "832765876", "name": "CONGREGATION ZICHRON ZION", "city": "BROOKLYN", "state": "NY", "zip": "11219-5896", "ntee": "X30", "ruling": "202301", "deductibility": "1", "assets": 0, "income": 0, "revenue": 0}, {"ein": "841646351", "name": "MOUNT ZION CHURCH OF CHRIST", "city": "BROOKLYN", "state": "NY", "zip": "11221-4267", "ntee": "", "ruling": "195105", "deductibility": "1", "assets": 0, "income": 0, "revenue": 0}, {"ein": "853797954", "name": "MOUNT ZION GOSPEL TABERNACLE INTERNATIONAL INC", "city": "AMITYVILLE", "state": "NY", "zip": "11701-1203", "ntee": "X20", "ruling": "202111", "deductibility": "1", "assets": 0, "income": 0, "revenue": 0}, {"ein": "854005332", "name": "CONGREGATION KHAL SHAAREI ZION BOBOV INC", "city": "BROOKLYN", "state": "NY", "zip": "11219-2724", "ntee": "X30", "ruling": "202104", "deductibility": "1", "assets": 0, "income": 0, "revenue": 0}, {"ein": "863633420", "name": "ST JAMES AME ZION CHURCH INC", "city": "ITHACA", "state": "NY", "zip": "14850-5202", "ntee": "X99", "ruling": "202201", "deductibility": "1", "assets": 0, "income": 0, "revenue": 0}, {"ein": "871524129", "name": "NEW TESTAMENT EPISCOPAL ZION CHURCH INTERNATIONAL INC", "city": "BRONX", "state": "NY", "zip": "10466-3003", "ntee": "X20", "ruling": "202302", "deductibility": "1", "assets": 924, "income": 35613, "revenue": 35613}, {"ein": "882533519", "name": "ZION COLLECTIVE INC", "city": "STATEN ISLAND", "state": "NY", "zip": "10306-4912", "ntee": "X20", "ruling": "202306", "deductibility": "1", "assets": 0, "income": 0, "revenue": 0}, {"ein": "900560028", "name": "ZION MISSION WORLDWIDE MINISTRIES", "city": "SAINT ALBANS", "state": "NY", "zip": "11412-2729", "ntee": "X20", "ruling": "202010", "deductibility": "1", "assets": 1, "income": 27402, "revenue": 27402}, {"ein": "991151430", "name": "MIDRASH ZION CORP", "city": "BROOKLYN", "state": "NY", "zip": "11223-5218", "ntee": "T12", "ruling": "202403", "deductibility": "1", "assets": 0, "income": 0, "revenue": 0}, {"ein": "991266243", "name": "ZION EVANGELISTIC TEMPLE CHURCH INC", "city": "BROOKLYN", "state": "NY", "zip": "11233-4406", "ntee": "X20", "ruling": "202505", "deductibility": "1", "assets": 0, "income": 0, "revenue": 0}, {"ein": "992324546", "name": "ALL NATIONS ZION CITY OF GOD HEALING AND DELIVERANCE MINISTRY 7", "city": "ST ALBANS", "state": "NY", "zip": "11412-2358", "ntee": "X99", "ruling": "202505", "deductibility": "1", "assets": 0, "income": 0, "revenue": 0}], "HAROLD": [{"ein": "030445718", "name": "HAROLD L BLOCH CANCER RESOURCE", "city": "ALBANY", "state": "NY", "zip": "12210-0000", "ntee": "H30", "ruling": "200301", "deductibility": "1", "assets": 0, "income": 0, "revenue": 0}, {"ein": "066537619", "name": "HAROLD AND HELENE SCHONBERG PIANIST SCHOLARSHIP", "city": "NEW YORK", "state": "NY", "zip": "10018-0000", "ntee": "T22", "ruling": "200411", "deductibility": "1", "assets": 3141920, "income": 983011, "revenue": 0}, {"ein": "113441689", "name": "HAROLD & JOSEPHINE GULAMERIAN FOUNDATION", "city": "MANHASSET", "state": "NY", "zip": "11030-0578", "ntee": "T20Z", "ruling": "199809", "deductibility": "1", "assets": 6075793, "income": 756094, "revenue": 0}, {"ein": "113494145", "name": "HAROLD AND BLANCHE SCHECHTER FOUNDATION", "city": "FAR ROCKAWAY", "state": "NY", "zip": "11691-0000", "ntee": "T20", "ruling": "199908", "deductibility": "1", "assets": 1741095, "income": 1037744, "revenue": 0}, {"ein": "116007325", "name": "HAROLD & RUTH ALLEN FOUNDATION", "city": "GREAT NECK", "state": "NY", "zip": "11024-1522", "ntee": "", "ruling": "196011", "deductibility": "1", "assets": 487768, "income": 14756, "revenue": 0}, {"ein": "116428100", "name": "HAROLD F ERMETE TR", "city": "ROSLYN HARBOR", "state": "NY", "zip": "11576-1025", "ntee": "T99Z", "ruling": "199610", "deductibility": "1", "assets": 0, "income": 0, "revenue": 0}, {"ein": "133131468", "name": "RUTH AND HAROLD CHENVEN FOUNDATION INC", "city": "NEW YORK", "state": "NY", "zip": "10040-0812", "ntee": "", "ruling": "198303", "deductibility": "1", "assets": 0, "income": 0, "revenue": 0}, {"ein": "133286304", "name": "HAROLD AND ISABEL FELD FOUNDATION", "city": "NEW YORK", "state": "NY", "zip": "10075-0683", "ntee": "", "ruling": "198511", "deductibility": "1", "assets": 1, "income": 1, "revenue": 0}, {"ein": "133383348", "name": "HAROLD & MIMI STEINBERG CHARITABLE TRUST", "city": "NEW YORK", "state": "NY", "zip": "10022-3902", "ntee": "", "ruling": "198701", "deductibility": "1", "assets": 60933581, "income": 12202556, "revenue": 0}, {"ein": "133666768", "name": "HAROLD W SIEBENS CHARITABLE", "city": "NEW YORK", "state": "NY", "zip": "10017-3978", "ntee": "", "ruling": "199308", "deductibility": "4", "assets": 5975357, "income": 9902231, "revenue": 0}, {"ein": "134185200", "name": "CAROLE AND HAROLD MOSKOWITZ FAMILY FOUNDATION", "city": "NEW YORK", "state": "NY", "zip": "10028-0324", "ntee": "T22", "ruling": "200202", "deductibility": "1", "assets": 1521940, "income": 851966, "revenue": 0}, {"ein": "136126000", "name": "MIRIAM & HAROLD STEINBERG FOUNDATION INC", "city": "NEW YORK", "state": "NY", "zip": "10038-2510", "ntee": "", "ruling": "196109", "deductibility": "1", "assets": 1313366, "income": 293302, "revenue": 0}, {"ein": "136160989", "name": "HAROLD E HIRSCH FOUNDATION INC", "city": "MILLWOOD", "state": "NY", "zip": "10546-0610", "ntee": "", "ruling": "196102", "deductibility": "1", "assets": 894531, "income": 54906, "revenue": 0}, {"ein": "136201289", "name": "HAROLD L WYMAN FOUNDATION INC", "city": "RYE BROOK", "state": "NY", "zip": "10573-2851", "ntee": "", "ruling": "196606", "deductibility": "1", "assets": 1561879, "income": 789311, "revenue": 0}, {"ein": "136208834", "name": "RICHARD F WALSH ALFRED W DITOLLA HAROLD P SPIVAK FOUNDATION", "city": "NEW YORK", "state": "NY", "zip": "10001-0000", "ntee": "", "ruling": "196610", "deductibility": "1", "assets": 1117867, "income": 597199, "revenue": 0}, {"ein": "137050560", "name": "SIR HAROLD ACTON CHARITABLE TR", "city": "NEW YORK", "state": "NY", "zip": "10003-2170", "ntee": "B110", "ruling": "199602", "deductibility": "1", "assets": 25759496, "income": 4439197, "revenue": 2542118}, {"ein": "161455760", "name": "HAROLD J & ARLYNE G LEVY FAM FOUNDATION", "city": "AMHERST", "state": "NY", "zip": "14226-4104", "ntee": "", "ruling": "199406", "deductibility": "1", "assets": 45263, "income": 23443, "revenue": 0}, {"ein": "166245166", "name": "HAROLD C BURNS SCHOLARSHIP FUND 18-254270", "city": "NORWICH", "state": "NY", "zip": "13815-1646", "ntee": "", "ruling": "198411", "deductibility": "1", "assets": 46022, "income": 2419, "revenue": 0}, {"ein": "166520061", "name": "HAROLD F & HANNA BROOKS CHARITABLE TRUST", "city": "NORWICH", "state": "NY", "zip": "13815-0000", "ntee": "T20", "ruling": "200204", "deductibility": "1", "assets": 579843, "income": 99784, "revenue": 0}, {"ein": "205126705", "name": "THE HAROLD HUNTER FOUNDATION", "city": "NEW YORK", "state": "NY", "zip": "10003-2965", "ntee": "O50", "ruling": "200805", "deductibility": "1", "assets": 389000, "income": 561226, "revenue": 561226}, {"ein": "236795638", "name": "HAROLD & EVELYN W MATTHEWS TRUST U-A CHARITABLE BO8900", "city": "AMHERST", "state": "NY", "zip": "14228-2307", "ntee": "", "ruling": "198612", "deductibility": "1", "assets": 598226, "income": 149785, "revenue": 0}, {"ein": "237024064", "name": "HAROLD AND JULIET KALIKOW FOUNDATION", "city": "NEW YORK", "state": "NY", "zip": "10178-0002", "ntee": "", "ruling": "196909", "deductibility": "1", "assets": 858, "income": 1, "revenue": 0}, {"ein": "237441901", "name": "G HAROLD AND LEILA MATHERS CHARITABLE FOUNDATION", "city": "MOUNT KISCO", "state": "NY", "zip": "10549-2554", "ntee": "", "ruling": "197507", "deductibility": "1", "assets": 99932556, "income": 25318142, "revenue": 0}, {"ein": "261109293", "name": "WILLIAM HAROLD DAVIS FOUNDATION INC", "city": "ELMIRA", "state": "NY", "zip": "14901-3411", "ntee": "T20", "ruling": "200809", "deductibility": "1", "assets": 42498, "income": 60478, "revenue": 0}, {"ein": "263582993", "name": "HAROLD ANFANG FOUNDATION INC", "city": "NEW YORK", "state": "NY", "zip": "10118-3140", "ntee": "T20", "ruling": "200908", "deductibility": "1", "assets": 3085044, "income": 1004007, "revenue": 0}, {"ein": "462486890", "name": "HAROLD AND JOSEPHINE GULAMERIAN ARMENIAN ORPHAN FUND", "city": "CENTERPORT", "state": "NY", "zip": "11721-1228", "ntee": "T22", "ruling": "201311", "deductibility": "1", "assets": 4391092, "income": 1569817, "revenue": 0}, {"ein": "510197187", "name": "HAROLD E MOULTON SCHOLARSHIP FUND NO 71680003", "city": "ITHACA", "state": "NY", "zip": "14851-6437", "ntee": "", "ruling": "197407", "deductibility": "1", "assets": 398959, "income": 134387, "revenue": 0}, {"ein": "510243188", "name": "HAROLD SCHWARTZ MEMORIAL CHILD WELFARE FUND", "city": "ROCHESTER", "state": "NY", "zip": "14618-3137", "ntee": "", "ruling": "196710", "deductibility": "1", "assets": 103393, "income": 23409, "revenue": 0}, {"ein": "656418965", "name": "HAROLD AND JOAN FEINBLOOM FAM FOUNDATION TR 10032003", "city": "PITTSFORD", "state": "NY", "zip": "14534-3838", "ntee": "T22", "ruling": "200503", "deductibility": "1", "assets": 3680906, "income": 940792, "revenue": 0}, {"ein": "832506645", "name": "DONALD H EATON & HAROLD FRENCH FOUNDATION INC", "city": "NEW YORK", "state": "NY", "zip": "10037-1765", "ntee": "P20", "ruling": "201908", "deductibility": "1", "assets": 1193635, "income": 17472, "revenue": 17472}, {"ein": "842997299", "name": "HAROLD CLURMAN LABORATORY THEATER COMPANY INC", "city": "NEW YORK", "state": "NY", "zip": "10006-2552", "ntee": "A65", "ruling": "202111", "deductibility": "1", "assets": 51180, "income": 641, "revenue": 641}, {"ein": "856183433", "name": "HAROLD A MEIN MEMORIAL TR FBO AYERS MEMORIAL ANIMAL SHELTER", "city": "NORWICH", "state": "NY", "zip": "13815-0000", "ntee": "T22", "ruling": "202104", "deductibility": "1", "assets": 381664, "income": 63133, "revenue": 0}, {"ein": "882178702", "name": "HAROLD L ANDERSON FAMILY FOUNDATION INC", "city": "WEST ISLIP", "state": "NY", "zip": "11795-3523", "ntee": "B82", "ruling": "202207", "deductibility": "1", "assets": 0, "income": 0, "revenue": 0}, {"ein": "994536109", "name": "HAROLD AND MIRIAM SEYBERT FOUNDATION INC", "city": "PLEASANTVILLE", "state": "NY", "zip": "10570-2539", "ntee": "T22", "ruling": "202409", "deductibility": "1", "assets": 1, "income": 1, "revenue": 0}], "ELIMELECH": [{"ein": "030526805", "name": "CONG ZICHRON OHEL ELIMELECH TOSH INC", "city": "SPRING VALLEY", "state": "NY", "zip": "10977-4783", "ntee": "X30", "ruling": "200402", "deductibility": "1", "assets": 0, "income": 0, "revenue": 0}, {"ein": "043682235", "name": "GEMACH MOSHE ELIMELECH KEREN RAIZEL", "city": "BROOKLYN", "state": "NY", "zip": "11218-3750", "ntee": "X30", "ruling": "200402", "deductibility": "1", "assets": 0, "income": 0, "revenue": 0}, {"ein": "112599267", "name": "CONGREGATION BETH ELIMELECH INC", "city": "BROOKLYN", "state": "NY", "zip": "11211-6974", "ntee": "", "ruling": "198206", "deductibility": "1", "assets": 0, "income": 0, "revenue": 0}, {"ein": "112620220", "name": "YESHIVA TIFERES ELIMELECH", "city": "BROOKLYN", "state": "NY", "zip": "11204-1829", "ntee": "", "ruling": "198308", "deductibility": "0", "assets": 0, "income": 0, "revenue": 0}, {"ein": "112793698", "name": "CONGREGATION AND KOLLEL NOAM ELIMELECH LITZENKS INC", "city": "BROOKLYN", "state": "NY", "zip": "11211-8176", "ntee": "", "ruling": "198703", "deductibility": "1", "assets": 0, "income": 0, "revenue": 0}, {"ein": "112947216", "name": "CONG NOAM ELIMELECH INC", "city": "BROOKLYN", "state": "NY", "zip": "11219-5016", "ntee": "", "ruling": "198903", "deductibility": "1", "assets": 0, "income": 0, "revenue": 0}, {"ein": "112980335", "name": "MOSDOS NOAM ELIMELECH D LITZENSK INC", "city": "BROOKLYN", "state": "NY", "zip": "11219-2200", "ntee": "", "ruling": "198909", "deductibility": "1", "assets": 0, "income": 0, "revenue": 0}, {"ein": "113143247", "name": "CONGREGATION ZICHRON ELIMELECH", "city": "BROOKLYN", "state": "NY", "zip": "11230-5108", "ntee": "X30", "ruling": "200008", "deductibility": "1", "assets": 0, "income": 0, "revenue": 0}, {"ein": "113221335", "name": "KOLEL ELIEZER ELIMELECH", "city": "BROOKLYN", "state": "NY", "zip": "11213-4926", "ntee": "", "ruling": "199408", "deductibility": "1", "assets": 0, "income": 0, "revenue": 0}, {"ein": "113603463", "name": "ZICHRON TZVI ELIMELECH", "city": "FLUSHING", "state": "NY", "zip": "11366-1338", "ntee": "", "ruling": "200202", "deductibility": "1", "assets": 266999, "income": 6668336, "revenue": 6668336}, {"ein": "206603961", "name": "ZICHRON ELIMELECH FOUNDATION", "city": "MONSEY", "state": "NY", "zip": "10952-4001", "ntee": "T22", "ruling": "200508", "deductibility": "1", "assets": 11450, "income": 50370, "revenue": 0}, {"ein": "237239808", "name": "KOLEL OHEL ELIMELECH RABBINICAL SEMINARY INC", "city": "BROOKLYN", "state": "NY", "zip": "11219-2502", "ntee": "", "ruling": "197303", "deductibility": "1", "assets": 0, "income": 0, "revenue": 0}, {"ein": "270928864", "name": "CONG SHAREI TZVI ELIMELECH INC", "city": "BROOKLYN", "state": "NY", "zip": "11206-2984", "ntee": "X30", "ruling": "201008", "deductibility": "1", "assets": 0, "income": 0, "revenue": 0}, {"ein": "474004320", "name": "KHAL ZICHRON SHLOMO ELIMELECH", "city": "SPRING VALLEY", "state": "NY", "zip": "10977-6100", "ntee": "X30", "ruling": "201507", "deductibility": "1", "assets": 0, "income": 0, "revenue": 0}, {"ein": "821747450", "name": "CONG ZICHRON ELIMELECH INC", "city": "BROOKLYN", "state": "NY", "zip": "11211-8004", "ntee": "X30", "ruling": "201709", "deductibility": "1", "assets": 0, "income": 0, "revenue": 0}, {"ein": "853060471", "name": "NOAM ELIMELECH", "city": "MONROE", "state": "NY", "zip": "10950-7515", "ntee": "X30", "ruling": "202012", "deductibility": "1", "assets": 0, "income": 0, "revenue": 0}, {"ein": "854242890", "name": "CONG NOAM ELIMELECH LIZENSK", "city": "BROOKLYN", "state": "NY", "zip": "11249-9237", "ntee": "X30", "ruling": "202206", "deductibility": "1", "assets": 0, "income": 0, "revenue": 0}, {"ein": "874170189", "name": "CONGREGATION BNEI ELIMELECH", "city": "MONSEY", "state": "NY", "zip": "10952-1972", "ntee": "X30", "ruling": "202205", "deductibility": "1", "assets": 0, "income": 0, "revenue": 0}, {"ein": "874283417", "name": "ZICHRON ELIMELECH", "city": "SPRING VALLEY", "state": "NY", "zip": "10977-3602", "ntee": "X30", "ruling": "202207", "deductibility": "1", "assets": 0, "income": 0, "revenue": 0}], "SOUTHPORT": [{"ein": "030583322", "name": "SOUTHPORT BUSINESS ASSOCIATION INC", "city": "PINE CITY", "state": "NY", "zip": "14871-0064", "ntee": "S41", "ruling": "201609", "deductibility": "2", "assets": 0, "income": 0, "revenue": 0}, {"ein": "166028286", "name": "SOUTHPORT VOLUNTEER FIREMEN INC", "city": "ELMIRA", "state": "NY", "zip": "14904-2601", "ntee": "M24", "ruling": "201410", "deductibility": "1", "assets": 1903012, "income": 388770, "revenue": 375837}, {"ein": "222309352", "name": "SOUTHPORT HISTORICAL SOCIETY", "city": "PINE CITY", "state": "NY", "zip": "14871-0146", "ntee": "", "ruling": "199206", "deductibility": "1", "assets": 0, "income": 0, "revenue": 0}], "RANDOLPH": [{"ein": "036020016", "name": "CLAYTON BROWN SCHOLARSHIP FUND FBO RANDOLPH UHS 31C012015", "city": "BUFFALO", "state": "NY", "zip": "14240-1504", "ntee": "", "ruling": "000000", "deductibility": "0", "assets": 104490, "income": 25553, "revenue": 0}, {"ein": "113205409", "name": "RANDOLPH FERDINAND MINISTRIES", "city": "BROOKLYN", "state": "NY", "zip": "11212-1544", "ntee": "X20", "ruling": "202111", "deductibility": "1", "assets": 0, "income": 0, "revenue": 0}, {"ein": "136019226", "name": "WILLIAM RANDOLPH HEARST FOUNDATION", "city": "NEW YORK", "state": "NY", "zip": "10019-3741", "ntee": "T22", "ruling": "194904", "deductibility": "1", "assets": 863516672, "income": 285362715, "revenue": 0}, {"ein": "137109419", "name": "RANDOLPH L COWEN AND PHYLLIS GREEN FOUNDATION", "city": "NEW YORK", "state": "NY", "zip": "10274-0073", "ntee": "T90Z", "ruling": "199802", "deductibility": "1", "assets": 11556793, "income": 10364483, "revenue": 0}, {"ein": "141470219", "name": "RANDOLPH SCHOOL INC", "city": "WAPPINGERS FL", "state": "NY", "zip": "12590-3167", "ntee": "", "ruling": "196512", "deductibility": "1", "assets": 826457, "income": 1822894, "revenue": 1803229}, {"ein": "161386693", "name": "RANDOLPH COMMUNITY CUPBOARD", "city": "RANDOLPH", "state": "NY", "zip": "14772-1215", "ntee": "", "ruling": "199204", "deductibility": "1", "assets": 32375, "income": 22439, "revenue": 22439}, {"ein": "201998334", "name": "RANDOLPH HISTORICAL SOCIETY INC", "city": "RANDOLPH", "state": "NY", "zip": "14772-0143", "ntee": "A80", "ruling": "200703", "deductibility": "1", "assets": 0, "income": 0, "revenue": 0}, {"ein": "222336748", "name": "RANDOLPH ROD AND GUN INC", "city": "RANDOLPH", "state": "NY", "zip": "14772-0252", "ntee": "N61", "ruling": "200901", "deductibility": "2", "assets": 63780, "income": 34029, "revenue": 17128}, {"ein": "271679037", "name": "GEORGE F RANDOLPH FOUNDATION INC", "city": "ELMIRA", "state": "NY", "zip": "14901-2741", "ntee": "A80", "ruling": "201003", "deductibility": "1", "assets": 37165, "income": 0, "revenue": 0}, {"ein": "364773542", "name": "RANDOLPH FIRE COMPANY INC", "city": "RANDOLPH", "state": "NY", "zip": "14772-0191", "ntee": "M24", "ruling": "201408", "deductibility": "1", "assets": 138475, "income": 122646, "revenue": 121610}, {"ein": "454318322", "name": "RANDOLPH REGIONAL EMS CORPORATION", "city": "RANDOLPH", "state": "NY", "zip": "14772-1123", "ntee": "E62", "ruling": "201208", "deductibility": "1", "assets": 583231, "income": 530365, "revenue": 530365}, {"ein": "470892971", "name": "RANDOLPH FOUNDATION", "city": "NEW YORK", "state": "NY", "zip": "10017-1500", "ntee": "T20", "ruling": "200301", "deductibility": "1", "assets": 50759353, "income": 6313328, "revenue": 0}, {"ein": "472013059", "name": "BISHOP RANDOLPH AUSTIN MEMORIAL FOUNDATION", "city": "BROOKLYN", "state": "NY", "zip": "11203-3409", "ntee": "X12", "ruling": "201905", "deductibility": "1", "assets": 0, "income": 0, "revenue": 0}, {"ein": "931986762", "name": "EAST RANDOLPH METHODIST CHURCH", "city": "RANDOLPH", "state": "NY", "zip": "14772-9692", "ntee": "X20", "ruling": "202411", "deductibility": "1", "assets": 0, "income": 0, "revenue": 0}], "GOTHAM": [{"ein": "043631758", "name": "GOTHAM RUGBY FOOTBALL CLUB INC", "city": "NEW YORK", "state": "NY", "zip": "10011-0114", "ntee": "N65", "ruling": "200301", "deductibility": "1", "assets": 41393, "income": 82567, "revenue": 70493}, {"ein": "133512706", "name": "GOTHAM CITY IMPROV INC", "city": "HUNTINGTON", "state": "NY", "zip": "11743-6135", "ntee": "A650", "ruling": "199006", "deductibility": "1", "assets": 0, "income": 0, "revenue": 0}, {"ein": "133573188", "name": "GOTHAM VOLLEYBALL LEAGUE INC", "city": "NEW YORK", "state": "NY", "zip": "10113-0961", "ntee": "N60", "ruling": "202211", "deductibility": "1", "assets": 438016, "income": 589723, "revenue": 589723}, {"ein": "133728568", "name": "GOTHAM PERFORMING ARTS INC", "city": "NEW YORK", "state": "NY", "zip": "10005-4301", "ntee": "A6B", "ruling": "200112", "deductibility": "1", "assets": 25533, "income": 181979, "revenue": 176519}, {"ein": "133944432", "name": "THE GOTHAM WEST COAST SWING CLUB INC", "city": "BROOKLYN", "state": "NY", "zip": "11217-2055", "ntee": "N50", "ruling": "199909", "deductibility": "2", "assets": 0, "income": 0, "revenue": 0}, {"ein": "134091158", "name": "NEW YORK GOTHAM YOUTH BASEBALL INC", "city": "ASTORIA", "state": "NY", "zip": "11106-5106", "ntee": "N63", "ruling": "200006", "deductibility": "1", "assets": 202883, "income": 693485, "revenue": 693485}, {"ein": "260142449", "name": "GOTHAM EARLY MUSIC SCENE", "city": "NEW YORK", "state": "NY", "zip": "10025-3431", "ntee": "A68", "ruling": "200712", "deductibility": "1", "assets": 298574, "income": 1067424, "revenue": 1067424}, {"ein": "260151402", "name": "GOTHAM GIRLS FC INC", "city": "NEW YORK", "state": "NY", "zip": "10011-8436", "ntee": "N64", "ruling": "200710", "deductibility": "1", "assets": 249809, "income": 521051, "revenue": 521051}, {"ein": "261712005", "name": "GOTHAM GIRLS ROLLER DERBY NFP INC", "city": "NEW YORK", "state": "NY", "zip": "10016-8019", "ntee": "N60", "ruling": "200809", "deductibility": "1", "assets": 242013, "income": 281239, "revenue": 280090}, {"ein": "332466057", "name": "GOTHAM JAZZ INC", "city": "NEW YORK", "state": "NY", "zip": "10025-4814", "ntee": "A68", "ruling": "202501", "deductibility": "1", "assets": 0, "income": 0, "revenue": 0}, {"ein": "383875287", "name": "GOTHAM HEALTH FQHC INC", "city": "NEW YORK", "state": "NY", "zip": "10007-0000", "ntee": "E60", "ruling": "201702", "deductibility": "1", "assets": 3482065, "income": 1590513, "revenue": 1590513}, {"ein": "462540688", "name": "GOTHAM INNOVATION GREENHOUSE INC", "city": "BROOKLYN", "state": "NY", "zip": "11238-1529", "ntee": "B90", "ruling": "201510", "deductibility": "1", "assets": 0, "income": 0, "revenue": 0}, {"ein": "474183517", "name": "GOTHAM WHALE INC", "city": "STATEN ISLAND", "state": "NY", "zip": "10301-2529", "ntee": "D30", "ruling": "201509", "deductibility": "1", "assets": 0, "income": 0, "revenue": 0}, {"ein": "510470596", "name": "GOTHAM CITY NETWORKING FOUNDATION", "city": "NEW YORK", "state": "NY", "zip": "10018-0947", "ntee": "T50", "ruling": "200312", "deductibility": "1", "assets": 0, "income": 0, "revenue": 0}, {"ein": "800396552", "name": "GOTHAM COMEDY FOUNDATION INC", "city": "NEW YORK", "state": "NY", "zip": "10011-0000", "ntee": "E19", "ruling": "201008", "deductibility": "1", "assets": 0, "income": 0, "revenue": 0}, {"ein": "810820847", "name": "GOTHAM GROTTO", "city": "NEW YORK", "state": "NY", "zip": "10021-4534", "ntee": "T99", "ruling": "201609", "deductibility": "1", "assets": 0, "income": 0, "revenue": 0}, {"ein": "814583404", "name": "GOTHAM PHILOSOPHICAL SOCIETY INC", "city": "NEW YORK", "state": "NY", "zip": "10040-3715", "ntee": "A70", "ruling": "201612", "deductibility": "1", "assets": 0, "income": 0, "revenue": 0}, {"ein": "821394492", "name": "GOTHAM BLACKBOX CORPORATION", "city": "NEW YORK", "state": "NY", "zip": "10014-3654", "ntee": "A60", "ruling": "201705", "deductibility": "1", "assets": 185, "income": 33, "revenue": 33}, {"ein": "822648959", "name": "GOTHAM CITY SYNCHRO", "city": "BROOKLYN", "state": "NY", "zip": "11215-6262", "ntee": "N50", "ruling": "201807", "deductibility": "2", "assets": 0, "income": 0, "revenue": 0}, {"ein": "852313194", "name": "GOTHAM YARDBIRD SANCTUARY INC", "city": "BROOKLYN", "state": "NY", "zip": "11237-5155", "ntee": "A20", "ruling": "202009", "deductibility": "1", "assets": 0, "income": 0, "revenue": 0}, {"ein": "853425480", "name": "GOTHAM FOOD PANTRY", "city": "NEW YORK", "state": "NY", "zip": "10128-0019", "ntee": "K31", "ruling": "202105", "deductibility": "1", "assets": 247071, "income": 3695276, "revenue": 3695276}, {"ein": "853808077", "name": "GOTHAM GIVES INC", "city": "NEW YORK", "state": "NY", "zip": "10014-1894", "ntee": "T22", "ruling": "202104", "deductibility": "1", "assets": 3446773, "income": 6285620, "revenue": 3664288}, {"ein": "862733709", "name": "GOTHAM HOUSING COALITION INC", "city": "NEW YORK", "state": "NY", "zip": "10004-2614", "ntee": "L05", "ruling": "202207", "deductibility": "1", "assets": 26330, "income": 0, "revenue": 0}, {"ein": "920610964", "name": "GOTHAM BAT CONSERVANCY INC", "city": "NEW YORK", "state": "NY", "zip": "10030-1293", "ntee": "D30", "ruling": "202212", "deductibility": "1", "assets": 0, "income": 0, "revenue": 0}, {"ein": "920997835", "name": "GOTHAM CITY MUSIC COLLECTIVE INC", "city": "NEW YORK", "state": "NY", "zip": "10128-3119", "ntee": "A68", "ruling": "202301", "deductibility": "1", "assets": 0, "income": 0, "revenue": 0}, {"ein": "922349499", "name": "GOTHAM CRICKET CLUB INC", "city": "NEW YORK", "state": "NY", "zip": "10036-4343", "ntee": "N70", "ruling": "202303", "deductibility": "1", "assets": 0, "income": 0, "revenue": 0}, {"ein": "923284022", "name": "THE GOTHAM BLUES SOCIETY NYC INC", "city": "NEW YORK", "state": "NY", "zip": "10024-6830", "ntee": "A68", "ruling": "202306", "deductibility": "1", "assets": 0, "income": 0, "revenue": 0}, {"ein": "992943517", "name": "GOTHAM BARREL CLUB INC", "city": "RIDGEWOOD", "state": "NY", "zip": "11385-1159", "ntee": "D12", "ruling": "202405", "deductibility": "1", "assets": 0, "income": 0, "revenue": 0}], "PAIN": [{"ein": "043665198", "name": "NEW YORK SOCIETY OF INTERVENTIONAL PAIN PHYSICIANS INC", "city": "LAKE SUCCESS", "state": "NY", "zip": "11042-2057", "ntee": "S41", "ruling": "201111", "deductibility": "2", "assets": 230494, "income": 30966, "revenue": 30966}, {"ein": "334050009", "name": "A FATHERS PAIN INC", "city": "BROOKLYN", "state": "NY", "zip": "11239-2899", "ntee": "P62", "ruling": "202505", "deductibility": "1", "assets": 0, "income": 0, "revenue": 0}, {"ein": "473670961", "name": "FOUNDATION FOR RESEARCH AND ADVOCACY FOR MUSCLE PAIN EDUCATION", "city": "NEW YORK", "state": "NY", "zip": "10016-1203", "ntee": "H90", "ruling": "201706", "deductibility": "1", "assets": 202433, "income": 151327, "revenue": 151327}, {"ein": "834521499", "name": "MAGNIFICAT PAIN VIVANT ASSOCIATION CORPORATION", "city": "WESTBURY", "state": "NY", "zip": "11590-2716", "ntee": "P20", "ruling": "202006", "deductibility": "1", "assets": 0, "income": 0, "revenue": 0}, {"ein": "834680065", "name": "NEW YORK NEW JERSEY PAIN SYMPOSIUM INC", "city": "LAKE SUCCESS", "state": "NY", "zip": "11042-2057", "ntee": "S41", "ruling": "202001", "deductibility": "2", "assets": 595146, "income": 765572, "revenue": 765572}, {"ein": "871185597", "name": "PUSH PAST PAST PAIN SUPPORT GROUP", "city": "FAR ROCKAWAY", "state": "NY", "zip": "11691-4546", "ntee": "F60", "ruling": "202110", "deductibility": "1", "assets": 0, "income": 0, "revenue": 0}, {"ein": "920924592", "name": "LATIN AMERICAN PAIN SOCIETY LTD", "city": "NEW YORK", "state": "NY", "zip": "10022-0000", "ntee": "E03", "ruling": "202408", "deductibility": "2", "assets": 72329, "income": 162855, "revenue": 162855}, {"ein": "994803931", "name": "AMERICAN SOCIETY FOR PAIN MANAGEMENT NURSING LONG ISLAND INC", "city": "EAST SETAUKET", "state": "NY", "zip": "11733-0405", "ntee": "E03", "ruling": "202507", "deductibility": "2", "assets": 0, "income": 0, "revenue": 0}], "RB": [{"ein": "043730759", "name": "RB SO INC", "city": "NEW YORK", "state": "NY", "zip": "10004-2454", "ntee": "R11", "ruling": "200302", "deductibility": "1", "assets": 1, "income": 0, "revenue": 0}, {"ein": "133772369", "name": "RB FOUNDATION INC", "city": "BRONX", "state": "NY", "zip": "10471-0526", "ntee": "T30J", "ruling": "199509", "deductibility": "1", "assets": 27844, "income": 45, "revenue": 45}, {"ein": "923003248", "name": "RB 135TH AVENUE HOUSING DEVELOPMENT FUND CORPORATION", "city": "BROOKLYN", "state": "NY", "zip": "11237-5001", "ntee": "L21", "ruling": "202403", "deductibility": "1", "assets": 0, "income": 0, "revenue": 0}], "ELEANOR": [{"ein": "050537985", "name": "ELEANOR ROOSEVELT CONFERENCE COMMITTEE INC", "city": "NEW YORK", "state": "NY", "zip": "10001-0003", "ntee": "A80", "ruling": "200402", "deductibility": "2", "assets": 0, "income": 0, "revenue": 0}, {"ein": "112202589", "name": "ELEANOR WHITMORE EARLY CHILDHOOD CENTER INC", "city": "EAST HAMPTON", "state": "NY", "zip": "11937-0063", "ntee": "P33Z", "ruling": "196909", "deductibility": "1", "assets": 2714015, "income": 2418026, "revenue": 2288286}, {"ein": "116042721", "name": "SAUL AND ELEANOR LERNER FOUNDATION", "city": "HEWLETT", "state": "NY", "zip": "11557-1600", "ntee": "", "ruling": "196504", "deductibility": "1", "assets": 395480, "income": 274479, "revenue": 0}, {"ein": "133792270", "name": "WILLIAM AND ELEANOR GRENBLATT FAMILY FOUNDATION", "city": "NEW YORK", "state": "NY", "zip": "10022-0000", "ntee": "", "ruling": "199506", "deductibility": "1", "assets": 208512, "income": 12758, "revenue": 12758}, {"ein": "141590637", "name": "ELEANOR ROOSEVELT CENTER AT VAL KILL INC", "city": "HYDE PARK", "state": "NY", "zip": "12538-0255", "ntee": "", "ruling": "197709", "deductibility": "1", "assets": 304743, "income": 103993, "revenue": 103993}, {"ein": "146024440", "name": "ELEANOR B REA TRUST UW", "city": "ITHACA", "state": "NY", "zip": "14851-6437", "ntee": "", "ruling": "197301", "deductibility": "1", "assets": 4124233, "income": 4030580, "revenue": 0}, {"ein": "200338384", "name": "RALPH AND ELEANOR CANTISANO FAMILY FOUNDATION", "city": "ROCHESTER", "state": "NY", "zip": "14624-1365", "ntee": "T20", "ruling": "200312", "deductibility": "1", "assets": 202595, "income": 122022, "revenue": 0}, {"ein": "222507158", "name": "GERARDUS SMITH-JOHN G GREEN TRUST U/W ELEANOR GREEN", "city": "ALBANY", "state": "NY", "zip": "12205-5941", "ntee": "", "ruling": "198406", "deductibility": "1", "assets": 5645258, "income": 580983, "revenue": 0}, {"ein": "223480467", "name": "ELEANOR AND LEO ZUCKER FAMILY FOUNDATION INC", "city": "SUFFERN", "state": "NY", "zip": "10901-2509", "ntee": "T20Z", "ruling": "199703", "deductibility": "1", "assets": 541603, "income": 29561, "revenue": 0}, {"ein": "232868322", "name": "ELEANOR AND HOWARD MORGAN FAMILY FOUNDATION", "city": "NEW YORK", "state": "NY", "zip": "10065-7269", "ntee": "T20Z", "ruling": "199701", "deductibility": "1", "assets": 478743, "income": 23693, "revenue": 0}, {"ein": "331854475", "name": "ELEANOR CARES INC", "city": "NEW YORK", "state": "NY", "zip": "10004-1617", "ntee": "P60", "ruling": "202411", "deductibility": "1", "assets": 0, "income": 0, "revenue": 0}, {"ein": "412232223", "name": "ELEANOR SOPHIE KAHAN GEMILAS CHESED FUND INC", "city": "MONSEY", "state": "NY", "zip": "10952-1507", "ntee": "X90", "ruling": "200711", "deductibility": "1", "assets": 190660, "income": 1423, "revenue": 0}, {"ein": "464020564", "name": "ELEANOR ROOSEVELT VAL-KILL PARTNERSHIP", "city": "HYDE PARK", "state": "NY", "zip": "12538-1917", "ntee": "A80", "ruling": "201503", "deductibility": "1", "assets": 397691, "income": 265823, "revenue": 260188}, {"ein": "475311501", "name": "ELEANOR AMBOS FOUNDATION INC", "city": "NEW YORK", "state": "NY", "zip": "10011-2355", "ntee": "W99", "ruling": "201910", "deductibility": "1", "assets": 2736074, "income": 143810, "revenue": 0}, {"ein": "830693921", "name": "RALPH AND ELEANOR FRIEDLANDER FOUNDATION INC", "city": "NEW YORK", "state": "NY", "zip": "10024-4922", "ntee": "T20", "ruling": "202203", "deductibility": "1", "assets": 339816, "income": 11545, "revenue": 0}, {"ein": "880832596", "name": "ELEANOR NOW", "city": "NEW YORK", "state": "NY", "zip": "10075-0142", "ntee": "B90", "ruling": "202308", "deductibility": "1", "assets": 10601, "income": 285725, "revenue": 285725}, {"ein": "882955427", "name": "ELEANOR DOWE FOUNDATION INC", "city": "BRONX", "state": "NY", "zip": "10456-2661", "ntee": "P99", "ruling": "202301", "deductibility": "2", "assets": 0, "income": 0, "revenue": 0}], "MARILLA": [{"ein": "050543366", "name": "KIWANIS CLUB OF MARILLA FOUNDATION", "city": "ALDEN", "state": "NY", "zip": "14004-8824", "ntee": "O50", "ruling": "200306", "deductibility": "1", "assets": 0, "income": 0, "revenue": 0}, {"ein": "160840120", "name": "MARILLA CEMETERY ASSOC", "city": "NORTH TONAWANDA", "state": "NY", "zip": "14120-0000", "ntee": "Y50", "ruling": "201406", "deductibility": "1", "assets": 1104441, "income": 99787, "revenue": 99787}, {"ein": "161023305", "name": "BOYS & GIRLS CLUB OF ELMA MARILLA & WALES INC", "city": "ELMA", "state": "NY", "zip": "14059-9224", "ntee": "O23Z", "ruling": "197304", "deductibility": "1", "assets": 2023343, "income": 911435, "revenue": 794120}, {"ein": "161187560", "name": "MARILLA FIRE COMPANY INC", "city": "MARILLA", "state": "NY", "zip": "14102-0124", "ntee": "M24", "ruling": "200404", "deductibility": "1", "assets": 2362093, "income": 420959, "revenue": 420959}, {"ein": "161188776", "name": "MARILLA HISTORICAL SOCIETY", "city": "EAST AURORA", "state": "NY", "zip": "14052-9538", "ntee": "A80", "ruling": "201506", "deductibility": "1", "assets": 0, "income": 0, "revenue": 0}, {"ein": "161562686", "name": "MARILLA SNO-MOB INCORPORATED", "city": "MARILLA", "state": "NY", "zip": "14102-0137", "ntee": "N30", "ruling": "201603", "deductibility": "1", "assets": 0, "income": 0, "revenue": 0}, {"ein": "166091701", "name": "ELMA MARILLA WALES SPORTS INC", "city": "ELMA", "state": "NY", "zip": "14059-0509", "ntee": "Z99Z", "ruling": "196801", "deductibility": "1", "assets": 212267, "income": 438698, "revenue": 438698}, {"ein": "202296698", "name": "FRIENDS OF MARILLA INC", "city": "MARILLA", "state": "NY", "zip": "14102-9728", "ntee": "N32", "ruling": "200505", "deductibility": "1", "assets": 0, "income": 0, "revenue": 0}, {"ein": "222520984", "name": "MARILLA VOLUNTEER EXEMPT FIREMENS BENEVOLENT ASSOCIATION", "city": "MARILLA", "state": "NY", "zip": "14102-0091", "ntee": "", "ruling": "198502", "deductibility": "2", "assets": 96990, "income": 61753, "revenue": 32994}, {"ein": "813829287", "name": "MARILLA PRIMARY PTO", "city": "MARILLA", "state": "NY", "zip": "14102-9728", "ntee": "B94", "ruling": "201704", "deductibility": "1", "assets": 0, "income": 0, "revenue": 0}], "FENWAY": [{"ein": "050552625", "name": "FENWAY GOLF CLUB CHARITABLE FUND", "city": "SCARSDALE", "state": "NY", "zip": "10583-0007", "ntee": "T31", "ruling": "200304", "deductibility": "1", "assets": 31961, "income": 61983, "revenue": 61983}, {"ein": "131706855", "name": "FENWAY GOLF CLUB INC", "city": "WHITE PLAINS", "state": "NY", "zip": "10605-0000", "ntee": "", "ruling": "194201", "deductibility": "2", "assets": 22315993, "income": 3776717, "revenue": 3572621}], "ALIYA": [{"ein": "050609266", "name": "CONGREGATION CHABAD INREACH ALIYA", "city": "BROOKLYN", "state": "NY", "zip": "11225-4513", "ntee": "X30", "ruling": "200809", "deductibility": "1", "assets": 0, "income": 0, "revenue": 0}], "DOWNTOWN": [{"ein": "061401412", "name": "DOWNTOWN MIDDLETOWN DISTRICT MANAGEMENT ASSOCIATION INC", "city": "MIDDLETOWN", "state": "NY", "zip": "10940-5801", "ntee": "S31", "ruling": "200803", "deductibility": "1", "assets": 27994, "income": 102816, "revenue": 102816}, {"ein": "061525659", "name": "GLASS MENAGERIE A DOWNTOWN COMMUNITY CHORUS", "city": "NEW YORK", "state": "NY", "zip": "10003-4342", "ntee": "A60", "ruling": "199904", "deductibility": "1", "assets": 17609, "income": 31311, "revenue": 30511}, {"ein": "061578286", "name": "DOWNTOWN BRONX MEDICAL ASSOCIATES PC", "city": "BRONX", "state": "NY", "zip": "10451-5504", "ntee": "E300", "ruling": "200110", "deductibility": "1", "assets": 16298993, "income": 42673837, "revenue": 42673837}, {"ein": "113357637", "name": "GLEN COVE DOWNTOWN DISTRICT MGMT ASSN INC", "city": "GLEN COVE", "state": "NY", "zip": "11542-5006", "ntee": "S21Z", "ruling": "199802", "deductibility": "1", "assets": 100831, "income": 187258, "revenue": 187258}, {"ein": "113614596", "name": "NEW YORK DOWNTOWN HOSPITAL CHINESE COMM PARTNSHP FOR HEALTH FDN INC", "city": "NEW YORK", "state": "NY", "zip": "10065-4870", "ntee": "E11", "ruling": "200111", "deductibility": "1", "assets": 4962906, "income": 344736, "revenue": 344736}, {"ein": "132742777", "name": "DOWNTOWN COMMUNITY TELEVISION CENTER INC", "city": "NEW YORK", "state": "NY", "zip": "10013-4410", "ntee": "A32Z", "ruling": "197304", "deductibility": "1", "assets": 7911775, "income": 5050070, "revenue": 5107706}, {"ein": "133465285", "name": "DOWNTOWN ART CO", "city": "NEW YORK", "state": "NY", "zip": "10003-8903", "ntee": "", "ruling": "199310", "deductibility": "1", "assets": 5686958, "income": 40467, "revenue": 40467}, {"ein": "133685642", "name": "DOWNTOWN MUSIC AT GRACE INC", "city": "WHITE PLAINS", "state": "NY", "zip": "10601-1902", "ntee": "", "ruling": "199403", "deductibility": "1", "assets": 48161, "income": 133720, "revenue": 133720}, {"ein": "133729310", "name": "DOWNTOWN MANHATTAN SOCCER LEAGUE INC", "city": "NEW YORK", "state": "NY", "zip": "10008-2108", "ntee": "N64", "ruling": "199409", "deductibility": "1", "assets": 409684, "income": 434077, "revenue": 434077}, {"ein": "133784406", "name": "DOWNTOWN MANHATTAN COMMUNITY DEVELOPMENT CORPORATION", "city": "NEW YORK", "state": "NY", "zip": "10002-0000", "ntee": "L25Z", "ruling": "199504", "deductibility": "1", "assets": 2208157, "income": 852353, "revenue": 852353}, {"ein": "133791550", "name": "ALLIANCE FOR DOWNTOWN NEW YORK INC", "city": "NEW YORK", "state": "NY", "zip": "10271-3399", "ntee": "S99Z", "ruling": "199505", "deductibility": "1", "assets": 25648148, "income": 23639640, "revenue": 23639640}, {"ein": "133796327", "name": "DOWNTOWN BOATHOUSE INC", "city": "NEW YORK", "state": "NY", "zip": "10014-0710", "ntee": "N32", "ruling": "199502", "deductibility": "1", "assets": 33457, "income": 28884, "revenue": 28884}, {"ein": "133798295", "name": "YONKERS DOWNTOWN WATERFRONT DEVELOPMENT CORPORATION", "city": "YONKERS", "state": "NY", "zip": "10701-3818", "ntee": "S31I", "ruling": "199707", "deductibility": "1", "assets": 267257, "income": 1074, "revenue": 0}, {"ein": "134019316", "name": "WHITE PLAINS DOWNTOWN DISTRICT MANAGEMENT ASSOCIATION INC", "city": "WHITE PLAINS", "state": "NY", "zip": "10605-1317", "ntee": "S30", "ruling": "200108", "deductibility": "1", "assets": 848622, "income": 1404712, "revenue": 1404712}, {"ein": "134057312", "name": "DOWNTOWN LITTLE SCHOOL INC", "city": "NEW YORK", "state": "NY", "zip": "10038-3719", "ntee": "B21", "ruling": "200005", "deductibility": "1", "assets": 846771, "income": 983663, "revenue": 983663}, {"ein": "134089489", "name": "DOWNTOWN NEW ROCHELLE BUSINESS IMPROVEMENT DIST MGMT ASSOC INC", "city": "NEW ROCHELLE", "state": "NY", "zip": "10801-3405", "ntee": "S30", "ruling": "200007", "deductibility": "2", "assets": 462687, "income": 693283, "revenue": 693283}, {"ein": "134130051", "name": "DOWNTOWN UNITED SOCCER CLUB INC", "city": "NEW YORK", "state": "NY", "zip": "10014-2678", "ntee": "N64", "ruling": "200012", "deductibility": "1", "assets": 2465502, "income": 4585253, "revenue": 4548953}, {"ein": "134303348", "name": "DOWNTOWN BROOKLYN NEIGHBORHOOD ALLIANCE", "city": "BROOKLYN", "state": "NY", "zip": "11217-1702", "ntee": "S31", "ruling": "200707", "deductibility": "1", "assets": 5822, "income": 124999, "revenue": 124999}, {"ein": "135668436", "name": "DOWNTOWN-LOWER MANHATTAN", "city": "NEW YORK", "state": "NY", "zip": "10271-3399", "ntee": "", "ruling": "195902", "deductibility": "2", "assets": 489297, "income": 217322, "revenue": 217322}, {"ein": "141790346", "name": "DOWNTOWN ALBANY RESTORATION PROGRAM INC", "city": "ALBANY", "state": "NY", "zip": "12207-2104", "ntee": "S20Z", "ruling": "199707", "deductibility": "1", "assets": 1041305, "income": 1162489, "revenue": 1162489}, {"ein": "160848735", "name": "DOWNTOWN HEALTH CLUB OF ELMIRA N Y INC", "city": "ELMIRA", "state": "NY", "zip": "14901-3017", "ntee": "", "ruling": "196304", "deductibility": "2", "assets": 23536, "income": 59591, "revenue": 59591}, {"ein": "161079352", "name": "DOWNTOWN COMMITTEE OF SYRACUSE INC", "city": "SYRACUSE", "state": "NY", "zip": "13202-1305", "ntee": "", "ruling": "197804", "deductibility": "2", "assets": 1352699, "income": 1821654, "revenue": 1821654}, {"ein": "161081958", "name": "ROCHESTER DOWNTOWN DEVELOPMENT CORPORATION", "city": "ROCHESTER", "state": "NY", "zip": "14604-2410", "ntee": "S30", "ruling": "201612", "deductibility": "1", "assets": 2609582, "income": 1890890, "revenue": 1890890}, {"ein": "161434067", "name": "DOWNTOWN CANANDAIGUA BUSINESS MANAGEMENT ASSOC INC", "city": "CANANDAIGUA", "state": "NY", "zip": "14424-1903", "ntee": "S21Z", "ruling": "199704", "deductibility": "1", "assets": 90234, "income": 191704, "revenue": 191704}, {"ein": "161446426", "name": "AUBURN DOWNTOWN PARTNERSHIP INC", "city": "AUBURN", "state": "NY", "zip": "13021-3929", "ntee": "S80Z", "ruling": "199410", "deductibility": "1", "assets": 292302, "income": 674841, "revenue": 671690}, {"ein": "161464168", "name": "DOWNTOWN SPECIAL SERVICES INCP INC", "city": "ROCHESTER", "state": "NY", "zip": "14604-2410", "ntee": "S30", "ruling": "202204", "deductibility": "1", "assets": 312891, "income": 395420, "revenue": 395420}, {"ein": "161518142", "name": "ITHACA DOWNTOWN BUSINESS IMPROVEMENT DISTRICT INC", "city": "ITHACA", "state": "NY", "zip": "14850-5566", "ntee": "S40", "ruling": "200705", "deductibility": "1", "assets": 991353, "income": 1659056, "revenue": 1659056}, {"ein": "161579440", "name": "BINGHAMTON DOWNTOWN SINGERS INC", "city": "BINGHAMTON", "state": "NY", "zip": "13902-1143", "ntee": "A6B", "ruling": "200001", "deductibility": "1", "assets": 73367, "income": 65429, "revenue": 63629}, {"ein": "204296071", "name": "CORTLAND DOWNTOWN PARTNERSHIP INC", "city": "CORTLAND", "state": "NY", "zip": "13045-0224", "ntee": "A80", "ruling": "200606", "deductibility": "1", "assets": 1749659, "income": 82008, "revenue": 82008}, {"ein": "204854777", "name": "DOWNTOWN NIAGARA FALLS BUSINESSASSOCIATION INC", "city": "NIAGARA FALLS", "state": "NY", "zip": "14303-1132", "ntee": "S30", "ruling": "200612", "deductibility": "1", "assets": 23985, "income": 9423, "revenue": 9423}, {"ein": "205182805", "name": "RUN 4 DOWNTOWN INC", "city": "MIDDLETOWN", "state": "NY", "zip": "10940-5835", "ntee": "S12", "ruling": "201209", "deductibility": "1", "assets": 0, "income": 0, "revenue": 0}, {"ein": "205323707", "name": "DOWNTOWN BROOKLYN PARTNERSHIP", "city": "BROOKLYN", "state": "NY", "zip": "11201-3874", "ntee": "S20", "ruling": "200708", "deductibility": "1", "assets": 7504055, "income": 1945764, "revenue": 1945764}, {"ein": "205876523", "name": "DOWNTOWN BEAUTIFICATIONORGANIZATION OF CENTER MORICHES INC", "city": "CTR MORICHES", "state": "NY", "zip": "11934-3510", "ntee": "S20", "ruling": "200704", "deductibility": "2", "assets": 0, "income": 0, "revenue": 0}, {"ein": "208429489", "name": "DOWNTOWN GIANTS YOUTH FOOTBALL INC", "city": "NEW YORK", "state": "NY", "zip": "10280-1031", "ntee": "N65", "ruling": "201507", "deductibility": "1", "assets": 12150, "income": 812896, "revenue": 812896}, {"ein": "222403297", "name": "WFD WORKING FOR DOWNTOWN INC", "city": "BUFFALO", "state": "NY", "zip": "14202-1702", "ntee": "S81Z", "ruling": "199205", "deductibility": "1", "assets": 0, "income": 0, "revenue": 0}, {"ein": "223026071", "name": "ELMIRA DOWNTOWN DEVELOPMENT INC", "city": "ELMIRA", "state": "NY", "zip": "14901-2937", "ntee": "S20Z", "ruling": "199010", "deductibility": "1", "assets": 141322, "income": 290748, "revenue": 290748}, {"ein": "273638583", "name": "DISTRICT MANAGEMENT ASSOCIATION DOWNTOWN TROY BUSINESS IMPROVEMENT", "city": "TROY", "state": "NY", "zip": "12180-4037", "ntee": "", "ruling": "201203", "deductibility": "1", "assets": 184667, "income": 266742, "revenue": 233596}, {"ein": "364465022", "name": "DOWNTOWN SCHENECTADY IMPROVEMENT CORP", "city": "SCHENECTADY", "state": "NY", "zip": "12305-1707", "ntee": "S31", "ruling": "200310", "deductibility": "1", "assets": 752540, "income": 1537723, "revenue": 1516362}, {"ein": "412111487", "name": "DOWNTOWN FLUSHING TRANSIT HUB DISTRICT MANAGEMENT ASSOCIATION", "city": "FLUSHING", "state": "NY", "zip": "11354-4450", "ntee": "S40", "ruling": "200702", "deductibility": "1", "assets": 1150993, "income": 1483378, "revenue": 1478921}, {"ein": "453081961", "name": "GENEVA DOWNTOWN ASSOCIATION INC", "city": "GENEVA", "state": "NY", "zip": "14456-3416", "ntee": "S20", "ruling": "202111", "deductibility": "1", "assets": 0, "income": 0, "revenue": 0}, {"ein": "453825302", "name": "CANANDAIGUA DOWNTOWN MERCHANTS ASSOCIATION", "city": "CANANDAIGUA", "state": "NY", "zip": "14424-1903", "ntee": "S40", "ruling": "201409", "deductibility": "2", "assets": 0, "income": 0, "revenue": 0}, {"ein": "454138651", "name": "DOWNTOWN ISLAMIC CENTER", "city": "BROOKLYN", "state": "NY", "zip": "11212-4440", "ntee": "X40", "ruling": "201410", "deductibility": "1", "assets": 0, "income": 0, "revenue": 0}, {"ein": "455419583", "name": "DOWNTOWN SYRACUSE FOUNDATION INC", "city": "SYRACUSE", "state": "NY", "zip": "13202-1305", "ntee": "S20", "ruling": "201208", "deductibility": "1", "assets": 480793, "income": 177139, "revenue": 177139}, {"ein": "461974668", "name": "FRIENDS OF DOWNTOWN PARKS NYC INC", "city": "NEW YORK", "state": "NY", "zip": "10012-4453", "ntee": "C30", "ruling": "201409", "deductibility": "1", "assets": 0, "income": 0, "revenue": 0}, {"ein": "462522499", "name": "SHAKESPEARE DOWNTOWN", "city": "NEW YORK", "state": "NY", "zip": "10038-2018", "ntee": "A65", "ruling": "201611", "deductibility": "1", "assets": 3722, "income": 57127, "revenue": 57127}, {"ein": "812946188", "name": "DOWNTOWN TROY BUSINESS IMPROVEMENT DISTRICT FOUNDATION INC", "city": "TROY", "state": "NY", "zip": "12180-4037", "ntee": "S20", "ruling": "201704", "deductibility": "1", "assets": 24374, "income": 31300, "revenue": 31300}, {"ein": "813620262", "name": "DOWNTOWN VAAD", "city": "NEW YORK", "state": "NY", "zip": "10007-0016", "ntee": "", "ruling": "201609", "deductibility": "1", "assets": 0, "income": 0, "revenue": 0}, {"ein": "823345817", "name": "DOWNTOWN BROOKLYN ARTS ALLIANCE INC", "city": "BROOKLYN", "state": "NY", "zip": "11217-1145", "ntee": "A20", "ruling": "201903", "deductibility": "1", "assets": 70715, "income": 131262, "revenue": 131262}, {"ein": "830426427", "name": "JEWISH STUDENT FOUNDATION OF DOWNTOWN BROOKLYN INC", "city": "BROOKLYN", "state": "NY", "zip": "11205-2630", "ntee": "X30", "ruling": "201912", "deductibility": "1", "assets": 0, "income": 0, "revenue": 0}, {"ein": "831452380", "name": "DOWNTOWN ISLAMIC CENTER INC", "city": "BUFFALO", "state": "NY", "zip": "14212-1052", "ntee": "X40", "ruling": "202208", "deductibility": "1", "assets": 8683, "income": 61588, "revenue": 61588}, {"ein": "834145110", "name": "DOWNTOWN ROCS INC", "city": "SPENCERPORT", "state": "NY", "zip": "14559-2409", "ntee": "S20", "ruling": "201904", "deductibility": "1", "assets": 0, "income": 0, "revenue": 0}, {"ein": "842068390", "name": "BINGHAMTON DOWNTOWN COURTYARD MARKET INC", "city": "BINGHAMTON", "state": "NY", "zip": "13905-4180", "ntee": "A03", "ruling": "202203", "deductibility": "1", "assets": 0, "income": 0, "revenue": 0}, {"ein": "843337937", "name": "MANHATTAN DOWNTOWN BANGLADESHI COMMUNITY ASSOCIATION INC", "city": "NEW YORK", "state": "NY", "zip": "10002-2168", "ntee": "A23", "ruling": "202212", "deductibility": "1", "assets": 0, "income": 0, "revenue": 0}, {"ein": "843563548", "name": "MUNA CENTER OF BROOKLYN DOWNTOWN INC", "city": "BROOKLYN", "state": "NY", "zip": "11216-5887", "ntee": "X40", "ruling": "202401", "deductibility": "1", "assets": 0, "income": 0, "revenue": 0}, {"ein": "851612680", "name": "DOWNTOWN ITHACA LOCAL DEVELOPMENT CORPORATION", "city": "ITHACA", "state": "NY", "zip": "14850-0000", "ntee": "P20", "ruling": "202104", "deductibility": "1", "assets": 3822316, "income": 1525291, "revenue": 1525291}, {"ein": "854254117", "name": "REDEEMER PRESBYTERIAN CHURCH DOWNTOWN", "city": "NEW YORK", "state": "NY", "zip": "10024-5259", "ntee": "", "ruling": "197404", "deductibility": "0", "assets": 0, "income": 0, "revenue": 0}, {"ein": "863574660", "name": "DOWNTOWN BROOKLYN PARTNERSHIP HOLDINGS INC", "city": "BROOKLYN", "state": "NY", "zip": "11201-3874", "ntee": "S11", "ruling": "202205", "deductibility": "2", "assets": 4582650, "income": 906675, "revenue": 906675}, {"ein": "881142488", "name": "DOWNTOWN BUSINESS DEVELOPMENT CORPORATION OF WATERTOWN", "city": "WATERTOWN", "state": "NY", "zip": "13601-0482", "ntee": "S22", "ruling": "202307", "deductibility": "1", "assets": 172399, "income": 181363, "revenue": 177026}, {"ein": "923700025", "name": "DOWNTOWN MINYAN TORAH INC", "city": "BROOKLYN", "state": "NY", "zip": "11223-4943", "ntee": "X30", "ruling": "202403", "deductibility": "1", "assets": 0, "income": 0, "revenue": 0}, {"ein": "933677787", "name": "DOWNTOWN ITHACA LDC II INC", "city": "ITHACA", "state": "NY", "zip": "14850-5587", "ntee": "S30", "ruling": "202403", "deductibility": "1", "assets": 0, "income": 0, "revenue": 0}], "HOSPITALITY": [{"ein": "061599105", "name": "PROJECT HOSPITALITY 385 HOUSING DEVELOPMENT FUND CORPORATION", "city": "STATEN ISLAND", "state": "NY", "zip": "10302-1440", "ntee": "L20", "ruling": "200102", "deductibility": "1", "assets": 4317190, "income": 1519117, "revenue": 1519117}, {"ein": "113330747", "name": "INTERNATIONAL ASSOCIATION OF HOSPITALITY ACCOUNTANTS", "city": "EAST HAMPTON", "state": "NY", "zip": "11937-6141", "ntee": "", "ruling": "199810", "deductibility": "2", "assets": 0, "income": 0, "revenue": 0}, {"ein": "113354735", "name": "PEANUT BUTTER GANG HOSPITALITY TOO INC", "city": "BRENTWOOD", "state": "NY", "zip": "11717-0514", "ntee": "T30", "ruling": "200012", "deductibility": "1", "assets": 28725, "income": 51993, "revenue": 51993}, {"ein": "131101450", "name": "NEW YORK STATE HOSPITALITY & TOURISM ASSOCIATION INC", "city": "ALBANY", "state": "NY", "zip": "12205-1135", "ntee": "", "ruling": "197609", "deductibility": "2", "assets": 2173055, "income": 1612688, "revenue": 871676}, {"ein": "133234441", "name": "PROJECT HOSPITALITY INC", "city": "STATEN ISLAND", "state": "NY", "zip": "10302-1440", "ntee": "", "ruling": "198506", "deductibility": "1", "assets": 39087965, "income": 53087936, "revenue": 52374686}, {"ein": "133317994", "name": "HOSPITALITY SALES & MARKETING ASSOCIATION INTERNATIONAL INC", "city": "BRIARCLIFF", "state": "NY", "zip": "10510-1736", "ntee": "", "ruling": "198503", "deductibility": "2", "assets": 34832, "income": 98794, "revenue": 98794}, {"ein": "133578483", "name": "FAIRFIED WESCHESTER CHAPTER OF THE HOSPITALITY FINAINCIAL TECHNOLOGY", "city": "NEW YORK", "state": "NY", "zip": "10004-1564", "ntee": "", "ruling": "199810", "deductibility": "2", "assets": 24034, "income": 96287, "revenue": 96287}, {"ein": "133811023", "name": "NEW YORK HOSPITALITY COUNCIL INC", "city": "NEW YORK", "state": "NY", "zip": "10036-0000", "ntee": "", "ruling": "199509", "deductibility": "2", "assets": 5997, "income": 4112, "revenue": 4112}, {"ein": "136017810", "name": "HOSPITALITY COMMITTEE FOR UNITED NATIONS DELEGATIONS INC", "city": "NEW YORK", "state": "NY", "zip": "10017-3507", "ntee": "Q420", "ruling": "195908", "deductibility": "1", "assets": 687232, "income": 335319, "revenue": 196161}, {"ein": "141540533", "name": "HOSPITALITY HOUSE THERAPEUTIC COMMUNITY INC", "city": "ALBANY", "state": "NY", "zip": "12206-2611", "ntee": "", "ruling": "197301", "deductibility": "1", "assets": 10717904, "income": 3937515, "revenue": 3937515}, {"ein": "141755666", "name": "NORTHERN NEW YORK VISITORS HOSPITALITY CENTERS", "city": "MALONE", "state": "NY", "zip": "12953-0685", "ntee": "P20Z", "ruling": "199401", "deductibility": "1", "assets": 20748, "income": 72136, "revenue": 72136}, {"ein": "141810209", "name": "FRED AND GERTRUDE ENGLAND HOSPITALITY EDUCATION FOUNDATION", "city": "ALBANY", "state": "NY", "zip": "12205-1135", "ntee": "B82", "ruling": "200012", "deductibility": "1", "assets": 300813, "income": 23915, "revenue": 15358}, {"ein": "161498637", "name": "INTERFAITH HOSPITALITY CENTER", "city": "PINE CITY", "state": "NY", "zip": "14871-0364", "ntee": "I43", "ruling": "199904", "deductibility": "1", "assets": 0, "income": 0, "revenue": 0}, {"ein": "166038688", "name": "ST JOSEPHS HOUSE OF HOSPITALITY OF ROCHESTER N Y FEDERAL STATION", "city": "ROCHESTER", "state": "NY", "zip": "14620-0000", "ntee": "", "ruling": "194910", "deductibility": "1", "assets": 718410, "income": 347187, "revenue": 347187}, {"ein": "166065585", "name": "GREATER SYRACUSE HOSPITALITY AND TOURISM ASSOCIATION INC", "city": "SYRACUSE", "state": "NY", "zip": "13220-3587", "ntee": "S40", "ruling": "201304", "deductibility": "2", "assets": 0, "income": 0, "revenue": 0}, {"ein": "332163123", "name": "HOSPITALITY FUND OF LI INC", "city": "JERICHO", "state": "NY", "zip": "11753-1681", "ntee": "B82", "ruling": "202412", "deductibility": "1", "assets": 0, "income": 0, "revenue": 0}, {"ein": "364454775", "name": "CHABAD LUBAVITCH HOSPITALITY CENTER ESHEL HACHNOSAS ORCHIM INC", "city": "BROOKLYN", "state": "NY", "zip": "11213-3409", "ntee": "Q12", "ruling": "201409", "deductibility": "1", "assets": 5547748, "income": 4189375, "revenue": 4189375}, {"ein": "371654388", "name": "NEW YORK CITY HOSPITALITY ALLIANCE INC", "city": "NEW YORK", "state": "NY", "zip": "10001-7604", "ntee": "S41", "ruling": "201209", "deductibility": "2", "assets": 1356345, "income": 1349194, "revenue": 1349194}, {"ein": "463930779", "name": "YEHUDA MEMORIAL CENTER FOR JEWISH HOSPITALITY INC", "city": "SPRING VALLEY", "state": "NY", "zip": "10977-1317", "ntee": "X99", "ruling": "201409", "deductibility": "1", "assets": 0, "income": 0, "revenue": 0}, {"ein": "473211215", "name": "SAIRA HOSPITALITY INC", "city": "GARDEN CITY", "state": "NY", "zip": "11530-2015", "ntee": "J22", "ruling": "201602", "deductibility": "1", "assets": 0, "income": 0, "revenue": 0}, {"ein": "760721842", "name": "OUR LADY OF LOURDES HOSPITALITY NORTH AMERICAN VOLUNTEERS", "city": "SYRACUSE", "state": "NY", "zip": "13208-1717", "ntee": "X19", "ruling": "200303", "deductibility": "1", "assets": 1087056, "income": 1632184, "revenue": 1614803}, {"ein": "824104043", "name": "BETHANY HOSPITALITY KITCHEN LTD", "city": "CENTRAL ISLIP", "state": "NY", "zip": "11722-0056", "ntee": "K30", "ruling": "201804", "deductibility": "1", "assets": 0, "income": 0, "revenue": 0}, {"ein": "833958576", "name": "WOMEN IN HOSPITALITY UNITED INC", "city": "NEW YORK", "state": "NY", "zip": "10003-9525", "ntee": "P80", "ruling": "201908", "deductibility": "1", "assets": 223500, "income": 319570, "revenue": 319570}, {"ein": "850945222", "name": "FAMILY MEAL HOSPITALITY COALITION", "city": "HAMBURG", "state": "NY", "zip": "14075-2325", "ntee": "K12", "ruling": "202006", "deductibility": "1", "assets": 0, "income": 0, "revenue": 0}, {"ein": "851799612", "name": "HOSPITALITY PROJECT INC", "city": "NEW YORK", "state": "NY", "zip": "10023-8253", "ntee": "J22", "ruling": "202103", "deductibility": "1", "assets": 57631, "income": 128672, "revenue": 128672}, {"ein": "863223341", "name": "SPIRITUAL HOSPITALITY INC", "city": "ELMONT", "state": "NY", "zip": "11003-3450", "ntee": "P20", "ruling": "202306", "deductibility": "1", "assets": 0, "income": 0, "revenue": 0}, {"ein": "883398651", "name": "NYC HOSPITALITY ALLIANCE IMPACT FOUNDATION INC", "city": "NEW YORK", "state": "NY", "zip": "10019-4951", "ntee": "J22", "ruling": "202209", "deductibility": "1", "assets": 284773, "income": 269418, "revenue": 269418}, {"ein": "883921341", "name": "DOROTHY DAY HOUSE OF HOSPITALITY INC", "city": "STATEN ISLAND", "state": "NY", "zip": "10305-1252", "ntee": "P85", "ruling": "202302", "deductibility": "1", "assets": 0, "income": 0, "revenue": 0}, {"ein": "932646919", "name": "ALLIANCE FOR HOSPITALITY EQUITY AND DIVERSITY INC", "city": "NEW YORK", "state": "NY", "zip": "10003-4475", "ntee": "B01", "ruling": "202405", "deductibility": "1", "assets": 215585, "income": 200967, "revenue": 200967}, {"ein": "933373083", "name": "HOSPITALITY ON DEMAND INC", "city": "NEW YORK", "state": "NY", "zip": "10017-4369", "ntee": "S20", "ruling": "202310", "deductibility": "1", "assets": 0, "income": 0, "revenue": 0}], "KINGSBOROUGH": [{"ein": "112050344", "name": "KINGSBOROUGH COMMUNITY COLLEGE ASSOCIATION INC", "city": "BROOKLYN", "state": "NY", "zip": "11235-2333", "ntee": "B41Z", "ruling": "196710", "deductibility": "1", "assets": 2374425, "income": 1157285, "revenue": 1157285}, {"ein": "112556900", "name": "THE KINGSBOROUGH MUSICAL SOCIETY", "city": "BROOKLYN", "state": "NY", "zip": "11234-4906", "ntee": "A6B", "ruling": "202502", "deductibility": "1", "assets": 0, "income": 0, "revenue": 0}, {"ein": "112620778", "name": "KINGSBOROUGH COMMUNITY COLLEGE FOUNDATION", "city": "BROOKLYN", "state": "NY", "zip": "11235-2333", "ntee": "T31", "ruling": "198310", "deductibility": "1", "assets": 4449578, "income": 771957, "revenue": 703935}, {"ein": "113022873", "name": "KINGSBOROUGH COMMUNITY COLLEGE AUXILIARY ENTERPRISES CORP", "city": "BROOKLYN", "state": "NY", "zip": "11235-2333", "ntee": "Z99Z", "ruling": "199403", "deductibility": "1", "assets": 4147145, "income": 1005276, "revenue": 1005276}, {"ein": "274318279", "name": "CHABAD OF KINGSBOROUGH", "city": "BROOKLYN", "state": "NY", "zip": "11235-6812", "ntee": "X30", "ruling": "201801", "deductibility": "1", "assets": 0, "income": 0, "revenue": 0}], "TIMOTHY": [{"ein": "112394864", "name": "TIMOTHY HILL CHILDRENS RANCH INC", "city": "RIVERHEAD", "state": "NY", "zip": "11901-2034", "ntee": "P730", "ruling": "197703", "deductibility": "1", "assets": 19144512, "income": 17568620, "revenue": 17505140}, {"ein": "133207382", "name": "FIRST TIMOTHY CHRISTIAN CHURCH", "city": "SPRING VALLEY", "state": "NY", "zip": "10977-4150", "ntee": "", "ruling": "198408", "deductibility": "1", "assets": 0, "income": 0, "revenue": 0}, {"ein": "133642501", "name": "TIMOTHY J & LINDA D ONEILL FOUNDATION", "city": "NEW YORK", "state": "NY", "zip": "10274-0073", "ntee": "", "ruling": "199211", "deductibility": "1", "assets": 12852348, "income": 18447652, "revenue": 0}, {"ein": "141510239", "name": "SAINT TIMOTHY LUTHERAN CHURCH", "city": "HYDE PARK", "state": "NY", "zip": "12538-2169", "ntee": "", "ruling": "194107", "deductibility": "1", "assets": 0, "income": 0, "revenue": 0}, {"ein": "161117683", "name": "ST TIMOTHY LUTHERAN CHURCH", "city": "BEMUS POINT", "state": "NY", "zip": "14712-0919", "ntee": "", "ruling": "198804", "deductibility": "1", "assets": 0, "income": 0, "revenue": 0}, {"ein": "161381724", "name": "ST TIMOTHY LUTHERAN CHURCH", "city": "GENESEO", "state": "NY", "zip": "14454-9786", "ntee": "", "ruling": "198804", "deductibility": "1", "assets": 0, "income": 0, "revenue": 0}, {"ein": "204957743", "name": "TIMOTHY J MURPHY FOUNDATION INC", "city": "WYNANTSKILL", "state": "NY", "zip": "12198-7820", "ntee": "B82", "ruling": "200608", "deductibility": "1", "assets": 0, "income": 0, "revenue": 0}, {"ein": "237118762", "name": "FIRST TIMOTHY MISSIONARY BAPTIST CHURCH", "city": "BUFFALO", "state": "NY", "zip": "14211-2340", "ntee": "", "ruling": "197303", "deductibility": "1", "assets": 0, "income": 0, "revenue": 0}, {"ein": "262993574", "name": "TIMOTHY HILL CHRISTIAN CAMP INC", "city": "RIVERHEAD", "state": "NY", "zip": "11901-2034", "ntee": "N20", "ruling": "202506", "deductibility": "1", "assets": 0, "income": 0, "revenue": 0}, {"ein": "266140904", "name": "TIMOTHY AND MICHELE BARAKETT FOUNDATION", "city": "NEW YORK", "state": "NY", "zip": "10001-7604", "ntee": "T20", "ruling": "200812", "deductibility": "1", "assets": 11921915, "income": 1316487, "revenue": 0}, {"ein": "320242057", "name": "CAPTAIN TIMOTHY J MOSHIER MEMORIAL FOUNDATION INC", "city": "DELMAR", "state": "NY", "zip": "12054-3023", "ntee": "T30", "ruling": "200905", "deductibility": "1", "assets": 44510, "income": 6307, "revenue": 0}, {"ein": "454100688", "name": "TIMOTHY AND TINA DELANEY FAMILY FOUNDATION", "city": "MAYFIELD", "state": "NY", "zip": "12117-0300", "ntee": "T20", "ruling": "201302", "deductibility": "1", "assets": 2151212, "income": 538525, "revenue": 0}, {"ein": "455559468", "name": "TEARING UP THE TURF WITH TIMOTHY & HIS FRIENDS WITH DOWN SYNDROME", "city": "HALFMOON", "state": "NY", "zip": "12065-3244", "ntee": "P20", "ruling": "201403", "deductibility": "1", "assets": 41133, "income": 0, "revenue": 0}, {"ein": "460960323", "name": "TIMOTHY MURPHY PLAYHOUSE INC", "city": "MIDDLEBURGH", "state": "NY", "zip": "12122-0653", "ntee": "P20", "ruling": "201409", "deductibility": "1", "assets": 0, "income": 0, "revenue": 0}, {"ein": "461078738", "name": "FDNY CAPTAIN TIMOTHY STACKPOLE MEMORIAL FOUNDATION INC", "city": "BELLE HARBOR", "state": "NY", "zip": "11694-1628", "ntee": "S12", "ruling": "202302", "deductibility": "1", "assets": 0, "income": 0, "revenue": 0}, {"ein": "510248514", "name": "SAINT TIMOTHY HOLY CHURCH INC", "city": "BROOKLYN", "state": "NY", "zip": "11212-5024", "ntee": "", "ruling": "197606", "deductibility": "1", "assets": 0, "income": 0, "revenue": 0}, {"ein": "562342038", "name": "TIMOTHY M DRAPER CENTER FOR DANCE EDUCATION INC", "city": "ROCHESTER", "state": "NY", "zip": "14618-5408", "ntee": "A62", "ruling": "200311", "deductibility": "1", "assets": 1250733, "income": 847668, "revenue": 831345}, {"ein": "651210976", "name": "TIMOTHY FOUNDATION INC", "city": "RIVERHEAD", "state": "NY", "zip": "11901-2034", "ntee": "S47", "ruling": "200412", "deductibility": "2", "assets": 1075112, "income": 5913, "revenue": 5913}, {"ein": "814713083", "name": "TIMOTHY HAYDEN MULLIGAN FOUNDATION", "city": "HARTSDALE", "state": "NY", "zip": "10530-1839", "ntee": "T12", "ruling": "201702", "deductibility": "1", "assets": 928952, "income": 220510, "revenue": 0}, {"ein": "872044217", "name": "TIMOTHY AND MARGARET BUSCH FAMILY FOUNDATION INC", "city": "PITTSFORD", "state": "NY", "zip": "14534-4566", "ntee": "T22", "ruling": "202206", "deductibility": "1", "assets": 1248698, "income": 480015, "revenue": 0}, {"ein": "882004822", "name": "TIMOTHY OGRADY CHARITABLE FOUNDATION", "city": "SYOSSET", "state": "NY", "zip": "11791-1202", "ntee": "T50", "ruling": "202209", "deductibility": "1", "assets": 52931, "income": 147349, "revenue": 80329}, {"ein": "883058563", "name": "TIMOTHY P KLEIN MEMORIAL FOUNDATION INC", "city": "BELLE HARBOR", "state": "NY", "zip": "11694-1351", "ntee": "T12", "ruling": "202304", "deductibility": "1", "assets": 580568, "income": 284931, "revenue": 207880}, {"ein": "921241187", "name": "TIMOTHY PROJECT INC", "city": "NORTH BALDWIN", "state": "NY", "zip": "11510-2746", "ntee": "X20", "ruling": "202212", "deductibility": "1", "assets": 0, "income": 0, "revenue": 0}, {"ein": "933096474", "name": "TIMOTHY ROAD PRODUCTIONS INC", "city": "NEW YORK", "state": "NY", "zip": "10028-2079", "ntee": "A31", "ruling": "202309", "deductibility": "1", "assets": 0, "income": 0, "revenue": 0}, {"ein": "992555120", "name": "TEAMSTERS LOCAL 1205 TIMOTHY LYNCH MEMORIAL SCHOLARSHIP FUND", "city": "FARMINGDALE", "state": "NY", "zip": "11735-2657", "ntee": "B82", "ruling": "202409", "deductibility": "1", "assets": 42150, "income": 42150, "revenue": 42150}], "MOORINGS": [{"ein": "112443312", "name": "THE MOORINGS OF EAST ISLIP INC", "city": "MELVILLE", "state": "NY", "zip": "11747-2335", "ntee": "", "ruling": "198609", "deductibility": "2", "assets": 1563348, "income": 578758, "revenue": 578758}], "DEVELOPEMENT": [{"ein": "112527097", "name": "GREATER SHEEPSHEAD BAY DEVELOPEMENT CORP", "city": "BROOKLYN", "state": "NY", "zip": "11234-4453", "ntee": "S200", "ruling": "198111", "deductibility": "1", "assets": 23353, "income": 65169, "revenue": 65169}, {"ein": "112577741", "name": "QUEENS BNAI BRITH HOUSING DEVELOPEMENT FUND CO INC", "city": "FLUSHING", "state": "NY", "zip": "11355-4070", "ntee": "L220", "ruling": "198109", "deductibility": "1", "assets": 4416456, "income": 3795506, "revenue": 3795506}, {"ein": "112598992", "name": "COMMUNITY SERVICES HOUSING DEVELOPEMENT CORPORATION", "city": "BROOKLYN", "state": "NY", "zip": "11233-5048", "ntee": "L52Z", "ruling": "198811", "deductibility": "1", "assets": 2022559, "income": 26024, "revenue": 26024}, {"ein": "113029451", "name": "H S C NO 4 HOUSING DEVELOPEMENT FUND COMPANY INC", "city": "GREENLAWN", "state": "NY", "zip": "11740-2406", "ntee": "", "ruling": "199103", "deductibility": "1", "assets": 2531073, "income": 586144, "revenue": 586144}, {"ein": "113137273", "name": "ST PAULS GARDENS HOUSING DEVELOPEMENT FUND COMPANY INC", "city": "HICKSVILLE", "state": "NY", "zip": "11801-6232", "ntee": "", "ruling": "199304", "deductibility": "1", "assets": 4221261, "income": 1003048, "revenue": 1003048}, {"ein": "113444948", "name": "ELLERY COURT SENIOR HOUSING DEVELOPEMENT FUND CORPORATION", "city": "BROOKLYN", "state": "NY", "zip": "11211-1695", "ntee": "P75", "ruling": "199808", "deductibility": "1", "assets": 4296800, "income": 1129560, "revenue": 1129560}, {"ein": "132989538", "name": "NORTHSIDE CENTER FOR CHILD DEVELOPEMENT DAY SCHOOL", "city": "NEW YORK", "state": "NY", "zip": "10029-3810", "ntee": "B210", "ruling": "199509", "deductibility": "1", "assets": 20535765, "income": 5151150, "revenue": 5151150}, {"ein": "133560466", "name": "GEMA HALL HOUSING DEVELOPEMENT FUND CORP", "city": "NEW YORK", "state": "NY", "zip": "10035-0000", "ntee": "L25Z", "ruling": "199011", "deductibility": "1", "assets": 5666299, "income": 728496, "revenue": 728496}, {"ein": "133948612", "name": "BONIFACIO CORA TEXIDOR HOUSING DEVELOPEMENT FUND CORP", "city": "NEW YORK", "state": "NY", "zip": "10029-1075", "ntee": "L80Z", "ruling": "199707", "deductibility": "1", "assets": 4575906, "income": 1730306, "revenue": 1730306}, {"ein": "133957282", "name": "K&L HOUSING DEVELOPEMENT FUND COMPANY INC", "city": "NEW YORK", "state": "NY", "zip": "10024-3213", "ntee": "L210", "ruling": "199708", "deductibility": "1", "assets": 3493925, "income": 1030295, "revenue": 1030295}, {"ein": "141701264", "name": "ELLENBURG HOUSING DEVELOPEMENT FUND COMPANY INC", "city": "ELLENBURG CTR", "state": "NY", "zip": "12934-2980", "ntee": "L21Z", "ruling": "199308", "deductibility": "1", "assets": 353708, "income": 212855, "revenue": 212855}, {"ein": "141815076", "name": "RIVERCREST DEVELOPEMENT CORPORATION", "city": "AMSTERDAM", "state": "NY", "zip": "12010-4002", "ntee": "L21", "ruling": "200003", "deductibility": "1", "assets": 2554635, "income": 420365, "revenue": 420365}, {"ein": "161288030", "name": "OUR MOTHER OF GOOD COUNSEL HOUSING DEVELOPEMENT FUND CO INC", "city": "BUFFALO", "state": "NY", "zip": "14203-1711", "ntee": "", "ruling": "193603", "deductibility": "1", "assets": 1401354, "income": 426938, "revenue": 426938}, {"ein": "222806500", "name": "ACADEMY ARMS HOUSING DEVELOPEMENT FUND COMPANY INC", "city": "ONEONTA", "state": "NY", "zip": "13820-2343", "ntee": "L20Z", "ruling": "198708", "deductibility": "1", "assets": 432531, "income": 264676, "revenue": 264676}, {"ein": "800546640", "name": "NYCHA I HOUSING DEVELOPEMENT FUND CORPORATION", "city": "NEW YORK", "state": "NY", "zip": "10007-2516", "ntee": "L20", "ruling": "201206", "deductibility": "1", "assets": 28219084, "income": 28244135, "revenue": 0}, {"ein": "841622031", "name": "OCEAN BAY COMMUNITY DEVELOPEMENT CORPORATION", "city": "ARVERNE", "state": "NY", "zip": "11692-1550", "ntee": "S31", "ruling": "200311", "deductibility": "1", "assets": 893897, "income": 1836390, "revenue": 1836390}], "VIZNITZ": [{"ein": "112598110", "name": "CONGREGATION KHAL TZEMACH TZADIK VIZNITZ", "city": "BROOKLYN", "state": "NY", "zip": "11211-7622", "ntee": "", "ruling": "198803", "deductibility": "1", "assets": 0, "income": 0, "revenue": 0}, {"ein": "112994697", "name": "KOLELL EMES V EMUNAH VIZNITZ INC", "city": "MONSEY", "state": "NY", "zip": "10952-2726", "ntee": "", "ruling": "199004", "deductibility": "1", "assets": 0, "income": 0, "revenue": 0}, {"ein": "113100972", "name": "YESHIVA IMREI CHAIM VIZNITZ OF BORO PARK INC", "city": "BROOKLYN", "state": "NY", "zip": "11204-1531", "ntee": "", "ruling": "199210", "deductibility": "1", "assets": 0, "income": 0, "revenue": 0}, {"ein": "113484262", "name": "CONG TZEMACH TZADIK VIZNITZ WILLIAMSBURG", "city": "BROOKLYN", "state": "NY", "zip": "11211-7205", "ntee": "X30", "ruling": "199906", "deductibility": "1", "assets": 0, "income": 0, "revenue": 0}, {"ein": "113586659", "name": "MOSDOS VIZNITZ", "city": "BROOKLYN", "state": "NY", "zip": "11204-1425", "ntee": "X30", "ruling": "200108", "deductibility": "1", "assets": 0, "income": 0, "revenue": 0}, {"ein": "237379099", "name": "YESHIVATH VIZNITZ DKHAL TORATH CHAIM INC", "city": "MONSEY", "state": "NY", "zip": "10952-0446", "ntee": "", "ruling": "197407", "deductibility": "1", "assets": 0, "income": 0, "revenue": 0}, {"ein": "270328382", "name": "AMERICAN FRIENDS OF MERKAZ CHASIDEI VIZNITZ INC", "city": "BROOKLYN", "state": "NY", "zip": "11206-5498", "ntee": "Q112", "ruling": "201705", "deductibility": "1", "assets": 500641, "income": 1681740, "revenue": 1681740}, {"ein": "270596459", "name": "CONGREGATION DCHASIDAI VIZNITZ WILLIAMSBURG", "city": "BROOKLYN", "state": "NY", "zip": "11249-7821", "ntee": "X30", "ruling": "201204", "deductibility": "1", "assets": 0, "income": 0, "revenue": 0}, {"ein": "274656599", "name": "YESHIVA KENTANE IMREI CHAIM VIZNITZ OF BORO PARK", "city": "BROOKLYN", "state": "NY", "zip": "11219-3823", "ntee": "X30", "ruling": "201606", "deductibility": "1", "assets": 0, "income": 0, "revenue": 0}, {"ein": "331424636", "name": "CONGREGATION VIZNITZ BLOOMINGROVE", "city": "MONROE", "state": "NY", "zip": "10950-1705", "ntee": "X30", "ruling": "202506", "deductibility": "1", "assets": 0, "income": 0, "revenue": 0}, {"ein": "461160959", "name": "CONGREGATION YESHUOS MOSHE VIZNITZ", "city": "MONSEY", "state": "NY", "zip": "10952-1731", "ntee": "X30", "ruling": "201311", "deductibility": "1", "assets": 0, "income": 0, "revenue": 0}, {"ein": "462612703", "name": "CONG KHAL TORATH CHAIM VIZNITZ OF BP", "city": "BROOKLYN", "state": "NY", "zip": "11219-3828", "ntee": "X30", "ruling": "201410", "deductibility": "1", "assets": 0, "income": 0, "revenue": 0}, {"ein": "463374803", "name": "CONGREGATION VIZNITZ BEIT SHEMESH INC", "city": "SPRING VALLEY", "state": "NY", "zip": "10977-3316", "ntee": "X30", "ruling": "201312", "deductibility": "1", "assets": 0, "income": 0, "revenue": 0}, {"ein": "471974792", "name": "KOLLEL EREV UBOKER ODEH HASHEM VIZNITZ INC", "city": "BROOKLYN", "state": "NY", "zip": "11211-7107", "ntee": "X30", "ruling": "201501", "deductibility": "1", "assets": 0, "income": 0, "revenue": 0}, {"ein": "550798766", "name": "VIZNITZ INSTITUTIONS INC", "city": "KIAMESHA LAKE", "state": "NY", "zip": "12751-0406", "ntee": "X30", "ruling": "200212", "deductibility": "1", "assets": 0, "income": 0, "revenue": 0}, {"ein": "824814891", "name": "CONG VIZNITZ DKHAL TORAS CHAIM", "city": "BROOKLYN", "state": "NY", "zip": "11219-3828", "ntee": "X30", "ruling": "201910", "deductibility": "1", "assets": 0, "income": 0, "revenue": 0}, {"ein": "850931257", "name": "CONGREGATION YESHIAS MOSHE VIZNITZ OF BORO PARK INC", "city": "BROOKLYN", "state": "NY", "zip": "11219-2027", "ntee": "X30", "ruling": "202202", "deductibility": "1", "assets": 0, "income": 0, "revenue": 0}, {"ein": "853518115", "name": "CONG IMREI CHAIM VIZNITZ", "city": "BROOKLYN", "state": "NY", "zip": "11219-3823", "ntee": "X30", "ruling": "202110", "deductibility": "1", "assets": 0, "income": 0, "revenue": 0}, {"ein": "872908625", "name": "YESHIVAH YESHUOIS MOISHE VIZNITZ", "city": "MONSEY", "state": "NY", "zip": "10952-0911", "ntee": "X30", "ruling": "202209", "deductibility": "1", "assets": 0, "income": 0, "revenue": 0}, {"ein": "874002085", "name": "CONG KHAL TORATH CHAIM VIZNITZ OF MONSEY INC", "city": "MONSEY", "state": "NY", "zip": "10952-2726", "ntee": "X30", "ruling": "202202", "deductibility": "1", "assets": 0, "income": 0, "revenue": 0}, {"ein": "881574625", "name": "YESHIVATH VIZNITZ FOUNDATION", "city": "MONSEY", "state": "NY", "zip": "10952-2239", "ntee": "X30", "ruling": "202209", "deductibility": "1", "assets": 0, "income": 0, "revenue": 0}, {"ein": "992396044", "name": "OHR MORDECHAI-VIZNITZ", "city": "SPRING VALLEY", "state": "NY", "zip": "10977-3312", "ntee": "X30", "ruling": "202404", "deductibility": "1", "assets": 0, "income": 0, "revenue": 0}, {"ein": "993730918", "name": "CONGREGATION KOLLEL TORATH MORDECHAI VIZNITZ", "city": "KIAMESHA LAKE", "state": "NY", "zip": "12751-5413", "ntee": "X30", "ruling": "202412", "deductibility": "1", "assets": 0, "income": 0, "revenue": 0}], "NOLAN": [{"ein": "112617929", "name": "ST THOMAS KNIGHTS-MAUREEN NOLAN MEMORIAL SCHOLARSHIP FUND", "city": "GARDEN CITY", "state": "NY", "zip": "11530-1648", "ntee": "", "ruling": "198301", "deductibility": "1", "assets": 95195, "income": 158899, "revenue": 0}, {"ein": "133343293", "name": "DAVID P NOLAN FOUNDATION INC", "city": "NEW YORK", "state": "NY", "zip": "10033-0000", "ntee": "", "ruling": "198606", "deductibility": "1", "assets": 2479793, "income": 117448, "revenue": 0}, {"ein": "141790059", "name": "LYNN FAVROT NOLAN FAMILY FUND", "city": "LAGRANGEVILLE", "state": "NY", "zip": "12540-6515", "ntee": "T70J", "ruling": "199612", "deductibility": "1", "assets": 296234, "income": 466087, "revenue": 0}, {"ein": "141813595", "name": "DOROTHY NOLAN HOME SCHOOL ASSOCIATION", "city": "SARATOGA SPGS", "state": "NY", "zip": "12866-5714", "ntee": "B94", "ruling": "200901", "deductibility": "1", "assets": 49106, "income": 99689, "revenue": 75249}, {"ein": "222209064", "name": "METRO PLAZA APARTMENTS INCORPORATED C O THOMAS NOLAN", "city": "BINGHAMTON", "state": "NY", "zip": "13903-1759", "ntee": "L20Z", "ruling": "199403", "deductibility": "1", "assets": 5265317, "income": 2002778, "revenue": 2002778}, {"ein": "222826285", "name": "ROBERT J NOLAN FOUNDATION INC", "city": "QUEENSBURY", "state": "NY", "zip": "12804-0392", "ntee": "", "ruling": "198801", "deductibility": "1", "assets": 1819575, "income": 326786, "revenue": 0}, {"ein": "810849283", "name": "THE MICHAEL NOLAN FOUNDATION INC", "city": "BRONX", "state": "NY", "zip": "10470-2122", "ntee": "B82", "ruling": "201601", "deductibility": "1", "assets": 0, "income": 0, "revenue": 0}, {"ein": "832309820", "name": "THE EDWARD AND TERESA NOLAN FAMILY FOUNDATION INC", "city": "WESTHAMPTON", "state": "NY", "zip": "11977-0008", "ntee": "T01", "ruling": "201908", "deductibility": "1", "assets": 1757738, "income": 884695, "revenue": 0}, {"ein": "993833296", "name": "GUNNAR NOLAN MEMORIAL SCHOLARSHIP FUND INC", "city": "MEDFORD", "state": "NY", "zip": "11763-4437", "ntee": "B82", "ruling": "202407", "deductibility": "1", "assets": 0, "income": 0, "revenue": 0}], "SHMIRA": [{"ein": "112719958", "name": "SHMIRA VOLUNTEER PATROL CORP", "city": "BROOKLYN", "state": "NY", "zip": "11206-5407", "ntee": "I20Z", "ruling": "198806", "deductibility": "1", "assets": 372355, "income": 937573, "revenue": 937573}, {"ein": "113260405", "name": "SHMIRA CIVILIAN VOLUNTEER PATROL OF BORO PARK INC", "city": "BROOKLYN", "state": "NY", "zip": "11218-3712", "ntee": "M40", "ruling": "201303", "deductibility": "1", "assets": 84518, "income": 430608, "revenue": 430608}, {"ein": "263227002", "name": "C H SHMIRA INC", "city": "BROOKLYN", "state": "NY", "zip": "11213-4333", "ntee": "S20", "ruling": "201804", "deductibility": "1", "assets": 0, "income": 0, "revenue": 0}, {"ein": "465242448", "name": "SHMIRA COMMUNITY SERVICES INC", "city": "BROOKLYN", "state": "NY", "zip": "11219-3077", "ntee": "W99", "ruling": "201407", "deductibility": "1", "assets": 378519, "income": 455908, "revenue": 436864}, {"ein": "871163426", "name": "CATSKILLS SHMIRA PUBLIC SAFETY INC", "city": "BROOKLYN", "state": "NY", "zip": "11219-1449", "ntee": "I20", "ruling": "202109", "deductibility": "1", "assets": 0, "income": 0, "revenue": 0}, {"ein": "932061665", "name": "FLATBUSH SHMIRA PUBLIC SAFETY INC", "city": "BROOKLYN", "state": "NY", "zip": "11234-4437", "ntee": "M23", "ruling": "202307", "deductibility": "1", "assets": 0, "income": 0, "revenue": 0}], "ZEKAINIM": [{"ein": "112785208", "name": "BETH MEDRASH AND KOLLEL TIFERETH ZEKAINIM LEVI YITZCHOK", "city": "BROOKLYN", "state": "NY", "zip": "11213-4326", "ntee": "", "ruling": "198604", "deductibility": "1", "assets": 0, "income": 0, "revenue": 0}], "LIJENSK": [{"ein": "112864477", "name": "CONGREGATION LIJENSK", "city": "BROOKLYN", "state": "NY", "zip": "11204-1134", "ntee": "", "ruling": "198707", "deductibility": "1", "assets": 0, "income": 0, "revenue": 0}], "EFE": [{"ein": "112948275", "name": "LA IGLESIA EVANGELICA APOSTOLES Y PROFET AS EFE 220 OF BAY SHORE INC", "city": "BAY SHORE", "state": "NY", "zip": "11706-2541", "ntee": "", "ruling": "199212", "deductibility": "1", "assets": 1881611, "income": 312133, "revenue": 312133}, {"ein": "113085821", "name": "IGLESIA EVANGELICA APOSTLES Y PROFETAS EFE 2 20 OF WESTBURY INC", "city": "WESTBURY", "state": "NY", "zip": "11590-0806", "ntee": "", "ruling": "199409", "deductibility": "1", "assets": 0, "income": 0, "revenue": 0}, {"ein": "113117110", "name": "LA IGLESIA EVANGELICA APOSTOLES Y PROFETAS EFE 20 OF JAMAICA INC", "city": "JAMAICA", "state": "NY", "zip": "11435-3640", "ntee": "X21", "ruling": "200106", "deductibility": "1", "assets": 0, "income": 0, "revenue": 0}, {"ein": "113287968", "name": "LA IGLESIA EVANGELICA APOSTOLES Y PROFETAS OF BABYLON EFE 2 20 INC", "city": "WEST BABYLON", "state": "NY", "zip": "11704-1006", "ntee": "X99", "ruling": "202212", "deductibility": "1", "assets": 0, "income": 0, "revenue": 0}, {"ein": "421541528", "name": "IGLESIA APOSTOLES Y PROFETAS EFE 220 JEHOVA SHALON", "city": "BRENTWOOD", "state": "NY", "zip": "11717-0000", "ntee": "X20", "ruling": "201009", "deductibility": "1", "assets": 0, "income": 0, "revenue": 0}, {"ein": "453176379", "name": "IGLESIA APOSTOLES Y PROFETAS EFE 2 20 EL SILOE JUAN 9 11", "city": "BRENTWOOD", "state": "NY", "zip": "11717-4804", "ntee": "X20", "ruling": "201304", "deductibility": "1", "assets": 0, "income": 0, "revenue": 0}, {"ein": "900157308", "name": "LA IGLESIA EVANGELICA APOSTOLES Y PROFETAS EFE 2 20 OF PATCHOGUE NY", "city": "PATCHOGUE", "state": "NY", "zip": "11772-4119", "ntee": "", "ruling": "200309", "deductibility": "1", "assets": 0, "income": 0, "revenue": 0}], "LITZENSK": [{"ein": "112980335", "name": "MOSDOS NOAM ELIMELECH D LITZENSK INC", "city": "BROOKLYN", "state": "NY", "zip": "11219-2200", "ntee": "", "ruling": "198909", "deductibility": "1", "assets": 0, "income": 0, "revenue": 0}], "82ND": [{"ein": "113096017", "name": "82ND ST DISTRICT MANAGEMENT ASSOCIATION", "city": "JACKSON HEIGHTS", "state": "NY", "zip": "11372-7017", "ntee": "S30Z", "ruling": "199306", "deductibility": "1", "assets": 262813, "income": 343050, "revenue": 343050}, {"ein": "200788352", "name": "82ND STREET ACADEMICS", "city": "JACKSON HTS", "state": "NY", "zip": "11372-5061", "ntee": "B21", "ruling": "200501", "deductibility": "1", "assets": 1815865, "income": 4876242, "revenue": 4876242}], "ANTIQUITY": [{"ein": "113345022", "name": "ANTIQUITY MASONIC HISTORICAL SOCIETY", "city": "BRENTWOOD", "state": "NY", "zip": "11717-4647", "ntee": "", "ruling": "199703", "deductibility": "1", "assets": 0, "income": 0, "revenue": 0}], "ALMANAH": [{"ein": "113346367", "name": "ALMANAH V YATOM YE ODED", "city": "MONSEY", "state": "NY", "zip": "10952-2501", "ntee": "X30Z", "ruling": "199707", "deductibility": "1", "assets": 0, "income": 0, "revenue": 0}], "HEFZI": [{"ein": "113360114", "name": "IGLESIA DE DIOS HEFZI-BA INC", "city": "INWOOD", "state": "NY", "zip": "11096-1540", "ntee": "X99Z", "ruling": "199704", "deductibility": "1", "assets": 0, "income": 0, "revenue": 0}], "MAPELTON": [{"ein": "113387193", "name": "MAPELTON EDUCATIONAL CENTER CONGREGATION AND YESHIVA TIFERES", "city": "BROOKLYN", "state": "NY", "zip": "11204-2236", "ntee": "X30Z", "ruling": "199711", "deductibility": "1", "assets": 0, "income": 0, "revenue": 0}], "YOTZEI": [{"ein": "113392783", "name": "CONGREGATION MENACHEM ZION YOTZEI RUSSIA INC", "city": "BROOKLYN", "state": "NY", "zip": "11219-1737", "ntee": "X30Z", "ruling": "199808", "deductibility": "1", "assets": 0, "income": 0, "revenue": 0}], "ROLLHAUS": [{"ein": "113414048", "name": "MICHAEL & GILA ROLLHAUS FOUNDATION", "city": "FLUSHING", "state": "NY", "zip": "11367-2932", "ntee": "T22Z", "ruling": "199802", "deductibility": "1", "assets": 62615, "income": 3020, "revenue": 0}], "KANAS": [{"ein": "113440709", "name": "JOHN AND ELAINE KANAS FAMILY FOUNDATION", "city": "REMSENBURG", "state": "NY", "zip": "11960-0668", "ntee": "T20Z", "ruling": "199807", "deductibility": "1", "assets": 31629977, "income": 8151217, "revenue": 0}], "DALY": [{"ein": "113508340", "name": "BISHOP JAMES DALY GARDENS SENIOR HOUSING DEVELOPMENT FUND COMPANY I", "city": "HICKSVILLE", "state": "NY", "zip": "11801-6232", "ntee": "P20", "ruling": "199912", "deductibility": "1", "assets": 3351026, "income": 519533, "revenue": 519533}, {"ein": "116080611", "name": "JOSEPH R DALY FOUNDATION", "city": "FORT SALONGA", "state": "NY", "zip": "11768-2430", "ntee": "T22Z", "ruling": "196802", "deductibility": "1", "assets": 2103985, "income": 703301, "revenue": 0}, {"ein": "133535818", "name": "GEORGE DALY HOUSING DEVELOPMENT FUND COMPANY INC", "city": "NEW YORK", "state": "NY", "zip": "10007-2817", "ntee": "", "ruling": "199005", "deductibility": "1", "assets": 1210818, "income": 2909035, "revenue": 2909035}, {"ein": "462496701", "name": "DALY 180 HOUSING DEVELOPMENT FUND CORPORATION", "city": "NEW YORK", "state": "NY", "zip": "10010-6033", "ntee": "L20", "ruling": "201404", "deductibility": "2", "assets": 5334398, "income": 1865251, "revenue": 1865251}, {"ein": "800536794", "name": "DALY HSA INC", "city": "PRT WASHINGTN", "state": "NY", "zip": "11050-2472", "ntee": "B80", "ruling": "201006", "deductibility": "1", "assets": 106033, "income": 153115, "revenue": 71380}, {"ein": "821763489", "name": "PS 15 PATRICK F DALY SCHOOL PTA", "city": "BROOKLYN", "state": "NY", "zip": "11231-1600", "ntee": "B94", "ruling": "201708", "deductibility": "1", "assets": 29978, "income": 50150, "revenue": 50150}, {"ein": "912021298", "name": "JOSEPH R DALY FOUNDATION B", "city": "SAG HARBOR", "state": "NY", "zip": "11963-3552", "ntee": "T22Z", "ruling": "199711", "deductibility": "1", "assets": 751194, "income": 30333, "revenue": 0}], "LCHASANIM": [{"ein": "113523003", "name": "CHESED LCHASANIM", "city": "BROOKLN", "state": "NY", "zip": "11211-6264", "ntee": "X30", "ruling": "200003", "deductibility": "1", "assets": 0, "income": 0, "revenue": 0}], "OVO": [{"ein": "113549790", "name": "OVO INC", "city": "BROAD CHANNEL", "state": "NY", "zip": "11693-1101", "ntee": "A60", "ruling": "200012", "deductibility": "1", "assets": 0, "income": 0, "revenue": 0}], "SEONG": [{"ein": "113581309", "name": "SEONG SEO PRESBYTERIAN CHURCH", "city": "RIDGEWOOD", "state": "NY", "zip": "11385-1552", "ntee": "X21", "ruling": "200102", "deductibility": "1", "assets": 0, "income": 0, "revenue": 0}, {"ein": "562404943", "name": "SEONG CHUN AND NICK WINTER FOUNDATION", "city": "NEW YORK", "state": "NY", "zip": "10012-1204", "ntee": "T22", "ruling": "200311", "deductibility": "1", "assets": 60509, "income": 92917, "revenue": 0}], "MONTEFIORE": [{"ein": "131057890", "name": "MONTEFIORE CEMETERY CORPORATION", "city": "SAINT ALBANS", "state": "NY", "zip": "11412-0098", "ntee": "", "ruling": "193608", "deductibility": "1", "assets": 186247822, "income": 31994553, "revenue": 17825172}, {"ein": "131740114", "name": "MONTEFIORE MEDICAL CENTER", "city": "BRONX", "state": "NY", "zip": "10467-2401", "ntee": "E220", "ruling": "193804", "deductibility": "1", "assets": 4597467871, "income": 5062740947, "revenue": 5057497655}, {"ein": "131740119", "name": "MONTEFIORE NYACK HOSPITAL", "city": "NYACK", "state": "NY", "zip": "10960-1912", "ntee": "E220", "ruling": "193705", "deductibility": "1", "assets": 293045651, "income": 349012335, "revenue": 348954733}, {"ein": "133245804", "name": "MONTEFIORE NYACK HOSPITAL FOUNDATION INC", "city": "NYACK", "state": "NY", "zip": "10960-1912", "ntee": "E22I", "ruling": "198503", "deductibility": "1", "assets": 3379470, "income": 1062804, "revenue": 962496}, {"ein": "133622106", "name": "CHILD DEVELOPMENT CENTER OF THE MOSHOLU-MONTEFIORE COMMUNITY CTR", "city": "BRONX", "state": "NY", "zip": "10467-2302", "ntee": "B210", "ruling": "199209", "deductibility": "1", "assets": 17738635, "income": 33607882, "revenue": 33607882}, {"ein": "133622107", "name": "MOSHOLU-MONTEFIORE COMMUNITY CENTER INC", "city": "BRONX", "state": "NY", "zip": "10467-2302", "ntee": "N31Z", "ruling": "199208", "deductibility": "1", "assets": 23780993, "income": 10975317, "revenue": 10920856}, {"ein": "136053348", "name": "TR MONTEFIORE HOSPITAL FOR", "city": "NEW YORK", "state": "NY", "zip": "10013-2362", "ntee": "", "ruling": "198210", "deductibility": "0", "assets": 623136, "income": 192582, "revenue": 0}, {"ein": "201615393", "name": "MONTEFIORE HEALTH SYSTEM INC", "city": "BRONX", "state": "NY", "zip": "10467-2401", "ntee": "E19", "ruling": "200507", "deductibility": "1", "assets": 886300716, "income": 393445493, "revenue": 393445493}, {"ein": "237160641", "name": "MONTEFIORE HOSPITAL HOUSING SECTION II INC", "city": "BRONX", "state": "NY", "zip": "10467-2510", "ntee": "", "ruling": "197111", "deductibility": "2", "assets": 12265692, "income": 7210817, "revenue": 7210817}, {"ein": "462916938", "name": "MONTEFIORE MOUNT VERNON HOSPITAL", "city": "NEW ROCHELLE", "state": "NY", "zip": "10801-5502", "ntee": "E20", "ruling": "201411", "deductibility": "1", "assets": 41885391, "income": 61725421, "revenue": 61723291}, {"ein": "462931956", "name": "MONTEFIORE NEW ROCHELLE HOSPITAL", "city": "NEW ROCHELLE", "state": "NY", "zip": "10801-5502", "ntee": "E22", "ruling": "201409", "deductibility": "1", "assets": 120367220, "income": 168060644, "revenue": 167940214}, {"ein": "471582973", "name": "MONTEFIORE EINSTEIN INC", "city": "TARRYTOWN", "state": "NY", "zip": "10591-6301", "ntee": "E21", "ruling": "201507", "deductibility": "1", "assets": 16098824, "income": 39104364, "revenue": 39104364}, {"ein": "471600439", "name": "MONTEFIORE FOUNDATION INC", "city": "BRONX", "state": "NY", "zip": "10467-2401", "ntee": "E12", "ruling": "201602", "deductibility": "1", "assets": 0, "income": 0, "revenue": 0}, {"ein": "474853506", "name": "MONTEFIORE CERC OPERATIONS INC", "city": "TARRYTOWN", "state": "NY", "zip": "10591-6301", "ntee": "E30", "ruling": "201804", "deductibility": "1", "assets": 14141159, "income": 4852193, "revenue": 4852193}, {"ein": "824019223", "name": "MONTEFIORE MEDICINE ACADEMIC HEALTH SELF INSURANCE TRIST", "city": "BRONX", "state": "NY", "zip": "10467-2401", "ntee": "E11", "ruling": "201908", "deductibility": "1", "assets": 400515243, "income": 76517409, "revenue": 76517409}, {"ein": "863090734", "name": "MONTEFIORE EINSTEIN ADVANCED CARE", "city": "TARRYTOWN", "state": "NY", "zip": "10591-6301", "ntee": "E30", "ruling": "202205", "deductibility": "1", "assets": 35903185, "income": 49590479, "revenue": 49590479}, {"ein": "874774733", "name": "MONTEFIORE NYACK HOSPITAL NYSNA RETIREE MEDICAL PLAN VEBA AND TRUS", "city": "NEW YORK", "state": "NY", "zip": "10001-2908", "ntee": "Y43", "ruling": "202404", "deductibility": "2", "assets": 317896, "income": 96249, "revenue": 96249}], "CHARINA": [{"ein": "133050294", "name": "CHARINA FOUNDATION INC", "city": "NEW YORK", "state": "NY", "zip": "10152-1600", "ntee": "", "ruling": "198103", "deductibility": "1", "assets": 13477170, "income": 9468045, "revenue": 0}, {"ein": "133675545", "name": "CHARINA ENDOWMENT FUND INC", "city": "NEW YORK", "state": "NY", "zip": "10152-0000", "ntee": "", "ruling": "199209", "deductibility": "1", "assets": 366223161, "income": 12727509, "revenue": 0}], "TERRA": [{"ein": "133197903", "name": "TERRA INCOGNITA INC", "city": "NEW YORK", "state": "NY", "zip": "10003-3122", "ntee": "A65", "ruling": "198403", "deductibility": "1", "assets": 0, "income": 0, "revenue": 0}, {"ein": "133948138", "name": "CHARLES P STEVENSON JR TERRA NOVA FOUNDATION", "city": "SOUTHAMPTON", "state": "NY", "zip": "11969-1390", "ntee": "T20Z", "ruling": "199803", "deductibility": "1", "assets": 25508, "income": 3, "revenue": 0}, {"ein": "273215060", "name": "TERRA SCIENCE AND EDUCATION INC", "city": "SYRACUSE", "state": "NY", "zip": "13204-2205", "ntee": "B90", "ruling": "201105", "deductibility": "1", "assets": 10722653, "income": 3274413, "revenue": 3274413}, {"ein": "463948969", "name": "TERRA BELLA PARKLAND CORPORATION", "city": "COMMACK", "state": "NY", "zip": "11725-5701", "ntee": "N32", "ruling": "201502", "deductibility": "1", "assets": 621008, "income": 100, "revenue": 100}, {"ein": "475554367", "name": "TERRA VISTA FOUNDATION INC", "city": "NEW YORK", "state": "NY", "zip": "10025-5500", "ntee": "G01", "ruling": "201602", "deductibility": "1", "assets": 0, "income": 0, "revenue": 0}, {"ein": "571223078", "name": "TERRA NOVA CHURCH", "city": "TROY", "state": "NY", "zip": "12180-0000", "ntee": "X21", "ruling": "200605", "deductibility": "1", "assets": 0, "income": 0, "revenue": 0}, {"ein": "821981573", "name": "TERRA BELLA EDUCATIONAL ADVANCEMENT FUND INC", "city": "COMMACK", "state": "NY", "zip": "11725-5701", "ntee": "B82", "ruling": "201804", "deductibility": "1", "assets": 939239, "income": 23623, "revenue": 0}, {"ein": "832183995", "name": "TERRA MATER INC", "city": "STORMVILLE", "state": "NY", "zip": "12582-5805", "ntee": "T20", "ruling": "202406", "deductibility": "1", "assets": 707473, "income": 707408, "revenue": 0}, {"ein": "880727761", "name": "TERRA FIRMA NATIONAL INC", "city": "NEW YORK", "state": "NY", "zip": "10013-1510", "ntee": "W01", "ruling": "202203", "deductibility": "1", "assets": 0, "income": 0, "revenue": 0}, {"ein": "882533619", "name": "TERRA NOVA CHURCH SARATOGA", "city": "SARATOGA SPGS", "state": "NY", "zip": "12866-4116", "ntee": "X20", "ruling": "202212", "deductibility": "1", "assets": 0, "income": 0, "revenue": 0}], "PSYCHOHISTORICAL": [{"ein": "133337410", "name": "INTERNATIONAL PSYCHOHISTORICAL ASSOCIATION INC", "city": "NEW YORK", "state": "NY", "zip": "10024-2605", "ntee": "B03", "ruling": "202503", "deductibility": "1", "assets": 0, "income": 0, "revenue": 0}], "ABLE": [{"ein": "133388412", "name": "ABLE TRUST", "city": "NEW YORK", "state": "NY", "zip": "10128-1202", "ntee": "", "ruling": "198703", "deductibility": "1", "assets": 778803, "income": 15773, "revenue": 0}, {"ein": "133607921", "name": "READY WILLING & ABLE", "city": "NEW YORK", "state": "NY", "zip": "10029-5611", "ntee": "J20", "ruling": "199508", "deductibility": "1", "assets": 0, "income": 0, "revenue": 0}, {"ein": "262722924", "name": "PROJECT ABLE INC", "city": "NEW YORK", "state": "NY", "zip": "10024-1616", "ntee": "B90", "ruling": "200812", "deductibility": "1", "assets": 31489, "income": 35289, "revenue": 0}, {"ein": "271780905", "name": "READY WILLING AND ABLE AMERICA INC", "city": "NEW YORK", "state": "NY", "zip": "10029-5611", "ntee": "P20", "ruling": "201408", "deductibility": "1", "assets": 0, "income": 0, "revenue": 0}, {"ein": "462017875", "name": "ROGER L ABLE FOUNDATION INC", "city": "BRONX", "state": "NY", "zip": "10463-7505", "ntee": "B82", "ruling": "201412", "deductibility": "1", "assets": 5114, "income": 100, "revenue": 100}, {"ein": "824355419", "name": "DIFFERENT & ABLE FOUNDATION", "city": "NEW YORK", "state": "NY", "zip": "10028-0019", "ntee": "T23", "ruling": "202310", "deductibility": "1", "assets": 354925, "income": 255734, "revenue": 0}, {"ein": "843888134", "name": "UNIQUE & ABLE INC", "city": "NEW YORK", "state": "NY", "zip": "10069-0807", "ntee": "G01", "ruling": "202003", "deductibility": "1", "assets": 0, "income": 0, "revenue": 0}, {"ein": "921149659", "name": "ABLE ATHLETICS INC", "city": "SCARSDALE", "state": "NY", "zip": "10583-1158", "ntee": "N99", "ruling": "202302", "deductibility": "1", "assets": 0, "income": 0, "revenue": 0}], "PRADER": [{"ein": "133577045", "name": "PRADER-WILLI ALLIANCE OF NEW YORK INC", "city": "ENDICOTT", "state": "NY", "zip": "13760-4341", "ntee": "A99Z", "ruling": "199112", "deductibility": "1", "assets": 0, "income": 0, "revenue": 0}], "DESCENT": [{"ein": "133597820", "name": "GAY MEN OF AFRICAN DESCENT INC", "city": "BROOKLYN", "state": "NY", "zip": "11217-2619", "ntee": "", "ruling": "199204", "deductibility": "1", "assets": 0, "income": 0, "revenue": 0}, {"ein": "133770633", "name": "EASTERN VIETNAM-CAMBODIA-LAOS CHINESE-DESCENT ASSOCIATION INC", "city": "NEW YORK", "state": "NY", "zip": "10013-4140", "ntee": "A20", "ruling": "199410", "deductibility": "1", "assets": 0, "income": 0, "revenue": 0}, {"ein": "870875067", "name": "PEOPLE OF AFRICAN DESCENT NEW THOUGHT GROUP INC", "city": "WEST BABYLON", "state": "NY", "zip": "11704-1807", "ntee": "X99", "ruling": "202202", "deductibility": "1", "assets": 0, "income": 0, "revenue": 0}], "MANTZOURAS": [{"ein": "133666144", "name": "KERO MANTZOURAS FOUNDATION", "city": "ASTORIA", "state": "NY", "zip": "11106-4084", "ntee": "", "ruling": "199207", "deductibility": "1", "assets": 151499, "income": 346728, "revenue": 0}], "YLRY": [{"ein": "133722745", "name": "YLRY INC", "city": "NEW YORK", "state": "NY", "zip": "10022-6131", "ntee": "B82", "ruling": "199308", "deductibility": "1", "assets": 35318925, "income": 1284092, "revenue": 0}], "MORRYS": [{"ein": "133851126", "name": "MORRYS CAMP INC", "city": "PORT CHESTER", "state": "NY", "zip": "10573-4674", "ntee": "N20", "ruling": "199605", "deductibility": "1", "assets": 7801771, "income": 3386715, "revenue": 3164534}], "GOLKIN": [{"ein": "133928587", "name": "PERRY & DONNA GOLKIN FAMILY FOUNDATION", "city": "NEW YORK", "state": "NY", "zip": "10105-0021", "ntee": "J32Z", "ruling": "199708", "deductibility": "1", "assets": 23382330, "income": 5249595, "revenue": 0}], "GAR": [{"ein": "133932111", "name": "ARO GAR INC", "city": "LIVINGSTN MNR", "state": "NY", "zip": "12758-5859", "ntee": "X50Z", "ruling": "199705", "deductibility": "1", "assets": 0, "income": 0, "revenue": 0}, {"ein": "136056026", "name": "BOARD OF TRUSTEES OF PERKINS GAR", "city": "NEW YORK", "state": "NY", "zip": "10013-2362", "ntee": "", "ruling": "196209", "deductibility": "1", "assets": 3168966, "income": 710363, "revenue": 0}], "DEBRA": [{"ein": "133947890", "name": "DEBRA AND LEON BLACK FAMILY FOUNDATION", "city": "NEW YORK", "state": "NY", "zip": "10022-0000", "ntee": "T20Z", "ruling": "199808", "deductibility": "1", "assets": 40691, "income": 1, "revenue": 0}, {"ein": "134138500", "name": "DEBRA AND JEFFREY GELLER FAMILY FOUNDATION INC", "city": "WATERMILL", "state": "NY", "zip": "11976-3601", "ntee": "T12", "ruling": "200012", "deductibility": "1", "assets": 646847, "income": 98401, "revenue": 0}, {"ein": "203970976", "name": "DAVID AND DEBRA SEGAL FOUNDATIONINC", "city": "WOODMERE", "state": "NY", "zip": "11598-2540", "ntee": "T22", "ruling": "200611", "deductibility": "1", "assets": 80704, "income": 54252, "revenue": 0}, {"ein": "205400062", "name": "DEBRA SIMON FAMILY FOUNDATION", "city": "WOODBURY", "state": "NY", "zip": "11797-2040", "ntee": "T20", "ruling": "200703", "deductibility": "1", "assets": 1353421, "income": 714566, "revenue": 0}], "BETEL": [{"ein": "134094866", "name": "BRONX BETEL SPANISH CHURCH OF THE NAZARENE", "city": "BRONX", "state": "NY", "zip": "10460-1832", "ntee": "", "ruling": "196307", "deductibility": "1", "assets": 0, "income": 0, "revenue": 0}, {"ein": "452498047", "name": "CONCILIO BETEL DE IGLESIAS INDEPENDIENTES PENTECOSTALES INC", "city": "BUFFALO", "state": "NY", "zip": "14213-2619", "ntee": "X20", "ruling": "201209", "deductibility": "1", "assets": 0, "income": 0, "revenue": 0}, {"ein": "474226180", "name": "BRONX BETEL IGLESIA DEL NAZARENO INC", "city": "BRONX", "state": "NY", "zip": "10460-4309", "ntee": "X21", "ruling": "201601", "deductibility": "1", "assets": 225438, "income": 48932, "revenue": 48932}], "WITMER": [{"ein": "134129627", "name": "MERYL & CHARLES WITMER CHARITABLE FOUNDATION", "city": "NEW YORK", "state": "NY", "zip": "10016-0820", "ntee": "T22", "ruling": "200009", "deductibility": "1", "assets": 5098309, "income": 1681189, "revenue": 0}], "MACAYA": [{"ein": "134161637", "name": "MACAYA PRODUCTIONS LTD", "city": "NEW YORK", "state": "NY", "zip": "10035-1028", "ntee": "A60", "ruling": "200201", "deductibility": "1", "assets": 0, "income": 0, "revenue": 0}], "PIE": [{"ein": "134163969", "name": "ENSEMBLE PIE INC", "city": "NEW YORK", "state": "NY", "zip": "10024-3105", "ntee": "A68", "ruling": "200208", "deductibility": "1", "assets": 0, "income": 0, "revenue": 0}], "KOSS": [{"ein": "134256297", "name": "KOSS KEEP OUR STREETS SAFE INC", "city": "JAMAICA", "state": "NY", "zip": "11433-0000", "ntee": "O50", "ruling": "200603", "deductibility": "1", "assets": 0, "income": 0, "revenue": 0}], "ORNAMENT": [{"ein": "135591951", "name": "LOCAL UNION NO 197 OF THE INTERN ASSOC OF BRIDGE STRUCT & ORNAMENT", "city": "LONG ISLAND CITY", "state": "NY", "zip": "11101-2420", "ntee": "", "ruling": "199308", "deductibility": "2", "assets": 1231797, "income": 1196098, "revenue": 1196098}, {"ein": "150310328", "name": "INTERNATIONAL ASSOCIATION OF BRIDGE STRUCTURAL ORNAMENT IRON WORKERS", "city": "WHITESBORO", "state": "NY", "zip": "13492-1035", "ntee": "", "ruling": "194411", "deductibility": "1", "assets": 557359, "income": 343272, "revenue": 343272}], "CARAMOOR": [{"ein": "135643627", "name": "CARAMOOR CENTER FOR MUSIC & THE ARTS INC", "city": "KATONAH", "state": "NY", "zip": "10536-0816", "ntee": "A680", "ruling": "194604", "deductibility": "1", "assets": 46837871, "income": 23163582, "revenue": 6167706}], "KAMBER": [{"ein": "136102029", "name": "ABRAHAM KAMBER FOUNDATION", "city": "NEW YORK", "state": "NY", "zip": "10176-0000", "ntee": "", "ruling": "195001", "deductibility": "1", "assets": 2955193, "income": 123270, "revenue": 0}], "SIRUS": [{"ein": "137100236", "name": "SIRUS FUND", "city": "NEW YORK", "state": "NY", "zip": "10011-8843", "ntee": "T22J", "ruling": "199703", "deductibility": "1", "assets": 1888322, "income": 4042268, "revenue": 0}], "WELLES": [{"ein": "137308465", "name": "WELLES REMY CROWTHER CHARITABLE TR", "city": "UPPER NYACK", "state": "NY", "zip": "10960-1202", "ntee": "B82", "ruling": "200403", "deductibility": "1", "assets": 296760, "income": 133767, "revenue": 125288}], "PIERCE": [{"ein": "141596729", "name": "DANIEL PIERCE LIBRARY", "city": "GRAHAMSVILLE", "state": "NY", "zip": "12740-0268", "ntee": "B71Z", "ruling": "199805", "deductibility": "1", "assets": 6297767, "income": 623569, "revenue": 618783}, {"ein": "463067800", "name": "PIERCE & JEANETTE SAMUELS CHARITABLE FOUNDATION INC", "city": "HOUGHTON", "state": "NY", "zip": "14744-8719", "ntee": "T22", "ruling": "201505", "deductibility": "1", "assets": 829645, "income": 47097, "revenue": 0}, {"ein": "920183406", "name": "HARGROVE PIERCE FOUNDATION", "city": "NEW YORK", "state": "NY", "zip": "10020-0000", "ntee": "T20", "ruling": "200305", "deductibility": "1", "assets": 4885046, "income": 1201789, "revenue": 0}], "TIMMERMAN": [{"ein": "146020379", "name": "SNELL-ZIMMERMAN-TIMMERMAN REUNION INCORPORATED", "city": "LITTLE FALLS", "state": "NY", "zip": "13365-3625", "ntee": "A80", "ruling": "201704", "deductibility": "1", "assets": 0, "income": 0, "revenue": 0}], "MASSENA": [{"ein": "150371206", "name": "MASSENA LODGE 1110 LOYAL ORDER OF MOOSE", "city": "MASSENA", "state": "NY", "zip": "13662-1189", "ntee": "", "ruling": "193508", "deductibility": "1", "assets": 122523, "income": 485217, "revenue": 122836}, {"ein": "150615572", "name": "MASSENA FIRST UNITED METHODIST CHURCH", "city": "MASSENA", "state": "NY", "zip": "13662-1907", "ntee": "", "ruling": "197410", "deductibility": "1", "assets": 0, "income": 0, "revenue": 0}, {"ein": "161081033", "name": "MASSENA HUMANE SOCIETY INC", "city": "MASSENA", "state": "NY", "zip": "13662-0000", "ntee": "D200", "ruling": "199612", "deductibility": "1", "assets": 105423, "income": 151595, "revenue": 151595}, {"ein": "161112708", "name": "MASSENA MINOR HOCKEY ASSOCIATION", "city": "MASSENA", "state": "NY", "zip": "13662-2618", "ntee": "N99", "ruling": "201406", "deductibility": "1", "assets": 121918, "income": 183263, "revenue": 183263}, {"ein": "161328750", "name": "MASSENA INDEPENDENT LIVING CENTER", "city": "MASSENA", "state": "NY", "zip": "13662-1461", "ntee": "P80Z", "ruling": "199001", "deductibility": "1", "assets": 1820633, "income": 2499231, "revenue": 2499231}, {"ein": "161559997", "name": "MASSENA FREE CLINIC FOR ADULTS", "city": "MASSENA", "state": "NY", "zip": "13662-5059", "ntee": "E32", "ruling": "199912", "deductibility": "1", "assets": 67017, "income": 8913, "revenue": 8913}, {"ein": "166306035", "name": "GERALD LOCKROW TR UW FBO 1ST METH CH MASSENA", "city": "NORWICH", "state": "NY", "zip": "13815-0000", "ntee": "X210", "ruling": "199012", "deductibility": "1", "assets": 709872, "income": 135327, "revenue": 0}, {"ein": "200252209", "name": "MASSENA VOLUNTEER EMERGENCY UNIT INC", "city": "MASSENA", "state": "NY", "zip": "13662-3200", "ntee": "E62", "ruling": "202404", "deductibility": "1", "assets": 0, "income": 0, "revenue": 0}, {"ein": "222356605", "name": "CALVARY BAPTIST CHURCH OF MASSENA", "city": "MASSENA", "state": "NY", "zip": "13662-0642", "ntee": "", "ruling": "198107", "deductibility": "1", "assets": 0, "income": 0, "revenue": 0}, {"ein": "222564928", "name": "MASSENA MEALS ON WHEELS INC", "city": "MASSENA", "state": "NY", "zip": "13662-2610", "ntee": "K36Z", "ruling": "198612", "deductibility": "1", "assets": 310727, "income": 168533, "revenue": 167755}, {"ein": "222586307", "name": "MASSENA MEMORIAL HOSPITAL FOUNDATION INC", "city": "MASSENA", "state": "NY", "zip": "13662-0625", "ntee": "E22I", "ruling": "198505", "deductibility": "1", "assets": 2004483, "income": 549453, "revenue": 130920}, {"ein": "237174124", "name": "MASSENA ROD & GUN CLUB INC", "city": "MASSENA", "state": "NY", "zip": "13662-0353", "ntee": "", "ruling": "197204", "deductibility": "2", "assets": 201324, "income": 49981, "revenue": 45864}, {"ein": "237217358", "name": "MASSENA MEMORIAL HOSPITAL AUXILIARY INC", "city": "MASSENA", "state": "NY", "zip": "13662-1056", "ntee": "E22I", "ruling": "197206", "deductibility": "1", "assets": 37949, "income": 12580, "revenue": 11875}, {"ein": "300525045", "name": "MASSENA RIFLE AND PISTOL CLUB", "city": "MASSENA", "state": "NY", "zip": "13662-0353", "ntee": "N61", "ruling": "200909", "deductibility": "2", "assets": 0, "income": 0, "revenue": 0}, {"ein": "331208228", "name": "MASSENA FIRE DEPARTMENT", "city": "MASSENA", "state": "NY", "zip": "13662-6411", "ntee": "M24", "ruling": "201402", "deductibility": "1", "assets": 231465, "income": 163381, "revenue": 145341}, {"ein": "352421953", "name": "MASSENA FIGURE SKATING CLUB", "city": "MASSENA", "state": "NY", "zip": "13662-0000", "ntee": "N68", "ruling": "201410", "deductibility": "1", "assets": 0, "income": 0, "revenue": 0}, {"ein": "452539396", "name": "MASSENA PUBLIC LIBRARY", "city": "MASSENA", "state": "NY", "zip": "13662-2017", "ntee": "B70", "ruling": "201109", "deductibility": "1", "assets": 307464, "income": 313011, "revenue": 313011}, {"ein": "463696010", "name": "MASSENA ARTS AND THEATER ASSOCIATION INC", "city": "MASSENA", "state": "NY", "zip": "13662-0108", "ntee": "A99", "ruling": "201409", "deductibility": "1", "assets": 0, "income": 0, "revenue": 0}, {"ein": "474077014", "name": "MASSENA CEMETERY RESDTORATION FUND", "city": "MASSENA", "state": "NY", "zip": "13662-3179", "ntee": "A54", "ruling": "201906", "deductibility": "1", "assets": 0, "income": 0, "revenue": 0}, {"ein": "510431731", "name": "MASSENA FEDERATION OF TEACHERS BENEFIT FUND", "city": "MASSENA", "state": "NY", "zip": "13662-2538", "ntee": "Y99", "ruling": "200305", "deductibility": "2", "assets": 92559, "income": 146880, "revenue": 146880}, {"ein": "843134268", "name": "MASSENA HOSPITAL INC", "city": "MASSENA", "state": "NY", "zip": "13662-1056", "ntee": "E22", "ruling": "202003", "deductibility": "1", "assets": 39876125, "income": 58989386, "revenue": 58989386}, {"ein": "900995828", "name": "POLICE ACTIVITIES LEAGUE OF MASSENA INC", "city": "MASSENA", "state": "NY", "zip": "13662-2412", "ntee": "O23", "ruling": "201312", "deductibility": "1", "assets": 517594, "income": 501402, "revenue": 485355}], "WHEATLAND": [{"ein": "161192514", "name": "WHEATLAND HISTORICAL ASSOCIATION INC", "city": "SCOTTSVILLE", "state": "NY", "zip": "14546-0184", "ntee": "", "ruling": "198811", "deductibility": "1", "assets": 0, "income": 0, "revenue": 0}, {"ein": "161507289", "name": "WHEATLAND COMMUNITY CHURCH INC", "city": "RUSH", "state": "NY", "zip": "14543-9738", "ntee": "", "ruling": "196504", "deductibility": "1", "assets": 0, "income": 0, "revenue": 0}], "TOMPKI": [{"ein": "161285569", "name": "NUTRITION FOR THE ELDERLY IN TOMPKI NS COUNTY INC", "city": "ITHACA", "state": "NY", "zip": "14850-1014", "ntee": "", "ruling": "198803", "deductibility": "1", "assets": 1290725, "income": 1810851, "revenue": 1807143}], "WOODWORK": [{"ein": "161392534", "name": "OUT OF THE WOODWORK PLAYERS INC", "city": "BAINBRIDGE", "state": "NY", "zip": "13733-1210", "ntee": "A65", "ruling": "201905", "deductibility": "1", "assets": 0, "income": 0, "revenue": 0}], "DEPA": [{"ein": "161544871", "name": "HARMONY CORNERS VOLUNTEER FIRE DEPA RTMENT INC", "city": "BALLSTON SPA", "state": "NY", "zip": "12020-3113", "ntee": "M24", "ruling": "201409", "deductibility": "1", "assets": 0, "income": 0, "revenue": 0}], "SOUTHGATE": [{"ein": "161545076", "name": "SOUTHGATE MINISTRIES", "city": "WATERVILLE", "state": "NY", "zip": "13480-0008", "ntee": "X20Z", "ruling": "199805", "deductibility": "1", "assets": 0, "income": 0, "revenue": 0}], "BUCCI": [{"ein": "161768462", "name": "ELAINE T AND JOSEPH G BUCCI FAMILY FOUNDATION", "city": "GENESEO", "state": "NY", "zip": "14454-0098", "ntee": "T22", "ruling": "200608", "deductibility": "1", "assets": 3917, "income": 1, "revenue": 0}], "NALC": [{"ein": "166090284", "name": "1000 ISLANDS REGION BRANCH 302 NALC", "city": "WATERTOWN", "state": "NY", "zip": "13601-6472", "ntee": "J40", "ruling": "201407", "deductibility": "2", "assets": 0, "income": 0, "revenue": 0}, {"ein": "223096819", "name": "NALC 693 INC", "city": "PEEKSKILL", "state": "NY", "zip": "10566-2944", "ntee": "S472", "ruling": "200306", "deductibility": "2", "assets": 0, "income": 0, "revenue": 0}], "SKAHAN": [{"ein": "166238801", "name": "JOAN SKAHAN MEMORIAL FUND", "city": "NORWICH", "state": "NY", "zip": "13815-0000", "ntee": "", "ruling": "198210", "deductibility": "1", "assets": 21604, "income": 1220, "revenue": 0}], "KLAUBER": [{"ein": "200698761", "name": "NANCY KLAUBER FOREST FOUNDATION", "city": "WHITE PLAINS", "state": "NY", "zip": "10605-3306", "ntee": "G30", "ruling": "200508", "deductibility": "1", "assets": 397712, "income": 196181, "revenue": 0}, {"ein": "452041104", "name": "ROGER KLAUBER FAMILY FOUNDATION INC", "city": "NEW YORK", "state": "NY", "zip": "10001-1907", "ntee": "T20", "ruling": "201305", "deductibility": "1", "assets": 3888773, "income": 196089, "revenue": 0}], "NASSI": [{"ein": "203545763", "name": "MIDRASH BET NASSI MHHPT INC", "city": "BROOKLYN", "state": "NY", "zip": "11223-2216", "ntee": "X30", "ruling": "200809", "deductibility": "1", "assets": 447565, "income": 1063841, "revenue": 1063841}, {"ein": "993038468", "name": "MERKAZ TORANI MIDRASH BET NASSI", "city": "BROOKLYN", "state": "NY", "zip": "11223-5142", "ntee": "X30", "ruling": "202405", "deductibility": "1", "assets": 0, "income": 0, "revenue": 0}], "SOLDIER": [{"ein": "203685062", "name": "OPERATION ADOPT A SOLDIER INC", "city": "GANSEVOORT", "state": "NY", "zip": "12831-1830", "ntee": "W30", "ruling": "200904", "deductibility": "1", "assets": 232712, "income": 189745, "revenue": 151794}, {"ein": "311609935", "name": "TOY SOLDIER AND MODEL MUSEUM", "city": "HORNELL", "state": "NY", "zip": "14843-0000", "ntee": "A52", "ruling": "199810", "deductibility": "1", "assets": 533813, "income": 45582, "revenue": 0}, {"ein": "462523678", "name": "HOUSE-A-SOLDIER INC", "city": "JAMAICA", "state": "NY", "zip": "11434-3844", "ntee": "L20", "ruling": "201402", "deductibility": "1", "assets": 0, "income": 0, "revenue": 0}, {"ein": "473798721", "name": "MICHAEL LEVIN LONE SOLDIER FOUNDATION INC", "city": "NEW YORK", "state": "NY", "zip": "10036-4055", "ntee": "Q11", "ruling": "201512", "deductibility": "1", "assets": 822795, "income": 1189473, "revenue": 1189473}, {"ein": "815316652", "name": "TNR FOOT SOLDIER CORP", "city": "BEACON", "state": "NY", "zip": "12508-4111", "ntee": "D20", "ruling": "201709", "deductibility": "1", "assets": 0, "income": 0, "revenue": 0}, {"ein": "821023190", "name": "MY SOLDIER INC", "city": "GREAT NECK", "state": "NY", "zip": "11024-1408", "ntee": "P20", "ruling": "201801", "deductibility": "1", "assets": 23961, "income": 395183, "revenue": 395183}, {"ein": "853162089", "name": "FRIENDS OF THE LONE SOLDIER INC", "city": "NEW YORK", "state": "NY", "zip": "10030-2877", "ntee": "T50", "ruling": "202101", "deductibility": "1", "assets": 547099, "income": 609614, "revenue": 609614}], "REFRESHINGS": [{"ein": "203692323", "name": "REFRESHINGS SPRINGS MINISTRIES", "city": "BUFFALO", "state": "NY", "zip": "14204-1773", "ntee": "X20", "ruling": "200602", "deductibility": "1", "assets": 0, "income": 0, "revenue": 0}], "FOUNDATIONOF": [{"ein": "204221598", "name": "STEELE MEMORIAL LIBRARY FOUNDATIONOF CHEMUNG COUNTY INC", "city": "ELMIRA", "state": "NY", "zip": "14901-2740", "ntee": "B11", "ruling": "200701", "deductibility": "1", "assets": 4333299, "income": 3034702, "revenue": 181761}], "SMJ": [{"ein": "205384979", "name": "SMJ CHARITABLE FOUNDATION", "city": "FLUSHING", "state": "NY", "zip": "11355-2327", "ntee": "T20", "ruling": "200810", "deductibility": "1", "assets": 1, "income": 1, "revenue": 0}], "BARRYVILLE": [{"ein": "222743920", "name": "BARRYVILLE BIBLE CHAPEL INC", "city": "BARRYVILLE", "state": "NY", "zip": "12719-0191", "ntee": "", "ruling": "198702", "deductibility": "1", "assets": 0, "income": 0, "revenue": 0}, {"ein": "834219430", "name": "BARRYVILLE FARMERS MARKET INC", "city": "BARRYVILLE", "state": "NY", "zip": "12719-0201", "ntee": "K99", "ruling": "201908", "deductibility": "1", "assets": 0, "income": 0, "revenue": 0}], "MARTZ": [{"ein": "222861224", "name": "MARSHALL MARTZ MEMORIAL ASTRONOMICAL ASSOCIATION INC", "city": "FREWSBURG", "state": "NY", "zip": "14738-0014", "ntee": "", "ruling": "199009", "deductibility": "1", "assets": 298819, "income": 20158, "revenue": 20158}], "WOODBURN": [{"ein": "223765784", "name": "MIKVE TAHARE DIVREI CHAIM OF WOODBURN", "city": "BROOKLYN", "state": "NY", "zip": "11211-8036", "ntee": "X30", "ruling": "200102", "deductibility": "1", "assets": 0, "income": 0, "revenue": 0}], "NELSONS": [{"ein": "251916320", "name": "MARY NELSONS YOUTH DAY FOUNDATION", "city": "SYRACUSE", "state": "NY", "zip": "13205-1553", "ntee": "I21", "ruling": "200903", "deductibility": "1", "assets": 0, "income": 0, "revenue": 0}], "WERSTEN": [{"ein": "260658366", "name": "RYAN WERSTEN MIOP FOUNDATION", "city": "WILTON", "state": "NY", "zip": "12831-5002", "ntee": "H12", "ruling": "200803", "deductibility": "1", "assets": 0, "income": 0, "revenue": 0}], "MPRI": [{"ein": "261560384", "name": "MPRI CHARITABLE FOUNDATION", "city": "BROOKLYN", "state": "NY", "zip": "11219-1508", "ntee": "T20", "ruling": "201103", "deductibility": "1", "assets": 851456, "income": 22752, "revenue": 0}], "SHUAG": [{"ein": "264757213", "name": "CONGREGATION ARYEH SHUAG INC", "city": "BROOKLYN", "state": "NY", "zip": "11211-5969", "ntee": "X30", "ruling": "201003", "deductibility": "1", "assets": 0, "income": 0, "revenue": 0}], "DRIGGS": [{"ein": "264761980", "name": "RODNEY DRIGGS AND SOUTH THIRD STREET HOUSING DEVELOPMENT FUND", "city": "BROOKLYN", "state": "NY", "zip": "11211-1727", "ntee": "L21", "ruling": "201408", "deductibility": "1", "assets": 2471528, "income": 735240, "revenue": 735240}, {"ein": "473203980", "name": "LOS SURES 907 DRIGGS AVENUE HOUSING DEVELOPMENT FUND CORPORATION", "city": "BROOKLYN", "state": "NY", "zip": "11211-1727", "ntee": "L20", "ruling": "201606", "deductibility": "2", "assets": 1093565, "income": 244757, "revenue": 244757}], "BOAZ": [{"ein": "271551076", "name": "BOAZ SALIK CHARITABLE FOUNDATION LTD", "city": "NEW YORK", "state": "NY", "zip": "10016-2602", "ntee": "T22", "ruling": "201004", "deductibility": "1", "assets": 55486, "income": 198, "revenue": 0}, {"ein": "274271464", "name": "TALI AND BOAZ WEINSTEIN FOUNDATION", "city": "NEW YORK", "state": "NY", "zip": "10174-0000", "ntee": "B12", "ruling": "201408", "deductibility": "1", "assets": 12942, "income": 61, "revenue": 0}, {"ein": "823268188", "name": "BOAZ FOUNDATION INC", "city": "SYRACUSE", "state": "NY", "zip": "13210-2106", "ntee": "P20", "ruling": "201806", "deductibility": "1", "assets": 0, "income": 0, "revenue": 0}], "ABZYME": [{"ein": "273438658", "name": "ABZYME RESEARCH FOUNDATION", "city": "NEW YORK", "state": "NY", "zip": "10001-1210", "ntee": "H81", "ruling": "201109", "deductibility": "1", "assets": 335298, "income": 10001, "revenue": 10001}], "HYDRATION": [{"ein": "275370051", "name": "HYDRATION EDUCATION FOUNDATION INC", "city": "HUDSON", "state": "NY", "zip": "12534-0000", "ntee": "E99", "ruling": "201111", "deductibility": "1", "assets": 0, "income": 0, "revenue": 0}], "HISTIOCYTOSIS": [{"ein": "301160030", "name": "HOPE FOR HISTIOCYTOSIS INC", "city": "EAST SETAUKET", "state": "NY", "zip": "11733-0067", "ntee": "H12", "ruling": "202002", "deductibility": "1", "assets": 93, "income": 1, "revenue": 0}, {"ein": "830950563", "name": "AMERICAN FRIENDS OF THE ARTEMIS ASSOCIATION FOR HISTIOCYTOSIS INC", "city": "NEW YORK", "state": "NY", "zip": "10128-4245", "ntee": "G99", "ruling": "201905", "deductibility": "1", "assets": 0, "income": 0, "revenue": 0}], "TOPICS": [{"ein": "331603116", "name": "TOPICS IN COMMUNITY DEVELOPMENT INC", "city": "ALBANY", "state": "NY", "zip": "12207-2917", "ntee": "S05", "ruling": "202410", "deductibility": "1", "assets": 0, "income": 0, "revenue": 0}], "MYELOMA": [{"ein": "332355644", "name": "FAM- FIGHTING AGAINST MYELOMA", "city": "BETHPAGE", "state": "NY", "zip": "11714-6021", "ntee": "E86", "ruling": "202503", "deductibility": "1", "assets": 0, "income": 0, "revenue": 0}, {"ein": "455293881", "name": "DE GUNZBURG MYELOMA RESEARCH FOUNDATION", "city": "NEW YORK", "state": "NY", "zip": "10022-3224", "ntee": "T22", "ruling": "201208", "deductibility": "1", "assets": 4, "income": 93861, "revenue": 0}], "HRH": [{"ein": "383742418", "name": "HRH NEIGHBORHOOD HOUSING DEVELOPMENT FUND COMPANY INC", "city": "POUGHKEEPSIE", "state": "NY", "zip": "12601-3115", "ntee": "L20", "ruling": "200705", "deductibility": "1", "assets": 3536182, "income": 291184, "revenue": 291184}], "CHUMS": [{"ein": "383853549", "name": "NEW YORK CHAPTER CHUMS", "city": "WESTBURY", "state": "NY", "zip": "11590-5625", "ntee": "T50", "ruling": "202309", "deductibility": "1", "assets": 2213, "income": 20534, "revenue": 19969}], "DEFECTS": [{"ein": "384025277", "name": "RED BALLOON 4 HEART DEFECTS INC", "city": "BINGHAMTON", "state": "NY", "zip": "13901-5714", "ntee": "G12", "ruling": "201702", "deductibility": "1", "assets": 0, "income": 0, "revenue": 0}, {"ein": "861055441", "name": "CURE DEVELOPMENTAL BRAIN DEFECTS NOW FOUNDATION", "city": "NEW YORK", "state": "NY", "zip": "10025-3539", "ntee": "H480", "ruling": "200310", "deductibility": "1", "assets": 5, "income": 1, "revenue": 0}], "BARKING": [{"ein": "444451799", "name": "THE BARKING BARRACKS INC", "city": "ROCKVILLE CTR", "state": "NY", "zip": "11570-3101", "ntee": "D61", "ruling": "201402", "deductibility": "1", "assets": 0, "income": 0, "revenue": 0}, {"ein": "475161198", "name": "BARKING BACK ANIMAL RESCUE", "city": "WURTSBORO", "state": "NY", "zip": "12790-1137", "ntee": "D20", "ruling": "201712", "deductibility": "1", "assets": 0, "income": 0, "revenue": 0}, {"ein": "813560836", "name": "FOREST PARK BARKING LOT INC", "city": "KEW GARDENS", "state": "NY", "zip": "11415-1049", "ntee": "D20", "ruling": "201811", "deductibility": "1", "assets": 0, "income": 0, "revenue": 0}], "ESPOSITO": [{"ein": "452017266", "name": "ESPOSITO FAMILY CHARITY INC", "city": "STATEN ISLAND", "state": "NY", "zip": "10304-3023", "ntee": "B82", "ruling": "201205", "deductibility": "1", "assets": 0, "income": 0, "revenue": 0}, {"ein": "456740830", "name": "ESPOSITO FAMILY FOUNDATION DTD 1-22-12", "city": "NEW YORK", "state": "NY", "zip": "10128-1308", "ntee": "T22", "ruling": "201210", "deductibility": "1", "assets": 1, "income": 1, "revenue": 0}, {"ein": "931875638", "name": "JOHN ESPOSITO SCHOLARSHIP INC", "city": "OCEANSIDE", "state": "NY", "zip": "11572-1216", "ntee": "B82", "ruling": "202307", "deductibility": "1", "assets": 1628, "income": 149956, "revenue": 0}], "LIVELOCITY": [{"ein": "452758820", "name": "LIVELOCITY INC", "city": "BROOKLYN", "state": "NY", "zip": "11226-1607", "ntee": "R26", "ruling": "201204", "deductibility": "1", "assets": 0, "income": 0, "revenue": 0}], "EMBRACING": [{"ein": "461051881", "name": "EMBRACING AGE INC", "city": "DEWITT", "state": "NY", "zip": "13214-2141", "ntee": "P20", "ruling": "201312", "deductibility": "1", "assets": 1, "income": 0, "revenue": 0}, {"ein": "510650327", "name": "HOME SWEET HOME EMBRACING FAMILIES INC", "city": "BRONX", "state": "NY", "zip": "10459-3159", "ntee": "X20", "ruling": "200808", "deductibility": "1", "assets": 0, "income": 0, "revenue": 0}, {"ein": "814190252", "name": "EMBRACING GRACE MINISTRIES", "city": "HONEOYE FALLS", "state": "NY", "zip": "14472-9054", "ntee": "X21", "ruling": "201711", "deductibility": "1", "assets": 0, "income": 0, "revenue": 0}, {"ein": "872707206", "name": "MIKEY GS EMBRACING WINGS FOUNDATION", "city": "MERRICK", "state": "NY", "zip": "11566-3710", "ntee": "T30", "ruling": "202204", "deductibility": "1", "assets": 15883, "income": 13927, "revenue": 13927}, {"ein": "874737080", "name": "EMBRACING HOPE INC", "city": "DEPOSIT", "state": "NY", "zip": "13754-1102", "ntee": "P99", "ruling": "202302", "deductibility": "1", "assets": 0, "income": 0, "revenue": 0}], "HEDDA": [{"ein": "461812072", "name": "HEDDA STERNE FOUNDATION INC", "city": "BROOKLYN", "state": "NY", "zip": "11205-1338", "ntee": "A20", "ruling": "201305", "deductibility": "1", "assets": 6663310, "income": 1696670, "revenue": 0}], "TORKOMADA": [{"ein": "463646905", "name": "TORKOMADA INC", "city": "BROOKLYN", "state": "NY", "zip": "11209-3930", "ntee": "B90", "ruling": "201711", "deductibility": "1", "assets": 0, "income": 0, "revenue": 0}], "MIATA": [{"ein": "464168649", "name": "MIDSTATE MIATA CLUB OF NEW YORK INC", "city": "VESTAL", "state": "NY", "zip": "13850-1330", "ntee": "Y99", "ruling": "201407", "deductibility": "2", "assets": 0, "income": 0, "revenue": 0}], "ATMOSPHERE": [{"ein": "464614228", "name": "ATMOSPHERE FOUNDATION INC", "city": "BRONX", "state": "NY", "zip": "10463-2489", "ntee": "B90", "ruling": "201501", "deductibility": "1", "assets": 89267, "income": 3318, "revenue": 3318}, {"ein": "471504209", "name": "ATMOSPHERE ACADEMY PUBLIC CHARTER SCHOOLS", "city": "BRONX", "state": "NY", "zip": "10463-6943", "ntee": "B24", "ruling": "201503", "deductibility": "1", "assets": 31078101, "income": 34384800, "revenue": 34369800}, {"ein": "834422191", "name": "ATMOSPHERE SALON INC", "city": "LOCKPORT", "state": "NY", "zip": "14094-4848", "ntee": "S99", "ruling": "202002", "deductibility": "1", "assets": 35717, "income": 2129, "revenue": 2129}], "OCTOBERFEST": [{"ein": "465510269", "name": "RUN OCTOBERFEST INC", "city": "PERU", "state": "NY", "zip": "12972-4624", "ntee": "G12", "ruling": "201703", "deductibility": "1", "assets": 0, "income": 0, "revenue": 0}], "GERVIS": [{"ein": "467406524", "name": "MICHAEL AND MIRIAM GERVIS CHARITABLE TR", "city": "BRONX", "state": "NY", "zip": "10471-1201", "ntee": "T99", "ruling": "201407", "deductibility": "1", "assets": 570609, "income": 180028, "revenue": 0}], "UNLOCK": [{"ein": "472056770", "name": "KEYS TO UNLOCK YOUR SILENCE INC", "city": "JAMAICA", "state": "NY", "zip": "11434-3805", "ntee": "F40", "ruling": "201602", "deductibility": "1", "assets": 0, "income": 0, "revenue": 0}, {"ein": "825357249", "name": "UNLOCK CANCER CARE OUTREACH INC", "city": "GLEN OAKS", "state": "NY", "zip": "11004-1251", "ntee": "G30", "ruling": "201805", "deductibility": "1", "assets": 0, "income": 0, "revenue": 0}], "NKORANZA": [{"ein": "473559512", "name": "NKORANZA NORTH CHILDREN FOUNDATION INC", "city": "BRONX", "state": "NY", "zip": "10454-1628", "ntee": "T12", "ruling": "201804", "deductibility": "1", "assets": 0, "income": 0, "revenue": 0}], "PRODUCCIONES": [{"ein": "474058304", "name": "PRODUCCIONES EL BARRIO", "city": "YONKERS", "state": "NY", "zip": "10710-4306", "ntee": "A20", "ruling": "201807", "deductibility": "1", "assets": 0, "income": 0, "revenue": 0}], "HASHEVEINU": [{"ein": "475509286", "name": "AMERICAN FRIENDS OF HASHEVEINU AYLECHA MOUNT ZION INC", "city": "LAWRENCE", "state": "NY", "zip": "11559-4000", "ntee": "X30", "ruling": "201909", "deductibility": "1", "assets": 82035, "income": 156273, "revenue": 156273}], "HOOPS4KIDS": [{"ein": "562320746", "name": "HOOPS4KIDS INC", "city": "HALFMOON", "state": "NY", "zip": "12065-2666", "ntee": "P30", "ruling": "200307", "deductibility": "1", "assets": 0, "income": 0, "revenue": 0}], "INVENTION": [{"ein": "562430369", "name": "THE WESTERN NEW YORK INVENTION CONVENTION INC", "city": "CLARENCE", "state": "NY", "zip": "14031-2218", "ntee": "B99", "ruling": "200408", "deductibility": "1", "assets": 0, "income": 0, "revenue": 0}], "PRVT": [{"ein": "770607976", "name": "THE CLARK FMILY PRVT FNDTION INC", "city": "GARDEN CITY", "state": "NY", "zip": "11530-0000", "ntee": "T22", "ruling": "200401", "deductibility": "1", "assets": 6241703, "income": 503994, "revenue": 0}], "BLEAF": [{"ein": "800521473", "name": "BLEAF SOCIETY INC", "city": "STATEN ISLAND", "state": "NY", "zip": "10303-2547", "ntee": "C35", "ruling": "202203", "deductibility": "1", "assets": 0, "income": 0, "revenue": 0}], "GABR": [{"ein": "812984575", "name": "ROMAN CATHOLIC CHURCH OF SAINT MARGARET OF CORTONA AND SAINT GABR", "city": "BRONX", "state": "NY", "zip": "10471-1604", "ntee": "", "ruling": "194603", "deductibility": "1", "assets": 0, "income": 0, "revenue": 0}], "CIRCUSENSE": [{"ein": "814566698", "name": "CIRCUSENSE", "city": "BROOKLYN", "state": "NY", "zip": "11217-1743", "ntee": "", "ruling": "202011", "deductibility": "1", "assets": 100972, "income": 726001, "revenue": 726001}], "HARLEMYES": [{"ein": "821464851", "name": "HARLEMYES INC", "city": "NEW YORK", "state": "NY", "zip": "10035-3968", "ntee": "S20", "ruling": "201908", "deductibility": "1", "assets": 0, "income": 0, "revenue": 0}], "OHUIC": [{"ein": "822241361", "name": "OHUIC", "city": "LINDENHURST", "state": "NY", "zip": "11757-1208", "ntee": "P20", "ruling": "201712", "deductibility": "1", "assets": 1427, "income": 47000, "revenue": 47000}], "DELGRACIA": [{"ein": "822293964", "name": "DELGRACIA CORP", "city": "CAMBRIA HTS", "state": "NY", "zip": "11411-0110", "ntee": "X20", "ruling": "201710", "deductibility": "1", "assets": 252903, "income": 123280, "revenue": 123280}], "CANCE": [{"ein": "822803043", "name": "FRIENDS WHO THINK PINK BREAST CANCE R AWARENESS ORGANIZATION", "city": "STATEN ISLAND", "state": "NY", "zip": "10310-1400", "ntee": "G99", "ruling": "201806", "deductibility": "1", "assets": 0, "income": 0, "revenue": 0}], "JOLY": [{"ein": "831047438", "name": "JOLY FAMILY FOUNDATION", "city": "COHOES", "state": "NY", "zip": "12047-0000", "ntee": "T20", "ruling": "202007", "deductibility": "1", "assets": 11061780, "income": 3228722, "revenue": 0}], "AND1": [{"ein": "831310362", "name": "THE AND1 BASKETBALL FOUNDATION INC", "city": "NEW YORK", "state": "NY", "zip": "10001-0000", "ntee": "N12", "ruling": "201903", "deductibility": "1", "assets": 0, "income": 0, "revenue": 0}], "AICNY": [{"ein": "831371562", "name": "AICNY ASSOCIAZIONE ITALIANA CHEF NEW YORK CORP", "city": "LONG IS CITY", "state": "NY", "zip": "11101-6091", "ntee": "K03", "ruling": "202405", "deductibility": "1", "assets": 3800, "income": 1, "revenue": 0}], "ABDIN": [{"ein": "833395648", "name": "ABDIN FAMILY FOUNDATION INC", "city": "OZONE PARK", "state": "NY", "zip": "11417-1004", "ntee": "T23", "ruling": "202006", "deductibility": "1", "assets": 6595, "income": 12000, "revenue": 0}], "RESPONDEN": [{"ein": "833932245", "name": "GRANNIES RESPOND ABUELAS RESPONDEN INC", "city": "BEACON", "state": "NY", "zip": "12508-3256", "ntee": "P84", "ruling": "201904", "deductibility": "1", "assets": 163443, "income": 523463, "revenue": 523463}], "HLSA": [{"ein": "834561048", "name": "HLSA PARODY AND DRAMA SOCIETY ALUMNI INC", "city": "LONG IS CITY", "state": "NY", "zip": "11101-4153", "ntee": "B84", "ruling": "202006", "deductibility": "1", "assets": 0, "income": 0, "revenue": 0}], "SHABBAS": [{"ein": "842021954", "name": "CONGREGATION JEWISH SPIRITUAL SHABBAS INC", "city": "HEWLETT", "state": "NY", "zip": "11557-2309", "ntee": "X30", "ruling": "201907", "deductibility": "1", "assets": 142806, "income": 449954, "revenue": 0}], "TOUT": [{"ein": "842588061", "name": "MIREBALAIS AVANT TOUT INC", "city": "NEW CITY", "state": "NY", "zip": "10956-7152", "ntee": "S21", "ruling": "202004", "deductibility": "1", "assets": 23531, "income": 63290, "revenue": 43171}], "ECHT": [{"ein": "843864589", "name": "ECHT INC", "city": "BROOKLYN", "state": "NY", "zip": "11226-2931", "ntee": "A60", "ruling": "202004", "deductibility": "1", "assets": 0, "income": 0, "revenue": 0}], "SLAINTE": [{"ein": "851441280", "name": "SLAINTE MINISTRY INC", "city": "LONG BEACH", "state": "NY", "zip": "11561-4125", "ntee": "X20", "ruling": "202108", "deductibility": "1", "assets": 0, "income": 0, "revenue": 0}], "POLISKOLA": [{"ein": "852273802", "name": "KRES POLISKOLA INC", "city": "BROOKLYN", "state": "NY", "zip": "11229-1484", "ntee": "B01", "ruling": "202312", "deductibility": "1", "assets": 76409, "income": 71076, "revenue": 0}], "VRIBNITZ": [{"ein": "852555622", "name": "YESHUOIS SHTEFENESHT VRIBNITZ INC", "city": "BROOKLYN", "state": "NY", "zip": "11204-1425", "ntee": "T12", "ruling": "202011", "deductibility": "1", "assets": 0, "income": 0, "revenue": 0}], "ACQUISITIONS": [{"ein": "854014313", "name": "INSTITUTE FOR MERGERS ACQUISITIONS AND ALLIANCES INC", "city": "NEW YORK", "state": "NY", "zip": "10001-4509", "ntee": "B99", "ruling": "202102", "deductibility": "1", "assets": 0, "income": 0, "revenue": 0}], "MANALE": [{"ein": "862159132", "name": "MANALE FOUNDATION INC", "city": "NEW YORK", "state": "NY", "zip": "10001-0050", "ntee": "T50", "ruling": "202107", "deductibility": "1", "assets": 1, "income": 0, "revenue": 0}], "TODEH": [{"ein": "863975943", "name": "CONGREGATION TODEH VZIMREH", "city": "AIRMONT", "state": "NY", "zip": "10901-6400", "ntee": "X30", "ruling": "202206", "deductibility": "1", "assets": 0, "income": 0, "revenue": 0}], "LWC": [{"ein": "873311119", "name": "NATURES TREATS LWC FOUNDATION INC", "city": "MIDDLETOWN", "state": "NY", "zip": "10941-3246", "ntee": "K40", "ruling": "202307", "deductibility": "1", "assets": 2720, "income": 33591, "revenue": 33591}], "BOMBOM": [{"ein": "873612848", "name": "BOMBOM MUSIC INC", "city": "LONG BEACH", "state": "NY", "zip": "11561-3128", "ntee": "A25", "ruling": "202207", "deductibility": "1", "assets": 0, "income": 0, "revenue": 0}], "COECLES": [{"ein": "881009889", "name": "FRIENDS OF COECLES HARBOR INC", "city": "SHELTER IS HT", "state": "NY", "zip": "11965-0069", "ntee": "C30", "ruling": "202204", "deductibility": "2", "assets": 3544, "income": 0, "revenue": 0}], "PBBX": [{"ein": "882489126", "name": "PBBX POLICE CLUB", "city": "BRONX", "state": "NY", "zip": "10457-7401", "ntee": "P99", "ruling": "202301", "deductibility": "1", "assets": 13229, "income": 100953, "revenue": 100953}], "OMES": [{"ein": "882963066", "name": "CHEDPA AND OMES INTERNATONAL", "city": "BROOKLYN", "state": "NY", "zip": "11226-0000", "ntee": "S01", "ruling": "202405", "deductibility": "1", "assets": 0, "income": 0, "revenue": 0}], "FAWZ": [{"ein": "883738561", "name": "AL FAWZ ISLAMIC SCHOOL OF AMERICA INC AFISA", "city": "OZONE PARK", "state": "NY", "zip": "11417-1117", "ntee": "B20", "ruling": "202211", "deductibility": "1", "assets": 842279, "income": 257186, "revenue": 257186}], "NSQ": [{"ein": "900546415", "name": "SISTERS OF THE ARTS-NSQ CHAPTER THE SOCIETY INCORPORATED", "city": "JERICHO", "state": "NY", "zip": "11753-2106", "ntee": "T99", "ruling": "201406", "deductibility": "1", "assets": 0, "income": 0, "revenue": 0}], "FLOSSY": [{"ein": "920482325", "name": "FLOSSY ORGANIZATION INC", "city": "BROOKLYN", "state": "NY", "zip": "11236-3311", "ntee": "S21", "ruling": "202401", "deductibility": "1", "assets": 43885, "income": 117815, "revenue": 117815}], "SPECTACLE": [{"ein": "921292393", "name": "INTIMATE SPECTACLE THEATER COMPANY INC", "city": "NEW YORK", "state": "NY", "zip": "10025-6247", "ntee": "P20", "ruling": "202301", "deductibility": "1", "assets": 0, "income": 0, "revenue": 0}], "CARMS": [{"ein": "922200165", "name": "CARMS RESCUE INC", "city": "CICERO", "state": "NY", "zip": "13039-9217", "ntee": "D20", "ruling": "202307", "deductibility": "1", "assets": 0, "income": 0, "revenue": 0}], "TOILETRY": [{"ein": "922308433", "name": "TOILETRY DONATIONS", "city": "ROCHESTER", "state": "NY", "zip": "14610-2107", "ntee": "P20", "ruling": "202304", "deductibility": "1", "assets": 0, "income": 0, "revenue": 0}], "SHAYNA": [{"ein": "922973666", "name": "SHAYNA CHESED INC", "city": "FAR ROCKAWAY", "state": "NY", "zip": "11691-4631", "ntee": "T30", "ruling": "202401", "deductibility": "1", "assets": 0, "income": 0, "revenue": 0}], "HERMELIN": [{"ein": "923231258", "name": "HERMELIN LEVITE FAMILY FOUNDATION", "city": "BROOKLYN", "state": "NY", "zip": "11201-5821", "ntee": "T20", "ruling": "202502", "deductibility": "1", "assets": 1, "income": 1, "revenue": 0}], "THORO": [{"ein": "931356492", "name": "NY THORO INC", "city": "JAMAICA", "state": "NY", "zip": "11434-2117", "ntee": "N11", "ruling": "202308", "deductibility": "1", "assets": 0, "income": 29766, "revenue": 29766}], "LAKSHMIPUR": [{"ein": "931428602", "name": "LAKSHMIPUR DISTRICT SOCIETY USA INC", "city": "BROOKLYN", "state": "NY", "zip": "11218-3880", "ntee": "P99", "ruling": "202306", "deductibility": "1", "assets": 0, "income": 0, "revenue": 0}], "CHALLENGERS": [{"ein": "931521779", "name": "WESTCHESTER CHALLENGERS NY INC", "city": "NEW CITY", "state": "NY", "zip": "10956-6624", "ntee": "X12", "ruling": "202306", "deductibility": "1", "assets": 0, "income": 0, "revenue": 0}], "OMARI": [{"ein": "934499916", "name": "OMARI LAWRENCE FOUNDATION INC", "city": "BRONX", "state": "NY", "zip": "10466-0000", "ntee": "", "ruling": "202312", "deductibility": "1", "assets": 0, "income": 0, "revenue": 0}], "MINDWORKS": [{"ein": "934981009", "name": "NARRATIVE MINDWORKS CORPORATION", "city": "NEW YORK", "state": "NY", "zip": "10001-4482", "ntee": "B02", "ruling": "202401", "deductibility": "1", "assets": 0, "income": 0, "revenue": 0}], "QUAKERS": [{"ein": "954031072", "name": "NATIONAL SOCIETY DESCENDANTS OF EARLY QUAKERS", "city": "SARATOGA SPGS", "state": "NY", "zip": "12866-7501", "ntee": "", "ruling": "198806", "deductibility": "1", "assets": 0, "income": 0, "revenue": 0}], "QUACKS": [{"ein": "992366801", "name": "QUACKS WARRIORS INC", "city": "ALBANY", "state": "NY", "zip": "12207-0000", "ntee": "P12", "ruling": "202405", "deductibility": "1", "assets": 0, "income": 0, "revenue": 0}], "SUPERMARKETS": [{"ein": "992936355", "name": "NATIONAL SUPERMARKETS ASSOCIATION NEW ENGLAND INC", "city": "FLUSHING", "state": "NY", "zip": "11354-1995", "ntee": "K91", "ruling": "202412", "deductibility": "2", "assets": 0, "income": 0, "revenue": 0}]}