{"GLEN": [{"ein": "010553426", "name": "INTERAGENCY COUNCIL GLEN COVE LTD", "city": "GLEN COVE", "state": "NY", "zip": "11542-0532", "ntee": "P99", "ruling": "200305", "deductibility": "1", "assets": 0, "income": 0, "revenue": 0}, {"ein": "061358298", "name": "GLEN ARDEN INCORPORATED", "city": "GOSHEN", "state": "NY", "zip": "10924-2422", "ntee": "P750", "ruling": "199403", "deductibility": "1", "assets": 17652586, "income": 10301889, "revenue": 10301889}, {"ein": "110804490", "name": "GLEN OAKS CLUB INC", "city": "OLD WESTBURY", "state": "NY", "zip": "11568-1704", "ntee": "", "ruling": "194701", "deductibility": "2", "assets": 17495720, "income": 25695215, "revenue": 23791768}, {"ein": "111195690", "name": "POLISH NATIONAL HOME OF GLEN COVE & VICINITY INC", "city": "GLEN COVE", "state": "NY", "zip": "11542-2953", "ntee": "", "ruling": "193808", "deductibility": "2", "assets": 579023, "income": 194968, "revenue": 181758}, {"ein": "111569376", "name": "GLEN HEAD COUNTRY CLUB INC", "city": "GLEN HEAD", "state": "NY", "zip": "11545-2207", "ntee": "", "ruling": "195001", "deductibility": "2", "assets": 14107377, "income": 13903285, "revenue": 12259344}, {"ein": "111633487", "name": "GLEN COVE HOSPITAL", "city": "WESTBURY", "state": "NY", "zip": "11590-1740", "ntee": "E20", "ruling": "195604", "deductibility": "1", "assets": 163529627, "income": 275108412, "revenue": 239768993}, {"ein": "111633510", "name": "GLEN COVE NEIGHBORHOOD ASSOCIATION INC", "city": "LOCUST VALLEY", "state": "NY", "zip": "11560-2123", "ntee": "", "ruling": "194707", "deductibility": "1", "assets": 322166, "income": 92786, "revenue": 92786}, {"ein": "111673938", "name": "GLEN COVE BOYS AND GIRLS CLUB AT LINCOLN HOUSE INC", "city": "GLEN COVE", "state": "NY", "zip": "11542-3438", "ntee": "O23Z", "ruling": "195302", "deductibility": "1", "assets": 7053438, "income": 1642572, "revenue": 1470329}, {"ein": "112320074", "name": "GLEN COVE CHAMBER OF COMMERCE", "city": "GLEN COVE", "state": "NY", "zip": "11542-2651", "ntee": "", "ruling": "197611", "deductibility": "2", "assets": 54660, "income": 146903, "revenue": 65761}, {"ein": "112546430", "name": "GLEN COVE STRIKERS INC", "city": "GLEN COVE", "state": "NY", "zip": "11542-2549", "ntee": "", "ruling": "198201", "deductibility": "1", "assets": 58697, "income": 193035, "revenue": 193035}, {"ein": "112595472", "name": "GLEN COVE CHRISTIAN CHURCH", "city": "GLEN COVE", "state": "NY", "zip": "11542-2616", "ntee": "", "ruling": "199202", "deductibility": "1", "assets": 0, "income": 0, "revenue": 0}, {"ein": "112827267", "name": "GLEN COVE V E M S ASSOCIATION INC", "city": "GLEN COVE", "state": "NY", "zip": "11542-0391", "ntee": "", "ruling": "198804", "deductibility": "1", "assets": 83663, "income": 35335, "revenue": 23391}, {"ein": "112959103", "name": "GLEN COVE DAY CARE BUILDING FUND CORPORATION", "city": "GLEN COVE", "state": "NY", "zip": "11542-0191", "ntee": "B22I", "ruling": "199008", "deductibility": "1", "assets": 487237, "income": 36000, "revenue": 36000}, {"ein": "113027504", "name": "FIRST BAPTIST CHURCH OF GLEN COVE", "city": "GLEN COVE", "state": "NY", "zip": "11542-2963", "ntee": "", "ruling": "199101", "deductibility": "1", "assets": 0, "income": 0, "revenue": 0}, {"ein": "113357637", "name": "GLEN COVE DOWNTOWN DISTRICT MGMT ASSN INC", "city": "GLEN COVE", "state": "NY", "zip": "11542-5006", "ntee": "S21Z", "ruling": "199802", "deductibility": "1", "assets": 100831, "income": 187258, "revenue": 187258}, {"ein": "113358875", "name": "GLEN COVE C A R E S", "city": "JERICHO", "state": "NY", "zip": "11753-1318", "ntee": "G30", "ruling": "200202", "deductibility": "1", "assets": 173129, "income": 38552, "revenue": 16301}, {"ein": "113376125", "name": "VOLUNTEER & EXEMPT FIREMENS BENE ASSOC OF THE CITY OF GLEN COVE INC", "city": "GLEN COVE", "state": "NY", "zip": "11542-1633", "ntee": "", "ruling": "199710", "deductibility": "2", "assets": 3626297, "income": 485243, "revenue": 270243}, {"ein": "113556790", "name": "CHABAD OF GLEN COVE", "city": "GLEN HEAD", "state": "NY", "zip": "11545-2619", "ntee": "X30", "ruling": "200307", "deductibility": "1", "assets": 0, "income": 0, "revenue": 0}, {"ein": "113615834", "name": "GLEN COVE EDUCATION FOUNDATION INC", "city": "GLEN COVE", "state": "NY", "zip": "11542-1527", "ntee": "B12", "ruling": "202409", "deductibility": "1", "assets": 0, "income": 0, "revenue": 0}, {"ein": "116037976", "name": "ROTARY CLUB OF GLEN COVE", "city": "GLEN COVE", "state": "NY", "zip": "11542-0469", "ntee": "", "ruling": "202302", "deductibility": "2", "assets": 0, "income": 0, "revenue": 0}, {"ein": "116046932", "name": "GLEN COVE CHILD DAY CARE CENTER INC", "city": "GLEN COVE", "state": "NY", "zip": "11542-0191", "ntee": "", "ruling": "196607", "deductibility": "1", "assets": 924986, "income": 2698740, "revenue": 2698740}, {"ein": "116081875", "name": "CHRISTIAN CHURCH OF GLEN COVE", "city": "GLEN COVE", "state": "NY", "zip": "11542-3911", "ntee": "", "ruling": "196712", "deductibility": "1", "assets": 0, "income": 0, "revenue": 0}, {"ein": "141585807", "name": "GLEN LAKE PROTECTIVE ASSOCIATION", "city": "QUEENSBURY", "state": "NY", "zip": "12804-0135", "ntee": "C32", "ruling": "200708", "deductibility": "1", "assets": 195295, "income": 11133, "revenue": 11133}, {"ein": "141794150", "name": "GLEN EDDY INC", "city": "NISKAYUNA", "state": "NY", "zip": "12309-4965", "ntee": "P75", "ruling": "199807", "deductibility": "1", "assets": 19062518, "income": 7821808, "revenue": 7821808}, {"ein": "150494335", "name": "WILLOW GLEN CEMETERY ASSOCIATION", "city": "DRYDEN", "state": "NY", "zip": "13053-0299", "ntee": "", "ruling": "199702", "deductibility": "2", "assets": 1689025, "income": 2066995, "revenue": 271560}, {"ein": "150574224", "name": "BROWNVILLE-GLEN PARK LIBRARY ASSOCIATION", "city": "BROWNVILLE", "state": "NY", "zip": "13615-7703", "ntee": "B70", "ruling": "202411", "deductibility": "1", "assets": 0, "income": 0, "revenue": 0}, {"ein": "160988396", "name": "WATKINS GLEN CENTRAL SCHOOL DISTRICT FREE PUBLIC LIBRARY", "city": "WATKINS GLEN", "state": "NY", "zip": "14891-1613", "ntee": "", "ruling": "198411", "deductibility": "1", "assets": 0, "income": 0, "revenue": 0}, {"ein": "161142611", "name": "GLEN AUBREY FIRE COMPANY INC C/O WILLIAM CRANE", "city": "GLEN AUBREY", "state": "NY", "zip": "13777-0328", "ntee": "M24Z", "ruling": "199803", "deductibility": "1", "assets": 273283, "income": 208690, "revenue": 193004}, {"ein": "161456177", "name": "WATKINS GLEN PROMOTIONS INC", "city": "WATKINS GLEN", "state": "NY", "zip": "14891-1201", "ntee": "S21Z", "ruling": "199501", "deductibility": "1", "assets": 181612, "income": 321633, "revenue": 245999}, {"ein": "161529639", "name": "GLEN AT HILAND MEADOWS INC", "city": "QUEENSBURY", "state": "NY", "zip": "12804-5935", "ntee": "L22", "ruling": "200003", "deductibility": "1", "assets": 42738543, "income": 10264328, "revenue": 10264328}, {"ein": "161540279", "name": "ALLENS CREEK CORBETTS GLEN PRESERVATION GROUP INC", "city": "ROCHESTER", "state": "NY", "zip": "14625-0134", "ntee": "C30", "ruling": "199804", "deductibility": "1", "assets": 0, "income": 0, "revenue": 0}, {"ein": "161572964", "name": "WATKINS GLEN MOTOR RACING RESEARCH COUNCIL INC", "city": "WATKINS GLEN", "state": "NY", "zip": "14891-1613", "ntee": "A540", "ruling": "199912", "deductibility": "1", "assets": 5064582, "income": 2485271, "revenue": 580566}, {"ein": "166051861", "name": "SPORTS CAR CLUB OF AMERICA INCORPORATED GLEN REGION", "city": "WATKINS GLEN", "state": "NY", "zip": "14891-0027", "ntee": "", "ruling": "196207", "deductibility": "2", "assets": 221804, "income": 298958, "revenue": 298958}, {"ein": "166052379", "name": "WATKINS GLEN YACHT CLUB INC", "city": "WATKINS GLEN", "state": "NY", "zip": "14891-0216", "ntee": "", "ruling": "194005", "deductibility": "2", "assets": 661404, "income": 151348, "revenue": 151348}, {"ein": "166054139", "name": "WATKINS GLEN AREA CHAMBER OF COMMERCE INC", "city": "WATKINS GLEN", "state": "NY", "zip": "14891-1224", "ntee": "", "ruling": "197302", "deductibility": "0", "assets": 697661, "income": 1129016, "revenue": 1094446}, {"ein": "202445078", "name": "MUSIC PERFORMING ART PARENTS ASSOCIATION OF GLEN COVE INC", "city": "GLEN COVE", "state": "NY", "zip": "11542-0000", "ntee": "A68", "ruling": "201110", "deductibility": "1", "assets": 0, "income": 0, "revenue": 0}, {"ein": "203545252", "name": "GLEN COVE SAGE FOUNDATION", "city": "GLEN COVE", "state": "NY", "zip": "11542-3363", "ntee": "B82", "ruling": "200512", "deductibility": "1", "assets": 222484, "income": 111816, "revenue": 110866}, {"ein": "203651001", "name": "FRIENDS OF THE GLEN COVE YOUTH BOARD", "city": "GLEN COVE", "state": "NY", "zip": "11542-2737", "ntee": "P123", "ruling": "200812", "deductibility": "1", "assets": 124040, "income": 209378, "revenue": 209378}, {"ein": "205946279", "name": "WATKINS GLEN HIGH SCHOOL ALUMNIASSOCIATION INC", "city": "WATKINS GLEN", "state": "NY", "zip": "14891-1633", "ntee": "B84", "ruling": "200712", "deductibility": "1", "assets": 0, "income": 0, "revenue": 0}, {"ein": "222142390", "name": "GLEN HEAD CHARITY FUND INC C O THE GLEN HEAD COUNTRY CLUB", "city": "GLEN HEAD", "state": "NY", "zip": "11545-2207", "ntee": "", "ruling": "197711", "deductibility": "1", "assets": 118783, "income": 117656, "revenue": 77104}, {"ein": "222209114", "name": "GLEN HAVEN HISTORICAL SOCIETY", "city": "HOMER", "state": "NY", "zip": "13077-0293", "ntee": "", "ruling": "197808", "deductibility": "1", "assets": 0, "income": 0, "revenue": 0}, {"ein": "237010468", "name": "NORTH SHORE UNIVERSITY HOSPITAL AT GLEN COVE HOUSING INC", "city": "WESTBURY", "state": "NY", "zip": "11590-1740", "ntee": "", "ruling": "196902", "deductibility": "2", "assets": 293978, "income": 374569, "revenue": 374569}, {"ein": "237032658", "name": "GLEN COVE CITY PATROLMENS BENEVOLENT ASSOCIATION INC", "city": "GLEN COVE", "state": "NY", "zip": "11542-0285", "ntee": "", "ruling": "197006", "deductibility": "2", "assets": 0, "income": 0, "revenue": 0}, {"ein": "237070570", "name": "GREATER GLEN FALLS BIBLE BAPTIST CHURCH", "city": "HUDSON FALLS", "state": "NY", "zip": "12839-0000", "ntee": "", "ruling": "197012", "deductibility": "1", "assets": 0, "income": 0, "revenue": 0}, {"ein": "237221788", "name": "GLEN COVE PUBLIC LIBRARY", "city": "GLEN COVE", "state": "NY", "zip": "11542-2840", "ntee": "", "ruling": "197207", "deductibility": "1", "assets": 0, "income": 0, "revenue": 0}, {"ein": "237237936", "name": "GLEN FALLS OPERETTA CLUB INC", "city": "GLENS FALLS", "state": "NY", "zip": "12801-0687", "ntee": "A650", "ruling": "197212", "deductibility": "1", "assets": 53639, "income": 89351, "revenue": 85730}, {"ein": "237326389", "name": "FRIENDS OF THE GLEN COVE PUBLIC LIBRARY INC", "city": "GLEN COVE", "state": "NY", "zip": "11542-1802", "ntee": "B12", "ruling": "202408", "deductibility": "1", "assets": 0, "income": 0, "revenue": 0}, {"ein": "237336330", "name": "GLEN OAKS VOLUNTEER AMBULANCE CORPS INC", "city": "FLORAL PARK", "state": "NY", "zip": "11004-1252", "ntee": "E62Z", "ruling": "197408", "deductibility": "1", "assets": 339192, "income": 174226, "revenue": 148451}, {"ein": "260128468", "name": "TOWN OF GLEN VOLUNTEER FIRE DEPARTMENT INC", "city": "FULTONVILLE", "state": "NY", "zip": "12072-2015", "ntee": "M24", "ruling": "201205", "deductibility": "1", "assets": 612320, "income": 275735, "revenue": 275735}, {"ein": "263761561", "name": "GLEN HEAD SCHOOL PTO", "city": "GLEN HEAD", "state": "NY", "zip": "11545-1842", "ntee": "B94", "ruling": "200906", "deductibility": "1", "assets": 67576, "income": 152921, "revenue": 116123}, {"ein": "264490216", "name": "NEW VISION COVENANT CHURCH-GLEN OAKS NY", "city": "BAYSIDE", "state": "NY", "zip": "11361-1021", "ntee": "", "ruling": "197507", "deductibility": "0", "assets": 0, "income": 0, "revenue": 0}, {"ein": "273143599", "name": "SIDNEY CANARICK FOUNDATION FOR GLEN COVE LTD", "city": "GLEN COVE", "state": "NY", "zip": "11542-1933", "ntee": "B11", "ruling": "201012", "deductibility": "1", "assets": 0, "income": 0, "revenue": 0}, {"ein": "274947719", "name": "GLEN COVE MENS GOLF CLUB INC", "city": "GLEN COVE", "state": "NY", "zip": "11542-4033", "ntee": "N60", "ruling": "201202", "deductibility": "2", "assets": 0, "income": 0, "revenue": 0}, {"ein": "300281251", "name": "GLEN COVE JUNIOR FOOTBALL & CHEERLEADING INC", "city": "GLEN COVE", "state": "NY", "zip": "11542-1533", "ntee": "N65", "ruling": "202306", "deductibility": "1", "assets": 0, "income": 0, "revenue": 0}, {"ein": "311727817", "name": "PRESWICK GLEN INC", "city": "NEW HARTFORD", "state": "NY", "zip": "13413-5405", "ntee": "L22", "ruling": "200707", "deductibility": "1", "assets": 16453405, "income": 5231167, "revenue": 5209265}, {"ein": "320279185", "name": "WATKINS GLEN PTO", "city": "WATKINS GLEN", "state": "NY", "zip": "14891-1613", "ntee": "B94", "ruling": "202301", "deductibility": "1", "assets": 0, "income": 0, "revenue": 0}, {"ein": "320331297", "name": "GLEN COVE CLUB INC", "city": "GLEN COVE", "state": "NY", "zip": "11542-2107", "ntee": "N50", "ruling": "201305", "deductibility": "2", "assets": 0, "income": 0, "revenue": 0}, {"ein": "320335599", "name": "WOMANS CLUB OF GLEN COVE", "city": "BAYVILLE", "state": "NY", "zip": "11709-2116", "ntee": "T11", "ruling": "202405", "deductibility": "1", "assets": 0, "income": 0, "revenue": 0}, {"ein": "461476586", "name": "GLEN COVE 9 HOLE GOLF", "city": "GLEN COVE", "state": "NY", "zip": "11542-1200", "ntee": "N6A", "ruling": "201405", "deductibility": "2", "assets": 0, "income": 0, "revenue": 0}, {"ein": "462403577", "name": "GLEN COVE PRIDE FOUNDATION INC", "city": "GLEN COVE", "state": "NY", "zip": "11542-2798", "ntee": "P99", "ruling": "201406", "deductibility": "1", "assets": 0, "income": 0, "revenue": 0}, {"ein": "510192496", "name": "COMMUNITY SCHOLARSHIP FUND OF GLEN COVE INC", "city": "GLEN COVE", "state": "NY", "zip": "11542-0691", "ntee": "B820", "ruling": "195706", "deductibility": "1", "assets": 1939145, "income": 301563, "revenue": 142087}, {"ein": "651221000", "name": "12 DUFFIELD GLEN SEATOR FOUNDATION", "city": "NEW YORK", "state": "NY", "zip": "10016-8711", "ntee": "A25", "ruling": "200410", "deductibility": "1", "assets": 0, "income": 0, "revenue": 0}, {"ein": "710883483", "name": "GLEN CONSERVANCY LTD", "city": "FULTONVILLE", "state": "NY", "zip": "12072-0523", "ntee": "A20", "ruling": "201409", "deductibility": "1", "assets": 64078, "income": 56921, "revenue": 56921}, {"ein": "811031738", "name": "LOGGIA GLEN COVE FOUNDATION CORP", "city": "GLEN COVE", "state": "NY", "zip": "11542-0347", "ntee": "Y40", "ruling": "201603", "deductibility": "2", "assets": 18158, "income": 13530, "revenue": 13530}, {"ein": "811930800", "name": "SEA CLIFF GLEN HEAD LIONS CLUB FOUNDATION CORP", "city": "SEA CLIFF", "state": "NY", "zip": "11579-0102", "ntee": "T50", "ruling": "201607", "deductibility": "1", "assets": 0, "income": 0, "revenue": 0}, {"ein": "822070552", "name": "WATKINS GLEN SPORTS BOOSTERS INC", "city": "WATKINS GLEN", "state": "NY", "zip": "14891-1627", "ntee": "N99", "ruling": "201710", "deductibility": "1", "assets": 0, "income": 0, "revenue": 0}, {"ein": "824273892", "name": "FRIENDS OF FILLMORE GLEN STATE PARK", "city": "LOCKE", "state": "NY", "zip": "13092-0185", "ntee": "N32", "ruling": "201803", "deductibility": "1", "assets": 0, "income": 0, "revenue": 0}, {"ein": "832028554", "name": "GLEN COVE PARADE COMMITTEE", "city": "BAYVILLE", "state": "NY", "zip": "11709-1902", "ntee": "N52", "ruling": "201903", "deductibility": "1", "assets": 0, "income": 0, "revenue": 0}, {"ein": "843234816", "name": "WATKINS GLEN COMMUNITY DEVELOPMENT INC", "city": "WATKINS GLEN", "state": "NY", "zip": "14891-1254", "ntee": "", "ruling": "202111", "deductibility": "1", "assets": 0, "income": 0, "revenue": 0}, {"ein": "852665719", "name": "GLEN COVE WOMENS GOLF CLUB INC", "city": "GLEN COVE", "state": "NY", "zip": "11542-1024", "ntee": "N50", "ruling": "202104", "deductibility": "2", "assets": 0, "income": 0, "revenue": 0}, {"ein": "861760158", "name": "GLEN COVE BASEBALL & SOFTBALL ASSOCIATION INC", "city": "GLEN COVE", "state": "NY", "zip": "11542-1632", "ntee": "N63", "ruling": "202105", "deductibility": "1", "assets": 8269, "income": 76607, "revenue": 76607}, {"ein": "872454513", "name": "GLEN COVE FACULTY MEDICAL AFFILIATES UNIVERSITY FACULTY PRAC", "city": "WESTBURY", "state": "NY", "zip": "11590-1740", "ntee": "E30", "ruling": "202209", "deductibility": "1", "assets": 1, "income": 0, "revenue": 0}, {"ein": "900618933", "name": "GLEN TETLEY LEGACY", "city": "NEW YORK", "state": "NY", "zip": "10128-4083", "ntee": "A60", "ruling": "201109", "deductibility": "1", "assets": 211535, "income": 39875, "revenue": 0}, {"ein": "932186382", "name": "WILLOW GLEN CHRISTIAN SCHOOL INCORPORATED", "city": "FREEVILLE", "state": "NY", "zip": "13068-5618", "ntee": "B20", "ruling": "202506", "deductibility": "1", "assets": 0, "income": 0, "revenue": 0}, {"ein": "934438890", "name": "GLEN COVE FIRE ASSOCIATION INC", "city": "GLEN COVE", "state": "NY", "zip": "11542-0000", "ntee": "M24", "ruling": "202505", "deductibility": "1", "assets": 0, "income": 0, "revenue": 0}, {"ein": "934532151", "name": "LEVEL UP GLEN COVE CARES", "city": "GLEN COVE", "state": "NY", "zip": "11542-3551", "ntee": "P20", "ruling": "202312", "deductibility": "1", "assets": 2578, "income": 4187, "revenue": 4187}, {"ein": "991854020", "name": "OSDIA GLEN COVE 1016 FOUNDATION INC", "city": "GLEN COVE", "state": "NY", "zip": "11542-0347", "ntee": "T12", "ruling": "202404", "deductibility": "1", "assets": 0, "income": 0, "revenue": 0}], "GRAND": [{"ein": "010901301", "name": "PCMH 2950 GRAND CONCOURSE HOUSING DEVELOPMENT FUND CORPORATION", "city": "NEW YORK", "state": "NY", "zip": "10016-4102", "ntee": "L20", "ruling": "201408", "deductibility": "2", "assets": 0, "income": 0, "revenue": 0}, {"ein": "060982007", "name": "GRAND CHAPTER OMEGA GAMMA DELTA FRATERNITY INC", "city": "OAK BEACH", "state": "NY", "zip": "11702-0000", "ntee": "B83", "ruling": "202004", "deductibility": "2", "assets": 0, "income": 0, "revenue": 0}, {"ein": "112529960", "name": "GRAND LODGE OF THE ENGLISH LANGUAGE JURISDICTION OF THE ANCIENT MYSTIC", "city": "BROOKLYN", "state": "NY", "zip": "11203-5949", "ntee": "", "ruling": "196404", "deductibility": "1", "assets": 0, "income": 0, "revenue": 0}, {"ein": "112630214", "name": "ORDER SONS OF ITALY IN AMERICA NEW YORK GRAND LODGE FOUNDATION", "city": "BELLMORE", "state": "NY", "zip": "11710-5605", "ntee": "S82Z", "ruling": "194106", "deductibility": "1", "assets": 3104143, "income": 1704161, "revenue": 623394}, {"ein": "112739527", "name": "GRAND STREET DISTRICT MANAGEMENT ASSOCIATION INC", "city": "BROOKLYN", "state": "NY", "zip": "11206-1204", "ntee": "N52Z", "ruling": "198909", "deductibility": "1", "assets": 313258, "income": 429538, "revenue": 429538}, {"ein": "112918576", "name": "CHRISTS LIFE EVANGELISM INC 617 GRAND AVE", "city": "BRONX", "state": "NY", "zip": "10473-0015", "ntee": "", "ruling": "199208", "deductibility": "1", "assets": 0, "income": 0, "revenue": 0}, {"ein": "113507040", "name": "THE GRAND CENTRAL FUND INC", "city": "FOREST HILLS", "state": "NY", "zip": "11375-5139", "ntee": "", "ruling": "202103", "deductibility": "1", "assets": 0, "income": 0, "revenue": 0}, {"ein": "121389432", "name": "GREEN GRAND PRIX CORPORATION", "city": "PENN YAN", "state": "NY", "zip": "14527-9307", "ntee": "C60", "ruling": "201003", "deductibility": "1", "assets": 0, "income": 0, "revenue": 0}, {"ein": "131939577", "name": "SPORTS CAR CLUB OF AMERICA INC NEW YORK REGION GRAND CENTRAL STATION", "city": "S FARMINGDALE", "state": "NY", "zip": "11735-5748", "ntee": "", "ruling": "196203", "deductibility": "2", "assets": 148886, "income": 57064, "revenue": 57064}, {"ein": "132679032", "name": "GRAND STREET GUILD EAST HOUSING DEVELOPMENT FUND COMPANY INC", "city": "GARDEN CITY", "state": "NY", "zip": "11530-7602", "ntee": "L99", "ruling": "200704", "deductibility": "1", "assets": 30396394, "income": 10952456, "revenue": 10361274}, {"ein": "132679033", "name": "GRAND STREET GUILD HDFC INC", "city": "RICHMOND HILL", "state": "NY", "zip": "11418-2426", "ntee": "L99", "ruling": "200703", "deductibility": "1", "assets": 31530911, "income": 10932644, "revenue": 10338564}, {"ein": "132679034", "name": "SOUTHEAST GRAND ST GUILD HDF CO INC RESIDENTIAL MANAGEMENT ASSOC INC", "city": "GARDEN CITY", "state": "NY", "zip": "11530-7602", "ntee": "L21", "ruling": "200705", "deductibility": "1", "assets": 30329710, "income": 11239143, "revenue": 10599055}, {"ein": "132895818", "name": "KNIGHTS OF THE ORTHODOX ORDER OF ST JOHN RUSSIAN GRAND PRIORY", "city": "MOUNT VERNON", "state": "NY", "zip": "10552-1218", "ntee": "P20", "ruling": "202404", "deductibility": "1", "assets": 37836, "income": 43605, "revenue": 43605}, {"ein": "133174951", "name": "MOST WORSHIPFUL ALPHA GRAND LODGE", "city": "BRONX", "state": "NY", "zip": "10466-2015", "ntee": "Y40", "ruling": "202408", "deductibility": "2", "assets": 0, "income": 0, "revenue": 0}, {"ein": "133225473", "name": "384 GRAND STREET HOUSING DEVELOPMENT FUND COMPANY INC", "city": "NEW YORK", "state": "NY", "zip": "10019-3211", "ntee": "", "ruling": "198811", "deductibility": "1", "assets": 6227193, "income": 766693, "revenue": 749334}, {"ein": "133275810", "name": "GRAND CENTRAL PARTNERSHIP INC", "city": "NEW YORK", "state": "NY", "zip": "10168-0699", "ntee": "S400", "ruling": "199106", "deductibility": "1", "assets": 18266440, "income": 14173361, "revenue": 14135016}, {"ein": "133520221", "name": "GRAND CENTRAL DISTRICT MANAGEMENT ASSOCIATION INC", "city": "NEW YORK", "state": "NY", "zip": "10168-0699", "ntee": "L20Z", "ruling": "199106", "deductibility": "1", "assets": 1375933, "income": 12709372, "revenue": 12709372}, {"ein": "133534255", "name": "GRAND CENTRAL NEIGHBORHOOD SOCIAL SERVICES CORPORATION", "city": "NEW YORK", "state": "NY", "zip": "10016-5502", "ntee": "P850", "ruling": "199104", "deductibility": "1", "assets": 4265743, "income": 3307865, "revenue": 3307865}, {"ein": "133568135", "name": "HUNDRED GRAND DANCE FOUNDATION INC", "city": "NEW YORK", "state": "NY", "zip": "10013-2659", "ntee": "A62Z", "ruling": "199406", "deductibility": "1", "assets": 32310, "income": 119312, "revenue": 119312}, {"ein": "133768680", "name": "GRAND AVENUE MT ZION CHURCH INC", "city": "BRONX", "state": "NY", "zip": "10453-7706", "ntee": "X20Z", "ruling": "199803", "deductibility": "1", "assets": 0, "income": 0, "revenue": 0}, {"ein": "133775330", "name": "GRAND LODGE ANCIENT UNIVERSAL MYSTERIES INC", "city": "NEW YORK", "state": "NY", "zip": "10010-6865", "ntee": "", "ruling": "199502", "deductibility": "2", "assets": 415485, "income": 643015, "revenue": 581203}, {"ein": "133806082", "name": "GRAND CONCOURSE EAST HOUSING DEVELOPMENT FUND CORPORATION", "city": "BRONX", "state": "NY", "zip": "10451-2746", "ntee": "L20", "ruling": "200406", "deductibility": "1", "assets": 631079, "income": 2056110, "revenue": 2056110}, {"ein": "133817770", "name": "GRAND BOULE OF THE SIGMA PI PHI FRATERNITY", "city": "BROOKLYN", "state": "NY", "zip": "11238-1502", "ntee": "Y42", "ruling": "201005", "deductibility": "1", "assets": 127905, "income": 116987, "revenue": 41169}, {"ein": "134134510", "name": "GRAND TRIANGLE INC", "city": "NEW YORK", "state": "NY", "zip": "10026-0966", "ntee": "A23", "ruling": "200210", "deductibility": "1", "assets": 0, "income": 0, "revenue": 0}, {"ein": "134146047", "name": "YOUTH AMERICA GRAND PRIX INC", "city": "NEW YORK", "state": "NY", "zip": "10018-3612", "ntee": "A63", "ruling": "200106", "deductibility": "1", "assets": 5881078, "income": 14865756, "revenue": 7393851}, {"ein": "135562230", "name": "GRAND STREET SETTLEMENT INC", "city": "NEW YORK", "state": "NY", "zip": "10002-3516", "ntee": "P200", "ruling": "192701", "deductibility": "1", "assets": 43309328, "income": 43785159, "revenue": 42757842}, {"ein": "135572761", "name": "ROYAL ARCH MASONS OF NEW YORK GRAND CHAPTER", "city": "UTICA", "state": "NY", "zip": "13501-0000", "ntee": "", "ruling": "194007", "deductibility": "1", "assets": 8467990, "income": 2621619, "revenue": 512136}, {"ein": "135644027", "name": "KNIGHTS TEMPLAR EDUCATIONAL FOUNDATION OF THE GRAND ENCAMPMENT", "city": "BLISS", "state": "NY", "zip": "14024-9712", "ntee": "", "ruling": "195201", "deductibility": "0", "assets": 0, "income": 0, "revenue": 0}, {"ein": "135668089", "name": "KNIGHTS OF PYTHIAS OF NEW YORK GRAND LODGE", "city": "VALLEY STREAM", "state": "NY", "zip": "11580-5403", "ntee": "", "ruling": "194008", "deductibility": "1", "assets": 1090261, "income": 110628, "revenue": 109406}, {"ein": "136142149", "name": "ANCIENT FREE & ACCEPTED MASONS OF NEW YORK KING SOLOMON GRAND LODGE", "city": "NEW YORK", "state": "NY", "zip": "10027-4919", "ntee": "", "ruling": "202401", "deductibility": "1", "assets": 0, "income": 0, "revenue": 0}, {"ein": "136405450", "name": "ROYAL ARCH MASONS OF NEW YORK GRAND CHAPTER", "city": "STATEN ISLAND", "state": "NY", "zip": "10304-3822", "ntee": "Y42", "ruling": "201908", "deductibility": "1", "assets": 0, "income": 0, "revenue": 0}, {"ein": "141736154", "name": "GRAND BOULE OF THE SIGMA PI PHI FRATERNITY", "city": "GUILDERLAND", "state": "NY", "zip": "12084-1063", "ntee": "", "ruling": "201005", "deductibility": "2", "assets": 0, "income": 0, "revenue": 0}, {"ein": "141791276", "name": "FAITH CHRISTIAN FELLOWSHIP OF GRAND ISLAND", "city": "TONAWANDA", "state": "NY", "zip": "14150-0000", "ntee": "", "ruling": "198001", "deductibility": "1", "assets": 0, "income": 0, "revenue": 0}, {"ein": "141827582", "name": "GRAND GORGE COMMUNITY ACTION GROUP", "city": "GRAND GORGE", "state": "NY", "zip": "12434-0306", "ntee": "S20", "ruling": "200107", "deductibility": "1", "assets": 0, "income": 0, "revenue": 0}, {"ein": "160366913", "name": "ROYAL ARCH MASONS OF NEW YORK GRAND CHAPTER", "city": "CHEEKTOWAGA", "state": "NY", "zip": "14227-2234", "ntee": "", "ruling": "197211", "deductibility": "1", "assets": 0, "income": 0, "revenue": 0}, {"ein": "160454570", "name": "GRAND VIEW CEMETERY SOCIETY INC", "city": "BATAVIA", "state": "NY", "zip": "14021-0581", "ntee": "", "ruling": "199208", "deductibility": "2", "assets": 427687, "income": 89099, "revenue": 84383}, {"ein": "160793893", "name": "GRAND ISLAND FIRE CO NO 1 INC", "city": "GRAND ISLAND", "state": "NY", "zip": "14072-1711", "ntee": "M24I", "ruling": "199602", "deductibility": "1", "assets": 4757752, "income": 1670010, "revenue": 1670010}, {"ein": "160835402", "name": "GRAND ISLAND NURSERY SCHOOL", "city": "GRAND ISLAND", "state": "NY", "zip": "14072-0608", "ntee": "", "ruling": "195811", "deductibility": "1", "assets": 40242, "income": 92437, "revenue": 87576}, {"ein": "161291140", "name": "GRAND ISLAND LODGE NO 180 LOYAL ORDER OF MOOSE", "city": "GRAND ISLAND", "state": "NY", "zip": "14072-1650", "ntee": "", "ruling": "193508", "deductibility": "1", "assets": 146958, "income": 175329, "revenue": 88001}, {"ein": "161347332", "name": "GRAND ISLAND LITTLE LEAGUE INC", "city": "GRAND ISLAND", "state": "NY", "zip": "14072-0714", "ntee": "N63", "ruling": "201703", "deductibility": "1", "assets": 118890, "income": 315129, "revenue": 310054}, {"ein": "161399011", "name": "GRAND ISLAND CHAPTER NO 1922 WOMEN OF THE MOOSE", "city": "GRAND ISLAND", "state": "NY", "zip": "14072-1650", "ntee": "", "ruling": "194005", "deductibility": "1", "assets": 0, "income": 0, "revenue": 0}, {"ein": "161448700", "name": "GRAND ISLAND TEACHERS BENEFIT TRUST", "city": "GRAND ISLAND", "state": "NY", "zip": "14072-0884", "ntee": "", "ruling": "199808", "deductibility": "2", "assets": 185332, "income": 217548, "revenue": 217548}, {"ein": "166046330", "name": "GRAND ISLAND HISTORICAL SOCIETY", "city": "GRAND ISLAND", "state": "NY", "zip": "14072-0135", "ntee": "A80", "ruling": "200712", "deductibility": "1", "assets": 0, "income": 0, "revenue": 0}, {"ein": "166058327", "name": "GRAND ISLAND VOLUNTEER FIREMENS BENEVOLENT ASSOCIATION", "city": "GRAND ISLAND", "state": "NY", "zip": "14072-0267", "ntee": "", "ruling": "196501", "deductibility": "2", "assets": 1222493, "income": 114745, "revenue": 114745}, {"ein": "166147778", "name": "ROYAL ARCH MASONS OF NEW YORK GRAND CHAPTER", "city": "GOUVERNEUR", "state": "NY", "zip": "13642-1505", "ntee": "", "ruling": "197211", "deductibility": "1", "assets": 0, "income": 0, "revenue": 0}, {"ein": "201876837", "name": "409 GRAND AVENUE HOUSING DEVELOPMENT FUND CORPORATION", "city": "BROOKLYN", "state": "NY", "zip": "11238-3386", "ntee": "", "ruling": "202110", "deductibility": "1", "assets": 491502, "income": 70386, "revenue": 70386}, {"ein": "208107526", "name": "GEEL GRAND AVENUE HOUSING DEVELOPMENT FUND CORPORATION", "city": "BRONX", "state": "NY", "zip": "10468-4234", "ntee": "L20", "ruling": "200810", "deductibility": "1", "assets": 157509, "income": 1, "revenue": 0}, {"ein": "208693738", "name": "GRAND ISLAND COMMUNITY CHORUS INC", "city": "GRAND ISLAND", "state": "NY", "zip": "14072-2420", "ntee": "A6B", "ruling": "201607", "deductibility": "1", "assets": 0, "income": 0, "revenue": 0}, {"ein": "222320612", "name": "GRAND ISLAND SOCCER CLUB INC", "city": "GRAND ISLAND", "state": "NY", "zip": "14072-0457", "ntee": "N64", "ruling": "198001", "deductibility": "1", "assets": 167362, "income": 59528, "revenue": 59528}, {"ein": "222491191", "name": "FRIENDS OF GRAND ISLAND MEMORIAL PUBLIC LIBRARY", "city": "GRAND ISLAND", "state": "NY", "zip": "14072-1818", "ntee": "", "ruling": "199408", "deductibility": "1", "assets": 0, "income": 0, "revenue": 0}, {"ein": "222825119", "name": "GRAND ISLAND CATHOLIC CLUB INC", "city": "GRAND ISLAND", "state": "NY", "zip": "14072-0022", "ntee": "S80", "ruling": "202203", "deductibility": "1", "assets": 0, "income": 0, "revenue": 0}, {"ein": "222987573", "name": "GRAND ISLAND GOLDEN AGE CLUB INC", "city": "GRAND ISLAND", "state": "NY", "zip": "14072-1552", "ntee": "P81", "ruling": "201703", "deductibility": "1", "assets": 0, "income": 0, "revenue": 0}, {"ein": "223086081", "name": "UNITED GRAND IMPERIAL COUN KNIGHTS OF RED CROSS OF CONSTANTINE", "city": "VESTAL", "state": "NY", "zip": "13850-5417", "ntee": "Y40", "ruling": "196006", "deductibility": "1", "assets": 0, "income": 0, "revenue": 0}, {"ein": "223267849", "name": "GRAND BOULEVARD FIRE CO INC", "city": "NISKAYUNA", "state": "NY", "zip": "12309-5929", "ntee": "", "ruling": "199412", "deductibility": "1", "assets": 114261, "income": 56686, "revenue": 56686}, {"ein": "237062998", "name": "GRAND ISLAND JUNIOR FOOTBALL INC", "city": "GRAND ISLAND", "state": "NY", "zip": "14072-0145", "ntee": "", "ruling": "197004", "deductibility": "1", "assets": 70477, "income": 111113, "revenue": 96843}, {"ein": "237139301", "name": "FREE & ACCEPTED MASONS OF NEW YORK GRAND LODGE", "city": "SCHOHARIE", "state": "NY", "zip": "12157-0343", "ntee": "Y40", "ruling": "202103", "deductibility": "1", "assets": 0, "income": 0, "revenue": 0}, {"ein": "237184096", "name": "ROYAL ARCH MASONS OF NEW YORK GRAND CHAPTER", "city": "JAMESTOWN", "state": "NY", "zip": "14701-2714", "ntee": "Y42", "ruling": "194303", "deductibility": "1", "assets": 0, "income": 0, "revenue": 0}, {"ein": "237231509", "name": "NEIGHBORS FOUNDATION OF GRAND ISLAND", "city": "GRAND ISLAND", "state": "NY", "zip": "14072-0155", "ntee": "", "ruling": "197305", "deductibility": "1", "assets": 56440, "income": 115842, "revenue": 115842}, {"ein": "237325779", "name": "GRAND CENTRAL SYNAGOGUE INC", "city": "BRIARWOOD", "state": "NY", "zip": "11435-1124", "ntee": "", "ruling": "197212", "deductibility": "1", "assets": 0, "income": 0, "revenue": 0}, {"ein": "237579024", "name": "FREE & ACCEPTED MASONS OF NEW YORK GRAND LODGE", "city": "TRUMANSBURG", "state": "NY", "zip": "14886-0752", "ntee": "", "ruling": "201902", "deductibility": "1", "assets": 0, "income": 0, "revenue": 0}, {"ein": "237579116", "name": "FREE & ACCEPTED MASONS OF NEW YORK GRAND LODGE", "city": "NEW YORK", "state": "NY", "zip": "10010-4102", "ntee": "", "ruling": "197211", "deductibility": "1", "assets": 0, "income": 0, "revenue": 0}, {"ein": "237591356", "name": "ROYAL ARCH MASONS OF NEW YORK GRAND CHAPTER", "city": "CORTLAND", "state": "NY", "zip": "13045-9109", "ntee": "", "ruling": "197211", "deductibility": "1", "assets": 0, "income": 0, "revenue": 0}, {"ein": "237591359", "name": "ROYAL ARCH MASONS OF NEW YORK GRAND CHAPTER", "city": "ATTICA", "state": "NY", "zip": "14011-1038", "ntee": "", "ruling": "197211", "deductibility": "1", "assets": 0, "income": 0, "revenue": 0}, {"ein": "237591381", "name": "ROYAL ARCH MASONS OF NEW YORK GRAND CHAPTER", "city": "WINDSOR", "state": "NY", "zip": "13865-4117", "ntee": "", "ruling": "197211", "deductibility": "1", "assets": 0, "income": 0, "revenue": 0}, {"ein": "237591390", "name": "ROYAL ARCH MASONS OF NEW YORK GRAND CHAPTER", "city": "BATH", "state": "NY", "zip": "14810-9306", "ntee": "", "ruling": "197211", "deductibility": "1", "assets": 0, "income": 0, "revenue": 0}, {"ein": "237617479", "name": "UNITED GRAND IMPERIAL COUN KNIGHTS OF RED CROSS OF CONSTANTINE", "city": "RIDGEWOOD", "state": "NY", "zip": "11385-5153", "ntee": "", "ruling": "197212", "deductibility": "1", "assets": 0, "income": 0, "revenue": 0}, {"ein": "237617480", "name": "UNITED GRAND IMPERIAL COUN KNIGHTS OF RED CROSS OF CONSTANTINE", "city": "CHERRY VALLEY", "state": "NY", "zip": "13320-0146", "ntee": "", "ruling": "197212", "deductibility": "1", "assets": 0, "income": 0, "revenue": 0}, {"ein": "237617482", "name": "UNITED GRAND IMPERIAL COUN KNIGHTS OF RED CROSS OF CONSTANTINE", "city": "MINOA", "state": "NY", "zip": "13116-1023", "ntee": "", "ruling": "197212", "deductibility": "1", "assets": 0, "income": 0, "revenue": 0}, {"ein": "237617483", "name": "UNITED GRAND IMPERIAL COUN KNIGHTS OF RED CROSS OF CONSTANTINE", "city": "JAMESTOWN", "state": "NY", "zip": "14701-2714", "ntee": "", "ruling": "197212", "deductibility": "1", "assets": 0, "income": 0, "revenue": 0}, {"ein": "237617484", "name": "UNITED GRAND IMPERIAL COUN KNIGHTS OF RED CROSS OF CONSTANTINE", "city": "ONEONTA", "state": "NY", "zip": "13820-2511", "ntee": "", "ruling": "197212", "deductibility": "1", "assets": 0, "income": 0, "revenue": 0}, {"ein": "260595525", "name": "GRAND BOULE OF THE SIGMA PI PHI FRATERNITY", "city": "NEW YORK", "state": "NY", "zip": "10019-6733", "ntee": "", "ruling": "201005", "deductibility": "2", "assets": 0, "income": 0, "revenue": 0}, {"ein": "271822546", "name": "GRAND SLAM FOUNDATION INC", "city": "BRONX", "state": "NY", "zip": "10457-4437", "ntee": "N63", "ruling": "201105", "deductibility": "1", "assets": 24926, "income": 403772, "revenue": 403772}, {"ein": "273429710", "name": "MIRACLE LEAGUE OF GRAND ISLAND & WESTERN NEW YORK", "city": "GRAND ISLAND", "state": "NY", "zip": "14072-0833", "ntee": "N63", "ruling": "201106", "deductibility": "1", "assets": 840819, "income": 131372, "revenue": 125038}, {"ein": "300195212", "name": "GRAND STREET COMMUNITY ARTS INC", "city": "ALBANY", "state": "NY", "zip": "12201-0641", "ntee": "N31", "ruling": "200311", "deductibility": "1", "assets": 188810, "income": 24075, "revenue": 24075}, {"ein": "331619249", "name": "VICTORY GRAND CHAPTER INCORPORATED", "city": "BRONX", "state": "NY", "zip": "10451-1708", "ntee": "S20", "ruling": "202411", "deductibility": "1", "assets": 0, "income": 0, "revenue": 0}, {"ein": "335021188", "name": "GRAND GORGE FOOD PANTRY INC", "city": "GRAND GORGE", "state": "NY", "zip": "12434-0018", "ntee": "K31", "ruling": "202506", "deductibility": "1", "assets": 0, "income": 0, "revenue": 0}, {"ein": "352561848", "name": "LETCHWORTH MASONIC DISTRICT COLLEGE OF GRAND LODGE OFFICERS", "city": "HOLLEY", "state": "NY", "zip": "14470-9410", "ntee": "Y42", "ruling": "201807", "deductibility": "1", "assets": 0, "income": 0, "revenue": 0}, {"ein": "364775202", "name": "WIDOWS SONS GRAND CHAPTER THE KINGS GUARD INC", "city": "WEBSTER", "state": "NY", "zip": "14580-1013", "ntee": "N12", "ruling": "201507", "deductibility": "1", "assets": 0, "income": 0, "revenue": 0}, {"ein": "421607854", "name": "GRAND STREET SETTLEMENT SENIOR HDFC", "city": "NEW YORK", "state": "NY", "zip": "10019-3310", "ntee": "L20", "ruling": "200402", "deductibility": "1", "assets": 8822767, "income": 13229636, "revenue": 13229636}, {"ein": "421703017", "name": "GRAND COUNCIL OF CRYPTIC MASONS OF THE STATE OF NEW YORK", "city": "ROCHESTER", "state": "NY", "zip": "14616-2339", "ntee": "G198", "ruling": "200606", "deductibility": "1", "assets": 829097, "income": 48648, "revenue": 48648}, {"ein": "453841645", "name": "GRAND BOULE OF THE SIGMA PI PHI FRATERNITY", "city": "NEW YORK", "state": "NY", "zip": "10027-6192", "ntee": "Y42", "ruling": "201005", "deductibility": "2", "assets": 0, "income": 0, "revenue": 0}, {"ein": "460786691", "name": "GRAND BOULE OF THE SIGMA PI PHI FRATERNITY", "city": "BUFFALO", "state": "NY", "zip": "14221-8539", "ntee": "Y42", "ruling": "201005", "deductibility": "1", "assets": 0, "income": 0, "revenue": 0}, {"ein": "462024638", "name": "GRAND COUNCIL OF UNITED EMERALD SOCIETIES INC", "city": "ATLANTIC BCH", "state": "NY", "zip": "11509-0038", "ntee": "W12", "ruling": "202202", "deductibility": "1", "assets": 33635, "income": 93513, "revenue": 0}, {"ein": "463993047", "name": "GRAND CENTRAL ATELIER INC", "city": "RIDGEWOOD", "state": "NY", "zip": "11385-5739", "ntee": "A25", "ruling": "201403", "deductibility": "1", "assets": 2378396, "income": 1889172, "revenue": 1889172}, {"ein": "465672625", "name": "ENOCH GRAND LODGE TEMPLE AF & AM", "city": "BROOKLYN", "state": "NY", "zip": "11216-0000", "ntee": "Y40", "ruling": "201511", "deductibility": "1", "assets": 1, "income": 0, "revenue": 0}, {"ein": "465744581", "name": "GRAND ISLAND MUSIC BOOSTERS INC", "city": "WEST SENECA", "state": "NY", "zip": "14224-3014", "ntee": "A63", "ruling": "201502", "deductibility": "1", "assets": 0, "income": 0, "revenue": 0}, {"ein": "471976368", "name": "MOUNT NEBO GRAND LODGE COMMUNITY FOUNDATION LIMITED", "city": "BRONX", "state": "NY", "zip": "10459-2704", "ntee": "S12", "ruling": "201502", "deductibility": "1", "assets": 0, "income": 0, "revenue": 0}, {"ein": "475484832", "name": "GRAND STREET NORTHWEST INC", "city": "GARDEN CITY", "state": "NY", "zip": "11530-7602", "ntee": "L25", "ruling": "201602", "deductibility": "1", "assets": 126417633, "income": 44746956, "revenue": 9638708}, {"ein": "510203229", "name": "GRAND COUNCIL OF THE IND ORDER OF MECH FRIENDLY SOC N CEN & S AMER", "city": "BROOKLYN", "state": "NY", "zip": "11238-2515", "ntee": "", "ruling": "197708", "deductibility": "2", "assets": 516546, "income": 274538, "revenue": 262588}, {"ein": "562496928", "name": "EAST GRAND PACKARDS", "city": "WEBSTER", "state": "NY", "zip": "14580-9318", "ntee": "N50", "ruling": "200601", "deductibility": "2", "assets": 0, "income": 0, "revenue": 0}, {"ein": "582330948", "name": "GRAND FOUNDATION TRUST", "city": "CARMEL", "state": "NY", "zip": "10512-0000", "ntee": "T22", "ruling": "199901", "deductibility": "1", "assets": 62, "income": 20500, "revenue": 0}, {"ein": "800389979", "name": "BAHAIS OF GRAND ISLAND TOWN", "city": "GRAND ISLAND", "state": "NY", "zip": "14072-1968", "ntee": "", "ruling": "199505", "deductibility": "1", "assets": 0, "income": 0, "revenue": 0}, {"ein": "800600229", "name": "GREAT GRAND NACHAS AND MORE INC", "city": "STATEN ISLAND", "state": "NY", "zip": "10314-5026", "ntee": "E12", "ruling": "201010", "deductibility": "1", "assets": 481900, "income": 191837, "revenue": 191837}, {"ein": "810860764", "name": "NEW YORK GRAND LODGE OF ANCIENT FREE AND ACCEPTED MASONS", "city": "LAURELTON", "state": "NY", "zip": "11413-2108", "ntee": "P20", "ruling": "202311", "deductibility": "1", "assets": 0, "income": 0, "revenue": 0}, {"ein": "811133229", "name": "UPTOWN GRAND CENTRAL CORP", "city": "NEW YORK", "state": "NY", "zip": "10035-1537", "ntee": "P20", "ruling": "201605", "deductibility": "1", "assets": 413783, "income": 834422, "revenue": 834422}, {"ein": "813708823", "name": "DOCTOR WALTER GRAND NEUROSURGICAL FORUM INC", "city": "GRAND ISLAND", "state": "NY", "zip": "14072-2551", "ntee": "B02", "ruling": "201611", "deductibility": "1", "assets": 218537, "income": 190591, "revenue": 190591}, {"ein": "822134924", "name": "THE SOCIETY OF THE GRAND ARMY OF THE REPUBLIC RICHARD J CLARK POST", "city": "PATCHOGUE", "state": "NY", "zip": "11772-4015", "ntee": "A80", "ruling": "201809", "deductibility": "1", "assets": 0, "income": 0, "revenue": 0}, {"ein": "830396763", "name": "GRAND CONCOURSE ACADEMY CHARTER SCHOOL", "city": "BRONX", "state": "NY", "zip": "10473-2903", "ntee": "B29", "ruling": "200601", "deductibility": "1", "assets": 58668452, "income": 17588532, "revenue": 17588532}, {"ein": "831935295", "name": "GRAND STAGE INTERNATIONAL INC", "city": "NEW YORK", "state": "NY", "zip": "10023-6727", "ntee": "A6A", "ruling": "202309", "deductibility": "1", "assets": 1, "income": 1, "revenue": 0}, {"ein": "843212469", "name": "SUPREME GRAND LODGE THE INDEPENDENT ORDER OF MECHANICS PUF", "city": "CAMBRIA HEIGHTS", "state": "NY", "zip": "11411-0000", "ntee": "Y40", "ruling": "202303", "deductibility": "1", "assets": 0, "income": 0, "revenue": 0}, {"ein": "843529767", "name": "GRAND COUNCIL OF STEUBEN ASSOCIATION INCORPORATED", "city": "WANTAGH", "state": "NY", "zip": "11793-3901", "ntee": "N50", "ruling": "202008", "deductibility": "2", "assets": 0, "income": 0, "revenue": 0}, {"ein": "845022293", "name": "GRAND ISLAND SCHOOL AND BUSINESS ALLIANCE INC", "city": "GRAND ISLAND", "state": "NY", "zip": "14072-1804", "ntee": "B01", "ruling": "202004", "deductibility": "1", "assets": 0, "income": 0, "revenue": 0}, {"ein": "861096866", "name": "TEN GRAND AND A BURGER PRODUCTIONS INC", "city": "STATEN ISLAND", "state": "NY", "zip": "10301-0000", "ntee": "A65", "ruling": "200407", "deductibility": "1", "assets": 0, "income": 0, "revenue": 0}, {"ein": "873372148", "name": "GRAND PENN COMMUNITY ALLIANCE INC", "city": "NEW YORK", "state": "NY", "zip": "10036-7422", "ntee": "S30", "ruling": "202401", "deductibility": "1", "assets": 547243, "income": 1298097, "revenue": 1298097}, {"ein": "874276960", "name": "GRAND SYCAMORE CULTURE FOUNDATION INC", "city": "GLEN COVE", "state": "NY", "zip": "11542-2549", "ntee": "A20", "ruling": "202203", "deductibility": "1", "assets": 0, "income": 0, "revenue": 0}, {"ein": "882911047", "name": "MOST WORSHIPFUL TRI STATE GRAND LODGE A F & A M", "city": "NEW YORK", "state": "NY", "zip": "10017-5550", "ntee": "W99", "ruling": "202208", "deductibility": "1", "assets": 0, "income": 0, "revenue": 0}, {"ein": "884172952", "name": "FREE & ACCEPTED MASONS OF NEW YORK GRAND LODGE", "city": "CHEMUNG", "state": "NY", "zip": "14825-0254", "ntee": "", "ruling": "194012", "deductibility": "1", "assets": 0, "income": 0, "revenue": 0}, {"ein": "920394741", "name": "KNIGHTS TEMPLAR - GRAND PRIORY USA KTGPUSA INC", "city": "KINGSTON", "state": "NY", "zip": "12401-7411", "ntee": "X20", "ruling": "202304", "deductibility": "1", "assets": 21832, "income": 19654, "revenue": 0}, {"ein": "923131797", "name": "CATSKILL FOLKLIFE CENTER OF GRAND GORGE INC", "city": "GRAND GORGE", "state": "NY", "zip": "12434-1358", "ntee": "A20", "ruling": "202303", "deductibility": "1", "assets": 0, "income": 0, "revenue": 0}, {"ein": "923725118", "name": "GRAND FOUNDERS FOUNDATION INC", "city": "NEW YORK", "state": "NY", "zip": "10004-1501", "ntee": "P20", "ruling": "202312", "deductibility": "1", "assets": 653, "income": 71091, "revenue": 71091}, {"ein": "932211441", "name": "GRAND RIVER-EAST HARLEM TO LES", "city": "NEW YORK", "state": "NY", "zip": "10035-3119", "ntee": "B02", "ruling": "202311", "deductibility": "1", "assets": 0, "income": 0, "revenue": 0}, {"ein": "932419719", "name": "TRINITY CHURCH GRAND ISLAND", "city": "GRAND ISLAND", "state": "NY", "zip": "14072-2089", "ntee": "X20", "ruling": "202401", "deductibility": "1", "assets": 0, "income": 0, "revenue": 0}, {"ein": "933102808", "name": "GRAND COUNCIL OF EAGLE AND THE CONDOR INC", "city": "NEW YORK", "state": "NY", "zip": "10017-0000", "ntee": "X05", "ruling": "202309", "deductibility": "1", "assets": 149453, "income": 281145, "revenue": 281145}, {"ein": "933599392", "name": "GRAND PISTACHIO ARTS CORP", "city": "BROOKLYN", "state": "NY", "zip": "11218-1810", "ntee": "A60", "ruling": "202408", "deductibility": "1", "assets": 54111, "income": 82853, "revenue": 82853}, {"ein": "992998809", "name": "GRAND POINT FOUNDATION INC", "city": "NEW YORK", "state": "NY", "zip": "10019-5364", "ntee": "A20", "ruling": "202406", "deductibility": "1", "assets": 0, "income": 0, "revenue": 0}], "REGINA": [{"ein": "020735133", "name": "FONDATION DES ANCIENS DE REGINA ASSUMPTA NORD-EST", "city": "WESTBURY", "state": "NY", "zip": "11590-2811", "ntee": "B11", "ruling": "201411", "deductibility": "1", "assets": 0, "income": 0, "revenue": 0}, {"ein": "111847126", "name": "MARIA REGINA ROMAN CATHOLIC CHURCH", "city": "SEAFORD", "state": "NY", "zip": "11783-1631", "ntee": "", "ruling": "196501", "deductibility": "1", "assets": 0, "income": 0, "revenue": 0}, {"ein": "112734261", "name": "THE REGINA OPERA COMPANY INC", "city": "BROOKLYN", "state": "NY", "zip": "11218-0000", "ntee": "A6A0", "ruling": "198509", "deductibility": "1", "assets": 193549, "income": 271030, "revenue": 271030}, {"ein": "113637961", "name": "MARIA REGINA RESIDENCE INC", "city": "BRENTWOOD", "state": "NY", "zip": "11717-5543", "ntee": "", "ruling": "194603", "deductibility": "1", "assets": 10347113, "income": 24334781, "revenue": 24334781}, {"ein": "133986715", "name": "THOMAS & REGINA BRADLEY FOUNDATION INC", "city": "NEW YORK", "state": "NY", "zip": "10006-2744", "ntee": "T20", "ruling": "199903", "deductibility": "1", "assets": 563608, "income": 118690, "revenue": 0}, {"ein": "136161406", "name": "SAMUEL I AND REGINA GROSS FOUNDATION INC", "city": "STATEN ISLAND", "state": "NY", "zip": "10301-2512", "ntee": "", "ruling": "195305", "deductibility": "1", "assets": 223116, "income": 36850, "revenue": 0}, {"ein": "166552691", "name": "REGINA HESS CHARITABLE TRUST", "city": "BUFFALO", "state": "NY", "zip": "14240-1504", "ntee": "T22", "ruling": "200608", "deductibility": "1", "assets": 476813, "income": 155865, "revenue": 0}, {"ein": "223841953", "name": "STEPHEN AND REGINA SAVITSKY FOUNDATION INC", "city": "WOODMERE", "state": "NY", "zip": "11598-2417", "ntee": "T22", "ruling": "200203", "deductibility": "1", "assets": 918274, "income": 319230, "revenue": 0}, {"ein": "452731819", "name": "SALVE REGINA CATHOLIC ACADEMY", "city": "BROOKLYN", "state": "NY", "zip": "11207-3209", "ntee": "", "ruling": "194603", "deductibility": "1", "assets": 0, "income": 0, "revenue": 0}, {"ein": "465593964", "name": "RICHARD AND REGINA MEILMAN OPEN ARMS FOUNDATION INC", "city": "MOUNT KISCO", "state": "NY", "zip": "10549-3809", "ntee": "T20", "ruling": "201506", "deductibility": "1", "assets": 399773, "income": 33096, "revenue": 0}, {"ein": "510228905", "name": "REGINA MATERNITY SERVICES CORPORATION", "city": "HICKSVILLE", "state": "NY", "zip": "11801-6299", "ntee": "P72Z", "ruling": "194603", "deductibility": "1", "assets": 1371338, "income": 251959, "revenue": 251959}, {"ein": "823747020", "name": "REGINA SKYER FAMILY FOUNDATION INC", "city": "BROOKLYN", "state": "NY", "zip": "11201-4709", "ntee": "T30", "ruling": "201905", "deductibility": "1", "assets": 4068089, "income": 992880, "revenue": 0}, {"ein": "992269185", "name": "REGINA S HOPE FOR HUMANITY INC", "city": "WAPPINGERS FL", "state": "NY", "zip": "12590-3727", "ntee": "B99", "ruling": "202406", "deductibility": "1", "assets": 0, "income": 0, "revenue": 0}], "POOR": [{"ein": "042260018", "name": "LITTLE SISTERS OF THE POOR OF GREATER BOSTON INC", "city": "QUEENS VLG", "state": "NY", "zip": "11429-2531", "ntee": "", "ruling": "194603", "deductibility": "1", "assets": 7207202, "income": 502505, "revenue": 502505}, {"ein": "042731208", "name": "LITTLE SISTERS OF THE POOR HOUSING FOR THE ELDERLY INC", "city": "QUEENS VLG", "state": "NY", "zip": "11429-2531", "ntee": "L22Z", "ruling": "194603", "deductibility": "1", "assets": 1, "income": 0, "revenue": 0}, {"ein": "112204939", "name": "HOME FOR THE AGED OF THE LITTLE SISTERS OF THE POOR", "city": "QUEENS VLG", "state": "NY", "zip": "11429-2531", "ntee": "E910", "ruling": "194603", "deductibility": "1", "assets": 8024723, "income": 7073224, "revenue": 6509779}, {"ein": "112251527", "name": "FRANCISCAN SISTERS OF THE POOR", "city": "NEW YORK", "state": "NY", "zip": "10018-4546", "ntee": "", "ruling": "194603", "deductibility": "1", "assets": 0, "income": 0, "revenue": 0}, {"ein": "112859284", "name": "FRANCISCAN SISTERS OF THE POOR FOUNDATION INC", "city": "NEW YORK", "state": "NY", "zip": "10018-6505", "ntee": "", "ruling": "194603", "deductibility": "1", "assets": 15507443, "income": 4003867, "revenue": 1206210}, {"ein": "113455272", "name": "FUND FOR THE POOR INC", "city": "MELVILLE", "state": "NY", "zip": "11747-2399", "ntee": "P120", "ruling": "199902", "deductibility": "1", "assets": 51659, "income": 68, "revenue": 68}, {"ein": "113495934", "name": "FRANCISCAN SISTERS OF THE POOR CHARITABLE TRUST", "city": "NEW YORK", "state": "NY", "zip": "10018-4546", "ntee": "", "ruling": "194603", "deductibility": "0", "assets": 0, "income": 0, "revenue": 0}, {"ein": "131884785", "name": "HOME FOR THE AGED OF THE LITTLE SIS TERS OF THE POOR OF THE CITY OF NY", "city": "BRONX", "state": "NY", "zip": "10465-3826", "ntee": "E910", "ruling": "194603", "deductibility": "1", "assets": 33685532, "income": 2137063, "revenue": 2047436}, {"ein": "133036954", "name": "ST FRANCIS FRIENDS OF THE POOR INC ST FRANCIS RESIDENCE II", "city": "NEW YORK", "state": "NY", "zip": "10011-2401", "ntee": "F320", "ruling": "198106", "deductibility": "1", "assets": 39920270, "income": 8736433, "revenue": 8652908}, {"ein": "133117681", "name": "LITTLE SISTERS POOR OF L A TTEES UW", "city": "NEW YORK", "state": "NY", "zip": "10013-2362", "ntee": "", "ruling": "000000", "deductibility": "0", "assets": 179641, "income": 53552, "revenue": 0}, {"ein": "133505521", "name": "SERVANTS OF THE POOR OF THE THIRD WORLD INC", "city": "W BABYLON", "state": "NY", "zip": "11704-4558", "ntee": "Q330", "ruling": "199410", "deductibility": "1", "assets": 38692, "income": 27753, "revenue": 27753}, {"ein": "134177540", "name": "POOR ANIMALS OF SAINT FRANCES INC", "city": "BRONX", "state": "NY", "zip": "10465-3321", "ntee": "D20", "ruling": "200208", "deductibility": "1", "assets": 0, "income": 0, "revenue": 0}, {"ein": "136120236", "name": "MONASTERY OF ST CLARE-FRANCISCAN POOR CLARE NUNS", "city": "WAPPINGERS FL", "state": "NY", "zip": "12590-1121", "ntee": "", "ruling": "194603", "deductibility": "0", "assets": 0, "income": 0, "revenue": 0}, {"ein": "136821317", "name": "CHARLES RUHL TRUST UW 112698 FBO LITTLE SISTER POOR DETROIT", "city": "NEW YORK", "state": "NY", "zip": "10013-2362", "ntee": "", "ruling": "000000", "deductibility": "0", "assets": 179789, "income": 54761, "revenue": 0}, {"ein": "146005279", "name": "WHIP-POOR-WILL CAMP INC", "city": "PINE ISLAND", "state": "NY", "zip": "10969-0500", "ntee": "N50", "ruling": "201509", "deductibility": "2", "assets": 0, "income": 0, "revenue": 0}, {"ein": "161098262", "name": "POOR FOLKS SNOWMOBILE CLUB INC", "city": "STERLING", "state": "NY", "zip": "13156-4157", "ntee": "N50", "ruling": "201002", "deductibility": "2", "assets": 0, "income": 0, "revenue": 0}, {"ein": "237258396", "name": "THE ORDER OF POOR CLARES OF REPARATION INC", "city": "MOUNT SINAI", "state": "NY", "zip": "11766-0342", "ntee": "", "ruling": "198808", "deductibility": "1", "assets": 0, "income": 0, "revenue": 0}, {"ein": "240832764", "name": "HOME FOR THE AGED OF THE LITTLE SISTERS OF THE POOR", "city": "QUEENS VLG", "state": "NY", "zip": "11429-2531", "ntee": "P750", "ruling": "194603", "deductibility": "1", "assets": 2718864, "income": 98382, "revenue": 98382}, {"ein": "272376502", "name": "POOR IN SPIRIT PRESBYTERIAN CHURCH OF NEW YORK", "city": "FLUSHING", "state": "NY", "zip": "11354-0000", "ntee": "X21", "ruling": "201009", "deductibility": "1", "assets": 0, "income": 0, "revenue": 0}, {"ein": "334741405", "name": "MISSIONARY BENEDICTINES OF THE POOR INCORPORATED", "city": "RIDGEWOOD", "state": "NY", "zip": "11385-5149", "ntee": "X20", "ruling": "202506", "deductibility": "1", "assets": 0, "income": 0, "revenue": 0}, {"ein": "481289649", "name": "HANNAH KOSHER FOOD SHABBAT FNDT FOR POOR & NEEDY WOMEN CORP", "city": "BROOKLYN", "state": "NY", "zip": "11230-7104", "ntee": "P60", "ruling": "200302", "deductibility": "1", "assets": 0, "income": 0, "revenue": 0}, {"ein": "833061327", "name": "DOVE MINISTRIES GOOD NEWS TO THE POOR & NEEDY INC", "city": "SAINT ALBANS", "state": "NY", "zip": "11412-2027", "ntee": "P20", "ruling": "201904", "deductibility": "1", "assets": 0, "income": 0, "revenue": 0}, {"ein": "844283661", "name": "K-PAC KHAN-POOR AMERICAN CHARITY CORP", "city": "BROOKLYN", "state": "NY", "zip": "11201-3856", "ntee": "K6D", "ruling": "202405", "deductibility": "1", "assets": 0, "income": 0, "revenue": 0}, {"ein": "872424840", "name": "HENRY VARNUM POOR FOUNDATION", "city": "TAPPAN", "state": "NY", "zip": "10983-2004", "ntee": "A70", "ruling": "202308", "deductibility": "1", "assets": 0, "income": 0, "revenue": 0}, {"ein": "933970994", "name": "FRIENDS FOR THE POOR FOUNDATION INC", "city": "W HEMPSTEAD", "state": "NY", "zip": "11552-4303", "ntee": "K31", "ruling": "202404", "deductibility": "1", "assets": 0, "income": 0, "revenue": 0}], "ASHRAM": [{"ein": "050619253", "name": "SHREE RAMSHARNAM ASHRAM INC", "city": "NEW HYDE PARK", "state": "NY", "zip": "11040-3406", "ntee": "X70", "ruling": "200608", "deductibility": "1", "assets": 0, "income": 0, "revenue": 0}, {"ein": "112510099", "name": "VISHVA SEVA ASHRAM OF NEW YORK INC", "city": "CORONA", "state": "NY", "zip": "11368-2924", "ntee": "", "ruling": "198008", "deductibility": "1", "assets": 0, "income": 0, "revenue": 0}, {"ein": "112577858", "name": "GEETA ASHRAM OF NEW YORK INC", "city": "QUEENS VLG", "state": "NY", "zip": "11427-1723", "ntee": "", "ruling": "198205", "deductibility": "1", "assets": 0, "income": 0, "revenue": 0}, {"ein": "112974176", "name": "SWAMI SHIVOM TIRTH ASHRAM INC", "city": "POND EDDY", "state": "NY", "zip": "12770-0000", "ntee": "", "ruling": "199005", "deductibility": "1", "assets": 0, "income": 0, "revenue": 0}, {"ein": "202049961", "name": "PANCHVATI ASHRAM N A INC", "city": "CALLICOON CTR", "state": "NY", "zip": "12724-0222", "ntee": "X70", "ruling": "200508", "deductibility": "1", "assets": 0, "income": 0, "revenue": 0}, {"ein": "237032371", "name": "YOGI GUPTA ASHRAM INC", "city": "ELMHURST", "state": "NY", "zip": "11373-4012", "ntee": "", "ruling": "196909", "deductibility": "1", "assets": 0, "income": 0, "revenue": 0}, {"ein": "237271841", "name": "YOGA ANAND ASHRAM INC", "city": "AMITYVILLE", "state": "NY", "zip": "11701-3439", "ntee": "P54Z", "ruling": "197407", "deductibility": "1", "assets": 65239, "income": 32207, "revenue": 32207}, {"ein": "237279396", "name": "GEETA TEMPLE ASHRAM-INC", "city": "ELMHURST", "state": "NY", "zip": "11373-4038", "ntee": "", "ruling": "197410", "deductibility": "1", "assets": 0, "income": 0, "revenue": 0}, {"ein": "274374454", "name": "DROPADI JIGYASU ASHRAM INC", "city": "FLUSHING", "state": "NY", "zip": "11355-2152", "ntee": "X70", "ruling": "201311", "deductibility": "1", "assets": 0, "income": 0, "revenue": 0}, {"ein": "451138899", "name": "MAHA ADISHAKTI ASHRAM INC", "city": "BROOKLYN", "state": "NY", "zip": "11208-1424", "ntee": "X70", "ruling": "201105", "deductibility": "1", "assets": 0, "income": 0, "revenue": 0}, {"ein": "462348582", "name": "ANIMAL ASHRAM CORP", "city": "NEW YORK", "state": "NY", "zip": "10036-4241", "ntee": "D20", "ruling": "201408", "deductibility": "1", "assets": 0, "income": 0, "revenue": 0}, {"ein": "475343121", "name": "PANCHVATI ASHRAM DHAM INC", "city": "HOLLIS", "state": "NY", "zip": "11423-2717", "ntee": "X70", "ruling": "201511", "deductibility": "1", "assets": 0, "income": 0, "revenue": 0}, {"ein": "510187959", "name": "CHILDRENS ASHRAM FUND", "city": "NEW LEBANON", "state": "NY", "zip": "12125-0657", "ntee": "", "ruling": "197604", "deductibility": "1", "assets": 774472, "income": 749014, "revenue": 107468}, {"ein": "813904899", "name": "YUGA DHARMA ASHRAM", "city": "BROOKLYN", "state": "NY", "zip": "11217-1024", "ntee": "X50", "ruling": "201805", "deductibility": "1", "assets": 0, "income": 0, "revenue": 0}, {"ein": "821258608", "name": "MANTRA ASHRAM INC", "city": "ORANGEBURG", "state": "NY", "zip": "10962-2611", "ntee": "A99", "ruling": "201801", "deductibility": "1", "assets": 0, "income": 0, "revenue": 0}], "TRANSCRIBERS": [{"ein": "061363073", "name": "MOHAWK VALLEY BRAILLE TRANSCRIBERS INC", "city": "UTICA", "state": "NY", "zip": "13501-2317", "ntee": "P86", "ruling": "200608", "deductibility": "1", "assets": 92394, "income": 14316, "revenue": 14316}], "SILBERSTEIN": [{"ein": "061498058", "name": "SILBERSTEIN-BOESKY FAMILY FOUNDATION INC", "city": "MOUNT KISCO", "state": "NY", "zip": "10549-4739", "ntee": "T22Z", "ruling": "199712", "deductibility": "1", "assets": 14916, "income": 67, "revenue": 0}, {"ein": "136101149", "name": "SILBERSTEIN FOUNDATION INC", "city": "NEW YORK", "state": "NY", "zip": "10128-1005", "ntee": "", "ruling": "195401", "deductibility": "1", "assets": 367350, "income": 34562, "revenue": 0}, {"ein": "205046843", "name": "SILBERSTEIN CHARITY FOUNDATION INC", "city": "BROOKLYN", "state": "NY", "zip": "11249-6087", "ntee": "T22", "ruling": "201402", "deductibility": "1", "assets": 10500, "income": 32, "revenue": 0}, {"ein": "237108375", "name": "WILLIAM & SYLVIA SILBERSTEIN FOUNDATION INC", "city": "RYE", "state": "NY", "zip": "10580-1130", "ntee": "B82", "ruling": "197105", "deductibility": "1", "assets": 11285608, "income": 1436434, "revenue": 0}, {"ein": "273368389", "name": "B&G SILBERSTEIN FOUNDATION", "city": "BROOKLYN", "state": "NY", "zip": "11249-7685", "ntee": "X20", "ruling": "201409", "deductibility": "1", "assets": 818181, "income": 5, "revenue": 0}], "INNERACTION": [{"ein": "061660224", "name": "INNERACTION PLUS INC", "city": "NEW YORK", "state": "NY", "zip": "10280-1011", "ntee": "B99", "ruling": "200308", "deductibility": "1", "assets": 0, "income": 0, "revenue": 0}], "DELHI": [{"ein": "061699844", "name": "DELHI BEAUTIFICATION CORPORATION", "city": "DELHI", "state": "NY", "zip": "13753-1017", "ntee": "S20", "ruling": "200403", "deductibility": "1", "assets": 0, "income": 0, "revenue": 0}, {"ein": "141543132", "name": "UNITED MINISTRY OF DELHI", "city": "DELHI", "state": "NY", "zip": "13753-1603", "ntee": "", "ruling": "197203", "deductibility": "1", "assets": 0, "income": 0, "revenue": 0}, {"ein": "150591271", "name": "COLLEGE ASSOCIATION AT DELHI INC", "city": "DELHI", "state": "NY", "zip": "13753-0000", "ntee": "", "ruling": "195901", "deductibility": "1", "assets": 8839284, "income": 10535887, "revenue": 10214400}, {"ein": "161255124", "name": "DELHI CAMPUS CHILD CARE CENTER INC", "city": "DELHI", "state": "NY", "zip": "13753-2208", "ntee": "", "ruling": "198702", "deductibility": "1", "assets": 839525, "income": 714123, "revenue": 714123}, {"ein": "161510020", "name": "DELHI SENIOR HOUSING DEVELOPMENT FUND CO INC", "city": "ALBANY", "state": "NY", "zip": "12203-1414", "ntee": "L210", "ruling": "199705", "deductibility": "1", "assets": 825158, "income": 198520, "revenue": 198520}, {"ein": "161601104", "name": "DELHI SENIOR HOUSING DEVELOPMENT FUND COMPANY II INC", "city": "ALBANY", "state": "NY", "zip": "12203-1414", "ntee": "L22", "ruling": "200104", "deductibility": "1", "assets": 875619, "income": 197445, "revenue": 197445}, {"ein": "166064771", "name": "COLLEGE FOUNDATION AT DELHI INC", "city": "DELHI", "state": "NY", "zip": "13753-4454", "ntee": "B42I", "ruling": "196506", "deductibility": "1", "assets": 19070069, "income": 2788051, "revenue": 2205958}, {"ein": "166071460", "name": "DELHI CAMPUS MINISTRY INC", "city": "DELHI", "state": "NY", "zip": "13753-2278", "ntee": "", "ruling": "000000", "deductibility": "1", "assets": 0, "income": 0, "revenue": 0}, {"ein": "166092636", "name": "JESSIE S BURKETT TR UW NO 117 C/O DELAWARE NATL BK OF DELHI", "city": "DELHI", "state": "NY", "zip": "13753-1213", "ntee": "", "ruling": "196807", "deductibility": "1", "assets": 181269, "income": 26712, "revenue": 0}, {"ein": "166447080", "name": "DELAWARE NATIONAL BANK OF DELHI CORPORATE CHARITABLE TR", "city": "DELHI", "state": "NY", "zip": "13753-1213", "ntee": "Z99Z", "ruling": "199806", "deductibility": "1", "assets": 489497, "income": 104043, "revenue": 0}, {"ein": "166492112", "name": "THE GREATER DELHI AREA FOUNDATION", "city": "DELHI", "state": "NY", "zip": "13753-1213", "ntee": "S30", "ruling": "199908", "deductibility": "1", "assets": 138101, "income": 8609, "revenue": 8609}, {"ein": "201420031", "name": "DELHI FIREFIGHTERS FOUNDATION INC", "city": "DELHI", "state": "NY", "zip": "13753-0000", "ntee": "M112", "ruling": "200903", "deductibility": "1", "assets": 542412, "income": 102776, "revenue": 102776}, {"ein": "237386754", "name": "DELHI COMMUNITY FUND INC", "city": "DELHI", "state": "NY", "zip": "13753-0000", "ntee": "", "ruling": "197606", "deductibility": "1", "assets": 164252, "income": 22882, "revenue": 22882}, {"ein": "263129170", "name": "RIVERVIEW AT DELHI INC", "city": "DELHI", "state": "NY", "zip": "13753-4454", "ntee": "S47", "ruling": "200903", "deductibility": "2", "assets": 5210180, "income": 1299520, "revenue": 1119366}, {"ein": "452940053", "name": "STUDENT SENATE OF THE STATE UNIVERSITY OF NEW YORK AT DELHI", "city": "DELHI", "state": "NY", "zip": "13753-0000", "ntee": "B80", "ruling": "201306", "deductibility": "1", "assets": 541181, "income": 632406, "revenue": 632406}, {"ein": "770693151", "name": "DELHI HISTORICAL SOCIETY", "city": "DELHI", "state": "NY", "zip": "13753-1226", "ntee": "A80", "ruling": "200904", "deductibility": "1", "assets": 0, "income": 0, "revenue": 0}, {"ein": "812354082", "name": "KSE AA AT SUNY DELHI INC", "city": "SCOTTSVILLE", "state": "NY", "zip": "14546-9730", "ntee": "B82", "ruling": "201712", "deductibility": "1", "assets": 223480, "income": 80361, "revenue": 80361}, {"ein": "874043477", "name": "CLARK FAMILY FOUNDATION OF DELHI", "city": "DELHI", "state": "NY", "zip": "13753-3214", "ntee": "T22", "ruling": "202204", "deductibility": "1", "assets": 714747, "income": 150214, "revenue": 0}], "CRUSADES": [{"ein": "110685358", "name": "WORLD HARVESTERS OUTREACH MINISTRIES CONFERENCES & CRUSADES", "city": "BROOKLYN", "state": "NY", "zip": "11226-1501", "ntee": "X20", "ruling": "200208", "deductibility": "1", "assets": 0, "income": 0, "revenue": 0}, {"ein": "133156738", "name": "CHINESE CHRISTIAN HERALD CRUSADES INC", "city": "FLUSHING", "state": "NY", "zip": "11367-1250", "ntee": "P84Z", "ruling": "198311", "deductibility": "1", "assets": 38328124, "income": 11871190, "revenue": 10357697}, {"ein": "260007889", "name": "INTERNATIONAL EVANGELISM CRUSADES INC", "city": "CAMBRIA HTS", "state": "NY", "zip": "11411-1118", "ntee": "", "ruling": "197412", "deductibility": "1", "assets": 0, "income": 0, "revenue": 0}, {"ein": "460482514", "name": "INTERNATIONAL EVANGELISM CRUSADES INC", "city": "BROOKLYN", "state": "NY", "zip": "11226-6404", "ntee": "", "ruling": "197412", "deductibility": "1", "assets": 0, "income": 0, "revenue": 0}, {"ein": "800552419", "name": "TENDER HEARTS CRUSADES INC", "city": "RIDGEWOOD", "state": "NY", "zip": "11386-3171", "ntee": "O50", "ruling": "201008", "deductibility": "1", "assets": 0, "income": 67235, "revenue": 0}], "EMMA": [{"ein": "111630789", "name": "EMMA S CLARK MEMORIAL LIBRARY ASSOCIATION", "city": "SETAUKET", "state": "NY", "zip": "11733-2818", "ntee": "B700", "ruling": "194907", "deductibility": "1", "assets": 11232486, "income": 6516148, "revenue": 6099427}, {"ein": "113081560", "name": "EMMA C BRISBANE FOUNDATION", "city": "BRONX", "state": "NY", "zip": "10466-4522", "ntee": "B90", "ruling": "202311", "deductibility": "1", "assets": 124718, "income": 30826, "revenue": 0}, {"ein": "136116503", "name": "EMMA J ADAMS MEMORIAL FUND INC", "city": "BROOKLYN", "state": "NY", "zip": "11208-3002", "ntee": "", "ruling": "194208", "deductibility": "1", "assets": 2054826, "income": 632968, "revenue": 0}, {"ein": "136123540", "name": "JAMES HILTON MANNING & EMMA AUSTIN MANNING FOUNDATION INC", "city": "NEW YORK", "state": "NY", "zip": "10036-0000", "ntee": "", "ruling": "195903", "deductibility": "1", "assets": 4229820, "income": 1285610, "revenue": 0}, {"ein": "137151342", "name": "THE EMMA AND GEORGINA BLOOMBERG FOUNDATION", "city": "NEW YORK", "state": "NY", "zip": "10150-1510", "ntee": "T20", "ruling": "199902", "deductibility": "1", "assets": 26262240, "income": 2815046, "revenue": 0}, {"ein": "141338390", "name": "EMMA WILLARD SCHOOL", "city": "TROY", "state": "NY", "zip": "12180-5238", "ntee": "B250", "ruling": "193501", "deductibility": "1", "assets": 300687330, "income": 121368706, "revenue": 41462581}, {"ein": "141700275", "name": "EMMA CHASE PARENT TEACHER ORGANIZATION", "city": "WURTSBORO", "state": "NY", "zip": "12790-0489", "ntee": "B11", "ruling": "202107", "deductibility": "1", "assets": 0, "income": 0, "revenue": 0}, {"ein": "161609953", "name": "EMMA FOUNDATION", "city": "SCHAGHTICOKE", "state": "NY", "zip": "12154-3308", "ntee": "T20", "ruling": "200203", "deductibility": "1", "assets": 0, "income": 0, "revenue": 0}, {"ein": "166022906", "name": "LAING EMMA L STEVENS HOSP TRUST 20392", "city": "ROCHESTER", "state": "NY", "zip": "14604-2220", "ntee": "", "ruling": "197012", "deductibility": "0", "assets": 0, "income": 0, "revenue": 0}, {"ein": "166031485", "name": "EMMA REED WEBSTER AID ASSOCIATION INC", "city": "HOLLEY", "state": "NY", "zip": "14470-1115", "ntee": "", "ruling": "194606", "deductibility": "1", "assets": 887694, "income": 863519, "revenue": 0}, {"ein": "206795348", "name": "BERT AND EMMA LAMONTE@WOOD TRUST", "city": "BUFFALO", "state": "NY", "zip": "14240-1504", "ntee": "T90", "ruling": "200609", "deductibility": "1", "assets": 351087, "income": 96681, "revenue": 0}, {"ein": "256164395", "name": "EMMA NICODEMUS-RENFREW TR 002090 FBO RENFREW MUSEUM & PARK", "city": "BUFFALO", "state": "NY", "zip": "14240-1504", "ntee": "A115", "ruling": "199908", "deductibility": "1", "assets": 1842689, "income": 849296, "revenue": 0}, {"ein": "270752188", "name": "THE EMMA ALYSON & KATE HANCE FAMILY FOUNDATION INC", "city": "FLORAL PARK", "state": "NY", "zip": "11001-2738", "ntee": "T30", "ruling": "201007", "deductibility": "1", "assets": 1007016, "income": 640475, "revenue": 484071}, {"ein": "274654091", "name": "EMMA L CUNNINGHAM MEMORIAL SCHOLARSHIP FUND", "city": "BROOKLYN", "state": "NY", "zip": "11203-5514", "ntee": "B82", "ruling": "201210", "deductibility": "1", "assets": 20862, "income": 8239, "revenue": 8239}, {"ein": "366023963", "name": "EMMA L STALEY FOUNDATION 02-52740", "city": "NEW YORK", "state": "NY", "zip": "10039-0000", "ntee": "T20", "ruling": "201805", "deductibility": "1", "assets": 675406, "income": 200644, "revenue": 0}, {"ein": "861279238", "name": "EMMA JULYMAR FOUNDATION CORP", "city": "NEW YORK", "state": "NY", "zip": "10040-1760", "ntee": "E50", "ruling": "202106", "deductibility": "1", "assets": 0, "income": 0, "revenue": 0}], "KEDISHAS": [{"ein": "112470134", "name": "KEDISHAS AHARON D HADAS C O BENJAMIN ISAACS", "city": "BROOKLYN", "state": "NY", "zip": "11211-8019", "ntee": "", "ruling": "197810", "deductibility": "1", "assets": 0, "income": 0, "revenue": 0}, {"ein": "134099530", "name": "CONGREGATION KHAL KEDISHAS YOM TOV", "city": "MONROE", "state": "NY", "zip": "10950-6384", "ntee": "X30", "ruling": "200005", "deductibility": "1", "assets": 0, "income": 0, "revenue": 0}, {"ein": "421743934", "name": "CONGREGATION KEDISHAS AHARON INC", "city": "BROOKLYN", "state": "NY", "zip": "11218-4506", "ntee": "X30", "ruling": "201001", "deductibility": "1", "assets": 0, "income": 0, "revenue": 0}, {"ein": "473884747", "name": "KEDISHAS TZVI INC", "city": "BROOKLYN", "state": "NY", "zip": "11205-4552", "ntee": "X30", "ruling": "201509", "deductibility": "1", "assets": 0, "income": 0, "revenue": 0}, {"ein": "853922067", "name": "CONGREGATION KEDISHAS HAMUKEM INC", "city": "BROOKLYN", "state": "NY", "zip": "11219-1692", "ntee": "X30", "ruling": "202104", "deductibility": "1", "assets": 0, "income": 0, "revenue": 0}, {"ein": "883764275", "name": "CONG KEDISHAS LEVY BARDITCHIEV", "city": "STATEN ISLAND", "state": "NY", "zip": "10314-2689", "ntee": "X30", "ruling": "202406", "deductibility": "1", "assets": 0, "income": 0, "revenue": 0}], "BUSHWICK": [{"ein": "112478788", "name": "BUSHWICK IMPROVEMENT SOCIETY INC STAGG STREET CENTER FOR CHILDREN", "city": "BROOKLYN", "state": "NY", "zip": "11206-1033", "ntee": "P330", "ruling": "198003", "deductibility": "1", "assets": 478754, "income": 983823, "revenue": 983823}, {"ein": "112504368", "name": "BUSHWICK UNITED HOUSING DEVELOPMENT FUND CORPORATION", "city": "BROOKLYN", "state": "NY", "zip": "11221-3407", "ntee": "", "ruling": "198205", "deductibility": "1", "assets": 1900416, "income": 8560571, "revenue": 0}, {"ein": "112588802", "name": "BUSHWICK STUYVESANT HEIGHTS HOME ATTENDENT PROGRAM INC", "city": "BROOKLYN", "state": "NY", "zip": "11221-3602", "ntee": "P440", "ruling": "198309", "deductibility": "1", "assets": 7309679, "income": 10623332, "revenue": 10623332}, {"ein": "112735728", "name": "BUSHWICK CLUB INC", "city": "FLORAL PARK", "state": "NY", "zip": "11001-3020", "ntee": "", "ruling": "198607", "deductibility": "2", "assets": 0, "income": 0, "revenue": 0}, {"ein": "113492622", "name": "BUSHWICK SPORTS AND RECREATION INC", "city": "BROOKLYN", "state": "NY", "zip": "11237-5821", "ntee": "N99", "ruling": "202505", "deductibility": "1", "assets": 0, "income": 0, "revenue": 0}, {"ein": "116016212", "name": "THE REFORMED PROTESTANT DUTCH CHURCH OF SOUTH BUSHWICK", "city": "BROOKLYN", "state": "NY", "zip": "11221-3116", "ntee": "", "ruling": "198601", "deductibility": "1", "assets": 0, "income": 0, "revenue": 0}, {"ein": "116083637", "name": "BUSHWICK COMMUNITY ACTION ASSOCIATION INC", "city": "BROOKLYN", "state": "NY", "zip": "11207-1407", "ntee": "", "ruling": "197701", "deductibility": "1", "assets": 131079, "income": 324313, "revenue": 324313}, {"ein": "201518304", "name": "BUSHWICK HOUSING INDEPENDENCE PROJECT", "city": "BROOKLYN", "state": "NY", "zip": "11221-2725", "ntee": "S20", "ruling": "200804", "deductibility": "1", "assets": 157560, "income": 155981, "revenue": 155981}, {"ein": "202985867", "name": "WEST BUSHWICK 203K HOUSING DEVELOPMENT FUND COMPANY INC", "city": "BROOKLYN", "state": "NY", "zip": "11206-4628", "ntee": "L20", "ruling": "201408", "deductibility": "2", "assets": 20144721, "income": 1725039, "revenue": 1635870}, {"ein": "204093236", "name": "RIDGEWOOD BUSHWICK HOMESTEADING ASSISTANCE HOUSING DEVELOPMENT FUN", "city": "NEW YORK", "state": "NY", "zip": "10005-3904", "ntee": "L21", "ruling": "200706", "deductibility": "1", "assets": 18292259, "income": 677067, "revenue": 677067}, {"ein": "264546315", "name": "BUSHWICK STARR", "city": "BROOKLYN", "state": "NY", "zip": "11237-6101", "ntee": "A61", "ruling": "201008", "deductibility": "1", "assets": 10002138, "income": 3093874, "revenue": 3093874}, {"ein": "273129163", "name": "CHABAD OF BUSHWICK INC", "city": "BROOKLYN", "state": "NY", "zip": "11237-1822", "ntee": "X30", "ruling": "201208", "deductibility": "1", "assets": 0, "income": 0, "revenue": 0}, {"ein": "333471064", "name": "BUSHWICK EMPOWERMENT PROJECT INC", "city": "BROOKLYN", "state": "NY", "zip": "11221-4237", "ntee": "G81", "ruling": "202506", "deductibility": "1", "assets": 0, "income": 0, "revenue": 0}, {"ein": "453734520", "name": "BUSHWICK STREET CATS INC", "city": "BROOKLYN", "state": "NY", "zip": "11207-1012", "ntee": "D20", "ruling": "201408", "deductibility": "1", "assets": 0, "income": 0, "revenue": 0}, {"ein": "465624500", "name": "BUSHWICK HOUSES RESIDENT ASSOCIATION INC", "city": "BROOKLYN", "state": "NY", "zip": "11206-3723", "ntee": "L50", "ruling": "201412", "deductibility": "1", "assets": 0, "income": 0, "revenue": 0}, {"ein": "465724068", "name": "BUSHWICK FILM FESTIVAL LLC", "city": "BROOKLYN", "state": "NY", "zip": "11207-2175", "ntee": "A31", "ruling": "202204", "deductibility": "1", "assets": 0, "income": 0, "revenue": 0}, {"ein": "471841469", "name": "BUSHWICK WORKSHOP SPACE INC", "city": "BROOKLYN", "state": "NY", "zip": "11237-4457", "ntee": "S21", "ruling": "201907", "deductibility": "1", "assets": 114163, "income": 152607, "revenue": 152607}, {"ein": "471916500", "name": "BUSHWICK ABBEY", "city": "BROOKLYN", "state": "NY", "zip": "11237-0000", "ntee": "", "ruling": "197206", "deductibility": "1", "assets": 0, "income": 0, "revenue": 0}, {"ein": "510468487", "name": "BUSHWICK COMMUNITY SERVICES INC", "city": "GRANVILLE", "state": "NY", "zip": "12832-0240", "ntee": "X20", "ruling": "200408", "deductibility": "1", "assets": 0, "income": 0, "revenue": 0}, {"ein": "811142062", "name": "BUSHWICK FAMILY MINISTRIES COGOP CORPORATION", "city": "BROOKLYN", "state": "NY", "zip": "11221-5120", "ntee": "", "ruling": "201602", "deductibility": "1", "assets": 0, "income": 0, "revenue": 0}, {"ein": "844687897", "name": "BUSHWICK UNITED SENIORS INC", "city": "BROOKLYN", "state": "NY", "zip": "11221-4802", "ntee": "K31", "ruling": "202005", "deductibility": "1", "assets": 0, "income": 0, "revenue": 0}, {"ein": "852602277", "name": "BUSHWICK BOOK CLUB INC", "city": "NEW YORK", "state": "NY", "zip": "10003-8396", "ntee": "A20", "ruling": "202104", "deductibility": "1", "assets": 0, "income": 0, "revenue": 0}, {"ein": "853859302", "name": "ASOCIACION DE DOMINO DE BUSHWICK AND WILLIAMSBURG", "city": "BROOKLYN", "state": "NY", "zip": "11237-2132", "ntee": "A23", "ruling": "202411", "deductibility": "1", "assets": 0, "income": 0, "revenue": 0}, {"ein": "853870624", "name": "QD BUSHWICK INCORPORATED", "city": "BROOKLYN", "state": "NY", "zip": "11237-3282", "ntee": "R26", "ruling": "202103", "deductibility": "1", "assets": 0, "income": 0, "revenue": 0}, {"ein": "873600143", "name": "BUSHWICK RECOVERY COMMUNITY CORP", "city": "BROOKLYN", "state": "NY", "zip": "11205-2364", "ntee": "F32", "ruling": "202403", "deductibility": "1", "assets": 10827, "income": 37428, "revenue": 37428}, {"ein": "921127006", "name": "FRIENDS OF BUSHWICK INLET PARK INC", "city": "BROOKLYN", "state": "NY", "zip": "11222-2509", "ntee": "N32", "ruling": "202308", "deductibility": "1", "assets": 0, "income": 0, "revenue": 0}, {"ein": "923339325", "name": "BUSHWICK FOUNDATION FOR ARTISTS AND MERCHANTS INC", "city": "NEW YORK", "state": "NY", "zip": "10016-2400", "ntee": "C50", "ruling": "202304", "deductibility": "1", "assets": 0, "income": 0, "revenue": 0}], "SVET": [{"ein": "112583916", "name": "SVET PUBLISHERS INC", "city": "BROOKLYN", "state": "NY", "zip": "11218-5913", "ntee": "P20", "ruling": "201508", "deductibility": "1", "assets": 0, "income": 0, "revenue": 0}], "AYSON": [{"ein": "112611716", "name": "DERECH AYSON RABBINICAL SEMINARY", "city": "FAR ROCKAWAY", "state": "NY", "zip": "11691-5219", "ntee": "", "ruling": "198209", "deductibility": "1", "assets": 0, "income": 0, "revenue": 0}], "HADFOSA": [{"ein": "112642840", "name": "EMES V EMUNAH-KEREN HADFOSA INC", "city": "BROOKLYN", "state": "NY", "zip": "11211-7233", "ntee": "", "ruling": "198308", "deductibility": "1", "assets": 0, "income": 0, "revenue": 0}], "DERBY": [{"ein": "112737828", "name": "FLUSHING MEADOW SOAP BOX DERBY INC", "city": "CORONA", "state": "NY", "zip": "11368-1023", "ntee": "", "ruling": "198801", "deductibility": "1", "assets": 6420, "income": 11800, "revenue": 11800}, {"ein": "113524167", "name": "BROWN DERBY ASSOCIATION INC", "city": "VALLEY STREAM", "state": "NY", "zip": "11580-2240", "ntee": "T20", "ruling": "200101", "deductibility": "1", "assets": 212778, "income": 2747, "revenue": 0}, {"ein": "161496245", "name": "GREATER ROCHESTER SOAP BOX DERBY INC", "city": "WEBSTER", "state": "NY", "zip": "14580-9030", "ntee": "O99", "ruling": "199611", "deductibility": "1", "assets": 81767, "income": 113983, "revenue": 113983}, {"ein": "161613441", "name": "JAMESTOWN AREA SOAP BOX DERBY INC", "city": "JAMESTOWN", "state": "NY", "zip": "14701-2729", "ntee": "N60", "ruling": "200205", "deductibility": "1", "assets": 0, "income": 0, "revenue": 0}, {"ein": "161646353", "name": "GLENS FALLS SOAP BOX DERBY INC", "city": "QUEENSBURY", "state": "NY", "zip": "12804-7164", "ntee": "O50", "ruling": "200411", "deductibility": "1", "assets": 0, "income": 0, "revenue": 0}, {"ein": "202752802", "name": "SYRACUSE REGIONAL ALL AMERICAN SOAP BOX DERBY INC", "city": "SYRACUSE", "state": "NY", "zip": "13214-1902", "ntee": "O50", "ruling": "200601", "deductibility": "1", "assets": 0, "income": 0, "revenue": 0}, {"ein": "261712005", "name": "GOTHAM GIRLS ROLLER DERBY NFP INC", "city": "NEW YORK", "state": "NY", "zip": "10016-8019", "ntee": "N60", "ruling": "200809", "deductibility": "1", "assets": 242013, "income": 281239, "revenue": 280090}, {"ein": "263524452", "name": "JUNIOR ROLLER DERBY ASSOCIATION", "city": "ITHACA", "state": "NY", "zip": "14851-0301", "ntee": "N31", "ruling": "202303", "deductibility": "1", "assets": 0, "income": 0, "revenue": 0}, {"ein": "264227141", "name": "ROC CITY ROLLER DERBY INC", "city": "ROCHESTER", "state": "NY", "zip": "14617-0125", "ntee": "N70", "ruling": "201007", "deductibility": "1", "assets": 26406, "income": 66565, "revenue": 52909}, {"ein": "461469899", "name": "PORT JERVIS SOAP BOX DERBY INC", "city": "GLEN SPEY", "state": "NY", "zip": "12737-8513", "ntee": "B82", "ruling": "201409", "deductibility": "1", "assets": 74079, "income": 40488, "revenue": 38841}, {"ein": "461828247", "name": "ENCHANTED MOUNTAIN ROLLER DERBY", "city": "PORTVILLE", "state": "NY", "zip": "14770-0813", "ntee": "N99", "ruling": "201703", "deductibility": "1", "assets": 0, "income": 0, "revenue": 0}, {"ein": "464267322", "name": "NERDY DERBY INC", "city": "BROOKLYN", "state": "NY", "zip": "11218-2102", "ntee": "W99", "ruling": "201407", "deductibility": "1", "assets": 0, "income": 0, "revenue": 0}, {"ein": "472725268", "name": "MENS ROLLER DERBY ASSOCIATION INC", "city": "UTICA", "state": "NY", "zip": "13501-5739", "ntee": "N70", "ruling": "201511", "deductibility": "1", "assets": 0, "income": 0, "revenue": 0}, {"ein": "473720444", "name": "LADIES DEATH AND DERBY SOCIETY INC", "city": "HAMILTON", "state": "NY", "zip": "13346-0304", "ntee": "N60", "ruling": "201611", "deductibility": "1", "assets": 0, "income": 0, "revenue": 0}, {"ein": "800781495", "name": "HELLIONS OF TROY ROLLER DERBY LEAGUE INC", "city": "ALBANY", "state": "NY", "zip": "12212-2752", "ntee": "N70", "ruling": "202504", "deductibility": "1", "assets": 0, "income": 0, "revenue": 0}, {"ein": "813633442", "name": "FLOUR CITY ROLLER DERBY INC", "city": "ROCHESTER", "state": "NY", "zip": "14622-2010", "ntee": "N60", "ruling": "202410", "deductibility": "1", "assets": 0, "income": 0, "revenue": 0}, {"ein": "820739494", "name": "BRONXVILLE DERBY ASSOCIATION INC", "city": "BRONXVILLE", "state": "NY", "zip": "10708-3703", "ntee": "T20", "ruling": "201703", "deductibility": "1", "assets": 1568, "income": 18605, "revenue": 0}, {"ein": "831144503", "name": "ROCHESTER AREA JUNIOR ROLLER DERBY INC", "city": "FAIRPORT", "state": "NY", "zip": "14450-9542", "ntee": "N60", "ruling": "202311", "deductibility": "1", "assets": 0, "income": 0, "revenue": 0}, {"ein": "874218531", "name": "DERBY PARK FOUNDATIOIN INC", "city": "HUDSON FALLS", "state": "NY", "zip": "12839-1855", "ntee": "L25", "ruling": "202401", "deductibility": "1", "assets": 0, "income": 0, "revenue": 0}, {"ein": "933291496", "name": "UPSKATE NEW YORK JUNIOR ROLLER DERBY", "city": "ILION", "state": "NY", "zip": "13357-1423", "ntee": "O99", "ruling": "202409", "deductibility": "1", "assets": 0, "income": 0, "revenue": 0}, {"ein": "992231862", "name": "OAKFIELD BOX CAR DERBY ASSOCIATION INC", "city": "OAKFIELD", "state": "NY", "zip": "14125-1119", "ntee": "B12", "ruling": "202412", "deductibility": "1", "assets": 0, "income": 0, "revenue": 0}], "PRAKASH": [{"ein": "112896506", "name": "BHUVANESHWAR MANDIR INC C/O PUNDIT PRAKASH GOSAIN", "city": "BROOKLYN", "state": "NY", "zip": "11237-4355", "ntee": "X70Z", "ruling": "199601", "deductibility": "1", "assets": 0, "income": 0, "revenue": 0}, {"ein": "133727105", "name": "PREM PRAKASH MANDLI USA INC", "city": "ELMHURST", "state": "NY", "zip": "11373-3728", "ntee": "X11", "ruling": "202304", "deductibility": "1", "assets": 4876004, "income": 361160, "revenue": 361160}, {"ein": "933770968", "name": "SHRI PRAKASH SEVA FOUNDATION", "city": "ALBANY", "state": "NY", "zip": "12207-2834", "ntee": "P12", "ruling": "202402", "deductibility": "1", "assets": 0, "income": 0, "revenue": 0}], "RINA": [{"ein": "113062761", "name": "LE ZION B RINA INC", "city": "BROOKLYN", "state": "NY", "zip": "11219-1501", "ntee": "Q710", "ruling": "199202", "deductibility": "1", "assets": 22786, "income": 102997, "revenue": 102997}, {"ein": "264279450", "name": "TZAHALA V RINA", "city": "BROOKLYN", "state": "NY", "zip": "11218-4505", "ntee": "T30", "ruling": "201009", "deductibility": "1", "assets": 307412, "income": 62020, "revenue": 0}], "MIAMONIDES": [{"ein": "113066803", "name": "MIAMONIDES RELIEF CENTER", "city": "BROOKLYN", "state": "NY", "zip": "11210-3714", "ntee": "", "ruling": "199109", "deductibility": "1", "assets": 0, "income": 0, "revenue": 0}], "STRIANO": [{"ein": "113078596", "name": "PETER & CAROLINE STRIANO FOUNDATION INC", "city": "NEW YORK", "state": "NY", "zip": "10155-0002", "ntee": "", "ruling": "199207", "deductibility": "1", "assets": 4728069, "income": 555069, "revenue": 0}], "MAKOWA": [{"ein": "113082759", "name": "YESHIVAT MAKOWA", "city": "BROOKLYN", "state": "NY", "zip": "11211-7834", "ntee": "", "ruling": "196810", "deductibility": "1", "assets": 0, "income": 0, "revenue": 0}], "HORA": [{"ein": "113111928", "name": "DARCHEI HORA AH LRABBANIM", "city": "BROOKLYN", "state": "NY", "zip": "11210-3714", "ntee": "", "ruling": "199306", "deductibility": "1", "assets": 0, "income": 0, "revenue": 0}, {"ein": "133863786", "name": "HORA DECIMA BRASS ENSEMBLE INC", "city": "BREWSTER", "state": "NY", "zip": "10509-5326", "ntee": "Z99", "ruling": "199609", "deductibility": "1", "assets": 0, "income": 0, "revenue": 0}, {"ein": "371910271", "name": "MESIVTA INSTITUTIONS FOR TORAH AND HORA AH INC", "city": "BROOKLYN", "state": "NY", "zip": "11204-1742", "ntee": "T50", "ruling": "202212", "deductibility": "1", "assets": 11041, "income": 101092, "revenue": 101092}, {"ein": "611684698", "name": "BAIS HORA AH OF NASSAU COUNTY", "city": "CEDAHHURS", "state": "NY", "zip": "11516-1543", "ntee": "X30", "ruling": "201305", "deductibility": "1", "assets": 0, "income": 0, "revenue": 0}, {"ein": "822113267", "name": "CHRISTIAN CHARITY OF HORA INC", "city": "HAMBURG", "state": "NY", "zip": "14075-5453", "ntee": "P20", "ruling": "201711", "deductibility": "1", "assets": 0, "income": 0, "revenue": 0}], "HADAF": [{"ein": "113161020", "name": "MIFAL HADAF", "city": "BROOKLYN", "state": "NY", "zip": "11210-3714", "ntee": "", "ruling": "199308", "deductibility": "1", "assets": 0, "income": 0, "revenue": 0}, {"ein": "113260480", "name": "CONGREGATION AL HADAF", "city": "MONSEY", "state": "NY", "zip": "10952-0791", "ntee": "", "ruling": "199506", "deductibility": "1", "assets": 0, "income": 0, "revenue": 0}], "MESILOM": [{"ein": "113181558", "name": "GEMACH AND KOLEL TIFERETH MESILOM", "city": "BROOKLYN", "state": "NY", "zip": "11211-8036", "ntee": "", "ruling": "199312", "deductibility": "1", "assets": 0, "income": 0, "revenue": 0}], "LDOVID": [{"ein": "113196417", "name": "CONG TFILAH LDOVID", "city": "BROOKLYN", "state": "NY", "zip": "11210-3714", "ntee": "X30Z", "ruling": "199412", "deductibility": "1", "assets": 0, "income": 0, "revenue": 0}, {"ein": "113383465", "name": "CONGREGATION TEFILOH Y LDOVID", "city": "BROOKLYN", "state": "NY", "zip": "11204-1845", "ntee": "X30Z", "ruling": "199801", "deductibility": "1", "assets": 0, "income": 0, "revenue": 0}, {"ein": "113636848", "name": "AMERICAN FRIENDS OF TEHILA LDOVID", "city": "BROOKLYN", "state": "NY", "zip": "11236-4001", "ntee": "B99", "ruling": "200206", "deductibility": "1", "assets": 0, "income": 0, "revenue": 0}, {"ein": "133962957", "name": "CONGREGATION TEHILLA LDOVID INC", "city": "SPRING VALLEY", "state": "NY", "zip": "10977-3823", "ntee": "X30Z", "ruling": "199802", "deductibility": "1", "assets": 0, "income": 0, "revenue": 0}, {"ein": "202799147", "name": "KHAL TEFILLAH LDOVID", "city": "MONSEY", "state": "NY", "zip": "10952-1403", "ntee": "X30", "ruling": "200912", "deductibility": "1", "assets": 0, "income": 0, "revenue": 0}], "EDUT": [{"ein": "113204403", "name": "CONGREGATION EDUT HAMIZRAH", "city": "BROOKLYN", "state": "NY", "zip": "11230-0011", "ntee": "X30Z", "ruling": "199412", "deductibility": "1", "assets": 0, "income": 0, "revenue": 0}], "MKADSHEY": [{"ein": "113205608", "name": "CONG MKADSHEY HASHEM", "city": "BROOKLYN", "state": "NY", "zip": "11211-7912", "ntee": "", "ruling": "199405", "deductibility": "1", "assets": 0, "income": 0, "revenue": 0}], "MASSIFE": [{"ein": "113210898", "name": "MASSIFE GLOBAL COMMUNICATIONS NETWORK INC", "city": "BROOKLYN", "state": "NY", "zip": "11202-3272", "ntee": "", "ruling": "199408", "deductibility": "1", "assets": 0, "income": 0, "revenue": 0}], "IGHL": [{"ein": "113222406", "name": "IGHL CARES INC", "city": "MANORVILLE", "state": "NY", "zip": "11949-9604", "ntee": "E12", "ruling": "201411", "deductibility": "1", "assets": 108752, "income": 30988, "revenue": 30988}], "JONG": [{"ein": "113280926", "name": "JONG CHENG BUDDHA ASSOCIATION", "city": "BROOKLYN", "state": "NY", "zip": "11204-5006", "ntee": "X99Z", "ruling": "199509", "deductibility": "1", "assets": 759439, "income": 69385, "revenue": 66121}], "ATLANTIS": [{"ein": "113280988", "name": "ATLANTIS CRICKET CLUB", "city": "YORKTOWN HTS", "state": "NY", "zip": "10598-1976", "ntee": "N60", "ruling": "201601", "deductibility": "1", "assets": 0, "income": 0, "revenue": 0}], "GREYHOUNDS": [{"ein": "113458976", "name": "GRATEFUL GREYHOUNDS INC", "city": "HUNTINGTON", "state": "NY", "zip": "11743-0657", "ntee": "D20", "ruling": "200308", "deductibility": "1", "assets": 42738, "income": 42726, "revenue": 42726}, {"ein": "141782265", "name": "GREYHOUNDS AS COMPANIONS INC", "city": "DELMAR", "state": "NY", "zip": "12054-5209", "ntee": "D20", "ruling": "199912", "deductibility": "1", "assets": 0, "income": 0, "revenue": 0}], "VOLCANO": [{"ein": "113536533", "name": "VOLCANO LOVE INC", "city": "CALLICOON", "state": "NY", "zip": "12723-0094", "ntee": "A62", "ruling": "200004", "deductibility": "1", "assets": 17161, "income": 29791, "revenue": 29791}, {"ein": "270095119", "name": "UNDER THE VOLCANO INTERNATIONAL INC", "city": "NEW YORK", "state": "NY", "zip": "10025-7734", "ntee": "A99", "ruling": "201604", "deductibility": "1", "assets": 19786, "income": 188484, "revenue": 188484}], "MIL": [{"ein": "113632998", "name": "MIL AL MISSION IN NY INC", "city": "FLUSHING", "state": "NY", "zip": "11354-2342", "ntee": "P80", "ruling": "200206", "deductibility": "1", "assets": 574521, "income": 366679, "revenue": 366679}, {"ein": "863016019", "name": "MIL MUNDOS EN COMUN LTD", "city": "BROOKLYN", "state": "NY", "zip": "11237-5603", "ntee": "P20", "ruling": "202107", "deductibility": "1", "assets": 51794, "income": 94441, "revenue": 94441}], "EINTRACHT": [{"ein": "116036963", "name": "SPORT CLUB EINTRACHT INC", "city": "CORTLANDT MANOR", "state": "NY", "zip": "10567-0000", "ntee": "", "ruling": "194606", "deductibility": "2", "assets": 548386, "income": 18732, "revenue": 18732}], "FACES": [{"ein": "130887610", "name": "70 FACES MEDIA INC", "city": "NEW YORK", "state": "NY", "zip": "10018-4393", "ntee": "A30Z", "ruling": "193907", "deductibility": "1", "assets": 3755255, "income": 7947717, "revenue": 7947717}, {"ein": "133449087", "name": "FACES NY INC", "city": "NEW YORK", "state": "NY", "zip": "10026-2948", "ntee": "L210", "ruling": "198910", "deductibility": "1", "assets": 1908104, "income": 3866084, "revenue": 3866084}, {"ein": "452349868", "name": "LATIN WOMEN EMPOWER FACES", "city": "BRONX", "state": "NY", "zip": "10453-4040", "ntee": "R24", "ruling": "202312", "deductibility": "1", "assets": 0, "income": 0, "revenue": 0}, {"ein": "463212173", "name": "FACES OF NOTTINGHAM INC", "city": "SYRACUSE", "state": "NY", "zip": "13224-1647", "ntee": "B94", "ruling": "201402", "deductibility": "1", "assets": 0, "income": 0, "revenue": 0}, {"ein": "471579784", "name": "SAVING FACES FOUNDATION", "city": "NEW YORK", "state": "NY", "zip": "10021-5047", "ntee": "G9B", "ruling": "202403", "deductibility": "1", "assets": 0, "income": 0, "revenue": 0}, {"ein": "853305435", "name": "FACES OF CHANGE FOUNDATION INC", "city": "JAMAICA", "state": "NY", "zip": "11434-4516", "ntee": "B11", "ruling": "202106", "deductibility": "1", "assets": 1, "income": 0, "revenue": 0}, {"ein": "871808328", "name": "FACES OF HARLEM", "city": "NEW YORK", "state": "NY", "zip": "10026-2046", "ntee": "A20", "ruling": "202202", "deductibility": "1", "assets": 0, "income": 0, "revenue": 0}, {"ein": "991607331", "name": "BABY MONKEY FACES INC", "city": "FULTON", "state": "NY", "zip": "13069-4139", "ntee": "P30", "ruling": "202403", "deductibility": "1", "assets": 0, "income": 0, "revenue": 0}], "15D": [{"ein": "132648599", "name": "LOCAL 15 15A 15D OPERATING ENGINEER APPRENTICESHIP SKILL IMPROVEMENT", "city": "LONG IS CITY", "state": "NY", "zip": "11101-5105", "ntee": "", "ruling": "197012", "deductibility": "1", "assets": 6503600, "income": 8968416, "revenue": 8968416}, {"ein": "135159024", "name": "INTERNATIONAL UNION OF OPERATING ENGINEERS LOCAL 15 15A 15B 15C 15D", "city": "LONG IS CITY", "state": "NY", "zip": "11101-5105", "ntee": "", "ruling": "194408", "deductibility": "2", "assets": 88276140, "income": 61773382, "revenue": 25631489}], "ORGNZ": [{"ein": "132663328", "name": "PUERTO RICAN ORGNZ TO MOTIVATE ENLIGHTEN & SERVE ADDICTS INC", "city": "BRONX", "state": "NY", "zip": "10457-5859", "ntee": "F220", "ruling": "197106", "deductibility": "1", "assets": 130672639, "income": 103363234, "revenue": 103363234}], "CREATE": [{"ein": "132739938", "name": "CREATE INC", "city": "BRONX", "state": "NY", "zip": "10456-7815", "ntee": "F33Z", "ruling": "197405", "deductibility": "1", "assets": 16934380, "income": 2634696, "revenue": 2571996}, {"ein": "133363269", "name": "CREATE HOUSING DEVELOPMENT FUND CORPORATION", "city": "BRONX", "state": "NY", "zip": "10456-7815", "ntee": "L410", "ruling": "198803", "deductibility": "1", "assets": 600, "income": 0, "revenue": 0}, {"ein": "200434850", "name": "CREATE IN CHINATOWN INC", "city": "NEW YORK", "state": "NY", "zip": "10001-5488", "ntee": "A61", "ruling": "200412", "deductibility": "1", "assets": 2363736, "income": 1806482, "revenue": 903313}, {"ein": "465727512", "name": "RE-CREATE INC", "city": "HAMPTON BAYS", "state": "NY", "zip": "11946-2944", "ntee": "A23", "ruling": "201506", "deductibility": "1", "assets": 6204, "income": 37000, "revenue": 37000}, {"ein": "471151617", "name": "CREATE A HEALTHIER NIAGARA FALLS COLLABORATIVE INC", "city": "NIAGARA FALLS", "state": "NY", "zip": "14301-2232", "ntee": "W99", "ruling": "201409", "deductibility": "1", "assets": 0, "income": 0, "revenue": 0}, {"ein": "810620878", "name": "CREATE YOUR OWN WORLD NURSERY AND DAYCARE CENTER INC", "city": "BRONX", "state": "NY", "zip": "10473-4827", "ntee": "P33", "ruling": "201410", "deductibility": "1", "assets": 1, "income": 0, "revenue": 0}, {"ein": "812748901", "name": "CREATE A MINI-BOOK INC", "city": "BUFFALO", "state": "NY", "zip": "14201-1511", "ntee": "O50", "ruling": "201702", "deductibility": "1", "assets": 0, "income": 0, "revenue": 0}, {"ein": "822063882", "name": "CREATE 4 PEACE INC", "city": "NEW YORK", "state": "NY", "zip": "10031-8343", "ntee": "A23", "ruling": "202301", "deductibility": "1", "assets": 0, "income": 0, "revenue": 0}, {"ein": "825486810", "name": "ACHIEVE BELIEVE CREATE INC", "city": "BROOKLYN", "state": "NY", "zip": "11217-3203", "ntee": "O50", "ruling": "202304", "deductibility": "1", "assets": 0, "income": 0, "revenue": 0}, {"ein": "833344105", "name": "YES GIRLS CREATE INC", "city": "VALLEY STREAM", "state": "NY", "zip": "11580-2311", "ntee": "O22", "ruling": "201908", "deductibility": "1", "assets": 0, "income": 0, "revenue": 0}, {"ein": "841811810", "name": "WOMEN WHO CREATE INC", "city": "LONG IS CITY", "state": "NY", "zip": "11103-4759", "ntee": "T03", "ruling": "201907", "deductibility": "1", "assets": 0, "income": 0, "revenue": 0}, {"ein": "850857567", "name": "CREATE ECHO ORG INC", "city": "BROOKLYN", "state": "NY", "zip": "11201-6173", "ntee": "O99", "ruling": "202102", "deductibility": "1", "assets": 0, "income": 0, "revenue": 0}, {"ein": "853699699", "name": "WE CREATE COMMUNITY INC", "city": "BROOKLYN", "state": "NY", "zip": "11214-2906", "ntee": "P28", "ruling": "202012", "deductibility": "1", "assets": 1521, "income": 2360, "revenue": 2360}, {"ein": "871279930", "name": "CARE 2 CREATE INC", "city": "BROOKLYN", "state": "NY", "zip": "11230-7238", "ntee": "T11", "ruling": "202205", "deductibility": "1", "assets": 2863, "income": 6473, "revenue": 0}, {"ein": "881173686", "name": "OUR CREATE HOPE FOUNDATION", "city": "HICKSVILLE", "state": "NY", "zip": "11801-1309", "ntee": "G12", "ruling": "202207", "deductibility": "1", "assets": 2814, "income": 92516, "revenue": 92516}, {"ein": "922728214", "name": "CREATE CARIBBEAN INC", "city": "BROOKLYN", "state": "NY", "zip": "11226-1191", "ntee": "A70", "ruling": "202504", "deductibility": "1", "assets": 0, "income": 0, "revenue": 0}, {"ein": "991410265", "name": "CREATE THE CULTURE ENTERTAINMENT INCORPORATED", "city": "OLEAN", "state": "NY", "zip": "14760-1704", "ntee": "O51", "ruling": "202402", "deductibility": "1", "assets": 0, "income": 0, "revenue": 0}, {"ein": "993112827", "name": "CREATE & COLLABORATE INC", "city": "WOODSIDE", "state": "NY", "zip": "11377-3967", "ntee": "K03", "ruling": "202408", "deductibility": "1", "assets": 0, "income": 0, "revenue": 0}], "AYSHEL": [{"ein": "132755997", "name": "CONGREGATION AYSHEL AVRAHAM", "city": "BROOKLYN", "state": "NY", "zip": "11219-0234", "ntee": "", "ruling": "197403", "deductibility": "1", "assets": 0, "income": 0, "revenue": 0}, {"ein": "870971747", "name": "KOLLEL AYSHEL AVRAHAM", "city": "BROOKLYN", "state": "NY", "zip": "11219-4433", "ntee": "X30", "ruling": "202211", "deductibility": "1", "assets": 0, "income": 0, "revenue": 0}], "CRITIC": [{"ein": "132893085", "name": "NEW YORK DRAMA CRITIC CIRCLE INC", "city": "NEW YORK", "state": "NY", "zip": "10024-2148", "ntee": "", "ruling": "197710", "deductibility": "1", "assets": 73910, "income": 18418, "revenue": 0}, {"ein": "474632174", "name": "CRITIC SEES LTD", "city": "NEW YORK", "state": "NY", "zip": "10003-4368", "ntee": "A70", "ruling": "201608", "deductibility": "1", "assets": 295456, "income": 648999, "revenue": 0}], "LABEL": [{"ein": "133010662", "name": "PRIVATE LABEL MANUFACTURERS ASSOCIATION", "city": "NEW YORK", "state": "NY", "zip": "10017-6770", "ntee": "", "ruling": "198008", "deductibility": "2", "assets": 31790244, "income": 20831981, "revenue": 20831981}, {"ein": "853688066", "name": "NO LABEL MEDIA GROUP INC", "city": "EAST HAMPTON", "state": "NY", "zip": "11937-1008", "ntee": "A20", "ruling": "202105", "deductibility": "1", "assets": 43264, "income": 364596, "revenue": 364596}], "WINDOW": [{"ein": "133084705", "name": "WINDOW AND PLATE GLASS DEALERS ASSOCIATION INDUSTRY PROMOTION FUN", "city": "NANUET", "state": "NY", "zip": "10954-5285", "ntee": "", "ruling": "198110", "deductibility": "2", "assets": 2516342, "income": 477193, "revenue": 337757}, {"ein": "454686000", "name": "PROJECT WINDOW INC", "city": "ROCKAWAY BCH", "state": "NY", "zip": "11693-0365", "ntee": "O50", "ruling": "201208", "deductibility": "1", "assets": 0, "income": 0, "revenue": 0}, {"ein": "471319440", "name": "WINDOW ON THE WOODS INC", "city": "MINERVA", "state": "NY", "zip": "12851-0923", "ntee": "C99", "ruling": "201410", "deductibility": "1", "assets": 0, "income": 0, "revenue": 0}, {"ein": "731735463", "name": "WORLDS WINDOW INC", "city": "ALBANY", "state": "NY", "zip": "12208-2306", "ntee": "Q33", "ruling": "200604", "deductibility": "1", "assets": 115140, "income": 71197, "revenue": 45189}, {"ein": "814904552", "name": "414 WINDOW NEW YORK INC", "city": "FLUSHING", "state": "NY", "zip": "11354-2504", "ntee": "X20", "ruling": "202001", "deductibility": "1", "assets": 18267, "income": 54102, "revenue": 54102}, {"ein": "821985083", "name": "BLUE WINDOW FOUNDATION", "city": "SCARSDALE", "state": "NY", "zip": "10583-1235", "ntee": "T20", "ruling": "201907", "deductibility": "1", "assets": 2137717, "income": 102096, "revenue": 0}], "UERMMMC": [{"ein": "133119113", "name": "UERMMMC ALUMNI FOUNDATION INC", "city": "ELMHURST", "state": "NY", "zip": "11373-0000", "ntee": "Q300", "ruling": "198303", "deductibility": "1", "assets": 900858, "income": 25512, "revenue": 25512}], "LANDS": [{"ein": "133249723", "name": "AMERICAN FRIENDS OF THE BIBLE LANDS MUSEUM JERUSALEM LTD", "city": "NEW YORK", "state": "NY", "zip": "10001-3031", "ntee": "A99Z", "ruling": "198412", "deductibility": "1", "assets": 261492, "income": 19582, "revenue": 19582}, {"ein": "320276725", "name": "DROWNED LANDS HISTORICAL SOCIETY", "city": "PINE ISLAND", "state": "NY", "zip": "10969-0156", "ntee": "B99", "ruling": "201407", "deductibility": "1", "assets": 0, "income": 0, "revenue": 0}, {"ein": "331536474", "name": "FIFTY LANDS INC", "city": "MONROE", "state": "NY", "zip": "10950-5243", "ntee": "Q12", "ruling": "202506", "deductibility": "1", "assets": 0, "income": 0, "revenue": 0}, {"ein": "842653335", "name": "PERMACULTURE LIVING LANDS TRUST INC", "city": "ELLENVILLE", "state": "NY", "zip": "12428-5440", "ntee": "C34", "ruling": "202207", "deductibility": "1", "assets": 0, "income": 0, "revenue": 0}, {"ein": "943444825", "name": "HUDSON TACONIC LANDS INC", "city": "AVERILL PARK", "state": "NY", "zip": "12018-0790", "ntee": "C36", "ruling": "200911", "deductibility": "1", "assets": 4420227, "income": 2629129, "revenue": 2356438}], "TOBIN": [{"ein": "133348349", "name": "PRESBYTERIAN HOMES FOUNDATION INC C/O TOBIN AND DEMPF", "city": "NEW HARTFORD", "state": "NY", "zip": "13413-0710", "ntee": "", "ruling": "198606", "deductibility": "1", "assets": 2537045, "income": 694781, "revenue": 221221}], "JUSTICIA": [{"ein": "133394066", "name": "IGLESIA CRISTO NUESTRA JUSTICIA INC", "city": "BRONX", "state": "NY", "zip": "10451-0462", "ntee": "", "ruling": "198807", "deductibility": "1", "assets": 0, "income": 0, "revenue": 0}, {"ein": "133961844", "name": "IGLESIA CRISTIANA SOL DE JUSTICIA INC", "city": "BRONX", "state": "NY", "zip": "10451-4110", "ntee": "X21", "ruling": "200408", "deductibility": "1", "assets": 0, "income": 0, "revenue": 0}, {"ein": "161565258", "name": "IGLESIA DE DIOS SOL DE JUSTICIA", "city": "BUFFALO", "state": "NY", "zip": "14201-0342", "ntee": "", "ruling": "197210", "deductibility": "1", "assets": 0, "income": 0, "revenue": 0}, {"ein": "161765323", "name": "CENTRO ALTAGRACIA DE FE Y JUSTICIA INC", "city": "NEW YORK", "state": "NY", "zip": "10011-6302", "ntee": "", "ruling": "194603", "deductibility": "1", "assets": 0, "income": 0, "revenue": 0}, {"ein": "571198318", "name": "IGLESIA PENTECOSTAL CAMINO AL CIELO-SOL DE JUSTICIA", "city": "BROOKLYN", "state": "NY", "zip": "11220-4407", "ntee": "X20", "ruling": "200705", "deductibility": "1", "assets": 0, "income": 0, "revenue": 0}, {"ein": "813122677", "name": "IGLESIA DE DIOS SOL DE JUSTICIA", "city": "BAY SHORE", "state": "NY", "zip": "11706-3141", "ntee": "", "ruling": "197210", "deductibility": "1", "assets": 37456, "income": 27336, "revenue": 27336}, {"ein": "863780945", "name": "LIGA DE JUSTICIA FOUNDATION", "city": "BRENTWOOD", "state": "NY", "zip": "11717-4625", "ntee": "P20", "ruling": "202108", "deductibility": "1", "assets": 0, "income": 148548, "revenue": 148548}, {"ein": "993805650", "name": "JUSTICIA EN EL EXILIO", "city": "BRONX", "state": "NY", "zip": "10458-1231", "ntee": "J20", "ruling": "202408", "deductibility": "1", "assets": 0, "income": 0, "revenue": 0}], "BROWNSTO": [{"ein": "133417888", "name": "REALTY CORPORATION OF THE BROWNSTO NE SCHOOL", "city": "NEW YORK", "state": "NY", "zip": "10024-6301", "ntee": "", "ruling": "198811", "deductibility": "2", "assets": 1, "income": 0, "revenue": 0}], "EASO": [{"ein": "133500050", "name": "ST GREGORIOS ORTHODOX CHURCH C/O REV FR NINAN T EASO", "city": "BRONX", "state": "NY", "zip": "10458-2285", "ntee": "X23Z", "ruling": "199712", "deductibility": "1", "assets": 0, "income": 0, "revenue": 0}], "GLASGOW": [{"ein": "133528575", "name": "FRIENDS OF GLASGOW UNIVERSITY INC", "city": "ARDSLEY HDSN", "state": "NY", "zip": "10503-0087", "ntee": "B43J", "ruling": "199406", "deductibility": "1", "assets": 0, "income": 0, "revenue": 0}, {"ein": "237304980", "name": "LOUIS & FLORENCE GLASGOW FOUNDATION 008682", "city": "NORWICH", "state": "NY", "zip": "13815-0000", "ntee": "", "ruling": "197307", "deductibility": "1", "assets": 401570, "income": 81581, "revenue": 0}], "CHEYIL": [{"ein": "133637285", "name": "CONGREGATION ZERAH CHEYIL", "city": "MONROE", "state": "NY", "zip": "10950-9740", "ntee": "", "ruling": "199205", "deductibility": "1", "assets": 0, "income": 0, "revenue": 0}], "NINEZ": [{"ein": "133673457", "name": "DOMINICANOS PRO-AYUDA A LA NINEZ", "city": "NEW YORK", "state": "NY", "zip": "10033-3101", "ntee": "P40", "ruling": "201510", "deductibility": "1", "assets": 11649, "income": 94708, "revenue": 94708}, {"ein": "934416713", "name": "FUNDACION DIVINA CON LA NINEZ INC", "city": "BRONX", "state": "NY", "zip": "10457-0000", "ntee": "P30", "ruling": "202402", "deductibility": "1", "assets": 0, "income": 0, "revenue": 0}], "HABROCHO": [{"ein": "133740398", "name": "CONGREGATION HICHAL HABROCHO", "city": "MONSEY", "state": "NY", "zip": "10952-0394", "ntee": "", "ruling": "199404", "deductibility": "1", "assets": 0, "income": 0, "revenue": 0}, {"ein": "833803523", "name": "HEICHEL HABROCHO INC", "city": "MONROE", "state": "NY", "zip": "10950-9677", "ntee": "X20", "ruling": "201909", "deductibility": "1", "assets": 0, "income": 0, "revenue": 0}], "BAUT": [{"ein": "133755168", "name": "IGL BAUT HISPANA DE FORDHAM", "city": "BRONX", "state": "NY", "zip": "10468-6108", "ntee": "", "ruling": "195504", "deductibility": "1", "assets": 0, "income": 0, "revenue": 0}], "SENORITAS": [{"ein": "133813250", "name": "SIGMA LAMBDA UPSILON SENORITAS LATINAS UNIDAS SORORITY INC", "city": "NEW YORK", "state": "NY", "zip": "10163-3842", "ntee": "B83", "ruling": "201906", "deductibility": "2", "assets": 242335, "income": 85885, "revenue": 85885}], "ELISHAMA": [{"ein": "133867072", "name": "ELISHAMA IMBI TIMBWA MEMORIAL MERIT SCHOLARSHIP AWARD INCORPORATED", "city": "NEW YORK", "state": "NY", "zip": "10025-6432", "ntee": "B82Z", "ruling": "199703", "deductibility": "1", "assets": 1, "income": 1, "revenue": 0}], "FATIH": [{"ein": "133948057", "name": "VICTORY FATIH CATHEDRAL INC", "city": "HIGHLAND MLS", "state": "NY", "zip": "10930-2208", "ntee": "X20Z", "ruling": "199804", "deductibility": "1", "assets": 0, "income": 0, "revenue": 0}, {"ein": "843732337", "name": "NASRUL-LAHIL-L FATIH SOCIETY - NASFAT NEW YORK INC", "city": "JAMAICA", "state": "NY", "zip": "11436-1928", "ntee": "X40", "ruling": "202310", "deductibility": "1", "assets": 0, "income": 0, "revenue": 0}], "YECHIL": [{"ein": "133976721", "name": "CONGREGATION BETH YECHIL INC", "city": "MONSEY", "state": "NY", "zip": "10952-0367", "ntee": "X99Z", "ruling": "199802", "deductibility": "1", "assets": 0, "income": 0, "revenue": 0}], "KITTITIANS": [{"ein": "133980568", "name": "KITTITIANS AND NEVISIANS ASSOCIATION INC", "city": "BRONX", "state": "NY", "zip": "10469-3244", "ntee": "P11", "ruling": "201805", "deductibility": "1", "assets": 0, "income": 0, "revenue": 0}], "MALLOS": [{"ein": "133993635", "name": "MALLOS OF MONSEY INC", "city": "MONSEY", "state": "NY", "zip": "10952-3335", "ntee": "X30Z", "ruling": "199810", "deductibility": "1", "assets": 0, "income": 0, "revenue": 0}], "RATTAPALLAX": [{"ein": "134035109", "name": "RATTAPALLAX INCORPORATED", "city": "NEW YORK", "state": "NY", "zip": "10010-3719", "ntee": "A30", "ruling": "200405", "deductibility": "1", "assets": 460009, "income": 427246, "revenue": 399523}], "UJA": [{"ein": "134043266", "name": "UJA-FED PROPERTIES INC", "city": "NEW YORK", "state": "NY", "zip": "10022-1302", "ntee": "S47", "ruling": "199912", "deductibility": "2", "assets": 19416192, "income": 4226225, "revenue": 928554}], "LMCL": [{"ein": "134077883", "name": "LMCL INC", "city": "NEW YORK", "state": "NY", "zip": "10022-6131", "ntee": "T20", "ruling": "200006", "deductibility": "1", "assets": 27765010, "income": 960131, "revenue": 0}], "CALEDONIAN": [{"ein": "134083050", "name": "NEW YORK CALEDONIAN CLUB INC", "city": "NEW YORK", "state": "NY", "zip": "10163-4542", "ntee": "A23", "ruling": "200005", "deductibility": "1", "assets": 0, "income": 0, "revenue": 0}, {"ein": "161480916", "name": "CALEDONIAN PIPES & DRUMS OF BUFFALO NEW YORK INC", "city": "GRAND ISLAND", "state": "NY", "zip": "14072-0000", "ntee": "A6C", "ruling": "199507", "deductibility": "1", "assets": 12593, "income": 0, "revenue": 0}], "SYNCHRONIZER": [{"ein": "134176216", "name": "SKYLINERS SYNCHRONIZER SKATING TEAM INC", "city": "PELHAM", "state": "NY", "zip": "10803-2633", "ntee": "N68", "ruling": "200211", "deductibility": "1", "assets": 1659581, "income": 3371962, "revenue": 3219794}], "SEMIPERM": [{"ein": "134333566", "name": "SEMIPERM HOUSING DEVELOPMENT FUND CORPORATION", "city": "NEW YORK", "state": "NY", "zip": "10018-5706", "ntee": "L21", "ruling": "200701", "deductibility": "1", "assets": 5604571, "income": 399161, "revenue": 399161}], "EPISCOPA": [{"ein": "135562208", "name": "DOMESTIC AND FOREIGN MISSIONARY SOCIETY OF THE PROTESTANT EPISCOPA", "city": "NEW YORK", "state": "NY", "zip": "10017-4509", "ntee": "", "ruling": "194411", "deductibility": "1", "assets": 0, "income": 0, "revenue": 0}], "DIGEST": [{"ein": "136120440", "name": "READERS DIGEST PARTNERS FOR SIGHT FOUNDATION", "city": "MOUNT KISCO", "state": "NY", "zip": "10549-2555", "ntee": "G41Z", "ruling": "195607", "deductibility": "1", "assets": 13743802, "income": 4331148, "revenue": 702752}], "DICASTAGNOLA": [{"ein": "136160421", "name": "A F DICASTAGNOLA TRUST FBO POETRY SOCIETY OF AMERICA 9-168228937750", "city": "NEW YORK", "state": "NY", "zip": "10013-2362", "ntee": "", "ruling": "197206", "deductibility": "0", "assets": 3657761, "income": 1579903, "revenue": 0}], "SAINTE": [{"ein": "136167233", "name": "INSTITUT DE LA SAINTE FAMILLE DHELMET HELMET", "city": "NEW YORK", "state": "NY", "zip": "10005-2808", "ntee": "", "ruling": "197510", "deductibility": "1", "assets": 0, "income": 0, "revenue": 0}, {"ein": "332597841", "name": "FRIENDS OF AGROPASTORAL CENTER OF PETITES SOEURS DE SAINTE THERESE", "city": "NEW YORK", "state": "NY", "zip": "10039-3127", "ntee": "K30", "ruling": "202502", "deductibility": "1", "assets": 0, "income": 0, "revenue": 0}], "CURLING": [{"ein": "136188045", "name": "ARDSLEY CURLING CLUB INC", "city": "ARDSLEY HDSN", "state": "NY", "zip": "10503-0054", "ntee": "N700", "ruling": "199912", "deductibility": "1", "assets": 330122, "income": 252767, "revenue": 252767}, {"ein": "141251124", "name": "SCHENECTADY CURLING CLUB INC", "city": "SCHENECTADY", "state": "NY", "zip": "12309-5930", "ntee": "N70", "ruling": "199912", "deductibility": "1", "assets": 655823, "income": 291418, "revenue": 232202}, {"ein": "150476440", "name": "UTICA CURLING CLUB", "city": "WHITESBORO", "state": "NY", "zip": "13492-3903", "ntee": "N68", "ruling": "200211", "deductibility": "1", "assets": 975616, "income": 392577, "revenue": 355965}, {"ein": "237107767", "name": "ROCHESTER CURLING CLUB INC", "city": "ROCHESTER", "state": "NY", "zip": "14624-3519", "ntee": "N68", "ruling": "200007", "deductibility": "1", "assets": 655879, "income": 262808, "revenue": 234641}, {"ein": "237450869", "name": "ALBANY CURLING CLUB INC", "city": "ALBANY", "state": "NY", "zip": "12203-5925", "ntee": "N68", "ruling": "200801", "deductibility": "1", "assets": 637541, "income": 207560, "revenue": 159304}, {"ein": "270263877", "name": "LAKE PLACID CURLING CLUB INC", "city": "SARANAC LAKE", "state": "NY", "zip": "12983-0134", "ntee": "N68", "ruling": "200912", "deductibility": "1", "assets": 0, "income": 0, "revenue": 0}, {"ein": "271370568", "name": "LONG ISLAND CURLING CLUB", "city": "SYOSSET", "state": "NY", "zip": "11791-0490", "ntee": "P20", "ruling": "201402", "deductibility": "1", "assets": 190618, "income": 77309, "revenue": 77309}, {"ein": "464614035", "name": "BUFFALO CURLING CLUB DOT ORG INC", "city": "BUFFALO", "state": "NY", "zip": "14210-1613", "ntee": "N60", "ruling": "201607", "deductibility": "1", "assets": 537283, "income": 293735, "revenue": 260481}, {"ein": "821151663", "name": "FINGER LAKES CURLING CLUB", "city": "ITHACA", "state": "NY", "zip": "14850-9705", "ntee": "N60", "ruling": "202408", "deductibility": "1", "assets": 0, "income": 0, "revenue": 0}, {"ein": "833746157", "name": "BROOKLYN CURLING CLUB INC", "city": "BROOKLYN", "state": "NY", "zip": "11238-4001", "ntee": "N68", "ruling": "202008", "deductibility": "1", "assets": 0, "income": 0, "revenue": 0}, {"ein": "883126587", "name": "COLLEGIATE CURLING ASSOCIATION", "city": "HAMILTON", "state": "NY", "zip": "13346-1214", "ntee": "N68", "ruling": "202208", "deductibility": "1", "assets": 0, "income": 0, "revenue": 0}], "ABE": [{"ein": "136210591", "name": "SUNNY & ABE ROSENBERG FOUNDATION INC", "city": "NEW YORK", "state": "NY", "zip": "10119-4201", "ntee": "", "ruling": "196612", "deductibility": "1", "assets": 16181527, "income": 5613114, "revenue": 0}, {"ein": "830346075", "name": "MARY AND ABE SUTTON FOUNDATION", "city": "NEW YORK", "state": "NY", "zip": "10007-2691", "ntee": "T20", "ruling": "200303", "deductibility": "1", "assets": 670, "income": 238000, "revenue": 0}], "ASSOOCIATION": [{"ein": "136560517", "name": "EDUCATIONAL ASSOOCIATION OF SOUTH ORANGETOWN BENEFIT FUND", "city": "NYACK", "state": "NY", "zip": "10960-2226", "ntee": "", "ruling": "000000", "deductibility": "0", "assets": 239379, "income": 113844, "revenue": 113844}], "CAGE": [{"ein": "137031717", "name": "JOHN CAGE TR", "city": "RED HOOK", "state": "NY", "zip": "12571-3608", "ntee": "", "ruling": "199405", "deductibility": "1", "assets": 1502388, "income": 195731, "revenue": 130258}], "GEORGINA": [{"ein": "137151342", "name": "THE EMMA AND GEORGINA BLOOMBERG FOUNDATION", "city": "NEW YORK", "state": "NY", "zip": "10150-1510", "ntee": "T20", "ruling": "199902", "deductibility": "1", "assets": 26262240, "income": 2815046, "revenue": 0}], "HETZEL": [{"ein": "137312885", "name": "HETZEL FAM FOUNDATION TR IN MEMORY OF THOMAS HETZEL", "city": "GARDEN CITY", "state": "NY", "zip": "11530-5629", "ntee": "T22", "ruling": "202307", "deductibility": "1", "assets": 147766, "income": 148266, "revenue": 0}], "VIEWLAND": [{"ein": "141456944", "name": "VIEWLAND CEMETERY ASSOCIATION", "city": "SCHENECTADY", "state": "NY", "zip": "12306-7220", "ntee": "", "ruling": "196012", "deductibility": "1", "assets": 0, "income": 0, "revenue": 0}], "WHALEY": [{"ein": "141651101", "name": "HOLMES WHALEY LAKE CIVIC ASSOCIATION INC", "city": "HOLMES", "state": "NY", "zip": "12531-0072", "ntee": "", "ruling": "199003", "deductibility": "2", "assets": 0, "income": 0, "revenue": 0}], "DBL": [{"ein": "141756361", "name": "DBL FOUNDATION INC", "city": "GLENS FALLS", "state": "NY", "zip": "12801-0944", "ntee": "", "ruling": "199303", "deductibility": "1", "assets": 139584, "income": 992483, "revenue": 0}], "BAC": [{"ein": "141789096", "name": "BAC BUILDING CORPORATION", "city": "ALBANY", "state": "NY", "zip": "12203-4474", "ntee": "", "ruling": "199704", "deductibility": "2", "assets": 945265, "income": 160343, "revenue": 160343}, {"ein": "161005993", "name": "BAC LOCAL 3 NY JOINT APPRENTICESHIP AND TRAINING COMMITTEE", "city": "ROCHESTER", "state": "NY", "zip": "14623-3131", "ntee": "", "ruling": "197512", "deductibility": "2", "assets": 2085919, "income": 1196445, "revenue": 1021932}, {"ein": "464657542", "name": "BAC LOCAL 7 TILE MARBLE AND TERRAZZO SCHOLARSHIP FUND INC", "city": "LONG IS CITY", "state": "NY", "zip": "11101-4301", "ntee": "Z99", "ruling": "201407", "deductibility": "1", "assets": 293422, "income": 254460, "revenue": 153259}, {"ein": "466139805", "name": "LOCAL 60-CIC-BAC-LM TR", "city": "HAWTHORNE", "state": "NY", "zip": "10532-1149", "ntee": "J40", "ruling": "201209", "deductibility": "2", "assets": 5205651, "income": 864560, "revenue": 864560}, {"ein": "472884983", "name": "BAC LOCAL 7 TILE MARBLE AND TERRAZZO SKILLS TRAINING CORPORATI", "city": "LONG IS CITY", "state": "NY", "zip": "11101-4301", "ntee": "J40", "ruling": "201512", "deductibility": "2", "assets": 682530, "income": 68653, "revenue": 68653}, {"ein": "820613556", "name": "WE GAT AH YUH BAC CORP", "city": "S RICHMOND HL", "state": "NY", "zip": "11419-1721", "ntee": "P99", "ruling": "202305", "deductibility": "1", "assets": 0, "income": 0, "revenue": 0}, {"ein": "820864921", "name": "BAC LOCAL 3 NY BUILDING CORP", "city": "ROCHESTER", "state": "NY", "zip": "14623-3131", "ntee": "", "ruling": "201908", "deductibility": "0", "assets": 837625, "income": 133500, "revenue": 133500}, {"ein": "932370004", "name": "BAC LOCAL 2 NY VT CHARITABLE FUND INC", "city": "ALBANY", "state": "NY", "zip": "12203-4474", "ntee": "T12", "ruling": "202407", "deductibility": "1", "assets": 0, "income": 0, "revenue": 0}], "CALLABAR": [{"ein": "146029878", "name": "KAEL BERGH CLUB INC CALLABAR CLUB", "city": "KINGSTON", "state": "NY", "zip": "12402-3756", "ntee": "N20Z", "ruling": "196102", "deductibility": "2", "assets": 170312, "income": 148400, "revenue": 148400}], "DALTA": [{"ein": "153006299", "name": "LAKE DALTA YACHT CLUB OF ROME INC", "city": "ROME", "state": "NY", "zip": "13442-0060", "ntee": "", "ruling": "198009", "deductibility": "2", "assets": 277775, "income": 246673, "revenue": 246673}], "PENFELD": [{"ein": "160951034", "name": "PENFELD VILLAGE NURSERY SCHOOL", "city": "PENFIELD", "state": "NY", "zip": "14526-1410", "ntee": "B21Z", "ruling": "197004", "deductibility": "1", "assets": 345549, "income": 399564, "revenue": 399564}], "WESTLAKE": [{"ein": "160958325", "name": "FALCON SPORTSMEN INC C O GEORGE WESTLAKE", "city": "AUBURN", "state": "NY", "zip": "13021-0083", "ntee": "", "ruling": "197807", "deductibility": "1", "assets": 172146, "income": 28214, "revenue": 24570}, {"ein": "320547249", "name": "WESTLAKE EDUCATION FOUNDATION USA INC", "city": "NEW YORK", "state": "NY", "zip": "10279-2300", "ntee": "B60", "ruling": "201812", "deductibility": "1", "assets": 15895214, "income": 478832, "revenue": 478832}, {"ein": "753027314", "name": "WESTLAKE ATHLETIC BOOSTER CLUB INC", "city": "HAWTHORNE", "state": "NY", "zip": "10532-0332", "ntee": "N12", "ruling": "202412", "deductibility": "1", "assets": 56080, "income": 162127, "revenue": 87916}], "SANITARIA": [{"ein": "161156054", "name": "SANITARIA SPRINGS FIRE COMPANY INC", "city": "PORT CRANE", "state": "NY", "zip": "13833-0000", "ntee": "M24", "ruling": "202506", "deductibility": "1", "assets": 471049, "income": 165438, "revenue": 157018}], "HAPY": [{"ein": "161202472", "name": "COPENHAGEN HAPY ACHERS HOUSING", "city": "LOWVILLE", "state": "NY", "zip": "13367-1582", "ntee": "", "ruling": "199402", "deductibility": "1", "assets": 133800, "income": 132032, "revenue": 132032}], "BOYLSTON": [{"ein": "161433807", "name": "PULASKI-BOYLSTON SNOWMOBILE CLUB INC", "city": "PULASKI", "state": "NY", "zip": "13142-2591", "ntee": "M99", "ruling": "200212", "deductibility": "1", "assets": 378339, "income": 220345, "revenue": 202118}], "BROOKWOOD": [{"ein": "161499695", "name": "BROOKWOOD SCHOOL", "city": "COOPERSTOWN", "state": "NY", "zip": "13326-5411", "ntee": "B20Z", "ruling": "199704", "deductibility": "1", "assets": 2705112, "income": 1276840, "revenue": 1276840}], "FINNS": [{"ein": "161544714", "name": "FINGER LAKES FINNS", "city": "NEWFIELD", "state": "NY", "zip": "14867-0072", "ntee": "B82", "ruling": "200612", "deductibility": "1", "assets": 0, "income": 0, "revenue": 0}, {"ein": "932981273", "name": "FINNS FUREVER FELINE RESCUE INC", "city": "FREWSBURG", "state": "NY", "zip": "14738-9716", "ntee": "D20", "ruling": "202309", "deductibility": "1", "assets": 0, "income": 0, "revenue": 0}], "FOODLINK": [{"ein": "161558258", "name": "FOODLINK FOUNDATION INC", "city": "ROCHESTER", "state": "NY", "zip": "14615-3706", "ntee": "P20", "ruling": "199812", "deductibility": "1", "assets": 11803993, "income": 807816, "revenue": 807816}, {"ein": "222428304", "name": "FOODLINK INC", "city": "ROCHESTER", "state": "NY", "zip": "14615-3706", "ntee": "K30", "ruling": "198301", "deductibility": "1", "assets": 11716250, "income": 63461016, "revenue": 63130117}], "POINTES": [{"ein": "161599803", "name": "POINTES OF FAITH DANCERS INC", "city": "WOLCOTT", "state": "NY", "zip": "14590-9563", "ntee": "A62", "ruling": "200205", "deductibility": "1", "assets": 0, "income": 0, "revenue": 0}], "TOTAL": [{"ein": "200467164", "name": "WEST BABYLON TOTAL STUDENT MIND & BODY INC", "city": "WEST BABYLON", "state": "NY", "zip": "11704-3633", "ntee": "B99", "ruling": "200607", "deductibility": "1", "assets": 0, "income": 0, "revenue": 0}, {"ein": "208523557", "name": "TOTAL INTEGRATED PROGRAMS ANDSERVICES INC", "city": "OZONE PARK", "state": "NY", "zip": "11416-1832", "ntee": "B60", "ruling": "200902", "deductibility": "1", "assets": 0, "income": 0, "revenue": 0}, {"ein": "261346241", "name": "TOTAL SENIOR CARE INC", "city": "ALLEGANY", "state": "NY", "zip": "14706-1318", "ntee": "E90", "ruling": "200806", "deductibility": "1", "assets": 19267484, "income": 16085378, "revenue": 16085378}, {"ein": "451000110", "name": "TOTAL BREAKTHROUGH INC", "city": "TONAWANDA", "state": "NY", "zip": "14150-4633", "ntee": "T12", "ruling": "201503", "deductibility": "1", "assets": 0, "income": 0, "revenue": 0}, {"ein": "455259765", "name": "TOTAL REDEMPTION MINISTRIES", "city": "BRONX", "state": "NY", "zip": "10461-2341", "ntee": "X20", "ruling": "202112", "deductibility": "1", "assets": 0, "income": 0, "revenue": 0}, {"ein": "810876721", "name": "R A I N TOTAL CARE INC", "city": "BRONX", "state": "NY", "zip": "10462-3605", "ntee": "P02", "ruling": "201704", "deductibility": "1", "assets": 755770, "income": 2057444, "revenue": 2057444}, {"ein": "821721725", "name": "TOTAL PACKAGE SPORTS INC", "city": "BUFFALO", "state": "NY", "zip": "14208-2527", "ntee": "O50", "ruling": "202102", "deductibility": "1", "assets": 0, "income": 0, "revenue": 0}, {"ein": "852763488", "name": "TOTAL EQUITY NOW INC", "city": "NEW YORK", "state": "NY", "zip": "10026-3618", "ntee": "B01", "ruling": "202202", "deductibility": "1", "assets": 0, "income": 0, "revenue": 0}], "TWITCHELL": [{"ein": "202974444", "name": "TAMMY TWITCHELL CRAFTS FOUNDATION INC", "city": "CASSVILLE", "state": "NY", "zip": "13318-1315", "ntee": "P60", "ruling": "200601", "deductibility": "1", "assets": 0, "income": 0, "revenue": 0}], "SNAP": [{"ein": "203322730", "name": "CENTRAL NEW YORK SPAY NEUTER ASSISTANCE PROGRAM CNY SNAP", "city": "CORTLAND", "state": "NY", "zip": "13045-2312", "ntee": "D20", "ruling": "200605", "deductibility": "1", "assets": 122055, "income": 428484, "revenue": 428484}, {"ein": "461456997", "name": "SNAP OF CENTRAL OHIO", "city": "SCARSDALE", "state": "NY", "zip": "10583-0000", "ntee": "D20", "ruling": "201406", "deductibility": "1", "assets": 0, "income": 0, "revenue": 0}], "ASSOCIATIONOF": [{"ein": "208437242", "name": "ITALIAN AMERICAN SPORTS ASSOCIATIONOF ROCHESTER INC", "city": "ROCHESTER", "state": "NY", "zip": "14624-1824", "ntee": "N50", "ruling": "201408", "deductibility": "2", "assets": 212120, "income": 471058, "revenue": 161498}, {"ein": "260893800", "name": "KOREAN-AMERICAN PARENTS ASSOCIATIONOF GREATER NEW YORK INC", "city": "FLUSHING", "state": "NY", "zip": "11354-4956", "ntee": "O50", "ruling": "200908", "deductibility": "1", "assets": 33783, "income": 55075, "revenue": 55075}], "RICCIARDI": [{"ein": "208588135", "name": "RICCIARDI FAMILY FOUNDATION", "city": "BRIARCLIFF", "state": "NY", "zip": "10510-2553", "ntee": "T22", "ruling": "200707", "deductibility": "1", "assets": 237674, "income": 121328, "revenue": 0}], "LEPROSY": [{"ein": "222066044", "name": "DAMIEN-DUTTON SOCIETY FOR LEPROSY AID", "city": "BELLMORE", "state": "NY", "zip": "11710-4622", "ntee": "", "ruling": "197509", "deductibility": "1", "assets": 3261941, "income": 1760172, "revenue": 265171}, {"ein": "815239519", "name": "MISSION TO END LEPROSY INC", "city": "NEW YORK", "state": "NY", "zip": "10019-4702", "ntee": "G12", "ruling": "201710", "deductibility": "1", "assets": 0, "income": 0, "revenue": 0}], "ENAMEL": [{"ein": "223252782", "name": "ENAMEL GUILD-NORTH EAST INC", "city": "BROOKLYN", "state": "NY", "zip": "11226-1063", "ntee": "A40", "ruling": "201704", "deductibility": "1", "assets": 0, "income": 0, "revenue": 0}], "MIKVE": [{"ein": "223765784", "name": "MIKVE TAHARE DIVREI CHAIM OF WOODBURN", "city": "BROOKLYN", "state": "NY", "zip": "11211-8036", "ntee": "X30", "ruling": "200102", "deductibility": "1", "assets": 0, "income": 0, "revenue": 0}], "DESAKMAR": [{"ein": "223980247", "name": "VAYOEL MOSHE DESAKMAR BENEI BRAK", "city": "BROOKLYN", "state": "NY", "zip": "11211-8919", "ntee": "X30", "ruling": "201412", "deductibility": "1", "assets": 0, "income": 0, "revenue": 0}], "PVT": [{"ein": "237304471", "name": "VETERANS FOREIGN WARS UNITED STATES DEPT NY 666 PVT WILLIAM B WILSON", "city": "BEACON", "state": "NY", "zip": "12508-3303", "ntee": "", "ruling": "197210", "deductibility": "1", "assets": 0, "income": 0, "revenue": 0}], "MASSONS": [{"ein": "237579117", "name": "PULASKI LODGE 415 FREE AND ACCEPTED MASSONS", "city": "PULASKI", "state": "NY", "zip": "13142-4433", "ntee": "Y42", "ruling": "201805", "deductibility": "2", "assets": 0, "income": 0, "revenue": 0}], "SANTMAN": [{"ein": "237984132", "name": "WINIFRED M SANTMAN TR UA", "city": "BUFFALO", "state": "NY", "zip": "14240-1504", "ntee": "T20", "ruling": "200611", "deductibility": "1", "assets": 126077, "income": 33786, "revenue": 0}], "PINSTRIPE": [{"ein": "260216666", "name": "PROJECT PINSTRIPE INC", "city": "RYE", "state": "NY", "zip": "10580-1132", "ntee": "P50", "ruling": "202309", "deductibility": "1", "assets": 300, "income": 980, "revenue": 980}], "HATZEDEK": [{"ein": "262279933", "name": "AISHEL HATZEDEK", "city": "BROOKLYN", "state": "NY", "zip": "11204-2143", "ntee": "Q123", "ruling": "200912", "deductibility": "1", "assets": 31976, "income": 35001, "revenue": 0}, {"ein": "844350213", "name": "KHAL LINATH HATZEDEK", "city": "BROOKLYN", "state": "NY", "zip": "11218-3560", "ntee": "X30", "ruling": "202506", "deductibility": "1", "assets": 0, "income": 0, "revenue": 0}, {"ein": "933539346", "name": "CONG KHAL LINATH HATZEDEK", "city": "BROOKLYN", "state": "NY", "zip": "11218-3560", "ntee": "X30", "ruling": "202404", "deductibility": "1", "assets": 0, "income": 0, "revenue": 0}], "BHANTAL": [{"ein": "263409225", "name": "POTTAL FII BHANTAL FOUTA DJALLON", "city": "BRONX", "state": "NY", "zip": "10456-1160", "ntee": "P84", "ruling": "201008", "deductibility": "1", "assets": 24513, "income": 44811, "revenue": 44811}, {"ein": "883754341", "name": "BHANTAL KANKALABE USA", "city": "NEW YORK", "state": "NY", "zip": "10455-4706", "ntee": "B01", "ruling": "202209", "deductibility": "1", "assets": 0, "income": 0, "revenue": 0}], "CHAMELEON": [{"ein": "263793632", "name": "CHORAL CHAMELEON INC", "city": "NEW YORK", "state": "NY", "zip": "10023-6083", "ntee": "A6B", "ruling": "200910", "deductibility": "1", "assets": 5456, "income": 206188, "revenue": 206188}], "MAUDE": [{"ein": "266439325", "name": "MAUDE E LESHER TUW", "city": "BUFFALO", "state": "NY", "zip": "14240-1504", "ntee": "T22", "ruling": "200906", "deductibility": "1", "assets": 390881, "income": 128057, "revenue": 0}, {"ein": "463917869", "name": "UGLY AND MAUDE CHIEN FOUNDATION FOR CHILDREN OF THE WORLD INC", "city": "AMITYVILLE", "state": "NY", "zip": "11701-2751", "ntee": "E99", "ruling": "201405", "deductibility": "1", "assets": 15965, "income": 38706, "revenue": 0}], "HAM": [{"ein": "270420095", "name": "VOLUNTEER & EXEMPT FIREMENS BENEVOLENT ASSOCIATION OF TOWN HAM", "city": "HAMLIN", "state": "NY", "zip": "14464-9000", "ntee": "M60", "ruling": "200910", "deductibility": "1", "assets": 0, "income": 0, "revenue": 0}, {"ein": "816900905", "name": "JOHN B HAM AND JOAN C HAM VET TR", "city": "SCHENECTADY", "state": "NY", "zip": "12325-0633", "ntee": "D40", "ruling": "201611", "deductibility": "1", "assets": 1605, "income": 7000, "revenue": 0}], "ASMATICHICOS": [{"ein": "272103470", "name": "ASMATICHICOS", "city": "FRESH MEADOWS", "state": "NY", "zip": "11365-4236", "ntee": "E86", "ruling": "201101", "deductibility": "1", "assets": 0, "income": 0, "revenue": 0}], "PROVEERA": [{"ein": "272444127", "name": "IGLESIA PENTECOSTAL DIOS PROVEERA", "city": "SCHENECTADY", "state": "NY", "zip": "12304-2708", "ntee": "X21", "ruling": "201501", "deductibility": "1", "assets": 494492, "income": 135784, "revenue": 135784}], "NYEEI": [{"ein": "311696826", "name": "NYEEI HOUSING COMPANY INC", "city": "NEW YORK", "state": "NY", "zip": "10003-0000", "ntee": "S47", "ruling": "200004", "deductibility": "2", "assets": 463899, "income": 0, "revenue": 0}, {"ein": "923377824", "name": "SAVE NYEEI INCORPORATED", "city": "LARCHMONT", "state": "NY", "zip": "10538-3206", "ntee": "G41", "ruling": "202309", "deductibility": "1", "assets": 0, "income": 0, "revenue": 0}], "STRIPES": [{"ein": "311731906", "name": "HEALED BY HIS STRIPES MINISTRY", "city": "YONKERS", "state": "NY", "zip": "10704-1725", "ntee": "X212", "ruling": "200101", "deductibility": "1", "assets": 0, "income": 0, "revenue": 0}, {"ein": "881602438", "name": "STRIPES CHARITABLE FOUNDATION", "city": "NEW YORK", "state": "NY", "zip": "10014-0000", "ntee": "T20", "ruling": "202208", "deductibility": "1", "assets": 62002, "income": 51962, "revenue": 0}], "WFCF": [{"ein": "332406854", "name": "WFCF INC", "city": "FLUSHING", "state": "NY", "zip": "11367-2322", "ntee": "T20", "ruling": "202507", "deductibility": "1", "assets": 0, "income": 0, "revenue": 0}], "LYNRA": [{"ein": "333531664", "name": "LYNRA FOUNDATION", "city": "FLUSHING", "state": "NY", "zip": "11375-1055", "ntee": "A23", "ruling": "202503", "deductibility": "1", "assets": 0, "income": 0, "revenue": 0}], "PHLANTHROPIC": [{"ein": "364592636", "name": "WORLDWIDE PHLANTHROPIC GROUP INC", "city": "BROOKLYN", "state": "NY", "zip": "11235-7135", "ntee": "T12", "ruling": "200709", "deductibility": "1", "assets": 0, "income": 0, "revenue": 0}], "SHVIL": [{"ein": "371764910", "name": "MECHON SHVIL HAZOHOV INC", "city": "SUFFERN", "state": "NY", "zip": "10901-3942", "ntee": "B30", "ruling": "201412", "deductibility": "1", "assets": 0, "income": 0, "revenue": 0}, {"ein": "843240427", "name": "SHVIL HATORAH", "city": "BROOKLYN", "state": "NY", "zip": "11211-8031", "ntee": "X30", "ruling": "202001", "deductibility": "1", "assets": 0, "income": 0, "revenue": 0}, {"ein": "882334128", "name": "SHVIL HACHESED", "city": "BROOKLYN", "state": "NY", "zip": "11211-7181", "ntee": "X30", "ruling": "202210", "deductibility": "1", "assets": 0, "income": 0, "revenue": 0}], "STUFF": [{"ein": "383819908", "name": "TLC & STUFF INC", "city": "SKANEATELES", "state": "NY", "zip": "13152-8804", "ntee": "P60", "ruling": "201104", "deductibility": "1", "assets": 0, "income": 0, "revenue": 0}, {"ein": "462195564", "name": "KIDS STUFF INC", "city": "CHESTER", "state": "NY", "zip": "10918-1332", "ntee": "Z99", "ruling": "201407", "deductibility": "1", "assets": 0, "income": 0, "revenue": 0}], "PAER": [{"ein": "384025298", "name": "CONG PAER MESHULOM TASH", "city": "BROOKLYN", "state": "NY", "zip": "11211-7732", "ntee": "X30", "ruling": "201709", "deductibility": "1", "assets": 0, "income": 0, "revenue": 0}], "BILITZ": [{"ein": "412257084", "name": "CONGREGATION SDEI YITZCOK OF BILITZ INC", "city": "MONSEY", "state": "NY", "zip": "10952-2309", "ntee": "X30", "ruling": "200911", "deductibility": "1", "assets": 0, "income": 0, "revenue": 0}], "AMERIQUES": [{"ein": "452960043", "name": "BALLET DES AMERIQUES SCHOOL & COMPANY INC", "city": "WHITE PLAINS", "state": "NY", "zip": "10601-3315", "ntee": "A62", "ruling": "201309", "deductibility": "1", "assets": 21119, "income": 224755, "revenue": 224755}], "STUDENTSFIRST": [{"ein": "454296699", "name": "STUDENTSFIRST NEW YORK INC", "city": "NEW YORK", "state": "NY", "zip": "10001-5054", "ntee": "R010", "ruling": "201410", "deductibility": "1", "assets": 2714869, "income": 2626186, "revenue": 2626186}, {"ein": "461837043", "name": "STUDENTSFIRST NEW YORK ADVOCACY INC", "city": "NEW YORK", "state": "NY", "zip": "10003-1502", "ntee": "B01", "ruling": "201507", "deductibility": "2", "assets": 1332656, "income": 2100000, "revenue": 2100000}, {"ein": "820696658", "name": "STUDENTSFIRST NEW YORK INSTITUTE", "city": "NEW YORK", "state": "NY", "zip": "10003-1502", "ntee": "T30", "ruling": "201805", "deductibility": "1", "assets": 1512694, "income": 300000, "revenue": 300000}], "INTERDAM": [{"ein": "454461248", "name": "KAHAL INTERDAM INC", "city": "BROOKLYN", "state": "NY", "zip": "11204-1405", "ntee": "X30", "ruling": "201307", "deductibility": "1", "assets": 0, "income": 0, "revenue": 0}], "ACCELERATION": [{"ein": "460762002", "name": "THE ACCELERATION PROJECT INC", "city": "SCARSDALE", "state": "NY", "zip": "10583-0335", "ntee": "S40", "ruling": "201401", "deductibility": "1", "assets": 2868264, "income": 2247047, "revenue": 2221431}, {"ein": "881711640", "name": "GENERATION ACCELERATION", "city": "NEW YORK", "state": "NY", "zip": "10001-2538", "ntee": "P20", "ruling": "202206", "deductibility": "1", "assets": 0, "income": 0, "revenue": 0}, {"ein": "933296838", "name": "CENTER FOR INTERNATIONAL BUSINESS ACCELERATION", "city": "BINGHAMTON", "state": "NY", "zip": "13903-0031", "ntee": "J02", "ruling": "202312", "deductibility": "1", "assets": 0, "income": 0, "revenue": 0}], "WOODTURNERS": [{"ein": "461173377", "name": "LONG ISLAND WOODTURNERS ASSOCIATION INC", "city": "PATCHOGUE", "state": "NY", "zip": "11772-1087", "ntee": "B99", "ruling": "201405", "deductibility": "1", "assets": 0, "income": 0, "revenue": 0}], "PASSLOF": [{"ein": "462671574", "name": "MILTON RESNICK AND PAT PASSLOF FOUNDATION", "city": "NEW YORK", "state": "NY", "zip": "10002-5201", "ntee": "A50", "ruling": "201408", "deductibility": "1", "assets": 22684536, "income": 2226096, "revenue": 0}], "INNOVATEEDU": [{"ein": "463636238", "name": "INNOVATEEDU INC", "city": "BROOKLYN", "state": "NY", "zip": "11202-5796", "ntee": "B90", "ruling": "201408", "deductibility": "1", "assets": 4628746, "income": 3113100, "revenue": 3113100}], "RHOW": [{"ein": "463788680", "name": "RHOW BROOKLYN INC", "city": "BROOKLYN", "state": "NY", "zip": "11217-1011", "ntee": "X20", "ruling": "201407", "deductibility": "1", "assets": 0, "income": 0, "revenue": 0}], "KIARA": [{"ein": "463949419", "name": "NELSON KOKO KIARA MEMORIAL EDUCATION FOUNDATION", "city": "SCARSDALE", "state": "NY", "zip": "10583-2317", "ntee": "B12", "ruling": "201602", "deductibility": "1", "assets": 0, "income": 0, "revenue": 0}], "GADMAN": [{"ein": "464699624", "name": "BRONEY G GADMAN FOUNDATION INC", "city": "MEDFORD", "state": "NY", "zip": "11763-0402", "ntee": "G50", "ruling": "201606", "deductibility": "1", "assets": 0, "income": 0, "revenue": 0}], "SHINSHU": [{"ein": "465109759", "name": "JODO-SHINSHU SHIN-BUDDHIST NEW YORK SANGHA INC", "city": "NEW YORK", "state": "NY", "zip": "10113-0103", "ntee": "X50", "ruling": "201509", "deductibility": "2", "assets": 0, "income": 0, "revenue": 0}], "DANG": [{"ein": "465686937", "name": "PHAP DANG MEDITATION CENTER INC", "city": "ROCHESTER", "state": "NY", "zip": "14626-3452", "ntee": "X50", "ruling": "201410", "deductibility": "1", "assets": 0, "income": 0, "revenue": 0}, {"ein": "842895286", "name": "TINH XA MINH DANG QUANG INC", "city": "SYRACUSE", "state": "NY", "zip": "13208-1619", "ntee": "X50", "ruling": "202109", "deductibility": "1", "assets": 0, "income": 0, "revenue": 0}], "DELLAFERA": [{"ein": "466462018", "name": "FRANK AND JANET DELLAFERA FAMILY FOUNDATION TR", "city": "LOCUST VALLEY", "state": "NY", "zip": "11560-1833", "ntee": "T20", "ruling": "201302", "deductibility": "1", "assets": 3081252, "income": 2182264, "revenue": 0}], "SASHAKTI": [{"ein": "472414375", "name": "SASHAKTI EMPOWERING PEOPLE INC", "city": "BRONX", "state": "NY", "zip": "10461-1106", "ntee": "P20", "ruling": "202305", "deductibility": "1", "assets": 0, "income": 0, "revenue": 0}], "HASHOMAYIM": [{"ein": "472704696", "name": "CONG METAR HASHOMAYIM DBA TORAS MOSHE", "city": "MONSEY", "state": "NY", "zip": "10952-2755", "ntee": "X30", "ruling": "201505", "deductibility": "1", "assets": 0, "income": 0, "revenue": 0}], "MIRSARAI": [{"ein": "473701081", "name": "MIRSARAI ASSOCIATION USA INC", "city": "BROOKLYN", "state": "NY", "zip": "11218-3879", "ntee": "S80", "ruling": "202001", "deductibility": "1", "assets": 0, "income": 0, "revenue": 0}, {"ein": "842630165", "name": "MIRSARAI ASSOCIATION USA-NA INC", "city": "BROOKLYN", "state": "NY", "zip": "11218-2304", "ntee": "S21", "ruling": "202103", "deductibility": "1", "assets": 12457, "income": 16716, "revenue": 16716}], "FINNET": [{"ein": "474125845", "name": "KELLOGG FINNET INC", "city": "NEW ROCHELLE", "state": "NY", "zip": "10804-4316", "ntee": "B11", "ruling": "201510", "deductibility": "1", "assets": 77218, "income": 188000, "revenue": 188000}], "SADHANA": [{"ein": "474205733", "name": "SADHANA-COALITION OF PROGRESSIVE HINDUS", "city": "BROOKLYN", "state": "NY", "zip": "11201-6412", "ntee": "R01", "ruling": "201509", "deductibility": "1", "assets": 0, "income": 0, "revenue": 0}, {"ein": "813760863", "name": "SADHANA DHAM MANDIR", "city": "BROOKLYN", "state": "NY", "zip": "11208-1916", "ntee": "X70", "ruling": "201704", "deductibility": "1", "assets": 0, "income": 0, "revenue": 0}], "AIDEHHC": [{"ein": "474711526", "name": "AIDEHHC CORP", "city": "STATEN ISLAND", "state": "NY", "zip": "10302-2044", "ntee": "P50", "ruling": "202201", "deductibility": "1", "assets": 0, "income": 0, "revenue": 0}], "DOGABILITY": [{"ein": "475438442", "name": "DOGABILITY CENTER INC", "city": "HICKSVILLE", "state": "NY", "zip": "11802-7437", "ntee": "P82", "ruling": "201512", "deductibility": "1", "assets": 0, "income": 0, "revenue": 0}], "AMITA": [{"ein": "475506045", "name": "AMITA GIFT FOUNDATION", "city": "NEW YORK", "state": "NY", "zip": "10005-1519", "ntee": "T20", "ruling": "201701", "deductibility": "1", "assets": 151, "income": 1350, "revenue": 0}], "SCHMUL": [{"ein": "510200288", "name": "CONGREGATION BETH SCHMUL ANSHEI CHUST INC", "city": "BROOKLYN", "state": "NY", "zip": "11219-4201", "ntee": "", "ruling": "197609", "deductibility": "1", "assets": 0, "income": 0, "revenue": 0}], "TOMBROS": [{"ein": "522284151", "name": "TOMBROS FOUNDATION", "city": "ALBANY", "state": "NY", "zip": "12212-5201", "ntee": "T20", "ruling": "200105", "deductibility": "1", "assets": 7633310, "income": 2765780, "revenue": 0}], "ALO": [{"ein": "811705205", "name": "ALO INTERNATIONAL", "city": "BUFFALO", "state": "NY", "zip": "14216-2136", "ntee": "Q30", "ruling": "201607", "deductibility": "1", "assets": 0, "income": 0, "revenue": 0}, {"ein": "882326737", "name": "PROTHOM ALO FOUNDATION INC", "city": "JACKSON HTS", "state": "NY", "zip": "11372-6218", "ntee": "P20", "ruling": "202303", "deductibility": "1", "assets": 1, "income": 1, "revenue": 0}, {"ein": "934818161", "name": "ALO AYITI LTD", "city": "CLIFTON PARK", "state": "NY", "zip": "12065-7989", "ntee": "K20", "ruling": "202405", "deductibility": "1", "assets": 0, "income": 0, "revenue": 0}], "BECCA": [{"ein": "813786834", "name": "RIDE FOR BECCA", "city": "MANORVILLE", "state": "NY", "zip": "11949-1618", "ntee": "N69", "ruling": "201705", "deductibility": "1", "assets": 38248, "income": 20480, "revenue": 20480}], "ZAGUATES": [{"ein": "814423251", "name": "TERRITORIO DE ZAGUATES INC", "city": "GREENVALE", "state": "NY", "zip": "11548-0112", "ntee": "D19", "ruling": "201706", "deductibility": "1", "assets": 73513, "income": 1092201, "revenue": 1092201}], "COVILLA": [{"ein": "814546759", "name": "COVILLA LYNCH FOUNDATION INC", "city": "NEW YORK", "state": "NY", "zip": "10025-4912", "ntee": "T20", "ruling": "201805", "deductibility": "1", "assets": 518192, "income": 445863, "revenue": 0}], "NEVENDING": [{"ein": "821616011", "name": "NEVENDING TUTORING SERVICES INC", "city": "STATEN ISLAND", "state": "NY", "zip": "10304-3723", "ntee": "O50", "ruling": "201712", "deductibility": "1", "assets": 0, "income": 0, "revenue": 0}], "YPC": [{"ein": "822090183", "name": "YPC NATIONAL INC", "city": "NEW YORK", "state": "NY", "zip": "10023-6610", "ntee": "A6B", "ruling": "201802", "deductibility": "1", "assets": 929543, "income": 102649, "revenue": 102649}], "INVENTORS": [{"ein": "822401198", "name": "LEAGUE OF YOUNG INVENTORS INC", "city": "BROOKLYN", "state": "NY", "zip": "11215-5011", "ntee": "B01", "ruling": "201910", "deductibility": "1", "assets": 12845, "income": 246086, "revenue": 246086}, {"ein": "844030524", "name": "MODERN BLACK INVENTORS FUND", "city": "HIGLAND MILLS", "state": "NY", "zip": "10930-0000", "ntee": "O50", "ruling": "202005", "deductibility": "1", "assets": 0, "income": 0, "revenue": 0}], "EO": [{"ein": "822629711", "name": "EO NERVE INC", "city": "BUFFALO", "state": "NY", "zip": "14225-5503", "ntee": "B60", "ruling": "201802", "deductibility": "1", "assets": 0, "income": 0, "revenue": 0}, {"ein": "853996321", "name": "EO TEACHING INCUBATORS INC", "city": "ITHACA", "state": "NY", "zip": "14850-9700", "ntee": "Q40", "ruling": "202303", "deductibility": "1", "assets": 15773, "income": 8930, "revenue": 0}], "CHOLKHA": [{"ein": "823409103", "name": "REGIONAL NORTH AMERICA U-TSANG CHOLKHA INC", "city": "WOODSIDE", "state": "NY", "zip": "11377-2221", "ntee": "A23", "ruling": "201712", "deductibility": "1", "assets": 0, "income": 0, "revenue": 0}], "ABIGIALS": [{"ein": "830725668", "name": "ABIGIALS CHARITY BARN", "city": "SOMERS", "state": "NY", "zip": "10589-3207", "ntee": "N6A", "ruling": "201905", "deductibility": "1", "assets": 0, "income": 0, "revenue": 0}], "KESE": [{"ein": "832096942", "name": "AKOM KESE PLANNING COMMITTEE INC", "city": "CENTRAL ISLIP", "state": "NY", "zip": "11722-3011", "ntee": "A01", "ruling": "201812", "deductibility": "1", "assets": 0, "income": 0, "revenue": 0}], "REFRAME": [{"ein": "833545207", "name": "REFRAME WORKS INC", "city": "NEW YORK", "state": "NY", "zip": "10001-2538", "ntee": "A25", "ruling": "201904", "deductibility": "1", "assets": 0, "income": 0, "revenue": 0}], "VHATCHINA": [{"ein": "842598589", "name": "CONG GACHELES HATALMUD VHATCHINA INC", "city": "WOODRIDGE", "state": "NY", "zip": "12789-5310", "ntee": "X30", "ruling": "202007", "deductibility": "1", "assets": 0, "income": 0, "revenue": 0}], "CIUDADANA": [{"ein": "844458371", "name": "INICIATIVA CIUDADANA PARA EL CAMBIO CITIZENSHIP INITIATIVE FOR THE CH", "city": "CENTRAL ISLIP", "state": "NY", "zip": "11722-3124", "ntee": "P20", "ruling": "202005", "deductibility": "1", "assets": 0, "income": 0, "revenue": 0}], "WINSOME": [{"ein": "845044723", "name": "WINSOME WISHES FOR KIDS INC", "city": "JAMAICA", "state": "NY", "zip": "11434-3228", "ntee": "O50", "ruling": "202004", "deductibility": "1", "assets": 0, "income": 0, "revenue": 0}], "WIZDUM": [{"ein": "850534136", "name": "THE DRKLG URBAN WIZDUM NETWORK INC", "city": "BRONX", "state": "NY", "zip": "10467-6181", "ntee": "P20", "ruling": "202004", "deductibility": "1", "assets": 0, "income": 0, "revenue": 0}], "SCISQUARE": [{"ein": "850843930", "name": "SCISQUARE INC", "city": "LINDENHURST", "state": "NY", "zip": "11757-5003", "ntee": "B92", "ruling": "202005", "deductibility": "1", "assets": 0, "income": 0, "revenue": 0}], "CLOUDENYC": [{"ein": "850992793", "name": "CLOUDENYC INC", "city": "ASTORIA", "state": "NY", "zip": "11102-2167", "ntee": "A20", "ruling": "202006", "deductibility": "1", "assets": 0, "income": 0, "revenue": 0}], "IMD": [{"ein": "851166595", "name": "IMD ALUMNI NEW YORK INC", "city": "NEW YORK", "state": "NY", "zip": "10025-7041", "ntee": "B84", "ruling": "202006", "deductibility": "1", "assets": 0, "income": 0, "revenue": 0}, {"ein": "994139727", "name": "IMD FOUNDATION INC", "city": "WAPPINGERS FL", "state": "NY", "zip": "12590-1210", "ntee": "A24", "ruling": "202502", "deductibility": "1", "assets": 0, "income": 0, "revenue": 0}], "JBB": [{"ein": "861736664", "name": "BLI METZURIM JBB FAMILY FOUNDATION INC", "city": "MONROE", "state": "NY", "zip": "10950-3825", "ntee": "Z99", "ruling": "202105", "deductibility": "1", "assets": 60528, "income": 1777213, "revenue": 0}], "AIFORGIRLS": [{"ein": "861927068", "name": "AIFORGIRLS CORP", "city": "GREAT NECK", "state": "NY", "zip": "11020-1225", "ntee": "U99", "ruling": "202107", "deductibility": "1", "assets": 0, "income": 0, "revenue": 0}], "NSONGHO": [{"ein": "862712810", "name": "NKA NSONGHO NDA INC", "city": "BROOKLYN", "state": "NY", "zip": "11236-5002", "ntee": "A23", "ruling": "202106", "deductibility": "1", "assets": 0, "income": 0, "revenue": 0}], "KLAF": [{"ein": "863896156", "name": "TEHILLIM ON KLAF TEFILAH INC", "city": "BROOKLYN", "state": "NY", "zip": "11210-3738", "ntee": "X30", "ruling": "202202", "deductibility": "1", "assets": 0, "income": 0, "revenue": 0}], "VOCOLOGY": [{"ein": "871039319", "name": "VOCO VOCOLOGY FOR SINGERS INC", "city": "GREAT NECK", "state": "NY", "zip": "11021-4426", "ntee": "G42", "ruling": "202108", "deductibility": "1", "assets": 0, "income": 0, "revenue": 0}], "SPINECARE": [{"ein": "872229639", "name": "SPINECARE RESEARCH FOUNDATION INC", "city": "GARDEN CITY", "state": "NY", "zip": "11530-0000", "ntee": "G50", "ruling": "202311", "deductibility": "1", "assets": 32680, "income": 10000, "revenue": 10000}], "PEACEABLE": [{"ein": "873321759", "name": "PEACEABLE KINGDOM OF LONG ISLAND INC", "city": "MERRICK", "state": "NY", "zip": "11566-3429", "ntee": "K30", "ruling": "202403", "deductibility": "1", "assets": 1610, "income": 21610, "revenue": 21610}], "BITCOIN": [{"ein": "873631882", "name": "BITCOIN LEGAL DEFENSE FUND", "city": "NEW YORK", "state": "NY", "zip": "10017-3904", "ntee": "I99", "ruling": "202309", "deductibility": "1", "assets": 1954562, "income": 3370353, "revenue": 3334950}], "ALISTIQAMAH": [{"ein": "874456080", "name": "ALISTIQAMAH COMMUNITY CENTER INC", "city": "BROOKLYN", "state": "NY", "zip": "11204-5706", "ntee": "X40", "ruling": "202209", "deductibility": "1", "assets": 5004519, "income": 1208486, "revenue": 1208486}], "METAVERSE": [{"ein": "881150693", "name": "METAVERSE INTERNATIONAL STANDARDIZATION FOUNDATION INC", "city": "ALBANY", "state": "NY", "zip": "12207-1707", "ntee": "U99", "ruling": "202204", "deductibility": "1", "assets": 0, "income": 0, "revenue": 0}], "YERUSHALYAM": [{"ein": "881379044", "name": "KUPAS YERUSHALYAM INC", "city": "BROOKLYN", "state": "NY", "zip": "11219-3011", "ntee": "X30", "ruling": "202204", "deductibility": "1", "assets": 29651, "income": 481755, "revenue": 481755}], "DWIP": [{"ein": "920334389", "name": "DWIP VIKINGS SPORTING CLUB INC", "city": "BROOKLYN", "state": "NY", "zip": "11236-1223", "ntee": "N50", "ruling": "202403", "deductibility": "1", "assets": 0, "income": 0, "revenue": 0}], "TMOP": [{"ein": "920900329", "name": "TMOP - THE MINISTRY OF THE PSALMIST", "city": "ASTORIA", "state": "NY", "zip": "11105-1460", "ntee": "A25", "ruling": "202505", "deductibility": "1", "assets": 0, "income": 0, "revenue": 0}], "GPYN": [{"ein": "921187822", "name": "GPYN FOUNDATION INC", "city": "NEW YORK", "state": "NY", "zip": "10004-1375", "ntee": "T99", "ruling": "202306", "deductibility": "1", "assets": 16963, "income": 271497, "revenue": 0}], "USENTA": [{"ein": "921294620", "name": "USENTA-UNITED STATES EQUINE NATIONAL TREASURE ASSOCIATION INC", "city": "ALBANY", "state": "NY", "zip": "12207-2834", "ntee": "P12", "ruling": "202301", "deductibility": "1", "assets": 0, "income": 0, "revenue": 0}], "SOX": [{"ein": "922256196", "name": "KENT WHITE SOX TRAVEL BASEBALL LEAGUE INC", "city": "STORMVILLE", "state": "NY", "zip": "12582-0000", "ntee": "N63", "ruling": "202303", "deductibility": "1", "assets": 0, "income": 0, "revenue": 0}], "CONSENT": [{"ein": "931600332", "name": "SCHOOLS CONSENT PROJECT", "city": "BROOKLYN", "state": "NY", "zip": "11231-4740", "ntee": "I73", "ruling": "202401", "deductibility": "1", "assets": 127021, "income": 337878, "revenue": 237328}, {"ein": "933995463", "name": "BLACK INTIMACY CONSENT COLLECTIVE", "city": "NEW YORK", "state": "NY", "zip": "10039-1528", "ntee": "P20", "ruling": "202402", "deductibility": "1", "assets": 0, "income": 0, "revenue": 0}], "SEDONA": [{"ein": "932687981", "name": "SEDONA CLUB INC", "city": "NEW YORK", "state": "NY", "zip": "10014-3605", "ntee": "N50", "ruling": "202402", "deductibility": "2", "assets": 0, "income": 0, "revenue": 0}], "VICTIMAS": [{"ein": "933684235", "name": "VICTIMAS DIRECTAS", "city": "BRONX", "state": "NY", "zip": "10455-4670", "ntee": "S81", "ruling": "202310", "deductibility": "1", "assets": 0, "income": 0, "revenue": 0}], "ECOM": [{"ein": "934715656", "name": "ECOM EMPIRE LEADERS", "city": "NEW YORK", "state": "NY", "zip": "10016-2817", "ntee": "E60", "ruling": "202505", "deductibility": "1", "assets": 0, "income": 0, "revenue": 0}], "HARDISON": [{"ein": "992845977", "name": "BETHANN HARDISON FOUNDATION INC", "city": "NEW YORK", "state": "NY", "zip": "10003-1811", "ntee": "A30", "ruling": "202502", "deductibility": "1", "assets": 0, "income": 0, "revenue": 0}], "HASHIVEINI": [{"ein": "994949762", "name": "HASHIVEINI INC", "city": "SPRING VALLEY", "state": "NY", "zip": "10977-2501", "ntee": "P20", "ruling": "202409", "deductibility": "1", "assets": 0, "income": 0, "revenue": 0}]}