{"RESORT": [{"ein": "010769760", "name": "COURT OF LAST RESORT", "city": "NEW YORK", "state": "NY", "zip": "10040-3913", "ntee": "I50", "ruling": "200311", "deductibility": "1", "assets": 0, "income": 0, "revenue": 0}, {"ein": "134158531", "name": "LAST RESORT FOUNDATION", "city": "NEW YORK", "state": "NY", "zip": "10036-0000", "ntee": "T20", "ruling": "200105", "deductibility": "1", "assets": 400278, "income": 107810, "revenue": 0}, {"ein": "900619351", "name": "COMMITTEE FOR CATSKILL RESORT MUSEUM INC", "city": "ELLENVILLE", "state": "NY", "zip": "12428-0045", "ntee": "A54", "ruling": "201102", "deductibility": "1", "assets": 683740, "income": 518106, "revenue": 470423}], "OLIVE": [{"ein": "020544335", "name": "MOUNT OLIVE EVANGELICAL CHURCH INC", "city": "BROOKLYN", "state": "NY", "zip": "11203-3621", "ntee": "X20", "ruling": "200310", "deductibility": "1", "assets": 0, "income": 0, "revenue": 0}, {"ein": "043642687", "name": "MT OLIVE HOUSE OF PRAYER INC", "city": "JAMAICA", "state": "NY", "zip": "11434-5524", "ntee": "X21", "ruling": "200309", "deductibility": "1", "assets": 0, "income": 0, "revenue": 0}, {"ein": "112466594", "name": "MOUNT OLIVE PENTECOSTAL CHURCH OF FAITH INC", "city": "BROOKLYN", "state": "NY", "zip": "11203-3409", "ntee": "", "ruling": "198404", "deductibility": "1", "assets": 0, "income": 0, "revenue": 0}, {"ein": "112519827", "name": "MOUNT OLIVE BAPTIST CHURCH", "city": "MEDFORD", "state": "NY", "zip": "11763-0158", "ntee": "X20", "ruling": "202008", "deductibility": "1", "assets": 0, "income": 0, "revenue": 0}, {"ein": "113119031", "name": "MT OLIVE HOLINESS CHURCH INC", "city": "BROOKLYN", "state": "NY", "zip": "11207-1303", "ntee": "X20", "ruling": "202011", "deductibility": "1", "assets": 0, "income": 0, "revenue": 0}, {"ein": "113121245", "name": "MOUNT OF OLIVE EVANGELICAL CHURCH OF CHRIST", "city": "BROOKLYN", "state": "NY", "zip": "11234-2319", "ntee": "X21", "ruling": "201412", "deductibility": "1", "assets": 0, "income": 0, "revenue": 0}, {"ein": "113130929", "name": "MOUNT OLIVE ZION CHRIST CHURCH INC", "city": "BROOKLYN", "state": "NY", "zip": "11226-1448", "ntee": "X20Z", "ruling": "199505", "deductibility": "1", "assets": 0, "income": 0, "revenue": 0}, {"ein": "113447787", "name": "SECOND PENTECOSTAL CHURCH-GREEN OLIVE INC", "city": "BROOKLYN", "state": "NY", "zip": "11208-2009", "ntee": "X21", "ruling": "199906", "deductibility": "1", "assets": 0, "income": 47390, "revenue": 47390}, {"ein": "113448401", "name": "NEW MOUNT OLIVE BAPTIST CHURCH", "city": "SPRNGFLD GDNS", "state": "NY", "zip": "11413-1455", "ntee": "X99", "ruling": "199905", "deductibility": "1", "assets": 0, "income": 0, "revenue": 0}, {"ein": "133017638", "name": "MOUNT OLIVE CHURCH OF CHRIST", "city": "MOUNT VERNON", "state": "NY", "zip": "10550-0000", "ntee": "", "ruling": "195105", "deductibility": "1", "assets": 0, "income": 0, "revenue": 0}, {"ein": "133635898", "name": "PENTECOSTAL CHURCH MT OLIVE INC", "city": "BRONX", "state": "NY", "zip": "10460-5406", "ntee": "X20Z", "ruling": "199705", "deductibility": "1", "assets": 10000, "income": 73663, "revenue": 73663}, {"ein": "141593701", "name": "HISTORICAL SOCIETY OF THE TOWN OF OLIVE C O FRANK E BECKER", "city": "WEST HURLEY", "state": "NY", "zip": "12491-5619", "ntee": "", "ruling": "197712", "deductibility": "1", "assets": 0, "income": 0, "revenue": 0}, {"ein": "141630454", "name": "MT OLIVE F B H CHURCH OF GOD OF THE AMERICAS AT POUGHKEEPSIE NEW YORK", "city": "POUGHKEEPSIE", "state": "NY", "zip": "12601-4306", "ntee": "", "ruling": "199404", "deductibility": "1", "assets": 0, "income": 0, "revenue": 0}, {"ein": "141771607", "name": "OLIVE FIRE DEPT NO 1 INC", "city": "OLIVEBRIDGE", "state": "NY", "zip": "12461-0309", "ntee": "", "ruling": "199608", "deductibility": "1", "assets": 5498659, "income": 1594662, "revenue": 1594662}, {"ein": "141789233", "name": "OLIVE NATURAL HERITAGE SOCIETY INC", "city": "WEST SHOKAN", "state": "NY", "zip": "12494-5300", "ntee": "C34", "ruling": "199607", "deductibility": "1", "assets": 0, "income": 0, "revenue": 0}, {"ein": "141839419", "name": "EAST MT OLIVE BAPTIST CHURCH", "city": "NEW YORK", "state": "NY", "zip": "10027-3103", "ntee": "X20", "ruling": "200501", "deductibility": "1", "assets": 0, "income": 0, "revenue": 0}, {"ein": "161383945", "name": "MOUNT OLIVE MISSIONARY BAPTIST CHURCH", "city": "LACKAWANNA", "state": "NY", "zip": "14218-1037", "ntee": "X21", "ruling": "201101", "deductibility": "1", "assets": 0, "income": 0, "revenue": 0}, {"ein": "161675988", "name": "MOUNT OLIVE SPIRITUAL FAITH CHURCH INC", "city": "BROOKLYN", "state": "NY", "zip": "11226-6220", "ntee": "X21", "ruling": "201307", "deductibility": "1", "assets": 0, "income": 0, "revenue": 0}, {"ein": "161676205", "name": "MT OLIVE MISSIONERY BAPTIST CHURCH", "city": "GENEVA", "state": "NY", "zip": "14456-1267", "ntee": "X20", "ruling": "202103", "deductibility": "1", "assets": 0, "income": 0, "revenue": 0}, {"ein": "166031200", "name": "MOUNT OLIVE LUTHERAN CHURCH", "city": "LOCKPORT", "state": "NY", "zip": "14094-3429", "ntee": "", "ruling": "194107", "deductibility": "1", "assets": 0, "income": 0, "revenue": 0}, {"ein": "166172701", "name": "OLIVE FREE LIBRARY TRUST UA", "city": "ELMIRA", "state": "NY", "zip": "14902-1522", "ntee": "B70Z", "ruling": "199504", "deductibility": "1", "assets": 3169533, "income": 1188712, "revenue": 213981}, {"ein": "166246961", "name": "SCHUTZ OLIVE WIDER FUND", "city": "BUFFALO", "state": "NY", "zip": "14240-1504", "ntee": "", "ruling": "000000", "deductibility": "0", "assets": 391910, "income": 128559, "revenue": 0}, {"ein": "166373738", "name": "AMERICAN LEGION OLIVE MEMORIAL POST 1627 TR", "city": "SHOKAN", "state": "NY", "zip": "12481-0000", "ntee": "", "ruling": "199209", "deductibility": "2", "assets": 0, "income": 0, "revenue": 0}, {"ein": "222576112", "name": "MT OLIVE BAPTIST CHURCH", "city": "BUFFALO", "state": "NY", "zip": "14215-3015", "ntee": "", "ruling": "199111", "deductibility": "1", "assets": 0, "income": 0, "revenue": 0}, {"ein": "223174819", "name": "MT OLIVE DEVELOPMENT CORP", "city": "BUFFALO", "state": "NY", "zip": "14215-3015", "ntee": "O20", "ruling": "199210", "deductibility": "1", "assets": 2191971, "income": 1068235, "revenue": 1068235}, {"ein": "237209065", "name": "OLIVE FREE LIBRARY ASSOCIATION", "city": "WEST SHOKAN", "state": "NY", "zip": "12494-0059", "ntee": "B71Z", "ruling": "196512", "deductibility": "1", "assets": 658670, "income": 502139, "revenue": 361270}, {"ein": "237289904", "name": "MT OLIVE BAPTIST CHURCH", "city": "MANHASSET", "state": "NY", "zip": "11030-2905", "ntee": "", "ruling": "199301", "deductibility": "1", "assets": 0, "income": 0, "revenue": 0}, {"ein": "237409317", "name": "OLIVE FIRST AID UNIT INC", "city": "SHOKAN", "state": "NY", "zip": "12481-0151", "ntee": "E620", "ruling": "197505", "deductibility": "1", "assets": 736996, "income": 565612, "revenue": 565612}, {"ein": "453181214", "name": "MOUNT OLIVE FELLOWSHIP OF CHURCHES INC", "city": "BROOKLYN", "state": "NY", "zip": "11203-3409", "ntee": "X21", "ruling": "201810", "deductibility": "1", "assets": 0, "income": 0, "revenue": 0}, {"ein": "510474071", "name": "HERBERT N AND OLIVE COHN FAMILY FOUNDATION", "city": "PLAINVIEW", "state": "NY", "zip": "11803-1606", "ntee": "T20", "ruling": "200308", "deductibility": "1", "assets": 850747, "income": 220907, "revenue": 0}, {"ein": "611451888", "name": "MOUNT OLIVE BIBLE INSTITUTE AND SEMINARY INC", "city": "BROOKLYN", "state": "NY", "zip": "11203-3409", "ntee": "B40", "ruling": "201912", "deductibility": "1", "assets": 317769, "income": 186699, "revenue": 186699}, {"ein": "813595768", "name": "IGLESIA CRISTIANA EL OLIVAR CHRISTIAN CHURCH THE OLIVE GROVE", "city": "BRONX", "state": "NY", "zip": "10461-3643", "ntee": "X20", "ruling": "201701", "deductibility": "1", "assets": 0, "income": 0, "revenue": 0}, {"ein": "814008931", "name": "INSTITUTO BIBLICO LA PRENSA DEL OLIVAR THE OLIVE CRUSHER BIBLE INS", "city": "BRONX", "state": "NY", "zip": "10460-3211", "ntee": "X20", "ruling": "201707", "deductibility": "1", "assets": 0, "income": 0, "revenue": 0}, {"ein": "823095284", "name": "THE OLIVE BRANCH INC", "city": "DIX HILLS", "state": "NY", "zip": "11746-7007", "ntee": "X20", "ruling": "202001", "deductibility": "1", "assets": 0, "income": 0, "revenue": 0}, {"ein": "824520634", "name": "MOUNT OLIVE CHAPLAINCY ASSOCIATION", "city": "BROOKLYN", "state": "NY", "zip": "11203-3409", "ntee": "X01", "ruling": "201903", "deductibility": "1", "assets": 0, "income": 0, "revenue": 0}, {"ein": "833086377", "name": "OLIVE TREE BRANCH NYC CORP", "city": "STATEN ISLAND", "state": "NY", "zip": "10314-5958", "ntee": "B02", "ruling": "201904", "deductibility": "1", "assets": 0, "income": 0, "revenue": 0}, {"ein": "842498800", "name": "FRIENDS OF THE OLIVE FREE LIBRARY", "city": "WEST SHOKAN", "state": "NY", "zip": "12494-0059", "ntee": "B11", "ruling": "202104", "deductibility": "1", "assets": 0, "income": 0, "revenue": 0}, {"ein": "933958090", "name": "MOUNT OLIVE CEMETERY ASSOCIATION", "city": "AKRON", "state": "NY", "zip": "14001-0000", "ntee": "Y50", "ruling": "202409", "deductibility": "1", "assets": 0, "income": 0, "revenue": 0}, {"ein": "943465381", "name": "THE OLIVE BRANCH CONNECTION", "city": "SCHENECTADY", "state": "NY", "zip": "12309-2107", "ntee": "X21", "ruling": "200909", "deductibility": "1", "assets": 0, "income": 0, "revenue": 0}], "INDIA": [{"ein": "020579885", "name": "SOLIDARITY AND ACTION AGAINST THE HIV INFECTION IN INDIA INC", "city": "BROOKLYN", "state": "NY", "zip": "11238-4955", "ntee": "H81", "ruling": "200501", "deductibility": "1", "assets": 0, "income": 0, "revenue": 0}, {"ein": "061263084", "name": "INDIA TEMPLE FOUNDATION OF CATSKILL REGION INC", "city": "MIDDLETOWN", "state": "NY", "zip": "10940-1405", "ntee": "X70", "ruling": "202207", "deductibility": "1", "assets": 0, "income": 0, "revenue": 0}, {"ein": "112424734", "name": "MAR THOMA CHURCH OF SOUTH INDIA CONGREGATION OF GREATER NY", "city": "FOREST HILLS", "state": "NY", "zip": "11375-0767", "ntee": "", "ruling": "197708", "deductibility": "1", "assets": 0, "income": 0, "revenue": 0}, {"ein": "112462921", "name": "ST BASELIOS ORTHODOX CHURCH OF INDIA C O T V VARGHESE", "city": "BROOKLYN", "state": "NY", "zip": "11215-3614", "ntee": "", "ruling": "197810", "deductibility": "1", "assets": 0, "income": 0, "revenue": 0}, {"ein": "112468903", "name": "ST GREGORIOS ORTHODOX CHURCH OF INDIA INC", "city": "NORTH VALLEY STREAM", "state": "NY", "zip": "11580-1611", "ntee": "", "ruling": "197901", "deductibility": "1", "assets": 0, "income": 0, "revenue": 0}, {"ein": "112497209", "name": "CHURCH OF SOUTH INDIA MALAYALAM CONGREGATION OF NEW YORK INC", "city": "NEW YORK", "state": "NY", "zip": "10019-3051", "ntee": "", "ruling": "198110", "deductibility": "1", "assets": 0, "income": 0, "revenue": 0}, {"ein": "112539617", "name": "INDIA ASSOCIATION OF LONG ISLAND INC", "city": "HICKSVILLE", "state": "NY", "zip": "11801-4217", "ntee": "A230", "ruling": "198009", "deductibility": "1", "assets": 561022, "income": 129546, "revenue": 129546}, {"ein": "112582693", "name": "INDIA ASSOCIATION OF BUFFALO INC", "city": "WILLIAMSVILLE", "state": "NY", "zip": "14231-0925", "ntee": "A23", "ruling": "201408", "deductibility": "1", "assets": 0, "income": 0, "revenue": 0}, {"ein": "112649598", "name": "CHURCH OF SOUTH INDIA MALAYALAM CONGREGATION OF GREATER NY", "city": "SEAFORD", "state": "NY", "zip": "11783-1610", "ntee": "", "ruling": "198308", "deductibility": "1", "assets": 0, "income": 0, "revenue": 0}, {"ein": "112941611", "name": "INDIA PENTACOSTAL ASSEMBLY INC", "city": "HICKSVILLE", "state": "NY", "zip": "11801-5522", "ntee": "", "ruling": "198903", "deductibility": "1", "assets": 0, "income": 0, "revenue": 0}, {"ein": "113000788", "name": "ST STEPHENS ORTHODOX CHURCH OF INDIA INC", "city": "FRANKLIN SQ", "state": "NY", "zip": "11010-3732", "ntee": "", "ruling": "199210", "deductibility": "1", "assets": 0, "income": 0, "revenue": 0}, {"ein": "113174234", "name": "FOUNDATION FOR THE ADVANCEMENT OF ARTS AND SCIENCES FROM INDIA INC", "city": "FLUSHING", "state": "NY", "zip": "11367-0000", "ntee": "", "ruling": "199310", "deductibility": "1", "assets": 12003, "income": 1, "revenue": 0}, {"ein": "113198837", "name": "CHILDRENS HOPE INDIA INC", "city": "ALBERTSON", "state": "NY", "zip": "11507-1005", "ntee": "Q123", "ruling": "199405", "deductibility": "1", "assets": 4451802, "income": 1438531, "revenue": 1438531}, {"ein": "113206553", "name": "ST THOMAS EVANGELICAL CHURCH OF INDIA", "city": "BLAUVELT", "state": "NY", "zip": "10913-2013", "ntee": "X20Z", "ruling": "199503", "deductibility": "1", "assets": 0, "income": 0, "revenue": 0}, {"ein": "113253408", "name": "THE COUNCIL OF CHURCH OF SOUTH INDIA CONGREGATIONS OF NORTH", "city": "SEAFORD", "state": "NY", "zip": "11783-1610", "ntee": "X20", "ruling": "201907", "deductibility": "1", "assets": 0, "income": 0, "revenue": 0}, {"ein": "113268424", "name": "INDIA PENTECOSTAL CHURCH OF NEW YORK INC", "city": "GLEN OAKS", "state": "NY", "zip": "11004-0336", "ntee": "X20Z", "ruling": "199711", "deductibility": "1", "assets": 0, "income": 0, "revenue": 0}, {"ein": "113280619", "name": "CHURCH OF SOUTH INDIA NEW YORK INC", "city": "S HEMPSTEAD", "state": "NY", "zip": "11550-7823", "ntee": "X20Z", "ruling": "199612", "deductibility": "1", "assets": 0, "income": 0, "revenue": 0}, {"ein": "113478621", "name": "ST THOMAS EVANGELICAL CHURCH OF INDIA QUEENS PARISH", "city": "NEW HYDE PARK", "state": "NY", "zip": "11040-4939", "ntee": "X21", "ruling": "200008", "deductibility": "1", "assets": 0, "income": 0, "revenue": 0}, {"ein": "113488135", "name": "BURDEN FOR INDIA MINISTRIES INC", "city": "RICHMOND HILL", "state": "NY", "zip": "11419-1303", "ntee": "T70", "ruling": "200208", "deductibility": "1", "assets": 0, "income": 0, "revenue": 0}, {"ein": "113579130", "name": "GOSPEL FOR INDIA INC", "city": "ALBERTSON", "state": "NY", "zip": "11507-1803", "ntee": "X20", "ruling": "200407", "deductibility": "1", "assets": 0, "income": 0, "revenue": 0}, {"ein": "132659926", "name": "INDIA CHRISTIAN ASSEMBLY INC", "city": "LEVITTOWN", "state": "NY", "zip": "11756-2342", "ntee": "", "ruling": "197404", "deductibility": "1", "assets": 0, "income": 0, "revenue": 0}, {"ein": "132876713", "name": "INDIA GOSPEL ASSEMBLY INC", "city": "ELMONT", "state": "NY", "zip": "11003-3850", "ntee": "", "ruling": "198002", "deductibility": "1", "assets": 0, "income": 0, "revenue": 0}, {"ein": "133178597", "name": "THE INDIA CATHOLIC ASSOCIATION OF AMERICA INC", "city": "FLORAL PARK", "state": "NY", "zip": "11002-0941", "ntee": "B03", "ruling": "202204", "deductibility": "1", "assets": 0, "income": 0, "revenue": 0}, {"ein": "133517245", "name": "ST GREGORIOS ORTHDOX CHURCH OF INDIA", "city": "BRONX", "state": "NY", "zip": "10471-0178", "ntee": "", "ruling": "198911", "deductibility": "1", "assets": 0, "income": 0, "revenue": 0}, {"ein": "133600738", "name": "CHURCH OF SOUTH INDIA CONGREGATION OF STATEN ISLAND NEW YORK INC", "city": "STATEN ISLAND", "state": "NY", "zip": "10305-3101", "ntee": "", "ruling": "199301", "deductibility": "1", "assets": 0, "income": 0, "revenue": 0}, {"ein": "133845601", "name": "INDIA PENTECOSTAL CHURCH OF GOD OF ROCKLAND INC", "city": "VLY COTTAGE", "state": "NY", "zip": "10989-1327", "ntee": "X20I", "ruling": "199512", "deductibility": "1", "assets": 0, "income": 0, "revenue": 0}, {"ein": "133884456", "name": "INDIA PENTECOASTAL FELLOWSHIP INC", "city": "VLY COTTAGE", "state": "NY", "zip": "10989-0075", "ntee": "X20Z", "ruling": "199612", "deductibility": "1", "assets": 0, "income": 0, "revenue": 0}, {"ein": "133923614", "name": "STJOHNS MALANKARA ORTHODOX CHURCH OF INDIA ROCKLAND INC", "city": "ORANGEBURG", "state": "NY", "zip": "10962-2508", "ntee": "X20", "ruling": "201109", "deductibility": "1", "assets": 0, "income": 0, "revenue": 0}, {"ein": "133928401", "name": "INDIA CENTER OF WESTCHESTER INC", "city": "HAWTHORNE", "state": "NY", "zip": "10532-2207", "ntee": "A99", "ruling": "199706", "deductibility": "1", "assets": 1867622, "income": 237146, "revenue": 237146}, {"ein": "134011425", "name": "ST MARYS ORTHODOX CHURCH OF INDIA", "city": "STATEN ISLAND", "state": "NY", "zip": "10302-1442", "ntee": "X20", "ruling": "199902", "deductibility": "1", "assets": 0, "income": 0, "revenue": 0}, {"ein": "134084319", "name": "ST GEORGE SYRIAN ORTHODOX CHURCH INDIA OF ROCKLAND INC", "city": "NANUET", "state": "NY", "zip": "10954-3017", "ntee": "X70", "ruling": "200902", "deductibility": "1", "assets": 0, "income": 0, "revenue": 0}, {"ein": "134097150", "name": "INDIA HOUSE FOUNDATION", "city": "NEW YORK", "state": "NY", "zip": "10019-0000", "ntee": "A54", "ruling": "200604", "deductibility": "1", "assets": 2546, "income": 1, "revenue": 0}, {"ein": "134159765", "name": "AMERICAN INDIA FOUNDATION", "city": "NEW YORK", "state": "NY", "zip": "10017-4756", "ntee": "M12", "ruling": "200107", "deductibility": "1", "assets": 35714364, "income": 19306571, "revenue": 18013683}, {"ein": "141576128", "name": "TRI-CITY INDIA ASSOCIATION INC", "city": "ALBANY", "state": "NY", "zip": "12205-0476", "ntee": "A230", "ruling": "197601", "deductibility": "1", "assets": 240924, "income": 63457, "revenue": 11822}, {"ein": "161228503", "name": "INDIA RELIGIOUS AND CULTURAL CENTER INC", "city": "SYRACUSE", "state": "NY", "zip": "13224-1651", "ntee": "A230", "ruling": "198501", "deductibility": "1", "assets": 485848, "income": 85531, "revenue": 85531}, {"ein": "161271649", "name": "INDIA CULTURAL CENTRE OF TRIPLE CITIES INC", "city": "VESTAL", "state": "NY", "zip": "13850-0000", "ntee": "", "ruling": "198706", "deductibility": "1", "assets": 455479, "income": 65650, "revenue": 61357}, {"ein": "161286252", "name": "THE MISSION SOCIETY OF SAINT GREGORIOS OF INDIA", "city": "MUTTONTOWN", "state": "NY", "zip": "11791-9621", "ntee": "", "ruling": "199003", "deductibility": "1", "assets": 0, "income": 0, "revenue": 0}, {"ein": "161467736", "name": "SOUTHERN TIER INDIA CULTURAL ASSOCIATION", "city": "HORSEHEADS", "state": "NY", "zip": "14845-1168", "ntee": "P20", "ruling": "200812", "deductibility": "1", "assets": 1, "income": 24232, "revenue": -5485}, {"ein": "200711183", "name": "US INDIA FRIENDSHIP ALLIANCE INC", "city": "NEW YORK", "state": "NY", "zip": "10016-6601", "ntee": "A01", "ruling": "200503", "deductibility": "1", "assets": 2831196, "income": 150979, "revenue": 150979}, {"ein": "200944912", "name": "AMERI FEAST INDIA", "city": "HUNTINGTON", "state": "NY", "zip": "11743-2465", "ntee": "Q30", "ruling": "200501", "deductibility": "1", "assets": 0, "income": 0, "revenue": 0}, {"ein": "202752153", "name": "INDIA CENTER", "city": "NEW YORK", "state": "NY", "zip": "10001-7604", "ntee": "A23", "ruling": "200511", "deductibility": "1", "assets": 0, "income": 0, "revenue": 0}, {"ein": "204367006", "name": "US-INDIA PRAGATI FOUNDATION INC", "city": "NEW YORK", "state": "NY", "zip": "10016-6601", "ntee": "X70", "ruling": "200612", "deductibility": "1", "assets": 15980, "income": 10015, "revenue": 10015}, {"ein": "208747291", "name": "INDIA HOME INC", "city": "JAMAICA", "state": "NY", "zip": "11432-3028", "ntee": "L22", "ruling": "200903", "deductibility": "1", "assets": 12692016, "income": 4213583, "revenue": 4213583}, {"ein": "222317576", "name": "INDIA COMMUNITY CENTER OF ROCHESTER", "city": "MACEDON", "state": "NY", "zip": "14502-9001", "ntee": "S24Z", "ruling": "198012", "deductibility": "1", "assets": 1119105, "income": 248926, "revenue": 248926}, {"ein": "222924486", "name": "INDIA CULTURAL SOCIETY OF ROCKLAND INC", "city": "NANUET", "state": "NY", "zip": "10954-0108", "ntee": "", "ruling": "199504", "deductibility": "2", "assets": 216700, "income": 111649, "revenue": 111649}, {"ein": "236395395", "name": "FUND FOR THE ADVANCEMENT OF EDUCATION IN INDIA INC", "city": "VALHALLA", "state": "NY", "zip": "10595-1639", "ntee": "", "ruling": "196507", "deductibility": "1", "assets": 154837, "income": 6812, "revenue": 0}, {"ein": "320341527", "name": "BETHEL CHURCH OF GOD INDIA", "city": "YONKERS", "state": "NY", "zip": "10701-1926", "ntee": "", "ruling": "197210", "deductibility": "1", "assets": 0, "income": 0, "revenue": 0}, {"ein": "331150405", "name": "ST MARYS ORTHODOX CHURCH OF INDIA", "city": "VLY COTTAGE", "state": "NY", "zip": "10989-0065", "ntee": "X20", "ruling": "201312", "deductibility": "1", "assets": 0, "income": 0, "revenue": 0}, {"ein": "454510160", "name": "INDIA YOUTH FUND", "city": "FRANKLIN SQ", "state": "NY", "zip": "11010-1513", "ntee": "P20", "ruling": "201212", "deductibility": "1", "assets": 208243, "income": 95146, "revenue": 32904}, {"ein": "455361590", "name": "INDIA GROUP CORPORATION", "city": "NEW YORK", "state": "NY", "zip": "10025-0000", "ntee": "Q30", "ruling": "201501", "deductibility": "1", "assets": 51746, "income": 103056, "revenue": 103056}, {"ein": "461158798", "name": "INDIA CULTURAL CENTER OF GREENWICH INC", "city": "BEDFORD HILLS", "state": "NY", "zip": "10507-1834", "ntee": "A23", "ruling": "201312", "deductibility": "1", "assets": 489892, "income": 448857, "revenue": 297425}, {"ein": "464161637", "name": "FRIENDS OF CHABAD OF INDIA INC", "city": "BROOKLYN", "state": "NY", "zip": "11213-3523", "ntee": "X30", "ruling": "201408", "deductibility": "1", "assets": 0, "income": 0, "revenue": 0}, {"ein": "473725301", "name": "FRIENDS OF TEACH FOR INDIA INC", "city": "NEW YORK", "state": "NY", "zip": "10004-1056", "ntee": "B19", "ruling": "201609", "deductibility": "1", "assets": 1681708, "income": 1402496, "revenue": 1397102}, {"ein": "510160068", "name": "INDIA PENTECOSTAL CHURCH INC", "city": "QUEENS VLG", "state": "NY", "zip": "11428-1727", "ntee": "", "ruling": "197507", "deductibility": "1", "assets": 0, "income": 0, "revenue": 0}, {"ein": "510177114", "name": "ST MARYS ORTHODOX CHURCH OF INDIA", "city": "BRONX", "state": "NY", "zip": "10458-2404", "ntee": "", "ruling": "197601", "deductibility": "1", "assets": 0, "income": 0, "revenue": 0}, {"ein": "593833963", "name": "MAITRI INDIA", "city": "NEW YORK", "state": "NY", "zip": "10024-0000", "ntee": "T12", "ruling": "202309", "deductibility": "1", "assets": 0, "income": 0, "revenue": 0}, {"ein": "813255816", "name": "INDIXIA FRIENDS OF ARTS FOR INDIA INC", "city": "NEW YORK", "state": "NY", "zip": "10016-0000", "ntee": "A20", "ruling": "201705", "deductibility": "1", "assets": 1, "income": 0, "revenue": 0}, {"ein": "814586817", "name": "WESTCHESTER MUSIC OF INDIA GROUP INC", "city": "ARDSLEY", "state": "NY", "zip": "10502-2012", "ntee": "A68", "ruling": "201711", "deductibility": "1", "assets": 19057, "income": 33073, "revenue": 0}, {"ein": "824565110", "name": "FOUNDATION FOR SMALL CHARITIES INDIA INC", "city": "HICKSVILLE", "state": "NY", "zip": "11801-4240", "ntee": "T22", "ruling": "201908", "deductibility": "1", "assets": 855105, "income": 57265, "revenue": 0}, {"ein": "825158322", "name": "COUNCIL OF HERITAGE AND ARTS OF INDIA INC", "city": "WILLIAMSVILLE", "state": "NY", "zip": "14221-1745", "ntee": "A23", "ruling": "201809", "deductibility": "1", "assets": 0, "income": 0, "revenue": 0}, {"ein": "843186740", "name": "RISE INDIA NA INC", "city": "TROY", "state": "NY", "zip": "12180-1447", "ntee": "Q12", "ruling": "202007", "deductibility": "1", "assets": 65734, "income": 146469, "revenue": 146469}, {"ein": "863165431", "name": "INDIA CONNECTION MINISTRIES INC", "city": "E ROCHESTER", "state": "NY", "zip": "14445-1710", "ntee": "Q12", "ruling": "202207", "deductibility": "1", "assets": 1292878, "income": 2321632, "revenue": 445244}, {"ein": "873115466", "name": "ZAKAT FOUNDATION OF INDIA INC", "city": "NEW YORK", "state": "NY", "zip": "10021-9274", "ntee": "P12", "ruling": "202201", "deductibility": "1", "assets": 13461, "income": 17195, "revenue": 17195}, {"ein": "900150814", "name": "ASPIRE INDIA INC", "city": "NEW YORK", "state": "NY", "zip": "10268-1501", "ntee": "T30", "ruling": "200502", "deductibility": "1", "assets": 2861567, "income": 956852, "revenue": 956852}, {"ein": "922732844", "name": "PUBLIC ARTS FUND OF INDIA INC", "city": "NEW YORK", "state": "NY", "zip": "10011-2807", "ntee": "A20", "ruling": "202303", "deductibility": "1", "assets": 0, "income": 0, "revenue": 0}, {"ein": "992309856", "name": "CHABAD MANALI INDIA INC", "city": "BROOKLYN", "state": "NY", "zip": "11225-4405", "ntee": "X30", "ruling": "202404", "deductibility": "1", "assets": 0, "income": 0, "revenue": 0}], "RECREATIONAL": [{"ein": "020665897", "name": "YATES CULTURAL & RECREATIONAL RESOURCES INC", "city": "PENN YAN", "state": "NY", "zip": "14527-1069", "ntee": "N30", "ruling": "200302", "deductibility": "1", "assets": 1463469, "income": 460659, "revenue": 460659}, {"ein": "112216237", "name": "HUNTINGTON RECREATIONAL ASSOCIATION INC", "city": "DIX HILLS", "state": "NY", "zip": "11746-0634", "ntee": "", "ruling": "197012", "deductibility": "2", "assets": 605001, "income": 404214, "revenue": 404214}, {"ein": "113124437", "name": "AMERICAN LEGION-KINGS COUNTY YOUTH RECREATIONAL FACILITIES INC", "city": "BROOKLYN", "state": "NY", "zip": "11214-6546", "ntee": "O50", "ruling": "200710", "deductibility": "1", "assets": 370623, "income": 149135, "revenue": 80517}, {"ein": "113168473", "name": "RECREATIONAL INNER CITY SPORTS AND EDUCATION INC", "city": "JAMAICA", "state": "NY", "zip": "11434-2941", "ntee": "A01", "ruling": "201609", "deductibility": "1", "assets": 0, "income": 0, "revenue": 0}, {"ein": "113588899", "name": "FISHERS ISLAND RECREATIONAL PATH FOUNDATION", "city": "FISHERS ISLE", "state": "NY", "zip": "06390-0619", "ntee": "N32", "ruling": "200202", "deductibility": "1", "assets": 2394383, "income": 120193, "revenue": 120193}, {"ein": "116036310", "name": "BRIDGEHAMPTON CHILD CARE & RECREATIONAL CENTER INC", "city": "BRIDGEHAMPTON", "state": "NY", "zip": "11932-1197", "ntee": "P33Z", "ruling": "196807", "deductibility": "1", "assets": 8573238, "income": 1986537, "revenue": 1798359}, {"ein": "133405372", "name": "FABIUS-POMPEY RECREATIONAL ORG", "city": "FABIUS", "state": "NY", "zip": "13063-0007", "ntee": "", "ruling": "199008", "deductibility": "2", "assets": 0, "income": 0, "revenue": 0}, {"ein": "133716944", "name": "STATEN ISLAND RECREATIONAL ASSOCIATION INC", "city": "STATEN ISLAND", "state": "NY", "zip": "10305-0000", "ntee": "T30", "ruling": "200007", "deductibility": "1", "assets": 1, "income": 0, "revenue": 0}, {"ein": "136129014", "name": "NEW YORK POST OFFICE EMPLOYEES RECREATIONAL WELFARE FUND", "city": "NEW YORK", "state": "NY", "zip": "10036-6941", "ntee": "", "ruling": "196207", "deductibility": "2", "assets": 72057, "income": 734, "revenue": 734}, {"ein": "146049020", "name": "RECREATIONAL PARK OF RED HOOK INC", "city": "RED HOOK", "state": "NY", "zip": "12571-0037", "ntee": "", "ruling": "196804", "deductibility": "1", "assets": 389122, "income": 210602, "revenue": 210602}, {"ein": "161294648", "name": "VESTAL RECREATIONAL YOUTH SOCCER ASSOC", "city": "VESTAL", "state": "NY", "zip": "13851-1132", "ntee": "N64", "ruling": "201510", "deductibility": "1", "assets": 12628, "income": 38773, "revenue": 38773}, {"ein": "161330374", "name": "RECREATIONAL VEHICLE DEALERS ASSOCIATION OF SYRACUSE INC", "city": "KIRKVILLE", "state": "NY", "zip": "13082-9462", "ntee": "", "ruling": "198908", "deductibility": "2", "assets": 227942, "income": 578750, "revenue": 578750}, {"ein": "161364081", "name": "ROCHESTER RECREATIONAL SWIM TEAM INC", "city": "ROCHESTER", "state": "NY", "zip": "14618-1045", "ntee": "N67", "ruling": "202110", "deductibility": "1", "assets": 0, "income": 0, "revenue": 0}, {"ein": "161556744", "name": "SKANEATELES RECREATIONAL CHARITABLE TR", "city": "SKANEATELES", "state": "NY", "zip": "13152-1268", "ntee": "O111", "ruling": "199901", "deductibility": "1", "assets": 9495425, "income": 516049, "revenue": 516049}, {"ein": "161571436", "name": "CATO IRA MERIDIAN AREA RECREATIONAL FACILITY INC", "city": "CATO", "state": "NY", "zip": "13033-0261", "ntee": "N31", "ruling": "200805", "deductibility": "1", "assets": 0, "income": 0, "revenue": 0}, {"ein": "166062792", "name": "PATH OF LIFE RECREATIONAL ASSOCIATION INC", "city": "PORT CRANE", "state": "NY", "zip": "13833-1617", "ntee": "", "ruling": "196910", "deductibility": "0", "assets": 431892, "income": 292544, "revenue": 244030}, {"ein": "204853621", "name": "LONG ISLAND RECREATIONAL TRAILSCONSERVANCY", "city": "MIDDLE ISLAND", "state": "NY", "zip": "11953-1949", "ntee": "N31", "ruling": "200802", "deductibility": "1", "assets": 0, "income": 0, "revenue": 0}, {"ein": "223298758", "name": "NEW YORK STATE OFF-HIGHWAY RECREATIONAL VEHICLE ASSOCIATION", "city": "NORTH TONAWANDA", "state": "NY", "zip": "14120-2019", "ntee": "N50", "ruling": "201503", "deductibility": "2", "assets": 0, "income": 0, "revenue": 0}, {"ein": "262505597", "name": "NEW YORK COALITION FOR RECREATIONAL FISHING INC", "city": "EAST ISLIP", "state": "NY", "zip": "11730-2201", "ntee": "S41", "ruling": "200806", "deductibility": "2", "assets": 9227, "income": 12351, "revenue": 12351}, {"ein": "364738524", "name": "FRANKLIN COUNTY RECREATIONAL TRAILS ASSOCIATION INC", "city": "MALONE", "state": "NY", "zip": "12953-9445", "ntee": "N99", "ruling": "201409", "deductibility": "1", "assets": 0, "income": 0, "revenue": 0}, {"ein": "412192239", "name": "YOUTHS ON THE MOVE RECREATIONAL CENTER INC", "city": "BRONX", "state": "NY", "zip": "10470-1022", "ntee": "A62", "ruling": "200708", "deductibility": "1", "assets": 0, "income": 0, "revenue": 0}, {"ein": "454752327", "name": "ADIRONDACK RECREATIONAL TRAIL ADVOCATES", "city": "SARANAC LAKE", "state": "NY", "zip": "12983-1081", "ntee": "A80", "ruling": "201205", "deductibility": "1", "assets": 166317, "income": 154054, "revenue": 154054}, {"ein": "472654143", "name": "AMERICAN RECREATIONAL TRIBE", "city": "JAMAICA", "state": "NY", "zip": "11432-2944", "ntee": "N50", "ruling": "201509", "deductibility": "1", "assets": 0, "income": 0, "revenue": 0}, {"ein": "510673278", "name": "HOLIDAY RAMBLER RECREATIONAL VECHICLE CLUB INC", "city": "WEEDSPORT", "state": "NY", "zip": "13166-9773", "ntee": "N20", "ruling": "200210", "deductibility": "2", "assets": 0, "income": 0, "revenue": 0}], "JONES": [{"ein": "020735167", "name": "NANCY JONES BEARD FOUNDATION", "city": "NEW YORK", "state": "NY", "zip": "10005-0000", "ntee": "T22", "ruling": "200505", "deductibility": "1", "assets": 13054443, "income": 3064281, "revenue": 0}, {"ein": "061600826", "name": "PAUL TUDOR JONES FAMILY FOUNDATION", "city": "NEW YORK", "state": "NY", "zip": "10004-0000", "ntee": "T20", "ruling": "200101", "deductibility": "1", "assets": 4187, "income": 192011, "revenue": 0}, {"ein": "111882498", "name": "JONES MANOR ON THE SOUND", "city": "MELVILLE", "state": "NY", "zip": "11747-0000", "ntee": "L22Z", "ruling": "194210", "deductibility": "1", "assets": 2413419, "income": 211503, "revenue": 83605}, {"ein": "112638083", "name": "FRIENDS OF JONES BEACH INC", "city": "BABYLON", "state": "NY", "zip": "11702-0247", "ntee": "N32", "ruling": "202207", "deductibility": "1", "assets": 5155, "income": 5293, "revenue": 5293}, {"ein": "113299743", "name": "U S JONES H D F C", "city": "BROOKLYN", "state": "NY", "zip": "11233-3464", "ntee": "L20", "ruling": "202104", "deductibility": "1", "assets": 64845, "income": 267330, "revenue": 267330}, {"ein": "134013839", "name": "IRENE & SAMSON JONES III FOUNDATION INC", "city": "NEW YORK", "state": "NY", "zip": "10013-0000", "ntee": "T22", "ruling": "200103", "deductibility": "1", "assets": 133900, "income": 104730, "revenue": 0}, {"ein": "161551806", "name": "JOHN W JONES MUSEUM", "city": "ELMIRA", "state": "NY", "zip": "14902-0932", "ntee": "A500", "ruling": "199810", "deductibility": "1", "assets": 858089, "income": 119538, "revenue": 119538}, {"ein": "166336875", "name": "FRANKLIN L FERO 230303 FERO & JONES MEMORIAL SCHOLARSHIP FUND", "city": "NORWICH", "state": "NY", "zip": "13815-0000", "ntee": "", "ruling": "000000", "deductibility": "0", "assets": 245614, "income": 43466, "revenue": 0}, {"ein": "203932131", "name": "EVAN AND CINDY JONES FOUNDATION", "city": "PURCHASE", "state": "NY", "zip": "10577-0000", "ntee": "T22", "ruling": "200609", "deductibility": "1", "assets": 211389, "income": 515102, "revenue": 0}, {"ein": "222807681", "name": "MEMORIAL HOSPITAL OF WILLIAM F AND GERTRUDE F JONES INC", "city": "WELLSVILLE", "state": "NY", "zip": "14895-1150", "ntee": "E22", "ruling": "198707", "deductibility": "1", "assets": 96754018, "income": 85425818, "revenue": 82693777}, {"ein": "237000227", "name": "DAISY MARQUIS JONES FOUNDATION", "city": "ROCHESTER", "state": "NY", "zip": "14620-3925", "ntee": "", "ruling": "199308", "deductibility": "1", "assets": 46702212, "income": 8932631, "revenue": 0}, {"ein": "237102621", "name": "DANCES WE DANCE INC JONES-LUDIN DANCES WE DANCE CO", "city": "NEW YORK", "state": "NY", "zip": "10019-1548", "ntee": "A62Z", "ruling": "198311", "deductibility": "1", "assets": 0, "income": 0, "revenue": 0}, {"ein": "237120943", "name": "JONES MEMORIAL HOSPITAL AUXILIARY", "city": "WELLSVILLE", "state": "NY", "zip": "14895-1150", "ntee": "", "ruling": "197107", "deductibility": "1", "assets": 0, "income": 0, "revenue": 0}, {"ein": "256734493", "name": "EDITH M JONES TR UW FBO ST ANDREW EPISCOPAL 77052", "city": "BUFFALO", "state": "NY", "zip": "14240-1504", "ntee": "T20", "ruling": "200202", "deductibility": "1", "assets": 353491, "income": 93703, "revenue": 0}, {"ein": "261603933", "name": "JONES FAMILY FOUNDATION", "city": "GARDEN CITY", "state": "NY", "zip": "11530-1650", "ntee": "T21", "ruling": "200804", "deductibility": "1", "assets": 264580, "income": 10845, "revenue": 0}, {"ein": "263948210", "name": "PAOLO PELLEGRINI AND HENRIETTA JONES FOUNDATION", "city": "NEW YORK", "state": "NY", "zip": "10167-0000", "ntee": "T22", "ruling": "200910", "deductibility": "1", "assets": 1153729, "income": 28176, "revenue": 0}, {"ein": "271756118", "name": "DOW JONES FOUNDATION", "city": "NEW YORK", "state": "NY", "zip": "10036-8701", "ntee": "T30", "ruling": "201208", "deductibility": "1", "assets": 59058, "income": 1300000, "revenue": 0}, {"ein": "331659308", "name": "DANA WALLACH JONES AND MICHAEL T M JONES FOUNDATION", "city": "PURCHASE", "state": "NY", "zip": "10577-0000", "ntee": "T20", "ruling": "202412", "deductibility": "1", "assets": 2112474, "income": 4090103, "revenue": 0}, {"ein": "463184622", "name": "ROBERT AND MARJORIE JONES COMMUNITY DEVELOPMENT ORGANIZATION", "city": "SYRACUSE", "state": "NY", "zip": "13202-3837", "ntee": "P99", "ruling": "202302", "deductibility": "1", "assets": 108513, "income": 53822, "revenue": 53822}, {"ein": "465210222", "name": "JONES MEDICAL SERVICES PC", "city": "WELLSVILLE", "state": "NY", "zip": "14895-1150", "ntee": "E30", "ruling": "201409", "deductibility": "1", "assets": 5569268, "income": 2079093, "revenue": 2079093}, {"ein": "473763374", "name": "JONES MEMORIAL HOSPITAL FOUNDATION", "city": "WELLSVILLE", "state": "NY", "zip": "14895-1150", "ntee": "E11", "ruling": "201702", "deductibility": "1", "assets": 3531687, "income": 202754, "revenue": 194430}, {"ein": "760736140", "name": "ISAIAH J JONES MEMORIAL FOUNDATION", "city": "BRONX", "state": "NY", "zip": "10465-3738", "ntee": "P20", "ruling": "200403", "deductibility": "1", "assets": 0, "income": 0, "revenue": 0}, {"ein": "853694764", "name": "VERONICA JONES CORPORATION", "city": "FAR ROCKAWAY", "state": "NY", "zip": "11691-1113", "ntee": "G01", "ruling": "202104", "deductibility": "1", "assets": 0, "income": 0, "revenue": 0}, {"ein": "883698989", "name": "BRITTANY LEE JONES MEMORIAL FUND", "city": "BLOSSVALE", "state": "NY", "zip": "13308-1840", "ntee": "N12", "ruling": "202403", "deductibility": "1", "assets": 11338, "income": 4103, "revenue": 0}, {"ein": "931618266", "name": "BONES JONES FOUNDATION INC", "city": "WHITE PLAINS", "state": "NY", "zip": "10605-6408", "ntee": "N70", "ruling": "202306", "deductibility": "1", "assets": 1, "income": 68186, "revenue": 0}, {"ein": "995013396", "name": "JONES FAMILY-PAY IT FORWARD SCHOLARSHIP INC", "city": "CORAM", "state": "NY", "zip": "11727-3001", "ntee": "T30", "ruling": "202501", "deductibility": "1", "assets": 0, "income": 0, "revenue": 0}], "WORLDWIDE": [{"ein": "030371141", "name": "WOMENS LINK WORLDWIDE INC", "city": "NEW YORK", "state": "NY", "zip": "10005-4301", "ntee": "R99", "ruling": "200110", "deductibility": "1", "assets": 7864506, "income": 6924072, "revenue": 6924072}, {"ein": "030515983", "name": "EVANGELICAL CHURCH CHRIST LIVES IN ME WORLDWIDE MOVEMENT INC", "city": "BRONX", "state": "NY", "zip": "10459-2666", "ntee": "X20", "ruling": "200405", "deductibility": "1", "assets": 0, "income": 0, "revenue": 0}, {"ein": "113036967", "name": "B ABOVE WORLDWIDE INSTITUTE INC", "city": "RICHMOND HILL", "state": "NY", "zip": "11418-1946", "ntee": "", "ruling": "199112", "deductibility": "1", "assets": 0, "income": 0, "revenue": 0}, {"ein": "113208338", "name": "NATIONAL FELLOWSHIP COUNCIL OF CHURCHES WORLDWIDE INC", "city": "BROOKLYN", "state": "NY", "zip": "11233-3025", "ntee": "", "ruling": "199405", "deductibility": "1", "assets": 0, "income": 0, "revenue": 0}, {"ein": "113295013", "name": "CONGREGATION ACHDUS OF THE WORLDWIDE NEW SQUARE COMMUNITY INC", "city": "BROOKLYN", "state": "NY", "zip": "11211-7615", "ntee": "X30Z", "ruling": "199609", "deductibility": "1", "assets": 0, "income": 0, "revenue": 0}, {"ein": "113316225", "name": "WORLDWIDE EVANGELICAL OUTREACH INC", "city": "BROOKLYN", "state": "NY", "zip": "11226-6416", "ntee": "X21I", "ruling": "199611", "deductibility": "1", "assets": 0, "income": 0, "revenue": 0}, {"ein": "113454896", "name": "TABERNACLE OF JOY FELLOWSHIP CHURCHES WORLDWIDE INC", "city": "UNIONDALE", "state": "NY", "zip": "11553-3129", "ntee": "X20", "ruling": "199910", "deductibility": "1", "assets": 0, "income": 0, "revenue": 0}, {"ein": "133497515", "name": "REFUGE CHURCH OF CHRIST BIBLEWAY WORLDWIDE INC OF PEEKSKILL NEW YOR", "city": "PEEKSKILL", "state": "NY", "zip": "10566-2015", "ntee": "X20Z", "ruling": "199808", "deductibility": "1", "assets": 0, "income": 0, "revenue": 0}, {"ein": "133662743", "name": "WORLDWIDE RELIEF ORGANIZATION INC", "city": "NEW YORK", "state": "NY", "zip": "10010-5518", "ntee": "", "ruling": "199209", "deductibility": "1", "assets": 0, "income": 0, "revenue": 0}, {"ein": "133712030", "name": "CONCERN WORLDWIDE U S INC", "city": "NEW YORK", "state": "NY", "zip": "10017-6609", "ntee": "Q300", "ruling": "199306", "deductibility": "1", "assets": 37407798, "income": 89355335, "revenue": 83957773}, {"ein": "133728958", "name": "FAITH MIRACLE TEMPLE OF LOVE DISCIPLES OF CHRIST WORLDWIDE", "city": "MT VERNON", "state": "NY", "zip": "10550-3911", "ntee": "", "ruling": "199404", "deductibility": "1", "assets": 0, "income": 0, "revenue": 0}, {"ein": "133906044", "name": "WORLDWIDE COUNCIL CHRIST THE ETERNAL REFUGE INC", "city": "BRONX", "state": "NY", "zip": "10468-1701", "ntee": "X20Z", "ruling": "199612", "deductibility": "1", "assets": 0, "income": 0, "revenue": 0}, {"ein": "133968225", "name": "WORLDWIDE ORPHANS FOUNDATION", "city": "NEW YORK", "state": "NY", "zip": "10001-7604", "ntee": "B99", "ruling": "199802", "deductibility": "1", "assets": 1347942, "income": 3228681, "revenue": 2194626}, {"ein": "134005723", "name": "WORD OF FAITH MISSION WORLDWIDE INC", "city": "JAMAICA", "state": "NY", "zip": "11435-3623", "ntee": "X20Z", "ruling": "199809", "deductibility": "1", "assets": 0, "income": 0, "revenue": 0}, {"ein": "134040377", "name": "DRESS FOR SUCCESS WORLDWIDE", "city": "NEW YORK", "state": "NY", "zip": "10018-3716", "ntee": "Q320", "ruling": "199907", "deductibility": "1", "assets": 13137291, "income": 15479905, "revenue": 15295821}, {"ein": "134069214", "name": "WORLDWIDE PENTECOSTAL CHURCH OF CHRIST", "city": "STATEN ISLAND", "state": "NY", "zip": "10304-2722", "ntee": "X20", "ruling": "200402", "deductibility": "1", "assets": 0, "income": 0, "revenue": 0}, {"ein": "134149590", "name": "WORLDWIDE MINISTRY THE ROOM OF VICTORY INC", "city": "BRONX", "state": "NY", "zip": "10457-6039", "ntee": "X21", "ruling": "200105", "deductibility": "1", "assets": 0, "income": 0, "revenue": 0}, {"ein": "161453756", "name": "PROLITERACY WORLDWIDE", "city": "BELMONT", "state": "NY", "zip": "14813-0000", "ntee": "", "ruling": "200401", "deductibility": "1", "assets": 0, "income": 0, "revenue": 0}, {"ein": "166076384", "name": "PROLITERACY WORLDWIDE", "city": "SYRACUSE", "state": "NY", "zip": "13204-1653", "ntee": "B92", "ruling": "197311", "deductibility": "1", "assets": 19898483, "income": 13759750, "revenue": 13383137}, {"ein": "200009172", "name": "BY FAITH DELIVERANCE WORLDWIDE MINISTRIES", "city": "HOLLIS", "state": "NY", "zip": "11423-2213", "ntee": "X20", "ruling": "201208", "deductibility": "1", "assets": 0, "income": 0, "revenue": 0}, {"ein": "204238835", "name": "WORLDWIDE BASKETBALL ASSOCIATIONINC", "city": "NEW YORK", "state": "NY", "zip": "10044-0103", "ntee": "N62", "ruling": "202505", "deductibility": "1", "assets": 0, "income": 0, "revenue": 0}, {"ein": "208875698", "name": "EFFIE WORLDWIDE INC", "city": "NEW YORK", "state": "NY", "zip": "10019-3702", "ntee": "S034", "ruling": "201007", "deductibility": "1", "assets": 4495783, "income": 9983020, "revenue": 9983020}, {"ein": "222652768", "name": "WORLDWIDE DOCUMENTARIES INC", "city": "BLOOMFIELD", "state": "NY", "zip": "14469-9765", "ntee": "A31", "ruling": "202001", "deductibility": "1", "assets": 220269, "income": 96187, "revenue": 96187}, {"ein": "237330109", "name": "PROLITERACY WORLDWIDE", "city": "PLATTSBURGH", "state": "NY", "zip": "12901-0259", "ntee": "", "ruling": "200312", "deductibility": "1", "assets": 52316, "income": 149218, "revenue": 149218}, {"ein": "251910983", "name": "KAGENO WORLDWIDE INC", "city": "NEW YORK", "state": "NY", "zip": "10007-2307", "ntee": "Q30", "ruling": "200511", "deductibility": "1", "assets": 420735, "income": 728687, "revenue": 628636}, {"ein": "260061200", "name": "UNITED CHAPLAIN INTERNATIONAL WORLDWIDE OUTREACH MINISTRIES", "city": "S FLORAL PARK", "state": "NY", "zip": "11001-3803", "ntee": "X20", "ruling": "200401", "deductibility": "1", "assets": 0, "income": 0, "revenue": 0}, {"ein": "260733860", "name": "ALEXANDER AND BUONO WORLDWIDE INC", "city": "NEW YORK", "state": "NY", "zip": "10016-2817", "ntee": "A68", "ruling": "202209", "deductibility": "1", "assets": 50712, "income": 270514, "revenue": 270514}, {"ein": "262796680", "name": "NEW GENESIS WORLDWIDE INC", "city": "FLUSHING", "state": "NY", "zip": "11365-2439", "ntee": "B90", "ruling": "201003", "deductibility": "1", "assets": 0, "income": 0, "revenue": 0}, {"ein": "263338890", "name": "2ND CHANCE WORLDWIDE MINISTRIES", "city": "BROOKLYN", "state": "NY", "zip": "11212-5685", "ntee": "X20", "ruling": "201407", "deductibility": "1", "assets": 0, "income": 0, "revenue": 0}, {"ein": "263701623", "name": "ORDER OF MALTA WORLDWIDE RELIEF MALTESER INTERNATIONAL AMERICAS", "city": "NEW YORK", "state": "NY", "zip": "10168-1901", "ntee": "M20", "ruling": "194603", "deductibility": "1", "assets": 1998116, "income": 7171416, "revenue": 7171416}, {"ein": "263887690", "name": "BIG SISTERS WORLDWIDE", "city": "VALLEY STREAM", "state": "NY", "zip": "11580-1214", "ntee": "O99", "ruling": "202006", "deductibility": "1", "assets": 0, "income": 0, "revenue": 0}, {"ein": "271798473", "name": "MERCY DRIVE WORLDWIDE INC", "city": "SAINT ALBANS", "state": "NY", "zip": "11412-2007", "ntee": "P20", "ruling": "202404", "deductibility": "1", "assets": 0, "income": 0, "revenue": 0}, {"ein": "271999379", "name": "RESPONSIBLE EATING AND LIVING WORLDWIDE", "city": "FOREST HILLS", "state": "NY", "zip": "11375-3113", "ntee": "K40", "ruling": "201008", "deductibility": "1", "assets": 0, "income": 0, "revenue": 0}, {"ein": "272751593", "name": "GENERAL ASSEMBLY OF THE WORLDWIDE REFORMED PRESBYTERIAN CH", "city": "FLUSHING", "state": "NY", "zip": "11355-3447", "ntee": "X20", "ruling": "201001", "deductibility": "1", "assets": 0, "income": 0, "revenue": 0}, {"ein": "272781850", "name": "MILAGROS DAY WORLDWIDE INC", "city": "NEW YORK", "state": "NY", "zip": "10016-3726", "ntee": "B11", "ruling": "201611", "deductibility": "1", "assets": 0, "income": 0, "revenue": 0}, {"ein": "272836223", "name": "MOUNT ZION WORLDWIDE MINISTRIES", "city": "LAURELTON", "state": "NY", "zip": "11413-2842", "ntee": "X20", "ruling": "201611", "deductibility": "1", "assets": 0, "income": 0, "revenue": 0}, {"ein": "273801730", "name": "WORLDWIDE INITIATIVES FOR GRANTMAKER SUPPORT INC", "city": "NEW YORK", "state": "NY", "zip": "10007-2614", "ntee": "T02", "ruling": "201012", "deductibility": "1", "assets": 4312211, "income": 4079997, "revenue": 4079997}, {"ein": "274670682", "name": "INTERNATIONAL HOUSES WORLDWIDE", "city": "NEW YORK", "state": "NY", "zip": "10027-3916", "ntee": "Q23", "ruling": "201405", "deductibility": "1", "assets": 0, "income": 0, "revenue": 0}, {"ein": "300324021", "name": "WORLDWIDE VOICES INC", "city": "PATCHOGUE", "state": "NY", "zip": "11772-3876", "ntee": "A60", "ruling": "200512", "deductibility": "1", "assets": 0, "income": 0, "revenue": 0}, {"ein": "331345437", "name": "STELLAR WORLDWIDE FOUNDATION INC", "city": "NEW YORK", "state": "NY", "zip": "10019-4703", "ntee": "P20", "ruling": "202505", "deductibility": "1", "assets": 0, "income": 0, "revenue": 0}, {"ein": "364592636", "name": "WORLDWIDE PHLANTHROPIC GROUP INC", "city": "BROOKLYN", "state": "NY", "zip": "11235-7135", "ntee": "T12", "ruling": "200709", "deductibility": "1", "assets": 0, "income": 0, "revenue": 0}, {"ein": "383690916", "name": "WORLDWIDE MINISTRIES HOUSE OF JAVEH INC", "city": "BRONX", "state": "NY", "zip": "10454-1205", "ntee": "X21", "ruling": "200703", "deductibility": "1", "assets": 0, "income": 0, "revenue": 0}, {"ein": "453212477", "name": "GREEN ISLAND TABERNACLE WORLDWIDE INC", "city": "ALBANY", "state": "NY", "zip": "12206-3120", "ntee": "X21", "ruling": "201312", "deductibility": "1", "assets": 0, "income": 0, "revenue": 0}, {"ein": "454882774", "name": "WORLDWIDE COMMUNITY FIRST RESPONDER", "city": "NANUET", "state": "NY", "zip": "10954-0747", "ntee": "E60", "ruling": "201410", "deductibility": "1", "assets": 0, "income": 0, "revenue": 0}, {"ein": "462984623", "name": "NEW LIFE WORLDWIDE MINISTRIES INC", "city": "BROOKLYN", "state": "NY", "zip": "11236-0000", "ntee": "X21", "ruling": "201501", "deductibility": "1", "assets": 0, "income": 0, "revenue": 0}, {"ein": "464119694", "name": "WOMANKIND WORLDWIDE INC", "city": "NEW YORK", "state": "NY", "zip": "10019-0000", "ntee": "R24", "ruling": "201407", "deductibility": "1", "assets": 0, "income": 0, "revenue": 0}, {"ein": "465537284", "name": "WORLDWIDE ALLIANCE FOR LOCOMOTION & KINETICS INC", "city": "ITHACA", "state": "NY", "zip": "14850-4248", "ntee": "E99", "ruling": "201412", "deductibility": "1", "assets": 0, "income": 0, "revenue": 0}, {"ein": "471212287", "name": "WORLDWIDE PROPHETIC DELIVERANCE MINISTRIES INC", "city": "BROOKLYN", "state": "NY", "zip": "11203-5321", "ntee": "X21", "ruling": "201710", "deductibility": "1", "assets": 0, "income": 0, "revenue": 0}, {"ein": "472548911", "name": "EDO NATIONAL ASSOCIATION WORLDWIDE INC", "city": "NEW YORK", "state": "NY", "zip": "10016-5034", "ntee": "Q33", "ruling": "201504", "deductibility": "1", "assets": 112705, "income": 190506, "revenue": 190506}, {"ein": "474862240", "name": "MOEEN MIRACLE MINISTRIES WORLDWIDE INC", "city": "SPRNGFLD GDNS", "state": "NY", "zip": "11413-4416", "ntee": "X20", "ruling": "202309", "deductibility": "1", "assets": 0, "income": 0, "revenue": 0}, {"ein": "475678790", "name": "CHIZUK HATORAH WORLDWIDE INC", "city": "BROOKLYN", "state": "NY", "zip": "11230-1017", "ntee": "P12", "ruling": "201602", "deductibility": "1", "assets": 0, "income": 0, "revenue": 0}, {"ein": "550791850", "name": "CIRCLE OF LOVE MINISTRY WORLDWIDE", "city": "AMITYVILLE", "state": "NY", "zip": "11701-2601", "ntee": "X20", "ruling": "200212", "deductibility": "1", "assets": 0, "income": 0, "revenue": 0}, {"ein": "550821485", "name": "WORLDWIDE MOVEMENT FATHER SON AND HOLY SPIRIT INC", "city": "BRONX", "state": "NY", "zip": "10453-5311", "ntee": "X21", "ruling": "200310", "deductibility": "1", "assets": 0, "income": 0, "revenue": 0}, {"ein": "550884999", "name": "WORLDWIDE FERRY SAFETY ASSOCIATION", "city": "BROOKLYN", "state": "NY", "zip": "11201-4158", "ntee": "W40", "ruling": "201303", "deductibility": "1", "assets": 1000, "income": 15700, "revenue": 15700}, {"ein": "562288271", "name": "WORLDWIDE MINISTRIES UNITED IN ACTION INC", "city": "BRONX", "state": "NY", "zip": "10472-0675", "ntee": "X21", "ruling": "200305", "deductibility": "1", "assets": 66556, "income": 64725, "revenue": 64725}, {"ein": "562350454", "name": "WORLDWIDE MINISTRIES ALL I CAN IN CHRIST INC", "city": "SAUGERTIES", "state": "NY", "zip": "12477-1509", "ntee": "X20", "ruling": "200309", "deductibility": "1", "assets": 0, "income": 0, "revenue": 0}, {"ein": "562435605", "name": "CHURCH OF GOD OF THE PROPHECY THE GOOD WAY WORLDWIDE MOVEMENT INC", "city": "BRENTWOOD", "state": "NY", "zip": "11717-2309", "ntee": "X21", "ruling": "200411", "deductibility": "1", "assets": 0, "income": 0, "revenue": 0}, {"ein": "562479530", "name": "WORLDWIDE EVANGELISTIC MINISTRY UNITED BY THE FIRE INC", "city": "BRONX", "state": "NY", "zip": "10473-1513", "ntee": "X21", "ruling": "200509", "deductibility": "0", "assets": 0, "income": 0, "revenue": 0}, {"ein": "582406117", "name": "JESUS IS LORD RADIO MINISTRIES INTERNATIONAL WORLDWIDE INC", "city": "BRONX", "state": "NY", "zip": "10469-1403", "ntee": "", "ruling": "197412", "deductibility": "1", "assets": 0, "income": 0, "revenue": 0}, {"ein": "611519087", "name": "THE WOMAN AT THE WELL WORLDWIDE INC", "city": "BROOKLYN", "state": "NY", "zip": "11226-0026", "ntee": "F30", "ruling": "202103", "deductibility": "1", "assets": 0, "income": 0, "revenue": 0}, {"ein": "753206575", "name": "CHURCHES UNITED FOR WORLDWIDE ACTION INC", "city": "BROOKLYN", "state": "NY", "zip": "11212-3937", "ntee": "X20", "ruling": "201906", "deductibility": "1", "assets": 0, "income": 0, "revenue": 0}, {"ein": "770645612", "name": "LIGHT OF GOD PENTECOSTAL MINISTRY WORLDWIDE", "city": "BRONX", "state": "NY", "zip": "10452-4301", "ntee": "X21", "ruling": "200508", "deductibility": "1", "assets": 0, "income": 0, "revenue": 0}, {"ein": "800619810", "name": "NOBLE OUTREACH WORLDWIDE", "city": "STATEN ISLAND", "state": "NY", "zip": "10302-1240", "ntee": "X19", "ruling": "201109", "deductibility": "1", "assets": 0, "income": 0, "revenue": 0}, {"ein": "810760602", "name": "WORLDWIDE VETERANS AND FAMILY SERVICES INC", "city": "BRONX", "state": "NY", "zip": "10468-4640", "ntee": "P20", "ruling": "201705", "deductibility": "1", "assets": 82903, "income": 330480, "revenue": 330480}, {"ein": "812028316", "name": "WORLDWIDE CHARITY FUND", "city": "BROOKLYN", "state": "NY", "zip": "11230-6601", "ntee": "P60", "ruling": "201607", "deductibility": "1", "assets": 1, "income": 25, "revenue": 25}, {"ein": "824336721", "name": "WORLDWIDE ALUMNI ASSOCIATION OF AUB CENTRAL AND NORTH FLORIDA CHAPTER", "city": "NEW YORK", "state": "NY", "zip": "10017-2322", "ntee": "B84", "ruling": "201803", "deductibility": "1", "assets": 0, "income": 0, "revenue": 0}, {"ein": "831127244", "name": "HELPING HANDS WORLDWIDE", "city": "WILLIAMSVILLE", "state": "NY", "zip": "14221-6800", "ntee": "E70", "ruling": "201809", "deductibility": "1", "assets": 0, "income": 0, "revenue": 0}, {"ein": "832054187", "name": "WORLDWIDE ALUMNI ASSOCIATION OF AUB SAN DIEGO CHAPTER", "city": "NEW YORK", "state": "NY", "zip": "10017-2322", "ntee": "B84", "ruling": "201903", "deductibility": "1", "assets": 0, "income": 0, "revenue": 0}, {"ein": "832245617", "name": "GODS FEMALE SERVANT MINISTRIES WORLDWIDE INC", "city": "ROCHESTER", "state": "NY", "zip": "14621-4618", "ntee": "A20", "ruling": "201811", "deductibility": "1", "assets": 0, "income": 0, "revenue": 0}, {"ein": "832915205", "name": "CALL AND RESPONSE WORLDWIDE FOUNDATION", "city": "NEW YORK", "state": "NY", "zip": "10007-1096", "ntee": "T20", "ruling": "202304", "deductibility": "1", "assets": 132057, "income": 6514, "revenue": 0}, {"ein": "833267537", "name": "DYCKMAN YOUTH WORLDWIDE", "city": "NEW YORK", "state": "NY", "zip": "10034-4916", "ntee": "N62", "ruling": "202212", "deductibility": "1", "assets": 2060, "income": 284167, "revenue": 284167}, {"ein": "841811995", "name": "WORLDWIDE INITIATIVE FOR RH DISEASE ERADICATION INC", "city": "NEW YORK", "state": "NY", "zip": "10023-7015", "ntee": "G80", "ruling": "202303", "deductibility": "1", "assets": 0, "income": 0, "revenue": 0}, {"ein": "853863238", "name": "WORLDWIDE ADDICTION RECOVERY LTD", "city": "BRONX", "state": "NY", "zip": "10471-3838", "ntee": "F60", "ruling": "202107", "deductibility": "1", "assets": 1, "income": 0, "revenue": 0}, {"ein": "854238271", "name": "AEON WORLDWIDE INC", "city": "NEW YORK", "state": "NY", "zip": "10017-4340", "ntee": "X21", "ruling": "202112", "deductibility": "1", "assets": 0, "income": 0, "revenue": 0}, {"ein": "862884262", "name": "COMPASSION MINISTRIES WORLDWIDE INC", "city": "BROOKLYN", "state": "NY", "zip": "11206-7866", "ntee": "P20", "ruling": "202206", "deductibility": "1", "assets": 0, "income": 0, "revenue": 0}, {"ein": "863085555", "name": "ISLAM WORLDWIDE INC", "city": "OZONE PARK", "state": "NY", "zip": "11417-2114", "ntee": "P60", "ruling": "202201", "deductibility": "1", "assets": 73344, "income": 219597, "revenue": 219597}, {"ein": "872313671", "name": "PEOPLE HELPING PEOPLE WORLDWIDE", "city": "TARRYTOWN", "state": "NY", "zip": "10591-0231", "ntee": "P99", "ruling": "202112", "deductibility": "1", "assets": 4704, "income": 7575, "revenue": 7575}, {"ein": "872514033", "name": "VETERANS WORLDWIDE INC", "city": "ALBANY", "state": "NY", "zip": "12202-1110", "ntee": "P60", "ruling": "202201", "deductibility": "1", "assets": 0, "income": 0, "revenue": 0}, {"ein": "882071011", "name": "WORLDWIDE FRIENDS FOUNDATION", "city": "NEW YORK", "state": "NY", "zip": "10010-3450", "ntee": "Q33", "ruling": "202205", "deductibility": "1", "assets": 2897528, "income": 14442998, "revenue": 14430046}, {"ein": "883892895", "name": "WORLDWIDE MEMORIAL FUND KOKAND INC", "city": "FOREST HILLS", "state": "NY", "zip": "11375-4253", "ntee": "C99", "ruling": "202301", "deductibility": "1", "assets": 0, "income": 0, "revenue": 0}, {"ein": "900560028", "name": "ZION MISSION WORLDWIDE MINISTRIES", "city": "SAINT ALBANS", "state": "NY", "zip": "11412-2729", "ntee": "X20", "ruling": "202010", "deductibility": "1", "assets": 1, "income": 27402, "revenue": 27402}, {"ein": "900872459", "name": "YESHUA WORLDWIDE MINISTRIES", "city": "QUEENS", "state": "NY", "zip": "11374-0000", "ntee": "", "ruling": "196709", "deductibility": "1", "assets": 0, "income": 0, "revenue": 0}, {"ein": "920702691", "name": "BETE AMHARA WOLLO WORLDWIDE ASSOCIATION-ORG INC", "city": "ROCHESTER", "state": "NY", "zip": "14622-3135", "ntee": "K99", "ruling": "202301", "deductibility": "1", "assets": 0, "income": 0, "revenue": 0}, {"ein": "923459307", "name": "EQUIPPING WOMEN WORLDWIDE INC", "city": "CONGERS", "state": "NY", "zip": "10920-0000", "ntee": "", "ruling": "202310", "deductibility": "1", "assets": 0, "income": 0, "revenue": 0}, {"ein": "931700965", "name": "JOY WORLDWIDE", "city": "NEW YORK", "state": "NY", "zip": "10026-4264", "ntee": "B82", "ruling": "202306", "deductibility": "1", "assets": 0, "income": 0, "revenue": 0}, {"ein": "933407603", "name": "UNITY IN THE COMMUNITY WORLDWIDE INC", "city": "POUGHKEEPSIE", "state": "NY", "zip": "12601-3406", "ntee": "F21", "ruling": "202401", "deductibility": "1", "assets": 0, "income": 0, "revenue": 0}, {"ein": "990929352", "name": "WGI WORLDWIDE PHILANTHROPIES", "city": "NEW YORK", "state": "NY", "zip": "10019-5483", "ntee": "B60", "ruling": "202404", "deductibility": "1", "assets": 0, "income": 0, "revenue": 0}, {"ein": "993017360", "name": "WORLDWIDE COACHING NETWORK INC", "city": "NEW YORK", "state": "NY", "zip": "10001-3311", "ntee": "F80", "ruling": "202405", "deductibility": "1", "assets": 0, "income": 0, "revenue": 0}], "EMS": [{"ein": "043616958", "name": "WESTCHESTER REGIONAL EMS COUNCIL INC", "city": "VALHALLA", "state": "NY", "zip": "10595-1548", "ntee": "E62", "ruling": "200708", "deductibility": "1", "assets": 0, "income": 0, "revenue": 0}, {"ein": "133084258", "name": "HUDSON VALLEY EMS INC", "city": "NEW WINDSOR", "state": "NY", "zip": "12553-0000", "ntee": "E026", "ruling": "200207", "deductibility": "1", "assets": 400252, "income": 284952, "revenue": 284952}, {"ein": "134124834", "name": "HATZOLOH EMS INC", "city": "MONSEY", "state": "NY", "zip": "10952-3002", "ntee": "M23", "ruling": "200101", "deductibility": "1", "assets": 4573840, "income": 5120208, "revenue": 4641282}, {"ein": "161363455", "name": "NEW YORK STATE EMS COORDINATES ASSOCIATION INC", "city": "ROSCOE", "state": "NY", "zip": "12776-0175", "ntee": "", "ruling": "199005", "deductibility": "1", "assets": 0, "income": 0, "revenue": 0}, {"ein": "200100338", "name": "CHAMPLAIN EMS INC", "city": "CHAMPLAIN", "state": "NY", "zip": "12919-0000", "ntee": "E60", "ruling": "200409", "deductibility": "1", "assets": 1281346, "income": 1697025, "revenue": 1697025}, {"ein": "201999582", "name": "EMS STAFFING INC", "city": "LYONS", "state": "NY", "zip": "14489-1042", "ntee": "M20", "ruling": "200710", "deductibility": "1", "assets": 64020, "income": 483760, "revenue": 483760}, {"ein": "208363725", "name": "SODUS EMS STAFFING INC", "city": "SODUS", "state": "NY", "zip": "14551-0344", "ntee": "P20", "ruling": "200807", "deductibility": "1", "assets": 0, "income": 0, "revenue": 0}, {"ein": "262561247", "name": "HATZOLOH EMS OF NEW SQUARE INC", "city": "SPRING VALLEY", "state": "NY", "zip": "10977-7824", "ntee": "E60", "ruling": "201007", "deductibility": "1", "assets": 1296891, "income": 155735, "revenue": 155735}, {"ein": "270975133", "name": "ORCHARD PARK FIRE DISTRICT - EMS INC", "city": "ORCHARD PARK", "state": "NY", "zip": "14127-2246", "ntee": "M24", "ruling": "201005", "deductibility": "1", "assets": 1094387, "income": 2841987, "revenue": 2841987}, {"ein": "271749002", "name": "ALEXANDER EMS INC", "city": "ALEXANDER", "state": "NY", "zip": "14005-0336", "ntee": "M23", "ruling": "201005", "deductibility": "1", "assets": 0, "income": 0, "revenue": 0}, {"ein": "272439210", "name": "MALONE EMS INC", "city": "MALONE", "state": "NY", "zip": "12953-0412", "ntee": "E62", "ruling": "201105", "deductibility": "1", "assets": 249893, "income": 699394, "revenue": 667332}, {"ein": "274812040", "name": "SUFFOLK COUNTY FIRE EMS SAFETY OFFICERS ASSOCIATION", "city": "SAYVILLE", "state": "NY", "zip": "11782-0781", "ntee": "M40", "ruling": "201503", "deductibility": "1", "assets": 0, "income": 0, "revenue": 0}, {"ein": "452551915", "name": "WILLSBORO-ESSEX EMS INC", "city": "ESSEX", "state": "NY", "zip": "12936-0055", "ntee": "E62", "ruling": "201609", "deductibility": "1", "assets": 554529, "income": 375431, "revenue": 375431}, {"ein": "452939606", "name": "ALLEGANY RESCUE AND EMS INC", "city": "ALLEGANY", "state": "NY", "zip": "14706-1233", "ntee": "M23", "ruling": "201201", "deductibility": "1", "assets": 1916215, "income": 415381, "revenue": 415381}, {"ein": "454318322", "name": "RANDOLPH REGIONAL EMS CORPORATION", "city": "RANDOLPH", "state": "NY", "zip": "14772-1123", "ntee": "E62", "ruling": "201208", "deductibility": "1", "assets": 583231, "income": 530365, "revenue": 530365}, {"ein": "463123167", "name": "FORT COVINGTON EMS INC", "city": "FT COVINGTON", "state": "NY", "zip": "12937-0447", "ntee": "M24", "ruling": "201411", "deductibility": "1", "assets": 243279, "income": 243132, "revenue": 243132}, {"ein": "463554121", "name": "ULSTER COUNTY EMS COUNSIL", "city": "ELLENVILLE", "state": "NY", "zip": "12428-0134", "ntee": "E62", "ruling": "202507", "deductibility": "1", "assets": 0, "income": 0, "revenue": 0}, {"ein": "474549437", "name": "MID STATE EMS COUNCIL OF ONEIDA HERKIMER AND MADISON COUNTIES INC", "city": "UTICA", "state": "NY", "zip": "13501-6236", "ntee": "T30", "ruling": "201509", "deductibility": "1", "assets": 0, "income": 0, "revenue": 0}, {"ein": "822728150", "name": "ISRAEL EMS FOUNDATION", "city": "MONSEY", "state": "NY", "zip": "10952-1730", "ntee": "T30", "ruling": "201801", "deductibility": "1", "assets": 80313, "income": 105601, "revenue": 105601}, {"ein": "823543257", "name": "EMS FDNY HELP FUND", "city": "BAYSIDE", "state": "NY", "zip": "11360-4362", "ntee": "P60", "ruling": "201902", "deductibility": "1", "assets": 743448, "income": 423210, "revenue": 303539}, {"ein": "823980292", "name": "CHEMUNG SCHUYLER STEUBEN EMS FOUNDATION INC", "city": "ELMIRA", "state": "NY", "zip": "14902-0191", "ntee": "E62", "ruling": "201802", "deductibility": "1", "assets": 0, "income": 0, "revenue": 0}, {"ein": "824904302", "name": "EMS ACCESS INC", "city": "NEW YORK", "state": "NY", "zip": "10018-3891", "ntee": "T40", "ruling": "201902", "deductibility": "1", "assets": 0, "income": 0, "revenue": 0}, {"ein": "833967992", "name": "MOIRA EMS INC", "city": "MOIRA", "state": "NY", "zip": "12957-0000", "ntee": "E30", "ruling": "202105", "deductibility": "1", "assets": 716657, "income": 249310, "revenue": 249310}, {"ein": "834317576", "name": "NYC EMS GREEN AND WHITE FOUNDATION INC", "city": "OAKLAND GARDENS", "state": "NY", "zip": "11364-3452", "ntee": "P58", "ruling": "202004", "deductibility": "1", "assets": 0, "income": 0, "revenue": 0}, {"ein": "871944083", "name": "EMS FIRST RESPONDERS BRIGADES CORP", "city": "RIDGEWOOD", "state": "NY", "zip": "11385-5925", "ntee": "M99", "ruling": "202503", "deductibility": "1", "assets": 1, "income": 0, "revenue": 0}, {"ein": "873160552", "name": "ISLIP TOWN FIRE & EMS MUSEUM EDUCATION CENETER", "city": "SAYVILLE", "state": "NY", "zip": "11782-0674", "ntee": "A50", "ruling": "202404", "deductibility": "1", "assets": 1002532, "income": 1031370, "revenue": 1023274}, {"ein": "873188679", "name": "FIRE-EMS SAFETY OFFICERS ASSOCIATION OF NEW YORK STATE", "city": "SELDEN", "state": "NY", "zip": "11784-1767", "ntee": "M40", "ruling": "202201", "deductibility": "1", "assets": 44684, "income": 71428, "revenue": 64333}, {"ein": "900900901", "name": "CAYUGA FIRE AND EMS INC", "city": "CAYUGA", "state": "NY", "zip": "13034-0315", "ntee": "M24", "ruling": "201502", "deductibility": "1", "assets": 462595, "income": 178988, "revenue": 52721}, {"ein": "922017028", "name": "SUFFOLK REGIONAL EMS COUNCIL", "city": "YAPHANK", "state": "NY", "zip": "11980-9651", "ntee": "E62", "ruling": "202302", "deductibility": "1", "assets": 0, "income": 0, "revenue": 0}, {"ein": "922844859", "name": "MONROE COUNTY EMS CHIEFS ASSOCIATION", "city": "HENRIETTA", "state": "NY", "zip": "14623-0000", "ntee": "E62", "ruling": "202412", "deductibility": "2", "assets": 0, "income": 0, "revenue": 0}, {"ein": "931894470", "name": "BREWSTER SOUTHEAST EMS INC", "city": "BREWSTER", "state": "NY", "zip": "10509-1233", "ntee": "E62", "ruling": "202308", "deductibility": "1", "assets": 24906, "income": 75000, "revenue": 75000}, {"ein": "934015932", "name": "GOSHEN EMS CORPS INC", "city": "GOSHEN", "state": "NY", "zip": "10924-0695", "ntee": "E30", "ruling": "202401", "deductibility": "1", "assets": 0, "income": 0, "revenue": 0}, {"ein": "934292313", "name": "EMS PLACE INC", "city": "CORTLANDT MNR", "state": "NY", "zip": "10567-7122", "ntee": "P20", "ruling": "202404", "deductibility": "1", "assets": 0, "income": 0, "revenue": 0}], "MEKADSHEI": [{"ein": "050553176", "name": "CONGREGATION CHEVRA MEKADSHEI HASHEM INC", "city": "SPRING VALLEY", "state": "NY", "zip": "10977-2511", "ntee": "X30", "ruling": "200309", "deductibility": "1", "assets": 0, "income": 0, "revenue": 0}], "BELIEVERS": [{"ein": "061287154", "name": "BROOKLYN BELIEVERS CHRISTIAN FELLOWSHIP", "city": "BROOKLYN", "state": "NY", "zip": "11204-2014", "ntee": "X20", "ruling": "201308", "deductibility": "1", "assets": 0, "income": 0, "revenue": 0}, {"ein": "112617508", "name": "AN ABODE OF GOD POSITIVE BELIEVERS", "city": "BROOKLYN", "state": "NY", "zip": "11210-2549", "ntee": "", "ruling": "198212", "deductibility": "1", "assets": 0, "income": 0, "revenue": 0}, {"ein": "112999652", "name": "BIBLE BELIEVERS FELLOWSHIP INC", "city": "BALDWIN", "state": "NY", "zip": "11510-0065", "ntee": "", "ruling": "199405", "deductibility": "1", "assets": 53359, "income": 34472, "revenue": 34472}, {"ein": "113143283", "name": "BELIEVERS IN JESUS CHRIST ASSOCIATION BAPTIST CHURCH", "city": "BROOKLYN", "state": "NY", "zip": "11210-3943", "ntee": "X21", "ruling": "201405", "deductibility": "1", "assets": 0, "income": 0, "revenue": 0}, {"ein": "113181499", "name": "BELIEVERS CHARITY FUND", "city": "MELVILLE", "state": "NY", "zip": "11747-0000", "ntee": "", "ruling": "199509", "deductibility": "1", "assets": 0, "income": 0, "revenue": 0}, {"ein": "113199595", "name": "BELIEVERS TABERNACLE OF FAITH", "city": "BROOKLYN", "state": "NY", "zip": "11221-1401", "ntee": "X20Z", "ruling": "199711", "deductibility": "1", "assets": 0, "income": 0, "revenue": 0}, {"ein": "113331462", "name": "FULL GOSPEL BELIEVERS CHURCH INC", "city": "BROOKLYN", "state": "NY", "zip": "11221-2320", "ntee": "X99Z", "ruling": "199712", "deductibility": "1", "assets": 0, "income": 0, "revenue": 0}, {"ein": "113514020", "name": "THE BELIEVERS LIFE OF FAITH MINISTRIES INC", "city": "BROOKLYN", "state": "NY", "zip": "11233-2006", "ntee": "X20", "ruling": "201408", "deductibility": "1", "assets": 0, "income": 0, "revenue": 0}, {"ein": "116080552", "name": "BROOKLYN BELIEVERS CHAPEL", "city": "BROOKLYN", "state": "NY", "zip": "11219-2101", "ntee": "", "ruling": "196704", "deductibility": "1", "assets": 0, "income": 0, "revenue": 0}, {"ein": "133321435", "name": "BIBLE BELIEVERS CHURCH INC", "city": "STATEN ISLAND", "state": "NY", "zip": "10309-3605", "ntee": "", "ruling": "198702", "deductibility": "1", "assets": 0, "income": 0, "revenue": 0}, {"ein": "133509011", "name": "ROCKLAND BELIEVERS ASSEMBLY INC", "city": "PEARL RIVER", "state": "NY", "zip": "10965-2555", "ntee": "X20", "ruling": "200808", "deductibility": "1", "assets": 0, "income": 0, "revenue": 0}, {"ein": "133667946", "name": "GRACE FELLOWSHIP OF CHRISTIAN BELIEVERS INC", "city": "BRONX", "state": "NY", "zip": "10457-5949", "ntee": "", "ruling": "199302", "deductibility": "1", "assets": 0, "income": 0, "revenue": 0}, {"ein": "133796329", "name": "BIBLE BELIEVERS CHURCH INC", "city": "BRONX", "state": "NY", "zip": "10462-3654", "ntee": "X20Z", "ruling": "199506", "deductibility": "1", "assets": 0, "income": 0, "revenue": 0}, {"ein": "133989122", "name": "RIVER OF LIFE FELLOWSHIP OF BELIEVERS", "city": "CORNWALL", "state": "NY", "zip": "12518-0000", "ntee": "X20Z", "ruling": "199806", "deductibility": "1", "assets": 0, "income": 0, "revenue": 0}, {"ein": "141613074", "name": "BELIEVERS CHURCH AT GLENVILLE INC", "city": "GLENVILLE", "state": "NY", "zip": "12302-4028", "ntee": "", "ruling": "199202", "deductibility": "1", "assets": 0, "income": 0, "revenue": 0}, {"ein": "161073271", "name": "ST PAUL BELIEVERS HOLINESS CHURCH OF ROCHESTER NY INC", "city": "ROCHESTER", "state": "NY", "zip": "14603-1767", "ntee": "", "ruling": "197809", "deductibility": "1", "assets": 0, "income": 0, "revenue": 0}, {"ein": "161191973", "name": "BELIEVERS CHAPEL", "city": "CICERO", "state": "NY", "zip": "13039-9376", "ntee": "", "ruling": "198601", "deductibility": "1", "assets": 0, "income": 0, "revenue": 0}, {"ein": "161374950", "name": "ONEIDA BELIEVERS FELLOWSHIP", "city": "ONEIDA", "state": "NY", "zip": "13421-1912", "ntee": "", "ruling": "199305", "deductibility": "1", "assets": 0, "income": 0, "revenue": 0}, {"ein": "161490234", "name": "BELIEVERS CHAPEL NORTH", "city": "MEXICO", "state": "NY", "zip": "13114-0833", "ntee": "X20Z", "ruling": "199609", "deductibility": "1", "assets": 0, "income": 0, "revenue": 0}, {"ein": "161529067", "name": "BELIEVERS MIRACLE DELIVERANCE MINISTRIES", "city": "UTICA", "state": "NY", "zip": "13501-3351", "ntee": "X21Z", "ruling": "199801", "deductibility": "1", "assets": 306292, "income": 111507, "revenue": 111507}, {"ein": "161547368", "name": "BELIEVERS CHAPEL OF CANASTOTA", "city": "CANASTOTA", "state": "NY", "zip": "13032-4529", "ntee": "X21", "ruling": "199901", "deductibility": "1", "assets": 0, "income": 0, "revenue": 0}, {"ein": "166045163", "name": "BELIEVERS IN CHRIST INC", "city": "BLASDELL", "state": "NY", "zip": "14219-1602", "ntee": "", "ruling": "196403", "deductibility": "1", "assets": 0, "income": 0, "revenue": 0}, {"ein": "200357952", "name": "BELIEVERS CHAPEL OF FULTON", "city": "FULTON", "state": "NY", "zip": "13069-4903", "ntee": "X21", "ruling": "201004", "deductibility": "1", "assets": 0, "income": 0, "revenue": 0}, {"ein": "222821795", "name": "EVERLASTING JOY BELIEVERS FELLOWSHIP", "city": "CANAJOHARIE", "state": "NY", "zip": "13317-1134", "ntee": "", "ruling": "199109", "deductibility": "1", "assets": 0, "income": 0, "revenue": 0}, {"ein": "223053628", "name": "BELIEVERS FELLOWSHIP CTR CHRISTIAN ACADEMY & BIBLE TRAINING CTR INC", "city": "GLOVERSVILLE", "state": "NY", "zip": "12078-4501", "ntee": "", "ruling": "199310", "deductibility": "1", "assets": 0, "income": 0, "revenue": 0}, {"ein": "237160838", "name": "BELIEVERS IN THE LORD JESUS CHRIST INC", "city": "RICHMOND HILL", "state": "NY", "zip": "11419-2356", "ntee": "", "ruling": "197204", "deductibility": "1", "assets": 0, "income": 0, "revenue": 0}, {"ein": "263326071", "name": "COVENANT BELIEVERS FELLOWSHIP MINISTRY INC", "city": "BRONX", "state": "NY", "zip": "10462-7612", "ntee": "X21", "ruling": "201101", "deductibility": "1", "assets": 0, "income": 0, "revenue": 0}, {"ein": "272806432", "name": "BELIEVERS TABERNACLE CHURCH OF GOD 7DAY", "city": "BROOKLYN", "state": "NY", "zip": "11212-2705", "ntee": "", "ruling": "201004", "deductibility": "1", "assets": 0, "income": 0, "revenue": 0}, {"ein": "320581521", "name": "BIBLE BELIEVERS NETWORK OF CLERGY INC", "city": "BRONX", "state": "NY", "zip": "10457-0000", "ntee": "X11", "ruling": "202006", "deductibility": "1", "assets": 0, "income": 0, "revenue": 0}, {"ein": "421535944", "name": "BIBLE BELIEVERS TABERNACLE INC", "city": "BRONX", "state": "NY", "zip": "10457-6282", "ntee": "X21", "ruling": "200304", "deductibility": "1", "assets": 1156336, "income": 383986, "revenue": 383986}, {"ein": "453957455", "name": "BELIEVERS CHAPEL INC", "city": "ALLEGANY", "state": "NY", "zip": "14706-9650", "ntee": "X20", "ruling": "201208", "deductibility": "1", "assets": 0, "income": 0, "revenue": 0}, {"ein": "463882118", "name": "BELLA S BELIEVERS INC", "city": "STATEN ISLAND", "state": "NY", "zip": "10307-1303", "ntee": "G99", "ruling": "201406", "deductibility": "1", "assets": 0, "income": 0, "revenue": 0}, {"ein": "464172406", "name": "NEW YORK BELIEVERS ASSEMBLY", "city": "NEW HYDE PARK", "state": "NY", "zip": "11040-0298", "ntee": "X20", "ruling": "201501", "deductibility": "1", "assets": 0, "income": 0, "revenue": 0}, {"ein": "571068981", "name": "BELIEVERS FAITH TABERNACLE INC", "city": "BROOKLYN", "state": "NY", "zip": "11216-1313", "ntee": "", "ruling": "199112", "deductibility": "1", "assets": 0, "income": 0, "revenue": 0}, {"ein": "753089592", "name": "BIBLE BELIEVERS ASSEMBLY", "city": "JAMAICA", "state": "NY", "zip": "11435-4228", "ntee": "X21", "ruling": "200310", "deductibility": "1", "assets": 0, "income": 0, "revenue": 0}, {"ein": "810581275", "name": "BELIEVERS UNITED CHRISTIAN CHURCH", "city": "NORTH HUDSON", "state": "NY", "zip": "12855-0000", "ntee": "", "ruling": "200408", "deductibility": "1", "assets": 0, "income": 0, "revenue": 0}, {"ein": "813596784", "name": "CALLED THEM THE BELIEVERS INC", "city": "BROOKLYN", "state": "NY", "zip": "11233-3125", "ntee": "P20", "ruling": "201805", "deductibility": "1", "assets": 0, "income": 0, "revenue": 0}, {"ein": "841664469", "name": "BELIEVERS RESTORATION MINISTRIES", "city": "BRONX", "state": "NY", "zip": "10453-0080", "ntee": "X21", "ruling": "200606", "deductibility": "1", "assets": 0, "income": 0, "revenue": 0}, {"ein": "843442189", "name": "CHRISTIAN BELIEVERS CHURCH INC", "city": "WHITE PLAINS", "state": "NY", "zip": "10603-2804", "ntee": "X20", "ruling": "197001", "deductibility": "1", "assets": 0, "income": 0, "revenue": 0}, {"ein": "884014324", "name": "BELIEVERS TEMPLE OF GRACE INC", "city": "BROOKLYN", "state": "NY", "zip": "11213-3176", "ntee": "X20", "ruling": "202309", "deductibility": "1", "assets": 0, "income": 0, "revenue": 0}, {"ein": "991453133", "name": "FOREVER BELIEVERS IN CHRIST BAPTIST CHURCH", "city": "HAUPPAUGE", "state": "NY", "zip": "11788-4628", "ntee": "X20", "ruling": "202411", "deductibility": "1", "assets": 0, "income": 0, "revenue": 0}], "NIGERIA": [{"ein": "061517924", "name": "FRIENDS OF NIGERIA INC", "city": "ROCHESTER", "state": "NY", "zip": "14692-0000", "ntee": "B99", "ruling": "200003", "deductibility": "1", "assets": 0, "income": 0, "revenue": 0}, {"ein": "161730414", "name": "AKWA IBOM STATE ASSOCIATION OF NIGERIA USA INC NEW YORK CHAPTER", "city": "YONKERS", "state": "NY", "zip": "10703-2716", "ntee": "W99", "ruling": "201503", "deductibility": "1", "assets": 0, "income": 0, "revenue": 0}, {"ein": "201507726", "name": "NIGERIA HIGHER EDUCATION FOUNDATION INC", "city": "NEW YORK", "state": "NY", "zip": "10016-5034", "ntee": "B122", "ruling": "200412", "deductibility": "1", "assets": 87739, "income": 229175, "revenue": 229175}, {"ein": "454778813", "name": "NIGERIA EMPIRE CLUB INC", "city": "BRONX", "state": "NY", "zip": "10469-6322", "ntee": "P28", "ruling": "202203", "deductibility": "1", "assets": 78935, "income": 15221, "revenue": 15221}, {"ein": "462951063", "name": "BONE MARROW REGISTRY IN NIGERIA INC", "city": "NEW YORK", "state": "NY", "zip": "10022-5456", "ntee": "E99", "ruling": "201409", "deductibility": "1", "assets": 0, "income": 0, "revenue": 0}, {"ein": "651199416", "name": "AGBONRIDE OF NIGERIA USA INC", "city": "NORTH BALDWIN", "state": "NY", "zip": "11510-1916", "ntee": "", "ruling": "202009", "deductibility": "1", "assets": 0, "income": 0, "revenue": 0}, {"ein": "753164029", "name": "EAST NIGERIA SEVENTH DAY ADVENTISTS IN NEW YORK METROPOLITAN AREA", "city": "NEW ROCHELLE", "state": "NY", "zip": "10801-3209", "ntee": "B82", "ruling": "201003", "deductibility": "1", "assets": 0, "income": 0, "revenue": 0}, {"ein": "812667483", "name": "WOMENS CLUB OF NIGERIA USA AND INTERNATIONAL WCNUI NEW YORK INC", "city": "JAMAICA", "state": "NY", "zip": "11413-1038", "ntee": "A23", "ruling": "201709", "deductibility": "1", "assets": 0, "income": 0, "revenue": 0}, {"ein": "843677791", "name": "CLARETIAN MISSIONARIES NIGERIA", "city": "SAINT ALBANS", "state": "NY", "zip": "11412-3814", "ntee": "X22", "ruling": "202301", "deductibility": "1", "assets": 13363, "income": 172277, "revenue": 172277}, {"ein": "843884237", "name": "PERSONS WITH DISABILITY INITIATIVE NIGERIA INC", "city": "BROOKLYN", "state": "NY", "zip": "11203-5209", "ntee": "R23", "ruling": "202002", "deductibility": "1", "assets": 0, "income": 0, "revenue": 0}], "MAHARSHI": [{"ein": "061621684", "name": "MAHARSHI DAYANANDA GURUKULA NA INC VEDIC CULTURE CENTER", "city": "JAMAICA", "state": "NY", "zip": "11418-3226", "ntee": "X70", "ruling": "200212", "deductibility": "1", "assets": 0, "income": 0, "revenue": 0}, {"ein": "237031944", "name": "ARUNACHALA ASHRAMA BHAGAVAN SRI RAMANA MAHARSHI CENTER INC", "city": "JAMAICA", "state": "NY", "zip": "11432-2937", "ntee": "", "ruling": "197002", "deductibility": "1", "assets": 0, "income": 0, "revenue": 0}], "FORT": [{"ein": "061623601", "name": "FORT MONTGOMERY BATTLE SITE ASSOCIATION", "city": "FT MONTGOMERY", "state": "NY", "zip": "10922-0376", "ntee": "A84", "ruling": "200602", "deductibility": "1", "assets": 0, "income": 0, "revenue": 0}, {"ein": "112300840", "name": "FORT GREENE COUNCIL INC", "city": "BROOKLYN", "state": "NY", "zip": "11238-2440", "ntee": "", "ruling": "197505", "deductibility": "1", "assets": 8941696, "income": 9999020, "revenue": 9961540}, {"ein": "112710663", "name": "FORT HILL BEACH ASSOCIATION INC", "city": "LLOYD HARBOR", "state": "NY", "zip": "11743-9788", "ntee": "", "ruling": "198503", "deductibility": "2", "assets": 132019, "income": 114688, "revenue": 114688}, {"ein": "113343941", "name": "FORT GREENE STRATEGIC NEIGHBORHOOD ACTION PARTNERSHIP", "city": "BROOKLYN", "state": "NY", "zip": "11205-3280", "ntee": "S20", "ruling": "199610", "deductibility": "1", "assets": 203126, "income": 109874, "revenue": 109874}, {"ein": "113566693", "name": "FORT GREENE SOCCER CLUB INC", "city": "BROOKLYN", "state": "NY", "zip": "11221-1946", "ntee": "", "ruling": "200411", "deductibility": "1", "assets": 0, "income": 0, "revenue": 0}, {"ein": "113637773", "name": "FORT GREENE PARK CONSERVANCY INC", "city": "BROOKLYN", "state": "NY", "zip": "11217-1607", "ntee": "A54", "ruling": "200208", "deductibility": "1", "assets": 714454, "income": 1203226, "revenue": 1188317}, {"ein": "131814388", "name": "FORT TRYON JEWISH CENTER INC", "city": "NEW YORK", "state": "NY", "zip": "10033-4730", "ntee": "X30", "ruling": "201611", "deductibility": "1", "assets": 0, "income": 0, "revenue": 0}, {"ein": "132631464", "name": "FORT SCHUYLER HOUSE INC", "city": "BRONX", "state": "NY", "zip": "10465-2548", "ntee": "L22Z", "ruling": "196905", "deductibility": "1", "assets": 28672801, "income": 1104987, "revenue": 1104987}, {"ein": "132745426", "name": "ARC XVI FORT WASHINGTON INC", "city": "NEW YORK", "state": "NY", "zip": "10039-3802", "ntee": "", "ruling": "197412", "deductibility": "1", "assets": 6543201, "income": 4121897, "revenue": 4121897}, {"ein": "133099325", "name": "FORT GEORGE COMMUNITY SERVICES INC", "city": "NEW YORK", "state": "NY", "zip": "10033-2604", "ntee": "", "ruling": "198608", "deductibility": "1", "assets": 6438149, "income": 7343907, "revenue": 7343907}, {"ein": "133121268", "name": "FORT WASHINGTON HEIGHTS PRESBYTERIAN CHURCH", "city": "NEW YORK", "state": "NY", "zip": "10033-7018", "ntee": "", "ruling": "196401", "deductibility": "0", "assets": 0, "income": 0, "revenue": 0}, {"ein": "133329465", "name": "FORT ROYAL FOUNDATION INC", "city": "FULTONVILLE", "state": "NY", "zip": "12072-0445", "ntee": "", "ruling": "198605", "deductibility": "1", "assets": 1, "income": 0, "revenue": 0}, {"ein": "133714761", "name": "CHURCH OF GOD OF FORT INDEPENDENCE INC", "city": "BRONX", "state": "NY", "zip": "10463-5860", "ntee": "X20Z", "ruling": "199809", "deductibility": "1", "assets": 0, "income": 0, "revenue": 0}, {"ein": "133789884", "name": "MARITIME INDUSTRY MUSEUM AT FORT SCHUYLER", "city": "BRONX", "state": "NY", "zip": "10465-4198", "ntee": "A540", "ruling": "199505", "deductibility": "1", "assets": 889953, "income": 615104, "revenue": -20103}, {"ein": "140669680", "name": "FORT ORANGE CLUB INC", "city": "ALBANY", "state": "NY", "zip": "12210-2203", "ntee": "", "ruling": "194502", "deductibility": "2", "assets": 7098085, "income": 5115365, "revenue": 3302975}, {"ein": "140669780", "name": "FORT PLAIN CEMETERY ASSOCIATION", "city": "FORT PLAIN", "state": "NY", "zip": "13339-0327", "ntee": "", "ruling": "197006", "deductibility": "1", "assets": 2083963, "income": 135796, "revenue": 135796}, {"ein": "141032900", "name": "SANDY HILL & FORT EDWARD UNION", "city": "HUDSON FALLS", "state": "NY", "zip": "12839-2648", "ntee": "", "ruling": "194111", "deductibility": "1", "assets": 788988, "income": 115634, "revenue": 115634}, {"ein": "141277834", "name": "OLD STONE FORT CEMETERY ASSOC", "city": "SCHOHARIE", "state": "NY", "zip": "12157-0364", "ntee": "", "ruling": "194905", "deductibility": "1", "assets": 0, "income": 0, "revenue": 0}, {"ein": "141426728", "name": "FORT PLAIN FREE LIBRARY", "city": "FORT PLAIN", "state": "NY", "zip": "13339-1130", "ntee": "B71Z", "ruling": "194202", "deductibility": "1", "assets": 1650168, "income": 374140, "revenue": 240174}, {"ein": "141440924", "name": "THE FORT TICONDEROGA ASSOCIATION INC", "city": "TICONDEROGA", "state": "NY", "zip": "12883-2714", "ntee": "A800", "ruling": "195106", "deductibility": "1", "assets": 25833075, "income": 10951156, "revenue": 7661070}, {"ein": "141456712", "name": "FORT EDWARD FREE LIBRARY ASSOC", "city": "FORT EDWARD", "state": "NY", "zip": "12828-1704", "ntee": "B70", "ruling": "201710", "deductibility": "1", "assets": 279898, "income": 98016, "revenue": 98016}, {"ein": "141505721", "name": "FORT PLAIN MEDICAL FOUNDATION INC", "city": "FORT PLAIN", "state": "NY", "zip": "13339-0017", "ntee": "", "ruling": "197710", "deductibility": "1", "assets": 0, "income": 0, "revenue": 0}, {"ein": "141515005", "name": "FORT HUNTER FREE LIBRARY", "city": "AMSTERDAM", "state": "NY", "zip": "12010-8022", "ntee": "B70", "ruling": "201106", "deductibility": "1", "assets": 74589, "income": 57184, "revenue": 57184}, {"ein": "141581346", "name": "CANAJOHARIE-FORT PLAIN GARDEN CLUB INC", "city": "FORT PLAIN", "state": "NY", "zip": "13339-1462", "ntee": "C42", "ruling": "199911", "deductibility": "1", "assets": 0, "income": 0, "revenue": 0}, {"ein": "141584709", "name": "FORT COVINGTON SENIOR CITIZENS", "city": "FT COVINGTON", "state": "NY", "zip": "12937-1807", "ntee": "P81Z", "ruling": "197910", "deductibility": "1", "assets": 128928, "income": 146903, "revenue": 146903}, {"ein": "141611376", "name": "FORT ANN VOLUNTEER FIRE CO INC", "city": "FORT ANN", "state": "NY", "zip": "12827-0305", "ntee": "", "ruling": "198111", "deductibility": "1", "assets": 1257329, "income": 294110, "revenue": 294110}, {"ein": "141642130", "name": "FORT COVINGTON VOLUNTEER FIRE", "city": "FT COVINGTON", "state": "NY", "zip": "12937-1801", "ntee": "", "ruling": "198502", "deductibility": "2", "assets": 871891, "income": 373184, "revenue": 373184}, {"ein": "141741777", "name": "MIDDLE FORT BAND INC", "city": "CAIRO", "state": "NY", "zip": "12413-0994", "ntee": "", "ruling": "199301", "deductibility": "1", "assets": 0, "income": 0, "revenue": 0}, {"ein": "141765174", "name": "FORT EDWARD FIRE DISTRICT", "city": "FORT EDWARD", "state": "NY", "zip": "12828-0307", "ntee": "", "ruling": "199810", "deductibility": "1", "assets": 0, "income": 0, "revenue": 0}, {"ein": "141781075", "name": "CSEA 0858-905600 WASHINGTON COUNTY FORT ANN CENTRAL SCHOOL DISTRICT", "city": "FORT ANN", "state": "NY", "zip": "12827-5039", "ntee": "J40", "ruling": "201608", "deductibility": "2", "assets": 0, "income": 0, "revenue": 0}, {"ein": "141787819", "name": "FORT HUNTER VOLUNTEER FIRE COMPANY", "city": "SCHENECTADY", "state": "NY", "zip": "12303-5439", "ntee": "M24Z", "ruling": "199801", "deductibility": "1", "assets": 225245, "income": 65956, "revenue": 65956}, {"ein": "141790750", "name": "FORT EDWARDS YOUTH BASEBALL INC", "city": "FORT EDWARD", "state": "NY", "zip": "12828-0161", "ntee": "N60", "ruling": "202503", "deductibility": "1", "assets": 0, "income": 0, "revenue": 0}, {"ein": "141804775", "name": "QUEEN ANNE SENIOR CITIZENS OF FORT ANN", "city": "FORT ANN", "state": "NY", "zip": "12827-0135", "ntee": "P81", "ruling": "199812", "deductibility": "1", "assets": 0, "income": 0, "revenue": 0}, {"ein": "146026454", "name": "SCHOLARSHIP ASSOCIATION OF FORT PLAIN", "city": "FORT PLAIN", "state": "NY", "zip": "13339-0065", "ntee": "B82", "ruling": "199904", "deductibility": "1", "assets": 2599643, "income": 569337, "revenue": 0}, {"ein": "146029986", "name": "FORT EDWARD RESCUE SQUAD INC", "city": "FORT EDWARD", "state": "NY", "zip": "12828-0226", "ntee": "E62Z", "ruling": "195801", "deductibility": "1", "assets": 1659169, "income": 1079634, "revenue": 1079634}, {"ein": "146030802", "name": "FORT EDWARD HISTORICAL ASSOCIATION", "city": "FORT EDWARD", "state": "NY", "zip": "12828-0106", "ntee": "A82Z", "ruling": "196002", "deductibility": "1", "assets": 1557710, "income": 174658, "revenue": 172991}, {"ein": "146032435", "name": "FORT KLOCK HISTORIC RESTORATION", "city": "ST JOHNSVILLE", "state": "NY", "zip": "13452-0042", "ntee": "", "ruling": "196504", "deductibility": "1", "assets": 0, "income": 0, "revenue": 0}, {"ein": "146039822", "name": "FORT ANN RESCUE SQUAD INC", "city": "FORT ANN", "state": "NY", "zip": "12827-0237", "ntee": "M24", "ruling": "201112", "deductibility": "1", "assets": 455066, "income": 1299975, "revenue": 1299975}, {"ein": "146084156", "name": "THE SENIOR CENTER OF THE KINGSBURY & FORT EDWARD AREA INC", "city": "HUDSON FALLS", "state": "NY", "zip": "12839-2317", "ntee": "P81", "ruling": "200709", "deductibility": "1", "assets": 42520, "income": 107457, "revenue": 107457}, {"ein": "146103487", "name": "FORT MILLER REFORMED CHURCH", "city": "FORT EDWARD", "state": "NY", "zip": "12828-0324", "ntee": "", "ruling": "198601", "deductibility": "1", "assets": 0, "income": 0, "revenue": 0}, {"ein": "150309850", "name": "FORT HILL CEMETERY ASSOCIATION", "city": "AUBURN", "state": "NY", "zip": "13021-3733", "ntee": "", "ruling": "195804", "deductibility": "1", "assets": 2297751, "income": 1468151, "revenue": 342103}, {"ein": "150309870", "name": "FORT SCHUYLER CLUB", "city": "UTICA", "state": "NY", "zip": "13502-4325", "ntee": "N51Z", "ruling": "194408", "deductibility": "2", "assets": 884197, "income": 1032073, "revenue": 795718}, {"ein": "160768721", "name": "OLD FORT NIAGARA ASSOCIATION INCORPORATED", "city": "YOUNGSTOWN", "state": "NY", "zip": "14174-1181", "ntee": "", "ruling": "194105", "deductibility": "1", "assets": 6441680, "income": 3667828, "revenue": 1842907}, {"ein": "161228429", "name": "FORT STANWIX GARDEN CLUB", "city": "ROME", "state": "NY", "zip": "13440-1453", "ntee": "N50", "ruling": "201405", "deductibility": "2", "assets": 0, "income": 0, "revenue": 0}, {"ein": "161242387", "name": "FORT BREWERTON CHAMBER OF COMMERCE", "city": "BREWERTON", "state": "NY", "zip": "13029-0655", "ntee": "S41Z", "ruling": "199311", "deductibility": "2", "assets": 0, "income": 0, "revenue": 0}, {"ein": "161250952", "name": "FORT BREWERTON HISTORICAL SOCIETY", "city": "BREWERTON", "state": "NY", "zip": "13029-0392", "ntee": "", "ruling": "197210", "deductibility": "1", "assets": 0, "income": 0, "revenue": 0}, {"ein": "161335963", "name": "FORT DRUM THRIFT SHOP INC", "city": "FORT DRUM", "state": "NY", "zip": "13602-0485", "ntee": "P29Z", "ruling": "199103", "deductibility": "1", "assets": 70120, "income": 143669, "revenue": 143669}, {"ein": "161350538", "name": "FRIENDS OF FORT ONTARIO INC", "city": "OSWEGO", "state": "NY", "zip": "13126-5379", "ntee": "", "ruling": "199407", "deductibility": "1", "assets": 67572, "income": 49771, "revenue": 44313}, {"ein": "161381861", "name": "FORT DRUM REGIONAL LIAISON", "city": "WATERTOWN", "state": "NY", "zip": "13601-3997", "ntee": "", "ruling": "199310", "deductibility": "2", "assets": 457582, "income": 767318, "revenue": 540981}, {"ein": "161382231", "name": "FORT HERKIMER AMATEUR RADIO ASSOCIATION INC", "city": "HERKIMER", "state": "NY", "zip": "13350-0162", "ntee": "M20", "ruling": "202003", "deductibility": "1", "assets": 0, "income": 0, "revenue": 0}, {"ein": "161560736", "name": "FORT LA PRESENTATION COMPANY", "city": "OGDENSBURG", "state": "NY", "zip": "13669-6749", "ntee": "A540", "ruling": "199908", "deductibility": "1", "assets": 2192743, "income": 428913, "revenue": 428913}, {"ein": "161608770", "name": "LAKE GEORGE BATTLEFIELD PARK FORT GEORGE ALLIANCE", "city": "LAKE GEORGE", "state": "NY", "zip": "12845-0026", "ntee": "C27", "ruling": "200203", "deductibility": "1", "assets": 93209, "income": 52316, "revenue": 52316}, {"ein": "200481583", "name": "FORT HUDSON NURSING CENTER INC", "city": "FORT EDWARD", "state": "NY", "zip": "12828-1221", "ntee": "E91", "ruling": "200406", "deductibility": "1", "assets": 11102042, "income": 25964602, "revenue": 25964602}, {"ein": "200928661", "name": "FORT HUDSON HEALTH SYSTEM INC", "city": "FORT EDWARD", "state": "NY", "zip": "12828-1221", "ntee": "E119", "ruling": "200501", "deductibility": "1", "assets": 56716, "income": 871384, "revenue": 871384}, {"ein": "201596237", "name": "FORT SCHUYLER MARITIME ALUMNI ASSOCIATION INC", "city": "BRONX", "state": "NY", "zip": "10465-4127", "ntee": "B118", "ruling": "200501", "deductibility": "1", "assets": 12448417, "income": 1467875, "revenue": 807975}, {"ein": "202537181", "name": "FORT HAMILTON CITIZENS ACTION COMMITEE", "city": "BROOKLYN", "state": "NY", "zip": "11209-4602", "ntee": "A23", "ruling": "200506", "deductibility": "1", "assets": 12570, "income": 2756, "revenue": 2756}, {"ein": "203148106", "name": "FORT HOMESTEAD ASSOCIATION", "city": "POUGHKEEPSIE", "state": "NY", "zip": "12601-0132", "ntee": "A80", "ruling": "200601", "deductibility": "1", "assets": 0, "income": 0, "revenue": 0}, {"ein": "203281976", "name": "FORT ANN HISTORICAL SOCIETY", "city": "FORT ANN", "state": "NY", "zip": "12827-0261", "ntee": "B03", "ruling": "201712", "deductibility": "1", "assets": 1, "income": 1, "revenue": 0}, {"ein": "203619570", "name": "FORT DRUM REGIONAL HEALTH PLANNING ORGANIZATION INC", "city": "WATERTOWN", "state": "NY", "zip": "13601-3740", "ntee": "E70", "ruling": "200603", "deductibility": "1", "assets": 7935727, "income": 2884024, "revenue": 2884024}, {"ein": "204284224", "name": "FORT PLACE HOUSING CORPORATION", "city": "STATEN ISLAND", "state": "NY", "zip": "10304-2604", "ntee": "", "ruling": "194603", "deductibility": "1", "assets": 0, "income": 0, "revenue": 0}, {"ein": "204500060", "name": "WEST FORT ANN VOLUNTEER FIRECOMPANY INC", "city": "FORT ANN", "state": "NY", "zip": "12827-2500", "ntee": "M24", "ruling": "200803", "deductibility": "1", "assets": 1545181, "income": 315895, "revenue": 315895}, {"ein": "208166870", "name": "FORT HUDSON HOME CARE INC", "city": "FORT EDWARD", "state": "NY", "zip": "12828-1221", "ntee": "E92", "ruling": "200703", "deductibility": "1", "assets": 1171935, "income": 8120403, "revenue": 8120403}, {"ein": "222449483", "name": "FORT PLAIN SENIOR CENTER INC", "city": "FORT PLAIN", "state": "NY", "zip": "13339-0011", "ntee": "P81Z", "ruling": "199603", "deductibility": "1", "assets": 125661, "income": 51180, "revenue": 51180}, {"ein": "222485444", "name": "CORNERSTONE BIBLE CHURCH OF FORT ANN NEW YORK", "city": "FORT ANN", "state": "NY", "zip": "12827-0245", "ntee": "", "ruling": "198411", "deductibility": "1", "assets": 0, "income": 0, "revenue": 0}, {"ein": "222512534", "name": "FIRST REFORMED PROTESTANT DUTCH CHURCH OF FORT PLAIN", "city": "FORT PLAIN", "state": "NY", "zip": "13339-1154", "ntee": "", "ruling": "196801", "deductibility": "1", "assets": 0, "income": 0, "revenue": 0}, {"ein": "223368083", "name": "THE FORT HUDSON FOUNDATION CORPORATION", "city": "FORT EDWARD", "state": "NY", "zip": "12828-1221", "ntee": "E99", "ruling": "199602", "deductibility": "1", "assets": 25401, "income": 38621, "revenue": 38621}, {"ein": "223801951", "name": "FORT JOHNSON VOLUNTEER FIRE COMPANY INC", "city": "FORT JOHNSON", "state": "NY", "zip": "12070-1500", "ntee": "M24", "ruling": "200712", "deductibility": "1", "assets": 867566, "income": 362893, "revenue": 362893}, {"ein": "237112589", "name": "FORT GREENE YOUTH PATROL INC", "city": "BROOKLYN", "state": "NY", "zip": "11201-3019", "ntee": "O20", "ruling": "202506", "deductibility": "1", "assets": 0, "income": 0, "revenue": 0}, {"ein": "237332866", "name": "VETERANS FOREIGN WARS UNITED STATES DEPT NY 146 FORT TICONDEROGA", "city": "HAGUE", "state": "NY", "zip": "12836-2513", "ntee": "", "ruling": "197210", "deductibility": "1", "assets": 0, "income": 0, "revenue": 0}, {"ein": "237450883", "name": "FORT ORANGE GARDEN CLUB INC", "city": "LATHAM", "state": "NY", "zip": "12110-0654", "ntee": "S20", "ruling": "199403", "deductibility": "1", "assets": 114522, "income": 63071, "revenue": 44091}, {"ein": "260453245", "name": "CHABAD JEWISH CENTER OF FORT GREENEAND CLINTON HILL INC", "city": "BROOKLYN", "state": "NY", "zip": "11238-1946", "ntee": "X30", "ruling": "200810", "deductibility": "1", "assets": 0, "income": 0, "revenue": 0}, {"ein": "264062909", "name": "FRIENDS OF THE FORT PLAIN", "city": "FORT PLAIN", "state": "NY", "zip": "13339-0145", "ntee": "A80", "ruling": "200903", "deductibility": "1", "assets": 357982, "income": 107349, "revenue": 107349}, {"ein": "270453474", "name": "FORT HAMILTON COMMUNITY SPOUSES FOUNDATION INC", "city": "BROOKLYN", "state": "NY", "zip": "11252-9513", "ntee": "P20", "ruling": "201105", "deductibility": "1", "assets": 45234, "income": 35287, "revenue": 21334}, {"ein": "271459023", "name": "FORT SCHUYLER MANAGEMENT CORPORATION", "city": "ALBANY", "state": "NY", "zip": "12203-3613", "ntee": "B194", "ruling": "201211", "deductibility": "1", "assets": 101330907, "income": 9850661, "revenue": 1396885}, {"ein": "311655779", "name": "FORT HUDSON RESIDENCES INC", "city": "FORT EDWARD", "state": "NY", "zip": "12828-1221", "ntee": "L22", "ruling": "199911", "deductibility": "1", "assets": 806979, "income": 985585, "revenue": 985585}, {"ein": "364605845", "name": "FORT ANN YOUTH LEAGUE INC", "city": "FORT ANN", "state": "NY", "zip": "12827-0172", "ntee": "", "ruling": "200810", "deductibility": "1", "assets": 74316, "income": 60914, "revenue": 52200}, {"ein": "364828356", "name": "FORT SALONGA PROPERTY OWNERS ASSOCIATION INC", "city": "FORT SALONGA", "state": "NY", "zip": "11768-1332", "ntee": "L50", "ruling": "201704", "deductibility": "2", "assets": 46746, "income": 4500, "revenue": 4500}, {"ein": "450520676", "name": "FORT GREENE PUPS INC", "city": "BROOKLYN", "state": "NY", "zip": "11217-4300", "ntee": "N32", "ruling": "201203", "deductibility": "1", "assets": 0, "income": 0, "revenue": 0}, {"ein": "452753431", "name": "AMERICAN LEGION FORT CRAILO POST 471", "city": "RENSSELAER", "state": "NY", "zip": "12144-2105", "ntee": "", "ruling": "202003", "deductibility": "1", "assets": 111719, "income": 41673, "revenue": 41673}, {"ein": "463123167", "name": "FORT COVINGTON EMS INC", "city": "FT COVINGTON", "state": "NY", "zip": "12937-0447", "ntee": "M24", "ruling": "201411", "deductibility": "1", "assets": 243279, "income": 243132, "revenue": 243132}, {"ein": "463241378", "name": "FORT HUDSON CERTIFIED HOME HEALTH AGENCY INC", "city": "FORT EDWARD", "state": "NY", "zip": "12828-1221", "ntee": "E92", "ruling": "201312", "deductibility": "1", "assets": 235042, "income": 1906895, "revenue": 1906895}, {"ein": "463563289", "name": "WEST FORT ANN AUXILIARY INC", "city": "FORT ANN", "state": "NY", "zip": "12827-1720", "ntee": "W12", "ruling": "201407", "deductibility": "1", "assets": 0, "income": 0, "revenue": 0}, {"ein": "463974320", "name": "GOOD NEIGHBORS OF FORT GREENE AND CLINTON HILL INC", "city": "BROOKLYN", "state": "NY", "zip": "11205-4602", "ntee": "P99", "ruling": "201407", "deductibility": "1", "assets": 0, "income": 0, "revenue": 0}, {"ein": "464888880", "name": "FORT FITNESS & RECREATION INC", "city": "FT MONTGOMERY", "state": "NY", "zip": "10922-0004", "ntee": "N50", "ruling": "201407", "deductibility": "1", "assets": 1478060, "income": 249241, "revenue": 184542}, {"ein": "465351606", "name": "FORT DRUM HEALTHCARE PARTNERS INC", "city": "WATERTOWN", "state": "NY", "zip": "13601-3740", "ntee": "E60", "ruling": "201503", "deductibility": "1", "assets": 176, "income": 0, "revenue": 0}, {"ein": "474748341", "name": "FORT HILL PERFORMING ARTS CENTER INC", "city": "CANANDAIGUA", "state": "NY", "zip": "14424-1184", "ntee": "A65", "ruling": "201701", "deductibility": "1", "assets": 2192268, "income": 450232, "revenue": 443462}, {"ein": "475212189", "name": "FORT GREENE TENNIS ASSOCIATION INC", "city": "NEW YORK", "state": "NY", "zip": "10128-5177", "ntee": "N66", "ruling": "201702", "deductibility": "1", "assets": 99142, "income": 111408, "revenue": 111408}, {"ein": "562629871", "name": "FORT HAMILTON HOCKEY CORPORATION", "city": "BROOKLYN", "state": "NY", "zip": "11230-6019", "ntee": "N68", "ruling": "200703", "deductibility": "1", "assets": 0, "income": 0, "revenue": 0}, {"ein": "811495326", "name": "FORT COVINGTON HISTORICAL SOCIETY OF FRANKLIN COUNTY NY", "city": "FT COVINGTON", "state": "NY", "zip": "12937-0276", "ntee": "A54", "ruling": "201701", "deductibility": "1", "assets": 0, "income": 0, "revenue": 0}, {"ein": "821896232", "name": "VILLAGE OF FORT EDWARD CANAL STREET MARKET PLACE INC", "city": "FORT EDWARD", "state": "NY", "zip": "12828-0086", "ntee": "K99", "ruling": "201810", "deductibility": "1", "assets": 0, "income": 0, "revenue": 0}, {"ein": "823392211", "name": "FORT SCHUYLER HOUSE II INC", "city": "BRONX", "state": "NY", "zip": "10465-2548", "ntee": "L20", "ruling": "201804", "deductibility": "1", "assets": 0, "income": 0, "revenue": 0}, {"ein": "823656267", "name": "FORT HAMILTON HIGH SCHOOL PTA", "city": "BROOKLYN", "state": "NY", "zip": "11209-4299", "ntee": "B94", "ruling": "201801", "deductibility": "1", "assets": 0, "income": 0, "revenue": 0}, {"ein": "824567563", "name": "FORT SCHUYLER FOOTBALL BOOSTER CLUB INC", "city": "OAKDALE", "state": "NY", "zip": "11769-0443", "ntee": "N12", "ruling": "201805", "deductibility": "1", "assets": 0, "income": 0, "revenue": 0}, {"ein": "834187882", "name": "FORT GREENE AND FARRAGUT OLD TIMERS", "city": "BROOKLYN", "state": "NY", "zip": "11201-1879", "ntee": "S20", "ruling": "201906", "deductibility": "1", "assets": 0, "income": 0, "revenue": 0}, {"ein": "834279129", "name": "FORT ANN PTSO", "city": "FORT ANN", "state": "NY", "zip": "12827-5039", "ntee": "B94", "ruling": "202306", "deductibility": "1", "assets": 0, "income": 0, "revenue": 0}, {"ein": "841536591", "name": "COMMUNITY DEVELOPMENT PROPERTIES FORT COLLINS INC", "city": "NEW YORK", "state": "NY", "zip": "10004-0000", "ntee": "", "ruling": "198811", "deductibility": "1", "assets": 0, "income": 0, "revenue": 0}, {"ein": "862267373", "name": "HERITAGE ASSOCIATION OF FORT COVINGTON", "city": "FT COVINGTON", "state": "NY", "zip": "12937-2815", "ntee": "A54", "ruling": "202106", "deductibility": "1", "assets": 0, "income": 0, "revenue": 0}, {"ein": "871388035", "name": "FORT EDWARD GARRISON", "city": "PORTER CORS", "state": "NY", "zip": "12859-1710", "ntee": "B12", "ruling": "202403", "deductibility": "1", "assets": 0, "income": 0, "revenue": 0}, {"ein": "923302465", "name": "FRIENDS OF FORT HARDY PARK", "city": "SCHUYLERVILLE", "state": "NY", "zip": "12871-0062", "ntee": "N32", "ruling": "202402", "deductibility": "1", "assets": 3007, "income": 3007, "revenue": 3007}, {"ein": "931768717", "name": "FORT PLAIN CORE INC", "city": "FORT PLAIN", "state": "NY", "zip": "13339-1152", "ntee": "T50", "ruling": "202310", "deductibility": "1", "assets": 18760, "income": 23019, "revenue": 23019}, {"ein": "934720616", "name": "CHAMPION HOOK AND LADDER COMPANY OF FORT PLAIN INC", "city": "FORT PLAIN", "state": "NY", "zip": "13339-0374", "ntee": "M24", "ruling": "202405", "deductibility": "1", "assets": 369811, "income": 69111, "revenue": 58012}, {"ein": "934963845", "name": "ANTWOINE FORT FOUNDATION INC", "city": "WATERVLIET", "state": "NY", "zip": "12189-1721", "ntee": "P32", "ruling": "202403", "deductibility": "1", "assets": 0, "income": 0, "revenue": 0}, {"ein": "990604782", "name": "FRIENDS OF FORT GREENE PARK INC", "city": "BROOKLYN", "state": "NY", "zip": "11205-2305", "ntee": "C30", "ruling": "202501", "deductibility": "1", "assets": 0, "income": 0, "revenue": 0}], "BRNJAMIN": [{"ein": "112443182", "name": "HEBREW CENTER FOR DEVELOPMENTAL LEARNING C O BRNJAMIN ISAACS", "city": "BROOKLYN", "state": "NY", "zip": "11219-1406", "ntee": "", "ruling": "197801", "deductibility": "1", "assets": 0, "income": 0, "revenue": 0}], "LEAVITT": [{"ein": "112569184", "name": "COUNCIL FOR THE VAIL-LEAVITT MUSIC HALL INC", "city": "RIVERHEAD", "state": "NY", "zip": "11901-0105", "ntee": "", "ruling": "198108", "deductibility": "1", "assets": 0, "income": 0, "revenue": 0}], "MARPEH": [{"ein": "112588850", "name": "BAIS MEDRASH MARPEH LENEFESH KHAL BNAI MESIVTA INC", "city": "BROOKLYN", "state": "NY", "zip": "11210-2930", "ntee": "", "ruling": "198205", "deductibility": "1", "assets": 0, "income": 0, "revenue": 0}, {"ein": "113405224", "name": "EIRGUN BARUCH U MARPEH", "city": "BROOKLYN", "state": "NY", "zip": "11219-2021", "ntee": "X30Z", "ruling": "199803", "deductibility": "1", "assets": 0, "income": 0, "revenue": 0}], "OFAMERICA": [{"ein": "112652367", "name": "UKRAINIAN ORTHODOX CHURCH OFAMERICA", "city": "EASTPORT", "state": "NY", "zip": "11941-0000", "ntee": "", "ruling": "198308", "deductibility": "1", "assets": 0, "income": 0, "revenue": 0}, {"ein": "133174039", "name": "UKRAINIAN ORTHODOX CHURCH OFAMERICA", "city": "NEW YORK", "state": "NY", "zip": "10003-7301", "ntee": "", "ruling": "198308", "deductibility": "1", "assets": 0, "income": 0, "revenue": 0}, {"ein": "205746295", "name": "FU JIAN HOU FU ASSOCIATION OFAMERICA INC", "city": "NEW YORK", "state": "NY", "zip": "10002-6710", "ntee": "C11", "ruling": "202305", "deductibility": "1", "assets": 0, "income": 0, "revenue": 0}, {"ein": "923807844", "name": "NEW YORK COMMITTEE OF THE GARDEN CLUB OFAMERICA", "city": "BEDFORD", "state": "NY", "zip": "10506-1738", "ntee": "C42", "ruling": "202305", "deductibility": "1", "assets": 0, "income": 0, "revenue": 0}], "ACTIVITY": [{"ein": "113001300", "name": "VILLAGE OF HEMPSTEAD POLICE ACTIVITY LEAGUE INC", "city": "HEMPSTEAD", "state": "NY", "zip": "11551-0482", "ntee": "I20", "ruling": "201312", "deductibility": "1", "assets": 90349, "income": 63676, "revenue": 63676}, {"ein": "116002869", "name": "NASSAU COUNTY POLICE ACTIVITY LEAGUE INC", "city": "HICKSVILLE", "state": "NY", "zip": "11801-4233", "ntee": "O50", "ruling": "201702", "deductibility": "1", "assets": 5904545, "income": 6710223, "revenue": 6645720}, {"ein": "133188822", "name": "SENIOR ACTIVITY GROUP OF NEW CASTLE", "city": "CHAPPAQUA", "state": "NY", "zip": "10514-2321", "ntee": "", "ruling": "198707", "deductibility": "1", "assets": 0, "income": 0, "revenue": 0}, {"ein": "133769511", "name": "KIDS S P A C E SCHOOL-BASED PROGRAM OF ACTIVITY CARE & ENVIROMENT OF R", "city": "RYE", "state": "NY", "zip": "10580-2953", "ntee": "B82Z", "ruling": "199410", "deductibility": "1", "assets": 114976, "income": 341939, "revenue": 341939}, {"ein": "161549228", "name": "EAST ROCHESTER YOUTH ACTIVITY CENTER INC", "city": "EAST ROCHESTER", "state": "NY", "zip": "14445-1727", "ntee": "O50", "ruling": "199810", "deductibility": "1", "assets": 9190, "income": 500, "revenue": 500}, {"ein": "208210866", "name": "KOMMUNITY YOUTH AND ACTIVITY CENTERINC", "city": "OLD FORGE", "state": "NY", "zip": "13420-7723", "ntee": "O20", "ruling": "200704", "deductibility": "1", "assets": 0, "income": 0, "revenue": 0}, {"ein": "300986390", "name": "SUBWAY-SURFACE TRANSIT SUPERVISORS POLITICAL ACTIVITY CORP", "city": "BRONX", "state": "NY", "zip": "10471-2206", "ntee": "J40", "ruling": "201712", "deductibility": "2", "assets": 2000, "income": 0, "revenue": 0}, {"ein": "454159616", "name": "COMMUNITY ACTIVITY COUNCIL OF ORCHARD PARK INC", "city": "ORCHARD PARK", "state": "NY", "zip": "14127-3134", "ntee": "P81", "ruling": "201203", "deductibility": "1", "assets": 0, "income": 0, "revenue": 0}, {"ein": "462929385", "name": "NASSAU ATHLETIC AND ACTIVITY PROGRAMS INC", "city": "GLENWOOD LNDG", "state": "NY", "zip": "11547-0104", "ntee": "N60", "ruling": "201401", "deductibility": "1", "assets": 47638, "income": 54232, "revenue": 54232}, {"ein": "474515587", "name": "SOUTH ASIAN WOMENS ACTIVITY ORGANIZATION INC", "city": "QUEENS VILLAGE", "state": "NY", "zip": "11428-0000", "ntee": "A20", "ruling": "201807", "deductibility": "1", "assets": 17615, "income": 23443, "revenue": 23443}, {"ein": "830873500", "name": "MICHAEL R MCNULTY CENTER FOR VETERAN ENTREPRENEURIAL ACTIVITY", "city": "WATERVLIET", "state": "NY", "zip": "12189-4021", "ntee": "", "ruling": "201904", "deductibility": "1", "assets": 310957, "income": 540556, "revenue": 540556}, {"ein": "881736684", "name": "BROADWAY COMMUNITY & ACTIVITY CENTER INC", "city": "BROOKLYN", "state": "NY", "zip": "11221-6127", "ntee": "K35", "ruling": "202303", "deductibility": "1", "assets": 10571, "income": 1225974, "revenue": 1225974}, {"ein": "900416840", "name": "BODHIVASTU FOUNDATION FOR ENLIGHTENED ACTIVITY", "city": "POUGHKEEPSIE", "state": "NY", "zip": "12603-1151", "ntee": "X50", "ruling": "200902", "deductibility": "1", "assets": 625023, "income": 126418, "revenue": 126418}, {"ein": "912083210", "name": "EVERYTHING ANIMALS RESOURCE & ACTIVITY CENTER", "city": "BULLVILLE", "state": "NY", "zip": "10915-0104", "ntee": "D60", "ruling": "200202", "deductibility": "1", "assets": 0, "income": 0, "revenue": 0}], "DHAITI": [{"ein": "113020478", "name": "VOIX ET TAMBOUR DHAITI INC", "city": "QUEENS", "state": "NY", "zip": "11422-2126", "ntee": "S80", "ruling": "201409", "deductibility": "1", "assets": 0, "income": 0, "revenue": 0}, {"ein": "352345051", "name": "FONDATION MINOUCHE POUR LES ENFANTS SANS ESPOIR DHAITI INC", "city": "BROOKLYN", "state": "NY", "zip": "11224-1696", "ntee": "P20", "ruling": "200911", "deductibility": "1", "assets": 0, "income": 0, "revenue": 0}], "SUNGNAK": [{"ein": "113054533", "name": "SUNGNAK PRESBYTERIAN CHURCH OF N Y", "city": "FLUSHING", "state": "NY", "zip": "11355-2130", "ntee": "", "ruling": "199201", "deductibility": "1", "assets": 0, "income": 0, "revenue": 0}], "RECLAIMING": [{"ein": "113115119", "name": "ASTORIA RESIDENTS RECLAIMING OUR WORLD INC", "city": "BROOKLYN", "state": "NY", "zip": "11211-4063", "ntee": "C410", "ruling": "199601", "deductibility": "1", "assets": 0, "income": 0, "revenue": 0}, {"ein": "141831763", "name": "RECLAIMING OUR CHILDREN INC", "city": "MAMARONECK", "state": "NY", "zip": "10543-0516", "ntee": "R61", "ruling": "201508", "deductibility": "1", "assets": 0, "income": 0, "revenue": 0}, {"ein": "562393200", "name": "RECLAIMING OUR AFRICAN PRIDE RAP INC", "city": "SYRACUSE", "state": "NY", "zip": "13207-2704", "ntee": "R22", "ruling": "200401", "deductibility": "1", "assets": 0, "income": 0, "revenue": 0}], "SHIRA": [{"ein": "113173356", "name": "CONGREGATION SHIRA CHADASHA", "city": "BROOKLYN", "state": "NY", "zip": "11210-3714", "ntee": "", "ruling": "199309", "deductibility": "1", "assets": 0, "income": 0, "revenue": 0}, {"ein": "113355182", "name": "SHIRA ASSOCIATION INC", "city": "BROOKLYN", "state": "NY", "zip": "11219-2594", "ntee": "O50", "ruling": "199703", "deductibility": "1", "assets": 39331, "income": 8180553, "revenue": 8180553}, {"ein": "260459782", "name": "TIKUN OLAM-JEFF & SHIRA EISENBERG FOUNDATION INC", "city": "LAWRENCE", "state": "NY", "zip": "11559-2601", "ntee": "T22", "ruling": "200904", "deductibility": "1", "assets": 2400959, "income": -201149, "revenue": 0}], "LUSO": [{"ein": "113277351", "name": "LUSO-AMERICAN CULTURAL CENTER OF BROOKLYN INC", "city": "BROOKLYN", "state": "NY", "zip": "11231-2615", "ntee": "B70", "ruling": "199607", "deductibility": "1", "assets": 0, "income": 0, "revenue": 0}, {"ein": "237232118", "name": "LUSO-AMERICAN FINANCIAL A FRATERNAL BENEFIT SOCIETY", "city": "LONG BEACH", "state": "NY", "zip": "11561-2303", "ntee": "", "ruling": "195811", "deductibility": "2", "assets": 0, "income": 0, "revenue": 0}], "SAIT": [{"ein": "113279312", "name": "ETA RASHI SAIT MEMORIAL FUND INC", "city": "BROOKLYN", "state": "NY", "zip": "11229-2910", "ntee": "P20", "ruling": "199604", "deductibility": "1", "assets": 0, "income": 0, "revenue": 0}], "GB": [{"ein": "113316617", "name": "GB CHARITABLE FOUNDATION LTD", "city": "BROOKLYN", "state": "NY", "zip": "11218-0000", "ntee": "T60Z", "ruling": "199707", "deductibility": "1", "assets": 2, "income": 187, "revenue": 0}], "BASILIO": [{"ein": "113350217", "name": "BALLET FOLKLORICO PANAMA NORBERTO BASILIO MOWATT", "city": "BROOKLYN", "state": "NY", "zip": "11238-3140", "ntee": "A63", "ruling": "201710", "deductibility": "1", "assets": 0, "income": 0, "revenue": 0}], "NSB": [{"ein": "113411724", "name": "NSB FAMILY FOUNDATION", "city": "BROOKLYN", "state": "NY", "zip": "11223-2301", "ntee": "T30Z", "ruling": "199812", "deductibility": "1", "assets": 4, "income": 54415, "revenue": 0}], "GARDNER": [{"ein": "113413198", "name": "GARDNER FAMILY FOUNDATION INC", "city": "NEW YORK", "state": "NY", "zip": "10024-6038", "ntee": "T20", "ruling": "199906", "deductibility": "1", "assets": 362413, "income": 109912, "revenue": 0}, {"ein": "133057951", "name": "CHARLOTTE & JOSEPH GARDNER FOUNDATION INC", "city": "NEW YORK", "state": "NY", "zip": "10036-7221", "ntee": "", "ruling": "198103", "deductibility": "1", "assets": 274060, "income": 292132, "revenue": 0}, {"ein": "141803934", "name": "THOMAS R GARDNER MEMORIAL SCHOLARSHIP FUND", "city": "ORCHARD PARK", "state": "NY", "zip": "14127-2936", "ntee": "B82", "ruling": "201402", "deductibility": "1", "assets": 0, "income": 0, "revenue": 0}, {"ein": "146050628", "name": "JAMES J MCCANN TRUST UW C/0 JOHN J GARTLAND JR & WM J GARDNER", "city": "POUGHKEEPSIE", "state": "NY", "zip": "12601-3092", "ntee": "", "ruling": "196906", "deductibility": "1", "assets": 29447581, "income": 6206265, "revenue": 0}, {"ein": "161194166", "name": "THE SALLY EDELMAN AND HARRY GARDNER CANCER RESEARCH FOUNDATION INC", "city": "HILTON", "state": "NY", "zip": "14468-0097", "ntee": "", "ruling": "198508", "deductibility": "1", "assets": 1396409, "income": 527672, "revenue": 178887}, {"ein": "166071950", "name": "RUTH GARDNER TRUST 16-209740 FBO", "city": "NORWICH", "state": "NY", "zip": "13815-0000", "ntee": "", "ruling": "196810", "deductibility": "1", "assets": 28074, "income": 2856, "revenue": 0}, {"ein": "200856551", "name": "DOUGLAS B GARDNER FOUNDATION", "city": "NEW YORK", "state": "NY", "zip": "10128-2238", "ntee": "O12", "ruling": "200408", "deductibility": "1", "assets": 112158, "income": 43681, "revenue": 0}, {"ein": "331158845", "name": "GARDNER ROAD PTO", "city": "HORSEHEADS", "state": "NY", "zip": "14845-1827", "ntee": "B94", "ruling": "201602", "deductibility": "1", "assets": 0, "income": 0, "revenue": 0}, {"ein": "364735975", "name": "EDWARD J GARDNER SCHOLARSHIP FUND", "city": "ALBANY", "state": "NY", "zip": "12203-5121", "ntee": "T20", "ruling": "201407", "deductibility": "1", "assets": 136174, "income": 1, "revenue": 0}, {"ein": "474123256", "name": "GARDNER MARKS FOUNDATION", "city": "BROOKLYN", "state": "NY", "zip": "11217-0000", "ntee": "E01", "ruling": "201510", "deductibility": "1", "assets": 28151, "income": 37624, "revenue": 37624}, {"ein": "562619437", "name": "RICHARD GARDNER JR MEMORIAL FUND", "city": "STATEN ISLAND", "state": "NY", "zip": "10305-4719", "ntee": "P30", "ruling": "200807", "deductibility": "1", "assets": 0, "income": 0, "revenue": 0}], "HSING": [{"ein": "113437676", "name": "HSING-YI SHENG TANG TEMPLE", "city": "FLUSHING", "state": "NY", "zip": "11355-2164", "ntee": "X50", "ruling": "199905", "deductibility": "1", "assets": 0, "income": 0, "revenue": 0}], "ELANDA": [{"ein": "113439600", "name": "YESHIVA ADAS YOSEF ELANDA", "city": "BROOKLYN", "state": "NY", "zip": "11204-2304", "ntee": "X30Z", "ruling": "199809", "deductibility": "1", "assets": 0, "income": 0, "revenue": 0}], "LEN": [{"ein": "113464797", "name": "LEN MICHAEL AND DEYVA SCHREIER FAMILY FOUNDATION INC", "city": "TROY", "state": "NY", "zip": "12182-3314", "ntee": "T20", "ruling": "200001", "deductibility": "1", "assets": 3456, "income": 15070, "revenue": 0}, {"ein": "656444559", "name": "LEN CAMBER CHARITABLE TRUST", "city": "NEW YORK", "state": "NY", "zip": "10001-0000", "ntee": "T20", "ruling": "200706", "deductibility": "1", "assets": 69761, "income": 39537, "revenue": 0}, {"ein": "901036809", "name": "LEN RAGOZIN FOUNDATION INC", "city": "BROOKLYN", "state": "NY", "zip": "11201-0000", "ntee": "Z99", "ruling": "201407", "deductibility": "1", "assets": 1376920, "income": 316461, "revenue": 316461}], "COMISION": [{"ein": "113488537", "name": "MISION EVANGELICA LA GRAN COMISION", "city": "BROOKLYN", "state": "NY", "zip": "11221-3016", "ntee": "X20", "ruling": "200305", "deductibility": "1", "assets": 0, "income": 0, "revenue": 0}, {"ein": "264520714", "name": "MINISTERIO DE EVANGELIZACION LA GRAN COMISION INC", "city": "NEW YORK", "state": "NY", "zip": "10032-1206", "ntee": "X21", "ruling": "201702", "deductibility": "1", "assets": 0, "income": 0, "revenue": 0}], "MUSHKA": [{"ein": "113496769", "name": "CONGREGATION YESHIVA BEIS CHAYA MUSHKA INC", "city": "BROOKLYN", "state": "NY", "zip": "11213-4513", "ntee": "X30", "ruling": "200103", "deductibility": "1", "assets": 0, "income": 0, "revenue": 0}, {"ein": "201100586", "name": "BEIS CHAYA MUSHKA", "city": "BROOKLYN", "state": "NY", "zip": "11213-4513", "ntee": "X30", "ruling": "200406", "deductibility": "1", "assets": 0, "income": 0, "revenue": 0}, {"ein": "332978777", "name": "BEER CHAYA MUSHKA INC", "city": "BROOKLYN", "state": "NY", "zip": "11213-4516", "ntee": "X30", "ruling": "202502", "deductibility": "1", "assets": 0, "income": 0, "revenue": 0}, {"ein": "852543663", "name": "ATERES CHAYA MUSHKA INC", "city": "BROOKLYN", "state": "NY", "zip": "11213-3410", "ntee": "B90", "ruling": "202311", "deductibility": "1", "assets": 0, "income": 0, "revenue": 0}], "HERPDIGEST": [{"ein": "113575123", "name": "HERPDIGEST", "city": "FOREST HILLS", "state": "NY", "zip": "11375-3123", "ntee": "D20", "ruling": "200102", "deductibility": "1", "assets": 0, "income": 0, "revenue": 0}], "STANDANCE": [{"ein": "113595320", "name": "TRISKELION ARTS-KICK-STANDANCE INC", "city": "BROOKLYN", "state": "NY", "zip": "11222-2572", "ntee": "A62", "ruling": "200211", "deductibility": "1", "assets": 1109366, "income": 580907, "revenue": 573903}], "ENHAEROUN": [{"ein": "113599965", "name": "ENHAEROUN CHURCH OF NEW YORK", "city": "FLUSHING", "state": "NY", "zip": "11358-2165", "ntee": "X210", "ruling": "200201", "deductibility": "1", "assets": 0, "income": 0, "revenue": 0}], "YERBABRUJA": [{"ein": "113735206", "name": "TEATRO EXPERIMENTAL YERBABRUJA INC", "city": "BAY SHORE", "state": "NY", "zip": "11706-0000", "ntee": "A60", "ruling": "200603", "deductibility": "1", "assets": 1034899, "income": 924084, "revenue": 924084}], "SATHI": [{"ein": "113764619", "name": "SATHI FOUNDATION INC", "city": "NEW YORK", "state": "NY", "zip": "10009-2128", "ntee": "T20", "ruling": "200803", "deductibility": "1", "assets": 1808258, "income": 239209, "revenue": 0}], "WELDON": [{"ein": "131602243", "name": "JAMES WELDON JOHNSON COMMUNITY CENTERS INC", "city": "NEW YORK", "state": "NY", "zip": "10029-0000", "ntee": "P28Z", "ruling": "195001", "deductibility": "1", "assets": 87336, "income": 0, "revenue": 0}, {"ein": "133151515", "name": "WELDON FAMILY FOUNDATION INC", "city": "NEW YORK", "state": "NY", "zip": "10021-4395", "ntee": "", "ruling": "198308", "deductibility": "1", "assets": 1106268, "income": 240160, "revenue": 0}, {"ein": "932897055", "name": "JAMES WELDON JOHNSON RESIDENT DEVELOPMENT BOARD INC", "city": "NEW YORK", "state": "NY", "zip": "10029-2831", "ntee": "L50", "ruling": "202309", "deductibility": "1", "assets": 0, "income": 0, "revenue": 0}], "VLADIMIRS": [{"ein": "131656625", "name": "ST VLADIMIRS ORTHODOX THEOLOGICAL SEMINARY", "city": "TUCKAHOE", "state": "NY", "zip": "10707-1659", "ntee": "", "ruling": "197210", "deductibility": "1", "assets": 0, "income": 0, "revenue": 0}], "AMREF": [{"ein": "131867411", "name": "AMREF HEALTH AFRICA INC", "city": "NEW YORK", "state": "NY", "zip": "10001-2538", "ntee": "Q300", "ruling": "196107", "deductibility": "1", "assets": 4036440, "income": 6128402, "revenue": 5884669}], "ASSAFA": [{"ein": "131898810", "name": "ASSAFA ISLAMIC CENTER INC", "city": "NEW YORK", "state": "NY", "zip": "10002-2904", "ntee": "X40Z", "ruling": "199806", "deductibility": "1", "assets": 0, "income": 0, "revenue": 0}, {"ein": "810764415", "name": "DARUL ULOOM ASSAFA INSTITUTE INC", "city": "NEW YORK", "state": "NY", "zip": "10002-2904", "ntee": "X40", "ruling": "201908", "deductibility": "1", "assets": 7219, "income": 64132, "revenue": 64132}], "NAT": [{"ein": "132645598", "name": "SOUL SAVING STATION FOR EVERY NAT OF THE CHRIST CRUSADERS OF AM INC", "city": "NEW YORK", "state": "NY", "zip": "10027-3603", "ntee": "", "ruling": "196504", "deductibility": "1", "assets": 0, "income": 0, "revenue": 0}, {"ein": "161199659", "name": "UTICA & MOHAWK VALLEY CHAPTER OF THE NAT RAILWAY HISTORICAL SOC INC", "city": "UTICA", "state": "NY", "zip": "13501-1229", "ntee": "", "ruling": "198712", "deductibility": "1", "assets": 0, "income": 0, "revenue": 0}, {"ein": "320464359", "name": "INSTITUTE OF REAL ESTATE MANAGEMENT OF THE NAT ASSOC OF REALTORS", "city": "TROY", "state": "NY", "zip": "12180-0000", "ntee": "S47Z", "ruling": "197608", "deductibility": "2", "assets": 4753, "income": 38294, "revenue": 38294}, {"ein": "993059094", "name": "NAT TURNER REBEL DEVELOPMENT ORGANIZATION INC", "city": "BRONX", "state": "NY", "zip": "10453-0468", "ntee": "F99", "ruling": "202405", "deductibility": "1", "assets": 0, "income": 0, "revenue": 0}], "WONKAKSA": [{"ein": "132851959", "name": "KOREAN BUDHIST WONKAKSA", "city": "SALISBURY MLS", "state": "NY", "zip": "12577-5224", "ntee": "", "ruling": "197610", "deductibility": "1", "assets": 0, "income": 0, "revenue": 0}], "SUPREME": [{"ein": "132900567", "name": "COLUMBIETTES INCORPORATED SUPREME COUNCIL", "city": "MINEOLA", "state": "NY", "zip": "11501-1523", "ntee": "", "ruling": "197708", "deductibility": "2", "assets": 550673, "income": 214515, "revenue": 214515}, {"ein": "133724150", "name": "THE SUPREME MASTER CHING HAI INTERNATIONAL ASSOCIATION IN NEW Y", "city": "QUEENS", "state": "NY", "zip": "11432-1337", "ntee": "", "ruling": "202011", "deductibility": "1", "assets": 0, "income": 0, "revenue": 0}, {"ein": "134146756", "name": "WESTERN SUPREME BUDDHA TEMPLE INC", "city": "FULTONVILLE", "state": "NY", "zip": "12072-1907", "ntee": "X50", "ruling": "200108", "deductibility": "1", "assets": 0, "income": 0, "revenue": 0}, {"ein": "136131539", "name": "TALL CEDARS OF LEBANON OF NORTH AMERICA SUPREME FOREST", "city": "STATEN ISLAND", "state": "NY", "zip": "10307-1355", "ntee": "", "ruling": "194206", "deductibility": "1", "assets": 0, "income": 0, "revenue": 0}, {"ein": "136217854", "name": "ASSOCIATION OF SURROGATES SUPREME COURT REPORTERS WITHIN THE CITY OF", "city": "NEW YORK", "state": "NY", "zip": "10007-1402", "ntee": "", "ruling": "197701", "deductibility": "2", "assets": 1278880, "income": 628630, "revenue": 462425}, {"ein": "202010087", "name": "ASSOCIATION OF LAW SECRETARIES TO THE JUSTICES OF THE SUPREME AND SU", "city": "NEW YORK", "state": "NY", "zip": "10004-2310", "ntee": "S41", "ruling": "200704", "deductibility": "2", "assets": 0, "income": 0, "revenue": 0}, {"ein": "205909993", "name": "WESTERN SUPREME BUDDHA ASSOCIATIONINC", "city": "AMSTERDAM", "state": "NY", "zip": "12010-0617", "ntee": "X21", "ruling": "200710", "deductibility": "1", "assets": 0, "income": 0, "revenue": 0}, {"ein": "237087513", "name": "SUPREME COURT UNIFORMED OFFICERS ASSOCIATION SECURITY BENEFITS FUND", "city": "BRONX", "state": "NY", "zip": "10465-2900", "ntee": "", "ruling": "197011", "deductibility": "2", "assets": 1905157, "income": 2947598, "revenue": 2947598}, {"ein": "237614419", "name": "ORDER OF THE AMARANTH INC SUPREME COUNCIL", "city": "ALBANY", "state": "NY", "zip": "12207-1904", "ntee": "", "ruling": "197211", "deductibility": "1", "assets": 0, "income": 0, "revenue": 0}, {"ein": "237614453", "name": "ORDER OF THE AMARANTH INC SUPREME COUNCIL", "city": "POUGHKEEPSIE", "state": "NY", "zip": "12601-1523", "ntee": "", "ruling": "197211", "deductibility": "1", "assets": 0, "income": 0, "revenue": 0}, {"ein": "237614499", "name": "ORDER OF THE AMARANTH INC SUPREME COUNCIL", "city": "SMITHTOWN", "state": "NY", "zip": "11787-1817", "ntee": "", "ruling": "197211", "deductibility": "1", "assets": 0, "income": 0, "revenue": 0}, {"ein": "260098365", "name": "ORDER OF THE AMARANTH INC SUPREME COUNCIL", "city": "NEW YORK", "state": "NY", "zip": "10010-4102", "ntee": "", "ruling": "194008", "deductibility": "1", "assets": 0, "income": 0, "revenue": 0}, {"ein": "352336309", "name": "SUPREME ACHIEVERS YOUTH SERVICES INC", "city": "BROOKLYN", "state": "NY", "zip": "11226-5026", "ntee": "O99", "ruling": "201409", "deductibility": "1", "assets": 0, "income": 0, "revenue": 0}, {"ein": "465311597", "name": "COLUMBIETTES INC SUPREME COUNCIL COLUMBIETTES", "city": "CORTLANDT MNR", "state": "NY", "zip": "10567-1232", "ntee": "", "ruling": "197709", "deductibility": "2", "assets": 0, "income": 0, "revenue": 0}, {"ein": "465430111", "name": "ORDER OF THE AMARANTH INC SUPREME COUNCIL", "city": "PORTVILLE", "state": "NY", "zip": "14770-9798", "ntee": "", "ruling": "194008", "deductibility": "1", "assets": 0, "income": 0, "revenue": 0}, {"ein": "571219339", "name": "DRUZE SUPREME MAJLIS OF THE WESTERN HEMISPHERE INC", "city": "NEW YORK", "state": "NY", "zip": "10018-0245", "ntee": "X99", "ruling": "200507", "deductibility": "1", "assets": 0, "income": 0, "revenue": 0}, {"ein": "612040767", "name": "MYSTIC ORDER OF VEILED PROPHETS OF ENCHANTED REALM SUPREME COUNCIL", "city": "COLDEN", "state": "NY", "zip": "14033-9624", "ntee": "", "ruling": "194010", "deductibility": "1", "assets": 0, "income": 0, "revenue": 0}, {"ein": "823900848", "name": "SUPREME TEAM ATHLETIC ACADEMY", "city": "LONG ISLAND CITY", "state": "NY", "zip": "11101-2318", "ntee": "O50", "ruling": "201801", "deductibility": "1", "assets": 0, "income": 0, "revenue": 0}, {"ein": "843212469", "name": "SUPREME GRAND LODGE THE INDEPENDENT ORDER OF MECHANICS PUF", "city": "CAMBRIA HEIGHTS", "state": "NY", "zip": "11411-0000", "ntee": "Y40", "ruling": "202303", "deductibility": "1", "assets": 0, "income": 0, "revenue": 0}, {"ein": "843408327", "name": "SUPREME BASKETBALL NYC INC", "city": "STATEN ISLAND", "state": "NY", "zip": "10314-1404", "ntee": "", "ruling": "202401", "deductibility": "1", "assets": 0, "income": 0, "revenue": 0}, {"ein": "901075381", "name": "TALL CEDARS OF LEBANON OF NORTH AMERICA SUPREME FOREST", "city": "RED HOOK", "state": "NY", "zip": "12571-2533", "ntee": "", "ruling": "194206", "deductibility": "1", "assets": 0, "income": 0, "revenue": 0}, {"ein": "923795011", "name": "MYSTIC ORDER OF VEILED PROPHETS OF ENCHANTED REALM SUPREME COUNCIL", "city": "BABYLON", "state": "NY", "zip": "11702-0000", "ntee": "", "ruling": "194010", "deductibility": "1", "assets": 0, "income": 0, "revenue": 0}, {"ein": "923907676", "name": "SUPREME STRIDERS LTD", "city": "SPRNGFLD GDNS", "state": "NY", "zip": "11413-3312", "ntee": "N70", "ruling": "202404", "deductibility": "1", "assets": 3510, "income": 10013, "revenue": 10013}, {"ein": "992042203", "name": "SUPREME HAVEN SUPPORTIVE HOUSING INC", "city": "FORREST HILLS", "state": "NY", "zip": "11375-6626", "ntee": "F20", "ruling": "202404", "deductibility": "1", "assets": 0, "income": 0, "revenue": 0}], "EMMATROUPE": [{"ein": "132928476", "name": "EMMATROUPE THEATRE LABORATORY", "city": "NEW YORK", "state": "NY", "zip": "10014-6833", "ntee": "", "ruling": "197803", "deductibility": "1", "assets": 0, "income": 0, "revenue": 0}], "STEFFI": [{"ein": "133058080", "name": "STEFFI NOSSEN DANCE FOUNDATION INC", "city": "WHITE PLAINS", "state": "NY", "zip": "10606-1123", "ntee": "A6E0", "ruling": "199801", "deductibility": "1", "assets": 300242, "income": 664646, "revenue": 657708}], "ALBRIGHT": [{"ein": "133116679", "name": "W F ALBRIGHT INSTITUTE OF ARCHAEOLOGICAL RESEARCH", "city": "NEW YORK", "state": "NY", "zip": "10013-2362", "ntee": "", "ruling": "000000", "deductibility": "0", "assets": 203233, "income": 54973, "revenue": 0}, {"ein": "200379869", "name": "JOHN AND ANNE ALBRIGHT FAMILY FOUNDATION", "city": "NEW YORK", "state": "NY", "zip": "10280-1448", "ntee": "T21", "ruling": "200312", "deductibility": "1", "assets": 24600, "income": 5972, "revenue": 0}], "SANFORD": [{"ein": "133225000", "name": "THE SANFORD AND DINA ROSENBLUM FOUNDATION KAREN MARTINO VALLE ESQ", "city": "ALBANY", "state": "NY", "zip": "12208-1813", "ntee": "", "ruling": "198412", "deductibility": "1", "assets": 132, "income": 30000, "revenue": 0}, {"ein": "141736819", "name": "SANFORD W SMITH HOOK & LADDER COMPANY INC", "city": "CHATHAM", "state": "NY", "zip": "12037-0000", "ntee": "M24", "ruling": "200204", "deductibility": "1", "assets": 0, "income": 0, "revenue": 0}, {"ein": "263137781", "name": "FRIENDS OF THE WILLIAM K SANFORD TOWN LIBRARY", "city": "LOUDONVILLE", "state": "NY", "zip": "12211-1126", "ntee": "B11", "ruling": "200911", "deductibility": "1", "assets": 159338, "income": 55937, "revenue": 53737}, {"ein": "270589817", "name": "ADELAIDE L SANFORD INSTITUTE", "city": "OAKLAND GDNS", "state": "NY", "zip": "11364-0039", "ntee": "B90", "ruling": "201003", "deductibility": "1", "assets": 71593, "income": 14620, "revenue": 14620}, {"ein": "451652199", "name": "SANFORD H CALHOUN ALUMNI ASSOCIATION INC", "city": "MERRICK", "state": "NY", "zip": "11566-2973", "ntee": "B84", "ruling": "201708", "deductibility": "1", "assets": 0, "income": 0, "revenue": 0}, {"ein": "900646729", "name": "DURSTON SANFORD TR UW 16-228080", "city": "NEW YORK", "state": "NY", "zip": "10001-2189", "ntee": "T22", "ruling": "200612", "deductibility": "1", "assets": 1283016, "income": 567340, "revenue": 0}], "ROSENBLUM": [{"ein": "133225000", "name": "THE SANFORD AND DINA ROSENBLUM FOUNDATION KAREN MARTINO VALLE ESQ", "city": "ALBANY", "state": "NY", "zip": "12208-1813", "ntee": "", "ruling": "198412", "deductibility": "1", "assets": 132, "income": 30000, "revenue": 0}], "PLIANS": [{"ein": "133281507", "name": "WHITE PLIANS ORGANIZATION FOR HEALTH INITIATIVE INC", "city": "WHITE PLAINS", "state": "NY", "zip": "10601-0000", "ntee": "", "ruling": "198511", "deductibility": "1", "assets": 550280, "income": 0, "revenue": 0}], "TASTE": [{"ein": "133590543", "name": "TASTE OF TRIBECA INC", "city": "NEW YORK", "state": "NY", "zip": "10007-0000", "ntee": "", "ruling": "199206", "deductibility": "1", "assets": 193713, "income": 247271, "revenue": 149598}, {"ein": "161390601", "name": "A TASTE OF BUFFALO INC", "city": "EAST AMHERST", "state": "NY", "zip": "14051-0366", "ntee": "", "ruling": "199502", "deductibility": "2", "assets": 128841, "income": 1180009, "revenue": 1180009}, {"ein": "471396921", "name": "TASTE OF THE SEAPORT", "city": "NEW YORK", "state": "NY", "zip": "10038-1523", "ntee": "B12", "ruling": "201412", "deductibility": "1", "assets": 260329, "income": 258656, "revenue": 258656}, {"ein": "812586809", "name": "TASTE OF HEAVEN MINISTRIES INTERNATIONAL - REFUGE CENTER", "city": "JAMAICA", "state": "NY", "zip": "11433-1036", "ntee": "X21", "ruling": "201612", "deductibility": "1", "assets": 0, "income": 0, "revenue": 0}, {"ein": "821794207", "name": "TASTE AND SEE PSALM 34 8 INC", "city": "RIDGE", "state": "NY", "zip": "11961-3024", "ntee": "K31", "ruling": "202503", "deductibility": "1", "assets": 0, "income": 0, "revenue": 0}, {"ein": "821851262", "name": "TASTE AND SEE", "city": "NIAGARA FALLS", "state": "NY", "zip": "14304-1478", "ntee": "K31", "ruling": "201801", "deductibility": "1", "assets": 0, "income": 0, "revenue": 0}, {"ein": "881902767", "name": "WORLD TASTE AND SMELL DAY ASSOCIATION INC", "city": "MILLBROOK", "state": "NY", "zip": "12545-5508", "ntee": "B99", "ruling": "202301", "deductibility": "1", "assets": 8662, "income": 26311, "revenue": 25761}], "RIWOCHE": [{"ein": "133873386", "name": "RIWOCHE SOCIETY", "city": "NEW YORK", "state": "NY", "zip": "10019-6708", "ntee": "O55", "ruling": "199707", "deductibility": "1", "assets": 0, "income": 0, "revenue": 0}], "ECCLESYA": [{"ein": "133915507", "name": "ECCLESYA UNIVERSAL CHURCH OF EMBRACE", "city": "NEW YORK", "state": "NY", "zip": "10016-6335", "ntee": "X82", "ruling": "199903", "deductibility": "1", "assets": 0, "income": 0, "revenue": 0}], "KLEINOW": [{"ein": "133940659", "name": "KLEINOW FAMILY FOUNDATION INC", "city": "SOUTHAMPTON", "state": "NY", "zip": "11969-5028", "ntee": "T20Z", "ruling": "199710", "deductibility": "1", "assets": 973752, "income": 73812, "revenue": 0}], "TRIUMPH": [{"ein": "133968613", "name": "NEW CHRISTIAN CHURCH THE TRIUMPH OF FAITH INC", "city": "NEW YORK", "state": "NY", "zip": "10009-5333", "ntee": "X99Z", "ruling": "199805", "deductibility": "1", "assets": 0, "income": 0, "revenue": 0}, {"ein": "300532888", "name": "TRIUMPH MISSION", "city": "ROCHESTER", "state": "NY", "zip": "14621-4945", "ntee": "X20", "ruling": "201108", "deductibility": "1", "assets": 0, "income": 0, "revenue": 0}, {"ein": "311762820", "name": "ASSOCIATION FOR THE ARCH TRIUMPH OF THE IMMACULATE HEART OF MARY AND", "city": "WILLIAMSVILLE", "state": "NY", "zip": "14221-4848", "ntee": "X22", "ruling": "200107", "deductibility": "1", "assets": 0, "income": 0, "revenue": 0}, {"ein": "364713283", "name": "TRIUMPH ORGANIZATION INC", "city": "KINGSTON", "state": "NY", "zip": "12401-1814", "ntee": "P30", "ruling": "201210", "deductibility": "1", "assets": 0, "income": 0, "revenue": 0}, {"ein": "462180372", "name": "TRIUMPH CHRISTIAN CHURCH INC", "city": "FLUSHING", "state": "NY", "zip": "11354-3454", "ntee": "X20", "ruling": "201408", "deductibility": "1", "assets": 0, "income": 0, "revenue": 0}, {"ein": "810598315", "name": "TRIUMPH CHURCH OF CHRIST INC", "city": "BALDWIN", "state": "NY", "zip": "11510-3428", "ntee": "X20", "ruling": "202207", "deductibility": "1", "assets": 0, "income": 0, "revenue": 0}, {"ein": "831158506", "name": "TRIUMPH OVER STROKE CNY INC", "city": "MANLIUS", "state": "NY", "zip": "13104-9789", "ntee": "E01", "ruling": "201904", "deductibility": "1", "assets": 0, "income": 0, "revenue": 0}, {"ein": "844317395", "name": "TRIUMPH AFTER TRAGEDY ALTERNATIVE RESOURCES INC", "city": "BROOKLYN", "state": "NY", "zip": "11216-4302", "ntee": "I21", "ruling": "202311", "deductibility": "1", "assets": 0, "income": 0, "revenue": 0}, {"ein": "862847032", "name": "TRIUMPH HOSE COMPANY BENEVOLENT", "city": "HOMER", "state": "NY", "zip": "13077-1528", "ntee": "M24", "ruling": "202107", "deductibility": "1", "assets": 24905, "income": 21502, "revenue": 0}, {"ein": "990904959", "name": "SPIRIT OF TRIUMPH CORPORATION", "city": "BROOKLYN", "state": "NY", "zip": "11204-0000", "ntee": "B99", "ruling": "202403", "deductibility": "1", "assets": 0, "income": 0, "revenue": 0}], "TUFENKIAN": [{"ein": "133976159", "name": "TUFENKIAN FOUNDATION INC", "city": "NEW YORK", "state": "NY", "zip": "10012-3112", "ntee": "T23", "ruling": "199906", "deductibility": "1", "assets": 141978, "income": 1299044, "revenue": 0}], "GANGDRUK": [{"ein": "134042557", "name": "DHOKHAM CHUSHI GANGDRUK INC", "city": "OCEANSIDE", "state": "NY", "zip": "11572-5134", "ntee": "P84", "ruling": "200201", "deductibility": "1", "assets": 79383, "income": 23860, "revenue": 23860}], "ESTADOS": [{"ein": "134053230", "name": "INSTITUTE DUARTIANO DE ESTADOS UNIDOS INC", "city": "NEW YORK", "state": "NY", "zip": "10033-6546", "ntee": "A23", "ruling": "202306", "deductibility": "1", "assets": 0, "income": 0, "revenue": 0}, {"ein": "465759876", "name": "FEDERACION DE ASOCIACIONES ESPANOLAS EN ESTADOS UNIDOS", "city": "NEW YORK", "state": "NY", "zip": "10026-3657", "ntee": "A23", "ruling": "201510", "deductibility": "1", "assets": 0, "income": 0, "revenue": 0}, {"ein": "472617247", "name": "RED MINISTERIAL DE LOS ESTADOS UNIDOS DE AMERICA", "city": "JAMAICA", "state": "NY", "zip": "11435-4713", "ntee": "F22", "ruling": "201808", "deductibility": "1", "assets": 11182, "income": 17951, "revenue": 17951}], "MADDALENA": [{"ein": "134093817", "name": "SANTA MADDALENA FOUNDATION INC", "city": "NEW YORK", "state": "NY", "zip": "10022-6445", "ntee": "A70", "ruling": "200005", "deductibility": "1", "assets": 88559, "income": 170077, "revenue": 170077}, {"ein": "844652475", "name": "FUND FOR SANTA MADDALENA INC", "city": "NEW YORK", "state": "NY", "zip": "10022-6445", "ntee": "A11", "ruling": "202104", "deductibility": "1", "assets": 548590, "income": 950000, "revenue": 950000}], "MATLAB": [{"ein": "134182973", "name": "MATLAB URBANE SOCIETY INC", "city": "BRONX", "state": "NY", "zip": "10467-3007", "ntee": "T20", "ruling": "200311", "deductibility": "1", "assets": 0, "income": 0, "revenue": 0}], "NANSEN": [{"ein": "136162749", "name": "NANSEN PROPERTIES INC", "city": "STATEN ISLAND", "state": "NY", "zip": "10314-6728", "ntee": "", "ruling": "195010", "deductibility": "2", "assets": 166151, "income": 186004, "revenue": 186004}], "SPAETH": [{"ein": "136883977", "name": "CAROL & CHARLES SPAETH MEMORIAL FUND UW", "city": "NEW YORK", "state": "NY", "zip": "10013-2362", "ntee": "D120", "ruling": "192103", "deductibility": "1", "assets": 5935652, "income": 1785574, "revenue": 0}], "SUGIMOTO": [{"ein": "137170113", "name": "HENRY Y SUGIMOTO CHARITABLE FOUNDATION TR UA 122998", "city": "NEW YORK", "state": "NY", "zip": "10019-0000", "ntee": "T20", "ruling": "199907", "deductibility": "1", "assets": 8993, "income": 11, "revenue": 0}], "DALIA": [{"ein": "137219856", "name": "DALIA AND LARRY LEEDS FAMILY FOUNDATION", "city": "NEW YORK", "state": "NY", "zip": "10036-4031", "ntee": "T22", "ruling": "200008", "deductibility": "1", "assets": 15011013, "income": 9177740, "revenue": 0}, {"ein": "931394763", "name": "JACK AND DALIA SCABA FOUNDATION INC", "city": "NEW YORK", "state": "NY", "zip": "10018-7614", "ntee": "T20", "ruling": "202307", "deductibility": "1", "assets": 2031447, "income": 3196737, "revenue": 0}], "RIP": [{"ein": "141365186", "name": "RIP VAN WINKLE FOUNDATION", "city": "NEW YORK", "state": "NY", "zip": "10016-2404", "ntee": "", "ruling": "194604", "deductibility": "1", "assets": 710962, "income": 508865, "revenue": 0}, {"ein": "141766346", "name": "RIP VAN WINKLE AMATEUR RADIO SOCIETY INC", "city": "EAST CHATHAM", "state": "NY", "zip": "12060-0096", "ntee": "B99", "ruling": "200610", "deductibility": "1", "assets": 0, "income": 0, "revenue": 0}, {"ein": "853722759", "name": "ALEXANDRA DE MOURA RIP CURRENT AWARENESS FOUNDATION INC", "city": "HAUPPAUGE", "state": "NY", "zip": "11788-0000", "ntee": "M40", "ruling": "202112", "deductibility": "1", "assets": 29651, "income": 0, "revenue": 0}, {"ein": "932747132", "name": "RIP MICHEALS CORPORATION", "city": "NEW YORK", "state": "NY", "zip": "10027-2517", "ntee": "A20", "ruling": "202309", "deductibility": "1", "assets": 0, "income": 0, "revenue": 0}], "WRAPAROUND": [{"ein": "141377518", "name": "WRAPAROUND SERVICES OF THE HUDSON VALLEY INC", "city": "LAKE KATRINE", "state": "NY", "zip": "12449-5429", "ntee": "G23Z", "ruling": "195305", "deductibility": "1", "assets": 13651094, "income": 17870981, "revenue": 16898356}], "102000B": [{"ein": "146102668", "name": "BERNARD F CONNERS FOUNDATION 102000B", "city": "LATHAM", "state": "NY", "zip": "12110-0000", "ntee": "", "ruling": "197704", "deductibility": "1", "assets": 274572, "income": 56044, "revenue": 0}], "ELOISE": [{"ein": "146152814", "name": "ELOISE MCKNIGHT TR UA 04-05-91", "city": "NEW PALTZ", "state": "NY", "zip": "12561-1103", "ntee": "", "ruling": "000000", "deductibility": "0", "assets": 264264, "income": 131242, "revenue": 0}], "LO": [{"ein": "160867058", "name": "CAMP LI LO LI INCORPORATED", "city": "RANDOLPH", "state": "NY", "zip": "14772-9795", "ntee": "N20Z", "ruling": "199810", "deductibility": "1", "assets": 0, "income": 0, "revenue": 0}, {"ein": "301224997", "name": "MOUNT ZION HOUSE OF PRAYER MINISTRY NATIONS WIDE OUTREACH FOR THE LO", "city": "BROOKLYN", "state": "NY", "zip": "11207-8507", "ntee": "X20", "ruling": "202109", "deductibility": "1", "assets": 0, "income": 0, "revenue": 0}, {"ein": "463914515", "name": "CENTRO CRISTIANO LEVANTATE DEJA TODO LO QUE TIENES Y SIGUEME", "city": "BRONX", "state": "NY", "zip": "10456-5335", "ntee": "X20", "ruling": "201504", "deductibility": "1", "assets": 0, "income": 0, "revenue": 0}, {"ein": "465244173", "name": "LO NYAMSHIP ASSOCIATION USA INC", "city": "WOODSIDE", "state": "NY", "zip": "11377-2522", "ntee": "S80", "ruling": "202111", "deductibility": "1", "assets": 5775195, "income": 1132110, "revenue": 1132110}, {"ein": "823486347", "name": "LO-BA INTERNATIONAL INC", "city": "NEW YORK", "state": "NY", "zip": "10017-7426", "ntee": "Q31", "ruling": "202108", "deductibility": "1", "assets": 0, "income": 0, "revenue": 0}, {"ein": "883541803", "name": "LO CAL-LY UNITED FOR CHANGE INC", "city": "STATEN ISLAND", "state": "NY", "zip": "10302-1127", "ntee": "P50", "ruling": "202208", "deductibility": "1", "assets": 12800, "income": 15900, "revenue": 13900}, {"ein": "932248929", "name": "LO YANG HONG KONG KWAN TAI TONG CHARITY ASSOCIATION INC", "city": "STATEN ISLAND", "state": "NY", "zip": "10306-4146", "ntee": "X50", "ruling": "202312", "deductibility": "1", "assets": 0, "income": 0, "revenue": 0}], "INSTIT": [{"ein": "161184893", "name": "ROCHESTER CHAPTER OF THE CONSTRUCTION SPECIFICATIONS INSTIT", "city": "ROCHESTER", "state": "NY", "zip": "14618-1218", "ntee": "", "ruling": "198505", "deductibility": "2", "assets": 90415, "income": 57133, "revenue": 14338}, {"ein": "461119113", "name": "SYRACUSE CHAPTER OF THE CONSTRUCTION SPECIFICATIONS INSTIT", "city": "UTICA", "state": "NY", "zip": "13501-6421", "ntee": "S40", "ruling": "201307", "deductibility": "2", "assets": 30087, "income": 15236, "revenue": 15236}, {"ein": "464395157", "name": "JOAN AND IRWIN JACOBS TECHNION-CORNELL INNOVATION INSTIT", "city": "NEW YORK", "state": "NY", "zip": "10044-1501", "ntee": "B82", "ruling": "201412", "deductibility": "1", "assets": 203412008, "income": 35381055, "revenue": 29069601}, {"ein": "522199895", "name": "NESACH YISRAEL INSTIT", "city": "BROOKLYN", "state": "NY", "zip": "11223-2843", "ntee": "X30", "ruling": "200202", "deductibility": "1", "assets": 0, "income": 0, "revenue": 0}], "HOL": [{"ein": "161392525", "name": "HOL-FIELD ROD & GUN CLUB INC", "city": "BLOOMFIELD", "state": "NY", "zip": "14469-0000", "ntee": "P20", "ruling": "202001", "deductibility": "2", "assets": 0, "income": 0, "revenue": 0}], "EDUACTIONAL": [{"ein": "161398623", "name": "LASALLE EDUACTIONAL CLUB", "city": "NIAGARA FALLS", "state": "NY", "zip": "14305-2839", "ntee": "P20", "ruling": "201811", "deductibility": "1", "assets": 49750, "income": 24980, "revenue": 24980}], "JGJ": [{"ein": "161421888", "name": "UMH JGJ CORP", "city": "BINGHAMTON", "state": "NY", "zip": "13904-2715", "ntee": "", "ruling": "199011", "deductibility": "1", "assets": 4919771, "income": 6475642, "revenue": 6465212}], "PETERSBURGH": [{"ein": "161588441", "name": "PETERSBURGH PUBLIC LIBRARY", "city": "PETERSBURG", "state": "NY", "zip": "12138-5012", "ntee": "B70", "ruling": "199112", "deductibility": "1", "assets": 0, "income": 0, "revenue": 0}, {"ein": "510196768", "name": "PETERSBURGH RESCUE AMBULANCE SQUAD INC", "city": "PETERSBURGH", "state": "NY", "zip": "12138-0164", "ntee": "E62", "ruling": "200311", "deductibility": "1", "assets": 398415, "income": 89727, "revenue": 89727}], "ALLEGRETTI": [{"ein": "200291969", "name": "VICTOR V ALLEGRETTI FOUNDATION", "city": "BROOKLYN", "state": "NY", "zip": "11214-6546", "ntee": "T30", "ruling": "200404", "deductibility": "1", "assets": 22472, "income": 5, "revenue": 5}], "FREIGHT": [{"ein": "200831723", "name": "EAST OF HUDSON RAIL FREIGHT TASK FORCE INC", "city": "NEW YORK", "state": "NY", "zip": "10279-0000", "ntee": "W40", "ruling": "201401", "deductibility": "1", "assets": 0, "income": 0, "revenue": 0}], "KANOWITZ": [{"ein": "201301939", "name": "AMANDA KANOWITZ FOUNDATION", "city": "SCARSDALE", "state": "NY", "zip": "10583-6931", "ntee": "T30", "ruling": "200408", "deductibility": "1", "assets": 635602, "income": 216788, "revenue": -13271}], "LAMELECH": [{"ein": "201499349", "name": "ATARAH LAMELECH INSTITUTE", "city": "BROOKLYN", "state": "NY", "zip": "11210-2834", "ntee": "O20", "ruling": "200508", "deductibility": "1", "assets": 0, "income": 0, "revenue": 0}], "LEMA": [{"ein": "201614684", "name": "AMERICAN FRIENDS OF LEMA AN ACHAI", "city": "SUFFERN", "state": "NY", "zip": "10901-0000", "ntee": "T30", "ruling": "200604", "deductibility": "1", "assets": 2373063, "income": 3774042, "revenue": 3774042}], "CATHY": [{"ein": "202682043", "name": "CATHY AND CHRISTOPHER LAWRENCE CHARITABLE TR", "city": "NEW YORK", "state": "NY", "zip": "10006-0000", "ntee": "T22", "ruling": "200604", "deductibility": "1", "assets": 206095, "income": 9036, "revenue": 0}, {"ein": "263570071", "name": "CATHY MAE JOHNSON-LOMNICK FOUNDATION", "city": "ROCHESTER", "state": "NY", "zip": "14619-2425", "ntee": "B99", "ruling": "200907", "deductibility": "1", "assets": 0, "income": 0, "revenue": 0}, {"ein": "357227305", "name": "CATHY ANN SCHAWK CHARITABLE FOUNDATION", "city": "ALBANY", "state": "NY", "zip": "12212-5201", "ntee": "T12", "ruling": "201907", "deductibility": "1", "assets": 1, "income": 1, "revenue": 0}, {"ein": "832632855", "name": "CATHY WENDEL LISTA FUND INC", "city": "LANCASTER", "state": "NY", "zip": "14086-2903", "ntee": "T12", "ruling": "201902", "deductibility": "1", "assets": 0, "income": 0, "revenue": 0}], "MINISTRIESINC": [{"ein": "203851919", "name": "NEW HOPE INTERNATIONAL MINISTRIESINC", "city": "DEER PARK", "state": "NY", "zip": "11729-0149", "ntee": "X20", "ruling": "201309", "deductibility": "1", "assets": 0, "income": 0, "revenue": 0}, {"ein": "203933042", "name": "ABUNDANT LIFE CHRISTIAN MINISTRIESINC VICTORY CENTER", "city": "BRONX", "state": "NY", "zip": "10467-5905", "ntee": "X20", "ruling": "200707", "deductibility": "1", "assets": 0, "income": 0, "revenue": 0}, {"ein": "205202078", "name": "FAITH MIRACLE OUTREACH MINISTRIESINC", "city": "BROOKLYN", "state": "NY", "zip": "11238-6201", "ntee": "X20", "ruling": "202207", "deductibility": "1", "assets": 225, "income": 12092, "revenue": 12092}, {"ein": "205803264", "name": "TRUE VINE WORLD OUTREACH MINISTRIESINC", "city": "BRONX", "state": "NY", "zip": "10469-5618", "ntee": "X21", "ruling": "200708", "deductibility": "1", "assets": 0, "income": 0, "revenue": 0}, {"ein": "260497962", "name": "DESALES RESOURCES AND MINISTRIESINC", "city": "STELA NIAGARA", "state": "NY", "zip": "14144-1001", "ntee": "X22", "ruling": "200808", "deductibility": "1", "assets": 170555, "income": 104381, "revenue": 104381}, {"ein": "260903752", "name": "HELPING HANDS OUTREACH MINISTRIESINC", "city": "FARMINGVILLE", "state": "NY", "zip": "11738-1828", "ntee": "X21", "ruling": "200712", "deductibility": "1", "assets": 0, "income": 0, "revenue": 0}], "MOROSS": [{"ein": "204568743", "name": "DOMINIC MOROSS FOUNDATION INC", "city": "NEW YORK", "state": "NY", "zip": "10019-5429", "ntee": "T20", "ruling": "200709", "deductibility": "1", "assets": 2759521, "income": 9404120, "revenue": 0}], "NHRLA": [{"ein": "205395065", "name": "NHRLA INC", "city": "RENSSELAER", "state": "NY", "zip": "12144-8419", "ntee": "S41", "ruling": "200705", "deductibility": "2", "assets": 210925, "income": 73750, "revenue": 56877}], "ARLINDO": [{"ein": "206710947", "name": "THE ARLINDO AND EVELYN JORGE FAMILY FOUNDATION TRUST", "city": "HALESITE", "state": "NY", "zip": "11743-1231", "ntee": "T20", "ruling": "200607", "deductibility": "1", "assets": 12392604, "income": 14569697, "revenue": 0}], "UMITZVOS": [{"ein": "237259896", "name": "CHEVRA SHOMREI SHABBOS UMITZVOS", "city": "BROOKLYN", "state": "NY", "zip": "11213-5552", "ntee": "", "ruling": "197302", "deductibility": "1", "assets": 0, "income": 0, "revenue": 0}], "NUNATAKS": [{"ein": "237454025", "name": "NUNATAKS LTD", "city": "SCARSDALE", "state": "NY", "zip": "10583-1720", "ntee": "C600", "ruling": "197606", "deductibility": "1", "assets": 1547822, "income": 2291532, "revenue": 2095487}], "HONOUR": [{"ein": "237532647", "name": "KNIGHTS OF THE YORK CROSS OF HONOUR CONVENT GENERAL", "city": "NEW WINDSOR", "state": "NY", "zip": "12553-6607", "ntee": "", "ruling": "197210", "deductibility": "1", "assets": 0, "income": 0, "revenue": 0}, {"ein": "237532684", "name": "KNIGHTS OF THE YORK CROSS OF HONOUR CONVENT GENERAL", "city": "ROCHESTER", "state": "NY", "zip": "14616-2339", "ntee": "", "ruling": "197210", "deductibility": "1", "assets": 0, "income": 0, "revenue": 0}, {"ein": "237532694", "name": "KNIGHTS OF THE YORK CROSS OF HONOUR CONVENT GENERAL", "city": "TRUMANSBURG", "state": "NY", "zip": "14886-9318", "ntee": "", "ruling": "197210", "deductibility": "1", "assets": 0, "income": 0, "revenue": 0}, {"ein": "911807630", "name": "KNIGHTS OF THE YORK CROSS OF HONOUR CONVENT GENERAL", "city": "BROOKLYN", "state": "NY", "zip": "11205-5292", "ntee": "", "ruling": "196603", "deductibility": "1", "assets": 0, "income": 0, "revenue": 0}], "SCTA": [{"ein": "256480499", "name": "ARTHUR B & MARION V MYERS SCTA FBO DR AJANIS RESEARCH FUND", "city": "BUFFALO", "state": "NY", "zip": "14240-1504", "ntee": "V110", "ruling": "200109", "deductibility": "1", "assets": 78409, "income": 25600, "revenue": 0}, {"ein": "256480500", "name": "ARTHUR B & MARION V MYERS SCTA RELIGIOUS TRUST", "city": "BUFFALO", "state": "NY", "zip": "14240-1504", "ntee": "X990", "ruling": "200109", "deductibility": "1", "assets": 129274, "income": 42504, "revenue": 0}, {"ein": "256480501", "name": "ARTHUR B & MARION V MYERS SCTA CANCER RESEARCH FUND", "city": "BUFFALO", "state": "NY", "zip": "14240-1504", "ntee": "V120", "ruling": "200109", "deductibility": "1", "assets": 303280, "income": 97136, "revenue": 0}], "GRAPEVILLE": [{"ein": "260225974", "name": "MEDWAY-GRAPEVILLE VOLUNTEER FIRECOMPANY INC", "city": "EARLTON", "state": "NY", "zip": "12058-3909", "ntee": "M99", "ruling": "201405", "deductibility": "1", "assets": 0, "income": 0, "revenue": 0}], "FORGET": [{"ein": "260317634", "name": "NEVER FORGET FOUNDATION INC", "city": "NANUET", "state": "NY", "zip": "10954-3217", "ntee": "W30", "ruling": "201105", "deductibility": "1", "assets": 45633, "income": 10815, "revenue": 10815}, {"ein": "271200391", "name": "FORGET ME NOT OF AMERICA INC", "city": "RIVERHEAD", "state": "NY", "zip": "11901-5312", "ntee": "F12", "ruling": "201709", "deductibility": "1", "assets": 382301, "income": 155781, "revenue": 23005}, {"ein": "843285797", "name": "NEVER FORGET LACROSSE FOUNDATION INC", "city": "FREEPORT", "state": "NY", "zip": "11520-6240", "ntee": "N12", "ruling": "201911", "deductibility": "1", "assets": 0, "income": 0, "revenue": 0}, {"ein": "993395520", "name": "VIRGINIAS FORGET ME NOT FOUNDATION", "city": "SAYVILLE", "state": "NY", "zip": "11782-1912", "ntee": "H83", "ruling": "202407", "deductibility": "1", "assets": 0, "income": 0, "revenue": 0}], "ROJAS": [{"ein": "262777010", "name": "LUIS ROJAS FOUNDATION", "city": "NEW YORK", "state": "NY", "zip": "10003-9294", "ntee": "N64", "ruling": "200912", "deductibility": "1", "assets": 0, "income": 0, "revenue": 0}, {"ein": "562551178", "name": "JOSH ROJAS FOUNDATION", "city": "ROCHESTER", "state": "NY", "zip": "14617-0507", "ntee": "B82", "ruling": "200603", "deductibility": "1", "assets": 85876, "income": 6745, "revenue": 6745}, {"ein": "932887245", "name": "FUNDACION HERMANOS ROJAS", "city": "NEW YORK", "state": "NY", "zip": "10031-0000", "ntee": "P20", "ruling": "202402", "deductibility": "1", "assets": 0, "income": 0, "revenue": 0}], "PROSTHODONTISTS": [{"ein": "263758099", "name": "AMERICAN COLLEGE OF PROSTHODONTISTS", "city": "NEW YORK", "state": "NY", "zip": "10028-2191", "ntee": "S41", "ruling": "200910", "deductibility": "2", "assets": 44244, "income": 104518, "revenue": 104518}], "PHILIPPINES": [{"ein": "263879237", "name": "MIAGAOWANONS ASSOCIATION OF PHILIPPINES IN THE EAST COAST USA", "city": "QUEENS VLG", "state": "NY", "zip": "11428-1214", "ntee": "S99", "ruling": "201406", "deductibility": "1", "assets": 8143, "income": 240, "revenue": 0}, {"ein": "320340544", "name": "INTERNATIONAL INITIATIVE FOR THE PHILIPPINES INC", "city": "STAATSBURG", "state": "NY", "zip": "12580-5746", "ntee": "Q122", "ruling": "201202", "deductibility": "1", "assets": 0, "income": 0, "revenue": 0}, {"ein": "464987330", "name": "CHILDREN OF THE PHILIPPINES CHARITY FUND INC", "city": "BAYSIDE", "state": "NY", "zip": "11360-1107", "ntee": "P30", "ruling": "201410", "deductibility": "1", "assets": 0, "income": 0, "revenue": 0}, {"ein": "812607397", "name": "PHILLIP IN THE PHILIPPINES INC", "city": "NEW YORK", "state": "NY", "zip": "10022-5041", "ntee": "P20", "ruling": "201707", "deductibility": "1", "assets": 0, "income": 0, "revenue": 0}, {"ein": "822035444", "name": "PHILIPPINES INLAND MISSIONS", "city": "LINDENHURST", "state": "NY", "zip": "11757-6414", "ntee": "X20", "ruling": "201408", "deductibility": "1", "assets": 0, "income": 0, "revenue": 0}, {"ein": "822990237", "name": "FRIENDS OF THE PHILIPPINES SOCIETY USA", "city": "NEW YORK", "state": "NY", "zip": "10016-0000", "ntee": "A20", "ruling": "201805", "deductibility": "1", "assets": 1, "income": 2000, "revenue": 2000}, {"ein": "852701329", "name": "FRIENDS OF CHABAD OF THE PHILIPPINES INC", "city": "BROOKLYN", "state": "NY", "zip": "11213-2719", "ntee": "X30", "ruling": "202104", "deductibility": "1", "assets": 0, "income": 0, "revenue": 0}, {"ein": "882743462", "name": "CHABAD EL NIDO PHILIPPINES - JEWISH CENTER INC", "city": "BROOKLYN", "state": "NY", "zip": "11213-3410", "ntee": "X30", "ruling": "202302", "deductibility": "1", "assets": 0, "income": 0, "revenue": 0}, {"ein": "932656839", "name": "MRS PHILIPPINES AMERICA FOUNDATION LIONS CLUB INC", "city": "BAYSIDE", "state": "NY", "zip": "11361-3317", "ntee": "S80", "ruling": "202410", "deductibility": "1", "assets": 0, "income": 0, "revenue": 0}], "CRISES": [{"ein": "264139621", "name": "SWERGOLD FAMILY FOUNDATION FOR CHILDREN IN CRISES", "city": "NEW YORK", "state": "NY", "zip": "10017-5833", "ntee": "T22", "ruling": "200908", "deductibility": "1", "assets": 1209299, "income": 84622, "revenue": 84622}], "JOURDAN": [{"ein": "264264978", "name": "YVA JOURDAN FOUNDATION INC", "city": "VALLEY STREAM", "state": "NY", "zip": "11580-1187", "ntee": "P20", "ruling": "201302", "deductibility": "1", "assets": 5174, "income": 32446, "revenue": 32446}], "ALMS": [{"ein": "270313138", "name": "LEVITE ALMS", "city": "BROOKLYN", "state": "NY", "zip": "11207-5773", "ntee": "A34", "ruling": "201502", "deductibility": "1", "assets": 2894, "income": 22, "revenue": 0}, {"ein": "334296064", "name": "PURE ALMS", "city": "NEW YORK", "state": "NY", "zip": "10029-6117", "ntee": "P20", "ruling": "202507", "deductibility": "1", "assets": 0, "income": 0, "revenue": 0}], "CJL": [{"ein": "272576572", "name": "CJL FOUNDATION", "city": "BROOKLYN", "state": "NY", "zip": "11215-2144", "ntee": "T20", "ruling": "201008", "deductibility": "1", "assets": 124381, "income": 9510, "revenue": 0}], "DUNOON": [{"ein": "275054925", "name": "DUNOON TECHNICAL HIGH SCHOOL ALUMNI ASSOCIATION NORTH EASTERN CHAPTER", "city": "CAMBRIA HEIGHTS", "state": "NY", "zip": "11411-0000", "ntee": "B11", "ruling": "201407", "deductibility": "1", "assets": 0, "income": 0, "revenue": 0}], "COOMBS": [{"ein": "276905689", "name": "COOMBS-ROBBINS TR FUND", "city": "BUFFALO", "state": "NY", "zip": "14240-1504", "ntee": "T22", "ruling": "201402", "deductibility": "1", "assets": 984544, "income": 465253, "revenue": 0}], "RAVENSBEARD": [{"ein": "300150474", "name": "RAVENSBEARD WILDLIFE CENTER INC", "city": "SAUGERTIES", "state": "NY", "zip": "12477-3663", "ntee": "D30", "ruling": "201803", "deductibility": "1", "assets": 104906, "income": 96209, "revenue": 68560}], "FARMSTEAD": [{"ein": "301026450", "name": "FARMSTEAD EQUESTRIAN TEAM INC", "city": "WOODBURY", "state": "NY", "zip": "11797-2805", "ntee": "N69", "ruling": "201803", "deductibility": "1", "assets": 0, "income": 0, "revenue": 0}, {"ein": "831939945", "name": "NIRMALAS FARMSTEAD FOUNDATION INCORPORATED", "city": "CANAJOHARIE", "state": "NY", "zip": "13317-0095", "ntee": "K20", "ruling": "201811", "deductibility": "1", "assets": 0, "income": 0, "revenue": 0}], "YOURSELF": [{"ein": "320147415", "name": "HELP YOURSELF WIN FOUNDATION", "city": "SCHENECTADY", "state": "NY", "zip": "12308-2404", "ntee": "B28", "ruling": "200508", "deductibility": "1", "assets": 745522, "income": 184017, "revenue": 184017}, {"ein": "460562656", "name": "LOVE YOURSELF PROJECT INC", "city": "BROOKLYN", "state": "NY", "zip": "11201-3458", "ntee": "P20", "ruling": "201407", "deductibility": "1", "assets": 0, "income": 0, "revenue": 0}, {"ein": "475347879", "name": "LOVE YOURSELF FOUNDATION", "city": "BROOKLYN", "state": "NY", "zip": "11201-0000", "ntee": "O22", "ruling": "201711", "deductibility": "1", "assets": 0, "income": 0, "revenue": 0}, {"ein": "871741103", "name": "STAY TRUE TO YOURSELF FOUNDATION", "city": "NEW YORK", "state": "NY", "zip": "10027-1820", "ntee": "O50", "ruling": "202412", "deductibility": "1", "assets": 0, "income": 0, "revenue": 0}, {"ein": "881171167", "name": "WOMEN CHALLENGE YOURSELF INC", "city": "JAMAICA", "state": "NY", "zip": "11434-3703", "ntee": "S81", "ruling": "202204", "deductibility": "1", "assets": 0, "income": 0, "revenue": 0}, {"ein": "882357657", "name": "MARQUISE BRAHAM BEST OF YOURSELF FOUNDATION INC", "city": "ROSEDALE", "state": "NY", "zip": "11422-2145", "ntee": "O99", "ruling": "202402", "deductibility": "1", "assets": 43616, "income": 62985, "revenue": 62985}, {"ein": "882694919", "name": "LEVERAGE YOURSELF INC", "city": "ALBANY", "state": "NY", "zip": "12207-0000", "ntee": "O50", "ruling": "202207", "deductibility": "1", "assets": 0, "income": 0, "revenue": 0}, {"ein": "883319174", "name": "DETERMINED ACCOUNTABLE TO YOURSELF", "city": "BROOKLYN", "state": "NY", "zip": "11236-3310", "ntee": "F20", "ruling": "202209", "deductibility": "1", "assets": 0, "income": 0, "revenue": 0}], "GENETASKA": [{"ein": "320251005", "name": "GENETASKA CLUB OF ROCHESTER INC", "city": "FARMINGTON", "state": "NY", "zip": "14425-7049", "ntee": "P12", "ruling": "200908", "deductibility": "1", "assets": 4115, "income": 42256, "revenue": 12513}], "SMOCKING": [{"ein": "320435732", "name": "SMOCKING ARTS GUILD OF AMERICA INC", "city": "SLOATSBURG", "state": "NY", "zip": "10974-2645", "ntee": "", "ruling": "198107", "deductibility": "1", "assets": 0, "income": 0, "revenue": 0}], "INDYKIDS": [{"ein": "331129680", "name": "INDYKIDS", "city": "NEW YORK CITY", "state": "NY", "zip": "10163-2281", "ntee": "B90", "ruling": "201009", "deductibility": "1", "assets": 6107, "income": 26109, "revenue": 26109}], "MEDITERRANEAN": [{"ein": "331259945", "name": "MEDITERRANEAN ARTISTS PROJECT INC", "city": "NEW YORK", "state": "NY", "zip": "10003-1502", "ntee": "A99", "ruling": "202501", "deductibility": "1", "assets": 0, "income": 0, "revenue": 0}], "LLA": [{"ein": "332029871", "name": "LLA STINSON INC", "city": "SHIRLEY", "state": "NY", "zip": "11967-3324", "ntee": "O50", "ruling": "202504", "deductibility": "1", "assets": 0, "income": 0, "revenue": 0}], "TIXGIVING": [{"ein": "334094834", "name": "TIXGIVING FOUNDATION INC", "city": "WESTBURY", "state": "NY", "zip": "11590-2100", "ntee": "A60", "ruling": "202505", "deductibility": "1", "assets": 0, "income": 0, "revenue": 0}], "AELA": [{"ein": "352429796", "name": "AELA & DONALD MORGAN CHARITABLE FOUNDATION", "city": "NEW YORK", "state": "NY", "zip": "10004-1405", "ntee": "B82", "ruling": "201206", "deductibility": "1", "assets": 6990, "income": 55118, "revenue": 0}], "KABAKOV": [{"ein": "356906882", "name": "ILYA AND EMILIA KABAKOV FOUNDATION", "city": "MATTITUCK", "state": "NY", "zip": "11952-2277", "ntee": "T23", "ruling": "201209", "deductibility": "1", "assets": 2125668, "income": 135670, "revenue": 0}, {"ein": "921393378", "name": "ILYA AND EMILIA KABAKOV ART FOUNDATION INC", "city": "NEW YORK", "state": "NY", "zip": "10007-3661", "ntee": "A51", "ruling": "202303", "deductibility": "1", "assets": 838279, "income": 80076, "revenue": 0}], "SOROITY": [{"ein": "383728049", "name": "OMEGA CHI CHAPTER CHI ETA PHI SOROITY INCORPORATED", "city": "BROOKLYN", "state": "NY", "zip": "11207-5902", "ntee": "B99", "ruling": "201409", "deductibility": "1", "assets": 0, "income": 0, "revenue": 0}, {"ein": "842328420", "name": "SIGMA GAMMA RHO SOROITY", "city": "BROOKLYN", "state": "NY", "zip": "11236-3908", "ntee": "", "ruling": "196203", "deductibility": "2", "assets": 0, "income": 0, "revenue": 0}], "SOPHER": [{"ein": "412208576", "name": "J I SOPHER CHARITABLE FOUNDATION INC", "city": "NEW YORK", "state": "NY", "zip": "10022-5460", "ntee": "T22", "ruling": "200702", "deductibility": "1", "assets": 1, "income": 1, "revenue": 0}], "BACKSTAGE": [{"ein": "453565819", "name": "F-M BACKSTAGE BACKERS", "city": "MANLIUS", "state": "NY", "zip": "13104-2103", "ntee": "Z99", "ruling": "201912", "deductibility": "1", "assets": 0, "income": 0, "revenue": 0}], "MINS": [{"ein": "453931968", "name": "MINS COURT HOUSING COMPANY INC", "city": "BRONX", "state": "NY", "zip": "10457-5833", "ntee": "L20", "ruling": "201408", "deductibility": "1", "assets": 3910779, "income": 1753458, "revenue": 1753458}], "SCSD": [{"ein": "455338679", "name": "SCSD SPORTS ORGANIZATION INC", "city": "SYRACUSE", "state": "NY", "zip": "13215-1549", "ntee": "N11", "ruling": "201302", "deductibility": "1", "assets": 0, "income": 0, "revenue": 0}, {"ein": "812801754", "name": "SCSD AQUATICS CLUB", "city": "SYRACUSE", "state": "NY", "zip": "13220-5245", "ntee": "N67", "ruling": "202210", "deductibility": "1", "assets": 0, "income": 0, "revenue": 0}], "INMACULADA": [{"ein": "461012640", "name": "HERMANAS FRANCISCANAS DE LA INMACULADA CONCEPCION", "city": "BROOKLYN", "state": "NY", "zip": "11215-1803", "ntee": "", "ruling": "194603", "deductibility": "1", "assets": 0, "income": 0, "revenue": 0}], "TOMMIE": [{"ein": "462940946", "name": "TOMMIE CARES FOUNDATION INC", "city": "OSSINING", "state": "NY", "zip": "10562-1320", "ntee": "O50", "ruling": "201407", "deductibility": "1", "assets": 0, "income": 0, "revenue": 0}], "CMI": [{"ein": "462943452", "name": "AMERICAN FRIENDS OF CMI INC", "city": "NEW YORK", "state": "NY", "zip": "10020-0083", "ntee": "Q12", "ruling": "201408", "deductibility": "1", "assets": 0, "income": 0, "revenue": 0}], "VINCYCARES": [{"ein": "463529043", "name": "VINCYCARES INC", "city": "BROOKLYN", "state": "NY", "zip": "11207-8908", "ntee": "B99", "ruling": "201408", "deductibility": "1", "assets": 0, "income": 0, "revenue": 0}], "EDUCATI": [{"ein": "464209882", "name": "PNINEI CHEIN - GUIDANCE AND EDUCATI ON FOR GIRLS IN BEIT SHEMES", "city": "BROOKLYN", "state": "NY", "zip": "11210-4509", "ntee": "X30", "ruling": "202401", "deductibility": "1", "assets": 92070, "income": 4178, "revenue": 4178}], "G6PD": [{"ein": "465442800", "name": "G6PD DEFICIENCY FOUNDATION INC", "city": "BABYLON", "state": "NY", "zip": "11702-3405", "ntee": "E80", "ruling": "201502", "deductibility": "1", "assets": 29821, "income": 7058, "revenue": 7058}], "LYESOMIM": [{"ein": "471129215", "name": "TIKVAH LYESOMIM INC", "city": "BROOKLYN", "state": "NY", "zip": "11219-5076", "ntee": "W12", "ruling": "201409", "deductibility": "1", "assets": 63782, "income": 14601, "revenue": 14601}], "ECAL": [{"ein": "471413589", "name": "ECAL VETERANS FOR VETERANS INC", "city": "BUFFALO", "state": "NY", "zip": "14220-1412", "ntee": "P85", "ruling": "201507", "deductibility": "1", "assets": 0, "income": 0, "revenue": 0}], "BHS": [{"ein": "472512087", "name": "BHS NJROTC BOOSTER CLUB INC", "city": "BREWSTER", "state": "NY", "zip": "10509-6138", "ntee": "B11", "ruling": "201501", "deductibility": "1", "assets": 0, "income": 0, "revenue": 0}, {"ein": "830340830", "name": "BHS PTA INC", "city": "BROOKLYN", "state": "NY", "zip": "11201-6402", "ntee": "B94", "ruling": "201705", "deductibility": "1", "assets": 79950, "income": 75233, "revenue": 67452}, {"ein": "872002496", "name": "BHS LADY BULLDOG SOCCER BOOSTER CLUB", "city": "WAPPINGERS FL", "state": "NY", "zip": "12590-7023", "ntee": "N64", "ruling": "202111", "deductibility": "1", "assets": 0, "income": 0, "revenue": 0}, {"ein": "920364432", "name": "BHS LACROSSE BOOSTER CLUB INC", "city": "BREWSTER", "state": "NY", "zip": "10509-6402", "ntee": "O12", "ruling": "202211", "deductibility": "1", "assets": 0, "income": 0, "revenue": 0}], "LEITER": [{"ein": "474413338", "name": "SAUL LEITER FOUNDATION", "city": "NEW YORK", "state": "NY", "zip": "10003-7541", "ntee": "A20", "ruling": "201508", "deductibility": "1", "assets": 147888, "income": 80875, "revenue": 0}, {"ein": "816796362", "name": "MAYER SIMCHA LEITER CHARITABLE FOUNDATION", "city": "BROOKLYN", "state": "NY", "zip": "11213-4542", "ntee": "T20", "ruling": "201706", "deductibility": "1", "assets": 5705180, "income": 4593012, "revenue": 0}], "MARTI": [{"ein": "475033315", "name": "JOSE MARTI ALUMNI ASSOCIATION NEW YORK INC", "city": "WESTBURY", "state": "NY", "zip": "11590-3314", "ntee": "T12", "ruling": "201809", "deductibility": "1", "assets": 0, "income": 0, "revenue": 0}, {"ein": "991359570", "name": "MARTI YOUTH FOUNDATION INC", "city": "FLORAL PARK", "state": "NY", "zip": "11002-0031", "ntee": "O50", "ruling": "202406", "deductibility": "1", "assets": 12594, "income": 48789, "revenue": 48789}], "DREAMMAKER": [{"ein": "475169314", "name": "DREAMMAKER DREAMDOER DREAMSUPPORTER", "city": "BROOKLYN", "state": "NY", "zip": "11201-1548", "ntee": "A20", "ruling": "201610", "deductibility": "1", "assets": 31126, "income": 134655, "revenue": 134655}], "SORRENTINO": [{"ein": "475605767", "name": "SORRENTINO FAMILY FOUNDATION CORP", "city": "HUNTINGTON", "state": "NY", "zip": "11743-2052", "ntee": "T22", "ruling": "202002", "deductibility": "1", "assets": 22521, "income": 61406, "revenue": 61406}, {"ein": "871493797", "name": "VIKI SORRENTINO FOUNDATION INC", "city": "NORTHPORT", "state": "NY", "zip": "11768-1179", "ntee": "A68", "ruling": "202109", "deductibility": "1", "assets": 0, "income": 0, "revenue": 0}, {"ein": "993923616", "name": "SORRENTINO FAMILY CHARITY INC", "city": "ALBANY", "state": "NY", "zip": "12207-2834", "ntee": "P12", "ruling": "202407", "deductibility": "1", "assets": 0, "income": 0, "revenue": 0}], "YESUSCHER": [{"ein": "475679649", "name": "YESHIVA TOLDOS YESUSCHER", "city": "BROOKLYN", "state": "NY", "zip": "11219-5416", "ntee": "X20", "ruling": "201601", "deductibility": "1", "assets": 0, "income": 0, "revenue": 0}], "MECH": [{"ein": "510203229", "name": "GRAND COUNCIL OF THE IND ORDER OF MECH FRIENDLY SOC N CEN & S AMER", "city": "BROOKLYN", "state": "NY", "zip": "11238-2515", "ntee": "", "ruling": "197708", "deductibility": "2", "assets": 516546, "income": 274538, "revenue": 262588}], "MANDAT": [{"ein": "510556361", "name": "SR MARIE DE MANDAT GRANCEY FOUNDATION", "city": "COLD SPG HBR", "state": "NY", "zip": "11724-1013", "ntee": "X99", "ruling": "200711", "deductibility": "1", "assets": 83353, "income": 2113, "revenue": 2113}], "KASHAU": [{"ein": "522385244", "name": "CONG NACHLAS MORDECHAI ZVI-KASHAU", "city": "MONSEY", "state": "NY", "zip": "10952-0000", "ntee": "X30", "ruling": "200301", "deductibility": "1", "assets": 0, "income": 0, "revenue": 0}], "MELVA": [{"ein": "527200928", "name": "COLLARY MELVA C TUW", "city": "AMHERST", "state": "NY", "zip": "14228-2307", "ntee": "T20", "ruling": "200503", "deductibility": "1", "assets": 145019, "income": 29257, "revenue": 0}], "WEFEEDM": [{"ein": "811759915", "name": "WEFEEDM INITIATIVE", "city": "BRONX", "state": "NY", "zip": "10452-7672", "ntee": "X02", "ruling": "201604", "deductibility": "1", "assets": 0, "income": 0, "revenue": 0}], "STREETZ": [{"ein": "813561047", "name": "OFF DA STREETZ", "city": "BROOKLYN", "state": "NY", "zip": "11207-8725", "ntee": "P20", "ruling": "201803", "deductibility": "1", "assets": 0, "income": 0, "revenue": 0}], "DANES": [{"ein": "813769469", "name": "HEALING & HOPE THERAPY GREAT DANES INC", "city": "APALACHIN", "state": "NY", "zip": "13732-1810", "ntee": "D99", "ruling": "201609", "deductibility": "1", "assets": 0, "income": 0, "revenue": 0}, {"ein": "921013002", "name": "GRAYED DANES LACROSSE COLLECTIVE INC", "city": "MANLIUS", "state": "NY", "zip": "13104-8519", "ntee": "T50", "ruling": "202301", "deductibility": "1", "assets": 9610, "income": 47696, "revenue": 0}], "LITERATURHAUS": [{"ein": "814011603", "name": "LITERATURHAUS INCORPORATED", "city": "NEW YORK", "state": "NY", "zip": "10036-7410", "ntee": "A33", "ruling": "201610", "deductibility": "1", "assets": 0, "income": 0, "revenue": 0}], "REVOLUTIONARY": [{"ein": "820964022", "name": "REVOLUTIONARY WESTCHESTER 250 INC", "city": "IRVINGTON", "state": "NY", "zip": "10533-1709", "ntee": "A80", "ruling": "201910", "deductibility": "1", "assets": 34567, "income": 53424, "revenue": 53424}, {"ein": "934300349", "name": "WASHINGTON ROCHAMBEAU REVOLUTIONARY ROUTE NEW YORK", "city": "YORKTOWN HTS", "state": "NY", "zip": "10598-5815", "ntee": "S20", "ruling": "202312", "deductibility": "1", "assets": 0, "income": 0, "revenue": 0}, {"ein": "991347186", "name": "LEADERSHIP REVOLUTIONARY CENTER INC", "city": "BRONX", "state": "NY", "zip": "10460-3165", "ntee": "B90", "ruling": "202403", "deductibility": "1", "assets": 0, "income": 0, "revenue": 0}], "ADINS": [{"ein": "822343647", "name": "ADINS CLOSET INC", "city": "MONSEY", "state": "NY", "zip": "10952-1238", "ntee": "T30", "ruling": "201709", "deductibility": "1", "assets": 29812, "income": 321405, "revenue": 321405}], "CANPAIGN4MOMS": [{"ein": "822400900", "name": "CANPAIGN4MOMS INC", "city": "BROOKLYN", "state": "NY", "zip": "11230-4053", "ntee": "P60", "ruling": "201711", "deductibility": "1", "assets": 0, "income": 0, "revenue": 0}], "MSBM": [{"ein": "823550308", "name": "MSBM FOUNDATION", "city": "BROOKLYN", "state": "NY", "zip": "11219-1738", "ntee": "Z99", "ruling": "201910", "deductibility": "1", "assets": 1332899, "income": 128412, "revenue": 0}], "HINGE": [{"ein": "824683673", "name": "HINGE NEIGHBORS INC", "city": "ROCHESTER", "state": "NY", "zip": "14605-2924", "ntee": "S22", "ruling": "201909", "deductibility": "1", "assets": 43004, "income": 11240, "revenue": 11240}], "KUCZINSKI": [{"ein": "824733392", "name": "LEAH KUCZINSKI LEGACY FOUNDATION", "city": "MERRICK", "state": "NY", "zip": "11566-3419", "ntee": "B12", "ruling": "201902", "deductibility": "1", "assets": 132400, "income": 6003, "revenue": 6003}], "SUSPENSION": [{"ein": "824828742", "name": "SUSPENSION BRIDGE VILLAGE PRESERVATION", "city": "NIAGARA FALLS", "state": "NY", "zip": "14303-1957", "ntee": "B03", "ruling": "201804", "deductibility": "1", "assets": 0, "income": 0, "revenue": 0}], "GAA": [{"ein": "824840696", "name": "HIBERNIANS OF SUFFOLK COUNTY NY GAA LTD", "city": "SOUTHAMPTON", "state": "NY", "zip": "11969-2994", "ntee": "A23", "ruling": "201902", "deductibility": "1", "assets": 0, "income": 0, "revenue": 0}, {"ein": "844709217", "name": "BUFFALO GAA", "city": "LANCASTER", "state": "NY", "zip": "14086-3404", "ntee": "N60", "ruling": "202011", "deductibility": "1", "assets": 0, "income": 0, "revenue": 0}], "CANAWAUGUS": [{"ein": "831748626", "name": "CANAWAUGUS SPORTSMENS CLUB", "city": "ROCHESTER", "state": "NY", "zip": "14623-2039", "ntee": "N50", "ruling": "201907", "deductibility": "2", "assets": 0, "income": 0, "revenue": 0}], "SYE": [{"ein": "832030921", "name": "SYE INITIATIVE INC", "city": "NEW YORK", "state": "NY", "zip": "10017-6872", "ntee": "B90", "ruling": "201908", "deductibility": "1", "assets": 96364, "income": 75853, "revenue": 75853}], "RRA": [{"ein": "832895526", "name": "RRA 50 FORWARD FUND INC", "city": "NEW YORK", "state": "NY", "zip": "10172-0003", "ntee": "P12", "ruling": "202006", "deductibility": "1", "assets": 413908, "income": 1, "revenue": 0}], "NOOK": [{"ein": "833039145", "name": "NOOK FOUNDATION", "city": "BUFFALO", "state": "NY", "zip": "14208-1528", "ntee": "O50", "ruling": "201903", "deductibility": "1", "assets": 0, "income": 0, "revenue": 0}], "ROCS": [{"ein": "834145110", "name": "DOWNTOWN ROCS INC", "city": "SPENCERPORT", "state": "NY", "zip": "14559-2409", "ntee": "S20", "ruling": "201904", "deductibility": "1", "assets": 0, "income": 0, "revenue": 0}, {"ein": "853930366", "name": "ROCS MINISTRY INTERNATIONAL", "city": "WHITE PLAINS", "state": "NY", "zip": "10607-1313", "ntee": "X20", "ruling": "202201", "deductibility": "1", "assets": 0, "income": 0, "revenue": 0}], "AEGIS": [{"ein": "836279243", "name": "AEGIS FOR DREAMS FOUNDATION", "city": "SARATOGA SPGS", "state": "NY", "zip": "12866-1523", "ntee": "A30", "ruling": "202312", "deductibility": "1", "assets": 0, "income": 0, "revenue": 0}, {"ein": "873685333", "name": "AEGIS ARCHIVE INC", "city": "ITHACA", "state": "NY", "zip": "14850-4619", "ntee": "B70", "ruling": "202202", "deductibility": "1", "assets": 1, "income": 0, "revenue": 0}], "DOCUTRIBE": [{"ein": "841685304", "name": "DOCUTRIBE INC", "city": "CORTLANDT MNR", "state": "NY", "zip": "10567-7011", "ntee": "A31", "ruling": "200606", "deductibility": "1", "assets": 38910, "income": 30071, "revenue": 30071}], "SHAHEEDAN": [{"ein": "842103702", "name": "GURUDWARA SHAHEEDAN INC", "city": "HICKSVILLE", "state": "NY", "zip": "11801-3806", "ntee": "X99", "ruling": "202007", "deductibility": "1", "assets": 0, "income": 0, "revenue": 0}], "YOSELOFF": [{"ein": "843759217", "name": "NANAR AND ANTHONY YOSELOFF FOUNDATION INC", "city": "NEW YORK", "state": "NY", "zip": "10022-4334", "ntee": "T22", "ruling": "202005", "deductibility": "1", "assets": 25775032, "income": 1811921, "revenue": 0}, {"ein": "900111032", "name": "ANTHONY A YOSELOFF FOUNDATION INC", "city": "NEW YORK", "state": "NY", "zip": "10022-4334", "ntee": "T22", "ruling": "200310", "deductibility": "1", "assets": 60443117, "income": 5008432, "revenue": 0}], "SHERILANNS": [{"ein": "844290569", "name": "SHERILANNS BICYCLE RODEO", "city": "CHEEKTOWAGA", "state": "NY", "zip": "14225-0376", "ntee": "O12", "ruling": "202004", "deductibility": "1", "assets": 0, "income": 0, "revenue": 0}], "THINKUBATOR": [{"ein": "851875592", "name": "THE THINKUBATOR INC", "city": "POUGHKEEPSIE", "state": "NY", "zip": "12603-4112", "ntee": "J22", "ruling": "202008", "deductibility": "1", "assets": 0, "income": 0, "revenue": 0}], "AFRICVISION": [{"ein": "853272817", "name": "AFRICVISION TV NETWORK INC", "city": "BRONX", "state": "NY", "zip": "10456-5712", "ntee": "R20", "ruling": "202107", "deductibility": "1", "assets": 0, "income": 0, "revenue": 0}], "PADRES": [{"ein": "853834346", "name": "OSSINING PADRES HISPANOS INC", "city": "OSSINING", "state": "NY", "zip": "10562-4219", "ntee": "P20", "ruling": "202204", "deductibility": "1", "assets": 309157, "income": 373187, "revenue": 373187}], "EQUITUNITY": [{"ein": "854124698", "name": "EQUITUNITY INC", "city": "BROOKLYN", "state": "NY", "zip": "11223-4408", "ntee": "S20", "ruling": "202105", "deductibility": "1", "assets": 0, "income": 0, "revenue": 0}], "EARTHPERCENT": [{"ein": "863830611", "name": "EARTHPERCENT FOUNDATION", "city": "NEW YORK", "state": "NY", "zip": "10003-0000", "ntee": "C12", "ruling": "202204", "deductibility": "1", "assets": 80356, "income": 148971, "revenue": 148971}], "RIAAN": [{"ein": "871188456", "name": "RIAAN RESEARCH INITIATIVE INC", "city": "OAKLAND GDNS", "state": "NY", "zip": "11364-2331", "ntee": "G05", "ruling": "202109", "deductibility": "1", "assets": 2148775, "income": 889134, "revenue": 889134}], "RAYITOS": [{"ein": "871383675", "name": "RAYITOS DEL SOL", "city": "WHITE PLAINS", "state": "NY", "zip": "10606-1810", "ntee": "P99", "ruling": "202110", "deductibility": "1", "assets": 144886, "income": 100016, "revenue": 100016}], "WEBU": [{"ein": "871999282", "name": "WEBU HEALTHCARE SERVICES", "city": "BRONX", "state": "NY", "zip": "10457-7172", "ntee": "G01", "ruling": "202112", "deductibility": "1", "assets": 0, "income": 0, "revenue": 0}], "ROGERSON": [{"ein": "872286618", "name": "CLARK ROGERSON FORAY ASSOCIATION INC", "city": "EASTCHESTER", "state": "NY", "zip": "10709-4419", "ntee": "C60", "ruling": "202208", "deductibility": "1", "assets": 0, "income": 0, "revenue": 0}], "MAINES": [{"ein": "874555682", "name": "DAVID AND TAMI MAINES CHARITABLE FOUNDATION INC", "city": "BINGHAMTON", "state": "NY", "zip": "13901-6012", "ntee": "T22", "ruling": "202203", "deductibility": "1", "assets": 1, "income": 1, "revenue": 0}], "PARTYS": [{"ein": "881768955", "name": "PARTYS PEOPLE INC", "city": "GLENS FALLS", "state": "NY", "zip": "12801-2221", "ntee": "W12", "ruling": "202207", "deductibility": "1", "assets": 0, "income": 0, "revenue": 0}], "CHANGEHAMPTON": [{"ein": "883461393", "name": "CHANGEHAMPTON LTD", "city": "EAST HAMPTON", "state": "NY", "zip": "11937-0257", "ntee": "C30", "ruling": "202209", "deductibility": "1", "assets": 0, "income": 0, "revenue": 0}], "VARVARO": [{"ein": "884411058", "name": "ANTHONY M VARVARO FOUNDATION INC", "city": "STATEN ISLAND", "state": "NY", "zip": "10310-2507", "ntee": "O12", "ruling": "202309", "deductibility": "1", "assets": 0, "income": 0, "revenue": 0}], "SUFFOCK": [{"ein": "900635885", "name": "NYS SOCIETY OF PROFESSIONAL ENGINEERS SUFFOCK CHAPTER", "city": "WEST HILLS", "state": "NY", "zip": "11743-6616", "ntee": "S41", "ruling": "201109", "deductibility": "2", "assets": 25449, "income": 4000, "revenue": 4000}], "DERABEINI": [{"ein": "920835290", "name": "CONGREGATION TOREH VEYIREH DERABEINI YOEL", "city": "MONROE", "state": "NY", "zip": "10950-8916", "ntee": "X30", "ruling": "202408", "deductibility": "1", "assets": 0, "income": 0, "revenue": 0}], "BRIGHTHER": [{"ein": "920898976", "name": "BRIGHTHER TOMORROW CORP", "city": "NEW YORK", "state": "NY", "zip": "10036-4707", "ntee": "T20", "ruling": "202302", "deductibility": "1", "assets": 51313, "income": 60022, "revenue": 0}], "PULCHRA": [{"ein": "923184496", "name": "FRIENDS OF TOTA PULCHRA ARS VATICANA INC", "city": "SOUTHAMPTON", "state": "NY", "zip": "11968-2238", "ntee": "W12", "ruling": "202304", "deductibility": "1", "assets": 0, "income": 0, "revenue": 0}], "MONOGAMY": [{"ein": "932057953", "name": "SOCIAL MONOGAMY INC", "city": "BRONX", "state": "NY", "zip": "10467-6035", "ntee": "A27", "ruling": "202405", "deductibility": "1", "assets": 1, "income": 1, "revenue": 0}], "ROCMISSIONS": [{"ein": "932669305", "name": "ROCMISSIONS INC", "city": "ROCHESTER", "state": "NY", "zip": "14621-4027", "ntee": "X20", "ruling": "202309", "deductibility": "1", "assets": 0, "income": 0, "revenue": 0}], "EGOZ": [{"ein": "933312467", "name": "FRIENDS OF EGOZ INC", "city": "NEW YORK", "state": "NY", "zip": "10022-6293", "ntee": "T12", "ruling": "202309", "deductibility": "1", "assets": 0, "income": 0, "revenue": 0}], "MINDMATTER": [{"ein": "934809727", "name": "MINDMATTER FOUNDATION INCORPORATED", "city": "MANHASSET", "state": "NY", "zip": "11030-1645", "ntee": "E60", "ruling": "202405", "deductibility": "1", "assets": 0, "income": 0, "revenue": 0}], "FRISE": [{"ein": "952591850", "name": "BICHON FRISE CLUB OF AMERICA INC", "city": "MASSAPEQUA", "state": "NY", "zip": "11758-7916", "ntee": "D60", "ruling": "200606", "deductibility": "2", "assets": 143210, "income": 50539, "revenue": 46855}], "GMIL": [{"ein": "990948709", "name": "GMIL FOUNDATION", "city": "BUFFALO", "state": "NY", "zip": "14209-1310", "ntee": "K40", "ruling": "202402", "deductibility": "1", "assets": 0, "income": 0, "revenue": 0}], "SHEPERD": [{"ein": "991099398", "name": "SHEPERD COURT COMMUNITY OUTREACH INC", "city": "BROOKLYN", "state": "NY", "zip": "11207-3054", "ntee": "W99", "ruling": "202404", "deductibility": "1", "assets": 0, "income": 0, "revenue": 0}], "MOULINEAUX": [{"ein": "991287129", "name": "FRIENDS OF CHABAD ISSY LES MOULINEAUX INC", "city": "BROOKLYN", "state": "NY", "zip": "11213-5212", "ntee": "X30", "ruling": "202409", "deductibility": "1", "assets": 0, "income": 0, "revenue": 0}], "DAENA": [{"ein": "993644822", "name": "DAENA FOUNDATION INC", "city": "MASTIC", "state": "NY", "zip": "11950-3520", "ntee": "X99", "ruling": "202506", "deductibility": "1", "assets": 0, "income": 0, "revenue": 0}], "MULE": [{"ein": "995115434", "name": "MARTHA DE MULE INC", "city": "NEW YORK", "state": "NY", "zip": "10027-7410", "ntee": "A80", "ruling": "202501", "deductibility": "1", "assets": 0, "income": 0, "revenue": 0}]}