{"BRONZE": [{"ein": "010561195", "name": "FINGER LAKES BRONZE INC", "city": "NEWARK", "state": "NY", "zip": "14513-1701", "ntee": "A68", "ruling": "200203", "deductibility": "1", "assets": 0, "income": 0, "revenue": 0}, {"ein": "161496615", "name": "GENESEE VALLEY BRONZE BEARS SOCCER CLUB INC", "city": "GENESEO", "state": "NY", "zip": "14454-0401", "ntee": "N64", "ruling": "199703", "deductibility": "1", "assets": 13512, "income": 96735, "revenue": 96735}], "ADOPT": [{"ein": "010581598", "name": "HAVE A HEART ADOPT A PET FOUNDATION INC", "city": "PRT WASHINGTN", "state": "NY", "zip": "11050-4137", "ntee": "D20", "ruling": "201208", "deductibility": "1", "assets": 0, "income": 0, "revenue": 0}, {"ein": "200877964", "name": "ADOPT A CLASS", "city": "NEW YORK", "state": "NY", "zip": "10005-2701", "ntee": "B122", "ruling": "200407", "deductibility": "1", "assets": 0, "income": 0, "revenue": 0}, {"ein": "203685062", "name": "OPERATION ADOPT A SOLDIER INC", "city": "GANSEVOORT", "state": "NY", "zip": "12831-1830", "ntee": "W30", "ruling": "200904", "deductibility": "1", "assets": 232712, "income": 189745, "revenue": 151794}, {"ein": "222158496", "name": "ADOPT-A-PET INC", "city": "ALDEN", "state": "NY", "zip": "14004-8812", "ntee": "D200", "ruling": "197707", "deductibility": "1", "assets": 0, "income": 0, "revenue": 0}, {"ein": "270475437", "name": "ADOPT-A-BATTALION INC", "city": "FARMINGDALE", "state": "NY", "zip": "11735-5500", "ntee": "P20", "ruling": "200909", "deductibility": "1", "assets": 0, "income": 0, "revenue": 0}, {"ein": "320551929", "name": "WNY FURTASTIC ADOPT A THON INC", "city": "WILLIAMSVILLE", "state": "NY", "zip": "14221-7513", "ntee": "D12", "ruling": "201805", "deductibility": "1", "assets": 8170, "income": 9175, "revenue": 0}, {"ein": "412129099", "name": "ADOPT-A-PET CLINIC INC", "city": "TROY", "state": "NY", "zip": "12180-8988", "ntee": "D20", "ruling": "200404", "deductibility": "1", "assets": 1738, "income": 1575, "revenue": 1575}, {"ein": "461485424", "name": "ADOPT A HOUSE INC", "city": "LINDENHURST", "state": "NY", "zip": "11757-0000", "ntee": "M20", "ruling": "201301", "deductibility": "1", "assets": 0, "income": 634, "revenue": 634}, {"ein": "871266060", "name": "ADOPT A DESTINY INC", "city": "JAMAICA", "state": "NY", "zip": "11434-3950", "ntee": "B82", "ruling": "202201", "deductibility": "1", "assets": 0, "income": 0, "revenue": 0}, {"ein": "872991509", "name": "ADOPT A GRANDPARENT INC", "city": "ROCHESTER", "state": "NY", "zip": "14618-2213", "ntee": "P58", "ruling": "202101", "deductibility": "1", "assets": 0, "income": 0, "revenue": 0}, {"ein": "994530934", "name": "ADOPT A FAMILY USA INC", "city": "SPRING VALLEY", "state": "NY", "zip": "10977-3344", "ntee": "P20", "ruling": "202409", "deductibility": "1", "assets": 125319, "income": 142734, "revenue": 142734}], "ADOPTION": [{"ein": "010611443", "name": "CENTER FOR ADOPTION POLICY STUDIES INC", "city": "RYE", "state": "NY", "zip": "10580-4320", "ntee": "O05", "ruling": "200203", "deductibility": "1", "assets": 0, "income": 0, "revenue": 0}, {"ein": "020659061", "name": "GREYHOUND ADOPTION OF GREATER ROCHESTER NY INC", "city": "HEMLOCK", "state": "NY", "zip": "14466-9665", "ntee": "D20", "ruling": "200302", "deductibility": "1", "assets": 0, "income": 0, "revenue": 0}, {"ein": "043558659", "name": "FOUNDATION TO SUPPORT ADOPTION OF WAITING AMERICAN CHILDREN INC", "city": "YONKERS", "state": "NY", "zip": "10710-3615", "ntee": "P120", "ruling": "200105", "deductibility": "1", "assets": 0, "income": 0, "revenue": 0}, {"ein": "112869661", "name": "FAMILY FOCUS ADOPTION SERVICES", "city": "CASTLETON", "state": "NY", "zip": "12033-9584", "ntee": "P31Z", "ruling": "198802", "deductibility": "1", "assets": 270117, "income": 1498517, "revenue": 1498517}, {"ein": "113272603", "name": "YOU GOTTA BELIEVE THE OLDER CHILD ADOPTION & PERMANENCY MOVEMENT", "city": "NEW YORK", "state": "NY", "zip": "10001-2813", "ntee": "P31", "ruling": "199601", "deductibility": "1", "assets": 3575699, "income": 4120820, "revenue": 2198703}, {"ein": "116000821", "name": "LITTLE SHELTER ANIMAL ADOPTION CENTER INC", "city": "HUNTINGTON", "state": "NY", "zip": "11743-5918", "ntee": "D200", "ruling": "193306", "deductibility": "1", "assets": 2612667, "income": 4087127, "revenue": 4036970}, {"ein": "161317511", "name": "COALITION OF ADOPTION AND FOSTER FAMILY AGENCIES", "city": "GETZVILLE", "state": "NY", "zip": "14068-0174", "ntee": "P31", "ruling": "200002", "deductibility": "1", "assets": 50244, "income": 17638, "revenue": 12808}, {"ein": "161412938", "name": "BUFFALO GREYHOUND ADOPTION INC", "city": "CHEEKTOWAGA", "state": "NY", "zip": "14225-8096", "ntee": "D200", "ruling": "199208", "deductibility": "1", "assets": 0, "income": 0, "revenue": 0}, {"ein": "161533432", "name": "REPTILE ADOPTION REHABILITATION & EDUCATION INC", "city": "CHEEKTOWAGA", "state": "NY", "zip": "14227-2632", "ntee": "D20", "ruling": "199803", "deductibility": "1", "assets": 0, "income": 0, "revenue": 0}, {"ein": "161584581", "name": "ADOPTION S T A R INC", "city": "BUFFALO", "state": "NY", "zip": "14228-1167", "ntee": "P31", "ruling": "200008", "deductibility": "1", "assets": 3480663, "income": 2047881, "revenue": 1521371}, {"ein": "161589191", "name": "GREYHOUND RESCUE ADOPTION TEAM INC", "city": "BUFFALO", "state": "NY", "zip": "14207-0196", "ntee": "D20", "ruling": "200203", "deductibility": "1", "assets": 0, "income": 0, "revenue": 0}, {"ein": "161759140", "name": "FINGER LAKES THOROUGHBRED ADOPTION PROGRAM INC", "city": "FARMINGTON", "state": "NY", "zip": "14425-0043", "ntee": "D20", "ruling": "200612", "deductibility": "1", "assets": 479231, "income": 216793, "revenue": 214582}, {"ein": "203605933", "name": "DALMATIAN ADOPTION INC", "city": "BROOKLYN", "state": "NY", "zip": "11201-4683", "ntee": "D40", "ruling": "202104", "deductibility": "1", "assets": 0, "income": 0, "revenue": 0}, {"ein": "222544136", "name": "HEART ANIMAL RESCUE AND ADOPTION TEAM INC", "city": "HAMBURG", "state": "NY", "zip": "14075-6328", "ntee": "D200", "ruling": "198411", "deductibility": "1", "assets": 130695, "income": 164344, "revenue": 141056}, {"ein": "223584869", "name": "RONDOUT VALLEY ANIMALS FOR ADOPTION INC", "city": "ACCORD", "state": "NY", "zip": "12404-5717", "ntee": "P20", "ruling": "199903", "deductibility": "1", "assets": 117492, "income": 9971, "revenue": 9971}, {"ein": "260597616", "name": "ALMOST HOME ANIMAL RESCUE &ADOPTION INC", "city": "MEDFORD", "state": "NY", "zip": "11763-0350", "ntee": "D20", "ruling": "200709", "deductibility": "1", "assets": 54384, "income": 300591, "revenue": 300591}, {"ein": "260860903", "name": "NORTH COUNTRY PET ADOPTION SERVICES INC", "city": "GLENFIELD", "state": "NY", "zip": "13343-1819", "ntee": "D20", "ruling": "201004", "deductibility": "1", "assets": 18262, "income": 120569, "revenue": 120569}, {"ein": "262384142", "name": "AMES FELINE ADOPTION & RESCUE INC", "city": "MATTITUCK", "state": "NY", "zip": "11952-2324", "ntee": "D20", "ruling": "200907", "deductibility": "1", "assets": 273430, "income": 19556, "revenue": 0}, {"ein": "271239351", "name": "OPEN SEAS ADOPTION SERVICES INC", "city": "NEW YORK", "state": "NY", "zip": "10128-0532", "ntee": "P31", "ruling": "201011", "deductibility": "1", "assets": 0, "income": 0, "revenue": 0}, {"ein": "274556090", "name": "HEADING FOR HOME RACEHORSE RETRAINING ADOPTION CENTER INC", "city": "SARATOGA SPGS", "state": "NY", "zip": "12866-0810", "ntee": "D20", "ruling": "201107", "deductibility": "1", "assets": 175373, "income": 17220, "revenue": 14643}, {"ein": "300146432", "name": "PET ADOPTION NETWORK LTD", "city": "ROCHESTER", "state": "NY", "zip": "14617-0126", "ntee": "D20", "ruling": "200403", "deductibility": "1", "assets": 223210, "income": 129089, "revenue": 129089}, {"ein": "334125751", "name": "PURRING PAWS WNY CAT RESCUE AND ADOPTION TEAM INC", "city": "HAMBURG", "state": "NY", "zip": "14075-3643", "ntee": "D20", "ruling": "202505", "deductibility": "1", "assets": 0, "income": 0, "revenue": 0}, {"ein": "392055811", "name": "ADOPTION HEALING INC", "city": "CONGERS", "state": "NY", "zip": "10920-1710", "ntee": "P31", "ruling": "201207", "deductibility": "1", "assets": 0, "income": 0, "revenue": 0}, {"ein": "463019710", "name": "CRAZY CAT LADY ANIMAL ADOPTION RESCUE & FERAL FOOD CENTER INC", "city": "HALESITE", "state": "NY", "zip": "11743-2142", "ntee": "D20", "ruling": "202102", "deductibility": "1", "assets": 0, "income": 0, "revenue": 0}, {"ein": "465070999", "name": "A PURR-FECT FIT ANIMAL RESCUE & ADOPTION CENTER INC", "city": "WILLIAMSVILLE", "state": "NY", "zip": "14221-7036", "ntee": "D20", "ruling": "201704", "deductibility": "1", "assets": 7648, "income": 161446, "revenue": 125876}, {"ein": "471792688", "name": "ADOPTION CENTER NY INC", "city": "MASSAPEQUA", "state": "NY", "zip": "11758-4717", "ntee": "D20", "ruling": "201712", "deductibility": "1", "assets": 3170, "income": 39753, "revenue": 39252}, {"ein": "510542032", "name": "ADOPTION FROM CHINA", "city": "JAMESVILLE", "state": "NY", "zip": "13078-8747", "ntee": "P31", "ruling": "200607", "deductibility": "1", "assets": 0, "income": 0, "revenue": 0}, {"ein": "562407548", "name": "A HOME AT LAST ANIMAL ADOPTION NETWORK INC", "city": "BRIGHTWATERS", "state": "NY", "zip": "11718-0034", "ntee": "D20", "ruling": "200402", "deductibility": "1", "assets": 0, "income": 0, "revenue": 0}, {"ein": "721618029", "name": "HOME-TO-HOME PET ADOPTION SERVICES INC", "city": "DAVENPORT", "state": "NY", "zip": "13750-1305", "ntee": "D20", "ruling": "200703", "deductibility": "1", "assets": 0, "income": 0, "revenue": 0}, {"ein": "742672533", "name": "GLADNEY CENTER FOR ADOPTION", "city": "NEW YORK", "state": "NY", "zip": "10024-4049", "ntee": "P31", "ruling": "200803", "deductibility": "1", "assets": 0, "income": 0, "revenue": 0}, {"ein": "812288088", "name": "MOMMYS ANGELS ADOPTION SUPPORT GROUP INC", "city": "BLUE POINT", "state": "NY", "zip": "11715-1261", "ntee": "P31", "ruling": "201809", "deductibility": "1", "assets": 690, "income": 179, "revenue": 179}, {"ein": "832327026", "name": "PURPLE HAZE STANDARD BRED ADOPTION PROGRAM INC", "city": "FAIRPORT", "state": "NY", "zip": "14450-4618", "ntee": "D20", "ruling": "201903", "deductibility": "1", "assets": 369372, "income": 241430, "revenue": 241016}, {"ein": "843319393", "name": "TWO BY TWO CAT RESCUE BOARDING & ADOPTION", "city": "EAST MEADOW", "state": "NY", "zip": "11554-0119", "ntee": "D20", "ruling": "201911", "deductibility": "1", "assets": 0, "income": 0, "revenue": 0}, {"ein": "852602414", "name": "CENTER FOR EXCELLENCE IN ADOPTION SERVICES INC", "city": "RYE BROOK", "state": "NY", "zip": "10573-1360", "ntee": "P02", "ruling": "202011", "deductibility": "1", "assets": 345206, "income": 744566, "revenue": 744566}, {"ein": "871800697", "name": "ANIMAL ADOPTION CENTER", "city": "FRESH MEADOWS", "state": "NY", "zip": "11365-1446", "ntee": "D20", "ruling": "202112", "deductibility": "1", "assets": 4531, "income": 0, "revenue": 0}, {"ein": "874224209", "name": "ATTITUDES ADOPTION FAMILY SUPPORT SERVICES INC", "city": "DIAMOND POINT", "state": "NY", "zip": "12824-2013", "ntee": "P40", "ruling": "202306", "deductibility": "1", "assets": 0, "income": 0, "revenue": 0}, {"ein": "884318573", "name": "BRANCHES ADOPTION NETWORK INC", "city": "MONROE", "state": "NY", "zip": "10950-3143", "ntee": "P20", "ruling": "202212", "deductibility": "1", "assets": 0, "income": 0, "revenue": 0}, {"ein": "922450808", "name": "HEARTS OF LOVE CAT RESCUE & ADOPTION INC", "city": "MANORVILLE", "state": "NY", "zip": "11949-9673", "ntee": "D20", "ruling": "202304", "deductibility": "1", "assets": 10965, "income": 45219, "revenue": 45219}], "TRUTHAIDS": [{"ein": "010899821", "name": "TRUTHAIDS", "city": "NEW YORK", "state": "NY", "zip": "12466-0000", "ntee": "G81", "ruling": "200803", "deductibility": "1", "assets": 0, "income": 0, "revenue": 0}], "CULTURE": [{"ein": "020726818", "name": "NEW AMERICAN ASSOCIATION FOR CULTURE AND EDUCATION INC", "city": "BROOKLYN", "state": "NY", "zip": "11235-5925", "ntee": "A23", "ruling": "200409", "deductibility": "1", "assets": 0, "income": 0, "revenue": 0}, {"ein": "061621684", "name": "MAHARSHI DAYANANDA GURUKULA NA INC VEDIC CULTURE CENTER", "city": "JAMAICA", "state": "NY", "zip": "11418-3226", "ntee": "X70", "ruling": "200212", "deductibility": "1", "assets": 0, "income": 0, "revenue": 0}, {"ein": "111631749", "name": "BROOKLYN SOCIETY FOR ETHICAL CULTURE", "city": "BROOKLYN", "state": "NY", "zip": "11215-0000", "ntee": "", "ruling": "193307", "deductibility": "1", "assets": 0, "income": 0, "revenue": 0}, {"ein": "112503369", "name": "INSTITUTE OF CHUNG HWA BUDDHIST CULTURE INC", "city": "ELMHURST", "state": "NY", "zip": "11373-4047", "ntee": "P54Z", "ruling": "198008", "deductibility": "1", "assets": 26380483, "income": 2120509, "revenue": 2120509}, {"ein": "112587607", "name": "ITALIAN HERITAGE AND CULTURE COMMITTEE OF NEW YORK INC", "city": "NEW YORK", "state": "NY", "zip": "10065-5009", "ntee": "", "ruling": "198202", "deductibility": "1", "assets": 0, "income": 0, "revenue": 0}, {"ein": "112610224", "name": "IRISH AMERICAN HERITAGE & CULTURE WEEK COMMITTEE INC", "city": "STATEN ISLAND", "state": "NY", "zip": "10304-4112", "ntee": "A23", "ruling": "201707", "deductibility": "1", "assets": 8613, "income": 0, "revenue": 0}, {"ein": "112652182", "name": "FLUSHING COUNCIL ON CULTURE AND THE ARTS INC", "city": "FLUSHING", "state": "NY", "zip": "11354-4120", "ntee": "A260", "ruling": "198311", "deductibility": "1", "assets": 3308209, "income": 3902799, "revenue": 3900702}, {"ein": "112803648", "name": "CHINESE CULTURE ASSOCIATION OF LONG ISLAND INC", "city": "GREENVALE", "state": "NY", "zip": "11548-0276", "ntee": "A230", "ruling": "199203", "deductibility": "1", "assets": 453442, "income": 223019, "revenue": 223019}, {"ein": "112948645", "name": "WORLD JOURNAL CULTURE FOUNDATION INC", "city": "WHITESTONE", "state": "NY", "zip": "11357-3097", "ntee": "", "ruling": "198909", "deductibility": "1", "assets": 141885, "income": 3732, "revenue": 0}, {"ein": "113080129", "name": "INSTITUTE OF JEWISH CULTURE AND HERITAGE", "city": "BROOKLYN", "state": "NY", "zip": "11204-1523", "ntee": "", "ruling": "199112", "deductibility": "1", "assets": 0, "income": 0, "revenue": 0}, {"ein": "113084537", "name": "ISLAMIC UNITY & CULTURE CENTER OF PLAV-GUSINJE INC", "city": "RICHMOND HILL", "state": "NY", "zip": "11418-3123", "ntee": "", "ruling": "199306", "deductibility": "1", "assets": 0, "income": 0, "revenue": 0}, {"ein": "113123247", "name": "INSTITUTE FOR JUDAIC CULTURE AND HISTORY", "city": "FLUSHING", "state": "NY", "zip": "11367-7607", "ntee": "", "ruling": "199212", "deductibility": "1", "assets": 0, "income": 0, "revenue": 0}, {"ein": "113256075", "name": "YOUNG INDIAN CULTURE GROUP INC", "city": "NEW HYDE PARK", "state": "NY", "zip": "11040-1320", "ntee": "A230", "ruling": "199511", "deductibility": "1", "assets": 483798, "income": 154479, "revenue": 154479}, {"ein": "113262852", "name": "TURKISH-AMERICAN EDUCATION AND CULTURE FOUNDATION INC", "city": "BROOKLYN", "state": "NY", "zip": "11220-4358", "ntee": "X40", "ruling": "201504", "deductibility": "1", "assets": 0, "income": 0, "revenue": 0}, {"ein": "113431269", "name": "AMERICAN FRIENDS OF HAMAAYAN FOUNDATION OF JEWISH CULTURE", "city": "BROOKLYN", "state": "NY", "zip": "11230-0000", "ntee": "X30", "ruling": "199903", "deductibility": "1", "assets": 135669, "income": 302758, "revenue": 0}, {"ein": "113511209", "name": "CUSTODIANS OF RUSSIAN CULTURE INC", "city": "BROOKLYN", "state": "NY", "zip": "11229-3002", "ntee": "A23", "ruling": "200008", "deductibility": "1", "assets": 6256, "income": 1, "revenue": 1}, {"ein": "113530016", "name": "KOREA CENTER OF CULTURE AND EDUCATION INC", "city": "NEW YORK", "state": "NY", "zip": "10001-3874", "ntee": "A20", "ruling": "200501", "deductibility": "1", "assets": 1063020, "income": 558239, "revenue": 0}, {"ein": "113532857", "name": "CBA CULTURE AND ARTS CENTER INC", "city": "FLUSHING", "state": "NY", "zip": "11355-1709", "ntee": "A68", "ruling": "200210", "deductibility": "1", "assets": 82830, "income": 18410, "revenue": 18410}, {"ein": "131624186", "name": "SOCIETY FOR ETHICAL CULTURE IN THE CITY OF NEW YORK", "city": "NEW YORK", "state": "NY", "zip": "10023-0000", "ntee": "B82", "ruling": "199207", "deductibility": "1", "assets": 0, "income": 0, "revenue": 0}, {"ein": "131677406", "name": "CONGRESS FOR JEWISH CULTURE INC", "city": "NEW YORK", "state": "NY", "zip": "10011-4400", "ntee": "A230", "ruling": "194912", "deductibility": "1", "assets": 47519, "income": 185047, "revenue": 185047}, {"ein": "131770269", "name": "CENTRAL YIDDISH CULTURE ORG", "city": "LONG ISLAND CITY", "state": "NY", "zip": "11101-5357", "ntee": "", "ruling": "194503", "deductibility": "1", "assets": 0, "income": 0, "revenue": 0}, {"ein": "131840402", "name": "RIVERDALE YONKERS SOCIETY FOR ETHICAL CULTURE INC", "city": "BRONX", "state": "NY", "zip": "10471-3907", "ntee": "", "ruling": "195705", "deductibility": "1", "assets": 0, "income": 0, "revenue": 0}, {"ein": "131913709", "name": "ETHICAL CULTURE SOCIETY OF WESTCHESTER", "city": "WHITE PLAINS", "state": "NY", "zip": "10605-5204", "ntee": "", "ruling": "195209", "deductibility": "1", "assets": 0, "income": 0, "revenue": 0}, {"ein": "132546348", "name": "SOCIETY FOR THE ARTS RELIGION AND CONTEMPORARY CULTURE INC", "city": "SAG HARBOR", "state": "NY", "zip": "11963-0000", "ntee": "", "ruling": "196312", "deductibility": "1", "assets": 0, "income": 0, "revenue": 0}, {"ein": "133039721", "name": "AARON AND SONIA FISHMAN FOUNDATION YIDDISH CULTURE INC", "city": "NEW YORK", "state": "NY", "zip": "10027-6851", "ntee": "", "ruling": "198010", "deductibility": "1", "assets": 98566, "income": 16401, "revenue": 0}, {"ein": "133256202", "name": "ITALIAN HERITAGE & CULTURE COMM OF THE BRONX & WESTCHESTER INC", "city": "NEW YORK", "state": "NY", "zip": "10003-6332", "ntee": "A20", "ruling": "201904", "deductibility": "1", "assets": 0, "income": 0, "revenue": 0}, {"ein": "133407012", "name": "KOC EDUCATION CULTURE AND HEALTHCARE FOUNDATION", "city": "NEW YORK", "state": "NY", "zip": "10021-3502", "ntee": "", "ruling": "201908", "deductibility": "0", "assets": 2355177, "income": 199111, "revenue": 199111}, {"ein": "133862529", "name": "ETHICAL CULTURE FIELDSTON SCHOOL", "city": "NEW YORK", "state": "NY", "zip": "10023-6001", "ntee": "B200", "ruling": "199606", "deductibility": "1", "assets": 245662442, "income": 188267535, "revenue": 129322931}, {"ein": "133888511", "name": "INTERNATIONAL FOUNDATION FOR ARTS & CULTURE INC", "city": "NEW YORK", "state": "NY", "zip": "10023-7942", "ntee": "A20Z", "ruling": "199610", "deductibility": "1", "assets": 298019, "income": 283687, "revenue": 0}, {"ein": "133898892", "name": "CULTURE PROJECT INC", "city": "QUEENS", "state": "NY", "zip": "11432-1710", "ntee": "P20", "ruling": "201905", "deductibility": "1", "assets": 0, "income": 0, "revenue": 0}, {"ein": "134029397", "name": "PERIMETER MEDIA AND CULTURE PROJECTS INCORPORATED", "city": "NEW YORK", "state": "NY", "zip": "10023-8505", "ntee": "A310", "ruling": "200104", "deductibility": "1", "assets": 0, "income": 0, "revenue": 0}, {"ein": "134171219", "name": "SINO-AMERICAN CULTURE & ARTS FOUNDATION INC", "city": "NEW YORK", "state": "NY", "zip": "10002-6994", "ntee": "A23", "ruling": "201108", "deductibility": "1", "assets": 195155, "income": 15772, "revenue": 15772}, {"ein": "134254822", "name": "CAMPAIGN FOR BUFFALO HISTORY ARCHITECTURE AND CULTURE INC", "city": "BUFFALO", "state": "NY", "zip": "14222-1803", "ntee": "A80", "ruling": "200412", "deductibility": "1", "assets": 34792, "income": 41963, "revenue": 37393}, {"ein": "136161340", "name": "UNITED SOCIAL SERVICES OF THE SOCIETY FOR ETHICAL CULTURE INC", "city": "NEW YORK", "state": "NY", "zip": "10023-0000", "ntee": "A77J", "ruling": "193411", "deductibility": "1", "assets": 959808, "income": 104377, "revenue": 85763}, {"ein": "136198294", "name": "ARTS & CULTURE COMMITTEE TOWN OF GREENBURGH N Y", "city": "WHITE PLAINS", "state": "NY", "zip": "10607-1409", "ntee": "", "ruling": "196603", "deductibility": "1", "assets": 0, "income": 0, "revenue": 0}, {"ein": "136209691", "name": "MEMORIAL FOUNDATION FOR JEWISH CULTURE INC", "city": "NEW YORK", "state": "NY", "zip": "10006-3007", "ntee": "X123", "ruling": "196704", "deductibility": "1", "assets": 21170131, "income": 1906964, "revenue": 1421534}, {"ein": "141593759", "name": "VAN WYCK COUNCIL ON THE ARTS AND CULTURE INC", "city": "BEACON", "state": "NY", "zip": "12508-3305", "ntee": "", "ruling": "197912", "deductibility": "1", "assets": 434917, "income": 178799, "revenue": 166133}, {"ein": "161508896", "name": "ISLAMIC CULTURE CENTER OF ROCHESTER NY INC", "city": "ROCHESTER", "state": "NY", "zip": "14609-7140", "ntee": "X40", "ruling": "201312", "deductibility": "1", "assets": 0, "income": 0, "revenue": 0}, {"ein": "161636968", "name": "COOL CULTURE INC", "city": "BROOKLYN", "state": "NY", "zip": "11217-1506", "ntee": "A20", "ruling": "200302", "deductibility": "1", "assets": 690066, "income": 1606963, "revenue": 1606963}, {"ein": "161648415", "name": "CHIKU AWALI AFRICAN DANCE ARTS & CULTURE INC", "city": "SUFFERN", "state": "NY", "zip": "10901-0794", "ntee": "A20", "ruling": "200307", "deductibility": "1", "assets": 7814, "income": 59057, "revenue": 59057}, {"ein": "166498037", "name": "ANDES SOCIETY FOR HISTORY & CULTURE ENDOWMENT FUND TR NATL BANK DELAWA", "city": "ONEONTA", "state": "NY", "zip": "13820-0430", "ntee": "A54", "ruling": "200007", "deductibility": "1", "assets": 310640, "income": 99070, "revenue": 23945}, {"ein": "201069062", "name": "BOSNIA & HERZEGOVINA CULTURE CENTER OF ROCHESTER NY INC", "city": "ROCHESTER", "state": "NY", "zip": "14624-3535", "ntee": "X40", "ruling": "201608", "deductibility": "1", "assets": 0, "income": 0, "revenue": 0}, {"ein": "201129752", "name": "JUDAIC CENTER FOR HISTORY AND CULTURE OF CENTRAL NEW YORK", "city": "CAZENOVIA", "state": "NY", "zip": "13035-9600", "ntee": "A80", "ruling": "200407", "deductibility": "1", "assets": 0, "income": 0, "revenue": 0}, {"ein": "202622124", "name": "CHINESE CULTURE AND EDUCATION ASSOCIATES INC", "city": "NEW YORK", "state": "NY", "zip": "10001-6906", "ntee": "A23", "ruling": "200601", "deductibility": "1", "assets": 0, "income": 0, "revenue": 0}, {"ein": "204223569", "name": "NEW YORK HANG TANG CULTURE AND ARTCENTER INC", "city": "FOREST HILLS", "state": "NY", "zip": "11375-1263", "ntee": "A6A", "ruling": "200612", "deductibility": "1", "assets": 8598, "income": 0, "revenue": 0}, {"ein": "205653649", "name": "SOCIETY FOR ETHNIC ARTS AND CULTURE", "city": "PITTSFORD", "state": "NY", "zip": "14534-3350", "ntee": "A20", "ruling": "201405", "deductibility": "1", "assets": 0, "income": 0, "revenue": 0}, {"ein": "208191508", "name": "TRADITIONAL CULTURE REVIVING CENTER", "city": "NEW YORK", "state": "NY", "zip": "10036-7416", "ntee": "A65", "ruling": "200801", "deductibility": "1", "assets": 4040770, "income": 6700311, "revenue": 6700311}, {"ein": "208214541", "name": "ISLAMIC CULTURE CENTER OFMONTICELLO INC", "city": "MONTICELLO", "state": "NY", "zip": "12701-8513", "ntee": "X50", "ruling": "200711", "deductibility": "1", "assets": 0, "income": 0, "revenue": 0}, {"ein": "208834210", "name": "ARTS CULTURE & ENTERPRISE PROJECT", "city": "NEW ROCHELLE", "state": "NY", "zip": "10801-7353", "ntee": "A99", "ruling": "201408", "deductibility": "1", "assets": 0, "income": 0, "revenue": 0}, {"ein": "222137873", "name": "ANDE SOCIETY FOR HISTORY & CULTURE", "city": "ANDES", "state": "NY", "zip": "13731-0455", "ntee": "", "ruling": "197702", "deductibility": "1", "assets": 200452, "income": 45324, "revenue": 44600}, {"ein": "222442790", "name": "AMERICAN SOKOL ORGANIZATION AND EDUCATIONAL AND PHYSICAL CULTURE O", "city": "NEW YORK", "state": "NY", "zip": "10021-4827", "ntee": "", "ruling": "195303", "deductibility": "1", "assets": 0, "income": 0, "revenue": 0}, {"ein": "237093210", "name": "ETHICAL CULTURE SOCIETY OF QUEENS INC", "city": "JACKSON HTS", "state": "NY", "zip": "11372-4218", "ntee": "", "ruling": "195901", "deductibility": "1", "assets": 0, "income": 0, "revenue": 0}, {"ein": "260294323", "name": "CHENGZHONG CULTURE AND EDUCATION FOCUS FOUNDATION INC", "city": "NEW YORK", "state": "NY", "zip": "10004-0000", "ntee": "A23", "ruling": "200902", "deductibility": "1", "assets": 605183, "income": 22585, "revenue": 0}, {"ein": "260729538", "name": "FA-YI CHONG-DE NEW YORK CULTURE AND EDUCATION CENTER INC", "city": "BROOKLYN", "state": "NY", "zip": "11220-2477", "ntee": "X90", "ruling": "200908", "deductibility": "1", "assets": 0, "income": 0, "revenue": 0}, {"ein": "260779619", "name": "NEW YORK CULTURE EXCHANGE ORGANIZATION INC", "city": "FLUSHING", "state": "NY", "zip": "11355-2446", "ntee": "P84", "ruling": "202506", "deductibility": "1", "assets": 1244, "income": 0, "revenue": 0}, {"ein": "262542410", "name": "GOLD SUMMIT ORGANIZATION FOR THE DEVELOPMENT OF EASTERN CULTURE", "city": "EAST AURORA", "state": "NY", "zip": "14052-2602", "ntee": "A23", "ruling": "200907", "deductibility": "1", "assets": 25798, "income": 36207, "revenue": 34767}, {"ein": "263250931", "name": "CULTURE PUSH INC", "city": "NEW YORK", "state": "NY", "zip": "10009-6009", "ntee": "A20", "ruling": "200903", "deductibility": "1", "assets": 170737, "income": 93933, "revenue": 93933}, {"ein": "263398852", "name": "AKF FOUNDATION FOR CULTURE AND ENVIRONMENT", "city": "MOUNT VISION", "state": "NY", "zip": "13810-0638", "ntee": "T23", "ruling": "200907", "deductibility": "1", "assets": 237623, "income": 26740, "revenue": 0}, {"ein": "263804568", "name": "JOHN PAUL II SCHOOL AND POLISH CULTURE FUND INC", "city": "STATEN ISLAND", "state": "NY", "zip": "10305-4761", "ntee": "B82", "ruling": "201812", "deductibility": "1", "assets": 184338, "income": 19, "revenue": 19}, {"ein": "270304412", "name": "PURE HEART CULTURE AND EDUCATION FOUNDATION", "city": "MIDDLETOWN", "state": "NY", "zip": "10940-5516", "ntee": "A23", "ruling": "201008", "deductibility": "1", "assets": 0, "income": 0, "revenue": 0}, {"ein": "270829065", "name": "MOVEMENT FOR LANGUAGE AND CULTURE INC", "city": "NEW YORK", "state": "NY", "zip": "10011-8326", "ntee": "B99", "ruling": "201606", "deductibility": "1", "assets": 348288, "income": 32900, "revenue": 32900}, {"ein": "273849760", "name": "FORUM ON LIFE CULTURE & SOCIETY INC", "city": "NEW YORK", "state": "NY", "zip": "10038-2595", "ntee": "A20", "ruling": "201107", "deductibility": "1", "assets": 369034, "income": 228198, "revenue": 228198}, {"ein": "311619725", "name": "THE JAPAN CULTURE CENTER OF WYN INC", "city": "BUFFALO", "state": "NY", "zip": "14226-7789", "ntee": "P20Z", "ruling": "199811", "deductibility": "1", "assets": 0, "income": 0, "revenue": 0}, {"ein": "320081843", "name": "FOUNDATION FOR ITALIAN ART AND CULTURE", "city": "NEW YORK", "state": "NY", "zip": "10021-5034", "ntee": "B99", "ruling": "200403", "deductibility": "1", "assets": 599757, "income": 276932, "revenue": 276932}, {"ein": "331153462", "name": "TRINBAGO EXPRESS NEW HORIZON SPORTS & CULTURE CLUB INC", "city": "BROOKLYN", "state": "NY", "zip": "11236-2115", "ntee": "N50", "ruling": "201602", "deductibility": "2", "assets": 0, "income": 0, "revenue": 0}, {"ein": "331581561", "name": "JAPAN CULTURE INCORPORATED", "city": "LONG IS CITY", "state": "NY", "zip": "11101-5191", "ntee": "A23", "ruling": "202411", "deductibility": "1", "assets": 0, "income": 0, "revenue": 0}, {"ein": "332095035", "name": "BLOODLINE DANCE COMPANY ARTS AND CULTURE INC", "city": "BROOKLYN", "state": "NY", "zip": "11212-2710", "ntee": "A25", "ruling": "202412", "deductibility": "1", "assets": 0, "income": 0, "revenue": 0}, {"ein": "332159172", "name": "CULTURE LIME INC", "city": "BROOKLYN", "state": "NY", "zip": "11201-2708", "ntee": "A27", "ruling": "202501", "deductibility": "1", "assets": 0, "income": 0, "revenue": 0}, {"ein": "332181107", "name": "MUSIC IS CULTURE INC", "city": "NEW YORK", "state": "NY", "zip": "10128-2700", "ntee": "A24", "ruling": "202412", "deductibility": "1", "assets": 0, "income": 0, "revenue": 0}, {"ein": "333341687", "name": "FEDERATION OF ASIAN ART AND CULTURE INC", "city": "BROOKLYN", "state": "NY", "zip": "11215-2804", "ntee": "A20", "ruling": "202502", "deductibility": "1", "assets": 0, "income": 0, "revenue": 0}, {"ein": "352832872", "name": "HANWHA FOUNDATION OF CULTURE", "city": "NEW YORK", "state": "NY", "zip": "10013-4189", "ntee": "T20", "ruling": "202505", "deductibility": "1", "assets": 0, "income": 0, "revenue": 0}, {"ein": "384012700", "name": "STEPHEN HON CHEUNG SHEK FOUNDATION FOR US-CHINA CULTURE & HISTORY PR", "city": "FLUSHING", "state": "NY", "zip": "11354-5482", "ntee": "A20", "ruling": "201609", "deductibility": "1", "assets": 0, "income": 0, "revenue": 0}, {"ein": "391688129", "name": "ENCOUNTER FOR CULTURE AND EDUCATION INC", "city": "NEW YORK", "state": "NY", "zip": "10003-1237", "ntee": "A20Z", "ruling": "202308", "deductibility": "1", "assets": 5603328, "income": 4182722, "revenue": 0}, {"ein": "421603441", "name": "ASIAN CULTURE INC", "city": "CLIFTON PARK", "state": "NY", "zip": "12065-3715", "ntee": "A23", "ruling": "201202", "deductibility": "1", "assets": 0, "income": 0, "revenue": 0}, {"ein": "451429348", "name": "US NEPAL SPORTS AND CULTURE DEVELOPMENT INC", "city": "WESTBURY", "state": "NY", "zip": "11590-6534", "ntee": "N60", "ruling": "201505", "deductibility": "1", "assets": 0, "income": 0, "revenue": 0}, {"ein": "454865202", "name": "ANHUI-AMERICAN CULTURE AND EDUCATION EXCHANGE ASSOCIATION INC", "city": "FLUSHING", "state": "NY", "zip": "11354-5415", "ntee": "P84", "ruling": "201307", "deductibility": "1", "assets": 0, "income": 0, "revenue": 0}, {"ein": "455228253", "name": "COSTUMES AND CULTURE RESEARCH INC", "city": "HUGUENOT", "state": "NY", "zip": "12746-5308", "ntee": "A23", "ruling": "201407", "deductibility": "1", "assets": 3672, "income": 81, "revenue": 81}, {"ein": "462137020", "name": "CULTURE FOR ONE INC", "city": "NEW YORK", "state": "NY", "zip": "10017-5645", "ntee": "A20", "ruling": "201308", "deductibility": "1", "assets": 427457, "income": 840059, "revenue": 742242}, {"ein": "462233689", "name": "DUTCH UNIVERSAL TRADITION CULTURE AND HERITAGE FOUNDATION IN", "city": "NEW YORK", "state": "NY", "zip": "10022-6040", "ntee": "A99", "ruling": "201406", "deductibility": "1", "assets": 0, "income": 0, "revenue": 0}, {"ein": "464144016", "name": "FULLERTON MANSION CENTER FOR CULTURE AND HISTORY", "city": "NEWBURGH", "state": "NY", "zip": "12550-5626", "ntee": "A99", "ruling": "201407", "deductibility": "1", "assets": 80236, "income": 107916, "revenue": 107916}, {"ein": "464441337", "name": "FARRAGUT FUND FOR CATALAN CULTURE IN THE UNITED STATES", "city": "NEW YORK", "state": "NY", "zip": "10011-6286", "ntee": "T21", "ruling": "202303", "deductibility": "1", "assets": 0, "income": 0, "revenue": 0}, {"ein": "464602943", "name": "KOREAN CULTURE CENTER OF NEW YORK INC", "city": "NEW YORK", "state": "NY", "zip": "10007-2063", "ntee": "A20", "ruling": "201502", "deductibility": "1", "assets": 77518, "income": 39235, "revenue": 39235}, {"ein": "471084352", "name": "FOUNDATION FOR MEXICAN ART AND CULTURE", "city": "BROOKLYN", "state": "NY", "zip": "11231-1051", "ntee": "A12", "ruling": "201501", "deductibility": "1", "assets": 1441569, "income": 524891, "revenue": 524891}, {"ein": "471089574", "name": "GARCIA FAMILY FOUNDATION FOR ART CULTURE AND EDUCATION", "city": "NEW YORK", "state": "NY", "zip": "10021-2754", "ntee": "T90", "ruling": "201502", "deductibility": "1", "assets": 9475425, "income": 2652417, "revenue": 0}, {"ein": "471841978", "name": "JOSEPH AVENUE ARTS AND CULTURE ALLIANCE INC", "city": "ROCHESTER", "state": "NY", "zip": "14603-3147", "ntee": "A61", "ruling": "201504", "deductibility": "1", "assets": 607669, "income": 218918, "revenue": 218918}, {"ein": "472516791", "name": "CI HUA CULTURE FOUNDATION OF NEW YORK INC", "city": "NEW YORK", "state": "NY", "zip": "10017-6872", "ntee": "X11", "ruling": "201804", "deductibility": "1", "assets": 0, "income": 0, "revenue": 0}, {"ein": "472592711", "name": "PATRONS OF RUSSIAN SPEAKING CULTURE INC", "city": "MOHEGAN LAKE", "state": "NY", "zip": "10547-1354", "ntee": "A23", "ruling": "202309", "deductibility": "1", "assets": 2340, "income": 25646, "revenue": 25646}, {"ein": "473799247", "name": "LONG ISLAND JAPANESE CULTURE ASSOCIATION INC", "city": "ROSLYN HTS", "state": "NY", "zip": "11577-2027", "ntee": "A23", "ruling": "201602", "deductibility": "1", "assets": 202389, "income": 189800, "revenue": 189800}, {"ein": "474240986", "name": "CONTINUUM CULTURE & ARTS INC", "city": "BROOKLYN", "state": "NY", "zip": "11225-4115", "ntee": "A99", "ruling": "201507", "deductibility": "1", "assets": 6595, "income": 59764, "revenue": 59764}, {"ein": "474506579", "name": "MOVEMENT OF AMERICAN INDIAN SOLAR CULTURE MAISC INC", "city": "BROOKLYN", "state": "NY", "zip": "11222-5895", "ntee": "A20", "ruling": "201912", "deductibility": "1", "assets": 423617, "income": 116811, "revenue": 116811}, {"ein": "474724620", "name": "CHINESE CULTURE ASSOCIATION INC", "city": "CATSKILL", "state": "NY", "zip": "12414-6582", "ntee": "", "ruling": "202201", "deductibility": "1", "assets": 0, "income": 0, "revenue": 0}, {"ein": "510180500", "name": "ETHICAL CULTURE SOCIETY OF SUFFOLK INC", "city": "COMMACK", "state": "NY", "zip": "11725-0134", "ntee": "", "ruling": "197603", "deductibility": "1", "assets": 0, "income": 0, "revenue": 0}, {"ein": "521925325", "name": "ASSOCIATION FOR THE PSYCHOANALYSIS OF CULTURE AND SOCIETY INCORPORATE", "city": "PRT WASHINGTN", "state": "NY", "zip": "11050-2723", "ntee": "A23", "ruling": "199606", "deductibility": "1", "assets": 100936, "income": 21832, "revenue": 21832}, {"ein": "561476178", "name": "CULTURE & ANIMALS FOUNDATION INC", "city": "BROOKLYN", "state": "NY", "zip": "11231-6705", "ntee": "D010", "ruling": "198606", "deductibility": "1", "assets": 271266, "income": 107315, "revenue": 107315}, {"ein": "562545700", "name": "MANO A MANO MEXICAN CULTURE WITHOUT BORDERS", "city": "NEW YORK", "state": "NY", "zip": "10032-7801", "ntee": "A23", "ruling": "200608", "deductibility": "1", "assets": 44802, "income": 134916, "revenue": 134916}, {"ein": "571138560", "name": "HELLENIC ADVANCEMENT OF EDUCATION & CULTURE INC", "city": "LONG IS CITY", "state": "NY", "zip": "11101-2112", "ntee": "T12", "ruling": "201411", "deductibility": "1", "assets": 333964, "income": 10953, "revenue": 0}, {"ein": "571208654", "name": "GARIFUNA HERITAGE CENTER FOR THE ARTS AND CULTURE INC", "city": "BRONX", "state": "NY", "zip": "10473-3023", "ntee": "A23", "ruling": "201504", "deductibility": "1", "assets": 0, "income": 0, "revenue": 0}, {"ein": "770620589", "name": "WORLD CULTURE OPEN INC", "city": "NEW YORK", "state": "NY", "zip": "10001-5501", "ntee": "A20", "ruling": "200404", "deductibility": "1", "assets": 26611, "income": 3908, "revenue": 3908}, {"ein": "800448933", "name": "SERA JEY BUDDHIST CULTURE CENTER", "city": "WOODSIDE", "state": "NY", "zip": "11377-4746", "ntee": "X50", "ruling": "201109", "deductibility": "1", "assets": 0, "income": 0, "revenue": 0}, {"ein": "800666853", "name": "WORLD CULTURE AND ART ASSOCIATION INC", "city": "FULTONVILLE", "state": "NY", "zip": "12072-1907", "ntee": "X99", "ruling": "201111", "deductibility": "1", "assets": 0, "income": 0, "revenue": 0}, {"ein": "810834113", "name": "DESPERS USA YOUTH AND CULTURE ASSOCIATION INC", "city": "BROOKLYN", "state": "NY", "zip": "11221-3507", "ntee": "P20", "ruling": "202002", "deductibility": "1", "assets": 0, "income": 0, "revenue": 0}, {"ein": "811386014", "name": "TAICHI CULTURE ASSOCIATION INC", "city": "STATEN ISLAND", "state": "NY", "zip": "10308-2731", "ntee": "E31", "ruling": "201604", "deductibility": "1", "assets": 6927, "income": 0, "revenue": 0}, {"ein": "811559979", "name": "SLATE PROPERTY ARTS & CULTURE ENDOWMENT INC", "city": "NEW YORK", "state": "NY", "zip": "10016-8012", "ntee": "", "ruling": "201703", "deductibility": "1", "assets": 0, "income": 0, "revenue": 0}, {"ein": "812614080", "name": "KIDS N CULTURE INC", "city": "NEW YORK", "state": "NY", "zip": "10026-3752", "ntee": "P30", "ruling": "201703", "deductibility": "1", "assets": 59817, "income": 116310, "revenue": 116310}, {"ein": "812618086", "name": "REMIX -- CULTURE INC", "city": "SPARROW BUSH", "state": "NY", "zip": "12780-5007", "ntee": "A68", "ruling": "201609", "deductibility": "1", "assets": 94281, "income": 168738, "revenue": 168738}, {"ein": "812711270", "name": "PIRANDELLO INSTITUTE OF LANGUAGE AND CULTURE", "city": "POUGHKEEPSIE", "state": "NY", "zip": "12603-4613", "ntee": "B90", "ruling": "201703", "deductibility": "1", "assets": 63376, "income": 24179, "revenue": 24179}, {"ein": "813141792", "name": "NORTH AMERICAN JEWISH CULTURE INC", "city": "BETHPAGE", "state": "NY", "zip": "11714-0019", "ntee": "A03", "ruling": "201607", "deductibility": "1", "assets": 0, "income": 0, "revenue": 0}, {"ein": "814461458", "name": "WQ CULTURE FOUNDATION INC", "city": "NEW YORK", "state": "NY", "zip": "10002-7578", "ntee": "S80", "ruling": "201706", "deductibility": "1", "assets": 402162, "income": 101000, "revenue": 101000}, {"ein": "814636939", "name": "INTERNATIONAL CULTURE ATHLETIC PROMOTION ASSOCIATION INC", "city": "BAYSIDE", "state": "NY", "zip": "11361-8010", "ntee": "A99", "ruling": "202408", "deductibility": "1", "assets": 0, "income": 0, "revenue": 0}, {"ein": "814771864", "name": "DOMINICAN HERITAGE AND CULTURE SOPCIETY", "city": "BRONX", "state": "NY", "zip": "10463-2454", "ntee": "B01", "ruling": "202309", "deductibility": "1", "assets": 167496, "income": 20500, "revenue": 0}, {"ein": "814804056", "name": "SEPHARDIC CULTURE ENRICHMENT FOUNDATION", "city": "BROOKLYN", "state": "NY", "zip": "11223-5401", "ntee": "T22", "ruling": "201801", "deductibility": "1", "assets": 52715, "income": 1, "revenue": 0}, {"ein": "815020015", "name": "CULTURE OF BLESSING INC", "city": "S OZONE PARK", "state": "NY", "zip": "11420-1024", "ntee": "O50", "ruling": "201706", "deductibility": "1", "assets": 0, "income": 0, "revenue": 0}, {"ein": "815056736", "name": "RUSSIAN CHILDREN STUDIO OF LANGUAGE ARTS AND CULTURE INC", "city": "NEW YORK", "state": "NY", "zip": "10026-1383", "ntee": "A20", "ruling": "201703", "deductibility": "1", "assets": 544052, "income": 731333, "revenue": 731333}, {"ein": "815195366", "name": "WORLDVIEW GLOBAL CULTURE ALLIANCE CORPORATION", "city": "NEW YORK", "state": "NY", "zip": "10019-3845", "ntee": "A23", "ruling": "202309", "deductibility": "1", "assets": 1331, "income": 6500, "revenue": 0}, {"ein": "815352917", "name": "CHINESE AMERICAN HISTORY AND CULTURE CENTER INC", "city": "FLUSHING", "state": "NY", "zip": "11354-5131", "ntee": "A23", "ruling": "201702", "deductibility": "1", "assets": 80246, "income": 10070, "revenue": 10070}, {"ein": "815432124", "name": "ALLIES OF HISPANIC CULTURE EDUCATION AND SCIENCE FOUNDATION", "city": "NEW YORK", "state": "NY", "zip": "10163-2997", "ntee": "A20", "ruling": "201704", "deductibility": "1", "assets": 88182, "income": 222267, "revenue": 222267}, {"ein": "821021848", "name": "AMERICAN CHINESE ART & CULTURE CENTER", "city": "FLUSHING", "state": "NY", "zip": "11354-4121", "ntee": "A23", "ruling": "201709", "deductibility": "1", "assets": 13957, "income": 0, "revenue": 0}, {"ein": "821123655", "name": "WORLD CHINESE CULTURE CENTER INC", "city": "AMSTERDAM", "state": "NY", "zip": "12010-0617", "ntee": "X50", "ruling": "201708", "deductibility": "1", "assets": 0, "income": 0, "revenue": 0}, {"ein": "821185998", "name": "CHRIST CULTURE & ARTS FOUNDATION INC", "city": "JERICHO", "state": "NY", "zip": "11753-2233", "ntee": "A20", "ruling": "201705", "deductibility": "1", "assets": 0, "income": 0, "revenue": 0}, {"ein": "821241904", "name": "ASSOCIATION OF ALBANIAN AMERICAN DUAL LANGUAGE AND CULTURE INC", "city": "SCARSDALE", "state": "NY", "zip": "10583-6148", "ntee": "A23", "ruling": "202304", "deductibility": "1", "assets": 0, "income": 0, "revenue": 0}, {"ein": "821485524", "name": "INTERNATIONAL ART CULTURE EXCHANGE INC", "city": "NEW YORK", "state": "NY", "zip": "10013-4187", "ntee": "A20", "ruling": "201705", "deductibility": "1", "assets": 0, "income": 0, "revenue": 0}, {"ein": "822435901", "name": "FOUNDATION FOR AFRO-BRAZILIAN CULTURE INCORPORATED", "city": "BROOKLYN", "state": "NY", "zip": "11216-3967", "ntee": "A20", "ruling": "201709", "deductibility": "1", "assets": 0, "income": 0, "revenue": 0}, {"ein": "822743416", "name": "KOREAN LANGUAGE AND CULTURE SCHOOL FOR GLOBAL LEADERS INC", "city": "LEVITTOWN", "state": "NY", "zip": "11756-3220", "ntee": "A23", "ruling": "201801", "deductibility": "1", "assets": 0, "income": 0, "revenue": 0}, {"ein": "823877875", "name": "HEAVENLY CULTURE WORLD PEACE RESTORATION OF LIGHT - HWPL NY", "city": "LONG IS CITY", "state": "NY", "zip": "11101-3906", "ntee": "X90", "ruling": "202401", "deductibility": "1", "assets": 0, "income": 0, "revenue": 0}, {"ein": "824264959", "name": "INSTITUTE OF BIBLICAL CULTURE INC", "city": "YONKERS", "state": "NY", "zip": "10705-1510", "ntee": "X20", "ruling": "201810", "deductibility": "1", "assets": 0, "income": 0, "revenue": 0}, {"ein": "824948351", "name": "NATIONAL MUSIC & GLOBAL CULTURE SOCIETY LTD", "city": "NEW YORK", "state": "NY", "zip": "10016-0175", "ntee": "A23", "ruling": "201808", "deductibility": "1", "assets": 2406, "income": 16635, "revenue": 16635}, {"ein": "830339846", "name": "CUYONON LANGUAGE AND CULTURE PRODJECT INC", "city": "SARATOGA SPGS", "state": "NY", "zip": "12866-1351", "ntee": "A23", "ruling": "200307", "deductibility": "1", "assets": 3635, "income": 11000, "revenue": 0}, {"ein": "831837569", "name": "NEW YORKERS FOR CULTURE AND ARTS INC", "city": "NEW YORK", "state": "NY", "zip": "10013-1674", "ntee": "A26", "ruling": "202209", "deductibility": "1", "assets": 0, "income": 0, "revenue": 0}, {"ein": "832281233", "name": "SWI SOCIETY K-MUSIC CULTURE AND ART DEVELOPMENT INC", "city": "BROOKLYN", "state": "NY", "zip": "11204-3915", "ntee": "A20", "ruling": "201812", "deductibility": "1", "assets": 0, "income": 0, "revenue": 0}, {"ein": "832348866", "name": "CULTURE FUSION NETWORK INC", "city": "BROOKLYN", "state": "NY", "zip": "11238-6141", "ntee": "J22", "ruling": "201902", "deductibility": "1", "assets": 0, "income": 0, "revenue": 0}, {"ein": "832564374", "name": "MAKEDA CULTURE INC", "city": "BROOKLYN", "state": "NY", "zip": "11215-1005", "ntee": "P29", "ruling": "201904", "deductibility": "1", "assets": 0, "income": 0, "revenue": 0}, {"ein": "832792063", "name": "SARAL NEPALI LANGUAGE & CULTURE CENTER INC", "city": "ELMHURST", "state": "NY", "zip": "11373-1863", "ntee": "A23", "ruling": "201905", "deductibility": "1", "assets": 0, "income": 0, "revenue": 0}, {"ein": "833505097", "name": "DAGOM GADEN TENSUNG LING BUDDHIST CULTURE CENTER INC", "city": "ASTORIA", "state": "NY", "zip": "11103-1233", "ntee": "X50", "ruling": "201908", "deductibility": "1", "assets": 510339, "income": 56677, "revenue": 32718}, {"ein": "833762763", "name": "WORLD ARTS AND CULTURE ALLIANCE INC", "city": "OAKLAND GDNS", "state": "NY", "zip": "11364-3114", "ntee": "B01", "ruling": "201906", "deductibility": "1", "assets": 11304, "income": 9000, "revenue": 9000}, {"ein": "834206919", "name": "YREN ARTS AND CULTURE SOCIETY INC", "city": "NEW YORK", "state": "NY", "zip": "10028-0957", "ntee": "A20", "ruling": "201904", "deductibility": "1", "assets": 0, "income": 0, "revenue": 0}, {"ein": "841658946", "name": "EASTERN U S TAIWAN CULTURE PROMOTION ASSOCIATION INC", "city": "NEW HAMPTON", "state": "NY", "zip": "10958-0207", "ntee": "A23", "ruling": "200710", "deductibility": "1", "assets": 8510, "income": 1, "revenue": 1}, {"ein": "841762358", "name": "8 CULTURE INC", "city": "NEW YORK", "state": "NY", "zip": "10011-1958", "ntee": "O12", "ruling": "201906", "deductibility": "1", "assets": 0, "income": 0, "revenue": 0}, {"ein": "841800484", "name": "CLUB CULTURE FOUNDATION NY LTD", "city": "NEW YORK", "state": "NY", "zip": "10004-2805", "ntee": "A62", "ruling": "202012", "deductibility": "1", "assets": 1, "income": 0, "revenue": 0}, {"ein": "842950591", "name": "THERESA WANG CHINESE CULTURE CENTER INC", "city": "STONY BROOK", "state": "NY", "zip": "11790-3501", "ntee": "A23", "ruling": "202001", "deductibility": "1", "assets": 11921857, "income": 205000, "revenue": 205000}, {"ein": "843315804", "name": "REHER CENTER FOR IMMIGRANT CULTURE AND HISTORY", "city": "KINGSTON", "state": "NY", "zip": "12402-2143", "ntee": "A50", "ruling": "202109", "deductibility": "1", "assets": 1103582, "income": 690018, "revenue": 690018}, {"ein": "844407498", "name": "AMERICA TURKISH MUSIC CULTURE AND MUSICIANS ASSOCIATION INC", "city": "CENTEREACH", "state": "NY", "zip": "11720-2242", "ntee": "A68", "ruling": "202112", "deductibility": "1", "assets": 0, "income": 0, "revenue": 0}, {"ein": "844413877", "name": "BURMESE MUSLIM CULTURE ASSOCIATION INC", "city": "BUFFALO", "state": "NY", "zip": "14211-3234", "ntee": "A23", "ruling": "202007", "deductibility": "1", "assets": 0, "income": 0, "revenue": 0}, {"ein": "844511549", "name": "GOLDEN TIMES INTERNATIONAL CULTURE FOUNDATION INC", "city": "GLEN COVE", "state": "NY", "zip": "11542-1316", "ntee": "A23", "ruling": "202201", "deductibility": "1", "assets": 0, "income": 0, "revenue": 0}, {"ein": "844637959", "name": "AMERICAN MADISON CULTURE & HEALTH FOUNDATION INC", "city": "FOREST HILLS", "state": "NY", "zip": "11375-4894", "ntee": "A20", "ruling": "202109", "deductibility": "1", "assets": 5000, "income": 1, "revenue": 0}, {"ein": "844694898", "name": "CULTURE LAB LIC INC", "city": "LONG ISLAND CITY", "state": "NY", "zip": "11101-5267", "ntee": "A20", "ruling": "202104", "deductibility": "1", "assets": 154595, "income": 881113, "revenue": 785279}, {"ein": "850605772", "name": "I AM CULTURE BRAND", "city": "BROOKLYN", "state": "NY", "zip": "11234-3372", "ntee": "B90", "ruling": "202104", "deductibility": "1", "assets": 13407, "income": 52565, "revenue": 19706}, {"ein": "851170041", "name": "AMERICAN ACADEMY OF INTERNATIONAL CULTURE AND EDUCATION INC", "city": "ALBERTSON", "state": "NY", "zip": "11507-2104", "ntee": "B03", "ruling": "202006", "deductibility": "1", "assets": 338872, "income": 490301, "revenue": 490301}, {"ein": "852663011", "name": "STUDIO AFRI-CULTURE INC", "city": "BRONX", "state": "NY", "zip": "10468-4716", "ntee": "B30", "ruling": "202112", "deductibility": "1", "assets": 1850, "income": 0, "revenue": 0}, {"ein": "853743954", "name": "GENESIS MUSEUM OF INTERNATIONAL BLACK CULTURE", "city": "NEW YORK", "state": "NY", "zip": "10027-2401", "ntee": "A50", "ruling": "202202", "deductibility": "1", "assets": 254, "income": 34885, "revenue": 34885}, {"ein": "872027805", "name": "AFRICAN AMERICAN VETERANS ARTS AND CULTURE CORPORATION", "city": "BUFFALO", "state": "NY", "zip": "14208-1827", "ntee": "A20", "ruling": "202208", "deductibility": "1", "assets": 0, "income": 0, "revenue": 0}, {"ein": "872275815", "name": "EMEI CULTURE FOUNDATION INC", "city": "NEW YORK", "state": "NY", "zip": "10017-6853", "ntee": "X50", "ruling": "202411", "deductibility": "1", "assets": 0, "income": 0, "revenue": 0}, {"ein": "872808379", "name": "NINEGRID CULTURE FOUNDATION INC", "city": "FLUSHING", "state": "NY", "zip": "11354-4146", "ntee": "A20", "ruling": "202203", "deductibility": "1", "assets": 1, "income": 0, "revenue": 0}, {"ein": "873309919", "name": "INTERNATIONAL CULTURE & ARTS FOUNDATION INC", "city": "BAYSIDE", "state": "NY", "zip": "11361-8010", "ntee": "A99", "ruling": "202202", "deductibility": "1", "assets": 1, "income": 500, "revenue": 500}, {"ein": "873690415", "name": "COALITION OF MASTERS SCHOLARS ON MATERIAL CULTURE INC", "city": "COOPERSTOWN", "state": "NY", "zip": "13326-1227", "ntee": "A99", "ruling": "202205", "deductibility": "1", "assets": 0, "income": 0, "revenue": 0}, {"ein": "874276960", "name": "GRAND SYCAMORE CULTURE FOUNDATION INC", "city": "GLEN COVE", "state": "NY", "zip": "11542-2549", "ntee": "A20", "ruling": "202203", "deductibility": "1", "assets": 0, "income": 0, "revenue": 0}, {"ein": "880769003", "name": "CULTURE SOCIETY INCORPORATED", "city": "ROCHESTER", "state": "NY", "zip": "14625-2831", "ntee": "R30", "ruling": "202203", "deductibility": "1", "assets": 0, "income": 0, "revenue": 0}, {"ein": "881341214", "name": "HARLEM FESTIVAL OF CULTURE FOUNDATION INC", "city": "NEW YORK", "state": "NY", "zip": "10037-1527", "ntee": "O50", "ruling": "202205", "deductibility": "1", "assets": 1, "income": 182613, "revenue": 182613}, {"ein": "882135886", "name": "ASIAN AMERICAN CULTURE PROTECTION FOUNDATION INC", "city": "BROOKLYN", "state": "NY", "zip": "11214-3735", "ntee": "A20", "ruling": "202205", "deductibility": "1", "assets": 0, "income": 0, "revenue": 0}, {"ein": "882604139", "name": "NYC CULTURE CLUB INC", "city": "NEW YORK", "state": "NY", "zip": "10007-2383", "ntee": "A20", "ruling": "202206", "deductibility": "1", "assets": 8283, "income": 166932, "revenue": 166932}, {"ein": "882942128", "name": "HELLENIC ANCIENT CULTURE INSTITUTE", "city": "NEW YORK", "state": "NY", "zip": "10019-5844", "ntee": "A11", "ruling": "202207", "deductibility": "1", "assets": 5351, "income": 40000, "revenue": 40000}, {"ein": "883299596", "name": "BORDERLESS CULTURE AND ART CENTER INC", "city": "FLUSHING", "state": "NY", "zip": "11367-1653", "ntee": "A20", "ruling": "202208", "deductibility": "1", "assets": 0, "income": 0, "revenue": 0}, {"ein": "883709071", "name": "CULTURE OF HEALING INC", "city": "ELIZAVILLE", "state": "NY", "zip": "12523-1139", "ntee": "E99", "ruling": "202209", "deductibility": "1", "assets": 0, "income": 0, "revenue": 0}, {"ein": "883732746", "name": "CULTURE AND ESL CORP", "city": "GRAND ISLAND", "state": "NY", "zip": "14072-1885", "ntee": "B01", "ruling": "202304", "deductibility": "1", "assets": 3000, "income": 450, "revenue": 0}, {"ein": "883868534", "name": "GRAYSON CULTURE & YOUTH FOUNDATION INC", "city": "FLUSHING", "state": "NY", "zip": "11355-1611", "ntee": "A20", "ruling": "202211", "deductibility": "1", "assets": 485, "income": 1700, "revenue": 1700}, {"ein": "884018788", "name": "INTERNATIONAL CENTER OF CULTURE & ART INC", "city": "NEW YORK", "state": "NY", "zip": "10019-3386", "ntee": "A20", "ruling": "202209", "deductibility": "1", "assets": 0, "income": 0, "revenue": 0}, {"ein": "920898087", "name": "FRIENDS OF BLACK LITERATURE RESEARCH CULTURE & THE ARTS INC", "city": "BROOKLYN", "state": "NY", "zip": "11205-2411", "ntee": "A01", "ruling": "202302", "deductibility": "1", "assets": 0, "income": 0, "revenue": 0}, {"ein": "921570718", "name": "CULTURE CITY", "city": "NEW YORK CITY", "state": "NY", "zip": "10022-1360", "ntee": "K20", "ruling": "202301", "deductibility": "1", "assets": 0, "income": 0, "revenue": 0}, {"ein": "921790740", "name": "UNITED PALACE FOR ARTS AND CULTURE INC", "city": "NEW YORK", "state": "NY", "zip": "10033-3701", "ntee": "A20", "ruling": "202405", "deductibility": "1", "assets": 0, "income": 0, "revenue": 0}, {"ein": "922181089", "name": "PACIFIC CULTURE AND ART FOUNDATION INC", "city": "NEW YORK", "state": "NY", "zip": "10019-7465", "ntee": "A25", "ruling": "202302", "deductibility": "1", "assets": 0, "income": 0, "revenue": 0}, {"ein": "923747730", "name": "NORTH AMERICAN CULTURE AND EDUCATION ACADEMY INC", "city": "ALBERTSON", "state": "NY", "zip": "11507-2104", "ntee": "B03", "ruling": "202305", "deductibility": "1", "assets": 7030, "income": 7550, "revenue": 0}, {"ein": "923869581", "name": "BWT INTERNATIONAL CULTURE & ART CENTER INC", "city": "FLUSHING", "state": "NY", "zip": "11354-1927", "ntee": "A20", "ruling": "202309", "deductibility": "1", "assets": 0, "income": 0, "revenue": 0}, {"ein": "931786138", "name": "US AFRICAN ARTS AND CULTURE FOUNDATION INC", "city": "BRONX", "state": "NY", "zip": "10472-5205", "ntee": "A23", "ruling": "202503", "deductibility": "1", "assets": 0, "income": 0, "revenue": 0}, {"ein": "932255227", "name": "KOREAN AMERICAN CULTURE AND ARTS INC", "city": "NEW YORK", "state": "NY", "zip": "10004-1447", "ntee": "A99", "ruling": "202310", "deductibility": "1", "assets": 8142, "income": 40957, "revenue": 40957}, {"ein": "932775693", "name": "CULTURE FOR PEACE INSTITUTE", "city": "NEW YORK", "state": "NY", "zip": "10150-1150", "ntee": "A23", "ruling": "202308", "deductibility": "1", "assets": 39464, "income": 100000, "revenue": 100000}, {"ein": "933399764", "name": "ENVOY CULTURE", "city": "NEW YORK", "state": "NY", "zip": "10017-5719", "ntee": "T50", "ruling": "202310", "deductibility": "1", "assets": 0, "income": 0, "revenue": 0}, {"ein": "933653020", "name": "NEPALI CULTURE & ARTS CENTER", "city": "WEST HENRIETTA", "state": "NY", "zip": "14586-9596", "ntee": "A25", "ruling": "202505", "deductibility": "1", "assets": 0, "income": 0, "revenue": 0}, {"ein": "934312636", "name": "HERITAGE CULTURE INC", "city": "BROOKLYN", "state": "NY", "zip": "11234-0000", "ntee": "A23", "ruling": "202402", "deductibility": "1", "assets": 0, "income": 0, "revenue": 0}, {"ein": "934873046", "name": "A CULTURE OF SAFETY ALLIANCE INC", "city": "NEW YORK", "state": "NY", "zip": "10018-1618", "ntee": "M40", "ruling": "202404", "deductibility": "1", "assets": 0, "income": 0, "revenue": 0}, {"ein": "934959853", "name": "US-CHINA ARTS AND CULTURE ASSOCIATION CORP", "city": "SCHENECTADY", "state": "NY", "zip": "12303-3461", "ntee": "A20", "ruling": "202402", "deductibility": "1", "assets": 0, "income": 0, "revenue": 0}, {"ein": "990668893", "name": "PULP CULTURE INC", "city": "BROOKLYN", "state": "NY", "zip": "11226-6046", "ntee": "P20", "ruling": "202402", "deductibility": "1", "assets": 0, "income": 0, "revenue": 0}, {"ein": "990810138", "name": "CAFE DE LA CULTURE INC", "city": "NEW ROCHELLE", "state": "NY", "zip": "10801-5105", "ntee": "A23", "ruling": "202402", "deductibility": "1", "assets": 0, "income": 0, "revenue": 0}, {"ein": "990868499", "name": "SOUTHEAST QUEENS CENTER FOR HISTORY & CULTURE INC", "city": "HOLLIS", "state": "NY", "zip": "11423-0168", "ntee": "A82", "ruling": "202402", "deductibility": "1", "assets": 0, "income": 0, "revenue": 0}, {"ein": "990992705", "name": "CULTURE AND ARTS POLICY INSTITUTE INC", "city": "JACKSON HTS", "state": "NY", "zip": "11372-2536", "ntee": "A26", "ruling": "202402", "deductibility": "1", "assets": 0, "income": 0, "revenue": 0}, {"ein": "991204751", "name": "CAJUN CUISINE CULTURE", "city": "BROOKLYN", "state": "NY", "zip": "11204-1824", "ntee": "A23", "ruling": "202403", "deductibility": "1", "assets": 0, "income": 0, "revenue": 0}, {"ein": "991410265", "name": "CREATE THE CULTURE ENTERTAINMENT INCORPORATED", "city": "OLEAN", "state": "NY", "zip": "14760-1704", "ntee": "O51", "ruling": "202402", "deductibility": "1", "assets": 0, "income": 0, "revenue": 0}, {"ein": "993164732", "name": "CANARSIE CULTURE COMMERCE AND COMMUNITY INC", "city": "BROOKLYN", "state": "NY", "zip": "11236-3931", "ntee": "J33", "ruling": "202408", "deductibility": "1", "assets": 0, "income": 0, "revenue": 0}, {"ein": "993236975", "name": "CARIBBEAN ARTS & CULTURE FOUNDATION", "city": "BUFFALO", "state": "NY", "zip": "14215-3028", "ntee": "A23", "ruling": "202409", "deductibility": "1", "assets": 0, "income": 0, "revenue": 0}, {"ein": "993457401", "name": "SOCIETY FOR THE PRESERVATION OF RELIGIOUS ARTIFACTS AND CULTURE IN", "city": "ALBANY", "state": "NY", "zip": "12207-2834", "ntee": "P12", "ruling": "202406", "deductibility": "1", "assets": 0, "income": 0, "revenue": 0}, {"ein": "993901300", "name": "CULTURE TREE COLLECTIVE INC", "city": "NEW YORK", "state": "NY", "zip": "10023-4804", "ntee": "A20", "ruling": "202412", "deductibility": "1", "assets": 0, "income": 0, "revenue": 0}, {"ein": "994034493", "name": "LOCAL CULTURE KITCHEN INC", "city": "BROOKLYN", "state": "NY", "zip": "11201-1041", "ntee": "K30", "ruling": "202408", "deductibility": "1", "assets": 0, "income": 0, "revenue": 0}, {"ein": "995136035", "name": "CULTURE LIME", "city": "BROOKLYN", "state": "NY", "zip": "11201-2708", "ntee": "", "ruling": "201301", "deductibility": "1", "assets": 0, "income": 0, "revenue": 0}], "MARKET": [{"ein": "050549501", "name": "MARKET MATTERS INC", "city": "ITHACA", "state": "NY", "zip": "14850-5407", "ntee": "Q30", "ruling": "200305", "deductibility": "1", "assets": 1986194, "income": 466837, "revenue": 160023}, {"ein": "061800512", "name": "HARVEST HOME FARMERS MARKET INC", "city": "NEW YORK", "state": "NY", "zip": "10027-3811", "ntee": "K40", "ruling": "200811", "deductibility": "1", "assets": 382030, "income": 1093015, "revenue": 1093015}, {"ein": "132907878", "name": "CHARTERED MARKET TECHNICIANS ASSOCIATED INC", "city": "NEW YORK", "state": "NY", "zip": "10006-1650", "ntee": "", "ruling": "197902", "deductibility": "2", "assets": 544064, "income": 2555130, "revenue": 2555130}, {"ein": "133134024", "name": "WASHINGTON MARKET SCHOOL", "city": "NEW YORK", "state": "NY", "zip": "10013-3350", "ntee": "B21Z", "ruling": "198412", "deductibility": "1", "assets": 44891699, "income": 14349517, "revenue": 10327320}, {"ein": "133282387", "name": "THE FRIENDS OF WASHINGTON MARKET PARK INC", "city": "NEW YORK", "state": "NY", "zip": "10008-3275", "ntee": "", "ruling": "198705", "deductibility": "1", "assets": 37098, "income": 19714, "revenue": 19714}, {"ein": "134117781", "name": "FLOWER MARKET ASSOCIATION OF NYC INC", "city": "NEW YORK", "state": "NY", "zip": "10001-6124", "ntee": "S41", "ruling": "200010", "deductibility": "2", "assets": 0, "income": 0, "revenue": 0}, {"ein": "135562786", "name": "FULTON FISH MARKET WELFARE FUND", "city": "NEW YORK", "state": "NY", "zip": "10018-3726", "ntee": "", "ruling": "198312", "deductibility": "2", "assets": 10334239, "income": 5075193, "revenue": 5075193}, {"ein": "161033054", "name": "MARKET STREET RESTORATION CORPORATION", "city": "CORNING", "state": "NY", "zip": "14830-2680", "ntee": "", "ruling": "197412", "deductibility": "1", "assets": 16246, "income": 5, "revenue": 0}, {"ein": "161563537", "name": "FARMERS MARKET FEDERATION OF NEW YORK", "city": "SYRACUSE", "state": "NY", "zip": "13206-1204", "ntee": "K20", "ruling": "200007", "deductibility": "1", "assets": 3085249, "income": 816178, "revenue": 816178}, {"ein": "200338161", "name": "THE SARATOGA FARMERS MARKET ASSOCIATION INC", "city": "SARATOGA SPGS", "state": "NY", "zip": "12866-0094", "ntee": "K30", "ruling": "201903", "deductibility": "1", "assets": 116251, "income": 101646, "revenue": 101646}, {"ein": "223783442", "name": "ONE WORLD MARKET INC", "city": "ITHACA", "state": "NY", "zip": "14850-5380", "ntee": "P29", "ruling": "200205", "deductibility": "1", "assets": 52940, "income": 169904, "revenue": 86766}, {"ein": "260212043", "name": "KINGSTON FARMERS MARKET FOUNDATIONINC", "city": "KINGSTON", "state": "NY", "zip": "12402-3794", "ntee": "K20", "ruling": "200901", "deductibility": "1", "assets": 100423, "income": 112772, "revenue": 112772}, {"ein": "262600494", "name": "MARKET DISTRICT BUSINESS ASSOCIATION OF ROCHESTER NY", "city": "ROCHESTER", "state": "NY", "zip": "14609-6013", "ntee": "S30", "ruling": "202010", "deductibility": "2", "assets": 0, "income": 0, "revenue": 0}, {"ein": "270380153", "name": "PAWLING FARMERS MARKET INC", "city": "PAWLING", "state": "NY", "zip": "12564-1833", "ntee": "S99", "ruling": "201109", "deductibility": "2", "assets": 0, "income": 0, "revenue": 0}, {"ein": "275111306", "name": "SUGAR HILL NEW MARKET TAX CREDIT INC", "city": "NEW YORK", "state": "NY", "zip": "10031-8346", "ntee": "L80", "ruling": "201203", "deductibility": "2", "assets": 22337925, "income": 400010, "revenue": 400010}, {"ein": "331217094", "name": "HASTINGS FARMERS MARKET INC", "city": "HASTINGS HDSN", "state": "NY", "zip": "10706-0114", "ntee": "K20", "ruling": "201005", "deductibility": "1", "assets": 251273, "income": 151182, "revenue": 145960}, {"ein": "352414152", "name": "FRIENDS OF THE BRIGHTON FARMERS MARKET INC", "city": "SPRINGWATER", "state": "NY", "zip": "14560-9720", "ntee": "S12", "ruling": "201205", "deductibility": "1", "assets": 0, "income": 0, "revenue": 0}, {"ein": "364671199", "name": "MARKET RESEARCH COUNCIL INC", "city": "NEW YORK", "state": "NY", "zip": "10150-1076", "ntee": "S40", "ruling": "202408", "deductibility": "2", "assets": 27104, "income": 46310, "revenue": 46310}, {"ein": "371435789", "name": "KENMORE FARMERS MARKET INC", "city": "KENMORE", "state": "NY", "zip": "14217-2433", "ntee": "K30", "ruling": "201210", "deductibility": "2", "assets": 0, "income": 0, "revenue": 0}, {"ein": "421689475", "name": "SULLIVAN COUNTY FARMERS MARKET ASSOCIATION INC", "city": "CALLICOON", "state": "NY", "zip": "12723-0244", "ntee": "W99", "ruling": "200708", "deductibility": "2", "assets": 58401, "income": 52471, "revenue": 51406}, {"ein": "451205943", "name": "WEBSTER JOE OBBIE FAMERS MARKET", "city": "SODUS", "state": "NY", "zip": "14551-9529", "ntee": "K20", "ruling": "202403", "deductibility": "1", "assets": 0, "income": 0, "revenue": 0}, {"ein": "455268127", "name": "CLARENCE EDUCATIONAL AND FARM MARKET ASSOCIATION INC", "city": "CLARENCE", "state": "NY", "zip": "14031-0278", "ntee": "X99", "ruling": "201401", "deductibility": "1", "assets": 21727, "income": 23440, "revenue": 17385}, {"ein": "455268240", "name": "ALFRED FARMERS MARKET INC", "city": "ALFRED STA", "state": "NY", "zip": "14803-0142", "ntee": "K99", "ruling": "201701", "deductibility": "1", "assets": 0, "income": 0, "revenue": 0}, {"ein": "463756716", "name": "COLD SPRING FARMERS MARKET INC", "city": "COLD SPRING", "state": "NY", "zip": "10516-0325", "ntee": "K20", "ruling": "201511", "deductibility": "1", "assets": 92813, "income": 82415, "revenue": 81354}, {"ein": "464836143", "name": "FREDONIA FARMERS MARKET INC", "city": "FREDONIA", "state": "NY", "zip": "14063-1855", "ntee": "S41", "ruling": "201602", "deductibility": "2", "assets": 0, "income": 0, "revenue": 0}, {"ein": "510153256", "name": "VILLAGE COMMITTEE FOR THE JEFFERSON MARKET AREA INC", "city": "NEW YORK", "state": "NY", "zip": "10011-8436", "ntee": "C400", "ruling": "197508", "deductibility": "1", "assets": 261044, "income": 241188, "revenue": 241188}, {"ein": "510611280", "name": "TROY WATERFRONT FARMERS MARKET INC", "city": "TROY", "state": "NY", "zip": "12181-1534", "ntee": "K990", "ruling": "200712", "deductibility": "2", "assets": 205654, "income": 352359, "revenue": 352359}, {"ein": "800915955", "name": "HERBAN FARMERS MARKET INC", "city": "NEW YORK", "state": "NY", "zip": "10039-2706", "ntee": "K40", "ruling": "201507", "deductibility": "1", "assets": 0, "income": 0, "revenue": 0}, {"ein": "812328759", "name": "LITTLE MARKET INC", "city": "NEW YORK", "state": "NY", "zip": "10018-1851", "ntee": "Q33", "ruling": "201605", "deductibility": "1", "assets": 20649, "income": 179274, "revenue": -196098}, {"ein": "812392443", "name": "MARKET SHUTTLE CORPORATION", "city": "SYRACUSE", "state": "NY", "zip": "13210-2556", "ntee": "", "ruling": "201605", "deductibility": "1", "assets": 0, "income": 0, "revenue": 0}, {"ein": "812591361", "name": "ROOFERS LOCAL 241 MARKET RECOVERY TRUST FUND", "city": "ALBANY", "state": "NY", "zip": "12206-1626", "ntee": "J40", "ruling": "201804", "deductibility": "2", "assets": 429006, "income": 147400, "revenue": 147400}, {"ein": "812871972", "name": "FULTON MARKET ASSOCIATION INC", "city": "NEW YORK", "state": "NY", "zip": "10038-2108", "ntee": "S30", "ruling": "201703", "deductibility": "1", "assets": 30893, "income": 332094, "revenue": 156679}, {"ein": "813412914", "name": "FRIENDS OF BROADWAY MARKET DISTRICT INC", "city": "BUFFALO", "state": "NY", "zip": "14212-1369", "ntee": "S11", "ruling": "201704", "deductibility": "1", "assets": 0, "income": 0, "revenue": 0}, {"ein": "814966668", "name": "PROFESSIONAL ADVISORS TO THE INTERNATIONAL ART MARKET - NEW YOR", "city": "NEW YORK", "state": "NY", "zip": "10018-0000", "ntee": "S40", "ruling": "201706", "deductibility": "2", "assets": 22659, "income": 7443, "revenue": 7443}, {"ein": "821893489", "name": "NORTHEAST BRONX COMMUNITY FARMERS MARKET PROJECT INC", "city": "BRONX", "state": "NY", "zip": "10465-3353", "ntee": "K99", "ruling": "201707", "deductibility": "1", "assets": 0, "income": 0, "revenue": 0}, {"ein": "821896232", "name": "VILLAGE OF FORT EDWARD CANAL STREET MARKET PLACE INC", "city": "FORT EDWARD", "state": "NY", "zip": "12828-0086", "ntee": "K99", "ruling": "201810", "deductibility": "1", "assets": 0, "income": 0, "revenue": 0}, {"ein": "822035129", "name": "MIDDLE MARKET ALLIANCE OF LONG ISLAND INC", "city": "GARDEN CITY", "state": "NY", "zip": "11530-4869", "ntee": "S41", "ruling": "202107", "deductibility": "2", "assets": 0, "income": 0, "revenue": 0}, {"ein": "822628096", "name": "BROADWAY MARKET MANAGEMENT INC", "city": "BUFFALO", "state": "NY", "zip": "14212-1369", "ntee": "S30", "ruling": "201807", "deductibility": "1", "assets": 0, "income": 0, "revenue": 0}, {"ein": "824732017", "name": "FRIENDS OF THE GLENS FALLS FARMERS MARKET", "city": "GLENS FALLS", "state": "NY", "zip": "12801-2909", "ntee": "K99", "ruling": "201806", "deductibility": "1", "assets": 0, "income": 0, "revenue": 0}, {"ein": "824925064", "name": "LATINO FILM MARKET INC", "city": "NEW YORK", "state": "NY", "zip": "10032-0511", "ntee": "A20", "ruling": "201805", "deductibility": "1", "assets": 0, "income": 0, "revenue": 0}, {"ein": "830763864", "name": "LOCAL 1298 MARKET RECOVERY PROGRAM INC", "city": "HEMPSTEAD", "state": "NY", "zip": "11550-4556", "ntee": "J40", "ruling": "201904", "deductibility": "2", "assets": 996110, "income": 872835, "revenue": 872835}, {"ein": "834219430", "name": "BARRYVILLE FARMERS MARKET INC", "city": "BARRYVILLE", "state": "NY", "zip": "12719-0201", "ntee": "K99", "ruling": "201908", "deductibility": "1", "assets": 0, "income": 0, "revenue": 0}, {"ein": "842068390", "name": "BINGHAMTON DOWNTOWN COURTYARD MARKET INC", "city": "BINGHAMTON", "state": "NY", "zip": "13905-4180", "ntee": "A03", "ruling": "202203", "deductibility": "1", "assets": 0, "income": 0, "revenue": 0}, {"ein": "842482813", "name": "NATIONAL ASSOCIATION OF PRODUCE MARKET MANAGERS", "city": "SYRACUSE", "state": "NY", "zip": "13208-1041", "ntee": "S41", "ruling": "201908", "deductibility": "2", "assets": 0, "income": 0, "revenue": 0}, {"ein": "844660117", "name": "RUMSISKES MARKET-TOWN MUSEUM CORP", "city": "ACCORD", "state": "NY", "zip": "12404-5222", "ntee": "A50", "ruling": "202003", "deductibility": "1", "assets": 0, "income": 0, "revenue": 0}, {"ein": "853047430", "name": "EDEN FARMERS MARKET", "city": "EDEN", "state": "NY", "zip": "14057-1115", "ntee": "K99", "ruling": "202206", "deductibility": "2", "assets": 0, "income": 0, "revenue": 0}, {"ein": "854274099", "name": "NICHE MARKET INSIGHTS FOUNDATION INC", "city": "ROCHESTER", "state": "NY", "zip": "14611-4060", "ntee": "S30", "ruling": "202103", "deductibility": "1", "assets": 7743, "income": 4518, "revenue": 4518}, {"ein": "870886187", "name": "FRIENDS OF THE ITHACA FARMERS MARKET INC", "city": "ITHACA", "state": "NY", "zip": "14851-0285", "ntee": "K11", "ruling": "202202", "deductibility": "1", "assets": 30830, "income": 134808, "revenue": 133750}, {"ein": "882367378", "name": "VILLAGE COMMUNITY MARKET", "city": "HAMBURG", "state": "NY", "zip": "14075-6208", "ntee": "S41", "ruling": "202208", "deductibility": "1", "assets": 0, "income": 0, "revenue": 0}, {"ein": "934063686", "name": "GLOBAL CARBON MARKET UTILITY GOVERNING COUNCIL INC", "city": "NEW YORK", "state": "NY", "zip": "10019-4108", "ntee": "C05", "ruling": "202505", "deductibility": "1", "assets": 9997344, "income": 9837000, "revenue": 9837000}, {"ein": "991874204", "name": "WHOLESOME HARVEST FARMERS MARKET CORP", "city": "ISLIP", "state": "NY", "zip": "11751-2700", "ntee": "K35", "ruling": "202505", "deductibility": "1", "assets": 0, "income": 0, "revenue": 0}, {"ein": "992216337", "name": "FRIENDS OF THE SCHROON LAKE FARMERS MARKET INCORPORATED", "city": "SCHROON LAKE", "state": "NY", "zip": "12870-2118", "ntee": "T50", "ruling": "202405", "deductibility": "1", "assets": 0, "income": 0, "revenue": 0}, {"ein": "993091645", "name": "TIBETAN HIMALAYAN MARKET ASSOCIATION INC", "city": "WOODSIDE", "state": "NY", "zip": "11377-2216", "ntee": "S43", "ruling": "202405", "deductibility": "1", "assets": 0, "income": 0, "revenue": 0}], "OCEAN": [{"ein": "061660996", "name": "OCEAN OUTREACH INC", "city": "NEW YORK", "state": "NY", "zip": "10028-0517", "ntee": "B99", "ruling": "201702", "deductibility": "1", "assets": 46491, "income": 3208, "revenue": 3208}, {"ein": "111510000", "name": "OCEAN CLUB INC", "city": "ATLANTIC BCH", "state": "NY", "zip": "11509-1507", "ntee": "N50", "ruling": "197902", "deductibility": "2", "assets": 2792225, "income": 2197978, "revenue": 2185220}, {"ein": "112147507", "name": "OCEAN BEACH PLAY GROUP INC", "city": "OCEAN BEACH", "state": "NY", "zip": "11770-0631", "ntee": "N20", "ruling": "201506", "deductibility": "1", "assets": 850769, "income": 957154, "revenue": 940523}, {"ein": "112513924", "name": "OCEAN BEACH COMMUNITY FUND INC", "city": "OCEAN BEACH", "state": "NY", "zip": "11770-0023", "ntee": "C500", "ruling": "198002", "deductibility": "1", "assets": 366680, "income": 99695, "revenue": 77975}, {"ein": "112515695", "name": "OCEAN PARKWAY COMMUNITY DEVELOPMENT", "city": "BROOKLYN", "state": "NY", "zip": "11218-5708", "ntee": "S20Z", "ruling": "198012", "deductibility": "1", "assets": 85448, "income": 247942, "revenue": 247942}, {"ein": "112579605", "name": "CONGREGATION SHAARE SHALOM OF OCEAN PARKWAY", "city": "BROOKLYN", "state": "NY", "zip": "11219-3227", "ntee": "", "ruling": "198309", "deductibility": "1", "assets": 0, "income": 0, "revenue": 0}, {"ein": "112937941", "name": "OCEAN BEACH VOLUNTEER AND EXEMPT FIREFIGHTERS BENEVOLENT", "city": "OCEAN BEACH", "state": "NY", "zip": "11770-0362", "ntee": "Y40", "ruling": "202410", "deductibility": "1", "assets": 812848, "income": 116666, "revenue": 116666}, {"ein": "113539772", "name": "OCEAN ZENDO INC", "city": "SAG HARBOR", "state": "NY", "zip": "11963-0051", "ntee": "X50", "ruling": "200012", "deductibility": "1", "assets": 0, "income": 0, "revenue": 0}, {"ein": "116105239", "name": "OCEAN PARKWAY JEWISH CENTER", "city": "BROOKLYN", "state": "NY", "zip": "11218-5808", "ntee": "", "ruling": "195109", "deductibility": "1", "assets": 0, "income": 0, "revenue": 0}, {"ein": "135578510", "name": "OCEAN VIEW-THE CEMETERY BEAUTIFUL INC", "city": "STATEN ISLAND", "state": "NY", "zip": "10306-2707", "ntee": "", "ruling": "194210", "deductibility": "1", "assets": 9012685, "income": 5445018, "revenue": 3312374}, {"ein": "141732474", "name": "OCEAN FIRE COMPANY 1 INC", "city": "CHATHAM", "state": "NY", "zip": "12037-0000", "ntee": "M24", "ruling": "201107", "deductibility": "1", "assets": 0, "income": 0, "revenue": 0}, {"ein": "161620363", "name": "YESHIVA OF OCEAN INC", "city": "GREENFLD PARK", "state": "NY", "zip": "12435-0357", "ntee": "X30", "ruling": "201010", "deductibility": "1", "assets": 1484778, "income": 5050, "revenue": 5050}, {"ein": "205524279", "name": "OCEAN FUND LTD", "city": "BROOKLYN", "state": "NY", "zip": "11202-4688", "ntee": "T22", "ruling": "200611", "deductibility": "1", "assets": 21781, "income": 775, "revenue": 0}, {"ein": "206726793", "name": "OCEAN RAIN FOUNDATION", "city": "NEW YORK", "state": "NY", "zip": "10013-3184", "ntee": "T20", "ruling": "200606", "deductibility": "1", "assets": 416548, "income": 345435, "revenue": 0}, {"ein": "270111014", "name": "OCEAN YACHT CLUB", "city": "STATEN ISLAND", "state": "NY", "zip": "10304-3837", "ntee": "N50", "ruling": "201210", "deductibility": "2", "assets": 618934, "income": 103885, "revenue": 33380}, {"ein": "270488746", "name": "FIRE DEPARTMENT OF OCEAN BEACH INC", "city": "OCEAN BEACH", "state": "NY", "zip": "11770-0386", "ntee": "M24", "ruling": "201005", "deductibility": "1", "assets": 633268, "income": 174329, "revenue": 163899}, {"ein": "271068985", "name": "ONE OCEAN MEDIA FOUNDATION", "city": "STONE RIDGE", "state": "NY", "zip": "12484-0730", "ntee": "C30", "ruling": "201202", "deductibility": "1", "assets": 36954, "income": 227852, "revenue": 227852}, {"ein": "271654222", "name": "OCEAN OF MERIT", "city": "DELHI", "state": "NY", "zip": "13753-8748", "ntee": "X21", "ruling": "201009", "deductibility": "1", "assets": 0, "income": 0, "revenue": 0}, {"ein": "332831269", "name": "OCEAN MIND SANGHA INC", "city": "HASTINGS HDSN", "state": "NY", "zip": "10706-3002", "ntee": "X50", "ruling": "202504", "deductibility": "1", "assets": 0, "income": 0, "revenue": 0}, {"ein": "364638094", "name": "EAST END OCEAN RESCUE LTD", "city": "EAST HAMPTON", "state": "NY", "zip": "11937-3243", "ntee": "U21", "ruling": "200911", "deductibility": "1", "assets": 0, "income": 0, "revenue": 0}, {"ein": "453841468", "name": "OCEAN HILL-BROWNSVILLE NEIGHBORHOOD IMPROVEMENT ASSOCIATION INC", "city": "BROOKLYN", "state": "NY", "zip": "11233-2506", "ntee": "S20", "ruling": "201601", "deductibility": "1", "assets": 0, "income": 0, "revenue": 0}, {"ein": "454613134", "name": "OCEAN HILL-BROWNSVILLE COALITION OF YOUNG PROFESSIONALS", "city": "BROOKLYN", "state": "NY", "zip": "11212-0289", "ntee": "Y03", "ruling": "201406", "deductibility": "1", "assets": 0, "income": 0, "revenue": 0}, {"ein": "475300628", "name": "OCEAN CARE LTD", "city": "BROOKLYN", "state": "NY", "zip": "11235-4808", "ntee": "P80", "ruling": "201602", "deductibility": "1", "assets": 1, "income": 0, "revenue": 0}, {"ein": "800401664", "name": "OCEAN BAY PARK VOLUNTEER FIRE DEPARTMENT", "city": "OCEAN BEACH", "state": "NY", "zip": "11770-0000", "ntee": "M24", "ruling": "201107", "deductibility": "1", "assets": 1248343, "income": 79302, "revenue": 79302}, {"ein": "811548424", "name": "FABIEN COUSTEAU OCEAN LEARNING CENTER INC", "city": "NEW YORK", "state": "NY", "zip": "10019-3702", "ntee": "C30", "ruling": "201605", "deductibility": "1", "assets": 826671, "income": 231005, "revenue": 231005}, {"ein": "814021966", "name": "MANNA OCEAN FOUNDATION INC", "city": "EAST QUOGUE", "state": "NY", "zip": "11942-4916", "ntee": "D33", "ruling": "201709", "deductibility": "1", "assets": 0, "income": 0, "revenue": 0}, {"ein": "815132355", "name": "AMERICAN FRIENDS OF THE OCEAN CLEANUP FOUNDATION", "city": "NEW YORK", "state": "NY", "zip": "10017-3337", "ntee": "", "ruling": "201711", "deductibility": "1", "assets": 20206628, "income": 12513955, "revenue": 12513955}, {"ein": "821408136", "name": "OCEAN PARKWAY RUNNERS", "city": "BROOKLYN", "state": "NY", "zip": "11229-1014", "ntee": "N60", "ruling": "201708", "deductibility": "1", "assets": 0, "income": 0, "revenue": 0}, {"ein": "830908572", "name": "2459 OCEAN OWNER LLC", "city": "RONKONKOMA", "state": "NY", "zip": "11779-6079", "ntee": "S47", "ruling": "202504", "deductibility": "2", "assets": 0, "income": 0, "revenue": 0}, {"ein": "834043719", "name": "OCEAN BEACH CHAMBER OF COMMERCE CORP", "city": "OCEAN BEACH", "state": "NY", "zip": "11770-0127", "ntee": "S41", "ruling": "202312", "deductibility": "2", "assets": 0, "income": 0, "revenue": 0}, {"ein": "841622031", "name": "OCEAN BAY COMMUNITY DEVELOPEMENT CORPORATION", "city": "ARVERNE", "state": "NY", "zip": "11692-1550", "ntee": "S31", "ruling": "200311", "deductibility": "1", "assets": 893897, "income": 1836390, "revenue": 1836390}, {"ein": "842541399", "name": "BLUE OCEAN HEALTH CARE INC", "city": "FLUSHING", "state": "NY", "zip": "11354-5308", "ntee": "E70", "ruling": "202303", "deductibility": "1", "assets": 2685, "income": 6401, "revenue": 6401}, {"ein": "844002360", "name": "OCEAN CONSERVATION PROJECT INC", "city": "NEW YORK", "state": "NY", "zip": "10019-0000", "ntee": "T22", "ruling": "202006", "deductibility": "1", "assets": 124664, "income": 12, "revenue": 0}, {"ein": "853118450", "name": "OCEAN BREEZE PARK ALLIANCE INC", "city": "STATEN ISLAND", "state": "NY", "zip": "10301-3304", "ntee": "N70", "ruling": "202404", "deductibility": "1", "assets": 130992, "income": 280921, "revenue": 280921}, {"ein": "871031317", "name": "OCEAN OF MERCY FELLOWSHIP", "city": "JAMAICA", "state": "NY", "zip": "11433-1707", "ntee": "", "ruling": "199107", "deductibility": "0", "assets": 0, "income": 0, "revenue": 0}, {"ein": "871771173", "name": "OCEAN HILL - BROWNSVILLE LOCAL DEVELOPMENT CORPORATION INC", "city": "BROOKLYN", "state": "NY", "zip": "11212-5241", "ntee": "S20", "ruling": "202401", "deductibility": "1", "assets": 0, "income": 0, "revenue": 0}, {"ein": "880563037", "name": "OCEAN HILL CATS INC", "city": "BROOKLYN", "state": "NY", "zip": "11233-2716", "ntee": "D20", "ruling": "202204", "deductibility": "1", "assets": 68947, "income": 84981, "revenue": 84981}, {"ein": "882811315", "name": "OCEAN ARTS THEATRICALS INC", "city": "MASTIC BEACH", "state": "NY", "zip": "11951-0204", "ntee": "A60", "ruling": "202208", "deductibility": "1", "assets": 34010, "income": 62685, "revenue": 62685}, {"ein": "883358821", "name": "SOUTHAMPTON VOLUNTEER OCEAN RESCUE INC", "city": "SAGAPONACK", "state": "NY", "zip": "11962-0212", "ntee": "M40", "ruling": "202211", "deductibility": "1", "assets": 0, "income": 0, "revenue": 0}, {"ein": "901069558", "name": "ANCIENT ORDER OF HIBERNIANS LADIES NJ OCEAN DIV 2", "city": "BROOKLYN", "state": "NY", "zip": "11229-4111", "ntee": "Y42", "ruling": "201702", "deductibility": "1", "assets": 0, "income": 0, "revenue": 0}, {"ein": "920977494", "name": "OCEAN AVENUE REVITALIZATION CORP", "city": "NEW ROCHELLE", "state": "NY", "zip": "10801-7143", "ntee": "L21", "ruling": "202302", "deductibility": "1", "assets": 0, "income": 0, "revenue": 0}, {"ein": "921232130", "name": "CONGREGATION YESHIVA OF OCEAN", "city": "GREENFIELD PARK", "state": "NY", "zip": "12435-0000", "ntee": "X30", "ruling": "202404", "deductibility": "1", "assets": 0, "income": 0, "revenue": 0}], "YAGDIL": [{"ein": "112160842", "name": "YESHIVA YAGDIL TORAH", "city": "BROOKLYN", "state": "NY", "zip": "11204-1534", "ntee": "", "ruling": "197212", "deductibility": "1", "assets": 0, "income": 0, "revenue": 0}, {"ein": "113041660", "name": "AMERICAN FRIENDS OF YAGDIL TORAH INC", "city": "FAR ROCKAWAY", "state": "NY", "zip": "11691-5521", "ntee": "A99Z", "ruling": "199202", "deductibility": "1", "assets": 157134, "income": 3533621, "revenue": 3533621}, {"ein": "113124165", "name": "KEREN YAGDIL TORAH", "city": "BROOKLYN", "state": "NY", "zip": "11206-2904", "ntee": "", "ruling": "199212", "deductibility": "1", "assets": 0, "income": 0, "revenue": 0}, {"ein": "113382476", "name": "TALMUD TORAH YAGDIL TORAH", "city": "BROOKLYN", "state": "NY", "zip": "11204-0000", "ntee": "X30Z", "ruling": "199707", "deductibility": "1", "assets": 0, "income": 0, "revenue": 0}, {"ein": "133872125", "name": "YAGDIL TORAH", "city": "MONROE", "state": "NY", "zip": "10950-3881", "ntee": "X21", "ruling": "200206", "deductibility": "1", "assets": 0, "income": 0, "revenue": 0}, {"ein": "141561489", "name": "YAGDIL HOUSING INC", "city": "SOUTH FALLSBURG", "state": "NY", "zip": "12779-0000", "ntee": "", "ruling": "197701", "deductibility": "1", "assets": 2567127, "income": 445372, "revenue": 445372}, {"ein": "202965483", "name": "CHABAD LUBAVITCH OF FAR ROCKAWAY MERKOS YAGDIL TORAH INC", "city": "FAR ROCKAWAY", "state": "NY", "zip": "11691-5005", "ntee": "X30", "ruling": "200607", "deductibility": "1", "assets": 0, "income": 0, "revenue": 0}, {"ein": "208932458", "name": "YAGDIL TORAH INC", "city": "BROOKLYN", "state": "NY", "zip": "11213-4333", "ntee": "X30", "ruling": "200901", "deductibility": "1", "assets": 49358, "income": 367495, "revenue": 367495}, {"ein": "471886275", "name": "CONGREGATION YAGDIL TORAH", "city": "WOODMERE", "state": "NY", "zip": "11598-0541", "ntee": "X30", "ruling": "201504", "deductibility": "1", "assets": 0, "income": 0, "revenue": 0}], "HOC": [{"ein": "112299539", "name": "AD-HOC COMMITTEE FOR SELDEN CENTEREACH YOUTH ASSOCIATION INC", "city": "SELDEN", "state": "NY", "zip": "11784-0439", "ntee": "P300", "ruling": "199606", "deductibility": "1", "assets": 0, "income": 0, "revenue": 0}, {"ein": "132760135", "name": "AD HOC COMMITTEE IN DEFENSE OF LIFE INC", "city": "NEW YORK", "state": "NY", "zip": "10016-1006", "ntee": "", "ruling": "197409", "deductibility": "2", "assets": 0, "income": 0, "revenue": 0}, {"ein": "461181828", "name": "AD HOC MUSIC", "city": "FAIRPORT", "state": "NY", "zip": "14450-8971", "ntee": "A68", "ruling": "201304", "deductibility": "1", "assets": 0, "income": 0, "revenue": 0}], "GAN": [{"ein": "112302049", "name": "GAN DAY CARE CENTER", "city": "BROOKLYN", "state": "NY", "zip": "11219-1512", "ntee": "", "ruling": "198708", "deductibility": "1", "assets": 2983887, "income": 5846193, "revenue": 5846193}, {"ein": "112709553", "name": "MESIANIC CONGREGATION GAN EDEN", "city": "FAR ROCKAWAY", "state": "NY", "zip": "11691-2543", "ntee": "", "ruling": "199307", "deductibility": "1", "assets": 0, "income": 0, "revenue": 0}, {"ein": "113622108", "name": "GAN YISROEL", "city": "BROOKLYN", "state": "NY", "zip": "11218-4409", "ntee": "X21", "ruling": "200109", "deductibility": "1", "assets": 0, "income": 0, "revenue": 0}, {"ein": "222618174", "name": "GAN-EDAN PARADISE YESHIVA", "city": "WOODBORNE", "state": "NY", "zip": "12788-0000", "ntee": "", "ruling": "198508", "deductibility": "1", "assets": 0, "income": 0, "revenue": 0}, {"ein": "223032483", "name": "GAN KAVOD INC", "city": "NEW HARTFORD", "state": "NY", "zip": "13413-3613", "ntee": "", "ruling": "199008", "deductibility": "1", "assets": 7167032, "income": 8600974, "revenue": 8595926}, {"ein": "231996845", "name": "CAMP GAN ISRAEL INC", "city": "BROOKLYN", "state": "NY", "zip": "11213-5358", "ntee": "", "ruling": "197606", "deductibility": "1", "assets": 178201, "income": 728391, "revenue": 728391}, {"ein": "274262299", "name": "US GAN TIAN YI SHAN TEMPLE ASSOCIATION", "city": "NEW YORK", "state": "NY", "zip": "10002-4728", "ntee": "X50", "ruling": "201106", "deductibility": "1", "assets": 0, "income": 0, "revenue": 0}, {"ein": "275117951", "name": "CHABAD HEIGHTS BROWNSTONE GAN KATAN INC", "city": "BROOKLYN", "state": "NY", "zip": "11216-3804", "ntee": "X30", "ruling": "201409", "deductibility": "1", "assets": 0, "income": 0, "revenue": 0}, {"ein": "275337404", "name": "GAN SHEMESH DAY CARE INC", "city": "SPRING VALLEY", "state": "NY", "zip": "10977-2415", "ntee": "P33", "ruling": "201306", "deductibility": "1", "assets": 0, "income": 0, "revenue": 0}, {"ein": "275457003", "name": "CAMP GAN ISRAEL NORTH EAST", "city": "AIRMONT", "state": "NY", "zip": "10952-4409", "ntee": "N20", "ruling": "201203", "deductibility": "1", "assets": 2082577, "income": 1028157, "revenue": 1028157}, {"ein": "392127367", "name": "FRIENDS OF CAMP GAN ISRAEL MONTREAL INC", "city": "BROOKLYN", "state": "NY", "zip": "11213-3410", "ntee": "X30", "ruling": "202507", "deductibility": "1", "assets": 0, "income": 0, "revenue": 0}, {"ein": "462347080", "name": "GAN ATID", "city": "BRONX", "state": "NY", "zip": "10462-1100", "ntee": "X30", "ruling": "201502", "deductibility": "1", "assets": 0, "income": 0, "revenue": 0}, {"ein": "611741380", "name": "GAN YISROEL OF CROWN HEIGHTS", "city": "BROOKLYN", "state": "NY", "zip": "11210-4821", "ntee": "", "ruling": "202003", "deductibility": "1", "assets": 0, "income": 0, "revenue": 0}, {"ein": "753113020", "name": "GAN ISRAEL CENTER INC", "city": "GREAT NECK", "state": "NY", "zip": "11021-5502", "ntee": "X30", "ruling": "200603", "deductibility": "1", "assets": 0, "income": 0, "revenue": 0}, {"ein": "822803976", "name": "GAN ACADEMY", "city": "BROOKLYN", "state": "NY", "zip": "11201-3548", "ntee": "B24", "ruling": "201811", "deductibility": "1", "assets": 278347, "income": 1325431, "revenue": 1325431}, {"ein": "841676820", "name": "GAN ADINAH INC", "city": "BROOKLYN", "state": "NY", "zip": "11230-0000", "ntee": "T30", "ruling": "200603", "deductibility": "1", "assets": 1806, "income": 1578, "revenue": 1578}, {"ein": "853461527", "name": "GAN AMY CENTER FOR EARLY CHILDHOOD INC", "city": "W HEMPSTEAD", "state": "NY", "zip": "11552-2333", "ntee": "P33", "ruling": "202105", "deductibility": "1", "assets": 1132705, "income": 1132442, "revenue": 1132442}, {"ein": "884253580", "name": "FUTURE GAN EDEN INC", "city": "FOREST HILLS", "state": "NY", "zip": "11375-1012", "ntee": "S20", "ruling": "202211", "deductibility": "1", "assets": 27022, "income": 64365, "revenue": 64365}, {"ein": "993002011", "name": "GAN OF LONG ISLAND INC", "city": "BROOKLYN", "state": "NY", "zip": "11213-4237", "ntee": "P19", "ruling": "202405", "deductibility": "1", "assets": 0, "income": 0, "revenue": 0}], "VOIDISLAVER": [{"ein": "112483335", "name": "VOIDISLAVER CONGREATION GEMILAS CHESED", "city": "BROOKLYN", "state": "NY", "zip": "11219-2728", "ntee": "", "ruling": "197903", "deductibility": "1", "assets": 0, "income": 0, "revenue": 0}, {"ein": "237348773", "name": "VOIDISLAVER CONGREGATION", "city": "BROOKLYN", "state": "NY", "zip": "11219-2728", "ntee": "", "ruling": "197402", "deductibility": "1", "assets": 0, "income": 0, "revenue": 0}], "FLUTE": [{"ein": "112688508", "name": "LONG ISLAND FLUTE CLUB INC", "city": "MASSAPEQUA", "state": "NY", "zip": "11758-5568", "ntee": "", "ruling": "198601", "deductibility": "1", "assets": 0, "income": 0, "revenue": 0}, {"ein": "133442470", "name": "FLUTE FORCE INC", "city": "NEW YORK", "state": "NY", "zip": "10025-6913", "ntee": "A6CZ", "ruling": "199501", "deductibility": "1", "assets": 0, "income": 0, "revenue": 0}, {"ein": "161515073", "name": "CAPITAL AREA FLUTE CLUB", "city": "TROY", "state": "NY", "zip": "12180-6239", "ntee": "A68", "ruling": "201508", "deductibility": "1", "assets": 0, "income": 0, "revenue": 0}, {"ein": "161556774", "name": "ROCHESTER FLUTE ASSOCIATION INC", "city": "ROCHESTER", "state": "NY", "zip": "14610-0173", "ntee": "A68", "ruling": "199811", "deductibility": "1", "assets": 0, "income": 0, "revenue": 0}, {"ein": "237124213", "name": "NEW YORK FLUTE CLUB INC", "city": "NEW YORK", "state": "NY", "zip": "10025-1515", "ntee": "A23", "ruling": "201501", "deductibility": "1", "assets": 142146, "income": 74101, "revenue": 74101}, {"ein": "333209646", "name": "FRIENDS OF LECOLE FULA FLUTE INC", "city": "NEW YORK", "state": "NY", "zip": "10009-4101", "ntee": "A11", "ruling": "202502", "deductibility": "1", "assets": 0, "income": 0, "revenue": 0}], "PINCHOS": [{"ein": "112718590", "name": "EZRA LANITZRACHIM AL SHEM BORUCH PINCHOS", "city": "BROOKLYN", "state": "NY", "zip": "11204-1824", "ntee": "", "ruling": "198503", "deductibility": "1", "assets": 0, "income": 0, "revenue": 0}, {"ein": "113066239", "name": "CONG GEMACH BNEI PINCHOS", "city": "BROOKLYN", "state": "NY", "zip": "11218-5517", "ntee": "", "ruling": "199109", "deductibility": "1", "assets": 0, "income": 0, "revenue": 0}, {"ein": "113413591", "name": "AVNEI PINCHOS", "city": "MONSEY", "state": "NY", "zip": "10952-2705", "ntee": "X30Z", "ruling": "199803", "deductibility": "1", "assets": 0, "income": 0, "revenue": 0}, {"ein": "113587552", "name": "CONG BAIS PINCHOS OF DEMBITZ", "city": "BROOKLYN", "state": "NY", "zip": "11211-8036", "ntee": "X30", "ruling": "200104", "deductibility": "1", "assets": 0, "income": 0, "revenue": 0}, {"ein": "133863900", "name": "CONG BEIS PINCHOS", "city": "NEW SOUARE", "state": "NY", "zip": "10977-8935", "ntee": "X30Z", "ruling": "199601", "deductibility": "1", "assets": 0, "income": 0, "revenue": 0}, {"ein": "812091219", "name": "BAIS PINCHOS TRISK INC", "city": "AIRMONT", "state": "NY", "zip": "10952-0000", "ntee": "X30", "ruling": "201606", "deductibility": "1", "assets": 0, "income": 0, "revenue": 0}, {"ein": "821766310", "name": "CONGREGATION VAYOKOM PINCHOS", "city": "BROOKLYN", "state": "NY", "zip": "11219-5029", "ntee": "X30", "ruling": "201801", "deductibility": "1", "assets": 0, "income": 0, "revenue": 0}, {"ein": "830767066", "name": "KEREN PINCHOS ELYA INC", "city": "MONSEY", "state": "NY", "zip": "10952-7808", "ntee": "P20", "ruling": "201907", "deductibility": "1", "assets": 1295042, "income": 99883, "revenue": 49834}, {"ein": "884294197", "name": "CONGREGATION BAIS PINCHOS", "city": "BROOKLYN", "state": "NY", "zip": "11236-1910", "ntee": "X99", "ruling": "202307", "deductibility": "1", "assets": 0, "income": 0, "revenue": 0}], "TOPAL": [{"ein": "112764785", "name": "ARLENE TOPAL CREATIVE ARTS FIND INC", "city": "NEW YORK", "state": "NY", "zip": "10122-1800", "ntee": "A90", "ruling": "201211", "deductibility": "1", "assets": 44703, "income": 44500, "revenue": 0}], "ARCANGELO": [{"ein": "112908926", "name": "LA CONGREGA DI SAN MICHELE ARCANGELO LTD", "city": "MASSAPEQUA", "state": "NY", "zip": "11758-7844", "ntee": "", "ruling": "199002", "deductibility": "1", "assets": 0, "income": 0, "revenue": 0}], "PFLAG": [{"ein": "113007731", "name": "PFLAG LONG ISLAND", "city": "JERICHO", "state": "NY", "zip": "11753-0364", "ntee": "S80Z", "ruling": "199403", "deductibility": "1", "assets": 0, "income": 0, "revenue": 0}, {"ein": "161504628", "name": "PFLAG ROCHESTER", "city": "BATAVIA", "state": "NY", "zip": "14020-9496", "ntee": "", "ruling": "199403", "deductibility": "1", "assets": 0, "income": 0, "revenue": 0}, {"ein": "200051192", "name": "PFLAG WESTCHESTER COUNTY", "city": "WHITE PLAINS", "state": "NY", "zip": "10605-2103", "ntee": "", "ruling": "199403", "deductibility": "1", "assets": 0, "income": 0, "revenue": 0}, {"ein": "262041775", "name": "PFLAG CHAUTAUQUA", "city": "ASHVILLE", "state": "NY", "zip": "14710-0381", "ntee": "", "ruling": "199403", "deductibility": "1", "assets": 0, "income": 0, "revenue": 0}, {"ein": "272081752", "name": "PFLAG ROCKLAND", "city": "PALISADES", "state": "NY", "zip": "10964-0653", "ntee": "", "ruling": "199403", "deductibility": "1", "assets": 0, "income": 0, "revenue": 0}, {"ein": "334544147", "name": "PFLAG ONEONTA INC", "city": "ONEONTA", "state": "NY", "zip": "13820-0005", "ntee": "", "ruling": "199403", "deductibility": "1", "assets": 0, "income": 0, "revenue": 0}], "HAPPY": [{"ein": "113046893", "name": "NEW YORK HAPPY", "city": "FLUSHING", "state": "NY", "zip": "11355-1718", "ntee": "", "ruling": "196307", "deductibility": "1", "assets": 0, "income": 0, "revenue": 0}, {"ein": "113577404", "name": "HAPPY BUDDHA PRECIOUS TEMPLE INC", "city": "FLUSHING", "state": "NY", "zip": "11354-6601", "ntee": "X50", "ruling": "200104", "deductibility": "1", "assets": 3457024, "income": 347704, "revenue": 347704}, {"ein": "201038098", "name": "SAMADHI CHAN MONASTERY HAPPY BUDDHIST ASSOCIATION", "city": "ELMHURST", "state": "NY", "zip": "11373-4558", "ntee": "", "ruling": "200406", "deductibility": "1", "assets": 3902162, "income": 605415, "revenue": 605415}, {"ein": "237085346", "name": "WGHQ HAPPY CHRISTMAS FUND INC", "city": "KINGSTON", "state": "NY", "zip": "12402-4364", "ntee": "", "ruling": "197101", "deductibility": "1", "assets": 70724, "income": 14521, "revenue": 14521}, {"ein": "263641122", "name": "FULL GOSPEL PENTACOSTAL HAPPY CHURCH", "city": "ROCHESTER", "state": "NY", "zip": "14608-2935", "ntee": "X21", "ruling": "200908", "deductibility": "1", "assets": 0, "income": 0, "revenue": 0}, {"ein": "331007968", "name": "HAPPY TIMES DAY CARE CENTER INC", "city": "LOCKPORT", "state": "NY", "zip": "14094-5407", "ntee": "P33", "ruling": "200308", "deductibility": "1", "assets": 0, "income": 0, "revenue": 0}, {"ein": "331571270", "name": "HAPPY LIC COMMUNITY NETWORK INC", "city": "PLAINVIEW", "state": "NY", "zip": "11803-1015", "ntee": "O50", "ruling": "202504", "deductibility": "1", "assets": 0, "income": 0, "revenue": 0}, {"ein": "332866768", "name": "NEW YORK HAPPY ALLIANCE INC", "city": "BROOKLYN", "state": "NY", "zip": "11220-3203", "ntee": "S20", "ruling": "202501", "deductibility": "1", "assets": 0, "income": 0, "revenue": 0}, {"ein": "334469833", "name": "HAPPY DESTINY FOUNDATION INC", "city": "NEW CITY", "state": "NY", "zip": "10956-3743", "ntee": "F20", "ruling": "202506", "deductibility": "1", "assets": 0, "income": 0, "revenue": 0}, {"ein": "334927651", "name": "3116 HAPPY BEES COMMUNITY CENTER INC", "city": "FLUSHING", "state": "NY", "zip": "11354-1917", "ntee": "O20", "ruling": "202506", "deductibility": "1", "assets": 0, "income": 0, "revenue": 0}, {"ein": "371707784", "name": "HAPPY HEARTS WORK SHOP LTD", "city": "PENN YAN", "state": "NY", "zip": "14527-9323", "ntee": "P30", "ruling": "202403", "deductibility": "1", "assets": 0, "income": 0, "revenue": 0}, {"ein": "463716033", "name": "HAPPY JACK FUND INC", "city": "NANUET", "state": "NY", "zip": "10954-2905", "ntee": "B82", "ruling": "201409", "deductibility": "1", "assets": 0, "income": 0, "revenue": 0}, {"ein": "464992419", "name": "HAPPY FEET YOUTH SPORTS FOUNDATION INC", "city": "WARWICK", "state": "NY", "zip": "10990-8046", "ntee": "O12", "ruling": "201502", "deductibility": "1", "assets": 0, "income": 0, "revenue": 0}, {"ein": "465122090", "name": "HAPPY BABY FOUNDATION", "city": "NEW YORK", "state": "NY", "zip": "10003-7139", "ntee": "", "ruling": "201407", "deductibility": "1", "assets": 1916059, "income": 89362, "revenue": 0}, {"ein": "471435128", "name": "SUPER HAPPY HEALTHY KIDS INC", "city": "NEW YORK", "state": "NY", "zip": "10065-7136", "ntee": "P20", "ruling": "201409", "deductibility": "1", "assets": 266240, "income": 411227, "revenue": 406279}, {"ein": "473149884", "name": "HELPING MAKES U HAPPY", "city": "CTR MORICHES", "state": "NY", "zip": "11934-2302", "ntee": "S80", "ruling": "201505", "deductibility": "1", "assets": 224672, "income": 133763, "revenue": 117477}, {"ein": "474863806", "name": "HAPPY TAILS DOG RESCUE INC", "city": "SMITHTOWN", "state": "NY", "zip": "11787-0069", "ntee": "D20", "ruling": "201512", "deductibility": "1", "assets": 15144, "income": 23500, "revenue": 23500}, {"ein": "521843651", "name": "HAPPY SCIENCE USA", "city": "NEW YORK", "state": "NY", "zip": "10013-3408", "ntee": "", "ruling": "199405", "deductibility": "1", "assets": 0, "income": 0, "revenue": 0}, {"ein": "562313926", "name": "HAPPY CHURCH OF NEW YORK", "city": "WHITESTONE", "state": "NY", "zip": "11357-3157", "ntee": "X20", "ruling": "200309", "deductibility": "1", "assets": 0, "income": 0, "revenue": 0}, {"ein": "593788470", "name": "HAPPY ELEPHANT FOUNDATION", "city": "NEW YORK", "state": "NY", "zip": "10128-1348", "ntee": "T20", "ruling": "200506", "deductibility": "1", "assets": 353257, "income": 1411308, "revenue": 0}, {"ein": "811804421", "name": "HAPPY LIFE ANIMAL RESCUE INC", "city": "PATTERSON", "state": "NY", "zip": "12563-2721", "ntee": "D20", "ruling": "201603", "deductibility": "1", "assets": 191403, "income": 368555, "revenue": 367559}, {"ein": "814486459", "name": "HAPPY FARM ANIMAL RESCUE INC", "city": "NEW YORK", "state": "NY", "zip": "10036-8725", "ntee": "D20", "ruling": "201701", "deductibility": "1", "assets": 29854, "income": 90110, "revenue": 90110}, {"ein": "815255132", "name": "HAPPY BIRTHDAY CHA CHA CHA", "city": "PITTSFORD", "state": "NY", "zip": "14534-1119", "ntee": "W99", "ruling": "201711", "deductibility": "1", "assets": 6696, "income": 119833, "revenue": 119833}, {"ein": "821825844", "name": "HAPPY CHILD FOUNDATION INC", "city": "NEW YORK", "state": "NY", "zip": "10034-0603", "ntee": "P20", "ruling": "201806", "deductibility": "1", "assets": 0, "income": 0, "revenue": 0}, {"ein": "831065720", "name": "HAPPY KITTY INC", "city": "CALLICOON", "state": "NY", "zip": "12723-0344", "ntee": "D20", "ruling": "201809", "deductibility": "1", "assets": 0, "income": 0, "revenue": 0}, {"ein": "831898741", "name": "CAMP HAPPY TAILS NYC INC", "city": "FLUSHING", "state": "NY", "zip": "11365-1008", "ntee": "D20", "ruling": "201811", "deductibility": "1", "assets": 7668, "income": 103862, "revenue": 103862}, {"ein": "842650117", "name": "THINK HAPPY INC", "city": "LEVITTOWN", "state": "NY", "zip": "11756-4315", "ntee": "P99", "ruling": "202002", "deductibility": "1", "assets": 11576, "income": 81265, "revenue": 81265}, {"ein": "843395537", "name": "HAPPY MEADOWS ORGANIZATION INC", "city": "MELVILLE", "state": "NY", "zip": "11747-1826", "ntee": "O52", "ruling": "201912", "deductibility": "1", "assets": 0, "income": 0, "revenue": 0}, {"ein": "844799870", "name": "HAPPY COMPROMISE FARM AND SANCTUARY", "city": "WAVERLY", "state": "NY", "zip": "14892-9577", "ntee": "D20", "ruling": "202003", "deductibility": "1", "assets": 884016, "income": 527453, "revenue": 524244}, {"ein": "851525501", "name": "HANGOUT ONE HAPPY PLACE INC", "city": "BALDWIN", "state": "NY", "zip": "11510-3505", "ntee": "P82", "ruling": "202105", "deductibility": "1", "assets": 25513, "income": 106448, "revenue": 106448}, {"ein": "873124016", "name": "HAPPY CHILD INC", "city": "LLOYD HARBOR", "state": "NY", "zip": "11743-9748", "ntee": "P12", "ruling": "202201", "deductibility": "1", "assets": 0, "income": 0, "revenue": 0}, {"ein": "873838919", "name": "PROJECT HAPPY FEET INC", "city": "WESTBURY", "state": "NY", "zip": "11590-6046", "ntee": "P20", "ruling": "202203", "deductibility": "1", "assets": 0, "income": 0, "revenue": 0}, {"ein": "882706701", "name": "HOME AND HAPPY INC", "city": "BUFFALO", "state": "NY", "zip": "14216-2844", "ntee": "P20", "ruling": "202207", "deductibility": "1", "assets": 0, "income": 0, "revenue": 0}, {"ein": "882999291", "name": "HAPPY BEES COMMUNITY SERVICE CENTER INC", "city": "FLUSHING", "state": "NY", "zip": "11354-1917", "ntee": "N31", "ruling": "202208", "deductibility": "1", "assets": 14657, "income": 137905, "revenue": 137905}, {"ein": "883043673", "name": "AMERICAN FRIENDS OF HAPPY HEARTS INC", "city": "NEW YORK", "state": "NY", "zip": "10019-8720", "ntee": "B21", "ruling": "202207", "deductibility": "1", "assets": 17605, "income": 282448, "revenue": 282448}, {"ein": "883709665", "name": "CENTER FOR HAPPY CHILDREN INC", "city": "BROOKLYN", "state": "NY", "zip": "11218-2905", "ntee": "O99", "ruling": "202402", "deductibility": "1", "assets": 0, "income": 0, "revenue": 0}, {"ein": "900576904", "name": "HAPPY CAT INC", "city": "MEDFORD", "state": "NY", "zip": "11763-1623", "ntee": "D20", "ruling": "201206", "deductibility": "1", "assets": 1073222, "income": 1624964, "revenue": 1624964}, {"ein": "920382972", "name": "HAPPY JACK RECORDS INC", "city": "NEW YORK", "state": "NY", "zip": "10016-0000", "ntee": "E60", "ruling": "202304", "deductibility": "1", "assets": 0, "income": 0, "revenue": 0}, {"ein": "922145114", "name": "HAPPY FEET RESCUE INC", "city": "CENTRAL VLY", "state": "NY", "zip": "10917-5017", "ntee": "D11", "ruling": "202502", "deductibility": "1", "assets": 0, "income": 0, "revenue": 0}, {"ein": "934271547", "name": "HANCOCK HAPPY TAILS ANIMAL SHELTER & RESCUE", "city": "HANCOCK", "state": "NY", "zip": "13783-0856", "ntee": "D20", "ruling": "202402", "deductibility": "1", "assets": 0, "income": 0, "revenue": 0}, {"ein": "993881143", "name": "HAPPY DOGS SURF SHOP INCORPORATED", "city": "EAST SETAUKET", "state": "NY", "zip": "11733-3703", "ntee": "T50", "ruling": "202408", "deductibility": "1", "assets": 0, "income": 0, "revenue": 0}], "RENACER": [{"ein": "113067336", "name": "CENTRO CRISTIANO RENACER INC", "city": "FREEPORT", "state": "NY", "zip": "11520-1031", "ntee": "", "ruling": "199401", "deductibility": "1", "assets": 0, "income": 0, "revenue": 0}, {"ein": "133774405", "name": "INGLESIA CHRISTIANA RENACER INC", "city": "CORONA", "state": "NY", "zip": "11368-2324", "ntee": "X20Z", "ruling": "199506", "deductibility": "1", "assets": 0, "income": 0, "revenue": 0}, {"ein": "205527003", "name": "COMUNIDAD CRISTIANA RENACER", "city": "AMAGANSETT", "state": "NY", "zip": "11930-2765", "ntee": "X21", "ruling": "200709", "deductibility": "1", "assets": 0, "income": 0, "revenue": 0}, {"ein": "272556602", "name": "IGLESIA CRISTIANO NUEVO RENACER EN CRISTO", "city": "JAMAICA", "state": "NY", "zip": "11435-4146", "ntee": "X21", "ruling": "201304", "deductibility": "1", "assets": 0, "income": 0, "revenue": 0}, {"ein": "471975630", "name": "RENACER DE AMERICA INC", "city": "VALLEY STREAM", "state": "NY", "zip": "11580-5313", "ntee": "X21", "ruling": "201502", "deductibility": "1", "assets": 0, "income": 0, "revenue": 0}, {"ein": "562456393", "name": "CRISTIANA RENACER", "city": "OZONE PARK", "state": "NY", "zip": "11416-2215", "ntee": "X20", "ruling": "196408", "deductibility": "1", "assets": 0, "income": 0, "revenue": 0}, {"ein": "562611885", "name": "IGLESIA DE DIOS NUEBO RENACER", "city": "BRONX", "state": "NY", "zip": "10457-8340", "ntee": "X21", "ruling": "200905", "deductibility": "1", "assets": 0, "income": 0, "revenue": 0}, {"ein": "810696268", "name": "CENTRO COMUNAL DE ALABANZA Y ADORACION NUEVO RENACER INC", "city": "BRONX", "state": "NY", "zip": "10459-5008", "ntee": "X20", "ruling": "201611", "deductibility": "1", "assets": 0, "income": 0, "revenue": 0}, {"ein": "811686624", "name": "IGLESIA@PLENO RENACER MT KISCO", "city": "KATONAH", "state": "NY", "zip": "10536-1125", "ntee": "X20", "ruling": "202006", "deductibility": "1", "assets": 0, "income": 0, "revenue": 0}, {"ein": "832585738", "name": "CASA RENACER HOUSING DEVELOPMENT FUND COMPANY INC", "city": "NEW YORK", "state": "NY", "zip": "10027-4991", "ntee": "L21", "ruling": "202401", "deductibility": "1", "assets": 5481389, "income": 948617, "revenue": 948617}, {"ein": "931901840", "name": "IGLESIA RENACER INC", "city": "FRANKLIN SQ", "state": "NY", "zip": "11010-4112", "ntee": "X20", "ruling": "202406", "deductibility": "1", "assets": 0, "income": 0, "revenue": 0}], "MATINECOCK": [{"ein": "113122309", "name": "MATINECOCK MASONIC HISTORICAL SOCIETY", "city": "EAST NORWICH", "state": "NY", "zip": "11732-1316", "ntee": "P20", "ruling": "199212", "deductibility": "1", "assets": 939124, "income": 145262, "revenue": 130427}, {"ein": "116011643", "name": "MATINECOCK NEIGHBORHOOD ASSOCIATION", "city": "LOCUST VALLEY", "state": "NY", "zip": "11560-0328", "ntee": "", "ruling": "195510", "deductibility": "1", "assets": 30880, "income": 22534, "revenue": 22534}, {"ein": "237300376", "name": "MATINECOCK MONTHLY MEETING OF THE RELIGIOUS SOCIETY OF FRIENDS", "city": "EAST NORWICH", "state": "NY", "zip": "11732-1405", "ntee": "", "ruling": "197306", "deductibility": "1", "assets": 0, "income": 0, "revenue": 0}, {"ein": "260061245", "name": "MATINECOCK COURT HOUSING DEVELOPMENT FUND CORP", "city": "GREENLAWN", "state": "NY", "zip": "11740-0000", "ntee": "L20", "ruling": "200401", "deductibility": "1", "assets": 850, "income": 0, "revenue": 0}, {"ein": "823125528", "name": "MATINECOCK TRIBAL NATION OF QUEENS AND LONG ISLAND NEW YORK INC", "city": "KEW GARDENS", "state": "NY", "zip": "11415-3421", "ntee": "A23", "ruling": "201903", "deductibility": "1", "assets": 0, "income": 0, "revenue": 0}], "HERPETOLOGICAL": [{"ein": "113262546", "name": "LONG ISLAND HERPETOLOGICAL SOCIETY INC", "city": "LINDENHURST", "state": "NY", "zip": "11757-1739", "ntee": "U03", "ruling": "201208", "deductibility": "1", "assets": 0, "income": 0, "revenue": 0}], "CULINARIAN": [{"ein": "113350321", "name": "BLACK CULINARIAN ALLIANCE INC", "city": "NORTH BABYLON", "state": "NY", "zip": "11703-0044", "ntee": "B82", "ruling": "199808", "deductibility": "1", "assets": 23315, "income": 96314, "revenue": 96314}], "THUNDER": [{"ein": "113357621", "name": "ROLLING THUNDER INC", "city": "BROOKLYN", "state": "NY", "zip": "11209-2618", "ntee": "", "ruling": "199608", "deductibility": "2", "assets": 0, "income": 0, "revenue": 0}, {"ein": "113488500", "name": "ROLLING THUNDER SPECIAL NEEDS PROGRAM", "city": "SHIRLEY", "state": "NY", "zip": "11967-2340", "ntee": "N69", "ruling": "200008", "deductibility": "1", "assets": 0, "income": 0, "revenue": 0}, {"ein": "223630907", "name": "ROLLING THUNDER INC", "city": "NEWBURGH", "state": "NY", "zip": "12552-0991", "ntee": "", "ruling": "199608", "deductibility": "2", "assets": 0, "income": 0, "revenue": 0}, {"ein": "260079216", "name": "ROLLING THUNDER INC", "city": "STATEN ISLAND", "state": "NY", "zip": "10309-1730", "ntee": "", "ruling": "199608", "deductibility": "2", "assets": 0, "income": 98096, "revenue": 98096}, {"ein": "300915071", "name": "ROLLING THUNDER INC", "city": "FLORAL PARK", "state": "NY", "zip": "11001-2527", "ntee": "", "ruling": "199608", "deductibility": "2", "assets": 0, "income": 0, "revenue": 0}, {"ein": "331015668", "name": "ROLLING THUNDER INC", "city": "YOUNGSVILLE", "state": "NY", "zip": "12791-0338", "ntee": "", "ruling": "199608", "deductibility": "0", "assets": 0, "income": 0, "revenue": 0}, {"ein": "455536217", "name": "THUNDER ROAD SENIORS INC", "city": "COLONIE", "state": "NY", "zip": "12205-4911", "ntee": "N50", "ruling": "201210", "deductibility": "2", "assets": 0, "income": 0, "revenue": 0}, {"ein": "471760034", "name": "BILLS FAN THUNDER", "city": "WEST FALLS", "state": "NY", "zip": "14170-9630", "ntee": "P20", "ruling": "201502", "deductibility": "1", "assets": 0, "income": 0, "revenue": 0}, {"ein": "475497042", "name": "NORTHEAST THUNDER VOLLEYBALL INC", "city": "NEWTONVILLE", "state": "NY", "zip": "12128-0017", "ntee": "N60", "ruling": "201702", "deductibility": "1", "assets": 184995, "income": 323201, "revenue": 0}, {"ein": "814667243", "name": "ORCHARD PARK THUNDER 8U", "city": "ORCHARD PARK", "state": "NY", "zip": "14127-2093", "ntee": "N63", "ruling": "201701", "deductibility": "1", "assets": 0, "income": 0, "revenue": 0}, {"ein": "830404882", "name": "ROLLING THUNDER INC", "city": "ALBANY", "state": "NY", "zip": "12205-2947", "ntee": "", "ruling": "199608", "deductibility": "2", "assets": 0, "income": 0, "revenue": 0}, {"ein": "833295927", "name": "LONG ISLAND THUNDER INC", "city": "HOLBROOK", "state": "NY", "zip": "11741-2875", "ntee": "O50", "ruling": "201903", "deductibility": "1", "assets": 0, "income": 0, "revenue": 0}, {"ein": "850895260", "name": "NEWBURGH THUNDER INC", "city": "NEWBURGH", "state": "NY", "zip": "12550-0851", "ntee": "N99", "ruling": "202108", "deductibility": "1", "assets": 0, "income": 0, "revenue": 0}, {"ein": "882381587", "name": "THUNDER ARROW INC", "city": "FARMINGVILLE", "state": "NY", "zip": "11738-2805", "ntee": "B82", "ruling": "202305", "deductibility": "1", "assets": 4191, "income": 45804, "revenue": 5581}], "PRAGUE": [{"ein": "113375372", "name": "CHABAD LUBAVITCH OF PRAGUE", "city": "BROOKLYN", "state": "NY", "zip": "11213-5110", "ntee": "X12", "ruling": "200003", "deductibility": "1", "assets": 0, "income": 0, "revenue": 0}, {"ein": "161536247", "name": "INFANT JESUS OF PRAGUE INC", "city": "TUPPER LAKE", "state": "NY", "zip": "12986-0238", "ntee": "T22Z", "ruling": "199712", "deductibility": "1", "assets": 7692, "income": 48900, "revenue": 0}, {"ein": "510380009", "name": "INTERNATIONAL SCHOOL OF PRAGUE FOUNDATION INC", "city": "NEW YORK", "state": "NY", "zip": "10019-0000", "ntee": "B118", "ruling": "200002", "deductibility": "1", "assets": 37986502, "income": 11808, "revenue": 11808}, {"ein": "834644108", "name": "PRAGUE PIANO FESTIVAL INC", "city": "NEW YORK", "state": "NY", "zip": "10033-1794", "ntee": "A20", "ruling": "201905", "deductibility": "1", "assets": 0, "income": 0, "revenue": 0}], "BISHOPS": [{"ein": "113385911", "name": "BISHOPS HIGH SCHOOL ALUMNI ASSOCIATION INC", "city": "JAMAICA", "state": "NY", "zip": "11433-3019", "ntee": "B84", "ruling": "200603", "deductibility": "1", "assets": 53198, "income": 100124, "revenue": 100124}, {"ein": "131675030", "name": "SYNOD OF BISHOPS OF THE RUSSIAN CHURCH OUTSIDE OF RUSSIA", "city": "NEW YORK", "state": "NY", "zip": "10128-1331", "ntee": "", "ruling": "195712", "deductibility": "1", "assets": 0, "income": 0, "revenue": 0}, {"ein": "133366564", "name": "THE BISHOPS FOUNDATION INC", "city": "W HAMPTON BCH", "state": "NY", "zip": "11978-2208", "ntee": "Z99", "ruling": "201408", "deductibility": "1", "assets": 0, "income": 0, "revenue": 0}, {"ein": "161559449", "name": "BISHOPS COMMONS INC", "city": "OSWEGO", "state": "NY", "zip": "13126-3235", "ntee": "L22", "ruling": "199901", "deductibility": "1", "assets": 4310901, "income": 3245049, "revenue": 3245049}, {"ein": "453733092", "name": "ASSEMBLY OF CANONICAL ORTHODOX BISHOPS OF THE UNITED STATES OF AM", "city": "NEW YORK", "state": "NY", "zip": "10075-0192", "ntee": "X20", "ruling": "201302", "deductibility": "1", "assets": 0, "income": 0, "revenue": 0}, {"ein": "455314393", "name": "INTERNATIONAL COUNCIL OF INDEPENDENT PENTECOSTAL BISHOPS", "city": "BRONX", "state": "NY", "zip": "10467-5751", "ntee": "X20", "ruling": "201307", "deductibility": "1", "assets": 0, "income": 0, "revenue": 0}, {"ein": "753055484", "name": "STANDING CONFERENCE OF CANONICAL ORTHODOX BISHOPS IN THE AMERICS", "city": "NEW YORK", "state": "NY", "zip": "10021-0106", "ntee": "X20", "ruling": "200212", "deductibility": "1", "assets": 0, "income": 0, "revenue": 0}, {"ein": "900726984", "name": "STREET BISHOPS OF NEW YORK", "city": "YONKERS", "state": "NY", "zip": "10704-3700", "ntee": "X20", "ruling": "201402", "deductibility": "1", "assets": 0, "income": 0, "revenue": 0}], "PENUMBRA": [{"ein": "113388258", "name": "PENUMBRA FOUNDATION", "city": "NEW YORK", "state": "NY", "zip": "10016-7394", "ntee": "A42Z", "ruling": "199710", "deductibility": "1", "assets": 372279, "income": 1022036, "revenue": 0}], "SFURIM": [{"ein": "113423984", "name": "VAAD HOUTZUES SFURIM INC", "city": "MONROE", "state": "NY", "zip": "10950-3800", "ntee": "X30Z", "ruling": "199804", "deductibility": "1", "assets": 0, "income": 0, "revenue": 0}], "LMANN": [{"ein": "113464292", "name": "CONGREGATION LMANN DASE", "city": "BROOKLYN", "state": "NY", "zip": "11221-0000", "ntee": "X30", "ruling": "199902", "deductibility": "1", "assets": 0, "income": 0, "revenue": 0}], "COVELLI": [{"ein": "113475576", "name": "PAT COVELLI FOUNDATION INC", "city": "LONG IS CITY", "state": "NY", "zip": "11101-3131", "ntee": "T20", "ruling": "199908", "deductibility": "1", "assets": 113452, "income": 183716, "revenue": 0}], "SENDERO": [{"ein": "113496811", "name": "IGLESIA APOSTOLICA EFESIOS 2 20 SENDERO DE PAZ INC", "city": "BAY SHORE", "state": "NY", "zip": "11706-3051", "ntee": "X21", "ruling": "200007", "deductibility": "1", "assets": 0, "income": 0, "revenue": 0}, {"ein": "463308278", "name": "IGLESIA PENTECOSTAL EL SENDERO DE LA LUZ", "city": "BROOKLYN", "state": "NY", "zip": "11237-6026", "ntee": "X21", "ruling": "201604", "deductibility": "1", "assets": 0, "income": 0, "revenue": 0}], "RESTORE": [{"ein": "113498425", "name": "NEIGHBORHOOD RESTORE HOUSING DEVELOPMENT FUND CORPORATION", "city": "NEW YORK", "state": "NY", "zip": "10038-4484", "ntee": "L022", "ruling": "200006", "deductibility": "1", "assets": 0, "income": 0, "revenue": 0}, {"ein": "202390142", "name": "RESTORE NYC INC", "city": "NEW YORK", "state": "NY", "zip": "10156-1804", "ntee": "P80", "ruling": "200602", "deductibility": "1", "assets": 3666160, "income": 6535449, "revenue": 5202967}, {"ein": "202896988", "name": "FAC RESTORE HOUSING DEVELOPMENT FUND CORPORATION", "city": "BROOKLYN", "state": "NY", "zip": "11217-4596", "ntee": "L40", "ruling": "200708", "deductibility": "2", "assets": 3563741, "income": 466009, "revenue": 466009}, {"ein": "270573340", "name": "SEARCH AND RESTORE", "city": "BROOKLYN", "state": "NY", "zip": "11201-7161", "ntee": "P20", "ruling": "200911", "deductibility": "1", "assets": 0, "income": 0, "revenue": 0}, {"ein": "271036947", "name": "MISSION RESTORE INC", "city": "NEW YORK", "state": "NY", "zip": "10128-1117", "ntee": "G9B", "ruling": "201002", "deductibility": "1", "assets": 112769, "income": 2813, "revenue": 2813}, {"ein": "272583818", "name": "RESTORE OUR COMMUNITY CORPORATION INC", "city": "BUFFALO", "state": "NY", "zip": "14208-1061", "ntee": "S20", "ruling": "201502", "deductibility": "1", "assets": 22251, "income": 11500, "revenue": 11500}, {"ein": "300146286", "name": "RESTORE THE GLORY MINISTRIES INC", "city": "BINGHAMTON", "state": "NY", "zip": "13905-5914", "ntee": "X20", "ruling": "200306", "deductibility": "1", "assets": 0, "income": 0, "revenue": 0}, {"ein": "475101241", "name": "HAVING PEOPLE UNITING TO RESTORE PROSPERITY OPPORTUNITY SECURITY &", "city": "BROOKLYN", "state": "NY", "zip": "11233-4504", "ntee": "P20", "ruling": "201602", "deductibility": "1", "assets": 0, "income": 0, "revenue": 0}, {"ein": "475213943", "name": "RESTORE HOPE INC", "city": "NEW YORK", "state": "NY", "zip": "10002-6735", "ntee": "P85", "ruling": "201609", "deductibility": "1", "assets": 0, "income": 0, "revenue": 0}, {"ein": "811697842", "name": "RESTORE HEALTH INC", "city": "BROOKLYN", "state": "NY", "zip": "11238-3802", "ntee": "Q33", "ruling": "201704", "deductibility": "1", "assets": 115418, "income": 48564, "revenue": 48564}, {"ein": "834258898", "name": "RESTORE CNY INC", "city": "BREWERTON", "state": "NY", "zip": "13029-9641", "ntee": "S50", "ruling": "201905", "deductibility": "1", "assets": 60880, "income": 190504, "revenue": 190504}, {"ein": "844201971", "name": "OPERATION RESTORE SIGHT INC", "city": "NEW YORK", "state": "NY", "zip": "10003-5817", "ntee": "G41", "ruling": "202005", "deductibility": "1", "assets": 14904, "income": 39946, "revenue": 39946}, {"ein": "851702077", "name": "RESTORE BUSINESS PROJECT INC", "city": "LONG ISLAND CITY", "state": "NY", "zip": "11101-5352", "ntee": "J20", "ruling": "202009", "deductibility": "1", "assets": 0, "income": 0, "revenue": 0}, {"ein": "881595851", "name": "RESTORE CHILDHOOD", "city": "NEW YORK", "state": "NY", "zip": "10023-4069", "ntee": "P30", "ruling": "202204", "deductibility": "1", "assets": 154494, "income": 229711, "revenue": 229711}, {"ein": "881597487", "name": "RESTORE CHILDHOOD FUND", "city": "NEW YORK", "state": "NY", "zip": "10024-5805", "ntee": "E01", "ruling": "202212", "deductibility": "2", "assets": 107502, "income": 75000, "revenue": 75000}, {"ein": "922271673", "name": "RENEW & RESTORE MINISTRIES INC", "city": "DIX HILLS", "state": "NY", "zip": "11746-8126", "ntee": "X20", "ruling": "202304", "deductibility": "1", "assets": 0, "income": 0, "revenue": 0}, {"ein": "923121674", "name": "REACH AND RESTORE WOMENS OUTREACH MINISTRY", "city": "CORNWALL HDSN", "state": "NY", "zip": "12520-1323", "ntee": "X20", "ruling": "202305", "deductibility": "1", "assets": 0, "income": 0, "revenue": 0}, {"ein": "931522351", "name": "FIDELITY RESTORE INC", "city": "SOUTH OZONE PARK", "state": "NY", "zip": "11420-0000", "ntee": "X20", "ruling": "202312", "deductibility": "1", "assets": 0, "income": 0, "revenue": 0}], "MINISTRES": [{"ein": "113502221", "name": "KING OF KINGS WORSHIP CENTER MINISTRES INC", "city": "JAMAICA", "state": "NY", "zip": "11434-3726", "ntee": "X21", "ruling": "200003", "deductibility": "1", "assets": 0, "income": 0, "revenue": 0}, {"ein": "813434815", "name": "HOPE OF THE HEART INTERNATIONAL MINISTRES INC", "city": "YONKERS", "state": "NY", "zip": "10705-1831", "ntee": "X20", "ruling": "202201", "deductibility": "1", "assets": 0, "income": 0, "revenue": 0}], "ALGAZI": [{"ein": "113505355", "name": "RABBI SHLOMO ALGAZI", "city": "BROOKLYN", "state": "NY", "zip": "11205-0226", "ntee": "X30", "ruling": "200011", "deductibility": "1", "assets": 0, "income": 0, "revenue": 0}, {"ein": "113561114", "name": "SIFREI ALGAZI", "city": "BROOKLYN", "state": "NY", "zip": "11205-0226", "ntee": "X30", "ruling": "200012", "deductibility": "1", "assets": 0, "income": 0, "revenue": 0}], "LMUDIE": [{"ein": "113511204", "name": "CONGREGATION LMUDIE TORAH INSTITUTION OF NY", "city": "BROOKLYN", "state": "NY", "zip": "11206-5446", "ntee": "X30", "ruling": "200001", "deductibility": "1", "assets": 0, "income": 0, "revenue": 0}], "MODH": [{"ein": "113514458", "name": "MODH VANIK MANDAL OF NORTH AMERICA INC", "city": "ALBERTSON", "state": "NY", "zip": "11507-1011", "ntee": "P20", "ruling": "201408", "deductibility": "1", "assets": 0, "income": 0, "revenue": 0}], "CCVD": [{"ein": "113519939", "name": "CONGREGATION CHESED VEMES DAVROHOM - CCVD", "city": "BROOKLYN", "state": "NY", "zip": "11230-5130", "ntee": "X30", "ruling": "200006", "deductibility": "1", "assets": 0, "income": 0, "revenue": 0}], "LEA": [{"ein": "113537369", "name": "ZICHRON LEA FOUNDATION", "city": "BROOKLYN", "state": "NY", "zip": "11249-7929", "ntee": "B82", "ruling": "200110", "deductibility": "1", "assets": 48225, "income": 25000, "revenue": 0}, {"ein": "116553082", "name": "ZICHRON LEA SCHONFELD FOUNDATION", "city": "BROOKLYN", "state": "NY", "zip": "11219-5497", "ntee": "T22", "ruling": "200201", "deductibility": "1", "assets": 552625, "income": 51500, "revenue": 0}, {"ein": "133712162", "name": "MARY LEA FOUNDATION INC", "city": "NEW YORK", "state": "NY", "zip": "10016-8202", "ntee": "Z99Z", "ruling": "199501", "deductibility": "1", "assets": 606812, "income": 18064, "revenue": 18064}, {"ein": "160362070", "name": "BROOK-LEA COUNTRY CLUB INC", "city": "ROCHESTER", "state": "NY", "zip": "14624-2601", "ntee": "", "ruling": "194702", "deductibility": "2", "assets": 3481628, "income": 4124006, "revenue": 3613453}, {"ein": "316652819", "name": "THE MAKS AND LEA ROTHSTEIN CHARITABLE YOUTH TRUST", "city": "NEW YORK", "state": "NY", "zip": "10001-7604", "ntee": "T20", "ruling": "200104", "deductibility": "1", "assets": 16787411, "income": 3280924, "revenue": 0}], "KEDUSHAS": [{"ein": "113584916", "name": "KEDUSHAS PINCHAS", "city": "BROOKLYN", "state": "NY", "zip": "11219-0000", "ntee": "", "ruling": "200310", "deductibility": "1", "assets": 3637, "income": 50243, "revenue": 50243}, {"ein": "113628731", "name": "KEDUSHAS SHLOMO-JERUSALEM", "city": "BROOKLYN", "state": "NY", "zip": "11219-2634", "ntee": "X30", "ruling": "200111", "deductibility": "1", "assets": 0, "income": 0, "revenue": 0}, {"ein": "132900502", "name": "CONGREGATION & YESHIVA KEDUSHAS LEVI OF BARDICHOV C O BENJAMIN ISA", "city": "BROOKLYN", "state": "NY", "zip": "11211-7311", "ntee": "", "ruling": "197708", "deductibility": "1", "assets": 0, "income": 0, "revenue": 0}, {"ein": "201113175", "name": "KEDUSHAS LEVY OF BERDITCHEV", "city": "BROOKLYN", "state": "NY", "zip": "11219-5148", "ntee": "X30", "ruling": "200501", "deductibility": "1", "assets": 0, "income": 0, "revenue": 0}, {"ein": "208627047", "name": "CONGREGATION KEDUSHAS DAVID", "city": "BROOKLYN", "state": "NY", "zip": "11204-1418", "ntee": "X30", "ruling": "200809", "deductibility": "1", "assets": 0, "income": 0, "revenue": 0}, {"ein": "237112329", "name": "BAIS YESOMIM KEDUSHAS MEIR AL SHEM MEIR BAAL HANESS", "city": "BROOKLYN", "state": "NY", "zip": "11204-1287", "ntee": "", "ruling": "197105", "deductibility": "1", "assets": 0, "income": 0, "revenue": 0}, {"ein": "237352274", "name": "KOLLEL KEDUSHAS AHARON", "city": "SPRING VALLEY", "state": "NY", "zip": "10977-1917", "ntee": "", "ruling": "197403", "deductibility": "1", "assets": 0, "income": 0, "revenue": 0}, {"ein": "472424434", "name": "KEHAL KEDUSHAS AHARON SANZ KREIZ", "city": "BROOKLYN", "state": "NY", "zip": "11204-1122", "ntee": "X30", "ruling": "201502", "deductibility": "1", "assets": 0, "income": 0, "revenue": 0}, {"ein": "824030859", "name": "CONG KEREN KEDUSHAS LEVI", "city": "BROOKLYN", "state": "NY", "zip": "11206-5750", "ntee": "X30", "ruling": "201807", "deductibility": "1", "assets": 0, "income": 0, "revenue": 0}, {"ein": "862421035", "name": "CONGREGATION KEDUSHAS YOSEF INC", "city": "BROOKLYN", "state": "NY", "zip": "11219-1442", "ntee": "X20", "ruling": "202206", "deductibility": "1", "assets": 0, "income": 0, "revenue": 0}, {"ein": "871576249", "name": "CONGREGATION KEDUSHAS LEVI INC", "city": "MONSEY", "state": "NY", "zip": "10952-1816", "ntee": "X30", "ruling": "202205", "deductibility": "1", "assets": 0, "income": 0, "revenue": 0}, {"ein": "933521587", "name": "KEDUSHAS LEVI BERDITCHEV INC", "city": "BROOKLYN", "state": "NY", "zip": "11206-5553", "ntee": "X30", "ruling": "202404", "deductibility": "1", "assets": 0, "income": 0, "revenue": 0}], "MISKANOT": [{"ein": "113587804", "name": "YESHIVOT MISKANOT YAAKOV", "city": "CEDARHURST", "state": "NY", "zip": "11516-0053", "ntee": "X300", "ruling": "200110", "deductibility": "1", "assets": 0, "income": 0, "revenue": 0}], "HECKSCHER": [{"ein": "116038031", "name": "HECKSCHER MUSEUM", "city": "HUNTINGTON", "state": "NY", "zip": "11743-2741", "ntee": "A510", "ruling": "196402", "deductibility": "1", "assets": 9356017, "income": 4662258, "revenue": 1721422}, {"ein": "131820170", "name": "THE HECKSCHER FOUNDATION FOR CHILDREN", "city": "NEW YORK", "state": "NY", "zip": "10021-5006", "ntee": "B12", "ruling": "193802", "deductibility": "1", "assets": 341543020, "income": 79010908, "revenue": 0}, {"ein": "992898845", "name": "FRIENDS OF HECKSCHER STATE PARK INC", "city": "E ISLIP", "state": "NY", "zip": "11730-0442", "ntee": "C60", "ruling": "202405", "deductibility": "1", "assets": 0, "income": 0, "revenue": 0}], "SPENADEL": [{"ein": "133020615", "name": "HENRY SPENADEL CONTINUING DENTAL EDUC PROGRAM-FIRST DIST DENTAL SOC", "city": "NEW YORK", "state": "NY", "zip": "10017-6793", "ntee": "", "ruling": "198011", "deductibility": "1", "assets": 73706, "income": 226430, "revenue": 226430}, {"ein": "136168267", "name": "HENRY SPENADEL FUND FOR THE ADVANCEMENT OF EDUCATION IN<DENTIS", "city": "NEW YORK", "state": "NY", "zip": "10017-6793", "ntee": "B52I", "ruling": "195502", "deductibility": "1", "assets": 2271754, "income": 2797, "revenue": 2797}], "HEALERS": [{"ein": "133065573", "name": "NURSE HEALERS - PROFESSIONAL ASSOCIATES INTERNATIONAL INC", "city": "DELMAR", "state": "NY", "zip": "12054-0130", "ntee": "E90C", "ruling": "198105", "deductibility": "1", "assets": 81386, "income": 29011, "revenue": 29011}, {"ein": "223115050", "name": "WOUNDED HEALERS BEREAVEMENT SUPPORT GROUP INC", "city": "HORSEHEADS", "state": "NY", "zip": "14845-2142", "ntee": "P20", "ruling": "202406", "deductibility": "1", "assets": 0, "income": 0, "revenue": 0}, {"ein": "934510841", "name": "LONG ISLAND PRANIC HEALERS INC", "city": "ROSLYN HEIGHTS", "state": "NY", "zip": "11577-0000", "ntee": "G02", "ruling": "202312", "deductibility": "1", "assets": 0, "income": 0, "revenue": 0}], "MHHC": [{"ein": "133276364", "name": "MHHC FOUNDATION INC", "city": "BRONX", "state": "NY", "zip": "10453-4015", "ntee": "", "ruling": "198706", "deductibility": "1", "assets": 62595781, "income": 17192865, "revenue": 1967654}], "WENGLOWSKI": [{"ein": "133376368", "name": "THE JOYCE AND GARY WENGLOWSKI FOUNDATION", "city": "KATONAH", "state": "NY", "zip": "10536-3500", "ntee": "", "ruling": "198712", "deductibility": "1", "assets": 188423, "income": 9079, "revenue": 0}], "ECONOMISTS": [{"ein": "133429488", "name": "ECONOMISTS FOR PEACE AND SECURITY INC", "city": "ANNANDALE ON HUDSON", "state": "NY", "zip": "12504-0000", "ntee": "Q410", "ruling": "198808", "deductibility": "1", "assets": 71844, "income": 9828, "revenue": 9828}, {"ein": "133525666", "name": "NEW YORK ASSOCIATION OF BUSINESS ECONOMISTS", "city": "NEW YORK", "state": "NY", "zip": "10008-1720", "ntee": "V22", "ruling": "202411", "deductibility": "1", "assets": 22320, "income": 30850, "revenue": 5665}, {"ein": "465719735", "name": "AMERICAN ASSOCIATION OF WINE ECONOMISTS INC", "city": "MOHEGAN LAKE", "state": "NY", "zip": "10547-1430", "ntee": "A03", "ruling": "202312", "deductibility": "1", "assets": 0, "income": 0, "revenue": 0}], "SILVERWEED": [{"ein": "133496446", "name": "SILVERWEED FOUNDATION INC", "city": "NEW YORK", "state": "NY", "zip": "10036-0000", "ntee": "", "ruling": "198901", "deductibility": "1", "assets": 3666848, "income": 887194, "revenue": 0}], "VOLTA": [{"ein": "133798893", "name": "UNITED VOLTA ASSOCIATION INC", "city": "BRONX", "state": "NY", "zip": "10473-2822", "ntee": "T12", "ruling": "201606", "deductibility": "1", "assets": 0, "income": 0, "revenue": 0}, {"ein": "464458160", "name": "VOLTA HOPE INC", "city": "YONKERS", "state": "NY", "zip": "10704-3713", "ntee": "P20", "ruling": "201411", "deductibility": "1", "assets": 0, "income": 0, "revenue": 0}], "PHILIPSE": [{"ein": "133935243", "name": "FRIENDS OF PHILIPSE MANOR HALL INC", "city": "YONKERS", "state": "NY", "zip": "10701-8819", "ntee": "A99", "ruling": "199705", "deductibility": "1", "assets": 0, "income": 0, "revenue": 0}], "DANNY": [{"ein": "134098058", "name": "DANNY FUND INC", "city": "PELHAM", "state": "NY", "zip": "10803-8271", "ntee": "E800", "ruling": "200011", "deductibility": "1", "assets": 328323, "income": 50493, "revenue": 50493}, {"ein": "161574016", "name": "DANNY RAY FOWLER MINISTRY", "city": "SHERMAN", "state": "NY", "zip": "14781-0000", "ntee": "X990", "ruling": "200004", "deductibility": "1", "assets": 0, "income": 0, "revenue": 0}, {"ein": "841283914", "name": "DANNY & SYLVIA FINE KAYE FOUNDATION", "city": "GARDEN CITY", "state": "NY", "zip": "11530-0000", "ntee": "", "ruling": "199412", "deductibility": "1", "assets": 1814934, "income": 953225, "revenue": 0}, {"ein": "900709060", "name": "DANNY NG FOUNDATION", "city": "HOPEWELL JCT", "state": "NY", "zip": "12533-5282", "ntee": "B82", "ruling": "201204", "deductibility": "1", "assets": 1, "income": 775, "revenue": 775}, {"ein": "900758748", "name": "DANNY BUTLER MEMORIAL FUND INC", "city": "RYE", "state": "NY", "zip": "10580-3146", "ntee": "G123", "ruling": "201110", "deductibility": "1", "assets": 9034143, "income": 2680272, "revenue": 919346}], "GHA": [{"ein": "134169825", "name": "GHA COMMUNITY DEVELOPMENT CORPORATION", "city": "WHITE PLAINS", "state": "NY", "zip": "10603-2621", "ntee": "L21", "ruling": "200208", "deductibility": "1", "assets": 1224200, "income": 430652, "revenue": 430652}], "ELFRIEDE": [{"ein": "136106471", "name": "ERNST AND ELFRIEDE FRANK FOUNDATION INC", "city": "NEW YORK", "state": "NY", "zip": "10033-1208", "ntee": "", "ruling": "196212", "deductibility": "1", "assets": 15484687, "income": 13411498, "revenue": 0}], "DALE": [{"ein": "136203464", "name": "LUD-DALE ASSOCIATION INC", "city": "YONKERS", "state": "NY", "zip": "10705-1129", "ntee": "O20Z", "ruling": "196606", "deductibility": "1", "assets": 0, "income": 0, "revenue": 0}, {"ein": "160863230", "name": "DALE ASSOCIATION INC", "city": "LOCKPORT", "state": "NY", "zip": "14094-2815", "ntee": "P810", "ruling": "196810", "deductibility": "1", "assets": 1592252, "income": 2964594, "revenue": 2932197}, {"ein": "161553563", "name": "DALE PROPERTIES INC", "city": "LOCKPORT", "state": "NY", "zip": "14094-2815", "ntee": "", "ruling": "199809", "deductibility": "2", "assets": 1897862, "income": 87336, "revenue": 0}, {"ein": "166058849", "name": "DALE CEMETERY CORPORATION", "city": "WARSAW", "state": "NY", "zip": "14569-1409", "ntee": "", "ruling": "196901", "deductibility": "1", "assets": 0, "income": 0, "revenue": 0}, {"ein": "461612011", "name": "THE DALE AND MAX BERGER FAMILY FOUNDATION", "city": "NEW YORK", "state": "NY", "zip": "10020-0000", "ntee": "T22", "ruling": "201307", "deductibility": "1", "assets": 16523528, "income": 15394793, "revenue": 0}], "SPIVAK": [{"ein": "136208834", "name": "RICHARD F WALSH ALFRED W DITOLLA HAROLD P SPIVAK FOUNDATION", "city": "NEW YORK", "state": "NY", "zip": "10001-0000", "ntee": "", "ruling": "196610", "deductibility": "1", "assets": 1117867, "income": 597199, "revenue": 0}], "VICHEY": [{"ein": "136734079", "name": "LORAINE VICHEY MEMORIAL TRUST", "city": "EAST MEADOW", "state": "NY", "zip": "11554-5531", "ntee": "", "ruling": "197804", "deductibility": "1", "assets": 155126, "income": 5612, "revenue": 0}], "LUESTHER": [{"ein": "136946984", "name": "LUESTHER T MERTZ CONTINUING TRUST FBO COMMUNITY FUNDS INC", "city": "NEW YORK", "state": "NY", "zip": "10176-0000", "ntee": "T11", "ruling": "201904", "deductibility": "1", "assets": 1358875, "income": 15179, "revenue": 0}, {"ein": "137049014", "name": "LUESTHER T MERTZ CHARITABLE TR", "city": "NEW YORK", "state": "NY", "zip": "10003-3605", "ntee": "T900", "ruling": "199501", "deductibility": "1", "assets": 453479, "income": 200196, "revenue": 200196}], "HOLTON": [{"ein": "137284296", "name": "MAIZIE HOLTON FOUNDATION FOR LUNG CANCER RESEARCH", "city": "NEW YORK", "state": "NY", "zip": "10075-0183", "ntee": "T21", "ruling": "200110", "deductibility": "1", "assets": 1269, "income": 1683, "revenue": 0}], "PEPPERTREE": [{"ein": "141809956", "name": "PEPPERTREE RESCUE INC", "city": "RENSSELAER", "state": "NY", "zip": "12144-0255", "ntee": "D200", "ruling": "199903", "deductibility": "1", "assets": 149179, "income": 96805, "revenue": 94438}], "HOGARTY": [{"ein": "141837064", "name": "HOGARTY FAMILY FOUNDATION INC", "city": "TROY", "state": "NY", "zip": "12180-0000", "ntee": "T22", "ruling": "200208", "deductibility": "1", "assets": 461, "income": 1275, "revenue": 0}], "SWEETMAN": [{"ein": "146030038", "name": "SWEETMAN CEMETERY ASSOCIATION", "city": "BALLSTON SPA", "state": "NY", "zip": "12020-3207", "ntee": "", "ruling": "194305", "deductibility": "1", "assets": 0, "income": 0, "revenue": 0}], "MENDELSSOHN": [{"ein": "146031098", "name": "MENDELSSOHN CLUB OF ALBANY INC", "city": "ALBANY", "state": "NY", "zip": "12208-0715", "ntee": "", "ruling": "196008", "deductibility": "1", "assets": 63297, "income": 78359, "revenue": 78359}, {"ein": "222851754", "name": "MENDELSSOHN CLUB OF KINGSTON NY INC", "city": "KINGSTON", "state": "NY", "zip": "12402-3442", "ntee": "", "ruling": "199012", "deductibility": "1", "assets": 0, "income": 0, "revenue": 0}, {"ein": "237140148", "name": "MENDELSSOHN GLEE CLUB", "city": "NEW YORK", "state": "NY", "zip": "10025-1510", "ntee": "", "ruling": "194501", "deductibility": "1", "assets": 0, "income": 0, "revenue": 0}, {"ein": "562387798", "name": "MENDELSSOHN PROJECT INC", "city": "NEW YORK", "state": "NY", "zip": "10024-0194", "ntee": "A65", "ruling": "200402", "deductibility": "1", "assets": 0, "income": 0, "revenue": 0}], "WARN": [{"ein": "150546305", "name": "WARN TEN BROECK CEMETERY ASSOCIATION", "city": "OXFORD", "state": "NY", "zip": "13830-0096", "ntee": "", "ruling": "197905", "deductibility": "1", "assets": 0, "income": 0, "revenue": 0}], "KIFF": [{"ein": "156017251", "name": "CHARLES EVERETT KIFF SCHOLARSHIP FUND", "city": "DELHI", "state": "NY", "zip": "13753-1213", "ntee": "", "ruling": "195404", "deductibility": "1", "assets": 174476, "income": 26267, "revenue": 0}], "COLUMBANS": [{"ein": "160982624", "name": "ST COLUMBANS ON THE LAKE", "city": "SILVER CREEK", "state": "NY", "zip": "14136-9787", "ntee": "", "ruling": "194603", "deductibility": "1", "assets": 2579632, "income": 2630485, "revenue": 2476613}], "MULROY": [{"ein": "161314725", "name": "MULROY FAMILY FOUNDATION", "city": "BUFFALO", "state": "NY", "zip": "14203-0000", "ntee": "", "ruling": "198805", "deductibility": "1", "assets": 896593, "income": 1458867, "revenue": 0}, {"ein": "166426024", "name": "THE MULROY SCHOLARSHIP FUND", "city": "MARCELLUS", "state": "NY", "zip": "13108-9696", "ntee": "B82", "ruling": "199906", "deductibility": "1", "assets": 60755, "income": 62761, "revenue": 0}], "OBSTETRICIANS": [{"ein": "161485974", "name": "UNIVERSITY GYNECOLOGISTS & OBSTETRICIANS INC", "city": "BUFFALO", "state": "NY", "zip": "14203-1009", "ntee": "Z99", "ruling": "199609", "deductibility": "1", "assets": 1415208, "income": 8096851, "revenue": 8030600}], "THREAD": [{"ein": "161499458", "name": "SCARLET THREAD CHRISTIAN FELLOWSHIP", "city": "SODUS", "state": "NY", "zip": "14551-1161", "ntee": "X21", "ruling": "199912", "deductibility": "1", "assets": 471414, "income": 130063, "revenue": 130063}, {"ein": "461388500", "name": "RED THREAD THEATRE INC", "city": "BUFFALO", "state": "NY", "zip": "14201-2017", "ntee": "W99", "ruling": "201406", "deductibility": "1", "assets": 0, "income": 0, "revenue": 0}, {"ein": "800807329", "name": "NEW THREAD QUARTET INC", "city": "ASTORIA", "state": "NY", "zip": "11105-3391", "ntee": "A25", "ruling": "201802", "deductibility": "1", "assets": 0, "income": 0, "revenue": 0}, {"ein": "822279250", "name": "ONE COMMON THREAD INC", "city": "PEARL RIVER", "state": "NY", "zip": "10965-1404", "ntee": "P99", "ruling": "201801", "deductibility": "1", "assets": 0, "income": 0, "revenue": 0}, {"ein": "841733014", "name": "THREAD CONNECTS INC", "city": "NEW YORK", "state": "NY", "zip": "10021-3343", "ntee": "P99", "ruling": "201910", "deductibility": "1", "assets": 0, "income": 0, "revenue": 0}, {"ein": "933484577", "name": "RE--THREAD PROJECT INC", "city": "BROOKLYN", "state": "NY", "zip": "11215-8101", "ntee": "A90", "ruling": "202310", "deductibility": "1", "assets": 0, "income": 0, "revenue": 0}], "INFOTECH": [{"ein": "161546418", "name": "INFOTECH NIAGARA INC", "city": "ORCHARD PARK", "state": "NY", "zip": "14127-8422", "ntee": "", "ruling": "199805", "deductibility": "2", "assets": 0, "income": 0, "revenue": 0}], "OUTPOST": [{"ein": "161696658", "name": "OUTPOST ARTISTS RESOURCES INC", "city": "RIDGEWOOD", "state": "NY", "zip": "11385-5702", "ntee": "A31", "ruling": "200703", "deductibility": "1", "assets": 0, "income": 0, "revenue": 0}, {"ein": "472075303", "name": "CABIN 3 - THE OUTPOST", "city": "HANNIBAL", "state": "NY", "zip": "13074-2125", "ntee": "O20", "ruling": "201503", "deductibility": "1", "assets": 0, "income": 0, "revenue": 0}, {"ein": "813687543", "name": "OUTPOST 4 WILDLIFE REHABILITATION SERVICES INC", "city": "DELANSON", "state": "NY", "zip": "12053-2165", "ntee": "D60", "ruling": "201612", "deductibility": "1", "assets": 0, "income": 0, "revenue": 0}, {"ein": "853714092", "name": "THE CREATIVE OUTPOST", "city": "LITTLE FALLS", "state": "NY", "zip": "13365-1542", "ntee": "J20", "ruling": "202101", "deductibility": "1", "assets": 70471, "income": 92238, "revenue": 92238}], "BLADE": [{"ein": "166020842", "name": "SCALP & BLADE SCHOLARSHIP TRUST", "city": "BUFFALO", "state": "NY", "zip": "14240-1504", "ntee": "", "ruling": "197212", "deductibility": "1", "assets": 381915, "income": 122328, "revenue": 0}, {"ein": "237285720", "name": "SCALP AND BLADE INCORPORATED", "city": "GETZVILLE", "state": "NY", "zip": "14068-5036", "ntee": "", "ruling": "197402", "deductibility": "2", "assets": 0, "income": 0, "revenue": 0}, {"ein": "274311567", "name": "A BLADE OF GRASS FUND", "city": "LONG IS CITY", "state": "NY", "zip": "11101-5838", "ntee": "A20", "ruling": "201112", "deductibility": "1", "assets": 1817424, "income": 1641138, "revenue": 1641138}], "UNIVERISTY": [{"ein": "201946812", "name": "STEP BY STEP UNIVERISTY INC", "city": "BROOKLYN", "state": "NY", "zip": "11219-1300", "ntee": "B99", "ruling": "202506", "deductibility": "1", "assets": 0, "income": 0, "revenue": 0}], "YURIE": [{"ein": "203976523", "name": "CARL AND YURIE PASCARELLAFOUNDATION", "city": "ALBANY", "state": "NY", "zip": "12212-5201", "ntee": "T20", "ruling": "200712", "deductibility": "1", "assets": 936049, "income": 1327829, "revenue": 0}], "DEPARTMENTTRANSPORTATION": [{"ein": "205469681", "name": "NORTHPORT VOLUNTEER FIRE DEPARTMENTTRANSPORTATION EQUIPMENT AND ACTIV", "city": "NORTHPORT", "state": "NY", "zip": "11768-1726", "ntee": "M24", "ruling": "202307", "deductibility": "1", "assets": 2546297, "income": 908724, "revenue": 598415}], "DHARMATEMPLE": [{"ein": "205878996", "name": "FRIENDSHIP OF BUDDHIST DHARMATEMPLE", "city": "FLUSHING", "state": "NY", "zip": "11358-1600", "ntee": "X50", "ruling": "200711", "deductibility": "1", "assets": 0, "income": 0, "revenue": 0}], "BARNWOOD": [{"ein": "207409517", "name": "BARNWOOD FOUNDATION", "city": "KATONAH", "state": "NY", "zip": "10536-0810", "ntee": "T20", "ruling": "200708", "deductibility": "1", "assets": 11967079, "income": 3205735, "revenue": 0}], "OFBLESSING": [{"ein": "208004484", "name": "CELESTIAL CHURCH OF CHRIST GRACE OFBLESSING PARISH", "city": "SPRINGFIELD GARDEN", "state": "NY", "zip": "11413-0000", "ntee": "X21", "ruling": "200712", "deductibility": "1", "assets": 0, "income": 0, "revenue": 0}], "TIMOUN": [{"ein": "208859406", "name": "TIMOUN SE MOUN KIDS R PEOPLE TOO INC", "city": "BROOKLYN", "state": "NY", "zip": "11207-9104", "ntee": "B112", "ruling": "201109", "deductibility": "1", "assets": 0, "income": 0, "revenue": 0}, {"ein": "471929065", "name": "TIMOUN GEN DWA FOUNDATION INC", "city": "BROOKLYN", "state": "NY", "zip": "11226-2181", "ntee": "Q30", "ruling": "201608", "deductibility": "1", "assets": 0, "income": 0, "revenue": 0}], "CANCUN": [{"ein": "208961441", "name": "AMERICAN FRIENDS OF CHABADLUBAVITCH OF CANCUN", "city": "BROOKLYN", "state": "NY", "zip": "11225-4446", "ntee": "X30", "ruling": "201001", "deductibility": "1", "assets": 0, "income": 0, "revenue": 0}, {"ein": "814427850", "name": "CHABAD LUBAVITCH OF CANCUN INC", "city": "BROOKLYN", "state": "NY", "zip": "11225-4446", "ntee": "X30", "ruling": "201706", "deductibility": "1", "assets": 687977, "income": 674158, "revenue": 674158}], "GRIMM": [{"ein": "222185341", "name": "TRI VETTES LTD C O PETER A GRIMM", "city": "AVERILL PARK", "state": "NY", "zip": "12018-0014", "ntee": "", "ruling": "197712", "deductibility": "2", "assets": 0, "income": 0, "revenue": 0}, {"ein": "463842788", "name": "ANN & JOHN E GRIMM III FOUNDATION INC", "city": "SOUTHAMPTON", "state": "NY", "zip": "11968-4066", "ntee": "T20", "ruling": "201502", "deductibility": "1", "assets": 1300839, "income": 1028705, "revenue": 0}], "MONTERO": [{"ein": "226816653", "name": "HARRY MONTERO TR UW FBO DR H E MONTERO STUDENT LOAN FUND", "city": "ITHACA", "state": "NY", "zip": "14850-4378", "ntee": "", "ruling": "000000", "deductibility": "0", "assets": 249990, "income": 43300, "revenue": 0}], "MUSLIMUN": [{"ein": "237171160", "name": "IKHWANUL MUSLIMUN INC", "city": "HANCOCK", "state": "NY", "zip": "13783-0000", "ntee": "", "ruling": "197402", "deductibility": "1", "assets": 0, "income": 0, "revenue": 0}], "BOYANER": [{"ein": "237216374", "name": "CONGREGATION BOYANER KLOIZ TIFERETH MORDECHAI SHLOMO", "city": "BROOKLYN", "state": "NY", "zip": "11219-0000", "ntee": "", "ruling": "197208", "deductibility": "1", "assets": 0, "income": 0, "revenue": 0}], "ADOPTABLE": [{"ein": "237269678", "name": "NEW YORK COUNCIL ON ADOPTABLE CHILDREN INC", "city": "NEW YORK", "state": "NY", "zip": "10018-9067", "ntee": "P310", "ruling": "197303", "deductibility": "1", "assets": 1327953, "income": 2571166, "revenue": 2571166}, {"ein": "843492404", "name": "JENS ADOPTABLE CATS INC", "city": "PATCHOGUE", "state": "NY", "zip": "11772-2254", "ntee": "D20", "ruling": "202006", "deductibility": "1", "assets": 1500, "income": 95046, "revenue": 95046}], "CHAMAH": [{"ein": "237365688", "name": "CHAMAH", "city": "BROOKLYN", "state": "NY", "zip": "11225-3217", "ntee": "", "ruling": "197405", "deductibility": "1", "assets": 0, "income": 0, "revenue": 0}], "HAGODAL": [{"ein": "260494103", "name": "BETH HAMEDRASH HAGODAL OF NEW YORKRESTORATION INC", "city": "BROOKLYN", "state": "NY", "zip": "11219-1502", "ntee": "A80", "ruling": "200906", "deductibility": "1", "assets": 0, "income": 0, "revenue": 0}], "STAMPFER": [{"ein": "263416748", "name": "NAOMI AND TOBY LUELLA PLOTSKER STAMPFER CHARITABLE FOUNDATION", "city": "BROOKLYN", "state": "NY", "zip": "11210-3714", "ntee": "T22", "ruling": "200903", "deductibility": "1", "assets": 3551199, "income": 857635, "revenue": 0}], "LTZEIRIM": [{"ein": "264176784", "name": "AMERICAN FRIENDS OF YASHLATZ - YESHIVAT YERUSHALAYIM LTZEIRIM", "city": "SPRING VALLEY", "state": "NY", "zip": "10977-1012", "ntee": "Q12", "ruling": "201105", "deductibility": "1", "assets": 1575, "income": 513, "revenue": 513}, {"ein": "473582589", "name": "AMERICAN FRIENDS OF YESHIVA LTZEIRIM MITCHAZKIM INC", "city": "BROOKLYN", "state": "NY", "zip": "11210-2818", "ntee": "T30", "ruling": "201505", "deductibility": "1", "assets": 0, "income": 0, "revenue": 0}], "CZAP": [{"ein": "264709613", "name": "CAROLYNE E CZAP AND EUGENE A CZAP CHARITABLE FOUNDATION", "city": "NEW HYDE PARK", "state": "NY", "zip": "11042-1004", "ntee": "T20", "ruling": "201003", "deductibility": "1", "assets": 4655210, "income": 281742, "revenue": 0}], "ATHELAS": [{"ein": "270851677", "name": "ATHELAS THERAPEUTIC RIDING", "city": "OTEGO", "state": "NY", "zip": "13825-2103", "ntee": "E50", "ruling": "201107", "deductibility": "1", "assets": 90460, "income": 97349, "revenue": 97349}], "SHEMO": [{"ein": "271325921", "name": "SHEMO HOUSING DEVELOPMENT FUND CORPORATION", "city": "BROOKLYN", "state": "NY", "zip": "11214-2510", "ntee": "L20", "ruling": "201102", "deductibility": "1", "assets": 0, "income": 0, "revenue": 0}], "BECHORI": [{"ein": "271658187", "name": "AMERICAN BUCHARIAN COMMUNITIES-BNI BECHORI INC", "city": "MONSEY", "state": "NY", "zip": "10952-7631", "ntee": "X99", "ruling": "201008", "deductibility": "1", "assets": 20582, "income": 170559, "revenue": 170559}], "SABRINA": [{"ein": "273696238", "name": "JAHN AND SABRINA LEVIN CHARITABLE FOUNDATION", "city": "OLD WESTBURY", "state": "NY", "zip": "11568-1150", "ntee": "T21", "ruling": "201101", "deductibility": "1", "assets": 3991309, "income": 5830901, "revenue": 0}, {"ein": "842072109", "name": "SABRINA AUDREY MILONE FOUNDATION INC", "city": "GARDEN CITY", "state": "NY", "zip": "11530-4874", "ntee": "T30", "ruling": "202011", "deductibility": "1", "assets": 232806, "income": 71143, "revenue": 71030}, {"ein": "923921808", "name": "SABRINA NAVARETTA MEMORIAL FOUNDATION INC", "city": "SYOSSET", "state": "NY", "zip": "11791-2627", "ntee": "P12", "ruling": "202305", "deductibility": "1", "assets": 102784, "income": 110421, "revenue": 110421}], "CANVAS": [{"ein": "274563522", "name": "OUR SILENT CANVAS INC", "city": "WOODSTOCK", "state": "NY", "zip": "12498-0339", "ntee": "A20", "ruling": "201806", "deductibility": "1", "assets": 380479, "income": 3693526, "revenue": 0}, {"ein": "412229446", "name": "FROM CARDBOARD TO CANVAS", "city": "VALLEY STREAM", "state": "NY", "zip": "11580-0000", "ntee": "A40", "ruling": "201105", "deductibility": "1", "assets": 0, "income": 0, "revenue": 0}, {"ein": "824902021", "name": "CANVAS INSTITUTE", "city": "STATEN ISLAND", "state": "NY", "zip": "10301-2918", "ntee": "A20", "ruling": "201804", "deductibility": "1", "assets": 0, "income": 244903, "revenue": 244903}, {"ein": "863905373", "name": "BAMBOO CANVAS", "city": "NEW YORK", "state": "NY", "zip": "10017-1516", "ntee": "", "ruling": "202108", "deductibility": "1", "assets": 0, "income": 0, "revenue": 0}], "ACCOMPLICE": [{"ein": "300945595", "name": "HONEST ACCOMPLICE THEATRE INC", "city": "NEW YORK", "state": "NY", "zip": "10016-0000", "ntee": "A65", "ruling": "201705", "deductibility": "1", "assets": 0, "income": 0, "revenue": 0}], "ROSANNE": [{"ein": "316666451", "name": "PETER AND ROSANNE ARESTY FOUNDATION", "city": "NEW YORK", "state": "NY", "zip": "10018-1064", "ntee": "T22", "ruling": "200106", "deductibility": "1", "assets": 3076781, "income": 364136, "revenue": 0}], "LEDA": [{"ein": "331071771", "name": "LEADERSHIP ENTERPRISE FOR A DIVERSE AMERICA - LEDA", "city": "NEW YORK", "state": "NY", "zip": "10018-3612", "ntee": "B90", "ruling": "200403", "deductibility": "1", "assets": 1996978, "income": 3934357, "revenue": 3820150}], "INNINGS": [{"ein": "331982461", "name": "INNINGS OF GROWTH CORPORATION", "city": "YONKERS", "state": "NY", "zip": "10704-3306", "ntee": "N99", "ruling": "202411", "deductibility": "1", "assets": 0, "income": 0, "revenue": 0}], "NUMINOUS": [{"ein": "371420923", "name": "NUMINOUS", "city": "BALLSTON LAKE", "state": "NY", "zip": "12019-1618", "ntee": "X21", "ruling": "200206", "deductibility": "1", "assets": 0, "income": 0, "revenue": 0}], "ROBINOW": [{"ein": "411856948", "name": "ROBINOW SYNDROME FOUNDATION", "city": "HURLEY", "state": "NY", "zip": "12443-0066", "ntee": "H80", "ruling": "200206", "deductibility": "1", "assets": 0, "income": 0, "revenue": 0}], "MOHMEDALI": [{"ein": "421591230", "name": "MOHMEDALI FOUNDATION", "city": "WILLISTON PK", "state": "NY", "zip": "11596-2321", "ntee": "X21", "ruling": "200410", "deductibility": "1", "assets": 0, "income": 0, "revenue": 0}], "OCEANIC": [{"ein": "431836518", "name": "OCEANIC HERITAGE FOUNDATION", "city": "NEW YORK", "state": "NY", "zip": "10036-0473", "ntee": "T20", "ruling": "199908", "deductibility": "1", "assets": 6021746, "income": 1333580, "revenue": 0}, {"ein": "465288351", "name": "OCEANIC HOOK & LADDER CO NO 1 INC", "city": "STATEN ISLAND", "state": "NY", "zip": "10314-6710", "ntee": "M24", "ruling": "201505", "deductibility": "1", "assets": 0, "income": 0, "revenue": 0}, {"ein": "814694803", "name": "OCEANIC GLOBAL FOUNDATION", "city": "BROOKLYN", "state": "NY", "zip": "11211-5485", "ntee": "C20", "ruling": "201805", "deductibility": "1", "assets": 1593348, "income": 1633322, "revenue": 1633322}], "BOBCATS": [{"ein": "452106346", "name": "CNY BOBCATS HOCKEY ASSOCIATION INC", "city": "NEW HARTFORD", "state": "NY", "zip": "13413-0263", "ntee": "N60", "ruling": "201612", "deductibility": "1", "assets": 0, "income": 0, "revenue": 0}, {"ein": "990950204", "name": "ELLENBURG BOBCATS YOUTH WRESTLING", "city": "ELLENBURG DEP", "state": "NY", "zip": "12935-1707", "ntee": "O20", "ruling": "202404", "deductibility": "1", "assets": 0, "income": 0, "revenue": 0}], "RESPONDER": [{"ein": "454882774", "name": "WORLDWIDE COMMUNITY FIRST RESPONDER", "city": "NANUET", "state": "NY", "zip": "10954-0747", "ntee": "E60", "ruling": "201410", "deductibility": "1", "assets": 0, "income": 0, "revenue": 0}, {"ein": "872733566", "name": "HAMPTONS FIRST RESPONDER HOCKEY CHARITABLE FUND", "city": "AMAGANSETT", "state": "NY", "zip": "11930-2756", "ntee": "N68", "ruling": "202112", "deductibility": "1", "assets": 0, "income": 0, "revenue": 0}, {"ein": "932943041", "name": "RESPONDER RELIEF", "city": "WOODBURY", "state": "NY", "zip": "11797-2123", "ntee": "E19", "ruling": "202401", "deductibility": "1", "assets": 0, "income": 0, "revenue": 0}], "GM": [{"ein": "462349079", "name": "SASHA GM SHAIKH FOUNDATION INC", "city": "NEW YORK", "state": "NY", "zip": "10165-0057", "ntee": "T99", "ruling": "201406", "deductibility": "1", "assets": 0, "income": 0, "revenue": 0}, {"ein": "993455667", "name": "GM MONTESSORI INC", "city": "NANUET", "state": "NY", "zip": "10954-3311", "ntee": "P12", "ruling": "202406", "deductibility": "1", "assets": 1, "income": 0, "revenue": 0}], "OILERS": [{"ein": "462752475", "name": "OLEAN OILERS BASEBALL INC", "city": "OLEAN", "state": "NY", "zip": "14760-2721", "ntee": "N63", "ruling": "201409", "deductibility": "1", "assets": 348, "income": 123300, "revenue": 123300}], "PHSI": [{"ein": "463311164", "name": "PHSI INC", "city": "BRONX", "state": "NY", "zip": "10461-3613", "ntee": "E80", "ruling": "201408", "deductibility": "2", "assets": 330644, "income": 0, "revenue": 0}], "WATERED": [{"ein": "463352486", "name": "WELL WATERED GARDEN CHURCH", "city": "FLUSHING", "state": "NY", "zip": "11354-5675", "ntee": "X21", "ruling": "202412", "deductibility": "1", "assets": 0, "income": 0, "revenue": 0}], "KIJABE": [{"ein": "464581632", "name": "KIJABE FOREST TRUST USA INCORPORATED", "city": "BROOKLYN", "state": "NY", "zip": "11215-6562", "ntee": "C34", "ruling": "201505", "deductibility": "1", "assets": 0, "income": 0, "revenue": 0}], "SEGUINOT": [{"ein": "471663997", "name": "CHRISTOPHER S SEGUINOT MEMORIAL SCHOLARSHIP FUND", "city": "WEST HARRISON", "state": "NY", "zip": "10604-1610", "ntee": "B82", "ruling": "201512", "deductibility": "1", "assets": 13042, "income": 38275, "revenue": 7065}], "DAPPER": [{"ein": "473654847", "name": "DAPPER MCDONALD ALS CHARITABLE TRUST", "city": "WHITE PLAINS", "state": "NY", "zip": "10603-2221", "ntee": "G80", "ruling": "201508", "deductibility": "1", "assets": 0, "income": 0, "revenue": 0}, {"ein": "811863738", "name": "DAPPER MCDONALD CHARITABLE FOUNDATION", "city": "WHITE PLAINS", "state": "NY", "zip": "10603-2221", "ntee": "E12", "ruling": "201607", "deductibility": "1", "assets": 45629, "income": 6746, "revenue": 6746}], "BRECKER": [{"ein": "474385312", "name": "BRECKER-METAL FOUNDATION INC", "city": "SUFFERN", "state": "NY", "zip": "10901-1408", "ntee": "T22", "ruling": "201512", "deductibility": "1", "assets": 43598, "income": 38475, "revenue": 0}, {"ein": "872865280", "name": "MICHAEL BRECKER FAMILY FOUNDATION INC", "city": "HASTINGS HDSN", "state": "NY", "zip": "10706-3637", "ntee": "A68", "ruling": "202211", "deductibility": "1", "assets": 0, "income": 0, "revenue": 0}], "FUTUREPOEM": [{"ein": "510657832", "name": "FUTUREPOEM INC", "city": "NEW YORK", "state": "NY", "zip": "10011-1562", "ntee": "A33", "ruling": "200901", "deductibility": "1", "assets": 33500, "income": 105135, "revenue": 105135}], "KASHMIRI": [{"ein": "521294852", "name": "KASHMIRI OVERSEAS ASSOCIATION INC", "city": "NEW YORK", "state": "NY", "zip": "10016-6601", "ntee": "Q710", "ruling": "198309", "deductibility": "1", "assets": 811535, "income": 525943, "revenue": 525943}, {"ein": "813757585", "name": "KASHMIRI AMERICAN SOCIETY FOR HEALTHCARE MEDICAL EDUCATION AND R", "city": "JERICHO", "state": "NY", "zip": "11753-1224", "ntee": "M41", "ruling": "201709", "deductibility": "1", "assets": 1199835, "income": 200526, "revenue": 200526}, {"ein": "922559099", "name": "KASHMIRI AMERICAN ALLIANCE CORP", "city": "OZONE PARK", "state": "NY", "zip": "11417-2243", "ntee": "P20", "ruling": "202310", "deductibility": "1", "assets": 0, "income": 0, "revenue": 0}], "TRUFUND": [{"ein": "593814814", "name": "TRUFUND FINANCIAL SERVICES INC", "city": "NEW YORK", "state": "NY", "zip": "10018-2329", "ntee": "S30", "ruling": "200512", "deductibility": "1", "assets": 51843427, "income": 12004522, "revenue": 12004522}], "BRIGHTSTAR": [{"ein": "743132501", "name": "BRIGHTSTAR GERMAN SHEPHERD RESCUE INC", "city": "SPENCERPORT", "state": "NY", "zip": "14559-0259", "ntee": "", "ruling": "200502", "deductibility": "1", "assets": 1032, "income": 5889, "revenue": 5021}, {"ein": "822177572", "name": "BRIGHTSTAR COMMUNITY INC", "city": "ROCHESTER", "state": "NY", "zip": "14618-0671", "ntee": "P20", "ruling": "201808", "deductibility": "1", "assets": 97330, "income": 144781, "revenue": 129717}], "CLOPONS": [{"ein": "811654790", "name": "CLOPONS SAVE HAVEN RESCUE", "city": "POUGHKEEPSIE", "state": "NY", "zip": "12601-6422", "ntee": "D60", "ruling": "201610", "deductibility": "1", "assets": 0, "income": 0, "revenue": 0}], "ONE8FIFTY": [{"ein": "812167991", "name": "ONE8FIFTY INC", "city": "AMHERST", "state": "NY", "zip": "14226-0156", "ntee": "B60", "ruling": "201608", "deductibility": "1", "assets": 0, "income": 0, "revenue": 0}], "GUANGDONG": [{"ein": "813801668", "name": "GUANGDONG ASSOCIATION OF AMERICA CORP", "city": "BROOKLYN", "state": "NY", "zip": "11220-4721", "ntee": "A01", "ruling": "202104", "deductibility": "1", "assets": 62332, "income": 80504, "revenue": 42222}, {"ein": "844232728", "name": "AMERICAN GUANGDONG COMMUNITY ASSOCIATION", "city": "BROOKLYN", "state": "NY", "zip": "11214-5009", "ntee": "A20", "ruling": "202004", "deductibility": "1", "assets": 0, "income": 0, "revenue": 0}], "THERAPEUTICALLY": [{"ein": "815278953", "name": "KEEP ON MOVING INTERACTIVE & THERAPEUTICALLY ORIENTED MUSIC SER", "city": "CHESTNUT RIDGE", "state": "NY", "zip": "10977-0000", "ntee": "E70", "ruling": "201702", "deductibility": "1", "assets": 0, "income": 0, "revenue": 0}], "MPOWER": [{"ein": "821540668", "name": "MPOWER PROJECT LTD", "city": "NEW YORK", "state": "NY", "zip": "10023-6360", "ntee": "B90", "ruling": "201811", "deductibility": "1", "assets": 2493, "income": 10000, "revenue": 10000}], "HARDWOOD": [{"ein": "822308437", "name": "HARDWOOD CLUB INC", "city": "SYRACUSE", "state": "NY", "zip": "13202-2601", "ntee": "T30", "ruling": "201804", "deductibility": "1", "assets": 0, "income": 0, "revenue": 0}], "HEPEHULE": [{"ein": "823733973", "name": "CONGREGATION VAAD HEPEHULE OF USA", "city": "MONSEY", "state": "NY", "zip": "10952-8002", "ntee": "X30", "ruling": "201806", "deductibility": "1", "assets": 0, "income": 0, "revenue": 0}], "CCH": [{"ein": "824075705", "name": "CCH FOUNDATION NY INC", "city": "FLUSHING", "state": "NY", "zip": "11354-2703", "ntee": "E70", "ruling": "201807", "deductibility": "1", "assets": 0, "income": 0, "revenue": 0}], "NSM": [{"ein": "824112903", "name": "NSM SPORTS ORGANIZATION INC", "city": "RONKONKOMA", "state": "NY", "zip": "11779-7431", "ntee": "N60", "ruling": "201802", "deductibility": "1", "assets": 0, "income": 0, "revenue": 0}, {"ein": "862784021", "name": "NSM FOUNDATION & MUSEUM", "city": "NEW YORK", "state": "NY", "zip": "10069-0501", "ntee": "A50", "ruling": "202203", "deductibility": "1", "assets": 2042, "income": 5000, "revenue": 5000}], "HOON": [{"ein": "824145486", "name": "J-HOON MUSICAL ENSEMBLE INCORPORATED", "city": "NEW YORK", "state": "NY", "zip": "10025-2006", "ntee": "A6C", "ruling": "201802", "deductibility": "1", "assets": 50731, "income": 4447, "revenue": 4447}], "3SIXTY": [{"ein": "825169075", "name": "FLYING 3SIXTY NAX INC", "city": "FAR ROCKAWAY", "state": "NY", "zip": "11691-4946", "ntee": "O50", "ruling": "201805", "deductibility": "1", "assets": 1, "income": 100, "revenue": 100}], "PROVIDING": [{"ein": "830652866", "name": "PROVIDING PREVENTATIVE RESOURCES OFTEN OVERLOOKED ABOUT FINANCES IN", "city": "MONROE", "state": "NY", "zip": "10950-6501", "ntee": "P51", "ruling": "202507", "deductibility": "1", "assets": 0, "income": 0, "revenue": 0}, {"ein": "842517426", "name": "SISTERS PROVIDING OPPORTUNITIES CHARITABLE ALLIANCE INCORPORATED", "city": "WHEATLEY HTS", "state": "NY", "zip": "11798-1419", "ntee": "S80", "ruling": "202109", "deductibility": "1", "assets": 0, "income": 0, "revenue": 0}, {"ein": "871286056", "name": "PROVIDING TO GREEN PASTURE LLC", "city": "SCARSDALE", "state": "NY", "zip": "10583-4850", "ntee": "", "ruling": "202212", "deductibility": "1", "assets": 0, "income": 0, "revenue": 0}, {"ein": "883682068", "name": "PROVIDING OTHERS WITH EMPOWERED RESOURCES INC", "city": "SYRACUSE", "state": "NY", "zip": "13205-1216", "ntee": "P80", "ruling": "202209", "deductibility": "1", "assets": 0, "income": 0, "revenue": 0}, {"ein": "934398683", "name": "PROVIDING AID AND LEADERSHIP FOR YOUTH PALY INC", "city": "SHRUB OAK", "state": "NY", "zip": "10588-0484", "ntee": "O50", "ruling": "202312", "deductibility": "1", "assets": 0, "income": 0, "revenue": 0}], "LYNC": [{"ein": "831137215", "name": "LYNC COMMUNITY ORGANIZATION INC", "city": "NEWBURGH", "state": "NY", "zip": "12550-1225", "ntee": "J22", "ruling": "201809", "deductibility": "1", "assets": 0, "income": 0, "revenue": 0}], "MASEL": [{"ein": "831898364", "name": "MASEL 18 FOUNDATION", "city": "BROOKLYN", "state": "NY", "zip": "11211-8305", "ntee": "T22", "ruling": "201908", "deductibility": "1", "assets": 71875, "income": 74300, "revenue": 0}], "CHANINA": [{"ein": "834701159", "name": "KHAL ZICHRON CHANINA GETZEL", "city": "POMONA", "state": "NY", "zip": "10970-3607", "ntee": "X30", "ruling": "202108", "deductibility": "1", "assets": 0, "income": 0, "revenue": 0}], "RANKING": [{"ein": "842820745", "name": "DEMOCRACY REFORM RANKING PROJECT INC", "city": "ITHACA", "state": "NY", "zip": "14850-6350", "ntee": "B01", "ruling": "201909", "deductibility": "1", "assets": 0, "income": 0, "revenue": 0}], "ANOUSIM": [{"ein": "843086034", "name": "FRIENDS OF BNEI ANOUSIM INC", "city": "BROOKLYN", "state": "NY", "zip": "11213-5585", "ntee": "X30", "ruling": "202007", "deductibility": "1", "assets": 0, "income": 0, "revenue": 0}], "ANTICA": [{"ein": "843792330", "name": "ANTICA FOUNDATION", "city": "NEW YORK", "state": "NY", "zip": "10171-0000", "ntee": "T20", "ruling": "202006", "deductibility": "1", "assets": 638445, "income": 17350, "revenue": 0}], "DRONE": [{"ein": "843815181", "name": "DRONE CADETS FOUNDATION INC", "city": "NEW YORK", "state": "NY", "zip": "10004-1703", "ntee": "P99", "ruling": "201912", "deductibility": "1", "assets": 0, "income": 0, "revenue": 0}], "JUNI": [{"ein": "844092468", "name": "BARR JUNI AND IRENE MENAKAYA FOUNDATION INTL INC", "city": "BRONX", "state": "NY", "zip": "10462-6982", "ntee": "B12", "ruling": "202004", "deductibility": "1", "assets": 0, "income": 0, "revenue": 0}], "SUBSTITUTE": [{"ein": "844248610", "name": "BUFFALO ASSOCIATION OF SUBSTITUTE ADMINISTRATORS", "city": "GETZVILLE", "state": "NY", "zip": "14068-0175", "ntee": "J40", "ruling": "202405", "deductibility": "2", "assets": 0, "income": 0, "revenue": 0}], "TUTTI": [{"ein": "845191950", "name": "ROGERIO TUTTI FOUNDATION INC", "city": "NEW", "state": "NY", "zip": "10005-4301", "ntee": "P20", "ruling": "202004", "deductibility": "1", "assets": 0, "income": 0, "revenue": 0}], "GSD": [{"ein": "850500393", "name": "GSD ADVISERS INC", "city": "SYOSSET", "state": "NY", "zip": "11791-4507", "ntee": "B60", "ruling": "202008", "deductibility": "1", "assets": 245809, "income": 1441275, "revenue": 1441275}, {"ein": "851233630", "name": "BIG BUDDY GSD RESCUE", "city": "COLD BROOK", "state": "NY", "zip": "13324-1815", "ntee": "D20", "ruling": "202110", "deductibility": "1", "assets": 0, "income": 0, "revenue": 0}], "MASAMI": [{"ein": "850568142", "name": "MASAMI INSTITUTE INC", "city": "NEW YORK", "state": "NY", "zip": "10016-3635", "ntee": "C32", "ruling": "202004", "deductibility": "1", "assets": 316, "income": 260, "revenue": 0}], "VISWISE": [{"ein": "852331341", "name": "VISWISE ACADEMY INC", "city": "SCARSDALE", "state": "NY", "zip": "10583-2804", "ntee": "B20", "ruling": "202204", "deductibility": "1", "assets": 26461, "income": 608724, "revenue": 608724}], "TOLMITCH": [{"ein": "852969713", "name": "CONG TOLMITCH", "city": "MONSEY", "state": "NY", "zip": "10952-2024", "ntee": "X30", "ruling": "202105", "deductibility": "1", "assets": 0, "income": 0, "revenue": 0}], "SANCTI": [{"ein": "861480524", "name": "SANCTI FOUNDATION INC", "city": "NEW YORK", "state": "NY", "zip": "10005-2169", "ntee": "T22", "ruling": "202106", "deductibility": "1", "assets": 3080, "income": 192975, "revenue": 0}], "HATZON": [{"ein": "861934750", "name": "BIKVEI HATZON INC", "city": "BROOKLYN", "state": "NY", "zip": "11211-8924", "ntee": "X30", "ruling": "202206", "deductibility": "1", "assets": 0, "income": 922711, "revenue": 922711}], "PEAF": [{"ein": "863682715", "name": "PEAF YOUTH UPLIFTMENT INC", "city": "SPRNGFLD GDNS", "state": "NY", "zip": "11413-1043", "ntee": "O12", "ruling": "202108", "deductibility": "1", "assets": 0, "income": 0, "revenue": 0}], "MANMAN": [{"ein": "871984386", "name": "ALTAGRAS MANMAN LAGRAS INC", "city": "VALLEY STREAM", "state": "NY", "zip": "11580-2527", "ntee": "X22", "ruling": "202203", "deductibility": "1", "assets": 75467, "income": 348309, "revenue": 348309}, {"ein": "882000734", "name": "GWOUP PITIT MANMAN WOZE INC", "city": "HUNTINGTN STA", "state": "NY", "zip": "11746-1819", "ntee": "A01", "ruling": "202208", "deductibility": "1", "assets": 0, "income": 0, "revenue": 0}], "TOCNYS": [{"ein": "873121194", "name": "TOCNYS INC", "city": "ROCHESTER", "state": "NY", "zip": "14625-0305", "ntee": "C35", "ruling": "202203", "deductibility": "1", "assets": 8001, "income": 56289, "revenue": 56229}], "DESTINE": [{"ein": "873479318", "name": "DESTINE PREPARATORY CHARTER SCHOOL", "city": "SCHENECTADY", "state": "NY", "zip": "12305-2011", "ntee": "B29", "ruling": "202211", "deductibility": "1", "assets": 2238147, "income": 3073910, "revenue": 3073910}], "CLOTHESLINE": [{"ein": "873640020", "name": "COMMUNITY CLOTHESLINE LIMITED", "city": "BROCKPORT", "state": "NY", "zip": "14420-1212", "ntee": "C27", "ruling": "202303", "deductibility": "1", "assets": 0, "income": 0, "revenue": 0}], "FEVER": [{"ein": "874729814", "name": "KOREAN FEVER INC", "city": "ELMHURST", "state": "NY", "zip": "11373-4966", "ntee": "A60", "ruling": "202301", "deductibility": "1", "assets": 0, "income": 0, "revenue": 0}], "CWT": [{"ein": "883197788", "name": "CWT CHARITABLE TRUST", "city": "KENNEDY", "state": "NY", "zip": "14747-9505", "ntee": "A80", "ruling": "202210", "deductibility": "1", "assets": 0, "income": 0, "revenue": 0}], "YISMECH": [{"ein": "921290846", "name": "YESHIVAH YISMECH MOSHE INC", "city": "BROOKLYN", "state": "NY", "zip": "11211-8711", "ntee": "X30", "ruling": "202301", "deductibility": "1", "assets": 0, "income": 0, "revenue": 0}], "DELICE": [{"ein": "922871039", "name": "DELICE PERSONAL CARE HOMES", "city": "VALLEY STREAM", "state": "NY", "zip": "11580-6118", "ntee": "P70", "ruling": "202303", "deductibility": "1", "assets": 0, "income": 0, "revenue": 0}], "GESU": [{"ein": "923377271", "name": "PATRONS OF THE BAMBINO GESU CHILDRENS HOSPITAL INC", "city": "NEW YORK", "state": "NY", "zip": "10017-2702", "ntee": "E60", "ruling": "202309", "deductibility": "1", "assets": 129517, "income": 138030, "revenue": 138030}], "AMBUSH": [{"ein": "932434924", "name": "TIGER CHEER AMBUSH INC", "city": "TUCKAHOE", "state": "NY", "zip": "10707-4308", "ntee": "N12", "ruling": "202308", "deductibility": "1", "assets": 5598, "income": 49697, "revenue": 49697}], "SONORA": [{"ein": "932551221", "name": "SONORA COLLECTIVE INCORPORATED", "city": "NEW YORK", "state": "NY", "zip": "10002-6024", "ntee": "A68", "ruling": "202310", "deductibility": "1", "assets": 0, "income": 0, "revenue": 0}], "JONNY": [{"ein": "933194383", "name": "JONNY BIG HEART INC", "city": "STATEN ISLAND", "state": "NY", "zip": "10307-1328", "ntee": "E12", "ruling": "202309", "deductibility": "1", "assets": 0, "income": 0, "revenue": 0}], "TAANUG": [{"ein": "934549312", "name": "TAANUG USA", "city": "MONSEY", "state": "NY", "zip": "10952-0000", "ntee": "P01", "ruling": "202402", "deductibility": "1", "assets": 0, "income": 0, "revenue": 0}], "FATEH": [{"ein": "990523383", "name": "BABA FATEH SINGH FOUNDATION INC", "city": "NEW HYDE PARK", "state": "NY", "zip": "11040-2910", "ntee": "N30", "ruling": "202407", "deductibility": "1", "assets": 0, "income": 0, "revenue": 0}], "FFRF": [{"ein": "991206653", "name": "UPSTATE NEW YORK FREETHINKERS A CHAPTER OF FFRF INC", "city": "ROCHESTER", "state": "NY", "zip": "14607-2943", "ntee": "R20", "ruling": "202402", "deductibility": "1", "assets": 0, "income": 0, "revenue": 0}], "ISSY": [{"ein": "991287129", "name": "FRIENDS OF CHABAD ISSY LES MOULINEAUX INC", "city": "BROOKLYN", "state": "NY", "zip": "11213-5212", "ntee": "X30", "ruling": "202409", "deductibility": "1", "assets": 0, "income": 0, "revenue": 0}], "SEGER": [{"ein": "992467345", "name": "KIMBERLY SEGER CHARITY FOUNDATION INC", "city": "PEEKSKILL", "state": "NY", "zip": "10566-2320", "ntee": "E12", "ruling": "202404", "deductibility": "1", "assets": 0, "income": 0, "revenue": 0}], "NYUNDERGROUND": [{"ein": "993649790", "name": "NYUNDERGROUND INITIATIVE INC", "city": "NEW YORK", "state": "NY", "zip": "10003-1502", "ntee": "P20", "ruling": "202407", "deductibility": "1", "assets": 0, "income": 0, "revenue": 0}], "KAMIL": [{"ein": "994019111", "name": "DR KAMIL MINISTRIES INC", "city": "BROOKLYN", "state": "NY", "zip": "11222-2708", "ntee": "X20", "ruling": "202408", "deductibility": "1", "assets": 0, "income": 0, "revenue": 0}]}