{"RACING": [{"ein": "010588883", "name": "AMERICAN WOMENS YACHT RACING INC", "city": "NEW YORK", "state": "NY", "zip": "10023-5548", "ntee": "N60", "ruling": "200212", "deductibility": "1", "assets": 0, "income": 0, "revenue": 0}, {"ein": "116078667", "name": "GREAT SOUTH BAY YACHT RACING ASSOCIATION", "city": "CTR MORICHES", "state": "NY", "zip": "11934-3330", "ntee": "", "ruling": "196406", "deductibility": "2", "assets": 0, "income": 0, "revenue": 0}, {"ein": "133835811", "name": "RACING THOUGHTS INC", "city": "BROOKLYN", "state": "NY", "zip": "11238-5900", "ntee": "A620", "ruling": "199608", "deductibility": "1", "assets": 132833, "income": 97894, "revenue": 97894}, {"ein": "135655518", "name": "YACHT RACING ASSOC OF LONG ISLAND SOUND INC", "city": "MAMARONECK", "state": "NY", "zip": "10543-3709", "ntee": "", "ruling": "194203", "deductibility": "2", "assets": 222579, "income": 130081, "revenue": 130081}, {"ein": "141368198", "name": "HARNESS RACING MUSEUM AND HALL OF FAME", "city": "GOSHEN", "state": "NY", "zip": "10924-2157", "ntee": "A500", "ruling": "195102", "deductibility": "1", "assets": 9028157, "income": 1730218, "revenue": 1399590}, {"ein": "141421321", "name": "NATIONAL MUSEUM OF RACING INC", "city": "SARATOGA SPGS", "state": "NY", "zip": "12866-3513", "ntee": "A500", "ruling": "195204", "deductibility": "1", "assets": 30947600, "income": 7345518, "revenue": 3274667}, {"ein": "161191945", "name": "QUAKER LAKE YACHT RACING CLUB INC", "city": "BINGHAMTON", "state": "NY", "zip": "13902-1702", "ntee": "N67", "ruling": "201708", "deductibility": "2", "assets": 0, "income": 0, "revenue": 0}, {"ein": "161282561", "name": "TRI COUNTY RACING CLUB INC", "city": "CALEDONIA", "state": "NY", "zip": "14423-0042", "ntee": "", "ruling": "199309", "deductibility": "2", "assets": 187813, "income": 271813, "revenue": 260680}, {"ein": "161297699", "name": "NIAGARA FRONTIER BOAT RACING ASSOCIATION INC", "city": "GRAND ISLAND", "state": "NY", "zip": "14072-1445", "ntee": "", "ruling": "198708", "deductibility": "2", "assets": 15006, "income": 118618, "revenue": -1346}, {"ein": "161444025", "name": "BRANTLING SKI RACING ASSOCIATION INC", "city": "ONTARIO", "state": "NY", "zip": "14519-9164", "ntee": "", "ruling": "199408", "deductibility": "1", "assets": 0, "income": 0, "revenue": 0}, {"ein": "161477370", "name": "PALMYRA RACING ASSOC", "city": "PALMYRA", "state": "NY", "zip": "14522-0221", "ntee": "N70", "ruling": "201009", "deductibility": "2", "assets": 597908, "income": 259606, "revenue": 259606}, {"ein": "161520431", "name": "WOODS VALLEY ALPINE SKI RACING FOUNDATION INC", "city": "ROME", "state": "NY", "zip": "13442-4703", "ntee": "O20", "ruling": "199809", "deductibility": "1", "assets": 0, "income": 0, "revenue": 0}, {"ein": "161572964", "name": "WATKINS GLEN MOTOR RACING RESEARCH COUNCIL INC", "city": "WATKINS GLEN", "state": "NY", "zip": "14891-1613", "ntee": "A540", "ruling": "199912", "deductibility": "1", "assets": 5064582, "income": 2485271, "revenue": 580566}, {"ein": "200047497", "name": "GANANDA RACING AQUATIC TEAM", "city": "WALWORTH", "state": "NY", "zip": "14568-0174", "ntee": "N67", "ruling": "200602", "deductibility": "1", "assets": 0, "income": 0, "revenue": 0}, {"ein": "208237585", "name": "CMC RACING INC", "city": "MEDINA", "state": "NY", "zip": "14103-9653", "ntee": "N50", "ruling": "200812", "deductibility": "2", "assets": 180392, "income": 137013, "revenue": 97139}, {"ein": "222564914", "name": "NEW YORK STATE SKI RACING ASSOCIATION INC", "city": "SARATOGA SPRINGS", "state": "NY", "zip": "12866-0000", "ntee": "", "ruling": "199310", "deductibility": "1", "assets": 412330, "income": 264736, "revenue": 264736}, {"ein": "222635624", "name": "ATLANTIC COAST OLD TIMERS AUTO RACING CLUB INC", "city": "WINDSOR", "state": "NY", "zip": "13865-1345", "ntee": "A50", "ruling": "201402", "deductibility": "2", "assets": 0, "income": 0, "revenue": 0}, {"ein": "262963656", "name": "THOROUGHBRED RACING FAN ASSOCIATION INC", "city": "SARATOGA SPGS", "state": "NY", "zip": "12866-0603", "ntee": "D60", "ruling": "201008", "deductibility": "1", "assets": 0, "income": 0, "revenue": 0}, {"ein": "263103237", "name": "NEW YORK STATE BICYCLE RACING ASSOCIATION INC", "city": "ENDICOTT", "state": "NY", "zip": "13760-3757", "ntee": "N60", "ruling": "202302", "deductibility": "1", "assets": 0, "income": 0, "revenue": 0}, {"ein": "272623036", "name": "GRACE RACING MINISTRIES INC", "city": "NEWARK", "state": "NY", "zip": "14513-9213", "ntee": "X90", "ruling": "201008", "deductibility": "1", "assets": 0, "income": 0, "revenue": 0}, {"ein": "364557544", "name": "NEW YORK STATE SKI RACING ASSOCIATION NORDIC INC", "city": "CLIFTON PARK", "state": "NY", "zip": "12065-0090", "ntee": "N68", "ruling": "201208", "deductibility": "1", "assets": 0, "income": 0, "revenue": 0}, {"ein": "453820180", "name": "CATCH22 RACING LTD", "city": "AUBURNDALE", "state": "NY", "zip": "11358-3044", "ntee": "N70", "ruling": "201302", "deductibility": "1", "assets": 0, "income": 0, "revenue": 0}, {"ein": "462871016", "name": "CGSW RACING INC", "city": "HERMON", "state": "NY", "zip": "13652-3264", "ntee": "N70", "ruling": "201501", "deductibility": "1", "assets": 0, "income": 0, "revenue": 0}, {"ein": "471731159", "name": "AMERICAN SAILBOAT RACING FOUNDATION INC", "city": "OYSTER BAY", "state": "NY", "zip": "11771-3720", "ntee": "N67", "ruling": "201510", "deductibility": "1", "assets": 131911, "income": 499389, "revenue": 499389}, {"ein": "474107237", "name": "NEW YORK RACING ASSOCIATION FOUNDATION INC", "city": "JAMAICA", "state": "NY", "zip": "11420-1009", "ntee": "D99", "ruling": "202402", "deductibility": "1", "assets": 1, "income": 1, "revenue": 0}, {"ein": "510156094", "name": "HUNTER MOUNTAIN RACING FOUNDATION INC", "city": "HUNTER", "state": "NY", "zip": "12442-0732", "ntee": "N68", "ruling": "202301", "deductibility": "1", "assets": 113738, "income": 14754, "revenue": 14754}, {"ein": "811100204", "name": "RIVERTOWNS RACING CLUB INC", "city": "HASTINGS HDSN", "state": "NY", "zip": "10706-2809", "ntee": "N60", "ruling": "202405", "deductibility": "1", "assets": 0, "income": 0, "revenue": 0}, {"ein": "833605273", "name": "HYDROCEPHALUS RACING TEAM INC", "city": "BROOKLYN", "state": "NY", "zip": "11222-0000", "ntee": "G01", "ruling": "201904", "deductibility": "1", "assets": 1, "income": 2200, "revenue": 2200}, {"ein": "842594526", "name": "RACING FOR LIVES INC", "city": "NEW YORK", "state": "NY", "zip": "10013-2154", "ntee": "P12", "ruling": "202002", "deductibility": "1", "assets": 896, "income": 0, "revenue": 0}, {"ein": "843406079", "name": "LAKE YACHT RACING ASSOCIATION INC", "city": "OLCOTT", "state": "NY", "zip": "14126-0832", "ntee": "N67", "ruling": "202101", "deductibility": "2", "assets": 0, "income": 0, "revenue": 0}, {"ein": "853666877", "name": "FRAGILE FLOWERS ADVENTURE RACING COMPANY INC", "city": "MACEDON", "state": "NY", "zip": "14502-8762", "ntee": "N99", "ruling": "202105", "deductibility": "1", "assets": 0, "income": 0, "revenue": 0}, {"ein": "861456704", "name": "NEW YORK ADVENTURE RACING ASSOCIATION", "city": "SCHENECTADY", "state": "NY", "zip": "12309-6054", "ntee": "N70", "ruling": "202307", "deductibility": "1", "assets": 0, "income": 0, "revenue": 0}, {"ein": "862471562", "name": "WG RACING SERVICES INC", "city": "WATKINS GLEN", "state": "NY", "zip": "14891-0000", "ntee": "M24", "ruling": "202106", "deductibility": "1", "assets": 0, "income": 0, "revenue": 0}, {"ein": "870827882", "name": "NORTH AMERICAN VELOMOBILE RACING ASSOCIATION INC", "city": "BROOKLYN", "state": "NY", "zip": "11208-2621", "ntee": "O50", "ruling": "202109", "deductibility": "1", "assets": 0, "income": 0, "revenue": 0}, {"ein": "874646495", "name": "PURSUIT RACING INC", "city": "CICERO", "state": "NY", "zip": "13039-7848", "ntee": "N60", "ruling": "202301", "deductibility": "1", "assets": 2040, "income": 24143, "revenue": 24143}, {"ein": "900635108", "name": "INSPIRATIONAL TRIATHLON RACING", "city": "EAST HAMPTON", "state": "NY", "zip": "11937-0401", "ntee": "O50", "ruling": "201211", "deductibility": "1", "assets": 128617, "income": 837499, "revenue": 837499}, {"ein": "933874410", "name": "STILLWATER MECHANICVILLE ALPINE SKI RACING BOOSTER CLUB", "city": "MECHANICVILLE", "state": "NY", "zip": "12118-2124", "ntee": "O12", "ruling": "202312", "deductibility": "1", "assets": 0, "income": 0, "revenue": 0}, {"ein": "934127575", "name": "ROADKILL RACING", "city": "WILLIAMSON", "state": "NY", "zip": "14589-9109", "ntee": "N60", "ruling": "202411", "deductibility": "1", "assets": 0, "income": 0, "revenue": 0}, {"ein": "990603489", "name": "GOOD GUYS RACING INC", "city": "NEW YORK", "state": "NY", "zip": "10025-5635", "ntee": "N60", "ruling": "202409", "deductibility": "1", "assets": 0, "income": 0, "revenue": 0}, {"ein": "990940557", "name": "NEW YORK RACING CLUB INC", "city": "BROOKLYN", "state": "NY", "zip": "11226-3776", "ntee": "N60", "ruling": "202402", "deductibility": "1", "assets": 7924, "income": 48388, "revenue": 48388}, {"ein": "992318567", "name": "HEART OF HORSE RACING INC", "city": "S OZONE PARK", "state": "NY", "zip": "11420-1009", "ntee": "N01", "ruling": "202501", "deductibility": "1", "assets": 50000, "income": 50000, "revenue": 50000}], "JUMPING": [{"ein": "010731850", "name": "EASTERN SKI JUMPING & NORDIC COMBINED FOUNDATION INC", "city": "LAKE PLACID", "state": "NY", "zip": "12946-1295", "ntee": "N68", "ruling": "201206", "deductibility": "1", "assets": 0, "income": 0, "revenue": 0}], "IDA": [{"ein": "016023919", "name": "THE AARON IDA AND ABRAHAM DAVIDSON MEMORIAL FOUNDATION", "city": "BROOKLYN", "state": "NY", "zip": "11230-7201", "ntee": "", "ruling": "196706", "deductibility": "1", "assets": 157648, "income": 8350, "revenue": 0}, {"ein": "113557082", "name": "IDA ROSE CHRISTIAN OUTREACH MINISTRIES INC", "city": "BALDWIN", "state": "NY", "zip": "11510-1302", "ntee": "X21", "ruling": "200110", "deductibility": "1", "assets": 0, "income": 0, "revenue": 0}, {"ein": "136141274", "name": "IDA AND WILLIAM ROSENTHAL FOUNDATION", "city": "NEW YORK", "state": "NY", "zip": "10065-6147", "ntee": "", "ruling": "195411", "deductibility": "1", "assets": 2589492, "income": 406571, "revenue": 0}, {"ein": "141803759", "name": "MOUNT IDA PRESERVATION ASSOCIATION", "city": "TROY", "state": "NY", "zip": "12180-4332", "ntee": "C50", "ruling": "199911", "deductibility": "1", "assets": 0, "income": 0, "revenue": 0}, {"ein": "146022228", "name": "MT IDA COMMUNITY BAPTIST CHURCH", "city": "TROY", "state": "NY", "zip": "12180-4046", "ntee": "", "ruling": "195504", "deductibility": "1", "assets": 0, "income": 0, "revenue": 0}, {"ein": "161457031", "name": "LEWIS IDA COMMUNITY DEVELOPMENT CORPORATION", "city": "LOWVILLE", "state": "NY", "zip": "13367-1512", "ntee": "S30Z", "ruling": "199902", "deductibility": "1", "assets": 1, "income": 1, "revenue": 0}, {"ein": "474828639", "name": "IDA AND ROBERT GORDON FAMILY FOUNDATION INC", "city": "NEW YORK", "state": "NY", "zip": "10115-0002", "ntee": "T22", "ruling": "201604", "deductibility": "1", "assets": 10530097, "income": 4273376, "revenue": 0}, {"ein": "541828916", "name": "IDA C AND MORRIS FALK FOUNDATION", "city": "NEW YORK", "state": "NY", "zip": "10004-1564", "ntee": "T22Z", "ruling": "199708", "deductibility": "1", "assets": 5718102, "income": 658350, "revenue": 0}], "BRIAN": [{"ein": "020712462", "name": "BEDS FROM BRIAN", "city": "MIDDLEPORT", "state": "NY", "zip": "14105-9634", "ntee": "P20", "ruling": "201508", "deductibility": "1", "assets": 2485, "income": 26224, "revenue": 25174}, {"ein": "043691126", "name": "BRIAN CANNIZZARO MEMORIAL FUND INC", "city": "STATEN ISLAND", "state": "NY", "zip": "10307-1229", "ntee": "B82", "ruling": "200211", "deductibility": "1", "assets": 0, "income": 0, "revenue": 0}, {"ein": "133705915", "name": "BRIAN P FRIEDMAN FAMILY FOUNDATION INC", "city": "EAST HAMPTON", "state": "NY", "zip": "11937-8497", "ntee": "", "ruling": "199304", "deductibility": "1", "assets": 4052605, "income": 7911024, "revenue": 0}, {"ein": "133800329", "name": "BRIAN R ZIPP CHARITABLE FOUNDATION", "city": "NEW YORK", "state": "NY", "zip": "10016-0000", "ntee": "Z99Z", "ruling": "199507", "deductibility": "1", "assets": 109109, "income": 11004, "revenue": 0}, {"ein": "133967303", "name": "STEVE BRIAN KERR CHARITABLE FOUNDATION INC", "city": "GARDEN CITY", "state": "NY", "zip": "11530-1650", "ntee": "B82Z", "ruling": "199711", "deductibility": "1", "assets": 425842, "income": 58997, "revenue": 0}, {"ein": "134076626", "name": "BRIAN A DELLOMO SCHOLARSHIP FOUNDATION", "city": "STATEN ISLAND", "state": "NY", "zip": "10314-2505", "ntee": "B124", "ruling": "199910", "deductibility": "1", "assets": 9164, "income": 12064, "revenue": 0}, {"ein": "134198911", "name": "BRIAN C NOVOTNY MEMORIAL SCHOLARSHIP FUND INC", "city": "NEW CITY", "state": "NY", "zip": "10956-5951", "ntee": "B82", "ruling": "200802", "deductibility": "1", "assets": 0, "income": 0, "revenue": 0}, {"ein": "141813966", "name": "BRIAN INGBER MEMORIAL FOUNDATION INC", "city": "MIDDLETOWN", "state": "NY", "zip": "10940-0000", "ntee": "T22", "ruling": "200006", "deductibility": "1", "assets": 35989, "income": 19268, "revenue": 2702}, {"ein": "208086932", "name": "BRIAN AND NISHA HURST FAMILY FOUNDATION", "city": "MELVILLE", "state": "NY", "zip": "11747-0000", "ntee": "T22", "ruling": "200703", "deductibility": "1", "assets": 2118381, "income": 140073, "revenue": 0}, {"ein": "260020601", "name": "BRIAN MCALEESE MEMORIAL FUND", "city": "WANTAGH", "state": "NY", "zip": "11793-3151", "ntee": "T20", "ruling": "200309", "deductibility": "1", "assets": 77328, "income": 40754, "revenue": 0}, {"ein": "262804661", "name": "BRIAN A MCCARTHY FOUNDATION INC", "city": "HARRISON", "state": "NY", "zip": "10528-0000", "ntee": "T20", "ruling": "200808", "deductibility": "1", "assets": 8526380, "income": 9688213, "revenue": 0}, {"ein": "311734215", "name": "THE BRIAN J AND ROGER L PACOS MEMORIAL SCHOLARSHIP FUND", "city": "FREDONIA", "state": "NY", "zip": "14063-1657", "ntee": "B82", "ruling": "200101", "deductibility": "1", "assets": 0, "income": 0, "revenue": 0}, {"ein": "455236425", "name": "BRIAN J OMARA FOUNDATION INC", "city": "CTR MORICHES", "state": "NY", "zip": "11934-1016", "ntee": "B82", "ruling": "201312", "deductibility": "1", "assets": 25941, "income": 67221, "revenue": 0}, {"ein": "473375083", "name": "BRIAN ODOHERTY PATRICK IRELAND BARBARA NOVAK FOUNDATION INC", "city": "NEW YORK", "state": "NY", "zip": "10023-6226", "ntee": "A99", "ruling": "201603", "deductibility": "1", "assets": 259000, "income": 179000, "revenue": 0}, {"ein": "474295037", "name": "BRIAN ANDREW GEWIRTZ MEMORIAL FUND", "city": "BROOKLYN", "state": "NY", "zip": "11234-4310", "ntee": "F12", "ruling": "201506", "deductibility": "1", "assets": 0, "income": 0, "revenue": 0}, {"ein": "562418497", "name": "BRIAN MCGEE SCHOLARSHIP FUND INCORPORATED", "city": "RONKONKOMA", "state": "NY", "zip": "11779-3152", "ntee": "B82", "ruling": "200411", "deductibility": "1", "assets": 0, "income": 0, "revenue": 0}, {"ein": "812650102", "name": "BRIAN MOORE MEMORIAL FUND", "city": "MASSAPEQUA", "state": "NY", "zip": "11758-1554", "ntee": "P20", "ruling": "202205", "deductibility": "1", "assets": 217834, "income": 150130, "revenue": 87467}, {"ein": "812936119", "name": "FINDING ONES WAY THE BRIAN M LANGDON FOUNDATION INC", "city": "QUEENSBURY", "state": "NY", "zip": "12804-7867", "ntee": "T12", "ruling": "201608", "deductibility": "1", "assets": 21853, "income": 18834, "revenue": 18034}, {"ein": "823493121", "name": "THOMAS BRIAN CROWLEY MARITIME MEMORIAL FUND INC", "city": "ARDSLEY", "state": "NY", "zip": "10502-2506", "ntee": "T30", "ruling": "201712", "deductibility": "1", "assets": 0, "income": 0, "revenue": 0}, {"ein": "831504778", "name": "BRIAN M ROBINSON FOUNDATION INC", "city": "WHITE PLAINS", "state": "NY", "zip": "10605-5313", "ntee": "O12", "ruling": "201811", "deductibility": "1", "assets": 0, "income": 0, "revenue": 0}, {"ein": "832044055", "name": "BRIAN MATTHEW PLANTE FOUNDATION INC", "city": "HUNTINGTN STA", "state": "NY", "zip": "11746-1846", "ntee": "F80", "ruling": "201811", "deductibility": "1", "assets": 16472, "income": 1225, "revenue": 0}, {"ein": "834601875", "name": "DETECTIVE BRIAN SMILES SIMONSEN MEMORIAL FOUNDATION INC", "city": "CALVERTON", "state": "NY", "zip": "11933-1342", "ntee": "B82", "ruling": "201905", "deductibility": "1", "assets": 309918, "income": 196543, "revenue": 196543}, {"ein": "842402992", "name": "BRIAN S STROBELE MEMORIAL FOUNDATION INC", "city": "DEPEW", "state": "NY", "zip": "14043-1706", "ntee": "I60", "ruling": "202104", "deductibility": "1", "assets": 1371, "income": 23734, "revenue": -496}, {"ein": "881718291", "name": "THE BRIAN & HANNAH FOWLER ORGANIZATION INC", "city": "CANANDAIGUA", "state": "NY", "zip": "14424-1466", "ntee": "B25", "ruling": "202204", "deductibility": "1", "assets": 0, "income": 0, "revenue": 0}, {"ein": "992769048", "name": "BRIAN R BISCOTTI FOUNDATION INC", "city": "GLEN OAKS", "state": "NY", "zip": "11004-1310", "ntee": "A12", "ruling": "202406", "deductibility": "1", "assets": 20828, "income": 67163, "revenue": 34828}], "PEARL": [{"ein": "020715775", "name": "PEARL RESOURCES INC", "city": "ROCHESTER", "state": "NY", "zip": "14624-1368", "ntee": "E70", "ruling": "200603", "deductibility": "1", "assets": 0, "income": 0, "revenue": 0}, {"ein": "043752452", "name": "HIRSCH & PEARL REICHMAN FOUNDATION", "city": "BROOKLYN", "state": "NY", "zip": "11219-4761", "ntee": "T20", "ruling": "200305", "deductibility": "1", "assets": 328957, "income": 200072, "revenue": 0}, {"ein": "061039627", "name": "ALBERT AND PEARL GINSBERG FOUNDATION INC", "city": "NEW YORK", "state": "NY", "zip": "10016-4407", "ntee": "", "ruling": "198112", "deductibility": "1", "assets": 1215930, "income": 158848, "revenue": 0}, {"ein": "113239969", "name": "SIDNEY AND PEARL KALIKOW FOUNDATION", "city": "WESTBURY", "state": "NY", "zip": "11590-1743", "ntee": "T22J", "ruling": "199506", "deductibility": "1", "assets": 19220, "income": -619, "revenue": 0}, {"ein": "131832947", "name": "UNITED METHODIST CHURCH OF PEARL RIVER", "city": "PEARL RIVER", "state": "NY", "zip": "10965-2509", "ntee": "", "ruling": "197410", "deductibility": "0", "assets": 0, "income": 0, "revenue": 0}, {"ein": "131892640", "name": "CULTURED PEARL ASSOCIATION OF AMERICA INC", "city": "NEW YORK", "state": "NY", "zip": "10036-8109", "ntee": "", "ruling": "195912", "deductibility": "2", "assets": 81537, "income": 93143, "revenue": 93143}, {"ein": "132502528", "name": "PEARL RIVER NAURAUSHAUN SWIM CLUB INC", "city": "PEARL RIVER", "state": "NY", "zip": "10965-0042", "ntee": "", "ruling": "000000", "deductibility": "2", "assets": 913744, "income": 539523, "revenue": 539523}, {"ein": "133197774", "name": "EXCELSIOR ENG COMPANY OF PEARL RIVER NY", "city": "PEARL RIVER", "state": "NY", "zip": "10965-1735", "ntee": "", "ruling": "000000", "deductibility": "0", "assets": 3122654, "income": 295401, "revenue": 151051}, {"ein": "133531538", "name": "ROTARY SCHOLARSHIP FOUNDATION OF PEARL RIVER INC", "city": "PEARL RIVER", "state": "NY", "zip": "10965-0252", "ntee": "B82", "ruling": "201404", "deductibility": "1", "assets": 1453428, "income": 851638, "revenue": 222402}, {"ein": "133579145", "name": "JACK AND PEARL RESNICK FOUNDATION", "city": "NEW YORK", "state": "NY", "zip": "10022-1304", "ntee": "", "ruling": "199010", "deductibility": "1", "assets": 5317453, "income": 293908, "revenue": 0}, {"ein": "133818513", "name": "PEARL RIVER TEACHERS ASSOCIATION BENEFIT TRUST FUND", "city": "PEARL RIVER", "state": "NY", "zip": "10965-0000", "ntee": "", "ruling": "199608", "deductibility": "2", "assets": 107702, "income": 55825, "revenue": 55825}, {"ein": "133903122", "name": "PUTNAM EMERGENCY AND AMATEUR REPEATER LEAGUE INC PEARL", "city": "CARMEL", "state": "NY", "zip": "10512-0501", "ntee": "B90", "ruling": "200705", "deductibility": "1", "assets": 0, "income": 0, "revenue": 0}, {"ein": "133920475", "name": "PEARL RIVER GUN CLUB INC", "city": "PEARL RIVER", "state": "NY", "zip": "10965-0048", "ntee": "", "ruling": "199703", "deductibility": "2", "assets": 0, "income": 0, "revenue": 0}, {"ein": "136115917", "name": "PEARL RIVER ALUMNI AMBULANCE CORPORATION", "city": "PEARL RIVER", "state": "NY", "zip": "10965-0346", "ntee": "E62Z", "ruling": "196508", "deductibility": "1", "assets": 760541, "income": 624954, "revenue": 615333}, {"ein": "136591416", "name": "ROMER C BORST TR UW FBO PEARL RIVER HIGH SCHOOL SCHOLARSHIP FUND 2", "city": "NORWICH", "state": "NY", "zip": "13815-0000", "ntee": "", "ruling": "000000", "deductibility": "0", "assets": 24430, "income": 3433, "revenue": 0}, {"ein": "137093164", "name": "PESACH AND PEARL FELDMAN FOUNDATION", "city": "BROOKLYN", "state": "NY", "zip": "11210-4624", "ntee": "T20J", "ruling": "199610", "deductibility": "1", "assets": 752112, "income": 391322, "revenue": 0}, {"ein": "141635358", "name": "PEARL STREET COUNSELING CENTER INC", "city": "ALBANY", "state": "NY", "zip": "12207-1653", "ntee": "F22Z", "ruling": "198409", "deductibility": "1", "assets": 380466, "income": 625708, "revenue": 625708}, {"ein": "166022590", "name": "ROY & PEARL ROGERS FOUNDATION", "city": "HORNELL", "state": "NY", "zip": "14843-1670", "ntee": "", "ruling": "196305", "deductibility": "1", "assets": 114711, "income": 31749, "revenue": 0}, {"ein": "200645981", "name": "PEARL WELINSKY MERLO FOUNDATION", "city": "NEW YORK", "state": "NY", "zip": "10021-5704", "ntee": "T20", "ruling": "200603", "deductibility": "1", "assets": 420884, "income": 483400, "revenue": 0}, {"ein": "223270902", "name": "EVERETT AND PEARL GILMOUR FOUNDATION INC", "city": "NORWICH", "state": "NY", "zip": "13815-0000", "ntee": "", "ruling": "000000", "deductibility": "1", "assets": 1209093, "income": 234686, "revenue": 0}, {"ein": "223731348", "name": "FIRST KOREAN CHURCH OF PEARL RIVER", "city": "NEW CITY", "state": "NY", "zip": "10956-3832", "ntee": "X21", "ruling": "200101", "deductibility": "1", "assets": 0, "income": 0, "revenue": 0}, {"ein": "256243491", "name": "HARTMAN M PEARL T-W", "city": "AMHERST", "state": "NY", "zip": "14228-2307", "ntee": "T20", "ruling": "200508", "deductibility": "2", "assets": 287483, "income": 67211, "revenue": 0}, {"ein": "272593261", "name": "ERWIN AND SANDRA PEARL FOUNDATION", "city": "NEW YORK", "state": "NY", "zip": "10021-4157", "ntee": "T22", "ruling": "201007", "deductibility": "1", "assets": 109513, "income": 16054, "revenue": 0}, {"ein": "352490094", "name": "PEARL FOUNDATION INC", "city": "BROOKLYN", "state": "NY", "zip": "11201-1125", "ntee": "P12", "ruling": "201407", "deductibility": "1", "assets": 1000518, "income": 1637, "revenue": 0}, {"ein": "454442459", "name": "PEARL INITIATIVE INC", "city": "SCARSDALE", "state": "NY", "zip": "10583-7636", "ntee": "S41", "ruling": "201307", "deductibility": "2", "assets": 1921690, "income": 936869, "revenue": 936869}, {"ein": "510610983", "name": "PEARL AND NATHAN HALEGUA FAMILY FOUNDATION", "city": "GREAT NECK", "state": "NY", "zip": "11021-2419", "ntee": "T22", "ruling": "200701", "deductibility": "1", "assets": 824404, "income": 100141, "revenue": 0}, {"ein": "815208244", "name": "PEARL RIVER ROTARYCHARITABLE FUND", "city": "PEARL RIVER", "state": "NY", "zip": "10965-2425", "ntee": "W12", "ruling": "201703", "deductibility": "1", "assets": 33606, "income": 50058, "revenue": 26992}, {"ein": "820710925", "name": "PEARL RIVER IRISH MUSIC AND ARTS FOUNDATION INC", "city": "PEARL RIVER", "state": "NY", "zip": "10965-2425", "ntee": "A68", "ruling": "201703", "deductibility": "1", "assets": 0, "income": 0, "revenue": 0}, {"ein": "823241825", "name": "PEARL RIVER CEMETERY CORP", "city": "NANUET", "state": "NY", "zip": "10954-0804", "ntee": "Y50", "ruling": "201805", "deductibility": "1", "assets": 0, "income": 0, "revenue": 0}, {"ein": "830972521", "name": "LUCKY PEARL INTERIORS INC", "city": "BROOKLYN", "state": "NY", "zip": "11201-4404", "ntee": "S31", "ruling": "201904", "deductibility": "1", "assets": 0, "income": 0, "revenue": 0}, {"ein": "834093665", "name": "PEARL RIVER ATTACK CLUB INC", "city": "NANUET", "state": "NY", "zip": "10954-3742", "ntee": "B11", "ruling": "201904", "deductibility": "1", "assets": 0, "income": 0, "revenue": 0}, {"ein": "861438933", "name": "KEREN YEHUDAH AND PEARL FOUNDATION INC", "city": "BROOKLYN", "state": "NY", "zip": "11204-2927", "ntee": "X30", "ruling": "202203", "deductibility": "1", "assets": 332916, "income": 100000, "revenue": 0}, {"ein": "923695396", "name": "PEARL YOUNG FOOD PANTRY INC", "city": "BUFFALO", "state": "NY", "zip": "14204-1003", "ntee": "K31", "ruling": "202306", "deductibility": "1", "assets": 0, "income": 0, "revenue": 0}, {"ein": "932519224", "name": "PEARL MAE WATSON ARTS EDUCATION FOUNDATION INC", "city": "BROOKLYN", "state": "NY", "zip": "11203-5001", "ntee": "A12", "ruling": "202309", "deductibility": "1", "assets": 0, "income": 0, "revenue": 0}, {"ein": "991575235", "name": "PEARL HEINLEIN FOUNDATION INC", "city": "BRIGHTWATERS", "state": "NY", "zip": "11718-1613", "ntee": "T31", "ruling": "202404", "deductibility": "1", "assets": 0, "income": 0, "revenue": 0}], "STEWARD": [{"ein": "020757008", "name": "COASTAL STEWARD INC", "city": "PORT JEFF STA", "state": "NY", "zip": "11776-5003", "ntee": "C200", "ruling": "200706", "deductibility": "1", "assets": 8637, "income": 46629, "revenue": 46629}, {"ein": "113523841", "name": "STEWARD GROUP INC", "city": "BELLEROSE", "state": "NY", "zip": "11426-2746", "ntee": "L25", "ruling": "200103", "deductibility": "1", "assets": 0, "income": 0, "revenue": 0}], "FRANZA": [{"ein": "030380168", "name": "ART OF FRANZA INC", "city": "NEW YORK", "state": "NY", "zip": "10024-3214", "ntee": "A20", "ruling": "200204", "deductibility": "1", "assets": 0, "income": 0, "revenue": 0}], "CHIEFS": [{"ein": "030439386", "name": "NEW YORK POLICE CHIEFS FOUNDATION INC", "city": "WHITE PLAINS", "state": "NY", "zip": "10607-1849", "ntee": "T30", "ruling": "201501", "deductibility": "1", "assets": 8072, "income": 86209, "revenue": 86209}, {"ein": "061167884", "name": "POLICE CHIEFS ASSOCIATION OF ORANGE COUNTY INC", "city": "GOSHEN", "state": "NY", "zip": "10924-0915", "ntee": "I60", "ruling": "200711", "deductibility": "2", "assets": 330986, "income": 324476, "revenue": 324476}, {"ein": "061750857", "name": "SMITHTOWN FIRE CHIEFS ORGANIZATION INC", "city": "SMITHTOWN", "state": "NY", "zip": "11787-0959", "ntee": "M20", "ruling": "200512", "deductibility": "1", "assets": 32841, "income": 32620, "revenue": -709}, {"ein": "112453960", "name": "WEST HEMPSTEAD CHIEFS SOCCER CLUB INC", "city": "MALVERNE", "state": "NY", "zip": "11565-1722", "ntee": "", "ruling": "197906", "deductibility": "2", "assets": 11708, "income": 139708, "revenue": 139708}, {"ein": "112514651", "name": "PAST CHIEFS OF THE FIRE COMPANY OF EAST FARMINGDALE INC", "city": "FARMINGDALE", "state": "NY", "zip": "11735-2413", "ntee": "M24", "ruling": "201409", "deductibility": "1", "assets": 0, "income": 0, "revenue": 0}, {"ein": "112707595", "name": "FIRE CHIEFS COUNCIL OF SUFFOLK COUNTY INC", "city": "WEST SAYVILLE", "state": "NY", "zip": "11796-1319", "ntee": "M19", "ruling": "200108", "deductibility": "2", "assets": 43323, "income": 69171, "revenue": 48317}, {"ein": "112828281", "name": "FIRE CHIEFS ASSOCIATION FIRE DEPARTMENT CITY OF NEW YORK", "city": "JAMAICA", "state": "NY", "zip": "11431-3091", "ntee": "M24", "ruling": "201903", "deductibility": "1", "assets": 0, "income": 0, "revenue": 0}, {"ein": "113067160", "name": "NASSAU COUNTY MUNICIPAL POLICE CHIEFS ASSOC INC", "city": "GARDEN CITY", "state": "NY", "zip": "11530-4529", "ntee": "S41", "ruling": "200112", "deductibility": "2", "assets": 46829, "income": 75060, "revenue": 40780}, {"ein": "133158691", "name": "MID-HUDSON ASSOCIATION OF CHIEFS OF POLICE INC", "city": "POUGHKEEPSIE", "state": "NY", "zip": "12601-0622", "ntee": "M03", "ruling": "201504", "deductibility": "2", "assets": 0, "income": 0, "revenue": 0}, {"ein": "133251425", "name": "WESTCHESTER COUNTY POLICE CHIEFS ASSOCATION INC", "city": "PUTNAM VALLEY", "state": "NY", "zip": "10579-2901", "ntee": "P99", "ruling": "200003", "deductibility": "1", "assets": 208264, "income": 90673, "revenue": 74973}, {"ein": "133538231", "name": "NEW YORK STATE HONORARY FIRE CHIEFS ASSOCIATION INC", "city": "NEW YORK", "state": "NY", "zip": "10010-4617", "ntee": "W70Z", "ruling": "199605", "deductibility": "1", "assets": 278876, "income": 190669, "revenue": 190669}, {"ein": "133604504", "name": "UNIFORMED SANITATION CHIEFS ASSOCIA TION", "city": "NEW YORK", "state": "NY", "zip": "10013-0868", "ntee": "J40", "ruling": "200603", "deductibility": "2", "assets": 350258, "income": 124247, "revenue": 124247}, {"ein": "160838779", "name": "NEW YORK STATE ASSOCIATION OF CHIEFS OF POLICE INC", "city": "ROCHESTER", "state": "NY", "zip": "14612-3094", "ntee": "", "ruling": "196411", "deductibility": "2", "assets": 1164136, "income": 983255, "revenue": 869480}, {"ein": "161270810", "name": "WESTERN NEW YORK ASSOCIATION OF CHIEFS OF POLICE INC", "city": "WYOMING", "state": "NY", "zip": "14591-9408", "ntee": "S40", "ruling": "201905", "deductibility": "2", "assets": 0, "income": 0, "revenue": 0}, {"ein": "203440494", "name": "WESTCHESTER COUNTY ASSOCIATION OF FIRE CHIEFS", "city": "PURCHASE", "state": "NY", "zip": "10577-0508", "ntee": "M01", "ruling": "202312", "deductibility": "1", "assets": 0, "income": 0, "revenue": 0}, {"ein": "205289899", "name": "FIFTH BATTALION CHIEFS ORGANIZATION", "city": "GLEN COVE", "state": "NY", "zip": "11542-3919", "ntee": "S80", "ruling": "200610", "deductibility": "2", "assets": 0, "income": 0, "revenue": 0}, {"ein": "222541420", "name": "LIVINGSTON COUNTY FIRE CHIEFS ASSOCIATION INC", "city": "DANSVILLE", "state": "NY", "zip": "14437-1336", "ntee": "M032", "ruling": "200810", "deductibility": "2", "assets": 0, "income": 0, "revenue": 0}, {"ein": "222544809", "name": "MONROE COUNTY ASSOCIATION OF POLICE CHIEFS INC", "city": "EAST ROCHESTER", "state": "NY", "zip": "14445-1727", "ntee": "", "ruling": "199704", "deductibility": "2", "assets": 46818, "income": 46992, "revenue": 15435}, {"ein": "222571250", "name": "TOWN OF HAMBURG FIRE CHIEFS ASSOCIATION INC", "city": "HAMBURG", "state": "NY", "zip": "14075-3766", "ntee": "M24", "ruling": "200810", "deductibility": "1", "assets": 363248, "income": 98309, "revenue": 98309}, {"ein": "222776076", "name": "CENTRAL NEW YORK ASSOCIATION OF CHIEFS OF POLICE INC", "city": "SYRACUSE", "state": "NY", "zip": "13219-1748", "ntee": "", "ruling": "198710", "deductibility": "1", "assets": 0, "income": 0, "revenue": 0}, {"ein": "222941083", "name": "ONONDAGA COUNTY CHAPTER OF CHIEFS OF POLICE INC", "city": "SYRACUSE", "state": "NY", "zip": "13209-1545", "ntee": "", "ruling": "198901", "deductibility": "2", "assets": 0, "income": 0, "revenue": 0}, {"ein": "300893845", "name": "BROOME COUNTY FIRE CHIEFS INC", "city": "BINGHAMTON", "state": "NY", "zip": "13905-0000", "ntee": "M40", "ruling": "201602", "deductibility": "1", "assets": 9334, "income": 6625, "revenue": 6625}, {"ein": "300970948", "name": "OTSEGO COUNTY FIRE CHIEFS ASSOCIATION", "city": "RICHFIELD SPRINGS", "state": "NY", "zip": "13439-0000", "ntee": "M02", "ruling": "201802", "deductibility": "2", "assets": 0, "income": 0, "revenue": 0}, {"ein": "320685812", "name": "NEW YORK POLICE CHIEFS BENEVOLENT ASSOCIATION INC", "city": "N BELLMORE", "state": "NY", "zip": "11710-1100", "ntee": "J40", "ruling": "202312", "deductibility": "0", "assets": 0, "income": 0, "revenue": 0}, {"ein": "453957074", "name": "SOUTH SHORE CHIEFS INC", "city": "MASSAPEQUA PK", "state": "NY", "zip": "11762-1301", "ntee": "N63", "ruling": "201406", "deductibility": "1", "assets": 27556, "income": 97861, "revenue": 97861}, {"ein": "461425963", "name": "ISLIP TOWN FIRE CHIEFS COUNCIL INC", "city": "ISLIP TERRACE", "state": "NY", "zip": "11752-1507", "ntee": "M40", "ruling": "201407", "deductibility": "2", "assets": 0, "income": 0, "revenue": 0}, {"ein": "462048203", "name": "TOWN OF BABYLON FIRE CHIEFS RELIEF ORGANIZATION INC", "city": "LINDENHURST", "state": "NY", "zip": "11757-2512", "ntee": "P20", "ruling": "201410", "deductibility": "1", "assets": 0, "income": 0, "revenue": 0}, {"ein": "462069630", "name": "TOWN OF BABYLON FIRE CHIEFS ASSOCIATION INC", "city": "AMITYVILLE", "state": "NY", "zip": "11701-2246", "ntee": "M12", "ruling": "201408", "deductibility": "2", "assets": 0, "income": 0, "revenue": 0}, {"ein": "562380373", "name": "CHIEFS OF POLICE ASSOCIATION OF SUFFOLK COUNTY", "city": "SHELTER IS", "state": "NY", "zip": "11964-1056", "ntee": "P20", "ruling": "200311", "deductibility": "2", "assets": 0, "income": 0, "revenue": 0}, {"ein": "760845651", "name": "ONTARIO COUNTY FIRE CHIEFS ASSOCIATION", "city": "CLIFTON SPGS", "state": "NY", "zip": "14432-1046", "ntee": "B90", "ruling": "200806", "deductibility": "2", "assets": 0, "income": 0, "revenue": 0}, {"ein": "800265178", "name": "POLICE CHIEFS ASSOCIATION OF ROCKLAND COUNTY", "city": "NEW CITY", "state": "NY", "zip": "10956-0000", "ntee": "S41", "ruling": "200901", "deductibility": "2", "assets": 30930, "income": 16291, "revenue": 16291}, {"ein": "843739287", "name": "TOWN OF GLENVILLE FIRE CHIEFS ASSOCIATION", "city": "GLENVILLE", "state": "NY", "zip": "12325-0863", "ntee": "M24", "ruling": "202303", "deductibility": "1", "assets": 0, "income": 0, "revenue": 0}, {"ein": "853248294", "name": "OSSINING DEPUTY CHIEFS ASSOCIATION INC", "city": "OSSINING", "state": "NY", "zip": "10562-4609", "ntee": "P20", "ruling": "202105", "deductibility": "1", "assets": 0, "income": 0, "revenue": 0}, {"ein": "861057788", "name": "THE BROOKLYN CHIEFS INC", "city": "BROOKLYN", "state": "NY", "zip": "11236-4333", "ntee": "N65", "ruling": "201407", "deductibility": "1", "assets": 0, "income": 0, "revenue": 0}, {"ein": "900618610", "name": "SHAWNEE SNO-CHIEFS INC", "city": "SANBORN", "state": "NY", "zip": "14132-7099", "ntee": "N32", "ruling": "201811", "deductibility": "1", "assets": 311542, "income": 39709, "revenue": 35529}, {"ein": "922844859", "name": "MONROE COUNTY EMS CHIEFS ASSOCIATION", "city": "HENRIETTA", "state": "NY", "zip": "14623-0000", "ntee": "E62", "ruling": "202412", "deductibility": "2", "assets": 0, "income": 0, "revenue": 0}, {"ein": "994664663", "name": "SUFFOLK COUNTY FIRE CHIEFS SCHOLARSHIP FUND INC", "city": "WEST SAYVILLE", "state": "NY", "zip": "11796-1319", "ntee": "B82", "ruling": "202506", "deductibility": "1", "assets": 0, "income": 0, "revenue": 0}], "THIDE": [{"ein": "030551494", "name": "CHARLES THIDE FOUNDATION INC", "city": "SAINT JAMES", "state": "NY", "zip": "11780-0565", "ntee": "E86", "ruling": "200603", "deductibility": "1", "assets": 24523, "income": 32502, "revenue": 25534}], "TWIN": [{"ein": "050592887", "name": "DOWN SYNDROME INFORMATION NETWORK OF THE TWIN TIERS", "city": "CORNING", "state": "NY", "zip": "14830-0408", "ntee": "G25", "ruling": "200412", "deductibility": "1", "assets": 0, "income": 0, "revenue": 0}, {"ein": "119623334", "name": "TWIN COUNTY SPORTSMENS ASSOC INC", "city": "WALWORTH", "state": "NY", "zip": "14568-9567", "ntee": "", "ruling": "197609", "deductibility": "2", "assets": 0, "income": 0, "revenue": 0}, {"ein": "132939922", "name": "TWIN OAKS SWIM & TENNIS CLUB INC", "city": "CHAPPAQUA", "state": "NY", "zip": "10514-0429", "ntee": "", "ruling": "197808", "deductibility": "2", "assets": 841118, "income": 40163, "revenue": 40163}, {"ein": "141556542", "name": "TWIN COUNTY RECOVERY SERVICES INC", "city": "HUDSON", "state": "NY", "zip": "12534-2447", "ntee": "", "ruling": "197603", "deductibility": "1", "assets": 4873044, "income": 6280370, "revenue": 6280370}, {"ein": "141590401", "name": "TWIN LAKES SPORTSMENS ASSN INC", "city": "FISHKILL", "state": "NY", "zip": "12524-3022", "ntee": "N50", "ruling": "201407", "deductibility": "2", "assets": 0, "income": 0, "revenue": 0}, {"ein": "141770039", "name": "TWIN BRIDGE PLAYSCHOOL INC", "city": "LIBERTY", "state": "NY", "zip": "12754-3112", "ntee": "P33Z", "ruling": "199509", "deductibility": "1", "assets": 104814, "income": 434959, "revenue": 434959}, {"ein": "160707766", "name": "TWIN VILLAGE VETERANS ASSOCIATION", "city": "DEPEW", "state": "NY", "zip": "14043-3242", "ntee": "", "ruling": "197203", "deductibility": "1", "assets": 0, "income": 0, "revenue": 0}, {"ein": "160767225", "name": "YOUNG WOMENS CHRISTIAN ASSOCIATION OF ELMIRA AND THE TWIN TIERS", "city": "ELMIRA", "state": "NY", "zip": "14901-3108", "ntee": "P27Z", "ruling": "193404", "deductibility": "1", "assets": 1250997, "income": 1624192, "revenue": 1616401}, {"ein": "161069397", "name": "TWIN TIERS CHRISTIAN ACADEMY", "city": "BREESPORT", "state": "NY", "zip": "14816-0510", "ntee": "B20", "ruling": "198710", "deductibility": "1", "assets": 0, "income": 0, "revenue": 0}, {"ein": "161185054", "name": "TWIN CITY QUILTERS GUILD", "city": "SANBORN", "state": "NY", "zip": "14132-9250", "ntee": "B99", "ruling": "201708", "deductibility": "1", "assets": 0, "income": 0, "revenue": 0}, {"ein": "161388698", "name": "TWIN RIVERS TRACK CLUB", "city": "CAMPBELL", "state": "NY", "zip": "14821-9788", "ntee": "", "ruling": "199209", "deductibility": "1", "assets": 0, "income": 0, "revenue": 0}, {"ein": "161562220", "name": "JEWISH CENTER AND FEDERATION OF THE TWIN TIERS INC", "city": "ELMIRA", "state": "NY", "zip": "14905-2004", "ntee": "X21", "ruling": "200003", "deductibility": "1", "assets": 1860495, "income": 964349, "revenue": 155588}, {"ein": "161598005", "name": "TWIN TIERS ECONOMIC DEVELOPMENT INC", "city": "ELMIRA", "state": "NY", "zip": "14901-2834", "ntee": "S30", "ruling": "200104", "deductibility": "1", "assets": 1128136, "income": 103000, "revenue": 103000}, {"ein": "161601115", "name": "TWIN CITY DENTAL SOCIETY INC", "city": "TONAWANDA", "state": "NY", "zip": "14150-3946", "ntee": "W03", "ruling": "201202", "deductibility": "2", "assets": 0, "income": 0, "revenue": 0}, {"ein": "161670525", "name": "CALVARY CHAPEL OF THE TWIN TIERS", "city": "HORSEHEADS", "state": "NY", "zip": "14845-2139", "ntee": "X21", "ruling": "200502", "deductibility": "1", "assets": 0, "income": 0, "revenue": 0}, {"ein": "166034932", "name": "TWIN CITY CATHOLIC CLUB INC", "city": "TONAWANDA", "state": "NY", "zip": "14150-3852", "ntee": "Y42", "ruling": "201908", "deductibility": "1", "assets": 8513, "income": 11087, "revenue": 11087}, {"ein": "200872622", "name": "TWIN PARKS CHILDRENS FOUNDATION INC", "city": "NEW YORK", "state": "NY", "zip": "10025-7664", "ntee": "B82", "ruling": "201407", "deductibility": "1", "assets": 49524, "income": 70639, "revenue": 70639}, {"ein": "203574241", "name": "CHALLENGER LEARNING CENTER OF THE TWIN TIER REGION INC", "city": "ALLEGANY", "state": "NY", "zip": "14706-1333", "ntee": "B99", "ruling": "200605", "deductibility": "1", "assets": 617373, "income": 158932, "revenue": 154078}, {"ein": "222136571", "name": "TWIN CITIES MEALS ON WHEELS", "city": "NORTH TONAWANDA", "state": "NY", "zip": "14120-3349", "ntee": "K36Z", "ruling": "199402", "deductibility": "1", "assets": 121245, "income": 276257, "revenue": 201556}, {"ein": "222348211", "name": "TWIN TIER HOME HEALTH INC", "city": "JOHNSON CITY", "state": "NY", "zip": "13790-2544", "ntee": "E92Z", "ruling": "198106", "deductibility": "1", "assets": 4934070, "income": 8211908, "revenue": 8211908}, {"ein": "223068669", "name": "TWIN CITIES COMMUNITY OUTREACH INC", "city": "N TONAWANDA", "state": "NY", "zip": "14120-3349", "ntee": "", "ruling": "199109", "deductibility": "1", "assets": 739642, "income": 34576, "revenue": 34576}, {"ein": "237384210", "name": "TWIN DISTRICT VOLUNTEER FIRE COMPANY INC", "city": "LANCASTER", "state": "NY", "zip": "14086-9665", "ntee": "M24Z", "ruling": "199505", "deductibility": "1", "assets": 5913775, "income": 1213816, "revenue": 1213816}, {"ein": "311686728", "name": "TWIN TIERS BIBLE FELLOWSHIP", "city": "BINGHAMTON", "state": "NY", "zip": "13905-4621", "ntee": "X20", "ruling": "200003", "deductibility": "1", "assets": 0, "income": 0, "revenue": 0}, {"ein": "452536101", "name": "TWIN OAKS HORSE SANCTUARY INC", "city": "LAKE GROVE", "state": "NY", "zip": "11755-0284", "ntee": "D20", "ruling": "201504", "deductibility": "1", "assets": 50169, "income": 75985, "revenue": 75236}, {"ein": "454145292", "name": "TWIN TOWN WARRIORS TRAVEL BASEBALL", "city": "WYNANTSKILL", "state": "NY", "zip": "12198-0494", "ntee": "N63", "ruling": "201509", "deductibility": "1", "assets": 61999, "income": 116603, "revenue": 95805}, {"ein": "455399725", "name": "TWIN TIERS EPC", "city": "BIG FLATS", "state": "NY", "zip": "14814-8903", "ntee": "X21", "ruling": "198205", "deductibility": "1", "assets": 0, "income": 0, "revenue": 0}, {"ein": "455614866", "name": "TWIN TIERS HONOR FLIGHT", "city": "BINGHAMTON", "state": "NY", "zip": "13902-1770", "ntee": "W30", "ruling": "201411", "deductibility": "1", "assets": 83781, "income": 0, "revenue": 0}, {"ein": "464623445", "name": "TWIN CITIES CAMERA CLUB OF WESTERN NEW YORK INC", "city": "LOCKPORT", "state": "NY", "zip": "14094-9086", "ntee": "A40", "ruling": "201408", "deductibility": "2", "assets": 0, "income": 0, "revenue": 0}, {"ein": "472864057", "name": "BINGHAMTON TWIN TIERS CHURCH OF CHRIST", "city": "JOHNSON CITY", "state": "NY", "zip": "13790-1935", "ntee": "X20", "ruling": "201601", "deductibility": "1", "assets": 0, "income": 0, "revenue": 0}, {"ein": "473028931", "name": "TWIN RIVERS MEDICAL PC", "city": "HOOSICK FALLS", "state": "NY", "zip": "12090-1226", "ntee": "E32", "ruling": "201709", "deductibility": "1", "assets": 379908, "income": 1921416, "revenue": 1921416}, {"ein": "510182828", "name": "TWIN TIERS CHRISTIAN CHURCH INC", "city": "HORSEHEADS", "state": "NY", "zip": "14845-0259", "ntee": "", "ruling": "197603", "deductibility": "1", "assets": 0, "income": 0, "revenue": 0}, {"ein": "822370763", "name": "TWIN TO TWIN BUTTERFLY FUND", "city": "MUNNSVILLE", "state": "NY", "zip": "13409-3612", "ntee": "B99", "ruling": "202004", "deductibility": "1", "assets": 0, "income": 0, "revenue": 0}, {"ein": "823039626", "name": "TWIN RIVERS COUNCIL-PACK 2253", "city": "CASTLETON", "state": "NY", "zip": "12033-9643", "ntee": "O41", "ruling": "201801", "deductibility": "1", "assets": 0, "income": 0, "revenue": 0}, {"ein": "825237320", "name": "TWIN BRIDGES ROTARY FOUNDATION INC", "city": "CLIFTON PARK", "state": "NY", "zip": "12065-0109", "ntee": "S80", "ruling": "201901", "deductibility": "1", "assets": 0, "income": 0, "revenue": 0}, {"ein": "825482815", "name": "TWIN ISLAND LAKE ASSOCIATION INC", "city": "PINE PLAINS", "state": "NY", "zip": "12567-0554", "ntee": "C30", "ruling": "201805", "deductibility": "1", "assets": 0, "income": 0, "revenue": 0}, {"ein": "832833198", "name": "TWIN TIERS BABY BANK", "city": "PAINTED POST", "state": "NY", "zip": "14870-1346", "ntee": "P30", "ruling": "201904", "deductibility": "1", "assets": 0, "income": 0, "revenue": 0}, {"ein": "833838580", "name": "TWIN CITIES FOOD CUPBOARD INC", "city": "MANCHESTER", "state": "NY", "zip": "14504-0183", "ntee": "K31", "ruling": "201906", "deductibility": "1", "assets": 0, "income": 0, "revenue": 0}, {"ein": "900737555", "name": "TWIN LAKES IMPROVEMENT ASSOCIATION", "city": "ELIZAVILLE", "state": "NY", "zip": "12523-0000", "ntee": "", "ruling": "000000", "deductibility": "0", "assets": 0, "income": 0, "revenue": 0}], "CHIANG": [{"ein": "050613835", "name": "Y C HO HELEN & MICHAEL CHIANG FOUNDATION", "city": "NEW YORK", "state": "NY", "zip": "10167-0000", "ntee": "T22", "ruling": "200705", "deductibility": "1", "assets": 81210224, "income": 10985417, "revenue": 0}], "CHORUS": [{"ein": "061271404", "name": "HARRISON CHORUS PARENTS ASSOCIATION", "city": "HARRISON", "state": "NY", "zip": "10528-1602", "ntee": "B111", "ruling": "201411", "deductibility": "1", "assets": 0, "income": 0, "revenue": 0}, {"ein": "061525659", "name": "GLASS MENAGERIE A DOWNTOWN COMMUNITY CHORUS", "city": "NEW YORK", "state": "NY", "zip": "10003-4342", "ntee": "A60", "ruling": "199904", "deductibility": "1", "assets": 17609, "income": 31311, "revenue": 30511}, {"ein": "112490264", "name": "BROOKLYN CONTEMPORARY CHORUS INC", "city": "BROOKLYN", "state": "NY", "zip": "11205-4748", "ntee": "", "ruling": "198111", "deductibility": "1", "assets": 0, "income": 0, "revenue": 0}, {"ein": "112576660", "name": "HUNTINGTON MENS CHORUS INC", "city": "HUNTINGTON", "state": "NY", "zip": "11743-0763", "ntee": "A6B", "ruling": "198110", "deductibility": "1", "assets": 55891, "income": 45490, "revenue": 45490}, {"ein": "112789434", "name": "THE SUFFOLK COUNTY SENIOR CITIZENS CHORUS INC", "city": "NESCONSET", "state": "NY", "zip": "11767-0189", "ntee": "", "ruling": "198602", "deductibility": "1", "assets": 0, "income": 0, "revenue": 0}, {"ein": "113129249", "name": "BROOKLYN YOUTH CHORUS ACADEMY INC", "city": "BROOKLYN", "state": "NY", "zip": "11201-6213", "ntee": "A6B0", "ruling": "199302", "deductibility": "1", "assets": 5870949, "income": 8989401, "revenue": 4106574}, {"ein": "113210752", "name": "LONG ISLAND PRIDE CHORUS INC", "city": "MEDFORD", "state": "NY", "zip": "11763-0000", "ntee": "A66B", "ruling": "199602", "deductibility": "1", "assets": 0, "income": 0, "revenue": 0}, {"ein": "113372980", "name": "YOUNG PEOPLES CHORUS OF NEW YORK CITY INC", "city": "NEW YORK", "state": "NY", "zip": "10023-6610", "ntee": "A6B", "ruling": "199708", "deductibility": "1", "assets": 8417238, "income": 7906595, "revenue": 7458020}, {"ein": "132874841", "name": "UKRAINIAN CHORUS DUMKA OF AMERICA INC", "city": "NEW YORK", "state": "NY", "zip": "10003-8305", "ntee": "A6B0", "ruling": "197611", "deductibility": "1", "assets": 307809, "income": 410079, "revenue": 410079}, {"ein": "133679135", "name": "CENTRAL CITY CHORUS INC", "city": "NEW YORK", "state": "NY", "zip": "10024-2707", "ntee": "", "ruling": "199304", "deductibility": "1", "assets": 69460, "income": 67526, "revenue": 67526}, {"ein": "133955230", "name": "BRONX COMMUNITY CHORUS INC", "city": "FOREST HILLS", "state": "NY", "zip": "11375-2247", "ntee": "A6B", "ruling": "199711", "deductibility": "1", "assets": 0, "income": 0, "revenue": 0}, {"ein": "134156243", "name": "NEW YORK CITY LABOR CHORUS INC", "city": "NEW YORK", "state": "NY", "zip": "10159-0002", "ntee": "A6C", "ruling": "200301", "deductibility": "1", "assets": 35176, "income": 25602, "revenue": 25602}, {"ein": "141627616", "name": "MID HUDSON WOMENS CHORUS", "city": "STONE RIDGE", "state": "NY", "zip": "12484-5115", "ntee": "", "ruling": "198202", "deductibility": "1", "assets": 0, "income": 0, "revenue": 0}, {"ein": "161429466", "name": "SYRACUSE GAY & LESBIAN CHORUS INC", "city": "SYRACUSE", "state": "NY", "zip": "13202-2608", "ntee": "A6BZ", "ruling": "199304", "deductibility": "1", "assets": 0, "income": 0, "revenue": 0}, {"ein": "161463396", "name": "CHAUTAUQUA YOUTH CHORUS INC", "city": "FREDONIA", "state": "NY", "zip": "14063-0000", "ntee": "A6BJ", "ruling": "199606", "deductibility": "1", "assets": 0, "income": 0, "revenue": 0}, {"ein": "161522574", "name": "NEIMAH JEWISH COMMUNITY CHORUS INC", "city": "CLIFTON PARK", "state": "NY", "zip": "12065-5102", "ntee": "A60", "ruling": "199808", "deductibility": "1", "assets": 0, "income": 0, "revenue": 0}, {"ein": "161604608", "name": "BUFFALO GAY MENS CHORUS INC", "city": "BUFFALO", "state": "NY", "zip": "14207-2913", "ntee": "A6B", "ruling": "200202", "deductibility": "1", "assets": 27759, "income": 77345, "revenue": 67969}, {"ein": "201090906", "name": "NEW YORK AFRICAN CHORUS ENSEMBLE INC", "city": "NEW YORK", "state": "NY", "zip": "10031-2216", "ntee": "A6B", "ruling": "200607", "deductibility": "1", "assets": 36752, "income": 204220, "revenue": 204220}, {"ein": "208451114", "name": "UNCLE YAO S CHORUS INC", "city": "FLUSHING", "state": "NY", "zip": "11354-3013", "ntee": "A23", "ruling": "200907", "deductibility": "1", "assets": 0, "income": 0, "revenue": 0}, {"ein": "208693738", "name": "GRAND ISLAND COMMUNITY CHORUS INC", "city": "GRAND ISLAND", "state": "NY", "zip": "14072-2420", "ntee": "A6B", "ruling": "201607", "deductibility": "1", "assets": 0, "income": 0, "revenue": 0}, {"ein": "222137911", "name": "ENDWELL COMMUNITY CHORUS ENDWELL", "city": "VESTAL", "state": "NY", "zip": "13850-5620", "ntee": "", "ruling": "197702", "deductibility": "1", "assets": 0, "income": 0, "revenue": 0}, {"ein": "222213596", "name": "SULLIVAN COUNTY COMMUNITY CHORUS INC", "city": "LIVINGSTN MNR", "state": "NY", "zip": "12758-5105", "ntee": "", "ruling": "197810", "deductibility": "1", "assets": 0, "income": 0, "revenue": 0}, {"ein": "222380725", "name": "GENESEE VALLEY ORCHESTRA AND CHORUS INC", "city": "FAIRPORT", "state": "NY", "zip": "14450-0177", "ntee": "A68Z", "ruling": "198201", "deductibility": "1", "assets": 18275, "income": 33978, "revenue": 33978}, {"ein": "222572760", "name": "ROCHESTER GAY MENS CHORUS INC", "city": "ROCHESTER", "state": "NY", "zip": "14614-1214", "ntee": "", "ruling": "198601", "deductibility": "1", "assets": 33624, "income": 99831, "revenue": 99831}, {"ein": "222723310", "name": "GENESEE VALLEY CHORUS", "city": "BELMONT", "state": "NY", "zip": "14813-9797", "ntee": "A6B", "ruling": "198703", "deductibility": "1", "assets": 0, "income": 0, "revenue": 0}, {"ein": "223798288", "name": "POTSDAM COMMUNITY CHORUS INC", "city": "POTSDAM", "state": "NY", "zip": "13676-1816", "ntee": "A6B", "ruling": "201612", "deductibility": "1", "assets": 0, "income": 0, "revenue": 0}, {"ein": "237216596", "name": "MOHAWK VALLEY CHORUS INC", "city": "AMSTERDAM", "state": "NY", "zip": "12010-0612", "ntee": "", "ruling": "197207", "deductibility": "1", "assets": 0, "income": 0, "revenue": 0}, {"ein": "237438520", "name": "BUFFALO PHILHARMONIC CHORUS", "city": "BUFFALO", "state": "NY", "zip": "14202-1871", "ntee": "", "ruling": "197503", "deductibility": "1", "assets": 1299928, "income": 254992, "revenue": 254992}, {"ein": "260405222", "name": "SHELTER ISLAND COMMUNITY CHORUS INC", "city": "SHELTER IS", "state": "NY", "zip": "11964-1571", "ntee": "A6B", "ruling": "200707", "deductibility": "1", "assets": 0, "income": 0, "revenue": 0}, {"ein": "263521502", "name": "LONG ISLAND GAY MENS CHORUS", "city": "SELDEN", "state": "NY", "zip": "11784-0006", "ntee": "A6B", "ruling": "201512", "deductibility": "1", "assets": 0, "income": 0, "revenue": 0}, {"ein": "264278331", "name": "SYMPHONY CHORUS", "city": "NEW YORK", "state": "NY", "zip": "10163-0951", "ntee": "A69", "ruling": "201510", "deductibility": "1", "assets": 27293, "income": 60691, "revenue": 60691}, {"ein": "271178031", "name": "LOWVILLE COMMUNITY CHORUS", "city": "LOWVILLE", "state": "NY", "zip": "13367-1420", "ntee": "A68", "ruling": "201405", "deductibility": "1", "assets": 0, "income": 0, "revenue": 0}, {"ein": "273694969", "name": "BULGARIAN CHILDRENS CHORUS AND SCHOOL GERGANA INC", "city": "NEW YORK", "state": "NY", "zip": "10029-4551", "ntee": "B20", "ruling": "201206", "deductibility": "1", "assets": 57166, "income": 193758, "revenue": 193758}, {"ein": "274546212", "name": "BROOKLYN COMMUNITY CHORUS", "city": "BROOKLYN", "state": "NY", "zip": "11225-2706", "ntee": "A6B", "ruling": "201712", "deductibility": "1", "assets": 0, "income": 0, "revenue": 0}, {"ein": "311614387", "name": "ROCHESTER WOMENS COMMUNITY CHORUS INC", "city": "ROCHESTER", "state": "NY", "zip": "14614-1214", "ntee": "A6B", "ruling": "199901", "deductibility": "1", "assets": 0, "income": 0, "revenue": 0}, {"ein": "311803609", "name": "KEYNOTE CHORUS", "city": "PORTVILLE", "state": "NY", "zip": "14770-0087", "ntee": "A6B", "ruling": "200202", "deductibility": "1", "assets": 0, "income": 0, "revenue": 0}, {"ein": "333451136", "name": "KOREA FOUNDATION MUSIC CHORUS INC", "city": "LYNBROOK", "state": "NY", "zip": "11563-1425", "ntee": "P99", "ruling": "202502", "deductibility": "1", "assets": 0, "income": 0, "revenue": 0}, {"ein": "364420273", "name": "YOUNG NEW YORKERS CHORUS", "city": "NEW YORK", "state": "NY", "zip": "10019-5708", "ntee": "A6B", "ruling": "200308", "deductibility": "1", "assets": 119974, "income": 99439, "revenue": 96851}, {"ein": "364690498", "name": "CHORUS OF ARMS INC", "city": "QUEENS", "state": "NY", "zip": "11427-1946", "ntee": "L40", "ruling": "201305", "deductibility": "1", "assets": 0, "income": 0, "revenue": 0}, {"ein": "421595480", "name": "BETTER WORLD CHORUS", "city": "NEW YORK", "state": "NY", "zip": "10025-6631", "ntee": "A68", "ruling": "200311", "deductibility": "1", "assets": 0, "income": 0, "revenue": 0}, {"ein": "451011904", "name": "MILAREPA CHILDRENS THEATER AND CHORUS", "city": "WHITE PLAINS", "state": "NY", "zip": "10606-1982", "ntee": "A65", "ruling": "201502", "deductibility": "1", "assets": 0, "income": 0, "revenue": 0}, {"ein": "463411447", "name": "SYRACUSE POPS CHORUS INC", "city": "SYRACUSE", "state": "NY", "zip": "13204-1701", "ntee": "A6B", "ruling": "201407", "deductibility": "1", "assets": 0, "income": 0, "revenue": 0}, {"ein": "472170802", "name": "TROY CHILDRENS CHORUS INC", "city": "TROY", "state": "NY", "zip": "12180-3308", "ntee": "A60", "ruling": "201501", "deductibility": "1", "assets": 0, "income": 0, "revenue": 0}, {"ein": "474752440", "name": "PENN YAN COMMUNITY CHORUS", "city": "BRANCHPORT", "state": "NY", "zip": "14418-9542", "ntee": "A60", "ruling": "201508", "deductibility": "1", "assets": 0, "income": 0, "revenue": 0}, {"ein": "475034224", "name": "ADIRONDACK COMMUNITY CHORUS INC", "city": "LYONS FALLS", "state": "NY", "zip": "13368-1921", "ntee": "A6B", "ruling": "201610", "deductibility": "1", "assets": 0, "income": 0, "revenue": 0}, {"ein": "475068331", "name": "DRYDEN AREA INTERGENERATIONAL BAND AND CHORUS INCORPORATED", "city": "FREEVILLE", "state": "NY", "zip": "13068-0189", "ntee": "A6C", "ruling": "202204", "deductibility": "1", "assets": 0, "income": 0, "revenue": 0}, {"ein": "562422574", "name": "NY EXHORTERS MISSIONARY CHORUS INC", "city": "BAYSIDE", "state": "NY", "zip": "11360-2425", "ntee": "X20", "ruling": "200404", "deductibility": "1", "assets": 432575, "income": 88061, "revenue": 88061}, {"ein": "760843120", "name": "NEW YORK CITY COMMUNITY CHORUS AT HOLY APOSTLES INC", "city": "NEW YORK", "state": "NY", "zip": "10011-9029", "ntee": "A6B", "ruling": "200709", "deductibility": "1", "assets": 47709, "income": 100113, "revenue": 100113}, {"ein": "822022781", "name": "MET CHORUS ARTISTS INC", "city": "BRONX", "state": "NY", "zip": "10463-6305", "ntee": "A25", "ruling": "201707", "deductibility": "1", "assets": 0, "income": 0, "revenue": 0}, {"ein": "822802923", "name": "ALBANY GAY MENS CHORUS INC", "city": "ALBANY", "state": "NY", "zip": "12205-0521", "ntee": "A6B", "ruling": "201801", "deductibility": "1", "assets": 0, "income": 0, "revenue": 0}, {"ein": "822966244", "name": "WESTCHESTER CHILDRENS CHORUS INC", "city": "LARCHMONT", "state": "NY", "zip": "10538-7587", "ntee": "", "ruling": "201711", "deductibility": "1", "assets": 50253, "income": 147042, "revenue": 147042}, {"ein": "831179624", "name": "JAMESTOWN BAND AND CHORUS ASSOCIATION INC", "city": "JAMESTOWN", "state": "NY", "zip": "14701-5623", "ntee": "A6C", "ruling": "201909", "deductibility": "1", "assets": 65134, "income": 123330, "revenue": 103394}, {"ein": "831711638", "name": "BRONX COUNTY CHORUS", "city": "BRONX", "state": "NY", "zip": "10461-6126", "ntee": "A6B", "ruling": "201809", "deductibility": "1", "assets": 0, "income": 0, "revenue": 0}, {"ein": "834235699", "name": "NORTH HEMPSTEAD SENIOR CHORUS INC", "city": "NEW HYDE PARK", "state": "NY", "zip": "11040-1913", "ntee": "A6B", "ruling": "201905", "deductibility": "1", "assets": 0, "income": 0, "revenue": 0}, {"ein": "843419315", "name": "LUX MEA WOMEN S CHORUS INCORPORATED", "city": "NEW YORK CITY", "state": "NY", "zip": "10024-6713", "ntee": "A6B", "ruling": "201912", "deductibility": "1", "assets": 0, "income": 0, "revenue": 0}, {"ein": "884267681", "name": "CLARENCE CHORUS BOOSTERS", "city": "CLARENCE CTR", "state": "NY", "zip": "14032-0254", "ntee": "A6B", "ruling": "202306", "deductibility": "1", "assets": 0, "income": 0, "revenue": 0}, {"ein": "900435271", "name": "RENAISSANCE CHORUS ASSOCIATION INC", "city": "NEW YORK", "state": "NY", "zip": "10033-8808", "ntee": "", "ruling": "196012", "deductibility": "1", "assets": 0, "income": 0, "revenue": 0}, {"ein": "911949220", "name": "PHOENIX CHORUS BOOSTERS CLUB", "city": "PHOENIX", "state": "NY", "zip": "13135-0203", "ntee": "B116", "ruling": "199910", "deductibility": "1", "assets": 0, "income": 0, "revenue": 0}, {"ein": "931570773", "name": "NEW YORK CITY CHILDRENS CHORUS", "city": "NEW YORK", "state": "NY", "zip": "10021-3581", "ntee": "A6B", "ruling": "202401", "deductibility": "1", "assets": 448066, "income": 494607, "revenue": 476970}, {"ein": "932449405", "name": "YOUTH FESTIVAL CHORUS FROM SALEM NEW YORK", "city": "SALEM", "state": "NY", "zip": "12865-0334", "ntee": "A68", "ruling": "202405", "deductibility": "1", "assets": 0, "income": 0, "revenue": 0}, {"ein": "992133139", "name": "DAWN CHORUS FOUNDATION INC", "city": "ARDSLEY", "state": "NY", "zip": "10502-0000", "ntee": "P87", "ruling": "202405", "deductibility": "1", "assets": 0, "income": 0, "revenue": 0}], "HUNTER": [{"ein": "061344655", "name": "CONNECTICUT HUNTER JUMPER ASSOCIATION I C SCHOLARSHIP FUND", "city": "BALLSTON LAKE", "state": "NY", "zip": "12019-1439", "ntee": "B82", "ruling": "201805", "deductibility": "1", "assets": 0, "income": 0, "revenue": 0}, {"ein": "130452366", "name": "ALUMNI ASSOCIATION OF HUNTER COLLEGE OF THE CITY OF NEW YORK", "city": "NEW YORK", "state": "NY", "zip": "10065-5024", "ntee": "", "ruling": "196407", "deductibility": "1", "assets": 565558, "income": 302851, "revenue": 0}, {"ein": "131809290", "name": "SCHOLARSHIP & WELFARE FUNDS OF ALUMNI ASSOCIATION OF HUNTER COLLE", "city": "NEW YORK", "state": "NY", "zip": "10065-5024", "ntee": "B42I", "ruling": "194909", "deductibility": "1", "assets": 25509699, "income": 14110743, "revenue": 828486}, {"ein": "133236281", "name": "HUNTER COLLEGE HIGH SCHOOL PARENTS TEACHERS ASSOCIATION", "city": "NEW YORK", "state": "NY", "zip": "10128-0779", "ntee": "B94Z", "ruling": "198510", "deductibility": "1", "assets": 1953901, "income": 1171134, "revenue": 1097327}, {"ein": "133549073", "name": "CHILDREN S LEARNING CENTER AT HUNTER COLLEGE", "city": "NEW YORK", "state": "NY", "zip": "10065-5024", "ntee": "P33Z", "ruling": "199005", "deductibility": "1", "assets": 906674, "income": 278245, "revenue": 278245}, {"ein": "133598671", "name": "HUNTER COLLEGE FOUNDATION INC", "city": "NEW YORK", "state": "NY", "zip": "10065-5024", "ntee": "B114", "ruling": "199108", "deductibility": "1", "assets": 224707579, "income": 66886885, "revenue": 22789185}, {"ein": "133912870", "name": "HUNTER COLLEGE ELEMENTARY SCHOOL PARENT TEACHER ASSOCIATION INC", "city": "NEW YORK", "state": "NY", "zip": "10128-0779", "ntee": "B94", "ruling": "199612", "deductibility": "1", "assets": 1721366, "income": 983074, "revenue": 886345}, {"ein": "133953396", "name": "HUNTER COLLEGE HIGH SCHOOL ALUMNAE I ASSOCIATION INC", "city": "NEW YORK", "state": "NY", "zip": "10065-0000", "ntee": "B84", "ruling": "199802", "deductibility": "1", "assets": 1296285, "income": 415681, "revenue": 415681}, {"ein": "136094021", "name": "HUNTER FOUNDATION", "city": "NEW YORK", "state": "NY", "zip": "10022-6131", "ntee": "", "ruling": "196308", "deductibility": "1", "assets": 7082769, "income": 2158189, "revenue": 0}, {"ein": "136161726", "name": "GRAHAM HUNTER FOUNDATIO INC MC CARTHY FINGAR DONOVAN DRAZEN", "city": "RAVENA", "state": "NY", "zip": "12143-0160", "ntee": "", "ruling": "194801", "deductibility": "1", "assets": 1333618, "income": 497027, "revenue": 0}, {"ein": "141515005", "name": "FORT HUNTER FREE LIBRARY", "city": "AMSTERDAM", "state": "NY", "zip": "12010-8022", "ntee": "B70", "ruling": "201106", "deductibility": "1", "assets": 74589, "income": 57184, "revenue": 57184}, {"ein": "141754056", "name": "STUDENT PARENT TEACHER ORGANIZATION OF HUNTER-TANNERSVILLE CENTRAL INC", "city": "TANNERSVILLE", "state": "NY", "zip": "12485-0605", "ntee": "", "ruling": "199303", "deductibility": "1", "assets": 0, "income": 0, "revenue": 0}, {"ein": "141783399", "name": "LIVING WATER FULL GOSPEL CHURCH OF HUNTER INC", "city": "HUNTER", "state": "NY", "zip": "12442-0899", "ntee": "X99Z", "ruling": "199512", "deductibility": "1", "assets": 0, "income": 0, "revenue": 0}, {"ein": "141787819", "name": "FORT HUNTER VOLUNTEER FIRE COMPANY", "city": "SCHENECTADY", "state": "NY", "zip": "12303-5439", "ntee": "M24Z", "ruling": "199801", "deductibility": "1", "assets": 225245, "income": 65956, "revenue": 65956}, {"ein": "141798918", "name": "HUNTER FOUNDATION INC", "city": "TANNERSVILLE", "state": "NY", "zip": "12485-0000", "ntee": "S31", "ruling": "199811", "deductibility": "1", "assets": 10793703, "income": 2603547, "revenue": 976756}, {"ein": "141801290", "name": "MALCOLM R HUNTER POST NO 53 OF THE MASONIC WAR VETERANS OF THE STATE", "city": "WAPPINGERS FL", "state": "NY", "zip": "12590-0212", "ntee": "W30", "ruling": "202001", "deductibility": "1", "assets": 0, "income": 0, "revenue": 0}, {"ein": "141810689", "name": "HUDSON VALLEY HUNTER JUMPER PROGRAM INC", "city": "RHINEBECK", "state": "NY", "zip": "12572-1166", "ntee": "N99", "ruling": "201406", "deductibility": "1", "assets": 0, "income": 0, "revenue": 0}, {"ein": "146000184", "name": "HUNTER PUBLIC LIBRARY", "city": "HUNTER", "state": "NY", "zip": "12442-0076", "ntee": "", "ruling": "200403", "deductibility": "1", "assets": 226145, "income": 102092, "revenue": 102092}, {"ein": "146024733", "name": "HUNTER FIRE COMPANY NO 1 INC", "city": "HUNTER", "state": "NY", "zip": "12442-0181", "ntee": "M24", "ruling": "200805", "deductibility": "1", "assets": 253847, "income": 52188, "revenue": 45048}, {"ein": "150563250", "name": "SALLY PLOOF HUNTER MEMORIAL LIBRARY", "city": "BLACK RIVER", "state": "NY", "zip": "13612-0253", "ntee": "", "ruling": "197603", "deductibility": "1", "assets": 551928, "income": 154798, "revenue": 154798}, {"ein": "205126705", "name": "THE HAROLD HUNTER FOUNDATION", "city": "NEW YORK", "state": "NY", "zip": "10003-2965", "ntee": "O50", "ruling": "200805", "deductibility": "1", "assets": 389000, "income": 561226, "revenue": 561226}, {"ein": "222995729", "name": "CAPITAL DISTRICT HUNTER-JUMPER COUNCIL INC", "city": "SCHENECTADY", "state": "NY", "zip": "12303-3922", "ntee": "D62Z", "ruling": "199305", "deductibility": "2", "assets": 41397, "income": 25634, "revenue": 23510}, {"ein": "223694713", "name": "HUNTER DOUGLAS FOUNDATION INC", "city": "NEW YORK", "state": "NY", "zip": "10036-4277", "ntee": "T21", "ruling": "200003", "deductibility": "1", "assets": 11799, "income": 235800, "revenue": 0}, {"ein": "264500228", "name": "HUNTER COLLEGE AUXILIARY ENTERPRISES CORPORATION", "city": "NEW YORK", "state": "NY", "zip": "10065-5024", "ntee": "B19", "ruling": "201012", "deductibility": "1", "assets": 6107611, "income": 1701341, "revenue": 1701341}, {"ein": "306049569", "name": "HUNTER MEYERS REDUS FOUNDATION", "city": "BUFFALO", "state": "NY", "zip": "14240-1504", "ntee": "T22", "ruling": "200305", "deductibility": "1", "assets": 1241607, "income": 363943, "revenue": 0}, {"ein": "383326883", "name": "HUNTER CHARITABLE TR", "city": "DOBBS FERRY", "state": "NY", "zip": "10522-3520", "ntee": "T22Z", "ruling": "199704", "deductibility": "1", "assets": 6983, "income": 343, "revenue": 0}, {"ein": "510156094", "name": "HUNTER MOUNTAIN RACING FOUNDATION INC", "city": "HUNTER", "state": "NY", "zip": "12442-0732", "ntee": "N68", "ruling": "202301", "deductibility": "1", "assets": 113738, "income": 14754, "revenue": 14754}, {"ein": "831063943", "name": "HUNTER HOLLOW RABBIT RESCUE INC", "city": "EAST SYRACUSE", "state": "NY", "zip": "13057-9634", "ntee": "D99", "ruling": "201807", "deductibility": "1", "assets": 0, "income": 0, "revenue": 0}, {"ein": "843443669", "name": "MANHATTAN HUNTER SCIENCE PARENTS ASSOCIATION INC", "city": "NEW YORK", "state": "NY", "zip": "10023-0000", "ntee": "B94", "ruling": "202001", "deductibility": "1", "assets": 0, "income": 0, "revenue": 0}, {"ein": "874682236", "name": "CHABAD OF HUNTER INC", "city": "BROOKLYN", "state": "NY", "zip": "11225-1605", "ntee": "X30", "ruling": "202305", "deductibility": "1", "assets": 0, "income": 0, "revenue": 0}, {"ein": "994887701", "name": "CHINESE AMERICAN PARENTS ASSOCIATION HUNTER COLLEGE HIGH SC", "city": "FLUSHING", "state": "NY", "zip": "11355-1011", "ntee": "A23", "ruling": "202409", "deductibility": "1", "assets": 0, "income": 0, "revenue": 0}], "FAIR": [{"ein": "061559754", "name": "FAIR ENTERPRISE ALLIANCE INC", "city": "STONY BROOK", "state": "NY", "zip": "11790-2104", "ntee": "S20", "ruling": "200008", "deductibility": "1", "assets": 0, "income": 0, "revenue": 0}, {"ein": "112212228", "name": "FAIR HARBOR PROPERTY OWNERS SWIM ASSOCIATION", "city": "SMITHTOWN", "state": "NY", "zip": "11787-2715", "ntee": "N50", "ruling": "202001", "deductibility": "2", "assets": 0, "income": 0, "revenue": 0}, {"ein": "112512139", "name": "LONG ISLAND COALITION FOR FAIR BROADCASTING INC", "city": "HUNTINGTON", "state": "NY", "zip": "11743-2060", "ntee": "A30D", "ruling": "198105", "deductibility": "1", "assets": 18148, "income": 138250, "revenue": 138250}, {"ein": "113185132", "name": "L I SCIENCE AND ENGINEERING FAIR INC", "city": "PLAINVIEW", "state": "NY", "zip": "11803-4936", "ntee": "U99", "ruling": "199505", "deductibility": "1", "assets": 102293, "income": 178941, "revenue": 178941}, {"ein": "113386595", "name": "FULTON ART FAIR INC", "city": "BROOKLYN", "state": "NY", "zip": "11233-6754", "ntee": "A20", "ruling": "201406", "deductibility": "1", "assets": 0, "income": 0, "revenue": 0}, {"ein": "131706333", "name": "FAIR RIDGE CEMETERY INC", "city": "CHAPPAQUA", "state": "NY", "zip": "10514-2024", "ntee": "", "ruling": "197003", "deductibility": "1", "assets": 1102823, "income": 200871, "revenue": 200871}, {"ein": "133491677", "name": "PAKISTAN INDEPENDENCE DAY PARADE & FAIR COMMITTEE INC", "city": "STATEN ISLAND", "state": "NY", "zip": "10312-4112", "ntee": "A23", "ruling": "201408", "deductibility": "1", "assets": 520, "income": 63001, "revenue": 63001}, {"ein": "141364518", "name": "FAIR STREET REFORMED CHURCH OF KINGSTON NEW YORK", "city": "KINGSTON", "state": "NY", "zip": "12401-4523", "ntee": "", "ruling": "196801", "deductibility": "1", "assets": 0, "income": 0, "revenue": 0}, {"ein": "141745508", "name": "WASHINGTON COUNTY FAIR INC", "city": "GREENWICH", "state": "NY", "zip": "12834-4615", "ntee": "N520", "ruling": "199207", "deductibility": "1", "assets": 4729675, "income": 2187457, "revenue": 2038590}, {"ein": "146029996", "name": "REGIONAL SCIENCE FAIR OF DUTCHESS COUNTY", "city": "POUGHKEEPSIE", "state": "NY", "zip": "12603-0157", "ntee": "B9XZ", "ruling": "196210", "deductibility": "1", "assets": 0, "income": 0, "revenue": 0}, {"ein": "146030804", "name": "AGRICULTURAL AND INDUSTRIAL FAIR 0F CLINTON COUNTY INC", "city": "MORRISONVILLE", "state": "NY", "zip": "12962-0280", "ntee": "", "ruling": "195112", "deductibility": "1", "assets": 380851, "income": 0, "revenue": 0}, {"ein": "150303298", "name": "FAIR VIEW CEMETERY ASSOCN", "city": "RODMAN", "state": "NY", "zip": "13682-2120", "ntee": "", "ruling": "195111", "deductibility": "1", "assets": 0, "income": 0, "revenue": 0}, {"ein": "150544550", "name": "THE BOONVILLE FAIR ASSOCIATION", "city": "BOONVILLE", "state": "NY", "zip": "13309-0775", "ntee": "", "ruling": "194101", "deductibility": "2", "assets": 635857, "income": 548671, "revenue": 548671}, {"ein": "160744219", "name": "MONROE COUNTY FAIR AND RECREATION ASSOCIATION INC", "city": "PITTSFORD", "state": "NY", "zip": "14534-1718", "ntee": "N520", "ruling": "195501", "deductibility": "1", "assets": 0, "income": 0, "revenue": 0}, {"ein": "160760122", "name": "CHAUTAUQUA COUNTY AGRICULTURAL & FAIR ASSOCIATION INC", "city": "DUNKIRK", "state": "NY", "zip": "14048-0191", "ntee": "", "ruling": "194902", "deductibility": "2", "assets": 1042387, "income": 770401, "revenue": 770401}, {"ein": "160820608", "name": "WYOMING CO FAIR ASSN INC", "city": "CASTILE", "state": "NY", "zip": "14427-0128", "ntee": "", "ruling": "195903", "deductibility": "2", "assets": 1242586, "income": 349643, "revenue": 325891}, {"ein": "160921037", "name": "OTSEGO COUNTY FAIR ASSOCIATION INC", "city": "MORRIS", "state": "NY", "zip": "13808-0469", "ntee": "K11", "ruling": "201706", "deductibility": "2", "assets": 5339, "income": 345812, "revenue": 345812}, {"ein": "161246781", "name": "FAIR HAVENS CHURCH", "city": "N TONAWANDA", "state": "NY", "zip": "14120-1442", "ntee": "", "ruling": "200212", "deductibility": "1", "assets": 0, "income": 0, "revenue": 0}, {"ein": "161401286", "name": "CNY FAIR HOUSING INC", "city": "SYRACUSE", "state": "NY", "zip": "13203-2039", "ntee": "", "ruling": "199207", "deductibility": "1", "assets": 721233, "income": 1313976, "revenue": 1304658}, {"ein": "161559246", "name": "ERIE COUNTY FAIR HOUSING PARTNERSHIP INC", "city": "HAMBURG", "state": "NY", "zip": "14075-0000", "ntee": "L30", "ruling": "199903", "deductibility": "1", "assets": 0, "income": 0, "revenue": 0}, {"ein": "161573863", "name": "LIVINGSTON COUNTY AGRICULTURAL SOCIETY AND FAIR AT CALEDONIA INC", "city": "CALEDONIA", "state": "NY", "zip": "14423-1206", "ntee": "K20", "ruling": "200009", "deductibility": "1", "assets": 486412, "income": 33926, "revenue": 33926}, {"ein": "161594648", "name": "FAIR HAVEN COMMUNITY CHURCH", "city": "FAIR HAVEN", "state": "NY", "zip": "13064-0302", "ntee": "", "ruling": "201203", "deductibility": "1", "assets": 0, "income": 0, "revenue": 0}, {"ein": "166085791", "name": "FAIR HAVEN VOLUNTEER FIRE DEPT INC", "city": "FAIR HAVEN", "state": "NY", "zip": "13064-0000", "ntee": "M24", "ruling": "201408", "deductibility": "1", "assets": 464850, "income": 220813, "revenue": 188801}, {"ein": "203138700", "name": "CONKLIN FAIR COMMITTEE INC", "city": "CONKLIN", "state": "NY", "zip": "13748-0598", "ntee": "N52", "ruling": "200607", "deductibility": "1", "assets": 214968, "income": 32285, "revenue": 32285}, {"ein": "208681674", "name": "FAIR HOUSING JUSTICE CENTER INC", "city": "LONG IS CITY", "state": "NY", "zip": "11101-2812", "ntee": "R99", "ruling": "200805", "deductibility": "1", "assets": 4523991, "income": 3369910, "revenue": 3369910}, {"ein": "222653502", "name": "NATIONAL CENTER FOR FAIR & OPEN TESTING INC", "city": "BROOKLYN", "state": "NY", "zip": "11238-3801", "ntee": "B93E", "ruling": "198602", "deductibility": "1", "assets": 120502, "income": 169233, "revenue": 169233}, {"ein": "223031391", "name": "HERKIMER COUNTY FAIR ASSOCIATION INC", "city": "FRANKFORT", "state": "NY", "zip": "13340-0047", "ntee": "N520", "ruling": "199506", "deductibility": "1", "assets": 1163790, "income": 378746, "revenue": 378746}, {"ein": "237063086", "name": "NEW YORK FAIR TRIAL-FREE PRESS CONFERENCE", "city": "HAUPPAUGE", "state": "NY", "zip": "11788-5108", "ntee": "W03", "ruling": "202303", "deductibility": "1", "assets": 0, "income": 0, "revenue": 0}, {"ein": "237129067", "name": "FAIR HOUSING DEVELOPMENT FUND CORP", "city": "GLEN COVE", "state": "NY", "zip": "11542-2739", "ntee": "", "ruling": "197108", "deductibility": "2", "assets": 1199889, "income": 725668, "revenue": 725668}, {"ein": "264698161", "name": "CHURCHES UNITED FOR FAIR HOUSING INC", "city": "BROOKLYN", "state": "NY", "zip": "11206-5303", "ntee": "P20", "ruling": "200911", "deductibility": "1", "assets": 2933658, "income": 1812057, "revenue": 1661936}, {"ein": "273855519", "name": "A FAIR SHAKE FOR YOUTH INC", "city": "NEW YORK", "state": "NY", "zip": "10025-5059", "ntee": "O50", "ruling": "201102", "deductibility": "1", "assets": 286924, "income": 239768, "revenue": 239768}, {"ein": "274553265", "name": "NEW YORK FOUNDATION FOR FAIR CONTRACTING INC", "city": "LAKE VIEW", "state": "NY", "zip": "14085-9649", "ntee": "J40", "ruling": "201203", "deductibility": "2", "assets": 94132, "income": 694012, "revenue": 694012}, {"ein": "453176164", "name": "GREATER CAPITAL REGION SCIENCE AND ENGINEERING FAIR INC", "city": "SARATOGA SPGS", "state": "NY", "zip": "12866-6153", "ntee": "U20", "ruling": "201110", "deductibility": "1", "assets": 0, "income": 0, "revenue": 0}, {"ein": "463695796", "name": "FAIR HAVEN COMMUNITY ARTS CENTER INC", "city": "FAIR HAVEN", "state": "NY", "zip": "13064-0496", "ntee": "A60", "ruling": "201407", "deductibility": "1", "assets": 0, "income": 0, "revenue": 0}, {"ein": "465333364", "name": "YESHIVA GEDOLA OF FAIR LAWN INC", "city": "SUFFERN", "state": "NY", "zip": "10901-4305", "ntee": "A80", "ruling": "201910", "deductibility": "1", "assets": 911179, "income": 98063, "revenue": 20787}, {"ein": "474212990", "name": "FAIR TRADE CHAMBER MUSIC SOCIETY", "city": "NEW YORK", "state": "NY", "zip": "10040-3838", "ntee": "A6C", "ruling": "201509", "deductibility": "1", "assets": 0, "income": 0, "revenue": 0}, {"ein": "475099493", "name": "FAIR GAME FOUNDATION CORP", "city": "MAMARONECK", "state": "NY", "zip": "10543-2675", "ntee": "B80", "ruling": "202005", "deductibility": "1", "assets": 0, "income": 0, "revenue": 0}, {"ein": "752999893", "name": "NEW YORK STATE SCIENCE & ENGINEERING FAIR INC", "city": "VALLEY STREAM", "state": "NY", "zip": "11582-0605", "ntee": "O50", "ruling": "200204", "deductibility": "1", "assets": 31367, "income": 87693, "revenue": 87693}, {"ein": "814208726", "name": "HAMMOND FAIR ASSOCIATION", "city": "HAMMOND", "state": "NY", "zip": "13646-0000", "ntee": "N52", "ruling": "201611", "deductibility": "1", "assets": 0, "income": 0, "revenue": 0}, {"ein": "820580642", "name": "WESTCHESTER SCIENCE AND ENGINEERING FAIR INC", "city": "MAHOPAC", "state": "NY", "zip": "10541-3948", "ntee": "N52", "ruling": "200402", "deductibility": "1", "assets": 10075, "income": 247931, "revenue": 247931}, {"ein": "823450851", "name": "NEW YORK CITY FAIR TRADE COALITION", "city": "NEW YORK", "state": "NY", "zip": "10031-0708", "ntee": "B01", "ruling": "201807", "deductibility": "1", "assets": 16294, "income": 64251, "revenue": 64019}, {"ein": "834346623", "name": "FAIR JUSTICE MONITORING SVCS INC", "city": "OCEANSIDE", "state": "NY", "zip": "11572-5049", "ntee": "I99", "ruling": "202001", "deductibility": "1", "assets": 0, "income": 0, "revenue": 0}, {"ein": "842640272", "name": "ALLIANCE FOR FAIR AND EQUITABLE CONTRACTING TODAY INC", "city": "MELVILLE", "state": "NY", "zip": "11747-2503", "ntee": "S41", "ruling": "202004", "deductibility": "2", "assets": 0, "income": 0, "revenue": 0}, {"ein": "850692228", "name": "ONE FAIR WAGE INC", "city": "NEW YORK", "state": "NY", "zip": "10014-4657", "ntee": "R20", "ruling": "202004", "deductibility": "1", "assets": 3769403, "income": 5052108, "revenue": 5052108}, {"ein": "872442066", "name": "FAIR CHANCE INSTITUTE INC", "city": "BROOKLYN", "state": "NY", "zip": "11238-5122", "ntee": "J02", "ruling": "202202", "deductibility": "1", "assets": 30406, "income": 510000, "revenue": 510000}, {"ein": "883029662", "name": "FREE AND FAIR LITIGATION GROUP INC", "city": "NEW YORK", "state": "NY", "zip": "10018-6648", "ntee": "", "ruling": "202209", "deductibility": "1", "assets": 1581569, "income": 1789355, "revenue": 1789355}, {"ein": "883200947", "name": "FAIR FASHION INC", "city": "WYANDANCH", "state": "NY", "zip": "11798-3425", "ntee": "A20", "ruling": "202207", "deductibility": "1", "assets": 0, "income": 0, "revenue": 0}, {"ein": "900524293", "name": "FAIR HEALTH INC", "city": "NEW YORK", "state": "NY", "zip": "10022-7768", "ntee": "E70", "ruling": "201009", "deductibility": "1", "assets": 52664977, "income": 43581388, "revenue": 37118774}, {"ein": "921413294", "name": "PUCKERSTREET FAIR LTD", "city": "KNOX", "state": "NY", "zip": "12107-0116", "ntee": "N52", "ruling": "202410", "deductibility": "1", "assets": 4415, "income": 1, "revenue": 0}, {"ein": "934546365", "name": "CENTER FOR FAIR FUTURES", "city": "NEW YORK", "state": "NY", "zip": "10004-0000", "ntee": "O02", "ruling": "202410", "deductibility": "1", "assets": 0, "income": 0, "revenue": 0}, {"ein": "992511588", "name": "WORLDS FAIR RUN CREW OF QUEENS", "city": "COLLEGE POINT", "state": "NY", "zip": "11356-1943", "ntee": "N30", "ruling": "202406", "deductibility": "1", "assets": 0, "income": 0, "revenue": 0}, {"ein": "992990876", "name": "FAIR FIGHT FOUNDATION INC", "city": "NEW YORK", "state": "NY", "zip": "10017-6561", "ntee": "N99", "ruling": "202407", "deductibility": "1", "assets": 0, "income": 0, "revenue": 0}], "DARKIE": [{"ein": "061591632", "name": "DARKIE ELIMILECH", "city": "MONROE", "state": "NY", "zip": "10950-8800", "ntee": "X30", "ruling": "200011", "deductibility": "1", "assets": 0, "income": 0, "revenue": 0}], "EMBASSY": [{"ein": "061679936", "name": "NATIONAL CHRISTIAN EMBASSY CHRIST KING CHAPEL EPISCOPAL INC", "city": "BRONX", "state": "NY", "zip": "10466-4306", "ntee": "X20", "ruling": "200512", "deductibility": "1", "assets": 0, "income": 0, "revenue": 0}, {"ein": "134319201", "name": "ABUNDANT LIFE EMBASSY NEW YORK INC", "city": "NEW YORK", "state": "NY", "zip": "10038-3714", "ntee": "X20", "ruling": "200708", "deductibility": "1", "assets": 0, "income": 0, "revenue": 0}, {"ein": "271793596", "name": "THE EMBASSY OF CHRIST INC", "city": "BROOKLYN", "state": "NY", "zip": "11210-0729", "ntee": "X21", "ruling": "201301", "deductibility": "1", "assets": 0, "income": 0, "revenue": 0}, {"ein": "272070262", "name": "CHRIST EMBASSY BROOKLYN", "city": "YONKERS", "state": "NY", "zip": "10701-4630", "ntee": "X20", "ruling": "201203", "deductibility": "1", "assets": 0, "income": 0, "revenue": 0}, {"ein": "453516884", "name": "CHRIST EMBASSY FOUNDATION INC", "city": "STATEN ISLAND", "state": "NY", "zip": "10314-5991", "ntee": "W20", "ruling": "201801", "deductibility": "1", "assets": 0, "income": 0, "revenue": 0}, {"ein": "464536365", "name": "HOUSE OF PRAYER EMBASSY", "city": "BROOKLYN", "state": "NY", "zip": "11234-3337", "ntee": "X20", "ruling": "201408", "deductibility": "1", "assets": 0, "income": 0, "revenue": 0}, {"ein": "472016944", "name": "FREEDOM LIFE EMBASSY INC", "city": "BRONX", "state": "NY", "zip": "10469-1213", "ntee": "X20", "ruling": "202409", "deductibility": "1", "assets": 0, "income": 0, "revenue": 0}, {"ein": "680620063", "name": "THE EMBASSY OF THE BLESSED KINGDOM OF GOD FOR ALL NATIONS", "city": "BROOKLYN", "state": "NY", "zip": "11235-2504", "ntee": "X20", "ruling": "200806", "deductibility": "1", "assets": 0, "income": 0, "revenue": 0}, {"ein": "800119565", "name": "EMBASSY OF JESUS CHRIST CHURCH", "city": "BROOKLYN", "state": "NY", "zip": "11236-4907", "ntee": "X20", "ruling": "200904", "deductibility": "1", "assets": 0, "income": 0, "revenue": 0}, {"ein": "832041604", "name": "CHRIST EMBASSY BROOKLYN CHURCH NY", "city": "BROOKLYN", "state": "NY", "zip": "11226-7001", "ntee": "X20", "ruling": "201812", "deductibility": "1", "assets": 0, "income": 0, "revenue": 0}, {"ein": "852730360", "name": "GLOBAL EMBASSY MINISTRIES NY INC", "city": "BROOKLYN", "state": "NY", "zip": "11236-4360", "ntee": "X21", "ruling": "202107", "deductibility": "1", "assets": 0, "income": 0, "revenue": 0}, {"ein": "920326894", "name": "AFRICAN PEOPLE EMBASSY INC", "city": "BRONX", "state": "NY", "zip": "10469-0717", "ntee": "P20", "ruling": "202211", "deductibility": "1", "assets": 0, "income": 0, "revenue": 0}, {"ein": "991827812", "name": "INSPIRIT EMBASSY INC", "city": "NORTH TONAWANDA", "state": "NY", "zip": "14120-7034", "ntee": "W01", "ruling": "202406", "deductibility": "1", "assets": 0, "income": 0, "revenue": 0}], "INSPIRED": [{"ein": "100000968", "name": "INSPIRED WORD MINISTRIES SANCTUARY OF PRAISE INC", "city": "BRONX", "state": "NY", "zip": "10467-5330", "ntee": "X21", "ruling": "200209", "deductibility": "1", "assets": 0, "income": 0, "revenue": 0}, {"ein": "113392877", "name": "INSPIRED BY THE WORD OF GOD INC", "city": "BROOKLYN", "state": "NY", "zip": "11238-3906", "ntee": "X20Z", "ruling": "199710", "deductibility": "1", "assets": 0, "income": 0, "revenue": 0}, {"ein": "113601014", "name": "JAZZ INSPIRED INC", "city": "SAG HARBOR", "state": "NY", "zip": "11963-0007", "ntee": "A6C", "ruling": "200112", "deductibility": "1", "assets": 59209, "income": 46998, "revenue": 0}, {"ein": "352283077", "name": "INSPIRED ARTISTS THEATRE COMPANY INC", "city": "DEER PARK", "state": "NY", "zip": "11729-1823", "ntee": "A65", "ruling": "201002", "deductibility": "1", "assets": 0, "income": 0, "revenue": 0}, {"ein": "461846053", "name": "GREEN INSPIRED ART INC", "city": "NEW YORK", "state": "NY", "zip": "10011-6804", "ntee": "A51", "ruling": "201401", "deductibility": "1", "assets": 0, "income": 0, "revenue": 0}, {"ein": "463245780", "name": "INSPIRED CITIZEN COLLECTIVE INC", "city": "NEW YORK", "state": "NY", "zip": "10001-6223", "ntee": "B99", "ruling": "201512", "deductibility": "1", "assets": 1, "income": 0, "revenue": 0}, {"ein": "815122525", "name": "LADIES INSPIRED TO EMPOWER INC", "city": "RICHMOND HILL", "state": "NY", "zip": "11418-3007", "ntee": "S81", "ruling": "202105", "deductibility": "1", "assets": 0, "income": 0, "revenue": 0}, {"ein": "872298890", "name": "HOPE INSPIRED SOLUTIONS INC", "city": "HALFMOON", "state": "NY", "zip": "12065-5679", "ntee": "F30", "ruling": "202111", "deductibility": "1", "assets": 0, "income": 0, "revenue": 0}, {"ein": "872925213", "name": "INSPIRED COMMUNITY PROJECT INC", "city": "NEW YORK", "state": "NY", "zip": "10026-2842", "ntee": "P30", "ruling": "202203", "deductibility": "1", "assets": 142303, "income": 312259, "revenue": 308850}, {"ein": "934082828", "name": "INSPIRED TO THE CROSS INC", "city": "SCHENECTADY", "state": "NY", "zip": "12309-0000", "ntee": "X20", "ruling": "202311", "deductibility": "1", "assets": 0, "income": 0, "revenue": 0}, {"ein": "993492184", "name": "HBCU INSPIRED FOUNDATION INC", "city": "NEW YORK", "state": "NY", "zip": "10019-3702", "ntee": "B40", "ruling": "202411", "deductibility": "1", "assets": 0, "income": 0, "revenue": 0}], "LUKES": [{"ein": "111667618", "name": "ST LUKES CHURCH", "city": "EAST HAMPTON", "state": "NY", "zip": "11937-2710", "ntee": "", "ruling": "197206", "deductibility": "1", "assets": 0, "income": 0, "revenue": 0}, {"ein": "111723803", "name": "ST LUKES CHURCH", "city": "FOREST HILLS", "state": "NY", "zip": "11375-5942", "ntee": "", "ruling": "197206", "deductibility": "1", "assets": 0, "income": 0, "revenue": 0}, {"ein": "111729159", "name": "ST LUKES PENTECOSTAL CHURCH", "city": "WESTBURY", "state": "NY", "zip": "11590-0046", "ntee": "X20Z", "ruling": "199606", "deductibility": "1", "assets": 0, "income": 0, "revenue": 0}, {"ein": "112742330", "name": "ST LUKES CHAPEL", "city": "WADING RIVER", "state": "NY", "zip": "11792-0000", "ntee": "", "ruling": "197206", "deductibility": "1", "assets": 0, "income": 0, "revenue": 0}, {"ein": "113296715", "name": "ST LUKES CHURCH OF NEW YORK INC", "city": "FLUSHING", "state": "NY", "zip": "11354-2745", "ntee": "X20Z", "ruling": "199804", "deductibility": "1", "assets": 0, "income": 0, "revenue": 0}, {"ein": "116028932", "name": "ST LUKES CHURCH", "city": "SEA CLIFF", "state": "NY", "zip": "11579-1544", "ntee": "", "ruling": "197206", "deductibility": "1", "assets": 0, "income": 0, "revenue": 0}, {"ein": "131656649", "name": "ST LUKES LUTHERAN CHURCH", "city": "NEW YORK", "state": "NY", "zip": "10036-3801", "ntee": "", "ruling": "198804", "deductibility": "1", "assets": 0, "income": 0, "revenue": 0}, {"ein": "132747442", "name": "ST LUKES EPISCOPAL CHURCH", "city": "BRONX", "state": "NY", "zip": "10467-5105", "ntee": "X20", "ruling": "201804", "deductibility": "1", "assets": 0, "income": 0, "revenue": 0}, {"ein": "132914343", "name": "ST LUKES INSTITUTE FOR HEALTH SCIENCE", "city": "NEW YORK", "state": "NY", "zip": "10025-1716", "ntee": "E050", "ruling": "197712", "deductibility": "1", "assets": 2579009, "income": 4035455, "revenue": 4035455}, {"ein": "132997301", "name": "ST LUKES ROOSEVELT HOSPITAL CENTER", "city": "NEW YORK", "state": "NY", "zip": "10025-1716", "ntee": "E22", "ruling": "193601", "deductibility": "1", "assets": 1401883478, "income": 1628345493, "revenue": 1628345493}, {"ein": "133085682", "name": "GOSPEL OF ST LUKES PENTECOSTAL HOLY CHURCH INC", "city": "BRONX", "state": "NY", "zip": "10466-4818", "ntee": "X21", "ruling": "199903", "deductibility": "1", "assets": 0, "income": 0, "revenue": 0}, {"ein": "133154742", "name": "ST LUKES WILLIAMSBRIGE HOUSING DEVELOPMENT FUND COMPANY INC", "city": "BRONX", "state": "NY", "zip": "10466-4338", "ntee": "", "ruling": "191706", "deductibility": "1", "assets": 17455368, "income": 1409633, "revenue": 1409633}, {"ein": "136164433", "name": "ST LUKES NURSES BENEFIT FUND", "city": "RYE", "state": "NY", "zip": "10580-1116", "ntee": "", "ruling": "197510", "deductibility": "1", "assets": 303892, "income": 123545, "revenue": 0}, {"ein": "141338519", "name": "ST LUKES CATHOLIC CHURCH", "city": "SCHENECTADY", "state": "NY", "zip": "12304-2620", "ntee": "", "ruling": "194603", "deductibility": "1", "assets": 0, "income": 0, "revenue": 0}, {"ein": "141340054", "name": "ST LUKES CORNWALL HOSPITAL", "city": "NEWBURGH", "state": "NY", "zip": "12550-4851", "ntee": "E220", "ruling": "200208", "deductibility": "1", "assets": 195286803, "income": 268994731, "revenue": 268202117}, {"ein": "146012438", "name": "ST LUKES EVANGELICAL LUTHERAN CHURCH", "city": "AMSTERDAM", "state": "NY", "zip": "12010-3142", "ntee": "", "ruling": "198804", "deductibility": "1", "assets": 0, "income": 0, "revenue": 0}, {"ein": "160956376", "name": "PILGRIM-ST LUKES UNITED CHURCH OF CHRIST", "city": "BUFFALO", "state": "NY", "zip": "14222-1711", "ntee": "", "ruling": "196406", "deductibility": "0", "assets": 0, "income": 0, "revenue": 0}, {"ein": "161246382", "name": "ST LUKES EVANGELICAL LUTHERAN CHURCH OF SIDNEY NEW YORK", "city": "SIDNEY", "state": "NY", "zip": "13838-2008", "ntee": "", "ruling": "198804", "deductibility": "0", "assets": 0, "income": 0, "revenue": 0}, {"ein": "161476372", "name": "ST LUKES HOME RESIDENTIAL HEALTH CARE FACILITY INC", "city": "UTICA", "state": "NY", "zip": "13502-4801", "ntee": "E91", "ruling": "199505", "deductibility": "1", "assets": 20102990, "income": 19329268, "revenue": 19329268}, {"ein": "166024218", "name": "KATE ASHWALL TRUST ST LUKES CJURCH 24225060", "city": "NORWICH", "state": "NY", "zip": "13815-0000", "ntee": "", "ruling": "190012", "deductibility": "0", "assets": 125264, "income": 6393, "revenue": 0}, {"ein": "223026261", "name": "ST LUKES HEALTH SYSTEM INC", "city": "NEWBURGH", "state": "NY", "zip": "12550-4851", "ntee": "", "ruling": "199007", "deductibility": "1", "assets": 1, "income": 0, "revenue": 0}, {"ein": "223026263", "name": "ST LUKES CORNWALL HEALTH SYSTEM FOUNDATION INC", "city": "NEWBURGH", "state": "NY", "zip": "12550-4851", "ntee": "T30", "ruling": "199009", "deductibility": "1", "assets": 2539037, "income": 2789968, "revenue": 2632446}, {"ein": "300571390", "name": "ST LUKES -ROOSEVELT HOSPITAL CENTER FOUNDATION INC", "city": "NEW YORK", "state": "NY", "zip": "10017-5612", "ntee": "E11", "ruling": "201008", "deductibility": "1", "assets": 7447956, "income": 0, "revenue": 0}, {"ein": "311477948", "name": "CORNERSTONE ST LUKES INC", "city": "NEW YORK", "state": "NY", "zip": "10168-0002", "ntee": "L20", "ruling": "199611", "deductibility": "1", "assets": 1, "income": 0, "revenue": 0}, {"ein": "455288724", "name": "ST LUKES SCHOOL", "city": "NEW YORK", "state": "NY", "zip": "10014-2851", "ntee": "B24", "ruling": "201209", "deductibility": "1", "assets": 82538693, "income": 26780850, "revenue": 24044291}, {"ein": "510201839", "name": "ST LUKES CHAMBER ENSEMBLE INC", "city": "NEW YORK", "state": "NY", "zip": "10018-4016", "ntee": "A6C0", "ruling": "197609", "deductibility": "1", "assets": 43356948, "income": 12669007, "revenue": 8739932}, {"ein": "811733342", "name": "ST LUKES COMMUNITY OUTREACH INC", "city": "BRONX", "state": "NY", "zip": "10467-5105", "ntee": "P20", "ruling": "201608", "deductibility": "1", "assets": 0, "income": 0, "revenue": 0}, {"ein": "921022684", "name": "LUKES PURPOSE", "city": "COMMACK", "state": "NY", "zip": "11725-2521", "ntee": "Y12", "ruling": "202211", "deductibility": "1", "assets": 8134, "income": 94502, "revenue": 0}, {"ein": "934853617", "name": "LUKES PURPOSE INC", "city": "COMMACK", "state": "NY", "zip": "11725-2521", "ntee": "T20", "ruling": "202401", "deductibility": "1", "assets": 0, "income": 0, "revenue": 0}], "BIBLICAL": [{"ein": "111667627", "name": "SCHOOL OF BIBLICAL INSTRUCTION", "city": "BROOKLYN", "state": "NY", "zip": "11206-1832", "ntee": "", "ruling": "194510", "deductibility": "1", "assets": 0, "income": 0, "revenue": 0}, {"ein": "116075951", "name": "MAIMONIDES BIBLICAL FOUNDATION INC", "city": "BROOKLYN", "state": "NY", "zip": "11204-1901", "ntee": "", "ruling": "196605", "deductibility": "1", "assets": 0, "income": 0, "revenue": 0}, {"ein": "116102393", "name": "INSTITUTE OF RESEARCH FOR BIBLICAL TALMUDICAL LAW", "city": "BROOKLYN", "state": "NY", "zip": "11219-1701", "ntee": "", "ruling": "196801", "deductibility": "1", "assets": 0, "income": 0, "revenue": 0}, {"ein": "133811628", "name": "BIBLICAL CHRISTIAN LIVING INC", "city": "LAFAYETTE", "state": "NY", "zip": "13084-9786", "ntee": "X99Z", "ruling": "199604", "deductibility": "1", "assets": 0, "income": 0, "revenue": 0}, {"ein": "134352551", "name": "BIBLICAL NOUTHETIC MINISTRIES INC", "city": "YORKSHIRE", "state": "NY", "zip": "14173-8012", "ntee": "X21", "ruling": "201002", "deductibility": "1", "assets": 561999, "income": 149599, "revenue": 149599}, {"ein": "161471119", "name": "CHRISTIAN BIBLICAL RESOURCES INC", "city": "JAMESVILLE", "state": "NY", "zip": "13078-9830", "ntee": "X21Z", "ruling": "199605", "deductibility": "1", "assets": 0, "income": 0, "revenue": 0}, {"ein": "270530273", "name": "PROS-BIBLICAL LANGUAGE CHURCH", "city": "FLUSHING", "state": "NY", "zip": "11354-3424", "ntee": "X21", "ruling": "201004", "deductibility": "1", "assets": 0, "income": 0, "revenue": 0}, {"ein": "273846145", "name": "HOFFBERGER FUND FOR BIBLICAL STUDIES LTD", "city": "NEW CITY", "state": "NY", "zip": "10956-5146", "ntee": "X20", "ruling": "201202", "deductibility": "1", "assets": 524734, "income": 3103657, "revenue": 3035729}, {"ein": "471606771", "name": "BIBLICAL ORNITHOLOGICAL SOCIETY INC", "city": "JERICHO", "state": "NY", "zip": "11753-0814", "ntee": "X30", "ruling": "201504", "deductibility": "1", "assets": 374506, "income": 390067, "revenue": 232500}, {"ein": "651251807", "name": "BIBLICAL INTERNATIONAL CHRISTIAN EVANGELICAL CHURCH AND MISSION", "city": "BRONX", "state": "NY", "zip": "10467-7201", "ntee": "X20", "ruling": "200608", "deductibility": "1", "assets": 0, "income": 0, "revenue": 0}, {"ein": "810616844", "name": "GILEADE BIBLICAL COMMUNITY", "city": "NEW ROCHELLE", "state": "NY", "zip": "10801-1523", "ntee": "X20", "ruling": "200608", "deductibility": "1", "assets": 0, "income": 0, "revenue": 0}, {"ein": "824264959", "name": "INSTITUTE OF BIBLICAL CULTURE INC", "city": "YONKERS", "state": "NY", "zip": "10705-1510", "ntee": "X20", "ruling": "201810", "deductibility": "1", "assets": 0, "income": 0, "revenue": 0}], "OHAVEI": [{"ein": "112391055", "name": "CONGREGATION OHAVEI SHALOM INC", "city": "FAR ROCKAWAY", "state": "NY", "zip": "11691-5201", "ntee": "", "ruling": "197607", "deductibility": "1", "assets": 0, "income": 0, "revenue": 0}, {"ein": "112468942", "name": "CONGREGATION OHAVEI TORAH C O S Z FEIGENBAUM", "city": "BROOKLYN", "state": "NY", "zip": "11210-4128", "ntee": "", "ruling": "197809", "deductibility": "1", "assets": 0, "income": 0, "revenue": 0}, {"ein": "134077155", "name": "YESHIVA OHAVEI TORAH RIVERDALE INC", "city": "RIVERDALE", "state": "NY", "zip": "10471-2926", "ntee": "B25", "ruling": "200005", "deductibility": "1", "assets": 243194, "income": 3564733, "revenue": 3564733}, {"ein": "271610979", "name": "CONG OHAVEI SHOLEM ANSHEI INC", "city": "WOODRIDGE", "state": "NY", "zip": "12789-0746", "ntee": "X30", "ruling": "201104", "deductibility": "1", "assets": 0, "income": 0, "revenue": 0}, {"ein": "453263173", "name": "BAIS BORUCHAI OHAVEI TORAH INC", "city": "REGO PARK", "state": "NY", "zip": "11374-3848", "ntee": "X30", "ruling": "201511", "deductibility": "1", "assets": 0, "income": 0, "revenue": 0}, {"ein": "822888889", "name": "BETH MIDRASH OHAVEI TORAH INC", "city": "REGO PARK", "state": "NY", "zip": "11374-4818", "ntee": "X30", "ruling": "201805", "deductibility": "1", "assets": 22524, "income": 29103, "revenue": 29103}, {"ein": "993410085", "name": "OHAVEI YESH", "city": "BROOKLYN", "state": "NY", "zip": "11205-3913", "ntee": "X30", "ruling": "202501", "deductibility": "1", "assets": 0, "income": 0, "revenue": 0}], "109TH": [{"ein": "112417336", "name": "109TH PRECINCT COMMUNITY COUNCIL", "city": "FLUSHING", "state": "NY", "zip": "11354-4117", "ntee": "", "ruling": "197708", "deductibility": "1", "assets": 19053, "income": 49821, "revenue": 49821}, {"ein": "371646328", "name": "109TH COMPANY GRADE OFFICERS COUNCIL", "city": "SCHENECTADY", "state": "NY", "zip": "12302-9752", "ntee": "W30", "ruling": "201311", "deductibility": "2", "assets": 0, "income": 0, "revenue": 0}], "AIRCRAFT": [{"ein": "112431186", "name": "EXPERIMENTAL AIRCRAFT ASSOCIATION CH 594 BAY SHORE NY INC", "city": "SMITHTOWN", "state": "NY", "zip": "11787-5514", "ntee": "", "ruling": "198102", "deductibility": "1", "assets": 0, "income": 0, "revenue": 0}, {"ein": "133073337", "name": "WESTCHESTER AIRCRAFT MAINTENANCE ASSOCIATION", "city": "PURCHASE", "state": "NY", "zip": "10577-0131", "ntee": "", "ruling": "198907", "deductibility": "0", "assets": 41218, "income": 71096, "revenue": 50768}, {"ein": "161259567", "name": "EXPERIMENTAL AIRCRAFT ASSOCIATION CHAPTER 44 INC", "city": "BROCKPORT", "state": "NY", "zip": "14420-2505", "ntee": "O50", "ruling": "200201", "deductibility": "1", "assets": 0, "income": 0, "revenue": 0}, {"ein": "161419258", "name": "VINTAGE AIRCRAFT GROUP INC", "city": "ALBION", "state": "NY", "zip": "14411-9241", "ntee": "W40", "ruling": "199708", "deductibility": "1", "assets": 0, "income": 0, "revenue": 0}, {"ein": "161463643", "name": "1941 HISTORICAL AIRCRAFT GROUP INC", "city": "GENESEO", "state": "NY", "zip": "14454-0185", "ntee": "A80", "ruling": "200009", "deductibility": "1", "assets": 685669, "income": 616633, "revenue": 349751}, {"ein": "166028162", "name": "MERCURY AIRCRAFT FOUNDATION", "city": "HAMMONDSPORT", "state": "NY", "zip": "14840-9458", "ntee": "", "ruling": "195403", "deductibility": "1", "assets": 2152441, "income": 256881, "revenue": 0}], "DEED": [{"ein": "112482642", "name": "MITZVOTH GOOD DEED INC", "city": "BROOKLYN", "state": "NY", "zip": "11206-5460", "ntee": "X30Z", "ruling": "197902", "deductibility": "1", "assets": 0, "income": 0, "revenue": 0}, {"ein": "471571581", "name": "HEROES IN DEED INC", "city": "WARWICK", "state": "NY", "zip": "10990-0324", "ntee": "T30", "ruling": "201503", "deductibility": "1", "assets": 0, "income": 0, "revenue": 0}, {"ein": "830629404", "name": "WORD ACTION & DEED MINISTRIES INC", "city": "NEW YORK", "state": "NY", "zip": "10023-7308", "ntee": "O50", "ruling": "202007", "deductibility": "1", "assets": 0, "income": 0, "revenue": 0}, {"ein": "883801559", "name": "DEED COMMUNITY GIVING FOUNDATION", "city": "BROOKLYN", "state": "NY", "zip": "11249-1060", "ntee": "T30", "ruling": "202304", "deductibility": "1", "assets": 0, "income": 0, "revenue": 0}], "ANDERMAN": [{"ein": "112547291", "name": "ANDERMAN FOUNDATION", "city": "GREAT NECK", "state": "NY", "zip": "11021-4927", "ntee": "", "ruling": "198102", "deductibility": "1", "assets": 1764935, "income": 444903, "revenue": 0}], "BOSTONER": [{"ein": "112579298", "name": "CONG & YESHIVA HAFLOH-BOSTONER BAIS MEDRASH-FRIENDS OF BOSTON", "city": "BROOKLYN", "state": "NY", "zip": "11204-1425", "ntee": "", "ruling": "198206", "deductibility": "1", "assets": 0, "income": 0, "revenue": 0}], "STATION": [{"ein": "112596494", "name": "GETHSEMANE SOUL SAVING STATION INC", "city": "SPRNGFLD GDNS", "state": "NY", "zip": "11413-0242", "ntee": "", "ruling": "198205", "deductibility": "1", "assets": 0, "income": 0, "revenue": 0}, {"ein": "112707641", "name": "PORT JEFFERSON STATION TEACHERS ASSOCIATION WELFARE TRUST FUND", "city": "PORT JEFF STA", "state": "NY", "zip": "11776-5000", "ntee": "", "ruling": "198605", "deductibility": "2", "assets": 667136, "income": 622827, "revenue": 520873}, {"ein": "113146438", "name": "FRIENDS OF STATION SQUARE INC", "city": "FOREST HILLS", "state": "NY", "zip": "11375-5234", "ntee": "S20Z", "ruling": "199304", "deductibility": "1", "assets": 31452, "income": 21430, "revenue": 21430}, {"ein": "131583260", "name": "STATION REPRESENTATIVES ASSOCIATION INC", "city": "NEW YORK", "state": "NY", "zip": "10019-5369", "ntee": "", "ruling": "196910", "deductibility": "2", "assets": 38055, "income": 0, "revenue": 0}, {"ein": "131939577", "name": "SPORTS CAR CLUB OF AMERICA INC NEW YORK REGION GRAND CENTRAL STATION", "city": "S FARMINGDALE", "state": "NY", "zip": "11735-5748", "ntee": "", "ruling": "196203", "deductibility": "2", "assets": 148886, "income": 57064, "revenue": 57064}, {"ein": "132645598", "name": "SOUL SAVING STATION FOR EVERY NAT OF THE CHRIST CRUSADERS OF AM INC", "city": "NEW YORK", "state": "NY", "zip": "10027-3603", "ntee": "", "ruling": "196504", "deductibility": "1", "assets": 0, "income": 0, "revenue": 0}, {"ein": "134018911", "name": "FRIENDS OF COLEMAN STATION INC", "city": "MILLERTON", "state": "NY", "zip": "12546-4516", "ntee": "A80", "ruling": "199911", "deductibility": "1", "assets": 0, "income": 0, "revenue": 0}, {"ein": "141613500", "name": "SOUL SAVING STATION FOR EVERY NATION OF SARATOGA SPRINGS INC", "city": "SARATOGA SPGS", "state": "NY", "zip": "12866-0104", "ntee": "", "ruling": "199010", "deductibility": "1", "assets": 0, "income": 0, "revenue": 0}, {"ein": "141741855", "name": "SOUL SAVING STATION CHURCH OF GOD", "city": "NEWBURGH", "state": "NY", "zip": "12550-4507", "ntee": "X21", "ruling": "200405", "deductibility": "1", "assets": 0, "income": 0, "revenue": 0}, {"ein": "161120339", "name": "SERVICE STATION OPERATORS OF UPSTATE NEW YORK INC", "city": "SYRACUSE", "state": "NY", "zip": "13206-3525", "ntee": "", "ruling": "199109", "deductibility": "2", "assets": 31279, "income": 23559, "revenue": 19491}, {"ein": "161378520", "name": "ALFRED STATION FIRE COMPANY ASSOCIATION INC", "city": "ALFRED STATION", "state": "NY", "zip": "14803-0000", "ntee": "M24Z", "ruling": "199610", "deductibility": "1", "assets": 672705, "income": 150877, "revenue": 133860}, {"ein": "161493627", "name": "ALFRED-ALFRED STATION COMMUNITY CHEST", "city": "ALFRED", "state": "NY", "zip": "14802-0603", "ntee": "S80", "ruling": "200005", "deductibility": "1", "assets": 0, "income": 0, "revenue": 0}, {"ein": "161610724", "name": "BUFFALO NIAGARA FREEDOM STATION COALITION INC", "city": "BUFFALO", "state": "NY", "zip": "14203-2015", "ntee": "A80", "ruling": "200201", "deductibility": "1", "assets": 73039, "income": 722799, "revenue": 722799}, {"ein": "161679213", "name": "HOLY GHOST UPPER ROOM FILLING STATION MINISTRY INC", "city": "JAMAICA", "state": "NY", "zip": "11436-2302", "ntee": "X22", "ruling": "200402", "deductibility": "1", "assets": 0, "income": 0, "revenue": 0}, {"ein": "166029775", "name": "ALFRED STATION SEVENTH DAY BAPTIST CHURCH", "city": "ALFRED STA", "state": "NY", "zip": "14803-7777", "ntee": "X20", "ruling": "000000", "deductibility": "1", "assets": 0, "income": 0, "revenue": 0}, {"ein": "166038688", "name": "ST JOSEPHS HOUSE OF HOSPITALITY OF ROCHESTER N Y FEDERAL STATION", "city": "ROCHESTER", "state": "NY", "zip": "14620-0000", "ntee": "", "ruling": "194910", "deductibility": "1", "assets": 718410, "income": 347187, "revenue": 347187}, {"ein": "202842258", "name": "BLACK CREEK WILDLIFE STATION INC", "city": "CHURCHVILLE", "state": "NY", "zip": "14428-9398", "ntee": "D34", "ruling": "200509", "deductibility": "1", "assets": 0, "income": 0, "revenue": 0}, {"ein": "204044885", "name": "SACANDAGA STATION LAKEFRONT ASSOCIATION INC", "city": "NORTHVILLE", "state": "NY", "zip": "12134-1288", "ntee": "C34", "ruling": "201411", "deductibility": "1", "assets": 0, "income": 0, "revenue": 0}, {"ein": "222628770", "name": "THE WILKINSON MEMORIAL BOOK STATION INCORPORATED", "city": "BROADALBIN", "state": "NY", "zip": "12025-7743", "ntee": "", "ruling": "199208", "deductibility": "1", "assets": 0, "income": 0, "revenue": 0}, {"ein": "262230375", "name": "SHINGLE SHANTY PRESERVE AND RESEARCH STATION", "city": "TUPPER LAKE", "state": "NY", "zip": "12986-0732", "ntee": "C30", "ruling": "200811", "deductibility": "1", "assets": 0, "income": 0, "revenue": 0}, {"ein": "270678003", "name": "CANAL STREET STATION VILLAGE CORP", "city": "DUANESBURG", "state": "NY", "zip": "12056-3602", "ntee": "A56", "ruling": "201408", "deductibility": "1", "assets": 0, "income": 0, "revenue": 0}, {"ein": "320733921", "name": "INNOVATION STATION INC", "city": "RAVENA", "state": "NY", "zip": "12143-2212", "ntee": "B90", "ruling": "202306", "deductibility": "1", "assets": 0, "income": 0, "revenue": 0}, {"ein": "352440289", "name": "STATION WBVS INC", "city": "WATERTOWN", "state": "NY", "zip": "13601-1626", "ntee": "T12", "ruling": "201406", "deductibility": "1", "assets": 0, "income": 0, "revenue": 0}, {"ein": "364695733", "name": "FRIENDS OF HUNTINGTON STATION LATIN QUARTER", "city": "HUNTINGTON", "state": "NY", "zip": "11743-1513", "ntee": "P20", "ruling": "201110", "deductibility": "1", "assets": 0, "income": 0, "revenue": 0}, {"ein": "462178780", "name": "MILTON TRAIN STATION FOUNDATION INC", "city": "MILTON", "state": "NY", "zip": "12547-0000", "ntee": "Z99", "ruling": "201406", "deductibility": "1", "assets": 0, "income": 0, "revenue": 0}, {"ein": "650526215", "name": "SOUL SAV STATION FOR EVERY NATION CHRIST CRUSADERS OF AMER INT INC", "city": "GANSEVOORT", "state": "NY", "zip": "12831-1732", "ntee": "X20Z", "ruling": "199510", "deductibility": "1", "assets": 0, "income": 0, "revenue": 0}, {"ein": "770669494", "name": "SOUL SAVING STATION COMMUNITY DEVELOPMENT CORPORATION", "city": "NEWBURGH", "state": "NY", "zip": "12550-4507", "ntee": "L41", "ruling": "200712", "deductibility": "1", "assets": 0, "income": 0, "revenue": 0}, {"ein": "800188659", "name": "SOUL SAVING STATION HOUSE OF PRAYER", "city": "POUGHKEEPSIE", "state": "NY", "zip": "12601-3405", "ntee": "X20", "ruling": "201112", "deductibility": "1", "assets": 0, "income": 0, "revenue": 0}, {"ein": "812677868", "name": "NEW LIFE STATION", "city": "BINGHAMTON", "state": "NY", "zip": "13903-2805", "ntee": "P72", "ruling": "201607", "deductibility": "1", "assets": 0, "income": 0, "revenue": 0}, {"ein": "813858451", "name": "LIGHT HOUSE STATION", "city": "WARSAW", "state": "NY", "zip": "14569-1427", "ntee": "L41", "ruling": "201801", "deductibility": "1", "assets": 6356, "income": 136134, "revenue": 118301}, {"ein": "820928051", "name": "FIRE & IRON MC STATION 99", "city": "SYRACUSE", "state": "NY", "zip": "13209-0201", "ntee": "M12", "ruling": "201704", "deductibility": "1", "assets": 0, "income": 0, "revenue": 0}, {"ein": "821601103", "name": "AMAGANSETT LIFE-SAVING AND COAST GUARD STATION SOCIETY", "city": "AMAGANSETT", "state": "NY", "zip": "11930-0051", "ntee": "A50", "ruling": "201711", "deductibility": "1", "assets": 562430, "income": 201682, "revenue": 179647}, {"ein": "824957615", "name": "PJ STATION-TERRYVILLE CHAMBER OF COMMERCE INC", "city": "PORT JEFF STA", "state": "NY", "zip": "11776-0446", "ntee": "S41", "ruling": "201812", "deductibility": "2", "assets": 38021, "income": 47346, "revenue": 47346}, {"ein": "842868060", "name": "NEW YORK CENTRAL TRAIN STATION INC", "city": "LOCKPORT", "state": "NY", "zip": "14094-4924", "ntee": "A80", "ruling": "202004", "deductibility": "1", "assets": 0, "income": 0, "revenue": 0}, {"ein": "856267011", "name": "POWER STATION FOUNDATION", "city": "NEW YORK", "state": "NY", "zip": "10022-7402", "ntee": "", "ruling": "202111", "deductibility": "1", "assets": 308589, "income": 15361, "revenue": 0}, {"ein": "863255191", "name": "FRIENDS OF THE ARDSLEY-ON-HUDSON TRAIN STATION INC", "city": "IRVINGTON", "state": "NY", "zip": "10533-2601", "ntee": "S20", "ruling": "202109", "deductibility": "1", "assets": 0, "income": 0, "revenue": 0}, {"ein": "872904267", "name": "HEALING STATION AGENCY INC", "city": "BUFFALO", "state": "NY", "zip": "14225-2756", "ntee": "F60", "ruling": "202112", "deductibility": "1", "assets": 0, "income": 0, "revenue": 0}, {"ein": "882059380", "name": "GLACIER LANSDALE STATION INC", "city": "NEW YORK", "state": "NY", "zip": "10020-1104", "ntee": "S47", "ruling": "202304", "deductibility": "2", "assets": 59222287, "income": 4578931, "revenue": 363127}, {"ein": "931764135", "name": "CHILDREN AND YOUTH HUB STATION CORPORATION", "city": "HEMPSTEAD", "state": "NY", "zip": "11550-6861", "ntee": "B90", "ruling": "202402", "deductibility": "1", "assets": 0, "income": 0, "revenue": 0}, {"ein": "990766524", "name": "FRIENDS OF THE NEW LEBANON RAILROAD STATION INC", "city": "NEW LEBANON", "state": "NY", "zip": "12125-0822", "ntee": "P12", "ruling": "202404", "deductibility": "1", "assets": 0, "income": 0, "revenue": 0}, {"ein": "990862988", "name": "HAVERSTRAW ESTUARY FIELD STATION", "city": "HAVERSTRAW", "state": "NY", "zip": "10927-0000", "ntee": "U50", "ruling": "202402", "deductibility": "1", "assets": 0, "income": 0, "revenue": 0}], "PRESYTERIAN": [{"ein": "112652374", "name": "MOAK YANG PRESYTERIAN CHURCH", "city": "WHITESTONE", "state": "NY", "zip": "11357-1823", "ntee": "", "ruling": "198311", "deductibility": "1", "assets": 0, "income": 0, "revenue": 0}], "BAYIS": [{"ein": "112657844", "name": "BAYIS NE EMON", "city": "BROOKLYN", "state": "NY", "zip": "11219-3631", "ntee": "", "ruling": "198401", "deductibility": "1", "assets": 0, "income": 0, "revenue": 0}, {"ein": "112680069", "name": "BAYIS ESTER", "city": "BROOKLYN", "state": "NY", "zip": "11219-3502", "ntee": "", "ruling": "198406", "deductibility": "1", "assets": 0, "income": 0, "revenue": 0}, {"ein": "260415131", "name": "BAYIS LEPLEITOS ATERES BONOS INC", "city": "BROOKLYN", "state": "NY", "zip": "11211-1872", "ntee": "Q129", "ruling": "200810", "deductibility": "1", "assets": 2206492, "income": 8034962, "revenue": 8034962}, {"ein": "332472070", "name": "BAYIS YEHUDI FOUNDATION INC", "city": "ALBANY", "state": "NY", "zip": "12207-2834", "ntee": "P12", "ruling": "202501", "deductibility": "1", "assets": 0, "income": 0, "revenue": 0}, {"ein": "471353340", "name": "BAYIS SHAINI INC", "city": "AIRMONT", "state": "NY", "zip": "10952-4504", "ntee": "P46", "ruling": "201407", "deductibility": "1", "assets": 920, "income": 60476, "revenue": 60476}, {"ein": "472527128", "name": "BAYIS RAIZEL ROIZA INC", "city": "BROOKLYN", "state": "NY", "zip": "11249-7504", "ntee": "X30", "ruling": "201504", "deductibility": "1", "assets": 0, "income": 0, "revenue": 0}, {"ein": "882799581", "name": "CONGREGATION BAYIS MOSHE SHMIEL KOZOVE", "city": "BROOKLYN", "state": "NY", "zip": "11229-2513", "ntee": "X30", "ruling": "202212", "deductibility": "1", "assets": 0, "income": 0, "revenue": 0}, {"ein": "884283382", "name": "BAYIS NEMAN INC", "city": "BROOKLYN", "state": "NY", "zip": "11203-3009", "ntee": "F60", "ruling": "202211", "deductibility": "1", "assets": 0, "income": 0, "revenue": 0}], "MARCY": [{"ein": "112676351", "name": "HANCOCK NOSTRAND MARCY AVENUE BLOCK ASSOCIATION", "city": "BROOKLYN", "state": "NY", "zip": "11247-0752", "ntee": "L50", "ruling": "202209", "deductibility": "1", "assets": 0, "income": 0, "revenue": 0}, {"ein": "133941799", "name": "MARCY PARENT TEACHER ORGANIZATION", "city": "MARCY", "state": "NY", "zip": "13403-2231", "ntee": "B94J", "ruling": "199711", "deductibility": "1", "assets": 0, "income": 0, "revenue": 0}, {"ein": "136058313", "name": "MILFORD M MARCY TRUST UW DAR SIXTH 39-15C", "city": "NEW YORK", "state": "NY", "zip": "10013-2362", "ntee": "", "ruling": "000000", "deductibility": "0", "assets": 314275, "income": 93625, "revenue": 0}, {"ein": "260546719", "name": "DIVINIE MARCY CATHOLIC ACADEMY", "city": "OZONE PARK", "state": "NY", "zip": "11416-2227", "ntee": "", "ruling": "194603", "deductibility": "1", "assets": 0, "income": 0, "revenue": 0}, {"ein": "454444653", "name": "CHRIST THE KING SHRINE-MARCY INC", "city": "WHITESBORO", "state": "NY", "zip": "13492-0451", "ntee": "X21", "ruling": "201209", "deductibility": "1", "assets": 0, "income": 0, "revenue": 0}, {"ein": "455339818", "name": "STEVEN AND MARCY SCHAEFFER FAMILY FOUNDATION INC", "city": "ITHACA", "state": "NY", "zip": "14850-9998", "ntee": "T22", "ruling": "201209", "deductibility": "1", "assets": 2752310, "income": 2114725, "revenue": 0}, {"ein": "461619821", "name": "MORRIS AND MARCY TBEILE FAMILY FOUNDATION INC", "city": "BROOKLYN", "state": "NY", "zip": "11229-3308", "ntee": "T20", "ruling": "201303", "deductibility": "1", "assets": 191685, "income": 117534, "revenue": 0}, {"ein": "466145736", "name": "FREDERICK C MARCY CHARITABLE TR", "city": "CANTON", "state": "NY", "zip": "13617-1273", "ntee": "X03", "ruling": "202504", "deductibility": "1", "assets": 4859207, "income": 801851, "revenue": 0}, {"ein": "821843213", "name": "MARCY AVE FOUNDATION", "city": "BROOKLYN", "state": "NY", "zip": "11211-0000", "ntee": "T12", "ruling": "201709", "deductibility": "1", "assets": 272897, "income": 30800, "revenue": 0}, {"ein": "822636374", "name": "FRIENDS OF MARCY HOUSES INC", "city": "BROOKLYN", "state": "NY", "zip": "11201-5542", "ntee": "P20", "ruling": "201810", "deductibility": "1", "assets": 9589, "income": 12326, "revenue": 12326}, {"ein": "833754699", "name": "MARCY LAB INC", "city": "BROOKLYN", "state": "NY", "zip": "11221-6514", "ntee": "B50", "ruling": "201907", "deductibility": "1", "assets": 11667525, "income": 9880880, "revenue": 9707056}, {"ein": "842758847", "name": "MARCY HOUSES MEMORIAL SCHOLARSHIP FUND INC", "city": "BROOKLYN", "state": "NY", "zip": "11233-1301", "ntee": "B82", "ruling": "201909", "deductibility": "1", "assets": 24046, "income": 17482, "revenue": 17482}, {"ein": "922162564", "name": "MARCY DEERFIELD POP WARNER FOOTBALL CORPORATION", "city": "MARCY", "state": "NY", "zip": "13403-2427", "ntee": "N65", "ruling": "202302", "deductibility": "1", "assets": 0, "income": 0, "revenue": 0}], "CAMPAIGN": [{"ein": "112717326", "name": "LONG ISLAND CITIZENS CAMPAIGN INC DBA CITIZENS CAMPAIGN FOR THE", "city": "FARMINGDALE", "state": "NY", "zip": "11735-2619", "ntee": "S21Z", "ruling": "198704", "deductibility": "2", "assets": 382873, "income": 1159896, "revenue": 1159896}, {"ein": "112983418", "name": "CITIZENS CAMPAIGN FUND FOR THE ENVIRONMENT", "city": "FARMINGDALE", "state": "NY", "zip": "11735-2619", "ntee": "C010", "ruling": "199407", "deductibility": "1", "assets": 1646103, "income": 1265196, "revenue": 1265196}, {"ein": "113423612", "name": "CHRISTOPHER ROSE COMMUNITY EMPOWERMENT CAMPAIGN INC", "city": "BROOKLYN", "state": "NY", "zip": "11207-5861", "ntee": "P99", "ruling": "202307", "deductibility": "1", "assets": 364104, "income": 812930, "revenue": 812930}, {"ein": "132756329", "name": "N Y C CLEAN AIR CAMPAIGN INC", "city": "NEW YORK", "state": "NY", "zip": "10001-6199", "ntee": "C012", "ruling": "197308", "deductibility": "1", "assets": 39745, "income": 32800, "revenue": 28286}, {"ein": "133790165", "name": "TRI-STATE TRANSPORTATION CAMPAIGN", "city": "NEW YORK", "state": "NY", "zip": "10001-5474", "ntee": "C30", "ruling": "199503", "deductibility": "1", "assets": 510525, "income": 985863, "revenue": 985863}, {"ein": "133960936", "name": "CAMPAIGN FOR CARDINAL SPELLMAN HIGH SCHOOL FOUNDATION INC", "city": "BRONX", "state": "NY", "zip": "10466-5825", "ntee": "B99", "ruling": "199807", "deductibility": "1", "assets": 21188110, "income": 1143785, "revenue": 1025125}, {"ein": "134254822", "name": "CAMPAIGN FOR BUFFALO HISTORY ARCHITECTURE AND CULTURE INC", "city": "BUFFALO", "state": "NY", "zip": "14222-1803", "ntee": "A80", "ruling": "200412", "deductibility": "1", "assets": 34792, "income": 41963, "revenue": 37393}, {"ein": "200934854", "name": "THE CAMPAIGN AGAINST HUNGER INC", "city": "BROOKLYN", "state": "NY", "zip": "11233-6791", "ntee": "P40", "ruling": "200507", "deductibility": "1", "assets": 6744458, "income": 18501847, "revenue": 18501847}, {"ein": "203931272", "name": "STOP ABUSE CAMPAIGN CORP", "city": "BRONX", "state": "NY", "zip": "10452-9126", "ntee": "I72", "ruling": "201004", "deductibility": "1", "assets": 15972, "income": 104583, "revenue": 104583}, {"ein": "222490128", "name": "CHRISTMAS WISH CAMPAIGN INC", "city": "LATHAM", "state": "NY", "zip": "12110-1046", "ntee": "O12", "ruling": "202407", "deductibility": "1", "assets": 8045, "income": 153260, "revenue": 153260}, {"ein": "222500463", "name": "BROOME COUNTY NUCLEAR WEAPONS REDUTION CAMPAIGN INC", "city": "BINGHAMTON", "state": "NY", "zip": "13902-1611", "ntee": "B01", "ruling": "202406", "deductibility": "1", "assets": 0, "income": 0, "revenue": 0}, {"ein": "237107249", "name": "GREATER LF COMMUNITY CHEST CAMPAIGN MARY HAGGERTY", "city": "LITTLE FALLS", "state": "NY", "zip": "13365-1417", "ntee": "T700", "ruling": "197110", "deductibility": "1", "assets": 126937, "income": 66477, "revenue": 66477}, {"ein": "270288919", "name": "NATIONAL GIVE BACK FOR KIDS CAMPAIGN", "city": "BRONX", "state": "NY", "zip": "10473-2499", "ntee": "O50", "ruling": "201003", "deductibility": "1", "assets": 0, "income": 0, "revenue": 0}, {"ein": "275305580", "name": "CAMPAIGN FOR HUMAN RIGHTS INC", "city": "BROOKLYN", "state": "NY", "zip": "11201-3548", "ntee": "Q037", "ruling": "201110", "deductibility": "1", "assets": 2181263, "income": 2093278, "revenue": 2093278}, {"ein": "454041229", "name": "CENTRAL NEW YORK BRAIN ANEURYSM AWARENESS CAMPAIGN", "city": "EAST SYRACUSE", "state": "NY", "zip": "13057-2132", "ntee": "H96", "ruling": "201709", "deductibility": "1", "assets": 0, "income": 0, "revenue": 0}, {"ein": "463930999", "name": "FEED THE HUNGRY CAMPAIGN INC", "city": "WEST HEMPSTEAD", "state": "NY", "zip": "11552-2148", "ntee": "P99", "ruling": "201407", "deductibility": "1", "assets": 0, "income": 0, "revenue": 0}, {"ein": "464296794", "name": "CAMPAIGN FOR ONE NEW YORK", "city": "BROOKLYN", "state": "NY", "zip": "11201-0000", "ntee": "R20", "ruling": "201607", "deductibility": "2", "assets": 0, "income": 0, "revenue": 0}, {"ein": "465621817", "name": "THE CAMPAIGN TO KEEP GUNS OFF CAMPUS INC", "city": "CROTON FALLS", "state": "NY", "zip": "10519-0000", "ntee": "R99", "ruling": "201504", "deductibility": "1", "assets": 32779, "income": 220467, "revenue": 205168}, {"ein": "465645788", "name": "THE ALL IN TOGETHER CAMPAIGN INC", "city": "HARRISON", "state": "NY", "zip": "10528-0758", "ntee": "R99", "ruling": "201412", "deductibility": "1", "assets": 519025, "income": 912363, "revenue": 912363}, {"ein": "473336748", "name": "ALPHA THETA COMMUNITY IMPROVEMENT CAMPAIGN INC", "city": "ITHACA", "state": "NY", "zip": "14850-3907", "ntee": "S20", "ruling": "201503", "deductibility": "1", "assets": 0, "income": 0, "revenue": 0}, {"ein": "611713449", "name": "MOUNT VERNON BOARD CAMPAIGN ACTION COMMITTEE INC", "city": "MOUNT VERNON", "state": "NY", "zip": "10553-2018", "ntee": "B012", "ruling": "201403", "deductibility": "2", "assets": 0, "income": 0, "revenue": 0}, {"ein": "650582580", "name": "CAMPAIGN FOR POSITIVE DEVELOPMENT INC", "city": "NEW YORK", "state": "NY", "zip": "10019-6233", "ntee": "O51", "ruling": "199509", "deductibility": "1", "assets": 0, "income": 0, "revenue": 0}, {"ein": "814921393", "name": "ANTI-BULLYING CAMPAIGN CORP", "city": "CEDARHURST", "state": "NY", "zip": "11516-1321", "ntee": "I21", "ruling": "201705", "deductibility": "1", "assets": 0, "income": 0, "revenue": 0}, {"ein": "833757971", "name": "PREVENTION ACCESS CAMPAIGN INC", "city": "NEW YORK", "state": "NY", "zip": "10014-3817", "ntee": "G80", "ruling": "201907", "deductibility": "1", "assets": 8832, "income": 320548, "revenue": 320548}, {"ein": "843362886", "name": "CAMPAIGN D INC", "city": "ROCHESTER", "state": "NY", "zip": "14624-6901", "ntee": "G84", "ruling": "201912", "deductibility": "1", "assets": 0, "income": 0, "revenue": 0}, {"ein": "844058366", "name": "FIVE BOROUGH JOBS CAMPAIGN", "city": "NEW YORK", "state": "NY", "zip": "10022-6736", "ntee": "S30", "ruling": "202312", "deductibility": "2", "assets": 42547, "income": 87000, "revenue": 87000}, {"ein": "852043697", "name": "MAKING A DIFFERENCE MISSIONS CAMPAIGN", "city": "BROOKLYN", "state": "NY", "zip": "11236-1832", "ntee": "P20", "ruling": "202009", "deductibility": "1", "assets": 0, "income": 0, "revenue": 0}, {"ein": "852536954", "name": "ENCOURAGEMENT CAMPAIGN INC", "city": "S RICHMOND HL", "state": "NY", "zip": "11419-2907", "ntee": "Q30", "ruling": "202102", "deductibility": "1", "assets": 0, "income": 0, "revenue": 0}, {"ein": "853745202", "name": "CAMPAIGN-CHILDREN NEED PARENTS INC", "city": "NEW YORK", "state": "NY", "zip": "10001-2801", "ntee": "R20", "ruling": "202101", "deductibility": "1", "assets": 0, "income": 0, "revenue": 0}, {"ein": "883918696", "name": "CAMPAIGN FOR SARATOGA 250 INC", "city": "SARATOGA SPRINGS", "state": "NY", "zip": "12866-2307", "ntee": "A82", "ruling": "202306", "deductibility": "1", "assets": 96158, "income": 307707, "revenue": 307707}, {"ein": "884203155", "name": "PRIORITY WELLNESS CAMPAIGN", "city": "WATERTOWN", "state": "NY", "zip": "13601-3890", "ntee": "F01", "ruling": "202211", "deductibility": "1", "assets": 0, "income": 0, "revenue": 0}, {"ein": "922384651", "name": "GREEN CAMPAIGN INC", "city": "STATEN ISLAND", "state": "NY", "zip": "10304-5405", "ntee": "O50", "ruling": "202405", "deductibility": "1", "assets": 0, "income": 0, "revenue": 0}, {"ein": "922588596", "name": "ACCRA LITERACY CAMPAIGN INC", "city": "BRONX", "state": "NY", "zip": "10475-5432", "ntee": "A99", "ruling": "202312", "deductibility": "1", "assets": 0, "income": 0, "revenue": 0}], "HIYYA": [{"ein": "112734607", "name": "CONGREGATION TORAH VCHESED DRABBI HIYYA", "city": "BROOKLYN", "state": "NY", "zip": "11211-0000", "ntee": "", "ruling": "198509", "deductibility": "1", "assets": 0, "income": 0, "revenue": 0}], "YESHUAS": [{"ein": "112849718", "name": "YESHUAS YOSEF", "city": "BROOKLYN", "state": "NY", "zip": "11204-1122", "ntee": "", "ruling": "198707", "deductibility": "1", "assets": 0, "income": 0, "revenue": 0}, {"ein": "113491835", "name": "CONGREGATION YESHUAS YAAKOV INC", "city": "BROOKLYN", "state": "NY", "zip": "11204-1404", "ntee": "X30", "ruling": "199907", "deductibility": "1", "assets": 0, "income": 0, "revenue": 0}, {"ein": "472685295", "name": "YESHUAS HASHEM INC", "city": "BROOKLYN", "state": "NY", "zip": "11219-3804", "ntee": "X30", "ruling": "201603", "deductibility": "1", "assets": 0, "income": 0, "revenue": 0}, {"ein": "854309445", "name": "YESHUAS YAAKOV FOUNDATION", "city": "BROOKLYN", "state": "NY", "zip": "11204-1482", "ntee": "T50", "ruling": "202208", "deductibility": "1", "assets": 264242, "income": 1, "revenue": 0}, {"ein": "872264921", "name": "YESHUAS HABAYIS INC", "city": "MONSEY", "state": "NY", "zip": "10952-2451", "ntee": "P60", "ruling": "202201", "deductibility": "1", "assets": 699223, "income": 44832, "revenue": 44832}], "HALLS": [{"ein": "112915067", "name": "BROOKLYN ASSEMBLY HALLS OF JEHOVAHS WITNESSES INC", "city": "BROOKLYN", "state": "NY", "zip": "11226-5006", "ntee": "", "ruling": "198907", "deductibility": "1", "assets": 0, "income": 0, "revenue": 0}, {"ein": "237243484", "name": "NEW YORK GOSPEL HALLS INC", "city": "BROOKLYN", "state": "NY", "zip": "11229-2412", "ntee": "", "ruling": "197212", "deductibility": "1", "assets": 0, "income": 0, "revenue": 0}], "MERN": [{"ein": "113018295", "name": "KUNG MERN SERN TAO RU DER ASSOCIATION INC", "city": "WOODHAVEN", "state": "NY", "zip": "11421-1306", "ntee": "", "ruling": "199306", "deductibility": "1", "assets": 0, "income": 0, "revenue": 0}, {"ein": "113234077", "name": "KUNG MERN SERN TAO CHANG-TAO ASSOCIATION INC", "city": "FLUSHING", "state": "NY", "zip": "11354-2326", "ntee": "X99Z", "ruling": "199510", "deductibility": "1", "assets": 0, "income": 0, "revenue": 0}], "HALBOSHO": [{"ein": "113037636", "name": "KEREN HALBOSHO D MESIVTA IMREI YOSEF SPINKA", "city": "BROOKLYN", "state": "NY", "zip": "11210-3714", "ntee": "", "ruling": "199102", "deductibility": "1", "assets": 0, "income": 0, "revenue": 0}], "JOSHUA": [{"ein": "113046674", "name": "CONGREGATION OHR JOSHUA TOLDOTH ARON INC", "city": "BROOKLYN", "state": "NY", "zip": "11211-7207", "ntee": "", "ruling": "199103", "deductibility": "1", "assets": 0, "income": 0, "revenue": 0}, {"ein": "113265294", "name": "JOSHUA MISSIONARY BAPTIST CHURCH", "city": "HUNTINGTON", "state": "NY", "zip": "11743-5504", "ntee": "X20", "ruling": "200403", "deductibility": "1", "assets": 0, "income": 0, "revenue": 0}, {"ein": "113516985", "name": "NEW BREED CHURCH OF THE JOSHUA AND CALEB MINISTRIES", "city": "BROOKLYN", "state": "NY", "zip": "11231-2457", "ntee": "X20", "ruling": "200005", "deductibility": "1", "assets": 0, "income": 0, "revenue": 0}, {"ein": "132624874", "name": "JOSHUA S KOENIGSBERG MEMORIAL FOUNDATION INC", "city": "CEDARHURST", "state": "NY", "zip": "11516-1011", "ntee": "", "ruling": "196904", "deductibility": "1", "assets": 50942, "income": 47, "revenue": 0}, {"ein": "132980451", "name": "JOSHUA LODGE 890 FREE AND ACCEPTED MASONS OF NEW YORK", "city": "BROOKLYN", "state": "NY", "zip": "11215-4016", "ntee": "Y42", "ruling": "201708", "deductibility": "1", "assets": 0, "income": 0, "revenue": 0}, {"ein": "133091539", "name": "ABRAHAM JOSHUA HESCHEL SCHOOL", "city": "NEW YORK", "state": "NY", "zip": "10023-7809", "ntee": "B200", "ruling": "198112", "deductibility": "1", "assets": 176011189, "income": 98169207, "revenue": 66681264}, {"ein": "133450262", "name": "JOSHUA L MAILMAN CHARITABLE TRUST", "city": "NEW YORK", "state": "NY", "zip": "10020-0000", "ntee": "", "ruling": "198803", "deductibility": "1", "assets": 748, "income": 3953, "revenue": 0}, {"ein": "133758856", "name": "HEALING CHURCH OF JOSHUA INC", "city": "BRONX", "state": "NY", "zip": "10473-4708", "ntee": "", "ruling": "199404", "deductibility": "1", "assets": 0, "income": 0, "revenue": 0}, {"ein": "161427778", "name": "JOSHUA HOUSE INC", "city": "SIDNEY", "state": "NY", "zip": "13838-1102", "ntee": "F33", "ruling": "199307", "deductibility": "1", "assets": 0, "income": 0, "revenue": 0}, {"ein": "200263270", "name": "JOSHUA N SOLOMON FOUNDATION", "city": "NEW YORK", "state": "NY", "zip": "10016-0000", "ntee": "T22", "ruling": "200407", "deductibility": "1", "assets": 578692, "income": 1270538, "revenue": 0}, {"ein": "200741960", "name": "JOSHUA REVOLUTION", "city": "GRAND ISLAND", "state": "NY", "zip": "14072-0923", "ntee": "X21", "ruling": "200502", "deductibility": "1", "assets": 0, "income": 0, "revenue": 0}, {"ein": "205520413", "name": "JOSHUA MAILMAN FOUNDATION", "city": "NEW YORK", "state": "NY", "zip": "10020-0000", "ntee": "T22", "ruling": "200705", "deductibility": "1", "assets": 12465510, "income": 2907825, "revenue": 0}, {"ein": "223072537", "name": "JOSHUA FOUNDATION INC", "city": "ALTAMONT", "state": "NY", "zip": "12009-6321", "ntee": "F60", "ruling": "201505", "deductibility": "1", "assets": 0, "income": 0, "revenue": 0}, {"ein": "256164956", "name": "CHARLES JOSHUA RIBBLET TRUST FD B TEST TR FBO ALLEGHENY LUTH HOME", "city": "BUFFALO", "state": "NY", "zip": "14240-1504", "ntee": "T20", "ruling": "200506", "deductibility": "1", "assets": 237590, "income": 64307, "revenue": 0}, {"ein": "364543986", "name": "CONGREGATION PNEI JOSHUA", "city": "BROOKLYN", "state": "NY", "zip": "11219-3738", "ntee": "X30", "ruling": "200405", "deductibility": "1", "assets": 0, "income": 0, "revenue": 0}, {"ein": "454002903", "name": "JOSHUA LUKE CHAVARRIA FOUNDATION INC", "city": "MANLIUS", "state": "NY", "zip": "13104-2317", "ntee": "B82", "ruling": "201411", "deductibility": "1", "assets": 0, "income": 0, "revenue": 0}, {"ein": "463928870", "name": "JOSHUA FUND INC", "city": "LAKE PLACID", "state": "NY", "zip": "12946-3492", "ntee": "D20", "ruling": "201409", "deductibility": "1", "assets": 229996, "income": 178884, "revenue": 178884}, {"ein": "814020893", "name": "JOSHUA OPPONG-PEPRAH SCHOLARSHIP FUND", "city": "BRONX", "state": "NY", "zip": "10473-4631", "ntee": "B82", "ruling": "201704", "deductibility": "1", "assets": 0, "income": 0, "revenue": 0}, {"ein": "824122952", "name": "JOSHUA M WEINER FOUNDATION INC", "city": "RYE BROOK", "state": "NY", "zip": "10573-1300", "ntee": "O12", "ruling": "201803", "deductibility": "1", "assets": 61995, "income": 8255, "revenue": 8255}, {"ein": "861863752", "name": "JOSHUA PROJECT OF SCHOHARIE COUNTY", "city": "MIDDLEBURGH", "state": "NY", "zip": "12122-0413", "ntee": "P20", "ruling": "202203", "deductibility": "1", "assets": 207921, "income": 136698, "revenue": 136698}, {"ein": "992716587", "name": "JOSHUA ULLOA FOUNDATION CORPORATION", "city": "ROCHESTER", "state": "NY", "zip": "14623-2746", "ntee": "N60", "ruling": "202406", "deductibility": "1", "assets": 0, "income": 0, "revenue": 0}, {"ein": "993754874", "name": "JOSHUA BELL ORCHESTRA INC", "city": "NEW YORK", "state": "NY", "zip": "10035-1075", "ntee": "A68", "ruling": "202408", "deductibility": "1", "assets": 0, "income": 0, "revenue": 0}], "YAKAV": [{"ein": "113065083", "name": "KEREN TOLDOS YAKAV YOSEFF", "city": "BROOKLYN", "state": "NY", "zip": "11219-5017", "ntee": "", "ruling": "199108", "deductibility": "1", "assets": 0, "income": 0, "revenue": 0}], "SALVACION": [{"ein": "113081193", "name": "IGLESIA PENTECOSTAL ROCA DE SALVACION INDEPENDIENTE INC", "city": "HEMPSTEAD", "state": "NY", "zip": "11550-1317", "ntee": "X20Z", "ruling": "199811", "deductibility": "1", "assets": 0, "income": 0, "revenue": 0}, {"ein": "113138497", "name": "IGL FUENTE DE SALVACION", "city": "BROOKLYN", "state": "NY", "zip": "11226-4212", "ntee": "", "ruling": "196408", "deductibility": "1", "assets": 0, "income": 0, "revenue": 0}, {"ein": "113249478", "name": "IGLESIA CAMINO DE SALVACION INC", "city": "BAY SHORE", "state": "NY", "zip": "11706-3032", "ntee": "X21Z", "ruling": "199801", "deductibility": "1", "assets": 410322, "income": 16, "revenue": 16}, {"ein": "113260467", "name": "IGLESIA PENTECOSTAL ARCE DE SALVACION ASSEMBLY OF GOD INC", "city": "BROOKLYN", "state": "NY", "zip": "11205-2348", "ntee": "X20", "ruling": "200109", "deductibility": "1", "assets": 0, "income": 0, "revenue": 0}, {"ein": "113328846", "name": "IGLESIA EVANGELICA PENTECOSTES ARCA DE SALVACION", "city": "CORONA", "state": "NY", "zip": "11368-1861", "ntee": "X20Z", "ruling": "199707", "deductibility": "1", "assets": 0, "income": 0, "revenue": 0}, {"ein": "113506973", "name": "MINISTERIOS DE SALVACION Y RESTAURACION EN JESUCRISTO", "city": "ELMHURST", "state": "NY", "zip": "11373-2948", "ntee": "X20", "ruling": "200105", "deductibility": "1", "assets": 0, "income": 0, "revenue": 0}, {"ein": "133387768", "name": "ROCA DE SALVACION", "city": "SLEEPY HOLLOW", "state": "NY", "zip": "10591-2701", "ntee": "", "ruling": "196408", "deductibility": "1", "assets": 0, "income": 0, "revenue": 0}, {"ein": "133965311", "name": "EL ARCA DE SALVACION DE LA ACYM", "city": "BRONX", "state": "NY", "zip": "10457-5700", "ntee": "", "ruling": "197205", "deductibility": "1", "assets": 0, "income": 0, "revenue": 0}, {"ein": "201010820", "name": "IGLESIA ROCA DE SALVACION INC", "city": "ISLIP", "state": "NY", "zip": "11751-3019", "ntee": "X20", "ruling": "200804", "deductibility": "1", "assets": 973580, "income": 703250, "revenue": 703250}, {"ein": "201987841", "name": "IGLESIA ROCA DE SALVACION INC", "city": "BRENTWOOD", "state": "NY", "zip": "11717-3516", "ntee": "X21", "ruling": "200410", "deductibility": "1", "assets": 293505, "income": 117683, "revenue": 117683}, {"ein": "202451912", "name": "MINISTERIOS ROCA DE SALVACION INC", "city": "BRENTWOOD", "state": "NY", "zip": "11717-3516", "ntee": "X21", "ruling": "200410", "deductibility": "1", "assets": 13830, "income": 8735, "revenue": 8735}, {"ein": "204763224", "name": "IGLESIA ROCA DE SALVACION", "city": "BUFFALO", "state": "NY", "zip": "14207-2720", "ntee": "", "ruling": "196402", "deductibility": "1", "assets": 0, "income": 0, "revenue": 0}, {"ein": "223390489", "name": "IGLESIA PENTECOSTAL PUERTA DE SALVACION", "city": "NEW YORK", "state": "NY", "zip": "10011-4438", "ntee": "X20", "ruling": "199901", "deductibility": "1", "assets": 0, "income": 0, "revenue": 0}, {"ein": "237250058", "name": "IGLESIA CRISTIANA BUENAS NUEVAS DE SALVACION", "city": "BROOKLYN", "state": "NY", "zip": "11207-1201", "ntee": "", "ruling": "197212", "deductibility": "1", "assets": 0, "income": 0, "revenue": 0}, {"ein": "262936402", "name": "IGLESIA DE DIOS CAMINO DE SALVACION INC", "city": "BRENTWOOD", "state": "NY", "zip": "11717-0359", "ntee": "X21", "ruling": "200904", "deductibility": "1", "assets": 1, "income": 0, "revenue": 0}, {"ein": "270820238", "name": "M I IGLESIA CRISTIANA ROCA DE SALVACION INC", "city": "BRONX", "state": "NY", "zip": "10455-1104", "ntee": "X21", "ruling": "202309", "deductibility": "1", "assets": 0, "income": 0, "revenue": 0}, {"ein": "271126357", "name": "IGLESIA PENTECOSTAL ROCA DE SALVACION DE PATCHOGUE INC", "city": "PATCHOGUE", "state": "NY", "zip": "11772-1336", "ntee": "X21", "ruling": "200410", "deductibility": "2", "assets": 1, "income": 98247, "revenue": 98247}, {"ein": "421579321", "name": "PRIMERA IGLESIA PENTECOSTAL ROCA DE SALVACION INC", "city": "BRENTWOOD", "state": "NY", "zip": "11717-3516", "ntee": "X21", "ruling": "200304", "deductibility": "1", "assets": 3327422, "income": 280700, "revenue": 280700}, {"ein": "465499956", "name": "IGLESIA DE DIOS PENTECOSTAL MI CASA DE SALVACION INC", "city": "BRONX", "state": "NY", "zip": "10472-4904", "ntee": "X21", "ruling": "201502", "deductibility": "1", "assets": 0, "income": 0, "revenue": 0}, {"ein": "472764413", "name": "MINISTERIO EVANGELICO MISIONERO VOZ DE SALVACION", "city": "WYANDANCH", "state": "NY", "zip": "11798-2731", "ntee": "X20", "ruling": "201806", "deductibility": "1", "assets": 0, "income": 0, "revenue": 0}, {"ein": "473968515", "name": "IGLESIA SEGUNDA LUZ DE SALVACION DE AIC", "city": "E NORTHPORT", "state": "NY", "zip": "11731-4702", "ntee": "X20", "ruling": "202004", "deductibility": "1", "assets": 973838, "income": 296116, "revenue": 296116}, {"ein": "475168355", "name": "PRIMERA IGLESIA BAUTISTA BUENAS NUEVAS DE SALVACION CORP", "city": "UNIONDALE", "state": "NY", "zip": "11553-1715", "ntee": "X20", "ruling": "202210", "deductibility": "1", "assets": 0, "income": 0, "revenue": 0}, {"ein": "542170352", "name": "IGLESIA PENTECOSTAL REFUGIO DE SALVACION DE COPIAGUE INC", "city": "FARMINGDALE", "state": "NY", "zip": "11735-5600", "ntee": "X21", "ruling": "202303", "deductibility": "1", "assets": 570452, "income": 211916, "revenue": 211916}, {"ein": "651255879", "name": "IGLESIA PENTECOSTAL ARCA DE SALVACION INC", "city": "NEW YORK", "state": "NY", "zip": "10002-0000", "ntee": "X20", "ruling": "200901", "deductibility": "1", "assets": 75904, "income": 10800, "revenue": 10800}, {"ein": "753116753", "name": "MINISTERIOS ROCA DE SALVACION INC", "city": "BRENTWOOD", "state": "NY", "zip": "11717-3516", "ntee": "X21", "ruling": "200410", "deductibility": "1", "assets": 497611, "income": 138626, "revenue": 138626}, {"ein": "811638835", "name": "IGLESIA ROCA DE SALVACION DE BRENTWOOD AIC INC", "city": "BRENTWOOD", "state": "NY", "zip": "11717-5615", "ntee": "X20", "ruling": "201710", "deductibility": "1", "assets": 273045, "income": 128588, "revenue": 128588}, {"ein": "811811532", "name": "APOSTOLES Y PROFETAS EFESIOS 220 LUZ DE SALVACION", "city": "GLEN COVE", "state": "NY", "zip": "11542-2953", "ntee": "X20", "ruling": "201905", "deductibility": "1", "assets": 0, "income": 0, "revenue": 0}, {"ein": "812777232", "name": "CONCILIO EVANGELICO LA SALVACION INC", "city": "BRONX", "state": "NY", "zip": "10472-3019", "ntee": "X20", "ruling": "201611", "deductibility": "1", "assets": 0, "income": 0, "revenue": 0}, {"ein": "813178592", "name": "IGLESIA PENTECOSTAL REFUGIO DE SALVACION DE JAMAICA INC", "city": "JAMAICA", "state": "NY", "zip": "11435-0302", "ntee": "X21", "ruling": "201706", "deductibility": "1", "assets": 0, "income": 0, "revenue": 0}, {"ein": "815052827", "name": "IGLESIA LUZ DE SALVACION DE AIC INC", "city": "HUNTINGTN STA", "state": "NY", "zip": "11746-1708", "ntee": "X21", "ruling": "202110", "deductibility": "1", "assets": 305245, "income": 367275, "revenue": 367275}, {"ein": "830402581", "name": "IGLESIA PENTECOSTAL JESUS ES REFUGIO Y SALVACION INC", "city": "WESTBURY", "state": "NY", "zip": "11590-3239", "ntee": "X20", "ruling": "202503", "deductibility": "1", "assets": 0, "income": 0, "revenue": 0}, {"ein": "830532559", "name": "IGLESIA DE DIOS PALABRA DE SALVACION", "city": "BRONX", "state": "NY", "zip": "10471-0602", "ntee": "X20", "ruling": "201902", "deductibility": "1", "assets": 0, "income": 0, "revenue": 0}, {"ein": "873150802", "name": "CONCILIO EVANGELICO PENTECOSTAL ARCA DE SALVACION INC", "city": "BROOKLYN", "state": "NY", "zip": "11208-1726", "ntee": "X21", "ruling": "202206", "deductibility": "1", "assets": 0, "income": 0, "revenue": 0}, {"ein": "912184704", "name": "IGLESIA EVANGELICA REFUGIO DE SALVACION INC", "city": "PATCHOGUE", "state": "NY", "zip": "11772-3559", "ntee": "X21", "ruling": "201209", "deductibility": "1", "assets": 0, "income": 0, "revenue": 0}, {"ein": "920763221", "name": "MINISTERIO PROFETICO CASA DE SALVACION Y BENDICION INC", "city": "BRONX", "state": "NY", "zip": "10472-6600", "ntee": "X20", "ruling": "202403", "deductibility": "1", "assets": 0, "income": 0, "revenue": 0}, {"ein": "933489204", "name": "LA FUENTE DE SALVACION CHURCH INC", "city": "BROOKLYN", "state": "NY", "zip": "11226-4212", "ntee": "X20", "ruling": "202501", "deductibility": "1", "assets": 0, "income": 0, "revenue": 0}], "SIP": [{"ein": "113104312", "name": "LOS SURES SIP HOUSING DEVELOPMENT FUND CORPORATION", "city": "BROOKLYN", "state": "NY", "zip": "11211-1727", "ntee": "L21", "ruling": "201503", "deductibility": "1", "assets": 6577324, "income": 1640353, "revenue": 1640353}], "EPARCHY": [{"ein": "113233189", "name": "EPARCHY OF SAINT MARON OF BROOKLYN", "city": "BROOKLYN", "state": "NY", "zip": "11201-4212", "ntee": "", "ruling": "194603", "deductibility": "0", "assets": 0, "income": 0, "revenue": 0}], "NOEL": [{"ein": "113271472", "name": "THE NOEL POINTER FOUNDATION INC", "city": "BROOKLYN", "state": "NY", "zip": "11216-2635", "ntee": "", "ruling": "199602", "deductibility": "1", "assets": 1799594, "income": 2576376, "revenue": 2576376}, {"ein": "134074336", "name": "NOEL AND HARRIETTE LEVINE FOUNDATION INC", "city": "NEW YORK", "state": "NY", "zip": "10019-2701", "ntee": "T22", "ruling": "200004", "deductibility": "1", "assets": 8206947, "income": 2535011, "revenue": 0}, {"ein": "820774882", "name": "NOEL COWARD ARCHIVE US INC", "city": "NEW YORK", "state": "NY", "zip": "10010-7729", "ntee": "A11", "ruling": "201707", "deductibility": "1", "assets": 0, "income": 0, "revenue": 0}, {"ein": "823590394", "name": "NOEL SHOE MUSEUM", "city": "NEW YORK", "state": "NY", "zip": "10065-0060", "ntee": "A51", "ruling": "202309", "deductibility": "1", "assets": 40900, "income": 109909, "revenue": 109909}, {"ein": "872321352", "name": "NOEL AND VALERIE GRIER FOUNDATION", "city": "JAMAICA", "state": "NY", "zip": "11434-1448", "ntee": "A12", "ruling": "202111", "deductibility": "1", "assets": 1684, "income": 1684, "revenue": 0}], "VH": [{"ein": "113347819", "name": "VH PROPERTIES INC", "city": "JAMAICA", "state": "NY", "zip": "11432-3320", "ntee": "S47", "ruling": "201102", "deductibility": "2", "assets": 0, "income": 0, "revenue": 0}], "BUEN": [{"ein": "113356057", "name": "IGLESIA PENTECOSTAL DE JESUCRISTO EL BUEN SAMARITANO", "city": "BROOKLYN", "state": "NY", "zip": "11220-1037", "ntee": "X212", "ruling": "198709", "deductibility": "1", "assets": 0, "income": 0, "revenue": 0}, {"ein": "113449415", "name": "IGLESIA PENTECOSTAL EL BUEN PASTOR INC", "city": "BROOKLYN", "state": "NY", "zip": "11206-3302", "ntee": "X20", "ruling": "199902", "deductibility": "1", "assets": 0, "income": 0, "revenue": 0}, {"ein": "113524050", "name": "IGLESIA PENTECOSTAL EL BUEN PASTOR INC", "city": "BRENTWOOD", "state": "NY", "zip": "11717-3230", "ntee": "X21", "ruling": "200305", "deductibility": "1", "assets": 3015415, "income": 285583, "revenue": 285583}, {"ein": "921102741", "name": "ECO BUEN VIVIR NY INC", "city": "BRONX", "state": "NY", "zip": "10462-4833", "ntee": "C30", "ruling": "202301", "deductibility": "1", "assets": 1, "income": 2500, "revenue": 2500}], "SIKHS": [{"ein": "113483921", "name": "UNITED SIKHS", "city": "NEW YORK", "state": "NY", "zip": "10116-7203", "ntee": "P84", "ruling": "200304", "deductibility": "1", "assets": 4996373, "income": 2226787, "revenue": 2226787}, {"ein": "320737261", "name": "SIKHS OF WESTCHESTER INC", "city": "HARTSDALE", "state": "NY", "zip": "10530-1226", "ntee": "A23", "ruling": "202310", "deductibility": "1", "assets": 0, "income": 0, "revenue": 0}, {"ein": "843942536", "name": "SIKHS OF WESTCHESTER INC", "city": "HARTSDALE", "state": "NY", "zip": "10530-1226", "ntee": "A23", "ruling": "202309", "deductibility": "1", "assets": 0, "income": 0, "revenue": 0}, {"ein": "854148842", "name": "UNITED SIKHS INTERNATIONAL INC", "city": "S RICHMOND HL", "state": "NY", "zip": "11419-1235", "ntee": "P20", "ruling": "202107", "deductibility": "1", "assets": 0, "income": 0, "revenue": 0}, {"ein": "872151212", "name": "GLOBAL FEDERATION OF SOCIETIES OF AFGHAN-HINDUS AND SIKHS", "city": "HICKSVILLE", "state": "NY", "zip": "11801-1302", "ntee": "P60", "ruling": "202210", "deductibility": "1", "assets": 0, "income": 0, "revenue": 0}], "HAKKA": [{"ein": "113488551", "name": "HAKKA ASSOCIATION OF N Y INC", "city": "FLUSHING", "state": "NY", "zip": "11355-3667", "ntee": "A23", "ruling": "200803", "deductibility": "1", "assets": 0, "income": 0, "revenue": 0}, {"ein": "814143788", "name": "TAIWANESE HAKKA ASSOCIATIONS OF AMERICA", "city": "HEMPSTEAD", "state": "NY", "zip": "11550-4919", "ntee": "A23", "ruling": "201805", "deductibility": "1", "assets": 8594, "income": 1700, "revenue": 1700}], "KSHANOV": [{"ein": "113492802", "name": "CONGREGATION BEIS KSHANOV INC", "city": "BROOKLYN", "state": "NY", "zip": "11219-3746", "ntee": "", "ruling": "200505", "deductibility": "1", "assets": 0, "income": 0, "revenue": 0}], "RJL": [{"ein": "113508299", "name": "RJL CHARITABLE FOUNDATION", "city": "DOUGLASTON", "state": "NY", "zip": "11363-1526", "ntee": "T22", "ruling": "200004", "deductibility": "1", "assets": 51101, "income": 254787, "revenue": 0}], "TZOIN": [{"ein": "113519048", "name": "CHEVRA TZOIN KODOSHIM", "city": "BROOKLYN", "state": "NY", "zip": "11210-3714", "ntee": "", "ruling": "200001", "deductibility": "1", "assets": 0, "income": 0, "revenue": 0}, {"ein": "133861021", "name": "TALMUD TORAH TZOIN YOSEF PUPA INC", "city": "SPRING VALLEY", "state": "NY", "zip": "10977-5625", "ntee": "X30Z", "ruling": "199604", "deductibility": "1", "assets": 0, "income": 0, "revenue": 0}, {"ein": "134050698", "name": "YESHIVA TZOIN YOSEF PUPA INC", "city": "SPRING VALLEY", "state": "NY", "zip": "10977-3322", "ntee": "X30", "ruling": "199908", "deductibility": "1", "assets": 0, "income": 0, "revenue": 0}, {"ein": "223686893", "name": "SHAREI TZOIN KUDUSHIM", "city": "BROOKLYN", "state": "NY", "zip": "11211-8119", "ntee": "X30", "ruling": "200002", "deductibility": "1", "assets": 0, "income": 0, "revenue": 0}], "MASTER": [{"ein": "113601529", "name": "BOEING COMPANY VEBA MASTER TRUST", "city": "BROOKLYN", "state": "NY", "zip": "11245-0003", "ntee": "Y43", "ruling": "200210", "deductibility": "2", "assets": 6010499, "income": 2823917292, "revenue": 2823917292}, {"ein": "130453215", "name": "ASSOCIATION OF MASTER PAINTERS AND DECORATORS OF THE CITY OF NEW YORK", "city": "NEW YORK", "state": "NY", "zip": "10001-3967", "ntee": "", "ruling": "194409", "deductibility": "2", "assets": 1160521, "income": 120573, "revenue": 94621}, {"ein": "132923724", "name": "ASSOCIATION OF MASTER PNTRS & DECO RATORS OF NYC IND PROMOTION FUND", "city": "NEW YORK", "state": "NY", "zip": "10001-0024", "ntee": "", "ruling": "197803", "deductibility": "2", "assets": 2409051, "income": 1316296, "revenue": 1316296}, {"ein": "133329253", "name": "CONSOLIDATED EDISON MASTER WELFARE BENEFIT PLAN TRUST", "city": "NEW YORK", "state": "NY", "zip": "10003-3502", "ntee": "", "ruling": "198607", "deductibility": "2", "assets": 56504293, "income": 4670104, "revenue": 2733314}, {"ein": "133724150", "name": "THE SUPREME MASTER CHING HAI INTERNATIONAL ASSOCIATION IN NEW Y", "city": "QUEENS", "state": "NY", "zip": "11432-1337", "ntee": "", "ruling": "202011", "deductibility": "1", "assets": 0, "income": 0, "revenue": 0}, {"ein": "134059113", "name": "CONSOLIDATED EDISON MASTER VEBA RET HEALTH TR FOR WEEKLY EMPLOYEES", "city": "NEW YORK", "state": "NY", "zip": "10003-3502", "ntee": "Y43", "ruling": "199909", "deductibility": "2", "assets": 492300877, "income": 72735836, "revenue": 31822131}, {"ein": "136007196", "name": "CHURCH OF THE MASTER-REFORMED", "city": "BRONX", "state": "NY", "zip": "10465-2230", "ntee": "", "ruling": "196801", "deductibility": "1", "assets": 0, "income": 0, "revenue": 0}, {"ein": "136183014", "name": "INDUSTRY ADVANCEMENT FUND MASTER PLMBR ASSOC OF ROCKLAND CTY & VIC", "city": "WARWICK", "state": "NY", "zip": "10990-0000", "ntee": "", "ruling": "197109", "deductibility": "2", "assets": 661595, "income": 166976, "revenue": 166976}, {"ein": "136213667", "name": "MASTER DRAWINGS ASSOCIATION INC", "city": "NEW YORK", "state": "NY", "zip": "10016-3405", "ntee": "", "ruling": "196702", "deductibility": "1", "assets": 1805748, "income": 574347, "revenue": 520233}, {"ein": "166097159", "name": "MECHANICAL TRADES AND MASTER PLUMBERS ASSOCIATION OF CENTRAL NE", "city": "SYRACUSE", "state": "NY", "zip": "13206-1202", "ntee": "", "ruling": "196804", "deductibility": "2", "assets": 494978, "income": 120679, "revenue": 120679}, {"ein": "200219598", "name": "JAM MASTER JAY FOUNDATION FOR MUSIC", "city": "NEW YORK", "state": "NY", "zip": "10036-6600", "ntee": "B19", "ruling": "200404", "deductibility": "1", "assets": 18653, "income": 14942, "revenue": 14942}, {"ein": "203554252", "name": "NEW YORK CITY MASTER CHORALE INC", "city": "NEW YORK", "state": "NY", "zip": "10011-8436", "ntee": "A6B", "ruling": "200603", "deductibility": "1", "assets": 99814, "income": 107432, "revenue": 106230}, {"ein": "204221358", "name": "LONG ISLAND MASTER GARDENERS", "city": "BLUE POINT", "state": "NY", "zip": "11715-1004", "ntee": "C42", "ruling": "201408", "deductibility": "2", "assets": 0, "income": 0, "revenue": 0}, {"ein": "204900777", "name": "AMERICAN INTERNATIONAL BUDDHIST MASTER HONG YI RESEARCH CENTER INC", "city": "FLUSHING", "state": "NY", "zip": "11358-1517", "ntee": "X50", "ruling": "200610", "deductibility": "1", "assets": 0, "income": 0, "revenue": 0}, {"ein": "237262687", "name": "MASTER SPORTS ASSOCIATION", "city": "EAST HAMPTON", "state": "NY", "zip": "11937-1616", "ntee": "", "ruling": "197302", "deductibility": "1", "assets": 0, "income": 0, "revenue": 0}, {"ein": "454632278", "name": "NEW YORK MASTER BARBER ACADEMY INC", "city": "MIDDLETOWN", "state": "NY", "zip": "10940-5809", "ntee": "B99", "ruling": "202109", "deductibility": "1", "assets": 73568, "income": 109500, "revenue": 109500}, {"ein": "455581779", "name": "MASTER UNIT RETREATS INC", "city": "PURLING", "state": "NY", "zip": "12470-3202", "ntee": "X11", "ruling": "201408", "deductibility": "1", "assets": 1231642, "income": 232386, "revenue": 229920}, {"ein": "460644321", "name": "MASTER FASTER INC", "city": "MONROE", "state": "NY", "zip": "10950-6257", "ntee": "E80", "ruling": "201403", "deductibility": "1", "assets": 750742, "income": 5902790, "revenue": 5902790}, {"ein": "461791982", "name": "WILL OF THE MASTER DELIVERANCE CHURCH INC", "city": "MOUNT VERNON", "state": "NY", "zip": "10550-1433", "ntee": "X20", "ruling": "201303", "deductibility": "1", "assets": 0, "income": 0, "revenue": 0}, {"ein": "463434355", "name": "NYC MASTER RIGGERS ASSOCIATION INC", "city": "BRONX", "state": "NY", "zip": "10460-5602", "ntee": "J11", "ruling": "202408", "deductibility": "2", "assets": 88602, "income": 52250, "revenue": 52250}, {"ein": "465340434", "name": "IN THE MASTER S VINEYARD FAITH PROPHETIC DELIVERANCE TEACHING MIN", "city": "BROOKLYN", "state": "NY", "zip": "11225-5708", "ntee": "X21", "ruling": "201411", "deductibility": "1", "assets": 0, "income": 0, "revenue": 0}, {"ein": "852567065", "name": "MASTER ELF", "city": "HAUPPAUGE", "state": "NY", "zip": "11788-4729", "ntee": "P30", "ruling": "202010", "deductibility": "1", "assets": 27473, "income": 20575, "revenue": 12580}, {"ein": "932430385", "name": "WESTCHESTER INDEPENDENT MASTER PLUMBERS INC", "city": "BEDFORD", "state": "NY", "zip": "10506-2206", "ntee": "", "ruling": "202403", "deductibility": "0", "assets": 0, "income": 0, "revenue": 0}, {"ein": "934184362", "name": "MASTER INTENTIONS CORPORATION", "city": "SCARSDALE", "state": "NY", "zip": "10583-6157", "ntee": "B12", "ruling": "202504", "deductibility": "1", "assets": 0, "income": 0, "revenue": 0}], "HOMEWORK": [{"ein": "113653005", "name": "HOMEWORK HELPERS INC", "city": "SOUTHAMPTON", "state": "NY", "zip": "11969-5021", "ntee": "B12", "ruling": "200303", "deductibility": "1", "assets": 86111, "income": 20500, "revenue": 20500}, {"ein": "800279525", "name": "FLOROSA HOMEWORK CENTER", "city": "HEMPSTEAD", "state": "NY", "zip": "11550-7210", "ntee": "O50", "ruling": "200909", "deductibility": "1", "assets": 0, "income": 0, "revenue": 0}], "LIPSKY": [{"ein": "116037789", "name": "LIPSKY-BLUM POST 764 JEWISH WAR VETERANS OF THE USA", "city": "FLUSHING", "state": "NY", "zip": "11355-3047", "ntee": "", "ruling": "201606", "deductibility": "2", "assets": 0, "income": 0, "revenue": 0}], "MOVERS": [{"ein": "130873630", "name": "NEW YORK MOVERS TARIFF BUREAU", "city": "WYNANTSKILL", "state": "NY", "zip": "12198-2915", "ntee": "", "ruling": "194207", "deductibility": "2", "assets": 29352, "income": 35645, "revenue": 35645}, {"ein": "131943895", "name": "N Y S MOVERS & WAREHOUSEMENS ASSOCIATION INC", "city": "CLIFTON PARK", "state": "NY", "zip": "12065-0853", "ntee": "", "ruling": "196807", "deductibility": "2", "assets": 193109, "income": 124936, "revenue": 124936}, {"ein": "166034197", "name": "BUFFALO MOVERS WELFARE FUND", "city": "CHEEKTOWAGA", "state": "NY", "zip": "14227-2715", "ntee": "Y20Z", "ruling": "196611", "deductibility": "2", "assets": 0, "income": 0, "revenue": 0}, {"ein": "200111203", "name": "METROPOLITAN MOVERS ASSOCIATION", "city": "BROOKLYN", "state": "NY", "zip": "11237-1219", "ntee": "Y99", "ruling": "200402", "deductibility": "2", "assets": 34583, "income": 0, "revenue": 0}], "KOENIGSBERG": [{"ein": "132624874", "name": "JOSHUA S KOENIGSBERG MEMORIAL FOUNDATION INC", "city": "CEDARHURST", "state": "NY", "zip": "11516-1011", "ntee": "", "ruling": "196904", "deductibility": "1", "assets": 50942, "income": 47, "revenue": 0}, {"ein": "132735119", "name": "HERMAN KOENIGSBERG MEMORIAL FOUNDATION INC", "city": "CEDARHURST", "state": "NY", "zip": "11516-1011", "ntee": "", "ruling": "198302", "deductibility": "1", "assets": 24398, "income": 1, "revenue": 0}], "CHOLING": [{"ein": "132986227", "name": "PALPUNG THUBTEN CHOLING INC", "city": "WAPPINGERS FL", "state": "NY", "zip": "12590-1123", "ntee": "", "ruling": "197908", "deductibility": "1", "assets": 0, "income": 0, "revenue": 0}, {"ein": "475337143", "name": "THEKCHEN CHOLING USA SYRACUSE TEMPLE", "city": "MINOA", "state": "NY", "zip": "13116-1203", "ntee": "X50", "ruling": "201608", "deductibility": "1", "assets": 0, "income": 0, "revenue": 0}], "BANG": [{"ein": "133392963", "name": "BANG ON A CAN INC", "city": "BROOKLYN", "state": "NY", "zip": "11217-2998", "ntee": "A680", "ruling": "198801", "deductibility": "1", "assets": 1107964, "income": 3296533, "revenue": 3296533}, {"ein": "133836585", "name": "BANG GROUP INC", "city": "NEW YORK", "state": "NY", "zip": "10014-6241", "ntee": "A60", "ruling": "199509", "deductibility": "1", "assets": 2445948, "income": 1563529, "revenue": 0}], "BARON": [{"ein": "133416976", "name": "SALO W AND JEANNETTE M BARON FOUNDATION INC", "city": "NEW YORK", "state": "NY", "zip": "10019-0000", "ntee": "", "ruling": "198708", "deductibility": "1", "assets": 518258, "income": 261218, "revenue": 0}, {"ein": "135562971", "name": "BARON DE HIRSCH FUND", "city": "NEW YORK", "state": "NY", "zip": "10022-0000", "ntee": "", "ruling": "201711", "deductibility": "1", "assets": 3929075, "income": 2435, "revenue": 2435}, {"ein": "135576827", "name": "BARON HIRSCH CEMETERY ASSOCIATION INC", "city": "STATEN ISLAND", "state": "NY", "zip": "10314-1503", "ntee": "", "ruling": "193604", "deductibility": "1", "assets": 15328675, "income": 2514584, "revenue": 1487440}, {"ein": "142004657", "name": "BARON CAPITAL FOUNDATION", "city": "NEW YORK", "state": "NY", "zip": "10153-0023", "ntee": "T20", "ruling": "200710", "deductibility": "1", "assets": 46145748, "income": 7682467, "revenue": 0}, {"ein": "150628594", "name": "BARON STEUBEN LODGE NO 264 FREE AND ACCEPTED MASONS STATE OF NEW YORK", "city": "LEE CENTER", "state": "NY", "zip": "13363-0000", "ntee": "Y42", "ruling": "202208", "deductibility": "1", "assets": 0, "income": 0, "revenue": 0}, {"ein": "650375771", "name": "JOAN AND LEONARD BARON FOUNDATION INC", "city": "JERICHO", "state": "NY", "zip": "11753-2726", "ntee": "", "ruling": "199303", "deductibility": "1", "assets": 656570, "income": 17490, "revenue": 0}, {"ein": "752979875", "name": "TIGER BARON FOUNDATION INC", "city": "NEW YORK", "state": "NY", "zip": "10279-0001", "ntee": "T23", "ruling": "200303", "deductibility": "1", "assets": 122381644, "income": 25034958, "revenue": 0}], "BLOEMENDAEL": [{"ein": "133466792", "name": "LENAPE BLOEMENDAEL DISTRICT MANAGEMENT ASSOCIATION", "city": "NEW YORK", "state": "NY", "zip": "10025-2206", "ntee": "S22Z", "ruling": "199501", "deductibility": "1", "assets": 254409, "income": 566621, "revenue": 566621}], "BNFT": [{"ein": "133538907", "name": "DEATH BNFT FD OF VLNTR AND EXEMPT FRMNS BNVLNT ASSN OF PLSNTVLLE TR", "city": "PLEASANTVILLE", "state": "NY", "zip": "10570-0432", "ntee": "", "ruling": "199108", "deductibility": "2", "assets": 0, "income": 0, "revenue": 0}, {"ein": "223121057", "name": "ELLENVILLE TEACHERS SCHOOL RELATED PROFESSIONALS ASSOCIATION BNFT TST", "city": "ELLENVILLE", "state": "NY", "zip": "12428-0422", "ntee": "", "ruling": "199111", "deductibility": "2", "assets": 697107, "income": 477837, "revenue": 477837}], "LUTTON": [{"ein": "133539167", "name": "LUTTON FOUNDATION INC", "city": "NEW YORK", "state": "NY", "zip": "10006-2744", "ntee": "", "ruling": "199212", "deductibility": "1", "assets": 20880, "income": 20726, "revenue": 0}], "MEGA": [{"ein": "133558007", "name": "MEGA-CITIES PROJECT INC", "city": "NYACK", "state": "NY", "zip": "10960-1200", "ntee": "", "ruling": "199404", "deductibility": "1", "assets": 21692, "income": 25676, "revenue": 25676}], "IE": [{"ein": "133908385", "name": "SEICHO-NO-IE INTERNATIONAL", "city": "NEW YORK", "state": "NY", "zip": "10022-4801", "ntee": "X99", "ruling": "200304", "deductibility": "1", "assets": 0, "income": 0, "revenue": 0}, {"ein": "822365514", "name": "IE NEW YORK COLLEGE", "city": "NEW YORK", "state": "NY", "zip": "10012-4350", "ntee": "B42", "ruling": "201807", "deductibility": "1", "assets": 8852115, "income": 5448623, "revenue": 5448623}], "DONNA": [{"ein": "133928587", "name": "PERRY & DONNA GOLKIN FAMILY FOUNDATION", "city": "NEW YORK", "state": "NY", "zip": "10105-0021", "ntee": "J32Z", "ruling": "199708", "deductibility": "1", "assets": 23382330, "income": 5249595, "revenue": 0}, {"ein": "134145003", "name": "LA DONNA DANCE INC", "city": "NEW YORK", "state": "NY", "zip": "10003-8385", "ntee": "A62", "ruling": "200110", "deductibility": "1", "assets": 56537, "income": 64888, "revenue": 64888}, {"ein": "137114848", "name": "DONNA AND MARVIN SCHWARTZ FOUNDATION", "city": "NEW YORK", "state": "NY", "zip": "10104-0101", "ntee": "Z99Z", "ruling": "199808", "deductibility": "1", "assets": 200547090, "income": 7804040, "revenue": 0}, {"ein": "137390002", "name": "FRED AND DONNA NIVES FOUNDATION", "city": "NEW YORK", "state": "NY", "zip": "10022-0000", "ntee": "T22", "ruling": "200406", "deductibility": "1", "assets": 40371286, "income": 13967971, "revenue": 0}, {"ein": "141821465", "name": "DONNA M CRANDALL FOUNDATION INC", "city": "LOUDONVILLE", "state": "NY", "zip": "12211-1948", "ntee": "T30", "ruling": "200006", "deductibility": "1", "assets": 257230, "income": 71864, "revenue": 71864}, {"ein": "203750117", "name": "THE CARL AND DONNA ANDERSON FOUNDATION", "city": "WHITE PLAINS", "state": "NY", "zip": "10603-0000", "ntee": "T22", "ruling": "200603", "deductibility": "1", "assets": 8999, "income": 10001, "revenue": 0}, {"ein": "454954079", "name": "DONNA COMISKEY MEMORIAL SCHOLARSHIP", "city": "TROY", "state": "NY", "zip": "12182-1400", "ntee": "B82", "ruling": "201406", "deductibility": "1", "assets": 0, "income": 0, "revenue": 0}, {"ein": "463405554", "name": "MICHAEL D FRICKLAS AND DONNA J ASTION FOUNDATION", "city": "ALBANY", "state": "NY", "zip": "12212-5201", "ntee": "T22", "ruling": "201312", "deductibility": "1", "assets": 769866, "income": 772592, "revenue": 0}, {"ein": "510643451", "name": "DONNA BAPTISTE MINISTRIES", "city": "BROOKLYN", "state": "NY", "zip": "11230-8005", "ntee": "X21", "ruling": "200809", "deductibility": "1", "assets": 22355, "income": 25776, "revenue": 25776}, {"ein": "824577901", "name": "DONNA DENNIS ART FOUNDATION", "city": "GERMANTOWN", "state": "NY", "zip": "12526-5907", "ntee": "A19", "ruling": "201903", "deductibility": "1", "assets": 56202, "income": 1, "revenue": 0}, {"ein": "882870347", "name": "ROBERT E AND DONNA L WELCH CHARITABLE FOUNDATION", "city": "TROY", "state": "NY", "zip": "12180-6964", "ntee": "T23", "ruling": "202208", "deductibility": "1", "assets": 168193, "income": 4618, "revenue": 0}], "COLOMBIAN": [{"ein": "134044308", "name": "COLOMBIAN RELIEF FUND INC", "city": "NEW YORK", "state": "NY", "zip": "10022-2765", "ntee": "Q33", "ruling": "202109", "deductibility": "1", "assets": 4032790, "income": 444, "revenue": 0}, {"ein": "136162064", "name": "COLOMBIAN-AMERICAN ASSOCIATION INC", "city": "NEW YORK", "state": "NY", "zip": "10022-9847", "ntee": "", "ruling": "194905", "deductibility": "2", "assets": 19988, "income": 40230, "revenue": 40230}], "YESHAYEH": [{"ein": "134068970", "name": "CONGREGATION OHR YESHAYEH", "city": "BROOKLYN", "state": "NY", "zip": "11205-0226", "ntee": "X30", "ruling": "200103", "deductibility": "1", "assets": 0, "income": 0, "revenue": 0}], "ICD": [{"ein": "135562990", "name": "ICD INTERNATIONAL CENTER FOR THE DISABLED INC", "city": "NEW YORK", "state": "NY", "zip": "10038-3821", "ntee": "", "ruling": "193309", "deductibility": "1", "assets": 16589441, "income": 1404506, "revenue": 1404506}], "UNIFORM": [{"ein": "136115887", "name": "UNIFORM FIREFIGHTERS ASSOCIATION OF THE VILLAGE OF SCARSDALE INC", "city": "SCARSDALE", "state": "NY", "zip": "10583-0061", "ntee": "", "ruling": "197705", "deductibility": "2", "assets": 380013, "income": 156031, "revenue": 156031}], "DEBEVOISE": [{"ein": "136145073", "name": "WILLIAM E DEBEVOISE JR CORP", "city": "NEW CITY", "state": "NY", "zip": "10956-5036", "ntee": "", "ruling": "201911", "deductibility": "1", "assets": 0, "income": 0, "revenue": 0}], "MYSTICISM": [{"ein": "136162800", "name": "SOCIETY OF PRAGMATIC MYSTICISM", "city": "NEW YORK", "state": "NY", "zip": "10110-0002", "ntee": "", "ruling": "196310", "deductibility": "1", "assets": 0, "income": 0, "revenue": 0}], "AEROFLEX": [{"ein": "136168635", "name": "AEROFLEX FOUNDATION", "city": "DIX HILLS", "state": "NY", "zip": "11746-5875", "ntee": "", "ruling": "196401", "deductibility": "1", "assets": 2524416, "income": 778771, "revenue": 0}], "ABELES": [{"ein": "136259577", "name": "JOSEPH & SOPHIA ABELES FOUNDATION INC", "city": "PURCHASE", "state": "NY", "zip": "10577-1712", "ntee": "", "ruling": "196212", "deductibility": "1", "assets": 10452536, "income": 4294779, "revenue": 0}], "KRIENDLER": [{"ein": "136880589", "name": "JEANNETTE & H PETER KRIENDLER CHARITABLE TRUST", "city": "NEW YORK", "state": "NY", "zip": "10010-0000", "ntee": "", "ruling": "198802", "deductibility": "1", "assets": 8710236, "income": 2888415, "revenue": 0}], "COWEN": [{"ein": "137109419", "name": "RANDOLPH L COWEN AND PHYLLIS GREEN FOUNDATION", "city": "NEW YORK", "state": "NY", "zip": "10274-0073", "ntee": "T90Z", "ruling": "199802", "deductibility": "1", "assets": 11556793, "income": 10364483, "revenue": 0}], "HARLAN": [{"ein": "137176145", "name": "FLEUR HARLAN FOUNDATION", "city": "NEW YORK", "state": "NY", "zip": "10065-7254", "ntee": "T20", "ruling": "200005", "deductibility": "1", "assets": 51110, "income": 87462, "revenue": 0}, {"ein": "237011480", "name": "HARLAN E ANDERSON FOUNDATION", "city": "NEW YORK", "state": "NY", "zip": "10185-5016", "ntee": "", "ruling": "196904", "deductibility": "1", "assets": 18749444, "income": 14085580, "revenue": 0}], "KUFLIK": [{"ein": "137197004", "name": "MITCHELL AND KAREN KUFLIK CHARITABLE FOUNDATION", "city": "HARRISON", "state": "NY", "zip": "10528-1105", "ntee": "T22", "ruling": "200008", "deductibility": "2", "assets": 5931521, "income": 506493, "revenue": 0}], "MASLIN": [{"ein": "137230954", "name": "THE LUCILLE AND PAUL MASLIN FOUNDATION INC", "city": "PLEASANTVILLE", "state": "NY", "zip": "10570-3901", "ntee": "T20", "ruling": "200004", "deductibility": "1", "assets": 69630, "income": 89902, "revenue": 0}], "SUBCONTRACTORS": [{"ein": "141551937", "name": "NORTHEASTERN SUBCONTRACTORS ASSOCIATION INC", "city": "ALBANY", "state": "NY", "zip": "12205-1051", "ntee": "", "ruling": "197407", "deductibility": "2", "assets": 641889, "income": 888210, "revenue": 888210}, {"ein": "161384378", "name": "SUBCONTRACTORS ASSOCIATION OF WNY", "city": "BUFFALO", "state": "NY", "zip": "14227-1816", "ntee": "S41", "ruling": "199903", "deductibility": "2", "assets": 0, "income": 0, "revenue": 0}, {"ein": "237155811", "name": "SUBCONTRACTORS ASSOCIATION OF CENTRAL NEW YORK INC", "city": "MANLIUS", "state": "NY", "zip": "13104-9421", "ntee": "S40", "ruling": "201503", "deductibility": "2", "assets": 0, "income": 0, "revenue": 0}, {"ein": "510225161", "name": "EMPIRE STATE SUBCONTRACTORS ASSOCIATION INC", "city": "ALBANY", "state": "NY", "zip": "12205-1051", "ntee": "", "ruling": "197803", "deductibility": "2", "assets": 50987, "income": 54700, "revenue": 54700}], "BEVERWYCK": [{"ein": "141717028", "name": "BEVERWYCK INC", "city": "SLINGERLANDS", "state": "NY", "zip": "12159-9356", "ntee": "L220", "ruling": "199407", "deductibility": "1", "assets": 86363834, "income": 18699219, "revenue": 18699219}], "CLOWNS": [{"ein": "141746847", "name": "CLOWNS ON ROUNDS INCORPORATED", "city": "ALBANY", "state": "NY", "zip": "12206-0364", "ntee": "", "ruling": "199301", "deductibility": "1", "assets": 0, "income": 0, "revenue": 0}, {"ein": "161396234", "name": "GREASE PAINT ALLEY CLOWNS INC", "city": "ROCHESTER", "state": "NY", "zip": "14626-0679", "ntee": "O51", "ruling": "201608", "deductibility": "2", "assets": 0, "income": 0, "revenue": 0}, {"ein": "204102508", "name": "CLOWNS WITHOUT BORDERS INC", "city": "NEW YORK", "state": "NY", "zip": "10031-7342", "ntee": "A60", "ruling": "200611", "deductibility": "1", "assets": 242833, "income": 322408, "revenue": 321188}, {"ein": "934602448", "name": "GREASE PAINT ALLEY CLOWNS OF ROCHESTER INC", "city": "ROCHESTER", "state": "NY", "zip": "14626-0679", "ntee": "A20", "ruling": "202407", "deductibility": "1", "assets": 0, "income": 0, "revenue": 0}], "NEWBUGH": [{"ein": "141798871", "name": "NEWBUGH TEACHERS ASSOCIATION BUILDING CORPORATION", "city": "NEWBURGH", "state": "NY", "zip": "12550-3259", "ntee": "S47", "ruling": "200512", "deductibility": "2", "assets": 261734, "income": 86700, "revenue": 86700}], "FONDA": [{"ein": "141832349", "name": "FONDA FULTONVILLE ALUMNI ASSOCIATION", "city": "FONDA", "state": "NY", "zip": "12068-5410", "ntee": "B84", "ruling": "200608", "deductibility": "1", "assets": 0, "income": 0, "revenue": 0}, {"ein": "146036382", "name": "FONDA IMPROVEMENT SOCIETY INC", "city": "FONDA", "state": "NY", "zip": "12068-0746", "ntee": "", "ruling": "194807", "deductibility": "1", "assets": 133860, "income": 4703, "revenue": 0}, {"ein": "203108556", "name": "FONDA YOUTH SOCCER LEAGUE", "city": "FONDA", "state": "NY", "zip": "12068-0000", "ntee": "N64", "ruling": "202402", "deductibility": "1", "assets": 0, "income": 0, "revenue": 0}, {"ein": "455586227", "name": "FONDA FULTONVILLE ALL SPORTS BOOSTER CLUB INC", "city": "FONDA", "state": "NY", "zip": "12068-5410", "ntee": "B11", "ruling": "201805", "deductibility": "1", "assets": 0, "income": 0, "revenue": 0}, {"ein": "813576269", "name": "FONDA-FULTONVILLE YOUTH FOOTBALL INC", "city": "FONDA", "state": "NY", "zip": "12068-0153", "ntee": "N65", "ruling": "201608", "deductibility": "1", "assets": 0, "income": 0, "revenue": 0}, {"ein": "814191732", "name": "FONDA-FULTONVILLE COMMUNITY FOUNDATION INC", "city": "FONDA", "state": "NY", "zip": "12068-0814", "ntee": "B11", "ruling": "201704", "deductibility": "1", "assets": 0, "income": 0, "revenue": 0}], "HUMANITAS": [{"ein": "141916073", "name": "HUMANITAS THE AFRICANA ETHICAL SOCIETY INC", "city": "CORTLANDT MNR", "state": "NY", "zip": "10567-1044", "ntee": "T50", "ruling": "201605", "deductibility": "1", "assets": 0, "income": 0, "revenue": 0}], "VIA": [{"ein": "160743930", "name": "VIA VISUALLY IMPAIRED ADVANCEMENT", "city": "BUFFALO", "state": "NY", "zip": "14209-2331", "ntee": "P860", "ruling": "194207", "deductibility": "1", "assets": 20176441, "income": 17584038, "revenue": 16037174}, {"ein": "202838552", "name": "VIA COLLABORATIVE ARTS CORPORATION", "city": "BROOKLYN", "state": "NY", "zip": "11226-5513", "ntee": "A62", "ruling": "200509", "deductibility": "1", "assets": 17727, "income": 42761, "revenue": 42761}, {"ein": "264616333", "name": "VIA FOUNDATION", "city": "ORCHARD PARK", "state": "NY", "zip": "14127-3524", "ntee": "T21", "ruling": "201103", "deductibility": "1", "assets": 73638, "income": 41694, "revenue": 0}, {"ein": "271028651", "name": "VIA VERDE HOUSING DEVELOPMENT FUND CORPORATION", "city": "NEW YORK", "state": "NY", "zip": "10010-6002", "ntee": "L21", "ruling": "201207", "deductibility": "2", "assets": 0, "income": 0, "revenue": 0}, {"ein": "271340159", "name": "VIA VERDE HOMES HOUSING DEVELOPMENT FUND CORPORATION", "city": "NEW YORK", "state": "NY", "zip": "10010-6002", "ntee": "L20", "ruling": "201209", "deductibility": "2", "assets": 0, "income": 0, "revenue": 0}, {"ein": "461396192", "name": "VIA ART FUND INC", "city": "NEW YORK", "state": "NY", "zip": "10011-4001", "ntee": "A20", "ruling": "201302", "deductibility": "1", "assets": 2420071, "income": 1794763, "revenue": 1794763}, {"ein": "812839087", "name": "VIA COMMUNITY SERVICES", "city": "N BELLMORE", "state": "NY", "zip": "11710-1045", "ntee": "P20", "ruling": "201704", "deductibility": "1", "assets": 0, "income": 0, "revenue": 0}, {"ein": "821302070", "name": "VIA BROOKLYN THEATRE CORPORATION", "city": "BROOKLYN", "state": "NY", "zip": "11217-1695", "ntee": "A65", "ruling": "201904", "deductibility": "1", "assets": 0, "income": 0, "revenue": 0}, {"ein": "994062139", "name": "MIND VIA SOL INC", "city": "BRONX", "state": "NY", "zip": "10466-3344", "ntee": "P20", "ruling": "202501", "deductibility": "1", "assets": 0, "income": 0, "revenue": 0}], "HAUPTMAN": [{"ein": "160807558", "name": "HAUPTMAN-WOODWARD MEDICAL RESEARCH INSTITUTE INC", "city": "BUFFALO", "state": "NY", "zip": "14203-1102", "ntee": "H20Z", "ruling": "195712", "deductibility": "1", "assets": 26875141, "income": 8691259, "revenue": 8691259}], "TRANSP": [{"ein": "161501738", "name": "INSTITUTE OF TRANSP ENGINEERS NEW YORK UPSTATE SECTION", "city": "LIVERPOOL", "state": "NY", "zip": "13088-6053", "ntee": "B60Z", "ruling": "199707", "deductibility": "1", "assets": 0, "income": 0, "revenue": 0}, {"ein": "262384371", "name": "METROPOLITAN SECTION OF NEW YORK AND NEW JERSEY INSTITUTE OF TRANSP", "city": "BABYLON", "state": "NY", "zip": "11702-3444", "ntee": "U03", "ruling": "200805", "deductibility": "1", "assets": 112657, "income": 148787, "revenue": 148787}], "BRENTLAND": [{"ein": "161551639", "name": "BRENTLAND WOODS INC", "city": "ROCHESTER", "state": "NY", "zip": "14620-2251", "ntee": "", "ruling": "194603", "deductibility": "1", "assets": 2761343, "income": 381049, "revenue": 381049}], "STILLMAN": [{"ein": "161573234", "name": "PAUL O AND JOANNE D STILLMAN CHARITABLE FOUNDATION", "city": "NEW HARTFORD", "state": "NY", "zip": "13413-0000", "ntee": "T22", "ruling": "200007", "deductibility": "1", "assets": 474044, "income": 157406, "revenue": 0}, {"ein": "266151788", "name": "FERGUSON STILLMAN CHARITABLE FUND", "city": "CLARENCE", "state": "NY", "zip": "14031-2424", "ntee": "T22", "ruling": "200805", "deductibility": "1", "assets": 660295, "income": 72461, "revenue": 0}, {"ein": "813713174", "name": "ABBOTT & LILA STILLMAN FAMILY FOUNDATION", "city": "SCARSDALE", "state": "NY", "zip": "10583-4501", "ntee": "T22", "ruling": "201703", "deductibility": "1", "assets": 2698360, "income": 1548501, "revenue": 0}], "BSCR": [{"ein": "161595259", "name": "BSCR CORPORATION", "city": "BUFFALO", "state": "NY", "zip": "14222-1004", "ntee": "B194", "ruling": "200101", "deductibility": "1", "assets": 51512, "income": 10577, "revenue": 10577}], "TRESSA": [{"ein": "166523357", "name": "TRESSA E CORCORAN TR UW", "city": "ELMIRA", "state": "NY", "zip": "14902-0152", "ntee": "B11", "ruling": "200201", "deductibility": "1", "assets": 576962, "income": 124476, "revenue": 0}], "826NYC": [{"ein": "200526710", "name": "826NYC INC", "city": "BROOKLYN", "state": "NY", "zip": "11215-8142", "ntee": "B90", "ruling": "200404", "deductibility": "1", "assets": 1042263, "income": 1178465, "revenue": 1058901}], "IJK": [{"ein": "202048537", "name": "IJK CHARITABLE FOUNDATION INC", "city": "BROOKLYN", "state": "NY", "zip": "11219-4497", "ntee": "T22", "ruling": "200506", "deductibility": "1", "assets": 35043, "income": 1200, "revenue": 0}], "VOCES": [{"ein": "202312651", "name": "VOCES LATINAS CORPORATION", "city": "JACKSON HTS", "state": "NY", "zip": "11372-7141", "ntee": "G81", "ruling": "200508", "deductibility": "1", "assets": 2878237, "income": 3860502, "revenue": 3860502}, {"ein": "475275389", "name": "VOCES CIUDADANAS INC", "city": "BROOKLYN", "state": "NY", "zip": "11220-3873", "ntee": "R20", "ruling": "201603", "deductibility": "1", "assets": 1277, "income": 38615, "revenue": 38615}, {"ein": "851204644", "name": "SPANGLISH VOCES INC", "city": "NEW YORK", "state": "NY", "zip": "10033-3320", "ntee": "A30", "ruling": "202309", "deductibility": "1", "assets": 0, "income": 0, "revenue": 0}], "COLONIALS": [{"ein": "203975092", "name": "YOUNG COLONIALS JR ANCIENT FYFE &DRUM CORP", "city": "CARMEL", "state": "NY", "zip": "10512-0637", "ntee": "A6C", "ruling": "200703", "deductibility": "1", "assets": 0, "income": 0, "revenue": 0}, {"ein": "863228274", "name": "LADY COLONIALS LAX CLUB INC", "city": "MORICHES", "state": "NY", "zip": "11955-1020", "ntee": "N60", "ruling": "202204", "deductibility": "1", "assets": 3624, "income": 1060, "revenue": 0}], "WORSHIPINC": [{"ein": "204812928", "name": "TABERNACLE OF PRAISE AND WORSHIPINC", "city": "CATSKILL", "state": "NY", "zip": "12414-0522", "ntee": "", "ruling": "199908", "deductibility": "1", "assets": 0, "income": 0, "revenue": 0}], "ENDLESS": [{"ein": "205111195", "name": "ENDLESS LOVE TEMPLE", "city": "HUDSON", "state": "NY", "zip": "12534-0310", "ntee": "X20", "ruling": "200905", "deductibility": "1", "assets": 0, "income": 0, "revenue": 0}, {"ein": "364904310", "name": "SEEDS OF ENDLESS HOPE INC", "city": "HALFMOON", "state": "NY", "zip": "12065-3230", "ntee": "K99", "ruling": "201808", "deductibility": "1", "assets": 0, "income": 2424, "revenue": 2424}, {"ein": "452839500", "name": "ENDLESS HIGHWAY INC", "city": "ROCHESTER", "state": "NY", "zip": "14604-1797", "ntee": "T30", "ruling": "201109", "deductibility": "1", "assets": 253895, "income": 495531, "revenue": 405162}, {"ein": "453536401", "name": "BABY STEPS TOWARD ENDLESS POSSIBILITIES INC", "city": "MIDDLETOWN", "state": "NY", "zip": "10940-3328", "ntee": "Z99", "ruling": "201409", "deductibility": "1", "assets": 0, "income": 0, "revenue": 0}], "NUEVAS": [{"ein": "237250058", "name": "IGLESIA CRISTIANA BUENAS NUEVAS DE SALVACION", "city": "BROOKLYN", "state": "NY", "zip": "11207-1201", "ntee": "", "ruling": "197212", "deductibility": "1", "assets": 0, "income": 0, "revenue": 0}, {"ein": "474807164", "name": "IGLESIA DE DIOS MISION BUENAS NUEVAS INC", "city": "CENTEREACH", "state": "NY", "zip": "11720-0000", "ntee": "X21", "ruling": "201604", "deductibility": "1", "assets": 0, "income": 0, "revenue": 0}, {"ein": "475168355", "name": "PRIMERA IGLESIA BAUTISTA BUENAS NUEVAS DE SALVACION CORP", "city": "UNIONDALE", "state": "NY", "zip": "11553-1715", "ntee": "X20", "ruling": "202210", "deductibility": "1", "assets": 0, "income": 0, "revenue": 0}, {"ein": "542121958", "name": "MHANA MINISTRY MUJERES HISPANAS ALCANZANDO NUEVAS ALTURAS INC", "city": "OZONE PARK", "state": "NY", "zip": "11417-2502", "ntee": "P43", "ruling": "200409", "deductibility": "1", "assets": 0, "income": 0, "revenue": 0}, {"ein": "882173776", "name": "NUEVAS FUERZAS - MISION GRACIA Y PAZ INC", "city": "YONKERS", "state": "NY", "zip": "10703-2611", "ntee": "X99", "ruling": "202401", "deductibility": "1", "assets": 0, "income": 0, "revenue": 0}], "AVREICHEI": [{"ein": "237427664", "name": "CONGERGATION AVREICHEI D CHASIDEI GER", "city": "BKLYN", "state": "NY", "zip": "11219-4270", "ntee": "", "ruling": "197502", "deductibility": "1", "assets": 0, "income": 0, "revenue": 0}], "HADJI": [{"ein": "237532274", "name": "HADJI COURT NO 62 OF THE DAUGHTERS OF ISIS", "city": "BUFFALO", "state": "NY", "zip": "14208-2015", "ntee": "R40", "ruling": "202105", "deductibility": "1", "assets": 0, "income": 0, "revenue": 0}, {"ein": "334467779", "name": "DAHIRA EL HADJI MALICK SY NEW YORK INC", "city": "NEW YORK", "state": "NY", "zip": "10026-3593", "ntee": "X40", "ruling": "202506", "deductibility": "1", "assets": 0, "income": 0, "revenue": 0}], "CUSHINGS": [{"ein": "251801436", "name": "CUSHINGS BATTERY A 4TH U S LIGHT ARTILLERY & INFANTRY INC", "city": "ONTARIO", "state": "NY", "zip": "14519-9792", "ntee": "A80", "ruling": "199611", "deductibility": "1", "assets": 0, "income": 0, "revenue": 0}], "NYCMER": [{"ein": "260604624", "name": "NEW YORK CITY MUSEUM EDUCATORSROUNDTABLE NYCMER", "city": "NEW YORK", "state": "NY", "zip": "10163-0563", "ntee": "T30", "ruling": "200805", "deductibility": "1", "assets": 79503, "income": 27985, "revenue": 27985}], "ILDUSA": [{"ein": "262781616", "name": "ILDUSA INC", "city": "NYACK", "state": "NY", "zip": "10960-7400", "ntee": "X99", "ruling": "200808", "deductibility": "1", "assets": 121491, "income": 58870, "revenue": 58870}], "LANIGAN": [{"ein": "264173142", "name": "KEVIN LANIGAN MEMORIAL FOUNDATION INC", "city": "STATEN ISLAND", "state": "NY", "zip": "10314-2944", "ntee": "N99", "ruling": "201106", "deductibility": "1", "assets": 80745, "income": 2366, "revenue": 2366}], "COLTRANE": [{"ein": "270140878", "name": "FRIENDS OF THE COLTRANE HOME IN DIX HILLS", "city": "DEER PARK", "state": "NY", "zip": "11729-5733", "ntee": "A50", "ruling": "200612", "deductibility": "1", "assets": 1040548, "income": 695021, "revenue": 695021}], "HOWL": [{"ein": "270266647", "name": "HOWL ARTS INC", "city": "NEW YORK", "state": "NY", "zip": "10012-3010", "ntee": "A20", "ruling": "202006", "deductibility": "1", "assets": 1319892, "income": 1161185, "revenue": 0}], "SHUBH": [{"ein": "273181487", "name": "SWAMINARAYAN SHUBH SANSKAR SANSTHA INC", "city": "WOODSIDE", "state": "NY", "zip": "11377-5054", "ntee": "X20", "ruling": "201204", "deductibility": "1", "assets": 6211709, "income": 566884, "revenue": 566884}], "YADESTINY": [{"ein": "273430817", "name": "YADESTINY TREASURE CHEST", "city": "BROOKLYN", "state": "NY", "zip": "11205-2136", "ntee": "P20", "ruling": "201208", "deductibility": "1", "assets": 0, "income": 0, "revenue": 0}], "PALS": [{"ein": "273510318", "name": "PLATINUM PALS", "city": "NYC", "state": "NY", "zip": "10128-1200", "ntee": "P20", "ruling": "201103", "deductibility": "1", "assets": 0, "income": 0, "revenue": 0}, {"ein": "461145514", "name": "PALS TOURS", "city": "SYOSSET", "state": "NY", "zip": "11791-3807", "ntee": "G25", "ruling": "201211", "deductibility": "1", "assets": 54835, "income": 15241, "revenue": 15241}, {"ein": "753043619", "name": "PALS ALLIANCE LTD", "city": "GLENS FALLS", "state": "NY", "zip": "12801-2168", "ntee": "A60", "ruling": "200208", "deductibility": "1", "assets": 357612, "income": 40671, "revenue": 0}, {"ein": "825084485", "name": "KATS PURRFECT PALS", "city": "CLIFTON PARK", "state": "NY", "zip": "12065-1850", "ntee": "D20", "ruling": "201907", "deductibility": "1", "assets": 0, "income": 0, "revenue": 0}, {"ein": "832810354", "name": "PUP PALS INC", "city": "NEW YORK", "state": "NY", "zip": "10036-3988", "ntee": "D20", "ruling": "201906", "deductibility": "1", "assets": 0, "income": 0, "revenue": 0}, {"ein": "862166141", "name": "ALLIE & PALS RESCUE INC", "city": "BUFFALO", "state": "NY", "zip": "14212-2211", "ntee": "D20", "ruling": "202504", "deductibility": "1", "assets": 25315, "income": 102338, "revenue": 102338}, {"ein": "900129814", "name": "BARNES CORNERS SNO PALS INC", "city": "RODMAN", "state": "NY", "zip": "13682-0533", "ntee": "N68", "ruling": "200701", "deductibility": "1", "assets": 1088660, "income": 311013, "revenue": 240897}, {"ein": "934632324", "name": "PALS PLACE HOUSING DEVELOPMENT FUND CORPORATION", "city": "NEW YORK", "state": "NY", "zip": "10017-5752", "ntee": "L41", "ruling": "202410", "deductibility": "1", "assets": 16809407, "income": 67100, "revenue": 67100}, {"ein": "992575987", "name": "SPORTS PALS INC", "city": "BROOKLYN", "state": "NY", "zip": "11205-1156", "ntee": "N99", "ruling": "202412", "deductibility": "1", "assets": 0, "income": 0, "revenue": 0}], "SHOES": [{"ein": "274615288", "name": "SHOES FOR ALL", "city": "LONG BEACH", "state": "NY", "zip": "11561-4649", "ntee": "P58", "ruling": "201106", "deductibility": "1", "assets": 0, "income": 0, "revenue": 0}, {"ein": "332071230", "name": "SUSI SHOES DANCERS INC", "city": "SALEM", "state": "NY", "zip": "12865-2812", "ntee": "O12", "ruling": "202501", "deductibility": "1", "assets": 0, "income": 0, "revenue": 0}, {"ein": "332292769", "name": "BIG SHOES LITTLE FEET FOUNDATION INC", "city": "BROOKLYN", "state": "NY", "zip": "11236-3901", "ntee": "T50", "ruling": "202412", "deductibility": "1", "assets": 0, "income": 0, "revenue": 0}, {"ein": "812639171", "name": "ELEPHANT SHOES INC", "city": "BROOKLYN", "state": "NY", "zip": "11215-8209", "ntee": "A30", "ruling": "201608", "deductibility": "1", "assets": 0, "income": 0, "revenue": 0}, {"ein": "994664467", "name": "RED SHOES FOUNDATION INC", "city": "SCARSDALE", "state": "NY", "zip": "10583-2137", "ntee": "A20", "ruling": "202412", "deductibility": "1", "assets": 0, "income": 0, "revenue": 0}], "JEANINE": [{"ein": "276376650", "name": "JEANINE MARIE DIBENEDETTO FOUNDATION FOR NIGERIAN HEALTHCARE", "city": "BRONX", "state": "NY", "zip": "10461-1404", "ntee": "T23", "ruling": "201407", "deductibility": "1", "assets": 34315, "income": 25255, "revenue": 0}, {"ein": "810691564", "name": "JEANINE HELLER FOUNDATION INC", "city": "W HEMPSTEAD", "state": "NY", "zip": "11552-1510", "ntee": "T22", "ruling": "201710", "deductibility": "1", "assets": 23085615, "income": 13982785, "revenue": 0}], "NASBITE": [{"ein": "311625262", "name": "NASBITE INTL INC", "city": "ALBANY", "state": "NY", "zip": "12205-1418", "ntee": "B02", "ruling": "199902", "deductibility": "1", "assets": 361321, "income": 265065, "revenue": 265065}], "PLUMERI": [{"ein": "331126619", "name": "JOE PLUMERI FOUNDATION INC", "city": "ALBANY", "state": "NY", "zip": "12203-0000", "ntee": "T22", "ruling": "200702", "deductibility": "1", "assets": 5206093, "income": 3068597, "revenue": 0}], "CHIMBO": [{"ein": "334317016", "name": "CHIMBO HELPING HANDS INC", "city": "NEW YORK", "state": "NY", "zip": "10003-1502", "ntee": "S12", "ruling": "202505", "deductibility": "1", "assets": 0, "income": 0, "revenue": 0}], "CONCEPT": [{"ein": "334480235", "name": "CONCEPT CREW INC", "city": "OCEANSIDE", "state": "NY", "zip": "11572-4838", "ntee": "N40", "ruling": "202506", "deductibility": "1", "assets": 0, "income": 0, "revenue": 0}, {"ein": "834176737", "name": "REPURPOSE WARDROBE STYLE FOR GOOD CHARITABLE CONCEPT INC", "city": "NEW YORK", "state": "NY", "zip": "10024-6343", "ntee": "P29", "ruling": "202003", "deductibility": "1", "assets": 103634, "income": 697198, "revenue": 48721}], "EVANGELIC": [{"ein": "363514246", "name": "METROPOLITAN NY SYNOD OF EVANGELIC LUTHERAN CHURCH IN AMERICA", "city": "NEW YORK", "state": "NY", "zip": "10115-0037", "ntee": "", "ruling": "198804", "deductibility": "1", "assets": 0, "income": 0, "revenue": 0}, {"ein": "833698645", "name": "NEW YORK EVANGELIC CHOIR & OPERA INC", "city": "JACKSON HTS", "state": "NY", "zip": "11372-4417", "ntee": "A20", "ruling": "201903", "deductibility": "1", "assets": 0, "income": 0, "revenue": 0}], "PETIT": [{"ein": "453106041", "name": "GRENADA CARRIACOU & PETIT MARTINIQUE NURSES ASSOCIATION OF A", "city": "BROOKLYN", "state": "NY", "zip": "11236-3118", "ntee": "E039", "ruling": "201201", "deductibility": "1", "assets": 0, "income": 0, "revenue": 0}], "KICK4LIFE": [{"ein": "454205747", "name": "KICK4LIFE INC", "city": "NEW YORK", "state": "NY", "zip": "10001-0000", "ntee": "Q33", "ruling": "201204", "deductibility": "1", "assets": 94103, "income": 494416, "revenue": 494416}], "KILLAWOG": [{"ein": "454347878", "name": "KILLAWOG FIRE COMPANY INC", "city": "KILLAWOG", "state": "NY", "zip": "13794-0013", "ntee": "M24", "ruling": "201208", "deductibility": "1", "assets": 0, "income": 0, "revenue": 0}], "YASHFEH": [{"ein": "455485300", "name": "EVVEN YASHFEH INC", "city": "MONSEY", "state": "NY", "zip": "10952-2610", "ntee": "A23", "ruling": "201406", "deductibility": "1", "assets": 0, "income": 0, "revenue": 0}], "HAUT": [{"ein": "462975371", "name": "FAMILLE HAUT- NKAM NEW YORK", "city": "BRONX", "state": "NY", "zip": "10455-5046", "ntee": "Q30", "ruling": "201709", "deductibility": "1", "assets": 0, "income": 0, "revenue": 0}], "GRANITEVILLE": [{"ein": "463167209", "name": "FRIENDS OF GRANITEVILLE QUARRY INC", "city": "STATEN ISLAND", "state": "NY", "zip": "10303-1817", "ntee": "C60", "ruling": "201409", "deductibility": "1", "assets": 0, "income": 0, "revenue": 0}], "SENDAK": [{"ein": "463968128", "name": "PS118 THE MAURICE SENDAK COMMUNITY SCHOOL", "city": "BROOKLYN", "state": "NY", "zip": "11215-3211", "ntee": "B94", "ruling": "201410", "deductibility": "1", "assets": 350841, "income": 239627, "revenue": 239627}, {"ein": "994262040", "name": "FRIENDS OF MAURICE SENDAK FOUNDATION INC", "city": "NEW YORK", "state": "NY", "zip": "10018-3709", "ntee": "A20", "ruling": "202506", "deductibility": "1", "assets": 0, "income": 0, "revenue": 0}], "WOMANKIND": [{"ein": "464119694", "name": "WOMANKIND WORLDWIDE INC", "city": "NEW YORK", "state": "NY", "zip": "10019-0000", "ntee": "R24", "ruling": "201407", "deductibility": "1", "assets": 0, "income": 0, "revenue": 0}], "DESIRE": [{"ein": "471693156", "name": "REDEEMED CHRISTIAN CHURCH OF GOD DESIRE OF NATIONS", "city": "NEW YORK CITY", "state": "NY", "zip": "10159-1046", "ntee": "X20", "ruling": "201503", "deductibility": "1", "assets": 0, "income": 0, "revenue": 0}, {"ein": "800300530", "name": "A REAL DESIRE", "city": "BRONX", "state": "NY", "zip": "10467-5771", "ntee": "B99", "ruling": "201411", "deductibility": "1", "assets": 0, "income": 0, "revenue": 0}, {"ein": "923492587", "name": "GALAXY DESIRE INC", "city": "FOREST HILLS", "state": "NY", "zip": "11375-1541", "ntee": "A20", "ruling": "202305", "deductibility": "1", "assets": 0, "income": 0, "revenue": 0}], "POSAY": [{"ein": "471713837", "name": "AMERICAN FRIENDS OF POSAY-ACH ES YO DECHO INC", "city": "MONROE", "state": "NY", "zip": "10950-5413", "ntee": "Q33", "ruling": "201804", "deductibility": "1", "assets": 455, "income": 87549, "revenue": 87549}], "NGIP": [{"ein": "472868772", "name": "NGIP", "city": "LEVITTOWN", "state": "NY", "zip": "11756-4716", "ntee": "L20", "ruling": "201510", "deductibility": "1", "assets": 651464, "income": 55192, "revenue": 55192}], "HARSZLAK": [{"ein": "473758193", "name": "JIM HARSZLAK FOUNDATION", "city": "TONAWANDA", "state": "NY", "zip": "14150-4417", "ntee": "P99", "ruling": "201510", "deductibility": "1", "assets": 0, "income": 0, "revenue": 0}], "ATERETNAAVA": [{"ein": "474846753", "name": "ATERETNAAVA INC", "city": "BROOKLYN", "state": "NY", "zip": "11210-3952", "ntee": "X30", "ruling": "201509", "deductibility": "1", "assets": 0, "income": 0, "revenue": 0}], "HAMERCAZI": [{"ein": "522295303", "name": "EZER YOLDOT HAMERCAZI", "city": "BROOKLYN", "state": "NY", "zip": "11219-1604", "ntee": "X30", "ruling": "200203", "deductibility": "1", "assets": 0, "income": 0, "revenue": 0}], "MALOTO": [{"ein": "542096241", "name": "MALOTO INC", "city": "NEW YORK", "state": "NY", "zip": "10036-0127", "ntee": "B11", "ruling": "200310", "deductibility": "1", "assets": 148870, "income": 1100874, "revenue": 1100874}], "DIVI": [{"ein": "760798307", "name": "PA CHESTER DIVI OF LAOH INC", "city": "BROOKLYN", "state": "NY", "zip": "11229-4111", "ntee": "Y40", "ruling": "201611", "deductibility": "1", "assets": 0, "income": 0, "revenue": 0}], "SAVANNA": [{"ein": "800874291", "name": "SAVANNA HOUSING DEVELOPMENT FUND CORPORATION", "city": "NEW YORK", "state": "NY", "zip": "10018-2082", "ntee": "L21", "ruling": "201807", "deductibility": "2", "assets": 0, "income": 0, "revenue": 0}], "NKO": [{"ein": "812617516", "name": "NKO USA INC", "city": "BRONX", "state": "NY", "zip": "10456-1710", "ntee": "A20", "ruling": "201605", "deductibility": "1", "assets": 0, "income": 0, "revenue": 0}], "SLAP": [{"ein": "814866299", "name": "SLAP COLLECTIVE", "city": "VALLEY STREAM", "state": "NY", "zip": "11580-1811", "ntee": "P99", "ruling": "201702", "deductibility": "1", "assets": 0, "income": 0, "revenue": 0}], "PANAV": [{"ein": "815227863", "name": "OHR PANAV INC", "city": "BROOKLYN", "state": "NY", "zip": "11230-4201", "ntee": "T30", "ruling": "201703", "deductibility": "1", "assets": 0, "income": 0, "revenue": 0}], "UPSOLVE": [{"ein": "821736267", "name": "UPSOLVE INC", "city": "BROOKLYN", "state": "NY", "zip": "11201-6274", "ntee": "I83", "ruling": "201801", "deductibility": "1", "assets": 3322708, "income": 1162627, "revenue": 1162627}], "EBG": [{"ein": "822512506", "name": "EBG CHARITABLE FOUNDATION", "city": "MONSEY", "state": "NY", "zip": "10952-2845", "ntee": "T30", "ruling": "201711", "deductibility": "1", "assets": 2189573, "income": 1150002, "revenue": 0}, {"ein": "874226794", "name": "EBG FOUNDATION", "city": "SUFFERN", "state": "NY", "zip": "10901-6728", "ntee": "P20", "ruling": "202204", "deductibility": "1", "assets": 3040, "income": 65002, "revenue": 0}], "ARCHCONFRATERNITY": [{"ein": "824948179", "name": "ARCHCONFRATERNITY OF PAPAL KNIGHTS", "city": "BAY SHORE", "state": "NY", "zip": "11706-8120", "ntee": "P20", "ruling": "201812", "deductibility": "1", "assets": 0, "income": 0, "revenue": 0}], "MCNULTY": [{"ein": "830873500", "name": "MICHAEL R MCNULTY CENTER FOR VETERAN ENTREPRENEURIAL ACTIVITY", "city": "WATERVLIET", "state": "NY", "zip": "12189-4021", "ntee": "", "ruling": "201904", "deductibility": "1", "assets": 310957, "income": 540556, "revenue": 540556}, {"ein": "842394736", "name": "SHARI MCNULTY CHARITABLE FOUNDATION", "city": "FOREST HILLS", "state": "NY", "zip": "11375-7200", "ntee": "G30", "ruling": "201909", "deductibility": "1", "assets": 4256, "income": 135, "revenue": 0}], "MENIFA": [{"ein": "831560488", "name": "AMERICAN FRIENDS OF MENIFA INC", "city": "BROOKLYN", "state": "NY", "zip": "11235-5369", "ntee": "O50", "ruling": "201907", "deductibility": "1", "assets": 27067, "income": 86833, "revenue": 86833}], "NISERZA": [{"ein": "832702716", "name": "NISERZA FOUNDATION INC", "city": "BRONXVILLE", "state": "NY", "zip": "10708-5620", "ntee": "A23", "ruling": "201903", "deductibility": "1", "assets": 1, "income": 1, "revenue": 0}], "PNINA": [{"ein": "832822621", "name": "AMERICAN FRIENDS OF OHEL YOAV AND PNINA", "city": "FLUSHING", "state": "NY", "zip": "11367-1713", "ntee": "X30", "ruling": "202205", "deductibility": "1", "assets": 15571, "income": 227597, "revenue": 0}], "EARTHSENSE": [{"ein": "841361004", "name": "EARTHSENSE FOUNDATION", "city": "NEW YORK", "state": "NY", "zip": "10013-0778", "ntee": "T99Z", "ruling": "199701", "deductibility": "1", "assets": 2459250, "income": 925017, "revenue": 0}], "MAXX": [{"ein": "842121868", "name": "MAXX PHILANTHROPIES INC", "city": "ROOSEVELT", "state": "NY", "zip": "11575-2254", "ntee": "E70", "ruling": "202407", "deductibility": "1", "assets": 0, "income": 0, "revenue": 0}, {"ein": "932086345", "name": "MAXX PROPERTIES FOUNDATION", "city": "PURCHASE", "state": "NY", "zip": "10577-2118", "ntee": "T20", "ruling": "202409", "deductibility": "1", "assets": 1, "income": 1, "revenue": 0}], "SURREALITY": [{"ein": "842174148", "name": "DANSE THEATRE SURREALITY", "city": "WOODSIDE", "state": "NY", "zip": "11377-4842", "ntee": "A20", "ruling": "202302", "deductibility": "1", "assets": 0, "income": 0, "revenue": 0}], "SFM": [{"ein": "846452305", "name": "SFM FOUNDATION", "city": "BROOKLYN", "state": "NY", "zip": "11204-1112", "ntee": "T22", "ruling": "202006", "deductibility": "1", "assets": 311597, "income": 15976, "revenue": 0}], "TOTALITY": [{"ein": "852338060", "name": "TOTALITY WELLNESS INC", "city": "BROOKLYN", "state": "NY", "zip": "11221-6891", "ntee": "F99", "ruling": "202011", "deductibility": "1", "assets": 0, "income": 0, "revenue": 0}], "RAFFAZ": [{"ein": "854084492", "name": "RAFFAZ HOUSE OF WORSHIP & LEARNING CENTER", "city": "JAMAICA", "state": "NY", "zip": "11434-2232", "ntee": "X99", "ruling": "202103", "deductibility": "1", "assets": 0, "income": 0, "revenue": 0}], "KARVONI": [{"ein": "862291807", "name": "SAHIYLIK KARVONI INC", "city": "BROOKLYN", "state": "NY", "zip": "11218-5135", "ntee": "", "ruling": "202108", "deductibility": "1", "assets": 0, "income": 0, "revenue": 0}], "BELLY": [{"ein": "871253733", "name": "MISSION BELLY FULL", "city": "AMITYVILLE", "state": "NY", "zip": "11701-2860", "ntee": "K36", "ruling": "202109", "deductibility": "1", "assets": 6448, "income": 86561, "revenue": 86561}, {"ein": "921639176", "name": "BELLY AND BRAIN FOR A BETTER EDUCATION INC", "city": "NEW YORK", "state": "NY", "zip": "10026-1910", "ntee": "B80", "ruling": "202301", "deductibility": "1", "assets": 0, "income": 0, "revenue": 0}], "BALLER": [{"ein": "871823611", "name": "BALLER CITY INC", "city": "NEW YORK", "state": "NY", "zip": "10065-6899", "ntee": "O50", "ruling": "202203", "deductibility": "1", "assets": 0, "income": 0, "revenue": 0}, {"ein": "995073680", "name": "BALLER S CLUB INC", "city": "BAY SHORE", "state": "NY", "zip": "11706-6324", "ntee": "O20", "ruling": "202411", "deductibility": "1", "assets": 0, "income": 0, "revenue": 0}], "LKESHER": [{"ein": "873133177", "name": "GESHER LKESHER INC", "city": "BROOKLYN", "state": "NY", "zip": "11206-5080", "ntee": "P46", "ruling": "202411", "deductibility": "1", "assets": 0, "income": 0, "revenue": 0}], "ECOTHERAPY": [{"ein": "873807130", "name": "FRIENDS OF TRYBE ECOTHERAPY INC", "city": "WEBSTER", "state": "NY", "zip": "14580-4037", "ntee": "E80", "ruling": "202203", "deductibility": "1", "assets": 1, "income": 0, "revenue": 0}], "TASHASTRONG": [{"ein": "873913371", "name": "TASHASTRONG FOUNDATION INC", "city": "WILLIAMSVILLE", "state": "NY", "zip": "14231-2201", "ntee": "G30", "ruling": "202202", "deductibility": "1", "assets": 0, "income": 0, "revenue": 0}], "GUERRERAS": [{"ein": "882212268", "name": "MINISTERIO MUJERES GUERRERAS DEL REINO INC", "city": "NEW YORK", "state": "NY", "zip": "10040-2755", "ntee": "X20", "ruling": "202306", "deductibility": "1", "assets": 1, "income": 1, "revenue": 0}], "CSR": [{"ein": "911914549", "name": "CSR POST RETIREMENT VEBA", "city": "NEW YORK", "state": "NY", "zip": "10022-0000", "ntee": "Y43", "ruling": "199902", "deductibility": "2", "assets": 3409878, "income": 301369, "revenue": 104398}], "AJDUT": [{"ein": "920304694", "name": "AJDUT ISRAEL INC", "city": "BROOKLYN", "state": "NY", "zip": "11230-6615", "ntee": "X30", "ruling": "202311", "deductibility": "1", "assets": 13635, "income": 252459, "revenue": 252459}], "SOSALEM": [{"ein": "922048870", "name": "SOSALEM INC", "city": "SALEM", "state": "NY", "zip": "12865-3515", "ntee": "P20", "ruling": "202407", "deductibility": "1", "assets": 0, "income": 0, "revenue": 0}], "EULELI": [{"ein": "923152326", "name": "EULELI HOUSE INC", "city": "NEW YORK CITY", "state": "NY", "zip": "10027-2737", "ntee": "P27", "ruling": "202306", "deductibility": "1", "assets": 253, "income": 2455, "revenue": 2455}], "MULBAASI": [{"ein": "931709604", "name": "NEPALESE MULBAASI MONGOL COMMUNITY IN AMERICA INC", "city": "WOODSIDE", "state": "NY", "zip": "11377-3931", "ntee": "A23", "ruling": "202401", "deductibility": "1", "assets": 0, "income": 0, "revenue": 0}], "IOLAS": [{"ein": "932620087", "name": "IOLAS LYCEUM INC", "city": "BROOKLYN", "state": "NY", "zip": "11233-2003", "ntee": "A23", "ruling": "202404", "deductibility": "1", "assets": 0, "income": 0, "revenue": 0}], "INTIMACY": [{"ein": "933995463", "name": "BLACK INTIMACY CONSENT COLLECTIVE", "city": "NEW YORK", "state": "NY", "zip": "10039-1528", "ntee": "P20", "ruling": "202402", "deductibility": "1", "assets": 0, "income": 0, "revenue": 0}], "YERAYIM": [{"ein": "991239575", "name": "YERAYIM", "city": "SPRING VALLEY", "state": "NY", "zip": "10977-7025", "ntee": "X30", "ruling": "202403", "deductibility": "1", "assets": 0, "income": 0, "revenue": 0}], "SEYBERT": [{"ein": "994536109", "name": "HAROLD AND MIRIAM SEYBERT FOUNDATION INC", "city": "PLEASANTVILLE", "state": "NY", "zip": "10570-2539", "ntee": "T22", "ruling": "202409", "deductibility": "1", "assets": 1, "income": 1, "revenue": 0}], "SMULLEN": [{"ein": "994770171", "name": "ALEXANDER JOHN SMULLEN MEMORIAL FOUNDATION", "city": "GLOVERSVILLE", "state": "NY", "zip": "12078-6232", "ntee": "B82", "ruling": "202409", "deductibility": "1", "assets": 0, "income": 0, "revenue": 0}]}