{"COMMON": [{"ein": "010574675", "name": "COMMON GROUND FARM INC", "city": "BEACON", "state": "NY", "zip": "12508-0148", "ntee": "K99", "ruling": "200706", "deductibility": "1", "assets": 225908, "income": 672180, "revenue": 669245}, {"ein": "113322653", "name": "SOMETHING IN COMMON INC", "city": "JAMAICA", "state": "NY", "zip": "11432-2528", "ntee": "B60", "ruling": "201201", "deductibility": "1", "assets": 0, "income": 0, "revenue": 0}, {"ein": "133095748", "name": "ANTI-DEFAMATION LEAGUE FOUNDATION COMMON FUND INC", "city": "NEW YORK", "state": "NY", "zip": "10158-0180", "ntee": "", "ruling": "198203", "deductibility": "1", "assets": 57363, "income": 10867, "revenue": 0}, {"ein": "133127972", "name": "NEW YORK COMMON PANTRY", "city": "NEW YORK", "state": "NY", "zip": "10029-3402", "ntee": "K350", "ruling": "198211", "deductibility": "1", "assets": 26672133, "income": 23813739, "revenue": 23181999}, {"ein": "133193131", "name": "COMMON SENSE EDUCATIONAL FUND INC", "city": "OSSINING", "state": "NY", "zip": "10562-0070", "ntee": "T23", "ruling": "198405", "deductibility": "1", "assets": 5986, "income": 12520, "revenue": 0}, {"ein": "133705243", "name": "COMMON GROUND JOBS TRAINING CORP", "city": "NEW YORK", "state": "NY", "zip": "10018-6550", "ntee": "J200", "ruling": "199412", "deductibility": "1", "assets": 11266220, "income": 224738, "revenue": 0}, {"ein": "133859811", "name": "THE COMMON GOOD INSTITUTE INC", "city": "NEW YORK", "state": "NY", "zip": "10150-8536", "ntee": "E99Z", "ruling": "199606", "deductibility": "1", "assets": 118517, "income": 809162, "revenue": 809162}, {"ein": "133871134", "name": "COMMON GROUND MANAGEMENT CORPORATION", "city": "NEW YORK", "state": "NY", "zip": "10018-4773", "ntee": "J20", "ruling": "200006", "deductibility": "1", "assets": 76440825, "income": 59582621, "revenue": 58939172}, {"ein": "136115754", "name": "COMMON INVESTING FUND OF THE LUTHERAN CHURCH IN AMERICA INCORPO", "city": "NEW YORK", "state": "NY", "zip": "10016-3405", "ntee": "", "ruling": "195312", "deductibility": "1", "assets": 0, "income": 0, "revenue": 0}, {"ein": "141756034", "name": "COMMON GROUND DISPUTE RESOLUTION INC", "city": "CATSKILL", "state": "NY", "zip": "12414-1497", "ntee": "Z99Z", "ruling": "199302", "deductibility": "1", "assets": 150077, "income": 222738, "revenue": 222738}, {"ein": "161243851", "name": "COMMON TIME", "city": "ELMIRA HTS", "state": "NY", "zip": "14903-0006", "ntee": "", "ruling": "198607", "deductibility": "1", "assets": 0, "income": 0, "revenue": 0}, {"ein": "161514810", "name": "COMMON CENTS PROPERTY OWNERS ASSOCIATION INC", "city": "UTICA", "state": "NY", "zip": "13501-3784", "ntee": "Z99", "ruling": "199812", "deductibility": "2", "assets": 0, "income": 0, "revenue": 0}, {"ein": "161521308", "name": "SEEKING COMMON GROUND INC", "city": "CANANDAIGUA", "state": "NY", "zip": "14424-0599", "ntee": "K20", "ruling": "199808", "deductibility": "1", "assets": 10909, "income": 47795, "revenue": 47795}, {"ein": "204680607", "name": "COMMON FIELD INCORPORATED", "city": "NEWFIELD", "state": "NY", "zip": "14867-9745", "ntee": "C99", "ruling": "200610", "deductibility": "1", "assets": 0, "income": 0, "revenue": 0}, {"ein": "270783873", "name": "NOT SO COMMON PLAYERS INC", "city": "CLIFTON PARK", "state": "NY", "zip": "12065-0296", "ntee": "A65", "ruling": "200912", "deductibility": "1", "assets": 52942, "income": 88712, "revenue": 88712}, {"ein": "270905426", "name": "COMMON HUMANITY INC", "city": "NEW YORK", "state": "NY", "zip": "10025-4121", "ntee": "Q33", "ruling": "201405", "deductibility": "1", "assets": 1792, "income": 13778, "revenue": 12141}, {"ein": "300588283", "name": "COMMON GOAL USA INC", "city": "BROOKLYN", "state": "NY", "zip": "11201-1123", "ntee": "N64", "ruling": "201007", "deductibility": "1", "assets": 427473, "income": 1388742, "revenue": 1388742}, {"ein": "352318634", "name": "ONE COMMON GOAL", "city": "CAMBRIA HTS", "state": "NY", "zip": "11411-1725", "ntee": "P50", "ruling": "200905", "deductibility": "1", "assets": 11500, "income": 11507, "revenue": 11507}, {"ein": "352372329", "name": "COMMON CENTS THRIFT SHOP", "city": "OXFORD", "state": "NY", "zip": "13830-3434", "ntee": "P29", "ruling": "201103", "deductibility": "1", "assets": 157149, "income": 64233, "revenue": 64233}, {"ein": "462330170", "name": "MAPLEWOOD CENTER FOR COMMON CRAFT INC", "city": "GREENWICH", "state": "NY", "zip": "12834-4602", "ntee": "A20", "ruling": "201610", "deductibility": "1", "assets": 0, "income": 0, "revenue": 0}, {"ein": "473338815", "name": "COMMON CLIMATE INC", "city": "NEW YORK", "state": "NY", "zip": "10003-6922", "ntee": "B60", "ruling": "201506", "deductibility": "1", "assets": 0, "income": 0, "revenue": 0}, {"ein": "770573721", "name": "COMMON FIRE FOUNDATION", "city": "BEACON", "state": "NY", "zip": "12508-1800", "ntee": "W70", "ruling": "200207", "deductibility": "1", "assets": 611530, "income": 67416, "revenue": 67416}, {"ein": "813042406", "name": "COMMON VISUAL DATA FOUNDATION INC", "city": "NEW YORK", "state": "NY", "zip": "10044-1501", "ntee": "U40", "ruling": "201609", "deductibility": "1", "assets": 96953, "income": 0, "revenue": 0}, {"ein": "814212971", "name": "COMMON THREADS PROJECT", "city": "BROOKLYN", "state": "NY", "zip": "11217-3942", "ntee": "Q70", "ruling": "201704", "deductibility": "1", "assets": 373975, "income": 574266, "revenue": 574266}, {"ein": "820993366", "name": "COMMON JUSTICE", "city": "BROOKLYN", "state": "NY", "zip": "11202-5131", "ntee": "V26", "ruling": "201706", "deductibility": "1", "assets": 16831249, "income": 6003796, "revenue": 6003796}, {"ein": "822177359", "name": "COMMON GROUND FOUNDATION INC", "city": "WEST HENRIETTA", "state": "NY", "zip": "14586-9793", "ntee": "R40", "ruling": "201709", "deductibility": "1", "assets": 150263, "income": 682571, "revenue": 0}, {"ein": "822279250", "name": "ONE COMMON THREAD INC", "city": "PEARL RIVER", "state": "NY", "zip": "10965-1404", "ntee": "P99", "ruling": "201801", "deductibility": "1", "assets": 0, "income": 0, "revenue": 0}, {"ein": "823043917", "name": "MORE IN COMMON INC", "city": "NEW YORK", "state": "NY", "zip": "10001-4482", "ntee": "P20", "ruling": "201802", "deductibility": "1", "assets": 1570977, "income": 2639643, "revenue": 2639643}, {"ein": "823366144", "name": "ONE COMMON CAUSE INC", "city": "BROOKLYN", "state": "NY", "zip": "11239-2814", "ntee": "W99", "ruling": "202107", "deductibility": "1", "assets": 0, "income": 0, "revenue": 0}, {"ein": "833156982", "name": "COMMON DEFENSE CIVIC ENGAGEMENT", "city": "NEW YORK", "state": "NY", "zip": "10001-2810", "ntee": "W30", "ruling": "202112", "deductibility": "2", "assets": 204413, "income": 505739, "revenue": 505739}, {"ein": "834423059", "name": "COMMON GRACE INC", "city": "BROOKLYN", "state": "NY", "zip": "11207-8203", "ntee": "W99", "ruling": "201904", "deductibility": "1", "assets": 0, "income": 0, "revenue": 0}, {"ein": "842379421", "name": "COMMON NOTIONS MEDIA FOUNDATION INC", "city": "BROOKLYN", "state": "NY", "zip": "11215-3210", "ntee": "A33", "ruling": "201908", "deductibility": "1", "assets": 65428, "income": 110927, "revenue": 0}, {"ein": "850615074", "name": "COMMON ROOTS FOUNDATION INC", "city": "S GLENS FALLS", "state": "NY", "zip": "12803-4837", "ntee": "T50", "ruling": "202103", "deductibility": "1", "assets": 8970, "income": 73346, "revenue": 63312}, {"ein": "871262978", "name": "COMMON DEFENSE EDUCATION FUND INC", "city": "NEW YORK", "state": "NY", "zip": "10001-2810", "ntee": "W30", "ruling": "202203", "deductibility": "1", "assets": 122118, "income": 1918478, "revenue": 1918478}, {"ein": "922196829", "name": "COMMON GROUND COMMUNITY SERVICES INC", "city": "STATEN ISLAND", "state": "NY", "zip": "10303-2424", "ntee": "W03", "ruling": "202309", "deductibility": "1", "assets": 0, "income": 0, "revenue": 0}, {"ein": "923581395", "name": "OUR COMMON HOME INC", "city": "BROOKLYN HGTS", "state": "NY", "zip": "11201-3226", "ntee": "C30", "ruling": "202311", "deductibility": "1", "assets": 19913, "income": 68967, "revenue": 68967}, {"ein": "953362653", "name": "THE COMMON GOOD INC", "city": "NEW YORK", "state": "NY", "zip": "10022-1742", "ntee": "", "ruling": "199410", "deductibility": "1", "assets": 224874, "income": 362802, "revenue": 362802}, {"ein": "991771344", "name": "COMMON THREADS CLOTHING CLOSET INC", "city": "NEWARK", "state": "NY", "zip": "14513-8917", "ntee": "T99", "ruling": "202404", "deductibility": "1", "assets": 0, "income": 0, "revenue": 0}], "TRUSTEES": [{"ein": "020498157", "name": "TRUSTEES OF DARTMOUTH COLLEGE", "city": "NEW YORK", "state": "NY", "zip": "10036-0000", "ntee": "", "ruling": "199710", "deductibility": "0", "assets": 0, "income": 0, "revenue": 0}, {"ein": "020527433", "name": "TRUSTEES OF DARTMOUTH COLLEGE", "city": "NEW YORK", "state": "NY", "zip": "10025-5263", "ntee": "B43Z", "ruling": "199710", "deductibility": "1", "assets": 158597, "income": 210431, "revenue": 210431}, {"ein": "043391586", "name": "TRUSTEES OF DARTMOUTH COLLEGE", "city": "NEW YORK", "state": "NY", "zip": "10017-7860", "ntee": "", "ruling": "199710", "deductibility": "1", "assets": 203549, "income": 34660, "revenue": 34660}, {"ein": "111639821", "name": "TRUSTEES OF THE METHODIST CHURCH IN MASPETH", "city": "MASPETH", "state": "NY", "zip": "11378-2526", "ntee": "", "ruling": "197311", "deductibility": "1", "assets": 0, "income": 0, "revenue": 0}, {"ein": "111708617", "name": "TRUSTEES OF LIFE BENEFIT PLAN 401 K PLAN", "city": "BROOKLYN", "state": "NY", "zip": "11209-2503", "ntee": "", "ruling": "196007", "deductibility": "2", "assets": 5055942, "income": 4858753, "revenue": 4858753}, {"ein": "131545680", "name": "STEAMFITTERS INDUSTRY WELFARE FUND BOARD OF TRUSTEES", "city": "LONG ISLAND CITY", "state": "NY", "zip": "11101-3725", "ntee": "J40", "ruling": "200611", "deductibility": "2", "assets": 91726848, "income": 82230776, "revenue": 71377034}, {"ein": "131623870", "name": "TRUSTEES OF THE CONGREGATION SHEARITH ISRAEL IN THE CITY OF NEW", "city": "NEW YORK", "state": "NY", "zip": "10023-4605", "ntee": "", "ruling": "195909", "deductibility": "1", "assets": 0, "income": 0, "revenue": 0}, {"ein": "131632529", "name": "TRUSTEES OF ST PATRICKS CATHEDRAL IN CITY OF NEW YORK", "city": "NEW YORK", "state": "NY", "zip": "10022-5702", "ntee": "", "ruling": "194603", "deductibility": "1", "assets": 0, "income": 0, "revenue": 0}, {"ein": "131635307", "name": "THE TRUSTEES OF THE NEW YORK SOCIETY LIBRARY", "city": "NEW YORK", "state": "NY", "zip": "10075-0250", "ntee": "", "ruling": "193408", "deductibility": "1", "assets": 55306942, "income": 16055076, "revenue": 3590490}, {"ein": "132683047", "name": "TRUSTEES OF THE EASTERN STAR HALL AND HOME OF THE STATE OF NEW YORK", "city": "ORISKANY", "state": "NY", "zip": "13424-0959", "ntee": "E910", "ruling": "197110", "deductibility": "1", "assets": 11264096, "income": 6879165, "revenue": 6879165}, {"ein": "133562352", "name": "BOARD OF TRUSTEES DRYWALL TAPERS INSURANCE FUND", "city": "LONG IS CITY", "state": "NY", "zip": "11106-2327", "ntee": "", "ruling": "000000", "deductibility": "0", "assets": 10707305, "income": 25002802, "revenue": 22071229}, {"ein": "133632624", "name": "MT KISCO PUBLIC LIBRARY TRUSTEES", "city": "MOUNT KISCO", "state": "NY", "zip": "10549-0000", "ntee": "B70Z", "ruling": "199207", "deductibility": "1", "assets": 69878, "income": 5072, "revenue": 5072}, {"ein": "135562398", "name": "TRUSTEES OF THE SAILORS SNUG HARBOR IN THE CITY OF NEW YORK", "city": "NEW YORK", "state": "NY", "zip": "10013-2259", "ntee": "P750", "ruling": "195701", "deductibility": "1", "assets": 61395541, "income": 14780824, "revenue": 0}, {"ein": "135563012", "name": "TRUSTEES OF THE MASONIC HALL AND ASYLUM FUND", "city": "UTICA", "state": "NY", "zip": "13501-1738", "ntee": "P750", "ruling": "194307", "deductibility": "1", "assets": 347472519, "income": 94784797, "revenue": 39162991}, {"ein": "135596849", "name": "TRUSTEES OF ATHENS COLLEGE IN GREECE", "city": "NEW YORK", "state": "NY", "zip": "10016-2817", "ntee": "Q300", "ruling": "194712", "deductibility": "1", "assets": 17419345, "income": 14969466, "revenue": 0}, {"ein": "135596877", "name": "TRUSTEES OF ROBERT COLLEGE OF ISTANBUL", "city": "NEW YORK", "state": "NY", "zip": "10018-3394", "ntee": "Q300", "ruling": "194712", "deductibility": "1", "assets": 12613766, "income": 20786730, "revenue": 20786730}, {"ein": "135598093", "name": "TRUSTEES OF COLUMBIA UNIVERSITY", "city": "NEW YORK", "state": "NY", "zip": "10027-7922", "ntee": "B430", "ruling": "197401", "deductibility": "1", "assets": 24801091365, "income": 9964855238, "revenue": 7314092533}, {"ein": "136056026", "name": "BOARD OF TRUSTEES OF PERKINS GAR", "city": "NEW YORK", "state": "NY", "zip": "10013-2362", "ntee": "", "ruling": "196209", "deductibility": "1", "assets": 3168966, "income": 710363, "revenue": 0}, {"ein": "136092981", "name": "BOARD OF TRUSTEES EQUITY LEAGUE HEALTH TRUST FUND", "city": "NEW YORK", "state": "NY", "zip": "10036-2508", "ntee": "", "ruling": "196401", "deductibility": "2", "assets": 125748623, "income": 102682395, "revenue": 71405273}, {"ein": "136133165", "name": "BOARD OF TRUSTEES OF FOREIGN PARISHES OF THE PROTESTANT EPISCOP", "city": "NEW YORK", "state": "NY", "zip": "10029-5212", "ntee": "", "ruling": "196006", "deductibility": "1", "assets": 0, "income": 0, "revenue": 0}, {"ein": "136168291", "name": "TRUSTEES OF THE CONGREGATION SHEARITH ISRAEL IN THE CITY OF NEW", "city": "NEW YORK", "state": "NY", "zip": "10023-4605", "ntee": "", "ruling": "193806", "deductibility": "1", "assets": 0, "income": 0, "revenue": 0}, {"ein": "136195314", "name": "TRUSTEES OF WORLD STUDENT CHRISTIAN FEDERATION INC", "city": "NEW YORK", "state": "NY", "zip": "10115-0113", "ntee": "Q23Z", "ruling": "196904", "deductibility": "1", "assets": 704106, "income": 788915, "revenue": 130779}, {"ein": "141338580", "name": "TRUSTEES OF UNION COLLEGE", "city": "SCHENECTADY", "state": "NY", "zip": "12308-3256", "ntee": "B420", "ruling": "193709", "deductibility": "1", "assets": 985737430, "income": 619775651, "revenue": 251324663}, {"ein": "141539746", "name": "ACADEMIC BOARD OF TRUSTEES OF FRANKLIN ACADEMY", "city": "MALONE", "state": "NY", "zip": "12953-1780", "ntee": "", "ruling": "199208", "deductibility": "1", "assets": 2557860, "income": 152158, "revenue": 152158}, {"ein": "141770878", "name": "ASSOCIATION OF BOARDS OF TRUSTEES OF COMM COLLGS ST UNIV OF NY INC", "city": "ALBANY", "state": "NY", "zip": "12246-2915", "ntee": "", "ruling": "199412", "deductibility": "0", "assets": 206378, "income": 99791, "revenue": 99791}, {"ein": "150532200", "name": "TRUSTEES OF HAMILTON COLLEGE", "city": "CLINTON", "state": "NY", "zip": "13323-1218", "ntee": "B420", "ruling": "194202", "deductibility": "1", "assets": 0, "income": 0, "revenue": 0}, {"ein": "161507972", "name": "HENRIETTA PUBLIC LIBRARY BOARD OF TRUSTEES", "city": "ROCHESTER", "state": "NY", "zip": "14623-4241", "ntee": "B70", "ruling": "199609", "deductibility": "1", "assets": 0, "income": 0, "revenue": 0}, {"ein": "166032517", "name": "LIBRARY TRUSTEES ASSOCIATION OF NEW YORK STATE", "city": "GUILDERLAND", "state": "NY", "zip": "12084-9503", "ntee": "", "ruling": "195112", "deductibility": "1", "assets": 61746, "income": 9865, "revenue": 3998}, {"ein": "166181358", "name": "TRUSTEES OF TRUCH DRIVERS AND HELPERS LOCAL 687 INSURANCE TRUST", "city": "POTSDAM", "state": "NY", "zip": "13676-1945", "ntee": "", "ruling": "197906", "deductibility": "2", "assets": 79077, "income": 35696, "revenue": 35696}, {"ein": "222549325", "name": "TRUSTEES OF THE REFORMED DUTCH CHURCH OF COXACKIE", "city": "COXSACKIE", "state": "NY", "zip": "12051-0011", "ntee": "", "ruling": "196801", "deductibility": "1", "assets": 0, "income": 0, "revenue": 0}, {"ein": "223431878", "name": "TRUSTEES OF PRINCETON UNIVERSITY", "city": "NEW YORK", "state": "NY", "zip": "10128-0509", "ntee": "", "ruling": "198402", "deductibility": "1", "assets": 0, "income": 0, "revenue": 0}, {"ein": "237036545", "name": "TRUSTEES OF RIOT RELIEF FUND", "city": "NEW YORK", "state": "NY", "zip": "10016-0000", "ntee": "", "ruling": "196911", "deductibility": "2", "assets": 3216158, "income": 621262, "revenue": 176568}, {"ein": "237052295", "name": "TRUSTEES OF THE REFORMED PROTESTANT DUTCH CHURCH OF THE TOWNSHIP OF NE", "city": "BROOKLYN", "state": "NY", "zip": "11209-2403", "ntee": "", "ruling": "196801", "deductibility": "1", "assets": 0, "income": 0, "revenue": 0}, {"ein": "237334459", "name": "TRUSTEES OF THE CORP UNITED BRETHERNS CHURCH OF NEW YORK", "city": "NEW YORK", "state": "NY", "zip": "10156-1874", "ntee": "", "ruling": "196412", "deductibility": "0", "assets": 0, "income": 0, "revenue": 0}, {"ein": "237381527", "name": "HEALTH & WELFARE FUND OF ROOFERS LOCAL NO 22 BOARD OF TRUSTEES", "city": "ROCHESTER", "state": "NY", "zip": "14623-2617", "ntee": "", "ruling": "197405", "deductibility": "2", "assets": 9278907, "income": 4844812, "revenue": 3444010}, {"ein": "300555017", "name": "TRUSTEES OF DARTMOUTH COLLEGE", "city": "BROOKLYN", "state": "NY", "zip": "11201-7473", "ntee": "B43Z", "ruling": "199710", "deductibility": "1", "assets": 0, "income": 0, "revenue": 0}, {"ein": "311648128", "name": "BOARD OF TRUSTEES-SCHENECTADY COUNTY PUBLIC LIBRARY", "city": "SCHENECTADY", "state": "NY", "zip": "12305-2047", "ntee": "B70", "ruling": "199905", "deductibility": "1", "assets": 0, "income": 0, "revenue": 0}, {"ein": "841904343", "name": "TRUSTEES OF DARTMOUTH COLLEGE", "city": "NEW YORK", "state": "NY", "zip": "10025-5325", "ntee": "B43Z", "ruling": "199710", "deductibility": "1", "assets": 0, "income": 0, "revenue": 0}, {"ein": "883948273", "name": "UAWSC ELECTED TRUSTEES", "city": "HUDSON", "state": "NY", "zip": "12534-0731", "ntee": "F50", "ruling": "202307", "deductibility": "1", "assets": 0, "income": 0, "revenue": 0}, {"ein": "901024497", "name": "TRUSTEES OF THE ESTATE BELONGING TO THE DIOCESE OF LONG ISLAND", "city": "GARDEN CITY", "state": "NY", "zip": "11530-4435", "ntee": "", "ruling": "195105", "deductibility": "1", "assets": 0, "income": 0, "revenue": 0}, {"ein": "911859360", "name": "TRUSTEES OF COLUMBIA UNIVERSITY IN THE CITY OF NEW YORK", "city": "NEW YORK", "state": "NY", "zip": "10027-7922", "ntee": "", "ruling": "197401", "deductibility": "1", "assets": 0, "income": 0, "revenue": 0}], "TRESNESS": [{"ein": "020658895", "name": "TRESNESS FAMILY FOUNDATION CORPORATION", "city": "EAST SYRACUSE", "state": "NY", "zip": "13057-1263", "ntee": "T22", "ruling": "200309", "deductibility": "1", "assets": 96068, "income": 37, "revenue": 0}], "NPCL": [{"ein": "030438399", "name": "WORLD WISE INSTITUTE NPCL", "city": "NEW YORK", "state": "NY", "zip": "10011-1526", "ntee": "D31", "ruling": "200307", "deductibility": "1", "assets": 0, "income": 0, "revenue": 0}], "CODE": [{"ein": "030493418", "name": "WILLIAM J CODE FOUNDATION", "city": "BALLSTON LAKE", "state": "NY", "zip": "12019-1504", "ntee": "T22", "ruling": "200304", "deductibility": "1", "assets": 90, "income": 5, "revenue": 0}, {"ein": "113301309", "name": "CODE FOUNDATION INC", "city": "BROOKLYN", "state": "NY", "zip": "11216-1798", "ntee": "O01", "ruling": "202209", "deductibility": "1", "assets": 0, "income": 0, "revenue": 0}, {"ein": "202148688", "name": "INSTITUTE OF NOAHIDE CODE", "city": "BROOKLYN", "state": "NY", "zip": "11225-3047", "ntee": "X99", "ruling": "201304", "deductibility": "1", "assets": 0, "income": 0, "revenue": 0}, {"ein": "300728021", "name": "GIRLS WHO CODE INC", "city": "NEW YORK", "state": "NY", "zip": "10001-3749", "ntee": "P30", "ruling": "201207", "deductibility": "1", "assets": 76069231, "income": 69628970, "revenue": 27998384}, {"ein": "334791721", "name": "CODE 123 PLAYGROUND", "city": "VLY COTTAGE", "state": "NY", "zip": "10989-7516", "ntee": "A33", "ruling": "202507", "deductibility": "1", "assets": 0, "income": 0, "revenue": 0}, {"ein": "421718790", "name": "CODE BLUE CHARITABLE FOUNDATION INC", "city": "PITTSFORD", "state": "NY", "zip": "14534-1334", "ntee": "T20", "ruling": "200702", "deductibility": "1", "assets": 6280063, "income": 5722413, "revenue": 0}, {"ein": "460557527", "name": "CODE NATION INC", "city": "BROOKLYN", "state": "NY", "zip": "11201-1401", "ntee": "B90", "ruling": "201303", "deductibility": "1", "assets": 311624, "income": 2466919, "revenue": 2466919}, {"ein": "462308130", "name": "CODE WITH ME INC", "city": "LONG IS CITY", "state": "NY", "zip": "11101-5790", "ntee": "J22", "ruling": "201412", "deductibility": "1", "assets": 0, "income": 0, "revenue": 0}, {"ein": "462783618", "name": "CODE MINISTRIES", "city": "ELMIRA", "state": "NY", "zip": "14905-1934", "ntee": "X20", "ruling": "201409", "deductibility": "1", "assets": 0, "income": 0, "revenue": 0}, {"ein": "464860857", "name": "NEW YORK COALITION OF CODE CONSULTANTS INC", "city": "NEW YORK", "state": "NY", "zip": "10018-6798", "ntee": "S41", "ruling": "201902", "deductibility": "2", "assets": 62944, "income": 87275, "revenue": 87275}, {"ein": "475333558", "name": "CODE LIBERATION FOUNDATION INC", "city": "BROOKLYN", "state": "NY", "zip": "11201-3846", "ntee": "B90", "ruling": "201601", "deductibility": "1", "assets": 0, "income": 0, "revenue": 0}, {"ein": "812893882", "name": "ALBANY CAN CODE INC", "city": "E GREENBUSH", "state": "NY", "zip": "12061-1310", "ntee": "B90", "ruling": "201611", "deductibility": "1", "assets": 606244, "income": 934642, "revenue": 934642}, {"ein": "832226697", "name": "CODE FOR NONPROFIT INC", "city": "NEW YORK", "state": "NY", "zip": "10022-1185", "ntee": "O99", "ruling": "202112", "deductibility": "1", "assets": 0, "income": 0, "revenue": 0}, {"ein": "842515374", "name": "CODE FOR CHANGE", "city": "STATEN ISLAND", "state": "NY", "zip": "10301-1432", "ntee": "B90", "ruling": "201909", "deductibility": "1", "assets": 0, "income": 0, "revenue": 0}, {"ein": "853587694", "name": "HOOD CODE INC", "city": "NEW YORK", "state": "NY", "zip": "10028-2136", "ntee": "B99", "ruling": "202103", "deductibility": "1", "assets": 196117, "income": 283382, "revenue": 283382}, {"ein": "881719710", "name": "CODE 4 ALPHA", "city": "ROCHESTER", "state": "NY", "zip": "14618-3521", "ntee": "F60", "ruling": "202205", "deductibility": "1", "assets": 6511, "income": 10141, "revenue": 0}, {"ein": "900954778", "name": "ALL STAR CODE INC", "city": "NEW YORK", "state": "NY", "zip": "10001-4527", "ntee": "O50", "ruling": "201403", "deductibility": "1", "assets": 2847852, "income": 2557468, "revenue": 2540248}, {"ein": "920869033", "name": "KIDS CODE & COMPUTER SCIENCE INC", "city": "WOODMERE", "state": "NY", "zip": "11598-1652", "ntee": "A33", "ruling": "202212", "deductibility": "1", "assets": 3305, "income": 111003, "revenue": 111003}, {"ein": "920990399", "name": "CURLY CODE FOUNDATION", "city": "BROOKLYN", "state": "NY", "zip": "11210-3839", "ntee": "B80", "ruling": "202304", "deductibility": "1", "assets": 0, "income": 0, "revenue": 0}, {"ein": "921450521", "name": "BEAUTIES WHO CODE", "city": "BRONX", "state": "NY", "zip": "10456-7806", "ntee": "B90", "ruling": "202301", "deductibility": "1", "assets": 0, "income": 0, "revenue": 0}, {"ein": "921851751", "name": "MARCELLUS CODE RED SOFTBALL", "city": "MARCELLUS", "state": "NY", "zip": "13108-9619", "ntee": "N63", "ruling": "202303", "deductibility": "1", "assets": 0, "income": 0, "revenue": 0}, {"ein": "921885645", "name": "CODE FOR LIFE USA INC", "city": "NEW YORK", "state": "NY", "zip": "10001-7604", "ntee": "B90", "ruling": "202305", "deductibility": "1", "assets": 135421, "income": 369045, "revenue": 369045}, {"ein": "994127317", "name": "CODE SOCIAL GOOD INC", "city": "WILLIAMSVILLE", "state": "NY", "zip": "14221-8528", "ntee": "W99", "ruling": "202408", "deductibility": "1", "assets": 0, "income": 0, "revenue": 0}], "BUTTENWIESER": [{"ein": "043216632", "name": "CATHERINE & PAUL BUTTENWIESER FOUNDATION", "city": "NEW YORK", "state": "NY", "zip": "10016-0000", "ntee": "", "ruling": "199401", "deductibility": "1", "assets": 10059, "income": 1146, "revenue": 0}], "PEACEFULL": [{"ein": "043420559", "name": "PEACEFULL PASTURES INC", "city": "LOCKPORT", "state": "NY", "zip": "14094-4621", "ntee": "X21", "ruling": "201405", "deductibility": "1", "assets": 0, "income": 0, "revenue": 0}, {"ein": "872810333", "name": "PEACEFULL KIDS", "city": "ROCHESTER", "state": "NY", "zip": "14618-3729", "ntee": "O99", "ruling": "202202", "deductibility": "1", "assets": 0, "income": 0, "revenue": 0}], "IRWIN": [{"ein": "043595876", "name": "IRWIN WEINER CHARITABLE FOUNDATION INC", "city": "WHITE PLAINS", "state": "NY", "zip": "10604-3577", "ntee": "T22", "ruling": "200204", "deductibility": "1", "assets": 265946, "income": 163830, "revenue": 0}, {"ein": "061619844", "name": "IRWIN S SCHERZER FOUNDATION INC", "city": "NEW YORK", "state": "NY", "zip": "10021-2839", "ntee": "T22", "ruling": "200108", "deductibility": "1", "assets": 3366595, "income": 1207848, "revenue": 0}, {"ein": "112394265", "name": "ROSLYN SYNAGOGUE C O IRWIN M ECHTMAN", "city": "ROSLYN HTS", "state": "NY", "zip": "11577-1044", "ntee": "", "ruling": "197712", "deductibility": "1", "assets": 0, "income": 0, "revenue": 0}, {"ein": "137100740", "name": "RITA AND IRWIN HOCHBERG FAMILY FOUNDATION", "city": "NEW YORK", "state": "NY", "zip": "10123-4100", "ntee": "T20J", "ruling": "199709", "deductibility": "1", "assets": 4057, "income": 283, "revenue": 0}, {"ein": "456440136", "name": "LEONARD AND IRWIN KAMP FOUNDATION UA DTD 9-2-10", "city": "SYRACUSE", "state": "NY", "zip": "13214-2318", "ntee": "T20", "ruling": "201404", "deductibility": "1", "assets": 3835091, "income": 1549686, "revenue": 0}, {"ein": "464395157", "name": "JOAN AND IRWIN JACOBS TECHNION-CORNELL INNOVATION INSTIT", "city": "NEW YORK", "state": "NY", "zip": "10044-1501", "ntee": "B82", "ruling": "201412", "deductibility": "1", "assets": 203412008, "income": 35381055, "revenue": 29069601}, {"ein": "853131127", "name": "IRWIN S QUINTYNE FOUNDATION INC", "city": "NORTH BABYLON", "state": "NY", "zip": "11703-1006", "ntee": "R01", "ruling": "202405", "deductibility": "1", "assets": 0, "income": 0, "revenue": 0}], "SOUND": [{"ein": "043823935", "name": "SOUND BEACH CIVIC ASSOCIATION", "city": "SOUND BEACH", "state": "NY", "zip": "11789-0295", "ntee": "S20", "ruling": "200509", "deductibility": "2", "assets": 0, "income": 0, "revenue": 0}, {"ein": "111671542", "name": "SOUND SHORE BLUFFS PROPERTY OWNERS ASSOC INC", "city": "NORTHPORT", "state": "NY", "zip": "11768-0431", "ntee": "W99", "ruling": "201408", "deductibility": "2", "assets": 0, "income": 0, "revenue": 0}, {"ein": "111882498", "name": "JONES MANOR ON THE SOUND", "city": "MELVILLE", "state": "NY", "zip": "11747-0000", "ntee": "L22Z", "ruling": "194210", "deductibility": "1", "assets": 2413419, "income": 211503, "revenue": 83605}, {"ein": "112503764", "name": "SAN SIMEON BY THE SOUND INC", "city": "GREENPORT", "state": "NY", "zip": "11944-2206", "ntee": "X21", "ruling": "198012", "deductibility": "1", "assets": 608935, "income": 81588, "revenue": 81588}, {"ein": "112719565", "name": "SOUND SYMPHONY INCORPORATED", "city": "MILLER PLACE", "state": "NY", "zip": "11764-8541", "ntee": "", "ruling": "198505", "deductibility": "1", "assets": 0, "income": 0, "revenue": 0}, {"ein": "112780329", "name": "CHURCH ON THE SOUND", "city": "STONY BROOK", "state": "NY", "zip": "11790-2301", "ntee": "", "ruling": "199311", "deductibility": "1", "assets": 0, "income": 0, "revenue": 0}, {"ein": "112979008", "name": "SOUND BEACH SOCCER CLUB", "city": "SHOREHAM", "state": "NY", "zip": "11786-0200", "ntee": "N64", "ruling": "200604", "deductibility": "1", "assets": 42603, "income": 113767, "revenue": 113767}, {"ein": "116037791", "name": "JUNIOR SAILING ASSOCIATION OF LONG ISLAND SOUND INC", "city": "LARCHMONT", "state": "NY", "zip": "10538-3797", "ntee": "", "ruling": "196401", "deductibility": "1", "assets": 232162, "income": 204898, "revenue": 204898}, {"ein": "116039080", "name": "SOUND BEACH PROPERTY OWNERS ASSOCIATION INC", "city": "SOUND BEACH", "state": "NY", "zip": "11789-2800", "ntee": "S99", "ruling": "202304", "deductibility": "2", "assets": 41297, "income": 111088, "revenue": 109501}, {"ein": "131900120", "name": "JUNIOR LEAGUE OF WESTCHESTER ON THE SOUND INC", "city": "LARCHMONT", "state": "NY", "zip": "10538-2804", "ntee": "S810", "ruling": "195111", "deductibility": "1", "assets": 733977, "income": 356990, "revenue": 356990}, {"ein": "132955399", "name": "SOUND VIEW APARTMENTS HOUSING DEVELOPMENT FUND COMPANY INC", "city": "NEW ROCHELLE", "state": "NY", "zip": "10805-1256", "ntee": "L22Z", "ruling": "197811", "deductibility": "1", "assets": 8645775, "income": 2680647, "revenue": 0}, {"ein": "133106828", "name": "SOUND SHORE CHORALE OF NEW ROCHELLE INC", "city": "LARCHMONT", "state": "NY", "zip": "10538-1649", "ntee": "A6B", "ruling": "202208", "deductibility": "1", "assets": 0, "income": 0, "revenue": 0}, {"ein": "133581914", "name": "COMMITTEE FOR ENVIRONMENTALLY SOUND DEVELOPMENT INC", "city": "NEW YORK", "state": "NY", "zip": "10023-2655", "ntee": "", "ruling": "199402", "deductibility": "1", "assets": 0, "income": 0, "revenue": 0}, {"ein": "133874912", "name": "SOUND THE TRUMPET INTERNATIONAL INC", "city": "ALBANY", "state": "NY", "zip": "12203-4713", "ntee": "X20Z", "ruling": "199807", "deductibility": "1", "assets": 0, "income": 0, "revenue": 0}, {"ein": "135655518", "name": "YACHT RACING ASSOC OF LONG ISLAND SOUND INC", "city": "MAMARONECK", "state": "NY", "zip": "10543-3709", "ntee": "", "ruling": "194203", "deductibility": "2", "assets": 222579, "income": 130081, "revenue": 130081}, {"ein": "136162775", "name": "BRONX RIVER-SOUND SHORE AUDUBON SOCIETY INC", "city": "TUCKAHOE", "state": "NY", "zip": "10707-3302", "ntee": "D30", "ruling": "196105", "deductibility": "1", "assets": 0, "income": 0, "revenue": 0}, {"ein": "136180704", "name": "SOUND RECORDING SPECIAL PAYMENTS FUND", "city": "NEW YORK", "state": "NY", "zip": "10022-6246", "ntee": "S46", "ruling": "202004", "deductibility": "2", "assets": 22748683, "income": 15003291, "revenue": 15003291}, {"ein": "201125609", "name": "ALARM WILL SOUND INC", "city": "NEW YORK", "state": "NY", "zip": "10017-7601", "ntee": "A69", "ruling": "200501", "deductibility": "1", "assets": 373484, "income": 787084, "revenue": 787084}, {"ein": "201222517", "name": "SAN SIMEON BY THE SOUND CENTER FOR NURSING AND REHABILITATION", "city": "GREENPORT", "state": "NY", "zip": "11944-2206", "ntee": "E91", "ruling": "200408", "deductibility": "1", "assets": 5454119, "income": 17220166, "revenue": 17209738}, {"ein": "203344252", "name": "STAGES ON THE SOUND INC", "city": "SYOSSET", "state": "NY", "zip": "11791-5317", "ntee": "A65", "ruling": "200601", "deductibility": "1", "assets": 55452, "income": 148768, "revenue": 148768}, {"ein": "205420911", "name": "WORLD SOUND FOUNDATION", "city": "KINGSTON", "state": "NY", "zip": "12401-7877", "ntee": "A80", "ruling": "200706", "deductibility": "1", "assets": 0, "income": 0, "revenue": 0}, {"ein": "223399011", "name": "SOUND SHORE YOUTH FOUNDATION INC", "city": "RYE", "state": "NY", "zip": "10580-0650", "ntee": "O21", "ruling": "199601", "deductibility": "1", "assets": 66759, "income": 82100, "revenue": 82100}, {"ein": "262560900", "name": "THE LONG ISLAND SOUND CONSERVATION SOCIETY", "city": "HUNTINGTN STA", "state": "NY", "zip": "11746-2511", "ntee": "C20", "ruling": "200902", "deductibility": "1", "assets": 1013, "income": 205, "revenue": 205}, {"ein": "263324435", "name": "AT HOME ON THE SOUND INC", "city": "MAMARONECK", "state": "NY", "zip": "10543-0523", "ntee": "P44", "ruling": "200903", "deductibility": "1", "assets": 368356, "income": 265538, "revenue": 235451}, {"ein": "311483417", "name": "SOUND FROM GLORY INC", "city": "BROOKLYN", "state": "NY", "zip": "11230-1404", "ntee": "X20", "ruling": "199901", "deductibility": "1", "assets": 0, "income": 0, "revenue": 0}, {"ein": "331569869", "name": "SOUND HEALTHCARE", "city": "PLAINVIEW", "state": "NY", "zip": "11803-7018", "ntee": "E99", "ruling": "202506", "deductibility": "1", "assets": 0, "income": 0, "revenue": 0}, {"ein": "334453228", "name": "AESOPS SOUND FABLES INC", "city": "BROOKLYN", "state": "NY", "zip": "11222-4907", "ntee": "A60", "ruling": "202505", "deductibility": "1", "assets": 0, "income": 0, "revenue": 0}, {"ein": "432017975", "name": "SOUND SHORE STARS INC", "city": "EASTCHESTER", "state": "NY", "zip": "10709-1330", "ntee": "N72", "ruling": "201410", "deductibility": "1", "assets": 0, "income": 0, "revenue": 0}, {"ein": "451993996", "name": "SOUND SHORE ST PATRICKS DAY PARADE INC", "city": "MAMARONECK", "state": "NY", "zip": "10543-2232", "ntee": "A23", "ruling": "201210", "deductibility": "1", "assets": 3003, "income": 72057, "revenue": 43323}, {"ein": "474207974", "name": "FOUND SOUND NATION", "city": "RIDGEWOOD", "state": "NY", "zip": "11385-3141", "ntee": "A20", "ruling": "201605", "deductibility": "1", "assets": 219410, "income": 749156, "revenue": 749156}, {"ein": "474527620", "name": "THEATRICAL SOUND DESIGNERS AND COMPOSERS ASSOCIATION", "city": "BRONX", "state": "NY", "zip": "10470-1716", "ntee": "A03", "ruling": "201604", "deductibility": "1", "assets": 44241, "income": 51795, "revenue": 51795}, {"ein": "510490075", "name": "SOUND-OF-HOPE COMMUNICATION INC", "city": "NEW HAMPTON", "state": "NY", "zip": "10958-0207", "ntee": "A34", "ruling": "200611", "deductibility": "1", "assets": 27592, "income": 0, "revenue": 0}, {"ein": "562536934", "name": "SOUND BEACH FIRE DEPARTMENT INC", "city": "SOUND BEACH", "state": "NY", "zip": "11789-0000", "ntee": "M24", "ruling": "201312", "deductibility": "1", "assets": 0, "income": 0, "revenue": 0}, {"ein": "800392284", "name": "SAFE AND SOUND SANCTUARY INC", "city": "ISLIP TERRACE", "state": "NY", "zip": "11752-0000", "ntee": "D20", "ruling": "200911", "deductibility": "1", "assets": 13796, "income": 62517, "revenue": 62517}, {"ein": "810694075", "name": "SOUND POTENTIAL INC", "city": "NEW YORK", "state": "NY", "zip": "10024-2605", "ntee": "A69", "ruling": "201605", "deductibility": "1", "assets": 0, "income": 0, "revenue": 0}, {"ein": "824218379", "name": "SOUND BEACH VOLUNTEER EXEMPT FIREMENS BENEVOLENT ASSOCIATION", "city": "SOUND BEACH", "state": "NY", "zip": "11789-2728", "ntee": "J40", "ruling": "201808", "deductibility": "2", "assets": 0, "income": 0, "revenue": 0}, {"ein": "825192283", "name": "MUSIC ART PUPPET SOUND INC", "city": "NEW YORK", "state": "NY", "zip": "10012-4333", "ntee": "A20", "ruling": "201805", "deductibility": "1", "assets": 67252, "income": 188626, "revenue": 188626}, {"ein": "834613196", "name": "SOUND MIND LIVE INC", "city": "BROOKLYN", "state": "NY", "zip": "11222-3120", "ntee": "F70", "ruling": "202003", "deductibility": "1", "assets": 51694, "income": 710608, "revenue": 710608}, {"ein": "843124650", "name": "SOUND JUSTICE INITIATIVE INC", "city": "RIVERHEAD", "state": "NY", "zip": "11901-0710", "ntee": "", "ruling": "202009", "deductibility": "1", "assets": 11779, "income": 152031, "revenue": 152031}, {"ein": "882776935", "name": "LOCAL SOUND COLLABORATIVE INC", "city": "ROCHESTER", "state": "NY", "zip": "14609-7433", "ntee": "A68", "ruling": "202304", "deductibility": "1", "assets": 38384, "income": 57275, "revenue": 57275}, {"ein": "900671580", "name": "LONG ISLAND SOUND BASEBALL ACADEMY", "city": "WEST BABYLON", "state": "NY", "zip": "11704-6932", "ntee": "N63", "ruling": "201609", "deductibility": "1", "assets": 0, "income": 0, "revenue": 0}, {"ein": "932131806", "name": "SOUND OF UNIVERSAL LOVE", "city": "BROOKLYN", "state": "NY", "zip": "11206-6288", "ntee": "A20", "ruling": "202505", "deductibility": "1", "assets": 0, "income": 0, "revenue": 0}, {"ein": "934916180", "name": "EXCELLENCE SOUND ACADEMY INCORPORATED", "city": "NEW YORK", "state": "NY", "zip": "10029-1107", "ntee": "B80", "ruling": "202411", "deductibility": "1", "assets": 0, "income": 0, "revenue": 0}, {"ein": "993805766", "name": "FEEDING THE SOUND", "city": "NEW ROCHELLE", "state": "NY", "zip": "10801-2612", "ntee": "K34", "ruling": "202408", "deductibility": "1", "assets": 0, "income": 0, "revenue": 0}], "PERIMETER": [{"ein": "050553637", "name": "FRIENDS OF PERIMETER INSTITUTE INC", "city": "BUFFALO", "state": "NY", "zip": "14202-4014", "ntee": "B12", "ruling": "200304", "deductibility": "1", "assets": 17621, "income": 4100, "revenue": 0}, {"ein": "134029397", "name": "PERIMETER MEDIA AND CULTURE PROJECTS INCORPORATED", "city": "NEW YORK", "state": "NY", "zip": "10023-8505", "ntee": "A310", "ruling": "200104", "deductibility": "1", "assets": 0, "income": 0, "revenue": 0}, {"ein": "471393536", "name": "PERIMETER SPORTS INC", "city": "BROOKLYN", "state": "NY", "zip": "11207-7841", "ntee": "O50", "ruling": "201503", "deductibility": "1", "assets": 1820, "income": 167294, "revenue": 167294}], "BEAUTIFUL": [{"ein": "061513190", "name": "KEEP ROCKLAND BEAUTIFUL INC", "city": "NEW CITY", "state": "NY", "zip": "10956-3796", "ntee": "C500", "ruling": "199706", "deductibility": "1", "assets": 162317, "income": 202061, "revenue": 202061}, {"ein": "113617398", "name": "BEAUTIFUL DISCIPLES CHURCH OF N Y", "city": "LITTLE NECK", "state": "NY", "zip": "11362-1340", "ntee": "X222", "ruling": "200204", "deductibility": "1", "assets": 0, "income": 0, "revenue": 0}, {"ein": "113622331", "name": "NEW YORK BEAUTIFUL PRESBYTERIAN CHURCH", "city": "FLUSHING", "state": "NY", "zip": "11354-5935", "ntee": "X21", "ruling": "200112", "deductibility": "1", "assets": 0, "income": 0, "revenue": 0}, {"ein": "135578510", "name": "OCEAN VIEW-THE CEMETERY BEAUTIFUL INC", "city": "STATEN ISLAND", "state": "NY", "zip": "10306-2707", "ntee": "", "ruling": "194210", "deductibility": "1", "assets": 9012685, "income": 5445018, "revenue": 3312374}, {"ein": "161591803", "name": "KEEP WESTERN NEW YORK BEAUTIFUL INC", "city": "CHEEKTOWAGA", "state": "NY", "zip": "14227-1972", "ntee": "S20", "ruling": "200011", "deductibility": "1", "assets": 11482, "income": 3, "revenue": 3}, {"ein": "204817022", "name": "YOU ARE BEAUTIFUL PEOPLE INC", "city": "GOSHEN", "state": "NY", "zip": "10924-1518", "ntee": "O50", "ruling": "200607", "deductibility": "1", "assets": 202633, "income": 189665, "revenue": 167810}, {"ein": "223188213", "name": "KEEP AMERICA BEAUTIFUL OF ROME NEW YORK INC", "city": "ROME", "state": "NY", "zip": "13440-4163", "ntee": "C30Z", "ruling": "199303", "deductibility": "1", "assets": 109019, "income": 51, "revenue": 51}, {"ein": "237148060", "name": "RESIDENTS FOR A MORE BEAUTIFUL PORT WASHINGTON INC", "city": "PRT WASHINGTN", "state": "NY", "zip": "11050-0864", "ntee": "C500", "ruling": "197110", "deductibility": "1", "assets": 248482, "income": 193635, "revenue": 163124}, {"ein": "332832339", "name": "BEAUTIFUL MIND TBM FOUNDATION INC", "city": "BRONX", "state": "NY", "zip": "10463-1466", "ntee": "G12", "ruling": "202505", "deductibility": "1", "assets": 0, "income": 0, "revenue": 0}, {"ein": "472686259", "name": "CITIZENS FOR THE BEAUTIFICATION OF SOMERS INC - KEEP SOMERS BEAUTIFUL", "city": "YORKTOWN HTS", "state": "NY", "zip": "10598-4333", "ntee": "C50", "ruling": "201502", "deductibility": "1", "assets": 0, "income": 0, "revenue": 0}, {"ein": "810791447", "name": "BEAUTIFUL EARTH FOUNDATION INC", "city": "NEW YORK", "state": "NY", "zip": "10026-4164", "ntee": "A20", "ruling": "201605", "deductibility": "1", "assets": 1, "income": 5128, "revenue": 5128}, {"ein": "812810966", "name": "BEAUTIFUL MESS MINISTRIES INC", "city": "SODUS", "state": "NY", "zip": "14551-0142", "ntee": "T01", "ruling": "201804", "deductibility": "1", "assets": 5745, "income": 41169, "revenue": 41169}, {"ein": "814148081", "name": "BEAUTIFUL CREATIONS CHILD CARE INC", "city": "ROOSEVELT", "state": "NY", "zip": "11575-1330", "ntee": "", "ruling": "201909", "deductibility": "1", "assets": 0, "income": 0, "revenue": 0}, {"ein": "820840058", "name": "BEAUTIFUL LIVES PROJECT INC", "city": "HUNTINGTON", "state": "NY", "zip": "11743-6941", "ntee": "T30", "ruling": "201712", "deductibility": "1", "assets": 18308, "income": 202581, "revenue": 202581}, {"ein": "830791666", "name": "SOUL BEAUTIFUL INC", "city": "BALDWINSVILLE", "state": "NY", "zip": "13027-2413", "ntee": "P99", "ruling": "201806", "deductibility": "1", "assets": 0, "income": 0, "revenue": 0}, {"ein": "831179925", "name": "SIMPLY BEAUTIFUL CREATION INC", "city": "BROOKLYN", "state": "NY", "zip": "11225-5630", "ntee": "S20", "ruling": "201808", "deductibility": "1", "assets": 0, "income": 0, "revenue": 0}, {"ein": "834627567", "name": "A BEAUTIFUL HEART MINISTRIES INC", "city": "JAMAICA", "state": "NY", "zip": "11432-2936", "ntee": "P20", "ruling": "202010", "deductibility": "1", "assets": 60294, "income": 57313, "revenue": 57313}, {"ein": "862681346", "name": "BEAUTIFUL HEARTBEATS INC", "city": "STATEN ISLAND", "state": "NY", "zip": "10301-2825", "ntee": "Z99", "ruling": "202107", "deductibility": "1", "assets": 0, "income": 0, "revenue": 0}, {"ein": "874033567", "name": "BEAUTIFUL SISTERS ASSOCIATION INC", "city": "ELMONT", "state": "NY", "zip": "11003-1507", "ntee": "P80", "ruling": "202203", "deductibility": "1", "assets": 0, "income": 0, "revenue": 0}, {"ein": "874384512", "name": "CITY BEAUTIFUL CHURCH", "city": "NEW YORK", "state": "NY", "zip": "10037-3714", "ntee": "X20", "ruling": "202209", "deductibility": "1", "assets": 0, "income": 0, "revenue": 0}, {"ein": "920290873", "name": "DEFINE BEAUTIFUL ARTS INC", "city": "FOREST HILLS", "state": "NY", "zip": "11375-4199", "ntee": "P20", "ruling": "202210", "deductibility": "1", "assets": 4100, "income": 5000, "revenue": 5000}, {"ein": "922380792", "name": "GATE BEAUTIFUL WOMENS RESOURCE CENTER", "city": "POUGHKEEPSIE", "state": "NY", "zip": "12601-1922", "ntee": "P99", "ruling": "202303", "deductibility": "1", "assets": 0, "income": 0, "revenue": 0}, {"ein": "933022118", "name": "BEAUTIFUL RACKET INC", "city": "ALBANY", "state": "NY", "zip": "12203-3411", "ntee": "A23", "ruling": "202402", "deductibility": "1", "assets": 0, "income": 0, "revenue": 0}, {"ein": "934303798", "name": "FRIENDS FOR A BEAUTIFUL EAST MEADOW INC", "city": "EAST MEADOW", "state": "NY", "zip": "11554-0000", "ntee": "C50", "ruling": "202311", "deductibility": "1", "assets": 0, "income": 0, "revenue": 0}, {"ein": "993690645", "name": "BUTTERFLY BEAUTIFUL INC", "city": "BRONX", "state": "NY", "zip": "10461-2827", "ntee": "A20", "ruling": "202505", "deductibility": "1", "assets": 0, "income": 0, "revenue": 0}], "MINSKY": [{"ein": "061528345", "name": "SYLVIA AND HOWARD G MINSKY FOUNDATION", "city": "NEW YORK", "state": "NY", "zip": "10023-7922", "ntee": "T20", "ruling": "199907", "deductibility": "1", "assets": 143496, "income": 590, "revenue": 0}], "KATHI": [{"ein": "061650710", "name": "KATHI SMILLIE NURSING FOUNDATION INC", "city": "MASSAPEQUA", "state": "NY", "zip": "11758-7951", "ntee": "B82", "ruling": "200303", "deductibility": "1", "assets": 0, "income": 0, "revenue": 0}], "INTERON": [{"ein": "061690150", "name": "INTERON PRODUCTIONS INC", "city": "QUEENS VILLAGE", "state": "NY", "zip": "11427-1725", "ntee": "B990", "ruling": "200707", "deductibility": "1", "assets": 4333, "income": 1123, "revenue": 1123}], "HOFSTRA": [{"ein": "111630906", "name": "HOFSTRA UNIVERSITY", "city": "HEMPSTEAD", "state": "NY", "zip": "11549-0001", "ntee": "B430", "ruling": "194212", "deductibility": "1", "assets": 1597308183, "income": 1005836098, "revenue": 705753783}, {"ein": "112449511", "name": "AMERICAN ASSOCIATION OF UNIVERSITY PROFESSORS HOFSTRA UNIVERSITY", "city": "HEMPSTEAD", "state": "NY", "zip": "11549-1270", "ntee": "", "ruling": "197803", "deductibility": "2", "assets": 1275934, "income": 326980, "revenue": 326980}, {"ein": "203535434", "name": "CHABAD AT HOFSTRA UNIVERSITY INC", "city": "HEMPSTEAD", "state": "NY", "zip": "11550-4647", "ntee": "X30", "ruling": "200805", "deductibility": "1", "assets": 0, "income": 0, "revenue": 0}], "HANAC": [{"ein": "112290832", "name": "HANAC INC", "city": "ASTORIA", "state": "NY", "zip": "11102-2035", "ntee": "R20", "ruling": "197402", "deductibility": "1", "assets": 30634311, "income": 20136706, "revenue": 19949338}, {"ein": "113166843", "name": "HANAC SPITI MANAGEMENT COMPANY INC", "city": "NEW YORK", "state": "NY", "zip": "10001-3709", "ntee": "L02", "ruling": "200112", "deductibility": "1", "assets": 1860796, "income": 2190664, "revenue": 2190664}, {"ein": "472930871", "name": "HANAC CORONA HOUSING DEVELOPMENT FUND CORPORATION", "city": "ASTORIA", "state": "NY", "zip": "11102-2000", "ntee": "L21", "ruling": "201809", "deductibility": "1", "assets": 1, "income": 0, "revenue": 0}], "BOB": [{"ein": "112419258", "name": "MID ISLAND BAPTIST TEMPLE C O REV BOB BADERTSCHER", "city": "ISLIP", "state": "NY", "zip": "11751-1024", "ntee": "", "ruling": "197706", "deductibility": "1", "assets": 0, "income": 0, "revenue": 0}, {"ein": "133442016", "name": "BOB AND SHEILA FRIEDLAND FOUNDATION INC", "city": "HARRISON", "state": "NY", "zip": "10528-2418", "ntee": "", "ruling": "000000", "deductibility": "0", "assets": 1, "income": 200000, "revenue": 0}, {"ein": "260335499", "name": "BOB & STACY SCHMETTERER FOUNDATIONINC A FLORIDA NOT FOR PROFIT CORP", "city": "NEW YORK", "state": "NY", "zip": "10020-0000", "ntee": "T20", "ruling": "200708", "deductibility": "1", "assets": 10913, "income": 36575, "revenue": 0}, {"ein": "261441650", "name": "BOB WOODRUFF FAMILY FOUNDATION INC", "city": "LONG ISLAND CITY", "state": "NY", "zip": "11101-5352", "ntee": "E99", "ruling": "200802", "deductibility": "1", "assets": 71587736, "income": 48685731, "revenue": 48145743}, {"ein": "462600490", "name": "BOB FELLER ACT OF VALOR AWARD FOUNDATION INC", "city": "PORT JEFF STA", "state": "NY", "zip": "11776-0110", "ntee": "T99", "ruling": "201408", "deductibility": "1", "assets": 70416, "income": 89286, "revenue": 89286}, {"ein": "471821434", "name": "THE BOB & BARBARA MCCORD PRIVATE FOUNDATION INC", "city": "ALLEGANY", "state": "NY", "zip": "14706-9711", "ntee": "X20", "ruling": "201607", "deductibility": "2", "assets": 1469640, "income": 108983, "revenue": 0}, {"ein": "562513041", "name": "BOB MCCARTHY FOUNDATION", "city": "ELLICOTTVILLE", "state": "NY", "zip": "14731-0301", "ntee": "I21", "ruling": "200612", "deductibility": "1", "assets": 145238, "income": 41766, "revenue": 40943}, {"ein": "813159612", "name": "BOB LICATA FOUNDATION", "city": "EAST SYRACUSE", "state": "NY", "zip": "13057-3009", "ntee": "W99", "ruling": "201610", "deductibility": "1", "assets": 0, "income": 0, "revenue": 0}, {"ein": "832156491", "name": "FRIENDS OF BOB AND CHRIS INC", "city": "FAIRPORT", "state": "NY", "zip": "14450-8823", "ntee": "B43", "ruling": "202303", "deductibility": "1", "assets": 0, "income": 0, "revenue": 0}, {"ein": "832621181", "name": "BOB SARRO FOUNDATION INC", "city": "YORKTOWN HTS", "state": "NY", "zip": "10598-3847", "ntee": "P12", "ruling": "201812", "deductibility": "1", "assets": 0, "income": 0, "revenue": 0}, {"ein": "871513213", "name": "BIRDIES AND BOGEYS FOR BOB", "city": "SOMERS", "state": "NY", "zip": "10589-1974", "ntee": "E60", "ruling": "202201", "deductibility": "1", "assets": 75864, "income": 53864, "revenue": 20527}, {"ein": "872313736", "name": "BOB AND RITA MARLEY FOUNDATION INC", "city": "NEW YORK", "state": "NY", "zip": "10025-1934", "ntee": "T12", "ruling": "202201", "deductibility": "1", "assets": 42064, "income": 131737, "revenue": 131737}, {"ein": "872339649", "name": "SHOP-BOB CARES", "city": "STATEN ISLAND", "state": "NY", "zip": "10314-5880", "ntee": "A12", "ruling": "202111", "deductibility": "1", "assets": 0, "income": 0, "revenue": 0}, {"ein": "873495360", "name": "SHARON & BOB FORD FOUNDATION", "city": "NEW YORK", "state": "NY", "zip": "10185-5016", "ntee": "T22", "ruling": "202206", "deductibility": "1", "assets": 4190873, "income": 7098975, "revenue": 0}, {"ein": "932780252", "name": "BOB LEMON PRODUCTION INC", "city": "NEW YORK", "state": "NY", "zip": "10027-5537", "ntee": "B28", "ruling": "202408", "deductibility": "1", "assets": 0, "income": 0, "revenue": 0}], "TANENBAUM": [{"ein": "112423631", "name": "JOSEPH & FAYE TANENBAUM CENTER OF APPLIED TORAH LEARNING", "city": "BROOKLYN", "state": "NY", "zip": "11204-1252", "ntee": "", "ruling": "197707", "deductibility": "1", "assets": 0, "income": 0, "revenue": 0}, {"ein": "113300825", "name": "JOSEPH AND BERNICE TANENBAUM FOUNDATION", "city": "BAYSIDE", "state": "NY", "zip": "11361-2864", "ntee": "T99J", "ruling": "199601", "deductibility": "1", "assets": 557461, "income": 193236, "revenue": 0}, {"ein": "133235960", "name": "OHR SOMAYACH JOSEPH TANENBAUM EDUCATIONAL CENTER", "city": "MONSEY", "state": "NY", "zip": "10952-1810", "ntee": "", "ruling": "198505", "deductibility": "1", "assets": 0, "income": 0, "revenue": 0}, {"ein": "133695475", "name": "TANENBAUM CENTER FOR INTERRELIGIOUS UNDERSTANDING", "city": "NEW YORK", "state": "NY", "zip": "10038-2595", "ntee": "P80Z", "ruling": "199306", "deductibility": "1", "assets": 4588622, "income": 2667100, "revenue": 2502314}, {"ein": "263341025", "name": "SHONINGER-TANENBAUM FOUNDATION", "city": "NEW YORK", "state": "NY", "zip": "10006-2756", "ntee": "T20", "ruling": "201408", "deductibility": "1", "assets": 255090, "income": 11873, "revenue": 0}, {"ein": "466498939", "name": "MARY M TANENBAUM FOUNDATION", "city": "NEW YORK", "state": "NY", "zip": "10006-2756", "ntee": "T99", "ruling": "201404", "deductibility": "1", "assets": 482914, "income": 25783, "revenue": 0}], "SUMMER": [{"ein": "112457344", "name": "MORGAN PARK SUMMER MUSIC FESTIVAL ASSOCIATION INC", "city": "GLEN COVE", "state": "NY", "zip": "11542-0296", "ntee": "A680", "ruling": "197807", "deductibility": "1", "assets": 6516822, "income": 1228992, "revenue": 1228992}, {"ein": "112781711", "name": "LAKE SUCCESS SUMMER NURSERY CAMP", "city": "COMMACK", "state": "NY", "zip": "11725-0000", "ntee": "N20Z", "ruling": "198706", "deductibility": "1", "assets": 9317, "income": 228100, "revenue": 228100}, {"ein": "113077449", "name": "SUMMER SHOWCASE CONCERT SERIES OF SOUTHOLD INC", "city": "SOUTHOLD", "state": "NY", "zip": "11971-0163", "ntee": "A6C", "ruling": "201609", "deductibility": "1", "assets": 0, "income": 0, "revenue": 0}, {"ein": "113279732", "name": "NEW YORK SUMMER CONFERENCE INC", "city": "WHITESTONE", "state": "NY", "zip": "11357-3104", "ntee": "X99Z", "ruling": "199608", "deductibility": "1", "assets": 0, "income": 0, "revenue": 0}, {"ein": "113614690", "name": "SUMMER KIDS INTERACTIVE PROGRAM INC", "city": "LONG BEACH", "state": "NY", "zip": "11561-3624", "ntee": "O50", "ruling": "200512", "deductibility": "1", "assets": 0, "income": 0, "revenue": 0}, {"ein": "132991394", "name": "PRINCETON CLUB OF NEW YORK & SUMMER RULON-MILLER SCHOLARSHIP TRUST", "city": "NEW YORK", "state": "NY", "zip": "10036-7497", "ntee": "", "ruling": "198001", "deductibility": "1", "assets": 1103330, "income": 261880, "revenue": 0}, {"ein": "133038194", "name": "CHAPPAQUA SUMMER SCHOLARSHIP PROGRAM", "city": "CHAPPAQUA", "state": "NY", "zip": "10514-0456", "ntee": "B82", "ruling": "198101", "deductibility": "1", "assets": 256675, "income": 154364, "revenue": 125598}, {"ein": "133514924", "name": "SCARSDALE SUMMER MUSIC THEATRE INC", "city": "SCARSDALE", "state": "NY", "zip": "10583-6234", "ntee": "", "ruling": "198805", "deductibility": "1", "assets": 0, "income": 0, "revenue": 0}, {"ein": "133573238", "name": "SAW MILL SUMMER THEATRE INC", "city": "PLEASANTVILLE", "state": "NY", "zip": "10570-1310", "ntee": "A650", "ruling": "199901", "deductibility": "1", "assets": 0, "income": 0, "revenue": 0}, {"ein": "133636102", "name": "PELL STREET SUMMER DAY CAMP INC", "city": "NEW YORK", "state": "NY", "zip": "10013-5148", "ntee": "O20I", "ruling": "199207", "deductibility": "1", "assets": 0, "income": 0, "revenue": 0}, {"ein": "136141870", "name": "AMERICAN FRIENDS OF THE ATTINGHAM SUMMER SCHOOL INC", "city": "NEW YORK", "state": "NY", "zip": "10016-6022", "ntee": "Q112", "ruling": "196401", "deductibility": "1", "assets": 5699217, "income": 678744, "revenue": 606694}, {"ein": "161110467", "name": "SUMMER SAVOYARDS INC", "city": "BINGHAMTON", "state": "NY", "zip": "13902-0486", "ntee": "A65", "ruling": "202405", "deductibility": "1", "assets": 0, "income": 0, "revenue": 0}, {"ein": "161493084", "name": "HINDU HERITAGE SUMMER CAMP", "city": "ROCHESTER", "state": "NY", "zip": "14618-3533", "ntee": "O51I", "ruling": "199709", "deductibility": "1", "assets": 301000, "income": 348143, "revenue": 348143}, {"ein": "202772242", "name": "SUMMER CAMP OPPORTUNITIES PROMOTE EDUCATION INC", "city": "NEW YORK", "state": "NY", "zip": "10016-1101", "ntee": "O125", "ruling": "200507", "deductibility": "1", "assets": 4209666, "income": 5599477, "revenue": 3115421}, {"ein": "203836410", "name": "SUMMER TORAH EDUCATION PROGRAM INC", "city": "NYACK", "state": "NY", "zip": "10960-1328", "ntee": "X300", "ruling": "200610", "deductibility": "1", "assets": 0, "income": 0, "revenue": 0}, {"ein": "204404056", "name": "SUMMER NEUROPEPTIDE CONFERENCE INC", "city": "SOUTH NYACK", "state": "NY", "zip": "10960-4610", "ntee": "H92", "ruling": "200611", "deductibility": "1", "assets": 0, "income": 0, "revenue": 0}, {"ein": "208600191", "name": "HARRIMAN SUMMER CAMP S-11 INC", "city": "NEW WINDSOR", "state": "NY", "zip": "12553-6140", "ntee": "O20", "ruling": "200903", "deductibility": "1", "assets": 1458980, "income": 3167700, "revenue": 3167700}, {"ein": "208848056", "name": "WATERFORD FORDIANS SUMMER BASEBALLLEAGUE", "city": "WATERFORD", "state": "NY", "zip": "12188-1623", "ntee": "N63", "ruling": "200802", "deductibility": "1", "assets": 0, "income": 0, "revenue": 0}, {"ein": "274744454", "name": "COLUMBIA SUMMER WINDS INC", "city": "NEW YORK CITY", "state": "NY", "zip": "10012-5500", "ntee": "A6C", "ruling": "201903", "deductibility": "1", "assets": 0, "income": 0, "revenue": 0}, {"ein": "311015697", "name": "CHILDRENS INTERNATIONAL SUMMER VILLAGES INC", "city": "CORTLANDT MNR", "state": "NY", "zip": "10567-6508", "ntee": "", "ruling": "197107", "deductibility": "1", "assets": 0, "income": 0, "revenue": 0}, {"ein": "452797098", "name": "GREATER ROCHESTER SUMMER LEARNING ASSOCIATION INC", "city": "ROCHESTER", "state": "NY", "zip": "14607-0000", "ntee": "B99", "ruling": "201301", "deductibility": "1", "assets": 401131, "income": 750812, "revenue": 750812}, {"ein": "454369797", "name": "CLIFTON PARK-HALFMOON SUMMER BASEBALL CLUB INC", "city": "CLIFTON PARK", "state": "NY", "zip": "12065-0806", "ntee": "N63", "ruling": "201404", "deductibility": "1", "assets": 35831, "income": 151076, "revenue": 151076}, {"ein": "463101445", "name": "MANCHESTER SUMMER CHAMBER MUSIC", "city": "NEW YORK", "state": "NY", "zip": "10034-2305", "ntee": "A68", "ruling": "201407", "deductibility": "1", "assets": 26637, "income": 53589, "revenue": 53589}, {"ein": "474950985", "name": "PORT SUMMER SHOW", "city": "PRT WASHINGTN", "state": "NY", "zip": "11050-0811", "ntee": "A61", "ruling": "201512", "deductibility": "1", "assets": 61448, "income": 72649, "revenue": 72649}, {"ein": "474981650", "name": "BUILDING YOUNG LEADERS AFTER-SCHOOL SUMMER PROGRAM INC", "city": "NEW YORK", "state": "NY", "zip": "10033-0000", "ntee": "B90", "ruling": "201609", "deductibility": "1", "assets": 0, "income": 0, "revenue": 0}, {"ein": "475233230", "name": "SUMMER CLASSIC EVENTS INC", "city": "ALDEN", "state": "NY", "zip": "14004-1227", "ntee": "N66", "ruling": "202006", "deductibility": "1", "assets": 0, "income": 0, "revenue": 0}, {"ein": "475475102", "name": "GIVE A SUMMER", "city": "BROOKLYN", "state": "NY", "zip": "11201-2281", "ntee": "B99", "ruling": "201511", "deductibility": "1", "assets": 0, "income": 0, "revenue": 0}, {"ein": "475639554", "name": "WESTMORELAND SUMMER ACTIVITIES ASSOCIATION INC", "city": "VERNON", "state": "NY", "zip": "13476-3914", "ntee": "N67", "ruling": "201602", "deductibility": "1", "assets": 0, "income": 0, "revenue": 0}, {"ein": "651232087", "name": "SUMMER ON THE HILL", "city": "BRONX", "state": "NY", "zip": "10471-3416", "ntee": "B90", "ruling": "200501", "deductibility": "1", "assets": 354604, "income": 464509, "revenue": 464509}, {"ein": "824832922", "name": "YOUTHS UNIQUE SUMMER TOURS AND FAMILY SERVICES INC", "city": "STATEN ISLAND", "state": "NY", "zip": "10305-3634", "ntee": "O50", "ruling": "202202", "deductibility": "1", "assets": 0, "income": 0, "revenue": 0}, {"ein": "830670185", "name": "CHANGE SUMMER INC", "city": "NEW YORK", "state": "NY", "zip": "10023-3201", "ntee": "O50", "ruling": "201812", "deductibility": "1", "assets": 1968598, "income": 6138986, "revenue": 6138986}, {"ein": "833723302", "name": "MORAVIA SUMMER RECREATION PROGRAM INC", "city": "MORAVIA", "state": "NY", "zip": "13118-0642", "ntee": "N12", "ruling": "201905", "deductibility": "1", "assets": 0, "income": 0, "revenue": 0}, {"ein": "861327243", "name": "SOS YOUTH TRANSFORMATION SUMMER CAMP INC", "city": "BROOKLYN", "state": "NY", "zip": "11236-4224", "ntee": "O99", "ruling": "202110", "deductibility": "1", "assets": 0, "income": 0, "revenue": 0}, {"ein": "871464717", "name": "NATIONAL SUMMER SCHOOL INITIATIVE INC", "city": "BROOKLYN", "state": "NY", "zip": "11201-3022", "ntee": "T30", "ruling": "202111", "deductibility": "1", "assets": 3301632, "income": 3430810, "revenue": 3430810}, {"ein": "874004823", "name": "SUMMER TIME LOVE FOUNDATION INC", "city": "ALBANY", "state": "NY", "zip": "12208-3439", "ntee": "N60", "ruling": "202302", "deductibility": "1", "assets": 0, "income": 0, "revenue": 0}], "VETERAN": [{"ein": "112497275", "name": "UNITED VETERAN ORGANIZATION OF NASSAU COUNTY INC", "city": "ROCKVILLE CTR", "state": "NY", "zip": "11570-6003", "ntee": "W30", "ruling": "200809", "deductibility": "1", "assets": 0, "income": 0, "revenue": 0}, {"ein": "112806531", "name": "THE FOUNDATION FOR WORKER VETERAN AND ENVIRONMENTAL HEALTH INC", "city": "BROOKLYN", "state": "NY", "zip": "11217-3401", "ntee": "", "ruling": "198612", "deductibility": "1", "assets": 336121, "income": 32611, "revenue": 32611}, {"ein": "113370253", "name": "VETERAN OUTREACH COMMUNITY SERVICES", "city": "BROOKLYN", "state": "NY", "zip": "11210-2819", "ntee": "T20", "ruling": "199705", "deductibility": "1", "assets": 0, "income": 0, "revenue": 0}, {"ein": "132653202", "name": "VETERAN BOXERS ASSOCIATION OF NEW YORK INC", "city": "WESTTOWN", "state": "NY", "zip": "10998-2523", "ntee": "P99", "ruling": "201404", "deductibility": "1", "assets": 68300, "income": 72653, "revenue": 54033}, {"ein": "136176037", "name": "VETERAN CORPS 69TH REGIMENT INC", "city": "MASSAPEQUA PK", "state": "NY", "zip": "11762-0048", "ntee": "B99", "ruling": "201405", "deductibility": "1", "assets": 88624, "income": 87522, "revenue": 87522}, {"ein": "161270750", "name": "NATIONAL ASSOCIATION OF RETIRED & VETERAN RAILWAY EMPLOYEES", "city": "CLEVELAND", "state": "NY", "zip": "13042-2208", "ntee": "", "ruling": "194508", "deductibility": "2", "assets": 0, "income": 0, "revenue": 0}, {"ein": "166044496", "name": "ITHACA VETERAN VOLUNTEER FIREMENS ASSN", "city": "ITHACA", "state": "NY", "zip": "14851-6865", "ntee": "", "ruling": "194008", "deductibility": "1", "assets": 0, "income": 0, "revenue": 0}, {"ein": "205592037", "name": "VETERAN BOXERS ASSOCIATION RINGNUMBER 44", "city": "BUFFALO", "state": "NY", "zip": "14216-1454", "ntee": "T50", "ruling": "202308", "deductibility": "1", "assets": 0, "income": 0, "revenue": 0}, {"ein": "237375402", "name": "NEW YORK VETERAN POLICE ASSOC INC", "city": "GREAT NECK", "state": "NY", "zip": "11021-1936", "ntee": "Y40", "ruling": "201603", "deductibility": "1", "assets": 41289, "income": 402094, "revenue": 402094}, {"ein": "363631720", "name": "NATIONAL ASSOCIATION OF RETIRED & VETERAN RAILWAY EMPLOYEES INC", "city": "UTICA", "state": "NY", "zip": "13502-1632", "ntee": "", "ruling": "194508", "deductibility": "2", "assets": 0, "income": 0, "revenue": 0}, {"ein": "453908767", "name": "ALLIANCE FOR VETERAN SUPPORT", "city": "NEW YORK", "state": "NY", "zip": "10019-3138", "ntee": "W30", "ruling": "201303", "deductibility": "1", "assets": 31611, "income": 873, "revenue": 873}, {"ein": "474154103", "name": "DIVINE HORIZONS COMMUNITY & VETERAN DEVELOPMENT CORPORATION", "city": "MOUNT VERNON", "state": "NY", "zip": "10553-1917", "ntee": "P50", "ruling": "201804", "deductibility": "1", "assets": 0, "income": 0, "revenue": 0}, {"ein": "521167496", "name": "VETERAN WIRELESS OPERATORS ASSO INC", "city": "NEW YORK", "state": "NY", "zip": "10272-1003", "ntee": "", "ruling": "198005", "deductibility": "1", "assets": 0, "income": 0, "revenue": 0}, {"ein": "562541308", "name": "THE TOWN OF VETERAN HISTORICAL", "city": "HORSEHEADS", "state": "NY", "zip": "14845-9303", "ntee": "A80", "ruling": "201606", "deductibility": "1", "assets": 0, "income": 0, "revenue": 0}, {"ein": "811734350", "name": "OPERATION HUG A VETERAN", "city": "FORT DRUM", "state": "NY", "zip": "13603-2096", "ntee": "P60", "ruling": "201603", "deductibility": "1", "assets": 0, "income": 0, "revenue": 0}, {"ein": "822668955", "name": "VETERAN SERVICES OF THE HUDSON VALLEY INC", "city": "WALLKILL", "state": "NY", "zip": "12589-3930", "ntee": "W30", "ruling": "201711", "deductibility": "1", "assets": 0, "income": 0, "revenue": 0}, {"ein": "823103233", "name": "VETERAN ADVOCACY PROJECT INC", "city": "NEW YORK", "state": "NY", "zip": "10006-1452", "ntee": "T23", "ruling": "202006", "deductibility": "1", "assets": 2388868, "income": 1195139, "revenue": 1195139}, {"ein": "823324885", "name": "RICHARD BARTON VETERAN SUPPORT FOUNDATION INC", "city": "SPENCERPORT", "state": "NY", "zip": "14559-1943", "ntee": "W12", "ruling": "201712", "deductibility": "1", "assets": 8757, "income": 11644, "revenue": 0}, {"ein": "830873500", "name": "MICHAEL R MCNULTY CENTER FOR VETERAN ENTREPRENEURIAL ACTIVITY", "city": "WATERVLIET", "state": "NY", "zip": "12189-4021", "ntee": "", "ruling": "201904", "deductibility": "1", "assets": 310957, "income": 540556, "revenue": 540556}, {"ein": "832843443", "name": "HUDSON VALLEY NATIONAL CENTER FOR VETERAN REINTEGRATION INC", "city": "SAUGERTIES", "state": "NY", "zip": "12477-9335", "ntee": "P20", "ruling": "201908", "deductibility": "1", "assets": 176054, "income": 596530, "revenue": 596530}, {"ein": "833371331", "name": "VETERAN LEADERSHIP DEVELOPMENT GROUP INCORPORATED", "city": "NEW YORK", "state": "NY", "zip": "10021-0000", "ntee": "W30", "ruling": "201903", "deductibility": "1", "assets": 3146, "income": 6025, "revenue": 6025}, {"ein": "844542733", "name": "TEAM EVERY VETERAN APPRECIATED - TEAM EVA INC", "city": "GLEN COVE", "state": "NY", "zip": "11542-1509", "ntee": "T30", "ruling": "202004", "deductibility": "1", "assets": 6654, "income": 23812, "revenue": 0}, {"ein": "851747934", "name": "TICONDEROGA AREA VETERAN HOMETOWN HEROES", "city": "TICONDEROGA", "state": "NY", "zip": "12883-3701", "ntee": "A80", "ruling": "202108", "deductibility": "1", "assets": 0, "income": 0, "revenue": 0}, {"ein": "854243225", "name": "VETERAN DON MICHAELSEN CANCER FUND", "city": "GRANVILLE", "state": "NY", "zip": "12832-1121", "ntee": "G12", "ruling": "202208", "deductibility": "1", "assets": 0, "income": 0, "revenue": 0}, {"ein": "871133688", "name": "MILITARY VETERAN PROTECTIVE SERVICES INC", "city": "FLUSHING", "state": "NY", "zip": "11354-5507", "ntee": "M40", "ruling": "202109", "deductibility": "1", "assets": 0, "income": 0, "revenue": 0}, {"ein": "882370606", "name": "NEW YORK STATE COUNCIL OF VETERAN ORGANIZATIONS", "city": "DELMAR", "state": "NY", "zip": "12054-3810", "ntee": "W30", "ruling": "202207", "deductibility": "1", "assets": 0, "income": 0, "revenue": 0}, {"ein": "884377171", "name": "UNITED VETERAN MENTORS INC", "city": "GARDEN CITY", "state": "NY", "zip": "11530-6712", "ntee": "W30", "ruling": "202303", "deductibility": "1", "assets": 0, "income": 0, "revenue": 0}, {"ein": "920393919", "name": "RESTORING HONOR VETERAN SUPPORT AND ADVOCACY INC", "city": "HURLEY", "state": "NY", "zip": "12443-5218", "ntee": "P01", "ruling": "202211", "deductibility": "1", "assets": 0, "income": 0, "revenue": 0}, {"ein": "920694493", "name": "VETERAN MENTAL HEALTH LEADERSHIP COALITION INC", "city": "NEW YORK", "state": "NY", "zip": "10017-1558", "ntee": "W30", "ruling": "202405", "deductibility": "1", "assets": 45526, "income": 165000, "revenue": 165000}, {"ein": "933739030", "name": "END VETERAN DEBT INC", "city": "NEW YORK", "state": "NY", "zip": "10003-2655", "ntee": "W30", "ruling": "202403", "deductibility": "1", "assets": 0, "income": 0, "revenue": 0}, {"ein": "993153078", "name": "CONCORD VETERAN CARE PROJECT", "city": "SPRINGVILLE", "state": "NY", "zip": "14141-1244", "ntee": "W30", "ruling": "202406", "deductibility": "1", "assets": 0, "income": 0, "revenue": 0}, {"ein": "994904485", "name": "VETERAN ARTIST ADVOCACY PROJECT INC", "city": "ST ALBANS", "state": "NY", "zip": "11412-4039", "ntee": "W30", "ruling": "202503", "deductibility": "1", "assets": 0, "income": 0, "revenue": 0}], "COLOMBIANO": [{"ein": "112497595", "name": "CENTRO CIVICO COLOMBIANO INC", "city": "ELMHURST", "state": "NY", "zip": "11373-4046", "ntee": "P80", "ruling": "200102", "deductibility": "1", "assets": 3898, "income": 51583, "revenue": 51583}, {"ein": "831787838", "name": "CENTRO CULTURAL COLOMBIANO INTERNACIONAL INC", "city": "BRONX", "state": "NY", "zip": "10455-4013", "ntee": "A23", "ruling": "202409", "deductibility": "1", "assets": 0, "income": 0, "revenue": 0}], "BERGEN": [{"ein": "112598350", "name": "BERGEN BEACH YOUTH ORGANIZATION INC", "city": "BROOKLYN", "state": "NY", "zip": "11234-6652", "ntee": "", "ruling": "198409", "deductibility": "1", "assets": 677008, "income": 2854119, "revenue": 2854119}, {"ein": "113199040", "name": "BERGEN BASIN COMMMUNITY DEVELOPMENT CORPORATION", "city": "BROOKLYN", "state": "NY", "zip": "11234-6652", "ntee": "P81Z", "ruling": "199501", "deductibility": "1", "assets": 2799041, "income": 12035305, "revenue": 12035305}, {"ein": "133460251", "name": "334-336 BERGEN STREET HOUSING DEVELOPMENT FUND CORPORATION", "city": "NEW YORK", "state": "NY", "zip": "10115-0002", "ntee": "L200", "ruling": "198907", "deductibility": "1", "assets": 1518496, "income": 1744409, "revenue": 1744409}, {"ein": "136191112", "name": "WORLD FED OF BERGEN-BELSEN ASSOCIATION INC", "city": "NEW YORK", "state": "NY", "zip": "10021-0032", "ntee": "", "ruling": "196611", "deductibility": "1", "assets": 351421, "income": 37645, "revenue": 37645}, {"ein": "160966154", "name": "BERGEN EVANGELICAL PRESBYTERIAN CHURCH", "city": "BERGEN", "state": "NY", "zip": "14416-9734", "ntee": "", "ruling": "198205", "deductibility": "1", "assets": 0, "income": 0, "revenue": 0}, {"ein": "161327792", "name": "BERGEN BUSINESS & CIVIC ASSOCIATION", "city": "BERGEN", "state": "NY", "zip": "14416-0024", "ntee": "S40", "ruling": "201408", "deductibility": "1", "assets": 0, "income": 0, "revenue": 0}, {"ein": "161587769", "name": "BERGEN HISTORICAL SOCIETY", "city": "BERGEN", "state": "NY", "zip": "14416-0281", "ntee": "A54", "ruling": "200009", "deductibility": "1", "assets": 0, "income": 0, "revenue": 0}, {"ein": "166051389", "name": "BERGEN SWAMP PRESERVATION SOCIETY INCORPORATED", "city": "BERGEN", "state": "NY", "zip": "14416-0460", "ntee": "C320", "ruling": "194906", "deductibility": "1", "assets": 0, "income": 0, "revenue": 0}, {"ein": "203221332", "name": "BYRON-BERGEN STEP BOOSTERS INC", "city": "BERGEN", "state": "NY", "zip": "14416-9743", "ntee": "B94", "ruling": "201510", "deductibility": "1", "assets": 0, "income": 0, "revenue": 0}, {"ein": "206742178", "name": "CANDICE BERGEN MALLE FOUNDATION", "city": "NEW YORK", "state": "NY", "zip": "10020-0000", "ntee": "T20", "ruling": "200602", "deductibility": "1", "assets": 1015436, "income": 988043, "revenue": 0}, {"ein": "221487394", "name": "YOUNG MENS-YOUNG WOMENS HEBREW ASSOCIATION OF BERGEN COUNTY", "city": "WEST NYACK", "state": "NY", "zip": "10994-1754", "ntee": "P40", "ruling": "201905", "deductibility": "1", "assets": 5336925, "income": 4869886, "revenue": 922325}, {"ein": "222328450", "name": "BERGEN FIRE DEPARTMENT", "city": "BERGEN", "state": "NY", "zip": "14416-9527", "ntee": "M24", "ruling": "199902", "deductibility": "1", "assets": 1800247, "income": 363011, "revenue": 363011}, {"ein": "453826879", "name": "BERGEN COUNTY DENTAL HYGIENISTS ASSOCIATION INC", "city": "BRONXVILLE", "state": "NY", "zip": "10708-0968", "ntee": "S40", "ruling": "201711", "deductibility": "2", "assets": 0, "income": 0, "revenue": 0}, {"ein": "815433988", "name": "BERGEN INDIVISIBLE FOR DEMOCRACY ORG", "city": "NEW YORK", "state": "NY", "zip": "10010-7140", "ntee": "R40", "ruling": "202408", "deductibility": "2", "assets": 0, "income": 0, "revenue": 0}, {"ein": "822942914", "name": "SELFHELP BERGEN HOUSING DEVELOPMENT FUND COMPANY INC", "city": "NEW YORK", "state": "NY", "zip": "10018-6553", "ntee": "L40", "ruling": "201902", "deductibility": "1", "assets": 0, "income": 0, "revenue": 0}, {"ein": "842664676", "name": "YESHIVA GEDOLAH OF NORTH BERGEN", "city": "MONSEY", "state": "NY", "zip": "10952-7633", "ntee": "X30", "ruling": "202002", "deductibility": "1", "assets": 0, "income": 0, "revenue": 0}], "TZDAKAH": [{"ein": "112645044", "name": "CHARNA PERPETUAL TZDAKAH FUND", "city": "WHITE PLAINS", "state": "NY", "zip": "10604-0000", "ntee": "", "ruling": "198307", "deductibility": "1", "assets": 894489, "income": 1338566, "revenue": 0}], "RAGUSA": [{"ein": "112670111", "name": "SOCIETA FIGLT DI RAGUSA INC", "city": "BROOKLYN", "state": "NY", "zip": "11204-5686", "ntee": "", "ruling": "199107", "deductibility": "2", "assets": 111198, "income": 31585, "revenue": 31585}, {"ein": "275013306", "name": "OLGA RAGUSA PHD AND ISA RAGUSA PHD FOUNDATION FOR THE HUMANITIES INC", "city": "NEW YORK", "state": "NY", "zip": "10011-8635", "ntee": "T23", "ruling": "201911", "deductibility": "1", "assets": 17786785, "income": 649674, "revenue": 0}], "BRESLAV": [{"ein": "112839108", "name": "CONGREGATION KOLEL AVREICHIM CHASIDEI BRESLAV", "city": "BROOKLYN", "state": "NY", "zip": "11230-5178", "ntee": "", "ruling": "198702", "deductibility": "1", "assets": 0, "income": 0, "revenue": 0}], "SHELLEYS": [{"ein": "112872023", "name": "MISS SHELLEYS UPWARD PREP INC", "city": "ROOSEVELT", "state": "NY", "zip": "11575-2034", "ntee": "B21", "ruling": "201709", "deductibility": "1", "assets": 1669898, "income": 0, "revenue": 0}], "HANMAUM": [{"ein": "112974082", "name": "HANMAUM BAPTIST CHURCH", "city": "GLEN COVE", "state": "NY", "zip": "11542-2593", "ntee": "", "ruling": "198911", "deductibility": "1", "assets": 0, "income": 0, "revenue": 0}, {"ein": "205180217", "name": "NPR HANMAUM KOREAN CHURCH", "city": "ITHACA", "state": "NY", "zip": "14850-6109", "ntee": "X20", "ruling": "200608", "deductibility": "1", "assets": 0, "income": 0, "revenue": 0}, {"ein": "262635347", "name": "HANMAUM PRESBYTERIAN CHURCH", "city": "BINGHAMTON", "state": "NY", "zip": "13905-3323", "ntee": "X21", "ruling": "201203", "deductibility": "1", "assets": 0, "income": 0, "revenue": 0}], "SHUMAYIM": [{"ein": "113070466", "name": "CONG BIRCHOS SHUMAYIM", "city": "BROOKLYN", "state": "NY", "zip": "11210-3714", "ntee": "", "ruling": "199110", "deductibility": "1", "assets": 0, "income": 0, "revenue": 0}], "VCHAIL": [{"ein": "113174144", "name": "CONGREGATION BRUCHA VCHAIL", "city": "BROOKLYN", "state": "NY", "zip": "11211-6030", "ntee": "X30", "ruling": "200001", "deductibility": "1", "assets": 0, "income": 0, "revenue": 0}], "ASTAR": [{"ein": "113189200", "name": "ASTAR FOUNDATION INC", "city": "LAWRENCE", "state": "NY", "zip": "11559-1733", "ntee": "T20Z", "ruling": "199503", "deductibility": "1", "assets": 634123, "income": 331810, "revenue": 0}], "WANNAMAKER": [{"ein": "113219738", "name": "WANNAMAKER RESIDENCE HOME INCORPORATED", "city": "BROOKLYN", "state": "NY", "zip": "11221-5121", "ntee": "L40Z", "ruling": "199701", "deductibility": "1", "assets": 616, "income": 62013, "revenue": 62013}], "SCENARIOS": [{"ein": "113224922", "name": "MEDIEVAL SCENARIOS AND RECREATIONS INC", "city": "MOUNT VERNON", "state": "NY", "zip": "10552-1906", "ntee": "A84", "ruling": "201303", "deductibility": "1", "assets": 0, "income": 0, "revenue": 0}], "VYRIAH": [{"ein": "113462847", "name": "GEMACH MORDECHI TZVI DKOLEL TORAH VYRIAH", "city": "BROOKLYN", "state": "NY", "zip": "11211-8005", "ntee": "X30", "ruling": "199901", "deductibility": "1", "assets": 0, "income": 0, "revenue": 0}], "ROME": [{"ein": "113484639", "name": "ORTHODOX CHURCH 0F SAINT TATIANA OF ROME VIRGIN MARTYR AND DEACONESS I", "city": "SUNNYSIDE", "state": "NY", "zip": "11104-0000", "ntee": "X20", "ruling": "200005", "deductibility": "1", "assets": 0, "income": 0, "revenue": 0}, {"ein": "131623881", "name": "AMERICAN ACADEMY IN ROME", "city": "NEW YORK", "state": "NY", "zip": "10011-1119", "ntee": "Q22Z", "ruling": "192612", "deductibility": "1", "assets": 169349327, "income": 48370785, "revenue": 22578459}, {"ein": "131740199", "name": "CHURCH OF ST FRANCES OF ROME", "city": "BRONX", "state": "NY", "zip": "10466-1603", "ntee": "", "ruling": "194603", "deductibility": "1", "assets": 0, "income": 0, "revenue": 0}, {"ein": "133173767", "name": "SOCIETY OF FELLOWS OF THE AMERICAN ACADEMY IN ROME", "city": "NEW YORK", "state": "NY", "zip": "10011-1119", "ntee": "", "ruling": "198312", "deductibility": "1", "assets": 0, "income": 0, "revenue": 0}, {"ein": "137039118", "name": "SEARS FAMILY FOUNDATION TR OF ROME NEW YORK", "city": "ROME", "state": "NY", "zip": "13440-2430", "ntee": "T21Z", "ruling": "199507", "deductibility": "1", "assets": 1773688, "income": 431526, "revenue": 0}, {"ein": "150431850", "name": "ROME CEMETERY ASSN INC", "city": "ROME", "state": "NY", "zip": "13442-0464", "ntee": "", "ruling": "194009", "deductibility": "1", "assets": 1031804, "income": 324688, "revenue": 255583}, {"ein": "150431860", "name": "ROME CHAMBER OF COMMERCE INC", "city": "ROME", "state": "NY", "zip": "13440-5809", "ntee": "", "ruling": "194104", "deductibility": "2", "assets": 474478, "income": 251656, "revenue": 170947}, {"ein": "150431890", "name": "ROME CLUB INC", "city": "ROME", "state": "NY", "zip": "13440-6303", "ntee": "N50", "ruling": "201406", "deductibility": "2", "assets": 0, "income": 0, "revenue": 0}, {"ein": "150467950", "name": "TEUGEGA COUNTRY CLUB OF ROME N Y", "city": "ROME", "state": "NY", "zip": "13440-7549", "ntee": "", "ruling": "193102", "deductibility": "2", "assets": 1957365, "income": 2487295, "revenue": 2487295}, {"ein": "150512396", "name": "ROME POLISH HOME INC", "city": "ROME", "state": "NY", "zip": "13440-6542", "ntee": "", "ruling": "198302", "deductibility": "2", "assets": 30136, "income": 330537, "revenue": 162896}, {"ein": "150518753", "name": "GALLIANO CLUB OF ROME NY INC", "city": "ROME", "state": "NY", "zip": "13442-0703", "ntee": "N50", "ruling": "201403", "deductibility": "2", "assets": 63410, "income": 50392, "revenue": 18319}, {"ein": "150532348", "name": "ROME FEDERAL CREDIT UNION", "city": "ROME", "state": "NY", "zip": "13440-5523", "ntee": "", "ruling": "000000", "deductibility": "0", "assets": 0, "income": 0, "revenue": 0}, {"ein": "150550178", "name": "ROME HISTORICAL SOCIETY INC", "city": "ROME", "state": "NY", "zip": "13440-5827", "ntee": "A99", "ruling": "201408", "deductibility": "1", "assets": 1136256, "income": 167344, "revenue": 166770}, {"ein": "150618024", "name": "ROME INDUSTRIAL DEVELOPMENT CORPORATION", "city": "ROME", "state": "NY", "zip": "13441-4929", "ntee": "S310", "ruling": "199003", "deductibility": "1", "assets": 2597407, "income": 232293, "revenue": 232293}, {"ein": "153006299", "name": "LAKE DALTA YACHT CLUB OF ROME INC", "city": "ROME", "state": "NY", "zip": "13442-0060", "ntee": "", "ruling": "198009", "deductibility": "2", "assets": 277775, "income": 246673, "revenue": 246673}, {"ein": "156024645", "name": "ROME PAID FIREMENS BENEVOLENT ASSN INC", "city": "ROME", "state": "NY", "zip": "13442-4513", "ntee": "", "ruling": "197010", "deductibility": "2", "assets": 568258, "income": 89913, "revenue": 89913}, {"ein": "160875792", "name": "HUMANE SOCIETY OF ROME INC", "city": "ROME", "state": "NY", "zip": "13442-4572", "ntee": "D200", "ruling": "197107", "deductibility": "1", "assets": 2832736, "income": 729941, "revenue": 710928}, {"ein": "160927908", "name": "ROME ART AND COMMUNITY CENTER", "city": "ROME", "state": "NY", "zip": "13440-4118", "ntee": "A26Z", "ruling": "196903", "deductibility": "1", "assets": 907643, "income": 414036, "revenue": 414036}, {"ein": "160955912", "name": "ROME TWIGS SNACK BAR & GIFT SHOP", "city": "ROME", "state": "NY", "zip": "13440-2844", "ntee": "E22I", "ruling": "196908", "deductibility": "1", "assets": 52530, "income": 70835, "revenue": 48034}, {"ein": "161076897", "name": "ROME WESLEYAN CHURCH", "city": "ROME", "state": "NY", "zip": "13440-5035", "ntee": "", "ruling": "197005", "deductibility": "1", "assets": 0, "income": 0, "revenue": 0}, {"ein": "161127483", "name": "ROME CHRISTIAN CENTER INC", "city": "ROME", "state": "NY", "zip": "13440-1943", "ntee": "", "ruling": "197912", "deductibility": "1", "assets": 0, "income": 0, "revenue": 0}, {"ein": "161182870", "name": "SOUTH ROME SENIOR CITIZENS INC", "city": "ROME", "state": "NY", "zip": "13440-6555", "ntee": "", "ruling": "198812", "deductibility": "1", "assets": 221164, "income": 99884, "revenue": 61351}, {"ein": "161364515", "name": "ROME HOSPITAL FOUNDATION INC", "city": "ROME", "state": "NY", "zip": "13440-2834", "ntee": "", "ruling": "199102", "deductibility": "1", "assets": 13493838, "income": 6919608, "revenue": 6798721}, {"ein": "161398657", "name": "UTICA - ROME KOREAN CHURCH", "city": "ROME", "state": "NY", "zip": "13440-2353", "ntee": "", "ruling": "199306", "deductibility": "1", "assets": 0, "income": 0, "revenue": 0}, {"ein": "161471634", "name": "ROME MEMORIAL HOSPITAL INC", "city": "ROME", "state": "NY", "zip": "13440-2844", "ntee": "E22Z", "ruling": "199506", "deductibility": "1", "assets": 82098269, "income": 122675547, "revenue": 115095740}, {"ein": "161492003", "name": "ROME MEMORIAL PROPERTIES INC", "city": "ROME", "state": "NY", "zip": "13440-2844", "ntee": "E21", "ruling": "199609", "deductibility": "1", "assets": 1712985, "income": 167287, "revenue": 167287}, {"ein": "161508597", "name": "GREATER ROME AFFILIATES INC", "city": "ROME", "state": "NY", "zip": "13440-2844", "ntee": "E99Z", "ruling": "199812", "deductibility": "1", "assets": 1050945, "income": 95527, "revenue": 95527}, {"ein": "161539688", "name": "ROME BASEBALL ASSOCIATION INC", "city": "ROME", "state": "NY", "zip": "13442-4337", "ntee": "N40", "ruling": "199812", "deductibility": "1", "assets": 344904, "income": 128195, "revenue": 54331}, {"ein": "161574338", "name": "ROME COMMUNITY FOUNDATION", "city": "ROME", "state": "NY", "zip": "13442-0609", "ntee": "T31", "ruling": "200001", "deductibility": "1", "assets": 7582505, "income": 1800483, "revenue": 817795}, {"ein": "161586614", "name": "ROME UP AND RUNNING INC", "city": "ROME", "state": "NY", "zip": "13440-4101", "ntee": "S30", "ruling": "200009", "deductibility": "1", "assets": 82534, "income": 262, "revenue": 262}, {"ein": "166053004", "name": "SENIOR CITIZENS COUNCIL OF ROME NEW YORK INC", "city": "ROME", "state": "NY", "zip": "13440-3508", "ntee": "P81Z", "ruling": "196703", "deductibility": "1", "assets": 681886, "income": 637640, "revenue": 573931}, {"ein": "166054190", "name": "ROME COMMUNITY THEATER INC", "city": "ROME", "state": "NY", "zip": "13442-0091", "ntee": "A650", "ruling": "195701", "deductibility": "1", "assets": 638048, "income": 122877, "revenue": 117607}, {"ein": "166072075", "name": "ROME COLLEGE FOUNDATION", "city": "ROME", "state": "NY", "zip": "13440-5809", "ntee": "", "ruling": "196706", "deductibility": "1", "assets": 397202, "income": 29483, "revenue": 29483}, {"ein": "166075783", "name": "ROME ACADEMY OF SCIENCES", "city": "ROME", "state": "NY", "zip": "13442-0211", "ntee": "", "ruling": "196706", "deductibility": "1", "assets": 0, "income": 0, "revenue": 0}, {"ein": "200873462", "name": "ROME COMMUNITY BROWNFIELD RESTORATION CORPORATION", "city": "ROME", "state": "NY", "zip": "13441-4929", "ntee": "C34", "ruling": "200509", "deductibility": "1", "assets": 2057708, "income": 277005, "revenue": 277005}, {"ein": "205152994", "name": "ROME COMMUNITY CONCERT BAND INC", "city": "ROME", "state": "NY", "zip": "13440-3466", "ntee": "A6C", "ruling": "200703", "deductibility": "1", "assets": 0, "income": 0, "revenue": 0}, {"ein": "222389900", "name": "ROME NY CHAPTER", "city": "ROME", "state": "NY", "zip": "13442-4843", "ntee": "C30", "ruling": "202303", "deductibility": "1", "assets": 0, "income": 0, "revenue": 0}, {"ein": "222795647", "name": "ROME MALL HOUSING DEVELOPMENT FUND CO INC", "city": "SYRACUSE", "state": "NY", "zip": "13203-2879", "ntee": "L210", "ruling": "194603", "deductibility": "1", "assets": 1609271, "income": 556811, "revenue": 556811}, {"ein": "223068657", "name": "ROME SPORTS HALL OF FAME", "city": "ROME", "state": "NY", "zip": "13442-0774", "ntee": "O53Z", "ruling": "199505", "deductibility": "1", "assets": 0, "income": 0, "revenue": 0}, {"ein": "223188213", "name": "KEEP AMERICA BEAUTIFUL OF ROME NEW YORK INC", "city": "ROME", "state": "NY", "zip": "13440-4163", "ntee": "C30Z", "ruling": "199303", "deductibility": "1", "assets": 109019, "income": 51, "revenue": 51}, {"ein": "237036386", "name": "ROME ART ASSOCIATION", "city": "ROME", "state": "NY", "zip": "13442-0801", "ntee": "A25", "ruling": "201909", "deductibility": "1", "assets": 0, "income": 0, "revenue": 0}, {"ein": "237045379", "name": "YOUNG MENS CHRISTIAN ASSOC & WOMANS COMMUNITY CENTER OF ROME NEW YORK", "city": "ROME", "state": "NY", "zip": "13440-4117", "ntee": "P27Z", "ruling": "197002", "deductibility": "1", "assets": 10968540, "income": 8249926, "revenue": 8039255}, {"ein": "237175925", "name": "CHRISTAIN AND MISSIONARY ALLIANCE CHURCH ROME NEW YORK", "city": "ROME", "state": "NY", "zip": "13440-2353", "ntee": "", "ruling": "197205", "deductibility": "1", "assets": 0, "income": 0, "revenue": 0}, {"ein": "237199756", "name": "ROME YOUTH HOCKEY ASSOCIATION INC", "city": "ROME", "state": "NY", "zip": "13442-0861", "ntee": "N68Z", "ruling": "197411", "deductibility": "1", "assets": 149423, "income": 39136, "revenue": 39136}, {"ein": "262553258", "name": "ROME RESCUE MISSION", "city": "ROME", "state": "NY", "zip": "13440-6040", "ntee": "L40", "ruling": "200808", "deductibility": "1", "assets": 902934, "income": 283297, "revenue": 283297}, {"ein": "271601045", "name": "ROME MARINES", "city": "ROME", "state": "NY", "zip": "13440-8303", "ntee": "W30", "ruling": "201409", "deductibility": "1", "assets": 0, "income": 0, "revenue": 0}, {"ein": "271627533", "name": "ROME ART PROGRAM INC", "city": "NEW YORK", "state": "NY", "zip": "10013-1691", "ntee": "A25", "ruling": "201106", "deductibility": "1", "assets": 34333, "income": 93135, "revenue": 93135}, {"ein": "272000034", "name": "ROME ALUMNI ASSOCIATION", "city": "ROME", "state": "NY", "zip": "13440-3309", "ntee": "B12", "ruling": "201512", "deductibility": "1", "assets": 0, "income": 0, "revenue": 0}, {"ein": "300255486", "name": "ROME LEARNING CENTER INC", "city": "UTICA", "state": "NY", "zip": "13502-6321", "ntee": "B60", "ruling": "201410", "deductibility": "1", "assets": 0, "income": 0, "revenue": 0}, {"ein": "352661082", "name": "ROME GIRLS SOFTBALL LEAGUE INC", "city": "ROME", "state": "NY", "zip": "13442-0827", "ntee": "N60", "ruling": "202409", "deductibility": "1", "assets": 69133, "income": 80612, "revenue": 68871}, {"ein": "371720024", "name": "ROME CAT ASSISTANCE TLC SOCIETY INC", "city": "ROME", "state": "NY", "zip": "13442-0341", "ntee": "D20", "ruling": "201411", "deductibility": "1", "assets": 0, "income": 0, "revenue": 0}, {"ein": "432037428", "name": "BIKES FOR KIDS OF ROME NY INC", "city": "ROME", "state": "NY", "zip": "13440-4221", "ntee": "P58", "ruling": "200507", "deductibility": "1", "assets": 3500, "income": 0, "revenue": 0}, {"ein": "462536274", "name": "CHABAD PIAZZA BOLOGNA - ROME INC", "city": "BROOKLYN", "state": "NY", "zip": "11213-5126", "ntee": "X30", "ruling": "201408", "deductibility": "1", "assets": 0, "income": 0, "revenue": 0}, {"ein": "814696526", "name": "ROME COMMUNITY JOB FAIRS INC", "city": "ROME", "state": "NY", "zip": "13440-4108", "ntee": "J20", "ruling": "201705", "deductibility": "1", "assets": 0, "income": 0, "revenue": 0}, {"ein": "815431401", "name": "ROME ALLIANCE FOR EDUCATION", "city": "ROME", "state": "NY", "zip": "13440-5864", "ntee": "B90", "ruling": "201809", "deductibility": "1", "assets": 393231, "income": 1504125, "revenue": 1504125}, {"ein": "932272660", "name": "CITY OF ROME YOUTH BASEBALL", "city": "ROME", "state": "NY", "zip": "13442-0834", "ntee": "N63", "ruling": "202308", "deductibility": "1", "assets": 0, "income": 0, "revenue": 0}], "EVANGELICO": [{"ein": "113512267", "name": "IGLESIA CONSILIO DE RESTAURACION EVANGELICO ELIM", "city": "UNIONDALE", "state": "NY", "zip": "11553-2929", "ntee": "X21", "ruling": "200509", "deductibility": "1", "assets": 0, "income": 0, "revenue": 0}, {"ein": "352666774", "name": "CONCILIO EVANGELICO PENTECOSTES LEON DE JUDA INC", "city": "BROOKLYN", "state": "NY", "zip": "11204-5266", "ntee": "X99", "ruling": "202505", "deductibility": "1", "assets": 0, "income": 0, "revenue": 0}, {"ein": "472764413", "name": "MINISTERIO EVANGELICO MISIONERO VOZ DE SALVACION", "city": "WYANDANCH", "state": "NY", "zip": "11798-2731", "ntee": "X20", "ruling": "201806", "deductibility": "1", "assets": 0, "income": 0, "revenue": 0}, {"ein": "812777232", "name": "CONCILIO EVANGELICO LA SALVACION INC", "city": "BRONX", "state": "NY", "zip": "10472-3019", "ntee": "X20", "ruling": "201611", "deductibility": "1", "assets": 0, "income": 0, "revenue": 0}, {"ein": "873150802", "name": "CONCILIO EVANGELICO PENTECOSTAL ARCA DE SALVACION INC", "city": "BROOKLYN", "state": "NY", "zip": "11208-1726", "ntee": "X21", "ruling": "202206", "deductibility": "1", "assets": 0, "income": 0, "revenue": 0}, {"ein": "922369187", "name": "MINISTERIO EVANGELICO ENSENANDO EL CAMINO INC", "city": "BRONX", "state": "NY", "zip": "10469-5229", "ntee": "A70", "ruling": "202309", "deductibility": "1", "assets": 1, "income": 1, "revenue": 0}], "EIDA": [{"ein": "113521634", "name": "EIDA FAM FOUNDATION INC", "city": "BROOKLYN", "state": "NY", "zip": "11230-6323", "ntee": "T22", "ruling": "200003", "deductibility": "1", "assets": 501647, "income": 143317, "revenue": 0}], "MACHANEINU": [{"ein": "113532572", "name": "MACHANEINU", "city": "BROOKLYN", "state": "NY", "zip": "11218-5517", "ntee": "X20", "ruling": "200112", "deductibility": "1", "assets": 0, "income": 0, "revenue": 0}], "CHASDIE": [{"ein": "113534404", "name": "CONGREGATION CHASDIE YITZCHOK", "city": "BROOKLYN", "state": "NY", "zip": "11211-8519", "ntee": "X30", "ruling": "200005", "deductibility": "1", "assets": 0, "income": 0, "revenue": 0}, {"ein": "113537228", "name": "ZIKURON CHASDIE OHR PNEI YEHOSHEA", "city": "SPRING VALLEY", "state": "NY", "zip": "10977-2501", "ntee": "X30", "ruling": "200006", "deductibility": "1", "assets": 0, "income": 0, "revenue": 0}, {"ein": "301194831", "name": "CONGREGATION CHASDIE YITZCHOK", "city": "BROOKLYN", "state": "NY", "zip": "11204-2320", "ntee": "X30", "ruling": "201911", "deductibility": "1", "assets": 0, "income": 0, "revenue": 0}, {"ein": "421626519", "name": "CONGREGATION CHASDIE MIRIAM GITTY INC", "city": "BROOKLYN", "state": "NY", "zip": "11204-1257", "ntee": "X30", "ruling": "200408", "deductibility": "1", "assets": 0, "income": 0, "revenue": 0}], "ALBEMARLE": [{"ein": "116266473", "name": "ALBEMARLE NEIGHBORHOOD ASSOC INC", "city": "BROOKLYN", "state": "NY", "zip": "11218-2355", "ntee": "S22", "ruling": "202310", "deductibility": "1", "assets": 972, "income": 75, "revenue": 75}], "PHILATELIC": [{"ein": "131523140", "name": "THE PHILATELIC FOUNDATION", "city": "NEW YORK", "state": "NY", "zip": "10016-1052", "ntee": "", "ruling": "194606", "deductibility": "1", "assets": 4127148, "income": 947528, "revenue": 672367}, {"ein": "222403924", "name": "ROCHESTER PHILATELIC ASSOCIATION INC", "city": "ROCHESTER", "state": "NY", "zip": "14623-4944", "ntee": "", "ruling": "198905", "deductibility": "1", "assets": 0, "income": 0, "revenue": 0}, {"ein": "993950988", "name": "INTERNATIONAL PHILATELIC FELLOWSHIP INC", "city": "YORKTOWN HTS", "state": "NY", "zip": "10598-5703", "ntee": "A82", "ruling": "202407", "deductibility": "1", "assets": 0, "income": 0, "revenue": 0}], "BUTTONWOOD": [{"ein": "131963845", "name": "BUTTONWOOD CLUB INC", "city": "NEW YORK", "state": "NY", "zip": "10005-1905", "ntee": "", "ruling": "196406", "deductibility": "2", "assets": 0, "income": 0, "revenue": 0}, {"ein": "136163559", "name": "BUTTONWOOD FOUNDATION INC", "city": "NEW YORK", "state": "NY", "zip": "10005-1905", "ntee": "T22Z", "ruling": "196408", "deductibility": "1", "assets": 8679933, "income": 1403323, "revenue": 215645}], "DECO": [{"ein": "132923724", "name": "ASSOCIATION OF MASTER PNTRS & DECO RATORS OF NYC IND PROMOTION FUND", "city": "NEW YORK", "state": "NY", "zip": "10001-0024", "ntee": "", "ruling": "197803", "deductibility": "2", "assets": 2409051, "income": 1316296, "revenue": 1316296}, {"ein": "133110260", "name": "ART DECO SOCIETY OF NEW YORK INC", "city": "NEW YORK", "state": "NY", "zip": "10022-4147", "ntee": "", "ruling": "198409", "deductibility": "1", "assets": 595134, "income": 334776, "revenue": 272411}, {"ein": "811011651", "name": "INTERNATIONAL COALITION OF ART DECO SOCIETIES", "city": "NEW YORK", "state": "NY", "zip": "10022-4339", "ntee": "A20", "ruling": "201608", "deductibility": "1", "assets": 0, "income": 0, "revenue": 0}], "MOZARTINA": [{"ein": "133020574", "name": "FRIENDS OF THE MOZARTINA MUSICAL ARTS CONSERVATORY INC", "city": "TARRYTOWN", "state": "NY", "zip": "10591-4614", "ntee": "A6E0", "ruling": "198008", "deductibility": "1", "assets": 5084215, "income": 5163223, "revenue": 4907370}], "DURECH": [{"ein": "133029082", "name": "DURECH EMMUNA D VIEN", "city": "BROOKLYN", "state": "NY", "zip": "11210-0000", "ntee": "", "ruling": "197811", "deductibility": "1", "assets": 0, "income": 0, "revenue": 0}], "ADMIN": [{"ein": "133101792", "name": "MOUNT PLEASANT TEACHERS BENEFIT FUND SELF INSURED ADMIN", "city": "HAWTHORNE", "state": "NY", "zip": "10532-1736", "ntee": "", "ruling": "198302", "deductibility": "2", "assets": 359790, "income": 516449, "revenue": 516449}, {"ein": "237172141", "name": "CAMDEN OVERSEAS VET ADMIN", "city": "CAMDEN", "state": "NY", "zip": "13316-1339", "ntee": "", "ruling": "197210", "deductibility": "1", "assets": 0, "income": 0, "revenue": 0}], "MORRISANIA": [{"ein": "133113927", "name": "MORRISANIA REVITALIZATION CORP INC", "city": "BRONX", "state": "NY", "zip": "10456-6860", "ntee": "P20", "ruling": "202109", "deductibility": "1", "assets": 605920, "income": 4464984, "revenue": 4464984}, {"ein": "133201648", "name": "MORRISANIA BAPTIST CHURCH", "city": "BRONX", "state": "NY", "zip": "10456-2624", "ntee": "", "ruling": "198411", "deductibility": "1", "assets": 0, "income": 0, "revenue": 0}, {"ein": "237368168", "name": "MORRISANIA COMMUNITY INDEPENDENT BAPTIST CHURCH", "city": "BRONX", "state": "NY", "zip": "10456-5539", "ntee": "", "ruling": "197407", "deductibility": "1", "assets": 0, "income": 0, "revenue": 0}, {"ein": "821301733", "name": "MORRISANIA AIR RIGHTS HOUSES TENANTASSOCIATION INC", "city": "BRONX", "state": "NY", "zip": "10451-4078", "ntee": "L01", "ruling": "201712", "deductibility": "1", "assets": 0, "income": 0, "revenue": 0}, {"ein": "830459167", "name": "COMMUNITY CHURCH OF MORRISANIA", "city": "BRONX", "state": "NY", "zip": "10456-1604", "ntee": "", "ruling": "196506", "deductibility": "1", "assets": 0, "income": 0, "revenue": 0}], "TPU": [{"ein": "133117773", "name": "TPU NO ONE REALTY CORP", "city": "NEW YORK", "state": "NY", "zip": "10001-4003", "ntee": "", "ruling": "198811", "deductibility": "2", "assets": 1345893, "income": 680447, "revenue": -39274}], "OARKEI": [{"ein": "133161392", "name": "CONG BAIS TEFILAH OARKEI NOAM", "city": "SPRING VALLEY", "state": "NY", "zip": "10977-3804", "ntee": "", "ruling": "198804", "deductibility": "1", "assets": 0, "income": 0, "revenue": 0}], "CANTICORUM": [{"ein": "133223977", "name": "CANTICORUM VIRTUOSI INC", "city": "BROOKLYN", "state": "NY", "zip": "11201-7084", "ntee": "", "ruling": "198501", "deductibility": "1", "assets": 45681, "income": 191549, "revenue": 179785}], "SALLE": [{"ein": "133228140", "name": "DE LA SALLE ACADEMY", "city": "NEW YORK", "state": "NY", "zip": "10036-6405", "ntee": "B200", "ruling": "198805", "deductibility": "1", "assets": 16247706, "income": 6345433, "revenue": 6345433}, {"ein": "133989769", "name": "FRIENDS OF DE LA SALLE ACADEMY INC", "city": "NEW YORK", "state": "NY", "zip": "10036-6405", "ntee": "B12", "ruling": "199907", "deductibility": "1", "assets": 16502, "income": 52, "revenue": 52}, {"ein": "135562179", "name": "LA SALLE ACADEMY", "city": "NEW YORK", "state": "NY", "zip": "10003-8253", "ntee": "", "ruling": "194603", "deductibility": "0", "assets": 0, "income": 0, "revenue": 0}, {"ein": "141338536", "name": "LA SALLE SCHOOL INC", "city": "ALBANY", "state": "NY", "zip": "12203-1401", "ntee": "B20", "ruling": "201505", "deductibility": "1", "assets": 19403818, "income": 14752957, "revenue": 14752957}, {"ein": "160723957", "name": "LA SALLE YACHT CLUB INC", "city": "NIAGARA FALLS", "state": "NY", "zip": "14304-3951", "ntee": "", "ruling": "194611", "deductibility": "2", "assets": 982297, "income": 1096517, "revenue": 1096517}, {"ein": "160743670", "name": "LA SALLE SPORTSMENS CLUB INC", "city": "NIAGARA FALLS", "state": "NY", "zip": "14304-0205", "ntee": "", "ruling": "195104", "deductibility": "2", "assets": 281865, "income": 256299, "revenue": 69426}, {"ein": "991897573", "name": "DE LA SALLE ALUMNI ASSOCIATION- METRO NEW YORK INC", "city": "NEW HYDE PARK", "state": "NY", "zip": "11040-2406", "ntee": "B84", "ruling": "202409", "deductibility": "1", "assets": 0, "income": 0, "revenue": 0}], "PONTION": [{"ein": "133261180", "name": "PANAGIA SOUMELA PONTION AMERIKIS", "city": "ASTORIA", "state": "NY", "zip": "11105-5232", "ntee": "", "ruling": "198706", "deductibility": "2", "assets": 0, "income": 0, "revenue": 0}], "TRANSLATORS": [{"ein": "133279608", "name": "TIBETAN CLASSICS TRANSLATORS GUILD OF NEW YORK", "city": "NEW YORK", "state": "NY", "zip": "10027-0000", "ntee": "", "ruling": "198609", "deductibility": "1", "assets": 9277, "income": 13400, "revenue": 13400}, {"ein": "133740509", "name": "NEW YORK CIRCLE OF TRANSLATORS INC", "city": "NEW YORK", "state": "NY", "zip": "10163-4051", "ntee": "", "ruling": "199507", "deductibility": "2", "assets": 0, "income": 0, "revenue": 0}], "GERSCHEL": [{"ein": "133317180", "name": "PATRICK A GERSCHEL FOUNDATION", "city": "NEW YORK", "state": "NY", "zip": "10022-1615", "ntee": "", "ruling": "198602", "deductibility": "1", "assets": 6468005, "income": 611667, "revenue": 0}, {"ein": "316671632", "name": "EDOUARD R GERSCHEL FOUNDATION", "city": "NEW YORK", "state": "NY", "zip": "10022-1737", "ntee": "T202", "ruling": "200112", "deductibility": "1", "assets": 1144019, "income": 111596, "revenue": 0}, {"ein": "316671633", "name": "KARYN GERSCHEL LAMB FOUNDATION", "city": "NEW YORK", "state": "NY", "zip": "10022-1724", "ntee": "T202", "ruling": "200112", "deductibility": "1", "assets": 846748, "income": 36658, "revenue": 0}], "MUSCOOTA": [{"ein": "133371670", "name": "MUSCOOTA INC", "city": "NEW YORK", "state": "NY", "zip": "10029-4916", "ntee": "", "ruling": "199008", "deductibility": "2", "assets": 0, "income": 0, "revenue": 0}], "ENTREPRENEURSHIP": [{"ein": "133408731", "name": "NETWORK FOR TEACHING ENTREPRENEURSHIP", "city": "NEW YORK", "state": "NY", "zip": "10005-4023", "ntee": "O53Z", "ruling": "198712", "deductibility": "1", "assets": 13318188, "income": 15101470, "revenue": 14749821}, {"ein": "201764724", "name": "MICE MESZAROS INTERNATIONAL CENTER OF ENTREPRENEURSHIP INC", "city": "WILLIAMSVILLE", "state": "NY", "zip": "14221-0000", "ntee": "B99", "ruling": "200506", "deductibility": "1", "assets": 16711, "income": 40000, "revenue": 0}, {"ein": "223218414", "name": "CENTER FOR AGRICULTURAL DEVELOPMENT AND ENTREPRENEURSHIP", "city": "ONEONTA", "state": "NY", "zip": "13820-3510", "ntee": "S99Z", "ruling": "199310", "deductibility": "1", "assets": 436470, "income": 883331, "revenue": 883331}, {"ein": "273319626", "name": "SIGMA NU TAU ENTREPRENEURSHIP HONOR SOCIETY INC", "city": "PLATTSBURGH", "state": "NY", "zip": "12901-0000", "ntee": "B90", "ruling": "201204", "deductibility": "1", "assets": 0, "income": 0, "revenue": 0}, {"ein": "274105116", "name": "FRENCH ENTREPRENEURSHIP FRIENDSHIP SOCIETY INC", "city": "NEW YORK", "state": "NY", "zip": "10019-5373", "ntee": "W70", "ruling": "201105", "deductibility": "2", "assets": 33560, "income": 74000, "revenue": 74000}, {"ein": "462931992", "name": "RURAL ENTREPRENEURSHIP LAB", "city": "NEW YORK", "state": "NY", "zip": "10019-4585", "ntee": "P99", "ruling": "201407", "deductibility": "1", "assets": 0, "income": 0, "revenue": 0}, {"ein": "471002072", "name": "SCIENCE AND ENTREPRENEURSHIP ASSOCIATION OF CROWN HEIGHTS INC", "city": "BROOKLYN", "state": "NY", "zip": "11234-1707", "ntee": "B92", "ruling": "201602", "deductibility": "1", "assets": 0, "income": 0, "revenue": 0}, {"ein": "474369309", "name": "WOMENS ENTREPRENEURSHIP DAY ORGANIZATION INC", "city": "NEW YORK", "state": "NY", "zip": "10019-4435", "ntee": "S03", "ruling": "201607", "deductibility": "1", "assets": 0, "income": 0, "revenue": 0}, {"ein": "811043590", "name": "ENTREPRENEURSHIP AWARD CORP", "city": "NEW YORK", "state": "NY", "zip": "10016-1706", "ntee": "B82", "ruling": "201706", "deductibility": "1", "assets": 402864, "income": 264617, "revenue": 264617}, {"ein": "823701017", "name": "BEBA INNOVATION AND ENTREPRENEURSHIP FOUNDATION INC", "city": "NEW YORK", "state": "NY", "zip": "10010-4587", "ntee": "Q33", "ruling": "201902", "deductibility": "1", "assets": 2109089, "income": 67085, "revenue": 0}, {"ein": "825101192", "name": "STIMULATING MINDS THROUGH ENTREPRENEURSHIP & LEADERSHIP", "city": "SAINT ALBANS", "state": "NY", "zip": "11412-2713", "ntee": "P20", "ruling": "201804", "deductibility": "1", "assets": 61904, "income": 225571, "revenue": 225571}, {"ein": "834198934", "name": "4 FUTURE GENERATIONS ENTREPRENEURSHIP AND LEADERSHIP FO", "city": "BROOKLYN", "state": "NY", "zip": "11206-5262", "ntee": "O50", "ruling": "201905", "deductibility": "1", "assets": 8158, "income": 59332, "revenue": 59332}, {"ein": "871222058", "name": "YOUTH ENTREPRENEURSHIP AND FINANCE ASSOCIATION INC", "city": "SCARSDALE", "state": "NY", "zip": "10583-2804", "ntee": "B03", "ruling": "202201", "deductibility": "1", "assets": 38998, "income": 71357, "revenue": 71357}, {"ein": "932106846", "name": "NEXTGEN ENTREPRENEURSHIP NETWORK", "city": "ROSLYN", "state": "NY", "zip": "11576-1922", "ntee": "B03", "ruling": "202310", "deductibility": "1", "assets": 14198, "income": 16000, "revenue": 0}, {"ein": "993190672", "name": "CENTER FOR SOCIAL ENTREPRENEURSHIP INC", "city": "NEWBURGH", "state": "NY", "zip": "12550-2026", "ntee": "S99", "ruling": "202408", "deductibility": "1", "assets": 0, "income": 0, "revenue": 0}], "ECHOING": [{"ein": "133424419", "name": "ECHOING GREEN INC", "city": "NEW YORK", "state": "NY", "zip": "10118-4610", "ntee": "B82Z", "ruling": "198712", "deductibility": "1", "assets": 74391016, "income": 41030146, "revenue": 19759875}], "MARCOVE": [{"ein": "133525999", "name": "RALPH C MARCOVE INTERNATL UNDRSTDG THROUGH ARTS & CRAFTS FNDTN INC", "city": "NEW YORK", "state": "NY", "zip": "10022-0000", "ntee": "", "ruling": "198304", "deductibility": "1", "assets": 757946, "income": 34541, "revenue": 0}, {"ein": "237309316", "name": "RALPH C MARCOVE CANCER RESEARCH FUND INC", "city": "NEW YORK", "state": "NY", "zip": "10022-0000", "ntee": "", "ruling": "197407", "deductibility": "1", "assets": 1730641, "income": 164830, "revenue": 0}], "CAROLINA": [{"ein": "133568739", "name": "CAROLINA BAPTIST CHURCH", "city": "BRONX", "state": "NY", "zip": "10463-7636", "ntee": "X21", "ruling": "201402", "deductibility": "1", "assets": 0, "income": 0, "revenue": 0}, {"ein": "453934546", "name": "ANNA CAROLINA AND SOO KIM FOUNDATION", "city": "AMENIA", "state": "NY", "zip": "12501-5005", "ntee": "T22", "ruling": "201202", "deductibility": "1", "assets": 383298, "income": 26258, "revenue": 0}, {"ein": "461363459", "name": "UNIVERSAL LOVE PEACE AND JOY CHURCH OF GOD SOUTH CAROLINA INC", "city": "BROOKLYN", "state": "NY", "zip": "11236-4625", "ntee": "X20", "ruling": "201410", "deductibility": "1", "assets": 0, "income": 0, "revenue": 0}, {"ein": "461415913", "name": "WAAAUB-NORTH CAROLINA CHAPTER", "city": "NEW YORK", "state": "NY", "zip": "10017-2322", "ntee": "B84", "ruling": "201410", "deductibility": "1", "assets": 0, "income": 0, "revenue": 0}, {"ein": "522067613", "name": "KAIVALYADAHAMA HEALTH AND YOGA RESEARCH CENTER OF NORTH CAROLINA", "city": "ENDICOTT", "state": "NY", "zip": "13760-2111", "ntee": "E99", "ruling": "201702", "deductibility": "1", "assets": 0, "income": 0, "revenue": 0}, {"ein": "923778296", "name": "NORTH CAROLINA CHINESE STUDENT SERVICES ASSOCIATION", "city": "FLUSHING", "state": "NY", "zip": "11354-4652", "ntee": "B03", "ruling": "202305", "deductibility": "1", "assets": 0, "income": 0, "revenue": 0}], "INCOACT": [{"ein": "133570645", "name": "INCOACT INC", "city": "NEW YORK", "state": "NY", "zip": "10024-5123", "ntee": "", "ruling": "199308", "deductibility": "1", "assets": 0, "income": 0, "revenue": 0}], "PARAPROFESSIONAL": [{"ein": "133575492", "name": "PARAPROFESSIONAL HEALTHCARE INSTITUTE INC", "city": "NEW YORK", "state": "NY", "zip": "10016-2303", "ntee": "J22Z", "ruling": "199410", "deductibility": "1", "assets": 16940381, "income": 4854091, "revenue": 4212828}, {"ein": "161516087", "name": "AMHERST PARAPROFESSIONAL ASSOCIATION 6018", "city": "N TONAWANDA", "state": "NY", "zip": "14120-1725", "ntee": "", "ruling": "202004", "deductibility": "2", "assets": 0, "income": 0, "revenue": 0}], "CITYSCAPE": [{"ein": "133653667", "name": "CITYSCAPE FOUNDATION INC", "city": "HUDSON", "state": "NY", "zip": "12534-2115", "ntee": "", "ruling": "199208", "deductibility": "1", "assets": 1, "income": 1, "revenue": 0}], "LEHALACHA": [{"ein": "133664153", "name": "BAIS MIDRASH LEHALACHA", "city": "SPRING VALLEY", "state": "NY", "zip": "10977-0000", "ntee": "", "ruling": "199308", "deductibility": "1", "assets": 0, "income": 0, "revenue": 0}], "AXIS": [{"ein": "133667916", "name": "AXIS THEATER CO INC", "city": "PRT WASHINGTN", "state": "NY", "zip": "11050-3507", "ntee": "", "ruling": "199311", "deductibility": "1", "assets": 773300, "income": 1033125, "revenue": 0}, {"ein": "824664878", "name": "AXIS PROJECT INC", "city": "NEW YORK", "state": "NY", "zip": "10029-2688", "ntee": "", "ruling": "202009", "deductibility": "1", "assets": 387328, "income": 133062, "revenue": 133062}], "TZDAKA": [{"ein": "133782839", "name": "TZDAKA VECHESSED INC", "city": "NEW YORK", "state": "NY", "zip": "10017-0000", "ntee": "T22J", "ruling": "199504", "deductibility": "1", "assets": 1518, "income": 151610, "revenue": 0}, {"ein": "208334866", "name": "TZDAKA V CHAYIM", "city": "BROOKLYN", "state": "NY", "zip": "11203-0000", "ntee": "Q123", "ruling": "201004", "deductibility": "1", "assets": 0, "income": 0, "revenue": 0}, {"ein": "463371328", "name": "TZDAKA FOUNDATION INC", "city": "BROOKLYN", "state": "NY", "zip": "11218-4004", "ntee": "T31", "ruling": "201406", "deductibility": "1", "assets": 143903, "income": 543160, "revenue": 543160}], "JUKU": [{"ein": "133825930", "name": "SEIDO JUKU BENEFIT FOUNDATION", "city": "ELMSFORD", "state": "NY", "zip": "10523-3016", "ntee": "Z99", "ruling": "199507", "deductibility": "1", "assets": 192443, "income": 274692, "revenue": 274692}], "ACCIDENT": [{"ein": "133897947", "name": "NEW YORK STATEWIDE TRAFFIC ACCIDENT RECONSTRUCTION SOCIETY", "city": "MOHEGAN LAKE", "state": "NY", "zip": "10547-0177", "ntee": "", "ruling": "202102", "deductibility": "1", "assets": 0, "income": 0, "revenue": 0}, {"ein": "135563432", "name": "SICKNESS & ACCIDENT FUND OF -1 AMALGAMATED LITHOGRAPHERS OF AMERI", "city": "NEW YORK", "state": "NY", "zip": "10003-4527", "ntee": "", "ruling": "195006", "deductibility": "2", "assets": 1412288, "income": 2355105, "revenue": 2355105}, {"ein": "135651238", "name": "ACCIDENT PREVENTION AND SAFETY LEAGUE INC", "city": "NEW YORK", "state": "NY", "zip": "10007-2635", "ntee": "", "ruling": "194607", "deductibility": "2", "assets": 342795, "income": 352544, "revenue": 352544}, {"ein": "135672354", "name": "MOTOR VEHICLE ACCIDENT INDEMNIFICATION CORPORATION", "city": "NEW YORK", "state": "NY", "zip": "10038-5059", "ntee": "", "ruling": "196003", "deductibility": "2", "assets": 112070139, "income": 62554974, "revenue": 62554974}, {"ein": "166148181", "name": "ROOFERS 195 HEALTH & ACCIDENT FUND", "city": "LIVERPOOL", "state": "NY", "zip": "13090-2513", "ntee": "", "ruling": "197405", "deductibility": "2", "assets": 2373600, "income": 3263110, "revenue": 3263110}, {"ein": "333760416", "name": "FOUNDATION OF CRITICAL CAR ACCIDENT INC", "city": "POMONA", "state": "NY", "zip": "10970-2622", "ntee": "P82", "ruling": "202504", "deductibility": "1", "assets": 0, "income": 0, "revenue": 0}], "WATERHOUSE": [{"ein": "133914707", "name": "WATERHOUSE FAMILY FOUNDATION", "city": "VALHALLA", "state": "NY", "zip": "10595-1357", "ntee": "T99Z", "ruling": "199612", "deductibility": "1", "assets": 4199138, "income": 4156076, "revenue": 0}], "LYRIC": [{"ein": "133947644", "name": "THE LYRIC CHAMBER MUSIC SOCIETY OF NEW YORK INC", "city": "NEW YORK", "state": "NY", "zip": "10023-6082", "ntee": "A60", "ruling": "199801", "deductibility": "1", "assets": 315170, "income": 508863, "revenue": 508863}, {"ein": "134162022", "name": "INTERNATIONAL FRIEND OF THE INTL LYRIC ART FESTIVAL IN AIX-EN", "city": "NEW YORK", "state": "NY", "zip": "10022-5585", "ntee": "A90", "ruling": "200302", "deductibility": "1", "assets": 66033, "income": 134581, "revenue": 134581}, {"ein": "136057749", "name": "LYRIC FOUNDATION INC UW VIRGINIA K CUMMINS", "city": "NEW YORK", "state": "NY", "zip": "10013-2362", "ntee": "", "ruling": "197012", "deductibility": "0", "assets": 1563767, "income": 1759710, "revenue": 0}, {"ein": "201852989", "name": "LYRIC CHORALE", "city": "PITTSFORD", "state": "NY", "zip": "14534-0946", "ntee": "A6B", "ruling": "200501", "deductibility": "1", "assets": 0, "income": 0, "revenue": 0}, {"ein": "202990023", "name": "AMERICAN LYRIC THEATER CENTER INC", "city": "NEW YORK", "state": "NY", "zip": "10036-6809", "ntee": "", "ruling": "200508", "deductibility": "1", "assets": 198793, "income": 467789, "revenue": 467789}, {"ein": "205109731", "name": "ROCHESTER LYRIC OPERA INC", "city": "ROCHESTER", "state": "NY", "zip": "14618-3512", "ntee": "A65", "ruling": "201003", "deductibility": "1", "assets": 0, "income": 0, "revenue": 0}, {"ein": "222446279", "name": "WATERTOWN LYRIC THEATER PRODUCTIONS INC", "city": "WATERTOWN", "state": "NY", "zip": "13601-0532", "ntee": "A65", "ruling": "201409", "deductibility": "1", "assets": 0, "income": 0, "revenue": 0}, {"ein": "263346265", "name": "HUDSON LYRIC OPERA", "city": "GARNERVILLE", "state": "NY", "zip": "10923-1428", "ntee": "A60", "ruling": "200907", "deductibility": "1", "assets": 0, "income": 0, "revenue": 0}, {"ein": "814811804", "name": "CITY LYRIC OPERA INC", "city": "BROOKLYN", "state": "NY", "zip": "11211-0000", "ntee": "A6A", "ruling": "201711", "deductibility": "1", "assets": 1, "income": 138929, "revenue": 138929}, {"ein": "821425324", "name": "LYRIC LAB", "city": "NEW YORK", "state": "NY", "zip": "10037-1522", "ntee": "A20", "ruling": "201710", "deductibility": "1", "assets": 0, "income": 0, "revenue": 0}, {"ein": "900781988", "name": "CLASSIC LYRIC ARTS INC", "city": "NEW YORK", "state": "NY", "zip": "10025-5359", "ntee": "A25", "ruling": "201302", "deductibility": "1", "assets": 93356, "income": 449568, "revenue": 449568}], "CELLI": [{"ein": "134087933", "name": "ELLEN AND ANDREW G CELLI FOUNDATION INC", "city": "NEW YORK", "state": "NY", "zip": "10028-0922", "ntee": "T2", "ruling": "199912", "deductibility": "1", "assets": 523421, "income": 869444, "revenue": 0}], "KIBOKO": [{"ein": "134093810", "name": "KIBOKO PROJECTS INC", "city": "NEW YORK", "state": "NY", "zip": "10025-6514", "ntee": "N20", "ruling": "200005", "deductibility": "1", "assets": 0, "income": 0, "revenue": 0}], "RLG": [{"ein": "134144882", "name": "THE RLG FOUNDATION INC", "city": "NEW YORK", "state": "NY", "zip": "10022-9511", "ntee": "T22", "ruling": "200201", "deductibility": "1", "assets": 104488, "income": 25967, "revenue": 0}], "TOOLAN": [{"ein": "134152268", "name": "TOOLAN FAMILY FOUNDATION INC", "city": "NEW YORK", "state": "NY", "zip": "10009-4285", "ntee": "T22", "ruling": "200106", "deductibility": "1", "assets": 60425, "income": 3599, "revenue": 0}], "MOTIVATED": [{"ein": "134260556", "name": "INDEPENDENT MOTIVATED EDUCATED AND COMPASSIONATE YOUTH IN OUR COMMUNI", "city": "WESTBURY", "state": "NY", "zip": "11590-2505", "ntee": "O50", "ruling": "200510", "deductibility": "1", "assets": 0, "income": 0, "revenue": 0}], "HAVENS": [{"ein": "135562382", "name": "HAVENS RELIEF FUND SOCIETY", "city": "NEW YORK", "state": "NY", "zip": "10115-0023", "ntee": "", "ruling": "193406", "deductibility": "1", "assets": 50734739, "income": 14142968, "revenue": 0}, {"ein": "161246781", "name": "FAIR HAVENS CHURCH", "city": "N TONAWANDA", "state": "NY", "zip": "14120-1442", "ntee": "", "ruling": "200212", "deductibility": "1", "assets": 0, "income": 0, "revenue": 0}], "TECHNICA": [{"ein": "136059667", "name": "POLONIA TECHNICA INC", "city": "NEW YORK", "state": "NY", "zip": "10016-8202", "ntee": "", "ruling": "195910", "deductibility": "1", "assets": 0, "income": 0, "revenue": 0}], "CONVERTERS": [{"ein": "136092225", "name": "TEXTILE CONVERTERS LIQUIDATION BENEFIT FUND", "city": "PELHAM", "state": "NY", "zip": "10803-0000", "ntee": "", "ruling": "196312", "deductibility": "2", "assets": 119195, "income": 5362, "revenue": 5362}], "SOKOLSKY": [{"ein": "136117870", "name": "GEORGE E SOKOLSKY SILURIAN CONTINGENCY FUND INC", "city": "NEW YORK", "state": "NY", "zip": "10025-9200", "ntee": "P99", "ruling": "201912", "deductibility": "1", "assets": 0, "income": 0, "revenue": 0}], "ASPHALT": [{"ein": "136533158", "name": "ASPHALT GREEN INC", "city": "NEW YORK", "state": "NY", "zip": "10128-7803", "ntee": "N31Z", "ruling": "197512", "deductibility": "1", "assets": 44561940, "income": 34783433, "revenue": 34637833}], "CRENSHAW": [{"ein": "141664795", "name": "CRENSHAW MEMORIAL DEVELOPMENT CORP", "city": "ALBANY", "state": "NY", "zip": "12202-1655", "ntee": "P28Z", "ruling": "202009", "deductibility": "1", "assets": 135627, "income": 43000, "revenue": 43000}], "LISLE": [{"ein": "150552725", "name": "LISLE FREE LIBRARY", "city": "LISLE", "state": "NY", "zip": "13797-0305", "ntee": "", "ruling": "195210", "deductibility": "1", "assets": 456530, "income": 112299, "revenue": 112299}, {"ein": "161449771", "name": "LISLE FIRE COMPANY INC", "city": "LISLE", "state": "NY", "zip": "13797-0000", "ntee": "M24Z", "ruling": "199804", "deductibility": "1", "assets": 1276811, "income": 199272, "revenue": 190591}], "CN": [{"ein": "160912403", "name": "CORNING MEALS CN WHEELS INC", "city": "CORNING", "state": "NY", "zip": "14830-2633", "ntee": "K36Z", "ruling": "198008", "deductibility": "1", "assets": 2179197, "income": 829485, "revenue": 647848}], "NINEVEH": [{"ein": "161126262", "name": "NINEVEH PUBLIC LIBRARY OF", "city": "NINEVEH", "state": "NY", "zip": "13813-0124", "ntee": "", "ruling": "198003", "deductibility": "1", "assets": 219210, "income": 85564, "revenue": 85564}], "MADRIGAL": [{"ein": "161264533", "name": "THE MADRIGAL CHOIR OF BINGHAMTON INC", "city": "BINGHAMTON", "state": "NY", "zip": "13903-0452", "ntee": "", "ruling": "199212", "deductibility": "1", "assets": 0, "income": 0, "revenue": 0}], "WATERWAYS": [{"ein": "161474751", "name": "CENTRAL NEW YORK WATERWAYS ASSOCIATION INC", "city": "BALDWINSVILLE", "state": "NY", "zip": "13027-0033", "ntee": "C30", "ruling": "201010", "deductibility": "1", "assets": 0, "income": 0, "revenue": 0}, {"ein": "161478526", "name": "GENESEE WATERWAYS CENTER INC", "city": "ROCHESTER", "state": "NY", "zip": "14618-1228", "ntee": "C30", "ruling": "199603", "deductibility": "1", "assets": 102174, "income": 170570, "revenue": 170570}, {"ein": "161551479", "name": "SENECA MUSEUM OF WATERWAYS AND INDUSTRY INC", "city": "SENECA FALLS", "state": "NY", "zip": "13148-1408", "ntee": "A540", "ruling": "199811", "deductibility": "1", "assets": 178346, "income": 199885, "revenue": 182221}], "PROCLAIM": [{"ein": "161594849", "name": "PROCLAIM-EVANGELISTIC MUSIC MINISTRY", "city": "PITTSFORD", "state": "NY", "zip": "14534-2559", "ntee": "A68", "ruling": "200101", "deductibility": "1", "assets": 157820, "income": 23394, "revenue": 23394}, {"ein": "203241806", "name": "JESUS CHRIST SALVATION PROCLAIM BAPTIST CHURCH INC", "city": "BROOKLYN", "state": "NY", "zip": "11236-5125", "ntee": "X20", "ruling": "200606", "deductibility": "1", "assets": 0, "income": 0, "revenue": 0}, {"ein": "474820812", "name": "PROCLAIM GOSPEL CHRISTIAN CHURCH", "city": "FRESH MEADOWS", "state": "NY", "zip": "11365-3249", "ntee": "X20", "ruling": "201603", "deductibility": "1", "assets": 0, "income": 0, "revenue": 0}], "HODGE": [{"ein": "166217676", "name": "W H HODGE TRUST FBO", "city": "NORWICH", "state": "NY", "zip": "13815-1646", "ntee": "", "ruling": "000000", "deductibility": "0", "assets": 130337, "income": 26756, "revenue": 0}, {"ein": "166217686", "name": "WILLIAM H HODGE TR UW 24-211070 FBO YOUNG MENS CHRIST ASSOC", "city": "NORWICH", "state": "NY", "zip": "13815-0000", "ntee": "T20", "ruling": "201110", "deductibility": "1", "assets": 47169, "income": 2470, "revenue": 0}, {"ein": "166217689", "name": "WILLIAM H HODGE TRUST UW FBO NIAG MEN MCENT", "city": "NORWICH", "state": "NY", "zip": "13815-1646", "ntee": "", "ruling": "000000", "deductibility": "0", "assets": 92668, "income": 4876, "revenue": 0}, {"ein": "166217690", "name": "TRUST WWILL WILLIAM H HODGE FOR CHARITIES", "city": "NORWICH", "state": "NY", "zip": "13815-1646", "ntee": "T11", "ruling": "201110", "deductibility": "1", "assets": 241742, "income": 32566, "revenue": 0}, {"ein": "922343106", "name": "BLACK JOE HODGE OUTDOORS CLUB INC", "city": "AMHERST", "state": "NY", "zip": "14226-3181", "ntee": "S80", "ruling": "202304", "deductibility": "1", "assets": 0, "income": 0, "revenue": 0}], "PRIV": [{"ein": "166377339", "name": "TRUST UW ELLEN C STARK - CHARITABLE TRUST MARINE MIDLAND BK PRIV CLIEN", "city": "NORWICH", "state": "NY", "zip": "13815-0000", "ntee": "", "ruling": "199301", "deductibility": "1", "assets": 414207, "income": 41923, "revenue": 0}], "SWART": [{"ein": "166468660", "name": "SWART-WILCOX TR UW R T APPLEBAUGH", "city": "ONEONTA", "state": "NY", "zip": "13820-0000", "ntee": "T20", "ruling": "199911", "deductibility": "1", "assets": 249000, "income": 130204, "revenue": 0}, {"ein": "166477414", "name": "CHRIST UNITED METHODIST CHURCH T UW G SWART ET03045A-2", "city": "OLEAN", "state": "NY", "zip": "14760-2738", "ntee": "X11", "ruling": "202504", "deductibility": "1", "assets": 446422, "income": 271661, "revenue": 0}, {"ein": "562482948", "name": "SWART-WILCOX HOUSE MUSEUM", "city": "ONEONTA", "state": "NY", "zip": "13820-1832", "ntee": "A54", "ruling": "202406", "deductibility": "1", "assets": 0, "income": 0, "revenue": 0}], "SMILES": [{"ein": "200203468", "name": "ONENESS HEART TEARS AND SMILES", "city": "JAMAICA", "state": "NY", "zip": "11432-2512", "ntee": "P20", "ruling": "201210", "deductibility": "1", "assets": 0, "income": 0, "revenue": 0}, {"ein": "203896945", "name": "SMILES FOR SCOTT FOUNDATION INC", "city": "PLAINVIEW", "state": "NY", "zip": "11803-0643", "ntee": "T30", "ruling": "200603", "deductibility": "1", "assets": 98794, "income": 25929, "revenue": 25929}, {"ein": "261496209", "name": "TWO SMILES ONE HOPE FOUNDATION INC", "city": "CAZENOVIA", "state": "NY", "zip": "13035-9340", "ntee": "G50", "ruling": "200806", "deductibility": "1", "assets": 73320, "income": 0, "revenue": 0}, {"ein": "263809242", "name": "MICHAEL LEWIS WOLKIS MILES OF SMILES FOUNDATION INC", "city": "ELWOOD", "state": "NY", "zip": "11731-4830", "ntee": "B82", "ruling": "200903", "deductibility": "1", "assets": 0, "income": 0, "revenue": 0}, {"ein": "274036987", "name": "SMILES BRING HOPE INC", "city": "LATHAM", "state": "NY", "zip": "12110-6411", "ntee": "P20", "ruling": "201406", "deductibility": "1", "assets": 375267, "income": 350016, "revenue": 350016}, {"ein": "332321829", "name": "SMILES FOR THE SOULS FOUNDATION", "city": "GREAT NECK", "state": "NY", "zip": "11021-1312", "ntee": "P58", "ruling": "202506", "deductibility": "1", "assets": 0, "income": 0, "revenue": 0}, {"ein": "332583266", "name": "SMILES FOR THE KIDS INC", "city": "WOODMERE", "state": "NY", "zip": "11598-2923", "ntee": "P20", "ruling": "202501", "deductibility": "1", "assets": 0, "income": 0, "revenue": 0}, {"ein": "462785474", "name": "UNSPOKEN SMILES FOUNDATION", "city": "NEW YORK", "state": "NY", "zip": "10004-1703", "ntee": "Q30", "ruling": "201510", "deductibility": "1", "assets": 0, "income": 0, "revenue": 0}, {"ein": "472309824", "name": "SONGS FOR SMILES INC", "city": "KATONAH", "state": "NY", "zip": "10536-3032", "ntee": "E86", "ruling": "201505", "deductibility": "1", "assets": 0, "income": 0, "revenue": 0}, {"ein": "813487618", "name": "WORLD OF SMILES INC", "city": "NEW YORK", "state": "NY", "zip": "10111-1877", "ntee": "E70", "ruling": "201609", "deductibility": "1", "assets": 110914, "income": 48878, "revenue": 48878}, {"ein": "813519795", "name": "SMILES FROM JOEY INC", "city": "WHITE PLAINS", "state": "NY", "zip": "10605-1106", "ntee": "O50", "ruling": "201608", "deductibility": "1", "assets": 0, "income": 0, "revenue": 0}, {"ein": "814653779", "name": "SYDNEYS SMILES", "city": "LIDO BEACH", "state": "NY", "zip": "11561-5101", "ntee": "P99", "ruling": "201705", "deductibility": "1", "assets": 0, "income": 0, "revenue": 0}, {"ein": "822299104", "name": "HARPER SMILES INC", "city": "HARRIMAN", "state": "NY", "zip": "10926-0945", "ntee": "B82", "ruling": "201712", "deductibility": "1", "assets": 0, "income": 0, "revenue": 0}, {"ein": "822395157", "name": "SMILES FOR SPEECH INC", "city": "NEW YORK", "state": "NY", "zip": "10032-5229", "ntee": "O50", "ruling": "201709", "deductibility": "1", "assets": 0, "income": 0, "revenue": 0}, {"ein": "823246295", "name": "SAVING SMILES INCORPORATED", "city": "CIRCLEVILLE", "state": "NY", "zip": "10919-3250", "ntee": "E12", "ruling": "201803", "deductibility": "1", "assets": 0, "income": 0, "revenue": 0}, {"ein": "831262898", "name": "SUNNY SMILES CENTER INC", "city": "BROOKLYN", "state": "NY", "zip": "11249-6135", "ntee": "P99", "ruling": "201907", "deductibility": "1", "assets": 0, "income": 246145, "revenue": 246145}, {"ein": "831406450", "name": "700 SMILES INC", "city": "SARATOGA SPGS", "state": "NY", "zip": "12866-7325", "ntee": "G20", "ruling": "201904", "deductibility": "1", "assets": 0, "income": 0, "revenue": 0}, {"ein": "831532059", "name": "SMILES THROUGH CARS INC", "city": "HEWLETT", "state": "NY", "zip": "11557-0000", "ntee": "P30", "ruling": "201902", "deductibility": "1", "assets": 533915, "income": 107775, "revenue": 0}, {"ein": "834601875", "name": "DETECTIVE BRIAN SMILES SIMONSEN MEMORIAL FOUNDATION INC", "city": "CALVERTON", "state": "NY", "zip": "11933-1342", "ntee": "B82", "ruling": "201905", "deductibility": "1", "assets": 309918, "income": 196543, "revenue": 196543}, {"ein": "843488489", "name": "SPECIAL SMILES FOUNDATION", "city": "BUFFALO", "state": "NY", "zip": "14202-2216", "ntee": "T30", "ruling": "201911", "deductibility": "1", "assets": 0, "income": 0, "revenue": 0}, {"ein": "845074126", "name": "ALAIA SMILES INC", "city": "BROOKLYN", "state": "NY", "zip": "11213-4951", "ntee": "A01", "ruling": "202006", "deductibility": "1", "assets": 0, "income": 0, "revenue": 0}, {"ein": "851740068", "name": "SMILES OF WISDOM INC", "city": "ROSEDALE", "state": "NY", "zip": "11422-2420", "ntee": "P20", "ruling": "202010", "deductibility": "1", "assets": 0, "income": 0, "revenue": 0}, {"ein": "861467966", "name": "FIGHT 4 SMILES INC", "city": "OCEANSIDE", "state": "NY", "zip": "11572-2906", "ntee": "G30", "ruling": "202104", "deductibility": "1", "assets": 0, "income": 0, "revenue": 0}, {"ein": "873727229", "name": "BUILDING SMILES FOUNDATION INC", "city": "OSSINING", "state": "NY", "zip": "10562-3610", "ntee": "L80", "ruling": "202403", "deductibility": "1", "assets": 20000, "income": 0, "revenue": 0}, {"ein": "920772699", "name": "A MILLION SMILES FOR MILES", "city": "BROOKLYN", "state": "NY", "zip": "11229-5725", "ntee": "P42", "ruling": "202211", "deductibility": "1", "assets": 0, "income": 0, "revenue": 0}, {"ein": "921619361", "name": "BRIGHT HEALTHY SMILES FOUNDATION INC", "city": "NEW YORK", "state": "NY", "zip": "10021-2956", "ntee": "T30", "ruling": "202303", "deductibility": "1", "assets": 0, "income": 0, "revenue": 0}, {"ein": "921921274", "name": "MAYA SMILES PROJECT", "city": "JAMAICA", "state": "NY", "zip": "11432-2152", "ntee": "T12", "ruling": "202302", "deductibility": "1", "assets": 0, "income": 0, "revenue": 0}, {"ein": "922223813", "name": "BRINGING OUT THE SMILES INC", "city": "SMITHTOWN", "state": "NY", "zip": "11787-2648", "ntee": "P58", "ruling": "202312", "deductibility": "1", "assets": 0, "income": 0, "revenue": 0}, {"ein": "923906801", "name": "SPIRITUAL SMILES INC", "city": "HUNTINGTON", "state": "NY", "zip": "11743-3554", "ntee": "E60", "ruling": "202305", "deductibility": "1", "assets": 0, "income": 0, "revenue": 0}, {"ein": "933452586", "name": "SMILES TEAM INC", "city": "ARMONK", "state": "NY", "zip": "10504-1018", "ntee": "E60", "ruling": "202311", "deductibility": "1", "assets": 0, "income": 0, "revenue": 0}, {"ein": "933606452", "name": "HOUSE OF SERVICE & SMILES INC", "city": "BROOKLYN", "state": "NY", "zip": "11239-2234", "ntee": "E60", "ruling": "202310", "deductibility": "1", "assets": 0, "income": 0, "revenue": 0}, {"ein": "933652775", "name": "HARMONY SMILES CORPORATION", "city": "JERICHO", "state": "NY", "zip": "11753-1327", "ntee": "T12", "ruling": "202402", "deductibility": "1", "assets": 0, "income": 0, "revenue": 0}, {"ein": "995103046", "name": "SUNSHINE & SMILES FOUNDATION INC", "city": "BROOKLYN", "state": "NY", "zip": "11205-1984", "ntee": "P29", "ruling": "202410", "deductibility": "1", "assets": 0, "income": 0, "revenue": 0}], "EDUCATORSASSOCIATION": [{"ein": "204872683", "name": "DUTCHESS COUNTY MUSIC EDUCATORSASSOCIATION", "city": "RHINEBECK", "state": "NY", "zip": "12572-3509", "ntee": "A68", "ruling": "200607", "deductibility": "1", "assets": 0, "income": 0, "revenue": 0}], "ELITE": [{"ein": "205232706", "name": "JASON MORRIS ELITE JUDO TRAINING INC", "city": "GLENVILLE", "state": "NY", "zip": "12325-0505", "ntee": "N60", "ruling": "200801", "deductibility": "1", "assets": 15750, "income": 48330, "revenue": 48330}, {"ein": "263287730", "name": "ELITE CORPS DE BALLET OF LONG ISLAND INC", "city": "MIDDLE ISLAND", "state": "NY", "zip": "11953-0000", "ntee": "A63", "ruling": "200906", "deductibility": "1", "assets": 9261, "income": 12638, "revenue": 12638}, {"ein": "272993842", "name": "ELITE DIAMOND INTERNATIONAL CLUB", "city": "BRONX", "state": "NY", "zip": "10475-0261", "ntee": "Q30", "ruling": "201312", "deductibility": "1", "assets": 0, "income": 0, "revenue": 0}, {"ein": "331159834", "name": "NEW YORK ELITE FC INC", "city": "BALLSTON SPA", "state": "NY", "zip": "12020-3821", "ntee": "N50", "ruling": "200805", "deductibility": "1", "assets": 268225, "income": 974284, "revenue": 974284}, {"ein": "332058567", "name": "PERFORMANCE ELITE VBC INC", "city": "SHIRLEY", "state": "NY", "zip": "11967-1805", "ntee": "N60", "ruling": "202412", "deductibility": "1", "assets": 0, "income": 0, "revenue": 0}, {"ein": "332999055", "name": "A-TEAM ELITE NY RESCUE DOGS INC", "city": "BROOKVILLE", "state": "NY", "zip": "11545-2906", "ntee": "D20", "ruling": "202502", "deductibility": "1", "assets": 0, "income": 0, "revenue": 0}, {"ein": "333343648", "name": "ALL CITY ELITE INC", "city": "BROOKLYN", "state": "NY", "zip": "11239-2414", "ntee": "N60", "ruling": "202505", "deductibility": "1", "assets": 0, "income": 0, "revenue": 0}, {"ein": "333527888", "name": "ALL-STAR-ELITE RHC INC", "city": "ALBANY", "state": "NY", "zip": "12203-5819", "ntee": "N99", "ruling": "202504", "deductibility": "1", "assets": 0, "income": 0, "revenue": 0}, {"ein": "333541446", "name": "ROC ELITE SPORTS INC", "city": "ROCHESTER", "state": "NY", "zip": "14606-4630", "ntee": "N60", "ruling": "202504", "deductibility": "1", "assets": 0, "income": 0, "revenue": 0}, {"ein": "333698797", "name": "HEAT ELITE YOUTH ORGANIZATION INC", "city": "CAMBRIA HTS", "state": "NY", "zip": "11411-2127", "ntee": "N99", "ruling": "202504", "deductibility": "1", "assets": 0, "income": 0, "revenue": 0}, {"ein": "334323897", "name": "PHENOMENAL WOLVES ELITE INC", "city": "NEW YORK", "state": "NY", "zip": "10011-3074", "ntee": "O50", "ruling": "202505", "deductibility": "1", "assets": 0, "income": 0, "revenue": 0}, {"ein": "412051457", "name": "LONG ISLAND NETWORKING ELITE INC", "city": "HAUPPAUGE", "state": "NY", "zip": "11788-5116", "ntee": "T03", "ruling": "200405", "deductibility": "1", "assets": 141816, "income": 340895, "revenue": 162771}, {"ein": "412219432", "name": "LAGOS ELITE CLUB USA INC", "city": "BROOKLYN", "state": "NY", "zip": "11239-2234", "ntee": "P84", "ruling": "201808", "deductibility": "1", "assets": 0, "income": 0, "revenue": 0}, {"ein": "452389380", "name": "ELITE ONES ORGANIZATION", "city": "BROOKLYN", "state": "NY", "zip": "11207-4804", "ntee": "O50", "ruling": "201506", "deductibility": "1", "assets": 0, "income": 0, "revenue": 0}, {"ein": "452436636", "name": "ELITE HEAT CHEER INC", "city": "NORTH TONAWANDA", "state": "NY", "zip": "14120-1391", "ntee": "N11", "ruling": "201204", "deductibility": "1", "assets": 0, "income": 0, "revenue": 0}, {"ein": "462888683", "name": "ELITE ACADEMY SCHOLARSHIP FUND", "city": "BROOKLYN", "state": "NY", "zip": "11214-5386", "ntee": "B82", "ruling": "201701", "deductibility": "1", "assets": 97001, "income": 113901, "revenue": 113901}, {"ein": "463584589", "name": "ELITE NATION YOUTH BASEBALL ORGANIZATION INC", "city": "NEW CITY", "state": "NY", "zip": "10956-2231", "ntee": "N63", "ruling": "201406", "deductibility": "1", "assets": 42028, "income": 174463, "revenue": 174463}, {"ein": "464048465", "name": "ELITE CYCLING", "city": "DELMAR", "state": "NY", "zip": "12054-1411", "ntee": "Y99", "ruling": "201406", "deductibility": "1", "assets": 0, "income": 0, "revenue": 0}, {"ein": "464368921", "name": "DYNAMIC ELITE PARENT BOOSTERS", "city": "ROCHESTER", "state": "NY", "zip": "14624-2362", "ntee": "B11", "ruling": "201407", "deductibility": "1", "assets": 0, "income": 0, "revenue": 0}, {"ein": "471399956", "name": "ELITE MARCHING BAND OF QUEENS INC", "city": "SPRNGFLD GDNS", "state": "NY", "zip": "11413-1060", "ntee": "A6C", "ruling": "201911", "deductibility": "1", "assets": 19504, "income": 55938, "revenue": 55938}, {"ein": "471426730", "name": "ELITE SKILLS INC", "city": "BAYSIDE", "state": "NY", "zip": "11361-2126", "ntee": "N62", "ruling": "201503", "deductibility": "1", "assets": 630, "income": 2240, "revenue": 2240}, {"ein": "471594498", "name": "ELITE ACADEMY INC", "city": "MIDDLETOWN", "state": "NY", "zip": "10940-4749", "ntee": "O50", "ruling": "201501", "deductibility": "1", "assets": 0, "income": 0, "revenue": 0}, {"ein": "473911112", "name": "PALISADES ELITE", "city": "STONY POINT", "state": "NY", "zip": "10980-3423", "ntee": "N62", "ruling": "201602", "deductibility": "1", "assets": 0, "income": 272809, "revenue": 272809}, {"ein": "475097414", "name": "R & B ELITE TENNIS", "city": "ARDSLEY", "state": "NY", "zip": "10502-1034", "ntee": "N99", "ruling": "201909", "deductibility": "1", "assets": 215, "income": 110, "revenue": 0}, {"ein": "810833004", "name": "ELITE EDUCATIONAL SERVICES INC", "city": "BROOKLYN", "state": "NY", "zip": "11203-1879", "ntee": "", "ruling": "201511", "deductibility": "1", "assets": 0, "income": 0, "revenue": 0}, {"ein": "811123540", "name": "BE ELITE INC", "city": "BUFFALO", "state": "NY", "zip": "14215-3421", "ntee": "O99", "ruling": "201601", "deductibility": "1", "assets": 982, "income": 61819, "revenue": 61819}, {"ein": "813684140", "name": "NEW YORK ELITE VOLLEYBALL", "city": "POUGHKEEPSIE", "state": "NY", "zip": "12603-1440", "ntee": "N60", "ruling": "201706", "deductibility": "1", "assets": 63516, "income": 526052, "revenue": 526052}, {"ein": "814107397", "name": "ELITE ATHLETES OUTREACH CENTER INC", "city": "FOREST HILLS", "state": "NY", "zip": "11375-1140", "ntee": "O50", "ruling": "201610", "deductibility": "1", "assets": 0, "income": 0, "revenue": 0}, {"ein": "814482839", "name": "ELITE LEARNERS INC", "city": "BROOKLYN", "state": "NY", "zip": "11212-6403", "ntee": "O50", "ruling": "201805", "deductibility": "1", "assets": 3780954, "income": 6015981, "revenue": 6015981}, {"ein": "814865829", "name": "EAST END ELITE ACADEMY", "city": "W HAMPTON BCH", "state": "NY", "zip": "11978-1806", "ntee": "N60", "ruling": "201701", "deductibility": "1", "assets": 0, "income": 0, "revenue": 0}, {"ein": "814978683", "name": "TITANS ELITE BASEBALL CLUB", "city": "LOUDONVILLE", "state": "NY", "zip": "12211-2212", "ntee": "N60", "ruling": "201702", "deductibility": "1", "assets": 0, "income": 0, "revenue": 0}, {"ein": "815187229", "name": "ELITE 10 YOUTH ATHLETICS", "city": "BROOKLYN", "state": "NY", "zip": "11234-0722", "ntee": "P99", "ruling": "201803", "deductibility": "1", "assets": 0, "income": 0, "revenue": 0}, {"ein": "815299653", "name": "COREY GRAHAM ELITE INC", "city": "BUFFALO", "state": "NY", "zip": "14240-2841", "ntee": "N60", "ruling": "202112", "deductibility": "1", "assets": 0, "income": 0, "revenue": 0}, {"ein": "824436548", "name": "HOOK ELITE BOXING MINISTRIES LIFE SKILLS", "city": "NEWBURGH", "state": "NY", "zip": "12550-5319", "ntee": "O50", "ruling": "201803", "deductibility": "1", "assets": 0, "income": 0, "revenue": 0}, {"ein": "834316167", "name": "LONG ISLAND BULLDOGS ELITE BASKETBALL CLUB INC", "city": "CENTEREACH", "state": "NY", "zip": "11720-2235", "ntee": "N62", "ruling": "201904", "deductibility": "1", "assets": 0, "income": 0, "revenue": 0}, {"ein": "842079676", "name": "ELITE COMMUNITY FOUNDATION INC", "city": "LAURELTON", "state": "NY", "zip": "11413-1960", "ntee": "P99", "ruling": "202110", "deductibility": "1", "assets": 23708, "income": 65327, "revenue": 65327}, {"ein": "842293299", "name": "ELITE FITNESS AND PERFORMANCE FOUNDATION INC", "city": "PORT CHESTER", "state": "NY", "zip": "10573-3361", "ntee": "N30", "ruling": "202102", "deductibility": "1", "assets": 0, "income": 0, "revenue": 0}, {"ein": "852672167", "name": "360 ELITE PERFORMANCE ACADEMY INC", "city": "BRONX", "state": "NY", "zip": "10451-2591", "ntee": "N63", "ruling": "202108", "deductibility": "1", "assets": 0, "income": 0, "revenue": 0}, {"ein": "853120541", "name": "SAP ELITE CORP", "city": "BROOKLYN", "state": "NY", "zip": "11204-1823", "ntee": "P99", "ruling": "202110", "deductibility": "1", "assets": 51967, "income": 259, "revenue": 0}, {"ein": "854169225", "name": "EMPIRE ELITE TC INC", "city": "NEW PALTZ", "state": "NY", "zip": "12561-1222", "ntee": "N40", "ruling": "202104", "deductibility": "1", "assets": 156984, "income": 305671, "revenue": 302795}, {"ein": "861183866", "name": "JAGUARS ACADEMY ELITE INC", "city": "BRONX", "state": "NY", "zip": "10475-1958", "ntee": "N62", "ruling": "202106", "deductibility": "1", "assets": 0, "income": 0, "revenue": 0}, {"ein": "862109705", "name": "SI ELITE TRACK & FIELD", "city": "STATEN ISLAND", "state": "NY", "zip": "10314-1049", "ntee": "N99", "ruling": "202106", "deductibility": "1", "assets": 0, "income": 0, "revenue": 0}, {"ein": "870821212", "name": "ELITE EDGE BASEBALL ASSOCIATION INCORPORATED", "city": "MASSAPEQUA", "state": "NY", "zip": "11758-3631", "ntee": "N63", "ruling": "202109", "deductibility": "1", "assets": 0, "income": 5980, "revenue": 5980}, {"ein": "871291571", "name": "SHOW EM BETTA ELITE", "city": "EAST ELMHURST", "state": "NY", "zip": "11369-1950", "ntee": "O50", "ruling": "202403", "deductibility": "1", "assets": 0, "income": 0, "revenue": 0}, {"ein": "871584737", "name": "TROJAN ELITE INC", "city": "NEWFIELD", "state": "NY", "zip": "14867-9486", "ntee": "N65", "ruling": "202202", "deductibility": "1", "assets": 0, "income": 0, "revenue": 0}, {"ein": "872884947", "name": "YOUTH ELITE CLUBS INC", "city": "GREAT NECK", "state": "NY", "zip": "11021-3340", "ntee": "B90", "ruling": "202201", "deductibility": "1", "assets": 0, "income": 0, "revenue": 0}, {"ein": "881820640", "name": "ELITE ESPORTS ORGANIZATION INC", "city": "SYRACUSE", "state": "NY", "zip": "13210-1201", "ntee": "B90", "ruling": "202205", "deductibility": "1", "assets": 0, "income": 0, "revenue": 0}, {"ein": "921375944", "name": "LIONS ELITE ASSOCIATION INC", "city": "CORAM", "state": "NY", "zip": "11727-2345", "ntee": "N63", "ruling": "202301", "deductibility": "1", "assets": 85682, "income": 589813, "revenue": 589813}, {"ein": "921433500", "name": "NY ELITE 100 ALLIANCE INC", "city": "NEW YORK", "state": "NY", "zip": "10013-4554", "ntee": "S41", "ruling": "202301", "deductibility": "1", "assets": 0, "income": 0, "revenue": 0}, {"ein": "923622024", "name": "TOWN ELITE LLC", "city": "HEMPSTEAD", "state": "NY", "zip": "11550-6412", "ntee": "O50", "ruling": "202506", "deductibility": "1", "assets": 0, "income": 0, "revenue": 0}, {"ein": "923697526", "name": "WOODLANDS ELITE ALBANY BOOSTER CLUB INC", "city": "GLENMONT", "state": "NY", "zip": "12077-3510", "ntee": "N60", "ruling": "202307", "deductibility": "1", "assets": 0, "income": 0, "revenue": 0}, {"ein": "931852062", "name": "ELITE FIVE ACADEMY INC", "city": "HARTSDALE", "state": "NY", "zip": "10530-7701", "ntee": "N60", "ruling": "202308", "deductibility": "1", "assets": 1, "income": 0, "revenue": 0}, {"ein": "932591204", "name": "SYOSSET ELITE YOUTH ATHLETICS ASSOCIATION CORP", "city": "WOODBURY", "state": "NY", "zip": "11797-3101", "ntee": "O50", "ruling": "202309", "deductibility": "1", "assets": 42813, "income": 92823, "revenue": 92823}, {"ein": "933207140", "name": "REVOLUTION ELITE WRESTLING CLUB INC", "city": "NEWFANE", "state": "NY", "zip": "14108-9761", "ntee": "N99", "ruling": "202408", "deductibility": "1", "assets": 0, "income": 0, "revenue": 0}, {"ein": "933274631", "name": "PIVOT ELITE HOOPS", "city": "YONKERS", "state": "NY", "zip": "10703-2538", "ntee": "O50", "ruling": "202501", "deductibility": "1", "assets": 0, "income": 0, "revenue": 0}, {"ein": "933414014", "name": "BASELINE ELITE HEALTH AND WELLNESS INC", "city": "BUFFALO", "state": "NY", "zip": "14211-3020", "ntee": "W99", "ruling": "202403", "deductibility": "1", "assets": 0, "income": 0, "revenue": 0}, {"ein": "933555817", "name": "LINNETTE Y FRANKLYN-BROWN ELITE SCHOLARSHIP FOUNDATION", "city": "VALLEY STREAM", "state": "NY", "zip": "11580-5825", "ntee": "B82", "ruling": "202310", "deductibility": "1", "assets": 0, "income": 0, "revenue": 0}, {"ein": "934143642", "name": "TIGERS ELITE", "city": "FORT ANN", "state": "NY", "zip": "12827-2104", "ntee": "N70", "ruling": "202311", "deductibility": "1", "assets": 0, "income": 0, "revenue": 0}, {"ein": "934711840", "name": "607 EL TOWN ELITE", "city": "ELMIRA", "state": "NY", "zip": "14904-1905", "ntee": "N60", "ruling": "202401", "deductibility": "1", "assets": 0, "income": 0, "revenue": 0}, {"ein": "934834716", "name": "ALPHA ELITE SPORTS", "city": "YONKERS", "state": "NY", "zip": "10705-3201", "ntee": "N99", "ruling": "202312", "deductibility": "1", "assets": 0, "income": 0, "revenue": 0}, {"ein": "990907439", "name": "LONG ISLAND ELITE FASTPITCH INC", "city": "YAPHANK", "state": "NY", "zip": "11980-0000", "ntee": "O50", "ruling": "202403", "deductibility": "1", "assets": 0, "income": 0, "revenue": 0}, {"ein": "990948552", "name": "MOHAWK VALLEY ELITE INC", "city": "FRANKFORT", "state": "NY", "zip": "13340-4223", "ntee": "N62", "ruling": "202402", "deductibility": "1", "assets": 0, "income": 0, "revenue": 0}, {"ein": "991017837", "name": "USA ELITE DEK HOCKEY INC", "city": "FARMINGVILLE", "state": "NY", "zip": "11738-0324", "ntee": "N70", "ruling": "202404", "deductibility": "1", "assets": 3, "income": 204392, "revenue": 204392}, {"ein": "991541526", "name": "MADE MEN ELITE BASKETBALL INC", "city": "SYRACUSE", "state": "NY", "zip": "13215-2401", "ntee": "N62", "ruling": "202403", "deductibility": "1", "assets": 0, "income": 0, "revenue": 0}, {"ein": "992111228", "name": "XTREME ELITE CHEER OF NORTHERN NEW YORK", "city": "ANTWERP", "state": "NY", "zip": "13608-3146", "ntee": "N60", "ruling": "202405", "deductibility": "1", "assets": 0, "income": 0, "revenue": 0}, {"ein": "994217795", "name": "CARIBBEAN ELITE FOUNDATION INC", "city": "BROOKLYN", "state": "NY", "zip": "11230-4166", "ntee": "A99", "ruling": "202409", "deductibility": "1", "assets": 0, "income": 0, "revenue": 0}, {"ein": "995137079", "name": "BRAZILIAN ELITE ATHLETES TRAINING IN USA CORPORATION", "city": "NEW YORK", "state": "NY", "zip": "10016-2953", "ntee": "N71", "ruling": "202410", "deductibility": "1", "assets": 0, "income": 0, "revenue": 0}], "CREEKCENTRAL": [{"ein": "205771342", "name": "ALUMNI ASSOCIATION OF SANDY CREEKCENTRAL SCHOOL DISTRICT INC", "city": "SANDY CREEK", "state": "NY", "zip": "13145-0263", "ntee": "B82", "ruling": "201007", "deductibility": "1", "assets": 0, "income": 0, "revenue": 0}], "THINGS": [{"ein": "206740756", "name": "MAKE GREAT THINGS HAPPEN FOUNDATION", "city": "CLIFTON PARK", "state": "NY", "zip": "12065-2314", "ntee": "T20", "ruling": "200601", "deductibility": "1", "assets": 142273, "income": 27390, "revenue": 0}, {"ein": "272774917", "name": "16 THINGS KIDS CAN DO INC", "city": "NEW YORK", "state": "NY", "zip": "10002-6814", "ntee": "B90", "ruling": "201508", "deductibility": "1", "assets": 0, "income": 0, "revenue": 0}, {"ein": "463196967", "name": "INTL L FRANK BAUM & ALL THINGS OZ HISTORICAL FOUNDATION", "city": "CHITTENANGO", "state": "NY", "zip": "13037-1704", "ntee": "B92", "ruling": "201402", "deductibility": "1", "assets": 485420, "income": 174739, "revenue": 109845}, {"ein": "562435944", "name": "ALL THINGS NEW", "city": "FREEHOLD", "state": "NY", "zip": "12431-5246", "ntee": "X21", "ruling": "200406", "deductibility": "1", "assets": 0, "income": 0, "revenue": 0}, {"ein": "680673815", "name": "WILD THINGS SANCTUARY", "city": "ITHACA", "state": "NY", "zip": "14851-0713", "ntee": "D20", "ruling": "200810", "deductibility": "1", "assets": 0, "income": 0, "revenue": 0}, {"ein": "813784512", "name": "THINGS NETWORK NEW YORK INC", "city": "NEW YORK", "state": "NY", "zip": "10036-5803", "ntee": "S20", "ruling": "201806", "deductibility": "1", "assets": 839, "income": 8619, "revenue": 8619}, {"ein": "814711521", "name": "GREAT THINGS IN STORE INC", "city": "BROOKLYN", "state": "NY", "zip": "11203-5042", "ntee": "A23", "ruling": "202008", "deductibility": "1", "assets": 0, "income": 0, "revenue": 0}, {"ein": "833185975", "name": "ALL THINGS HOME CARE INC", "city": "WANTAGH", "state": "NY", "zip": "11793-3770", "ntee": "E92", "ruling": "202505", "deductibility": "1", "assets": 56652, "income": 239034, "revenue": 239034}, {"ein": "850777542", "name": "SMALL THINGS INC", "city": "WARWICK", "state": "NY", "zip": "10990-1609", "ntee": "T12", "ruling": "202005", "deductibility": "1", "assets": 36623, "income": 82253, "revenue": 0}, {"ein": "861414448", "name": "ALL THINGS WORK INCORPORATED", "city": "JAMAICA", "state": "NY", "zip": "11432-3882", "ntee": "P99", "ruling": "202111", "deductibility": "1", "assets": 0, "income": 0, "revenue": 0}, {"ein": "900370316", "name": "THINGS OF MY VERY OWN INC", "city": "SCHENECTADY", "state": "NY", "zip": "12305-0000", "ntee": "P30", "ruling": "200809", "deductibility": "1", "assets": 2223191, "income": 922424, "revenue": 916246}, {"ein": "991478433", "name": "ALL THINGS SPECIAL INC", "city": "BROOKLYN", "state": "NY", "zip": "11219-1401", "ntee": "O99", "ruling": "202404", "deductibility": "1", "assets": 2131, "income": 292828, "revenue": 292828}], "PIEPER": [{"ein": "208543570", "name": "COSEL-PIEPER FAMILY FOUNDATION", "city": "LLOYD HARBOR", "state": "NY", "zip": "11743-9719", "ntee": "T20", "ruling": "200706", "deductibility": "1", "assets": 336604, "income": 156513, "revenue": 0}], "GLOBALHOOD": [{"ein": "208679614", "name": "GLOBALHOOD INC", "city": "NEW YORK", "state": "NY", "zip": "10030-2462", "ntee": "Q21", "ruling": "202308", "deductibility": "1", "assets": 0, "income": 0, "revenue": 0}], "HBS": [{"ein": "208692566", "name": "HBS WOMENS ASSOCIATION OF GREATER NEW YORK INC", "city": "NEW YORK", "state": "NY", "zip": "10029-6914", "ntee": "B84", "ruling": "200912", "deductibility": "1", "assets": 138307, "income": 94596, "revenue": 85323}, {"ein": "473123605", "name": "HBS ALUMNI ANGELS OF GREATER NEW YORK LLC", "city": "NEW YORK", "state": "NY", "zip": "10185-5315", "ntee": "S40", "ruling": "202107", "deductibility": "2", "assets": 141717, "income": 73630, "revenue": 73630}], "MUSICIAN": [{"ein": "222490832", "name": "GERMAN-AMERICAN MUSICIAN ASSN INC", "city": "CHEEKTOWAGA", "state": "NY", "zip": "14225-0089", "ntee": "A68", "ruling": "200104", "deductibility": "1", "assets": 0, "income": 0, "revenue": 0}, {"ein": "454783541", "name": "SINO-AMERICAN MUSICIAN ASSOCIATION INC", "city": "FLUSHING", "state": "NY", "zip": "11355-2046", "ntee": "A68", "ruling": "201206", "deductibility": "1", "assets": 0, "income": 0, "revenue": 0}, {"ein": "825088999", "name": "MEDICAL MUSICIAN INITIATIVE INC", "city": "NEW YORK", "state": "NY", "zip": "10025-9458", "ntee": "A68", "ruling": "201804", "deductibility": "1", "assets": 6133, "income": 51454, "revenue": 51454}], "YODER": [{"ein": "236844448", "name": "LEONARD R YODER TRUST", "city": "BUFFALO", "state": "NY", "zip": "14240-1504", "ntee": "", "ruling": "198908", "deductibility": "1", "assets": 109063, "income": 55308, "revenue": 0}], "SCHLUMBERGER": [{"ein": "237033142", "name": "SCHLUMBERGER FOUNDATION INC", "city": "NEW YORK", "state": "NY", "zip": "10166-0000", "ntee": "T21", "ruling": "196909", "deductibility": "1", "assets": 26962862, "income": 2963947, "revenue": 0}], "ROTTWEILER": [{"ein": "237351416", "name": "AMERICAN ROTTWEILER CLUB", "city": "JOHNSTOWN", "state": "NY", "zip": "12095-0000", "ntee": "D600", "ruling": "199608", "deductibility": "1", "assets": 213604, "income": 124640, "revenue": 116653}, {"ein": "272550804", "name": "A ROTTWEILER EMPIRE RESCUE INC", "city": "SARATOGA SPGS", "state": "NY", "zip": "12866-4409", "ntee": "D20", "ruling": "201111", "deductibility": "1", "assets": 30365, "income": 52972, "revenue": 52972}], "DJOMBOUGOU": [{"ein": "260200192", "name": "ASSOCIATION FOR THE DEVELOPMENT OFMARENA DJOMBOUGOU", "city": "BROOKLYN", "state": "NY", "zip": "11210-2915", "ntee": "S99", "ruling": "201810", "deductibility": "1", "assets": 0, "income": 0, "revenue": 0}], "MALI": [{"ein": "261805327", "name": "USA MALI CHARITABLE ASSOCIATION OF NYC", "city": "NEW YORK", "state": "NY", "zip": "10027-3010", "ntee": "P50", "ruling": "200809", "deductibility": "1", "assets": 20457, "income": 105080, "revenue": 105080}, {"ein": "261937658", "name": "ASSOCIATION OF THE NATIONALS OF REPUBLIC OF MALI IN THE USA INC", "city": "NEW YORK", "state": "NY", "zip": "10030-0610", "ntee": "P80", "ruling": "200909", "deductibility": "1", "assets": 246678, "income": 30382, "revenue": 30382}, {"ein": "462781076", "name": "FRIENDS OF THE NATIONAL MUSEUM OF MALI INC", "city": "NEW YORK", "state": "NY", "zip": "10023-2641", "ntee": "A51", "ruling": "201308", "deductibility": "1", "assets": 0, "income": 0, "revenue": 0}, {"ein": "471744828", "name": "ASSOCIATION HOPE MALI INC", "city": "BRONX", "state": "NY", "zip": "10459-1450", "ntee": "R03", "ruling": "201911", "deductibility": "1", "assets": 0, "income": 0, "revenue": 0}, {"ein": "933136556", "name": "MADE IN MALI INC", "city": "BROOKLYN", "state": "NY", "zip": "11221-6338", "ntee": "B99", "ruling": "202403", "deductibility": "1", "assets": 0, "income": 0, "revenue": 0}], "WRITINGS": [{"ein": "262083669", "name": "ARTISTS BOOKS AND WRITINGS INC", "city": "NEW YORK", "state": "NY", "zip": "10021-4115", "ntee": "A70", "ruling": "200904", "deductibility": "1", "assets": 0, "income": 0, "revenue": 0}, {"ein": "811893044", "name": "WRITINGS FOUNDATION INC", "city": "BROOKLYN", "state": "NY", "zip": "11218-1294", "ntee": "B99", "ruling": "201711", "deductibility": "1", "assets": 0, "income": 0, "revenue": 0}], "WELCOMING": [{"ein": "263155998", "name": "WELCOMING HOME OUR HEROES LTD", "city": "FARMINGDALE", "state": "NY", "zip": "11735-1016", "ntee": "P20", "ruling": "200903", "deductibility": "1", "assets": 38696, "income": 124434, "revenue": 124434}], "JACOBITE": [{"ein": "264666254", "name": "ST MARYS JACOBITE SYRIAC ORTHODOX CHURCH OF WHITE PLAINS INC", "city": "WHITE PLAINS", "state": "NY", "zip": "10602-8225", "ntee": "X20", "ruling": "201401", "deductibility": "1", "assets": 0, "income": 0, "revenue": 0}, {"ein": "455093088", "name": "ST MARYS MALANKARA JACOBITE SYRIAC ORTHODOX CHURCH", "city": "FLORAL PARK", "state": "NY", "zip": "11001-1515", "ntee": "X20", "ruling": "201502", "deductibility": "1", "assets": 0, "income": 0, "revenue": 0}], "FEUERMAN": [{"ein": "266087264", "name": "KURT FEUERMAN FOUNDATION", "city": "NEW YORK", "state": "NY", "zip": "10075-1709", "ntee": "T20", "ruling": "200712", "deductibility": "1", "assets": 3056698, "income": 1037814, "revenue": 0}, {"ein": "452612088", "name": "CAROLE A FEUERMAN SCULPTURE FOUNDATION", "city": "BROOKLYN", "state": "NY", "zip": "11237-1720", "ntee": "T99", "ruling": "201405", "deductibility": "1", "assets": 121814, "income": 35514, "revenue": 0}], "ACCION": [{"ein": "271110607", "name": "IGLESIA DE IMPACTO PENTECOSTAL PALABRA EN ACCION", "city": "FREEPORT", "state": "NY", "zip": "11520-4004", "ntee": "X21", "ruling": "201107", "deductibility": "1", "assets": 0, "income": 0, "revenue": 0}, {"ein": "273406627", "name": "ORGANIZACION DE MUJERES UNIDAS EN ACCION INC", "city": "BRONX", "state": "NY", "zip": "10452-9512", "ntee": "I70", "ruling": "202006", "deductibility": "1", "assets": 0, "income": 0, "revenue": 0}, {"ein": "365001509", "name": "JOVENES MANHATTAN ACCION INC", "city": "NEW YORK", "state": "NY", "zip": "10035-1738", "ntee": "P40", "ruling": "202501", "deductibility": "1", "assets": 14983, "income": 73970, "revenue": 73970}, {"ein": "454013657", "name": "MINISTERIO INTERNACIONAL FE EN ACCION CORP", "city": "FLORAL PARK", "state": "NY", "zip": "11001-3518", "ntee": "X20", "ruling": "201603", "deductibility": "1", "assets": 0, "income": 0, "revenue": 0}], "UPBEAT": [{"ein": "272232366", "name": "UPBEAT NYC INC", "city": "BRONX", "state": "NY", "zip": "10454-1106", "ntee": "A68", "ruling": "201303", "deductibility": "1", "assets": 199598, "income": 411752, "revenue": 411752}, {"ein": "874475990", "name": "UPBEAT PERFORMANCES LTD", "city": "NEW YORK", "state": "NY", "zip": "10014-1927", "ntee": "A31", "ruling": "202208", "deductibility": "1", "assets": 3587, "income": 13509, "revenue": 13509}], "KINETIC": [{"ein": "273849314", "name": "KINETIC CHRISTIAN CENTER INC", "city": "BROOKLYN", "state": "NY", "zip": "11217-2210", "ntee": "", "ruling": "201701", "deductibility": "1", "assets": 0, "income": 0, "revenue": 0}, {"ein": "933115738", "name": "KINETIC IMPACT INC", "city": "MASPETH", "state": "NY", "zip": "11378-3019", "ntee": "C05", "ruling": "202405", "deductibility": "1", "assets": 0, "income": 0, "revenue": 0}, {"ein": "993099632", "name": "KINETIC LIGHT", "city": "NEWYORK", "state": "NY", "zip": "10009-0000", "ntee": "A20", "ruling": "202502", "deductibility": "1", "assets": 0, "income": 0, "revenue": 0}], "FRAYDA": [{"ein": "274354527", "name": "RONALD & FRAYDA FELDMAN FAMILY FOUNDATION INC", "city": "CHAPPAQUA", "state": "NY", "zip": "10514-1905", "ntee": "T20", "ruling": "201706", "deductibility": "1", "assets": 9668, "income": 1, "revenue": 0}], "GRASSLAND": [{"ein": "274846966", "name": "GRASSLAND BIRD TRUST INC", "city": "SCHUYLERVILLE", "state": "NY", "zip": "12871-1052", "ntee": "C20", "ruling": "201111", "deductibility": "1", "assets": 437930, "income": 278227, "revenue": 278227}], "YELLEN": [{"ein": "276925795", "name": "LUCILLE AND JACK YELLEN FOUNDATION", "city": "BUFFALO", "state": "NY", "zip": "14204-1437", "ntee": "T20", "ruling": "201107", "deductibility": "1", "assets": 963268, "income": 260448, "revenue": 0}], "CALVERT": [{"ein": "300431105", "name": "CALVERT VAUX PRESERVATION ALLIANCE", "city": "STAATSBURG", "state": "NY", "zip": "12580-0213", "ntee": "L30", "ruling": "200712", "deductibility": "1", "assets": 68928, "income": 95409, "revenue": 95409}], "VALOU": [{"ein": "320810997", "name": "VALOU SOCIAL SERVICES INC", "city": "STATEN ISLAND", "state": "NY", "zip": "10310-2324", "ntee": "B40", "ruling": "202507", "deductibility": "1", "assets": 0, "income": 0, "revenue": 0}], "INCORPRATED": [{"ein": "335065500", "name": "SOUTH HORNELL FIRE COMPANY INCORPRATED", "city": "HORNELL", "state": "NY", "zip": "14843-0000", "ntee": "M24", "ruling": "202505", "deductibility": "1", "assets": 0, "income": 0, "revenue": 0}, {"ein": "994873687", "name": "ALRASOOL MOSQUE INCORPRATED", "city": "FAIRPORT", "state": "NY", "zip": "14450-0000", "ntee": "X40", "ruling": "202503", "deductibility": "1", "assets": 0, "income": 0, "revenue": 0}], "SOTE": [{"ein": "364668880", "name": "WILLIAM SOTE FOUNDATION", "city": "BUFFALO", "state": "NY", "zip": "14240-1504", "ntee": "T22", "ruling": "201101", "deductibility": "1", "assets": 3252625, "income": 505294, "revenue": 0}, {"ein": "611608163", "name": "W & T SOTE TUA FBO LUTH HOME", "city": "BUFFALO", "state": "NY", "zip": "14240-1504", "ntee": "T21", "ruling": "201102", "deductibility": "1", "assets": 1808347, "income": 342788, "revenue": 0}], "ROYALHOUSE": [{"ein": "365030413", "name": "ROYALHOUSE CHAPEL BUFFALO MISSION INC", "city": "BATAVIA", "state": "NY", "zip": "14020-3534", "ntee": "X20", "ruling": "202401", "deductibility": "1", "assets": 0, "income": 0, "revenue": 0}, {"ein": "460949625", "name": "ROYALHOUSE CHAPEL NEW YORK MISSION", "city": "BRONX", "state": "NY", "zip": "10457-7330", "ntee": "", "ruling": "201608", "deductibility": "1", "assets": 0, "income": 566651, "revenue": 566651}, {"ein": "811341747", "name": "ROYALHOUSE CHAPEL INTERNATIONAL BROOKLYN", "city": "BROOKLYN", "state": "NY", "zip": "11213-1636", "ntee": "", "ruling": "201608", "deductibility": "1", "assets": 0, "income": 0, "revenue": 0}], "FRATNERAL": [{"ein": "371566980", "name": "FRATNERAL ORDER OF POLICE", "city": "CARMEL", "state": "NY", "zip": "10512-2007", "ntee": "", "ruling": "195210", "deductibility": "1", "assets": 0, "income": 0, "revenue": 0}], "SNOWSLED": [{"ein": "383794842", "name": "THE MOUNTAIN LIONS SNOWSLED CLUB INC", "city": "SARANAC", "state": "NY", "zip": "12981-3451", "ntee": "N68", "ruling": "201904", "deductibility": "1", "assets": 0, "income": 0, "revenue": 0}, {"ein": "810631531", "name": "FRANKLINVILLE SNOWSLED CLUB INC", "city": "FRANKLINVILLE", "state": "NY", "zip": "14737-0022", "ntee": "N68", "ruling": "200606", "deductibility": "2", "assets": 0, "income": 0, "revenue": 0}], "ROODAKI": [{"ein": "421620063", "name": "ROODAKI FOUNDATION INC", "city": "FOREST HILLS", "state": "NY", "zip": "11375-3611", "ntee": "A23", "ruling": "201907", "deductibility": "1", "assets": 0, "income": 0, "revenue": 0}], "JOANNA": [{"ein": "452420876", "name": "PETER AND JOANNA PARK FOUNDATION", "city": "BROOKLYN", "state": "NY", "zip": "11231-4333", "ntee": "T20", "ruling": "201112", "deductibility": "1", "assets": 7785782, "income": 100431, "revenue": 0}, {"ein": "526854625", "name": "JOANNA MCNEIL TR", "city": "NEW YORK", "state": "NY", "zip": "10005-0000", "ntee": "T20Z", "ruling": "199712", "deductibility": "1", "assets": 8887814, "income": 2087139, "revenue": 0}, {"ein": "833363701", "name": "JOANNA SOPHIA FOUNDATION INC", "city": "WHITESTONE", "state": "NY", "zip": "11357-1982", "ntee": "G54", "ruling": "202109", "deductibility": "1", "assets": 0, "income": 0, "revenue": 0}], "LEPERE": [{"ein": "454035400", "name": "KORS LEPERE FOUNDATION", "city": "NEW YORK", "state": "NY", "zip": "10185-5016", "ntee": "T22", "ruling": "201209", "deductibility": "1", "assets": 17743410, "income": 12554871, "revenue": 0}], "KNOLOGY": [{"ein": "454393574", "name": "KNOLOGY LTD", "city": "NEW YORK", "state": "NY", "zip": "10001-2810", "ntee": "V05", "ruling": "201303", "deductibility": "1", "assets": 859397, "income": 1440449, "revenue": 1440449}], "MARKUS": [{"ein": "454735722", "name": "MARKUS GARDENS HOUSING DEVELOPMENT FUND CORPORATION", "city": "NEW YORK", "state": "NY", "zip": "10001-2813", "ntee": "L24", "ruling": "201301", "deductibility": "2", "assets": 18057113, "income": 1031064, "revenue": 1031064}, {"ein": "900036320", "name": "MARKUS & HELEN ORBACH FOUNDATION INC", "city": "BROOKLYN", "state": "NY", "zip": "11235-0000", "ntee": "T22", "ruling": "200301", "deductibility": "1", "assets": 1619, "income": 1, "revenue": 0}, {"ein": "920825943", "name": "MAGIC MARKUS FOUNDATION INC", "city": "GLENDALE", "state": "NY", "zip": "11385-6656", "ntee": "M40", "ruling": "202306", "deductibility": "1", "assets": 0, "income": 0, "revenue": 0}], "ARTWORKS": [{"ein": "455456044", "name": "ARTWORKS NYC INCORPORATED", "city": "NEW YORK", "state": "NY", "zip": "10023-2606", "ntee": "A25", "ruling": "201209", "deductibility": "1", "assets": 651745, "income": 123043, "revenue": 94520}, {"ein": "472074646", "name": "DANSVILLE ARTWORKS INC", "city": "DANSVILLE", "state": "NY", "zip": "14437-0741", "ntee": "A01", "ruling": "201507", "deductibility": "1", "assets": 0, "income": 0, "revenue": 0}, {"ein": "843689441", "name": "SARANAC LAKE ARTWORKS INC", "city": "SARANAC LAKE", "state": "NY", "zip": "12983-0145", "ntee": "A25", "ruling": "202005", "deductibility": "1", "assets": 45765, "income": 116691, "revenue": 116691}], "SPACEY": [{"ein": "462085547", "name": "KEVIN SPACEY FOUNDATION AMERICA", "city": "NEW YORK", "state": "NY", "zip": "10019-4703", "ntee": "A12", "ruling": "201305", "deductibility": "1", "assets": 509274, "income": 19545, "revenue": 19545}], "OJPAC": [{"ein": "462088455", "name": "OJPAC INC", "city": "SPRING VALLEY", "state": "NY", "zip": "10977-0852", "ntee": "W01", "ruling": "201504", "deductibility": "1", "assets": 0, "income": 32253, "revenue": 32253}], "IRAISE": [{"ein": "463299217", "name": "IRAISE GIRLS & BOYS INTERNATIONAL CORPORATION", "city": "BRONX", "state": "NY", "zip": "10467-5726", "ntee": "O50", "ruling": "201411", "deductibility": "1", "assets": 467709, "income": 668106, "revenue": 668106}], "TIMBRE": [{"ein": "463590647", "name": "CONCRETE TIMBRE INC", "city": "NEW YORK", "state": "NY", "zip": "10011-0012", "ntee": "T30", "ruling": "201509", "deductibility": "1", "assets": 0, "income": 0, "revenue": 0}], "CASTELLANOS": [{"ein": "464335630", "name": "CASTELLANOS GRIMA CHARITABLE TRUST", "city": "MANHASSET", "state": "NY", "zip": "11030-1044", "ntee": "T99", "ruling": "201407", "deductibility": "1", "assets": 233345, "income": 61837, "revenue": 0}], "SIGHTLINE": [{"ein": "464588451", "name": "SIGHTLINE ARTS", "city": "NEW YORK", "state": "NY", "zip": "10024-6501", "ntee": "A99", "ruling": "201409", "deductibility": "1", "assets": 0, "income": 0, "revenue": 0}], "WWCL": [{"ein": "465671165", "name": "WWCL INC", "city": "CLAYTON", "state": "NY", "zip": "13624-3222", "ntee": "Z99", "ruling": "201407", "deductibility": "1", "assets": 0, "income": 0, "revenue": 0}], "CUBBY": [{"ein": "465732701", "name": "CUBBY FAVILLE MEMORIAL FUND INC", "city": "GLOVERSVILLE", "state": "NY", "zip": "12078-6301", "ntee": "B12", "ruling": "202402", "deductibility": "1", "assets": 15370, "income": 27676, "revenue": 11386}], "DMF": [{"ein": "471189284", "name": "DMF YOUTH INC", "city": "NEW YORK", "state": "NY", "zip": "10025-4117", "ntee": "A62", "ruling": "201410", "deductibility": "1", "assets": 154136, "income": 417709, "revenue": 417709}], "MAKES": [{"ein": "471247872", "name": "MUSIC THAT MAKES COMMUNITY", "city": "BROOKLYN", "state": "NY", "zip": "11231-5013", "ntee": "A99", "ruling": "201506", "deductibility": "1", "assets": 18699, "income": 101723, "revenue": 94200}, {"ein": "473149884", "name": "HELPING MAKES U HAPPY", "city": "CTR MORICHES", "state": "NY", "zip": "11934-2302", "ntee": "S80", "ruling": "201505", "deductibility": "1", "assets": 224672, "income": 133763, "revenue": 117477}, {"ein": "863928219", "name": "CELLO MAKES EVERYTHING BETTER INC", "city": "NEW YORK", "state": "NY", "zip": "10065-7175", "ntee": "A60", "ruling": "202108", "deductibility": "1", "assets": 0, "income": 0, "revenue": 0}], "MULTIFACETED": [{"ein": "471415011", "name": "MULTIFACETED ORGANIZATION FOR REFORM IN EDUCATION INC", "city": "HIGHLAND MLS", "state": "NY", "zip": "10930-2518", "ntee": "B01", "ruling": "201804", "deductibility": "1", "assets": 0, "income": 0, "revenue": 0}], "PSYCHOEDUCATIONAL": [{"ein": "471605315", "name": "ORGANIZATION FOR PSYCHOEDUCATIONAL TUTORING", "city": "SYRACUSE", "state": "NY", "zip": "13202-2331", "ntee": "B90", "ruling": "201504", "deductibility": "1", "assets": 822663, "income": 226867, "revenue": 0}], "FAT": [{"ein": "472107065", "name": "FAT FRIDAY FOUNDATION", "city": "NEW YORK", "state": "NY", "zip": "10019-3310", "ntee": "A12", "ruling": "201411", "deductibility": "1", "assets": 0, "income": 0, "revenue": 0}, {"ein": "474998491", "name": "FAT KNIGHT THEATRE INC", "city": "NEW YORK", "state": "NY", "zip": "10036-6329", "ntee": "A65", "ruling": "201604", "deductibility": "1", "assets": 3154, "income": 9370, "revenue": 9370}], "MACKESY": [{"ein": "472587937", "name": "MACKESY FAMILY FOUNDATION", "city": "BRONXVILLE", "state": "NY", "zip": "10708-4941", "ntee": "T20", "ruling": "201604", "deductibility": "1", "assets": 24205361, "income": 15663158, "revenue": 0}], "SOLACE": [{"ein": "472629761", "name": "SOLACE HOUSE INC", "city": "LONG ISLAND CITY", "state": "NY", "zip": "11101-5874", "ntee": "A20", "ruling": "201512", "deductibility": "1", "assets": 77450, "income": 662438, "revenue": 546404}, {"ein": "815386236", "name": "SHIELD OF SOLACE", "city": "BINGHAMTON", "state": "NY", "zip": "13905-6047", "ntee": "T31", "ruling": "202210", "deductibility": "1", "assets": 3325, "income": 36150, "revenue": 36150}, {"ein": "861718091", "name": "SOLACE FOUNDATION INC", "city": "QUEENS VLG", "state": "NY", "zip": "11428-2140", "ntee": "B94", "ruling": "202104", "deductibility": "1", "assets": 0, "income": 0, "revenue": 0}], "VANCOUVER": [{"ein": "472632593", "name": "AMERICAN FRIENDS OF VANCOUVER HEBREW ACADEMY", "city": "FLUSHING", "state": "NY", "zip": "11367-2819", "ntee": "X11", "ruling": "201505", "deductibility": "1", "assets": 0, "income": 0, "revenue": 0}], "CRUSH": [{"ein": "473754063", "name": "LONG ISLAND CRUSH FASTPITCH INC", "city": "DEER PARK", "state": "NY", "zip": "11729-1022", "ntee": "P12", "ruling": "202001", "deductibility": "1", "assets": 0, "income": 0, "revenue": 0}, {"ein": "824156527", "name": "CRUSH FOUNDATION", "city": "NEW YORK", "state": "NY", "zip": "10010-3545", "ntee": "A20", "ruling": "202003", "deductibility": "1", "assets": 3959, "income": 35000, "revenue": 0}, {"ein": "880545760", "name": "RITZKIDS CRUSH CANCER 5K", "city": "OSWEGO", "state": "NY", "zip": "13126-1032", "ntee": "N70", "ruling": "202302", "deductibility": "1", "assets": 0, "income": 0, "revenue": 0}], "SOLUIS": [{"ein": "510244834", "name": "AN CLAIDHEAMH SOLUIS INC", "city": "NEW YORK", "state": "NY", "zip": "10019-5004", "ntee": "A230", "ruling": "197209", "deductibility": "1", "assets": 73099255, "income": 10101775, "revenue": 9700397}], "VAD": [{"ein": "611540895", "name": "VAD FOUNDATION", "city": "NEW YORK", "state": "NY", "zip": "10065-6621", "ntee": "T30", "ruling": "200807", "deductibility": "1", "assets": 288536, "income": 227838, "revenue": 134451}], "MORRISSEY": [{"ein": "611755085", "name": "COURT MORRISSEY 1477 CATHOLIC DAUGHTERS OF THE AMERICAS", "city": "ARGYLE", "state": "NY", "zip": "12809-0065", "ntee": "", "ruling": "194603", "deductibility": "1", "assets": 0, "income": 0, "revenue": 0}, {"ein": "932500042", "name": "MORRISSEY FIVE FOUNDATION INC", "city": "CORAM", "state": "NY", "zip": "11727-2434", "ntee": "T50", "ruling": "202310", "deductibility": "1", "assets": 0, "income": 0, "revenue": 0}], "ATTITUDES": [{"ein": "800346030", "name": "TRAINING INDIVIDUALS MAKE BETTER ATTITUDES", "city": "BROOKLYN", "state": "NY", "zip": "11222-7597", "ntee": "J22", "ruling": "201304", "deductibility": "1", "assets": 0, "income": 0, "revenue": 0}, {"ein": "874224209", "name": "ATTITUDES ADOPTION FAMILY SUPPORT SERVICES INC", "city": "DIAMOND POINT", "state": "NY", "zip": "12824-2013", "ntee": "P40", "ruling": "202306", "deductibility": "1", "assets": 0, "income": 0, "revenue": 0}], "MEDITATE": [{"ein": "810810470", "name": "MEDITATE AND CONTEMPLATE ON THIS INC", "city": "STATEN ISLAND", "state": "NY", "zip": "10305-1252", "ntee": "X99", "ruling": "201512", "deductibility": "1", "assets": 0, "income": 0, "revenue": 0}], "FELT": [{"ein": "820932311", "name": "FELT NYC INC", "city": "NEW YORK", "state": "NY", "zip": "11209-2340", "ntee": "B19", "ruling": "201704", "deductibility": "1", "assets": 0, "income": 0, "revenue": 0}], "DSTRELISK": [{"ein": "821899168", "name": "CONG DAMESEK ELIEZER DSTRELISK INC", "city": "BROOKLYN", "state": "NY", "zip": "11211-8511", "ntee": "X30", "ruling": "201709", "deductibility": "1", "assets": 0, "income": 0, "revenue": 0}], "KOOL": [{"ein": "822518515", "name": "KOOL NERD FOUNDATION INC", "city": "MAMARONECK", "state": "NY", "zip": "10543-1334", "ntee": "B80", "ruling": "202004", "deductibility": "1", "assets": 104328, "income": 228353, "revenue": 228353}, {"ein": "843917385", "name": "ITS KOOL 2 B SMART INCORPORATED", "city": "BRONX", "state": "NY", "zip": "10475-5046", "ntee": "", "ruling": "202008", "deductibility": "1", "assets": 0, "income": 0, "revenue": 0}, {"ein": "991488658", "name": "KOOL KIDZ FOUNDATION INC", "city": "SYRACUSE", "state": "NY", "zip": "13205-1610", "ntee": "B90", "ruling": "202403", "deductibility": "1", "assets": 0, "income": 0, "revenue": 0}], "FINISTERE": [{"ein": "822856772", "name": "FINISTERE CHARITABLE FOUNDATION", "city": "NEW YORK", "state": "NY", "zip": "10075-0110", "ntee": "T22", "ruling": "201806", "deductibility": "1", "assets": 29625853, "income": 7364902, "revenue": 0}], "MEOD": [{"ein": "824254898", "name": "YAFE MEOD FOUNDATION", "city": "GREAT NECK", "state": "NY", "zip": "11021-2213", "ntee": "T20", "ruling": "201908", "deductibility": "1", "assets": 1, "income": 1, "revenue": 0}], "MIASNICK": [{"ein": "824492671", "name": "WESLEY ABBOTT MIASNICK MEMORIAL FUND INC", "city": "NEW CITY", "state": "NY", "zip": "10956-6336", "ntee": "B82", "ruling": "201905", "deductibility": "1", "assets": 250, "income": 0, "revenue": 0}], "REBBIS": [{"ein": "825337082", "name": "CONGREGATION EAST SIDE REBBIS KLOIZ CHEVRAH BNEI YITZCHAK BOYAN INC", "city": "NEW YORK", "state": "NY", "zip": "10002-5660", "ntee": "X30", "ruling": "201003", "deductibility": "1", "assets": 0, "income": 0, "revenue": 0}], "JML": [{"ein": "831708645", "name": "JML HOPE FOUNDATION INC", "city": "NEW YORK", "state": "NY", "zip": "10023-4139", "ntee": "T19", "ruling": "201905", "deductibility": "1", "assets": 44061, "income": 96184, "revenue": 0}], "JCF": [{"ein": "832530013", "name": "JCF MINISTRY INTERNATIONAL", "city": "LIVERPOOL", "state": "NY", "zip": "13090-1004", "ntee": "X20", "ruling": "202202", "deductibility": "1", "assets": 0, "income": 0, "revenue": 0}], "KELLERMANN": [{"ein": "833430042", "name": "MICHAEL KELLERMANN FOUNDATION CORP", "city": "HOWARD BEACH", "state": "NY", "zip": "11414-4053", "ntee": "P20", "ruling": "201906", "deductibility": "1", "assets": 1, "income": 0, "revenue": 0}], "SCI2": [{"ein": "833861912", "name": "SCI2 CORP", "city": "JERICHO", "state": "NY", "zip": "11753-1606", "ntee": "T99", "ruling": "201907", "deductibility": "1", "assets": 345877, "income": 9902, "revenue": 9902}], "UNDISCOVERED": [{"ein": "834320978", "name": "UNDISCOVERED WORKS INC", "city": "NEW YORK", "state": "NY", "zip": "10032-5307", "ntee": "A65", "ruling": "201911", "deductibility": "1", "assets": 0, "income": 0, "revenue": 0}], "CONVICTED": [{"ein": "844884133", "name": "FAMILIES AND FRIENDS OF THE WRONGLY CONVICTED INC", "city": "BROOKLYN", "state": "NY", "zip": "11238-3229", "ntee": "P20", "ruling": "202006", "deductibility": "1", "assets": 0, "income": 0, "revenue": 0}], "BUBBLES": [{"ein": "851564157", "name": "SMALL BUBBLES", "city": "BROOKLYN", "state": "NY", "zip": "11229-2915", "ntee": "O50", "ruling": "202008", "deductibility": "1", "assets": 0, "income": 0, "revenue": 0}], "BRUCIES": [{"ein": "851737136", "name": "BRUCIES ANGELS", "city": "SMITHTOWN", "state": "NY", "zip": "11787-1634", "ntee": "D99", "ruling": "202007", "deductibility": "1", "assets": 0, "income": 0, "revenue": 0}], "TROUBLED": [{"ein": "852838725", "name": "HELPING OUR TROUBLED TEENS HOTT INC", "city": "BROOKLYN", "state": "NY", "zip": "11208-5162", "ntee": "F99", "ruling": "202012", "deductibility": "1", "assets": 0, "income": 0, "revenue": 0}], "RZEMIENIECKI": [{"ein": "853806918", "name": "ALEKSANDER R RZEMIENIECKI MEMORIAL FUND", "city": "ELLENVILLE", "state": "NY", "zip": "12428-5813", "ntee": "B82", "ruling": "202103", "deductibility": "1", "assets": 12831, "income": 26812, "revenue": 12437}], "LENIYEI": [{"ein": "854208209", "name": "KIPAS EZRAH LENIYEI ERETZ YISROEL INC", "city": "BROOKLYN", "state": "NY", "zip": "11205-1503", "ntee": "X30", "ruling": "202105", "deductibility": "1", "assets": 0, "income": 0, "revenue": 0}], "SGC": [{"ein": "861172058", "name": "SGC JUNIOR GOLF INC", "city": "WINDHAM", "state": "NY", "zip": "12496-5817", "ntee": "N6A", "ruling": "200703", "deductibility": "1", "assets": 0, "income": 0, "revenue": 0}], "LEADS": [{"ein": "862312400", "name": "LOVE LEADS US INCORPORATED", "city": "LIMA", "state": "NY", "zip": "14485-9463", "ntee": "R99", "ruling": "202107", "deductibility": "1", "assets": 0, "income": 0, "revenue": 0}, {"ein": "871645485", "name": "SHE LEADS STEM INC", "city": "CONGERS", "state": "NY", "zip": "10920-1521", "ntee": "B01", "ruling": "202110", "deductibility": "1", "assets": 0, "income": 0, "revenue": 0}], "RECREATE": [{"ein": "863632836", "name": "RECREATE TUPPER LAKE INC", "city": "TUPPER LAKE", "state": "NY", "zip": "12986-0110", "ntee": "N12", "ruling": "202202", "deductibility": "1", "assets": 7287, "income": 500, "revenue": 500}], "HAGEMANN": [{"ein": "870858823", "name": "THE PHILIP H HAGEMANN FOUNDATION INC", "city": "NEW YORK", "state": "NY", "zip": "10010-0000", "ntee": "", "ruling": "202111", "deductibility": "1", "assets": 830346, "income": 248230, "revenue": 0}], "PORTELLE": [{"ein": "871669755", "name": "CAPTAIN FRANK A PORTELLE MEMORIAL FOUNDATION INC", "city": "NANUET", "state": "NY", "zip": "10954-3347", "ntee": "E80", "ruling": "202111", "deductibility": "1", "assets": 39791, "income": 78160, "revenue": 0}], "BRAILE": [{"ein": "871854042", "name": "BRAILE REVIVAL LEAGUE OF NEW YORK INC", "city": "MOUNT VERNON", "state": "NY", "zip": "10552-2716", "ntee": "G41", "ruling": "202206", "deductibility": "1", "assets": 0, "income": 0, "revenue": 0}], "NAALAH": [{"ein": "872102694", "name": "NAALAH AT YERUSHALAYIM INC", "city": "SPRING VALLEY", "state": "NY", "zip": "10977-0000", "ntee": "T20", "ruling": "202110", "deductibility": "1", "assets": 1898, "income": 49771, "revenue": 0}], "BEZRAS": [{"ein": "880928031", "name": "CONGREGATION BEZRAS HASHEM", "city": "BROOKLYN", "state": "NY", "zip": "11211-7405", "ntee": "X30", "ruling": "202207", "deductibility": "1", "assets": 0, "income": 0, "revenue": 0}], "TSDPAC": [{"ein": "882385030", "name": "TSDPAC BOOSTERS INC", "city": "MARCELLUS", "state": "NY", "zip": "13108-9740", "ntee": "N11", "ruling": "202411", "deductibility": "1", "assets": 0, "income": 0, "revenue": 0}], "LRG": [{"ein": "883564697", "name": "LRG CHARITABLE FOUNDATION", "city": "BROOKLYN", "state": "NY", "zip": "11210-4507", "ntee": "T20", "ruling": "202208", "deductibility": "1", "assets": 2021, "income": 1200, "revenue": 0}], "B9": [{"ein": "900314993", "name": "B9 PLASTICS INC", "city": "ONTARIO", "state": "NY", "zip": "14519-9012", "ntee": "Q30", "ruling": "200803", "deductibility": "1", "assets": 0, "income": 0, "revenue": 0}], "TODARO": [{"ein": "900436659", "name": "ANTHONY TODARO FOUNDATION", "city": "DEER PARK", "state": "NY", "zip": "11729-2126", "ntee": "G12", "ruling": "200903", "deductibility": "1", "assets": 0, "income": 0, "revenue": 0}], "KNESSEPH": [{"ein": "920194342", "name": "CONGREGATION KNESSEPH MORDICHAI INC", "city": "MONSEY", "state": "NY", "zip": "10952-2619", "ntee": "L20", "ruling": "200311", "deductibility": "1", "assets": 0, "income": 0, "revenue": 0}], "CIRCONCIS": [{"ein": "920975286", "name": "PEUPLE CIRCONCIS INC", "city": "KINGS PARK", "state": "NY", "zip": "11754-4412", "ntee": "X19", "ruling": "202307", "deductibility": "1", "assets": 0, "income": 0, "revenue": 0}], "MORPHEUS": [{"ein": "921427105", "name": "MORPHEUS FOUNDATION INC", "city": "NEW YORK", "state": "NY", "zip": "10010-4740", "ntee": "T50", "ruling": "202301", "deductibility": "1", "assets": 0, "income": 0, "revenue": 0}], "TECH4TEENS": [{"ein": "922392969", "name": "TECH4TEENS", "city": "ASTORIA", "state": "NY", "zip": "11102-1545", "ntee": "W99", "ruling": "202306", "deductibility": "1", "assets": 0, "income": 0, "revenue": 0}], "SVARREHALLAWORLD": [{"ein": "922993660", "name": "SVARREHALLAWORLD INC", "city": "NEW YORK", "state": "NY", "zip": "10021-4266", "ntee": "P20", "ruling": "202304", "deductibility": "1", "assets": 2112, "income": 113, "revenue": 113}], "OBUNTU": [{"ein": "931419352", "name": "OBUNTU FOUNDATION", "city": "BROOKLYN", "state": "NY", "zip": "11201-4410", "ntee": "Q30", "ruling": "202403", "deductibility": "1", "assets": 0, "income": 0, "revenue": 0}], "GBP": [{"ein": "931692243", "name": "CONGREGATION CHABURAS GBP", "city": "BROOKLYN", "state": "NY", "zip": "11219-1682", "ntee": "X30", "ruling": "202401", "deductibility": "1", "assets": 0, "income": 0, "revenue": 0}], "TYRAS": [{"ein": "932948736", "name": "GEORGE TYRAS CHARITABLE FOUNDATION", "city": "BRONX", "state": "NY", "zip": "10474-6610", "ntee": "A12", "ruling": "202310", "deductibility": "1", "assets": 0, "income": 0, "revenue": 0}], "ANNIHILATE": [{"ein": "990715477", "name": "518 ANNIHILATE WRESTLING CLUB INC", "city": "HOOSICK FALLS", "state": "NY", "zip": "12090-1833", "ntee": "N60", "ruling": "202404", "deductibility": "1", "assets": 0, "income": 0, "revenue": 0}], "CHAREIDI": [{"ein": "990916822", "name": "INTERNATIONAL ASSOCIATION OF CHAREIDI RABBIS AND CONGREGATIONS", "city": "FAR ROCKAWAY", "state": "NY", "zip": "11691-5436", "ntee": "X30", "ruling": "202403", "deductibility": "1", "assets": 0, "income": 0, "revenue": 0}], "SIDELINE": [{"ein": "990982647", "name": "SIDELINE HEALTH INCORPORATED", "city": "BROOKLYN", "state": "NY", "zip": "11231-4911", "ntee": "F99", "ruling": "202402", "deductibility": "1", "assets": 0, "income": 0, "revenue": 0}], "DIEM": [{"ein": "991086029", "name": "CARPE DIEM THEATER INC", "city": "BALLSTON SPA", "state": "NY", "zip": "12020-3724", "ntee": "A65", "ruling": "202503", "deductibility": "1", "assets": 0, "income": 0, "revenue": 0}], "GERMAIN": [{"ein": "991699633", "name": "GERMAIN CONSULTING SERVICES FOUNDATION CORP", "city": "BROOKLYN", "state": "NY", "zip": "11234-2507", "ntee": "E01", "ruling": "202411", "deductibility": "1", "assets": 0, "income": 0, "revenue": 0}], "JUSTBIRTH": [{"ein": "992137832", "name": "JUSTBIRTH SPACE INC", "city": "BROOKLYN", "state": "NY", "zip": "11233-1101", "ntee": "E40", "ruling": "202404", "deductibility": "1", "assets": 0, "income": 0, "revenue": 0}]}