{"RAILWAY": [{"ein": "010585693", "name": "THE METROPOLITIAN RAILWAY CLUB OF NEW YORK", "city": "NEW YORK", "state": "NY", "zip": "10001-4606", "ntee": "N50", "ruling": "200305", "deductibility": "2", "assets": 358786, "income": 152226, "revenue": 152226}, {"ein": "061568836", "name": "LONG ISLAND GARDEN RAILWAY SOCIETY INC", "city": "N MASSAPEQUA", "state": "NY", "zip": "11758-0001", "ntee": "N50", "ruling": "200609", "deductibility": "2", "assets": 0, "income": 0, "revenue": 0}, {"ein": "113132226", "name": "INDEPENDENT RAILWAY SUPERVISORS ASSOCIATION", "city": "MOUNT SINAI", "state": "NY", "zip": "11766-2719", "ntee": "", "ruling": "000000", "deductibility": "2", "assets": 400710, "income": 284530, "revenue": 284530}, {"ein": "113183739", "name": "INDEPENDENT RAILWAY SUPERVISORS ASSOCIATION - INTERNATIONAL", "city": "ELMONT", "state": "NY", "zip": "11003-1727", "ntee": "S41Z", "ruling": "199501", "deductibility": "2", "assets": 183174, "income": 59186, "revenue": 59186}, {"ein": "141579630", "name": "ONTARIO & WESTERN RAILWAY HISTORICAL SOCIETY", "city": "MIDDLETOWN", "state": "NY", "zip": "10940-0713", "ntee": "", "ruling": "197809", "deductibility": "1", "assets": 208320, "income": 67796, "revenue": 67796}, {"ein": "141678830", "name": "TRI-STATES RAILWAY PRESERVATION SOCIETY", "city": "PORT JERVIS", "state": "NY", "zip": "12771-4611", "ntee": "A80", "ruling": "202111", "deductibility": "1", "assets": 0, "income": 0, "revenue": 0}, {"ein": "141703633", "name": "ROSCOE O&W RAILWAY MUSEUM", "city": "ROSCOE", "state": "NY", "zip": "12776-0305", "ntee": "", "ruling": "198909", "deductibility": "1", "assets": 0, "income": 0, "revenue": 0}, {"ein": "141742815", "name": "NORTH CREEK RAILWAY DEPOT PRESERVATION ASSOCIATION", "city": "NORTH CREEK", "state": "NY", "zip": "12853-0156", "ntee": "A80Z", "ruling": "199211", "deductibility": "1", "assets": 384611, "income": 53415, "revenue": 53415}, {"ein": "141779168", "name": "MIDDLETOWN AND NEW JERSEY RAILWAY HISTORICAL SOCIETY", "city": "NEW HAMPTON", "state": "NY", "zip": "10958-0848", "ntee": "A80", "ruling": "201408", "deductibility": "1", "assets": 0, "income": 0, "revenue": 0}, {"ein": "161199659", "name": "UTICA & MOHAWK VALLEY CHAPTER OF THE NAT RAILWAY HISTORICAL SOC INC", "city": "UTICA", "state": "NY", "zip": "13501-1229", "ntee": "", "ruling": "198712", "deductibility": "1", "assets": 0, "income": 0, "revenue": 0}, {"ein": "161270750", "name": "NATIONAL ASSOCIATION OF RETIRED & VETERAN RAILWAY EMPLOYEES", "city": "CLEVELAND", "state": "NY", "zip": "13042-2208", "ntee": "", "ruling": "194508", "deductibility": "2", "assets": 0, "income": 0, "revenue": 0}, {"ein": "161292512", "name": "SUSQUEHANNA VALLEY RAILWAY HISTORICAL SOCIETY", "city": "BINGHAMTON", "state": "NY", "zip": "13902-2415", "ntee": "", "ruling": "198707", "deductibility": "1", "assets": 16958, "income": 2357, "revenue": 2357}, {"ein": "161505057", "name": "UNADILLA VALLEY RAILWAY SOCIETY & MUSEUM", "city": "NEW BERLIN", "state": "NY", "zip": "13411-0751", "ntee": "Z99", "ruling": "199811", "deductibility": "1", "assets": 0, "income": 0, "revenue": 0}, {"ein": "161535557", "name": "ELMIRA RAILWAY HISTORICAL SOCIETY INC", "city": "ELMIRA", "state": "NY", "zip": "14903-0232", "ntee": "A54", "ruling": "199902", "deductibility": "1", "assets": 0, "income": 0, "revenue": 0}, {"ein": "222328484", "name": "WESTERN NEW YORK RAILWAY HISTORICAL SOCIETY INC", "city": "BUFFALO", "state": "NY", "zip": "14210-2110", "ntee": "", "ruling": "198609", "deductibility": "1", "assets": 5448293, "income": 255394, "revenue": 213935}, {"ein": "222573495", "name": "LEATHERSTOCKING RAILWAY HISTORICAL SOCIETY INC", "city": "ONEONTA", "state": "NY", "zip": "13820-0681", "ntee": "A800", "ruling": "198505", "deductibility": "1", "assets": 509812, "income": 373925, "revenue": 338574}, {"ein": "223074470", "name": "ADIRONDACK RAILWAY PRESERVATION SOCIETY", "city": "UTICA", "state": "NY", "zip": "13501-1215", "ntee": "", "ruling": "199310", "deductibility": "1", "assets": 2853303, "income": 2584845, "revenue": 2503455}, {"ein": "237048148", "name": "MOHAWK AND HUDSON CHAPTER OF THE NATIONAL RAILWAY HISTORICAL SOCIET", "city": "BALLSTON LAKE", "state": "NY", "zip": "12019-1703", "ntee": "", "ruling": "197003", "deductibility": "1", "assets": 0, "income": 0, "revenue": 0}, {"ein": "237106601", "name": "RAILWAY HISTORICAL SOCIETY OF NORTHERN N Y INC", "city": "CROGHAN", "state": "NY", "zip": "13327-0317", "ntee": "A50", "ruling": "197104", "deductibility": "1", "assets": 239493, "income": 20122, "revenue": 14617}, {"ein": "237108003", "name": "LONG ISLAND SUNRISE TRAIL CHPTR OF NATL RAILWAY HISTORICL SOCIETY INC", "city": "BABYLON", "state": "NY", "zip": "11702-0507", "ntee": "", "ruling": "198905", "deductibility": "1", "assets": 0, "income": 0, "revenue": 0}, {"ein": "363631720", "name": "NATIONAL ASSOCIATION OF RETIRED & VETERAN RAILWAY EMPLOYEES INC", "city": "UTICA", "state": "NY", "zip": "13502-1632", "ntee": "", "ruling": "194508", "deductibility": "2", "assets": 0, "income": 0, "revenue": 0}, {"ein": "830941200", "name": "NEW YORK CHAPTER OF THE RAILWAY & LOCOMOTIVE HISTORICAL SOCIETY INC", "city": "YONKERS", "state": "NY", "zip": "10703-2206", "ntee": "A80", "ruling": "201808", "deductibility": "1", "assets": 0, "income": 0, "revenue": 0}, {"ein": "923203658", "name": "LONG ISLAND GARDEN RAILWAY SOCIETY OF NY INC", "city": "N MASSAPEQUA", "state": "NY", "zip": "11758-0001", "ntee": "P12", "ruling": "202304", "deductibility": "1", "assets": 0, "income": 0, "revenue": 0}, {"ein": "932967186", "name": "TEXAS RAILWAY PRESERVATION ASSOCIATION", "city": "BLOOMFIELD", "state": "NY", "zip": "14469-9226", "ntee": "A82", "ruling": "202312", "deductibility": "1", "assets": 0, "income": 0, "revenue": 0}], "LAWRENCE": [{"ein": "010604413", "name": "FOUNDATION OF ST LAWRENCE NYSARC INC", "city": "CANTON", "state": "NY", "zip": "13617-3738", "ntee": "P11", "ruling": "200210", "deductibility": "1", "assets": 1884236, "income": 24093, "revenue": 24093}, {"ein": "030564132", "name": "ST LAWRENCE COUNTY UNDERWATER RECOVERY DIVE TEAM", "city": "OGDENSBURG", "state": "NY", "zip": "13669-4168", "ntee": "M23", "ruling": "201810", "deductibility": "1", "assets": 0, "income": 0, "revenue": 0}, {"ein": "061671965", "name": "ST LAWRENCE COUNTY SNOWMOBILE ASSOCIATION INC", "city": "CANTON", "state": "NY", "zip": "13617-0421", "ntee": "N68", "ruling": "200803", "deductibility": "1", "assets": 834386, "income": 243884, "revenue": 243884}, {"ein": "100708230", "name": "ST LAWRENCE COUNTY CANCER FUND INC", "city": "CANTON", "state": "NY", "zip": "13617-0291", "ntee": "G123", "ruling": "200309", "deductibility": "1", "assets": 73210, "income": 64549, "revenue": 59781}, {"ein": "110988860", "name": "LAWRENCE BEACH CLUB INC", "city": "ATLANTIC BCH", "state": "NY", "zip": "11509-1639", "ntee": "", "ruling": "193406", "deductibility": "2", "assets": 6148319, "income": 5399589, "revenue": 4611227}, {"ein": "110988920", "name": "LAWRENCE CEDARHURST FIRE DEPT INC", "city": "LAWRENCE", "state": "NY", "zip": "11559-1835", "ntee": "M24", "ruling": "200904", "deductibility": "1", "assets": 3008824, "income": 1638759, "revenue": 1638759}, {"ein": "111618029", "name": "LAWRENCE CEDARHURST VOLUNTEER AND EXEMPT FIREMEN BENEVOLENT ASSO INC", "city": "LAWRENCE", "state": "NY", "zip": "11559-0000", "ntee": "", "ruling": "198601", "deductibility": "2", "assets": 1650811, "income": 300808, "revenue": 260960}, {"ein": "112583052", "name": "LAWRENCE GOLF CLUB INC", "city": "LAWRENCE", "state": "NY", "zip": "11559-1900", "ntee": "", "ruling": "199112", "deductibility": "2", "assets": 36920, "income": 86481, "revenue": 86481}, {"ein": "112705528", "name": "HEWLETT-LAWRENCE SOCCER CLUB INC", "city": "HEWLETT", "state": "NY", "zip": "11557-0207", "ntee": "", "ruling": "198411", "deductibility": "1", "assets": 250, "income": 355757, "revenue": 355757}, {"ein": "113026476", "name": "CHURCH OF ST LAWRENCE OF CANTERBURY", "city": "DIX HILLS", "state": "NY", "zip": "11746-4612", "ntee": "", "ruling": "197206", "deductibility": "1", "assets": 0, "income": 0, "revenue": 0}, {"ein": "113028408", "name": "LAWRENCE WOODMERE ACADEMY", "city": "WOODMERE", "state": "NY", "zip": "11598-2068", "ntee": "B99Z", "ruling": "199201", "deductibility": "1", "assets": 4033544, "income": 12826465, "revenue": 12347108}, {"ein": "113320764", "name": "GARDEN CLUB OF LAWRENCE", "city": "LAWRENCE", "state": "NY", "zip": "11559-0627", "ntee": "C42", "ruling": "201905", "deductibility": "1", "assets": 55625, "income": 76333, "revenue": 48865}, {"ein": "113434523", "name": "CHRISTOPHER B LAWRENCE YOUTH MEMORIAL FUND", "city": "HOLLIS", "state": "NY", "zip": "11423-2724", "ntee": "B82", "ruling": "199908", "deductibility": "1", "assets": 0, "income": 0, "revenue": 0}, {"ein": "113545707", "name": "LAWRENCE AND MARILYN KAPLAN FOUNDATION", "city": "SYOSSET", "state": "NY", "zip": "11791-6516", "ntee": "T20", "ruling": "200006", "deductibility": "1", "assets": 293001, "income": 29989, "revenue": 0}, {"ein": "131740022", "name": "LAWRENCE COMMUNITY HEALTH SERVICES", "city": "NEW YORK", "state": "NY", "zip": "10017-3140", "ntee": "E92Z", "ruling": "195907", "deductibility": "1", "assets": 30786924, "income": 12637467, "revenue": 12521821}, {"ein": "132880731", "name": "THE LAWRENCE FOUNDATION", "city": "ORIENT", "state": "NY", "zip": "11957-1470", "ntee": "", "ruling": "197708", "deductibility": "1", "assets": 75285773, "income": 18917881, "revenue": 0}, {"ein": "132918230", "name": "CHARLES LAWRENCE KEITH & CLARA MILLER FOUNDATION", "city": "DIX HILLS", "state": "NY", "zip": "11746-5743", "ntee": "", "ruling": "197802", "deductibility": "1", "assets": 2243465, "income": 11948725, "revenue": 0}, {"ein": "133124700", "name": "LAWRENCE RUBEN FOUNDATION", "city": "NEW YORK", "state": "NY", "zip": "10022-1615", "ntee": "", "ruling": "198208", "deductibility": "1", "assets": 4626160, "income": 1306874, "revenue": 0}, {"ein": "133317659", "name": "ALICE LAWRENCE FOUNDATION INC", "city": "NEW YORK", "state": "NY", "zip": "10017-0000", "ntee": "", "ruling": "198612", "deductibility": "1", "assets": 29827524, "income": 39084487, "revenue": 0}, {"ein": "133365078", "name": "THE ADELA AND LAWRENCE ELOW FOUNDATION C/O LAWRENCE ELOW", "city": "KATONAH", "state": "NY", "zip": "10536-3845", "ntee": "", "ruling": "198701", "deductibility": "1", "assets": 1361296, "income": 148512, "revenue": 0}, {"ein": "133415158", "name": "LAWRENCE CARE INC", "city": "BRONXVILLE", "state": "NY", "zip": "10708-3403", "ntee": "E70Z", "ruling": "199004", "deductibility": "1", "assets": 411334, "income": 0, "revenue": 0}, {"ein": "133435718", "name": "LAWRENCE FRIEDLAND FOUNDATION INC", "city": "NEW YORK", "state": "NY", "zip": "10022-1606", "ntee": "", "ruling": "198805", "deductibility": "1", "assets": 1477130, "income": 4084289, "revenue": 0}, {"ein": "133731987", "name": "LAWRENCE AND ELIZABETH KRULIK FOUNDATION", "city": "COMMACK", "state": "NY", "zip": "11725-0000", "ntee": "T20Z", "ruling": "199508", "deductibility": "1", "assets": 201996, "income": 30298, "revenue": 0}, {"ein": "133946616", "name": "LAWRENCE & CAROL SAPER FOUNDATION INC", "city": "NEW YORK", "state": "NY", "zip": "10036-0000", "ntee": "X20Z", "ruling": "199805", "deductibility": "1", "assets": 12770361, "income": 8938907, "revenue": 0}, {"ein": "136099026", "name": "JOHN S AND FLORENCE G LAWRENCE FOUNDATION INC", "city": "NEW YORK", "state": "NY", "zip": "10119-0029", "ntee": "", "ruling": "195706", "deductibility": "1", "assets": 3489337, "income": 2135332, "revenue": 0}, {"ein": "136113586", "name": "LAWRENCE M GELB FOUNDATION INC", "city": "NEW YORK", "state": "NY", "zip": "10022-2600", "ntee": "T20J", "ruling": "195809", "deductibility": "1", "assets": 850411, "income": 94568, "revenue": 0}, {"ein": "136183947", "name": "LAWRENCE AND ALICE VALENSTEIN FUND INC", "city": "NEW YORK", "state": "NY", "zip": "10017-0000", "ntee": "", "ruling": "196509", "deductibility": "1", "assets": 436276, "income": 160400, "revenue": 0}, {"ein": "141492922", "name": "ST LAWRENCE COUNTY COMMUNITY DEVELOPMENT PROGRAM INC", "city": "CANTON", "state": "NY", "zip": "13617-3763", "ntee": "P200", "ruling": "197002", "deductibility": "1", "assets": 2439421, "income": 6840631, "revenue": 6840631}, {"ein": "141646239", "name": "NORTH LAWRENCE VOLUNTEER FIRE COMPANY INC", "city": "N LAWRENCE", "state": "NY", "zip": "12967-0158", "ntee": "M24", "ruling": "200611", "deductibility": "1", "assets": 0, "income": 0, "revenue": 0}, {"ein": "150532239", "name": "ST LAWRENCE UNIVERSITY", "city": "CANTON", "state": "NY", "zip": "13617-1423", "ntee": "B42", "ruling": "193304", "deductibility": "1", "assets": 688141967, "income": 233366401, "revenue": 211574291}, {"ein": "150611509", "name": "ST LAWRENCE VALLEY EDUCATIONAL TELEVISION COUNCIL INC", "city": "WATERTOWN", "state": "NY", "zip": "13601-2210", "ntee": "A320", "ruling": "196904", "deductibility": "1", "assets": 3008927, "income": 3436058, "revenue": 3248830}, {"ein": "156024892", "name": "THE MEDICAL SOCIETY OF THE COUNTY OF ST LAWRENCE INC", "city": "POTSDAM", "state": "NY", "zip": "13676-0962", "ntee": "E03", "ruling": "200011", "deductibility": "2", "assets": 0, "income": 0, "revenue": 0}, {"ein": "160863743", "name": "ST LAWRENCE CHURCH", "city": "ROCHESTER", "state": "NY", "zip": "14626-1031", "ntee": "", "ruling": "194603", "deductibility": "1", "assets": 0, "income": 0, "revenue": 0}, {"ein": "160923054", "name": "ST LAWRENCE COUNTY CHAMBER OF COMMERCE INC", "city": "CANTON", "state": "NY", "zip": "13617-2208", "ntee": "", "ruling": "196902", "deductibility": "2", "assets": 1199288, "income": 885507, "revenue": 857302}, {"ein": "160977790", "name": "ASSOCIATED COLLEGES OF THE ST LAWRENCE VALLEY", "city": "POTSDAM", "state": "NY", "zip": "13676-0000", "ntee": "", "ruling": "197012", "deductibility": "1", "assets": 169878, "income": 92044, "revenue": 92044}, {"ein": "160990310", "name": "ST LAWRENCE VALLEY SPCA", "city": "OGDENSBURG", "state": "NY", "zip": "13669-0594", "ntee": "D200", "ruling": "197204", "deductibility": "1", "assets": 1552154, "income": 184907, "revenue": 184817}, {"ein": "161126230", "name": "SOUTH ST LAWRENCE PLANNING CORP", "city": "STAR LAKE", "state": "NY", "zip": "13690-0006", "ntee": "L20Z", "ruling": "198008", "deductibility": "1", "assets": 850576, "income": 206176, "revenue": 206176}, {"ein": "161134631", "name": "NYSARC INC ARC JEFFERSON-ST LAWRENCE", "city": "WATERTOWN", "state": "NY", "zip": "13601-0041", "ntee": "P820", "ruling": "198003", "deductibility": "1", "assets": 83614653, "income": 84952576, "revenue": 84743332}, {"ein": "161182249", "name": "ST LAWRENCE VALLEY RENEWAL HOUSE FOR VICTIMS OF FAMILY VIOLENCE INC", "city": "CANTON", "state": "NY", "zip": "13617-1134", "ntee": "", "ruling": "198302", "deductibility": "1", "assets": 1677669, "income": 1296024, "revenue": 1289007}, {"ein": "161330149", "name": "WEST MONROE HISTORICAL SOCIETY C/O LAWRENCE HERBERT", "city": "WEST MONROE", "state": "NY", "zip": "13167-0053", "ntee": "A82Z", "ruling": "199610", "deductibility": "1", "assets": 93099, "income": 7411, "revenue": 6826}, {"ein": "161330880", "name": "ST LAWRENCE COUNTY ARTS COUNCIL", "city": "POTSDAM", "state": "NY", "zip": "13676-1264", "ntee": "T20Z", "ruling": "199004", "deductibility": "1", "assets": 2198279, "income": 1145138, "revenue": 1145138}, {"ein": "161389166", "name": "ST LAWRENCE CHILD CARE COUNCIL INC", "city": "OGDENSBURG", "state": "NY", "zip": "13669-1404", "ntee": "O50", "ruling": "200708", "deductibility": "1", "assets": 694624, "income": 501004, "revenue": 501004}, {"ein": "161400279", "name": "ST LAWRENCE VALLEY SPORTSMENS CLUB INC", "city": "OGDENSBURG", "state": "NY", "zip": "13669-0025", "ntee": "", "ruling": "199209", "deductibility": "2", "assets": 0, "income": 0, "revenue": 0}, {"ein": "161470471", "name": "ST LAWRENCE VALLEY PADDLERS INC", "city": "CANTON", "state": "NY", "zip": "13617-0616", "ntee": "N50", "ruling": "202301", "deductibility": "1", "assets": 0, "income": 0, "revenue": 0}, {"ein": "161512737", "name": "ST LAWRENCE-LEWIS BOCES TEACHERS ASSOC BENEFIT TR", "city": "WINTHROP", "state": "NY", "zip": "13697-3168", "ntee": "Y43", "ruling": "199903", "deductibility": "2", "assets": 150477, "income": 147191, "revenue": 147191}, {"ein": "161555167", "name": "ST LAWRENCE VALLEY LABOR MANAGEMENT COORDINATION COMMITTEE", "city": "WATERTOWN", "state": "NY", "zip": "13601-2145", "ntee": "J40", "ruling": "199907", "deductibility": "2", "assets": 56916, "income": 52781, "revenue": 52781}, {"ein": "161582283", "name": "ST LAWRENCE COUNTY HEALTH INITIATIVE INC", "city": "POTSDAM", "state": "NY", "zip": "13676-5069", "ntee": "E70", "ruling": "200008", "deductibility": "1", "assets": 593098, "income": 1354416, "revenue": 1353527}, {"ein": "161608701", "name": "BRYAN M LAWRENCE FOUNDATION", "city": "BUFFALO", "state": "NY", "zip": "14215-6490", "ntee": "G123", "ruling": "200312", "deductibility": "1", "assets": 0, "income": 0, "revenue": 0}, {"ein": "200479127", "name": "ST LAWRENCE LEADERSHIP INSTITUTE INC", "city": "CANTON", "state": "NY", "zip": "13617-2201", "ntee": "B02", "ruling": "201803", "deductibility": "1", "assets": 0, "income": 0, "revenue": 0}, {"ein": "201041301", "name": "ST LAWRENCE POWER & EQUIPMENT MUSEUM", "city": "MADRID", "state": "NY", "zip": "13660-0400", "ntee": "A57", "ruling": "200406", "deductibility": "1", "assets": 2370095, "income": 305265, "revenue": 299184}, {"ein": "201892643", "name": "WARTHOGS MOTORCYCLE CLUB ST LAWRENCE CHAPTER INC", "city": "HEUVELTON", "state": "NY", "zip": "13654-0000", "ntee": "P12", "ruling": "201910", "deductibility": "1", "assets": 0, "income": 0, "revenue": 0}, {"ein": "202000036", "name": "DR E LAWRENCE DECKINGER FAMILY FOUNDATION INC", "city": "NEW YORK", "state": "NY", "zip": "10011-8807", "ntee": "T22", "ruling": "200601", "deductibility": "1", "assets": 1356125, "income": 235017, "revenue": 0}, {"ein": "202682043", "name": "CATHY AND CHRISTOPHER LAWRENCE CHARITABLE TR", "city": "NEW YORK", "state": "NY", "zip": "10006-0000", "ntee": "T22", "ruling": "200604", "deductibility": "1", "assets": 206095, "income": 9036, "revenue": 0}, {"ein": "202714484", "name": "CONGREGATION BNEI TORAH OF LAWRENCE", "city": "LAWRENCE", "state": "NY", "zip": "11559-0697", "ntee": "X30", "ruling": "201001", "deductibility": "1", "assets": 0, "income": 0, "revenue": 0}, {"ein": "202761633", "name": "LAWRENCE AND ISABEL BARNETT CHARITABLE FOUNDATION", "city": "WHITE PLAINS", "state": "NY", "zip": "10604-0000", "ntee": "T22", "ruling": "200602", "deductibility": "1", "assets": 19266628, "income": 8499220, "revenue": 0}, {"ein": "208736149", "name": "MIKVAH OF LAWRENCE AND CEDARHURSTINC", "city": "LAWRENCE", "state": "NY", "zip": "11559-1803", "ntee": "X30", "ruling": "200812", "deductibility": "1", "assets": 0, "income": 0, "revenue": 0}, {"ein": "222186936", "name": "ST LAWRENCE HOSTELS INC", "city": "CANTON", "state": "NY", "zip": "13617-3738", "ntee": "", "ruling": "197812", "deductibility": "1", "assets": 1543316, "income": 15178, "revenue": 15178}, {"ein": "222327707", "name": "JEFFERSON LEWIS & ST LAWRENCE COUNTIES CENTRAL TRADES & LABOR CO", "city": "ALBANY", "state": "NY", "zip": "12210-1939", "ntee": "J40", "ruling": "202305", "deductibility": "2", "assets": 0, "income": 0, "revenue": 0}, {"ein": "222379470", "name": "THE LAWRENCE AND LAMPHEAR CORPORATION", "city": "UTICA", "state": "NY", "zip": "13501-3401", "ntee": "P82Z", "ruling": "198112", "deductibility": "1", "assets": 93216, "income": 61405, "revenue": 61405}, {"ein": "222475064", "name": "SOUTH ST LAWRENCE ASSOCIATION INC", "city": "HAMMOND", "state": "NY", "zip": "13646-3259", "ntee": "B12", "ruling": "201407", "deductibility": "1", "assets": 0, "income": 0, "revenue": 0}, {"ein": "222627929", "name": "HOSPICE OF ST LAWRENCE VALLEY INC", "city": "POTSDAM", "state": "NY", "zip": "13676-3131", "ntee": "P74Z", "ruling": "198806", "deductibility": "1", "assets": 4935544, "income": 3556800, "revenue": 3436200}, {"ein": "222757318", "name": "ST LAWRENCE COUNTY INDUST DEVELOP AGENCY LOCAL DEVELOP CORPORATION", "city": "CANTON", "state": "NY", "zip": "13617-3759", "ntee": "", "ruling": "198704", "deductibility": "1", "assets": 15940002, "income": 415654, "revenue": 415654}, {"ein": "237072537", "name": "ST LAWRENCE COUNTY HISTORICAL ASSOCIATION", "city": "CANTON", "state": "NY", "zip": "13617-1416", "ntee": "", "ruling": "197006", "deductibility": "1", "assets": 2647857, "income": 150102, "revenue": 144904}, {"ein": "237223216", "name": "SARAH LAWRENCE COLLEGE", "city": "BRONXVILLE", "state": "NY", "zip": "10708-5931", "ntee": "B420", "ruling": "197301", "deductibility": "1", "assets": 314231163, "income": 274077735, "revenue": 138374477}, {"ein": "237550046", "name": "ST LAWRENCE CHAPTER NO 60 OES DEPEYSTER NY", "city": "DEPEYSTER", "state": "NY", "zip": "13633-0000", "ntee": "", "ruling": "201212", "deductibility": "1", "assets": 0, "income": 0, "revenue": 0}, {"ein": "261676815", "name": "ST LAWRENCE-NORTH COUNTRY COMMUNITY FOUNDATION INC", "city": "CANTON", "state": "NY", "zip": "13617-2208", "ntee": "S30", "ruling": "200810", "deductibility": "1", "assets": 5419, "income": 9031, "revenue": 9031}, {"ein": "263813766", "name": "CONGREGATION FIVE TOWNS OF LAWRENCE", "city": "LAWRENCE", "state": "NY", "zip": "11559-1608", "ntee": "X30", "ruling": "201101", "deductibility": "1", "assets": 0, "income": 0, "revenue": 0}, {"ein": "264076297", "name": "LAWRENCE MEDICAL ASSOCIATES PC", "city": "SCARSDALE", "state": "NY", "zip": "10583-5025", "ntee": "E30", "ruling": "201208", "deductibility": "1", "assets": 70930573, "income": 96943366, "revenue": 96943366}, {"ein": "266135172", "name": "STEPHANIE AND LAWRENCE FLINN JR CHARITABLE TRUST", "city": "RYE", "state": "NY", "zip": "10580-1451", "ntee": "", "ruling": "201201", "deductibility": "1", "assets": 36968009, "income": 4336049, "revenue": 0}, {"ein": "266681610", "name": "LAWRENCE AND FRANCES JORDAN FOUNDATION", "city": "AMSTERDAM", "state": "NY", "zip": "12010-6418", "ntee": "T20", "ruling": "200906", "deductibility": "1", "assets": 940430, "income": 325152, "revenue": 0}, {"ein": "275008141", "name": "FRIENDS OF ST LAWRENCE HOCKEY INC", "city": "CANTON", "state": "NY", "zip": "13617-0207", "ntee": "N70", "ruling": "201202", "deductibility": "1", "assets": 0, "income": 0, "revenue": 0}, {"ein": "276963966", "name": "ARC JEFFERSON-ST LAWRENCE EMPLOYEES HEALTH AND WELFARE PLAN", "city": "WATERTOWN", "state": "NY", "zip": "13601-1863", "ntee": "Y43", "ruling": "201111", "deductibility": "2", "assets": 0, "income": 0, "revenue": 0}, {"ein": "311709120", "name": "LAWRENCE CHARITABLE FOUNDATION", "city": "LAWRENCE", "state": "NY", "zip": "11559-1816", "ntee": "T22", "ruling": "200006", "deductibility": "1", "assets": 2678479, "income": 270933, "revenue": 0}, {"ein": "320611490", "name": "LAWRENCE PARK WEST AND NEIGHBORHOOD HOMEOWNERS ASSOCIATION INC", "city": "BRONXVILLE", "state": "NY", "zip": "10708-5509", "ntee": "S22", "ruling": "202006", "deductibility": "2", "assets": 0, "income": 0, "revenue": 0}, {"ein": "331361763", "name": "LAWRENCE TALMUDICAL INSTITUTE", "city": "FAR ROCKAWAY", "state": "NY", "zip": "11691-5214", "ntee": "X30", "ruling": "202506", "deductibility": "1", "assets": 0, "income": 0, "revenue": 0}, {"ein": "352215442", "name": "ST LAWRENCE LAND TRUST INC", "city": "CANTON", "state": "NY", "zip": "13617-0684", "ntee": "C34", "ruling": "200402", "deductibility": "1", "assets": 597286, "income": 24774, "revenue": 24774}, {"ein": "352319113", "name": "LAWRENCE FOUNDATION INC", "city": "CEDARHURST", "state": "NY", "zip": "11516-0180", "ntee": "Z99", "ruling": "201409", "deductibility": "1", "assets": 26440, "income": 30539, "revenue": 0}, {"ein": "383936062", "name": "ST LAWRENCE MASONIC CHARITIES INC", "city": "GOUVERNEUR", "state": "NY", "zip": "13642-0326", "ntee": "T50", "ruling": "201707", "deductibility": "1", "assets": 0, "income": 0, "revenue": 0}, {"ein": "431953144", "name": "ST LAWRENCE COUNTY FIRE TRAINING FACILITY INC", "city": "CANTON", "state": "NY", "zip": "13617-1022", "ntee": "B90", "ruling": "200302", "deductibility": "1", "assets": 818183, "income": 62124, "revenue": 62124}, {"ein": "454110527", "name": "CONGREGATION ANSHEI SHALOM OF LAWRENCE", "city": "LAWRENCE", "state": "NY", "zip": "11559-1904", "ntee": "X30", "ruling": "201401", "deductibility": "1", "assets": 0, "income": 0, "revenue": 0}, {"ein": "460670314", "name": "ST LAWRENCE COUNTY DEPUTIES ASSOCIATION INC", "city": "CANTON", "state": "NY", "zip": "13617-1161", "ntee": "J40", "ruling": "201402", "deductibility": "2", "assets": 0, "income": 0, "revenue": 0}, {"ein": "460813136", "name": "ST LAWRENCE RIVER WATERSHED PROJECT INC", "city": "MALONE", "state": "NY", "zip": "12953-9445", "ntee": "C32", "ruling": "201408", "deductibility": "1", "assets": 0, "income": 0, "revenue": 0}, {"ein": "461323387", "name": "LAWRENCE MADEIROS SCHOLARSHIP FUND INC", "city": "MAYFIELD", "state": "NY", "zip": "12117-0011", "ntee": "B82", "ruling": "201307", "deductibility": "1", "assets": 313855, "income": 53682, "revenue": 39103}, {"ein": "461601552", "name": "LAWRENCE T BABBIO JR FOUNDATION", "city": "ALBANY", "state": "NY", "zip": "12212-5201", "ntee": "T99", "ruling": "201406", "deductibility": "1", "assets": 5039260, "income": 2140106, "revenue": 0}, {"ein": "463002477", "name": "AGUDAS ACHIM OF LAWRENCE", "city": "LAWRENCE", "state": "NY", "zip": "11559-1502", "ntee": "X30", "ruling": "201409", "deductibility": "1", "assets": 0, "income": 0, "revenue": 0}, {"ein": "463257180", "name": "THE ARC JEFFERSON ST LAWRENCE", "city": "WATERTOWN", "state": "NY", "zip": "13601-0041", "ntee": "P12", "ruling": "201504", "deductibility": "1", "assets": 3235377, "income": 435127, "revenue": 412349}, {"ein": "464244430", "name": "LAWRENCE N AND ALICE L FRIEDLAND CHARITABLE FOUNDATION", "city": "NEW YORK", "state": "NY", "zip": "10065-8165", "ntee": "T99", "ruling": "201409", "deductibility": "1", "assets": 874402, "income": 40627, "revenue": 0}, {"ein": "464259168", "name": "ST LAWRENCE HEALTH SYSTEM INC", "city": "POTSDAM", "state": "NY", "zip": "13676-1786", "ntee": "E21", "ruling": "201502", "deductibility": "1", "assets": 36296223, "income": 1905182, "revenue": 1905182}, {"ein": "471041189", "name": "LAWRENCE B TAISHOFF FOUNDATION", "city": "GARDEN CITY", "state": "NY", "zip": "11530-0000", "ntee": "T22", "ruling": "201408", "deductibility": "1", "assets": 1485100, "income": 137406, "revenue": 0}, {"ein": "562332442", "name": "LAWRENCE FAR ROCKAWAY COMMUNITY KOLLEL", "city": "FAR ROCKAWAY", "state": "NY", "zip": "11691-4709", "ntee": "X30", "ruling": "200307", "deductibility": "1", "assets": 0, "income": 0, "revenue": 0}, {"ein": "593828059", "name": "ST LAWRENCE RIVER WALLEYE ASSOCIATION INC", "city": "MASSENA", "state": "NY", "zip": "13662-3447", "ntee": "D33", "ruling": "200608", "deductibility": "1", "assets": 0, "income": 0, "revenue": 0}, {"ein": "611853161", "name": "CONGREGATION KHAL CHASIDIM OF LAWRENCE", "city": "LAWRENCE", "state": "NY", "zip": "11559-2401", "ntee": "X20", "ruling": "201806", "deductibility": "1", "assets": 0, "income": 0, "revenue": 0}, {"ein": "814367851", "name": "ST LAWRENCE VALLEY BLUEGRASS ASSOC INC", "city": "DEPAUVILLE", "state": "NY", "zip": "13632-0132", "ntee": "P12", "ruling": "201611", "deductibility": "1", "assets": 0, "income": 0, "revenue": 0}, {"ein": "822219467", "name": "LAWRENCE MUSIC PARENTS ORGANIZATION INC", "city": "LAWRENCE", "state": "NY", "zip": "11559-1732", "ntee": "A68", "ruling": "201708", "deductibility": "1", "assets": 0, "income": 0, "revenue": 0}, {"ein": "823068869", "name": "LAWRENCE D PETERS MEMORIAL SCHOLARSHIP FUND", "city": "VESTAL", "state": "NY", "zip": "13850-1350", "ntee": "B82", "ruling": "201802", "deductibility": "1", "assets": 0, "income": 0, "revenue": 0}, {"ein": "823264659", "name": "LAWRENCE CEDARHURST RESCUE INC", "city": "LAWRENCE", "state": "NY", "zip": "11559-1836", "ntee": "M19", "ruling": "201908", "deductibility": "1", "assets": 733675, "income": 1409260, "revenue": 1409260}, {"ein": "830414279", "name": "SHELLY & LAWRENCE HOROWITZ FAMILY FOUNDATION INC", "city": "LONG BEACH", "state": "NY", "zip": "11561-3525", "ntee": "T22", "ruling": "200501", "deductibility": "1", "assets": 168974, "income": 4384, "revenue": 0}, {"ein": "831624337", "name": "ST LAWRENCE COUNTY PROPERTY DEVELOPMENT CORPORATION", "city": "CANTON", "state": "NY", "zip": "13617-3759", "ntee": "L20", "ruling": "201907", "deductibility": "1", "assets": 1308878, "income": 504646, "revenue": 504646}, {"ein": "831890843", "name": "CONGREGATION BAIS MEDRASH OF NORTH LAWRENCE", "city": "LAWRENCE", "state": "NY", "zip": "11559-1213", "ntee": "X30", "ruling": "201908", "deductibility": "1", "assets": 0, "income": 0, "revenue": 0}, {"ein": "842947473", "name": "LAWRENCE KATZMAN CHARITABLE FOUNDATION INC", "city": "SAGAPONACK", "state": "NY", "zip": "11962-2106", "ntee": "T22", "ruling": "201910", "deductibility": "1", "assets": 12134209, "income": 680312, "revenue": 0}, {"ein": "843233385", "name": "ST LAWRENCE VINEYARD MINISTRIES INC", "city": "BUFFALO", "state": "NY", "zip": "14215-0845", "ntee": "P20", "ruling": "201910", "deductibility": "1", "assets": 0, "income": 0, "revenue": 0}, {"ein": "846691455", "name": "LAWRENCE CHARITABLE TR", "city": "BROOKLYN", "state": "NY", "zip": "11219-2017", "ntee": "W11", "ruling": "201911", "deductibility": "1", "assets": 4788526, "income": 1089, "revenue": 1089}, {"ein": "871154928", "name": "PEOPLE PROJECT OF ST LAWRENCE COUNTY INC", "city": "OGDENSBURG", "state": "NY", "zip": "13669-0763", "ntee": "W99", "ruling": "202109", "deductibility": "1", "assets": 33723, "income": 44210, "revenue": 44210}, {"ein": "901037060", "name": "CONGREGATION BEIS MEDRASH OF LAWRENCE", "city": "LAWRENCE", "state": "NY", "zip": "11559-1505", "ntee": "X30", "ruling": "202008", "deductibility": "1", "assets": 0, "income": 0, "revenue": 0}, {"ein": "934499916", "name": "OMARI LAWRENCE FOUNDATION INC", "city": "BRONX", "state": "NY", "zip": "10466-0000", "ntee": "", "ruling": "202312", "deductibility": "1", "assets": 0, "income": 0, "revenue": 0}, {"ein": "936930307", "name": "LAWRENCE C AND ALFHILD O WESTCOTT CHAR TR", "city": "NORWICH", "state": "NY", "zip": "13815-1646", "ntee": "P20", "ruling": "202404", "deductibility": "1", "assets": 0, "income": 0, "revenue": 0}], "EQUINE": [{"ein": "010833298", "name": "EQUINE AWAKENINGS INC", "city": "CAYUTA", "state": "NY", "zip": "14824-9632", "ntee": "D20", "ruling": "201401", "deductibility": "1", "assets": 0, "income": 0, "revenue": 0}, {"ein": "061622549", "name": "EQUINE RESCUE RESOURCE INC", "city": "PINE BUSH", "state": "NY", "zip": "12566-0017", "ntee": "D20", "ruling": "200204", "deductibility": "1", "assets": 466275, "income": 95852, "revenue": 95852}, {"ein": "113313534", "name": "EQUINE ADVOCATES INCORPORATED", "city": "VALATIE", "state": "NY", "zip": "12184-0000", "ntee": "D200", "ruling": "199610", "deductibility": "1", "assets": 7325190, "income": 3172036, "revenue": 3107043}, {"ein": "134286987", "name": "EQUINE ESCAPE RESCUE LTD", "city": "MILLBROOK", "state": "NY", "zip": "12545-5421", "ntee": "D20", "ruling": "200603", "deductibility": "1", "assets": 0, "income": 0, "revenue": 0}, {"ein": "141795002", "name": "EQUINE RESCUE INC", "city": "BLOOMINGBURG", "state": "NY", "zip": "12721-3016", "ntee": "D200", "ruling": "199701", "deductibility": "1", "assets": 265240, "income": 238527, "revenue": 238527}, {"ein": "161609385", "name": "TENDER MERCY EQUINE RESCUE INC", "city": "ROME", "state": "NY", "zip": "13440-1819", "ntee": "D20", "ruling": "200112", "deductibility": "1", "assets": 0, "income": 0, "revenue": 0}, {"ein": "203041635", "name": "AMARYLLIS FARM EQUINE RESCUE INC", "city": "WATERMILL", "state": "NY", "zip": "11976-0000", "ntee": "D20", "ruling": "200609", "deductibility": "1", "assets": 1409706, "income": 365076, "revenue": 359576}, {"ein": "264832763", "name": "NATIONAL ASSOCIATION OF EQUINE AFFILIATED ACADEMICS INC", "city": "CAZENOVIA", "state": "NY", "zip": "13035-9446", "ntee": "B60", "ruling": "201012", "deductibility": "1", "assets": 0, "income": 0, "revenue": 0}, {"ein": "272591980", "name": "SQUIRRELWOOD EQUINE SANCTUARY", "city": "MONTGOMERY", "state": "NY", "zip": "12549-1913", "ntee": "D20", "ruling": "201009", "deductibility": "1", "assets": 198775, "income": 572178, "revenue": 572178}, {"ein": "272604087", "name": "EMILY ECKSTROM EQUINE SCHOLARSHIP", "city": "CHATHAM", "state": "NY", "zip": "12037-2706", "ntee": "B82", "ruling": "201010", "deductibility": "1", "assets": 0, "income": 0, "revenue": 0}, {"ein": "421719608", "name": "CERTIFICATION BOARD FOR EQUINE INTERACTION PROFESSIONALS INC", "city": "NEW YORK", "state": "NY", "zip": "10001-2538", "ntee": "Y03", "ruling": "201104", "deductibility": "2", "assets": 0, "income": 0, "revenue": 0}, {"ein": "452430256", "name": "EQUINE TRANSFORMATION FOUNDATION", "city": "TABERG", "state": "NY", "zip": "13471-1836", "ntee": "B82", "ruling": "201108", "deductibility": "1", "assets": 0, "income": 0, "revenue": 0}, {"ein": "452822690", "name": "NO HORSE LEFT BEHIND EQUINE RESCUE INC", "city": "GOSHEN", "state": "NY", "zip": "10924-0000", "ntee": "D20", "ruling": "201410", "deductibility": "1", "assets": 0, "income": 0, "revenue": 0}, {"ein": "453660621", "name": "SPIRITS PROMISE EQUINE RESCUE CORP", "city": "RIVERHEAD", "state": "NY", "zip": "11901-1113", "ntee": "D60", "ruling": "201210", "deductibility": "1", "assets": 274486, "income": 503506, "revenue": 503506}, {"ein": "461606280", "name": "THE DANCE EQUINE THERAPEUTIC CENTER INC", "city": "TRUMANSBURG", "state": "NY", "zip": "14886-0246", "ntee": "F30", "ruling": "201609", "deductibility": "1", "assets": 0, "income": 0, "revenue": 0}, {"ein": "463337297", "name": "EQUINE EMERGENCY RESCUE SERVICES INC", "city": "CLARENCE", "state": "NY", "zip": "14031-1022", "ntee": "D99", "ruling": "201405", "deductibility": "1", "assets": 6348, "income": 2025, "revenue": 2025}, {"ein": "464905871", "name": "VICTORIA ACRES EQUINE FACILITY INC", "city": "ALTAMONT", "state": "NY", "zip": "12009-5618", "ntee": "P80", "ruling": "201403", "deductibility": "1", "assets": 0, "income": 0, "revenue": 0}, {"ein": "471307118", "name": "A PONYS PARADISE EQUINE RESCUE INC", "city": "LAGRANGEVILLE", "state": "NY", "zip": "12540-6309", "ntee": "D99", "ruling": "201409", "deductibility": "1", "assets": 0, "income": 0, "revenue": 0}, {"ein": "472241652", "name": "LADYS LEGACY EQUINE RESCUE", "city": "POUGHQUAG", "state": "NY", "zip": "12570-5782", "ntee": "D60", "ruling": "201502", "deductibility": "1", "assets": 0, "income": 0, "revenue": 0}, {"ein": "473953554", "name": "NIPPER KNOLLS EQUINE CENTR", "city": "GRANVILLE", "state": "NY", "zip": "12832-4727", "ntee": "N69", "ruling": "201507", "deductibility": "1", "assets": 7363, "income": 29218, "revenue": 24441}, {"ein": "474347629", "name": "EQUINE POLO INSTRUCTIONAL CENTER", "city": "SARATOGA SPGS", "state": "NY", "zip": "12866-9179", "ntee": "N70", "ruling": "201601", "deductibility": "1", "assets": 0, "income": 0, "revenue": 0}, {"ein": "522152076", "name": "STABLE ENVIRONMENT EQUINE REHABILITATION INC", "city": "AMAGANSETT", "state": "NY", "zip": "11930-2315", "ntee": "D99", "ruling": "201710", "deductibility": "1", "assets": 0, "income": 0, "revenue": 0}, {"ein": "800482338", "name": "PHOENIX RISING EQUINE RESCUE AND REHABILITATION", "city": "CLARENCE", "state": "NY", "zip": "14031-1010", "ntee": "D20", "ruling": "201512", "deductibility": "1", "assets": 120910, "income": 66065, "revenue": 66065}, {"ein": "810828555", "name": "13 HANDS EQUINE RESCUE INC", "city": "CLINTON CORS", "state": "NY", "zip": "12514-4502", "ntee": "D99", "ruling": "201512", "deductibility": "1", "assets": 5228618, "income": 1396643, "revenue": 1396643}, {"ein": "814258207", "name": "BROMAN EQUINE CHARITABLE FOUNDATION INC", "city": "WEST BABYLON", "state": "NY", "zip": "11704-1102", "ntee": "D12", "ruling": "201802", "deductibility": "1", "assets": 97428, "income": 22563, "revenue": 22563}, {"ein": "815288230", "name": "WAVERLY POND FARM EQUINE RESCUE", "city": "BUFFALO", "state": "NY", "zip": "14202-1509", "ntee": "D20", "ruling": "201703", "deductibility": "1", "assets": 0, "income": 0, "revenue": 0}, {"ein": "831468228", "name": "EQUINE COLLABORATIVE INTERNATIONAL INC", "city": "COLDEN", "state": "NY", "zip": "14033-9733", "ntee": "D01", "ruling": "201808", "deductibility": "1", "assets": 0, "income": 0, "revenue": 0}, {"ein": "841959942", "name": "MARLOKAI EQUINE AND ANIMAL RESCUE INC", "city": "SYOSSET", "state": "NY", "zip": "11791-0234", "ntee": "D20", "ruling": "202011", "deductibility": "1", "assets": 0, "income": 0, "revenue": 0}, {"ein": "842093030", "name": "LOVE ALWAYS EQUINE SANCTUARY INC", "city": "BARKER", "state": "NY", "zip": "14012-9669", "ntee": "D20", "ruling": "201907", "deductibility": "1", "assets": 11222, "income": 59345, "revenue": 45956}, {"ein": "842539114", "name": "NATIONAL EQUINE INSTITUTE OF GROWTH THROUGH HEALING", "city": "BEMUS POINT", "state": "NY", "zip": "14712-9516", "ntee": "D99", "ruling": "202004", "deductibility": "1", "assets": 20992, "income": 54130, "revenue": 54130}, {"ein": "861293763", "name": "A DAPPLE A DAY EQUINE CENTER", "city": "QUEENSBURY", "state": "NY", "zip": "12804-7622", "ntee": "H80", "ruling": "202108", "deductibility": "1", "assets": 12202, "income": 109440, "revenue": 109440}, {"ein": "862321056", "name": "NO LEMONS EQUINE INC", "city": "SPENCERPORT", "state": "NY", "zip": "14559-1111", "ntee": "P20", "ruling": "202108", "deductibility": "1", "assets": 0, "income": 0, "revenue": 0}, {"ein": "921294620", "name": "USENTA-UNITED STATES EQUINE NATIONAL TREASURE ASSOCIATION INC", "city": "ALBANY", "state": "NY", "zip": "12207-2834", "ntee": "P12", "ruling": "202301", "deductibility": "1", "assets": 0, "income": 0, "revenue": 0}, {"ein": "921642717", "name": "ALWAYS GREATFUL EQUINE SANCTUARY INC", "city": "MATTITUCK", "state": "NY", "zip": "11952-2029", "ntee": "D12", "ruling": "201304", "deductibility": "1", "assets": 0, "income": 0, "revenue": 0}, {"ein": "923516099", "name": "LONG RUN EQUINE RETRAINING INC", "city": "LATTINGTOWN", "state": "NY", "zip": "11560-1126", "ntee": "D20", "ruling": "202305", "deductibility": "1", "assets": 0, "income": 0, "revenue": 0}, {"ein": "991967891", "name": "SERENITY ACRES EQUINE THERAPY AND RESCUE INC", "city": "ARGYLE", "state": "NY", "zip": "12809-7797", "ntee": "D20", "ruling": "202406", "deductibility": "1", "assets": 0, "income": 0, "revenue": 0}, {"ein": "992498545", "name": "STABLE STEPS THERAPEUTIC EQUINE AND ANIMAL-ASSISTED SERVICES INC", "city": "GLENS FALLS", "state": "NY", "zip": "12801-4558", "ntee": "F60", "ruling": "202406", "deductibility": "1", "assets": 0, "income": 0, "revenue": 0}, {"ein": "993225713", "name": "HOOVES FOR HOPE EQUINE FACILITATED LEARNING INC", "city": "VERONA", "state": "NY", "zip": "13478-2019", "ntee": "B90", "ruling": "202406", "deductibility": "1", "assets": 0, "income": 0, "revenue": 0}], "JETBLUE": [{"ein": "030407321", "name": "JETBLUE CARES CREWMEMBER CATASTROPHIC FUND", "city": "LONG ISLAND CITY", "state": "NY", "zip": "11101-4020", "ntee": "P60", "ruling": "200401", "deductibility": "1", "assets": 3501575, "income": 809567, "revenue": 809567}, {"ein": "464103682", "name": "JETBLUE GRANTS FOUNDATION", "city": "LONG ISLAND CITY", "state": "NY", "zip": "11101-4024", "ntee": "T20", "ruling": "201407", "deductibility": "1", "assets": 1702560, "income": 1130913, "revenue": 0}], "GROVE": [{"ein": "030416163", "name": "PLEASANT GROVE BAPTIST CHURCH INC", "city": "BROOKLYN", "state": "NY", "zip": "11233-3105", "ntee": "X20", "ruling": "200406", "deductibility": "1", "assets": 0, "income": 0, "revenue": 0}, {"ein": "061206151", "name": "HUMANE SOCIETY OF BLOOMING GROVE INC", "city": "WASHINGTONVLE", "state": "NY", "zip": "10992-0226", "ntee": "D200", "ruling": "199308", "deductibility": "1", "assets": 137587, "income": 135592, "revenue": 135592}, {"ein": "061483239", "name": "NEW HOPE SPRING GROVE BAPTIST CHURCH OF CHRIST", "city": "BRONX", "state": "NY", "zip": "10451-3429", "ntee": "X20Z", "ruling": "199705", "deductibility": "1", "assets": 0, "income": 0, "revenue": 0}, {"ein": "110613430", "name": "CEDAR GROVE CEMETERY ASSOCIATION", "city": "FLUSHING", "state": "NY", "zip": "11352-0228", "ntee": "", "ruling": "197203", "deductibility": "1", "assets": 483319697, "income": 119730059, "revenue": 28386698}, {"ein": "111734488", "name": "MAPLE GROVE CEMETERY ASSOCIATION INC", "city": "KEW GARDENS", "state": "NY", "zip": "11415-2839", "ntee": "", "ruling": "195402", "deductibility": "1", "assets": 0, "income": 0, "revenue": 0}, {"ein": "112382005", "name": "CHERRY GROVE DUNE FUND INC", "city": "WANTAGH", "state": "NY", "zip": "11793-1509", "ntee": "C32Z", "ruling": "199103", "deductibility": "1", "assets": 562236, "income": 78372, "revenue": 78372}, {"ein": "112468118", "name": "ARTS PROJECT OF CHERRY GROVE INC", "city": "NEW YORK", "state": "NY", "zip": "10011-8436", "ntee": "A200", "ruling": "198101", "deductibility": "1", "assets": 337039, "income": 274816, "revenue": 195458}, {"ein": "112487681", "name": "CHERRY GROVE PROPERTY OWNERS ASSOC INC", "city": "CHERRY GROVE", "state": "NY", "zip": "11782-0998", "ntee": "S22", "ruling": "201407", "deductibility": "2", "assets": 0, "income": 0, "revenue": 0}, {"ein": "112586995", "name": "CHERRY GROVE FIRE DEPARTMENT", "city": "CHERRY GROVE", "state": "NY", "zip": "11782-0995", "ntee": "M24", "ruling": "201010", "deductibility": "0", "assets": 192404, "income": 61583, "revenue": 61583}, {"ein": "113580995", "name": "144 GROVE STREET HOUSING DEVELOPMENT FUND CORPORATION", "city": "QUEENS VILLAGE", "state": "NY", "zip": "11428-2045", "ntee": "L20", "ruling": "200212", "deductibility": "1", "assets": 261677, "income": 93351, "revenue": 25335}, {"ein": "113622271", "name": "CHERRY GROVE COMMUNITY ASSOCIATION INC", "city": "TUCKAHOE", "state": "NY", "zip": "10707-0000", "ntee": "T30", "ruling": "200112", "deductibility": "1", "assets": 1489784, "income": 176773, "revenue": 176773}, {"ein": "113641439", "name": "CHILDRENS GROVE PARK INC", "city": "BROOKLYN", "state": "NY", "zip": "11237-5664", "ntee": "C41", "ruling": "201605", "deductibility": "1", "assets": 0, "income": 0, "revenue": 0}, {"ein": "132517998", "name": "WILLARD SYLVAN GROVE LODGE NO 250 F AND A M INC", "city": "MINEOLA", "state": "NY", "zip": "11501-2470", "ntee": "S82", "ruling": "201807", "deductibility": "2", "assets": 0, "income": 0, "revenue": 0}, {"ein": "132737216", "name": "BLOOMING GROVE DAY CARE CENTER INC", "city": "BLOOMING GROVE", "state": "NY", "zip": "10914-0000", "ntee": "P33Z", "ruling": "197403", "deductibility": "1", "assets": 127098, "income": 677576, "revenue": 677576}, {"ein": "133718668", "name": "NEW HOPE SPRING GROVE BAPTIST CHURCH OF CHRIST", "city": "BRONX", "state": "NY", "zip": "10451-3479", "ntee": "", "ruling": "199307", "deductibility": "1", "assets": 0, "income": 0, "revenue": 0}, {"ein": "133778098", "name": "SPRING GROVE MISSIONARY BAPTIST CHURCH", "city": "NEW YORK", "state": "NY", "zip": "10026-1809", "ntee": "X20Z", "ruling": "199506", "deductibility": "1", "assets": 0, "income": 0, "revenue": 0}, {"ein": "134094405", "name": "GROVE CREEK FUND", "city": "UNIONDALE", "state": "NY", "zip": "11553-3626", "ntee": "T20", "ruling": "200002", "deductibility": "1", "assets": 3504280, "income": 642680, "revenue": 0}, {"ein": "135078662", "name": "THE UNION GROVE BAPTIST CHURCH", "city": "BRONX", "state": "NY", "zip": "10460-5906", "ntee": "Z99Z", "ruling": "199501", "deductibility": "1", "assets": 0, "income": 0, "revenue": 0}, {"ein": "140823430", "name": "LAUREL GROVE CEMETERY ASSN", "city": "PORT JERVIS", "state": "NY", "zip": "12771-0207", "ntee": "", "ruling": "195004", "deductibility": "1", "assets": 413378, "income": 47594, "revenue": 47594}, {"ein": "141414965", "name": "DUTCH CHURCH OF BLOOMING GROVE", "city": "RENSSELAER", "state": "NY", "zip": "12144-9420", "ntee": "", "ruling": "198601", "deductibility": "1", "assets": 0, "income": 0, "revenue": 0}, {"ein": "141631765", "name": "CHARLTON PINE GROVE CEMETERY ASSOCIATION INC", "city": "ROUND LAKE", "state": "NY", "zip": "12151-1729", "ntee": "Y50", "ruling": "201602", "deductibility": "1", "assets": 0, "income": 0, "revenue": 0}, {"ein": "141825804", "name": "JORDAN GROVE MISSIONARY BAPTIST CHURCH OF ALBANY NEW YORK INC", "city": "ALBANY", "state": "NY", "zip": "12220-0143", "ntee": "X20", "ruling": "200101", "deductibility": "1", "assets": 0, "income": 0, "revenue": 0}, {"ein": "146022034", "name": "RUBACKS GROVE CAMPERS ASSOCIATION INC", "city": "SCOTIA", "state": "NY", "zip": "12302-1103", "ntee": "", "ruling": "196512", "deductibility": "2", "assets": 494566, "income": 67455, "revenue": 67455}, {"ein": "150375775", "name": "MAPLE GROVE CEMETERY ASSOCIATION", "city": "JORDAN", "state": "NY", "zip": "13080-0363", "ntee": "Y50", "ruling": "201706", "deductibility": "1", "assets": 251222, "income": 63355, "revenue": 63112}, {"ein": "150375780", "name": "MAPLE GROVE CEMETERY ASSOC", "city": "VERNON", "state": "NY", "zip": "13476-0723", "ntee": "", "ruling": "194107", "deductibility": "1", "assets": 418041, "income": 17072, "revenue": 17072}, {"ein": "150417741", "name": "PLEASANT GROVE CEMETERY ASSOC INC", "city": "ITHACA", "state": "NY", "zip": "14850-2660", "ntee": "Y50", "ruling": "201201", "deductibility": "1", "assets": 0, "income": 0, "revenue": 0}, {"ein": "150501438", "name": "MAPLE GROVE CEMETERY ASSOCIATION", "city": "WORCESTER", "state": "NY", "zip": "12197-0164", "ntee": "Y50", "ruling": "200412", "deductibility": "1", "assets": 0, "income": 0, "revenue": 0}, {"ein": "160464445", "name": "GROVE CEMETERY BATH N Y INC", "city": "BATH", "state": "NY", "zip": "14810-0289", "ntee": "", "ruling": "194907", "deductibility": "1", "assets": 0, "income": 0, "revenue": 0}, {"ein": "160703858", "name": "MAPLE GROVE CEMETERY ASSOCIATION OF FRIENDSHIP NEW YORK INC", "city": "FRIENDSHIP", "state": "NY", "zip": "14739-0012", "ntee": "", "ruling": "197601", "deductibility": "2", "assets": 947267, "income": 58449, "revenue": 58449}, {"ein": "160769046", "name": "GROVE STREET CHRISTIAN CHURCH", "city": "TONAWANDA", "state": "NY", "zip": "14150-3404", "ntee": "", "ruling": "195105", "deductibility": "1", "assets": 0, "income": 0, "revenue": 0}, {"ein": "161211215", "name": "SHADY GROVE WESLEYAN CHURCH", "city": "CORNING", "state": "NY", "zip": "14830-9429", "ntee": "", "ruling": "197005", "deductibility": "1", "assets": 0, "income": 0, "revenue": 0}, {"ein": "161317405", "name": "BELLE GROVE MISSIONARY BAPTIST CHURCH", "city": "SYRACUSE", "state": "NY", "zip": "13205-1012", "ntee": "X20Z", "ruling": "199807", "deductibility": "1", "assets": 0, "income": 0, "revenue": 0}, {"ein": "161409757", "name": "MUIN MOUND GROVE ADF", "city": "SOLVAY", "state": "NY", "zip": "13209-2121", "ntee": "", "ruling": "199608", "deductibility": "1", "assets": 0, "income": 0, "revenue": 0}, {"ein": "166033879", "name": "PINE GROVE CEMETERY ASSOCIATION OF FILLMORE INC", "city": "FILLMORE", "state": "NY", "zip": "14735-0242", "ntee": "", "ruling": "197503", "deductibility": "2", "assets": 0, "income": 0, "revenue": 0}, {"ein": "166053415", "name": "DEMPSTER GROVE CAMP MEETING ASSOCIATION", "city": "NEW HAVEN", "state": "NY", "zip": "13121-0087", "ntee": "", "ruling": "197011", "deductibility": "1", "assets": 0, "income": 0, "revenue": 0}, {"ein": "166053416", "name": "BETHEL GROVE BIBLE CHURCH", "city": "ITHACA", "state": "NY", "zip": "14850-6339", "ntee": "", "ruling": "196007", "deductibility": "1", "assets": 0, "income": 0, "revenue": 0}, {"ein": "166067011", "name": "MAPLE GROVE CEMETERY INC", "city": "GRAND ISLAND", "state": "NY", "zip": "14072-2320", "ntee": "", "ruling": "197704", "deductibility": "2", "assets": 0, "income": 0, "revenue": 0}, {"ein": "202234913", "name": "OAK GROVE PLAYGROUND BOOSTER CLUB", "city": "POUGHKEEPSIE", "state": "NY", "zip": "12601-5826", "ntee": "N32", "ruling": "200605", "deductibility": "1", "assets": 0, "income": 0, "revenue": 0}, {"ein": "203979243", "name": "FRIENDS OF MAPLE GROVE CEMETERY INC", "city": "KEW GARDENS", "state": "NY", "zip": "11415-2839", "ntee": "T30", "ruling": "200603", "deductibility": "1", "assets": 0, "income": 0, "revenue": 0}, {"ein": "205364097", "name": "TEAR OF THE CLOUD GROVE ADF", "city": "ALBANY", "state": "NY", "zip": "12209-1910", "ntee": "", "ruling": "199608", "deductibility": "1", "assets": 0, "income": 0, "revenue": 0}, {"ein": "222514560", "name": "PINE GROVE COMMUNITY CHURCH", "city": "SARATOGA SPGS", "state": "NY", "zip": "12866-5942", "ntee": "", "ruling": "195806", "deductibility": "1", "assets": 0, "income": 0, "revenue": 0}, {"ein": "223727539", "name": "BLOOMING GROVE VOLUNTEER AMBULANCE CORPS INC", "city": "WASHINGTONVLE", "state": "NY", "zip": "10992-1112", "ntee": "M23", "ruling": "200012", "deductibility": "1", "assets": 1589905, "income": 1678525, "revenue": 1673173}, {"ein": "237053065", "name": "GROVE PLACE ASSOCIATION", "city": "ROCHESTER", "state": "NY", "zip": "14605-2914", "ntee": "", "ruling": "196912", "deductibility": "1", "assets": 0, "income": 0, "revenue": 0}, {"ein": "237160090", "name": "UNION CHAPEL IN THE GROVE", "city": "SHELTER IS HT", "state": "NY", "zip": "11965-0326", "ntee": "", "ruling": "197207", "deductibility": "1", "assets": 0, "income": 0, "revenue": 0}, {"ein": "237194828", "name": "GROVE W & AGNES M HINMAN CHARITABLE FOUNDATION", "city": "HAMILTON", "state": "NY", "zip": "13346-1321", "ntee": "", "ruling": "197302", "deductibility": "1", "assets": 362990, "income": 33193, "revenue": 0}, {"ein": "251411392", "name": "GROVE CITY COLLEGE OUTING CLUB ALUMNI ASSOCIATION", "city": "NEW YORK", "state": "NY", "zip": "10024-5253", "ntee": "", "ruling": "198202", "deductibility": "1", "assets": 0, "income": 0, "revenue": 0}, {"ein": "256641681", "name": "EMORY E GROVE TR UNDER WILL", "city": "AMHERST", "state": "NY", "zip": "14228-2307", "ntee": "T20", "ruling": "200312", "deductibility": "1", "assets": 2004786, "income": 385684, "revenue": 0}, {"ein": "260239633", "name": "PINE GROVE MIDDLE SCHOOL PTO", "city": "EAST SYRACUSE", "state": "NY", "zip": "13057-6001", "ntee": "B94", "ruling": "202002", "deductibility": "1", "assets": 0, "income": 0, "revenue": 0}, {"ein": "271251620", "name": "TOWN OF BLOOMING GROVE PBA", "city": "BLOOMING GROVE", "state": "NY", "zip": "10914-0000", "ntee": "J40", "ruling": "201402", "deductibility": "2", "assets": 0, "income": 0, "revenue": 0}, {"ein": "300959963", "name": "CEDAR GROVE CEMETERY ASSOCIATION INC", "city": "CHAUMONT", "state": "NY", "zip": "13622-0384", "ntee": "Y50", "ruling": "201702", "deductibility": "1", "assets": 0, "income": 0, "revenue": 0}, {"ein": "320506908", "name": "MAPLE GROVE CEMETERY ASSOCIATION OF KIANTONE", "city": "JAMESTOWN", "state": "NY", "zip": "14701-9350", "ntee": "Y50", "ruling": "201905", "deductibility": "1", "assets": 0, "income": 0, "revenue": 0}, {"ein": "334619029", "name": "CHERRY GROVE ARCHIVES COLLECTION INC", "city": "CHERRY GROVE", "state": "NY", "zip": "11782-0000", "ntee": "A23", "ruling": "202506", "deductibility": "1", "assets": 0, "income": 0, "revenue": 0}, {"ein": "352730221", "name": "NORTHERN RIVERS GROVE", "city": "PHILADELPHIA", "state": "NY", "zip": "13673-0423", "ntee": "", "ruling": "199608", "deductibility": "1", "assets": 0, "income": 0, "revenue": 0}, {"ein": "364531723", "name": "CHERRY GROVE MEMORIAL FUND INC", "city": "NEW YORK", "state": "NY", "zip": "10022-2992", "ntee": "S12", "ruling": "200306", "deductibility": "1", "assets": 415455, "income": 30134, "revenue": 30134}, {"ein": "384042531", "name": "WALNUT GROVE CEMETERY ASSOCIATION", "city": "WAMPSVILLE", "state": "NY", "zip": "13163-0084", "ntee": "Y50", "ruling": "201803", "deductibility": "1", "assets": 0, "income": 0, "revenue": 0}, {"ein": "463012167", "name": "LAKE GROVE-NEWFIELD SOCCER CLUB INC", "city": "RONKONKOMA", "state": "NY", "zip": "11779-0428", "ntee": "N64", "ruling": "201508", "deductibility": "1", "assets": 32908, "income": 18155, "revenue": 18155}, {"ein": "463370541", "name": "GROVE STREET MIKVAH INC", "city": "CEDARHURST", "state": "NY", "zip": "11516-2315", "ntee": "X30", "ruling": "201406", "deductibility": "1", "assets": 6254027, "income": 468747, "revenue": 468747}, {"ein": "463951755", "name": "FRIENDS OF WASHINGTON GROVE INC", "city": "ROCHESTER", "state": "NY", "zip": "14610-0863", "ntee": "C99", "ruling": "201407", "deductibility": "1", "assets": 0, "income": 0, "revenue": 0}, {"ein": "510440540", "name": "PINE GROVE COMMUNITY CHURCH PRESERVATION SOCIETY INC", "city": "GLENFIELD", "state": "NY", "zip": "13343-0000", "ntee": "X99", "ruling": "201406", "deductibility": "1", "assets": 0, "income": 0, "revenue": 0}, {"ein": "541714157", "name": "CORNERSTONE PROGRESSIVE GROVE INC", "city": "NEW YORK", "state": "NY", "zip": "10168-0002", "ntee": "L20", "ruling": "202107", "deductibility": "1", "assets": 0, "income": 0, "revenue": 0}, {"ein": "812720654", "name": "CEDAR GROVE COMMUNITY DEVELOPMENT CORPORATION", "city": "CHEEKTOWAGA", "state": "NY", "zip": "14225-2186", "ntee": "L21", "ruling": "201609", "deductibility": "1", "assets": 0, "income": 0, "revenue": 0}, {"ein": "813595768", "name": "IGLESIA CRISTIANA EL OLIVAR CHRISTIAN CHURCH THE OLIVE GROVE", "city": "BRONX", "state": "NY", "zip": "10461-3643", "ntee": "X20", "ruling": "201701", "deductibility": "1", "assets": 0, "income": 0, "revenue": 0}, {"ein": "823249121", "name": "CONGREGATION KOZOVA OF BLOOMING GROVE", "city": "MONROE", "state": "NY", "zip": "10950-2215", "ntee": "X30", "ruling": "201805", "deductibility": "1", "assets": 0, "income": 0, "revenue": 0}, {"ein": "823460062", "name": "CONGREGATION KHAL YETEV LEV OF BLOOMING GROVE", "city": "BROOKLYN", "state": "NY", "zip": "11219-5020", "ntee": "X30", "ruling": "202103", "deductibility": "1", "assets": 0, "income": 0, "revenue": 0}, {"ein": "831298430", "name": "ELZBIETA & DAVID GROVE PRIVATE FOUNDATION INC", "city": "ARMONK", "state": "NY", "zip": "10504-1356", "ntee": "T20", "ruling": "202502", "deductibility": "1", "assets": 7557833, "income": 121889, "revenue": 0}, {"ein": "832893497", "name": "TITAN GROVE FOUNDATION INC", "city": "KATONAH", "state": "NY", "zip": "10536-2135", "ntee": "T20", "ruling": "201903", "deductibility": "1", "assets": 1, "income": 1, "revenue": 0}, {"ein": "851579100", "name": "MOSDES HATORAH VHACHINUCH OF BLOOMING GROVE INC", "city": "MONROE", "state": "NY", "zip": "10950-2211", "ntee": "Z99", "ruling": "202007", "deductibility": "1", "assets": 150405, "income": 377685, "revenue": 377685}, {"ein": "874801511", "name": "BLOOMING GROVE CHARITABLE FOUNDATION", "city": "MONROE", "state": "NY", "zip": "10950-2215", "ntee": "S21", "ruling": "202203", "deductibility": "1", "assets": 25214, "income": 641358, "revenue": 641358}, {"ein": "876390618", "name": "WARWICK GROVE FOUNDATION", "city": "MONSEY", "state": "NY", "zip": "10952-3055", "ntee": "T22", "ruling": "202111", "deductibility": "1", "assets": 485, "income": 3000, "revenue": 0}, {"ein": "880675258", "name": "CONGREGATION YETEV LEV DSATMAR BLOOMING GROVE INC", "city": "MONROE", "state": "NY", "zip": "10950-2215", "ntee": "X30", "ruling": "202205", "deductibility": "1", "assets": 0, "income": 0, "revenue": 0}, {"ein": "882884834", "name": "PLEASANT GROVE COMMUNITY CENTER INC", "city": "JAMAICA", "state": "NY", "zip": "11434-0778", "ntee": "P28", "ruling": "202301", "deductibility": "1", "assets": 250, "income": 250, "revenue": 0}, {"ein": "883319780", "name": "BARRYS GROVE INC", "city": "WALDEN", "state": "NY", "zip": "12586-1910", "ntee": "C50", "ruling": "202208", "deductibility": "1", "assets": 6699, "income": 7970, "revenue": 7313}, {"ein": "884199545", "name": "GOLDEN GROVE CORPORATION", "city": "HOLLIS", "state": "NY", "zip": "11423-1939", "ntee": "X12", "ruling": "202211", "deductibility": "1", "assets": 0, "income": 0, "revenue": 0}, {"ein": "900997466", "name": "BLOOMING GROVE ROD AND GUN CLUB IN", "city": "MONROE", "state": "NY", "zip": "10949-0310", "ntee": "N61", "ruling": "201409", "deductibility": "2", "assets": 0, "income": 0, "revenue": 0}, {"ein": "921190531", "name": "THE GROVE THEATER NYC INC", "city": "NEW YORK", "state": "NY", "zip": "10033-4928", "ntee": "A20", "ruling": "202310", "deductibility": "1", "assets": 0, "income": 0, "revenue": 0}, {"ein": "931793245", "name": "LEGACY FOUNDATION AT MOUNT HEBRON CEMETERY AND CEDAR GROVE CEMETERY", "city": "FLUSHING", "state": "NY", "zip": "11352-0228", "ntee": "A01", "ruling": "202310", "deductibility": "1", "assets": 0, "income": 0, "revenue": 0}, {"ein": "932367629", "name": "CUPON BLOOMING GROVE", "city": "CHESTER", "state": "NY", "zip": "10918-4500", "ntee": "B01", "ruling": "202404", "deductibility": "1", "assets": 0, "income": 0, "revenue": 0}, {"ein": "933114775", "name": "LAKE GROVE LIONS CLUB FOUNDATION INC", "city": "LAKE GROVE", "state": "NY", "zip": "11755-0100", "ntee": "T30", "ruling": "202309", "deductibility": "1", "assets": 0, "income": 0, "revenue": 0}, {"ein": "991477782", "name": "CONGREGATION ANSHEI CHESED BLOOMING GROVE INC", "city": "MONROE", "state": "NY", "zip": "10950-2211", "ntee": "X20", "ruling": "202412", "deductibility": "1", "assets": 0, "income": 0, "revenue": 0}], "CENTRO": [{"ein": "030533692", "name": "CENTRO CRISTIANO DE RESTAURACION Y AVIVAMIENTO INC", "city": "BROOKLYN", "state": "NY", "zip": "11214-1603", "ntee": "X21", "ruling": "200405", "deductibility": "1", "assets": 0, "income": 0, "revenue": 0}, {"ein": "050593297", "name": "CENTRO MISIONERO SILOE", "city": "BROOKLYN", "state": "NY", "zip": "11237-2402", "ntee": "X99", "ruling": "201409", "deductibility": "1", "assets": 0, "income": 0, "revenue": 0}, {"ein": "112497595", "name": "CENTRO CIVICO COLOMBIANO INC", "city": "ELMHURST", "state": "NY", "zip": "11373-4046", "ntee": "P80", "ruling": "200102", "deductibility": "1", "assets": 3898, "income": 51583, "revenue": 51583}, {"ein": "112518980", "name": "INAS USA CISL CENTRO LUIGI ANTONINI INC", "city": "ASTORIA", "state": "NY", "zip": "11105-1578", "ntee": "P80", "ruling": "200707", "deductibility": "2", "assets": 36371, "income": 408646, "revenue": 408646}, {"ein": "112709009", "name": "CENTRO CULTURALE ITALIANO INC", "city": "WEST BABYLON", "state": "NY", "zip": "11704-6011", "ntee": "", "ruling": "198509", "deductibility": "2", "assets": 188818, "income": 71550, "revenue": 37359}, {"ein": "113046072", "name": "CENTRO EVANGELISTICO ASSEMBLY OF GOD", "city": "HICKSVILLE", "state": "NY", "zip": "11802-0097", "ntee": "X99Z", "ruling": "196408", "deductibility": "1", "assets": 0, "income": 0, "revenue": 0}, {"ein": "113067336", "name": "CENTRO CRISTIANO RENACER INC", "city": "FREEPORT", "state": "NY", "zip": "11520-1031", "ntee": "", "ruling": "199401", "deductibility": "1", "assets": 0, "income": 0, "revenue": 0}, {"ein": "113165345", "name": "MINISTERIO CENTRO DE LIBERACION CRISTIANO NUEVA VIDA INC", "city": "RICHMOND HILLS", "state": "NY", "zip": "11418-2624", "ntee": "", "ruling": "199402", "deductibility": "1", "assets": 0, "income": 0, "revenue": 0}, {"ein": "113231797", "name": "CENTRO SALVADORENO", "city": "HEMPSTEAD", "state": "NY", "zip": "11550-0000", "ntee": "R30", "ruling": "199504", "deductibility": "1", "assets": 16146, "income": 86225, "revenue": 86225}, {"ein": "113349821", "name": "HORIZONTES LUMINOSOS CENTRO YHOSVA", "city": "WOODSIDE", "state": "NY", "zip": "11377-4635", "ntee": "X20Z", "ruling": "199809", "deductibility": "1", "assets": 0, "income": 0, "revenue": 0}, {"ein": "113439723", "name": "CENTRO UNITY EN ESPANOL INC", "city": "CORONA", "state": "NY", "zip": "11368-2146", "ntee": "X21", "ruling": "200009", "deductibility": "1", "assets": 0, "income": 0, "revenue": 0}, {"ein": "113558057", "name": "CENTRO COMUNITARIO Y DE ASESORIA LEGAL INC", "city": "FLUSHING", "state": "NY", "zip": "11352-8039", "ntee": "I80", "ruling": "200009", "deductibility": "1", "assets": 0, "income": 0, "revenue": 0}, {"ein": "113559496", "name": "CENTRO HISPANO CUZCATLAN INC", "city": "WHITE PLAINS", "state": "NY", "zip": "10605-4339", "ntee": "S20", "ruling": "200208", "deductibility": "1", "assets": 0, "income": 0, "revenue": 0}, {"ein": "113569271", "name": "IGLESIA CENTRO DE RESTAURACION DE LA COMUNIDAD", "city": "MINEOLA", "state": "NY", "zip": "11501-4614", "ntee": "X21", "ruling": "200012", "deductibility": "1", "assets": 0, "income": 0, "revenue": 0}, {"ein": "132688412", "name": "CENTRO SOCIAL LA ESPERANZA", "city": "NEW YORK", "state": "NY", "zip": "10033-5150", "ntee": "", "ruling": "197202", "deductibility": "2", "assets": 21448292, "income": 16695082, "revenue": 16695082}, {"ein": "132878072", "name": "EL CENTRO EPESCOPAL HESPANO INC", "city": "WHITE PLAINS", "state": "NY", "zip": "10601-1902", "ntee": "", "ruling": "198002", "deductibility": "1", "assets": 0, "income": 0, "revenue": 0}, {"ein": "132975192", "name": "CENTRO DE EDUCATION DE TRABAJADORES", "city": "NEW YORK", "state": "NY", "zip": "10024-1707", "ntee": "", "ruling": "197904", "deductibility": "1", "assets": 0, "income": 0, "revenue": 0}, {"ein": "133226152", "name": "CENTRO CULTURAL ROSACRUZ AMORC DEL BRONX", "city": "BRONX", "state": "NY", "zip": "10460-5732", "ntee": "X99", "ruling": "201412", "deductibility": "1", "assets": 0, "income": 0, "revenue": 0}, {"ein": "133631719", "name": "CENTRO GERONTOLOGICO LATINO INC", "city": "NEW YORK", "state": "NY", "zip": "10036-4762", "ntee": "A20Z", "ruling": "199204", "deductibility": "1", "assets": 21524, "income": 136858, "revenue": 136858}, {"ein": "133633973", "name": "CENTRO CRISTIANO EMANUEL", "city": "BRONX", "state": "NY", "zip": "10459-1165", "ntee": "", "ruling": "196408", "deductibility": "1", "assets": 0, "income": 0, "revenue": 0}, {"ein": "133936723", "name": "CENTRO CULTURAL CUBANO INC", "city": "NEW YORK", "state": "NY", "zip": "10036-0000", "ntee": "A23", "ruling": "200105", "deductibility": "1", "assets": 8522, "income": 68078, "revenue": 68078}, {"ein": "133990780", "name": "CENTRO CULTURAL ROSACRUZ A M O R C DE MANHATTAN INC", "city": "NEW YORK", "state": "NY", "zip": "10036-3802", "ntee": "X21", "ruling": "201409", "deductibility": "1", "assets": 0, "income": 0, "revenue": 0}, {"ein": "134027334", "name": "CENTRO COMUNAL GENERAL GREGORIO LUPERON INC", "city": "NEW YORK", "state": "NY", "zip": "10040-0412", "ntee": "P20", "ruling": "199902", "deductibility": "1", "assets": 1, "income": 1, "revenue": 0}, {"ein": "134027383", "name": "CENTRO CIVICO CULTURAL DOMINICANO", "city": "NEW YORK", "state": "NY", "zip": "10031-5002", "ntee": "P84", "ruling": "199905", "deductibility": "1", "assets": 17766, "income": 110530, "revenue": 110530}, {"ein": "134122518", "name": "CENTRO CRISTIANO VIDA ABUNDANTE", "city": "YONKERS", "state": "NY", "zip": "10705-1540", "ntee": "X21", "ruling": "200012", "deductibility": "1", "assets": 0, "income": 0, "revenue": 0}, {"ein": "134149424", "name": "EL CENTRO HISPANO INC", "city": "WHITE PLAINS", "state": "NY", "zip": "10606-1207", "ntee": "P84", "ruling": "200101", "deductibility": "1", "assets": 6317328, "income": 2190666, "revenue": 2190666}, {"ein": "134173711", "name": "EL CENTRO DE ESTUDIOS JUDIOS TORAT EMET", "city": "YONKERS", "state": "NY", "zip": "10704-2907", "ntee": "X30", "ruling": "200205", "deductibility": "1", "assets": 0, "income": 0, "revenue": 0}, {"ein": "161765323", "name": "CENTRO ALTAGRACIA DE FE Y JUSTICIA INC", "city": "NEW YORK", "state": "NY", "zip": "10011-6302", "ntee": "", "ruling": "194603", "deductibility": "1", "assets": 0, "income": 0, "revenue": 0}, {"ein": "202166548", "name": "CENTRO CULTURAL ROSACRUZ", "city": "BROOKLYN", "state": "NY", "zip": "11208-2915", "ntee": "X99", "ruling": "202411", "deductibility": "1", "assets": 0, "income": 0, "revenue": 0}, {"ein": "203093846", "name": "FUNDACION CORP GROUP CENTRO CULTURAL", "city": "NEW YORK", "state": "NY", "zip": "10022-2951", "ntee": "T50", "ruling": "200605", "deductibility": "1", "assets": 1, "income": 1, "revenue": 0}, {"ein": "203563160", "name": "CENTRO PRIMO LEVI", "city": "NEW YORK", "state": "NY", "zip": "10011-6301", "ntee": "A70", "ruling": "200606", "deductibility": "1", "assets": 287566, "income": 248611, "revenue": 248611}, {"ein": "205136080", "name": "CENTRO DE ADORACION LA GRACIA DEDIOS", "city": "YONKERS", "state": "NY", "zip": "10705-3221", "ntee": "X21", "ruling": "200609", "deductibility": "1", "assets": 0, "income": 0, "revenue": 0}, {"ein": "205450192", "name": "CENTRO CULTURAL Y EDUCATIVO EL MAESTRO INC", "city": "BRONX", "state": "NY", "zip": "10459-1503", "ntee": "A23", "ruling": "202506", "deductibility": "1", "assets": 3561, "income": 44099, "revenue": 44099}, {"ein": "205480815", "name": "CENTRO MUNDIAL DE AVIVAMIENTO INC", "city": "EAST ELMHURST", "state": "NY", "zip": "11369-2510", "ntee": "X21", "ruling": "201010", "deductibility": "1", "assets": 0, "income": 0, "revenue": 0}, {"ein": "205724058", "name": "CENTRO CORAZON DE MARIA INC", "city": "HAMPTON BAYS", "state": "NY", "zip": "11946-1816", "ntee": "", "ruling": "194603", "deductibility": "1", "assets": 192316, "income": 307343, "revenue": 307343}, {"ein": "205735125", "name": "CENTRO CRISTIANO RESTAURACION INTL", "city": "HICKSVILLE", "state": "NY", "zip": "11801-5300", "ntee": "", "ruling": "196408", "deductibility": "1", "assets": 0, "income": 0, "revenue": 0}, {"ein": "208372199", "name": "CENTRO CRISTIANO JESUS MI AMOR MINISTERIOS INC", "city": "NEW YORK", "state": "NY", "zip": "10029-0047", "ntee": "X20", "ruling": "201203", "deductibility": "1", "assets": 847, "income": 22461, "revenue": 22461}, {"ein": "208918838", "name": "CENTRO DE DIOS DE LOS EJERCITOS INC", "city": "NEW YORK", "state": "NY", "zip": "10033-1021", "ntee": "X21", "ruling": "200805", "deductibility": "1", "assets": 0, "income": 0, "revenue": 0}, {"ein": "260282864", "name": "CENTRO MISIONERO INTERNACIONAL REY DE GLORIA", "city": "FREEPORT", "state": "NY", "zip": "11520-3830", "ntee": "X20", "ruling": "200804", "deductibility": "1", "assets": 0, "income": 0, "revenue": 0}, {"ein": "260554672", "name": "CENTRO CIVICO ECUATORIANO DE NEWYORK INC", "city": "CORONA", "state": "NY", "zip": "11368-1648", "ntee": "P84", "ruling": "200908", "deductibility": "1", "assets": 824, "income": 0, "revenue": 0}, {"ein": "260720459", "name": "CENTRO CRISTIANO MISIONERO INC", "city": "HICKSVILLE", "state": "NY", "zip": "11801-3413", "ntee": "X21", "ruling": "201307", "deductibility": "1", "assets": 0, "income": 0, "revenue": 0}, {"ein": "261519921", "name": "CENTRO EDUCATIVO CRECIENDO EN GRACIA NY INC", "city": "CORONA", "state": "NY", "zip": "11368-2371", "ntee": "X21", "ruling": "200903", "deductibility": "1", "assets": 0, "income": 0, "revenue": 0}, {"ein": "261939480", "name": "CENTRO DE ADORACION EL SHADDAI", "city": "LYNBROOK", "state": "NY", "zip": "11563-2754", "ntee": "", "ruling": "197210", "deductibility": "1", "assets": 0, "income": 0, "revenue": 0}, {"ein": "262602308", "name": "CENTRO CRISTIANO HEBREOS 13-8", "city": "BRONX", "state": "NY", "zip": "10465-1047", "ntee": "X21", "ruling": "200905", "deductibility": "1", "assets": 0, "income": 0, "revenue": 0}, {"ein": "264330022", "name": "CENTRO EVANGELISTICO FAMILIA DE DIOS INC", "city": "ROOSEVELT", "state": "NY", "zip": "11575-2037", "ntee": "X20", "ruling": "200907", "deductibility": "1", "assets": 0, "income": 0, "revenue": 0}, {"ein": "271057395", "name": "CENTRO CRISTIANO ELOHIM INC", "city": "GARNERVILLE", "state": "NY", "zip": "10923-1209", "ntee": "X20", "ruling": "201003", "deductibility": "1", "assets": 0, "income": 0, "revenue": 0}, {"ein": "271185837", "name": "CENY CENTRO EDUCATIVO INC", "city": "NEW YORK", "state": "NY", "zip": "10035-2745", "ntee": "A23", "ruling": "201012", "deductibility": "1", "assets": 135126, "income": 184251, "revenue": 184251}, {"ein": "271826164", "name": "CENTRO CRISTIANO DE ADORACION OR", "city": "BRONX", "state": "NY", "zip": "10468-1333", "ntee": "X21", "ruling": "201003", "deductibility": "1", "assets": 30338, "income": 210127, "revenue": 210127}, {"ein": "274396147", "name": "CENTRO BIBLICO CASA DE RESTAURACION INC", "city": "BALDWIN", "state": "NY", "zip": "11510-4060", "ntee": "X21", "ruling": "201106", "deductibility": "1", "assets": 1329096, "income": 375321, "revenue": 375321}, {"ein": "300522356", "name": "CENTRO MISIONERO LA PAZ DE DIOS INC", "city": "MERRICK", "state": "NY", "zip": "11566-3147", "ntee": "X20", "ruling": "201008", "deductibility": "1", "assets": 0, "income": 0, "revenue": 0}, {"ein": "320717065", "name": "CENTRO DE ORACION QUEENS INC", "city": "BROOKLYN", "state": "NY", "zip": "11224-1528", "ntee": "X99", "ruling": "202504", "deductibility": "1", "assets": 0, "income": 0, "revenue": 0}, {"ein": "342035056", "name": "IGLESIA UNITY CENTRO DE LUZ INC", "city": "BRONX", "state": "NY", "zip": "10452-5104", "ntee": "", "ruling": "197002", "deductibility": "1", "assets": 11939, "income": 85364, "revenue": 85364}, {"ein": "383878112", "name": "CENTRO DE AVIVAMIENTO VALLE DE SITIM", "city": "WHITE PLAINS", "state": "NY", "zip": "10601-3401", "ntee": "", "ruling": "196307", "deductibility": "1", "assets": 0, "income": 0, "revenue": 0}, {"ein": "452509354", "name": "CENTRO CULTURALE ITALIANO DI BUFFALO INC", "city": "BUFFALO", "state": "NY", "zip": "14216-2396", "ntee": "A23", "ruling": "201906", "deductibility": "1", "assets": 2144666, "income": 997408, "revenue": 997408}, {"ein": "454615071", "name": "CENTRO ESPANOL DE QUEENS INC", "city": "ASTORIA", "state": "NY", "zip": "11103-3104", "ntee": "P80", "ruling": "201209", "deductibility": "2", "assets": 117403, "income": 213588, "revenue": 213588}, {"ein": "454639253", "name": "CENTRO BIBLICO CASA DEL REY", "city": "BROOKLYN", "state": "NY", "zip": "11208-1142", "ntee": "X99", "ruling": "201411", "deductibility": "1", "assets": 6049, "income": 36122, "revenue": 36122}, {"ein": "455311727", "name": "CENTRO FAMILIAR BRAZOS ABIERTOS INC", "city": "SAUGERTIES", "state": "NY", "zip": "12477-0000", "ntee": "P20", "ruling": "201403", "deductibility": "1", "assets": 0, "income": 0, "revenue": 0}, {"ein": "455436305", "name": "CENTRO CRISTIANO DE BENDICION INC", "city": "BROOKLYN", "state": "NY", "zip": "11208-1204", "ntee": "X20", "ruling": "201208", "deductibility": "1", "assets": 0, "income": 0, "revenue": 0}, {"ein": "460640748", "name": "CENTRO CRISTIANO RECONCILIANDO LA FAMILIA CON CRISTO", "city": "BRONX", "state": "NY", "zip": "10459-1408", "ntee": "X20", "ruling": "201409", "deductibility": "1", "assets": 0, "income": 0, "revenue": 0}, {"ein": "460928254", "name": "IGLESIA CENTRO FAMILIAR CRISTO VIVE INC", "city": "BRENTWOOD", "state": "NY", "zip": "11717-4507", "ntee": "X20", "ruling": "201311", "deductibility": "1", "assets": 0, "income": 0, "revenue": 0}, {"ein": "461198042", "name": "CENTRO CRISTIANO DE RESTAURACION", "city": "BRONX", "state": "NY", "zip": "10459-4494", "ntee": "X21", "ruling": "202406", "deductibility": "1", "assets": 0, "income": 0, "revenue": 0}, {"ein": "462469390", "name": "CENTRO PARAGUAYO NEW YORK", "city": "HOLLIS", "state": "NY", "zip": "11423-1245", "ntee": "A23", "ruling": "201901", "deductibility": "1", "assets": 6966, "income": 135593, "revenue": 104995}, {"ein": "462574984", "name": "CENTRO CRISTIANO FAMILIA DE FE INC", "city": "JAMAICA", "state": "NY", "zip": "11435-4713", "ntee": "X21", "ruling": "201508", "deductibility": "1", "assets": 140246, "income": 128247, "revenue": 128247}, {"ein": "462676751", "name": "CENTRO CRISTIANO FARO DE LUZ", "city": "BROOKLYN", "state": "NY", "zip": "11208-2031", "ntee": "X21", "ruling": "201504", "deductibility": "1", "assets": 151055, "income": 163174, "revenue": 163174}, {"ein": "462836620", "name": "CENTRO CRISTIANO ALIENTO DE VIDA INC", "city": "LYNBROOK", "state": "NY", "zip": "11563-0042", "ntee": "X21", "ruling": "201410", "deductibility": "1", "assets": 0, "income": 0, "revenue": 0}, {"ein": "463032546", "name": "CENTRO CRISTIANO FUENTE DE VIDA INC", "city": "BROOKLYN", "state": "NY", "zip": "11208-1419", "ntee": "X20", "ruling": "201408", "deductibility": "1", "assets": 0, "income": 0, "revenue": 0}, {"ein": "463914515", "name": "CENTRO CRISTIANO LEVANTATE DEJA TODO LO QUE TIENES Y SIGUEME", "city": "BRONX", "state": "NY", "zip": "10456-5335", "ntee": "X20", "ruling": "201504", "deductibility": "1", "assets": 0, "income": 0, "revenue": 0}, {"ein": "463966420", "name": "IGLESIA HISPANA CRISTIANA CENTRO DE ORACION INC", "city": "ELMIRA", "state": "NY", "zip": "14905-2535", "ntee": "P20", "ruling": "201408", "deductibility": "1", "assets": 0, "income": 0, "revenue": 0}, {"ein": "464110516", "name": "CENTRO MISIONERO ID MATEO 28 19", "city": "HUNTINGTN STA", "state": "NY", "zip": "11746-0927", "ntee": "", "ruling": "196402", "deductibility": "1", "assets": 0, "income": 0, "revenue": 0}, {"ein": "464990655", "name": "CENTRO CRISTIANO NUEVA VIDA", "city": "MIDDLETOWN", "state": "NY", "zip": "10940-2611", "ntee": "", "ruling": "196408", "deductibility": "1", "assets": 0, "income": 0, "revenue": 0}, {"ein": "465299137", "name": "CENTRO BIBLICO DE INWOOD INC", "city": "INWOOD", "state": "NY", "zip": "11096-1365", "ntee": "X20", "ruling": "201410", "deductibility": "1", "assets": 0, "income": 0, "revenue": 0}, {"ein": "471149446", "name": "CENTRO CRISTIANO DE RESTAURACION ADULAM INC", "city": "PORT CHESTER", "state": "NY", "zip": "10573-4707", "ntee": "X20", "ruling": "201501", "deductibility": "1", "assets": 0, "income": 0, "revenue": 0}, {"ein": "472162466", "name": "CENTRO CRISTIANO TORREON FUERTE CORP", "city": "STONY POINT", "state": "NY", "zip": "10980-3009", "ntee": "X20", "ruling": "202205", "deductibility": "1", "assets": 0, "income": 0, "revenue": 0}, {"ein": "472363254", "name": "CENTRO CULTURAL BARCO DE PAPEL INC", "city": "QUEENS", "state": "NY", "zip": "11373-1233", "ntee": "A70", "ruling": "201505", "deductibility": "1", "assets": 0, "income": 0, "revenue": 0}, {"ein": "473728151", "name": "CENTRO CRISTIANO DE RESTAURACION EL SHADDAI", "city": "BRONX", "state": "NY", "zip": "10454-2678", "ntee": "X21", "ruling": "201507", "deductibility": "1", "assets": 0, "income": 0, "revenue": 0}, {"ein": "475484446", "name": "CENTRO BIBLICO ALCANZANDO LOS NO ALCANZADOS INC", "city": "BROOKLYN", "state": "NY", "zip": "11212-1258", "ntee": "X20", "ruling": "201512", "deductibility": "1", "assets": 10174, "income": 84764, "revenue": 84764}, {"ein": "475524296", "name": "CENTRO CULTURAL DEPORTIVO MARIA MONTEZ INC", "city": "BRONX", "state": "NY", "zip": "10458-6415", "ntee": "A23", "ruling": "202001", "deductibility": "1", "assets": 35000, "income": 0, "revenue": 0}, {"ein": "562451465", "name": "CENTRO CRISTIANO MISIONERO PORTADORES DE PAZ", "city": "BROOKLYN", "state": "NY", "zip": "11219-6216", "ntee": "X21", "ruling": "200503", "deductibility": "1", "assets": 0, "income": 0, "revenue": 0}, {"ein": "810696268", "name": "CENTRO COMUNAL DE ALABANZA Y ADORACION NUEVO RENACER INC", "city": "BRONX", "state": "NY", "zip": "10459-5008", "ntee": "X20", "ruling": "201611", "deductibility": "1", "assets": 0, "income": 0, "revenue": 0}, {"ein": "814198118", "name": "EL RINCON CRIOLLO CENTRO CULTURAL INC", "city": "BRONX", "state": "NY", "zip": "10451-0000", "ntee": "A20", "ruling": "201809", "deductibility": "1", "assets": 0, "income": 0, "revenue": 0}, {"ein": "814370541", "name": "CENTRO CRISTIANO CASA DE ORACION PARA TODAS LAS NACIONES", "city": "BRONX", "state": "NY", "zip": "10466-3802", "ntee": "X21", "ruling": "202201", "deductibility": "1", "assets": 0, "income": 0, "revenue": 0}, {"ein": "824149759", "name": "CENTRO DE RECURSOS EDUCATIVOS PARA ADULTOS INC", "city": "NEW YORK", "state": "NY", "zip": "10029-1702", "ntee": "B90", "ruling": "201904", "deductibility": "1", "assets": 196649, "income": 230452, "revenue": 230452}, {"ein": "831053776", "name": "CENTRO RECREATIVO PORTUGUES DE JAMAICA NY INC", "city": "JAMAICA", "state": "NY", "zip": "11435-4727", "ntee": "A20", "ruling": "201907", "deductibility": "1", "assets": 74349, "income": 104238, "revenue": 77452}, {"ein": "831787838", "name": "CENTRO CULTURAL COLOMBIANO INTERNACIONAL INC", "city": "BRONX", "state": "NY", "zip": "10455-4013", "ntee": "A23", "ruling": "202409", "deductibility": "1", "assets": 0, "income": 0, "revenue": 0}, {"ein": "832987648", "name": "CENTRO MISIONERO CRISTIANO INC", "city": "BROOKLYN", "state": "NY", "zip": "11206-4055", "ntee": "X20", "ruling": "201912", "deductibility": "1", "assets": 0, "income": 0, "revenue": 0}, {"ein": "834512032", "name": "CENTRO CIVICO ECUATORIANO DE WESTCHESTER INC", "city": "YONKERS", "state": "NY", "zip": "10704-1951", "ntee": "A20", "ruling": "202205", "deductibility": "1", "assets": 0, "income": 0, "revenue": 0}, {"ein": "841733855", "name": "IGLESIA CENTRO VIDA UPCI INC", "city": "HICKSVILLE", "state": "NY", "zip": "11801-4647", "ntee": "X99", "ruling": "202104", "deductibility": "1", "assets": 0, "income": 0, "revenue": 0}, {"ein": "844033564", "name": "CENTRO FRANCISCANO A MISSION OF THE DIOCESE OF LONG ISLAND", "city": "RIVERHEAD", "state": "NY", "zip": "11901-2760", "ntee": "", "ruling": "197206", "deductibility": "1", "assets": 0, "income": 0, "revenue": 0}, {"ein": "851709407", "name": "CENTRO CULTURAL MEXICANO NY INC", "city": "BRONX", "state": "NY", "zip": "10456-6158", "ntee": "S20", "ruling": "202309", "deductibility": "1", "assets": 0, "income": 0, "revenue": 0}, {"ein": "862731106", "name": "CENTRO DE ESTUDIOS TEOLOGICOS PODER DEL ALFARERO INC", "city": "BROOKLYN", "state": "NY", "zip": "11232-3610", "ntee": "X21", "ruling": "202410", "deductibility": "1", "assets": 0, "income": 0, "revenue": 0}, {"ein": "862946134", "name": "LA VID CENTRO CRISTIANO", "city": "COLLEGE POINT", "state": "NY", "zip": "11356-2021", "ntee": "X20", "ruling": "202107", "deductibility": "1", "assets": 1, "income": 1, "revenue": 0}, {"ein": "863838472", "name": "CENTRO CRISTIANO LAFAMILIA INC", "city": "NIAGARA FALLS", "state": "NY", "zip": "14305-3104", "ntee": "X20", "ruling": "202206", "deductibility": "1", "assets": 0, "income": 0, "revenue": 0}, {"ein": "870706781", "name": "CENTRO EVANGELISTICO M M M INC", "city": "NEW YORK", "state": "NY", "zip": "10040-1900", "ntee": "", "ruling": "202406", "deductibility": "1", "assets": 0, "income": 0, "revenue": 0}, {"ein": "873124971", "name": "MOVIMIENTO INTERNACIONAL CENTRO CRISTIANO DE BENDICION INC", "city": "BROOKLYN", "state": "NY", "zip": "11208-1726", "ntee": "X21", "ruling": "202206", "deductibility": "1", "assets": 0, "income": 0, "revenue": 0}, {"ein": "883656751", "name": "CENTRO CRISTIANO SUNEM INC", "city": "POMONA", "state": "NY", "zip": "10970-3006", "ntee": "X20", "ruling": "202306", "deductibility": "1", "assets": 0, "income": 0, "revenue": 0}, {"ein": "900535831", "name": "CENTRO CRISTIANO ALUMBRANDO LAS NACION", "city": "BAY SHORE", "state": "NY", "zip": "11706-4214", "ntee": "", "ruling": "197210", "deductibility": "1", "assets": 0, "income": 0, "revenue": 0}, {"ein": "921408891", "name": "CENTRO COMUNITARIO HISPANO CORP", "city": "VALLEY STREAM", "state": "NY", "zip": "11580-1804", "ntee": "E70", "ruling": "202303", "deductibility": "1", "assets": 5605, "income": 14143, "revenue": 14143}, {"ein": "921950522", "name": "CENTRO COMUNAL DEPORTIVO Y CULTURAL LA ROSA AZUL INC", "city": "CORONA", "state": "NY", "zip": "11368-1035", "ntee": "A99", "ruling": "202306", "deductibility": "1", "assets": 1, "income": 8844, "revenue": 8844}, {"ein": "933166634", "name": "CENTRO COMUNAL DEPORTIVO LA CUEVA DE QUEENS INC", "city": "CORONA", "state": "NY", "zip": "11368-1785", "ntee": "B92", "ruling": "202409", "deductibility": "1", "assets": 0, "income": 0, "revenue": 0}, {"ein": "933930720", "name": "CENTRO COMUNITARIO INTERNACIONAL NON PROFIT CORP", "city": "CORONA", "state": "NY", "zip": "11368-1742", "ntee": "P20", "ruling": "202501", "deductibility": "1", "assets": 306, "income": 5000, "revenue": 5000}, {"ein": "990888466", "name": "CENTRO FAMILIAR CRISTIANO INC", "city": "MAMARONECK", "state": "NY", "zip": "10543-2762", "ntee": "X20", "ruling": "202401", "deductibility": "1", "assets": 13145, "income": 41732, "revenue": 41732}, {"ein": "991957026", "name": "CMIGRA - CENTRO DE CERTIFICACION PARA SERVIDORES MIGRATORIOS DE LAS", "city": "BRONX", "state": "NY", "zip": "10457-2888", "ntee": "B19", "ruling": "202404", "deductibility": "1", "assets": 1, "income": 140496, "revenue": 140496}, {"ein": "992783586", "name": "EL CENTRO PADAGOGICO INC", "city": "FLUSHING", "state": "NY", "zip": "11367-2628", "ntee": "X21", "ruling": "202410", "deductibility": "1", "assets": 0, "income": 0, "revenue": 0}, {"ein": "993933795", "name": "CENTRO HERMANDAD QUISQUEYANA CORP", "city": "NEW YORK", "state": "NY", "zip": "10034-1842", "ntee": "S20", "ruling": "202408", "deductibility": "1", "assets": 0, "income": 0, "revenue": 0}], "RUGRUNNERS": [{"ein": "043779019", "name": "RUGRUNNERS ROBOTICS INC", "city": "BALLSTON LAKE", "state": "NY", "zip": "12019-2222", "ntee": "B99", "ruling": "200312", "deductibility": "1", "assets": 70541, "income": 134730, "revenue": 134730}], "PHARMACISTS": [{"ein": "050524456", "name": "ROYAL COUNTIES OF NEW YORK SOCIETY OF HOSPITAL PHARMACISTS INC", "city": "PATCHOGUE", "state": "NY", "zip": "11772-2138", "ntee": "S41", "ruling": "202002", "deductibility": "2", "assets": 0, "income": 0, "revenue": 0}, {"ein": "111949455", "name": "LONG ISLAND PHARMACISTS SOCIETY INC", "city": "MELVILLE", "state": "NY", "zip": "11747-0000", "ntee": "", "ruling": "194408", "deductibility": "2", "assets": 77487, "income": 15630, "revenue": 15630}, {"ein": "112779309", "name": "NEW YORK STATE COUNCIL OF HEALTH SYSTEMS PHARMACISTS INC", "city": "ALBANY", "state": "NY", "zip": "12203-5390", "ntee": "B90", "ruling": "201109", "deductibility": "1", "assets": 526212, "income": 269980, "revenue": 107895}, {"ein": "113089904", "name": "BANGLADESHI-AMERICAN PHARMACISTS ASSOCIATION INC", "city": "ROSLYN", "state": "NY", "zip": "11576-2233", "ntee": "G03", "ruling": "202001", "deductibility": "1", "assets": 67509, "income": 41959, "revenue": 41959}, {"ein": "113549718", "name": "LONG ISLAND SOCIETY OF HEALTH SYSTEM PHARMACISTS", "city": "MASSAPEQUA PK", "state": "NY", "zip": "11762-0205", "ntee": "S41", "ruling": "200905", "deductibility": "2", "assets": 121411, "income": 109769, "revenue": 109769}, {"ein": "113593065", "name": "ITALIAN PHARMACISTS SOCIETY OF THE STATE OF NEW YORK", "city": "BRONX", "state": "NY", "zip": "10458-0000", "ntee": "S41", "ruling": "201201", "deductibility": "2", "assets": 113329, "income": 36799, "revenue": 36799}, {"ein": "131669660", "name": "PHARMACISTS SOCIETY OF THE STATE OF NEW YORK", "city": "ALBANY", "state": "NY", "zip": "12205-1138", "ntee": "", "ruling": "194212", "deductibility": "2", "assets": 357457, "income": 801493, "revenue": 799160}, {"ein": "134198869", "name": "WESTCHESTER COUNTY SOCIETY OF HEALTH SYSTEM PHARMACISTS INC", "city": "MAHOPAC", "state": "NY", "zip": "10541-3944", "ntee": "S41", "ruling": "200209", "deductibility": "2", "assets": 0, "income": 0, "revenue": 0}, {"ein": "134218985", "name": "MOHAWK VALLEY PHARMACISTS SOCIETY", "city": "WHITESBORO", "state": "NY", "zip": "13492-2212", "ntee": "S41", "ruling": "200401", "deductibility": "2", "assets": 0, "income": 0, "revenue": 0}, {"ein": "146017029", "name": "AMERICAN PHARMACISTS ASSOCIATION", "city": "ALBANY", "state": "NY", "zip": "12208-3425", "ntee": "", "ruling": "195602", "deductibility": "2", "assets": 0, "income": 0, "revenue": 0}, {"ein": "160742611", "name": "PHARMACISTS ASSOCIATION OF WESTERN", "city": "ORCHARD PARK", "state": "NY", "zip": "14127-8352", "ntee": "", "ruling": "199202", "deductibility": "2", "assets": 15663, "income": 17866, "revenue": 17866}, {"ein": "161627909", "name": "ROCHESTER AREA SOCIETY OF HEALTH SYSTEM PHARMACISTS", "city": "ROCHESTER", "state": "NY", "zip": "14602-0265", "ntee": "S034", "ruling": "200302", "deductibility": "2", "assets": 0, "income": 0, "revenue": 0}, {"ein": "222953460", "name": "THE WESTERN NEW YORK SOCIETY OF HEALTH-SYSTEM PHARMACISTS CHAPTER", "city": "BUFFALO", "state": "NY", "zip": "14216-3417", "ntee": "S034", "ruling": "200303", "deductibility": "2", "assets": 23990, "income": 13317, "revenue": 13317}, {"ein": "237169617", "name": "NEW YORK COUNCIL OF HEALTH-SYSTEM PHARMACISTS", "city": "ALBANY", "state": "NY", "zip": "12203-5390", "ntee": "", "ruling": "198208", "deductibility": "2", "assets": 1255608, "income": 1071554, "revenue": 1035612}, {"ein": "270616064", "name": "VERMONT SOCIETY OF HEALTH-SYSTEM PHARMACISTS INC", "city": "OSWEGO", "state": "NY", "zip": "13126-4120", "ntee": "S41", "ruling": "200911", "deductibility": "2", "assets": 70378, "income": 15472, "revenue": 15472}, {"ein": "823142505", "name": "SOUTHERN TIER SOCIETY OF HEALTH-SYSTEM PHARMACISTS INC", "city": "JOHNSON CITY", "state": "NY", "zip": "13790-2107", "ntee": "G03", "ruling": "201906", "deductibility": "1", "assets": 0, "income": 0, "revenue": 0}, {"ein": "825244226", "name": "AMERICAN PHARMACISTS ASSOCIATION", "city": "JOHNSON CITY", "state": "NY", "zip": "13790-0000", "ntee": "", "ruling": "195602", "deductibility": "2", "assets": 0, "income": 0, "revenue": 0}], "KESSER": [{"ein": "050567962", "name": "AMERICAN FRIENDS OF YESHIVA KESSER CHAIM INC", "city": "FOREST HILLS", "state": "NY", "zip": "11375-0000", "ntee": "X83", "ruling": "200501", "deductibility": "1", "assets": 0, "income": 0, "revenue": 0}, {"ein": "113036001", "name": "YESHIVA KESSER CHAIM", "city": "BROOKLYN", "state": "NY", "zip": "11210-3714", "ntee": "", "ruling": "199104", "deductibility": "1", "assets": 0, "income": 0, "revenue": 0}, {"ein": "113177760", "name": "YESHIVA KESSER ISRAEL", "city": "BROOKLYN", "state": "NY", "zip": "11219-2622", "ntee": "", "ruling": "199311", "deductibility": "1", "assets": 0, "income": 0, "revenue": 0}, {"ein": "113197911", "name": "KESSER MALKA", "city": "BROOKLYN", "state": "NY", "zip": "11219-2402", "ntee": "", "ruling": "199411", "deductibility": "1", "assets": 0, "income": 0, "revenue": 0}, {"ein": "113295355", "name": "CONGREGATION KESSER SHEM TOV", "city": "BROOKLYN", "state": "NY", "zip": "11210-4535", "ntee": "X30Z", "ruling": "199601", "deductibility": "1", "assets": 0, "income": 0, "revenue": 0}, {"ein": "133819916", "name": "CONGREGATION KESSER TORAN", "city": "BROOKLYN", "state": "NY", "zip": "11223-1939", "ntee": "X30Z", "ruling": "199507", "deductibility": "1", "assets": 0, "income": 0, "revenue": 0}, {"ein": "203366795", "name": "MESIVTA KESSER YISROEL OF WILLOWBROOK INC", "city": "STATEN ISLAND", "state": "NY", "zip": "10302-2451", "ntee": "X30", "ruling": "201505", "deductibility": "1", "assets": 0, "income": 0, "revenue": 0}, {"ein": "271936240", "name": "KESSER DAVID INC", "city": "BROOKLYN", "state": "NY", "zip": "11219-5198", "ntee": "P80", "ruling": "201201", "deductibility": "1", "assets": 0, "income": 0, "revenue": 0}, {"ein": "465297922", "name": "CAMP KESSER TORAH OF CUTA INC", "city": "BROOKLYN", "state": "NY", "zip": "11249-7814", "ntee": "X30", "ruling": "202408", "deductibility": "1", "assets": 0, "income": 0, "revenue": 0}, {"ein": "800115439", "name": "CONGREGATION YESHIVA KESSER TORAH", "city": "MONSEY", "state": "NY", "zip": "10952-2127", "ntee": "X30", "ruling": "200412", "deductibility": "1", "assets": 0, "income": 0, "revenue": 0}, {"ein": "824452501", "name": "KESSER BAIS YAKOV", "city": "MONSEY", "state": "NY", "zip": "10952-8068", "ntee": "X30", "ruling": "201809", "deductibility": "1", "assets": 0, "income": 0, "revenue": 0}], "TOVOS": [{"ein": "061604377", "name": "GOMLAI TOVOS", "city": "BROOKLYN", "state": "NY", "zip": "11211-8001", "ntee": "X30", "ruling": "200101", "deductibility": "1", "assets": 0, "income": 0, "revenue": 0}], "BEGINNING": [{"ein": "061676578", "name": "NEW BEGINNING CHURCH", "city": "ROCHESTER", "state": "NY", "zip": "14608-1101", "ntee": "X21", "ruling": "200402", "deductibility": "1", "assets": 0, "income": 0, "revenue": 0}, {"ein": "112991391", "name": "NEW BEGINNING OUTREACH LOVE CENTER INC", "city": "EAST ELMHURST", "state": "NY", "zip": "11369-0000", "ntee": "X20Z", "ruling": "199510", "deductibility": "1", "assets": 0, "income": 0, "revenue": 0}, {"ein": "113060928", "name": "GREATER NEW BEGINNING BAPTIST CHURCH INC", "city": "BROOKLYN", "state": "NY", "zip": "11212-3937", "ntee": "X99Z", "ruling": "199609", "deductibility": "1", "assets": 0, "income": 0, "revenue": 0}, {"ein": "113832440", "name": "OUTREACH CHURCH NEW BEGINNING MINISTRIES INTERNATIONAL INC", "city": "BROOKLYN", "state": "NY", "zip": "11226-7906", "ntee": "X20", "ruling": "201208", "deductibility": "1", "assets": 0, "income": 0, "revenue": 0}, {"ein": "133593810", "name": "BEGINNING WITH CHILDREN FOUNDATION INC", "city": "BROOKLYN", "state": "NY", "zip": "11211-6128", "ntee": "B99Z", "ruling": "199210", "deductibility": "1", "assets": 57665350, "income": 9047488, "revenue": 8971436}, {"ein": "133673325", "name": "NEW BEGINNING OUTREACH MINISTRIES INC", "city": "BRONX", "state": "NY", "zip": "10455-4312", "ntee": "F20", "ruling": "201301", "deductibility": "1", "assets": 0, "income": 0, "revenue": 0}, {"ein": "133844990", "name": "A NEW BEGINNING INTERNATIONAL MINISTRY INC", "city": "MANHATTAN", "state": "NY", "zip": "10035-4019", "ntee": "X99Z", "ruling": "199601", "deductibility": "1", "assets": 0, "income": 0, "revenue": 0}, {"ein": "161588490", "name": "NEW BEGINNING UNITY MISSIONARY BAPTIST CHURCH", "city": "SYRACUSE", "state": "NY", "zip": "13224-1536", "ntee": "X21", "ruling": "200406", "deductibility": "1", "assets": 0, "income": 0, "revenue": 0}, {"ein": "161596990", "name": "NEW BEGINNING CHRISTIAN COMMUNITY CHURCH", "city": "ROCHESTER", "state": "NY", "zip": "14625-1336", "ntee": "X21", "ruling": "200106", "deductibility": "0", "assets": 0, "income": 0, "revenue": 0}, {"ein": "202901349", "name": "BEGINNING ANEW COMMUNITY DEVELOPMENT COPORATION", "city": "AMITYVILLE", "state": "NY", "zip": "11701-3000", "ntee": "P20", "ruling": "200710", "deductibility": "1", "assets": 0, "income": 0, "revenue": 0}, {"ein": "222795767", "name": "NEW BEGINNING CHURCH OF GOD", "city": "ROCHESTER", "state": "NY", "zip": "14614-1814", "ntee": "", "ruling": "198706", "deductibility": "1", "assets": 0, "income": 0, "revenue": 0}, {"ein": "261929602", "name": "NEW BEGINNING REFORMED CHURCH INC", "city": "JAMAICA", "state": "NY", "zip": "11423-2515", "ntee": "X20", "ruling": "201908", "deductibility": "1", "assets": 0, "income": 0, "revenue": 0}, {"ein": "273656031", "name": "NEW BEGINNING DELIVERANCE AND HEALING WORSHIP CENTER INC", "city": "ROOSEVELT", "state": "NY", "zip": "11575-2303", "ntee": "X21", "ruling": "201104", "deductibility": "1", "assets": 0, "income": 0, "revenue": 0}, {"ein": "275490730", "name": "NEW BEGINNING CHURCH INTERNATIONAL NBCI INC", "city": "ROCHESTER", "state": "NY", "zip": "14624-1507", "ntee": "X21", "ruling": "201106", "deductibility": "1", "assets": 0, "income": 0, "revenue": 0}, {"ein": "300152470", "name": "NEW BEGINNING PENTECOSTAL CHURCH OF GOD INC", "city": "BROOKLYN", "state": "NY", "zip": "11216-6660", "ntee": "X20", "ruling": "200307", "deductibility": "1", "assets": 0, "income": 0, "revenue": 0}, {"ein": "454502808", "name": "NEW BEGINNING CHURCH OF CHRIST", "city": "UNIONDALE", "state": "NY", "zip": "11553-1523", "ntee": "X21", "ruling": "201908", "deductibility": "1", "assets": 0, "income": 0, "revenue": 0}, {"ein": "461522217", "name": "IN THE BEGINNING OUTREACH INC", "city": "QUEENS", "state": "NY", "zip": "11422-1223", "ntee": "P85", "ruling": "201503", "deductibility": "1", "assets": 0, "income": 0, "revenue": 0}, {"ein": "462272776", "name": "A NEW BEGINNING ANIMAL RESCUE CORP", "city": "PLAINVIEW", "state": "NY", "zip": "11803-0092", "ntee": "D20", "ruling": "201409", "deductibility": "1", "assets": 394, "income": 46382, "revenue": 46382}, {"ein": "473991203", "name": "NEW BEGINNING BAPTIST CHURCH OF NEW YORK NEW YORK", "city": "NEW YORK", "state": "NY", "zip": "10040-4562", "ntee": "X20", "ruling": "202011", "deductibility": "1", "assets": 0, "income": 0, "revenue": 0}, {"ein": "611562395", "name": "NEW DAY NEW BEGINNING CHURCH INC", "city": "LONG IS CITY", "state": "NY", "zip": "11103-1707", "ntee": "X20", "ruling": "201108", "deductibility": "1", "assets": 0, "income": 0, "revenue": 0}, {"ein": "843206537", "name": "NEW BEGINNING BY FAITH MINISTRIES", "city": "NEW YORK CITY", "state": "NY", "zip": "10029-4279", "ntee": "X20", "ruling": "202002", "deductibility": "1", "assets": 0, "income": 0, "revenue": 0}, {"ein": "853139639", "name": "NEW BEGINNING APOSTOLIC CHURCH INC", "city": "VESTAL", "state": "NY", "zip": "13850-2915", "ntee": "X21", "ruling": "202205", "deductibility": "1", "assets": 0, "income": 0, "revenue": 0}, {"ein": "932008139", "name": "ALEPH FROM THE BEGINNING", "city": "BROOKLYN", "state": "NY", "zip": "11210-5237", "ntee": "P20", "ruling": "202311", "deductibility": "1", "assets": 0, "income": 0, "revenue": 0}], "CHERRY": [{"ein": "110621590", "name": "CHERRY VALLEY CLUB INC", "city": "GARDEN CITY", "state": "NY", "zip": "11530-4315", "ntee": "", "ruling": "193409", "deductibility": "2", "assets": 16668186, "income": 11647340, "revenue": 10441752}, {"ein": "112382005", "name": "CHERRY GROVE DUNE FUND INC", "city": "WANTAGH", "state": "NY", "zip": "11793-1509", "ntee": "C32Z", "ruling": "199103", "deductibility": "1", "assets": 562236, "income": 78372, "revenue": 78372}, {"ein": "112468118", "name": "ARTS PROJECT OF CHERRY GROVE INC", "city": "NEW YORK", "state": "NY", "zip": "10011-8436", "ntee": "A200", "ruling": "198101", "deductibility": "1", "assets": 337039, "income": 274816, "revenue": 195458}, {"ein": "112487681", "name": "CHERRY GROVE PROPERTY OWNERS ASSOC INC", "city": "CHERRY GROVE", "state": "NY", "zip": "11782-0998", "ntee": "S22", "ruling": "201407", "deductibility": "2", "assets": 0, "income": 0, "revenue": 0}, {"ein": "112586995", "name": "CHERRY GROVE FIRE DEPARTMENT", "city": "CHERRY GROVE", "state": "NY", "zip": "11782-0995", "ntee": "M24", "ruling": "201010", "deductibility": "0", "assets": 192404, "income": 61583, "revenue": 61583}, {"ein": "113622271", "name": "CHERRY GROVE COMMUNITY ASSOCIATION INC", "city": "TUCKAHOE", "state": "NY", "zip": "10707-0000", "ntee": "T30", "ruling": "200112", "deductibility": "1", "assets": 1489784, "income": 176773, "revenue": 176773}, {"ein": "113786453", "name": "CHERRY VALLEY SPRINGFIELD ENDOWMENT FOUNDATION ED EXCELLENCE INC", "city": "CHERRY VALLEY", "state": "NY", "zip": "13320-0033", "ntee": "B11", "ruling": "200610", "deductibility": "1", "assets": 132316, "income": 10354, "revenue": 10354}, {"ein": "133969173", "name": "CHERRY LANE ALTERNATIVE INC", "city": "NEW YORK", "state": "NY", "zip": "10128-1507", "ntee": "A650", "ruling": "199811", "deductibility": "1", "assets": 356901, "income": 37054, "revenue": -55734}, {"ein": "141482741", "name": "HISTORIC CHERRY HILL", "city": "ALBANY", "state": "NY", "zip": "12202-1111", "ntee": "A82Z", "ruling": "196604", "deductibility": "1", "assets": 317373, "income": 298796, "revenue": 288299}, {"ein": "150267887", "name": "CHERRY VALLEY COOPERATIVE INSURANCE COMPANY", "city": "WILLIAMSVILLE", "state": "NY", "zip": "14231-9062", "ntee": "Y23", "ruling": "200001", "deductibility": "2", "assets": 0, "income": 0, "revenue": 0}, {"ein": "156025777", "name": "CHERRY VALLEY LODGE 334 F & AM", "city": "CHERRY VALLEY", "state": "NY", "zip": "13320-0000", "ntee": "Y42", "ruling": "201712", "deductibility": "1", "assets": 0, "income": 0, "revenue": 0}, {"ein": "161009060", "name": "CHERRY CREEK FIRE DEPARTMENT INC", "city": "CHERRY CREEK", "state": "NY", "zip": "14723-9821", "ntee": "", "ruling": "200805", "deductibility": "1", "assets": 0, "income": 0, "revenue": 0}, {"ein": "161190017", "name": "CHERRY VALLEY AG", "city": "CHERRY VALLEY", "state": "NY", "zip": "13320-0524", "ntee": "", "ruling": "196408", "deductibility": "1", "assets": 0, "income": 0, "revenue": 0}, {"ein": "161328979", "name": "CHERRY VALLEY MEMORIAL LIBRARY", "city": "CHERRY VALLEY", "state": "NY", "zip": "13320-3738", "ntee": "", "ruling": "199206", "deductibility": "1", "assets": 488077, "income": 120909, "revenue": 64096}, {"ein": "161496711", "name": "CHERRY CREEK SNO-GOERS INC", "city": "CASSADAGA", "state": "NY", "zip": "14718-0243", "ntee": "C30", "ruling": "201909", "deductibility": "1", "assets": 433196, "income": 206000, "revenue": 171579}, {"ein": "161499182", "name": "CHERRY VALLEY COMMUNITY FACILITIES CORP", "city": "CHERRY VALLEY", "state": "NY", "zip": "13320-0066", "ntee": "S20", "ruling": "199901", "deductibility": "1", "assets": 1633688, "income": 158203, "revenue": -19130}, {"ein": "166051966", "name": "NEW YORK CHERRY GROWERS ASSOCIATION INC", "city": "FISHERS", "state": "NY", "zip": "14453-0350", "ntee": "", "ruling": "195203", "deductibility": "2", "assets": 0, "income": 0, "revenue": 0}, {"ein": "166154274", "name": "CHERRY VALLEY HISTORICAL ASSOC C O DAVID CORNELIA", "city": "CHERRY VALLEY", "state": "NY", "zip": "13320-0000", "ntee": "A54", "ruling": "201509", "deductibility": "1", "assets": 0, "income": 0, "revenue": 0}, {"ein": "201165482", "name": "CHERRY VALLEY ART WORKS INC", "city": "CHERRY VALLEY", "state": "NY", "zip": "13320-0092", "ntee": "A40", "ruling": "200601", "deductibility": "1", "assets": 62898, "income": 51147, "revenue": 51147}, {"ein": "263830657", "name": "CHERRY CREEK COMMUNITY ASSOCIATION INC", "city": "CHERRY CREEK", "state": "NY", "zip": "14723-0213", "ntee": "S20", "ruling": "201004", "deductibility": "2", "assets": 0, "income": 0, "revenue": 0}, {"ein": "270968429", "name": "CHERRY KIDS INC", "city": "NEW YORK", "state": "NY", "zip": "10035-0000", "ntee": "O50", "ruling": "201306", "deductibility": "1", "assets": 84508, "income": 154748, "revenue": 0}, {"ein": "334619029", "name": "CHERRY GROVE ARCHIVES COLLECTION INC", "city": "CHERRY GROVE", "state": "NY", "zip": "11782-0000", "ntee": "A23", "ruling": "202506", "deductibility": "1", "assets": 0, "income": 0, "revenue": 0}, {"ein": "364531723", "name": "CHERRY GROVE MEMORIAL FUND INC", "city": "NEW YORK", "state": "NY", "zip": "10022-2992", "ntee": "S12", "ruling": "200306", "deductibility": "1", "assets": 415455, "income": 30134, "revenue": 30134}, {"ein": "384054346", "name": "CHERRY VALLEY - SPRINGFIELD ATHLETIC BOOSTER CLUB", "city": "CHERRY VALLEY", "state": "NY", "zip": "13320-2309", "ntee": "O11", "ruling": "201802", "deductibility": "1", "assets": 0, "income": 0, "revenue": 0}, {"ein": "460858877", "name": "CHERRY ORCHARD FESTIVAL FOUNDATION CORP", "city": "NEW YORK", "state": "NY", "zip": "10069-0217", "ntee": "A60", "ruling": "201312", "deductibility": "1", "assets": 340382, "income": 418930, "revenue": 418930}, {"ein": "472252738", "name": "THE CHERRY ARTS INC", "city": "ITHACA", "state": "NY", "zip": "14850-5066", "ntee": "A65", "ruling": "201412", "deductibility": "1", "assets": 308667, "income": 320803, "revenue": 320803}, {"ein": "521923470", "name": "CHERRY AFFORDABLE HOUSING INC", "city": "NEW YORK", "state": "NY", "zip": "10168-0002", "ntee": "L20Z", "ruling": "199601", "deductibility": "1", "assets": 1, "income": 0, "revenue": 0}, {"ein": "883579724", "name": "CHERRY HILL FARM SANCTUARY", "city": "CORFU", "state": "NY", "zip": "14036-9631", "ntee": "D20", "ruling": "202301", "deductibility": "1", "assets": 0, "income": 0, "revenue": 0}, {"ein": "920493608", "name": "CHERRY CREEK COUNTRY CHURCH OF FAITH", "city": "CHERRY CREEK", "state": "NY", "zip": "14723-0063", "ntee": "X20", "ruling": "202309", "deductibility": "1", "assets": 0, "income": 0, "revenue": 0}, {"ein": "920825653", "name": "CHERRY VALLEY FIRE DEPARTMENT INC", "city": "CHERRY VALLEY", "state": "NY", "zip": "13320-0502", "ntee": "M24", "ruling": "202211", "deductibility": "1", "assets": 0, "income": 0, "revenue": 0}, {"ein": "992319208", "name": "CHERRY LANE SISTERHOOD INC", "city": "GREAT NECK", "state": "NY", "zip": "11024-1209", "ntee": "P99", "ruling": "202405", "deductibility": "1", "assets": 0, "income": 0, "revenue": 0}, {"ein": "994995618", "name": "275 CHERRY LANE INC", "city": "BROOKLYN", "state": "NY", "zip": "11205-2859", "ntee": "T12", "ruling": "202412", "deductibility": "1", "assets": 0, "income": 0, "revenue": 0}], "PARKWAY": [{"ein": "111848879", "name": "INTL NURSERY SCHOOL OF PARKWAY VILLAGE INC", "city": "FLUSHING", "state": "NY", "zip": "11358-2718", "ntee": "", "ruling": "196608", "deductibility": "1", "assets": 0, "income": 0, "revenue": 0}, {"ein": "112515695", "name": "OCEAN PARKWAY COMMUNITY DEVELOPMENT", "city": "BROOKLYN", "state": "NY", "zip": "11218-5708", "ntee": "S20Z", "ruling": "198012", "deductibility": "1", "assets": 85448, "income": 247942, "revenue": 247942}, {"ein": "112579605", "name": "CONGREGATION SHAARE SHALOM OF OCEAN PARKWAY", "city": "BROOKLYN", "state": "NY", "zip": "11219-3227", "ntee": "", "ruling": "198309", "deductibility": "1", "assets": 0, "income": 0, "revenue": 0}, {"ein": "112585004", "name": "PARKWAY-STUYVESANT COMMUNITY & HOUSING COUNCIL INC", "city": "BROOKLYN", "state": "NY", "zip": "11216-3443", "ntee": "L21", "ruling": "201603", "deductibility": "1", "assets": 95071, "income": 0, "revenue": 0}, {"ein": "113556169", "name": "PARKWAY COMMUNITY CHURCH", "city": "HICKSVILLE", "state": "NY", "zip": "11801-6131", "ntee": "", "ruling": "198601", "deductibility": "1", "assets": 0, "income": 0, "revenue": 0}, {"ein": "116021823", "name": "CONGREGATION BNAI JACOB OF EASTERN PARKWAY INC", "city": "FLUSHING", "state": "NY", "zip": "11367-1330", "ntee": "", "ruling": "194403", "deductibility": "1", "assets": 0, "income": 0, "revenue": 0}, {"ein": "116102342", "name": "CONGREGATION OF THE SHORE PARKWAY JEWISH CTR", "city": "BROOKLYN", "state": "NY", "zip": "11214-6608", "ntee": "X30", "ruling": "202203", "deductibility": "1", "assets": 0, "income": 0, "revenue": 0}, {"ein": "116105239", "name": "OCEAN PARKWAY JEWISH CENTER", "city": "BROOKLYN", "state": "NY", "zip": "11218-5808", "ntee": "", "ruling": "195109", "deductibility": "1", "assets": 0, "income": 0, "revenue": 0}, {"ein": "133099520", "name": "JEWISH COMMUNITY COUNCIL OF PELHAM PARKWAY INC", "city": "BRONX", "state": "NY", "zip": "10462-1778", "ntee": "X30Z", "ruling": "198408", "deductibility": "1", "assets": 1338, "income": 166792, "revenue": 166792}, {"ein": "133144715", "name": "CATHEDRAL PARKWAY TOWERS PRESCHOOL INC", "city": "NEW YORK", "state": "NY", "zip": "10025-0000", "ntee": "", "ruling": "199305", "deductibility": "1", "assets": 221265, "income": 953074, "revenue": 953074}, {"ein": "133510007", "name": "2136 CROTONA PARKWAY H D F C", "city": "NEW YORK", "state": "NY", "zip": "10010-6002", "ntee": "L200", "ruling": "198904", "deductibility": "1", "assets": 0, "income": 0, "revenue": 0}, {"ein": "133819602", "name": "CROTONA PARKWAY APARTMENTS HOUSING DEVELOPMENT FUND CORPORATION", "city": "BRONX", "state": "NY", "zip": "10460-4351", "ntee": "L20Z", "ruling": "199706", "deductibility": "1", "assets": 407110, "income": 253553, "revenue": 253553}, {"ein": "133973552", "name": "BRONX RIVER PARKWAY RESERVATION CONSERVANCY INC", "city": "SCARSDALE", "state": "NY", "zip": "10583-6315", "ntee": "C500", "ruling": "199908", "deductibility": "1", "assets": 0, "income": 0, "revenue": 0}, {"ein": "222661001", "name": "100 GROTON PARKWAY INC", "city": "ROCHESTER", "state": "NY", "zip": "14623-4540", "ntee": "", "ruling": "198605", "deductibility": "1", "assets": 2516732, "income": 594069, "revenue": 520888}, {"ein": "223980224", "name": "PELHAM PARKWAY SOUTH NEIGHBORHOOD ASSOCIATION", "city": "BRONX", "state": "NY", "zip": "10461-1727", "ntee": "S22", "ruling": "201106", "deductibility": "1", "assets": 0, "income": 0, "revenue": 0}, {"ein": "237314767", "name": "PARKWAY ELDERLY HOUSING DEVELOPMENT FUND CO INC", "city": "CORNING", "state": "NY", "zip": "14830-2828", "ntee": "L210", "ruling": "197312", "deductibility": "1", "assets": 3021164, "income": 1949381, "revenue": 1949381}, {"ein": "272397268", "name": "PARKWAY HOUSING DEVELOPMENT FUND COMPANY INC", "city": "NEW YORK", "state": "NY", "zip": "10025-3222", "ntee": "L21", "ruling": "201605", "deductibility": "1", "assets": 4553856, "income": 901673, "revenue": 901673}, {"ein": "463926308", "name": "PELHAM PARKWAY YOUTH GROUP CORP", "city": "BRONX", "state": "NY", "zip": "10467-3549", "ntee": "N60", "ruling": "201605", "deductibility": "1", "assets": 0, "income": 0, "revenue": 0}, {"ein": "510428659", "name": "PARKWAY VILLAGE HISTORICAL SOCIETY", "city": "JAMAICA", "state": "NY", "zip": "11435-6365", "ntee": "A80", "ruling": "201311", "deductibility": "1", "assets": 0, "income": 0, "revenue": 0}, {"ein": "814459304", "name": "CULTURAL ROW BLOCK ASSOCIATION ON EASTERN PARKWAY INC", "city": "BROOKLYN", "state": "NY", "zip": "11238-0000", "ntee": "S31", "ruling": "201910", "deductibility": "1", "assets": 0, "income": 0, "revenue": 0}, {"ein": "821408136", "name": "OCEAN PARKWAY RUNNERS", "city": "BROOKLYN", "state": "NY", "zip": "11229-1014", "ntee": "N60", "ruling": "201708", "deductibility": "1", "assets": 0, "income": 0, "revenue": 0}, {"ein": "883459917", "name": "BRONX JEWISH CENTER AT PELHAM PARKWAY INC", "city": "BRONX", "state": "NY", "zip": "10462-1100", "ntee": "X30", "ruling": "202305", "deductibility": "1", "assets": 0, "income": 0, "revenue": 0}, {"ein": "992986226", "name": "816 EASTERN PARKWAY INC", "city": "BROOKLYN", "state": "NY", "zip": "11213-3502", "ntee": "X30", "ruling": "202502", "deductibility": "1", "assets": 0, "income": 0, "revenue": 0}], "ATFILOH": [{"ein": "111874260", "name": "HEBREW CENTRE OF WHITESTONE BETH ATFILOH", "city": "WHITESTONE", "state": "NY", "zip": "11357-1840", "ntee": "X30", "ruling": "200909", "deductibility": "1", "assets": 0, "income": 0, "revenue": 0}], "RETARDED": [{"ein": "112024791", "name": "BROOKLYN HEBREW SCHOOL FOR RETARDED CHILDREN", "city": "BROOKLYN", "state": "NY", "zip": "11214-7103", "ntee": "B110", "ruling": "196501", "deductibility": "1", "assets": 0, "income": 0, "revenue": 0}, {"ein": "132986204", "name": "ASSOC FOR CHILDREN WITH RETARDED MENTAL DEVELPMT RESID FAC HSG", "city": "NEW YORK", "state": "NY", "zip": "10018-7852", "ntee": "P82Z", "ruling": "198711", "deductibility": "1", "assets": 1745783, "income": 594123, "revenue": 594123}, {"ein": "222531889", "name": "SULLIVAN SERVICES FOR THE RETARDED INC", "city": "MONTICELLO", "state": "NY", "zip": "12701-8815", "ntee": "", "ruling": "198908", "deductibility": "2", "assets": 0, "income": 0, "revenue": 0}, {"ein": "222533455", "name": "SULLIVAN RETARDED CITIZENS SERVICES INC", "city": "MONTICELLO", "state": "NY", "zip": "12701-8815", "ntee": "", "ruling": "198909", "deductibility": "2", "assets": 0, "income": 0, "revenue": 0}, {"ein": "223273829", "name": "THE FOUNDATION OF THE BROOME-TIOGA ASSOCIATION FOR RETARDED CITIZENS", "city": "BINGHAMTON", "state": "NY", "zip": "13905-1564", "ntee": "T31Z", "ruling": "199401", "deductibility": "1", "assets": 3636810, "income": 556160, "revenue": 266013}], "NIVEVAH": [{"ein": "112277440", "name": "NIVEVAH BEACH PROPERTY OWNERS ASSOCIATION INC", "city": "SAG HARBOR", "state": "NY", "zip": "11963-0008", "ntee": "", "ruling": "197404", "deductibility": "2", "assets": 0, "income": 0, "revenue": 0}], "DVAR": [{"ein": "112416894", "name": "CONGREGATION DVAR MOSHE OF HORODENKE C O BENJAMIN ISAACS ESQ", "city": "BROOKLYN", "state": "NY", "zip": "11210-3739", "ntee": "", "ruling": "197704", "deductibility": "1", "assets": 0, "income": 0, "revenue": 0}, {"ein": "112511058", "name": "YESHIVA DVAR YESHORIM", "city": "MONSEY", "state": "NY", "zip": "10952-2611", "ntee": "", "ruling": "197912", "deductibility": "1", "assets": 0, "income": 0, "revenue": 0}, {"ein": "112606375", "name": "YESHIVA DVAR ZVI OF WEITZEN TRUST FUND", "city": "BROOKLYN", "state": "NY", "zip": "11224-1302", "ntee": "", "ruling": "198302", "deductibility": "1", "assets": 0, "income": 0, "revenue": 0}, {"ein": "112651342", "name": "KAHAL DVAR SHMIEL D NICOLSBURG INC", "city": "BROOKLYN", "state": "NY", "zip": "11211-7902", "ntee": "", "ruling": "198310", "deductibility": "1", "assets": 0, "income": 0, "revenue": 0}, {"ein": "112743444", "name": "CONGREGATION DVAR ZVI", "city": "BROOKLYN", "state": "NY", "zip": "11224-1049", "ntee": "", "ruling": "198508", "deductibility": "1", "assets": 0, "income": 0, "revenue": 0}, {"ein": "113426524", "name": "CONGREGATION DVAR EMES", "city": "BROOKLYN", "state": "NY", "zip": "11205-4328", "ntee": "X30", "ruling": "199905", "deductibility": "1", "assets": 0, "income": 0, "revenue": 0}, {"ein": "460749067", "name": "AMERICAN FRIENDS OF DVAR SHALOM", "city": "BROOKLYN", "state": "NY", "zip": "11204-1901", "ntee": "T30", "ruling": "201311", "deductibility": "1", "assets": 163, "income": 205592, "revenue": 205592}, {"ein": "854181283", "name": "CONG SHIMIE DVAR HASHEM", "city": "BROOKLYN", "state": "NY", "zip": "11211-7394", "ntee": "X30", "ruling": "202206", "deductibility": "1", "assets": 0, "income": 0, "revenue": 0}], "BRITH": [{"ein": "112426530", "name": "BRITH EMUNIM C O RABBI QUINN", "city": "BROOKLYN", "state": "NY", "zip": "11218-5209", "ntee": "", "ruling": "197804", "deductibility": "1", "assets": 0, "income": 0, "revenue": 0}, {"ein": "112577741", "name": "QUEENS BNAI BRITH HOUSING DEVELOPEMENT FUND CO INC", "city": "FLUSHING", "state": "NY", "zip": "11355-4070", "ntee": "L220", "ruling": "198109", "deductibility": "1", "assets": 4416456, "income": 3795506, "revenue": 3795506}, {"ein": "113285824", "name": "BNAI BRITH HILLEL FOUNDATION AT QUEENS COLLEGE HILLEL INC", "city": "FLUSHING", "state": "NY", "zip": "11367-1575", "ntee": "", "ruling": "199312", "deductibility": "1", "assets": 1294661, "income": 1185367, "revenue": 1185367}, {"ein": "160743199", "name": "TEMPLE BRITH KODESH", "city": "ROCHESTER", "state": "NY", "zip": "14618-1021", "ntee": "", "ruling": "194306", "deductibility": "1", "assets": 0, "income": 0, "revenue": 0}, {"ein": "166042686", "name": "BNAI BRITH INTERNATIONAL", "city": "UTICA", "state": "NY", "zip": "13501-6120", "ntee": "", "ruling": "199701", "deductibility": "1", "assets": 0, "income": 0, "revenue": 0}, {"ein": "205307526", "name": "TEMPLE BRITH KODESH FOUNDATION", "city": "ROCHESTER", "state": "NY", "zip": "14618-1021", "ntee": "T990", "ruling": "200710", "deductibility": "1", "assets": 2974720, "income": 121584, "revenue": 121584}, {"ein": "222795472", "name": "SCHENECTADY BNAI BRITH HOUSING DEVELOPMENT FUND CO INC", "city": "NISKAYUNA", "state": "NY", "zip": "12309-3802", "ntee": "", "ruling": "198708", "deductibility": "1", "assets": 2824904, "income": 690511, "revenue": 687673}, {"ein": "237128593", "name": "BNAI BRITH INTERNATIONAL", "city": "NEW YORK", "state": "NY", "zip": "10005-2701", "ntee": "", "ruling": "199701", "deductibility": "1", "assets": 0, "income": 0, "revenue": 0}, {"ein": "237145478", "name": "BNAI BRITH ZERUBBABEL LODGE 53", "city": "ROCHESTER", "state": "NY", "zip": "14620-0000", "ntee": "", "ruling": "202102", "deductibility": "1", "assets": 0, "income": 0, "revenue": 0}, {"ein": "237329471", "name": "GIDEON LODGE 140 BNAI BRITH HOUSING FOUNDATION INC", "city": "ALBANY", "state": "NY", "zip": "12203-0000", "ntee": "", "ruling": "197306", "deductibility": "1", "assets": 8316093, "income": 1093255, "revenue": 0}], "HAITIENNE": [{"ein": "112516983", "name": "EGLISE EVANGELIQUE BAPTISTE HAITIENNE DE QUEENS", "city": "QUEENS VLG", "state": "NY", "zip": "11429-2164", "ntee": "", "ruling": "195504", "deductibility": "1", "assets": 0, "income": 0, "revenue": 0}, {"ein": "133604176", "name": "PREMIERE EGLISE BAPTISTE HAITIENNE DE MANHATTAN", "city": "NEW YORK", "state": "NY", "zip": "10030-0111", "ntee": "", "ruling": "199111", "deductibility": "1", "assets": 0, "income": 0, "revenue": 0}, {"ein": "611570165", "name": "EGLISE EVANGELIQUE HAITIENNE OF THE CHRISTIAN AND MISSIONARY ALLIANCE", "city": "NEWBURGH", "state": "NY", "zip": "12550-4911", "ntee": "", "ruling": "197205", "deductibility": "1", "assets": 0, "income": 0, "revenue": 0}, {"ein": "743182358", "name": "SOLIDARITE HAITIENNE POUR L ACTION SOCIALE", "city": "W HEMPSTEAD", "state": "NY", "zip": "11552-0847", "ntee": "P20", "ruling": "201409", "deductibility": "1", "assets": 0, "income": 0, "revenue": 0}, {"ein": "814744736", "name": "EGLISE BAPTISTE HAITIENNE DE HUNTINGTON", "city": "HUNTINGTN STA", "state": "NY", "zip": "11746-7429", "ntee": "X21", "ruling": "202504", "deductibility": "1", "assets": 323761, "income": 106404, "revenue": 106404}], "SAUL": [{"ein": "112626656", "name": "IRIS J & SAUL B KATZ FOUNDATION INC", "city": "GREAT NECK", "state": "NY", "zip": "11021-5404", "ntee": "", "ruling": "198305", "deductibility": "1", "assets": 22485607, "income": 15196088, "revenue": 0}, {"ein": "113336273", "name": "SAUL AND MARION KLEINKRAMER FOUNDATION", "city": "NEW YORK", "state": "NY", "zip": "10020-1300", "ntee": "T70J", "ruling": "199609", "deductibility": "1", "assets": 4352353, "income": 497247, "revenue": 0}, {"ein": "116042721", "name": "SAUL AND ELEANOR LERNER FOUNDATION", "city": "HEWLETT", "state": "NY", "zip": "11557-1600", "ntee": "", "ruling": "196504", "deductibility": "1", "assets": 395480, "income": 274479, "revenue": 0}, {"ein": "134115047", "name": "SAUL STEINBERG FOUNDATION", "city": "NEW YORK", "state": "NY", "zip": "10017-1824", "ntee": "A25", "ruling": "200006", "deductibility": "1", "assets": 3815793, "income": 292575, "revenue": 0}, {"ein": "136917099", "name": "SAUL AND JANICE LINZER FOUNDATION", "city": "NEW YORK", "state": "NY", "zip": "10006-0000", "ntee": "", "ruling": "198904", "deductibility": "1", "assets": 2043115, "income": 100033, "revenue": 0}, {"ein": "273276768", "name": "SAUL & ELLEN BRUCKNER FOUNDATION", "city": "BROOKLYN", "state": "NY", "zip": "11234-6317", "ntee": "T22", "ruling": "201010", "deductibility": "1", "assets": 179415, "income": 19964, "revenue": 0}, {"ein": "273352815", "name": "AMERICAN FRIENDS OF MISHKAN SAUL INC", "city": "BROOKLYN", "state": "NY", "zip": "11223-0000", "ntee": "T20", "ruling": "201106", "deductibility": "1", "assets": 42628, "income": 210531, "revenue": 210531}, {"ein": "366059502", "name": "SAUL & DEVORAH SHERMAN FUND", "city": "SAG HARBOR", "state": "NY", "zip": "11963-2201", "ntee": "", "ruling": "196405", "deductibility": "1", "assets": 334429, "income": 34737, "revenue": 0}, {"ein": "474413338", "name": "SAUL LEITER FOUNDATION", "city": "NEW YORK", "state": "NY", "zip": "10003-7541", "ntee": "A20", "ruling": "201508", "deductibility": "1", "assets": 147888, "income": 80875, "revenue": 0}, {"ein": "866228031", "name": "SAUL N SILBERT CHARITABLE TRUST", "city": "HASTINGS HDSN", "state": "NY", "zip": "10706-1602", "ntee": "", "ruling": "199405", "deductibility": "1", "assets": 971117, "income": 226463, "revenue": 0}], "CHLUMEC": [{"ein": "112649208", "name": "CHEVRA ANSHEI HELMEC KRAK CHLUMEC & VICINITY", "city": "BROOKLYN", "state": "NY", "zip": "11219-4746", "ntee": "", "ruling": "198310", "deductibility": "1", "assets": 0, "income": 0, "revenue": 0}], "HAMATIVTA": [{"ein": "112693487", "name": "KIRYAT HAMATIVTA-GIVAT OLGA", "city": "BROOKLYN", "state": "NY", "zip": "11230-3514", "ntee": "", "ruling": "198510", "deductibility": "1", "assets": 0, "income": 0, "revenue": 0}], "GALLAGHER": [{"ein": "112818822", "name": "ANNA E GALLAGHER CHARITABLE TR", "city": "FLORAL PARK", "state": "NY", "zip": "11005-1225", "ntee": "", "ruling": "198702", "deductibility": "1", "assets": 467321, "income": 74849, "revenue": 0}, {"ein": "160704391", "name": "W J GALLAGHER & SON MEMORIAL VETERANS CLUB INC", "city": "MEDINA", "state": "NY", "zip": "14103-1623", "ntee": "", "ruling": "194605", "deductibility": "2", "assets": 21511, "income": 271724, "revenue": 162074}, {"ein": "813616458", "name": "BRYAN GALLAGHER MEMORIAL FOUNDATION", "city": "BOHEMIA", "state": "NY", "zip": "11716-3432", "ntee": "F12", "ruling": "201609", "deductibility": "1", "assets": 0, "income": 0, "revenue": 0}, {"ein": "956982534", "name": "THOMAS E & MARY K GALLAGHER FOUNDATION", "city": "NEW YORK", "state": "NY", "zip": "10016-0000", "ntee": "T20Z", "ruling": "199509", "deductibility": "1", "assets": 5195111, "income": 1803213, "revenue": 0}], "DCHUST": [{"ein": "112983151", "name": "BETH CHAIM SHLOMO DCHUST", "city": "BROOKLYN", "state": "NY", "zip": "11211-8104", "ntee": "", "ruling": "199101", "deductibility": "1", "assets": 0, "income": 0, "revenue": 0}], "COLOR": [{"ein": "113146432", "name": "QUILTERS OF COLOR NETWORK OF NEW YORK INC", "city": "NEW YORK", "state": "NY", "zip": "10018-3204", "ntee": "A20", "ruling": "201407", "deductibility": "1", "assets": 0, "income": 0, "revenue": 0}, {"ein": "133015792", "name": "GREAT NECK COLOR CAMERA CLUB INC", "city": "GREAT NECK", "state": "NY", "zip": "11023-2215", "ntee": "", "ruling": "198212", "deductibility": "1", "assets": 0, "income": 0, "revenue": 0}, {"ein": "134300403", "name": "TRUMANSBURG COLOR GUARD BOOSTERS", "city": "TRUMANSBURG", "state": "NY", "zip": "14886-9528", "ntee": "B112", "ruling": "200611", "deductibility": "1", "assets": 0, "income": 0, "revenue": 0}, {"ein": "161507443", "name": "PHOENIX BAND & COLOR GUARD BOOSTER CLUB INC", "city": "PHOENIX", "state": "NY", "zip": "13135-0143", "ntee": "B80Z", "ruling": "199704", "deductibility": "1", "assets": 66423, "income": 72449, "revenue": 59529}, {"ein": "161509405", "name": "GATES-CHILI COLOR GUARD PARENTS INC", "city": "ROCHESTER", "state": "NY", "zip": "14624-0391", "ntee": "A11", "ruling": "200204", "deductibility": "1", "assets": 455283, "income": 1914938, "revenue": 392162}, {"ein": "332845598", "name": "LIVING COLOR GROUP HOME INC", "city": "FAR ROCKAWAY", "state": "NY", "zip": "11691-2426", "ntee": "F33", "ruling": "202505", "deductibility": "1", "assets": 0, "income": 0, "revenue": 0}, {"ein": "813028390", "name": "COLOR OF HEALTH INC", "city": "WOODHAVEN", "state": "NY", "zip": "11421-6264", "ntee": "P20", "ruling": "201905", "deductibility": "1", "assets": 0, "income": 0, "revenue": 0}, {"ein": "823536110", "name": "COLOR ME CANCER FREE INC", "city": "MERRICK", "state": "NY", "zip": "11566-3517", "ntee": "T50", "ruling": "201805", "deductibility": "1", "assets": 5118, "income": 17233, "revenue": 0}, {"ein": "830896909", "name": "MADAM CJ WALKER INSTITUTE FOR WOMEN ENTREPRENEURS OF COLOR", "city": "NEW YORK", "state": "NY", "zip": "10019-0000", "ntee": "T11", "ruling": "201907", "deductibility": "1", "assets": 5467695, "income": 1269829, "revenue": 1269829}, {"ein": "831241396", "name": "SARI-SARI WOMEN OF COLOR ARTS COUP INC", "city": "NEW YORK", "state": "NY", "zip": "10007-0000", "ntee": "A20", "ruling": "202109", "deductibility": "1", "assets": 0, "income": 0, "revenue": 0}, {"ein": "843058902", "name": "TEENS OF COLOR ABROAD", "city": "BROOKLYN", "state": "NY", "zip": "11216-2168", "ntee": "A23", "ruling": "202201", "deductibility": "1", "assets": 104787, "income": 222537, "revenue": 222537}, {"ein": "843077682", "name": "WOMEN OF COLOR IN CANNABIS INC", "city": "BROOKLYN", "state": "NY", "zip": "11226-3498", "ntee": "W01", "ruling": "202011", "deductibility": "1", "assets": 3787, "income": 2117, "revenue": 2117}, {"ein": "843569056", "name": "SHAMSUN COLOR INC", "city": "BRONX", "state": "NY", "zip": "10467-3481", "ntee": "A20", "ruling": "202201", "deductibility": "1", "assets": 0, "income": 0, "revenue": 0}, {"ein": "843915938", "name": "WOMEN OF COLOR ON BROADWAY INC", "city": "BRONX", "state": "NY", "zip": "10466-4414", "ntee": "A65", "ruling": "202210", "deductibility": "1", "assets": 0, "income": 0, "revenue": 0}, {"ein": "851958859", "name": "DIVERSE INTERNATIONAL WOMEN OF COLOR INC", "city": "BRONX", "state": "NY", "zip": "10475-4431", "ntee": "B82", "ruling": "202010", "deductibility": "1", "assets": 0, "income": 0, "revenue": 0}, {"ein": "861667830", "name": "PEOPLE OF COLOR PSYCHEDELIC COLLECTIVE INC", "city": "NEW YORK", "state": "NY", "zip": "10030-1534", "ntee": "B01", "ruling": "202210", "deductibility": "1", "assets": 0, "income": 0, "revenue": 0}, {"ein": "863432002", "name": "GAME DEVS OF COLOR INC", "city": "BROOKLYN", "state": "NY", "zip": "11211-4171", "ntee": "O53", "ruling": "202108", "deductibility": "1", "assets": 52461, "income": 219032, "revenue": 219032}, {"ein": "873242085", "name": "COLOR POSITIVE", "city": "BROOKLYN", "state": "NY", "zip": "11213-1560", "ntee": "O99", "ruling": "202411", "deductibility": "1", "assets": 0, "income": 0, "revenue": 0}, {"ein": "920645198", "name": "ENVIRONMENTAL LEADERS OF COLOR INC", "city": "MOUNT VERNON", "state": "NY", "zip": "10550-3409", "ntee": "C60", "ruling": "202211", "deductibility": "1", "assets": 1541, "income": 117148, "revenue": 117148}, {"ein": "923509003", "name": "COLOR FAIRPORT GREEN", "city": "FAIRPORT", "state": "NY", "zip": "14450-0064", "ntee": "C60", "ruling": "202404", "deductibility": "1", "assets": 0, "income": 0, "revenue": 0}, {"ein": "933401211", "name": "COLOR FARM IMPACT INC", "city": "BROOKLYN", "state": "NY", "zip": "11201-3821", "ntee": "A31", "ruling": "202405", "deductibility": "1", "assets": 326011, "income": 376451, "revenue": 376451}], "IL": [{"ein": "113202231", "name": "NEW YORK IL-SHIN PRESBYTERIAN CHURCH", "city": "NEW HYDE PARK", "state": "NY", "zip": "11040-3041", "ntee": "", "ruling": "199411", "deductibility": "1", "assets": 0, "income": 0, "revenue": 0}, {"ein": "113346997", "name": "SHIN IL PRESBYTERIAN CHURCH OF NEW", "city": "LITTLE NECK", "state": "NY", "zip": "11362-1430", "ntee": "X20Z", "ruling": "199712", "deductibility": "1", "assets": 0, "income": 0, "revenue": 0}, {"ein": "113513992", "name": "IL-KWAN-DO HONG-IN BUB BAN USA INC", "city": "FLUSHING", "state": "NY", "zip": "11358-2610", "ntee": "X50", "ruling": "200307", "deductibility": "1", "assets": 0, "income": 0, "revenue": 0}, {"ein": "271527954", "name": "IL STRATEGY GROUP INC", "city": "NEWBURGH", "state": "NY", "zip": "12550-5383", "ntee": "I12", "ruling": "201408", "deductibility": "1", "assets": 1, "income": 0, "revenue": 0}, {"ein": "352837147", "name": "IL GIGLIO USA INC", "city": "HOLBROOK", "state": "NY", "zip": "11741-0729", "ntee": "A23", "ruling": "202506", "deductibility": "1", "assets": 0, "income": 0, "revenue": 0}, {"ein": "462227143", "name": "SHIN IL PRESBYTERIAN CHURCH INC", "city": "FLUSHING", "state": "NY", "zip": "11358-2606", "ntee": "X21", "ruling": "201411", "deductibility": "1", "assets": 0, "income": 0, "revenue": 0}, {"ein": "825216799", "name": "AMERICAN FRIENDS OF FOUNDATION IL POMO DORO", "city": "NEW YORK", "state": "NY", "zip": "10037-1310", "ntee": "T12", "ruling": "202502", "deductibility": "1", "assets": 49950, "income": 0, "revenue": 0}], "RAMAN": [{"ein": "113280974", "name": "RADHA RAMAN MANDIR INC", "city": "FLUSHING", "state": "NY", "zip": "11355-4136", "ntee": "X70Z", "ruling": "199605", "deductibility": "1", "assets": 0, "income": 0, "revenue": 0}, {"ein": "311744058", "name": "MASJID IBAHDOU AR-RAMAN INC", "city": "BRONX", "state": "NY", "zip": "10466-3018", "ntee": "X40", "ruling": "200101", "deductibility": "1", "assets": 0, "income": 0, "revenue": 0}], "GULZAR": [{"ein": "113354748", "name": "MASJID GULZAR-E-HABIB", "city": "BROOKLYN", "state": "NY", "zip": "11230-4120", "ntee": "X99Z", "ruling": "199801", "deductibility": "1", "assets": 0, "income": 0, "revenue": 0}, {"ein": "800459601", "name": "MASJID GULZAR E MADINA INC", "city": "BRONX", "state": "NY", "zip": "10462-2003", "ntee": "X40", "ruling": "201012", "deductibility": "1", "assets": 0, "income": 0, "revenue": 0}], "BATZION": [{"ein": "113391079", "name": "AMERICAN FRIENDS OF BATZION INC", "city": "BROOKLYN", "state": "NY", "zip": "11204-1482", "ntee": "X30", "ruling": "201711", "deductibility": "1", "assets": 1, "income": 1, "revenue": 0}], "BANGLADLESH": [{"ein": "113399968", "name": "BANGLADLESH HINDU MANDIR INC", "city": "ELMHURST", "state": "NY", "zip": "11373-2857", "ntee": "X70", "ruling": "199808", "deductibility": "1", "assets": 0, "income": 0, "revenue": 0}], "ERMIONI": [{"ein": "113506407", "name": "THYMIANA CHIOS AGIA ERMIONI BENEVOLENT SOCIETY INC", "city": "BAYSIDE", "state": "NY", "zip": "11361-2046", "ntee": "N50", "ruling": "200003", "deductibility": "2", "assets": 113175, "income": 2850, "revenue": 2750}], "ARMENIA": [{"ein": "113579187", "name": "CHILDREN OF ARMENIA FUND INC", "city": "NEW YORK", "state": "NY", "zip": "10010-6826", "ntee": "Q30", "ruling": "200209", "deductibility": "1", "assets": 16440882, "income": 14860431, "revenue": 14397861}, {"ein": "131679607", "name": "HOLY CROSS CHURCH OF ARMENIA", "city": "NEW YORK", "state": "NY", "zip": "10033-1301", "ntee": "", "ruling": "194909", "deductibility": "1", "assets": 0, "income": 0, "revenue": 0}, {"ein": "263814236", "name": "IGLESIA DE DIOS PENTECOSTAL M I MONTE ARMENIA LUGAR DE REFUGIO INC", "city": "BRONX", "state": "NY", "zip": "10455-3602", "ntee": "X20", "ruling": "201109", "deductibility": "1", "assets": 0, "income": 0, "revenue": 0}, {"ein": "331644079", "name": "PROJECT ARMENIA FOUNDATION", "city": "SCARSDALE", "state": "NY", "zip": "10583-1140", "ntee": "Q21", "ruling": "202411", "deductibility": "1", "assets": 0, "income": 0, "revenue": 0}, {"ein": "861987954", "name": "THRIVE ARMENIA FOUNDATION INC", "city": "THORNWOOD", "state": "NY", "zip": "10594-1815", "ntee": "", "ruling": "202301", "deductibility": "0", "assets": 28190, "income": 103305, "revenue": 103305}, {"ein": "871260851", "name": "THERAPISTS FOR ARMENIA INC", "city": "GREAT NECK", "state": "NY", "zip": "11021-2357", "ntee": "E03", "ruling": "202112", "deductibility": "1", "assets": 0, "income": 0, "revenue": 0}, {"ein": "934762158", "name": "SAVE ARMENIA INC", "city": "NEW YORK", "state": "NY", "zip": "10012-3112", "ntee": "X20", "ruling": "202501", "deductibility": "1", "assets": 0, "income": 0, "revenue": 0}], "MEO": [{"ein": "113579994", "name": "THOMAS MEO JR SCHOLARSHIP FUND INC", "city": "BROOKLYN", "state": "NY", "zip": "11234-6615", "ntee": "B82", "ruling": "201206", "deductibility": "1", "assets": 0, "income": 0, "revenue": 0}], "MINISTE": [{"ein": "113613962", "name": "BROOKLYN CHRISTIAN CENTER INC EVANGELISTIC & DELIVERANCE MINISTE", "city": "BROOKLYN", "state": "NY", "zip": "11225-5912", "ntee": "X21", "ruling": "200303", "deductibility": "1", "assets": 0, "income": 0, "revenue": 0}], "NEXUS": [{"ein": "113634222", "name": "WILLIAMSBURG ART NEXUS INC", "city": "ASTORIA", "state": "NY", "zip": "11102-2823", "ntee": "A60", "ruling": "200404", "deductibility": "1", "assets": 0, "income": 0, "revenue": 0}, {"ein": "200023236", "name": "NEXUS MUNDI", "city": "NEW YORK", "state": "NY", "zip": "10027-0000", "ntee": "Q30", "ruling": "201108", "deductibility": "1", "assets": 0, "income": 0, "revenue": 0}, {"ein": "842239171", "name": "NEXUS LATINX INC", "city": "BRONX", "state": "NY", "zip": "10463-5033", "ntee": "P99", "ruling": "202302", "deductibility": "1", "assets": 0, "income": 0, "revenue": 0}, {"ein": "842311128", "name": "COMMUNITY NEXUS INC", "city": "HOPEWELL JCT", "state": "NY", "zip": "12533-7732", "ntee": "P20", "ruling": "201908", "deductibility": "1", "assets": 0, "income": 0, "revenue": 0}, {"ein": "872037628", "name": "NEXUS JAMAICA NY QALICB INC", "city": "JAMAICA", "state": "NY", "zip": "11432-6101", "ntee": "T11", "ruling": "202208", "deductibility": "1", "assets": 12005530, "income": 136500, "revenue": 136500}, {"ein": "923341758", "name": "FRIENDS OF NEXUS SEMINARY INC", "city": "LIVERPOOL", "state": "NY", "zip": "13088-5049", "ntee": "X12", "ruling": "202305", "deductibility": "1", "assets": 0, "income": 0, "revenue": 0}, {"ein": "992109798", "name": "NEXUS SPIRITUAL CULTURAL", "city": "BROOKLYN", "state": "NY", "zip": "11210-2401", "ntee": "Q01", "ruling": "202404", "deductibility": "1", "assets": 0, "income": 0, "revenue": 0}], "INCO": [{"ein": "131484295", "name": "WOMENS METROPOLITAN GOLF ASSOC INCO", "city": "ELMSFORD", "state": "NY", "zip": "10523-2821", "ntee": "", "ruling": "194207", "deductibility": "2", "assets": 865459, "income": 557498, "revenue": 557498}, {"ein": "141466045", "name": "EDWARD T RUANE POST 476 AMERICAN LEGION DEPARTMENT OF NEW YORK INCO", "city": "COHOES", "state": "NY", "zip": "12047-2827", "ntee": "W30", "ruling": "202108", "deductibility": "1", "assets": 39916, "income": 242099, "revenue": 63680}, {"ein": "993670350", "name": "IN HIS PRESENCE GLOBAL INTERNATIONAL WOMENS MINISTRY INCO", "city": "S OZONE PARK", "state": "NY", "zip": "11420-1519", "ntee": "X20", "ruling": "202411", "deductibility": "1", "assets": 0, "income": 0, "revenue": 0}], "PROP": [{"ein": "131705439", "name": "EDGEWATER PNT PROP OWNER ASSOC INC", "city": "CARMEL", "state": "NY", "zip": "10512-0400", "ntee": "", "ruling": "199106", "deductibility": "2", "assets": 169537, "income": 473778, "revenue": 473778}], "WINNISOOK": [{"ein": "131874705", "name": "WINNISOOK CLUB INC", "city": "SCHENECTADY", "state": "NY", "zip": "12309-4314", "ntee": "N50", "ruling": "200001", "deductibility": "2", "assets": 9307, "income": 82858, "revenue": 82858}], "CONC": [{"ein": "131924971", "name": "NAUMBURG ORCHESTRAL CONC", "city": "NEW YORK", "state": "NY", "zip": "10024-1513", "ntee": "", "ruling": "195602", "deductibility": "1", "assets": 7886554, "income": 2272521, "revenue": 498892}], "MOTIVATE": [{"ein": "132663328", "name": "PUERTO RICAN ORGNZ TO MOTIVATE ENLIGHTEN & SERVE ADDICTS INC", "city": "BRONX", "state": "NY", "zip": "10457-5859", "ntee": "F220", "ruling": "197106", "deductibility": "1", "assets": 130672639, "income": 103363234, "revenue": 103363234}], "PICK": [{"ein": "132943022", "name": "PICK UP PERFORMANCE COMPANY INC", "city": "NEW YORK", "state": "NY", "zip": "10001-2327", "ntee": "", "ruling": "197807", "deductibility": "1", "assets": 33536, "income": 257500, "revenue": 257500}, {"ein": "222578947", "name": "GARDNERS PICK OF THE CROP INC", "city": "SILVER CREEK", "state": "NY", "zip": "14136-9785", "ntee": "A25Z", "ruling": "198812", "deductibility": "1", "assets": 0, "income": 0, "revenue": 0}, {"ein": "237321477", "name": "PICK N AND SING N GATHER N INC", "city": "SCHENECTADY", "state": "NY", "zip": "12303-3561", "ntee": "", "ruling": "197601", "deductibility": "0", "assets": 0, "income": 0, "revenue": 0}], "TSING": [{"ein": "133039170", "name": "TSING HUA ALUMNI ASSOCIATION INC", "city": "NEW YORK", "state": "NY", "zip": "10005-2800", "ntee": "B84Z", "ruling": "198104", "deductibility": "1", "assets": 131613, "income": 49019, "revenue": 49019}], "BARR": [{"ein": "133211764", "name": "BARR & BARR INC EMPLOYEES HEALTH AND WELFARE BENEFITS TRUST", "city": "NEW YORK", "state": "NY", "zip": "10018-7606", "ntee": "Y43", "ruling": "198407", "deductibility": "2", "assets": 2428902, "income": 222041, "revenue": 222041}, {"ein": "820907176", "name": "LOVE WITHOUT BARRIERS JCL FOUNDATION FUNDACION AMOR SIN BARR", "city": "PRT JEFFERSON", "state": "NY", "zip": "11777-1110", "ntee": "P20", "ruling": "201711", "deductibility": "1", "assets": 0, "income": 0, "revenue": 0}, {"ein": "844092468", "name": "BARR JUNI AND IRENE MENAKAYA FOUNDATION INTL INC", "city": "BRONX", "state": "NY", "zip": "10462-6982", "ntee": "B12", "ruling": "202004", "deductibility": "1", "assets": 0, "income": 0, "revenue": 0}, {"ein": "934235336", "name": "RAYS THE BARR FOUNDATION INC", "city": "JAMESTOWN", "state": "NY", "zip": "14701-7518", "ntee": "T30", "ruling": "202401", "deductibility": "1", "assets": 0, "income": 0, "revenue": 0}], "NBA": [{"ein": "133307719", "name": "NBA PLAYERS LEGACY FUND INC", "city": "NEW YORK", "state": "NY", "zip": "10022-5910", "ntee": "N120", "ruling": "198604", "deductibility": "1", "assets": 1175340, "income": 1084650, "revenue": 1084650}, {"ein": "743107179", "name": "NBPA NBA LABOR MANAGEMENT EDUCATIONAL TRUST", "city": "NEW YORK", "state": "NY", "zip": "10036-6751", "ntee": "J40", "ruling": "200505", "deductibility": "2", "assets": 2741071, "income": 2785642, "revenue": 2785642}], "LEEDS": [{"ein": "133384086", "name": "THE ISABELLE RUSSEK LEEDS FOUNDATION", "city": "NEW YORK", "state": "NY", "zip": "10168-4201", "ntee": "", "ruling": "198701", "deductibility": "1", "assets": 757638, "income": 200712, "revenue": 0}, {"ein": "137219856", "name": "DALIA AND LARRY LEEDS FAMILY FOUNDATION", "city": "NEW YORK", "state": "NY", "zip": "10036-4031", "ntee": "T22", "ruling": "200008", "deductibility": "1", "assets": 15011013, "income": 9177740, "revenue": 0}, {"ein": "141579005", "name": "LEEDS HOSE COMPANY NO 1 INC", "city": "LEEDS", "state": "NY", "zip": "12451-0000", "ntee": "M24", "ruling": "201512", "deductibility": "1", "assets": 420610, "income": 181677, "revenue": 181677}, {"ein": "146022890", "name": "LEEDS REFORMED CHURCH", "city": "WALLKILL", "state": "NY", "zip": "12589-0473", "ntee": "", "ruling": "196801", "deductibility": "1", "assets": 0, "income": 0, "revenue": 0}, {"ein": "521654821", "name": "THE NORTH AMERICAN FOUNDATION FOR THE UNIVERSITY OF LEEDS INC", "city": "NEW YORK", "state": "NY", "zip": "10019-0000", "ntee": "", "ruling": "199004", "deductibility": "1", "assets": 2154653, "income": 1835925, "revenue": 1382077}, {"ein": "921107486", "name": "ANNIE LEEDS ADVENTURE FOUNDATION", "city": "LOCKPORT", "state": "NY", "zip": "14094-9324", "ntee": "T50", "ruling": "202212", "deductibility": "1", "assets": 0, "income": 0, "revenue": 0}], "RENEE": [{"ein": "133490010", "name": "RENEE & CHAIM GROSS FOUNDATION INC", "city": "NEW YORK", "state": "NY", "zip": "10012-0000", "ntee": "T20", "ruling": "198905", "deductibility": "1", "assets": 7727637, "income": 592117, "revenue": 0}, {"ein": "133986707", "name": "EZRA & RENEE DABAH CHARITABLE FOUNDATION INC", "city": "NEW YORK", "state": "NY", "zip": "10111-2497", "ntee": "T21", "ruling": "199902", "deductibility": "1", "assets": 1254, "income": 6552, "revenue": 0}, {"ein": "136181441", "name": "THEODORE AND RENEE WEILER FOUNDATION INC", "city": "MELVILLE", "state": "NY", "zip": "11747-3180", "ntee": "", "ruling": "196507", "deductibility": "1", "assets": 4750493, "income": 1399711, "revenue": 0}, {"ein": "136935616", "name": "ROBERT A AND RENEE E BELFER FAMILY FOUNDATION", "city": "NEW YORK", "state": "NY", "zip": "10153-0000", "ntee": "", "ruling": "199002", "deductibility": "1", "assets": 84949, "income": 2647, "revenue": 0}, {"ein": "137126904", "name": "THE RENEE AND CARL LANDEGGER FAMILY CHARITABLE TRUST", "city": "NEW YORK", "state": "NY", "zip": "10021-4576", "ntee": "T20Z", "ruling": "199710", "deductibility": "1", "assets": 526529, "income": 403621, "revenue": 0}, {"ein": "357193146", "name": "THE@NORMAN L FULD AND RENEE G FULD SCHOLARSHIP TRUST FUND", "city": "WHITE PLAINS", "state": "NY", "zip": "10604-0000", "ntee": "T22", "ruling": "201809", "deductibility": "1", "assets": 1178449, "income": 51852, "revenue": 0}, {"ein": "821103253", "name": "RENEE L ROBINSON SCHOLARSHIP FUND", "city": "LISBON", "state": "NY", "zip": "13658-3287", "ntee": "B82", "ruling": "201704", "deductibility": "1", "assets": 0, "income": 0, "revenue": 0}, {"ein": "881008155", "name": "AARON AND RENEE HARARI FAMILY FOUNDATION INC", "city": "NEW YORK", "state": "NY", "zip": "10018-3420", "ntee": "T20", "ruling": "202206", "deductibility": "1", "assets": 2229311, "income": 2022442, "revenue": 0}, {"ein": "883313916", "name": "JUST BREATHE WITH RENEE INC", "city": "DE KALB JCT", "state": "NY", "zip": "13630-3192", "ntee": "P99", "ruling": "202309", "deductibility": "1", "assets": 0, "income": 0, "revenue": 0}], "NAKED": [{"ein": "133509565", "name": "NAKED ANGELS LTD", "city": "NEW YORK", "state": "NY", "zip": "10014-2049", "ntee": "A65Z", "ruling": "199312", "deductibility": "1", "assets": 28782, "income": 148636, "revenue": 148636}, {"ein": "201612394", "name": "NAKED HEART FOUNDATION INC", "city": "VALLEY COTTAGE", "state": "NY", "zip": "10989-0000", "ntee": "Q12", "ruling": "200505", "deductibility": "1", "assets": 216425, "income": 181241, "revenue": 181241}, {"ein": "474868075", "name": "WEAR RED OR GO NAKED", "city": "WEST BABYLON", "state": "NY", "zip": "11704-4514", "ntee": "G43", "ruling": "201509", "deductibility": "1", "assets": 0, "income": 0, "revenue": 0}], "DUKOFF": [{"ein": "133510308", "name": "DUKOFF-TORO FOUNDATION", "city": "NEW YORK", "state": "NY", "zip": "10065-7409", "ntee": "", "ruling": "199007", "deductibility": "1", "assets": 4491, "income": 1, "revenue": 0}], "ADEO": [{"ein": "133586949", "name": "ADEO CLUBS MANHATTAN CATHOLIC CATECHISM CLUBS INC", "city": "NEW YORK", "state": "NY", "zip": "10028-1806", "ntee": "", "ruling": "194603", "deductibility": "1", "assets": 0, "income": 0, "revenue": 0}], "HOWE": [{"ein": "133698467", "name": "HOWE AVENUE MEDICAL SERVICES P C", "city": "NEW ROCHELLE", "state": "NY", "zip": "10801-5502", "ntee": "E30", "ruling": "200201", "deductibility": "1", "assets": 0, "income": 253476, "revenue": 253476}, {"ein": "134010543", "name": "DAVID S HOWE FOUNDATION", "city": "WOODBURY", "state": "NY", "zip": "11797-2925", "ntee": "T20", "ruling": "199901", "deductibility": "1", "assets": 9557158, "income": 136484, "revenue": 0}, {"ein": "160743046", "name": "DAVID A HOWE PUBLIC LIBRARY", "city": "WELLSVILLE", "state": "NY", "zip": "14895-1149", "ntee": "B70", "ruling": "194104", "deductibility": "1", "assets": 5824389, "income": 1398184, "revenue": 1398184}, {"ein": "161159508", "name": "FRIENDS OF THE DAVID A HOWE PUBLIC LIBRARY", "city": "WELLSVILLE", "state": "NY", "zip": "14895-1149", "ntee": "", "ruling": "202001", "deductibility": "1", "assets": 0, "income": 0, "revenue": 0}, {"ein": "166031953", "name": "J E HOWE EDUCATIONAL FUND TRUST UW JENNIE E HOWE 673830", "city": "OLEAN", "state": "NY", "zip": "14760-2738", "ntee": "", "ruling": "199110", "deductibility": "1", "assets": 323706, "income": 88455, "revenue": 0}, {"ein": "222434840", "name": "LORD HOWE ESTATES HOUSING DEVELOPMENT FUND CORPORATION", "city": "TICONDEROGA", "state": "NY", "zip": "12883-0000", "ntee": "L20Z", "ruling": "198303", "deductibility": "1", "assets": 1157443, "income": 373457, "revenue": 373457}, {"ein": "237007068", "name": "ADA HOWE KENT MEMORIAL SHELTER INC", "city": "CALVERTON", "state": "NY", "zip": "11933-1639", "ntee": "D200", "ruling": "196901", "deductibility": "1", "assets": 7172068, "income": 5523384, "revenue": 1879153}, {"ein": "256399803", "name": "ANNA VERNA HOWE TR UW", "city": "AMHERST", "state": "NY", "zip": "14228-2307", "ntee": "", "ruling": "199404", "deductibility": "1", "assets": 849141, "income": 264754, "revenue": 0}], "MILLSTEIN": [{"ein": "133771891", "name": "PAUL AND IRMA MILLSTEIN FOUNDATION", "city": "NEW YORK", "state": "NY", "zip": "10017-4631", "ntee": "T22J", "ruling": "199701", "deductibility": "1", "assets": 1573491, "income": 659382, "revenue": 0}], "JAKUBOVITZ": [{"ein": "133797217", "name": "JOAN & JEROME R JAKUBOVITZ FOUNDATION", "city": "NEW YORK", "state": "NY", "zip": "10022-0000", "ntee": "T60I", "ruling": "199603", "deductibility": "1", "assets": 19610, "income": 22000, "revenue": 22000}], "ROMBOUTS": [{"ein": "133807673", "name": "NYSD ROMBOUTS HOUSING DEVELOPMENT FUND COMPANY INC", "city": "NEW YORK", "state": "NY", "zip": "10016-9306", "ntee": "L99", "ruling": "199605", "deductibility": "1", "assets": 2341639, "income": 1069711, "revenue": 1069711}], "SKYSCRAPER": [{"ein": "133882190", "name": "SKYSCRAPER MUSEUM", "city": "NEW YORK", "state": "NY", "zip": "10280-1501", "ntee": "A500", "ruling": "199608", "deductibility": "1", "assets": 9241264, "income": 1873359, "revenue": 919461}], "BAUER": [{"ein": "134091905", "name": "GERI BAUER FOUNDATION INC", "city": "BRIDGEHAMPTON", "state": "NY", "zip": "11932-1737", "ntee": "T22", "ruling": "200010", "deductibility": "1", "assets": 26692, "income": 1, "revenue": 0}, {"ein": "134197710", "name": "BAUER FAMILY CHARITABLE FOUNDATION INC", "city": "MOUNT KISCO", "state": "NY", "zip": "10549-0000", "ntee": "T22", "ruling": "200204", "deductibility": "1", "assets": 1682222, "income": 442698, "revenue": 0}, {"ein": "161525643", "name": "CHARLES D AND MARY A BAUER FOUNDATION", "city": "WILLIAMSVILLE", "state": "NY", "zip": "14221-5314", "ntee": "T20Z", "ruling": "199802", "deductibility": "1", "assets": 12602043, "income": 767829, "revenue": 0}], "URHOBO": [{"ein": "134194358", "name": "URHOBO CONGRESS USA INC", "city": "NORTH BALDWIN", "state": "NY", "zip": "11510-1916", "ntee": "A23", "ruling": "202104", "deductibility": "1", "assets": 0, "income": 0, "revenue": 0}, {"ein": "208165909", "name": "URHOBO ASSOCIATION OF NY NJ & CTINC", "city": "BROOKLYN", "state": "NY", "zip": "11236-3516", "ntee": "A23", "ruling": "201612", "deductibility": "1", "assets": 0, "income": 0, "revenue": 0}, {"ein": "800258210", "name": "ERHUVWU RU URHOBO WOMEN ASSOCIATION USA INC", "city": "JAMAICA", "state": "NY", "zip": "11434-5034", "ntee": "P40", "ruling": "202411", "deductibility": "1", "assets": 0, "income": 0, "revenue": 0}, {"ein": "871198975", "name": "URHOBO HISTORICAL SOCIETY INC", "city": "NORTH BALDWIN", "state": "NY", "zip": "11510-1916", "ntee": "", "ruling": "202109", "deductibility": "1", "assets": 0, "income": 0, "revenue": 0}], "SICKNESS": [{"ein": "135563432", "name": "SICKNESS & ACCIDENT FUND OF -1 AMALGAMATED LITHOGRAPHERS OF AMERI", "city": "NEW YORK", "state": "NY", "zip": "10003-4527", "ntee": "", "ruling": "195006", "deductibility": "2", "assets": 1412288, "income": 2355105, "revenue": 2355105}], "FURLANE": [{"ein": "135620628", "name": "FAMEE FURLANE CLUB OF NORTH AMERICA INC", "city": "COLLEGE POINT", "state": "NY", "zip": "11356-2322", "ntee": "", "ruling": "194403", "deductibility": "2", "assets": 36541, "income": 65863, "revenue": 53396}], "FEDCAP": [{"ein": "135645879", "name": "FEDCAP REHABILITATION SERVICES INC", "city": "NEW YORK", "state": "NY", "zip": "10017-6733", "ntee": "", "ruling": "193908", "deductibility": "1", "assets": 127745308, "income": 103264175, "revenue": 103264175}, {"ein": "830765672", "name": "THE FEDCAP GROUP INC", "city": "NEW YORK", "state": "NY", "zip": "10017-6733", "ntee": "J02", "ruling": "201902", "deductibility": "1", "assets": 27129496, "income": 25124291, "revenue": 24697027}, {"ein": "830837061", "name": "FEDCAP INC", "city": "NEW YORK", "state": "NY", "zip": "10017-6733", "ntee": "J22", "ruling": "201902", "deductibility": "1", "assets": 18129872, "income": 39407444, "revenue": 39407444}, {"ein": "862507866", "name": "FEDCAP INVESTMENT CORPORATION", "city": "NEW YORK", "state": "NY", "zip": "10017-6733", "ntee": "S12", "ruling": "202202", "deductibility": "1", "assets": 3500, "income": 125000, "revenue": 125000}, {"ein": "874527298", "name": "FEDCAP APEX TECHNICAL SCHOOL INC", "city": "NEW YORK", "state": "NY", "zip": "10017-6733", "ntee": "B30", "ruling": "202207", "deductibility": "1", "assets": 53809095, "income": 23272305, "revenue": 23272305}, {"ein": "932034826", "name": "FEDCAP NYC INC", "city": "NEW YORK", "state": "NY", "zip": "10017-6733", "ntee": "P20", "ruling": "202309", "deductibility": "1", "assets": 0, "income": 0, "revenue": 0}], "VA": [{"ein": "136112738", "name": "HEBRA HASED VA-AMET", "city": "NEW YORK", "state": "NY", "zip": "10023-4601", "ntee": "", "ruling": "193505", "deductibility": "1", "assets": 0, "income": 0, "revenue": 0}, {"ein": "136182978", "name": "AMERICAN FEDERATION OF GOVERNMENT EMPLOYEES 1168 AFGE-VA LOCAL", "city": "BRONX", "state": "NY", "zip": "10468-3904", "ntee": "J40", "ruling": "202406", "deductibility": "2", "assets": 163531, "income": 153598, "revenue": 153598}, {"ein": "832395480", "name": "VA YOMER HINENI FOUNDATION", "city": "BROOKLYN", "state": "NY", "zip": "11223-6244", "ntee": "T30", "ruling": "202111", "deductibility": "1", "assets": 85995, "income": 463624, "revenue": 463624}, {"ein": "933669504", "name": "VA WNY HCS EMPLOYEE ASSOCIATION", "city": "BUFFALO", "state": "NY", "zip": "14217-2150", "ntee": "J03", "ruling": "202407", "deductibility": "1", "assets": 0, "income": 0, "revenue": 0}], "GRUNBAUM": [{"ein": "136112767", "name": "GRUNBAUM FAMILY FUND", "city": "KATONAH", "state": "NY", "zip": "10536-2110", "ntee": "", "ruling": "196205", "deductibility": "1", "assets": 889546, "income": 886746, "revenue": 0}, {"ein": "921286234", "name": "GRUNBAUM FISCHER FOUNDATION", "city": "NEW YORK", "state": "NY", "zip": "10019-1630", "ntee": "A99", "ruling": "202308", "deductibility": "1", "assets": 2034, "income": 10000, "revenue": 0}], "DENTIS": [{"ein": "136168267", "name": "HENRY SPENADEL FUND FOR THE ADVANCEMENT OF EDUCATION IN<DENTIS", "city": "NEW YORK", "state": "NY", "zip": "10017-6793", "ntee": "B52I", "ruling": "195502", "deductibility": "1", "assets": 2271754, "income": 2797, "revenue": 2797}], "TENTH": [{"ein": "136182939", "name": "TENTH STREET CHURCH OF CHRIST", "city": "NEW YORK", "state": "NY", "zip": "10009-4816", "ntee": "", "ruling": "195803", "deductibility": "1", "assets": 0, "income": 0, "revenue": 0}, {"ein": "800665532", "name": "TENTH WARD TIGERS POP WARNER", "city": "ROCHESTER", "state": "NY", "zip": "14616-1108", "ntee": "N65", "ruling": "201110", "deductibility": "1", "assets": 0, "income": 0, "revenue": 0}, {"ein": "883058200", "name": "TENTH MAGNITUDE STRATEGY GROUP INC", "city": "NEW YORK", "state": "NY", "zip": "10023-9672", "ntee": "R19", "ruling": "202301", "deductibility": "2", "assets": 0, "income": 0, "revenue": 0}, {"ein": "931495798", "name": "VISIONS OF THE TENTH CHAMBER INC", "city": "BROOKLYN", "state": "NY", "zip": "11208-4631", "ntee": "A99", "ruling": "202306", "deductibility": "1", "assets": 0, "income": 0, "revenue": 0}], "CLIVE": [{"ein": "137079336", "name": "CLIVE J DAVIS FOUNDATION", "city": "NEW YORK", "state": "NY", "zip": "10019-8720", "ntee": "B99Z", "ruling": "199612", "deductibility": "1", "assets": 362706, "income": 71612, "revenue": 0}, {"ein": "271350106", "name": "CLIVE BARNES FOUNDATION INC", "city": "NEW YORK", "state": "NY", "zip": "10150-0064", "ntee": "B82", "ruling": "201004", "deductibility": "1", "assets": 0, "income": 0, "revenue": 0}], "CORINTH": [{"ein": "141483218", "name": "CORINTH FREE LIBRARY", "city": "CORINTH", "state": "NY", "zip": "12822-1008", "ntee": "B71Z", "ruling": "197411", "deductibility": "1", "assets": 173717, "income": 111661, "revenue": 111661}, {"ein": "141511239", "name": "CORINTH WESLEYAN CHURCH", "city": "CORINTH", "state": "NY", "zip": "12822-1044", "ntee": "", "ruling": "197005", "deductibility": "1", "assets": 0, "income": 0, "revenue": 0}, {"ein": "141827847", "name": "CORINTH VOLUNTEER FIREMENS ASSOCIATION INC", "city": "CORINTH", "state": "NY", "zip": "12822-1111", "ntee": "M24", "ruling": "200512", "deductibility": "1", "assets": 0, "income": 0, "revenue": 0}, {"ein": "205532870", "name": "CORINTH LITTLE LEAGUE INC", "city": "CORINTH", "state": "NY", "zip": "12822-1133", "ntee": "N63", "ruling": "201612", "deductibility": "1", "assets": 74624, "income": 23827, "revenue": 18353}, {"ein": "223004884", "name": "CORINTH PARENT TEACHER STUDENT ASSOCIATION P T S A", "city": "CORINTH", "state": "NY", "zip": "12822-1203", "ntee": "B94Z", "ruling": "199004", "deductibility": "1", "assets": 0, "income": 0, "revenue": 0}, {"ein": "237249464", "name": "FIRST PRESBYTERIAN CHURCH OF CORINTH", "city": "CORINTH", "state": "NY", "zip": "12822-1211", "ntee": "X20", "ruling": "201302", "deductibility": "1", "assets": 0, "income": 0, "revenue": 0}, {"ein": "270468074", "name": "FAITH CHAPEL CORINTH INC", "city": "CORINTH", "state": "NY", "zip": "12822-1043", "ntee": "X20", "ruling": "201212", "deductibility": "1", "assets": 0, "income": 0, "revenue": 0}, {"ein": "311631150", "name": "CORINTH YOUTH HOCKEY ASSOCIATION INC", "city": "CORINTH", "state": "NY", "zip": "12822-2507", "ntee": "N68", "ruling": "199903", "deductibility": "1", "assets": 0, "income": 0, "revenue": 0}, {"ein": "333171331", "name": "CORINTH EDUCATIONAL FOUNDATION", "city": "CORINTH", "state": "NY", "zip": "12822-1203", "ntee": "B12", "ruling": "202502", "deductibility": "1", "assets": 0, "income": 0, "revenue": 0}, {"ein": "464940611", "name": "CORINTH DOLLARS FOR SCHOLARS INC", "city": "CORINTH", "state": "NY", "zip": "12822-0001", "ntee": "B82", "ruling": "201609", "deductibility": "1", "assets": 0, "income": 0, "revenue": 0}, {"ein": "844213804", "name": "CORINTH AIMS TO REACH EVERYONE INC", "city": "CORINTH", "state": "NY", "zip": "12822-1203", "ntee": "W99", "ruling": "202101", "deductibility": "1", "assets": 0, "income": 0, "revenue": 0}, {"ein": "851072449", "name": "CORINTH COMMUNITY CHURCHES INC", "city": "CORINTH", "state": "NY", "zip": "12822-1250", "ntee": "K31", "ruling": "202303", "deductibility": "1", "assets": 0, "income": 0, "revenue": 0}, {"ein": "883099268", "name": "CORINTH CHAOS SOFTBALL INC", "city": "CORINTH", "state": "NY", "zip": "12822-2309", "ntee": "N63", "ruling": "202212", "deductibility": "1", "assets": 0, "income": 0, "revenue": 0}, {"ein": "920415861", "name": "CORINTH ALL SPORTS BOOSTER CLUB", "city": "CORINTH", "state": "NY", "zip": "12822-1203", "ntee": "N12", "ruling": "202309", "deductibility": "1", "assets": 0, "income": 0, "revenue": 0}], "ARDIA": [{"ein": "161499155", "name": "MELINDA GRAY ARDIA ENVIRONMENTAL FOUNDATION LTD", "city": "EAST AMHERST", "state": "NY", "zip": "14051-2051", "ntee": "C99Z", "ruling": "199710", "deductibility": "1", "assets": 166170, "income": 23485, "revenue": 0}], "PASTMASTERS": [{"ein": "161647251", "name": "PASTMASTERS ASSOC 9TH MANHATTAN DISTRICT CHARITABLE FOUNDATION INC", "city": "GREENLAWN", "state": "NY", "zip": "11740-2126", "ntee": "T30", "ruling": "200310", "deductibility": "1", "assets": 0, "income": 0, "revenue": 0}], "LOVENHEIM": [{"ein": "166383847", "name": "JOHN EDWARD LOVENHEIM AND BARBARA PITLICK LOVENHEIM CHARITABLE TRUST", "city": "ITHACA", "state": "NY", "zip": "14850-1675", "ntee": "", "ruling": "199304", "deductibility": "1", "assets": 858689, "income": 250337, "revenue": 0}, {"ein": "166383848", "name": "MARTHA LOVENHEIM SIEGEL CHARITABLE TRUST", "city": "NEW YORK", "state": "NY", "zip": "10021-4516", "ntee": "", "ruling": "199305", "deductibility": "1", "assets": 1076661, "income": 484195, "revenue": 0}], "HELLENISM": [{"ein": "200359862", "name": "FAITH AN ENDOWMENT FOR ORTHODOXY & HELLENISM", "city": "NEW YORK", "state": "NY", "zip": "10022-1875", "ntee": "X112", "ruling": "201209", "deductibility": "1", "assets": 25237124, "income": 1140621, "revenue": 1140621}], "KROVA": [{"ein": "200537753", "name": "IRGUN REFUAH KROVA", "city": "BROOKLYN", "state": "NY", "zip": "11211-8726", "ntee": "X30", "ruling": "200405", "deductibility": "1", "assets": 0, "income": 0, "revenue": 0}], "PARATNERSHIP": [{"ein": "202074184", "name": "FAMILY READING PARATNERSHIP OF CHEMUNG VALLEY", "city": "ELMIRA", "state": "NY", "zip": "14905-0493", "ntee": "B92", "ruling": "200507", "deductibility": "1", "assets": 47782, "income": 25428, "revenue": 25428}], "DISTRI": [{"ein": "202443005", "name": "CENTRAL BUSINESS IMPROVEMENT DISTRI CT MANAGEMENT ASSOCIATION INC", "city": "GLENS FALLS", "state": "NY", "zip": "12801-4532", "ntee": "S41", "ruling": "201409", "deductibility": "1", "assets": 34424, "income": 161083, "revenue": 161083}], "POPPYS": [{"ein": "203414890", "name": "POPPYS SPECIAL FRIENDS INC", "city": "PRT WASHINGTN", "state": "NY", "zip": "11050-2029", "ntee": "P50", "ruling": "200512", "deductibility": "1", "assets": 64008, "income": 25850, "revenue": 25850}], "SAMITI": [{"ein": "203461038", "name": "JUKTARASTRA HABIGONJ ZILA SAMITI INC", "city": "BRONX", "state": "NY", "zip": "10472-4302", "ntee": "N30", "ruling": "201806", "deductibility": "1", "assets": 0, "income": 0, "revenue": 0}, {"ein": "463015851", "name": "BANGLADESH PUJA SAMITI OF NEW YORK INC", "city": "SUNNYSIDE", "state": "NY", "zip": "11104-2107", "ntee": "X99", "ruling": "201405", "deductibility": "1", "assets": 26661, "income": 59128, "revenue": 59128}, {"ein": "830420464", "name": "AKHIL VISHWA HINDI SAMITI", "city": "FOREST HILLS", "state": "NY", "zip": "11375-2950", "ntee": "A23", "ruling": "201502", "deductibility": "1", "assets": 0, "income": 0, "revenue": 0}, {"ein": "882091702", "name": "BUFFALO KALI PUJA SAMITI INCORPORATED", "city": "CLARENCE", "state": "NY", "zip": "14031-1143", "ntee": "T20", "ruling": "202212", "deductibility": "1", "assets": 0, "income": 0, "revenue": 0}], "ASURIM": [{"ein": "203718565", "name": "KEREN MATIR ASURIM", "city": "MONROE", "state": "NY", "zip": "10950-2424", "ntee": "X30", "ruling": "200801", "deductibility": "1", "assets": 0, "income": 0, "revenue": 0}, {"ein": "276205573", "name": "L ASURIM OF USA", "city": "BROOKLYN", "state": "NY", "zip": "11211-7721", "ntee": "I43", "ruling": "201007", "deductibility": "1", "assets": 0, "income": 0, "revenue": 0}], "HISTORICALFOUNDATION": [{"ein": "204602627", "name": "VAN HOESEN HOUSE HISTORICALFOUNDATION INC", "city": "CHATHAM", "state": "NY", "zip": "12037-0089", "ntee": "A80", "ruling": "201304", "deductibility": "1", "assets": 0, "income": 0, "revenue": 0}], "CANDLELIGHTERS": [{"ein": "208580720", "name": "CANDLELIGHTERS OF NEW YORK CITY INC", "city": "NEW YORK", "state": "NY", "zip": "10021-0155", "ntee": "F60", "ruling": "200808", "deductibility": "1", "assets": 464100, "income": 557240, "revenue": 557240}], "TWIG": [{"ein": "222255243", "name": "TWIG ASSOCIATION INC", "city": "ROCHESTER", "state": "NY", "zip": "14621-3011", "ntee": "E22I", "ruling": "197906", "deductibility": "1", "assets": 591980, "income": 459060, "revenue": 334770}, {"ein": "270568196", "name": "TWIG FOUNDATION", "city": "ROCKVILLE CENTRE", "state": "NY", "zip": "11570-0000", "ntee": "T20", "ruling": "200911", "deductibility": "1", "assets": 1187741, "income": 204240, "revenue": 0}], "BLC": [{"ein": "222384948", "name": "BLC FLY FISHERS INC", "city": "LIVINGSTN MNR", "state": "NY", "zip": "12758-6028", "ntee": "", "ruling": "198210", "deductibility": "2", "assets": 528340, "income": 373326, "revenue": 346642}], "TONELLI": [{"ein": "222561812", "name": "RESURRECTION LIFE FELLOWSHIP AKA JOHN TONELLI MINSTRIES INC", "city": "CHEEKTOWAGA", "state": "NY", "zip": "14227-2722", "ntee": "X20Z", "ruling": "198508", "deductibility": "1", "assets": 0, "income": 0, "revenue": 0}], "SCH0OL": [{"ein": "222704699", "name": "JAMESTOWN PUBLIC SCH0OL FORESTS INC", "city": "JAMESTOWN", "state": "NY", "zip": "14701-5623", "ntee": "C36", "ruling": "200611", "deductibility": "1", "assets": 603959, "income": 20501, "revenue": 0}], "OHOLI": [{"ein": "222777808", "name": "CONGREGATION OHOLI ACHIM", "city": "BROOKLYN", "state": "NY", "zip": "11211-6670", "ntee": "", "ruling": "198703", "deductibility": "1", "assets": 0, "income": 0, "revenue": 0}], "RETREE": [{"ein": "223207383", "name": "RETREE SCHENECTADY INC", "city": "SCHENECTADY", "state": "NY", "zip": "12309-5604", "ntee": "C500", "ruling": "199806", "deductibility": "1", "assets": 0, "income": 0, "revenue": 0}], "DEJ": [{"ein": "237172173", "name": "KOLLEL ZICHRON YOSEF DEJ", "city": "BROOKLYN", "state": "NY", "zip": "11230-6710", "ntee": "", "ruling": "197203", "deductibility": "1", "assets": 0, "income": 0, "revenue": 0}], "GAMILATH": [{"ein": "237206897", "name": "YAD SHALOMA GAMILATH CHASODEM ASSOCIATION", "city": "BROOKLYN", "state": "NY", "zip": "11219-3310", "ntee": "", "ruling": "197204", "deductibility": "1", "assets": 0, "income": 0, "revenue": 0}], "FRY": [{"ein": "256381298", "name": "FRY CHARLES S & HELEN B MEMORIAL TRUST", "city": "BUFFALO", "state": "NY", "zip": "14240-1504", "ntee": "T22", "ruling": "200703", "deductibility": "1", "assets": 880907, "income": 233031, "revenue": 0}, {"ein": "800589550", "name": "ELMIRA SMALL FRY INC", "city": "ELMIRA", "state": "NY", "zip": "14902-0975", "ntee": "N99", "ruling": "201703", "deductibility": "1", "assets": 0, "income": 0, "revenue": 0}], "HUDSONHIGHLANDS": [{"ein": "260792530", "name": "FRIENDS OF FAHNESTOCK AND HUDSONHIGHLANDS STATE PARKS", "city": "CARMEL", "state": "NY", "zip": "10512-3446", "ntee": "N113", "ruling": "200806", "deductibility": "1", "assets": 0, "income": 0, "revenue": 0}], "ALLOY": [{"ein": "262463552", "name": "ALLOY THEATER COMPANY INC", "city": "NEW YORK", "state": "NY", "zip": "10036-3711", "ntee": "A65", "ruling": "201011", "deductibility": "1", "assets": 0, "income": 0, "revenue": 0}], "IRAQ": [{"ein": "263121503", "name": "WORLD ORGANIZATION OF JEWS FROM IRAQ INC", "city": "NEW YORK", "state": "NY", "zip": "10001-1904", "ntee": "X30", "ruling": "200912", "deductibility": "1", "assets": 0, "income": 0, "revenue": 0}, {"ein": "465644508", "name": "WNY IRAQ AND AFGHANISTAN VETERANS MEMORIAL INC", "city": "BUFFALO", "state": "NY", "zip": "14209-1740", "ntee": "A50", "ruling": "201409", "deductibility": "1", "assets": 186530, "income": 120, "revenue": 120}, {"ein": "923398461", "name": "AFGHANISTAN & IRAQ VETERANS ASSOCIATION INC", "city": "MANLIUS", "state": "NY", "zip": "13104-9784", "ntee": "W30", "ruling": "202403", "deductibility": "1", "assets": 0, "income": 0, "revenue": 0}], "PFC": [{"ein": "264045973", "name": "PFC DORRENCE BROOKS VFW POST528", "city": "NEW YORK", "state": "NY", "zip": "10018-6330", "ntee": "Y40", "ruling": "202411", "deductibility": "1", "assets": 0, "income": 0, "revenue": 0}, {"ein": "842610684", "name": "PFC FUND INC", "city": "BROOKLYN", "state": "NY", "zip": "11205-4165", "ntee": "Z99", "ruling": "201911", "deductibility": "1", "assets": 0, "income": 0, "revenue": 0}], "ISAMBARD": [{"ein": "264312827", "name": "ISAMBARD KINGDOM BRUNEL SOCIETY OF OF NORTH AMERICA", "city": "GARDEN CITY", "state": "NY", "zip": "11530-0000", "ntee": "T22", "ruling": "200904", "deductibility": "1", "assets": 2042083, "income": 949167, "revenue": 0}], "YALDAINU": [{"ein": "270718582", "name": "CONGREGATION YALDAINU INC", "city": "NEW SQUARE", "state": "NY", "zip": "10977-0000", "ntee": "X30", "ruling": "201107", "deductibility": "1", "assets": 0, "income": 0, "revenue": 0}], "GYE": [{"ein": "271505885", "name": "GYE CORP", "city": "BROOKLYN", "state": "NY", "zip": "11219-1604", "ntee": "X80", "ruling": "201007", "deductibility": "1", "assets": 354435, "income": 2489212, "revenue": 2489212}], "ANNAS": [{"ein": "271720380", "name": "ANNAS WISH INC", "city": "NORTH CHILI", "state": "NY", "zip": "14514-0027", "ntee": "E86", "ruling": "201005", "deductibility": "1", "assets": 0, "income": 0, "revenue": 0}, {"ein": "820994802", "name": "ANNAS HOUSE MINISTRIES INC", "city": "FLEETWOOD", "state": "NY", "zip": "10552-0460", "ntee": "X20", "ruling": "201704", "deductibility": "1", "assets": 0, "income": 0, "revenue": 0}, {"ein": "923635636", "name": "ANNAS SUNFLOWER WARRIOR INC", "city": "ILION", "state": "NY", "zip": "13357-2222", "ntee": "E86", "ruling": "202306", "deductibility": "1", "assets": 0, "income": 0, "revenue": 0}], "SCLE": [{"ein": "271919085", "name": "SCLE CIGAR CLUB INC", "city": "MILLER PLACE", "state": "NY", "zip": "11764-0767", "ntee": "P03", "ruling": "201502", "deductibility": "1", "assets": 2427, "income": 4575, "revenue": 4575}], "BROADER": [{"ein": "273491528", "name": "A BROADER WAY FOUNDATION", "city": "NEW YORK", "state": "NY", "zip": "10170-0000", "ntee": "N20", "ruling": "201101", "deductibility": "1", "assets": 329319, "income": 601986, "revenue": 483046}], "PSYCHOMETRISTS": [{"ein": "274498479", "name": "BOARD OF CERTIFIED PSYCHOMETRISTS INC", "city": "NEW YORK", "state": "NY", "zip": "10005-4301", "ntee": "S41", "ruling": "201205", "deductibility": "2", "assets": 0, "income": 0, "revenue": 0}], "ROUSSEAU": [{"ein": "274529216", "name": "PROJECT ROUSSEAU INC", "city": "NEW YORK", "state": "NY", "zip": "10036-2518", "ntee": "B90", "ruling": "201108", "deductibility": "1", "assets": 841578, "income": 774807, "revenue": 774807}], "BLOSE": [{"ein": "274860882", "name": "EVELYN BLOSE HOLMAN EDUCATION FOUNDATION INC", "city": "BAY SHORE", "state": "NY", "zip": "11706-0862", "ntee": "B90", "ruling": "201405", "deductibility": "1", "assets": 0, "income": 0, "revenue": 0}], "AUTOCEPHALOUS": [{"ein": "311501502", "name": "AUTOCEPHALOUS ORTHODOX CHURCH OF N AND S AMERICA STS BORIS AND GIEB", "city": "BUCHANAN", "state": "NY", "zip": "10511-1651", "ntee": "X20", "ruling": "199903", "deductibility": "0", "assets": 0, "income": 0, "revenue": 0}], "SHMA": [{"ein": "311677160", "name": "SHMA YISRAEL INC", "city": "BROOKLYN", "state": "NY", "zip": "11233-4007", "ntee": "X99", "ruling": "199803", "deductibility": "1", "assets": 0, "income": 0, "revenue": 0}], "SIY": [{"ein": "320048308", "name": "SIY SOCCER LEAGUE INC", "city": "STATEN ISLAND", "state": "NY", "zip": "10309-3518", "ntee": "N64", "ruling": "200307", "deductibility": "1", "assets": 304041, "income": 303208, "revenue": 246603}], "GARRETT": [{"ein": "320633011", "name": "GARRETT MANDERVILLE DUTCH REFORMED CHURCH CEMETERY ASSOCIATION", "city": "SLATERVLE SPG", "state": "NY", "zip": "14881-9403", "ntee": "Y50", "ruling": "202103", "deductibility": "2", "assets": 0, "income": 0, "revenue": 0}, {"ein": "461749045", "name": "GARRETT W LOOMIS FOUNDATION", "city": "SACKETS HBR", "state": "NY", "zip": "13685-0543", "ntee": "M12", "ruling": "201501", "deductibility": "1", "assets": 0, "income": 0, "revenue": 0}, {"ein": "821605600", "name": "GARRETT L KASSLER MEMORIAL FUND", "city": "PLAINVIEW", "state": "NY", "zip": "11803-3022", "ntee": "P99", "ruling": "201707", "deductibility": "1", "assets": 0, "income": 0, "revenue": 0}, {"ein": "833090959", "name": "GARRETT DUNSMOOR MEMORIAL FOUNDATION INC", "city": "OSWEGO", "state": "NY", "zip": "13126-6105", "ntee": "O12", "ruling": "202306", "deductibility": "1", "assets": 469272, "income": 143187, "revenue": 128033}], "OPTIMUS": [{"ein": "331712876", "name": "UBS OPTIMUS FOUNDATION US INC", "city": "NEW YORK", "state": "NY", "zip": "10010-3643", "ntee": "T30", "ruling": "202502", "deductibility": "1", "assets": 0, "income": 0, "revenue": 0}], "CHARIT": [{"ein": "336137571", "name": "WISEMAN FAM FOUNDATION CHARIT TR 072993", "city": "EAST MARION", "state": "NY", "zip": "11939-1024", "ntee": "T22Z", "ruling": "199412", "deductibility": "1", "assets": 13529, "income": 2, "revenue": 0}], "ZANELLI": [{"ein": "357032081", "name": "ZANELLI FAM FOUNDATION", "city": "WOODBURY", "state": "NY", "zip": "11797-2944", "ntee": "T90", "ruling": "201408", "deductibility": "1", "assets": 1285232, "income": 1060981, "revenue": 0}], "MARYVALE": [{"ein": "412089057", "name": "MARYVALE MUSIC BOOSTERS", "city": "CHEEKTOWAGA", "state": "NY", "zip": "14225-3834", "ntee": "B112", "ruling": "200505", "deductibility": "1", "assets": 0, "income": 0, "revenue": 0}, {"ein": "833207178", "name": "MARYVALE SCHOOLS PARENT TEACHER ORGANIZATION INC", "city": "CHEEKTOWAGA", "state": "NY", "zip": "14225-2324", "ntee": "B94", "ruling": "201904", "deductibility": "1", "assets": 1, "income": 105732, "revenue": 29206}], "NBNM": [{"ein": "452589364", "name": "NBNM BASKETBALL LEAGUE", "city": "MERRICK", "state": "NY", "zip": "11566-3266", "ntee": "N62", "ruling": "201202", "deductibility": "1", "assets": 172472, "income": 123525, "revenue": 123525}], "NORAS": [{"ein": "453967790", "name": "NORAS ARK INC", "city": "EAST CONCORD", "state": "NY", "zip": "14055-9707", "ntee": "D30", "ruling": "201202", "deductibility": "1", "assets": 0, "income": 0, "revenue": 0}, {"ein": "814273688", "name": "NORAS PLAYHOUSE INC", "city": "BROOKLYN", "state": "NY", "zip": "11202-1597", "ntee": "A60", "ruling": "201803", "deductibility": "1", "assets": 0, "income": 0, "revenue": 0}], "CARREFOUR": [{"ein": "454566997", "name": "CARREFOUR PASTORAL DE LA FRANCOPHONIE INC", "city": "NEW YORK", "state": "NY", "zip": "10025-1710", "ntee": "X20", "ruling": "201612", "deductibility": "1", "assets": 0, "income": 0, "revenue": 0}], "SINOAMERICAN": [{"ein": "455622294", "name": "SINOAMERICAN BUDDHIST RESEARCH ASSOCIATION", "city": "BROOKLYN", "state": "NY", "zip": "11214-1611", "ntee": "X50", "ruling": "201406", "deductibility": "1", "assets": 0, "income": 0, "revenue": 0}], "RAJEM": [{"ein": "455633293", "name": "IGLESIA PENTECOSTAL RAJEM", "city": "HICKSVILLE", "state": "NY", "zip": "11801-2837", "ntee": "X99", "ruling": "201409", "deductibility": "1", "assets": 1, "income": 153441, "revenue": 153441}], "AKTIV": [{"ein": "461139731", "name": "AKTIV AGAINST CANCER INC", "city": "RIVERDALE", "state": "NY", "zip": "10471-3301", "ntee": "H30", "ruling": "201404", "deductibility": "1", "assets": 82259, "income": 340290, "revenue": 340290}], "SCHWIMMER": [{"ein": "461556476", "name": "C SCHWIMMER CHARITY FOUNDATION", "city": "BROOKLYN", "state": "NY", "zip": "11206-4926", "ntee": "T20", "ruling": "201312", "deductibility": "1", "assets": 1, "income": 391511, "revenue": 0}, {"ein": "472529516", "name": "SAM SCHWIMMER FAMILY FOUNDATION", "city": "MONSEY", "state": "NY", "zip": "10952-2704", "ntee": "T20", "ruling": "201503", "deductibility": "1", "assets": 101802, "income": 1, "revenue": 0}, {"ein": "824264849", "name": "N&C SCHWIMMER FOUNDATION", "city": "MONSEY", "state": "NY", "zip": "10952-3619", "ntee": "T22", "ruling": "201810", "deductibility": "1", "assets": 194043, "income": 37982, "revenue": 0}], "KYRIAS": [{"ein": "461599442", "name": "KYRIAS FOUNDATION", "city": "PHELPS", "state": "NY", "zip": "14532-1164", "ntee": "Y99", "ruling": "201406", "deductibility": "1", "assets": 1004446, "income": 26106, "revenue": 0}], "KEMACH": [{"ein": "462191120", "name": "KEMACH USA INC", "city": "SPRING VALLEY", "state": "NY", "zip": "10977-1006", "ntee": "Q11", "ruling": "201409", "deductibility": "1", "assets": 389760, "income": 736860, "revenue": 736860}], "GOVIND": [{"ein": "462968751", "name": "RADHA GOVIND DHAM NEW YORK", "city": "FLORAL PARK", "state": "NY", "zip": "11004-1707", "ntee": "X70", "ruling": "201407", "deductibility": "1", "assets": 0, "income": 0, "revenue": 0}], "PARKLAND": [{"ein": "463343164", "name": "FUTURE OF MOSHOLU PARKLAND INC", "city": "BRONX", "state": "NY", "zip": "10467-3102", "ntee": "C60", "ruling": "202209", "deductibility": "1", "assets": 21671, "income": 21307, "revenue": 21307}, {"ein": "463948969", "name": "TERRA BELLA PARKLAND CORPORATION", "city": "COMMACK", "state": "NY", "zip": "11725-5701", "ntee": "N32", "ruling": "201502", "deductibility": "1", "assets": 621008, "income": 100, "revenue": 100}, {"ein": "800498484", "name": "PARKLAND AT SHAKER POINTE AT CARONDELET INC", "city": "WATERVLIET", "state": "NY", "zip": "12189-2333", "ntee": "L22", "ruling": "201102", "deductibility": "1", "assets": 10736105, "income": 1037833, "revenue": 1037833}], "BUPH": [{"ein": "463365158", "name": "BUPH PROGRAM INC", "city": "BROOKLYN", "state": "NY", "zip": "11210-2010", "ntee": "O50", "ruling": "201312", "deductibility": "1", "assets": 0, "income": 0, "revenue": 0}], "LUCHA": [{"ein": "463823729", "name": "LUCHA VIDA INC", "city": "ASTORIA", "state": "NY", "zip": "11102-0216", "ntee": "N60", "ruling": "202405", "deductibility": "1", "assets": 0, "income": 0, "revenue": 0}], "HILTONS": [{"ein": "464640100", "name": "HILTONS CLASSIC WHEELS ON MAIN STREET", "city": "HILTON", "state": "NY", "zip": "14468-1058", "ntee": "T50", "ruling": "201612", "deductibility": "1", "assets": 3297, "income": 8815, "revenue": 0}], "LUCRETIA": [{"ein": "466303496", "name": "WW & LUCRETIA HAFER SCHOLARSHIP TUW", "city": "AMHERST", "state": "NY", "zip": "14228-2307", "ntee": "T99", "ruling": "201405", "deductibility": "1", "assets": 6652250, "income": 904359, "revenue": 0}], "TUSK": [{"ein": "471642059", "name": "TUSK MONTGOMERY CHARITABLE FOUNDATION INC", "city": "NEW YORK", "state": "NY", "zip": "10010-7302", "ntee": "T30", "ruling": "201411", "deductibility": "1", "assets": 2150, "income": 399000, "revenue": 399000}, {"ein": "811224748", "name": "TUSK MONTGOMERY PHILANTHROPIES INC", "city": "NEW YORK", "state": "NY", "zip": "10010-7302", "ntee": "T11", "ruling": "201609", "deductibility": "2", "assets": 3730, "income": 331500, "revenue": 331500}], "CHOLON": [{"ein": "471696279", "name": "AMERICAN FRIENDS OF KOLLEL BAIS DOVID CHOLON INC", "city": "NEW CITY", "state": "NY", "zip": "10956-5821", "ntee": "X12", "ruling": "201502", "deductibility": "1", "assets": 0, "income": 0, "revenue": 0}], "FOODSERVICE": [{"ein": "472631612", "name": "ASSOCIATION FOR HEALTHCARE FOODSERVICE NEW YORK CHAPTER INC", "city": "NEW YORK", "state": "NY", "zip": "10002-5596", "ntee": "Y03", "ruling": "201504", "deductibility": "2", "assets": 48000, "income": 50408, "revenue": 50408}], "NYNJ": [{"ein": "472632755", "name": "STOP THE CHOP NYNJ INC", "city": "NEW YORK", "state": "NY", "zip": "10024-6581", "ntee": "C20", "ruling": "201709", "deductibility": "1", "assets": 0, "income": 0, "revenue": 0}], "CHARMING": [{"ein": "472836311", "name": "CHARMING WILL FOUNDATION INC", "city": "ALBERTSON", "state": "NY", "zip": "11507-1611", "ntee": "Q22", "ruling": "201502", "deductibility": "1", "assets": 0, "income": 0, "revenue": 0}], "HOLIDAYS": [{"ein": "472940997", "name": "EILEENS HOME FOR THE HOLIDAYS INC", "city": "SAYVILLE", "state": "NY", "zip": "11782-1903", "ntee": "K30", "ruling": "202002", "deductibility": "1", "assets": 1, "income": 0, "revenue": 0}, {"ein": "833144173", "name": "TOTALLY BUFFALOS HOPE FOR THE HOLIDAYS", "city": "EAST AURORA", "state": "NY", "zip": "14052-2260", "ntee": "P12", "ruling": "201907", "deductibility": "1", "assets": 4299, "income": 56006, "revenue": 56006}, {"ein": "834448130", "name": "HOME FOR THE HOLIDAYS FOUNDATION", "city": "MEDINA", "state": "NY", "zip": "14103-1004", "ntee": "W12", "ruling": "202307", "deductibility": "1", "assets": 0, "income": 0, "revenue": 0}, {"ein": "872886370", "name": "WNY HOMES FOR THE HOLIDAYS INC", "city": "BUFFALO", "state": "NY", "zip": "14224-2573", "ntee": "P99", "ruling": "202201", "deductibility": "1", "assets": 0, "income": 0, "revenue": 0}], "AGUASVIVA": [{"ein": "473840114", "name": "AGUASVIVA FOUNDATION INC", "city": "NEW YORK", "state": "NY", "zip": "10016-1201", "ntee": "T50", "ruling": "201506", "deductibility": "1", "assets": 0, "income": 0, "revenue": 0}], "LAKEV": [{"ein": "473949989", "name": "VOLUNTEER EXEMPT FIREFIGHTERS BENEVOLENT ASSN OF MANHASSET-LAKEV", "city": "GREAT NECK", "state": "NY", "zip": "11021-2455", "ntee": "T31", "ruling": "201905", "deductibility": "1", "assets": 3755763, "income": 897275, "revenue": 897275}], "DAHAI": [{"ein": "474255714", "name": "DAHAI INTERNATIONAL GROUP INC", "city": "SYOSSET", "state": "NY", "zip": "11791-4507", "ntee": "A20", "ruling": "201601", "deductibility": "1", "assets": 0, "income": 0, "revenue": 0}], "CALCIO": [{"ein": "474907103", "name": "CALCIO UNITED SOCCER CLUB INC", "city": "WEST ONEONTA", "state": "NY", "zip": "13861-0022", "ntee": "N64", "ruling": "202005", "deductibility": "1", "assets": 0, "income": 0, "revenue": 0}], "THEURER": [{"ein": "477157335", "name": "VINCENT THEURER FOUNDATION", "city": "BROOKLYN", "state": "NY", "zip": "11220-5306", "ntee": "T20", "ruling": "201509", "deductibility": "1", "assets": 3125, "income": 394341, "revenue": 0}], "STEMPLES": [{"ein": "477368470", "name": "WILLIAM D STEMPLES TR", "city": "NORWICH", "state": "NY", "zip": "13815-1646", "ntee": "T50", "ruling": "201908", "deductibility": "1", "assets": 2867001, "income": 431338, "revenue": 0}], "RIDGEBURY": [{"ein": "510145721", "name": "THE CHURCH AT RIDGEBURY", "city": "SLATE HILL", "state": "NY", "zip": "10973-4313", "ntee": "", "ruling": "198205", "deductibility": "1", "assets": 0, "income": 0, "revenue": 0}], "SAJA": [{"ein": "550844632", "name": "SAJA GROUP INC", "city": "NEW YORK", "state": "NY", "zip": "10016-3244", "ntee": "Q20", "ruling": "200312", "deductibility": "1", "assets": 0, "income": 0, "revenue": 0}], "NERCESSIAN": [{"ein": "611571780", "name": "NERCESSIAN FOUNDATION INC", "city": "BRONX", "state": "NY", "zip": "10461-3115", "ntee": "T99", "ruling": "201408", "deductibility": "1", "assets": 102726, "income": 2008, "revenue": 2008}], "HERD": [{"ein": "800603736", "name": "VETS HERD", "city": "LANCASTER", "state": "NY", "zip": "14086-9356", "ntee": "P20", "ruling": "201107", "deductibility": "1", "assets": 0, "income": 0, "revenue": 0}, {"ein": "811103375", "name": "JACKS HERD INC", "city": "BURNT HILLS", "state": "NY", "zip": "12027-9578", "ntee": "Y12", "ruling": "201607", "deductibility": "1", "assets": 0, "income": 0, "revenue": 0}, {"ein": "834114381", "name": "WHEEL B HERD INC", "city": "BUFFALO", "state": "NY", "zip": "14207-2317", "ntee": "N30", "ruling": "202006", "deductibility": "1", "assets": 48880, "income": 107053, "revenue": 107053}, {"ein": "883458662", "name": "716 HERD INC", "city": "GETZVILLE", "state": "NY", "zip": "14068-1208", "ntee": "", "ruling": "202501", "deductibility": "1", "assets": 0, "income": 0, "revenue": 0}], "OLIVIAS": [{"ein": "812185039", "name": "OLIVIAS HOPE FOUNDATION", "city": "OYSTER BAY", "state": "NY", "zip": "11771-4509", "ntee": "G30", "ruling": "201809", "deductibility": "1", "assets": 404313, "income": 203297, "revenue": 202022}, {"ein": "843058333", "name": "OLIVIAS BEARS INC", "city": "N TONAWANDA", "state": "NY", "zip": "14120-9645", "ntee": "Z99", "ruling": "201910", "deductibility": "1", "assets": 44301, "income": 48293, "revenue": 48293}], "COLLECTOR": [{"ein": "812844539", "name": "USA COLLECTOR ASSOCIATION INC", "city": "ALBANY", "state": "NY", "zip": "12203-5026", "ntee": "A20", "ruling": "201608", "deductibility": "1", "assets": 1, "income": 1, "revenue": 0}], "MACHELA": [{"ein": "813847449", "name": "JOSEPH&MACHELA SINGER FOUNDATION", "city": "AIRMONT", "state": "NY", "zip": "10952-4324", "ntee": "T50", "ruling": "201902", "deductibility": "1", "assets": 267712, "income": 1, "revenue": 0}], "CHINCHILLA": [{"ein": "813932363", "name": "CHIN FRIENDS CHINCHILLA RESCUE INC", "city": "LINDENHURST", "state": "NY", "zip": "11757-6639", "ntee": "D20", "ruling": "201701", "deductibility": "1", "assets": 0, "income": 0, "revenue": 0}], "TRANSFORMS": [{"ein": "814182354", "name": "ART TRANSFORMS INC", "city": "SPRINGFIELD GARDENS", "state": "NY", "zip": "11413-2108", "ntee": "A25", "ruling": "202309", "deductibility": "1", "assets": 21306, "income": 29186, "revenue": 29186}], "JOURNE": [{"ein": "814728273", "name": "ON THIS JOURNE INC", "city": "JAMAICA", "state": "NY", "zip": "11434-3119", "ntee": "P01", "ruling": "201706", "deductibility": "1", "assets": 0, "income": 0, "revenue": 0}], "CRITTER": [{"ein": "821098507", "name": "CRITTER CROSSING INC", "city": "SYRACUSE", "state": "NY", "zip": "13215-8763", "ntee": "D20", "ruling": "202101", "deductibility": "1", "assets": 0, "income": 0, "revenue": 0}, {"ein": "991703518", "name": "KELLYS CRITTER CREW", "city": "HORNELL", "state": "NY", "zip": "14843-1804", "ntee": "D20", "ruling": "202206", "deductibility": "1", "assets": 0, "income": 0, "revenue": 0}, {"ein": "991826915", "name": "BEULAH PARADISE CRITTER RESCUE INC", "city": "COLLINS", "state": "NY", "zip": "14034-9739", "ntee": "D20", "ruling": "202403", "deductibility": "1", "assets": 0, "income": 0, "revenue": 0}], "GENTLE": [{"ein": "821269420", "name": "HEARTHSTONE GENTLE CARE INC", "city": "CATSKILL", "state": "NY", "zip": "12414-5783", "ntee": "P81", "ruling": "201707", "deductibility": "1", "assets": 0, "income": 0, "revenue": 0}, {"ein": "832576875", "name": "MAGNIFICAT GENTLE WOMAN MOTHER OF BUFFALO INC", "city": "ALDEN", "state": "NY", "zip": "14004-9403", "ntee": "X22", "ruling": "202311", "deductibility": "1", "assets": 0, "income": 0, "revenue": 0}], "NKIM": [{"ein": "821580136", "name": "MFAM NKIM NORTH AMERICA INC", "city": "ROSEDALE", "state": "NY", "zip": "11422-3329", "ntee": "T30", "ruling": "201710", "deductibility": "1", "assets": 0, "income": 0, "revenue": 0}], "RELATIONSHIPS": [{"ein": "822042167", "name": "ESTHER - EMPOWERING SISTERS TO HAVE ENRICHING RELATIONSHIPS - PROJECT", "city": "AMHERST", "state": "NY", "zip": "14226-4169", "ntee": "P80", "ruling": "201801", "deductibility": "1", "assets": 0, "income": 0, "revenue": 0}, {"ein": "843365501", "name": "FAMILY & FRIENDS UNITE TO UPLIFT RELATIONSHIPS EVERYWHERE FUTURE IN", "city": "ALBANY", "state": "NY", "zip": "12207-2922", "ntee": "P99", "ruling": "201911", "deductibility": "1", "assets": 0, "income": 0, "revenue": 0}, {"ein": "881064992", "name": "CREATING HEALTHY EMPOWERING RELATIONSHIPS IN SISTERHOOD INC", "city": "ALBANY", "state": "NY", "zip": "12207-2922", "ntee": "P20", "ruling": "202207", "deductibility": "1", "assets": 0, "income": 0, "revenue": 0}], "ANDPLAY": [{"ein": "822542706", "name": "ANDPLAY INC", "city": "NEW YORK", "state": "NY", "zip": "10040-2322", "ntee": "A6C", "ruling": "201712", "deductibility": "1", "assets": 27837, "income": 43189, "revenue": 43189}], "SCHAPERO": [{"ein": "823197681", "name": "SCHAPERO FAMILY CHARITABLE FOUNDATION INC", "city": "GARDEN CITY", "state": "NY", "zip": "11530-5807", "ntee": "T20", "ruling": "201804", "deductibility": "1", "assets": 96552, "income": 15814, "revenue": 0}], "FARMLAND": [{"ein": "825038307", "name": "TOWN OF NIAGARA FARMLAND CONSERVANCY", "city": "NIAGARA FALLS", "state": "NY", "zip": "14304-1032", "ntee": "B03", "ruling": "201804", "deductibility": "1", "assets": 285556, "income": 46000, "revenue": 46000}], "BODHISATTVA": [{"ein": "831761484", "name": "BODHISATTVA WISH TEMPLE INC", "city": "FLUSHING", "state": "NY", "zip": "11354-1927", "ntee": "X50", "ruling": "202001", "deductibility": "1", "assets": 270534, "income": 457899, "revenue": 457899}], "ROCHE": [{"ein": "831897911", "name": "IMOGEN ROCHE FOUNDATION INC", "city": "NEW YORK", "state": "NY", "zip": "10004-1056", "ntee": "F19", "ruling": "201905", "deductibility": "1", "assets": 606630, "income": 6507207, "revenue": 6507207}], "TGVZG18": [{"ein": "832500588", "name": "TGVZG18 FOUNDATION", "city": "BROOKLYN", "state": "NY", "zip": "11213-3619", "ntee": "", "ruling": "201906", "deductibility": "1", "assets": 105505, "income": 500, "revenue": 0}], "PALZ": [{"ein": "832740117", "name": "CHAMBER MUSIC SOCIETY OF NEW PALZ INC", "city": "NEW YORK", "state": "NY", "zip": "10024-4367", "ntee": "A68", "ruling": "201905", "deductibility": "1", "assets": 134824, "income": 63535, "revenue": 63535}], "THINKCADASIL": [{"ein": "832777378", "name": "THINKCADASIL INC", "city": "CARMEL", "state": "NY", "zip": "10512-5060", "ntee": "G01", "ruling": "201910", "deductibility": "1", "assets": 0, "income": 0, "revenue": 0}], "HINES": [{"ein": "832790329", "name": "JOHN V HINES FOUNDATION INC", "city": "CTR MORICHES", "state": "NY", "zip": "11934-2803", "ntee": "W30", "ruling": "201904", "deductibility": "1", "assets": 0, "income": 0, "revenue": 0}, {"ein": "842634754", "name": "WILLARD J HINES SCHOLARSHIP FUND INC", "city": "NEW YORK", "state": "NY", "zip": "10031-6227", "ntee": "B40", "ruling": "202405", "deductibility": "1", "assets": 0, "income": 0, "revenue": 0}], "OGS": [{"ein": "834018297", "name": "OGS AGAINST VIOLENCE", "city": "SYRACUSE", "state": "NY", "zip": "13201-0090", "ntee": "R99", "ruling": "201908", "deductibility": "1", "assets": 2630, "income": 43619, "revenue": 43619}], "ROC2025": [{"ein": "834392577", "name": "ROC2025 INC", "city": "ROCHESTER", "state": "NY", "zip": "14604-2410", "ntee": "S41", "ruling": "202007", "deductibility": "2", "assets": 1056394, "income": 2466105, "revenue": 2466105}], "BRILLIANT": [{"ein": "841926963", "name": "BRILLIANT CHINESE SCHOOL INC", "city": "BROOKLYN", "state": "NY", "zip": "11214-2293", "ntee": "B92", "ruling": "202303", "deductibility": "1", "assets": 147, "income": 28575, "revenue": 0}, {"ein": "873978876", "name": "BRILLIANT MINDS COLLECTIVE INC", "city": "NEW YORK", "state": "NY", "zip": "10024-5805", "ntee": "W05", "ruling": "202202", "deductibility": "1", "assets": 0, "income": 0, "revenue": 0}, {"ein": "992336971", "name": "BRILLIANT BIPOLARS INC", "city": "SCARSDALE", "state": "NY", "zip": "10583-2631", "ntee": "F19", "ruling": "202411", "deductibility": "1", "assets": 0, "income": 0, "revenue": 0}, {"ein": "992590420", "name": "BRILLIANT DIVERGENT FOUNDATION INCORPORATED", "city": "BROOKLYN", "state": "NY", "zip": "11210-4032", "ntee": "W12", "ruling": "202405", "deductibility": "1", "assets": 329, "income": 526, "revenue": 526}], "SCRIPTURE": [{"ein": "843069006", "name": "SCRIPTURE WORK INC", "city": "NEW YORK", "state": "NY", "zip": "10038-3703", "ntee": "X20", "ruling": "201909", "deductibility": "1", "assets": 0, "income": 0, "revenue": 0}], "DRAMASMITHS": [{"ein": "843892842", "name": "DRAMASMITHS INC", "city": "NEW YORK", "state": "NY", "zip": "10025-3361", "ntee": "A65", "ruling": "202103", "deductibility": "1", "assets": 1, "income": 0, "revenue": 0}], "SCATTERED": [{"ein": "844105469", "name": "CLOTH SCATTERED SITES HOUSING DEVELOPMENT FUND CORPORATION", "city": "NEW YORK", "state": "NY", "zip": "10032-0512", "ntee": "L20", "ruling": "202005", "deductibility": "2", "assets": 0, "income": 0, "revenue": 0}], "ITHADU": [{"ein": "850655367", "name": "ITHADU-L-ISLAM - RELIGIOUS ORGANIZATION", "city": "FAR ROCKAWAY", "state": "NY", "zip": "11691-1226", "ntee": "X40", "ruling": "202403", "deductibility": "1", "assets": 0, "income": 0, "revenue": 0}], "LABOUT": [{"ein": "850680266", "name": "FORMULA BY LABOUT SKILLZ INC", "city": "WHITE PLAINS", "state": "NY", "zip": "10607-2309", "ntee": "N62", "ruling": "202103", "deductibility": "1", "assets": 0, "income": 0, "revenue": 0}], "STARFACE": [{"ein": "851934714", "name": "STARFACE EDU INC", "city": "NEW YORK", "state": "NY", "zip": "10013-6005", "ntee": "O03", "ruling": "202103", "deductibility": "1", "assets": 0, "income": 0, "revenue": 0}], "SLAY": [{"ein": "852405658", "name": "LIVE TO SLAY LIFE AFTER CANCER", "city": "BROOKLYN", "state": "NY", "zip": "11234-3810", "ntee": "W12", "ruling": "202301", "deductibility": "1", "assets": 0, "income": 0, "revenue": 0}], "JAEGERS": [{"ein": "861257933", "name": "JAEGERS RUN ANIMAL RESCUE INC", "city": "PRT JEFFERSON", "state": "NY", "zip": "11777-1964", "ntee": "", "ruling": "202108", "deductibility": "1", "assets": 0, "income": 0, "revenue": 0}], "MALCHEI": [{"ein": "862223179", "name": "MALCHEI YISRAEL", "city": "BROOKLYN", "state": "NY", "zip": "11234-4203", "ntee": "X30", "ruling": "202203", "deductibility": "1", "assets": 0, "income": 0, "revenue": 0}], "MACHSHEVES": [{"ein": "872326566", "name": "MELECHES MACHSHEVES INCORPORATED", "city": "BROOKLYN", "state": "NY", "zip": "11219-3081", "ntee": "O50", "ruling": "202202", "deductibility": "1", "assets": 0, "income": 0, "revenue": 0}], "WOJNAROWICZ": [{"ein": "872396818", "name": "DAVID WOJNAROWICZ FOUNDATION INC", "city": "NEW YORK", "state": "NY", "zip": "10040-3929", "ntee": "A25", "ruling": "202311", "deductibility": "1", "assets": 0, "income": 27126, "revenue": 27126}], "SURJIT": [{"ein": "872626746", "name": "SURJIT K GILL MEMORIAL FOUNDATION INC", "city": "NEW YORK", "state": "NY", "zip": "10018-2598", "ntee": "T99", "ruling": "202201", "deductibility": "1", "assets": 1316, "income": 4914, "revenue": 0}], "UNIVIRTUAL": [{"ein": "874317611", "name": "UNIVIRTUAL SCHOOL WITHOUT BORDERS INC", "city": "NEW YORK", "state": "NY", "zip": "10025-6225", "ntee": "B90", "ruling": "202203", "deductibility": "1", "assets": 61387, "income": 100831, "revenue": 100831}], "ICARIA": [{"ein": "874365201", "name": "PAN-ICARIAN BROTHERHOOD OF AMERICA NEA ICARIA PORT JEFFERSON INC", "city": "PORT JEFF STA", "state": "NY", "zip": "11776-0077", "ntee": "A23", "ruling": "202311", "deductibility": "1", "assets": 65963, "income": 25197, "revenue": 18353}], "CHAVANNES": [{"ein": "880847775", "name": "CHAVANNES CHARITABLE FOUNDATION INC", "city": "W HEMPSTEAD", "state": "NY", "zip": "11552-3807", "ntee": "T30", "ruling": "202205", "deductibility": "1", "assets": 4097, "income": 17780, "revenue": 17780}], "PACAMA": [{"ein": "881616080", "name": "PACAMA A CONSERVATION COLLABORATIVE INC", "city": "OLIVEBRIDGE", "state": "NY", "zip": "12461-0051", "ntee": "C30", "ruling": "202205", "deductibility": "1", "assets": 1168978, "income": 63371, "revenue": 63371}], "PRJCT": [{"ein": "882552603", "name": "BODY PRJCT", "city": "NEW YORK", "state": "NY", "zip": "10019-5323", "ntee": "E99", "ruling": "202210", "deductibility": "1", "assets": 76783, "income": 0, "revenue": 0}], "UJGC": [{"ein": "883856796", "name": "UJGC UNITED JEWISH GUN COALITION INC", "city": "SUFFERN", "state": "NY", "zip": "10901-4256", "ntee": "B99", "ruling": "202209", "deductibility": "1", "assets": 0, "income": 0, "revenue": 0}], "PEUPLE": [{"ein": "920975286", "name": "PEUPLE CIRCONCIS INC", "city": "KINGS PARK", "state": "NY", "zip": "11754-4412", "ntee": "X19", "ruling": "202307", "deductibility": "1", "assets": 0, "income": 0, "revenue": 0}], "NANIA": [{"ein": "922196749", "name": "BELOVEDS A NANIA FOUNDATION INC", "city": "UNIONDALE", "state": "NY", "zip": "11553-3604", "ntee": "T01", "ruling": "202303", "deductibility": "1", "assets": 8993, "income": 33370, "revenue": 21256}], "LTE": [{"ein": "922628071", "name": "LTE CARE PLUS", "city": "GREAT NECK", "state": "NY", "zip": "11021-4802", "ntee": "P20", "ruling": "202307", "deductibility": "1", "assets": 11031, "income": 0, "revenue": 0}], "INTUNE": [{"ein": "923360946", "name": "INTUNE MUSIC TUTORING INC", "city": "BROOKLYN", "state": "NY", "zip": "11238-1501", "ntee": "O50", "ruling": "202305", "deductibility": "1", "assets": 0, "income": 0, "revenue": 0}], "MEZZO": [{"ein": "932489634", "name": "MEZZO ALLIES", "city": "RANSOMVILLE", "state": "NY", "zip": "14131-9720", "ntee": "F01", "ruling": "202310", "deductibility": "1", "assets": 0, "income": 0, "revenue": 0}], "SHULERT": [{"ein": "932577173", "name": "SHULERT INC", "city": "SUFFERN", "state": "NY", "zip": "10901-2404", "ntee": "X30", "ruling": "202402", "deductibility": "1", "assets": 0, "income": 0, "revenue": 0}], "NARATIV": [{"ein": "933480083", "name": "NARATIV STUDIOS INC", "city": "BROOKLYN", "state": "NY", "zip": "11237-8019", "ntee": "A30", "ruling": "202312", "deductibility": "1", "assets": 0, "income": 0, "revenue": 0}], "RACKETLON": [{"ein": "933889244", "name": "USA RACKETLON INC", "city": "NEW YORK", "state": "NY", "zip": "10023-0251", "ntee": "N70", "ruling": "202407", "deductibility": "1", "assets": 0, "income": 0, "revenue": 0}], "YIHU": [{"ein": "990791961", "name": "FRIENDS OF CHABAD YIHU INC", "city": "BROOKLYN", "state": "NY", "zip": "11203-1020", "ntee": "X30", "ruling": "202401", "deductibility": "1", "assets": 0, "income": 0, "revenue": 0}], "BLOODBORN": [{"ein": "991081065", "name": "BLOODBORN INC", "city": "BROOKLYN", "state": "NY", "zip": "11238-1387", "ntee": "E99", "ruling": "202403", "deductibility": "1", "assets": 0, "income": 0, "revenue": 0}], "RAMPAGE": [{"ein": "991304319", "name": "QUEENS RAMPAGE FOOTBALL & CHEER INC", "city": "ROSEDALE", "state": "NY", "zip": "11422-3336", "ntee": "N65", "ruling": "202403", "deductibility": "1", "assets": 0, "income": 0, "revenue": 0}]}