{"PATRICIA": [{"ein": "010567810", "name": "PATRICIA E PHELAN AND JOSEPH W PHELAN FAMILY FOUNDATION INC", "city": "GERMANTOWN", "state": "NY", "zip": "12526-0573", "ntee": "T22", "ruling": "200310", "deductibility": "1", "assets": 2654603, "income": 557484, "revenue": 0}, {"ein": "133928432", "name": "PATRICIA M HYNES", "city": "NEW YORK", "state": "NY", "zip": "10128-0807", "ntee": "T20Z", "ruling": "199710", "deductibility": "1", "assets": 228404, "income": 106648, "revenue": 0}, {"ein": "134062589", "name": "JOHN AND PATRICIA KLINGENSTEIN FUND", "city": "NEW YORK", "state": "NY", "zip": "10006-2756", "ntee": "T21", "ruling": "199908", "deductibility": "1", "assets": 116216807, "income": 8275169, "revenue": 0}, {"ein": "141828523", "name": "PAUL AND PATRICIA GIOIA FOUNDATION", "city": "LOUDONVILLE", "state": "NY", "zip": "12211-0000", "ntee": "T22", "ruling": "200104", "deductibility": "1", "assets": 13751661, "income": 13899168, "revenue": 0}, {"ein": "161541848", "name": "WALTER B & PATRICIA M GLADSTONE ANDES SCHOLARSHIP FUND", "city": "ONEONTA", "state": "NY", "zip": "13820-0430", "ntee": "T20Z", "ruling": "199803", "deductibility": "1", "assets": 142375, "income": 29618, "revenue": 0}, {"ein": "166528829", "name": "WALTER AND PATRICIA GLADSTONE CHARITABLE TRUST", "city": "ONEONTA", "state": "NY", "zip": "13820-0430", "ntee": "", "ruling": "000000", "deductibility": "0", "assets": 179381, "income": 63114, "revenue": 0}, {"ein": "201213788", "name": "ALLEN E AND PATRICIA M MURRAY FOUNDATION", "city": "SYOSSET", "state": "NY", "zip": "11791-0490", "ntee": "T22", "ruling": "200411", "deductibility": "1", "assets": 13387104, "income": 6042875, "revenue": 0}, {"ein": "201976911", "name": "PAUL AND PATRICIA HOGAN CHARITABLE FOUNDATION", "city": "ALBANY", "state": "NY", "zip": "12212-5201", "ntee": "T20", "ruling": "200507", "deductibility": "1", "assets": 498546, "income": 428039, "revenue": 0}, {"ein": "206360898", "name": "THE@JACK AND PATRICIA YOUDEEM FAMILY FOUNDATION", "city": "NEW YORK", "state": "NY", "zip": "10028-0934", "ntee": "T22", "ruling": "200501", "deductibility": "1", "assets": 34057, "income": 1661, "revenue": 0}, {"ein": "208800325", "name": "PATRICIA & BERNARD GOLDSTEIN FAMILYFOUNDATION", "city": "RYE", "state": "NY", "zip": "10580-0000", "ntee": "T20", "ruling": "200707", "deductibility": "1", "assets": 22399625, "income": 30630881, "revenue": 0}, {"ein": "237307973", "name": "PATRICIA H LADEW FOUNDATION INC", "city": "NEW YORK", "state": "NY", "zip": "10016-1607", "ntee": "", "ruling": "197401", "deductibility": "1", "assets": 3813146, "income": 1304731, "revenue": 0}, {"ein": "274126227", "name": "ROBERT AND PATRICIA FRIEMANN FOUNDATION", "city": "HUNTINGTON", "state": "NY", "zip": "11743-2548", "ntee": "T20", "ruling": "201105", "deductibility": "1", "assets": 478079, "income": 52757, "revenue": 0}, {"ein": "331871719", "name": "PATRICIA KROHN FOUNDATION INC", "city": "WARWICK", "state": "NY", "zip": "10990-3450", "ntee": "F12", "ruling": "202411", "deductibility": "1", "assets": 0, "income": 0, "revenue": 0}, {"ein": "357173053", "name": "ANTHONY L SACCO AND PATRICIA SACCO PRIVATE FOUNDATION", "city": "MASSAPEQUA", "state": "NY", "zip": "11758-8211", "ntee": "T99", "ruling": "201904", "deductibility": "1", "assets": 160438, "income": 260158, "revenue": 0}, {"ein": "461091098", "name": "PATRICIA FLEMING FOUNDATION", "city": "NEW YORK", "state": "NY", "zip": "10022-6030", "ntee": "Q71", "ruling": "201511", "deductibility": "1", "assets": 0, "income": 0, "revenue": 0}, {"ein": "472277331", "name": "FRED AND PATRICIA SALERNO PRIVATE FOUNDATION", "city": "ALBANY", "state": "NY", "zip": "12212-5201", "ntee": "T20", "ruling": "201509", "deductibility": "1", "assets": 1790808, "income": 1181026, "revenue": 0}, {"ein": "472606205", "name": "JEFFERY AND PATRICIA DAVIS FAMILY FOUNDATION INC", "city": "ROCHESTER", "state": "NY", "zip": "14618-3436", "ntee": "T20", "ruling": "201511", "deductibility": "1", "assets": 1432179, "income": 852125, "revenue": 0}, {"ein": "743107995", "name": "EDWARD JOHN AND PATRICIA ROSENWALD FOUNDATION", "city": "NEW YORK", "state": "NY", "zip": "10036-0000", "ntee": "T20", "ruling": "200501", "deductibility": "1", "assets": 78938, "income": 5973165, "revenue": 0}, {"ein": "823169115", "name": "VINCENT AND PATRICIA VP FOUNDATION INC", "city": "JAMAICA", "state": "NY", "zip": "11435-4138", "ntee": "Q20", "ruling": "201807", "deductibility": "1", "assets": 1052824, "income": 507459, "revenue": 0}, {"ein": "826961145", "name": "HERBERT AND PATRICIA LESSOW CHARITABLE FOUNDATION", "city": "NEW YORK", "state": "NY", "zip": "10128-1176", "ntee": "T20", "ruling": "201811", "deductibility": "1", "assets": 95771, "income": 16, "revenue": 0}, {"ein": "920785271", "name": "PATRICIA JOHANSON FOUNDATION INC", "city": "BUSKIRK", "state": "NY", "zip": "12028-3202", "ntee": "A20", "ruling": "202311", "deductibility": "1", "assets": 1, "income": 1, "revenue": 0}, {"ein": "921166284", "name": "PATRICIA AND DWAYNE DIESU FAMILY FOUNDATION INC", "city": "EAST ISLIP", "state": "NY", "zip": "11730-2912", "ntee": "P20", "ruling": "202212", "deductibility": "1", "assets": 1, "income": 1500, "revenue": 0}, {"ein": "932420743", "name": "PATRICIA VERNICA SMITH FOUNDATION", "city": "JAMAICA", "state": "NY", "zip": "11434-5929", "ntee": "P20", "ruling": "202506", "deductibility": "1", "assets": 0, "income": 0, "revenue": 0}, {"ein": "994673199", "name": "PATRICIA A LAPORTE SCHOLARSHIP FOR THE CREATIVE ARTS INC", "city": "ASTORIA", "state": "NY", "zip": "11106-4573", "ntee": "B82", "ruling": "202409", "deductibility": "1", "assets": 0, "income": 0, "revenue": 0}], "GROUND": [{"ein": "010574675", "name": "COMMON GROUND FARM INC", "city": "BEACON", "state": "NY", "zip": "12508-0148", "ntee": "K99", "ruling": "200706", "deductibility": "1", "assets": 225908, "income": 672180, "revenue": 669245}, {"ein": "043667861", "name": "FROM THE GROUND UP THERAPEUTIC HORSEMANSHIP INC", "city": "TULLY", "state": "NY", "zip": "13159-9435", "ntee": "F60", "ruling": "200304", "deductibility": "1", "assets": 289050, "income": 57291, "revenue": 57291}, {"ein": "113012799", "name": "GOOD GROUND CEMETERY ASSOC INC", "city": "HAMPTON BAYS", "state": "NY", "zip": "11946-0011", "ntee": "", "ruling": "199011", "deductibility": "2", "assets": 419232, "income": 95348, "revenue": 95348}, {"ein": "113048002", "name": "BREAKING GROUND HOUSING DEVELOPMENT FUND CORPORATION", "city": "NEW YORK", "state": "NY", "zip": "10018-6550", "ntee": "L80Z", "ruling": "199103", "deductibility": "1", "assets": 214800596, "income": 32233284, "revenue": 31598965}, {"ein": "113252067", "name": "HIGHER GROUND INC", "city": "BROOKLYN", "state": "NY", "zip": "11207-6710", "ntee": "X30Z", "ruling": "199509", "deductibility": "1", "assets": 0, "income": 0, "revenue": 0}, {"ein": "113352350", "name": "UNITY FELLOWSHIP BREAKING GROUND INC", "city": "NEW YORK", "state": "NY", "zip": "10032-0510", "ntee": "X20", "ruling": "201410", "deductibility": "1", "assets": 0, "income": 0, "revenue": 0}, {"ein": "113500110", "name": "HIGHER GROUND DELIVERANCE OUTREACH MINISTRIES INC", "city": "HEMPSTEAD", "state": "NY", "zip": "11550-4506", "ntee": "X20", "ruling": "200401", "deductibility": "1", "assets": 0, "income": 0, "revenue": 0}, {"ein": "131860451", "name": "RISING GROUND INC", "city": "NEW YORK", "state": "NY", "zip": "10018-7204", "ntee": "P20", "ruling": "194912", "deductibility": "1", "assets": 123923963, "income": 225307569, "revenue": 207753642}, {"ein": "132993383", "name": "TABERNACLE CHURCH OF GOD PILLAR AND GROUND OF THE TRUTH", "city": "BRONX", "state": "NY", "zip": "10467-5103", "ntee": "", "ruling": "197210", "deductibility": "1", "assets": 0, "income": 0, "revenue": 0}, {"ein": "133035736", "name": "SANDY GROUND HISTORICAL SOCIETY INC", "city": "STATEN ISLAND", "state": "NY", "zip": "10309-1716", "ntee": "V31", "ruling": "202304", "deductibility": "1", "assets": 185160, "income": 22950, "revenue": 22950}, {"ein": "133330460", "name": "THE FRIENDS OF THE OLD DUTCH BURYING GROUND", "city": "SLEEPY HOLLOW", "state": "NY", "zip": "10591-3206", "ntee": "", "ruling": "199102", "deductibility": "1", "assets": 23813, "income": 21166, "revenue": 21166}, {"ein": "133705243", "name": "COMMON GROUND JOBS TRAINING CORP", "city": "NEW YORK", "state": "NY", "zip": "10018-6550", "ntee": "J200", "ruling": "199412", "deductibility": "1", "assets": 11266220, "income": 224738, "revenue": 0}, {"ein": "133846708", "name": "BREAKING GROUND II HOUSING DEVELOPMENT FUND CORPORATION", "city": "NEW YORK", "state": "NY", "zip": "10018-6550", "ntee": "L20", "ruling": "199710", "deductibility": "1", "assets": 115715861, "income": 8820753, "revenue": 4846250}, {"ein": "133871134", "name": "COMMON GROUND MANAGEMENT CORPORATION", "city": "NEW YORK", "state": "NY", "zip": "10018-4773", "ntee": "J20", "ruling": "200006", "deductibility": "1", "assets": 76440825, "income": 59582621, "revenue": 58939172}, {"ein": "134138205", "name": "BREAKING GROUND III HOUSING DEVELOPMENT FUND CORPORATION", "city": "NEW YORK", "state": "NY", "zip": "10018-6550", "ntee": "L20", "ruling": "200303", "deductibility": "1", "assets": 1083679, "income": 361336, "revenue": 361336}, {"ein": "134196931", "name": "BREAKING GROUND IV HOUSING DEVELOPMENT FUND CORPORATION", "city": "NEW YORK", "state": "NY", "zip": "10018-6550", "ntee": "L41", "ruling": "200206", "deductibility": "1", "assets": 15946035, "income": 6130660, "revenue": 6130660}, {"ein": "141402434", "name": "NINE PARTNERS BURIAL GROUND ASSOCIATION", "city": "MILLBROOK", "state": "NY", "zip": "12545-1107", "ntee": "", "ruling": "195701", "deductibility": "1", "assets": 646712, "income": 72567, "revenue": 72567}, {"ein": "141756034", "name": "COMMON GROUND DISPUTE RESOLUTION INC", "city": "CATSKILL", "state": "NY", "zip": "12414-1497", "ntee": "Z99Z", "ruling": "199302", "deductibility": "1", "assets": 150077, "income": 222738, "revenue": 222738}, {"ein": "141809029", "name": "GOOD GROUND MINISTRIES INTERNATIONAL INC", "city": "COHOES", "state": "NY", "zip": "12047-0070", "ntee": "X21", "ruling": "200001", "deductibility": "1", "assets": 0, "income": 0, "revenue": 0}, {"ein": "146023139", "name": "QUAKER HILL BURIAL GROUND ASSN INC", "city": "PAWLING", "state": "NY", "zip": "12564-0326", "ntee": "", "ruling": "195008", "deductibility": "1", "assets": 810191, "income": 84065, "revenue": 54840}, {"ein": "161362114", "name": "HIGHER GROUND CHRISTIAN CENTER INC", "city": "NIAGARA FALLS", "state": "NY", "zip": "14305-0000", "ntee": "", "ruling": "199310", "deductibility": "1", "assets": 0, "income": 0, "revenue": 0}, {"ein": "161500844", "name": "HOLY GROUND MINISTRIES INC", "city": "PIFFARD", "state": "NY", "zip": "14533-0079", "ntee": "X99Z", "ruling": "199610", "deductibility": "1", "assets": 0, "income": 0, "revenue": 0}, {"ein": "161508119", "name": "HIGHER GROUND CHRISTIAN CHURCH", "city": "AFTON", "state": "NY", "zip": "13730-3238", "ntee": "X20Z", "ruling": "199811", "deductibility": "1", "assets": 0, "income": 0, "revenue": 0}, {"ein": "161521308", "name": "SEEKING COMMON GROUND INC", "city": "CANANDAIGUA", "state": "NY", "zip": "14424-0599", "ntee": "K20", "ruling": "199808", "deductibility": "1", "assets": 10909, "income": 47795, "revenue": 47795}, {"ein": "161548822", "name": "HIGHER GROUND BAPTIST FELLOWSHIP", "city": "BUFFALO", "state": "NY", "zip": "14220-1211", "ntee": "X20", "ruling": "199901", "deductibility": "1", "assets": 0, "income": 0, "revenue": 0}, {"ein": "208476798", "name": "THE GROUND INITIATIVE INC", "city": "BROOKLYN", "state": "NY", "zip": "11210-4626", "ntee": "P80", "ruling": "200808", "deductibility": "1", "assets": 0, "income": 0, "revenue": 0}, {"ein": "222310610", "name": "JUNE BRAY MEMORIAL PLAY GROUND", "city": "WESTDALE", "state": "NY", "zip": "13483-1008", "ntee": "N32", "ruling": "201705", "deductibility": "1", "assets": 0, "income": 0, "revenue": 0}, {"ein": "222446837", "name": "NEUTRAL GROUND SUPPORT ORGANIZATION INC", "city": "FAIRPORT", "state": "NY", "zip": "14450-4113", "ntee": "F6XZ", "ruling": "198308", "deductibility": "1", "assets": 0, "income": 0, "revenue": 0}, {"ein": "237146460", "name": "HOLY GROUND TABERNACLE CHURCH OF CHRIST INC", "city": "BROOKLYN", "state": "NY", "zip": "11212-5628", "ntee": "", "ruling": "197206", "deductibility": "1", "assets": 0, "income": 0, "revenue": 0}, {"ein": "260824666", "name": "HIGHER GROUND WORSHIP CENTER CHURCH OF GOD IN CHRIST", "city": "SCHENECTADY", "state": "NY", "zip": "12307-1410", "ntee": "X20", "ruling": "202404", "deductibility": "1", "assets": 0, "income": 0, "revenue": 0}, {"ein": "264679402", "name": "HIGHER GROUND INTEGRATED HUMAN SERVICES INC", "city": "ALBANY", "state": "NY", "zip": "12203-5955", "ntee": "E21", "ruling": "202006", "deductibility": "1", "assets": 194819, "income": 1293088, "revenue": 1293088}, {"ein": "275165397", "name": "GROUND ZERO 360 INC", "city": "NEW YORK", "state": "NY", "zip": "10016-8514", "ntee": "A84", "ruling": "201106", "deductibility": "1", "assets": 419288, "income": 205229, "revenue": 177729}, {"ein": "333838542", "name": "BOOTS ON THE GROUND NEW YORK LTD", "city": "SCHENECTADY", "state": "NY", "zip": "12303-4520", "ntee": "P12", "ruling": "202504", "deductibility": "1", "assets": 0, "income": 0, "revenue": 0}, {"ein": "412138391", "name": "GOOD GROUND CHRISTIAN EDUCATION SERVICES", "city": "PATTERSONVLE", "state": "NY", "zip": "12137-3231", "ntee": "B24", "ruling": "200503", "deductibility": "1", "assets": 0, "income": 0, "revenue": 0}, {"ein": "710944597", "name": "EVEN GROUND INC", "city": "NEW YORK", "state": "NY", "zip": "10020-1606", "ntee": "B90", "ruling": "200310", "deductibility": "1", "assets": 221048, "income": 308734, "revenue": 308042}, {"ein": "814475489", "name": "STOMPING GROUND CAMP INC", "city": "MIDDLE GROVE", "state": "NY", "zip": "12850-1324", "ntee": "O50", "ruling": "201703", "deductibility": "1", "assets": 1672847, "income": 1072529, "revenue": 1072529}, {"ein": "820559852", "name": "PROJECT NEW GROUND INC", "city": "BROOKLYN", "state": "NY", "zip": "11213-3810", "ntee": "P50", "ruling": "201406", "deductibility": "1", "assets": 0, "income": 0, "revenue": 0}, {"ein": "822100769", "name": "GROUND ZERO MINISTRIES INC", "city": "UTICA", "state": "NY", "zip": "13502-4428", "ntee": "X21", "ruling": "201903", "deductibility": "1", "assets": 9562, "income": 0, "revenue": 0}, {"ein": "822177359", "name": "COMMON GROUND FOUNDATION INC", "city": "WEST HENRIETTA", "state": "NY", "zip": "14586-9793", "ntee": "R40", "ruling": "201709", "deductibility": "1", "assets": 150263, "income": 682571, "revenue": 0}, {"ein": "830415149", "name": "HOLY GROUND TABERNACLE INC", "city": "JAMAICA", "state": "NY", "zip": "11434-1818", "ntee": "X21", "ruling": "200706", "deductibility": "1", "assets": 0, "income": 0, "revenue": 0}, {"ein": "831148748", "name": "BURYING GROUND PRESERVATION GROUP", "city": "SAG HARBOR", "state": "NY", "zip": "11963-0116", "ntee": "A80", "ruling": "201906", "deductibility": "1", "assets": 0, "income": 0, "revenue": 0}, {"ein": "844637171", "name": "HYER GROUND RESCUE INC", "city": "CATSKILL", "state": "NY", "zip": "12414-1903", "ntee": "A01", "ruling": "202004", "deductibility": "1", "assets": 0, "income": 0, "revenue": 0}, {"ein": "861159920", "name": "GROUND UP PRODUCTIONS", "city": "NEW YORK", "state": "NY", "zip": "10014-5717", "ntee": "A65", "ruling": "200707", "deductibility": "1", "assets": 16224, "income": 14495, "revenue": 14495}, {"ein": "870785445", "name": "HIGHER GROUND INTER-CULTURAL & HERITAGE ASSOC INC", "city": "EAST SETAUKET", "state": "NY", "zip": "11733-0738", "ntee": "A23", "ruling": "200706", "deductibility": "1", "assets": 93251, "income": 1300, "revenue": 1300}, {"ein": "871801552", "name": "FUND FOR RISING GROUND INC", "city": "NEW YORK", "state": "NY", "zip": "10018-7204", "ntee": "P11", "ruling": "202202", "deductibility": "1", "assets": 50000292, "income": 8403596, "revenue": 3071159}, {"ein": "873692212", "name": "GROUND UP INITIATIVE FOUNDATION INC", "city": "NEW YORK", "state": "NY", "zip": "10002-1581", "ntee": "N64", "ruling": "202202", "deductibility": "1", "assets": 0, "income": 0, "revenue": 0}, {"ein": "883340208", "name": "GROUND FLOOR SQUARE CLUB INC", "city": "BROOKLYN", "state": "NY", "zip": "11207-8903", "ntee": "W01", "ruling": "202208", "deductibility": "1", "assets": 0, "income": 0, "revenue": 0}, {"ein": "922196829", "name": "COMMON GROUND COMMUNITY SERVICES INC", "city": "STATEN ISLAND", "state": "NY", "zip": "10303-2424", "ntee": "W03", "ruling": "202309", "deductibility": "1", "assets": 0, "income": 0, "revenue": 0}, {"ein": "923747978", "name": "AFRICAN BURIAL GROUND MEMORIAL FOUNDATION", "city": "BROOKLYN", "state": "NY", "zip": "11217-2404", "ntee": "A80", "ruling": "202311", "deductibility": "1", "assets": 0, "income": 0, "revenue": 0}, {"ein": "994017700", "name": "BOOTS ON THE GROUND LACE UP OUT REACH INC", "city": "QUEENS", "state": "NY", "zip": "11368-3543", "ntee": "S99", "ruling": "202408", "deductibility": "1", "assets": 0, "income": 0, "revenue": 0}], "SAUNDERS": [{"ein": "010876963", "name": "SAUNDERS OMNIPRESENT NETWORK INSPIRING AMERICAS YOUTH INC", "city": "WEST BABYLON", "state": "NY", "zip": "11704-1921", "ntee": "O50", "ruling": "200812", "deductibility": "1", "assets": 0, "income": 0, "revenue": 0}, {"ein": "161289330", "name": "SAUNDERS FOUNDATION", "city": "ROCHESTER", "state": "NY", "zip": "14619-2234", "ntee": "", "ruling": "198707", "deductibility": "1", "assets": 6223804, "income": 6850068, "revenue": 0}, {"ein": "205359753", "name": "SAUNDERS PROPERTIES OF WNY INC", "city": "CHEEKTOWAGA", "state": "NY", "zip": "14227-1416", "ntee": "S47", "ruling": "200709", "deductibility": "2", "assets": 1896808, "income": 348078, "revenue": 348078}, {"ein": "800508089", "name": "SAUNDERS HS ALUMNI ASSOCIATION", "city": "YONKERS", "state": "NY", "zip": "10701-5655", "ntee": "B84", "ruling": "202208", "deductibility": "1", "assets": 0, "income": 0, "revenue": 0}], "CDH": [{"ein": "020551638", "name": "CDH INTERNATIONAL FOUNDATION INC", "city": "GARDEN CITY", "state": "NY", "zip": "11530-1650", "ntee": "T22", "ruling": "200403", "deductibility": "1", "assets": 4400123, "income": 1260605, "revenue": 0}], "COM": [{"ein": "020593424", "name": "GREENGAMES COM", "city": "ITHACA", "state": "NY", "zip": "14850-1265", "ntee": "C30", "ruling": "200304", "deductibility": "1", "assets": 0, "income": 0, "revenue": 0}, {"ein": "061611859", "name": "HONEST REPORTING COM INC", "city": "NEW YORK", "state": "NY", "zip": "10087-4658", "ntee": "A30", "ruling": "200112", "deductibility": "1", "assets": 2985222, "income": 9146759, "revenue": 3400544}, {"ein": "134015609", "name": "WEST-PUT PLUMBERS & STEAMFITTERS IND LABOR MGMT COOP COM TRUST", "city": "PEEKSKILL", "state": "NY", "zip": "10566-5604", "ntee": "J40", "ruling": "199908", "deductibility": "2", "assets": 185707, "income": 188533, "revenue": 188533}, {"ein": "141990983", "name": "JEWS IN AMERICA COM INC", "city": "NEW YORK", "state": "NY", "zip": "10007-3742", "ntee": "A27", "ruling": "200709", "deductibility": "1", "assets": 0, "income": 0, "revenue": 0}, {"ein": "261652353", "name": "AFROPRESENCIA COM INC", "city": "BROOKLYN", "state": "NY", "zip": "11201-2004", "ntee": "R99", "ruling": "200809", "deductibility": "1", "assets": 0, "income": 0, "revenue": 0}, {"ein": "454185253", "name": "FLOYDWARRIORS COM INC", "city": "SARATOGA SPRINGS", "state": "NY", "zip": "12866-0000", "ntee": "E86", "ruling": "201212", "deductibility": "1", "assets": 0, "income": 0, "revenue": 0}, {"ein": "463864309", "name": "MASSACHUSETTS AVENUE SUSTAINABLE HOMES HOUSING DEVELOPMENT FUND COM", "city": "BUFFALO", "state": "NY", "zip": "14213-2180", "ntee": "L20", "ruling": "201410", "deductibility": "1", "assets": 1086684, "income": 21270, "revenue": 21270}, {"ein": "464384755", "name": "CLASSICALPODCASTS DOT COM INC", "city": "NEW YORK", "state": "NY", "zip": "10280-1077", "ntee": "A25", "ruling": "201504", "deductibility": "1", "assets": 0, "income": 0, "revenue": 0}, {"ein": "550819768", "name": "HUNT MEMORIAL PRESERVATION COM", "city": "ELLENVILLE", "state": "NY", "zip": "12428-0719", "ntee": "A80", "ruling": "200306", "deductibility": "1", "assets": 11263, "income": 10771, "revenue": 10358}, {"ein": "753049554", "name": "AMERICAN FRIENDS OF THE ASSOCIATION FOR THE ADV OF COM CENTERS IN ISR", "city": "STATEN ISLAND", "state": "NY", "zip": "10314-0000", "ntee": "Q30", "ruling": "200205", "deductibility": "1", "assets": 315847, "income": 762235, "revenue": 762235}, {"ein": "810588319", "name": "FEMINIST COM FOUNDATION", "city": "WOODSTOCK", "state": "NY", "zip": "12498-0668", "ntee": "R23", "ruling": "200310", "deductibility": "1", "assets": 30891, "income": 55326, "revenue": 52108}, {"ein": "810651422", "name": "COM IT ES DI NEW YORK E CONNECTICUT INC", "city": "BROOKLYN", "state": "NY", "zip": "11214-3735", "ntee": "A23", "ruling": "202404", "deductibility": "1", "assets": 0, "income": 0, "revenue": 0}, {"ein": "850771336", "name": "COM-GAP", "city": "PITTSFORD", "state": "NY", "zip": "14534-1227", "ntee": "J03", "ruling": "202008", "deductibility": "1", "assets": 0, "income": 0, "revenue": 0}, {"ein": "884005628", "name": "770LIVE COM INC", "city": "BROOKLYN", "state": "NY", "zip": "11203-1007", "ntee": "X81", "ruling": "202212", "deductibility": "1", "assets": 0, "income": 0, "revenue": 0}, {"ein": "932068266", "name": "CORINTIOS RADIO Y TV COM INC", "city": "RICHMOND HILL", "state": "NY", "zip": "11418-2442", "ntee": "A34", "ruling": "202309", "deductibility": "1", "assets": 0, "income": 0, "revenue": 0}, {"ein": "992336259", "name": "WORLDWECARE COM INC", "city": "KINGS POINT", "state": "NY", "zip": "11024-2102", "ntee": "P26", "ruling": "202404", "deductibility": "1", "assets": 0, "income": 0, "revenue": 0}], "AVALON": [{"ein": "020635410", "name": "SISTERHOOD OF AVALON INC", "city": "ITHACA", "state": "NY", "zip": "14850-6316", "ntee": "B99", "ruling": "202409", "deductibility": "1", "assets": 0, "income": 0, "revenue": 0}, {"ein": "753165488", "name": "AVALON NATURE PRESERVE INC", "city": "STONY BROOK", "state": "NY", "zip": "11790-2000", "ntee": "N32", "ruling": "200504", "deductibility": "1", "assets": 55912209, "income": 16067199, "revenue": 0}], "CONSECRATED": [{"ein": "020638336", "name": "LEGION OF CHRIST AND CONSECRATED R C MEMBERS ASSISTANCE FOUNDATION", "city": "WHITE PLAINS", "state": "NY", "zip": "10601-1712", "ntee": "", "ruling": "194603", "deductibility": "1", "assets": 0, "income": 0, "revenue": 0}, {"ein": "112675329", "name": "WARRENS CONSECRATED TEMPLE INC", "city": "UNIONDALE", "state": "NY", "zip": "11553-3003", "ntee": "", "ruling": "198406", "deductibility": "1", "assets": 0, "income": 0, "revenue": 0}], "HEBREW": [{"ein": "020698149", "name": "FRIENDS OF HEBREW INSTITUTE FOR THE DEAF AND EXCEPTIONAL CHILDREN OF B", "city": "NEPONSIT", "state": "NY", "zip": "11694-1012", "ntee": "P20", "ruling": "200310", "deductibility": "1", "assets": 764554, "income": 1274, "revenue": 0}, {"ein": "061644038", "name": "HOUSE OF GOD HEBREW PENTECOSTAL CHURCH", "city": "NEWBURGH", "state": "NY", "zip": "12550-5907", "ntee": "X21", "ruling": "200902", "deductibility": "1", "assets": 0, "income": 0, "revenue": 0}, {"ein": "111642720", "name": "HEBREW EDUCATIONAL SOCIETY OF BROOKLYN", "city": "BROOKLYN", "state": "NY", "zip": "11236-5432", "ntee": "B200", "ruling": "192506", "deductibility": "1", "assets": 9676570, "income": 10900861, "revenue": 10900861}, {"ein": "111642738", "name": "YOUNG MENS AND YOUNG WOMENS HEBREW ASSOCIATION OF WILLIAMSBURG INC", "city": "BROOKLYN", "state": "NY", "zip": "11249-6660", "ntee": "", "ruling": "193903", "deductibility": "1", "assets": 1160166, "income": 4524652, "revenue": 4524652}, {"ein": "111687463", "name": "HEBREW COMMUNITY SERVICE", "city": "FAR ROCKAWAY", "state": "NY", "zip": "11691-4820", "ntee": "X30", "ruling": "202310", "deductibility": "1", "assets": 0, "income": 0, "revenue": 0}, {"ein": "111733449", "name": "HEBREW ACADEMY OF NASSAU COUNTY", "city": "W HEMPSTEAD", "state": "NY", "zip": "11552-2120", "ntee": "", "ruling": "195401", "deductibility": "1", "assets": 0, "income": 0, "revenue": 0}, {"ein": "111740299", "name": "HUNTINGTON HEBREW CONGREGATION OF", "city": "HUNTINGTON", "state": "NY", "zip": "11743-3769", "ntee": "", "ruling": "197905", "deductibility": "1", "assets": 0, "income": 0, "revenue": 0}, {"ein": "111794548", "name": "HEBREW ALLIANCE OF BRIGHTON BY THE SEA INC", "city": "BROOKLYN", "state": "NY", "zip": "11235-6848", "ntee": "", "ruling": "194412", "deductibility": "1", "assets": 0, "income": 0, "revenue": 0}, {"ein": "111808218", "name": "HEBREW KINDERGARTEN AND INFANTS HOME INC", "city": "FAR ROCKAWAY", "state": "NY", "zip": "11691-3620", "ntee": "", "ruling": "193805", "deductibility": "1", "assets": 2858524, "income": 2026016, "revenue": 2026016}, {"ein": "111874260", "name": "HEBREW CENTRE OF WHITESTONE BETH ATFILOH", "city": "WHITESTONE", "state": "NY", "zip": "11357-1840", "ntee": "X30", "ruling": "200909", "deductibility": "1", "assets": 0, "income": 0, "revenue": 0}, {"ein": "111875760", "name": "OLD WESTBURY HEBREW CONGREGATION INC", "city": "OLD WESTBURY", "state": "NY", "zip": "11568-1628", "ntee": "", "ruling": "198108", "deductibility": "1", "assets": 0, "income": 0, "revenue": 0}, {"ein": "111892079", "name": "HEBREW ACADEMY OF LONG BEACH", "city": "CEDARHURST", "state": "NY", "zip": "11516-1915", "ntee": "", "ruling": "195510", "deductibility": "1", "assets": 0, "income": 0, "revenue": 0}, {"ein": "112019287", "name": "HILLEL HEBREW ACADEMY & SYNAGOGUE", "city": "MASSAPEQUA", "state": "NY", "zip": "11758-0244", "ntee": "", "ruling": "196608", "deductibility": "1", "assets": 0, "income": 0, "revenue": 0}, {"ein": "112024791", "name": "BROOKLYN HEBREW SCHOOL FOR RETARDED CHILDREN", "city": "BROOKLYN", "state": "NY", "zip": "11214-7103", "ntee": "B110", "ruling": "196501", "deductibility": "1", "assets": 0, "income": 0, "revenue": 0}, {"ein": "112035670", "name": "HEBREW INSTITUTE FOR THE DEAF & EXCEPTIONAL CHILDREN", "city": "BROOKLYN", "state": "NY", "zip": "11230-3003", "ntee": "B28Z", "ruling": "196401", "deductibility": "1", "assets": 2821582, "income": 5875368, "revenue": 5875368}, {"ein": "112066832", "name": "HEBREW WITNESS INC", "city": "BROOKLYN", "state": "NY", "zip": "11229-2960", "ntee": "", "ruling": "196610", "deductibility": "1", "assets": 0, "income": 0, "revenue": 0}, {"ein": "112107335", "name": "HEBREW ACADEMY FOR SPECIAL CHILDREN INC", "city": "BROOKLYN", "state": "NY", "zip": "11204-4749", "ntee": "B28Z", "ruling": "196804", "deductibility": "1", "assets": 18560641, "income": 40495814, "revenue": 37053958}, {"ein": "112200920", "name": "NORTH SHORE HEBREW ACADEMY", "city": "GREAT NECK", "state": "NY", "zip": "11024-1146", "ntee": "", "ruling": "197110", "deductibility": "1", "assets": 12702311, "income": 19243250, "revenue": 18656044}, {"ein": "112443182", "name": "HEBREW CENTER FOR DEVELOPMENTAL LEARNING C O BRNJAMIN ISAACS", "city": "BROOKLYN", "state": "NY", "zip": "11219-1406", "ntee": "", "ruling": "197801", "deductibility": "1", "assets": 0, "income": 0, "revenue": 0}, {"ein": "112551180", "name": "HEBREW ACADEMY OF THE FIVE TOWNS AND ROCKAWAY", "city": "LAWRENCE", "state": "NY", "zip": "11559-1607", "ntee": "", "ruling": "198112", "deductibility": "1", "assets": 0, "income": 0, "revenue": 0}, {"ein": "112830912", "name": "YESHIVA RTZAHD HEBREW ACADEMY OF BROOKLYN", "city": "FOREST HILLS", "state": "NY", "zip": "11375-5552", "ntee": "", "ruling": "198612", "deductibility": "1", "assets": 0, "income": 0, "revenue": 0}, {"ein": "113246632", "name": "BETH ELOHIM ETHIOPIAN HEBREW CONGREGATION INC", "city": "ST ALBANS", "state": "NY", "zip": "11412-3344", "ntee": "X30Z", "ruling": "199504", "deductibility": "1", "assets": 0, "income": 0, "revenue": 0}, {"ein": "113330282", "name": "TORAH OHR HEBREW ACADEMY", "city": "GREAT NECK", "state": "NY", "zip": "11023-1471", "ntee": "X30Z", "ruling": "199608", "deductibility": "1", "assets": 0, "income": 0, "revenue": 0}, {"ein": "113453815", "name": "CHABAD FOR THE HEBREW SPEAKING COMMUNITY OF LONG ISLAND", "city": "VALLEY STREAM", "state": "NY", "zip": "11581-1918", "ntee": "X30", "ruling": "199902", "deductibility": "1", "assets": 0, "income": 0, "revenue": 0}, {"ein": "113468387", "name": "LONG ISLAND HEBREW ACADEMY", "city": "GREAT NECK", "state": "NY", "zip": "11021-3103", "ntee": "B20", "ruling": "199908", "deductibility": "1", "assets": 832089, "income": 1879104, "revenue": 1764131}, {"ein": "113518383", "name": "BETH SHALOM HEBREW CONGREGATION INC", "city": "BROOKLYN", "state": "NY", "zip": "11206-0000", "ntee": "X21", "ruling": "200211", "deductibility": "1", "assets": 0, "income": 0, "revenue": 0}, {"ein": "113561811", "name": "NORTH SHORE HEBREW ACADEMY HIGH SCHOOL", "city": "GREAT NECK", "state": "NY", "zip": "11020-1124", "ntee": "B25", "ruling": "200107", "deductibility": "1", "assets": 51363955, "income": 15446530, "revenue": 15446530}, {"ein": "113605156", "name": "HEBREW INSTITUTE OF LONG ISLAND INC", "city": "CEDARHURST", "state": "NY", "zip": "11516-2136", "ntee": "X30", "ruling": "200110", "deductibility": "1", "assets": 0, "income": 0, "revenue": 0}, {"ein": "113814321", "name": "NEW ENGLAND HEBREW FARMERS OF THE EMANUEL SOCIETY", "city": "RIVERDALE", "state": "NY", "zip": "10463-3422", "ntee": "A80", "ruling": "200905", "deductibility": "1", "assets": 0, "income": 0, "revenue": 0}, {"ein": "116076275", "name": "PATCHOGUE HEBREW CEMETERY ASSOCIATION", "city": "PATCHOGUE", "state": "NY", "zip": "11772-0293", "ntee": "", "ruling": "196811", "deductibility": "1", "assets": 0, "income": 0, "revenue": 0}, {"ein": "130831470", "name": "HEBREW TABERNACLE OF WASHINGTON HEIGHTS INC", "city": "NEW YORK", "state": "NY", "zip": "10033-1908", "ntee": "", "ruling": "195208", "deductibility": "1", "assets": 0, "income": 0, "revenue": 0}, {"ein": "131568923", "name": "AMERICAN FRIENDS OF THE HEBREW UNIVERSITY INC", "city": "NEW YORK", "state": "NY", "zip": "10038-3589", "ntee": "Q113", "ruling": "194810", "deductibility": "1", "assets": 945651004, "income": 412565139, "revenue": 167474448}, {"ein": "131624229", "name": "THE YOUNG MENS AND YOUNG WOMENS HEBREW ASSOCIATION", "city": "NEW YORK", "state": "NY", "zip": "10128-1612", "ntee": "X110", "ruling": "194811", "deductibility": "1", "assets": 251423451, "income": 135096106, "revenue": 127593813}, {"ein": "131635308", "name": "YOUNG MENS AND YOUNG WOMENS HEBREW ASSOCIATION OF WASHINGTON HEIGHTS", "city": "NEW YORK", "state": "NY", "zip": "10040-1406", "ntee": "P27Z", "ruling": "193806", "deductibility": "1", "assets": 25878956, "income": 20202308, "revenue": 13866232}, {"ein": "131739971", "name": "HEBREW HOME FOR THE AGED", "city": "BRONX", "state": "NY", "zip": "10471-1205", "ntee": "E90", "ruling": "193711", "deductibility": "1", "assets": 173421768, "income": 105805242, "revenue": 104853438}, {"ein": "131740264", "name": "HEBREW INSTITUTE OF WHITE PLAINS", "city": "WHITE PLAINS", "state": "NY", "zip": "10605-1202", "ntee": "X30", "ruling": "201601", "deductibility": "1", "assets": 0, "income": 0, "revenue": 0}, {"ein": "131740456", "name": "HEBREW INSTITUTE OF RIVERDALE", "city": "BRONX", "state": "NY", "zip": "10463-1513", "ntee": "X30", "ruling": "202208", "deductibility": "1", "assets": 0, "income": 0, "revenue": 0}, {"ein": "131740507", "name": "YOUNG MENS AND YOUNG WOMENS HEBREW ASSOCIATION OF THE BRONX", "city": "BRONX", "state": "NY", "zip": "10471-1221", "ntee": "", "ruling": "193804", "deductibility": "1", "assets": 8984513, "income": 9193241, "revenue": 9193241}, {"ein": "131841136", "name": "GREENBURGH HEBREW CENTER", "city": "DOBBS FERRY", "state": "NY", "zip": "10522-1105", "ntee": "X30", "ruling": "201611", "deductibility": "1", "assets": 0, "income": 0, "revenue": 0}, {"ein": "131889110", "name": "ADOLPH H SCHREIBER HEBREW ACADEMY OF ROCKLAND", "city": "NEW CITY", "state": "NY", "zip": "10956-1926", "ntee": "", "ruling": "195501", "deductibility": "1", "assets": 0, "income": 0, "revenue": 0}, {"ein": "132507037", "name": "BETH JACOB HEBREW TEACHERS COLLEGE INC", "city": "BROOKLYN", "state": "NY", "zip": "11230-5913", "ntee": "", "ruling": "196603", "deductibility": "1", "assets": 0, "income": 0, "revenue": 0}, {"ein": "132666864", "name": "WESTCHESTER HEBREW HIGH SCHOOL", "city": "MAMARONECK", "state": "NY", "zip": "10543-4700", "ntee": "B25Z", "ruling": "197108", "deductibility": "1", "assets": 724528, "income": 2660071, "revenue": 2660071}, {"ein": "132686781", "name": "REUBEN GITTELMAN HEBREW DAY SCHOOL", "city": "NEW CITY", "state": "NY", "zip": "10956-4929", "ntee": "", "ruling": "197411", "deductibility": "1", "assets": 3690441, "income": 6915570, "revenue": 2940119}, {"ein": "132790476", "name": "HEBREW CONGREGATION OF SOMERS INC", "city": "SHENOROCK", "state": "NY", "zip": "10587-0040", "ntee": "X30", "ruling": "201608", "deductibility": "1", "assets": 0, "income": 0, "revenue": 0}, {"ein": "132905207", "name": "ORANGETOWN MONSEY HEBREW SCHOOL INC", "city": "SUFFERN", "state": "NY", "zip": "10901-4013", "ntee": "B20", "ruling": "201510", "deductibility": "1", "assets": 3413029, "income": 2880660, "revenue": 2880660}, {"ein": "132956755", "name": "HEBREW HOME HOUSING DEVELOPMENT FUND CO INC", "city": "BRONX", "state": "NY", "zip": "10471-1205", "ntee": "L21Z", "ruling": "197811", "deductibility": "1", "assets": 9428698, "income": 5978800, "revenue": 5978800}, {"ein": "133023003", "name": "ISRAEL MATZ HEBREW CLASSICS LTD", "city": "NEW YORK", "state": "NY", "zip": "10012-1141", "ntee": "", "ruling": "198112", "deductibility": "1", "assets": 0, "income": 0, "revenue": 0}, {"ein": "133217252", "name": "ROCKLAND HEBREW EDUCATIONAL CENTER INC", "city": "MONSEY", "state": "NY", "zip": "10952-0000", "ntee": "", "ruling": "198608", "deductibility": "1", "assets": 0, "income": 0, "revenue": 0}, {"ein": "133358384", "name": "HEBREW HOSPITAL HOME FOUNDATION INC", "city": "WHITE PLAINS", "state": "NY", "zip": "10605-5222", "ntee": "E22I", "ruling": "198801", "deductibility": "1", "assets": 26685895, "income": 0, "revenue": 0}, {"ein": "134033889", "name": "SONIA AND MAX SILVERSTEIN HEBREW ACADEMY", "city": "GREAT NECK", "state": "NY", "zip": "11021-3101", "ntee": "B21", "ruling": "199902", "deductibility": "1", "assets": 1728956, "income": 2786083, "revenue": 2786083}, {"ein": "135562239", "name": "HEBREW FREE LOAN SOCIETY INC", "city": "NEW YORK", "state": "NY", "zip": "10017-5727", "ntee": "P510", "ruling": "192612", "deductibility": "1", "assets": 49680504, "income": 7236159, "revenue": 5914280}, {"ein": "135562369", "name": "UNITED HEBREW COMMUNITY OF NEW YORK", "city": "WOODMERE", "state": "NY", "zip": "11598-1227", "ntee": "", "ruling": "191504", "deductibility": "1", "assets": 0, "income": 0, "revenue": 0}, {"ein": "135564128", "name": "NATIONAL SOCIETY FOR HEBREW DAY SCHOOLS", "city": "BROOKLYN", "state": "NY", "zip": "11230-1399", "ntee": "X300", "ruling": "200308", "deductibility": "1", "assets": 63077863, "income": 74596783, "revenue": 71084116}, {"ein": "135579302", "name": "UNITED HEBREW CEMETERY INC", "city": "STATEN ISLAND", "state": "NY", "zip": "10306-1134", "ntee": "", "ruling": "193508", "deductibility": "1", "assets": 52200838, "income": 52079296, "revenue": 6973341}, {"ein": "136053350", "name": "HEBREW TECHNICAL INSTITUTE TR 117283-01", "city": "NEW YORK", "state": "NY", "zip": "10013-2362", "ntee": "", "ruling": "198209", "deductibility": "0", "assets": 1149827, "income": 355061, "revenue": 0}, {"ein": "136167133", "name": "CHEVRA MISHNAYES OF HEBREW INSTITUTE OF UNIVERSITY HEIGHTS", "city": "BRONX", "state": "NY", "zip": "10453-4403", "ntee": "", "ruling": "194308", "deductibility": "1", "assets": 0, "income": 0, "revenue": 0}, {"ein": "141406962", "name": "HEBREW DAY SCHOOL OF SULLIVAN COUNTY", "city": "KIAMESHA LAKE", "state": "NY", "zip": "12751-0000", "ntee": "B24Z", "ruling": "195601", "deductibility": "1", "assets": 146981, "income": 776998, "revenue": 776998}, {"ein": "141463617", "name": "SOUTH FALLSBURG HEBREW ASSOCIATION", "city": "S FALLSBURG", "state": "NY", "zip": "12779-1089", "ntee": "X30", "ruling": "200407", "deductibility": "1", "assets": 0, "income": 0, "revenue": 0}, {"ein": "141470222", "name": "BET SHRAGA HEBREW ACADEMY OF THE CAPITAL DISTRICT", "city": "ALBANY", "state": "NY", "zip": "12208-3103", "ntee": "X30Z", "ruling": "196503", "deductibility": "1", "assets": 2839195, "income": 1865357, "revenue": 1655299}, {"ein": "156012139", "name": "SYRACUSE HEBREW DAY SCHOOL MAX GILBERT HEBREW ACADEMY", "city": "DEWITT", "state": "NY", "zip": "13214-1234", "ntee": "B24Z", "ruling": "196206", "deductibility": "1", "assets": 1368114, "income": 1217536, "revenue": 1180928}, {"ein": "160835113", "name": "HEBREW BENEVOLENT LOAN ASSOCIATION", "city": "GETZVILLE", "state": "NY", "zip": "14068-1573", "ntee": "", "ruling": "194609", "deductibility": "1", "assets": 270570, "income": 5866, "revenue": 0}, {"ein": "161167877", "name": "IRONDEQUOIT HEBREW STUDIES", "city": "ROCHESTER", "state": "NY", "zip": "14617-3435", "ntee": "", "ruling": "198305", "deductibility": "1", "assets": 0, "income": 0, "revenue": 0}, {"ein": "204352212", "name": "HEBREW HOME FOR THE AGED ATRIVERDALE FOUNDATION INC", "city": "BRONX", "state": "NY", "zip": "10471-1205", "ntee": "I122", "ruling": "200606", "deductibility": "1", "assets": 67039928, "income": 19723026, "revenue": 8541307}, {"ein": "204920772", "name": "MORTIMER J PROPP LEGACY FOR ORTHODOX HEBREW DAY SCHOOLS INC", "city": "NEW YORK", "state": "NY", "zip": "10038-5114", "ntee": "T22", "ruling": "200708", "deductibility": "1", "assets": 3436871, "income": 3891724, "revenue": 0}, {"ein": "208837128", "name": "SHAARE SHAMAYIM HEBREW ISRAELITEKNESSET", "city": "JAMAICA", "state": "NY", "zip": "11433-0000", "ntee": "X30", "ruling": "202108", "deductibility": "1", "assets": 0, "income": 0, "revenue": 0}, {"ein": "221487394", "name": "YOUNG MENS-YOUNG WOMENS HEBREW ASSOCIATION OF BERGEN COUNTY", "city": "WEST NYACK", "state": "NY", "zip": "10994-1754", "ntee": "P40", "ruling": "201905", "deductibility": "1", "assets": 5336925, "income": 4869886, "revenue": 922325}, {"ein": "222318286", "name": "MAIMONIDES HEBREW DAY SCHOOL", "city": "ALBANY", "state": "NY", "zip": "12208-2816", "ntee": "", "ruling": "198811", "deductibility": "1", "assets": 1947723, "income": 1053751, "revenue": 1053751}, {"ein": "231979044", "name": "HEBREW ASSOCIATION OF THE DEAF INC", "city": "NEW YORK", "state": "NY", "zip": "10023-6305", "ntee": "P80", "ruling": "200501", "deductibility": "1", "assets": 0, "income": 0, "revenue": 0}, {"ein": "237188063", "name": "HEBREW CONGREGATION OF LOCH SHELDRAKE INC", "city": "LOCH SHELDRKE", "state": "NY", "zip": "12759-0141", "ntee": "", "ruling": "197208", "deductibility": "0", "assets": 0, "income": 0, "revenue": 0}, {"ein": "237319487", "name": "HEBREW ASSOCIATION OF THE DEAF INC", "city": "NEW YORK", "state": "NY", "zip": "10023-6305", "ntee": "", "ruling": "197509", "deductibility": "1", "assets": 0, "income": 0, "revenue": 0}, {"ein": "237352267", "name": "CARRIE STERN ESTATE-HEBREW OLD AGE CENTER OF ATLANTIC CITY TRUST", "city": "NEW YORK", "state": "NY", "zip": "10008-1297", "ntee": "", "ruling": "197402", "deductibility": "1", "assets": 145869, "income": 18841, "revenue": 0}, {"ein": "237371131", "name": "FLORIDA HEBREW COMMUNITY CENTER", "city": "FLORIDA", "state": "NY", "zip": "10921-1807", "ntee": "X30", "ruling": "200801", "deductibility": "1", "assets": 0, "income": 0, "revenue": 0}, {"ein": "264077251", "name": "NATIONAL CENTER FOR HEBREW LANGUAGE CHARTER SCHOOL EXCELLENCE", "city": "NEW YORK", "state": "NY", "zip": "10018-4645", "ntee": "B12", "ruling": "200908", "deductibility": "1", "assets": 4856996, "income": 6906106, "revenue": 6832215}, {"ein": "264117186", "name": "HEBREW LANGUAGE ACADEMY CHARTER SCHOOL", "city": "BROOKLYN", "state": "NY", "zip": "11234-6308", "ntee": "B29", "ruling": "201009", "deductibility": "1", "assets": 9610705, "income": 17923290, "revenue": 17923290}, {"ein": "270400583", "name": "FRIENDS OF HEBREW LANGUAGE ACADEMY CHARTER SCHOOL INC", "city": "NEW YORK", "state": "NY", "zip": "10018-5619", "ntee": "B111", "ruling": "201106", "deductibility": "1", "assets": 17591297, "income": 3959890, "revenue": 3959890}, {"ein": "300553213", "name": "HEBREW LEARNING CIRCLES INC", "city": "NYACK", "state": "NY", "zip": "10960-0212", "ntee": "X20", "ruling": "201709", "deductibility": "1", "assets": 0, "income": 125118, "revenue": 125118}, {"ein": "371496185", "name": "HEBREW ACADEMY SCHOOL OF ACADEMIC EXCELLENCE", "city": "SPRING VALLEY", "state": "NY", "zip": "10977-4023", "ntee": "B99", "ruling": "200510", "deductibility": "1", "assets": 0, "income": 0, "revenue": 0}, {"ein": "455603860", "name": "HARLEM HEBREW LANGUAGE ACADEMY CHARTER SCHOOL", "city": "NEW YORK", "state": "NY", "zip": "10026-1722", "ntee": "B20", "ruling": "201305", "deductibility": "1", "assets": 93505, "income": 4984184, "revenue": 4741779}, {"ein": "464240958", "name": "HEBREW ACTORS FOUNDATION", "city": "MANHATTAN", "state": "NY", "zip": "10003-8191", "ntee": "A65", "ruling": "201409", "deductibility": "1", "assets": 0, "income": 0, "revenue": 0}, {"ein": "464312396", "name": "UNITED HEBREW OF NEW ROCHELLE CERTIFIED HOME HEALTH AGENCY INC", "city": "NEW ROCHELLE", "state": "NY", "zip": "10805-2225", "ntee": "E92", "ruling": "201409", "deductibility": "1", "assets": 177282, "income": 600116, "revenue": 600116}, {"ein": "472632593", "name": "AMERICAN FRIENDS OF VANCOUVER HEBREW ACADEMY", "city": "FLUSHING", "state": "NY", "zip": "11367-2819", "ntee": "X11", "ruling": "201505", "deductibility": "1", "assets": 0, "income": 0, "revenue": 0}, {"ein": "474636659", "name": "STATEN ISLAND HEBREW ACADEMY", "city": "STATEN ISLAND", "state": "NY", "zip": "10306-1427", "ntee": "B24", "ruling": "202106", "deductibility": "1", "assets": 4641838, "income": 1488285, "revenue": 1488285}, {"ein": "510139213", "name": "HEBREW BATH HOUSE SOCIETY", "city": "SYRACUSE", "state": "NY", "zip": "13214-2121", "ntee": "X11", "ruling": "201702", "deductibility": "1", "assets": 0, "income": 0, "revenue": 0}, {"ein": "510182217", "name": "YESHIVA OF ROCKLAND COUNTY-ROCKLAND HEBREW DAY SCHOOL", "city": "SPRING VALLEY", "state": "NY", "zip": "10977-4023", "ntee": "B24", "ruling": "198102", "deductibility": "1", "assets": 0, "income": 0, "revenue": 0}, {"ein": "800417951", "name": "UNITED HEBREW COMMUNITY OF LAKE PLACID CEMETERY CORP", "city": "LAKE PLACID", "state": "NY", "zip": "12946-0983", "ntee": "Y50", "ruling": "201707", "deductibility": "1", "assets": 0, "income": 0, "revenue": 0}, {"ein": "814669534", "name": "HEBREW LANGUAGE ACADEMY CHARTER SCHOOL 2", "city": "BROOKLYN", "state": "NY", "zip": "11223-2426", "ntee": "B29", "ruling": "201702", "deductibility": "1", "assets": 60176637, "income": 10678875, "revenue": 10678875}, {"ein": "832853953", "name": "HEBREW READING INSTITUTE INC", "city": "MONSEY", "state": "NY", "zip": "10952-1711", "ntee": "B92", "ruling": "201906", "deductibility": "1", "assets": 47864, "income": 2500, "revenue": 2500}, {"ein": "833253853", "name": "STATEN ISLAND HEBREW PUBLIC CHARTER SCHOOL", "city": "NEW YORK", "state": "NY", "zip": "10018-4645", "ntee": "B29", "ruling": "201907", "deductibility": "1", "assets": 37538444, "income": 4496464, "revenue": 4496464}, {"ein": "833665298", "name": "BROOKLYN HEBREW SOCIETY OF THE DEAF INC", "city": "BROOKLYN", "state": "NY", "zip": "11230-6166", "ntee": "X30", "ruling": "201904", "deductibility": "1", "assets": 118316, "income": 19043, "revenue": 19043}, {"ein": "834655564", "name": "HEBREW ASSOCIATION OF THE DEAF MEMORIAL FOUNDATION", "city": "SEA CLIFF", "state": "NY", "zip": "11579-1827", "ntee": "X30", "ruling": "201905", "deductibility": "1", "assets": 0, "income": 0, "revenue": 0}, {"ein": "842019325", "name": "FRIENDS OF STATEN ISLAND HEBREW PUBLIC INC", "city": "NEW YORK", "state": "NY", "zip": "10018-5619", "ntee": "B11", "ruling": "201911", "deductibility": "1", "assets": 37862125, "income": 2261980, "revenue": 90592}], "BO": [{"ein": "030414353", "name": "MYUNG BO BUDDHIST TEMPLE INC", "city": "FLUSHING", "state": "NY", "zip": "11358-3246", "ntee": "X50", "ruling": "200303", "deductibility": "1", "assets": 0, "income": 0, "revenue": 0}, {"ein": "036045279", "name": "DOLPHINE LAFLEUR TUW BO MIDDLEBURY UNION HIGH CHITTENBERG TRUST CO", "city": "BUFFALO", "state": "NY", "zip": "14240-1504", "ntee": "", "ruling": "000000", "deductibility": "0", "assets": 53846, "income": 16337, "revenue": 0}, {"ein": "061594089", "name": "VHECHZAKTU BO", "city": "BROOKLYN", "state": "NY", "zip": "11211-6705", "ntee": "X30", "ruling": "200010", "deductibility": "1", "assets": 0, "income": 0, "revenue": 0}, {"ein": "113414699", "name": "BO HYUN SA TEMPLE", "city": "FLUSHING", "state": "NY", "zip": "11355-3547", "ntee": "X50", "ruling": "200108", "deductibility": "1", "assets": 0, "income": 0, "revenue": 0}, {"ein": "141793742", "name": "TR UW DP CORBIN ART 6 BO WILDLIFE", "city": "ALBANY", "state": "NY", "zip": "12205-5941", "ntee": "", "ruling": "199612", "deductibility": "1", "assets": 555276, "income": 77834, "revenue": 0}, {"ein": "146104297", "name": "JOSEPHINE COATES TRUST UW BO FIRST REFORMED CHURCH OF SCOTIA", "city": "ALBANY", "state": "NY", "zip": "12205-5941", "ntee": "", "ruling": "197901", "deductibility": "1", "assets": 335606, "income": 34932, "revenue": 0}, {"ein": "146104729", "name": "W R WHITNEY TR UW BO SCHENECTADY", "city": "ALBANY", "state": "NY", "zip": "12205-5941", "ntee": "", "ruling": "197902", "deductibility": "1", "assets": 2169056, "income": 272348, "revenue": 253922}, {"ein": "146189955", "name": "TR UW WILLIAM WAX BO THE HLTH SC CENTER AT BROOKLYN FOUNDATION INC", "city": "ALBANY", "state": "NY", "zip": "12205-5941", "ntee": "T90", "ruling": "200101", "deductibility": "1", "assets": 5622373, "income": 4771869, "revenue": 282541}, {"ein": "156016056", "name": "TR UW D C MIDDLETON BO FIRST METHODIST EPIS CHURCH BLACK RIVER", "city": "NORWICH", "state": "NY", "zip": "13815-0000", "ntee": "", "ruling": "000000", "deductibility": "0", "assets": 24593, "income": 2159, "revenue": 0}, {"ein": "161736373", "name": "BO-DYN BOBSLED PROJECT INC", "city": "LAKE PLACID", "state": "NY", "zip": "12946-0165", "ntee": "N70", "ruling": "200512", "deductibility": "1", "assets": 0, "income": 0, "revenue": 0}, {"ein": "206050484", "name": "CATHERINE MADIGAN TRUST UA BO ST JOSEPHS CHURCH 1030056848", "city": "ELMIRA", "state": "NY", "zip": "14902-0015", "ntee": "Z99", "ruling": "201405", "deductibility": "1", "assets": 167773, "income": 218774, "revenue": 0}, {"ein": "260316350", "name": "WEI BO LEARNING ORGANIZATION INC", "city": "FLUSHING", "state": "NY", "zip": "11354-5566", "ntee": "B99", "ruling": "201101", "deductibility": "1", "assets": 730873, "income": 762843, "revenue": 762843}, {"ein": "263824938", "name": "GERTRUDE M STEIN TR UW BO BINGHAMTON UNIVERSITY FDN", "city": "ELMIRA", "state": "NY", "zip": "14902-0152", "ntee": "B82", "ruling": "200902", "deductibility": "1", "assets": 966415, "income": 116532, "revenue": 0}, {"ein": "456688807", "name": "GEORGE LEE TR UW BO METHODIST CHURCH OF HHDS SCHOLARSHIPS FUND", "city": "ELMIRA", "state": "NY", "zip": "14902-1522", "ntee": "", "ruling": "000000", "deductibility": "0", "assets": 17125, "income": 2510, "revenue": 0}, {"ein": "456688819", "name": "GEORGE LEE TR UW BO FIRST METHODIST CHURCH OF HORSEHEADS", "city": "ELMIRA", "state": "NY", "zip": "14902-1522", "ntee": "", "ruling": "000000", "deductibility": "0", "assets": 18207, "income": 2560, "revenue": 0}, {"ein": "456691693", "name": "GEORGE LEE TR UW BO PINE VALLEY METHODIST CHURCH", "city": "ELMIRA", "state": "NY", "zip": "14902-1522", "ntee": "", "ruling": "000000", "deductibility": "0", "assets": 14599, "income": 1669, "revenue": 0}, {"ein": "456691710", "name": "GEORGE LEE TR UW BO NATL DIV BD OF MISSIONS UNITED METH CHURCH", "city": "ELMIRA", "state": "NY", "zip": "14902-1522", "ntee": "", "ruling": "000000", "deductibility": "0", "assets": 11063424, "income": 6478235, "revenue": 0}, {"ein": "456691915", "name": "GEORGE LEE TR UW BO BREESPORT METHODIST CHURCH", "city": "ELMIRA", "state": "NY", "zip": "14902-1522", "ntee": "", "ruling": "000000", "deductibility": "0", "assets": 14707, "income": 1683, "revenue": 0}, {"ein": "456691957", "name": "GEORGE LEE TR UW BO GRACE LEE MEM WESLEYAN CHURCH OF CHAMBERS", "city": "ELMIRA", "state": "NY", "zip": "14902-1522", "ntee": "", "ruling": "000000", "deductibility": "0", "assets": 443001, "income": 231644, "revenue": 0}, {"ein": "456696498", "name": "GEORGE LEE TR UW BO WORLD DIV BD OF MISSIONS UNITED METH CHURCH", "city": "ELMIRA", "state": "NY", "zip": "14902-1522", "ntee": "", "ruling": "000000", "deductibility": "0", "assets": 5490567, "income": 3002630, "revenue": 0}, {"ein": "465102907", "name": "BO TWAL INC", "city": "STONY BROOK", "state": "NY", "zip": "11790-1523", "ntee": "Q32", "ruling": "201410", "deductibility": "1", "assets": 0, "income": 0, "revenue": 0}, {"ein": "516556966", "name": "HELEN SCHUYLER TR UW BO COMMUNITY FOUNDATION", "city": "ELMIRA", "state": "NY", "zip": "14902-1522", "ntee": "S11", "ruling": "200605", "deductibility": "1", "assets": 20430690, "income": 12863940, "revenue": 2187328}, {"ein": "814022642", "name": "LADIES ANCIENT ORDER OF HIBERNIANANS INC KENTUCKY STATE BO", "city": "BROOKLYN", "state": "NY", "zip": "11229-4111", "ntee": "Y42", "ruling": "201902", "deductibility": "1", "assets": 0, "income": 0, "revenue": 0}, {"ein": "872294479", "name": "CONG VHECHEZAKTU BO INC", "city": "SPRING VALLEY", "state": "NY", "zip": "10977-3459", "ntee": "Z99", "ruling": "202111", "deductibility": "1", "assets": 6715, "income": 76920, "revenue": 76920}, {"ein": "900492822", "name": "TR UW LAUDER BO SCHENECTADY FOUNDATION", "city": "ALBANY", "state": "NY", "zip": "12205-0000", "ntee": "", "ruling": "199308", "deductibility": "1", "assets": 146211, "income": 9794, "revenue": 9794}], "TIDD": [{"ein": "036042769", "name": "ALBERT J TIDD TRUST UA", "city": "BUFFALO", "state": "NY", "zip": "14240-1504", "ntee": "", "ruling": "000000", "deductibility": "0", "assets": 614765, "income": 98779, "revenue": 0}], "EPPLEY": [{"ein": "050258857", "name": "EPPLEY FOUNDATION FOR RESEARCH INC", "city": "NEW YORK", "state": "NY", "zip": "10021-0000", "ntee": "", "ruling": "194906", "deductibility": "1", "assets": 2277243, "income": 473211, "revenue": 0}, {"ein": "136058048", "name": "EPPLEY FOUNDATION TRUST UW ME APT 7 6061 38 00 FBO RESEARCH", "city": "NEW YORK", "state": "NY", "zip": "10013-2362", "ntee": "", "ruling": "197306", "deductibility": "0", "assets": 3247623, "income": 717483, "revenue": 0}], "ROD": [{"ein": "061175497", "name": "FALCON GUN & ROD CLUB INC", "city": "NEW YORK", "state": "NY", "zip": "10025-7871", "ntee": "", "ruling": "199612", "deductibility": "2", "assets": 0, "income": 0, "revenue": 0}, {"ein": "061440555", "name": "WARWICK VALLEY ROD AND GUN CLUB INC", "city": "WARWICK", "state": "NY", "zip": "10990-0376", "ntee": "N61", "ruling": "200809", "deductibility": "2", "assets": 0, "income": 0, "revenue": 0}, {"ein": "112070335", "name": "BAMBI ROD & GUN CLUB INC", "city": "STATEN ISLAND", "state": "NY", "zip": "10307-1225", "ntee": "N50", "ruling": "202207", "deductibility": "2", "assets": 0, "income": 0, "revenue": 0}, {"ein": "112525303", "name": "ROD AND THE ROSE PUPPET THEATRE THE", "city": "MOUNT VERNON", "state": "NY", "zip": "10550-1506", "ntee": "", "ruling": "198208", "deductibility": "1", "assets": 0, "income": 0, "revenue": 0}, {"ein": "112592749", "name": "MILL RIVER ROD & GUN CLUB INC", "city": "OYSTER BAY", "state": "NY", "zip": "11771-0547", "ntee": "", "ruling": "198204", "deductibility": "2", "assets": 121788, "income": 72319, "revenue": 72319}, {"ein": "116042963", "name": "GOTTSCHEER ROD & GUN CLUB INC", "city": "RIDGEWOOD", "state": "NY", "zip": "11385-0000", "ntee": "N61Z", "ruling": "198103", "deductibility": "2", "assets": 0, "income": 0, "revenue": 0}, {"ein": "132986155", "name": "METROPOLITAN ROD AND GUN CLUB INCORPORATED", "city": "BROOKLYN", "state": "NY", "zip": "11201-6214", "ntee": "", "ruling": "197909", "deductibility": "2", "assets": 94614, "income": 62222, "revenue": 62222}, {"ein": "133192333", "name": "CITY PARK ROD AND GUN CLUB INC", "city": "JEWETT", "state": "NY", "zip": "12444-0000", "ntee": "N99", "ruling": "201409", "deductibility": "2", "assets": 0, "income": 0, "revenue": 0}, {"ein": "134283741", "name": "WELLSVILLE ROD AND GUN CLUB", "city": "WELLSVILLE", "state": "NY", "zip": "14895-0053", "ntee": "N61", "ruling": "202202", "deductibility": "1", "assets": 0, "income": 0, "revenue": 0}, {"ein": "135000507", "name": "CLOVE VALLEY ROD AND GUN CLUB", "city": "LAGRANGEVILLE", "state": "NY", "zip": "12540-6838", "ntee": "", "ruling": "194209", "deductibility": "2", "assets": 11443561, "income": 3790605, "revenue": 2164486}, {"ein": "136003385", "name": "NEW ROCHELLE ROD & GUN CLUB INC", "city": "NEW ROCHELLE", "state": "NY", "zip": "10802-0723", "ntee": "", "ruling": "196610", "deductibility": "2", "assets": 0, "income": 0, "revenue": 0}, {"ein": "141536779", "name": "SOUTH SIDE ROD & GUN CLUB INC", "city": "WEST HURLEY", "state": "NY", "zip": "12491-5103", "ntee": "", "ruling": "197112", "deductibility": "2", "assets": 0, "income": 0, "revenue": 0}, {"ein": "141549396", "name": "HUNTERS HOME ROD AND GUN CLUB INC", "city": "MORRISONVILLE", "state": "NY", "zip": "12962-4004", "ntee": "", "ruling": "197502", "deductibility": "2", "assets": 127353, "income": 19565, "revenue": 19565}, {"ein": "141596902", "name": "PHILMONT ROD & GUN CLUB INC", "city": "PHILMONT", "state": "NY", "zip": "12565-0099", "ntee": "", "ruling": "199412", "deductibility": "2", "assets": 628839, "income": 81108, "revenue": 75518}, {"ein": "141639331", "name": "RED HOOK ROD & GUN CLUB", "city": "RED HOOK", "state": "NY", "zip": "12571-0301", "ntee": "", "ruling": "199306", "deductibility": "2", "assets": 0, "income": 0, "revenue": 0}, {"ein": "141663886", "name": "VOORHEESVILLE ROD & GUN CLUB INC", "city": "VOORHEESVILLE", "state": "NY", "zip": "12186-0000", "ntee": "N61", "ruling": "201906", "deductibility": "2", "assets": 263628, "income": 612580, "revenue": 152260}, {"ein": "141683987", "name": "MIDDLEBURGH ROD & GUN CLUB INC", "city": "MIDDLEBURGH", "state": "NY", "zip": "12122-0024", "ntee": "", "ruling": "199107", "deductibility": "2", "assets": 5716, "income": 70257, "revenue": 60184}, {"ein": "141721924", "name": "WASHINGTON HOLLOW ROD & GUN CLUB INC", "city": "PLEASANT VLY", "state": "NY", "zip": "12569-0283", "ntee": "", "ruling": "199305", "deductibility": "2", "assets": 0, "income": 0, "revenue": 0}, {"ein": "141741194", "name": "110 ROD AND GUN CLUB INC", "city": "VERBANK", "state": "NY", "zip": "12585-0161", "ntee": "", "ruling": "199205", "deductibility": "2", "assets": 141033, "income": 72305, "revenue": 72305}, {"ein": "141755943", "name": "NEW PALTZ ROD & GUN CLUB INC", "city": "NEW PALTZ", "state": "NY", "zip": "12561-0363", "ntee": "", "ruling": "199304", "deductibility": "2", "assets": 0, "income": 0, "revenue": 0}, {"ein": "141767406", "name": "BERLIN ROD & GUN CLUB INC", "city": "BERLIN", "state": "NY", "zip": "12022-0000", "ntee": "N61", "ruling": "202502", "deductibility": "1", "assets": 0, "income": 0, "revenue": 0}, {"ein": "141789574", "name": "NORTH TROY STAG ROD AND GUN CLUB INC", "city": "COHOES", "state": "NY", "zip": "12047-0272", "ntee": "", "ruling": "199607", "deductibility": "2", "assets": 820065, "income": 131503, "revenue": 104315}, {"ein": "141812018", "name": "MID-COUNTY ROD & GUN CLUB INC", "city": "LAGRANGEVILLE", "state": "NY", "zip": "12540-5330", "ntee": "N50", "ruling": "200002", "deductibility": "2", "assets": 1074457, "income": 286954, "revenue": 97920}, {"ein": "141828547", "name": "FISH CREEK ROD & GUN CLUB INC", "city": "VICTORY MILLS", "state": "NY", "zip": "12884-0094", "ntee": "N61", "ruling": "200201", "deductibility": "2", "assets": 388447, "income": 111264, "revenue": 62605}, {"ein": "146030131", "name": "SPROUT BROOK ROD & GUN CLUB INC", "city": "CANAJOHARIE", "state": "NY", "zip": "13317-3616", "ntee": "N61", "ruling": "201507", "deductibility": "2", "assets": 0, "income": 0, "revenue": 0}, {"ein": "146030266", "name": "BETHLEHEM ROD & GUN CLUB INC", "city": "PLATTEKILL", "state": "NY", "zip": "12568-0583", "ntee": "N50", "ruling": "201412", "deductibility": "2", "assets": 783268, "income": 472547, "revenue": 182239}, {"ein": "150304757", "name": "FAYETTEVILLE MANLIUS ROD & GUN CLUB INC", "city": "MANLIUS", "state": "NY", "zip": "13104-2514", "ntee": "", "ruling": "199201", "deductibility": "2", "assets": 142295, "income": 47033, "revenue": 47033}, {"ein": "150593092", "name": "LONG POND ROD & GUN CLUB INC", "city": "SYRACUSE", "state": "NY", "zip": "13215-1935", "ntee": "", "ruling": "197612", "deductibility": "2", "assets": 471650, "income": 102084, "revenue": 102084}, {"ein": "156020866", "name": "HOMER ROD & GUN CLUB INC", "city": "TRUXTON", "state": "NY", "zip": "13158-3134", "ntee": "", "ruling": "196310", "deductibility": "2", "assets": 0, "income": 0, "revenue": 0}, {"ein": "156021116", "name": "GROTON ROD & GUN CLUB INC", "city": "GROTON", "state": "NY", "zip": "13073-0111", "ntee": "", "ruling": "195906", "deductibility": "2", "assets": 112610, "income": 131284, "revenue": 87029}, {"ein": "156022762", "name": "ST REGIS ROD & GUN CLUB INC", "city": "GREAT BEND", "state": "NY", "zip": "13643-0222", "ntee": "N50", "ruling": "201606", "deductibility": "2", "assets": 0, "income": 0, "revenue": 0}, {"ein": "160447147", "name": "GENEVA ROD & GUN CLUB INC", "city": "GENEVA", "state": "NY", "zip": "14456-0000", "ntee": "", "ruling": "197305", "deductibility": "2", "assets": 0, "income": 0, "revenue": 0}, {"ein": "160707297", "name": "LAKEWOOD ROD & GUN CLUB INC", "city": "LAKEWOOD", "state": "NY", "zip": "14750-1526", "ntee": "", "ruling": "196108", "deductibility": "2", "assets": 2767055, "income": 5694891, "revenue": 959602}, {"ein": "160815975", "name": "BISON CITY ROD & GUN CLUB INC", "city": "BUFFALO", "state": "NY", "zip": "14204-2757", "ntee": "N61Z", "ruling": "194707", "deductibility": "2", "assets": 456405, "income": 123804, "revenue": 123804}, {"ein": "160958524", "name": "CATTARAUGUS ROD & GUN CLUB", "city": "CATTARAUGUS", "state": "NY", "zip": "14719-0123", "ntee": "N61", "ruling": "200312", "deductibility": "2", "assets": 0, "income": 0, "revenue": 0}, {"ein": "160995490", "name": "SPRINGWATER ROD & GUN CLUB INC", "city": "SPRINGWATER", "state": "NY", "zip": "14560-0276", "ntee": "", "ruling": "197305", "deductibility": "2", "assets": 76468, "income": 50865, "revenue": 39319}, {"ein": "160999177", "name": "EVANS ROD AND GUN CLUB INC", "city": "ANGOLA", "state": "NY", "zip": "14006-9132", "ntee": "", "ruling": "197402", "deductibility": "2", "assets": 514087, "income": 231527, "revenue": 143746}, {"ein": "161176198", "name": "ELLINGTON ROD & GUN CLUB INC", "city": "ELLINGTON", "state": "NY", "zip": "14732-0481", "ntee": "", "ruling": "198901", "deductibility": "2", "assets": 182587, "income": 959076, "revenue": 269152}, {"ein": "161213635", "name": "NEWARK ROD & GUN CLUB INC", "city": "NEWARK", "state": "NY", "zip": "14513-0000", "ntee": "Y99", "ruling": "199911", "deductibility": "1", "assets": 47798, "income": 44132, "revenue": 43484}, {"ein": "161263209", "name": "BATH ROD & GUN CLUB INC", "city": "BATH", "state": "NY", "zip": "14810-0764", "ntee": "", "ruling": "199103", "deductibility": "2", "assets": 424768, "income": 125225, "revenue": 85956}, {"ein": "161272748", "name": "EPHRATAH ROD & GUN CLUB INC", "city": "FORT PLAIN", "state": "NY", "zip": "13339-2651", "ntee": "", "ruling": "198709", "deductibility": "2", "assets": 121055, "income": 189013, "revenue": 95086}, {"ein": "161392525", "name": "HOL-FIELD ROD & GUN CLUB INC", "city": "BLOOMFIELD", "state": "NY", "zip": "14469-0000", "ntee": "P20", "ruling": "202001", "deductibility": "2", "assets": 0, "income": 0, "revenue": 0}, {"ein": "161410924", "name": "OLEAN ROD & GUN CLUB INC", "city": "WESTON MILLS", "state": "NY", "zip": "14788-0213", "ntee": "", "ruling": "199303", "deductibility": "2", "assets": 529556, "income": 52866, "revenue": 44186}, {"ein": "161424220", "name": "MOREHOUSE ROD&GUN CLUB INC", "city": "COLD BROOK", "state": "NY", "zip": "13324-1710", "ntee": "N61", "ruling": "202407", "deductibility": "1", "assets": 0, "income": 0, "revenue": 0}, {"ein": "161429054", "name": "NORTH SYRACUSE ROD & GUN CLUB INC", "city": "WEST MONROE", "state": "NY", "zip": "13167-0214", "ntee": "N50", "ruling": "202001", "deductibility": "2", "assets": 0, "income": 0, "revenue": 0}, {"ein": "161554705", "name": "FREWSBURG ROD & GUN CLUB INC", "city": "FREWSBURG", "state": "NY", "zip": "14738-0000", "ntee": "N60", "ruling": "200007", "deductibility": "1", "assets": 240970, "income": 483069, "revenue": 80781}, {"ein": "161594489", "name": "BALDWINSVILLE ROD & GUN CLUB INC", "city": "BALDWINSVILLE", "state": "NY", "zip": "13027-0232", "ntee": "N61", "ruling": "200111", "deductibility": "2", "assets": 0, "income": 0, "revenue": 0}, {"ein": "161601672", "name": "CARTHAGE ROD & GUN CLUB", "city": "CARTHAGE", "state": "NY", "zip": "13619-0442", "ntee": "W01", "ruling": "201610", "deductibility": "1", "assets": 28451, "income": 47714, "revenue": 0}, {"ein": "166051068", "name": "NORTH FOREST ROD & GUN CLUB INC", "city": "LOCKPORT", "state": "NY", "zip": "14095-1161", "ntee": "", "ruling": "196211", "deductibility": "2", "assets": 215782, "income": 142246, "revenue": 142246}, {"ein": "166052287", "name": "CUBA ROD & GUN CLUB INC", "city": "CUBA", "state": "NY", "zip": "14727-0122", "ntee": "", "ruling": "194906", "deductibility": "2", "assets": 0, "income": 0, "revenue": 0}, {"ein": "166091087", "name": "ALDEN ROD & GUN CLUB", "city": "ALDEN", "state": "NY", "zip": "14004-0035", "ntee": "N6XZ", "ruling": "196803", "deductibility": "2", "assets": 143675, "income": 80067, "revenue": 57910}, {"ein": "166096975", "name": "CRUISIN BUDDIES ROD CUSTOM & CLASSIC CAR CLUB INC", "city": "VESTAL", "state": "NY", "zip": "13851-0612", "ntee": "N50", "ruling": "201403", "deductibility": "2", "assets": 0, "income": 0, "revenue": 0}, {"ein": "222336748", "name": "RANDOLPH ROD AND GUN INC", "city": "RANDOLPH", "state": "NY", "zip": "14772-0252", "ntee": "N61", "ruling": "200901", "deductibility": "2", "assets": 63780, "income": 34029, "revenue": 17128}, {"ein": "222521288", "name": "FOUR POINT ROD & GUN CLUB INC", "city": "SCOTTSVILLE", "state": "NY", "zip": "14546-0009", "ntee": "", "ruling": "198608", "deductibility": "2", "assets": 526504, "income": 95201, "revenue": 88203}, {"ein": "222777136", "name": "ROD SERLING MEMORIAL FOUNDATION", "city": "BINGHAMTON", "state": "NY", "zip": "13902-2101", "ntee": "", "ruling": "198704", "deductibility": "1", "assets": 0, "income": 0, "revenue": 0}, {"ein": "222989519", "name": "NORTHERN DUTCHESS ROD & GUN CLUB INC", "city": "RHINEBECK", "state": "NY", "zip": "12572-0728", "ntee": "N50", "ruling": "201907", "deductibility": "2", "assets": 1042663, "income": 166424, "revenue": 166424}, {"ein": "222989520", "name": "NEIGHBORS ROD & GUN CLUB INC", "city": "RHINEBECK", "state": "NY", "zip": "12572-0460", "ntee": "", "ruling": "199307", "deductibility": "2", "assets": 216604, "income": 48646, "revenue": 48646}, {"ein": "223160871", "name": "WILTON ROD AND GUN CLUB INC", "city": "GANSEVOORT", "state": "NY", "zip": "12831-2569", "ntee": "", "ruling": "199205", "deductibility": "2", "assets": 0, "income": 0, "revenue": 0}, {"ein": "223253811", "name": "ELBRIDGE ROD & GUN CLUB INC", "city": "ELBRIDGE", "state": "NY", "zip": "13060-0000", "ntee": "", "ruling": "199502", "deductibility": "2", "assets": 85180, "income": 40277, "revenue": 37619}, {"ein": "223394310", "name": "WEEDSPORT ROD & GUN CLUB", "city": "WEEDSPORT", "state": "NY", "zip": "13166-0012", "ntee": "N61", "ruling": "201408", "deductibility": "2", "assets": 342991, "income": 130450, "revenue": 74028}, {"ein": "223613759", "name": "GLENCADIA ROD & GUN CLUB INC", "city": "STUYVESANT", "state": "NY", "zip": "12173-0013", "ntee": "N50", "ruling": "199901", "deductibility": "2", "assets": 511006, "income": 148152, "revenue": 116805}, {"ein": "237022592", "name": "ROOSEVELT ROD AND GUN CLUB INC", "city": "SEAFORD", "state": "NY", "zip": "11783-0414", "ntee": "N61", "ruling": "201211", "deductibility": "2", "assets": 0, "income": 0, "revenue": 0}, {"ein": "237120553", "name": "CASSETY HOLLOW ROD & GUN INC", "city": "YORKVILLE", "state": "NY", "zip": "13495-0208", "ntee": "", "ruling": "202211", "deductibility": "2", "assets": 0, "income": 0, "revenue": 0}, {"ein": "237151027", "name": "RUBY ROD & GUN CLUB INC", "city": "RUBY", "state": "NY", "zip": "12475-0011", "ntee": "", "ruling": "197111", "deductibility": "2", "assets": 853059, "income": 159314, "revenue": 127218}, {"ein": "237174124", "name": "MASSENA ROD & GUN CLUB INC", "city": "MASSENA", "state": "NY", "zip": "13662-0353", "ntee": "", "ruling": "197204", "deductibility": "2", "assets": 201324, "income": 49981, "revenue": 45864}, {"ein": "237198650", "name": "TUSTEN ROD & GUN CLUB INC", "city": "NARROWSBURG", "state": "NY", "zip": "12764-0000", "ntee": "N61", "ruling": "200107", "deductibility": "2", "assets": 41154, "income": 9330, "revenue": 9330}, {"ein": "237213170", "name": "LAKE KATRINE ROD AND GUN CLUB INC", "city": "ULSTER PARK", "state": "NY", "zip": "12487-5338", "ntee": "", "ruling": "197208", "deductibility": "2", "assets": 508490, "income": 164907, "revenue": 128265}, {"ein": "237452530", "name": "LYONS ROD & GUN CLUB INC", "city": "LYONS", "state": "NY", "zip": "14489-0184", "ntee": "", "ruling": "197708", "deductibility": "2", "assets": 94997, "income": 323204, "revenue": 169865}, {"ein": "260437741", "name": "KENT ROD AND GUN CLUB INCORPORATED", "city": "CARMEL", "state": "NY", "zip": "10512-5731", "ntee": "N61", "ruling": "200710", "deductibility": "2", "assets": 0, "income": 0, "revenue": 0}, {"ein": "270401878", "name": "TABERNACLE DE LA VERGE D AARON A FLEURIE THE BLOSSOMING ROD TABERNA", "city": "BRONX", "state": "NY", "zip": "10457-3401", "ntee": "X20", "ruling": "201407", "deductibility": "1", "assets": 0, "income": 0, "revenue": 0}, {"ein": "273246726", "name": "SHERIDAN TRANSIT ROD AND GUN CLUB INC", "city": "GRAND ISLAND", "state": "NY", "zip": "14072-1467", "ntee": "N50", "ruling": "201009", "deductibility": "2", "assets": 286812, "income": 71336, "revenue": 71336}, {"ein": "273635632", "name": "BEAVER VALLEY ROD AND GUN CLUB INC", "city": "WATERVILLE", "state": "NY", "zip": "13480-0031", "ntee": "N61", "ruling": "201103", "deductibility": "2", "assets": 0, "income": 0, "revenue": 0}, {"ein": "274780704", "name": "CAMDEN ROD AND GUN CLUB INC", "city": "CAMDEN", "state": "NY", "zip": "13316-0297", "ntee": "N61", "ruling": "201108", "deductibility": "2", "assets": 369117, "income": 98248, "revenue": 74003}, {"ein": "332035910", "name": "NODINE ROD AND GUN CLUB OF YONKERS INC", "city": "PLEASANTVILLE", "state": "NY", "zip": "10570-3617", "ntee": "N61", "ruling": "202507", "deductibility": "2", "assets": 0, "income": 0, "revenue": 0}, {"ein": "371567920", "name": "ALMA ROD AND GUN CLUB", "city": "WELLSVILLE", "state": "NY", "zip": "14895-0181", "ntee": "N61", "ruling": "201703", "deductibility": "1", "assets": 0, "income": 0, "revenue": 0}, {"ein": "455307536", "name": "SKYTOP ROD AND GUN CLUB", "city": "LYONS", "state": "NY", "zip": "14489-9769", "ntee": "N61", "ruling": "201303", "deductibility": "2", "assets": 0, "income": 0, "revenue": 0}, {"ein": "462839348", "name": "SHORTSVILLE ROD AND GUN CLUB", "city": "SHORTSVILLE", "state": "NY", "zip": "14548-0000", "ntee": "N61", "ruling": "202210", "deductibility": "1", "assets": 68677, "income": 66163, "revenue": 63504}, {"ein": "464806190", "name": "CARROLL ROD & GUN CLUB INC OF FREWSBURG NEW YORK", "city": "FREWSBURG", "state": "NY", "zip": "14738-0000", "ntee": "N61", "ruling": "201803", "deductibility": "1", "assets": 207859, "income": 109271, "revenue": 66950}, {"ein": "510204495", "name": "DEPEW ROD & GUN CLUB INC", "city": "DEPEW", "state": "NY", "zip": "14043-0011", "ntee": "", "ruling": "197611", "deductibility": "2", "assets": 78389, "income": 99577, "revenue": 51498}, {"ein": "611594529", "name": "LANSING ROD & GUN CLUB", "city": "LANSING", "state": "NY", "zip": "14882-9052", "ntee": "", "ruling": "201801", "deductibility": "0", "assets": 359884, "income": 181165, "revenue": 181165}, {"ein": "812603185", "name": "SARASPA ROD AND GUN CLUB INC", "city": "GREENFLD CTR", "state": "NY", "zip": "12833-0222", "ntee": "P20", "ruling": "201608", "deductibility": "2", "assets": 1593263, "income": 206708, "revenue": 206708}, {"ein": "822182859", "name": "YORKTOWN ROD AND GUN CLUB INC", "city": "POUGHQUAG", "state": "NY", "zip": "12570-5420", "ntee": "N50", "ruling": "201712", "deductibility": "2", "assets": 0, "income": 0, "revenue": 0}, {"ein": "823364230", "name": "STUYVESANT ROD & GUN CLUB", "city": "MIDDLE VLG", "state": "NY", "zip": "11379-2392", "ntee": "N70", "ruling": "202211", "deductibility": "1", "assets": 56969, "income": 102732, "revenue": 102732}, {"ein": "824171768", "name": "VIOLA ROD & GUN CLUB INC", "city": "HYDE PARK", "state": "NY", "zip": "12538-3102", "ntee": "N61", "ruling": "201807", "deductibility": "1", "assets": 0, "income": 0, "revenue": 0}, {"ein": "824563375", "name": "RENSSELAERVILLE ROD & CLUB", "city": "RENSSELAERVILLE", "state": "NY", "zip": "12147-0000", "ntee": "N11", "ruling": "201810", "deductibility": "2", "assets": 0, "income": 0, "revenue": 0}, {"ein": "831671011", "name": "SKANEATELES ROD AND GUN CLUB INC", "city": "SKANEATELES", "state": "NY", "zip": "13152-9352", "ntee": "N61", "ruling": "201812", "deductibility": "1", "assets": 0, "income": 0, "revenue": 0}, {"ein": "832761947", "name": "ANDOVER ROD AND GUN CLUB ASSOCIATION INC", "city": "ANDOVER", "state": "NY", "zip": "14806-0548", "ntee": "N60", "ruling": "201905", "deductibility": "1", "assets": 0, "income": 0, "revenue": 0}, {"ein": "844132814", "name": "OXFORD ROD AND GUN CLUB INC", "city": "OXFORD", "state": "NY", "zip": "13830-2202", "ntee": "N70", "ruling": "202306", "deductibility": "1", "assets": 0, "income": 0, "revenue": 0}, {"ein": "853151884", "name": "NEWFIELD ROD AND GUN CLUB", "city": "NEWFIELD", "state": "NY", "zip": "14867-0008", "ntee": "N50", "ruling": "202010", "deductibility": "2", "assets": 0, "income": 0, "revenue": 0}, {"ein": "900681632", "name": "RAPIDS ROD AND GUN CLUB INC", "city": "LOCKPORT", "state": "NY", "zip": "14094-6629", "ntee": "N50", "ruling": "201706", "deductibility": "1", "assets": 0, "income": 0, "revenue": 0}, {"ein": "900997466", "name": "BLOOMING GROVE ROD AND GUN CLUB IN", "city": "MONROE", "state": "NY", "zip": "10949-0310", "ntee": "N61", "ruling": "201409", "deductibility": "2", "assets": 0, "income": 0, "revenue": 0}, {"ein": "901069683", "name": "COON ROCK ROD & GUN CLUB INC", "city": "LIBERTY", "state": "NY", "zip": "12754-2922", "ntee": "N61", "ruling": "201503", "deductibility": "2", "assets": 0, "income": 0, "revenue": 0}], "DEVOTEES": [{"ein": "061285809", "name": "INTERFAITH LEAGUE OF DEVOTEES", "city": "NEW YORK", "state": "NY", "zip": "10003-9418", "ntee": "", "ruling": "199103", "deductibility": "1", "assets": 0, "income": 0, "revenue": 0}], "VOICES": [{"ein": "061592825", "name": "BROADWAY INSPIRATIONAL VOICES INC", "city": "NEW YORK", "state": "NY", "zip": "10018-8661", "ntee": "A6B", "ruling": "200902", "deductibility": "1", "assets": 125148, "income": 523438, "revenue": 523438}, {"ein": "113129144", "name": "MANY VOICES INC", "city": "BROOKLYN", "state": "NY", "zip": "11215-5207", "ntee": "A310", "ruling": "199304", "deductibility": "1", "assets": 114799, "income": 49436, "revenue": 49436}, {"ein": "113134938", "name": "EDUCATED VOICES OF HIP HOP", "city": "BROOKLYN", "state": "NY", "zip": "11238-0090", "ntee": "A62", "ruling": "201006", "deductibility": "1", "assets": 0, "income": 0, "revenue": 0}, {"ein": "113503085", "name": "SHEMA KOLAINU-HEAR OUR VOICES", "city": "BROOKLYN", "state": "NY", "zip": "11219-1831", "ntee": "B28", "ruling": "199911", "deductibility": "1", "assets": 16114862, "income": 14904533, "revenue": 14904533}, {"ein": "113838770", "name": "SILENT VOICES UNITED INC", "city": "NEW YORK", "state": "NY", "zip": "10027-1900", "ntee": "B90", "ruling": "200807", "deductibility": "1", "assets": 0, "income": 0, "revenue": 0}, {"ein": "133668472", "name": "VOICES OF ASCENSION INC", "city": "NEW YORK", "state": "NY", "zip": "10011-8778", "ntee": "A60Z", "ruling": "199208", "deductibility": "1", "assets": 3404739, "income": 2213224, "revenue": 1531863}, {"ein": "133687018", "name": "AFRICAN VOICES COMMUNICATIONS INC", "city": "BROOKLYN", "state": "NY", "zip": "11238-5694", "ntee": "B99Z", "ruling": "199804", "deductibility": "1", "assets": 129509, "income": 165773, "revenue": 165773}, {"ein": "133901997", "name": "COMMUNITY VOICES HEARD INC", "city": "NEW YORK", "state": "NY", "zip": "10035-3532", "ntee": "J20", "ruling": "199704", "deductibility": "1", "assets": 4643978, "income": 2514923, "revenue": 2491373}, {"ein": "134076879", "name": "FOUNDATION FOR SMALL VOICES", "city": "NEW YORK", "state": "NY", "zip": "10018-3308", "ntee": "T30", "ruling": "199912", "deductibility": "1", "assets": 0, "income": 0, "revenue": 0}, {"ein": "134094385", "name": "VOICES OF COMMUNITY ACTIVISTS & LEADERS-VOCAL-NY-INC", "city": "BROOKLYN", "state": "NY", "zip": "11217-3114", "ntee": "E60", "ruling": "200206", "deductibility": "1", "assets": 15660652, "income": 9579081, "revenue": 9551759}, {"ein": "134191062", "name": "HIGHBRIDGE VOICES CORPORATION", "city": "BRONX", "state": "NY", "zip": "10452-1758", "ntee": "O20", "ruling": "200204", "deductibility": "1", "assets": 519372, "income": 283341, "revenue": 277752}, {"ein": "141804364", "name": "IN OUR OWN VOICES INC", "city": "ALBANY", "state": "NY", "zip": "12210-1149", "ntee": "R26", "ruling": "200311", "deductibility": "1", "assets": 2098990, "income": 2687480, "revenue": 2653587}, {"ein": "141806862", "name": "ADIRONDACK VOICES INC", "city": "GLENS FALLS", "state": "NY", "zip": "12801-3028", "ntee": "A6B", "ruling": "200801", "deductibility": "1", "assets": 0, "income": 0, "revenue": 0}, {"ein": "141826588", "name": "ALBANY VOICES OF PRIDE INC", "city": "ALBANY", "state": "NY", "zip": "12208-2837", "ntee": "A6B", "ruling": "202011", "deductibility": "1", "assets": 0, "income": 0, "revenue": 0}, {"ein": "202722033", "name": "WOMENS VOICES FOR CHANGE INC", "city": "NEW YORK", "state": "NY", "zip": "10022-5542", "ntee": "P80", "ruling": "200508", "deductibility": "1", "assets": 0, "income": 0, "revenue": 0}, {"ein": "202872778", "name": "VOICES AGAINST BRAIN CANCER INC", "city": "NEW YORK", "state": "NY", "zip": "10001-0000", "ntee": "T20", "ruling": "200602", "deductibility": "1", "assets": 0, "income": 0, "revenue": 0}, {"ein": "222604793", "name": "SARATOGA VOICES", "city": "BURNT HILLS", "state": "NY", "zip": "12027-0076", "ntee": "", "ruling": "198508", "deductibility": "1", "assets": 143298, "income": 52769, "revenue": 52769}, {"ein": "260738341", "name": "VOICES OF A PEOPLES HISTORY OF THEUNITED STATES", "city": "BROOKLYN", "state": "NY", "zip": "11201-1099", "ntee": "A80", "ruling": "200801", "deductibility": "1", "assets": 208116, "income": 239398, "revenue": 239398}, {"ein": "261771719", "name": "NEW VOICES MS 443 PARENT ASSOCIATION INC", "city": "BROOKLYN", "state": "NY", "zip": "11215-6111", "ntee": "B11", "ruling": "201102", "deductibility": "1", "assets": 53337, "income": 16695, "revenue": 14539}, {"ein": "261787629", "name": "YOUTH VOICES CENTER", "city": "NEW ROCHELLE", "state": "NY", "zip": "10801-5037", "ntee": "O50", "ruling": "200907", "deductibility": "1", "assets": 33414, "income": 105654, "revenue": 105654}, {"ein": "273095637", "name": "COMMUNITY VOICES HEARD POWER INC", "city": "NEW YORK", "state": "NY", "zip": "10029-4614", "ntee": "P50", "ruling": "201108", "deductibility": "2", "assets": 1208655, "income": 704588, "revenue": 703953}, {"ein": "273103886", "name": "PROGRESSIVE VOICES INC", "city": "NEW YORK", "state": "NY", "zip": "10001-1908", "ntee": "P50", "ruling": "201011", "deductibility": "1", "assets": 0, "income": 0, "revenue": 0}, {"ein": "273892631", "name": "VOICES OF VIRTUE INC", "city": "HEMPSTEAD", "state": "NY", "zip": "11551-4607", "ntee": "A6B", "ruling": "201411", "deductibility": "1", "assets": 0, "income": 0, "revenue": 0}, {"ein": "300324021", "name": "WORLDWIDE VOICES INC", "city": "PATCHOGUE", "state": "NY", "zip": "11772-3876", "ntee": "A60", "ruling": "200512", "deductibility": "1", "assets": 0, "income": 0, "revenue": 0}, {"ein": "331517302", "name": "HUDSON VALLEY VOICES IN HARMONY INC", "city": "ABANY", "state": "NY", "zip": "12207-2922", "ntee": "A6B", "ruling": "202410", "deductibility": "1", "assets": 0, "income": 0, "revenue": 0}, {"ein": "331686692", "name": "VOICES OF OUR YOUTH INC", "city": "FAR ROCKAWAY", "state": "NY", "zip": "11691-1724", "ntee": "S20", "ruling": "202411", "deductibility": "1", "assets": 0, "income": 0, "revenue": 0}, {"ein": "333678233", "name": "YOUTH FOR YOUTHS VOICES INC", "city": "STATEN ISLAND", "state": "NY", "zip": "10303-1205", "ntee": "O50", "ruling": "202503", "deductibility": "1", "assets": 0, "income": 0, "revenue": 0}, {"ein": "334089170", "name": "GROUP OF INFORMED VOICES INC", "city": "TARRYTOWN", "state": "NY", "zip": "10591-3609", "ntee": "B60", "ruling": "202506", "deductibility": "1", "assets": 0, "income": 0, "revenue": 0}, {"ein": "334881686", "name": "HERE4U4ALL VOICES INC", "city": "ALBANY", "state": "NY", "zip": "12207-2922", "ntee": "P62", "ruling": "202506", "deductibility": "1", "assets": 0, "income": 0, "revenue": 0}, {"ein": "357013701", "name": "SOME VOICES FOUNDATION TR", "city": "NEW YORK", "state": "NY", "zip": "10036-2714", "ntee": "T20", "ruling": "201408", "deductibility": "1", "assets": 10274932, "income": 3797584, "revenue": 0}, {"ein": "371585169", "name": "VOICES IN CONTEMPORARY ART", "city": "NEW YORK", "state": "NY", "zip": "10004-1680", "ntee": "A03", "ruling": "201003", "deductibility": "1", "assets": 628297, "income": 672100, "revenue": 672100}, {"ein": "452738435", "name": "VOICES FROM THE HEART OF MEDICINE INC", "city": "NEW ROCHELLE", "state": "NY", "zip": "10804-0299", "ntee": "A33", "ruling": "201308", "deductibility": "1", "assets": 0, "income": 0, "revenue": 0}, {"ein": "455224727", "name": "HUMAN RIGHTS VOICES INC", "city": "NEW YORK", "state": "NY", "zip": "10025-5655", "ntee": "Q70", "ruling": "201312", "deductibility": "1", "assets": 718205, "income": 522325, "revenue": 522325}, {"ein": "455568427", "name": "HANDS & VOICES OF NEW YORK", "city": "HURLEY", "state": "NY", "zip": "12443-0004", "ntee": "P87", "ruling": "201303", "deductibility": "1", "assets": 0, "income": 0, "revenue": 0}, {"ein": "461551586", "name": "SINGLE PARENTS WITH VOICES INC", "city": "COHOES", "state": "NY", "zip": "12047-1908", "ntee": "E01", "ruling": "201806", "deductibility": "1", "assets": 0, "income": 0, "revenue": 0}, {"ein": "461842173", "name": "CAPITAL COMMUNITY VOICES", "city": "E GREENBUSH", "state": "NY", "zip": "12061-0213", "ntee": "A60", "ruling": "202306", "deductibility": "1", "assets": 34921, "income": 12516, "revenue": 12516}, {"ein": "462049417", "name": "BC VOICES INC", "city": "NEW YORK", "state": "NY", "zip": "10025-3526", "ntee": "B60", "ruling": "201407", "deductibility": "1", "assets": 39224, "income": 64008, "revenue": 64008}, {"ein": "471303232", "name": "VOICES FOR VANISHING MONUMENTS INC", "city": "NEW YORK", "state": "NY", "zip": "10036-4241", "ntee": "A12", "ruling": "201409", "deductibility": "1", "assets": 0, "income": 0, "revenue": 0}, {"ein": "473443967", "name": "VOICES FOR VETERANS CORP", "city": "RIVERHEAD", "state": "NY", "zip": "11901-5701", "ntee": "W30", "ruling": "201504", "deductibility": "1", "assets": 0, "income": 0, "revenue": 0}, {"ein": "475392146", "name": "THEATER VOICES INC", "city": "ALBANY", "state": "NY", "zip": "12208-0407", "ntee": "A65", "ruling": "201602", "deductibility": "1", "assets": 0, "income": 0, "revenue": 0}, {"ein": "821270729", "name": "COMMUNITY VOICES FOR YOUTH AND FAMILIES OF LONG ISLAND INC", "city": "ROSLYN", "state": "NY", "zip": "11576-1153", "ntee": "P20", "ruling": "201807", "deductibility": "1", "assets": 1, "income": 0, "revenue": 0}, {"ein": "823453108", "name": "MOVE MAY OUR VOICES ENLIGHTEN INC", "city": "CANISTEO", "state": "NY", "zip": "14823-1033", "ntee": "X20", "ruling": "201802", "deductibility": "1", "assets": 0, "income": 0, "revenue": 0}, {"ein": "823672345", "name": "NEW VOICES FOUNDATION", "city": "BROOKLYN", "state": "NY", "zip": "11232-2204", "ntee": "T02", "ruling": "201807", "deductibility": "1", "assets": 36611805, "income": 1104286, "revenue": 1104286}, {"ein": "824616584", "name": "VOICES HEARD FOUNDATION INC", "city": "STATEN ISLAND", "state": "NY", "zip": "10314-4029", "ntee": "T12", "ruling": "201807", "deductibility": "1", "assets": 0, "income": 0, "revenue": 0}, {"ein": "831055840", "name": "VOICES OF KILIMANJARO INC", "city": "DOVER PLAINS", "state": "NY", "zip": "12522-5926", "ntee": "A61", "ruling": "202203", "deductibility": "1", "assets": 0, "income": 0, "revenue": 0}, {"ein": "832603123", "name": "VOICES FOR TRUTH AND HUMANITY INC", "city": "JERICHO", "state": "NY", "zip": "11753-0000", "ntee": "A70", "ruling": "201903", "deductibility": "1", "assets": 37642, "income": 49655, "revenue": 33546}, {"ein": "833510353", "name": "BELL VOICES INC", "city": "NEW YORK", "state": "NY", "zip": "10004-1056", "ntee": "A30", "ruling": "202503", "deductibility": "1", "assets": 0, "income": 0, "revenue": 0}, {"ein": "842531766", "name": "NEW YORK VILLAGE VOICES INC", "city": "FRESH MEADOWS", "state": "NY", "zip": "11365-3426", "ntee": "N50", "ruling": "202204", "deductibility": "2", "assets": 1, "income": 14130, "revenue": 14130}, {"ein": "843212629", "name": "UNITED VOICES 4 PEACE INCORPORATED", "city": "NEW YORK", "state": "NY", "zip": "10014-1802", "ntee": "A20", "ruling": "201911", "deductibility": "1", "assets": 2561, "income": 92604, "revenue": 0}, {"ein": "843231097", "name": "PROGRESSIVE RADIO VOICES INC", "city": "NEW YORK", "state": "NY", "zip": "10001-2205", "ntee": "P99", "ruling": "202004", "deductibility": "1", "assets": 9988, "income": 8558, "revenue": 8558}, {"ein": "844894772", "name": "COMMUNITY VOICES OF NEW YORK INC", "city": "JAMAICA", "state": "NY", "zip": "11436-1137", "ntee": "P20", "ruling": "202010", "deductibility": "1", "assets": 0, "income": 0, "revenue": 0}, {"ein": "852120159", "name": "VOICES IN THE HEIGHTS INC", "city": "NEW YORK", "state": "NY", "zip": "10001-4738", "ntee": "A68", "ruling": "202009", "deductibility": "1", "assets": 0, "income": 0, "revenue": 0}, {"ein": "852675275", "name": "MINORITY VOICES PROSPER INC", "city": "BROOKLYN", "state": "NY", "zip": "11225-4424", "ntee": "O99", "ruling": "202011", "deductibility": "1", "assets": 0, "income": 0, "revenue": 0}, {"ein": "852919377", "name": "V E R A VOICES ENGAGED AND RAISING AWARENESS INC", "city": "LINDENHURST", "state": "NY", "zip": "11757-1319", "ntee": "O20", "ruling": "202101", "deductibility": "1", "assets": 0, "income": 0, "revenue": 0}, {"ein": "852970829", "name": "ME VOICES INC", "city": "DEWITT", "state": "NY", "zip": "13214-2229", "ntee": "B05", "ruling": "202101", "deductibility": "1", "assets": 0, "income": 0, "revenue": 0}, {"ein": "862628804", "name": "ADELANTE STUDENT VOICES INC", "city": "POUGHKEEPSIE", "state": "NY", "zip": "12603-0023", "ntee": "O50", "ruling": "202111", "deductibility": "1", "assets": 25580, "income": 88036, "revenue": 88036}, {"ein": "873315682", "name": "BLACK VOICES FOR BLACK JUSTICE FUND", "city": "NEW YORK", "state": "NY", "zip": "10007-1018", "ntee": "I01", "ruling": "202201", "deductibility": "1", "assets": 242, "income": 222617, "revenue": 222617}, {"ein": "873402644", "name": "SHARING VOICES INC", "city": "FLUSHING", "state": "NY", "zip": "11358-3826", "ntee": "B01", "ruling": "202202", "deductibility": "1", "assets": 1, "income": 0, "revenue": 0}, {"ein": "874382381", "name": "VOICES FOR URBAN WILDLIFE INC", "city": "NEW YORK", "state": "NY", "zip": "10280-1417", "ntee": "D30", "ruling": "202302", "deductibility": "1", "assets": 0, "income": 0, "revenue": 0}, {"ein": "931486323", "name": "VULNERABLES VOICES V&V INC", "city": "LACKAWANNA", "state": "NY", "zip": "14218-3113", "ntee": "P02", "ruling": "202312", "deductibility": "1", "assets": 0, "income": 0, "revenue": 0}, {"ein": "932034312", "name": "VOICES FOR IMMIGRANT VALIDATION AND EMPOWERMENT", "city": "EAST ELMHURST", "state": "NY", "zip": "11369-1714", "ntee": "P84", "ruling": "202307", "deductibility": "1", "assets": 0, "income": 0, "revenue": 0}, {"ein": "933968090", "name": "RAISING QUEER VOICES", "city": "GREENWOOD LK", "state": "NY", "zip": "10925-4131", "ntee": "R20", "ruling": "202311", "deductibility": "1", "assets": 0, "income": 0, "revenue": 0}, {"ein": "934349420", "name": "VOICES OF ATRIAL FIBRILLATION PATIENTS INC", "city": "FAR ROCKAWAY", "state": "NY", "zip": "11693-0000", "ntee": "E86", "ruling": "202402", "deductibility": "1", "assets": 0, "income": 0, "revenue": 0}], "VHECHZAKTU": [{"ein": "061594089", "name": "VHECHZAKTU BO", "city": "BROOKLYN", "state": "NY", "zip": "11211-6705", "ntee": "X30", "ruling": "200010", "deductibility": "1", "assets": 0, "income": 0, "revenue": 0}], "EXPLORIUM": [{"ein": "061723721", "name": "MARITIME EXPLORIUM AT PORT JEFF HARBOR", "city": "PRT JEFFERSON", "state": "NY", "zip": "11777-1201", "ntee": "A52", "ruling": "200504", "deductibility": "1", "assets": 86916, "income": 289421, "revenue": 289421}], "CONRAD": [{"ein": "111633524", "name": "CONRAD POPPENHUSEN ASSOCIATION", "city": "COLLEGE POINT", "state": "NY", "zip": "11356-0091", "ntee": "P28Z", "ruling": "194109", "deductibility": "1", "assets": 5781902, "income": 1583895, "revenue": 1583895}, {"ein": "146016128", "name": "CONRAD H AND ANNA BELLE GILLEN SCHOLARSHIP FUND", "city": "NORWICH", "state": "NY", "zip": "13815-0000", "ntee": "", "ruling": "196901", "deductibility": "1", "assets": 279842, "income": 71629, "revenue": 0}, {"ein": "156019821", "name": "CONRAD AND VIRGINIA KLEE FDN INC", "city": "BINGHAMTON", "state": "NY", "zip": "13901-3326", "ntee": "", "ruling": "195902", "deductibility": "1", "assets": 22691973, "income": 2163828, "revenue": 0}, {"ein": "256185339", "name": "CONRAD E FOGELSANGER TRUST NO 3 UW", "city": "BUFFALO", "state": "NY", "zip": "14240-1504", "ntee": "T20", "ruling": "200611", "deductibility": "1", "assets": 191609, "income": 60621, "revenue": 0}, {"ein": "256185547", "name": "CONRAD E FOGELSANGER TRUST NO 2 UW", "city": "BUFFALO", "state": "NY", "zip": "14240-1504", "ntee": "T22", "ruling": "200611", "deductibility": "1", "assets": 151522, "income": 43238, "revenue": 0}], "ELECTRIC": [{"ein": "111698020", "name": "MUNICIPAL ELECTRIC UTILITIES ASSOCIATION OF NY STATE", "city": "EAST SYRACUSE", "state": "NY", "zip": "13057-9650", "ntee": "", "ruling": "194107", "deductibility": "2", "assets": 1073502, "income": 1484502, "revenue": 1484502}, {"ein": "111803485", "name": "NASSAU ELECTRIC LEAGUE INC", "city": "HICKSVILLE", "state": "NY", "zip": "11801-3869", "ntee": "", "ruling": "196504", "deductibility": "2", "assets": 0, "income": 0, "revenue": 0}, {"ein": "132722079", "name": "ELECTRIC CO", "city": "NEW YORK", "state": "NY", "zip": "10023-7004", "ntee": "", "ruling": "197212", "deductibility": "2", "assets": 4632386, "income": 192772, "revenue": 192772}, {"ein": "136161591", "name": "ELECTRIC RAILROADERS ASSOCIATION INC", "city": "NEW YORK", "state": "NY", "zip": "10163-3323", "ntee": "N50Z", "ruling": "195909", "deductibility": "1", "assets": 294187, "income": 228220, "revenue": 223818}, {"ein": "150287092", "name": "DELAWARE COUNTY ELECTRIC COOPERATIVE INC", "city": "DELHI", "state": "NY", "zip": "13753-0000", "ntee": "", "ruling": "194603", "deductibility": "2", "assets": 29903337, "income": 9633848, "revenue": 9633848}, {"ein": "150405592", "name": "ONEIDA-MADISON ELECTRIC COOPERATIVE INC", "city": "BOUCKVILLE", "state": "NY", "zip": "13310-0027", "ntee": "W80Z", "ruling": "196410", "deductibility": "2", "assets": 7042679, "income": 3599002, "revenue": 3599002}, {"ein": "150500061", "name": "OTSEGO ELECTRIC COOPERATIVE INC", "city": "HARTWICK", "state": "NY", "zip": "13348-0128", "ntee": "", "ruling": "194601", "deductibility": "2", "assets": 55175138, "income": 13488990, "revenue": 13488990}, {"ein": "150542904", "name": "UTICA GAS & ELECTRIC FEDERAL CREDIT UNION", "city": "NEW HARTFORD", "state": "NY", "zip": "13413-1637", "ntee": "", "ruling": "000000", "deductibility": "0", "assets": 0, "income": 0, "revenue": 0}, {"ein": "160650108", "name": "STEUBEN RURAL ELECTRIC COOPERATIVE INC", "city": "BATH", "state": "NY", "zip": "14810-1633", "ntee": "", "ruling": "194512", "deductibility": "2", "assets": 45566709, "income": 12813066, "revenue": 12813066}, {"ein": "161264464", "name": "NEW YORK STATE RURAL ELECTRIC COOPERATIVE ASSOCIATION ICN", "city": "BATH", "state": "NY", "zip": "14810-1633", "ntee": "", "ruling": "199007", "deductibility": "2", "assets": 50807, "income": 77854, "revenue": 77854}, {"ein": "161612392", "name": "MUNICIPAL ELECTRIC AND GAS ALLIANCE INCORPORATED", "city": "DELMAR", "state": "NY", "zip": "12054-0181", "ntee": "W80", "ruling": "200206", "deductibility": "1", "assets": 609058, "income": 713109, "revenue": 0}, {"ein": "201084040", "name": "FERGUSON ELECTRIC FOUNDATION", "city": "BUFFALO", "state": "NY", "zip": "14203-1618", "ntee": "T22", "ruling": "200406", "deductibility": "1", "assets": 891549, "income": 341793, "revenue": 0}, {"ein": "223173078", "name": "CENTRAL HUDSON GAS ELECTRIC CORP HEALTH BENEFITS TR FOR COLLECTIVEL", "city": "POUGHKEEPSIE", "state": "NY", "zip": "12601-4838", "ntee": "", "ruling": "199311", "deductibility": "0", "assets": 130190636, "income": 47341719, "revenue": 36444323}, {"ein": "251124626", "name": "ELECTRIC METAL MAKERS GUILD INC", "city": "BALDWINSVILLE", "state": "NY", "zip": "13027-8306", "ntee": "", "ruling": "194308", "deductibility": "2", "assets": 0, "income": 0, "revenue": 0}, {"ein": "461402365", "name": "ELECTRIC LIT INC", "city": "KINGSTON", "state": "NY", "zip": "12401-6011", "ntee": "S99", "ruling": "201406", "deductibility": "1", "assets": 18735, "income": 457809, "revenue": 445570}, {"ein": "510243977", "name": "SYRACUSE GENERAL ELECTRIC EMPLOYEES FEDERATED COMMUNITY SERVICE FUND", "city": "LIVERPOOL", "state": "NY", "zip": "13088-6062", "ntee": "J40Z", "ruling": "195303", "deductibility": "1", "assets": 66348, "income": 115726, "revenue": 115726}, {"ein": "753157290", "name": "ELECTRIC GUITAR ARTS INC", "city": "ELMHURST", "state": "NY", "zip": "11373-3719", "ntee": "", "ruling": "200412", "deductibility": "1", "assets": 0, "income": 0, "revenue": 0}, {"ein": "820609871", "name": "ELECTRIC CITY BIKE RESCUE INC", "city": "SCHENECTADY", "state": "NY", "zip": "12301-0384", "ntee": "N60", "ruling": "201703", "deductibility": "1", "assets": 0, "income": 0, "revenue": 0}, {"ein": "831492639", "name": "COLUMBIA FRIENDS OF THE ELECTRIC TRAIL", "city": "VALATIE", "state": "NY", "zip": "12184-0011", "ntee": "N30", "ruling": "201810", "deductibility": "1", "assets": 0, "income": 0, "revenue": 0}, {"ein": "873447082", "name": "ELECTRIC VEHICLE RESCUE INC", "city": "DEER PARK", "state": "NY", "zip": "11729-2807", "ntee": "M42", "ruling": "202305", "deductibility": "1", "assets": 0, "income": 0, "revenue": 0}, {"ein": "931971038", "name": "GOOD ENERGY ELECTRIC COOPERATIVE INC", "city": "BUFFALO", "state": "NY", "zip": "14213-1200", "ntee": "S99", "ruling": "202401", "deductibility": "2", "assets": 60000, "income": 3000, "revenue": 3000}, {"ein": "932182757", "name": "ELECTRIC EELS", "city": "DELANSON", "state": "NY", "zip": "12053-2167", "ntee": "N67", "ruling": "202307", "deductibility": "1", "assets": 0, "income": 0, "revenue": 0}], "CONSTANTIN": [{"ein": "112389135", "name": "GREEK EVANGELICAL CHURCH C O REV CONSTANTIN KOUNADIS", "city": "ASTORIA", "state": "NY", "zip": "11105-1431", "ntee": "", "ruling": "197701", "deductibility": "1", "assets": 0, "income": 0, "revenue": 0}], "BAUTISTA": [{"ein": "112464392", "name": "IGLESIA BAUTISTA CANAAN", "city": "CORONA", "state": "NY", "zip": "11368-2314", "ntee": "X21", "ruling": "200306", "deductibility": "1", "assets": 0, "income": 0, "revenue": 0}, {"ein": "112916138", "name": "IGLESIA BAUTISTA DE EL VALLE", "city": "BRENTWOOD", "state": "NY", "zip": "11717-3409", "ntee": "X99Z", "ruling": "199708", "deductibility": "1", "assets": 125264, "income": 41795, "revenue": 41795}, {"ein": "113322845", "name": "IGLESIA BAUTISTA FARO DE LUZ CBS INC", "city": "JAMAICA", "state": "NY", "zip": "11435-3613", "ntee": "X99", "ruling": "202501", "deductibility": "1", "assets": 0, "income": 0, "revenue": 0}, {"ein": "113363273", "name": "IGLESIA BAUTISTA FUNDAMENTAL DE BAY SHORE INC", "city": "BAYSHORE", "state": "NY", "zip": "11706-3002", "ntee": "", "ruling": "199701", "deductibility": "0", "assets": 0, "income": 0, "revenue": 0}, {"ein": "113380936", "name": "IGLESIA BAUTISTA DE LAS AMERICAS LTD", "city": "QUEENS VLG", "state": "NY", "zip": "11427-1031", "ntee": "X20", "ruling": "200104", "deductibility": "1", "assets": 0, "income": 0, "revenue": 0}, {"ein": "133058897", "name": "IGLESIA BAUTISTA CRISTIANA DE SOUNDVIEW", "city": "BRONX", "state": "NY", "zip": "10460-3901", "ntee": "", "ruling": "195504", "deductibility": "1", "assets": 0, "income": 0, "revenue": 0}, {"ein": "133520811", "name": "LA PRIMERA IGLESIA BAUTISTA HISPANA DE MANHATTAN S B C", "city": "NEW YORK", "state": "NY", "zip": "10033-0000", "ntee": "X20", "ruling": "201708", "deductibility": "1", "assets": 23913, "income": 714403, "revenue": 714403}, {"ein": "133554437", "name": "IGLESIA EVANGELICA BAUTISTA DEL BRONX", "city": "BRONX", "state": "NY", "zip": "10457-8702", "ntee": "", "ruling": "198505", "deductibility": "1", "assets": 0, "income": 0, "revenue": 0}, {"ein": "133804546", "name": "IGLESIA BAUTISTA DE WASHINGTON HEIGHTS INC", "city": "NEW YORK", "state": "NY", "zip": "10033-0000", "ntee": "", "ruling": "195504", "deductibility": "1", "assets": 0, "income": 0, "revenue": 0}, {"ein": "134146834", "name": "IGLESIA BAUTISTA MONTE CALVARIO", "city": "POMONA", "state": "NY", "zip": "10970-3303", "ntee": "X20", "ruling": "201505", "deductibility": "1", "assets": 1155800, "income": 618262, "revenue": 618262}, {"ein": "202099891", "name": "IGLESIA BAUTISTA LUZ DE LAS NACIONES INC", "city": "PATCHOGUE", "state": "NY", "zip": "11772-2006", "ntee": "X20", "ruling": "200606", "deductibility": "1", "assets": 0, "income": 0, "revenue": 0}, {"ein": "260362732", "name": "IGLESIA EVANGELICA BAUTISTA INC", "city": "NEW YORK", "state": "NY", "zip": "10009-5333", "ntee": "X20", "ruling": "202410", "deductibility": "1", "assets": 0, "income": 0, "revenue": 0}, {"ein": "300127305", "name": "IGLESIA BAUTISTA HISPANA BET EL", "city": "QUEENS VLG", "state": "NY", "zip": "11428-1837", "ntee": "X20", "ruling": "200411", "deductibility": "1", "assets": 0, "income": 0, "revenue": 0}, {"ein": "352625441", "name": "PRIMERA IGLESIA BAUTISTA", "city": "NEW YORK", "state": "NY", "zip": "10029-1401", "ntee": "", "ruling": "195504", "deductibility": "1", "assets": 0, "income": 0, "revenue": 0}, {"ein": "371440825", "name": "PRIMERA IGLESIA BAUTISTA DE LA COMUNIDAD", "city": "ELMHURST", "state": "NY", "zip": "11373-4027", "ntee": "X20", "ruling": "201804", "deductibility": "1", "assets": 0, "income": 0, "revenue": 0}, {"ein": "452744848", "name": "IGLESIA BAUTISTA ALIANZA CHRISTIANA", "city": "S RICHMOND HL", "state": "NY", "zip": "11419-1728", "ntee": "X21", "ruling": "201201", "deductibility": "1", "assets": 0, "income": 0, "revenue": 0}, {"ein": "454563306", "name": "IGLESIA BAUTISTA LA VID CORP", "city": "WEST HEMPSTEAD", "state": "NY", "zip": "11552-0000", "ntee": "X20", "ruling": "201309", "deductibility": "1", "assets": 14483, "income": 204876, "revenue": 204876}, {"ein": "475168355", "name": "PRIMERA IGLESIA BAUTISTA BUENAS NUEVAS DE SALVACION CORP", "city": "UNIONDALE", "state": "NY", "zip": "11553-1715", "ntee": "X20", "ruling": "202210", "deductibility": "1", "assets": 0, "income": 0, "revenue": 0}, {"ein": "562330519", "name": "PRIMERA IGLESIA BAUTISTA HISPANA DE FLUSHING QUEENS", "city": "FLUSHING", "state": "NY", "zip": "11385-1884", "ntee": "X21", "ruling": "195504", "deductibility": "1", "assets": 0, "income": 0, "revenue": 0}, {"ein": "580524380", "name": "IGLESIA BAUTISTA LA PALABRA", "city": "CORONA", "state": "NY", "zip": "11368-1584", "ntee": "X20", "ruling": "201503", "deductibility": "1", "assets": 0, "income": 0, "revenue": 0}, {"ein": "814591644", "name": "IGLESIA BAUTISTA MISIONERA RESURRECCION INC", "city": "INWOOD", "state": "NY", "zip": "11096-1221", "ntee": "X21", "ruling": "201707", "deductibility": "1", "assets": 0, "income": 0, "revenue": 0}, {"ein": "814729044", "name": "IGLESIA BIBLICA BAUTISTA CORP", "city": "W HEMPSTEAD", "state": "NY", "zip": "11552-1455", "ntee": "X20", "ruling": "202207", "deductibility": "1", "assets": 0, "income": 0, "revenue": 0}, {"ein": "820599344", "name": "2ND IGLESIA BAUTISTA MONTE CALVARO", "city": "NANUET", "state": "NY", "zip": "10954-5234", "ntee": "X20", "ruling": "201710", "deductibility": "1", "assets": 0, "income": 0, "revenue": 0}, {"ein": "853252316", "name": "IGLESIA BAUTISTA DE WASHINGTON HEIGHTS INC", "city": "NEW YORK", "state": "NY", "zip": "10033-4211", "ntee": "", "ruling": "195504", "deductibility": "0", "assets": 0, "income": 0, "revenue": 0}, {"ein": "862835413", "name": "IGLESIA EVANGELICA BAUTISTA KICHWA PIEDRA VIVA", "city": "BRONX", "state": "NY", "zip": "10459-2306", "ntee": "X99", "ruling": "202403", "deductibility": "1", "assets": 0, "income": 0, "revenue": 0}, {"ein": "870938730", "name": "IGLESIA BAUTISTA MISIONERA DE HEMPSTEAD INC", "city": "HEMPSTEAD", "state": "NY", "zip": "11550-3236", "ntee": "X21", "ruling": "202301", "deductibility": "1", "assets": 0, "income": 0, "revenue": 0}, {"ein": "881295259", "name": "IGLESIA BAUTISTA FUNDAMENTAL DE", "city": "HUNTINGTON", "state": "NY", "zip": "11746-0000", "ntee": "X20", "ruling": "202507", "deductibility": "1", "assets": 0, "income": 0, "revenue": 0}, {"ein": "931533543", "name": "IGLESIA BAUTISTA CRISTO REY", "city": "CHESTER", "state": "NY", "zip": "10918-1327", "ntee": "X20", "ruling": "202501", "deductibility": "1", "assets": 0, "income": 0, "revenue": 0}, {"ein": "932699243", "name": "PRIMERA IGLESIA BAUTISTA DEL BRONX", "city": "BRONX", "state": "NY", "zip": "10455-0000", "ntee": "", "ruling": "195504", "deductibility": "1", "assets": 0, "income": 0, "revenue": 0}, {"ein": "990499505", "name": "IGLESIA BAUTISTA NAZARETH DE MIDDLE TOWN INC", "city": "NEW CITY", "state": "NY", "zip": "10956-4428", "ntee": "", "ruling": "197204", "deductibility": "0", "assets": 0, "income": 0, "revenue": 0}], "TEFILOH": [{"ein": "112559801", "name": "CONGREGATION SHAARI TEFILOH OF KINGS HIGHWAY", "city": "BROOKLYN", "state": "NY", "zip": "11235-2022", "ntee": "", "ruling": "199209", "deductibility": "1", "assets": 0, "income": 0, "revenue": 0}, {"ein": "113383465", "name": "CONGREGATION TEFILOH Y LDOVID", "city": "BROOKLYN", "state": "NY", "zip": "11204-1845", "ntee": "X30Z", "ruling": "199801", "deductibility": "1", "assets": 0, "income": 0, "revenue": 0}], "VEREIN": [{"ein": "112562538", "name": "PLATTDUETSCHE VOLKSFEST VEREIN", "city": "FRANKLIN SQ", "state": "NY", "zip": "11010-1535", "ntee": "A200", "ruling": "199311", "deductibility": "1", "assets": 2634072, "income": 301034, "revenue": 114484}, {"ein": "116014288", "name": "FOHRER UND AMRUMER KRANKEN UNTERSTUTZUNGS VEREIN VON NY", "city": "ROCKY POINT", "state": "NY", "zip": "11778-9585", "ntee": "", "ruling": "194806", "deductibility": "2", "assets": 0, "income": 0, "revenue": 0}, {"ein": "131611584", "name": "DEUTSCHER VEREIN", "city": "NEW YORK", "state": "NY", "zip": "10163-3524", "ntee": "", "ruling": "193912", "deductibility": "2", "assets": 228, "income": 4, "revenue": 4}, {"ein": "131656619", "name": "KATHOLISCHER GESELLEN VEREIN", "city": "NEW YORK", "state": "NY", "zip": "10128-2241", "ntee": "P800", "ruling": "000000", "deductibility": "1", "assets": 0, "income": 0, "revenue": 0}, {"ein": "161215970", "name": "SCHUHPLATTLER GEBIRGSTRACHTEN VEREIN EDELWEISS INCORPORATED", "city": "WEST SENECA", "state": "NY", "zip": "14224-3202", "ntee": "A800", "ruling": "200203", "deductibility": "1", "assets": 180932, "income": 60158, "revenue": 60158}, {"ein": "166051878", "name": "ROCHESTER TOURISTEN VEREIN INC", "city": "LIMA", "state": "NY", "zip": "14485-9615", "ntee": "N50", "ruling": "201103", "deductibility": "2", "assets": 210502, "income": 92091, "revenue": 11440}, {"ein": "465481658", "name": "DEUTSCH GOTTSCHEER GESANG VEREIN", "city": "RIDGEWOOD", "state": "NY", "zip": "11385-2447", "ntee": "A6B", "ruling": "201505", "deductibility": "1", "assets": 0, "income": 0, "revenue": 0}], "KOSEOGLU": [{"ein": "112569471", "name": "OMER KOSEOGLU", "city": "BROOKLYN", "state": "NY", "zip": "11207-1838", "ntee": "", "ruling": "198208", "deductibility": "1", "assets": 0, "income": 0, "revenue": 0}], "OBERON": [{"ein": "112620682", "name": "OBERON FOUNDATION INC", "city": "SAINT JAMES", "state": "NY", "zip": "11780-0114", "ntee": "A60", "ruling": "202501", "deductibility": "1", "assets": 0, "income": 0, "revenue": 0}, {"ein": "112938381", "name": "THE OBERON THEATRE ENSEMBLE INC", "city": "NEW YORK", "state": "NY", "zip": "10040-3852", "ntee": "A6C", "ruling": "201212", "deductibility": "1", "assets": 0, "income": 0, "revenue": 0}], "CPCU": [{"ein": "112653639", "name": "LONG ISLAND CPCU SOCIETY CHAPTER INC", "city": "NEW YORK", "state": "NY", "zip": "10013-2614", "ntee": "S41", "ruling": "199912", "deductibility": "2", "assets": 0, "income": 0, "revenue": 0}, {"ein": "166052443", "name": "BUFFALO CPCU SOCIETY CHAPTER INC", "city": "BATAVIA", "state": "NY", "zip": "14020-2227", "ntee": "", "ruling": "195608", "deductibility": "2", "assets": 0, "income": 0, "revenue": 0}, {"ein": "462696714", "name": "NORTHEASTERN NEW YORK CPCU SOCIETY CHAPTER INC", "city": "ALBANY", "state": "NY", "zip": "12212-4793", "ntee": "S41", "ruling": "201405", "deductibility": "2", "assets": 0, "income": 0, "revenue": 0}], "YOCHANAN": [{"ein": "112743114", "name": "MESIVTA D RABBI YOCHANAN", "city": "BROOKLYN", "state": "NY", "zip": "11219-0430", "ntee": "", "ruling": "198511", "deductibility": "1", "assets": 0, "income": 0, "revenue": 0}, {"ein": "112862594", "name": "MESIVTA OF RABBI YOCHANAN", "city": "BROOKLYN", "state": "NY", "zip": "11219-0430", "ntee": "", "ruling": "198706", "deductibility": "1", "assets": 111, "income": 1, "revenue": 0}, {"ein": "133139104", "name": "CONGREGATION ZICHRON YOCHANAN INC", "city": "SPRING VALLEY", "state": "NY", "zip": "10977-1908", "ntee": "", "ruling": "198308", "deductibility": "1", "assets": 0, "income": 0, "revenue": 0}, {"ein": "134216117", "name": "BIRKAT YOCHANAN CONGREGATION INC", "city": "FLUSHING", "state": "NY", "zip": "11367-1734", "ntee": "X30", "ruling": "200302", "deductibility": "1", "assets": 0, "income": 0, "revenue": 0}, {"ein": "412105178", "name": "CONGREGATION YAACOV YOCHANAN INC", "city": "NEW HEMPSTEAD", "state": "NY", "zip": "10977-1420", "ntee": "X30", "ruling": "200402", "deductibility": "1", "assets": 0, "income": 0, "revenue": 0}, {"ein": "562325311", "name": "TALMUD TORAH OHEL YOCHANAN", "city": "BROOKLYN", "state": "NY", "zip": "11218-3611", "ntee": "X30", "ruling": "200306", "deductibility": "1", "assets": 0, "income": 0, "revenue": 0}], "KILLS": [{"ein": "112806214", "name": "DUTCH KILLS CIVIC ASSOCIATION INC", "city": "LONG IS CITY", "state": "NY", "zip": "11101-2603", "ntee": "", "ruling": "198802", "deductibility": "1", "assets": 0, "income": 0, "revenue": 0}, {"ein": "131948345", "name": "GREAT KILLS SWIM CLUB INC", "city": "STATEN ISLAND", "state": "NY", "zip": "10308-2105", "ntee": "N67Z", "ruling": "196210", "deductibility": "2", "assets": 1315805, "income": 713955, "revenue": 708078}, {"ein": "135642481", "name": "GREAT KILLS YACHT CLUB INC", "city": "STATEN ISLAND", "state": "NY", "zip": "10308-3522", "ntee": "", "ruling": "199107", "deductibility": "2", "assets": 714767, "income": 445042, "revenue": 325237}, {"ein": "334636733", "name": "DUTCH KILLS FOUNDATION INC", "city": "LONG IS CITY", "state": "NY", "zip": "11101-2274", "ntee": "A20", "ruling": "202506", "deductibility": "1", "assets": 0, "income": 0, "revenue": 0}, {"ein": "383702321", "name": "GREAT KILLS SOCCER CLUB", "city": "STATEN ISLAND", "state": "NY", "zip": "10312-0000", "ntee": "N64", "ruling": "200906", "deductibility": "1", "assets": 114247, "income": 80974, "revenue": 80974}, {"ein": "510228312", "name": "GREAT KILLS GOSPEL CHAPEL", "city": "STATEN ISLAND", "state": "NY", "zip": "10312-5602", "ntee": "", "ruling": "195511", "deductibility": "1", "assets": 0, "income": 0, "revenue": 0}, {"ein": "510243731", "name": "GREAT KILLS MORAVIAN CHURCH", "city": "STATEN ISLAND", "state": "NY", "zip": "10308-0000", "ntee": "", "ruling": "196503", "deductibility": "1", "assets": 0, "income": 0, "revenue": 0}, {"ein": "834161786", "name": "DUTCH KILLS CSA INC", "city": "LONG IS CITY", "state": "NY", "zip": "11101-1280", "ntee": "K99", "ruling": "201907", "deductibility": "1", "assets": 22191, "income": 89999, "revenue": 7518}], "HATZOIN": [{"ein": "112835063", "name": "BEIS CHINUCH LEBONOS BE IKVEI HATZOIN", "city": "BROOKLYN", "state": "NY", "zip": "11249-6615", "ntee": "", "ruling": "198705", "deductibility": "1", "assets": 0, "income": 0, "revenue": 0}], "MELVIN": [{"ein": "112842809", "name": "THE MELVIN STECHER AND NORMAN HOROWITZ FOUNDATION INC", "city": "NEW YORK", "state": "NY", "zip": "10022-2537", "ntee": "", "ruling": "198704", "deductibility": "1", "assets": 21443, "income": 10000, "revenue": 0}, {"ein": "136162759", "name": "CAROL AND MELVIN NEWMAN FAMILY", "city": "NEW YORK", "state": "NY", "zip": "10023-0000", "ntee": "", "ruling": "195511", "deductibility": "1", "assets": 1145592, "income": 290648, "revenue": 0}, {"ein": "141269329", "name": "MELVIN ROADS POST NO 1231 AMERICAN LEGION INC", "city": "RENSSELAER", "state": "NY", "zip": "12144-4001", "ntee": "", "ruling": "202301", "deductibility": "1", "assets": 248064, "income": 816141, "revenue": 129327}, {"ein": "156025276", "name": "CRANDALL MELVIN CHAIR FOR WILLS & TRUSTS", "city": "BUFFALO", "state": "NY", "zip": "14240-1504", "ntee": "", "ruling": "196403", "deductibility": "1", "assets": 1196398, "income": 359317, "revenue": 97304}, {"ein": "161100823", "name": "GOSPEL LIGHT TABERNACLE C O ICYLEAN MELVIN", "city": "BUFFALO", "state": "NY", "zip": "14214-1185", "ntee": "", "ruling": "197806", "deductibility": "1", "assets": 0, "income": 0, "revenue": 0}, {"ein": "256373763", "name": "MELVIN H & THELMA N JENKINS SCHOLARSHIP TRUST 09-10-91 FBO", "city": "BUFFALO", "state": "NY", "zip": "14240-1504", "ntee": "", "ruling": "199204", "deductibility": "1", "assets": 832833, "income": 187249, "revenue": 0}], "KOBEL": [{"ein": "112874472", "name": "YESHIVA AND KOBEL DBNEI YISUCHER BER", "city": "BROOKLYN", "state": "NY", "zip": "11211-6753", "ntee": "", "ruling": "198803", "deductibility": "1", "assets": 0, "income": 0, "revenue": 0}], "SCULPT": [{"ein": "112956621", "name": "BODY SCULPT OF NEW YORK INC", "city": "BROOKLYN", "state": "NY", "zip": "11210-1336", "ntee": "N11", "ruling": "199406", "deductibility": "1", "assets": 10330, "income": 8000, "revenue": 8000}], "ZITWER": [{"ein": "113053637", "name": "EUGENE ZITWER FOUNDATION INC", "city": "BROOKLYN", "state": "NY", "zip": "11201-4831", "ntee": "Z99Z", "ruling": "199107", "deductibility": "1", "assets": 7256, "income": 17305, "revenue": 17305}], "PHEBES": [{"ein": "113318854", "name": "PHEBES WORLD MINISTRY INC", "city": "CENTRAL ISLIP", "state": "NY", "zip": "11722-2619", "ntee": "X20Z", "ruling": "199701", "deductibility": "1", "assets": 0, "income": 0, "revenue": 0}], "MUNKATCH": [{"ein": "113342049", "name": "CONG MINCHAS ELUZER D MUNKATCH", "city": "BROOKLYN", "state": "NY", "zip": "11219-0892", "ntee": "X30Z", "ruling": "199611", "deductibility": "1", "assets": 0, "income": 0, "revenue": 0}], "BLOOMBERG": [{"ein": "113350909", "name": "JEROME AND SONDRA BLOOMBERG FAMILY FOUNDATION INC", "city": "PLAINVIEW", "state": "NY", "zip": "11803-2300", "ntee": "T31J", "ruling": "199701", "deductibility": "1", "assets": 365165, "income": 20193, "revenue": 0}, {"ein": "137151342", "name": "THE EMMA AND GEORGINA BLOOMBERG FOUNDATION", "city": "NEW YORK", "state": "NY", "zip": "10150-1510", "ntee": "T20", "ruling": "199902", "deductibility": "1", "assets": 26262240, "income": 2815046, "revenue": 0}, {"ein": "205602483", "name": "BLOOMBERG FAMILY FOUNDATION INC", "city": "NEW YORK", "state": "NY", "zip": "10150-0000", "ntee": "T20", "ruling": "200806", "deductibility": "1", "assets": 11808358665, "income": 1178341182, "revenue": 0}], "EIHAB": [{"ein": "113376415", "name": "EIHAB HUMAN SERVICES INC", "city": "JAMAICA", "state": "NY", "zip": "11434-4806", "ntee": "P80", "ruling": "199803", "deductibility": "1", "assets": 51172635, "income": 31833054, "revenue": 31833054}, {"ein": "371660097", "name": "EIHAB HUMAN SERVICES NEW JERSEY INC", "city": "JAMAICA", "state": "NY", "zip": "11434-4806", "ntee": "L20", "ruling": "201205", "deductibility": "1", "assets": 15274517, "income": 35824897, "revenue": 35824897}, {"ein": "473293921", "name": "EIHAB HOLDING CORPORATION INC", "city": "SPRINGFIELD GARDENS", "state": "NY", "zip": "11434-4806", "ntee": "S47", "ruling": "201506", "deductibility": "2", "assets": 6689307, "income": 602729, "revenue": 585490}, {"ein": "510638022", "name": "EIHAB HUMAN SERVICES PENNSYLVANIA INC", "city": "JAMAICA", "state": "NY", "zip": "11434-4806", "ntee": "P20", "ruling": "201801", "deductibility": "1", "assets": 1377208, "income": 4852203, "revenue": 4852203}], "RISIN": [{"ein": "113393874", "name": "PENTECOSTAL CHURCH CHRIST IS RISIN INC", "city": "BROOKLYN", "state": "NY", "zip": "11225-5013", "ntee": "X20Z", "ruling": "199802", "deductibility": "1", "assets": 0, "income": 0, "revenue": 0}], "CONCRETE": [{"ein": "113443290", "name": "CEMENT AND CONCRETE WORKERS TRAINING AND APPRETICESHIP FUND", "city": "ASTORIA", "state": "NY", "zip": "11106-3041", "ntee": "T30", "ruling": "201709", "deductibility": "1", "assets": 8253325, "income": 6550003, "revenue": 1919826}, {"ein": "131797448", "name": "CONCRETE INDUSTRY BOARD INC", "city": "KEW GARDENS", "state": "NY", "zip": "11415-1106", "ntee": "S41Z", "ruling": "200902", "deductibility": "2", "assets": 1920236, "income": 667493, "revenue": 488205}, {"ein": "132630325", "name": "NEW YORK CONCRETE CONSTRUCTION INSTITUTE INC", "city": "NEW YORK", "state": "NY", "zip": "10036-4603", "ntee": "", "ruling": "196906", "deductibility": "2", "assets": 10169, "income": 0, "revenue": 0}, {"ein": "132894682", "name": "NEW YORK CITY READY MIXED CONCRETE INDUSTRY ADVANCEMENT FUND", "city": "HUNTINGTON", "state": "NY", "zip": "11743-2060", "ntee": "", "ruling": "199405", "deductibility": "2", "assets": 1535107, "income": 1421538, "revenue": 137413}, {"ein": "133707563", "name": "CONCRETE INDUSTRY FOUNDATION INC", "city": "MINEOLA", "state": "NY", "zip": "11501-3504", "ntee": "B82Z", "ruling": "199312", "deductibility": "1", "assets": 845747, "income": 45329, "revenue": 45329}, {"ein": "134149071", "name": "MASONRY & CONCRETE CONTRACTORS OF THE HUDSON VALLEY INC", "city": "TARRYTOWN", "state": "NY", "zip": "10591-5027", "ntee": "Y03", "ruling": "200201", "deductibility": "2", "assets": 41578, "income": 34866, "revenue": 34866}, {"ein": "135542693", "name": "CEMENT & CONCRETE WORKERS DISTRICT COUNCIL WELFARE FUND", "city": "BAYSIDE", "state": "NY", "zip": "11361-2950", "ntee": "J40Z", "ruling": "196211", "deductibility": "2", "assets": 80647433, "income": 52538057, "revenue": 25905933}, {"ein": "141466460", "name": "NEW YORK STATE CONCRETE PIPE ASSOCIATION INC", "city": "CALVERTON", "state": "NY", "zip": "11933-1374", "ntee": "", "ruling": "196204", "deductibility": "2", "assets": 0, "income": 0, "revenue": 0}, {"ein": "141683305", "name": "PRECAST CONCRETE ASSOCIATION OF NEW YORK INC", "city": "BINGHAMTON", "state": "NY", "zip": "13904-1746", "ntee": "S41Z", "ruling": "199407", "deductibility": "2", "assets": 83553, "income": 53242, "revenue": 53242}, {"ein": "160973447", "name": "NEW YORK STATE CONCRETE MASONRY ASSOCIATION", "city": "ONEONTA", "state": "NY", "zip": "13820-6542", "ntee": "", "ruling": "197007", "deductibility": "2", "assets": 490825, "income": 219714, "revenue": 206050}, {"ein": "204028748", "name": "AMERICAN CONCRETE PAVEMENTASSOCIATION OF NEW YORK STATE INC", "city": "EAST SCHODACK", "state": "NY", "zip": "12063-0042", "ntee": "S41", "ruling": "200703", "deductibility": "2", "assets": 203314, "income": 458268, "revenue": 458268}, {"ein": "204976317", "name": "CONCRETE SAFARIS INC", "city": "NEW YORK", "state": "NY", "zip": "10029-2025", "ntee": "O50", "ruling": "200610", "deductibility": "1", "assets": 277145, "income": 893190, "revenue": 870210}, {"ein": "237033171", "name": "ASSOCIATION OF CONCRETE CONTRACTORS OF LONG ISLAND INC", "city": "COMMACK", "state": "NY", "zip": "11725-2810", "ntee": "", "ruling": "196908", "deductibility": "2", "assets": 53003, "income": 44706, "revenue": 44706}, {"ein": "237398254", "name": "ASSOCIATION OF NEW YORK CITY CONCRETE PRODUCERS INC", "city": "HUNTINGTON", "state": "NY", "zip": "11743-2060", "ntee": "", "ruling": "202207", "deductibility": "2", "assets": 1, "income": 44228, "revenue": 44228}, {"ein": "263023120", "name": "AMERICAN CONCRETE INSTITUTE OF CENTRAL NEW YORK", "city": "EAST SYRACUSE", "state": "NY", "zip": "13057-1000", "ntee": "S41", "ruling": "200902", "deductibility": "2", "assets": 0, "income": 0, "revenue": 0}, {"ein": "306082178", "name": "CEMENT AND CONCRETE WORKERS SCHOLARSHIP FUND", "city": "BAYSIDE", "state": "NY", "zip": "11361-2950", "ntee": "B82", "ruling": "200412", "deductibility": "1", "assets": 2466942, "income": 1621048, "revenue": 306205}, {"ein": "332676473", "name": "CONCRETE ROSES FOUNDATION INC", "city": "BROOKLYN", "state": "NY", "zip": "11203-3410", "ntee": "O50", "ruling": "202501", "deductibility": "1", "assets": 0, "income": 0, "revenue": 0}, {"ein": "463590647", "name": "CONCRETE TIMBRE INC", "city": "NEW YORK", "state": "NY", "zip": "10011-0012", "ntee": "T30", "ruling": "201509", "deductibility": "1", "assets": 0, "income": 0, "revenue": 0}, {"ein": "510186133", "name": "CONCRETE INDUSTRY PROMOTIONAL FUND", "city": "COMMACK", "state": "NY", "zip": "11725-2810", "ntee": "", "ruling": "197603", "deductibility": "2", "assets": 476031, "income": 129715, "revenue": 129715}, {"ein": "510553867", "name": "CONCRETE TEMPLE THEATRE", "city": "NEW YORK", "state": "NY", "zip": "10003-4119", "ntee": "A65", "ruling": "200512", "deductibility": "1", "assets": 181633, "income": 193300, "revenue": 193300}, {"ein": "616337806", "name": "CEMENT & CONCRETE WORKERS DISTRICT COUNCIL LABORERS EMPLOYERS COOPERA", "city": "BAYSIDE", "state": "NY", "zip": "11361-2950", "ntee": "J40", "ruling": "200802", "deductibility": "2", "assets": 10477441, "income": 6903838, "revenue": 1242022}, {"ein": "811382377", "name": "DW CONCRETE FOUNDATION INC", "city": "BROOKLYN", "state": "NY", "zip": "11249-6011", "ntee": "X30", "ruling": "201602", "deductibility": "1", "assets": 0, "income": 0, "revenue": 0}, {"ein": "814431359", "name": "A CONCRETE CHRISTIAN FOUNDATION TR", "city": "NEW YORK", "state": "NY", "zip": "10185-5016", "ntee": "T20", "ruling": "201702", "deductibility": "1", "assets": 1591796, "income": 732947, "revenue": 0}, {"ein": "830561890", "name": "CEMENT & CONCRETE WORKERS ORGANIZING FUND", "city": "ASTORIA", "state": "NY", "zip": "11106-3041", "ntee": "J40", "ruling": "201904", "deductibility": "2", "assets": 1619559, "income": 2749004, "revenue": 2268350}, {"ein": "832376524", "name": "PRECAST PRESTRESSED CONCRETE INSTITUTE NORTHEAST", "city": "BALLSTON SPA", "state": "NY", "zip": "12020-2541", "ntee": "S41", "ruling": "202005", "deductibility": "2", "assets": 533360, "income": 436994, "revenue": 436994}, {"ein": "862017470", "name": "FROM CONCRETE TO ROSES CORPORATION", "city": "BROOKLYN", "state": "NY", "zip": "11226-2663", "ntee": "O30", "ruling": "202108", "deductibility": "1", "assets": 0, "income": 0, "revenue": 0}, {"ein": "862730214", "name": "CEMENT & CONCRETE WORKERS PENSION FUND HOLDING CORP", "city": "BAYSIDE", "state": "NY", "zip": "11361-2950", "ntee": "", "ruling": "202206", "deductibility": "0", "assets": 20665955, "income": 748092, "revenue": 748092}, {"ein": "863909734", "name": "100 ROSES FROM CONCRETE INC", "city": "NEW YORK", "state": "NY", "zip": "10040-1508", "ntee": "B90", "ruling": "202201", "deductibility": "1", "assets": 0, "income": 0, "revenue": 0}], "IMA": [{"ein": "113570643", "name": "IMA INC", "city": "ROSLYN HTS", "state": "NY", "zip": "11577-1941", "ntee": "B12", "ruling": "202208", "deductibility": "1", "assets": 1, "income": 1, "revenue": 0}, {"ein": "475370680", "name": "MBOHO IMA NDITO NSIT ATAI NORTH AMERICA INC", "city": "BRONX", "state": "NY", "zip": "10466-2113", "ntee": "P11", "ruling": "201806", "deductibility": "1", "assets": 0, "income": 0, "revenue": 0}, {"ein": "843111006", "name": "SHALOM IMA LTD", "city": "FRESH MEADOWS", "state": "NY", "zip": "11366-1603", "ntee": "X30", "ruling": "201909", "deductibility": "1", "assets": 4348, "income": 6988, "revenue": 6988}], "DIAGNOSTIC": [{"ein": "113570946", "name": "HASC DIAGNOSTIC & TREATMENT CENTER INC", "city": "BROOKLYN", "state": "NY", "zip": "11220-2517", "ntee": "E99", "ruling": "200106", "deductibility": "1", "assets": 15879579, "income": 18980191, "revenue": 16861416}, {"ein": "133631727", "name": "CENTERLIGHT HEALTHCARE DIAGNOSTIC AND TREAMENT CENTER", "city": "FLUSHING", "state": "NY", "zip": "11354-4110", "ntee": "E31Z", "ruling": "199201", "deductibility": "1", "assets": 1747511, "income": 18743734, "revenue": 18743734}, {"ein": "134215186", "name": "VILLAGE DIAGNOSTIC AND TREATMENT CENTER", "city": "NEW YORK", "state": "NY", "zip": "10271-0002", "ntee": "E30", "ruling": "200502", "deductibility": "1", "assets": 0, "income": 0, "revenue": 0}, {"ein": "203529842", "name": "CUMBERLAND DIAGNOSTIC AND TREATMENT CENTER AUXILIARY INC", "city": "BROOKLYN", "state": "NY", "zip": "11205-2005", "ntee": "E112", "ruling": "200608", "deductibility": "1", "assets": 0, "income": 0, "revenue": 0}, {"ein": "311564451", "name": "EAST NEW YORK DIAGNOSTIC & TREATMENT CENTER", "city": "BROOKLYN", "state": "NY", "zip": "11207-3509", "ntee": "E12", "ruling": "201910", "deductibility": "1", "assets": 0, "income": 0, "revenue": 0}, {"ein": "753097539", "name": "ADVANTAGE CARE DIAGNOSTIC AND TREATMENT CENTER INC", "city": "BROOKVILLE", "state": "NY", "zip": "11545-2641", "ntee": "P80", "ruling": "200307", "deductibility": "1", "assets": 10734204, "income": 9215507, "revenue": 8711085}], "AVILA": [{"ein": "113596619", "name": "ST THERESA OF AVILA SENIOR HOUSING DEVELOPMENT FUND CORPORATION", "city": "BROOKLYN", "state": "NY", "zip": "11201-4306", "ntee": "", "ruling": "194603", "deductibility": "1", "assets": 5568550, "income": 1187360, "revenue": 1187360}, {"ein": "141810367", "name": "AVILA INSTITUTE OF GERONTOLOGY INC", "city": "GERMANTOWN", "state": "NY", "zip": "12526-5639", "ntee": "", "ruling": "194603", "deductibility": "1", "assets": 782487, "income": 529953, "revenue": 529953}, {"ein": "454484096", "name": "SAINT TERESA OF AVILA-SAINT ANTHONY OF PADUA ROMAN CATHOLIC CHURCH", "city": "S OZONE PARK", "state": "NY", "zip": "11420-1621", "ntee": "", "ruling": "194603", "deductibility": "1", "assets": 0, "income": 0, "revenue": 0}], "SADDLE": [{"ein": "116037215", "name": "PARENT & TEACHERS INC SADDLE ROCK ASSOCIATION", "city": "GREAT NECK", "state": "NY", "zip": "11023-2022", "ntee": "B94", "ruling": "201803", "deductibility": "1", "assets": 29901, "income": 74710, "revenue": 74710}, {"ein": "141755953", "name": "CAMBRIDGE SADDLE CLUB INC", "city": "CAMBRIDGE", "state": "NY", "zip": "12816-4802", "ntee": "N50", "ruling": "201304", "deductibility": "2", "assets": 0, "income": 0, "revenue": 0}, {"ein": "221989249", "name": "SADDLE RIVER VALLEY SWIM AND TENNIS CLUB INC", "city": "AIRMONT", "state": "NY", "zip": "10952-4814", "ntee": "", "ruling": "198601", "deductibility": "2", "assets": 1061695, "income": 609453, "revenue": 609453}, {"ein": "824183506", "name": "SADDLE ROCK MINYAN", "city": "GREAT NECK", "state": "NY", "zip": "11023-1811", "ntee": "X30", "ruling": "202101", "deductibility": "1", "assets": 0, "income": 0, "revenue": 0}, {"ein": "873710013", "name": "KHAL PUPA SADDLE RIVER", "city": "AIRMONT", "state": "NY", "zip": "10952-4602", "ntee": "X30", "ruling": "202206", "deductibility": "1", "assets": 0, "income": 0, "revenue": 0}, {"ein": "881140450", "name": "BNEI YAAKOV OF SADDLE ROCK", "city": "GREAT NECK", "state": "NY", "zip": "11023-2023", "ntee": "X30", "ruling": "202204", "deductibility": "1", "assets": 0, "income": 0, "revenue": 0}, {"ein": "991622751", "name": "CHABAD OF SADDLE RIDGE INC", "city": "WOODMERE", "state": "NY", "zip": "11598-1543", "ntee": "X30", "ruling": "202502", "deductibility": "1", "assets": 0, "income": 0, "revenue": 0}], "RIVKAH": [{"ein": "116111320", "name": "RIVKAH LAUFER BIKUR CHOLIM", "city": "BROOKLYN", "state": "NY", "zip": "11219-0000", "ntee": "", "ruling": "196805", "deductibility": "1", "assets": 266434, "income": 158446, "revenue": 158446}, {"ein": "205417792", "name": "OHEL RIVKAH FOUNDATION", "city": "WOODMERE", "state": "NY", "zip": "11598-2313", "ntee": "B82", "ruling": "200611", "deductibility": "1", "assets": 4018, "income": 124470, "revenue": 124470}], "15A": [{"ein": "132648599", "name": "LOCAL 15 15A 15D OPERATING ENGINEER APPRENTICESHIP SKILL IMPROVEMENT", "city": "LONG IS CITY", "state": "NY", "zip": "11101-5105", "ntee": "", "ruling": "197012", "deductibility": "1", "assets": 6503600, "income": 8968416, "revenue": 8968416}, {"ein": "133032407", "name": "INTERNATIONAL UNION-OPERATNG ENGNRS LOC15 15A&C MUNI EMPL WELFARE FUND", "city": "LONG IS CITY", "state": "NY", "zip": "11101-5105", "ntee": "", "ruling": "198012", "deductibility": "2", "assets": 4654809, "income": 1558404, "revenue": 615770}, {"ein": "135159024", "name": "INTERNATIONAL UNION OF OPERATING ENGINEERS LOCAL 15 15A 15B 15C 15D", "city": "LONG IS CITY", "state": "NY", "zip": "11101-5105", "ntee": "", "ruling": "194408", "deductibility": "2", "assets": 88276140, "income": 61773382, "revenue": 25631489}], "RESHIT": [{"ein": "133080109", "name": "RESHIT CHOCHMA INC", "city": "BROOKLYN", "state": "NY", "zip": "11223-1939", "ntee": "", "ruling": "198108", "deductibility": "1", "assets": 0, "income": 0, "revenue": 0}], "MENA": [{"ein": "133126531", "name": "COPTIC ORTHODOX CHURCH OF ARCHANGEL MICHAEL AND ST MENA", "city": "STATEN ISLAND", "state": "NY", "zip": "10308-2425", "ntee": "X20", "ruling": "201612", "deductibility": "1", "assets": 0, "income": 0, "revenue": 0}, {"ein": "822193107", "name": "MENA EVANGELICAL CHURCH NYC CORP", "city": "BROOKLYN", "state": "NY", "zip": "11209-6948", "ntee": "", "ruling": "201804", "deductibility": "1", "assets": 0, "income": 0, "revenue": 0}], "EDLOW": [{"ein": "133190911", "name": "THE EDLOW FAMILY FUND INC", "city": "NEW YORK", "state": "NY", "zip": "10028-0966", "ntee": "", "ruling": "198502", "deductibility": "1", "assets": 33065216, "income": 16194200, "revenue": 0}], "TELEPORT": [{"ein": "133300982", "name": "WORLD TELEPORT ASSOCIATION INC", "city": "NEW YORK", "state": "NY", "zip": "10177-0799", "ntee": "", "ruling": "198601", "deductibility": "2", "assets": 376026, "income": 555467, "revenue": 555467}], "CHIO": [{"ein": "133311308", "name": "CHENG CHIO BUDDHIST TEMPLE INC", "city": "NEW YORK", "state": "NY", "zip": "10002-5310", "ntee": "", "ruling": "198607", "deductibility": "1", "assets": 0, "income": 0, "revenue": 0}], "ISSAC": [{"ein": "133385009", "name": "THE MOSHE ISSAC FOUNDATION", "city": "BROOKLYN", "state": "NY", "zip": "11218-0000", "ntee": "", "ruling": "198709", "deductibility": "1", "assets": 15447313, "income": 466219, "revenue": 0}, {"ein": "133694308", "name": "ALTER ISSAC AND CHARLOTTE GROSS IRREVOCABLE CHARITABLE TRUST", "city": "NEW YORK", "state": "NY", "zip": "10022-5707", "ntee": "", "ruling": "199303", "deductibility": "1", "assets": 885646, "income": 331946, "revenue": 0}, {"ein": "832937685", "name": "ISSAC CZIMENT FOUNDATION INC", "city": "SPRING VALLEY", "state": "NY", "zip": "10977-0000", "ntee": "X30", "ruling": "201909", "deductibility": "1", "assets": 1457, "income": 274897, "revenue": 0}], "SAMMON": [{"ein": "133458299", "name": "SAMMON BUILD CENTER HOUSING", "city": "BRONX", "state": "NY", "zip": "10468-0000", "ntee": "L410", "ruling": "199401", "deductibility": "1", "assets": 329131, "income": 2041703, "revenue": 2041703}], "MORTON": [{"ein": "133601794", "name": "MORTON AND CAROLE OLSHAN FOUNDATION", "city": "NEW YORK", "state": "NY", "zip": "10022-1657", "ntee": "", "ruling": "199104", "deductibility": "1", "assets": 480, "income": 230000, "revenue": 0}, {"ein": "136086849", "name": "ESTHER & MORTON WOHLGEMUTH", "city": "BROOKLYN", "state": "NY", "zip": "11215-0000", "ntee": "", "ruling": "196102", "deductibility": "1", "assets": 2427275, "income": 882087, "revenue": 0}, {"ein": "141425035", "name": "MORTON MEMORIAL LIBRARY & COMMUNITY HOUSE", "city": "RHINECLIFF", "state": "NY", "zip": "12574-0157", "ntee": "", "ruling": "201510", "deductibility": "1", "assets": 1553638, "income": 216628, "revenue": 211785}, {"ein": "166037557", "name": "MORTON BAPTIST CHURCH", "city": "HAMLIN", "state": "NY", "zip": "14464-9626", "ntee": "", "ruling": "195504", "deductibility": "1", "assets": 0, "income": 0, "revenue": 0}, {"ein": "222375933", "name": "MORTON MEMORIAL LIBRARY", "city": "PINE HILL", "state": "NY", "zip": "12465-0000", "ntee": "B70", "ruling": "200204", "deductibility": "1", "assets": 59830, "income": 70053, "revenue": 70053}, {"ein": "222495187", "name": "MORTON BAPTIST CHURCH", "city": "HAMLIN", "state": "NY", "zip": "14464-9626", "ntee": "", "ruling": "195504", "deductibility": "1", "assets": 0, "income": 0, "revenue": 0}, {"ein": "223265035", "name": "SARA AND MORTON BRODSKY FAMILY FOUNDATION INC", "city": "ROCHESTER", "state": "NY", "zip": "14604-2626", "ntee": "", "ruling": "199312", "deductibility": "1", "assets": 1420817, "income": 66109, "revenue": 66109}, {"ein": "237011238", "name": "MORTON CIVIC ASSOCIATION INC", "city": "FRANKLIN SQ", "state": "NY", "zip": "11010-3247", "ntee": "P99", "ruling": "201405", "deductibility": "2", "assets": 0, "income": 0, "revenue": 0}, {"ein": "261520186", "name": "LUISE AND MORTON KAISH PRIVATE FAMILY FOUNDATION", "city": "NEW YORK", "state": "NY", "zip": "10024-1647", "ntee": "P58", "ruling": "200907", "deductibility": "1", "assets": 4500, "income": 655, "revenue": 0}, {"ein": "264182025", "name": "SELMA AND MORTON ROTHSTEIN FOUNDATION INC", "city": "MASSAPEQUA", "state": "NY", "zip": "11758-8420", "ntee": "T22", "ruling": "201105", "deductibility": "1", "assets": 3116, "income": 1, "revenue": 0}, {"ein": "362987341", "name": "MORTON NEUMANN FAMILY FOUNDATION", "city": "NEW YORK", "state": "NY", "zip": "10024-5713", "ntee": "", "ruling": "197910", "deductibility": "1", "assets": 47971, "income": 28059, "revenue": 0}, {"ein": "465393243", "name": "MORTON LANE CHARITABLE FOUNDATION", "city": "BUFFALO", "state": "NY", "zip": "14223-2812", "ntee": "T30", "ruling": "201504", "deductibility": "1", "assets": 0, "income": 0, "revenue": 0}, {"ein": "886541290", "name": "MARGARET WILLIS MORTON TEST TR", "city": "NEW YORK", "state": "NY", "zip": "10013-3321", "ntee": "A20", "ruling": "202212", "deductibility": "1", "assets": 3201815, "income": 145283, "revenue": 0}], "LOFT": [{"ein": "133603559", "name": "LOFT THE LESBIAN AND GAY COMMUNITY SERVICES CENTER INC", "city": "WHITE PLAINS", "state": "NY", "zip": "10605-2103", "ntee": "P28Z", "ruling": "199312", "deductibility": "1", "assets": 633852, "income": 1295449, "revenue": 1172497}, {"ein": "262368260", "name": "CONGREGATION CHABAD LOFT", "city": "NEW YORK", "state": "NY", "zip": "10003-5976", "ntee": "X30", "ruling": "200906", "deductibility": "1", "assets": 0, "income": 0, "revenue": 0}, {"ein": "275274756", "name": "ART LOFT OF PORT WASHINGTON", "city": "PRT WASHINGTN", "state": "NY", "zip": "11050-3549", "ntee": "B90", "ruling": "201401", "deductibility": "1", "assets": 0, "income": 0, "revenue": 0}, {"ein": "471270752", "name": "LOFT PRACTICE ORGANIZATION INC", "city": "NEW YORK", "state": "NY", "zip": "10002-6082", "ntee": "A20", "ruling": "201407", "deductibility": "1", "assets": 0, "income": 0, "revenue": 0}, {"ein": "472447200", "name": "THE JAZZ LOFT INC", "city": "STONY BROOK", "state": "NY", "zip": "11790-1228", "ntee": "A68", "ruling": "201709", "deductibility": "1", "assets": 867659, "income": 958982, "revenue": 924910}, {"ein": "831015208", "name": "LEARNING LOFT FOUNDATION INC", "city": "NEW HYDE PARK", "state": "NY", "zip": "11040-4846", "ntee": "B21", "ruling": "201911", "deductibility": "1", "assets": 104208, "income": 958824, "revenue": 958824}], "ADJUSTMENT": [{"ein": "133620577", "name": "LIFE ADJUSTMENT CENTER INC", "city": "NEW YORK", "state": "NY", "zip": "10018-9221", "ntee": "B28Z", "ruling": "199103", "deductibility": "1", "assets": 9365741, "income": 11767017, "revenue": 11767017}], "ROUTE": [{"ein": "133688121", "name": "THE ROUTE TO ROOTS CORPORATION", "city": "GREAT NECK", "state": "NY", "zip": "11021-4704", "ntee": "T70", "ruling": "199212", "deductibility": "1", "assets": 13253, "income": 139296, "revenue": 139296}, {"ein": "161573237", "name": "ROUTE 20 ASSOCIATION OF NEW YORK STATE", "city": "RICHFLD SPGS", "state": "NY", "zip": "13439-0020", "ntee": "S20", "ruling": "201010", "deductibility": "1", "assets": 0, "income": 0, "revenue": 0}, {"ein": "823140023", "name": "RURAL ROUTE FILMS", "city": "ASTORIA", "state": "NY", "zip": "11103-0462", "ntee": "A31", "ruling": "201805", "deductibility": "1", "assets": 0, "income": 0, "revenue": 0}, {"ein": "854101885", "name": "ROUTE 20 CNY COMMUNITY GROUP INC", "city": "MARIETTA", "state": "NY", "zip": "13110-9776", "ntee": "T50", "ruling": "202110", "deductibility": "1", "assets": 0, "income": 0, "revenue": 0}, {"ein": "862048290", "name": "STAR ROUTE INC", "city": "GROVELAND", "state": "NY", "zip": "14462-9705", "ntee": "O50", "ruling": "202205", "deductibility": "1", "assets": 0, "income": 0, "revenue": 0}, {"ein": "934300349", "name": "WASHINGTON ROCHAMBEAU REVOLUTIONARY ROUTE NEW YORK", "city": "YORKTOWN HTS", "state": "NY", "zip": "10598-5815", "ntee": "S20", "ruling": "202312", "deductibility": "1", "assets": 0, "income": 0, "revenue": 0}, {"ein": "995022733", "name": "ROUTE 20 SOFTBALL", "city": "RICHFIELD SPRINGS", "state": "NY", "zip": "13439-0000", "ntee": "N63", "ruling": "202505", "deductibility": "1", "assets": 0, "income": 0, "revenue": 0}], "CHAKRASAMBARA": [{"ein": "133755672", "name": "CHAKRASAMBARA KADAMPA MEDITATION CENTER", "city": "NEW YORK", "state": "NY", "zip": "10011-1914", "ntee": "X50Z", "ruling": "199506", "deductibility": "1", "assets": 0, "income": 0, "revenue": 0}], "CANDACE": [{"ein": "133797919", "name": "CANDACE KING WEIR FOUNDATION", "city": "ALBANY", "state": "NY", "zip": "12207-0000", "ntee": "", "ruling": "199412", "deductibility": "1", "assets": 68322944, "income": 36588431, "revenue": 0}], "WHOOPEE": [{"ein": "133846336", "name": "PROJECT WHOOPEE A N E H INC", "city": "BRONX", "state": "NY", "zip": "10458-0708", "ntee": "T70Z", "ruling": "199807", "deductibility": "1", "assets": 28, "income": 17450, "revenue": 17450}], "NOSTER": [{"ein": "133936959", "name": "AGNUS NOSTER FOUNDATION", "city": "FLUSHING", "state": "NY", "zip": "11354-2304", "ntee": "T20", "ruling": "199707", "deductibility": "1", "assets": 2313549, "income": 487352, "revenue": 0}], "AYE": [{"ein": "133946087", "name": "AYE", "city": "NEW ROCHELLE", "state": "NY", "zip": "10801-3702", "ntee": "X99Z", "ruling": "199805", "deductibility": "1", "assets": 0, "income": 0, "revenue": 0}, {"ein": "933649125", "name": "IFA OTITO ILE AYE INC", "city": "FAR ROCKAWAY", "state": "NY", "zip": "11691-2308", "ntee": "A20", "ruling": "202403", "deductibility": "1", "assets": 0, "income": 0, "revenue": 0}], "SHINKYO": [{"ein": "134017762", "name": "KYUSEI SHINKYO OF AMERICA", "city": "NEW YORK", "state": "NY", "zip": "10016-0109", "ntee": "X99", "ruling": "199901", "deductibility": "1", "assets": 0, "income": 0, "revenue": 0}], "SHIRIN": [{"ein": "134332020", "name": "SHIRIN SHAKIR FOUNDATION", "city": "GLEN OAKS", "state": "NY", "zip": "11004-0179", "ntee": "B82", "ruling": "201409", "deductibility": "1", "assets": 0, "income": 0, "revenue": 0}], "LOMZA": [{"ein": "135602338", "name": "YESHIVAH LOMZA PETACH TIKVAH ISRAEL INC", "city": "BROOKLYN", "state": "NY", "zip": "11230-1017", "ntee": "", "ruling": "195103", "deductibility": "1", "assets": 0, "income": 0, "revenue": 0}, {"ein": "364564986", "name": "CONGREGATION YESHIVAS LOMZA", "city": "BROOKLYN", "state": "NY", "zip": "11204-0177", "ntee": "T113", "ruling": "200509", "deductibility": "1", "assets": 404033, "income": 158094, "revenue": 158094}], "MAILERS": [{"ein": "136094926", "name": "MAILERS-PUBLISHERS WELFARE TRUST FUND", "city": "NEW YORK", "state": "NY", "zip": "10036-5600", "ntee": "", "ruling": "195406", "deductibility": "2", "assets": 2688088, "income": 1248475, "revenue": 1248475}], "LOUCKS": [{"ein": "136132064", "name": "GLENN D LOUCKS MEMORIAL FUND INC", "city": "WHITE PLAINS", "state": "NY", "zip": "10605-4201", "ntee": "", "ruling": "196403", "deductibility": "1", "assets": 0, "income": 0, "revenue": 0}, {"ein": "208444786", "name": "GLENN D LOUCKS MEMORIAL TRACK ANDFIELD GAMES INC", "city": "WHITE PLAINS", "state": "NY", "zip": "10605-0000", "ntee": "N70", "ruling": "200803", "deductibility": "1", "assets": 83205, "income": 146799, "revenue": 146799}, {"ein": "236767018", "name": "LILLIAN ESTHER LOUCKS TA THE YORK BANK & TRUST CO", "city": "BUFFALO", "state": "NY", "zip": "14240-1504", "ntee": "T22", "ruling": "200210", "deductibility": "1", "assets": 569768, "income": 188403, "revenue": 0}], "KETGN": [{"ein": "136165708", "name": "HARVEY SOCIETY INC MEM SLOAN KETGN CTR", "city": "NEW YORK", "state": "NY", "zip": "10065-4805", "ntee": "", "ruling": "195703", "deductibility": "1", "assets": 55255, "income": 33058, "revenue": 33058}], "COLONIE": [{"ein": "140461460", "name": "ALBANY COLONIE REGIONAL CHAMBER OF COMMERCE", "city": "ALBANY", "state": "NY", "zip": "12205-1608", "ntee": "", "ruling": "194207", "deductibility": "2", "assets": 1, "income": 0, "revenue": 0}, {"ein": "141492095", "name": "COLONIE YOUTH CENTER INC", "city": "LATHAM", "state": "NY", "zip": "12110-2601", "ntee": "O20Z", "ruling": "196603", "deductibility": "1", "assets": 13398464, "income": 6568777, "revenue": 6561542}, {"ein": "141597363", "name": "TOWERS OF COLONIE SILVER STREAKERS", "city": "ALBANY", "state": "NY", "zip": "12205-1708", "ntee": "Y99", "ruling": "201412", "deductibility": "2", "assets": 0, "income": 0, "revenue": 0}, {"ein": "141681399", "name": "HISTORICAL SOCIETY OF THE TOWN OF COLONIE COUNTY OF ALBANY STATE OF", "city": "LOUDONVILLE", "state": "NY", "zip": "12211-1126", "ntee": "A80", "ruling": "201412", "deductibility": "1", "assets": 0, "income": 0, "revenue": 0}, {"ein": "141781546", "name": "NORTH COLONIE YOUTH BASEBALL INC", "city": "LATHAM", "state": "NY", "zip": "12110-0079", "ntee": "N63", "ruling": "201601", "deductibility": "1", "assets": 68006, "income": 321853, "revenue": 291763}, {"ein": "146018487", "name": "COLONIE POLICE BENEVOLENT ASSOCIATION INC", "city": "LATHAM", "state": "NY", "zip": "12110-0276", "ntee": "", "ruling": "198206", "deductibility": "2", "assets": 597966, "income": 340658, "revenue": 241253}, {"ein": "146018910", "name": "COLUMBIAN SOCIETY OF COLONIE INC", "city": "LATHAM", "state": "NY", "zip": "12110-3330", "ntee": "", "ruling": "196403", "deductibility": "2", "assets": 354533, "income": 310787, "revenue": 88185}, {"ein": "146029788", "name": "FULLER ROAD FIRE DEPT INC TOWN OF COLONIE", "city": "ALBANY", "state": "NY", "zip": "12205-5229", "ntee": "", "ruling": "194502", "deductibility": "1", "assets": 4892365, "income": 2357092, "revenue": 1304757}, {"ein": "202254564", "name": "CHABAD OF COLONIE INC", "city": "ALBANY", "state": "NY", "zip": "12211-1201", "ntee": "X30", "ruling": "200603", "deductibility": "1", "assets": 0, "income": 0, "revenue": 0}, {"ein": "208086846", "name": "SOUTH COLONIE BOYS SOCCER BOOSTER CLUB INC", "city": "ALBANY", "state": "NY", "zip": "12205-0882", "ntee": "O21", "ruling": "202504", "deductibility": "1", "assets": 0, "income": 0, "revenue": 0}, {"ein": "222366576", "name": "COLONIE SENIOR SERVICE CENTERS INC", "city": "COLONIE", "state": "NY", "zip": "12205-1155", "ntee": "P810", "ruling": "198110", "deductibility": "1", "assets": 47632864, "income": 8903717, "revenue": 2905485}, {"ein": "222684395", "name": "COLONIE CHAMBER OF COMMERCE INC", "city": "LATHAM", "state": "NY", "zip": "12110-2100", "ntee": "", "ruling": "198603", "deductibility": "2", "assets": 560894, "income": 235354, "revenue": 226762}, {"ein": "237184823", "name": "COLONIE GOSPEL CHAPEL", "city": "ALBANY", "state": "NY", "zip": "12205-4808", "ntee": "", "ruling": "197205", "deductibility": "1", "assets": 0, "income": 0, "revenue": 0}, {"ein": "237241925", "name": "SOUTH COLONIE FRIENDS OF MUSIC INC", "city": "ALBANY", "state": "NY", "zip": "12205-0000", "ntee": "", "ruling": "197303", "deductibility": "1", "assets": 0, "income": 0, "revenue": 0}, {"ein": "263921586", "name": "NORTH COLONIE FRIENDS OF MUSIC INC", "city": "LATHAM", "state": "NY", "zip": "12110-4622", "ntee": "A68", "ruling": "200903", "deductibility": "1", "assets": 0, "income": 0, "revenue": 0}, {"ein": "461751260", "name": "SOUTH COLONIE BABE RUTH BASEBALL LEAGUE INC", "city": "ALBANY", "state": "NY", "zip": "12212-3222", "ntee": "N63", "ruling": "201410", "deductibility": "1", "assets": 8603, "income": 56160, "revenue": 56160}, {"ein": "461804895", "name": "COLONIE JUNIOR RADIERS FOOTBALL", "city": "ALBANY", "state": "NY", "zip": "12205-0422", "ntee": "N65", "ruling": "201402", "deductibility": "1", "assets": 34691, "income": 94181, "revenue": 49840}, {"ein": "462223965", "name": "SOUTH COLONIE GIRLS LACROSSE BOOSTER CLUB INC", "city": "ALBANY", "state": "NY", "zip": "12205-2784", "ntee": "N11", "ruling": "201902", "deductibility": "1", "assets": 0, "income": 0, "revenue": 0}, {"ein": "842373159", "name": "NORTH COLONIE BOYS TRAVEL BASKETBALL INC", "city": "COHOES", "state": "NY", "zip": "12047-1480", "ntee": "N62", "ruling": "201909", "deductibility": "1", "assets": 0, "income": 0, "revenue": 0}, {"ein": "853515386", "name": "COLONIE GIRLS SOCCER BOOSTER CLUB INC", "city": "ALBANY", "state": "NY", "zip": "12205-8232", "ntee": "B12", "ruling": "202101", "deductibility": "1", "assets": 0, "income": 0, "revenue": 0}, {"ein": "872087402", "name": "COLONIE BASEBALL BOOSTER CLUB INC", "city": "HALFMOON", "state": "NY", "zip": "12065-5660", "ntee": "N63", "ruling": "202112", "deductibility": "1", "assets": 1, "income": 0, "revenue": 0}, {"ein": "883842494", "name": "FRIENDS OF COLONIE TOWN PARK TRAILS", "city": "ALBANY", "state": "NY", "zip": "12211-1316", "ntee": "N50", "ruling": "202209", "deductibility": "1", "assets": 0, "income": 0, "revenue": 0}, {"ein": "992303952", "name": "COLONIE PICKLEBALL CLUB INC", "city": "ALBANY", "state": "NY", "zip": "12205-2029", "ntee": "N50", "ruling": "202401", "deductibility": "2", "assets": 0, "income": 0, "revenue": 0}, {"ein": "994267150", "name": "COLONIE CHABAD", "city": "LOUDONVILLE", "state": "NY", "zip": "12211-1738", "ntee": "X30", "ruling": "202504", "deductibility": "1", "assets": 0, "income": 0, "revenue": 0}], "UCC": [{"ein": "141387847", "name": "EMMANUEL BAPTIST CHURCH-FRIEDENS UCC", "city": "SCHENECTADY", "state": "NY", "zip": "12307-1026", "ntee": "", "ruling": "195504", "deductibility": "1", "assets": 0, "income": 0, "revenue": 0}, {"ein": "161026270", "name": "MCLEAN COMMUNITY CHURCH UCC", "city": "MCLEAN", "state": "NY", "zip": "13102-0246", "ntee": "", "ruling": "197703", "deductibility": "1", "assets": 0, "income": 0, "revenue": 0}], "SAFER": [{"ein": "141666412", "name": "TREATMENT ACCOUNTABILITY FOR SAFER COMMUNITIES TASC OF THE CAPITAL DI", "city": "TROY", "state": "NY", "zip": "12180-3400", "ntee": "I44Z", "ruling": "199409", "deductibility": "1", "assets": 743835, "income": 375960, "revenue": 263175}, {"ein": "412215538", "name": "SAFER SKIES INC", "city": "HOWARD BEACH", "state": "NY", "zip": "11414-2845", "ntee": "M40", "ruling": "200701", "deductibility": "1", "assets": 938800, "income": 4858783, "revenue": -45944}, {"ein": "473780364", "name": "SAFER VACCINES INC", "city": "WEST ISLIP", "state": "NY", "zip": "11795-0000", "ntee": "E01", "ruling": "201609", "deductibility": "1", "assets": 0, "income": 0, "revenue": 0}, {"ein": "473826384", "name": "TOGETHER FOR SAFER ROADS INC", "city": "BROOKLYN", "state": "NY", "zip": "11215-1783", "ntee": "M42", "ruling": "201509", "deductibility": "1", "assets": 517876, "income": 871690, "revenue": 871690}, {"ein": "923976134", "name": "SOPHIAS HOPE FOR A SAFER TOMORROW INC", "city": "CORAM", "state": "NY", "zip": "11727-1531", "ntee": "P20", "ruling": "202306", "deductibility": "1", "assets": 3635, "income": 3635, "revenue": 3635}], "ILION": [{"ein": "150347008", "name": "ILION CEMETERY ASSOCIATION C/O WARREN LENNOX", "city": "ILION", "state": "NY", "zip": "13357-1920", "ntee": "", "ruling": "194009", "deductibility": "1", "assets": 477738, "income": 154050, "revenue": 154050}, {"ein": "161002505", "name": "ILION FISH AND GAME CLUB INC", "city": "ILION", "state": "NY", "zip": "13357-0177", "ntee": "", "ruling": "202108", "deductibility": "2", "assets": 77780, "income": 75701, "revenue": 44923}, {"ein": "161372294", "name": "ILION SNOWDRIFTERS SNOWMOBILE CLUB INC", "city": "ILION", "state": "NY", "zip": "13357-4704", "ntee": "N40", "ruling": "202404", "deductibility": "1", "assets": 392037, "income": 65547, "revenue": 0}, {"ein": "161432299", "name": "THE LITTLE THEATRE CLUB OF ILION NY INC", "city": "ILION", "state": "NY", "zip": "13357-0435", "ntee": "A65", "ruling": "201705", "deductibility": "1", "assets": 0, "income": 0, "revenue": 0}, {"ein": "166050803", "name": "ILION FRANKFORT VETERANS MEMORIAL POST 502", "city": "FRANKFORT", "state": "NY", "zip": "13340-3504", "ntee": "", "ruling": "197210", "deductibility": "1", "assets": 76969, "income": 550265, "revenue": 208942}, {"ein": "222455687", "name": "ILION VOLUNTEER FIRE DEPARTMENT INC", "city": "ILION", "state": "NY", "zip": "13357-4710", "ntee": "M24", "ruling": "201405", "deductibility": "1", "assets": 0, "income": 0, "revenue": 0}, {"ein": "223005411", "name": "ILION POLICE BENEVOLENT ASSOCIATION INC", "city": "ILION", "state": "NY", "zip": "13357-0024", "ntee": "", "ruling": "199008", "deductibility": "2", "assets": 0, "income": 0, "revenue": 0}, {"ein": "453754288", "name": "ILION FREE PUBLIC LIBRARY FOUNDATION LTD", "city": "ILION", "state": "NY", "zip": "13357-1725", "ntee": "B705", "ruling": "202307", "deductibility": "1", "assets": 0, "income": 0, "revenue": 0}, {"ein": "831716176", "name": "ILION COMMUNITY GARDEN INC", "city": "ILION", "state": "NY", "zip": "13357-1602", "ntee": "C42", "ruling": "201812", "deductibility": "1", "assets": 0, "income": 0, "revenue": 0}, {"ein": "900726092", "name": "ILION BABE RUTH", "city": "ILION", "state": "NY", "zip": "13357-2316", "ntee": "N63", "ruling": "202302", "deductibility": "1", "assets": 0, "income": 0, "revenue": 0}], "HOSPIT": [{"ein": "150532221", "name": "OUR LADY OF LOURDES MEMORIAL HOSPIT AL INC", "city": "BINGHAMTON", "state": "NY", "zip": "13905-4246", "ntee": "E22", "ruling": "202412", "deductibility": "1", "assets": 0, "income": 0, "revenue": 0}], "GLOVE": [{"ein": "160968676", "name": "GLOVE HOUSE INC", "city": "ELMIRA", "state": "NY", "zip": "14901-2623", "ntee": "P73Z", "ruling": "196905", "deductibility": "1", "assets": 4369942, "income": 9696961, "revenue": 9566544}, {"ein": "352519096", "name": "TAKE THIS PHONE AND GLOVE IT INC", "city": "ROSLYN", "state": "NY", "zip": "11576-2208", "ntee": "T50", "ruling": "201412", "deductibility": "1", "assets": 0, "income": 0, "revenue": 0}, {"ein": "821027993", "name": "PURPLE GLOVE FASHION GALA INC", "city": "BROOKLYN", "state": "NY", "zip": "11231-2963", "ntee": "A90", "ruling": "201710", "deductibility": "1", "assets": 0, "income": 0, "revenue": 0}, {"ein": "861525711", "name": "GLOVE CITIES ARTS ALLIANCE", "city": "GLOVERSVILLE", "state": "NY", "zip": "12078-3004", "ntee": "A90", "ruling": "202104", "deductibility": "1", "assets": 0, "income": 0, "revenue": 0}, {"ein": "993055548", "name": "GLOVE CITY SLUGGERS BOXING INC", "city": "GLOVERSVILLE", "state": "NY", "zip": "12078-3001", "ntee": "O03", "ruling": "202410", "deductibility": "1", "assets": 0, "income": 0, "revenue": 0}], "PRESHO": [{"ein": "161062986", "name": "LINDLEY PRESHO CATON LITTLE LEAGUE INC", "city": "LINDLEY", "state": "NY", "zip": "14858-0000", "ntee": "N63", "ruling": "201610", "deductibility": "1", "assets": 0, "income": 0, "revenue": 0}, {"ein": "237448471", "name": "PRESHO CEMETARY ASSOCIATION", "city": "PAINTED POST", "state": "NY", "zip": "14870-9758", "ntee": "", "ruling": "197505", "deductibility": "2", "assets": 0, "income": 0, "revenue": 0}, {"ein": "920473002", "name": "PRESHO CHURCH OF JESUS CHRIST", "city": "PAINTED POST", "state": "NY", "zip": "14870-9761", "ntee": "X20", "ruling": "202405", "deductibility": "1", "assets": 0, "income": 0, "revenue": 0}], "QUILT": [{"ein": "161391567", "name": "THUMBSTALL QUILT GUILD INC", "city": "MARCELLUS", "state": "NY", "zip": "13108-0027", "ntee": "", "ruling": "199205", "deductibility": "2", "assets": 0, "income": 0, "revenue": 0}, {"ein": "161594846", "name": "GENESEE VALLEY QUILT CLUB INC", "city": "PENFIELD", "state": "NY", "zip": "14526-9546", "ntee": "S81", "ruling": "200103", "deductibility": "1", "assets": 71445, "income": 138367, "revenue": 53909}, {"ein": "223440466", "name": "LAKE TO LAKE QUILT GUILD INC", "city": "GENEVA", "state": "NY", "zip": "14456-0058", "ntee": "A99", "ruling": "200102", "deductibility": "2", "assets": 0, "income": 0, "revenue": 0}, {"ein": "453036109", "name": "COZY QUILT MINISTRIES INC", "city": "FRANKLINVILLE", "state": "NY", "zip": "14737-9594", "ntee": "P20", "ruling": "201207", "deductibility": "1", "assets": 0, "income": 0, "revenue": 0}, {"ein": "464240503", "name": "MODERN QUILT GUILD INC", "city": "UNION SPRINGS", "state": "NY", "zip": "13160-9728", "ntee": "A40", "ruling": "201408", "deductibility": "1", "assets": 0, "income": 0, "revenue": 0}, {"ein": "464323987", "name": "MODERN QUILT GUILD INC", "city": "PENFIELD", "state": "NY", "zip": "14526-9546", "ntee": "A40", "ruling": "201408", "deductibility": "1", "assets": 0, "income": 0, "revenue": 0}, {"ein": "464680356", "name": "MODERN QUILT GUILD INC", "city": "OAKLAND GDNS", "state": "NY", "zip": "11364-2875", "ntee": "A40", "ruling": "201408", "deductibility": "1", "assets": 0, "income": 0, "revenue": 0}, {"ein": "464717031", "name": "MODERN QUILT GUILD INC", "city": "GARRISON", "state": "NY", "zip": "10524-4021", "ntee": "A40", "ruling": "201408", "deductibility": "1", "assets": 0, "income": 0, "revenue": 0}, {"ein": "815111414", "name": "MODERN QUILT GUILD INC", "city": "COHOES", "state": "NY", "zip": "12047-1449", "ntee": "A40", "ruling": "201408", "deductibility": "1", "assets": 0, "income": 0, "revenue": 0}, {"ein": "842429579", "name": "QUILT GUILD OF WEBSTER INC", "city": "WEBSTER", "state": "NY", "zip": "14580-3619", "ntee": "A20", "ruling": "202103", "deductibility": "1", "assets": 0, "income": 0, "revenue": 0}], "MERIDALE": [{"ein": "161534206", "name": "MERIDALE COMMUNITY CHURCH", "city": "MERIDALE", "state": "NY", "zip": "13806-0051", "ntee": "X99Z", "ruling": "199712", "deductibility": "1", "assets": 0, "income": 0, "revenue": 0}, {"ein": "161539135", "name": "MERIDALE FIRE DEPOT & EMERGENCY SQUAD INC", "city": "MERIDALE", "state": "NY", "zip": "13806-0104", "ntee": "M24", "ruling": "199806", "deductibility": "1", "assets": 292038, "income": 41392, "revenue": 28979}], "TREMAN": [{"ein": "161562429", "name": "FRIENDS OF ROBERT H TREMAN STATE PARK", "city": "ITHACA", "state": "NY", "zip": "14850-8757", "ntee": "N32", "ruling": "199908", "deductibility": "1", "assets": 0, "income": 0, "revenue": 0}], "CLIEN": [{"ein": "166377339", "name": "TRUST UW ELLEN C STARK - CHARITABLE TRUST MARINE MIDLAND BK PRIV CLIEN", "city": "NORWICH", "state": "NY", "zip": "13815-0000", "ntee": "", "ruling": "199301", "deductibility": "1", "assets": 414207, "income": 41923, "revenue": 0}], "DROGEN": [{"ein": "166443320", "name": "DROGEN FOUNDATION", "city": "ONEONTA", "state": "NY", "zip": "13820-1003", "ntee": "", "ruling": "199701", "deductibility": "1", "assets": 265349, "income": 11893, "revenue": 0}], "HACHUDOSH": [{"ein": "200763890", "name": "KEREN HABINYAN HACHUDOSH DRABEINU YOEL OF SATMAR BP", "city": "BROOKLYN", "state": "NY", "zip": "11249-7814", "ntee": "X30", "ruling": "200408", "deductibility": "1", "assets": 0, "income": 0, "revenue": 0}], "CANCERCONNECTS": [{"ein": "203767018", "name": "CANCERCONNECTS INC", "city": "EAST SYRACUSE", "state": "NY", "zip": "13057-4510", "ntee": "G033", "ruling": "200605", "deductibility": "1", "assets": 512623, "income": 1243798, "revenue": 1229852}], "SHVII": [{"ein": "203964424", "name": "CONG MKADSHEI SHVII INC", "city": "MONSEY", "state": "NY", "zip": "10952-0700", "ntee": "X30", "ruling": "200809", "deductibility": "1", "assets": 0, "income": 0, "revenue": 0}], "MGG": [{"ein": "204212751", "name": "MGG FOUNDATION", "city": "NEW YORK", "state": "NY", "zip": "10022-4219", "ntee": "T22", "ruling": "200603", "deductibility": "1", "assets": 3240470, "income": 482386, "revenue": 0}], "MEMORIALFOUNDATION": [{"ein": "204570266", "name": "HU YAOBANG AND ZHAO ZIYANG MEMORIALFOUNDATION", "city": "FLUSHING", "state": "NY", "zip": "11352-0935", "ntee": "R01", "ruling": "202112", "deductibility": "1", "assets": 0, "income": 0, "revenue": 0}], "BARRACKS": [{"ein": "208324175", "name": "SOCIETY FOR THE PRESERVATION OFMADISON BARRACKS INC", "city": "SACKETS HBR", "state": "NY", "zip": "13685-3179", "ntee": "C99", "ruling": "200807", "deductibility": "1", "assets": 0, "income": 0, "revenue": 0}, {"ein": "444451799", "name": "THE BARKING BARRACKS INC", "city": "ROCKVILLE CTR", "state": "NY", "zip": "11570-3101", "ntee": "D61", "ruling": "201402", "deductibility": "1", "assets": 0, "income": 0, "revenue": 0}, {"ein": "922730837", "name": "BARRACKS ROAD PRIMARY SCHOOL ALUMNI ASSOCIATION", "city": "WESTBURY", "state": "NY", "zip": "11590-1223", "ntee": "B84", "ruling": "202309", "deductibility": "1", "assets": 0, "income": 0, "revenue": 0}], "INTERCITY": [{"ein": "237085678", "name": "INTERCITY INSURANCE FUND", "city": "MAMARONECK", "state": "NY", "zip": "10543-2233", "ntee": "", "ruling": "199404", "deductibility": "0", "assets": 252630, "income": 1668058, "revenue": 1555596}], "GMILOS": [{"ein": "237259691", "name": "GMILOS CHESED OF ROCKLAND COUNTY INC", "city": "MONSEY", "state": "NY", "zip": "10952-2834", "ntee": "W60Z", "ruling": "197301", "deductibility": "1", "assets": 1369479, "income": 129183, "revenue": 129183}], "ENLIGHTENER": [{"ein": "237346244", "name": "ST GREGORY THE ENLIGHTENER ARMENIAN CHURCH", "city": "WHITE PLAINS", "state": "NY", "zip": "10605-5102", "ntee": "", "ruling": "194909", "deductibility": "1", "assets": 0, "income": 0, "revenue": 0}], "GAROGA": [{"ein": "237579074", "name": "GAROGA -SINCERITY LODGE NO 200 OF FREE AND ACCEPTED MASONS", "city": "PHELPS", "state": "NY", "zip": "14532-0000", "ntee": "Y42", "ruling": "201712", "deductibility": "1", "assets": 0, "income": 0, "revenue": 0}], "OFMARENA": [{"ein": "260200192", "name": "ASSOCIATION FOR THE DEVELOPMENT OFMARENA DJOMBOUGOU", "city": "BROOKLYN", "state": "NY", "zip": "11210-2915", "ntee": "S99", "ruling": "201810", "deductibility": "1", "assets": 0, "income": 0, "revenue": 0}], "SOLOIST": [{"ein": "260354775", "name": "SOLOIST ENSEMBLE URANIA INC", "city": "BROOKVILLE", "state": "NY", "zip": "11545-3121", "ntee": "A6B", "ruling": "201208", "deductibility": "1", "assets": 0, "income": 0, "revenue": 0}, {"ein": "881267026", "name": "YOUNG CLASSICAL SOLOIST INC", "city": "OAKLAND GARDENS", "state": "NY", "zip": "11364-2424", "ntee": "A20", "ruling": "202306", "deductibility": "1", "assets": 0, "income": 0, "revenue": 0}], "ARMONIA": [{"ein": "260714605", "name": "ARMONIA FOUNDATION INC", "city": "NEW YORK", "state": "NY", "zip": "10022-6130", "ntee": "T20", "ruling": "200902", "deductibility": "1", "assets": 106387, "income": 542137, "revenue": 0}], "DEVELOPMENTCORP": [{"ein": "260851921", "name": "KINGDOM NEIGHBORHOOD DEVELOPMENTCORP", "city": "YONKERS", "state": "NY", "zip": "10701-3016", "ntee": "S20", "ruling": "201710", "deductibility": "1", "assets": 0, "income": 0, "revenue": 0}], "KNOLLS": [{"ein": "261824946", "name": "CEDAR KNOLLS FOUNDATION INC", "city": "HAWTHORNE", "state": "NY", "zip": "10532-2018", "ntee": "O20", "ruling": "200910", "deductibility": "1", "assets": 0, "income": 0, "revenue": 0}, {"ein": "311671682", "name": "EATON KNOLLS HOUSING DEVELOPMENT FUND CORPORATION", "city": "HAUPPAUGE", "state": "NY", "zip": "11788-2018", "ntee": "L20", "ruling": "199912", "deductibility": "1", "assets": 1514664, "income": 228820, "revenue": 228820}, {"ein": "473953554", "name": "NIPPER KNOLLS EQUINE CENTR", "city": "GRANVILLE", "state": "NY", "zip": "12832-4727", "ntee": "N69", "ruling": "201507", "deductibility": "1", "assets": 7363, "income": 29218, "revenue": 24441}, {"ein": "873073138", "name": "THE KNOLLS AT GOSHEN INC", "city": "CROTON HDSN", "state": "NY", "zip": "10520-1169", "ntee": "L22", "ruling": "202206", "deductibility": "1", "assets": 0, "income": 0, "revenue": 0}, {"ein": "900589758", "name": "KNOLLS SWIM CLUB INC", "city": "CLIFTON PARK", "state": "NY", "zip": "12065-0851", "ntee": "N67", "ruling": "202010", "deductibility": "1", "assets": 0, "income": 0, "revenue": 0}], "XERTION": [{"ein": "264300758", "name": "XERTION YOUTH INC", "city": "BLASDELL", "state": "NY", "zip": "14219-2220", "ntee": "O55", "ruling": "201103", "deductibility": "1", "assets": 0, "income": 0, "revenue": 0}], "HAREBBE": [{"ein": "264480126", "name": "YALDEI SHLUCHEI HAREBBE SPECIAL NEEDS ORGANIZATION", "city": "BROOKLYN", "state": "NY", "zip": "11225-3217", "ntee": "T30", "ruling": "201003", "deductibility": "1", "assets": 535370, "income": 2033745, "revenue": 2033745}], "CONGOLESE": [{"ein": "270316284", "name": "CONGOLESE UNITED FOR DEVELOPMENT", "city": "SCHENECTADY", "state": "NY", "zip": "12303-5219", "ntee": "P84", "ruling": "201412", "deductibility": "1", "assets": 0, "income": 0, "revenue": 0}, {"ein": "332594356", "name": "CONGOLESE QUEENS OF USA INC", "city": "STATEN ISLAND", "state": "NY", "zip": "10301-1240", "ntee": "A20", "ruling": "202501", "deductibility": "1", "assets": 0, "income": 0, "revenue": 0}, {"ein": "873251059", "name": "CONGOLESE WOMEN VISION INTEGRITY ACTION INC", "city": "SYRACUSE", "state": "NY", "zip": "13203-2814", "ntee": "S20", "ruling": "202209", "deductibility": "1", "assets": 0, "income": 0, "revenue": 0}], "PS154": [{"ein": "271185656", "name": "PTA OF PS154 BROOKLYN INC", "city": "BROOKLYN", "state": "NY", "zip": "11215-6004", "ntee": "P20", "ruling": "201008", "deductibility": "1", "assets": 479263, "income": 1633803, "revenue": 1633803}], "SPEAR": [{"ein": "271612539", "name": "CHARLES SPEAR CHARITABLE FOUNDATION", "city": "PAWLING", "state": "NY", "zip": "12564-0540", "ntee": "T20", "ruling": "201407", "deductibility": "1", "assets": 10308864, "income": 3213596, "revenue": 0}, {"ein": "924013698", "name": "SPEAR THERAPEUTIC INC", "city": "ALBANY", "state": "NY", "zip": "12205-4002", "ntee": "F11", "ruling": "202312", "deductibility": "1", "assets": 0, "income": 0, "revenue": 0}], "TROMA": [{"ein": "271950140", "name": "DUDJOM TROMA FOUNDATION", "city": "JACKSON HEIGHTS", "state": "NY", "zip": "11372-1751", "ntee": "X50", "ruling": "201111", "deductibility": "1", "assets": 0, "income": 0, "revenue": 0}], "PROYECTO": [{"ein": "272826646", "name": "PROYECTO MIRADOR FOUNDATION", "city": "NEW YORK", "state": "NY", "zip": "10178-0000", "ntee": "T22", "ruling": "202109", "deductibility": "1", "assets": 8393638, "income": 3967325, "revenue": 0}, {"ein": "814218306", "name": "PROYECTO CARIBE", "city": "NEW YORK", "state": "NY", "zip": "10031-7422", "ntee": "P99", "ruling": "201701", "deductibility": "1", "assets": 0, "income": 0, "revenue": 0}, {"ein": "853910001", "name": "PROYECTO FARO INC", "city": "STONY POINT", "state": "NY", "zip": "10980-3202", "ntee": "P20", "ruling": "202105", "deductibility": "1", "assets": 137004, "income": 290859, "revenue": 290859}], "HUETHER": [{"ein": "273158921", "name": "GREGORY R HUETHER MEMORIAL SCHOLARSHIP FUND INC", "city": "ISLIP TERRACE", "state": "NY", "zip": "11752-1009", "ntee": "B82", "ruling": "201011", "deductibility": "1", "assets": 13519, "income": 153, "revenue": 153}], "UWVC": [{"ein": "273287525", "name": "UWVC FOUNDATION INC", "city": "NEW YORK", "state": "NY", "zip": "10014-0000", "ntee": "W12", "ruling": "201108", "deductibility": "1", "assets": 739729, "income": 775372, "revenue": 775372}], "FREMONT": [{"ein": "273612608", "name": "FREMONT PTO", "city": "EAST SYRACUSE", "state": "NY", "zip": "13057-2697", "ntee": "B94", "ruling": "202002", "deductibility": "1", "assets": 0, "income": 0, "revenue": 0}, {"ein": "800664162", "name": "FREMONT CEMETERY ASSN", "city": "HORNELL", "state": "NY", "zip": "14843-0675", "ntee": "Y50", "ruling": "201905", "deductibility": "1", "assets": 0, "income": 0, "revenue": 0}, {"ein": "832952903", "name": "THE FREMONT CENTER COMMUNITY CHURCH", "city": "HANKINS", "state": "NY", "zip": "12741-5301", "ntee": "", "ruling": "199112", "deductibility": "1", "assets": 0, "income": 0, "revenue": 0}], "LISE": [{"ein": "274318322", "name": "LISE AND JEFFREY WILKS FAMILY FOUNDATION", "city": "HICKSVILLE", "state": "NY", "zip": "11802-0006", "ntee": "T20", "ruling": "201105", "deductibility": "1", "assets": 3453648, "income": 3876282, "revenue": 0}], "DIGNIFIED": [{"ein": "275376029", "name": "ACM DIGNIFIED TRANSITIONAL HOUSING INC", "city": "BROOKLYN", "state": "NY", "zip": "11208-4420", "ntee": "L20", "ruling": "201104", "deductibility": "1", "assets": 106374, "income": 155294, "revenue": 155294}], "LIMNER": [{"ein": "300497107", "name": "THE LIMNER SOCIETY", "city": "NEW YORK", "state": "NY", "zip": "10035-5081", "ntee": "A40", "ruling": "201709", "deductibility": "1", "assets": 1, "income": 0, "revenue": 0}], "CHABADAID": [{"ein": "301075232", "name": "CHABADAID INC", "city": "BROOKLYN", "state": "NY", "zip": "11213-5329", "ntee": "X30", "ruling": "201807", "deductibility": "1", "assets": 52152, "income": 0, "revenue": 0}], "FAKS": [{"ein": "306004475", "name": "AOUNI FAKS FOUNDATION", "city": "BROOKLYN", "state": "NY", "zip": "11203-6520", "ntee": "T20", "ruling": "200202", "deductibility": "1", "assets": 945157, "income": 319009, "revenue": 0}], "FIREARMS": [{"ein": "320580660", "name": "NEW YORK FIREARMS ASSOCIATION INC", "city": "FLUSHING", "state": "NY", "zip": "11354-5512", "ntee": "I20", "ruling": "202501", "deductibility": "1", "assets": 0, "income": 0, "revenue": 0}, {"ein": "550827028", "name": "SOUTHERN ADIRONDACK FIREARMS EDUCATION AND TRAINING INC", "city": "QUEENSBURY", "state": "NY", "zip": "12804-1139", "ntee": "B99", "ruling": "200403", "deductibility": "1", "assets": 0, "income": 0, "revenue": 0}, {"ein": "822402210", "name": "NEW YORK STATE FIREARMS ASSOCIATION INC", "city": "VICTOR", "state": "NY", "zip": "14564-1045", "ntee": "I01", "ruling": "201807", "deductibility": "2", "assets": 549380, "income": 618259, "revenue": 618259}, {"ein": "883032692", "name": "ROCHESTER AFRICAN-AMERICAN FIREARMS ASSOCIATION", "city": "ROCHESTER", "state": "NY", "zip": "14624-7360", "ntee": "N50", "ruling": "202207", "deductibility": "1", "assets": 0, "income": 0, "revenue": 0}], "JEB": [{"ein": "333644548", "name": "JEB BARTENSLAGER MEMORIAL SCHOLARSHIP FUND INC", "city": "MALONE", "state": "NY", "zip": "12953-5101", "ntee": "B19", "ruling": "202507", "deductibility": "1", "assets": 0, "income": 0, "revenue": 0}], "HAIGHT": [{"ein": "356802900", "name": "COLLIN E HAIGHT CHARITABLE FOUNDATION", "city": "DELHI", "state": "NY", "zip": "13753-0003", "ntee": "B82", "ruling": "200903", "deductibility": "1", "assets": 214850, "income": 69070, "revenue": 0}], "SPORTHORSE": [{"ein": "364525351", "name": "SYRACUSE INVITATIONAL SPORTHORSE TOURNAMENT INC", "city": "CAZENOVIA", "state": "NY", "zip": "13035-8450", "ntee": "N70", "ruling": "200308", "deductibility": "1", "assets": 0, "income": 0, "revenue": 0}], "KYUDOJO": [{"ein": "364619205", "name": "TOKO KYUDOJO INC", "city": "NEW YORK", "state": "NY", "zip": "10011-0000", "ntee": "P50", "ruling": "200907", "deductibility": "1", "assets": 0, "income": 0, "revenue": 0}], "BADGER": [{"ein": "364790659", "name": "BADGER SWIM CLUB INC", "city": "LARCHMONT", "state": "NY", "zip": "10538-1430", "ntee": "N67", "ruling": "201410", "deductibility": "1", "assets": 364544, "income": 702952, "revenue": 702952}], "PEYTON": [{"ein": "383673239", "name": "LAUREN PEYTON LOVE FOR LIFE FOUNDATION", "city": "STATEN ISLAND", "state": "NY", "zip": "10310-2502", "ntee": "P20", "ruling": "200309", "deductibility": "1", "assets": 7117, "income": 0, "revenue": 0}], "REMISSION": [{"ein": "452752633", "name": "REMISSION FOUNDATION INC", "city": "RYE BROOK", "state": "NY", "zip": "10573-1221", "ntee": "P123", "ruling": "201109", "deductibility": "1", "assets": 21521, "income": 197459, "revenue": 136800}, {"ein": "824453041", "name": "RADICAL REMISSION FOUNDATION INC", "city": "IRVINGTON", "state": "NY", "zip": "10533-0333", "ntee": "B05", "ruling": "201803", "deductibility": "1", "assets": 8512, "income": 9095, "revenue": 9095}], "KOBUSKIE": [{"ein": "452992257", "name": "COACH JACK KOBUSKIE MEMORIAL SCHOLARSHIP", "city": "GLOVERSVILLE", "state": "NY", "zip": "12078-4111", "ntee": "B82", "ruling": "201112", "deductibility": "1", "assets": 0, "income": 0, "revenue": 0}], "LEXUS": [{"ein": "453204604", "name": "LEXUS PROJECT INC", "city": "HUNTINGTN STA", "state": "NY", "zip": "11746-7325", "ntee": "D20", "ruling": "201208", "deductibility": "1", "assets": 0, "income": 0, "revenue": 0}], "CUSH": [{"ein": "453536107", "name": "CUSH CENTER FOR LEARNING", "city": "BALDWIN", "state": "NY", "zip": "11510-8281", "ntee": "B80", "ruling": "201606", "deductibility": "1", "assets": 0, "income": 0, "revenue": 0}], "ACCOMPLISHING": [{"ein": "453856262", "name": "ACCOMPLISHING DREAM CHURCH", "city": "FLUSHING", "state": "NY", "zip": "11365-2835", "ntee": "X20", "ruling": "201201", "deductibility": "1", "assets": 0, "income": 0, "revenue": 0}], "PREEMIE": [{"ein": "455593544", "name": "PREEMIE FOOTPRINTS INC", "city": "ROCHESTER", "state": "NY", "zip": "14692-8125", "ntee": "P58", "ruling": "201502", "deductibility": "1", "assets": 0, "income": 0, "revenue": 0}], "CCPC": [{"ein": "460847454", "name": "CCPC NY INC", "city": "MASSAPEQUA PK", "state": "NY", "zip": "11762-0175", "ntee": "A23", "ruling": "201305", "deductibility": "1", "assets": 234957, "income": 171323, "revenue": 171323}], "EASTLINE": [{"ein": "462569062", "name": "EASTLINE ROMP AND PLAY INC", "city": "BALLSTON SPA", "state": "NY", "zip": "12020-6312", "ntee": "N32", "ruling": "201501", "deductibility": "1", "assets": 0, "income": 0, "revenue": 0}, {"ein": "821947233", "name": "EASTLINE PLAYERS CORP", "city": "BABYLON", "state": "NY", "zip": "11702-0495", "ntee": "A65", "ruling": "201809", "deductibility": "1", "assets": 27554, "income": 72898, "revenue": 72898}], "GALLO": [{"ein": "465421012", "name": "CAUSE OF VENERABLE ANTHONY VINCENT GALLO INC", "city": "MANHASSET", "state": "NY", "zip": "11030-2233", "ntee": "X22", "ruling": "201407", "deductibility": "1", "assets": 0, "income": 0, "revenue": 0}], "PE": [{"ein": "465713720", "name": "BRUCHA OF PH PE INC", "city": "BROOKLYN", "state": "NY", "zip": "11204-2341", "ntee": "T22", "ruling": "201408", "deductibility": "1", "assets": 1901291, "income": 684521, "revenue": 0}, {"ein": "812388719", "name": "ROMAN CATHOLIC CHURCH OF SAINT MARY-HOLY NAME OF JESUS & SAINT PE", "city": "KINGSTON", "state": "NY", "zip": "12401-6020", "ntee": "", "ruling": "194603", "deductibility": "1", "assets": 0, "income": 0, "revenue": 0}, {"ein": "812486446", "name": "ROMAN CATHOLIC CHURCH OF SAINT JOHN THE EVANGELIST AND OUR LADY OF PE", "city": "NEW YORK", "state": "NY", "zip": "10022-8301", "ntee": "", "ruling": "194603", "deductibility": "1", "assets": 0, "income": 0, "revenue": 0}, {"ein": "814809929", "name": "CONGREGATION PE ER BAIS YAAKOV", "city": "NEW YORK", "state": "NY", "zip": "10006-3049", "ntee": "X30", "ruling": "201803", "deductibility": "1", "assets": 0, "income": 0, "revenue": 0}, {"ein": "831258230", "name": "TAMU PE LHU INC", "city": "WOODSIDE", "state": "NY", "zip": "11377-2812", "ntee": "A20", "ruling": "202006", "deductibility": "1", "assets": 3447, "income": 46285, "revenue": 46285}], "JCHHOMES": [{"ein": "471427793", "name": "JCHHOMES INC", "city": "JAMAICA", "state": "NY", "zip": "11434-6374", "ntee": "I31", "ruling": "201412", "deductibility": "1", "assets": 0, "income": 0, "revenue": 0}], "HKBH": [{"ein": "471720484", "name": "HKBH CHARITABLE FOUNDATION INC", "city": "BROOKLYN", "state": "NY", "zip": "11204-2254", "ntee": "T22", "ruling": "201412", "deductibility": "1", "assets": 1, "income": 1, "revenue": 0}, {"ein": "830576900", "name": "HKBH 72 FOUNDATION", "city": "FLUSHING", "state": "NY", "zip": "11374-5026", "ntee": "Z99", "ruling": "201912", "deductibility": "1", "assets": 31473, "income": 1, "revenue": 0}], "HUMANITARIA": [{"ein": "471906627", "name": "SHRI DEVI MANDIR GLOBAL HUMANITARIA N FOUNDATION INC", "city": "JAMAICA", "state": "NY", "zip": "11433-1312", "ntee": "X70", "ruling": "201512", "deductibility": "1", "assets": 2610, "income": 15820, "revenue": 13870}], "ROSCOMMON": [{"ein": "472157169", "name": "COUNTY ROSCOMMON SOCIETY OF NEW YOR K INC", "city": "BAYSIDE", "state": "NY", "zip": "11360-1526", "ntee": "W12", "ruling": "201502", "deductibility": "1", "assets": 0, "income": 0, "revenue": 0}], "METAR": [{"ein": "472704696", "name": "CONG METAR HASHOMAYIM DBA TORAS MOSHE", "city": "MONSEY", "state": "NY", "zip": "10952-2755", "ntee": "X30", "ruling": "201505", "deductibility": "1", "assets": 0, "income": 0, "revenue": 0}], "EVANGELILCA": [{"ein": "473134776", "name": "INGLESIA CRISTIANA EVANGELILCA CRISTO EL HIJO DEL DIOS VIVIENTE", "city": "NEW YORK", "state": "NY", "zip": "10035-4359", "ntee": "X20", "ruling": "201510", "deductibility": "1", "assets": 0, "income": 0, "revenue": 0}], "VADIM": [{"ein": "473398008", "name": "VADIM GHIN MUSIC INC", "city": "GREENWOOD LK", "state": "NY", "zip": "10925-1713", "ntee": "B99", "ruling": "201503", "deductibility": "1", "assets": 899, "income": 49046, "revenue": 49046}], "HTS": [{"ein": "474843345", "name": "HTS INTERNATIONAL BANIG SA BOOD INC", "city": "MOUNT VERNON", "state": "NY", "zip": "10552-3441", "ntee": "P20", "ruling": "201511", "deductibility": "1", "assets": 0, "income": 0, "revenue": 0}, {"ein": "923433400", "name": "HTS GLOBAL FOUNDATION INC", "city": "WHITE PLAINS", "state": "NY", "zip": "10603-1113", "ntee": "P50", "ruling": "202307", "deductibility": "1", "assets": 50459, "income": 51042, "revenue": 51042}], "COMPRENSIVE": [{"ein": "510174969", "name": "DAYTON T BROWN INC COMPRENSIVE BENEFITS TRUST", "city": "BOHEMIA", "state": "NY", "zip": "11716-5014", "ntee": "", "ruling": "197512", "deductibility": "2", "assets": 777575, "income": 4922213, "revenue": 4922213}], "RAMBLER": [{"ein": "510673278", "name": "HOLIDAY RAMBLER RECREATIONAL VECHICLE CLUB INC", "city": "WEEDSPORT", "state": "NY", "zip": "13166-9773", "ntee": "N20", "ruling": "200210", "deductibility": "2", "assets": 0, "income": 0, "revenue": 0}, {"ein": "900460007", "name": "HOLIDAY RAMBLER RV CLUB", "city": "CLINTON", "state": "NY", "zip": "13323-1089", "ntee": "N20", "ruling": "200210", "deductibility": "2", "assets": 0, "income": 0, "revenue": 0}], "RANCHO": [{"ein": "521370162", "name": "RANCHO FEEDWELL FOUNDATION", "city": "MELVILLE", "state": "NY", "zip": "11747-4511", "ntee": "", "ruling": "198612", "deductibility": "1", "assets": 966841, "income": 51412, "revenue": 0}], "PSYCHOTHEREPY": [{"ein": "522438047", "name": "NEW YORK INSTITUTE FOR PSYCHOTHEREPY TRAINING NYIPT", "city": "NEW YORK", "state": "NY", "zip": "10023-0000", "ntee": "I72", "ruling": "200412", "deductibility": "1", "assets": 11139, "income": 50822, "revenue": 50822}], "MCCARTY": [{"ein": "562353412", "name": "MCCARTY HOUSING DEVELOPMENT FUND COMPANY INC", "city": "ALBANY", "state": "NY", "zip": "12202-1834", "ntee": "L20", "ruling": "200503", "deductibility": "1", "assets": 3317949, "income": 917716, "revenue": 917716}], "RAUSCHENBERG": [{"ein": "650200989", "name": "ROBERT RAUSCHENBERG FOUNDATION", "city": "NEW YORK", "state": "NY", "zip": "10003-7051", "ntee": "A90", "ruling": "201409", "deductibility": "1", "assets": 521728007, "income": 169388635, "revenue": 0}], "SALE": [{"ein": "743019797", "name": "S O Y SEFORIM SALE", "city": "NEW YORK", "state": "NY", "zip": "10033-3201", "ntee": "B90", "ruling": "200507", "deductibility": "1", "assets": 0, "income": 0, "revenue": 0}, {"ein": "832138123", "name": "BRONXVILLE BALLET - NOT FOR SALE INC", "city": "BRONXVILLE", "state": "NY", "zip": "10708-4821", "ntee": "A99", "ruling": "201811", "deductibility": "1", "assets": 0, "income": 0, "revenue": 0}], "BHMD": [{"ein": "810850397", "name": "BHMD BY ON CHEVRON INC", "city": "MONROE", "state": "NY", "zip": "10950-3069", "ntee": "X30", "ruling": "201602", "deductibility": "1", "assets": 0, "income": 0, "revenue": 0}, {"ein": "933060997", "name": "BHMD TIFERES SHMIEL ALEKSANDER FOUNDATION", "city": "BROOKLYN", "state": "NY", "zip": "11206-5477", "ntee": "X30", "ruling": "202410", "deductibility": "1", "assets": 0, "income": 0, "revenue": 0}], "FATIM": [{"ein": "812488182", "name": "ROMAN CATHOLIC CHURCH OF ANNUNCIATION AND OUR LADY OF FATIM", "city": "TUCKAHOE", "state": "NY", "zip": "10707-1326", "ntee": "", "ruling": "194603", "deductibility": "1", "assets": 0, "income": 0, "revenue": 0}], "DKABA": [{"ein": "813112755", "name": "CONG BAIS MOSHE ZEV DKABA INC", "city": "BROOKLYN", "state": "NY", "zip": "11249-8631", "ntee": "X30", "ruling": "201702", "deductibility": "1", "assets": 0, "income": 0, "revenue": 0}], "ALIBA": [{"ein": "814331826", "name": "KOLLEL ALIBA DEHILJESA INC", "city": "BROOKLYN", "state": "NY", "zip": "11205-4333", "ntee": "X30", "ruling": "201701", "deductibility": "1", "assets": 0, "income": 0, "revenue": 0}], "COFFE": [{"ein": "820738347", "name": "COFFE UNLIMITED", "city": "NEW YORK", "state": "NY", "zip": "10030-2104", "ntee": "J20", "ruling": "201706", "deductibility": "1", "assets": 165057, "income": 10000, "revenue": 0}], "BADLAM": [{"ein": "821094896", "name": "FREDERICK L BADLAM MEMORIAL SCHOLARSHIP FUND", "city": "ROCHESTER", "state": "NY", "zip": "14626-4206", "ntee": "A23", "ruling": "201805", "deductibility": "1", "assets": 14214, "income": 15497, "revenue": 0}], "INSIGHTFUL": [{"ein": "821275912", "name": "INSIGHTFUL STRIDES INC", "city": "ATTICA", "state": "NY", "zip": "14011-9603", "ntee": "", "ruling": "201712", "deductibility": "1", "assets": 22880, "income": 82290, "revenue": 80553}], "LEHOSHIA": [{"ein": "822061916", "name": "CONG RAV LEHOSHIA INC", "city": "MONSEY", "state": "NY", "zip": "10952-0770", "ntee": "X30", "ruling": "201804", "deductibility": "1", "assets": 244182, "income": 3645681, "revenue": 3645681}], "GAIN": [{"ein": "822272873", "name": "VENTURE&GAIN INC", "city": "NEW YORK", "state": "NY", "zip": "10002-3182", "ntee": "W30", "ruling": "201711", "deductibility": "1", "assets": 0, "income": 0, "revenue": 0}, {"ein": "873941428", "name": "GAIN PURPOSE INC", "city": "CAMBRIA HTS", "state": "NY", "zip": "11411-1325", "ntee": "P20", "ruling": "202402", "deductibility": "1", "assets": 0, "income": 0, "revenue": 0}], "REASONS": [{"ein": "822498142", "name": "REASONS CHILDREN ORGANIZATION INC", "city": "BRONX", "state": "NY", "zip": "10469-5756", "ntee": "A20", "ruling": "202404", "deductibility": "1", "assets": 0, "income": 0, "revenue": 0}, {"ein": "831110947", "name": "9 MILLION REASONS INC", "city": "LONG ISLAND", "state": "NY", "zip": "11101-3833", "ntee": "W99", "ruling": "202412", "deductibility": "1", "assets": 1, "income": 139932, "revenue": 139932}], "KAT6A": [{"ein": "823118535", "name": "THE KAT6A FOUNDATION INC", "city": "WEST NYACK", "state": "NY", "zip": "10994-1911", "ntee": "H20", "ruling": "201711", "deductibility": "1", "assets": 1328536, "income": 554503, "revenue": 545829}], "YYDC": [{"ein": "824808018", "name": "YYDC INC", "city": "NEW YORK", "state": "NY", "zip": "10013-4074", "ntee": "A62", "ruling": "201808", "deductibility": "1", "assets": 112472, "income": 174256, "revenue": 174256}], "KDOSHEY": [{"ein": "830354647", "name": "KDOSHEY EMANUEL", "city": "BROOKLYN", "state": "NY", "zip": "11211-8919", "ntee": "P126", "ruling": "201304", "deductibility": "1", "assets": 0, "income": 0, "revenue": 0}], "EVERFUND": [{"ein": "831218408", "name": "THE EVERFUND INC", "city": "SPRING VALLEY", "state": "NY", "zip": "10977-5281", "ntee": "Y19", "ruling": "201904", "deductibility": "1", "assets": 9677, "income": 371296, "revenue": 371296}], "PARAGUAYAN": [{"ein": "834106574", "name": "PARAGUAYAN WOMEN NETWORK IN USA INC", "city": "SCARSDALE", "state": "NY", "zip": "10583-2627", "ntee": "A20", "ruling": "202103", "deductibility": "1", "assets": 0, "income": 0, "revenue": 0}], "DECEMBER": [{"ein": "836588178", "name": "WEISKOPF FAMILY FOUNDATION DTD DECEMBER 19 2018", "city": "MONSEY", "state": "NY", "zip": "10952-1428", "ntee": "T20", "ruling": "201908", "deductibility": "1", "assets": 1759141, "income": 2171895, "revenue": 0}], "ALZAUTHORS": [{"ein": "842106415", "name": "ALZAUTHORS", "city": "MIDDLETOWN", "state": "NY", "zip": "10940-4240", "ntee": "A99", "ruling": "201907", "deductibility": "1", "assets": 0, "income": 0, "revenue": 0}], "LELAMIED": [{"ein": "843698513", "name": "LELAMIED INC", "city": "BROOKLYN", "state": "NY", "zip": "11219-2048", "ntee": "X30", "ruling": "202106", "deductibility": "1", "assets": 0, "income": 0, "revenue": 0}], "RAMI": [{"ein": "844066092", "name": "RAMI A NOY FOUNDATION INC", "city": "GREAT NECK", "state": "NY", "zip": "11023-1026", "ntee": "T20", "ruling": "202104", "deductibility": "1", "assets": 595320, "income": 714682, "revenue": 0}], "INICIATIVA": [{"ein": "844458371", "name": "INICIATIVA CIUDADANA PARA EL CAMBIO CITIZENSHIP INITIATIVE FOR THE CH", "city": "CENTRAL ISLIP", "state": "NY", "zip": "11722-3124", "ntee": "P20", "ruling": "202005", "deductibility": "1", "assets": 0, "income": 0, "revenue": 0}], "CAHIERS": [{"ein": "844717224", "name": "CAHIERS D ART INSTITUTE", "city": "NEW YORK", "state": "NY", "zip": "10011-0000", "ntee": "A26", "ruling": "202009", "deductibility": "1", "assets": 920231, "income": 158163, "revenue": 158163}], "IEDPU": [{"ein": "844734673", "name": "ILORIN EMIRATE DESCENDANTS PROGRESSIVE UNION IEDPU USA BRANCH", "city": "STATEN ISLAND", "state": "NY", "zip": "10303-2486", "ntee": "A99", "ruling": "202009", "deductibility": "1", "assets": 0, "income": 0, "revenue": 0}], "INFLUENCER": [{"ein": "844935490", "name": "AMERICAN INFLUENCER COUNCIL INC", "city": "NEW YORK", "state": "NY", "zip": "10011-8436", "ntee": "S41", "ruling": "202007", "deductibility": "2", "assets": 0, "income": 0, "revenue": 0}], "GRACZYK": [{"ein": "851607360", "name": "BETH GRACZYK PRODUCTIONS INC", "city": "BROOKLYN", "state": "NY", "zip": "11225-2055", "ntee": "", "ruling": "202008", "deductibility": "1", "assets": 0, "income": 0, "revenue": 0}], "CROATIA": [{"ein": "852644851", "name": "CROATIA LACROSSE FOUNDATION", "city": "MANHASSET", "state": "NY", "zip": "11030-1980", "ntee": "N71", "ruling": "202012", "deductibility": "1", "assets": 0, "income": 0, "revenue": 0}, {"ein": "921739014", "name": "FRIENDS OF MENORA COMMUNITY IN CROATIA INC", "city": "FOREST HILLS", "state": "NY", "zip": "11375-5833", "ntee": "X30", "ruling": "202310", "deductibility": "1", "assets": 0, "income": 0, "revenue": 0}], "FIREFLY": [{"ein": "854171411", "name": "STARLIGHT & FIREFLY INC", "city": "NEW YORK", "state": "NY", "zip": "10016-7419", "ntee": "A23", "ruling": "202103", "deductibility": "1", "assets": 0, "income": 0, "revenue": 0}, {"ein": "923857571", "name": "FIREFLY MEADOW SERVICE DOGS INC", "city": "ARGYLE", "state": "NY", "zip": "12809-2725", "ntee": "D99", "ruling": "202306", "deductibility": "1", "assets": 0, "income": 0, "revenue": 0}], "MALDON": [{"ein": "861871843", "name": "MALDON HIGH SCHOOL ALUMNI ASSOCIATION - NORTH EAST REGION", "city": "WESTBURY", "state": "NY", "zip": "11590-3644", "ntee": "Y11", "ruling": "202105", "deductibility": "1", "assets": 0, "income": 0, "revenue": 0}], "TOWERING": [{"ein": "871111652", "name": "TOWERING TREE CHARITABLE FOUNDATION INC", "city": "FLUSHING", "state": "NY", "zip": "11354-5672", "ntee": "P30", "ruling": "202109", "deductibility": "1", "assets": 0, "income": 0, "revenue": 0}], "GIURICEO": [{"ein": "871465627", "name": "GIURICEO FAMILY FOUNDATION", "city": "BRONXVILLE", "state": "NY", "zip": "10708-4901", "ntee": "T22", "ruling": "202111", "deductibility": "1", "assets": 1, "income": 5537, "revenue": 0}], "KEYSER": [{"ein": "873116377", "name": "KEYSER FOUNDATION", "city": "ALBANY", "state": "NY", "zip": "12212-5201", "ntee": "T20", "ruling": "202203", "deductibility": "1", "assets": 4549803, "income": 1327458, "revenue": 0}], "BRAHAM": [{"ein": "882357657", "name": "MARQUISE BRAHAM BEST OF YOURSELF FOUNDATION INC", "city": "ROSEDALE", "state": "NY", "zip": "11422-2145", "ntee": "O99", "ruling": "202402", "deductibility": "1", "assets": 43616, "income": 62985, "revenue": 62985}], "MANOJ": [{"ein": "883097556", "name": "NINA & MANOJ PAUL FOUNDATION INC", "city": "WOODBURY", "state": "NY", "zip": "11797-1005", "ntee": "T20", "ruling": "202208", "deductibility": "1", "assets": 1177799, "income": 199787, "revenue": 0}], "KAMARNA": [{"ein": "883845162", "name": "CONGREGATION HEICHAL KAMARNA", "city": "PALM TREE", "state": "NY", "zip": "10950-8474", "ntee": "X30", "ruling": "202310", "deductibility": "1", "assets": 0, "income": 0, "revenue": 0}], "THYROIDOLOGY": [{"ein": "883874073", "name": "NORTH AMERICAN SOCIETY FOR INTERVENTIONAL THYROIDOLOGY", "city": "NEW YORK", "state": "NY", "zip": "10016-6402", "ntee": "H90", "ruling": "202211", "deductibility": "1", "assets": 79015, "income": 54590, "revenue": 54590}], "CHEDVESA": [{"ein": "921098422", "name": "CHEDVESA", "city": "BROOKLYN", "state": "NY", "zip": "11204-0000", "ntee": "X30", "ruling": "202302", "deductibility": "1", "assets": 0, "income": 0, "revenue": 0}], "PENNYS": [{"ein": "921211076", "name": "PENNYS FLIGHT FOUNDATION INC", "city": "GLEN COVE", "state": "NY", "zip": "11542-3112", "ntee": "H80", "ruling": "202301", "deductibility": "1", "assets": 2236, "income": 0, "revenue": -23811}], "ETTERE": [{"ein": "921662861", "name": "NICOLE ETTERE MEMORIAL GARDENS FOUNDATION INC", "city": "SOMERS", "state": "NY", "zip": "10589-0703", "ntee": "F99", "ruling": "202309", "deductibility": "1", "assets": 9384, "income": 7785, "revenue": 7785}], "SCROLLATHON": [{"ein": "921799483", "name": "SCROLLATHON INC", "city": "NEW YORK", "state": "NY", "zip": "10001-5540", "ntee": "A20", "ruling": "202409", "deductibility": "1", "assets": 0, "income": 0, "revenue": 0}], "VALENTINAS": [{"ein": "923279241", "name": "VALENTINAS VOICE INC", "city": "NEW YORK", "state": "NY", "zip": "10019-7017", "ntee": "P40", "ruling": "202304", "deductibility": "1", "assets": 0, "income": 0, "revenue": 0}], "CEDI": [{"ein": "931561318", "name": "CEDI MEDICAL FOUNDATION CORPORATION", "city": "BRONX", "state": "NY", "zip": "10451-3960", "ntee": "E21", "ruling": "202502", "deductibility": "1", "assets": 0, "income": 0, "revenue": 0}], "SHOSHVININ": [{"ein": "931667372", "name": "SHOSHVININ", "city": "BROOKLYN", "state": "NY", "zip": "11219-3011", "ntee": "X30", "ruling": "202408", "deductibility": "1", "assets": 0, "income": 0, "revenue": 0}, {"ein": "993430181", "name": "SHOSHVININ OF WILLIAMSBURG INC", "city": "BROOKLYN", "state": "NY", "zip": "11206-4989", "ntee": "X30", "ruling": "202504", "deductibility": "1", "assets": 0, "income": 0, "revenue": 0}], "NISK": [{"ein": "933245770", "name": "NISK ART FRIENDS INC", "city": "ALBANY", "state": "NY", "zip": "12205-3873", "ntee": "A20", "ruling": "202309", "deductibility": "1", "assets": 0, "income": 0, "revenue": 0}], "REINE": [{"ein": "933395768", "name": "FOUNDATION REINE ANACAONA INC", "city": "YONKERS", "state": "NY", "zip": "10704-4441", "ntee": "T50", "ruling": "202310", "deductibility": "1", "assets": 0, "income": 0, "revenue": 0}], "EJ": [{"ein": "933626518", "name": "EJ PINNACLE FOUNDATION INC", "city": "BRONX", "state": "NY", "zip": "10475-0000", "ntee": "P20", "ruling": "202311", "deductibility": "1", "assets": 0, "income": 0, "revenue": 0}], "716SNKRS": [{"ein": "991128674", "name": "716SNKRS INC", "city": "ANGOLA", "state": "NY", "zip": "14006-9798", "ntee": "P30", "ruling": "202402", "deductibility": "1", "assets": 0, "income": 0, "revenue": 0}], "REWO": [{"ein": "992849855", "name": "REWO DRUKDA SOCIETY INC", "city": "EAST ELMHURST", "state": "NY", "zip": "11369-1220", "ntee": "P84", "ruling": "202407", "deductibility": "1", "assets": 0, "income": 0, "revenue": 0}], "ELEVAATE": [{"ein": "994359759", "name": "ELEVAATE BIOTECH INC", "city": "NEW YORK", "state": "NY", "zip": "10025-7833", "ntee": "S99", "ruling": "202503", "deductibility": "1", "assets": 0, "income": 0, "revenue": 0}], "WEITZMAN": [{"ein": "994591858", "name": "WEITZMAN CREATIONS LTD", "city": "STONY BROOK", "state": "NY", "zip": "11790-2520", "ntee": "B90", "ruling": "202504", "deductibility": "1", "assets": 1, "income": 1023, "revenue": 1023}]}