{"MARYS": [{"ein": "010736732", "name": "MOUNT ST MARYS HOUSING DEVELOPMENT FUND COMPANY INC", "city": "BUFFALO", "state": "NY", "zip": "14203-1711", "ntee": "", "ruling": "194603", "deductibility": "1", "assets": 3098480, "income": 339114, "revenue": 339114}, {"ein": "061312879", "name": "ST MARYS CHURCH OF CHRIST", "city": "BROOKLYN", "state": "NY", "zip": "11221-1703", "ntee": "", "ruling": "199202", "deductibility": "1", "assets": 0, "income": 0, "revenue": 0}, {"ein": "111633503", "name": "ST MARYS CHAPEL", "city": "GARDEN CITY", "state": "NY", "zip": "11530-4422", "ntee": "", "ruling": "197206", "deductibility": "1", "assets": 0, "income": 0, "revenue": 0}, {"ein": "111642728", "name": "ST MARYS ROMAN CATHOLIC CHURCH", "city": "MANHASSET", "state": "NY", "zip": "11030-3020", "ntee": "", "ruling": "194603", "deductibility": "1", "assets": 0, "income": 0, "revenue": 0}, {"ein": "111672802", "name": "ST MARYS CHURCH", "city": "BROOKLYN", "state": "NY", "zip": "11205-1441", "ntee": "", "ruling": "197206", "deductibility": "1", "assets": 0, "income": 0, "revenue": 0}, {"ein": "111679599", "name": "SAINT MARYS HOSPITAL FOR CHILDREN INC", "city": "BAYSIDE", "state": "NY", "zip": "11360-2810", "ntee": "E240", "ruling": "194308", "deductibility": "1", "assets": 169339977, "income": 124884968, "revenue": 124884968}, {"ein": "111772997", "name": "ST MARYS CHURCH", "city": "AMITYVILLE", "state": "NY", "zip": "11701-2703", "ntee": "", "ruling": "197206", "deductibility": "1", "assets": 0, "income": 0, "revenue": 0}, {"ein": "111835881", "name": "MARYS HALL INC", "city": "BROOKLYN", "state": "NY", "zip": "11201-4306", "ntee": "", "ruling": "194603", "deductibility": "1", "assets": 19110097, "income": 6342762, "revenue": 6342762}, {"ein": "112170649", "name": "ST MARYS CHURCH", "city": "SHELTER IS", "state": "NY", "zip": "11964-1660", "ntee": "", "ruling": "197206", "deductibility": "1", "assets": 0, "income": 0, "revenue": 0}, {"ein": "112171885", "name": "ST MARYS CHURCH", "city": "LK RONKONKOMA", "state": "NY", "zip": "11779-3180", "ntee": "", "ruling": "197206", "deductibility": "1", "assets": 0, "income": 0, "revenue": 0}, {"ein": "112341131", "name": "ST MARYS CHURCH", "city": "CARLE PLACE", "state": "NY", "zip": "11514-0201", "ntee": "", "ruling": "197206", "deductibility": "1", "assets": 0, "income": 0, "revenue": 0}, {"ein": "112449670", "name": "SAINT MARYS DEVELOPMENT FUND INC", "city": "FRANKLIN SQ", "state": "NY", "zip": "11010-0152", "ntee": "", "ruling": "197904", "deductibility": "1", "assets": 275107, "income": 8281, "revenue": 8281}, {"ein": "112546620", "name": "SAINT MARYS ROMANIAN ORTHODOX CHURCH", "city": "ELMHURST", "state": "NY", "zip": "11373-1809", "ntee": "", "ruling": "198104", "deductibility": "1", "assets": 0, "income": 0, "revenue": 0}, {"ein": "112565791", "name": "ST MARYS MANOR FOR SENIOR CITIZEN HOUSING DEVELOPMENT FUND COMPANY I", "city": "HEMPSTEAD", "state": "NY", "zip": "11550-3601", "ntee": "", "ruling": "198105", "deductibility": "1", "assets": 13011260, "income": 4249991, "revenue": 4249991}, {"ein": "112626138", "name": "ST MARYS MALANKARA ORTHODOX CHURCH INC", "city": "LONG IS CITY", "state": "NY", "zip": "11106-0237", "ntee": "", "ruling": "198702", "deductibility": "1", "assets": 0, "income": 0, "revenue": 0}, {"ein": "112728736", "name": "ST MARYS FOUNDATION FOR CHILDREN", "city": "BAYSIDE", "state": "NY", "zip": "11360-2810", "ntee": "", "ruling": "199210", "deductibility": "1", "assets": 51793274, "income": 5432053, "revenue": 5190007}, {"ein": "112978515", "name": "ST MARYS ORTHODOX CHRISTIAN CENTER", "city": "WOODSIDE", "state": "NY", "zip": "11377-2538", "ntee": "", "ruling": "199101", "deductibility": "1", "assets": 0, "income": 0, "revenue": 0}, {"ein": "113360276", "name": "ST MARYS COMMUNITY CARE PROFESSIONALS CORP", "city": "BAYSIDE", "state": "NY", "zip": "11360-2810", "ntee": "E60", "ruling": "199709", "deductibility": "1", "assets": 45862, "income": 521420, "revenue": 521420}, {"ein": "113574493", "name": "ST MARYS HEALTHCARE SYSTEM FOR CHILDREN INC", "city": "NEW HYDE PARK", "state": "NY", "zip": "11042-1107", "ntee": "E02", "ruling": "200109", "deductibility": "1", "assets": 0, "income": 0, "revenue": 0}, {"ein": "116029659", "name": "CHURCH OF ST MARYS", "city": "HAMPTON BAYS", "state": "NY", "zip": "11946-0701", "ntee": "", "ruling": "197206", "deductibility": "1", "assets": 0, "income": 0, "revenue": 0}, {"ein": "131623864", "name": "ST MARYS RESIDENCE OF NEW YORK INC", "city": "NEW YORK", "state": "NY", "zip": "10021-4550", "ntee": "", "ruling": "194603", "deductibility": "1", "assets": 7160567, "income": 2425861, "revenue": 2425861}, {"ein": "131740358", "name": "ST MARYS CHURCH", "city": "KATONAH", "state": "NY", "zip": "10536-1705", "ntee": "", "ruling": "194603", "deductibility": "1", "assets": 0, "income": 0, "revenue": 0}, {"ein": "131844850", "name": "ST MARYS CHURCH OF SCARBOROUGH", "city": "SCARBOROUGH", "state": "NY", "zip": "10510-8805", "ntee": "", "ruling": "197109", "deductibility": "1", "assets": 0, "income": 0, "revenue": 0}, {"ein": "132693090", "name": "ST MARGARET MARYS PAROCHIAL SCHOOL", "city": "STATEN ISLAND", "state": "NY", "zip": "10306-5849", "ntee": "", "ruling": "194603", "deductibility": "1", "assets": 0, "income": 0, "revenue": 0}, {"ein": "133004766", "name": "ST MARYS SYRIAN ORTHODOX CHURCH", "city": "QUEENS VLG", "state": "NY", "zip": "11427-2510", "ntee": "", "ruling": "198001", "deductibility": "1", "assets": 0, "income": 0, "revenue": 0}, {"ein": "133067710", "name": "ST MARYS SYRIAN ORTHODOX CHURCH", "city": "LYNBROOK", "state": "NY", "zip": "11563-3340", "ntee": "", "ruling": "198204", "deductibility": "1", "assets": 0, "income": 0, "revenue": 0}, {"ein": "133254655", "name": "THE FOUNDATION OF ST MARYS HOSPITAL AT AMSTERDAM INC", "city": "AMSTERDAM", "state": "NY", "zip": "12010-1003", "ntee": "", "ruling": "198504", "deductibility": "1", "assets": 16428742, "income": 3111179, "revenue": 838427}, {"ein": "133426966", "name": "ST MARYS INDIAN ORTHODOX CHURCH OF ROCKLAND INC", "city": "SUFFERN", "state": "NY", "zip": "10901-5610", "ntee": "", "ruling": "199208", "deductibility": "1", "assets": 0, "income": 0, "revenue": 0}, {"ein": "133591762", "name": "ST MARYS CENTER INC", "city": "NEW YORK", "state": "NY", "zip": "10027-2406", "ntee": "G810", "ruling": "199012", "deductibility": "1", "assets": 7811199, "income": 7260484, "revenue": 7260484}, {"ein": "133683498", "name": "ST MARYS MALANKARA SYRIAN ORTHODOX CHURCH", "city": "WEST NYACK", "state": "NY", "zip": "10994-2621", "ntee": "X20Z", "ruling": "199512", "deductibility": "1", "assets": 0, "income": 0, "revenue": 0}, {"ein": "133878360", "name": "ST MARYS ANGLICAN CHURCH", "city": "BRONX", "state": "NY", "zip": "10454-0000", "ntee": "", "ruling": "196405", "deductibility": "1", "assets": 0, "income": 0, "revenue": 0}, {"ein": "134000663", "name": "ST MARYS VILLA INC", "city": "SLOATSBURG", "state": "NY", "zip": "10974-0009", "ntee": "", "ruling": "194603", "deductibility": "0", "assets": 0, "income": 0, "revenue": 0}, {"ein": "134011425", "name": "ST MARYS ORTHODOX CHURCH OF INDIA", "city": "STATEN ISLAND", "state": "NY", "zip": "10302-1442", "ntee": "X20", "ruling": "199902", "deductibility": "1", "assets": 0, "income": 0, "revenue": 0}, {"ein": "136163550", "name": "ST MARYS REHABILITATION CENTER FOR CHILDREN", "city": "BAYSIDE", "state": "NY", "zip": "11360-2810", "ntee": "E50Z", "ruling": "196407", "deductibility": "1", "assets": 1, "income": 181616, "revenue": 181616}, {"ein": "141338470", "name": "HEALTHALLIANCE HOSPITAL MARYS AVENUE CAMPUS", "city": "KINGSTON", "state": "NY", "zip": "12401-0000", "ntee": "E20", "ruling": "201505", "deductibility": "1", "assets": 180606200, "income": 192244558, "revenue": 191771812}, {"ein": "141347719", "name": "ST MARYS HEALTHCARE", "city": "AMSTERDAM", "state": "NY", "zip": "12010-1003", "ntee": "E220", "ruling": "194603", "deductibility": "1", "assets": 148741716, "income": 184774496, "revenue": 184774496}, {"ein": "141372928", "name": "ST MARYS HOSPITAL AUXILIARY INC ST MARYS HOSPITAL", "city": "AMSTERDAM", "state": "NY", "zip": "12010-1003", "ntee": "", "ruling": "195301", "deductibility": "1", "assets": 108931, "income": 103682, "revenue": 68890}, {"ein": "141387852", "name": "ST MARYS CHURCH", "city": "TICONDEROGA", "state": "NY", "zip": "12883-1432", "ntee": "", "ruling": "194603", "deductibility": "1", "assets": 0, "income": 0, "revenue": 0}, {"ein": "141510431", "name": "ST MARYS - ST ALPHONSUS SCHOOL", "city": "GLENS FALLS", "state": "NY", "zip": "12801-4569", "ntee": "", "ruling": "194603", "deductibility": "1", "assets": 0, "income": 0, "revenue": 0}, {"ein": "141660137", "name": "COMMUNITY HEALTH CENTER OF ST MARYS HEALTHCARE & NATHAN LITTAUER HOSPI", "city": "JOHNSTOWN", "state": "NY", "zip": "12095-2308", "ntee": "E92Z", "ruling": "198704", "deductibility": "1", "assets": 637392, "income": 608146, "revenue": 608146}, {"ein": "141675204", "name": "ST MARYS MISSION CENTER INC", "city": "CHAMPLAIN", "state": "NY", "zip": "12919-5020", "ntee": "P85", "ruling": "200901", "deductibility": "1", "assets": 199948, "income": 57968, "revenue": 57968}, {"ein": "141753421", "name": "ST MARYS ACADEMY", "city": "HOOSICK FALLS", "state": "NY", "zip": "12090-1125", "ntee": "", "ruling": "194603", "deductibility": "0", "assets": 0, "income": 0, "revenue": 0}, {"ein": "146017940", "name": "ST MARYS CHURCH IN THE HIGHLANDS", "city": "COLD SPRING", "state": "NY", "zip": "10516-2516", "ntee": "", "ruling": "194001", "deductibility": "1", "assets": 0, "income": 0, "revenue": 0}, {"ein": "150532119", "name": "ST MARYS CATHEDRAL", "city": "OGDENSBURG", "state": "NY", "zip": "13669-1108", "ntee": "", "ruling": "194603", "deductibility": "1", "assets": 0, "income": 0, "revenue": 0}, {"ein": "150532322", "name": "ST MARYS CHURCH", "city": "NEW YORK MILLS", "state": "NY", "zip": "13417-1122", "ntee": "", "ruling": "194603", "deductibility": "1", "assets": 0, "income": 0, "revenue": 0}, {"ein": "150539071", "name": "ROMAN CATHOLIC CHURCH OF ST MARYS IN POTSDAM NY", "city": "POTSDAM", "state": "NY", "zip": "13676-0000", "ntee": "", "ruling": "194603", "deductibility": "1", "assets": 0, "income": 0, "revenue": 0}, {"ein": "150539088", "name": "ST MARYS OF THE LAKE CHURCH", "city": "WATKINS GLEN", "state": "NY", "zip": "14891-0289", "ntee": "", "ruling": "194603", "deductibility": "1", "assets": 0, "income": 0, "revenue": 0}, {"ein": "150542256", "name": "ST MARYS CHURCH", "city": "AUBURN", "state": "NY", "zip": "13021-3501", "ntee": "", "ruling": "194603", "deductibility": "1", "assets": 0, "income": 0, "revenue": 0}, {"ein": "150545833", "name": "ST MARYS OF THE LAKE CHURCH", "city": "SYRACUSE", "state": "NY", "zip": "13202-2608", "ntee": "", "ruling": "194603", "deductibility": "1", "assets": 0, "income": 0, "revenue": 0}, {"ein": "150618396", "name": "ST MARYS CHURCH", "city": "CONSTABLEVLE", "state": "NY", "zip": "13325-0431", "ntee": "", "ruling": "194603", "deductibility": "1", "assets": 0, "income": 0, "revenue": 0}, {"ein": "160620895", "name": "ST MARYS ATHLETIC CLUB INC", "city": "ALBION", "state": "NY", "zip": "14411-1149", "ntee": "", "ruling": "194607", "deductibility": "2", "assets": 18074, "income": 198893, "revenue": 37780}, {"ein": "160743171", "name": "ST MARYS SCHOOL FOR THE DEAF", "city": "BUFFALO", "state": "NY", "zip": "14214-2349", "ntee": "", "ruling": "197304", "deductibility": "1", "assets": 10908049, "income": 13567780, "revenue": 13567780}, {"ein": "160743287", "name": "ST MARYS ROMAN CATHOLIC CHURCH SOCIETY", "city": "ELMIRA", "state": "NY", "zip": "14904-1706", "ntee": "", "ruling": "194603", "deductibility": "1", "assets": 0, "income": 0, "revenue": 0}, {"ein": "160743289", "name": "ST MARYS ROMAN CATHOLIC CHURCH SOCIETY", "city": "SWORMVILLE", "state": "NY", "zip": "14051-1302", "ntee": "", "ruling": "194603", "deductibility": "1", "assets": 0, "income": 0, "revenue": 0}, {"ein": "160755860", "name": "ST MARYS CHURCH SOCIETY INC", "city": "ROCHESTER", "state": "NY", "zip": "14607-3226", "ntee": "", "ruling": "194603", "deductibility": "1", "assets": 0, "income": 0, "revenue": 0}, {"ein": "160755868", "name": "ST MARYS CHURCH", "city": "HONEOYE", "state": "NY", "zip": "14471-0725", "ntee": "", "ruling": "194603", "deductibility": "1", "assets": 0, "income": 0, "revenue": 0}, {"ein": "161360884", "name": "MOUNT ST MARYS HOSPITAL FOUNDATION INC", "city": "BUFFALO", "state": "NY", "zip": "14203-1560", "ntee": "E22I", "ruling": "199402", "deductibility": "1", "assets": 9124425, "income": 2769782, "revenue": 657575}, {"ein": "161401191", "name": "ST MARYS HIGH SCHOOL", "city": "LANCASTER", "state": "NY", "zip": "14086-1849", "ntee": "", "ruling": "194603", "deductibility": "1", "assets": 0, "income": 0, "revenue": 0}, {"ein": "161435325", "name": "ST MARYS SCHOOL", "city": "CANANDAIGUA", "state": "NY", "zip": "14424-0000", "ntee": "", "ruling": "194603", "deductibility": "1", "assets": 0, "income": 0, "revenue": 0}, {"ein": "161523352", "name": "MOUNT ST MARYS CHILD CARE CENTER INC", "city": "BUFFALO", "state": "NY", "zip": "14203-1560", "ntee": "B99", "ruling": "199802", "deductibility": "1", "assets": 780350, "income": 636961, "revenue": 636961}, {"ein": "161523353", "name": "MOUNT ST MARYS HOSPITAL OF NIAGARA FALLS", "city": "BUFFALO", "state": "NY", "zip": "14203-1560", "ntee": "E220", "ruling": "194603", "deductibility": "1", "assets": 139539911, "income": 149561185, "revenue": 149561185}, {"ein": "161582926", "name": "BOARD OF ASSOCIATES OF MOUNT ST MARYS HOSPITAL NIAGARA FALLS INC", "city": "LEWISTON", "state": "NY", "zip": "14092-1903", "ntee": "B82", "ruling": "200507", "deductibility": "1", "assets": 20300, "income": 17218, "revenue": 1915}, {"ein": "166415136", "name": "IRENE SARGENT ALLEN ENDOWMENT FUND FBO ST MARYS CHURCH", "city": "ONEONTA", "state": "NY", "zip": "13820-2502", "ntee": "T11", "ruling": "199910", "deductibility": "1", "assets": 198181, "income": 105894, "revenue": 0}, {"ein": "205667264", "name": "ST MARYS FOUNDATION FOR FOREIGN &DOMESTIC MISSION INC", "city": "GREENWICH", "state": "NY", "zip": "12834-7922", "ntee": "Q30", "ruling": "200701", "deductibility": "1", "assets": 0, "income": 0, "revenue": 0}, {"ein": "222509238", "name": "ST MARYS EPISCOPAL CHURCH", "city": "DOWNSVILLE", "state": "NY", "zip": "13755-0334", "ntee": "", "ruling": "194001", "deductibility": "1", "assets": 0, "income": 0, "revenue": 0}, {"ein": "237013135", "name": "INTERNATIONAL ST MARYS TEMPLE OF TRUTH INC", "city": "NEW YORK", "state": "NY", "zip": "10029-1749", "ntee": "", "ruling": "196901", "deductibility": "1", "assets": 0, "income": 0, "revenue": 0}, {"ein": "264666254", "name": "ST MARYS JACOBITE SYRIAC ORTHODOX CHURCH OF WHITE PLAINS INC", "city": "WHITE PLAINS", "state": "NY", "zip": "10602-8225", "ntee": "X20", "ruling": "201401", "deductibility": "1", "assets": 0, "income": 0, "revenue": 0}, {"ein": "331150405", "name": "ST MARYS ORTHODOX CHURCH OF INDIA", "city": "VLY COTTAGE", "state": "NY", "zip": "10989-0065", "ntee": "X20", "ruling": "201312", "deductibility": "1", "assets": 0, "income": 0, "revenue": 0}, {"ein": "371524527", "name": "COMMUNITY FOOD PANTRY AT ST MARYS MOHEGAN LAKE INC", "city": "MOHEGAN LAKE", "state": "NY", "zip": "10547-1226", "ntee": "K31", "ruling": "200705", "deductibility": "1", "assets": 24805, "income": 88442, "revenue": 88442}, {"ein": "454483767", "name": "MARYS NATIVITY-SAINT ANN ROMAN CATHOLIC CHURCH", "city": "FLUSHING", "state": "NY", "zip": "11355-2222", "ntee": "", "ruling": "194603", "deductibility": "1", "assets": 0, "income": 0, "revenue": 0}, {"ein": "455093088", "name": "ST MARYS MALANKARA JACOBITE SYRIAC ORTHODOX CHURCH", "city": "FLORAL PARK", "state": "NY", "zip": "11001-1515", "ntee": "X20", "ruling": "201502", "deductibility": "1", "assets": 0, "income": 0, "revenue": 0}, {"ein": "510177114", "name": "ST MARYS ORTHODOX CHURCH OF INDIA", "city": "BRONX", "state": "NY", "zip": "10458-2404", "ntee": "", "ruling": "197601", "deductibility": "1", "assets": 0, "income": 0, "revenue": 0}, {"ein": "510217790", "name": "ST FRANCIS GUILD OF MOUNT ST MARYS HOSPITAL OF NIAGARA FALLS", "city": "LEWISTON", "state": "NY", "zip": "14092-1903", "ntee": "", "ruling": "194603", "deductibility": "1", "assets": 29413, "income": 18574, "revenue": 6993}, {"ein": "510480725", "name": "ST MARYS PRAYER GROUP OF YONKERS INC", "city": "CHAPPAQUA", "state": "NY", "zip": "10514-1015", "ntee": "X21", "ruling": "200312", "deductibility": "1", "assets": 0, "income": 0, "revenue": 0}, {"ein": "753144518", "name": "ST MARYS SUPPORTIVE HOUSING DEVELOPMENT FUND CORPORATION", "city": "HARRISON", "state": "NY", "zip": "10528-1140", "ntee": "L20", "ruling": "201410", "deductibility": "1", "assets": 0, "income": 0, "revenue": 0}, {"ein": "834566382", "name": "MARYS PLACE REFUGEE OUTREACH INC", "city": "ROCHESTER", "state": "NY", "zip": "14613-1419", "ntee": "A70", "ruling": "201908", "deductibility": "1", "assets": 121890, "income": 302912, "revenue": 284136}, {"ein": "882932949", "name": "AUNT MARYS HOUSE INC", "city": "NORWICH", "state": "NY", "zip": "13815-1316", "ntee": "P20", "ruling": "202303", "deductibility": "1", "assets": 268574, "income": 132441, "revenue": 132441}, {"ein": "993827768", "name": "ST MARYS COMMUNITY BOARD INC", "city": "COLD SPRING", "state": "NY", "zip": "10516-0313", "ntee": "C11", "ruling": "202501", "deductibility": "1", "assets": 0, "income": 0, "revenue": 0}], "KFA": [{"ein": "010898876", "name": "KAYAK FISHING ASSOCIATION OF NY LTD KFA NY", "city": "SETAUKET", "state": "NY", "zip": "11733-1323", "ntee": "N61", "ruling": "200812", "deductibility": "2", "assets": 0, "income": 0, "revenue": 0}], "INDEPENDENCE": [{"ein": "020574478", "name": "PHILIPPINE INDEPENDENCE DAY COUNCIL INC", "city": "NEW YORK", "state": "NY", "zip": "10007-0000", "ntee": "P84", "ruling": "201908", "deductibility": "1", "assets": 69314, "income": 409636, "revenue": 247626}, {"ein": "112247706", "name": "BROOKLYN CENTER FOR INDEPENDENCE OF THE DISABLED", "city": "BROOKLYN", "state": "NY", "zip": "11201-5355", "ntee": "P820", "ruling": "196407", "deductibility": "1", "assets": 630324, "income": 1133966, "revenue": 1133966}, {"ein": "113287926", "name": "DAY OF INDEPENDENCE COMMITTEE OF PANAMANIANS IN NEW YORK INC", "city": "BROOKLYN", "state": "NY", "zip": "11225-0633", "ntee": "W99", "ruling": "201407", "deductibility": "1", "assets": 8482, "income": 141879, "revenue": 141879}, {"ein": "113359068", "name": "INDEPENDENCE 1ST OWNER CORP", "city": "ELMONT", "state": "NY", "zip": "11003-4033", "ntee": "P80", "ruling": "199704", "deductibility": "1", "assets": 540699, "income": 419699, "revenue": 419699}, {"ein": "113359073", "name": "INDEPENDENCE 2ND OWNER CORP", "city": "ELMONT", "state": "NY", "zip": "11003-4033", "ntee": "P20", "ruling": "199706", "deductibility": "1", "assets": 701259, "income": 193146, "revenue": 193146}, {"ein": "113361698", "name": "VINCENTIAN-AMERICAN INDEPENDENCE NATIONAL CHARITIES", "city": "BROOKLYN", "state": "NY", "zip": "11234-2246", "ntee": "B900", "ruling": "199706", "deductibility": "1", "assets": 0, "income": 0, "revenue": 0}, {"ein": "132984549", "name": "CENTER FOR INDEPENDENCE OF THE DISABLED IN NEW YORK INC", "city": "NEW YORK", "state": "NY", "zip": "10018-5402", "ntee": "P800", "ruling": "197906", "deductibility": "1", "assets": 9918205, "income": 11078762, "revenue": 10362875}, {"ein": "133200666", "name": "COUNT ME IN FOR WOMENS ECONOMIC INDEPENDENCE INC", "city": "NEW YORK", "state": "NY", "zip": "10019-1435", "ntee": "S43", "ruling": "198905", "deductibility": "1", "assets": 994, "income": 60030, "revenue": 60030}, {"ein": "133490223", "name": "IRI INNOVATIVE RESOURCES FOR INDEPENDENCE INC", "city": "QUEENS VLG", "state": "NY", "zip": "11429-2235", "ntee": "P82Z", "ruling": "198903", "deductibility": "1", "assets": 80180128, "income": 54662857, "revenue": 54662857}, {"ein": "133491677", "name": "PAKISTAN INDEPENDENCE DAY PARADE & FAIR COMMITTEE INC", "city": "STATEN ISLAND", "state": "NY", "zip": "10312-4112", "ntee": "A23", "ruling": "201408", "deductibility": "1", "assets": 520, "income": 63001, "revenue": 63001}, {"ein": "133665051", "name": "INDEPENDENCE PLAZA NORTH TENANTS ASSOCIATION", "city": "NEW YORK", "state": "NY", "zip": "10013-2700", "ntee": "L50", "ruling": "200203", "deductibility": "2", "assets": 34762, "income": 5889, "revenue": 5889}, {"ein": "133714761", "name": "CHURCH OF GOD OF FORT INDEPENDENCE INC", "city": "BRONX", "state": "NY", "zip": "10463-5860", "ntee": "X20Z", "ruling": "199809", "deductibility": "1", "assets": 0, "income": 0, "revenue": 0}, {"ein": "133964284", "name": "INDEPENDENCE CARE SYSTEM INC", "city": "BROOKLYN", "state": "NY", "zip": "11201-5826", "ntee": "E99", "ruling": "199808", "deductibility": "1", "assets": 12382855, "income": 19194675, "revenue": 13540682}, {"ein": "141470091", "name": "COMMUNITY WORK & INDEPENDENCE INC", "city": "GLENS FALLS", "state": "NY", "zip": "12801-0303", "ntee": "J30Z", "ruling": "197303", "deductibility": "1", "assets": 15670082, "income": 23512687, "revenue": 20718297}, {"ein": "141623275", "name": "CAPITAL DISTRICT CENTER FOR INDEPENDENCE INC", "city": "ALBANY", "state": "NY", "zip": "12205-4051", "ntee": "", "ruling": "198111", "deductibility": "1", "assets": 2644683, "income": 1501608, "revenue": 1501608}, {"ein": "141692576", "name": "TACONIC RESOURCES FOR INDEPENDENCE INC", "city": "POUGHKEEPSIE", "state": "NY", "zip": "12601-2305", "ntee": "G42Z", "ruling": "198902", "deductibility": "1", "assets": 1231855, "income": 1797268, "revenue": 1797023}, {"ein": "141703075", "name": "ACTION TOWARD INDEPENDENCE INC", "city": "MONTICELLO", "state": "NY", "zip": "12701-8839", "ntee": "P80Z", "ruling": "198904", "deductibility": "1", "assets": 1200464, "income": 1263344, "revenue": 1263344}, {"ein": "141718431", "name": "NORTH COUNTRY CENTER FOR INDEPENDENCE", "city": "PLATTSBURGH", "state": "NY", "zip": "12901-4700", "ntee": "P80Z", "ruling": "199310", "deductibility": "1", "assets": 431012, "income": 1213712, "revenue": 1213712}, {"ein": "141773579", "name": "CORNWALL INDEPENDENCE DAY COMMITTEE", "city": "CORNWALL", "state": "NY", "zip": "12518-0542", "ntee": "A54", "ruling": "201407", "deductibility": "1", "assets": 0, "income": 0, "revenue": 0}, {"ein": "161204347", "name": "SOUTHERN TIER INDEPENDENCE CENTER INC", "city": "BINGHAMTON", "state": "NY", "zip": "13904-1224", "ntee": "P80Z", "ruling": "198411", "deductibility": "1", "assets": 14839091, "income": 22571415, "revenue": 22490373}, {"ein": "161326969", "name": "CATSKILL CENTER FOR INDEPENDENCE INC", "city": "ONEONTA", "state": "NY", "zip": "13820-6501", "ntee": "P80Z", "ruling": "199310", "deductibility": "1", "assets": 1107762, "income": 905795, "revenue": 905795}, {"ein": "161330345", "name": "FINGER LAKES INDEPENDENCE CENTER", "city": "ITHACA", "state": "NY", "zip": "14850-3403", "ntee": "P82", "ruling": "199208", "deductibility": "1", "assets": 5916432, "income": 7494082, "revenue": 7406368}, {"ein": "161557965", "name": "ACCESS TO INDEPENDENCE OF CORTLAND COUNTY INC", "city": "CORTLAND", "state": "NY", "zip": "13045-2198", "ntee": "B80", "ruling": "199910", "deductibility": "1", "assets": 572791, "income": 993227, "revenue": 993227}, {"ein": "201518304", "name": "BUSHWICK HOUSING INDEPENDENCE PROJECT", "city": "BROOKLYN", "state": "NY", "zip": "11221-2725", "ntee": "S20", "ruling": "200804", "deductibility": "1", "assets": 157560, "income": 155981, "revenue": 155981}, {"ein": "222258305", "name": "INDEPENDENCE EMERGENCY SQUAD INC", "city": "WHITESVILLE", "state": "NY", "zip": "14897-0000", "ntee": "H11", "ruling": "201905", "deductibility": "1", "assets": 247574, "income": 56738, "revenue": 56738}, {"ein": "264616779", "name": "JAMAICAN INDEPENDENCE CELEBRATION FOUNDATION INC", "city": "BRONX", "state": "NY", "zip": "10453-6737", "ntee": "Q33", "ruling": "200910", "deductibility": "1", "assets": 0, "income": 0, "revenue": 0}, {"ein": "311779246", "name": "NEW YORK INDEPENDENCE TRAIL INC", "city": "SARATOGA SPRINGS", "state": "NY", "zip": "12866-2023", "ntee": "B99", "ruling": "200110", "deductibility": "1", "assets": 0, "income": 0, "revenue": 0}, {"ein": "421685982", "name": "PEOPLES CENTER FOR ECONOMIC INDEPENDENCE INC", "city": "NEW YORK", "state": "NY", "zip": "10009-7441", "ntee": "P20", "ruling": "202206", "deductibility": "1", "assets": 54424, "income": 77000, "revenue": 77000}, {"ein": "460957913", "name": "SOCIETY FOR FINANCIAL INDEPENDENCE INC", "city": "MOUNT KISCO", "state": "NY", "zip": "10549-4956", "ntee": "Z99", "ruling": "201406", "deductibility": "1", "assets": 0, "income": 0, "revenue": 0}, {"ein": "471920537", "name": "EDIBLE INDEPENDENCE INC", "city": "KINGSTON", "state": "NY", "zip": "12401-6223", "ntee": "K34", "ruling": "201502", "deductibility": "2", "assets": 6253, "income": 104653, "revenue": 104653}, {"ein": "473173958", "name": "ASSISTANCE SEEKING INDEPENDENCE", "city": "BRENTWOOD", "state": "NY", "zip": "11717-6411", "ntee": "P20", "ruling": "201903", "deductibility": "1", "assets": 0, "income": 0, "revenue": 0}, {"ein": "510239824", "name": "CONCEPTS OF INDEPENDENCE INC", "city": "NEW YORK", "state": "NY", "zip": "10005-3911", "ntee": "", "ruling": "198103", "deductibility": "1", "assets": 122994474, "income": 166416792, "revenue": 166416792}, {"ein": "571206122", "name": "A CHILDS HOPE FOR INDEPENDENCE LEARNING AND DEVELOPMENT CORP", "city": "LOCUST VALLEY", "state": "NY", "zip": "11560-1221", "ntee": "E60", "ruling": "200409", "deductibility": "1", "assets": 0, "income": 0, "revenue": 0}, {"ein": "800349081", "name": "TOWN OF INDEPENDENCE HISTORICAL SOCIETY", "city": "WHITESVILLE", "state": "NY", "zip": "14897-0121", "ntee": "A54", "ruling": "201406", "deductibility": "1", "assets": 0, "income": 0, "revenue": 0}, {"ein": "800719575", "name": "INDEPENDENCE CITY REUNION ASSOCIATION", "city": "AMITYVILLE", "state": "NY", "zip": "11701-1030", "ntee": "P20", "ruling": "201701", "deductibility": "1", "assets": 0, "income": 0, "revenue": 0}, {"ein": "814089791", "name": "BREUKELEN REACHING INDEPENDENCE THROUGH SELF EMPOWERMENT INC", "city": "BROOKLYN", "state": "NY", "zip": "11203-4780", "ntee": "P80", "ruling": "201804", "deductibility": "1", "assets": 0, "income": 0, "revenue": 0}, {"ein": "821017618", "name": "JAMAICA INDEPENDENCE FOUNDATION INC", "city": "NEW YORK", "state": "NY", "zip": "10036-6700", "ntee": "P12", "ruling": "202108", "deductibility": "1", "assets": 0, "income": 0, "revenue": 0}, {"ein": "850498844", "name": "HARTLAND INDEPENDENCE DAY COMMITTEE", "city": "MIDDLEPORT", "state": "NY", "zip": "14105-0073", "ntee": "N52", "ruling": "202203", "deductibility": "1", "assets": 91, "income": 12425, "revenue": 0}, {"ein": "920887459", "name": "MOBILITY INDEPENDENCE FOUNDATION", "city": "MOUNT UPTON", "state": "NY", "zip": "13809-0000", "ntee": "P20", "ruling": "202212", "deductibility": "1", "assets": 0, "income": 0, "revenue": 0}, {"ein": "922457249", "name": "INNOVATIVE INDEPENDENCE AT STEEPLE HILL INC", "city": "PLEASANTVILLE", "state": "NY", "zip": "10570-1801", "ntee": "P80", "ruling": "202308", "deductibility": "1", "assets": 0, "income": 0, "revenue": 0}, {"ein": "932269490", "name": "EAST END CENTER FOR INDEPENDENCE", "city": "CUTCHOGUE", "state": "NY", "zip": "11935-2243", "ntee": "J30", "ruling": "202501", "deductibility": "1", "assets": 0, "income": 0, "revenue": 0}, {"ein": "991142482", "name": "PHILIPPINE INDEPENDENCE COMMITTEE OF STATEN ISLAND INC", "city": "STATEN ISLAND", "state": "NY", "zip": "10310-1630", "ntee": "A23", "ruling": "202402", "deductibility": "1", "assets": 0, "income": 0, "revenue": 0}, {"ein": "992003666", "name": "STRIDE-PATH TO INDEPENDENCE", "city": "LYNBROOK", "state": "NY", "zip": "11563-3704", "ntee": "B30", "ruling": "202410", "deductibility": "1", "assets": 1, "income": 0, "revenue": 0}], "SCHWARTZ": [{"ein": "026142564", "name": "L&F SCHWARTZ FOUNDATION TR", "city": "BROOKLYN", "state": "NY", "zip": "11219-4139", "ntee": "O55", "ruling": "200212", "deductibility": "1", "assets": 334239, "income": -149, "revenue": 0}, {"ein": "066447457", "name": "PETER A & MARION W SCHWARTZ FAM FOUNDATION TR", "city": "CANANDAIGUA", "state": "NY", "zip": "14424-8217", "ntee": "T22", "ruling": "200011", "deductibility": "1", "assets": 14388656, "income": 2248117, "revenue": 0}, {"ein": "111454165", "name": "WASHINGTON CEMETERY C O SIDNEY M SCHWARTZ ADMINISTRATION BUILDING", "city": "BROOKLYN", "state": "NY", "zip": "11230-3346", "ntee": "Y52Z", "ruling": "197701", "deductibility": "2", "assets": 33372500, "income": 4973089, "revenue": 2867726}, {"ein": "113510830", "name": "ELISHEVA ELIZABETH SCHWARTZ MEMORIAL FUND-KANFEY SHEMESH INC", "city": "CEDARHURST", "state": "NY", "zip": "11516-0249", "ntee": "T30", "ruling": "200003", "deductibility": "1", "assets": 0, "income": 0, "revenue": 0}, {"ein": "116112410", "name": "LONNIE THOMAS SCHWARTZ CHARITABLE FOUNDATION", "city": "ALBANY", "state": "NY", "zip": "12203-6005", "ntee": "", "ruling": "196808", "deductibility": "1", "assets": 3723654, "income": 740286, "revenue": 0}, {"ein": "116535559", "name": "EFRAIM & JUDITH SCHWARTZ FOUNDATION", "city": "BROOKLYN", "state": "NY", "zip": "11210-3609", "ntee": "T22", "ruling": "200003", "deductibility": "1", "assets": 121918, "income": 75000, "revenue": 0}, {"ein": "133099518", "name": "BERNARD & IRENE SCHWARTZ FOUNDATION INC", "city": "NEW YORK", "state": "NY", "zip": "10021-2656", "ntee": "", "ruling": "198204", "deductibility": "1", "assets": 200524, "income": 5776, "revenue": 0}, {"ein": "133438198", "name": "FAMILY OF SAMUEL H SCHWARTZ FOUNDATION INC", "city": "BABYLON", "state": "NY", "zip": "11702-3435", "ntee": "", "ruling": "000000", "deductibility": "1", "assets": 58189, "income": 8738, "revenue": 0}, {"ein": "133472786", "name": "BARRY K SCHWARTZ FAMILY FOUNDATION INC", "city": "GRANITE SPGS", "state": "NY", "zip": "10527-1127", "ntee": "", "ruling": "198904", "deductibility": "1", "assets": 1120879, "income": 708548, "revenue": 0}, {"ein": "133617098", "name": "CHARLES SCHWARTZ FOUNDATION FOR MUSIC", "city": "WAPPINGERS FALLS", "state": "NY", "zip": "12590-0000", "ntee": "P00Z", "ruling": "199203", "deductibility": "1", "assets": 70170, "income": 42194, "revenue": 0}, {"ein": "133632755", "name": "SCHWARTZ FAMILY FOUNDATION", "city": "BEDFORD HILLS", "state": "NY", "zip": "10507-2408", "ntee": "", "ruling": "198507", "deductibility": "1", "assets": 126040, "income": 171135, "revenue": 0}, {"ein": "133794021", "name": "GOTTLIEB-SCHWARTZ FAMILY FOUNDATION INC", "city": "STATEN ISLAND", "state": "NY", "zip": "10314-4253", "ntee": "A60Z", "ruling": "199505", "deductibility": "1", "assets": 21732, "income": 306044, "revenue": 0}, {"ein": "133899800", "name": "LICHTER AND SCHWARTZ FAMILY FOUNDATION", "city": "NEW YORK", "state": "NY", "zip": "10018-7906", "ntee": "T20J", "ruling": "199611", "deductibility": "1", "assets": 6955, "income": 1, "revenue": 0}, {"ein": "133957291", "name": "THE ERIC & ERICA SCHWARTZ FAMILY FOUNDATION", "city": "NEW YORK", "state": "NY", "zip": "10036-0000", "ntee": "T20Z", "ruling": "199802", "deductibility": "1", "assets": 9827324, "income": 358959, "revenue": 0}, {"ein": "137114848", "name": "DONNA AND MARVIN SCHWARTZ FOUNDATION", "city": "NEW YORK", "state": "NY", "zip": "10104-0101", "ntee": "Z99Z", "ruling": "199808", "deductibility": "1", "assets": 200547090, "income": 7804040, "revenue": 0}, {"ein": "137138217", "name": "SCHWARTZ FAM FOUNDATION TR", "city": "NEW YORK", "state": "NY", "zip": "10017-5032", "ntee": "T90Z", "ruling": "199803", "deductibility": "1", "assets": 11140274, "income": 3276040, "revenue": 0}, {"ein": "160997888", "name": "MAURICE SCHWARTZ TOWERS INCORPORATED", "city": "AUBURN", "state": "NY", "zip": "13021-2669", "ntee": "L22Z", "ruling": "199208", "deductibility": "1", "assets": 4531516, "income": 760575, "revenue": 760575}, {"ein": "201073527", "name": "ELSIE H SCHWARTZ TR UW FBO STANFORD UNITED METHODIST CHURCH", "city": "ALBANY", "state": "NY", "zip": "12205-5941", "ntee": "T20", "ruling": "200502", "deductibility": "1", "assets": 543332, "income": 41186, "revenue": 35457}, {"ein": "205613245", "name": "THE MOSHE & TAMAR SCHWARTZ FAMILY FOUNDATION", "city": "BROOKLYN", "state": "NY", "zip": "11210-4740", "ntee": "T20", "ruling": "200811", "deductibility": "1", "assets": 128764, "income": 6881, "revenue": 0}, {"ein": "236913820", "name": "JANE & MARTIN SCHWARTZ FAMILY FDN 12-11-88", "city": "MERRICK", "state": "NY", "zip": "11566-0000", "ntee": "", "ruling": "198905", "deductibility": "1", "assets": 238058, "income": 273257, "revenue": 0}, {"ein": "271557290", "name": "STEPHEN AND CAROLE SCHWARTZ FOUNDATION INC", "city": "NEW YORK", "state": "NY", "zip": "10019-0000", "ntee": "T20", "ruling": "201005", "deductibility": "1", "assets": 5000521, "income": 2470781, "revenue": 0}, {"ein": "463470792", "name": "M & H SCHWARTZ FAMILY FOUNDATION", "city": "NEW YORK", "state": "NY", "zip": "10024-2055", "ntee": "T20", "ruling": "201312", "deductibility": "1", "assets": 1959607, "income": 719229, "revenue": 0}, {"ein": "472504476", "name": "SCHWARTZ CHARITABLE FOUNDATION INC", "city": "MONROE", "state": "NY", "zip": "10950-6669", "ntee": "T22", "ruling": "201502", "deductibility": "1", "assets": 1568, "income": 13820, "revenue": 0}, {"ein": "510243188", "name": "HAROLD SCHWARTZ MEMORIAL CHILD WELFARE FUND", "city": "ROCHESTER", "state": "NY", "zip": "14618-3137", "ntee": "", "ruling": "196710", "deductibility": "1", "assets": 103393, "income": 23409, "revenue": 0}, {"ein": "611669245", "name": "SCHWARTZ FOUNDATION", "city": "SPRING VALLEY", "state": "NY", "zip": "10977-4137", "ntee": "T20", "ruling": "201209", "deductibility": "1", "assets": 18901, "income": 65000, "revenue": 0}, {"ein": "713257723", "name": "CONGREGATION KEREN YEHOSHUA C/O J SCHWARTZ", "city": "BROOKLYN", "state": "NY", "zip": "11204-1239", "ntee": "X30Z", "ruling": "199505", "deductibility": "1", "assets": 0, "income": 0, "revenue": 0}, {"ein": "813360510", "name": "DAVID SCHWARTZ FOUNDATION", "city": "NEW YORK", "state": "NY", "zip": "10016-0000", "ntee": "T22", "ruling": "201810", "deductibility": "1", "assets": 15360380, "income": 3004422, "revenue": 0}, {"ein": "814765030", "name": "MB SCHWARTZ FOUNDATION INC", "city": "BROOKLYN", "state": "NY", "zip": "11205-3916", "ntee": "B82", "ruling": "201712", "deductibility": "1", "assets": 3087821, "income": 1516000, "revenue": 0}, {"ein": "836593633", "name": "JODY AND IRA SCHWARTZ CHARITABLE TR", "city": "NEW YORK", "state": "NY", "zip": "10018-0000", "ntee": "", "ruling": "202208", "deductibility": "1", "assets": 1074022, "income": 767246, "revenue": 0}, {"ein": "836767467", "name": "7 SCHWARTZ BROTHERS LEADERSHIP TR", "city": "KINGS POINT", "state": "NY", "zip": "11024-1729", "ntee": "T23", "ruling": "202003", "deductibility": "1", "assets": 58834, "income": 1070000, "revenue": 0}, {"ein": "841862596", "name": "YL SCHWARTZ FOUNDATION", "city": "BROOKLYN", "state": "NY", "zip": "11224-1221", "ntee": "T20", "ruling": "202002", "deductibility": "1", "assets": 200437, "income": 251, "revenue": 0}, {"ein": "861605265", "name": "ISABELLE SCHWARTZ BEAUTY INC", "city": "NEW YORK", "state": "NY", "zip": "10001-7333", "ntee": "P58", "ruling": "202108", "deductibility": "1", "assets": 0, "income": 0, "revenue": 0}, {"ein": "934627346", "name": "SCHWARTZ FAMILY PRIVATE FOUNDATION INC", "city": "BROOKLYN", "state": "NY", "zip": "11229-1779", "ntee": "B12", "ruling": "202402", "deductibility": "1", "assets": 0, "income": 0, "revenue": 0}, {"ein": "993394122", "name": "JLDCE SCHWARTZ FAMILY FOUNDATION INC", "city": "NEW YORK", "state": "NY", "zip": "10065-5725", "ntee": "T20", "ruling": "202410", "deductibility": "1", "assets": 0, "income": 0, "revenue": 0}], "HERSH": [{"ein": "030450404", "name": "CONGREGATION KEREN YAAKOV HERSH AND FAIGA INC", "city": "MONSEY", "state": "NY", "zip": "10952-3601", "ntee": "X30", "ruling": "200207", "deductibility": "1", "assets": 0, "income": 0, "revenue": 0}, {"ein": "113188332", "name": "ABRAHAM AND ESTHER HERSH FOUNDATION INC", "city": "NEW YORK", "state": "NY", "zip": "10176-2600", "ntee": "", "ruling": "199409", "deductibility": "1", "assets": 4065196, "income": 1098608, "revenue": 0}], "ZETA": [{"ein": "042826250", "name": "ZETA PSI FRATERNITY RHO ALPHA CHAPTER MIT", "city": "NEW YORK", "state": "NY", "zip": "10005-0034", "ntee": "", "ruling": "194101", "deductibility": "2", "assets": 832634, "income": 108833, "revenue": 108833}, {"ein": "112962685", "name": "NU PHI ZETA CHAPTER OF ZETA PHI BETA SORORITY", "city": "SMITHTOWN", "state": "NY", "zip": "11787-0205", "ntee": "", "ruling": "202103", "deductibility": "2", "assets": 0, "income": 0, "revenue": 0}, {"ein": "113298799", "name": "ZETA ZETA LAMBDA COMPANY INC", "city": "CAMBRIA HTS", "state": "NY", "zip": "11411-0543", "ntee": "P81", "ruling": "199712", "deductibility": "1", "assets": 1946194, "income": 149130, "revenue": 149130}, {"ein": "113420805", "name": "ZETA BETA TAU FRATERNITY", "city": "BROOKLYN", "state": "NY", "zip": "11210-0000", "ntee": "", "ruling": "194010", "deductibility": "2", "assets": 0, "income": 0, "revenue": 0}, {"ein": "116080500", "name": "ZETA PHI BETA SORORITY INC", "city": "JAMAICA", "state": "NY", "zip": "11434-0848", "ntee": "", "ruling": "196612", "deductibility": "2", "assets": 0, "income": 0, "revenue": 0}, {"ein": "131496630", "name": "ZETA PSI FRATERNITY OF NORTH AMERICA", "city": "PEARL RIVER", "state": "NY", "zip": "10965-2603", "ntee": "", "ruling": "194101", "deductibility": "2", "assets": 676753, "income": 1008367, "revenue": 1002958}, {"ein": "131832953", "name": "ZETA PSI EDUCATIONAL FOUNDATION", "city": "PEARL RIVER", "state": "NY", "zip": "10965-2603", "ntee": "B80Z", "ruling": "194903", "deductibility": "1", "assets": 8853287, "income": 2603233, "revenue": 1900791}, {"ein": "133090172", "name": "ZETA DELTA PHI SORORITY INC", "city": "ARVERNE", "state": "NY", "zip": "11692-2001", "ntee": "W01", "ruling": "201507", "deductibility": "1", "assets": 0, "income": 0, "revenue": 0}, {"ein": "134013158", "name": "ZETA PHI BETA SORORITY", "city": "BRONX", "state": "NY", "zip": "10475-9953", "ntee": "", "ruling": "196001", "deductibility": "2", "assets": 0, "income": 0, "revenue": 0}, {"ein": "134278741", "name": "BETA SIGMA ZETA SORORITY INCORPORATED", "city": "BRONX", "state": "NY", "zip": "10475-5009", "ntee": "Y40", "ruling": "201405", "deductibility": "2", "assets": 0, "income": 0, "revenue": 0}, {"ein": "136213598", "name": "ZETA PHI BETA SORORITY", "city": "ELMSFORD", "state": "NY", "zip": "10523-0257", "ntee": "", "ruling": "196612", "deductibility": "2", "assets": 0, "income": 0, "revenue": 0}, {"ein": "150229845", "name": "FRATERNITY OF ALPHA ZETA", "city": "ITHACA", "state": "NY", "zip": "14850-1576", "ntee": "", "ruling": "199303", "deductibility": "2", "assets": 550055, "income": 170254, "revenue": 161707}, {"ein": "150532658", "name": "ZETA PSI FRATERNITY OF NORTH AMERICA", "city": "ITHACA", "state": "NY", "zip": "14850-0000", "ntee": "B83", "ruling": "202304", "deductibility": "2", "assets": 1431, "income": 185828, "revenue": 185828}, {"ein": "166071499", "name": "ZETA PSI FRATERNITY OF NORTH AMERICA", "city": "BROOKLYN", "state": "NY", "zip": "11201-4831", "ntee": "", "ruling": "194101", "deductibility": "2", "assets": 603120, "income": 3153788, "revenue": 2943263}, {"ein": "200873666", "name": "ZETA PHI BETA SORORITY", "city": "BROOKLYN", "state": "NY", "zip": "11221-4012", "ntee": "B82", "ruling": "196001", "deductibility": "2", "assets": 0, "income": 0, "revenue": 0}, {"ein": "205789573", "name": "ZETA PHI BETA SORORITY NEW YORK & SCHOLARSHIP FUND INC", "city": "BRONX", "state": "NY", "zip": "10475-9953", "ntee": "B82", "ruling": "201004", "deductibility": "1", "assets": 0, "income": 0, "revenue": 0}, {"ein": "223011200", "name": "ZETA BETA TAU FRATERNITY", "city": "ITHACA", "state": "NY", "zip": "14850-0000", "ntee": "", "ruling": "194010", "deductibility": "2", "assets": 229263, "income": 714438, "revenue": 714438}, {"ein": "223665378", "name": "SIGMA PSI ZETA SORORITY INC", "city": "ALBANY", "state": "NY", "zip": "12204-1000", "ntee": "B83", "ruling": "200005", "deductibility": "2", "assets": 484595, "income": 209853, "revenue": 203195}, {"ein": "270052211", "name": "BETA ZETA BOULE FOUNDATION", "city": "NEW YORK", "state": "NY", "zip": "10025-5161", "ntee": "B82", "ruling": "200407", "deductibility": "1", "assets": 0, "income": 0, "revenue": 0}, {"ein": "274640002", "name": "ZETA RHO SIGMA NU ALUMNI SOCIETY INC", "city": "MASSAPEQUA", "state": "NY", "zip": "11758-7221", "ntee": "B84", "ruling": "201105", "deductibility": "2", "assets": 65594, "income": 7149, "revenue": 7149}, {"ein": "300912822", "name": "ZETA BETA TAU FRATERNITY", "city": "NEW YORK", "state": "NY", "zip": "10027-0000", "ntee": "", "ruling": "194010", "deductibility": "2", "assets": 0, "income": 0, "revenue": 0}, {"ein": "320054403", "name": "KAPPA EPSILON ZETA SCHOLARSHIP FUND", "city": "BRONX", "state": "NY", "zip": "10469-3202", "ntee": "B82", "ruling": "200511", "deductibility": "1", "assets": 0, "income": 0, "revenue": 0}, {"ein": "320070315", "name": "ZETA PHI BETA SORORITY INC", "city": "NANUET", "state": "NY", "zip": "10954-4428", "ntee": "S81", "ruling": "200404", "deductibility": "1", "assets": 0, "income": 0, "revenue": 0}, {"ein": "363616293", "name": "SOCIETY OF PI KAPPA LAMBDA-ZETA MU", "city": "POTSDAM", "state": "NY", "zip": "13686-0000", "ntee": "", "ruling": "201906", "deductibility": "1", "assets": 0, "income": 0, "revenue": 0}, {"ein": "453021349", "name": "DELTA ZETA SORORITY", "city": "NEW YORK", "state": "NY", "zip": "10005-3201", "ntee": "", "ruling": "197012", "deductibility": "2", "assets": 0, "income": 0, "revenue": 0}, {"ein": "453651552", "name": "DELTA ZETA SORORITY", "city": "DEPEW", "state": "NY", "zip": "14043-1306", "ntee": "", "ruling": "197012", "deductibility": "2", "assets": 0, "income": 0, "revenue": 0}, {"ein": "475391983", "name": "MU ZETA ALUMNI ASSOCIATION CORP", "city": "ROCHESTER", "state": "NY", "zip": "14692-8307", "ntee": "B84", "ruling": "201708", "deductibility": "1", "assets": 0, "income": 0, "revenue": 0}, {"ein": "521345580", "name": "DELTA ALPHA ZETA CHAPTER ZETA PHI BETA SORORITY INC", "city": "BROOKLYN", "state": "NY", "zip": "11202-5527", "ntee": "B83", "ruling": "202201", "deductibility": "2", "assets": 0, "income": 0, "revenue": 0}, {"ein": "521345683", "name": "ZETA PHI BETA SORORITY INC", "city": "POUGHKEEPSIE", "state": "NY", "zip": "12602-5303", "ntee": "", "ruling": "196001", "deductibility": "2", "assets": 0, "income": 0, "revenue": 0}, {"ein": "521345901", "name": "ZETA PHI BETA SORORITY INC", "city": "BRONX", "state": "NY", "zip": "10467-0722", "ntee": "", "ruling": "196001", "deductibility": "2", "assets": 0, "income": 0, "revenue": 0}, {"ein": "521345910", "name": "ZETA PHI BETA SORORITY", "city": "SYRACUSE", "state": "NY", "zip": "13217-6284", "ntee": "B83", "ruling": "196001", "deductibility": "2", "assets": 0, "income": 0, "revenue": 0}, {"ein": "521345917", "name": "ZETA PHI BETA SORORITY INC", "city": "BUFFALO", "state": "NY", "zip": "14215-7002", "ntee": "N50", "ruling": "196001", "deductibility": "2", "assets": 0, "income": 0, "revenue": 0}, {"ein": "542189053", "name": "PSI OF ZETA PSI ALUMNI ASSOCIATION", "city": "LANSING", "state": "NY", "zip": "14882-8906", "ntee": "B83", "ruling": "201206", "deductibility": "2", "assets": 0, "income": 0, "revenue": 0}, {"ein": "562662501", "name": "ZETA PHI BETA SORORITY", "city": "NORTH BALDWIN", "state": "NY", "zip": "11510-1914", "ntee": "B83", "ruling": "196001", "deductibility": "2", "assets": 0, "income": 0, "revenue": 0}, {"ein": "611666410", "name": "ZETA EDUCATIONAL ACADEMIC AND LEADERSHIP CORPORATION", "city": "ELMSFORD", "state": "NY", "zip": "10523-0257", "ntee": "B82", "ruling": "201610", "deductibility": "1", "assets": 0, "income": 0, "revenue": 0}, {"ein": "611769405", "name": "ZETA PHI BETA SORORITY INC ALPHA ALPHA UPSILON ZETA", "city": "NEW YORK", "state": "NY", "zip": "10116-7187", "ntee": "", "ruling": "202001", "deductibility": "2", "assets": 0, "income": 0, "revenue": 0}, {"ein": "731625485", "name": "ZETA PHI BETA SORORITY INC", "city": "BROOKLYN", "state": "NY", "zip": "11217-2813", "ntee": "B83", "ruling": "202302", "deductibility": "2", "assets": 88096, "income": 108321, "revenue": 102492}, {"ein": "753126717", "name": "ZETA PHI BETA SORORITY INC", "city": "NANUET", "state": "NY", "zip": "10954-4428", "ntee": "", "ruling": "196001", "deductibility": "2", "assets": 0, "income": 0, "revenue": 0}, {"ein": "810937852", "name": "ALPHA ALPHA OMEGA ZETA FOUNDATION - AAOZ FOUNDATION", "city": "YONKERS", "state": "NY", "zip": "10704-7521", "ntee": "P12", "ruling": "201605", "deductibility": "1", "assets": 0, "income": 0, "revenue": 0}, {"ein": "811390772", "name": "ALPHA UPSILON ZETA HOUSING CORPORATION", "city": "NEW YORK", "state": "NY", "zip": "10021-3063", "ntee": "B83", "ruling": "202501", "deductibility": "2", "assets": 81956, "income": 381459, "revenue": 381459}, {"ein": "821888771", "name": "ZETA CHARTER SCHOOLS INC", "city": "BRONX", "state": "NY", "zip": "10455-1795", "ntee": "B90", "ruling": "201803", "deductibility": "1", "assets": 414514224, "income": 32139512, "revenue": 32139512}, {"ein": "823452377", "name": "ZETA CHARTER SCHOOLS - NEW YORK CITY", "city": "BRONX", "state": "NY", "zip": "10455-1795", "ntee": "B29", "ruling": "201808", "deductibility": "1", "assets": 284568342, "income": 73499796, "revenue": 73499796}, {"ein": "851148589", "name": "ZETA BETA TAU FRATERNITY", "city": "SYOSSET", "state": "NY", "zip": "11791-1008", "ntee": "", "ruling": "194010", "deductibility": "2", "assets": 0, "income": 0, "revenue": 0}, {"ein": "871761873", "name": "KAPPA UPSILON ZETA SCHOLARSHIP FOUNDATION INC", "city": "BUFFALO", "state": "NY", "zip": "14215-7002", "ntee": "B82", "ruling": "202201", "deductibility": "1", "assets": 0, "income": 0, "revenue": 0}, {"ein": "900755975", "name": "ZETA PHI BETA SORORITY", "city": "ROCHESTER", "state": "NY", "zip": "14609-0496", "ntee": "", "ruling": "196001", "deductibility": "2", "assets": 0, "income": 0, "revenue": 0}, {"ein": "994735384", "name": "ZETA PHI ALPHA SORORITY INC", "city": "BRONX", "state": "NY", "zip": "10463-6501", "ntee": "B83", "ruling": "202409", "deductibility": "1", "assets": 0, "income": 0, "revenue": 0}], "WAHLBERG": [{"ein": "043567369", "name": "MARK WAHLBERG YOUTH FOUNDATION INC", "city": "WHITE PLAINS", "state": "NY", "zip": "10601-1807", "ntee": "P30", "ruling": "200111", "deductibility": "1", "assets": 3110460, "income": 2796417, "revenue": 2796417}], "FERRIN": [{"ein": "043588320", "name": "FERRIN RANDALL ZEITLIN FOUNDATION FOR SARCOMA RESEARCH", "city": "NEW YORK", "state": "NY", "zip": "10019-1566", "ntee": "T20", "ruling": "200412", "deductibility": "1", "assets": 12850, "income": 2036, "revenue": 0}], "TZEMACH": [{"ein": "061517234", "name": "CHASDEI TZEMACH TZADIK", "city": "BROOKLYN", "state": "NY", "zip": "11249-6846", "ntee": "X30Z", "ruling": "199808", "deductibility": "1", "assets": 0, "income": 0, "revenue": 0}, {"ein": "112598110", "name": "CONGREGATION KHAL TZEMACH TZADIK VIZNITZ", "city": "BROOKLYN", "state": "NY", "zip": "11211-7622", "ntee": "", "ruling": "198803", "deductibility": "1", "assets": 0, "income": 0, "revenue": 0}, {"ein": "113478469", "name": "CONG KHAL TZEMACH TZADIK WIZNITZ 16TH AVENUE", "city": "BROOKLYN", "state": "NY", "zip": "11219-2107", "ntee": "X30", "ruling": "199905", "deductibility": "1", "assets": 0, "income": 0, "revenue": 0}, {"ein": "113484262", "name": "CONG TZEMACH TZADIK VIZNITZ WILLIAMSBURG", "city": "BROOKLYN", "state": "NY", "zip": "11211-7205", "ntee": "X30", "ruling": "199906", "deductibility": "1", "assets": 0, "income": 0, "revenue": 0}, {"ein": "133505596", "name": "CONGREGATION TZEMACH TZEDEK OF MONSEY INC", "city": "MONSEY", "state": "NY", "zip": "10952-0770", "ntee": "", "ruling": "198903", "deductibility": "1", "assets": 0, "income": 0, "revenue": 0}, {"ein": "200399661", "name": "KOLLEL METZEYONIM OF ROCKLAND COUNTY TZEMACH TZADIK", "city": "MONSEY", "state": "NY", "zip": "10952-2703", "ntee": "X30", "ruling": "200512", "deductibility": "1", "assets": 0, "income": 0, "revenue": 0}, {"ein": "200611792", "name": "CONGREGATION KOLLEL TZEMACH TZADAK", "city": "BROOKLYN", "state": "NY", "zip": "11211-7350", "ntee": "X30", "ruling": "200404", "deductibility": "1", "assets": 0, "income": 0, "revenue": 0}, {"ein": "461478352", "name": "CONGREGATION TZEMACH DOVID OF DINAV", "city": "MONSEY", "state": "NY", "zip": "10952-3031", "ntee": "X30", "ruling": "201307", "deductibility": "1", "assets": 0, "income": 0, "revenue": 0}, {"ein": "843500658", "name": "TZEMACH YIFROCH FOUNDATION", "city": "BROOKLYN", "state": "NY", "zip": "11211-8305", "ntee": "", "ruling": "202001", "deductibility": "1", "assets": 624378, "income": 158001, "revenue": 0}], "LAWN": [{"ein": "110613467", "name": "CEDAR LAWN CEMETARY ASSOCIATION", "city": "EAST HAMPTON", "state": "NY", "zip": "11937-0045", "ntee": "", "ruling": "193712", "deductibility": "2", "assets": 5921403, "income": 536892, "revenue": 285831}, {"ein": "111971516", "name": "PLAIN LAWN CEMETERY CORPORATION", "city": "HICKSVILLE", "state": "NY", "zip": "11801-4013", "ntee": "", "ruling": "196310", "deductibility": "1", "assets": 1910531, "income": 785913, "revenue": 301364}, {"ein": "150296015", "name": "EAST LAWN CEMETERY ASSOCIATION", "city": "ITHACA", "state": "NY", "zip": "14850-4937", "ntee": "", "ruling": "194009", "deductibility": "1", "assets": 519930, "income": 123356, "revenue": 101052}, {"ein": "150625584", "name": "GREEN LAWN CEMETERY ASSOC INC", "city": "NEW YORK MLS", "state": "NY", "zip": "13417-0141", "ntee": "", "ruling": "196009", "deductibility": "1", "assets": 0, "income": 0, "revenue": 0}, {"ein": "160436325", "name": "FOREST LAWN MEMORIAL PARK INC", "city": "ELMIRA", "state": "NY", "zip": "14901-9418", "ntee": "", "ruling": "194007", "deductibility": "1", "assets": 490544, "income": 128136, "revenue": 128136}, {"ein": "161405484", "name": "FOREST LAWN HERITAGE FOUNDATION INC", "city": "BUFFALO", "state": "NY", "zip": "14209-1110", "ntee": "Z99Z", "ruling": "199204", "deductibility": "1", "assets": 807098, "income": 191736, "revenue": 182189}, {"ein": "465333364", "name": "YESHIVA GEDOLA OF FAIR LAWN INC", "city": "SUFFERN", "state": "NY", "zip": "10901-4305", "ntee": "A80", "ruling": "201910", "deductibility": "1", "assets": 911179, "income": 98063, "revenue": 20787}], "LOCUST": [{"ein": "111502725", "name": "LOCUST VALLEY CEMETERY ASSOCIATION INC", "city": "LOCUST VALLEY", "state": "NY", "zip": "11560-0091", "ntee": "", "ruling": "194211", "deductibility": "1", "assets": 27508380, "income": 13570462, "revenue": 3194075}, {"ein": "111797178", "name": "LOCUST VALLEY LIBRARY", "city": "LOCUST VALLEY", "state": "NY", "zip": "11560-1925", "ntee": "B71Z", "ruling": "196511", "deductibility": "1", "assets": 4485290, "income": 1832209, "revenue": 1832209}, {"ein": "111950247", "name": "REFORMED CHURCH OF LOCUST VALLEY", "city": "LOCUST VALLEY", "state": "NY", "zip": "11560-1931", "ntee": "", "ruling": "196801", "deductibility": "1", "assets": 0, "income": 0, "revenue": 0}, {"ein": "112721367", "name": "LOCUST VALLEY HISTORICAL SOCIETY", "city": "LOCUST VALLEY", "state": "NY", "zip": "11560-0218", "ntee": "", "ruling": "198504", "deductibility": "1", "assets": 7324, "income": 1, "revenue": 1}, {"ein": "113075239", "name": "FRIENDS OF THE LOCUST VALLEY LIBRARY", "city": "LOCUST VALLEY", "state": "NY", "zip": "11560-1925", "ntee": "", "ruling": "199201", "deductibility": "1", "assets": 0, "income": 0, "revenue": 0}, {"ein": "113075245", "name": "LOCUST VALLEY ROTARY CLUB FOUNDATION INC", "city": "GLEN COVE", "state": "NY", "zip": "11542-1741", "ntee": "T00J", "ruling": "199206", "deductibility": "1", "assets": 4585, "income": 950, "revenue": 950}, {"ein": "113132683", "name": "LOCUST VALLEY CHAMBER OF COMMERCE INC", "city": "LOCUST VALLEY", "state": "NY", "zip": "11560-0178", "ntee": "", "ruling": "199302", "deductibility": "2", "assets": 19266, "income": 25005, "revenue": 25005}, {"ein": "131718154", "name": "LOCUST POINT YACHT CLUB INC", "city": "BRONX", "state": "NY", "zip": "10465-4040", "ntee": "N50", "ruling": "201412", "deductibility": "2", "assets": 980948, "income": 401721, "revenue": 316290}, {"ein": "150369458", "name": "LOCUST HILL CEMETERY INC", "city": "HOBART", "state": "NY", "zip": "13788-0410", "ntee": "Y52Z", "ruling": "197602", "deductibility": "1", "assets": 2734623, "income": 220691, "revenue": 42705}, {"ein": "160529430", "name": "LOCUST HILL COUNTRY CLUB INC", "city": "PITTSFORD", "state": "NY", "zip": "14534-1035", "ntee": "", "ruling": "193410", "deductibility": "2", "assets": 3665747, "income": 4160861, "revenue": 3619264}, {"ein": "160992279", "name": "LOCUST STREET NEIGHBORHOOD ART CLASSES INC", "city": "BUFFALO", "state": "NY", "zip": "14204-1246", "ntee": "", "ruling": "197201", "deductibility": "1", "assets": 147684, "income": 216042, "revenue": 216042}, {"ein": "161534573", "name": "BLACK LOCUST INITIATIVE INC", "city": "TRUMANSBURG", "state": "NY", "zip": "14886-0360", "ntee": "C60", "ruling": "199712", "deductibility": "1", "assets": 0, "income": 0, "revenue": 0}, {"ein": "166052520", "name": "ROCHESTER POLICE LOCUST CLUB INC", "city": "ROCHESTER", "state": "NY", "zip": "14606-3133", "ntee": "", "ruling": "194709", "deductibility": "2", "assets": 3761321, "income": 4540884, "revenue": 1261606}, {"ein": "205812260", "name": "LOCUST VALLEY BAYVILLE SOCCER CLUB", "city": "LOCUST VALLEY", "state": "NY", "zip": "11560-0115", "ntee": "O50", "ruling": "201312", "deductibility": "1", "assets": 50317, "income": 201226, "revenue": 201226}, {"ein": "260566508", "name": "LOCUST VALLEY ELEMENTARY PARENTS COUNCIL INC", "city": "LOCUST VALLEY", "state": "NY", "zip": "11560-1938", "ntee": "B94", "ruling": "200801", "deductibility": "1", "assets": 119688, "income": 83587, "revenue": 76853}, {"ein": "264051718", "name": "LOCUST VALLEY MIDDLE SCHOOL PARENTS COUNCIL INC", "city": "LOCUST VALLEY", "state": "NY", "zip": "11560-1105", "ntee": "O50", "ruling": "200903", "deductibility": "1", "assets": 47904, "income": 125256, "revenue": 96606}, {"ein": "453928669", "name": "LOCUST VALLEY HIGH SCHOOL PARENTS COUNCIL INC", "city": "MILL NECK", "state": "NY", "zip": "11765-0203", "ntee": "B11", "ruling": "201203", "deductibility": "1", "assets": 0, "income": 0, "revenue": 0}], "ADORERS": [{"ein": "111630833", "name": "SISTERS ADORERS OF THE PRECIOUS BLOOD", "city": "BROOKLYN", "state": "NY", "zip": "11219-0000", "ntee": "", "ruling": "194603", "deductibility": "1", "assets": 0, "income": 0, "revenue": 0}, {"ein": "133606752", "name": "VICTIM-ADORERS OF THE BLESSED SACRAMENT", "city": "STATEN ISLAND", "state": "NY", "zip": "10308-3055", "ntee": "", "ruling": "199104", "deductibility": "1", "assets": 0, "income": 0, "revenue": 0}], "ECHTMAN": [{"ein": "112394265", "name": "ROSLYN SYNAGOGUE C O IRWIN M ECHTMAN", "city": "ROSLYN HTS", "state": "NY", "zip": "11577-1044", "ntee": "", "ruling": "197712", "deductibility": "1", "assets": 0, "income": 0, "revenue": 0}], "ARUGATN": [{"ein": "112628243", "name": "ARUGATN YESHIVA INC", "city": "BROOKLYN", "state": "NY", "zip": "11211-7810", "ntee": "", "ruling": "198302", "deductibility": "1", "assets": 0, "income": 0, "revenue": 0}], "JECHIEL": [{"ein": "112635400", "name": "AMERICAN FRIENDS OF BETH JECHIEL TORAH CENTER", "city": "BROOKLYN", "state": "NY", "zip": "11214-0000", "ntee": "", "ruling": "198305", "deductibility": "1", "assets": 13205, "income": 122591, "revenue": 122591}], "HORSELESS": [{"ein": "112679732", "name": "LONG ISLAND REGIONAL GROUP HORSELESS CARRIAGE CLUB OF AMERICA", "city": "STONY BROOK", "state": "NY", "zip": "11790-1914", "ntee": "N50", "ruling": "201303", "deductibility": "2", "assets": 0, "income": 0, "revenue": 0}], "ARAD": [{"ein": "112839841", "name": "CONGREGATION OF ARAD", "city": "BROOKLYN", "state": "NY", "zip": "11211-7916", "ntee": "", "ruling": "198702", "deductibility": "1", "assets": 0, "income": 0, "revenue": 0}, {"ein": "113495975", "name": "KEREN LMAAN ARAD", "city": "BROOKLYN", "state": "NY", "zip": "11210-3615", "ntee": "X30", "ruling": "199909", "deductibility": "1", "assets": 0, "income": 0, "revenue": 0}, {"ein": "522174744", "name": "FRIENDS OF ARAD INC", "city": "BROOKLYN", "state": "NY", "zip": "11219-0162", "ntee": "X30", "ruling": "200106", "deductibility": "1", "assets": 0, "income": 0, "revenue": 0}], "IGESIA": [{"ein": "112982278", "name": "IGESIA CRISTIANA EMMANUEL", "city": "BROOKLYN", "state": "NY", "zip": "11237-3149", "ntee": "", "ruling": "198510", "deductibility": "1", "assets": 0, "income": 0, "revenue": 0}], "DOLAN": [{"ein": "113129948", "name": "DOLAN FAMILY FOUNDATION CORP", "city": "MELVILLE", "state": "NY", "zip": "11747-0000", "ntee": "", "ruling": "198803", "deductibility": "1", "assets": 83799684, "income": 19474558, "revenue": 0}, {"ein": "113368503", "name": "HUNTINGTON HOSPITAL DOLAN FAMILY HEALTH CENTER INC", "city": "WESTBURY", "state": "NY", "zip": "11590-1740", "ntee": "E20Z", "ruling": "199809", "deductibility": "1", "assets": 17928230, "income": 13754356, "revenue": 8172450}, {"ein": "463623634", "name": "FRED DOLAN ART ACADEMY INC", "city": "WHITE PLAINS", "state": "NY", "zip": "10605-4810", "ntee": "A25", "ruling": "201405", "deductibility": "1", "assets": 71096, "income": 21300, "revenue": 21300}], "WEINGARTEN": [{"ein": "113133160", "name": "WEINGARTEN FAMILY FOUNDATION", "city": "BROOKLYN", "state": "NY", "zip": "11204-1421", "ntee": "", "ruling": "199301", "deductibility": "1", "assets": 7851385, "income": 299088, "revenue": 0}, {"ein": "137437716", "name": "WEINGARTEN FAM FOUNDATION TR", "city": "NEW YORK", "state": "NY", "zip": "10028-0553", "ntee": "T22", "ruling": "200510", "deductibility": "1", "assets": 308093, "income": 62441, "revenue": 0}, {"ein": "371501221", "name": "MARTIN WEINGARTEN CHARITABLE FOUNDATION", "city": "BROOKLYN", "state": "NY", "zip": "11211-7388", "ntee": "P12", "ruling": "200509", "deductibility": "1", "assets": 112654, "income": 112500, "revenue": 0}], "BEIN": [{"ein": "113161015", "name": "YESHIVA BEIN HAZMANIM", "city": "BROOKLYN", "state": "NY", "zip": "11210-3714", "ntee": "", "ruling": "199308", "deductibility": "1", "assets": 0, "income": 0, "revenue": 0}, {"ein": "852596176", "name": "BEIN ISH UBEIN UCHIV ORGANIZATION", "city": "BROOKLYN", "state": "NY", "zip": "11219-4313", "ntee": "X30", "ruling": "202110", "deductibility": "1", "assets": 0, "income": 0, "revenue": 0}, {"ein": "881327716", "name": "CONG YESHIVAHS BEIN YAKIR", "city": "MONSEY", "state": "NY", "zip": "10952-0131", "ntee": "X30", "ruling": "202208", "deductibility": "1", "assets": 0, "income": 0, "revenue": 0}], "TZODOKO": [{"ein": "113290862", "name": "SCHONFELD TZODOKO FUND", "city": "BROOKLYN", "state": "NY", "zip": "11219-4323", "ntee": "T20J", "ruling": "199511", "deductibility": "1", "assets": 126506, "income": 808, "revenue": 0}], "DBUZIASZ": [{"ein": "113296210", "name": "HEICHEL AVRUHAM DBUZIASZ", "city": "BROOKLYN", "state": "NY", "zip": "11210-3714", "ntee": "X30Z", "ruling": "199601", "deductibility": "1", "assets": 0, "income": 0, "revenue": 0}], "NATHANIEL": [{"ein": "113357089", "name": "IRENE R & NATHANIEL M AYCOCK FOUNDATION", "city": "CENTERPORT", "state": "NY", "zip": "11721-1162", "ntee": "T22J", "ruling": "199705", "deductibility": "1", "assets": 135338, "income": 60622, "revenue": 0}, {"ein": "113466772", "name": "NATHANIEL D & GOLDA BERLIN CHARITABLE FOUNDATION", "city": "BROOKVILLE", "state": "NY", "zip": "11545-2922", "ntee": "L99", "ruling": "200004", "deductibility": "1", "assets": 1424865, "income": 94955, "revenue": 0}, {"ein": "133634653", "name": "NATHANIEL WHARTON FUND FOR RESEARCH IN BRAIN BODY AND BEHAVIOR INC", "city": "NEW YORK", "state": "NY", "zip": "10032-3725", "ntee": "H48", "ruling": "202405", "deductibility": "1", "assets": 4892704, "income": 1692354, "revenue": 447360}, {"ein": "825190658", "name": "NATHANIEL AND LOUISA GUADELOUPE FOUNDATION", "city": "BROOKLYN", "state": "NY", "zip": "11206-6409", "ntee": "W12", "ruling": "201804", "deductibility": "1", "assets": 1, "income": 0, "revenue": 0}, {"ein": "853949374", "name": "NATHANIEL JOHNSON SCHOLARSHIP INC", "city": "BRENTWOOD", "state": "NY", "zip": "11717-0641", "ntee": "B82", "ruling": "202105", "deductibility": "1", "assets": 0, "income": 0, "revenue": 0}], "TSU": [{"ein": "113400594", "name": "NEW YORK HUA LIAN TSU HUI TEMPLE INC", "city": "COLLEGE POINT", "state": "NY", "zip": "11356-2522", "ntee": "X99Z", "ruling": "199804", "deductibility": "1", "assets": 0, "income": 0, "revenue": 0}], "YEHIDA": [{"ein": "113413728", "name": "CONG YEHIDA INC", "city": "BROOKLYN", "state": "NY", "zip": "11219-1604", "ntee": "X20Z", "ruling": "199806", "deductibility": "1", "assets": 0, "income": 0, "revenue": 0}], "GROUNDSWELL": [{"ein": "113427213", "name": "GROUNDSWELL COMMUNITY MURAL PROJECT INC", "city": "BROOKLYN", "state": "NY", "zip": "11215-1489", "ntee": "P80", "ruling": "199806", "deductibility": "1", "assets": 1368486, "income": 2342952, "revenue": 1625646}, {"ein": "132953116", "name": "GROUNDSWELL INC", "city": "NEW YORK", "state": "NY", "zip": "10027-6832", "ntee": "", "ruling": "197902", "deductibility": "1", "assets": 0, "income": 0, "revenue": 0}, {"ein": "464617398", "name": "GROUNDSWELL GROUP INC", "city": "BRONX", "state": "NY", "zip": "10456-5002", "ntee": "P01", "ruling": "202210", "deductibility": "1", "assets": 387760, "income": 419695, "revenue": 419695}, {"ein": "831192242", "name": "GROUNDSWELL CENTER FOR LOCAL FOOD AND FARMING INC", "city": "ITHACA", "state": "NY", "zip": "14850-3344", "ntee": "", "ruling": "201905", "deductibility": "1", "assets": 151852, "income": 172059, "revenue": 172059}, {"ein": "880574609", "name": "GROUNDSWELL MINISTRIES INC", "city": "BINGHAMTON", "state": "NY", "zip": "13903-1326", "ntee": "X20", "ruling": "202211", "deductibility": "1", "assets": 8438, "income": 75077, "revenue": 75077}, {"ein": "931682003", "name": "GROUNDSWELL NETWORK INC", "city": "BROOKLYN", "state": "NY", "zip": "11231-4358", "ntee": "B82", "ruling": "202311", "deductibility": "1", "assets": 230165, "income": 546270, "revenue": 546270}], "DEMOS": [{"ein": "113486208", "name": "FUNDUS DEMOS DIPLOMATIE INC", "city": "FOREST HILLS", "state": "NY", "zip": "11375-6149", "ntee": "T50", "ruling": "199912", "deductibility": "1", "assets": 0, "income": 0, "revenue": 0}, {"ein": "134105066", "name": "DEMOS A NETWORK FOR IDEAS AND ACTION LTD", "city": "NEW YORK", "state": "NY", "zip": "10001-0614", "ntee": "W05", "ruling": "200104", "deductibility": "1", "assets": 12521623, "income": 5659255, "revenue": 5659255}], "ALIGNED": [{"ein": "113495018", "name": "MOTHERS ALIGNED SAVING KIDS INC", "city": "BROOKLYN", "state": "NY", "zip": "11230-6605", "ntee": "B01", "ruling": "200005", "deductibility": "1", "assets": 555603, "income": 614306, "revenue": 614306}, {"ein": "872623749", "name": "COMMUNITY ALIGNED RESTORATIVE EFFORTS INC", "city": "WYANDANCH", "state": "NY", "zip": "11798-4419", "ntee": "O01", "ruling": "202505", "deductibility": "1", "assets": 0, "income": 0, "revenue": 0}, {"ein": "933025067", "name": "STARS ALIGNED FOUNDATION INC", "city": "NEW YORK", "state": "NY", "zip": "10014-1048", "ntee": "P20", "ruling": "202311", "deductibility": "1", "assets": 2000, "income": 2000, "revenue": 0}], "KANFEY": [{"ein": "113510830", "name": "ELISHEVA ELIZABETH SCHWARTZ MEMORIAL FUND-KANFEY SHEMESH INC", "city": "CEDARHURST", "state": "NY", "zip": "11516-0249", "ntee": "T30", "ruling": "200003", "deductibility": "1", "assets": 0, "income": 0, "revenue": 0}], "HANA": [{"ein": "113551292", "name": "NY HANA PRESBYTERIAN CHURCH", "city": "CORONA", "state": "NY", "zip": "11368-1137", "ntee": "X20", "ruling": "200105", "deductibility": "1", "assets": 0, "income": 0, "revenue": 0}], "SIGNALMEN": [{"ein": "116035601", "name": "BROTHERHOOD OF RAILROAD SIGNALMEN", "city": "BABYLON", "state": "NY", "zip": "11702-2710", "ntee": "J40Z", "ruling": "194104", "deductibility": "2", "assets": 1438035, "income": 737625, "revenue": 737625}, {"ein": "146003692", "name": "BROTHERHOOD OF RAILROAD SIGNALMEN", "city": "SARATOGA SPGS", "state": "NY", "zip": "12866-5742", "ntee": "", "ruling": "194104", "deductibility": "2", "assets": 0, "income": 0, "revenue": 0}, {"ein": "146004124", "name": "BROTHERHOOD OF RAILROAD SIGNALMEN", "city": "WYNANTSKILL", "state": "NY", "zip": "12198-2825", "ntee": "", "ruling": "194104", "deductibility": "2", "assets": 0, "income": 0, "revenue": 0}, {"ein": "156002615", "name": "BROTHERHOOD OF RAILROAD SIGNALMEN", "city": "MANLIUS", "state": "NY", "zip": "13104-9743", "ntee": "", "ruling": "194104", "deductibility": "2", "assets": 0, "income": 0, "revenue": 0}, {"ein": "156009932", "name": "BROTHERHOOD OF RAILROAD SIGNALMEN", "city": "ONEONTA", "state": "NY", "zip": "13820-3310", "ntee": "", "ruling": "196609", "deductibility": "2", "assets": 0, "income": 0, "revenue": 0}, {"ein": "853059337", "name": "BROTHERHOOD OF RAILROAD SIGNALMEN", "city": "UTICA", "state": "NY", "zip": "13502-5651", "ntee": "", "ruling": "194104", "deductibility": "2", "assets": 131365, "income": 597469, "revenue": 597469}], "CVI": [{"ein": "116077127", "name": "YESHIVAT ATERET CVI & CHEVRAT TOMCHEI TORAH", "city": "MONSEY", "state": "NY", "zip": "10952-2626", "ntee": "", "ruling": "196608", "deductibility": "1", "assets": 0, "income": 0, "revenue": 0}], "SUNNINGDALE": [{"ein": "131733504", "name": "SUNNINGDALE COUNTRY CLUB INC", "city": "SCARSDALE", "state": "NY", "zip": "10583-1011", "ntee": "", "ruling": "193201", "deductibility": "2", "assets": 53804583, "income": 14306237, "revenue": 13298651}, {"ein": "136162691", "name": "SUNNINGDALE REALTY CORPORATION", "city": "SCARSDALE", "state": "NY", "zip": "10583-1011", "ntee": "", "ruling": "195904", "deductibility": "2", "assets": 0, "income": 0, "revenue": 0}], "LUMBERMENS": [{"ein": "131999387", "name": "NEW YORK & SUBURBAN LUMBERMENS ASSOCIATION INC", "city": "RENSSELAER", "state": "NY", "zip": "12144-8419", "ntee": "", "ruling": "197004", "deductibility": "2", "assets": 0, "income": 0, "revenue": 0}, {"ein": "166240624", "name": "NEW YORK LUMBERMENS INSURANCE TRUST FUND", "city": "CLARENCE", "state": "NY", "zip": "14031-2093", "ntee": "", "ruling": "000000", "deductibility": "0", "assets": 0, "income": 0, "revenue": 0}, {"ein": "232101406", "name": "PENN-YORK LUMBERMENS CLUB INC", "city": "OLEAN", "state": "NY", "zip": "14760-0000", "ntee": "", "ruling": "198205", "deductibility": "2", "assets": 315837, "income": 61564, "revenue": 61564}], "ASSYRIAN": [{"ein": "132770957", "name": "YONKERS ASSYRIAN AMERICAN ASSOCIATION INC", "city": "YONKERS", "state": "NY", "zip": "10705-1926", "ntee": "", "ruling": "197601", "deductibility": "2", "assets": 67742, "income": 11720, "revenue": 11720}, {"ein": "872358296", "name": "HOLY APOSTOLIC CATHOLIC ASSYRIAN CHURCH OF THE EAST DIOCES", "city": "YONKERS", "state": "NY", "zip": "10701-3528", "ntee": "X22", "ruling": "202203", "deductibility": "1", "assets": 0, "income": 0, "revenue": 0}], "CONDUCTORS": [{"ein": "132884740", "name": "CONDUCTORS CLUB INC", "city": "NEW YORK", "state": "NY", "zip": "10065-6277", "ntee": "", "ruling": "197706", "deductibility": "1", "assets": 0, "income": 0, "revenue": 0}, {"ein": "133486646", "name": "RONALD A WILFORD FOUNDATION FOR CONDUCTORS INC", "city": "NEW YORK", "state": "NY", "zip": "10018-3496", "ntee": "", "ruling": "198906", "deductibility": "1", "assets": 27230, "income": 5220, "revenue": 0}, {"ein": "842335544", "name": "NEW CONDUCTORS ORCHESTRA INC", "city": "NEW YORK", "state": "NY", "zip": "10016-6431", "ntee": "A68", "ruling": "202003", "deductibility": "1", "assets": 33922, "income": 66303, "revenue": 66303}], "RELATING": [{"ein": "133054001", "name": "VISUAL ARTS RESEARCH & RESOURCE CTR RELATING TO THE CARIBBEAN INC", "city": "NEW YORK", "state": "NY", "zip": "10035-1612", "ntee": "A230", "ruling": "198209", "deductibility": "1", "assets": 11826013, "income": 2543351, "revenue": 2543351}], "FOUND": [{"ein": "133276905", "name": "AMERICAN UNIVERSITY OF PARIS FOUND INC", "city": "NEW YORK", "state": "NY", "zip": "10022-5825", "ntee": "Q113", "ruling": "198510", "deductibility": "1", "assets": 2607067, "income": 780005, "revenue": 678800}, {"ein": "133506104", "name": "HELENKA AND GUIDO PANTALEONI FOUND ATION INC", "city": "WHITE PLAINS", "state": "NY", "zip": "10605-3824", "ntee": "", "ruling": "198903", "deductibility": "1", "assets": 23038, "income": 26934, "revenue": 0}, {"ein": "134081755", "name": "NEW FOUND FAITH BAPTIST CHURCH", "city": "BRONX", "state": "NY", "zip": "10455-2304", "ntee": "X21", "ruling": "200003", "deductibility": "1", "assets": 0, "income": 0, "revenue": 0}, {"ein": "141819287", "name": "NEW YORK ASSOCIATION OF CONVENIENCE STORES EMMY SENG SCHOLARSHIP FOUND", "city": "ALBANY", "state": "NY", "zip": "12210-2219", "ntee": "N11", "ruling": "200011", "deductibility": "1", "assets": 0, "income": 0, "revenue": 0}, {"ein": "166282096", "name": "LEOPOLD ECKLER TRUST UW FBO BING HAMTON GENL HOSP FOUND INC", "city": "AMHERST", "state": "NY", "zip": "14228-2307", "ntee": "", "ruling": "198703", "deductibility": "1", "assets": 219948, "income": 42166, "revenue": 0}, {"ein": "201724036", "name": "LAUNCH NO5 HUDSON RIVER ENVIROMENTAL AND SAFETY FOUND INC", "city": "OSSINING", "state": "NY", "zip": "10562-2008", "ntee": "C99", "ruling": "201405", "deductibility": "1", "assets": 0, "income": 0, "revenue": 0}, {"ein": "203739212", "name": "LIFE EMPOWERMENT GROWTH & ADVANCEMENT CENTER FOR YOUTH FOUND", "city": "BROOKLYN", "state": "NY", "zip": "11203-5319", "ntee": "B90", "ruling": "200809", "deductibility": "1", "assets": 0, "income": 0, "revenue": 0}, {"ein": "237106325", "name": "SUNY AGRICULTURE & TECH COLLEGE FOUND INC FACULTY STUD ASSOC SUNY", "city": "COBLESKILL", "state": "NY", "zip": "12043-1709", "ntee": "B4XZ", "ruling": "197110", "deductibility": "1", "assets": 16809750, "income": 8903732, "revenue": 2815343}, {"ein": "263955919", "name": "WOMENS BAR ASSOCIATION OF ORANGE AND SULLIVAN COUNTIES FOUND", "city": "NEW WINDSOR", "state": "NY", "zip": "12553-6150", "ntee": "I99", "ruling": "201104", "deductibility": "1", "assets": 0, "income": 0, "revenue": 0}, {"ein": "334455017", "name": "FOUND INITIATIVE", "city": "WOODSIDE", "state": "NY", "zip": "11377-4746", "ntee": "P20", "ruling": "202506", "deductibility": "1", "assets": 0, "income": 0, "revenue": 0}, {"ein": "334779637", "name": "FOUND TO FLOUR INC", "city": "EAST ISLIP", "state": "NY", "zip": "11730-1104", "ntee": "O50", "ruling": "202506", "deductibility": "1", "assets": 0, "income": 0, "revenue": 0}, {"ein": "472579648", "name": "NEW FOUND HEALTH CHARITY INC", "city": "NEW YORK", "state": "NY", "zip": "10007-2759", "ntee": "T30", "ruling": "201504", "deductibility": "1", "assets": 0, "income": 0, "revenue": 0}, {"ein": "474207974", "name": "FOUND SOUND NATION", "city": "RIDGEWOOD", "state": "NY", "zip": "11385-3141", "ntee": "A20", "ruling": "201605", "deductibility": "1", "assets": 219410, "income": 749156, "revenue": 749156}, {"ein": "612222662", "name": "NORTH ROCKLAND EDUCATIONAL FOUND INC", "city": "GARNERVILLE", "state": "NY", "zip": "10923-1733", "ntee": "S21", "ruling": "202502", "deductibility": "1", "assets": 0, "income": 0, "revenue": 0}, {"ein": "812889969", "name": "LOST AND FOUND PETS STATEN ISLAND INC", "city": "STATEN ISLAND", "state": "NY", "zip": "10312-2312", "ntee": "D99", "ruling": "201606", "deductibility": "1", "assets": 0, "income": 0, "revenue": 0}, {"ein": "830392220", "name": "BROTHERHOOD AND LEAGUE FOR INTERNATIONAL SOCIAL SERVICE FOUND", "city": "RED HOOK", "state": "NY", "zip": "12571-1518", "ntee": "B12", "ruling": "202406", "deductibility": "1", "assets": 0, "income": 0, "revenue": 0}, {"ein": "830640944", "name": "LOLOS LOST AND FOUND ANIMALS INC", "city": "CORNWALL HDSN", "state": "NY", "zip": "12520-1313", "ntee": "D20", "ruling": "201806", "deductibility": "1", "assets": 0, "income": 0, "revenue": 0}, {"ein": "830829558", "name": "DESTINY REALIZED EDUCATION ACHIEVEMENT MENTORSHIP SIGMA FOUND", "city": "WHITE PLAINS", "state": "NY", "zip": "10602-8312", "ntee": "B80", "ruling": "202004", "deductibility": "1", "assets": 0, "income": 0, "revenue": 0}, {"ein": "831371936", "name": "ONCE LOST NOW FOUND DOG RESCUE", "city": "JEFFERSONVLLE", "state": "NY", "zip": "12748-0136", "ntee": "", "ruling": "201808", "deductibility": "1", "assets": 0, "income": 0, "revenue": 0}, {"ein": "863667107", "name": "FOUND PURPOSE", "city": "FREEPORT", "state": "NY", "zip": "11520-0000", "ntee": "P20", "ruling": "202303", "deductibility": "1", "assets": 0, "income": 0, "revenue": 0}, {"ein": "871567482", "name": "HOLOCAUST MUSIC LOST & FOUND INC", "city": "NEW YORK", "state": "NY", "zip": "10019-3702", "ntee": "A20", "ruling": "202205", "deductibility": "1", "assets": 38832, "income": 54455, "revenue": 54455}, {"ein": "954429922", "name": "NATIONAL ASSOCIATION FOR MULTI- ETHNICITY IN COMMUNICATIONS FOUND", "city": "NEW YORK", "state": "NY", "zip": "10004-2307", "ntee": "", "ruling": "199706", "deductibility": "1", "assets": 60869, "income": 430821, "revenue": 0}, {"ein": "992911739", "name": "FREEDOM FOUND CENTER", "city": "BUFFALO", "state": "NY", "zip": "14211-2306", "ntee": "L41", "ruling": "202406", "deductibility": "1", "assets": 0, "income": 0, "revenue": 0}, {"ein": "993530633", "name": "INNOCENCE FOUND INC", "city": "NEW YORK", "state": "NY", "zip": "10022-2708", "ntee": "P62", "ruling": "202505", "deductibility": "1", "assets": 0, "income": 0, "revenue": 0}], "JANKLOW": [{"ein": "133357111", "name": "JANKLOW FOUNDATION", "city": "NEW YORK", "state": "NY", "zip": "10017-6427", "ntee": "", "ruling": "198610", "deductibility": "1", "assets": 989244, "income": 118347, "revenue": 0}], "AFFORDABILITY": [{"ein": "133374285", "name": "ASSOCIATION FOR ENERGY AFFORDABILITY INC", "city": "BRONX", "state": "NY", "zip": "10454-4537", "ntee": "", "ruling": "199403", "deductibility": "1", "assets": 27528703, "income": 27611484, "revenue": 27611484}], "OHRSTOM": [{"ein": "133415874", "name": "GEORGE L OHRSTOM JR FOUNDATION INC", "city": "HARRISON", "state": "NY", "zip": "10528-0000", "ntee": "", "ruling": "199407", "deductibility": "1", "assets": 79363269, "income": 20035731, "revenue": 0}], "UNLEASH": [{"ein": "133501884", "name": "ACT UP THE AIDS COALITION TO UNLEASH POWER", "city": "NEW YORK", "state": "NY", "zip": "10011-8436", "ntee": "P20", "ruling": "202311", "deductibility": "2", "assets": 99367, "income": 47242, "revenue": 36411}], "SLO": [{"ein": "133665029", "name": "CARING ABOUT PEOPLE VISUAL PRODUCTIONS SLO-MO INC", "city": "STATEN ISLAND", "state": "NY", "zip": "10303-2516", "ntee": "Z99Z", "ruling": "199210", "deductibility": "1", "assets": 0, "income": 0, "revenue": 0}], "LEWISBORO": [{"ein": "133791599", "name": "TOWN OF LEWISBORO POLICE BENEVOLENT ASSOCIATION", "city": "CROSS RIVER", "state": "NY", "zip": "10518-0640", "ntee": "", "ruling": "199611", "deductibility": "2", "assets": 0, "income": 0, "revenue": 0}, {"ein": "133853367", "name": "TOWN OF LEWISBORO SOCCER CLUB INC", "city": "SOUTH SALEM", "state": "NY", "zip": "10590-0455", "ntee": "N40", "ruling": "201609", "deductibility": "1", "assets": 80136, "income": 423278, "revenue": 423278}, {"ein": "136018823", "name": "LEWISBORO LIBRARY", "city": "SOUTH SALEM", "state": "NY", "zip": "10590-1413", "ntee": "", "ruling": "196108", "deductibility": "1", "assets": 3093501, "income": 751668, "revenue": 714378}, {"ein": "237348596", "name": "KATONAH-LEWISBORO DISTRICT TEACHERS ASSOC BENEFIT TRUST", "city": "ALBANY", "state": "NY", "zip": "12212-5136", "ntee": "", "ruling": "198305", "deductibility": "2", "assets": 84186, "income": 721827, "revenue": 721827}, {"ein": "464891866", "name": "LEWISBORO LAND TRUST INC", "city": "SOUTH SALEM", "state": "NY", "zip": "10590-0496", "ntee": "C99", "ruling": "201407", "deductibility": "1", "assets": 544927, "income": 194126, "revenue": 194126}, {"ein": "473333493", "name": "KATONAH LEWISBORO BEDFORD SOFTBALL INC", "city": "KATONAH", "state": "NY", "zip": "10536-0577", "ntee": "N63", "ruling": "201709", "deductibility": "1", "assets": 146063, "income": 177903, "revenue": 177903}, {"ein": "510192543", "name": "LEWISBORO VOLUNTEER AMBULANCE CORPS INC", "city": "CROSS RIVER", "state": "NY", "zip": "10518-0694", "ntee": "E62Z", "ruling": "197607", "deductibility": "1", "assets": 945783, "income": 637006, "revenue": 637006}, {"ein": "820980067", "name": "KATONAH LEWISBORO SPECIAL EDUCATION PARENT TEACHER ORGANIZATION PTO", "city": "GOLDENS BRG", "state": "NY", "zip": "10526-0475", "ntee": "B94", "ruling": "202011", "deductibility": "1", "assets": 0, "income": 0, "revenue": 0}, {"ein": "830434661", "name": "LEWISBORO GARDEN CLUB", "city": "SOUTH SALEM", "state": "NY", "zip": "10590-0389", "ntee": "C42", "ruling": "200512", "deductibility": "1", "assets": 0, "income": 0, "revenue": 0}, {"ein": "842452016", "name": "LEWISBORO TOWNPARK IMPROVEMENT CORP", "city": "SOUTH SALEM", "state": "NY", "zip": "10590-7530", "ntee": "N32", "ruling": "201910", "deductibility": "1", "assets": 2962, "income": 13093, "revenue": 13093}], "YEATS": [{"ein": "133833921", "name": "W B YEATS SOCIETY OF N Y", "city": "NEW YORK", "state": "NY", "zip": "10003-1705", "ntee": "A20Z", "ruling": "199810", "deductibility": "1", "assets": 0, "income": 0, "revenue": 0}], "AMPHITHEATER": [{"ein": "133849673", "name": "AMPHITHEATER INC", "city": "NEW YORK", "state": "NY", "zip": "10113-9615", "ntee": "A65Z", "ruling": "199601", "deductibility": "1", "assets": 0, "income": 0, "revenue": 0}], "STREETSQUASH": [{"ein": "134061809", "name": "STREETSQUASH INC", "city": "NEW YORK", "state": "NY", "zip": "10026-2864", "ntee": "N64", "ruling": "199910", "deductibility": "1", "assets": 17421842, "income": 11784683, "revenue": 4596756}], "ABUNDANTE": [{"ein": "134122518", "name": "CENTRO CRISTIANO VIDA ABUNDANTE", "city": "YONKERS", "state": "NY", "zip": "10705-1540", "ntee": "X21", "ruling": "200012", "deductibility": "1", "assets": 0, "income": 0, "revenue": 0}], "METALMIDOV": [{"ein": "134239460", "name": "METALMIDOV SHEL AHARON", "city": "BROOKLYN", "state": "NY", "zip": "11218-4602", "ntee": "B12", "ruling": "201101", "deductibility": "1", "assets": 0, "income": 0, "revenue": 0}], "RAISLER": [{"ein": "136094433", "name": "THE DOLLY & ROBERT K RAISLER FOUNDATION INC", "city": "NEW YORK", "state": "NY", "zip": "10028-2142", "ntee": "", "ruling": "195810", "deductibility": "1", "assets": 335352, "income": 21769, "revenue": 0}], "MICROSCOPICAL": [{"ein": "136165658", "name": "NEW YORK MICROSCOPICAL SOCIETY AMERICAN MUSEUM OF NATURAL HISTORY", "city": "NEW YORK", "state": "NY", "zip": "10011-0008", "ntee": "", "ruling": "194504", "deductibility": "1", "assets": 1276953, "income": 17653, "revenue": 17653}], "PELS": [{"ein": "136998091", "name": "DONALD A PELS CHARITABLE TR 081892", "city": "HARRISON", "state": "NY", "zip": "10528-1648", "ntee": "", "ruling": "199312", "deductibility": "1", "assets": 270769856, "income": 92565096, "revenue": 0}, {"ein": "161632202", "name": "THE LAURA PELS INTERNATIONAL FOUNDATION FOR THEATER", "city": "NEW YORK", "state": "NY", "zip": "10022-6457", "ntee": "A12", "ruling": "200401", "deductibility": "1", "assets": 4047045, "income": 2051517, "revenue": 0}], "PITTSTOWN": [{"ein": "140223561", "name": "PITTSTOWN VOLUNTEER EMERGENCY CORPS", "city": "JOHNSONVILLE", "state": "NY", "zip": "12094-2613", "ntee": "E62Z", "ruling": "198204", "deductibility": "1", "assets": 816951, "income": 377298, "revenue": 374026}, {"ein": "311794092", "name": "PITTSTOWN HISTORICAL SOCIETY", "city": "VALLEY FALLS", "state": "NY", "zip": "12185-0252", "ntee": "A54", "ruling": "200111", "deductibility": "1", "assets": 0, "income": 0, "revenue": 0}], "BOLTON": [{"ein": "141429581", "name": "BOLTON RURAL CEMETERY INC", "city": "BOLTON LNDG", "state": "NY", "zip": "12814-0316", "ntee": "", "ruling": "195510", "deductibility": "1", "assets": 883877, "income": 111192, "revenue": 111192}, {"ein": "141441012", "name": "BOLTON FREE LIBRARY", "city": "BOLTON LNDG", "state": "NY", "zip": "12814-0389", "ntee": "B70", "ruling": "199910", "deductibility": "1", "assets": 532715, "income": 143241, "revenue": 143241}, {"ein": "141497900", "name": "BOLTON LANDING CHAMBER OF COMMERCE INC", "city": "BOLTON LNDG", "state": "NY", "zip": "12814-0368", "ntee": "", "ruling": "197110", "deductibility": "2", "assets": 151202, "income": 218674, "revenue": 218674}, {"ein": "146090283", "name": "BOLTON VOLUNTEER FIRE COMPANY INC", "city": "BOLTON LNDG", "state": "NY", "zip": "12814-1365", "ntee": "M24", "ruling": "200208", "deductibility": "1", "assets": 356582, "income": 96999, "revenue": 96358}, {"ein": "202755438", "name": "BOLTON HEALTH COMMITTEE INC", "city": "BOLTON LNDG", "state": "NY", "zip": "12814-1563", "ntee": "P60", "ruling": "200512", "deductibility": "1", "assets": 0, "income": 0, "revenue": 0}, {"ein": "223171866", "name": "HISTORICAL SOCIETY OF THE TOWN OF BOLTON", "city": "BOLTON LNDG", "state": "NY", "zip": "12814-0441", "ntee": "A80", "ruling": "200505", "deductibility": "1", "assets": 175661, "income": 99209, "revenue": 99209}, {"ein": "272962753", "name": "BOLTON EMERGENCY MEDICAL SERVICES INCORPORATED", "city": "BOLTON LNDG", "state": "NY", "zip": "12814-1054", "ntee": "E62", "ruling": "201403", "deductibility": "1", "assets": 913854, "income": 812666, "revenue": 812666}, {"ein": "812762721", "name": "BOLTON BOOSTER CLUB INC", "city": "BOLTON LNDG", "state": "NY", "zip": "12814-0120", "ntee": "B82", "ruling": "202308", "deductibility": "1", "assets": 0, "income": 0, "revenue": 0}, {"ein": "824009752", "name": "BOLTON SCHOLARSHIP ASSOCIATION INC", "city": "BOLTON LNDG", "state": "NY", "zip": "12814-0951", "ntee": "B82", "ruling": "201802", "deductibility": "1", "assets": 0, "income": 0, "revenue": 0}, {"ein": "873914307", "name": "BROWNE BOLTON FOUNDATION INC", "city": "NEW YORK", "state": "NY", "zip": "10022-5090", "ntee": "A12", "ruling": "202203", "deductibility": "1", "assets": 5911401, "income": 11400103, "revenue": 0}], "HILLINGTON": [{"ein": "150555833", "name": "HILLINGTON CEMETERY", "city": "MORRIS", "state": "NY", "zip": "13808-0032", "ntee": "Y50", "ruling": "200411", "deductibility": "1", "assets": 2014581, "income": 448262, "revenue": 188857}, {"ein": "161498634", "name": "HILLINGTON CREMATORY", "city": "MORRIS", "state": "NY", "zip": "13808-0338", "ntee": "Y50", "ruling": "200203", "deductibility": "2", "assets": 51892, "income": 228850, "revenue": 228850}], "NORTHRUP": [{"ein": "156020359", "name": "NORTHRUP EDUCATIONAL FOUNDATION INC", "city": "WATKINS GLEN", "state": "NY", "zip": "14891-9540", "ntee": "", "ruling": "195811", "deductibility": "1", "assets": 434218, "income": 12505, "revenue": 0}], "CANANDAIGUA": [{"ein": "160373315", "name": "CANANDAIGUA COUNTRY CLUB INC", "city": "CANANDAIGUA", "state": "NY", "zip": "14424-2370", "ntee": "", "ruling": "194512", "deductibility": "2", "assets": 4090925, "income": 1663472, "revenue": 1663472}, {"ein": "160373422", "name": "CANANDAIGUA YACHT CLUB INC", "city": "CANANDAIGUA", "state": "NY", "zip": "14424-2445", "ntee": "", "ruling": "194508", "deductibility": "2", "assets": 608652, "income": 961011, "revenue": 550851}, {"ein": "160723139", "name": "CANANDAIGUA CEMETERY ASSOCIATION", "city": "CANANDAIGUA", "state": "NY", "zip": "14424-1431", "ntee": "", "ruling": "194903", "deductibility": "1", "assets": 6388881, "income": 995337, "revenue": 995337}, {"ein": "160901648", "name": "CANANDAIGUA AREA DEVELOPMENT CORPORATION", "city": "CANANDAIGUA", "state": "NY", "zip": "14424-1905", "ntee": "S20", "ruling": "201305", "deductibility": "1", "assets": 17613662, "income": 1818, "revenue": 1818}, {"ein": "160914575", "name": "CANANDAIGUA LODGE NO 1048 LOYAL ORDER OF MOOSE", "city": "CANANDAIGUA", "state": "NY", "zip": "14424-1833", "ntee": "", "ruling": "197209", "deductibility": "1", "assets": 814538, "income": 771473, "revenue": 771473}, {"ein": "161036525", "name": "CANANDAIGUA MONTESSORI SCHOOL", "city": "CANANDAIGUA", "state": "NY", "zip": "14424-0000", "ntee": "", "ruling": "197909", "deductibility": "1", "assets": 384629, "income": 464248, "revenue": 464248}, {"ein": "161071349", "name": "CANANDAIGUA LAKE WATERSHED ASSOCIATION", "city": "CANANDAIGUA", "state": "NY", "zip": "14424-2037", "ntee": "", "ruling": "197110", "deductibility": "1", "assets": 476270, "income": 273877, "revenue": 266346}, {"ein": "161131943", "name": "CANANDAIGUA JR BASEBALL INC", "city": "CANANDAIGUA", "state": "NY", "zip": "14424-0454", "ntee": "N63Z", "ruling": "198104", "deductibility": "1", "assets": 226472, "income": 87777, "revenue": 75835}, {"ein": "161137080", "name": "CANANDAIGUA WESLEYAN CHURCH", "city": "CANANDAIGUA", "state": "NY", "zip": "14424-2412", "ntee": "", "ruling": "197005", "deductibility": "1", "assets": 0, "income": 0, "revenue": 0}, {"ein": "161201948", "name": "CANANDAIGUA AREA SOCCER LEAGUE INC", "city": "CANANDAIGUA", "state": "NY", "zip": "14424-0987", "ntee": "N64", "ruling": "201703", "deductibility": "2", "assets": 109262, "income": 113398, "revenue": 113398}, {"ein": "161370352", "name": "GREATER CANANDAIGUA CIVIC CENTER INC", "city": "CANANDAIGUA", "state": "NY", "zip": "14424-1058", "ntee": "N310", "ruling": "199002", "deductibility": "1", "assets": 1515800, "income": 1038983, "revenue": 1009208}, {"ein": "161374166", "name": "CANANDAIGUA ROTARY SERVICE FOUNDATION INC", "city": "CANANDAIGUA", "state": "NY", "zip": "14424-0671", "ntee": "", "ruling": "199108", "deductibility": "1", "assets": 40606, "income": 119432, "revenue": 72964}, {"ein": "161434067", "name": "DOWNTOWN CANANDAIGUA BUSINESS MANAGEMENT ASSOC INC", "city": "CANANDAIGUA", "state": "NY", "zip": "14424-1903", "ntee": "S21Z", "ruling": "199704", "deductibility": "1", "assets": 90234, "income": 191704, "revenue": 191704}, {"ein": "161439907", "name": "UNITARIAN UNIVERSALIST CHURCH OF CANANDAIGUA", "city": "CANANDAIGUA", "state": "NY", "zip": "14424-7998", "ntee": "X21", "ruling": "199906", "deductibility": "1", "assets": 0, "income": 0, "revenue": 0}, {"ein": "161506010", "name": "CANANDAIGUA SPORTSMENS CLUB INC", "city": "CANANDAIGUA", "state": "NY", "zip": "14424-0389", "ntee": "N61", "ruling": "201408", "deductibility": "2", "assets": 264041, "income": 139572, "revenue": 95054}, {"ein": "161517636", "name": "CANANDAIGUA KIWANIS FOUNDATION INC", "city": "CANANDAIGUA", "state": "NY", "zip": "14424-0863", "ntee": "", "ruling": "198712", "deductibility": "1", "assets": 437129, "income": 80731, "revenue": 49654}, {"ein": "161560141", "name": "CRISIS PREGNANCY CENTER OF CANANDAIGUA INC", "city": "ROCHESTER", "state": "NY", "zip": "14605-2925", "ntee": "E40", "ruling": "201012", "deductibility": "1", "assets": 137427, "income": 86059, "revenue": 86059}, {"ein": "202450342", "name": "CANANDAIGUA LAKE CHAMBER MUSIC FESTIVAL INC", "city": "CANANDAIGUA", "state": "NY", "zip": "14424-0717", "ntee": "A68", "ruling": "200511", "deductibility": "1", "assets": 53732, "income": 84136, "revenue": 84136}, {"ein": "222415151", "name": "CANANDAIGUA HOUSING DEVELOPMENT FUND COMPANY INC", "city": "SYRACUSE", "state": "NY", "zip": "13203-2879", "ntee": "L20Z", "ruling": "198211", "deductibility": "1", "assets": 5103086, "income": 1403162, "revenue": 1403162}, {"ein": "222514316", "name": "CANANDAIGUA EMERGENCY SQUAD INC", "city": "CANANDAIGUA", "state": "NY", "zip": "14424-1439", "ntee": "E62Z", "ruling": "198904", "deductibility": "1", "assets": 7234814, "income": 4340837, "revenue": 4287422}, {"ein": "222768971", "name": "CANANDAIGUA KNIGHTS HOCKEY CONFERENCE INC", "city": "CANANDAIGUA", "state": "NY", "zip": "14424-0501", "ntee": "", "ruling": "199008", "deductibility": "1", "assets": 83016, "income": 286634, "revenue": 278895}, {"ein": "223143622", "name": "EMPLOYEES HEALTH REIMBURSEMENT FUND OF THE CANANDAIGUA CITY SCH DIST", "city": "CANANDAIGUA", "state": "NY", "zip": "14424-1430", "ntee": "", "ruling": "199203", "deductibility": "2", "assets": 364828, "income": 50925, "revenue": 50925}, {"ein": "261736701", "name": "CANANDAIGUA CHURCHES IN ACTION INC", "city": "CANANDAIGUA", "state": "NY", "zip": "14424-1258", "ntee": "P40", "ruling": "200905", "deductibility": "1", "assets": 224439, "income": 91878, "revenue": 91878}, {"ein": "276603467", "name": "CANANDAIGUA NATIONAL BANK & TRUST CO TRUSTEE OF CRAUGH CHARITABLE", "city": "PITTSFORD", "state": "NY", "zip": "14534-3838", "ntee": "T22", "ruling": "201410", "deductibility": "1", "assets": 2368304, "income": 726087, "revenue": 0}, {"ein": "332493527", "name": "CALLED TO CARE CANANDAIGUA INC", "city": "CANANDAIGUA", "state": "NY", "zip": "14424-1233", "ntee": "P20", "ruling": "202501", "deductibility": "1", "assets": 0, "income": 0, "revenue": 0}, {"ein": "333929417", "name": "FRIENDS OF CANANDAIGUA LAKE INC", "city": "PITTSFORD", "state": "NY", "zip": "14534-4560", "ntee": "T30", "ruling": "202506", "deductibility": "1", "assets": 0, "income": 0, "revenue": 0}, {"ein": "361340770", "name": "CANANDAIGUA CHAPTER NO 899 WOMEN OF THE MOOSE", "city": "CANANDAIGUA", "state": "NY", "zip": "14424-1833", "ntee": "", "ruling": "194005", "deductibility": "2", "assets": 0, "income": 0, "revenue": 0}, {"ein": "453825302", "name": "CANANDAIGUA DOWNTOWN MERCHANTS ASSOCIATION", "city": "CANANDAIGUA", "state": "NY", "zip": "14424-1903", "ntee": "S40", "ruling": "201409", "deductibility": "2", "assets": 0, "income": 0, "revenue": 0}, {"ein": "461592992", "name": "FRIENDS OF CANANDAIGUA HOCKEY INC", "city": "CANANDAIGUA", "state": "NY", "zip": "14424-8089", "ntee": "N99", "ruling": "201407", "deductibility": "1", "assets": 0, "income": 0, "revenue": 0}, {"ein": "462677738", "name": "CANANDAIGUA COMFORT CARE HOME", "city": "CANANDAIGUA", "state": "NY", "zip": "14424-9002", "ntee": "E86", "ruling": "201407", "deductibility": "1", "assets": 1855922, "income": 668649, "revenue": 356723}, {"ein": "821245984", "name": "CANANDAIGUA COMMUNITY SAILING INC", "city": "CANANDAIGUA", "state": "NY", "zip": "14424-0352", "ntee": "B99", "ruling": "201705", "deductibility": "1", "assets": 58917, "income": 64583, "revenue": 64583}, {"ein": "830405634", "name": "CANANDAIGUA ALL SPORTS BOOSTERS INC", "city": "CANANDAIGUA", "state": "NY", "zip": "14424-1218", "ntee": "B11", "ruling": "200411", "deductibility": "1", "assets": 245605, "income": 838145, "revenue": 838145}, {"ein": "830784516", "name": "GEORGE M EWING CANANDAIGUA FORUM", "city": "CANANDAIGUA", "state": "NY", "zip": "14424-0012", "ntee": "S20", "ruling": "202301", "deductibility": "1", "assets": 330822, "income": 113898, "revenue": 113898}, {"ein": "841975927", "name": "SPOT-CANANDAIGUA INC", "city": "CANANDAIGUA", "state": "NY", "zip": "14424-0563", "ntee": "B80", "ruling": "202004", "deductibility": "1", "assets": 53013, "income": 99896, "revenue": 99896}, {"ein": "842794083", "name": "CANANDAIGUA LAKE WATERSHED COUNCIL", "city": "CANANDAIGUA", "state": "NY", "zip": "14424-8301", "ntee": "C32", "ruling": "202106", "deductibility": "1", "assets": 0, "income": 0, "revenue": 0}], "PCA": [{"ein": "160743047", "name": "HUMANE SOCIETY OF ROCHESTER AND MONROE COUNTY PCA INC", "city": "FAIRPORT", "state": "NY", "zip": "14450-9582", "ntee": "D200", "ruling": "195805", "deductibility": "1", "assets": 50449092, "income": 22650562, "revenue": 15107883}, {"ein": "161543469", "name": "FINGER LAKES REGION PCA INC", "city": "PITTSFORD", "state": "NY", "zip": "14534-9740", "ntee": "N50", "ruling": "200907", "deductibility": "2", "assets": 0, "income": 0, "revenue": 0}, {"ein": "923556437", "name": "PCA BOOSTER CLUB INC", "city": "WATERVLIET", "state": "NY", "zip": "12189-2501", "ntee": "P12", "ruling": "202305", "deductibility": "1", "assets": 0, "income": 0, "revenue": 0}], "WOODGATE": [{"ein": "161154771", "name": "WOODGATE FREE LIBRARY", "city": "WOODGATE", "state": "NY", "zip": "13494-0056", "ntee": "B71Z", "ruling": "199608", "deductibility": "1", "assets": 437901, "income": 108395, "revenue": 108395}], "GILLETTE": [{"ein": "161176958", "name": "GILLETTE ROAD PTG INC", "city": "CICERO", "state": "NY", "zip": "13039-9030", "ntee": "B94", "ruling": "200502", "deductibility": "1", "assets": 0, "income": 0, "revenue": 0}], "ESL": [{"ein": "161493650", "name": "ESL FEDERAL CREDIT UNION EMPLOYEES BENEFICIARY ASSOCIATION", "city": "ROCHESTER", "state": "NY", "zip": "14604-2426", "ntee": "Y44", "ruling": "201605", "deductibility": "2", "assets": 7690382, "income": 1376471, "revenue": 413644}, {"ein": "820548352", "name": "ESL CHARITABLE FOUNDATION INC", "city": "ROCHESTER", "state": "NY", "zip": "14604-2426", "ntee": "T22", "ruling": "200312", "deductibility": "1", "assets": 106768666, "income": 50204556, "revenue": 0}, {"ein": "883732746", "name": "CULTURE AND ESL CORP", "city": "GRAND ISLAND", "state": "NY", "zip": "14072-1885", "ntee": "B01", "ruling": "202304", "deductibility": "1", "assets": 3000, "income": 450, "revenue": 0}, {"ein": "884186822", "name": "AGODA ESL & CIVICS CENTER", "city": "STATEN ISLAND", "state": "NY", "zip": "10303-1751", "ntee": "B60", "ruling": "202401", "deductibility": "1", "assets": 0, "income": 0, "revenue": 0}], "BLUEFIELD": [{"ein": "161553265", "name": "BLUEFIELD MANOR HOUSING INC", "city": "AUBURN", "state": "NY", "zip": "13021-8784", "ntee": "L22", "ruling": "199812", "deductibility": "1", "assets": 5073448, "income": 1661965, "revenue": 1661965}], "FERAL": [{"ein": "161681978", "name": "HUBCATS-FERAL CAT FUND OF BOSTON INCORPORATED", "city": "WEBSTER", "state": "NY", "zip": "14580-1038", "ntee": "D20", "ruling": "200310", "deductibility": "1", "assets": 0, "income": 0, "revenue": 0}, {"ein": "201961229", "name": "LINDA S FERAL CAT ASSISTANCE", "city": "WOODSIDE", "state": "NY", "zip": "11377-0272", "ntee": "D20", "ruling": "200606", "deductibility": "1", "assets": 0, "income": 0, "revenue": 0}, {"ein": "203093427", "name": "FERAL CAT FOCUS INC", "city": "ORCHARD PARK", "state": "NY", "zip": "14127-2826", "ntee": "D20", "ruling": "200608", "deductibility": "1", "assets": 81783, "income": 117410, "revenue": 117410}, {"ein": "208268918", "name": "FERAL COLONY SOLUTIONS INC", "city": "BROOKLYN", "state": "NY", "zip": "11223-3038", "ntee": "D19", "ruling": "202405", "deductibility": "1", "assets": 0, "income": 0, "revenue": 0}, {"ein": "463019710", "name": "CRAZY CAT LADY ANIMAL ADOPTION RESCUE & FERAL FOOD CENTER INC", "city": "HALESITE", "state": "NY", "zip": "11743-2142", "ntee": "D20", "ruling": "202102", "deductibility": "1", "assets": 0, "income": 0, "revenue": 0}, {"ein": "471700559", "name": "WOODSTOCK FERAL CAT PROJECT INC", "city": "WEST HURLEY", "state": "NY", "zip": "12491-0235", "ntee": "D20", "ruling": "201409", "deductibility": "1", "assets": 0, "income": 0, "revenue": 0}, {"ein": "822924443", "name": "FERAL FOUNDATION INC", "city": "BALLSTON SPA", "state": "NY", "zip": "12020-3038", "ntee": "D20", "ruling": "201802", "deductibility": "1", "assets": 1, "income": 0, "revenue": 0}, {"ein": "833811165", "name": "GARNSEY S FERAL ACRES INC", "city": "CLAYTON", "state": "NY", "zip": "13624-0313", "ntee": "D20", "ruling": "201911", "deductibility": "1", "assets": 21714, "income": 63306, "revenue": 62748}, {"ein": "842990604", "name": "KATS KRADLE FERAL REHABILITATION INC", "city": "HILTON", "state": "NY", "zip": "14468-1317", "ntee": "D01", "ruling": "202001", "deductibility": "1", "assets": 0, "income": 0, "revenue": 0}, {"ein": "852980494", "name": "FERAL PETS OF NYC", "city": "BRONX", "state": "NY", "zip": "10453-2929", "ntee": "D20", "ruling": "202403", "deductibility": "1", "assets": 0, "income": 0, "revenue": 0}, {"ein": "863991581", "name": "SOUTH SHORE FERAL CARE INC", "city": "LINDENHURST", "state": "NY", "zip": "11757-6434", "ntee": "D20", "ruling": "202401", "deductibility": "1", "assets": 0, "income": 0, "revenue": 0}, {"ein": "922593031", "name": "LIC FERAL FEEDERS AND CAT RESCUE CORP", "city": "LONG IS CITY", "state": "NY", "zip": "11101-5613", "ntee": "D20", "ruling": "202310", "deductibility": "1", "assets": 2879, "income": 7412, "revenue": 0}, {"ein": "991826510", "name": "FRIENDS OF FERAL TNR", "city": "ONEONTA", "state": "NY", "zip": "13820-4660", "ntee": "D20", "ruling": "202404", "deductibility": "1", "assets": 0, "income": 0, "revenue": 0}], "SCHEDULING": [{"ein": "200870121", "name": "CALENDARING AND SCHEDULING CONSORTIUM", "city": "TROY", "state": "NY", "zip": "12180-4463", "ntee": "S41", "ruling": "200411", "deductibility": "2", "assets": 53562, "income": 41500, "revenue": 41500}], "KIONA": [{"ein": "200977421", "name": "KIONA FOUNDATION", "city": "NEW YORK", "state": "NY", "zip": "10065-0000", "ntee": "P60", "ruling": "200407", "deductibility": "1", "assets": 0, "income": 0, "revenue": 0}, {"ein": "871488301", "name": "KIONA P DEWITT AND NKENGE W GILLIAM ENRICHMENT FOUNDATION INC", "city": "VALLEY STREAM", "state": "NY", "zip": "11580-1909", "ntee": "B82", "ruling": "202109", "deductibility": "1", "assets": 569, "income": 5268, "revenue": 5268}], "AMANDA": [{"ein": "201301939", "name": "AMANDA KANOWITZ FOUNDATION", "city": "SCARSDALE", "state": "NY", "zip": "10583-6931", "ntee": "T30", "ruling": "200408", "deductibility": "1", "assets": 635602, "income": 216788, "revenue": -13271}, {"ein": "223223196", "name": "D AMANDA FAMILY FOUNDATION INC", "city": "ROCHESTER", "state": "NY", "zip": "14614-1024", "ntee": "", "ruling": "199304", "deductibility": "1", "assets": 403, "income": 1, "revenue": 0}, {"ein": "270592512", "name": "AMANDA L KING MEMORIAL FUND", "city": "TABERG", "state": "NY", "zip": "13471-2913", "ntee": "T20", "ruling": "201710", "deductibility": "1", "assets": 0, "income": 0, "revenue": 0}, {"ein": "464797025", "name": "AMANDA&JAMES INCORPORATED", "city": "NEW YORK", "state": "NY", "zip": "10012-4425", "ntee": "A25", "ruling": "201702", "deductibility": "1", "assets": 47730, "income": 160249, "revenue": 160249}, {"ein": "881522646", "name": "AMANDA CULLINAN FOUNDATION", "city": "GREENLAWN", "state": "NY", "zip": "11740-1116", "ntee": "O12", "ruling": "202211", "deductibility": "1", "assets": 32157, "income": 3730, "revenue": 3730}, {"ein": "881807418", "name": "KEVIN AND AMANDA FOUNDATION CORP", "city": "SYOSSET", "state": "NY", "zip": "11791-2113", "ntee": "M20", "ruling": "202311", "deductibility": "1", "assets": 0, "income": 0, "revenue": 0}, {"ein": "931876587", "name": "AMANDA FUND INC", "city": "BROOKLYN", "state": "NY", "zip": "11226-7046", "ntee": "P40", "ruling": "202308", "deductibility": "1", "assets": 0, "income": 0, "revenue": 0}], "CTBU": [{"ein": "203494401", "name": "CTBU BUFFALO CHAPTER MENTORSHIP PROGRAM", "city": "BUFFALO", "state": "NY", "zip": "14214-2406", "ntee": "O50", "ruling": "202407", "deductibility": "1", "assets": 0, "income": 0, "revenue": 0}], "ANASRU": [{"ein": "204186305", "name": "DAYRATU ANASRU-DINE USA INC", "city": "BRONX", "state": "NY", "zip": "10457-3834", "ntee": "X40", "ruling": "201108", "deductibility": "1", "assets": 0, "income": 0, "revenue": 0}], "ARTCENTER": [{"ein": "204223569", "name": "NEW YORK HANG TANG CULTURE AND ARTCENTER INC", "city": "FOREST HILLS", "state": "NY", "zip": "11375-1263", "ntee": "A6A", "ruling": "200612", "deductibility": "1", "assets": 8598, "income": 0, "revenue": 0}], "EDUCATIONINITIATIVE": [{"ein": "204325735", "name": "NUTRITION AND FITNESS EDUCATIONINITIATIVE INC", "city": "NEW YORK", "state": "NY", "zip": "10021-3266", "ntee": "P30", "ruling": "200606", "deductibility": "1", "assets": 21947, "income": 53500, "revenue": 53500}], "PETRA": [{"ein": "204850732", "name": "PETRA MINISTRIES INC", "city": "ELMONT", "state": "NY", "zip": "11003-4400", "ntee": "X01", "ruling": "201506", "deductibility": "1", "assets": 12983, "income": 0, "revenue": 0}, {"ein": "800383860", "name": "DONA PETRA SANTIAGO APARTMENTS HOUSING DEVELOPMENT FUND CORP", "city": "NEW YORK", "state": "NY", "zip": "10009-5437", "ntee": "L21", "ruling": "200907", "deductibility": "1", "assets": 10646317, "income": 616370, "revenue": 616370}], "KRISTY": [{"ein": "205071275", "name": "KRISTY S SMILE", "city": "HUNTINGTON", "state": "NY", "zip": "11743-1319", "ntee": "T113", "ruling": "200611", "deductibility": "1", "assets": 9454, "income": 1500, "revenue": 1500}], "ANTELOPE": [{"ein": "205171546", "name": "ANTELOPE FOUNDATION INC", "city": "NEW YORK", "state": "NY", "zip": "10024-0559", "ntee": "T22", "ruling": "200902", "deductibility": "1", "assets": 77897, "income": 52037, "revenue": 0}], "GOLIA": [{"ein": "208427663", "name": "KANAK & PRABHA GOLIA FOUNDATION", "city": "MANHASSET", "state": "NY", "zip": "11030-3923", "ntee": "B12", "ruling": "200903", "deductibility": "1", "assets": 15435899, "income": 4562403, "revenue": 0}, {"ein": "884064349", "name": "GOLIA FAMILY CHARITABLE GROUP INC", "city": "RONKONKOMA", "state": "NY", "zip": "11779-6536", "ntee": "A99", "ruling": "202308", "deductibility": "1", "assets": 9160, "income": 5000, "revenue": 0}], "VILLIERE": [{"ein": "222164374", "name": "FRIENDS OF THE OLD FORGE LIBRARY INC C O GEORGE J VILLIERE", "city": "OLD FORGE", "state": "NY", "zip": "13420-0128", "ntee": "B70", "ruling": "201410", "deductibility": "1", "assets": 0, "income": 0, "revenue": 0}], "HRAKTP": [{"ein": "222478767", "name": "GOOD SHEPARD TABERNACLE XXX HRAKTP", "city": "ARCADE", "state": "NY", "zip": "14009-9103", "ntee": "Y42", "ruling": "201708", "deductibility": "1", "assets": 0, "income": 0, "revenue": 0}], "SHAWANGUNKS": [{"ein": "223332690", "name": "FRIENDS OF THE SHAWANGUNKS INC", "city": "ACCORD", "state": "NY", "zip": "12404-0270", "ntee": "C50", "ruling": "199502", "deductibility": "1", "assets": 192892, "income": 29279, "revenue": 29279}], "LUEDKE": [{"ein": "223696331", "name": "WALTER AND EDWARD LUEDKE MEMORIAL FOUNDATION INC", "city": "WASHINGTONVLE", "state": "NY", "zip": "10992-0642", "ntee": "W12", "ruling": "200306", "deductibility": "1", "assets": 156646, "income": 72491, "revenue": 21509}], "HOLLWAY": [{"ein": "236724657", "name": "MARY E HOLLWAY TRUST UW", "city": "AMHERST", "state": "NY", "zip": "14228-2307", "ntee": "", "ruling": "198211", "deductibility": "1", "assets": 191803, "income": 36663, "revenue": 0}], "ERVIN": [{"ein": "236767052", "name": "ERVIN D FEIGLER T A", "city": "BUFFALO", "state": "NY", "zip": "14240-1504", "ntee": "", "ruling": "198507", "deductibility": "1", "assets": 1207990, "income": 338208, "revenue": 0}], "UNIONPORT": [{"ein": "237084191", "name": "UNIONPORT FOUNDATION INC", "city": "BRONX", "state": "NY", "zip": "10462-5310", "ntee": "T30", "ruling": "197012", "deductibility": "1", "assets": 16663497, "income": 4986007, "revenue": 4939325}], "DUNWOODIE": [{"ein": "237112487", "name": "DUNWOODIE YOUTH ASSOCIATION INC", "city": "YONKERS", "state": "NY", "zip": "10701-5213", "ntee": "", "ruling": "197105", "deductibility": "1", "assets": 0, "income": 0, "revenue": 0}], "BUENAS": [{"ein": "237250058", "name": "IGLESIA CRISTIANA BUENAS NUEVAS DE SALVACION", "city": "BROOKLYN", "state": "NY", "zip": "11207-1201", "ntee": "", "ruling": "197212", "deductibility": "1", "assets": 0, "income": 0, "revenue": 0}, {"ein": "474807164", "name": "IGLESIA DE DIOS MISION BUENAS NUEVAS INC", "city": "CENTEREACH", "state": "NY", "zip": "11720-0000", "ntee": "X21", "ruling": "201604", "deductibility": "1", "assets": 0, "income": 0, "revenue": 0}, {"ein": "475168355", "name": "PRIMERA IGLESIA BAUTISTA BUENAS NUEVAS DE SALVACION CORP", "city": "UNIONDALE", "state": "NY", "zip": "11553-1715", "ntee": "X20", "ruling": "202210", "deductibility": "1", "assets": 0, "income": 0, "revenue": 0}], "PHILOMUSICA": [{"ein": "237270405", "name": "NEW YORK PHILOMUSICA CHAMBER ENSEMBLE", "city": "NEW YORK", "state": "NY", "zip": "10023-2903", "ntee": "", "ruling": "197308", "deductibility": "1", "assets": 0, "income": 0, "revenue": 0}], "PS1": [{"ein": "237379091", "name": "PS1 CONTEMPORARY ART CENTER INC", "city": "LONG IS CITY", "state": "NY", "zip": "11101-4309", "ntee": "A510", "ruling": "198107", "deductibility": "1", "assets": 7597841, "income": 10943696, "revenue": 10598334}], "SAEBIT": [{"ein": "260884834", "name": "SAEBIT NEW YORK CHURCH", "city": "FLUSHING", "state": "NY", "zip": "11354-4199", "ntee": "X21", "ruling": "200805", "deductibility": "1", "assets": 0, "income": 0, "revenue": 0}], "DASSA": [{"ein": "261421510", "name": "BRILL DASSA FAMILY FOUNDATION", "city": "REMSENBURG", "state": "NY", "zip": "11960-0714", "ntee": "T22", "ruling": "200902", "deductibility": "1", "assets": 76190, "income": 32, "revenue": 0}], "AMBRECHT": [{"ein": "261555345", "name": "AMBRECHT FAMILY FOUNDATION", "city": "NEW YORK", "state": "NY", "zip": "10020-0000", "ntee": "T20", "ruling": "200803", "deductibility": "1", "assets": 3948243, "income": 2502902, "revenue": 0}], "OFFSHORE": [{"ein": "261591203", "name": "WESTERN NEW YORK OFFSHORE POWERBOAT ASSOCIATION", "city": "TONAWANDA", "state": "NY", "zip": "14151-0431", "ntee": "N50", "ruling": "201112", "deductibility": "2", "assets": 0, "income": 0, "revenue": 0}, {"ein": "863436489", "name": "NATIONAL OFFSHORE WIND TRAINING CENTER INC", "city": "HAUPPAUGE", "state": "NY", "zip": "11788-4244", "ntee": "B30", "ruling": "202403", "deductibility": "1", "assets": 2422572, "income": 3336891, "revenue": 3336891}], "BOGOPA": [{"ein": "261596184", "name": "BOGOPA FOUNDATION", "city": "LONG ISLAND CITY", "state": "NY", "zip": "11101-2339", "ntee": "T20", "ruling": "200809", "deductibility": "1", "assets": 172070, "income": 235300, "revenue": 0}], "GUANG": [{"ein": "263084059", "name": "CI GUANG TEMPLE", "city": "BROOKLYN", "state": "NY", "zip": "11220-6870", "ntee": "X50", "ruling": "200905", "deductibility": "1", "assets": 0, "income": 0, "revenue": 0}, {"ein": "263992628", "name": "GUANG HUAN MI ZONG INC", "city": "FULTONVILLE", "state": "NY", "zip": "12072-0585", "ntee": "X50", "ruling": "200903", "deductibility": "1", "assets": 0, "income": 0, "revenue": 0}, {"ein": "830947939", "name": "FO GUANG TEMPLE", "city": "BROOKLYN", "state": "NY", "zip": "11214-3902", "ntee": "X50", "ruling": "201906", "deductibility": "1", "assets": 0, "income": 0, "revenue": 0}], "BACKYARDS": [{"ein": "263283639", "name": "IN OUR BACKYARDS INC", "city": "BROOKLYN", "state": "NY", "zip": "11205-2566", "ntee": "B990", "ruling": "200906", "deductibility": "1", "assets": 1303950, "income": 4035181, "revenue": 4035181}], "ROTHSTEIN": [{"ein": "264182025", "name": "SELMA AND MORTON ROTHSTEIN FOUNDATION INC", "city": "MASSAPEQUA", "state": "NY", "zip": "11758-8420", "ntee": "T22", "ruling": "201105", "deductibility": "1", "assets": 3116, "income": 1, "revenue": 0}, {"ein": "316652819", "name": "THE MAKS AND LEA ROTHSTEIN CHARITABLE YOUTH TRUST", "city": "NEW YORK", "state": "NY", "zip": "10001-7604", "ntee": "T20", "ruling": "200104", "deductibility": "1", "assets": 16787411, "income": 3280924, "revenue": 0}], "HES": [{"ein": "266000031", "name": "HES FOUNDATION", "city": "BROOKLYN", "state": "NY", "zip": "11204-0000", "ntee": "T22", "ruling": "200204", "deductibility": "1", "assets": 186543, "income": 9804, "revenue": 0}], "FORENSE": [{"ein": "270996142", "name": "EQUIPO ARGENTINO DE ANTROPOLOGIA FORENSE", "city": "BROOKLYN", "state": "NY", "zip": "11233-6957", "ntee": "F30", "ruling": "201402", "deductibility": "2", "assets": 85156, "income": 1772797, "revenue": 1772797}], "MICLOT": [{"ein": "271193168", "name": "MICLOT INC", "city": "LONG ISLAND CITY", "state": "NY", "zip": "11106-4406", "ntee": "A99", "ruling": "202209", "deductibility": "1", "assets": 0, "income": 0, "revenue": 0}], "BHIKSU": [{"ein": "271403809", "name": "INTERNATIONAL SANGHA BHIKSU BUDDHIST ASSOCIATION-TU VIEN DAI B", "city": "BUFFALO", "state": "NY", "zip": "14206-1424", "ntee": "X50", "ruling": "201009", "deductibility": "1", "assets": 0, "income": 0, "revenue": 0}], "PROCTORS": [{"ein": "271798974", "name": "TROY PROCTORS FOUNDATION", "city": "TROY", "state": "NY", "zip": "12180-3307", "ntee": "A80", "ruling": "201006", "deductibility": "1", "assets": 0, "income": 0, "revenue": 0}], "TOBACCONISTS": [{"ein": "271887264", "name": "NEW YORK TOBACCONISTS ASSOCIATION INC", "city": "QUEENSBURY", "state": "NY", "zip": "12804-0046", "ntee": "S41", "ruling": "201112", "deductibility": "2", "assets": 74140, "income": 101326, "revenue": 101326}], "DYADIC": [{"ein": "273228715", "name": "DYADIC DEVELOPMENTAL PSYCHOTHERAPY INSTITUTE INC", "city": "NEW YORK", "state": "NY", "zip": "10001-8017", "ntee": "E03", "ruling": "201011", "deductibility": "2", "assets": 43156, "income": 112724, "revenue": 112724}], "MICHELSON": [{"ein": "274457450", "name": "SARAH MICHELSON INC", "city": "NEW YORK", "state": "NY", "zip": "10003-8364", "ntee": "A62", "ruling": "201210", "deductibility": "1", "assets": 0, "income": 111567, "revenue": 111567}], "AIDING": [{"ein": "300511648", "name": "A C T - AIDING CHILDREN TOGETHER INC", "city": "PAWLING", "state": "NY", "zip": "12564-2348", "ntee": "Q33", "ruling": "200901", "deductibility": "1", "assets": 4918, "income": 31900, "revenue": 31900}, {"ein": "882084309", "name": "P E A C E POSITIVE ELEVATION AIDING CHILDREN EVERYWHERE INC", "city": "BRONX", "state": "NY", "zip": "10460-4979", "ntee": "O50", "ruling": "202411", "deductibility": "1", "assets": 0, "income": 0, "revenue": 0}], "EVENT": [{"ein": "300647110", "name": "KIDS EVENT TICKETS INC", "city": "GRAND ISLAND", "state": "NY", "zip": "14072-1161", "ntee": "O50", "ruling": "201406", "deductibility": "1", "assets": 81510, "income": 177575, "revenue": 177575}], "KWIAT": [{"ein": "311607301", "name": "LOWELL AND FERN KWIAT FAMILY FOUNDATION INC", "city": "MUTTONTOWN", "state": "NY", "zip": "11791-7003", "ntee": "T20Z", "ruling": "199807", "deductibility": "1", "assets": 1, "income": 1, "revenue": 0}], "TORNA": [{"ein": "311770733", "name": "CONG SHAAREI ELIEZER TORNA INC", "city": "BROOKLYN", "state": "NY", "zip": "11210-4137", "ntee": "X30", "ruling": "200110", "deductibility": "1", "assets": 0, "income": 0, "revenue": 0}, {"ein": "831046827", "name": "CONGREGATION TORNA OF FLATBUSH INC", "city": "BROOKLYN", "state": "NY", "zip": "11210-4137", "ntee": "X30", "ruling": "202004", "deductibility": "1", "assets": 0, "income": 0, "revenue": 0}], "LABARGE": [{"ein": "320267351", "name": "FRANCIS LABARGE & LEONARD TROMBLEY AMVETS POST 8793 INC", "city": "ELLENBURG DEP", "state": "NY", "zip": "12935-0147", "ntee": "W30", "ruling": "202011", "deductibility": "1", "assets": 0, "income": 0, "revenue": 0}], "FSCPOINT": [{"ein": "332199423", "name": "FSCPOINT INC", "city": "COLLEGE POINT", "state": "NY", "zip": "11356-2533", "ntee": "N64", "ruling": "202501", "deductibility": "1", "assets": 0, "income": 0, "revenue": 0}], "LARGRIER": [{"ein": "333344313", "name": "LARGRIER FOUNDATION INC", "city": "ORCHARD PARK", "state": "NY", "zip": "14127-1451", "ntee": "P20", "ruling": "202503", "deductibility": "1", "assets": 0, "income": 0, "revenue": 0}], "MALCHUT": [{"ein": "334751619", "name": "MALCHUT SARAH INC", "city": "BROOKLYN", "state": "NY", "zip": "11220-4941", "ntee": "X30", "ruling": "202506", "deductibility": "1", "assets": 0, "income": 0, "revenue": 0}], "LIMERICK": [{"ein": "334799403", "name": "LIMERICK HURLING CLUB NEW YORK INC", "city": "YONKERS", "state": "NY", "zip": "10704-2358", "ntee": "N99", "ruling": "202506", "deductibility": "1", "assets": 0, "income": 0, "revenue": 0}, {"ein": "843289181", "name": "FRIENDS OF LIMERICK INC", "city": "AKRON", "state": "NY", "zip": "14001-9325", "ntee": "A54", "ruling": "202007", "deductibility": "1", "assets": 0, "income": 0, "revenue": 0}, {"ein": "993009638", "name": "LIMERICK FOUNDATION OF NEW YORK INC", "city": "EASTCHESTER", "state": "NY", "zip": "10709-0112", "ntee": "N12", "ruling": "202409", "deductibility": "1", "assets": 71642, "income": 92585, "revenue": 92585}], "SHAVING": [{"ein": "363559225", "name": "NATIONAL SHAVING MUG COLLECTORS ASSOCIATION", "city": "PINE PLAINS", "state": "NY", "zip": "12567-1011", "ntee": "N50", "ruling": "200003", "deductibility": "2", "assets": 0, "income": 0, "revenue": 0}], "TIED": [{"ein": "364886658", "name": "FIT TO BE TIED INC", "city": "BALDWINSVILLE", "state": "NY", "zip": "13027-9412", "ntee": "H12", "ruling": "201802", "deductibility": "1", "assets": 0, "income": 0, "revenue": 0}], "LAUTENBERT": [{"ein": "367391092", "name": "BONNIE ENGLEBARDT LAUTENBERT FAMILY CHARITABLE TRUST", "city": "NEW YORK", "state": "NY", "zip": "10017-7765", "ntee": "T22", "ruling": "200210", "deductibility": "1", "assets": 3799555, "income": 161806, "revenue": 0}], "TAMIM": [{"ein": "371841023", "name": "LEV TAMIM INC", "city": "BROOKLYN", "state": "NY", "zip": "11223-2364", "ntee": "T50", "ruling": "201706", "deductibility": "1", "assets": 618475, "income": 355022, "revenue": 0}, {"ein": "850502769", "name": "SEFAS TAMIM FOUNDATION INC", "city": "FLUSHING", "state": "NY", "zip": "11367-0000", "ntee": "X30", "ruling": "202101", "deductibility": "1", "assets": 0, "income": 0, "revenue": 0}], "RDFZ": [{"ein": "371897347", "name": "RDFZ ALUMNI ASSOCIATION INC", "city": "NEW YORK", "state": "NY", "zip": "10280-1421", "ntee": "B84", "ruling": "201806", "deductibility": "1", "assets": 0, "income": 0, "revenue": 0}], "MASSAU": [{"ein": "453735022", "name": "GREAT NEW YORK MASSAU SUFFOLK ORGANIZATION FOR NURING LEADERSHIP", "city": "EAST NORWICH", "state": "NY", "zip": "11732-1150", "ntee": "S41", "ruling": "201203", "deductibility": "2", "assets": 0, "income": 0, "revenue": 0}], "BUCHWALD": [{"ein": "454059273", "name": "DON AND MAGGIE BUCHWALD FOUNDATION", "city": "NEW YORK", "state": "NY", "zip": "10018-0000", "ntee": "T20", "ruling": "201212", "deductibility": "1", "assets": 6516662, "income": 3421213, "revenue": 0}], "MOWRY": [{"ein": "454334943", "name": "VERA MOWRY ROBERTS FOUNDATION INC", "city": "NEW YORK", "state": "NY", "zip": "10014-4916", "ntee": "T20", "ruling": "201203", "deductibility": "1", "assets": 336921, "income": 9104, "revenue": 0}], "TEARING": [{"ein": "455559468", "name": "TEARING UP THE TURF WITH TIMOTHY & HIS FRIENDS WITH DOWN SYNDROME", "city": "HALFMOON", "state": "NY", "zip": "12065-3244", "ntee": "P20", "ruling": "201403", "deductibility": "1", "assets": 41133, "income": 0, "revenue": 0}], "DINAV": [{"ein": "461478352", "name": "CONGREGATION TZEMACH DOVID OF DINAV", "city": "MONSEY", "state": "NY", "zip": "10952-3031", "ntee": "X30", "ruling": "201307", "deductibility": "1", "assets": 0, "income": 0, "revenue": 0}], "DORSHEI": [{"ein": "462585350", "name": "DORSHEI EMUNAH INC", "city": "HARRIS", "state": "NY", "zip": "12742-0000", "ntee": "X30", "ruling": "201309", "deductibility": "1", "assets": 0, "income": 0, "revenue": 0}, {"ein": "921687305", "name": "CONG DORSHEI YECHIDCHU", "city": "BROOKLYN", "state": "NY", "zip": "11206-5087", "ntee": "X30", "ruling": "202306", "deductibility": "1", "assets": 0, "income": 0, "revenue": 0}], "CLNY": [{"ein": "463146870", "name": "CLNY ALLIANCE INC", "city": "WESTBURY", "state": "NY", "zip": "11590-1740", "ntee": "E19", "ruling": "201601", "deductibility": "1", "assets": 12282860, "income": 104717569, "revenue": 104717569}], "LPD": [{"ein": "463990225", "name": "NEW YORK LPD-21 DIVISION USNSCC", "city": "BABYLON", "state": "NY", "zip": "11704-4549", "ntee": "O99", "ruling": "201503", "deductibility": "1", "assets": 0, "income": 0, "revenue": 0}], "VEGFEST": [{"ein": "465424759", "name": "WNY VEGFEST INC", "city": "WEST SENECA", "state": "NY", "zip": "14224-1453", "ntee": "D01", "ruling": "201705", "deductibility": "1", "assets": 0, "income": 0, "revenue": 0}], "CHECKPOINT": [{"ein": "472141705", "name": "MINISTER MICKENS COMMUNITY CHECKPOINT INC", "city": "BROOKLYN", "state": "NY", "zip": "11213-2936", "ntee": "P20", "ruling": "201506", "deductibility": "1", "assets": 260, "income": 6500, "revenue": 6500}], "DISASTERS": [{"ein": "473542832", "name": "RESCUE WARRIORS-NATURAL DISASTERS INC", "city": "BINGHAMTON", "state": "NY", "zip": "13905-3935", "ntee": "", "ruling": "201902", "deductibility": "1", "assets": 0, "income": 0, "revenue": 0}], "BOOMCOMMUNITY": [{"ein": "474742685", "name": "BOOMCOMMUNITY SERVICES INC", "city": "BRONX", "state": "NY", "zip": "10456-7815", "ntee": "P20", "ruling": "201512", "deductibility": "1", "assets": 11403584, "income": 0, "revenue": 0}], "RONIN": [{"ein": "510418963", "name": "RONIN SHOTOKAN KARATE-DO ASSOCIATION INC", "city": "BROOKLYN", "state": "NY", "zip": "11210-3119", "ntee": "N60", "ruling": "200306", "deductibility": "1", "assets": 0, "income": 0, "revenue": 0}], "MAXIMUS": [{"ein": "510662229", "name": "ST MAXIMUS THE CONFESSOR ORTHODOX CHRISTIAN PARISH INC", "city": "CORTLAND", "state": "NY", "zip": "13045-9184", "ntee": "X20", "ruling": "200809", "deductibility": "1", "assets": 0, "income": 0, "revenue": 0}], "MOTORCYCLEPEDIA": [{"ein": "611620315", "name": "MOTORCYCLEPEDIA", "city": "NEWBURGH", "state": "NY", "zip": "12550-5262", "ntee": "A50", "ruling": "201101", "deductibility": "1", "assets": 7871775, "income": 1748118, "revenue": 637066}], "GURFEIN": [{"ein": "743045048", "name": "GURFEIN-MERINE FAMILY FOUNDATION INC", "city": "NEW YORK", "state": "NY", "zip": "10021-4038", "ntee": "T22", "ruling": "200206", "deductibility": "1", "assets": 141992, "income": 15320, "revenue": 0}], "PARIWAR": [{"ein": "760840366", "name": "GAYATRI PARIWAR OF LONG ISLAND INC", "city": "DEER PARK", "state": "NY", "zip": "11729-2711", "ntee": "A23", "ruling": "200712", "deductibility": "1", "assets": 435070, "income": 54245, "revenue": 54245}, {"ein": "821135827", "name": "TAMU PARIWAR NEW YORK", "city": "EAST ELMHURST", "state": "NY", "zip": "11369-1213", "ntee": "X50", "ruling": "201804", "deductibility": "1", "assets": 83808, "income": 76264, "revenue": 76264}, {"ein": "934106569", "name": "GEETA PARIWAR INC", "city": "NEW YORK", "state": "NY", "zip": "11375-0000", "ntee": "X70", "ruling": "202312", "deductibility": "1", "assets": 0, "income": 0, "revenue": 0}], "MORALE": [{"ein": "800487644", "name": "BUFFALO HDQTRS MORALE & WELFARE", "city": "GRAND ISLAND", "state": "NY", "zip": "14072-1697", "ntee": "N50", "ruling": "201407", "deductibility": "2", "assets": 0, "income": 0, "revenue": 0}], "FULOP": [{"ein": "810889385", "name": "FULOP FAMILY FOUNDATION", "city": "BROOKLYN", "state": "NY", "zip": "11204-2242", "ntee": "T20", "ruling": "201603", "deductibility": "1", "assets": 493280, "income": 19300, "revenue": 0}, {"ein": "824021629", "name": "UNITED FULOP FOUNDATION", "city": "BROOKLYN", "state": "NY", "zip": "11211-8919", "ntee": "T22", "ruling": "201806", "deductibility": "1", "assets": 568073, "income": 100, "revenue": 0}], "SG": [{"ein": "810966003", "name": "SG FOUNDATION INC", "city": "SPRING VALLEY", "state": "NY", "zip": "10977-1308", "ntee": "T30", "ruling": "201701", "deductibility": "1", "assets": 143830, "income": 74000, "revenue": 0}, {"ein": "853319808", "name": "CONGREGATION YASHAR OF SG INC", "city": "BROOKLYN", "state": "NY", "zip": "11224-1324", "ntee": "X30", "ruling": "202105", "deductibility": "1", "assets": 0, "income": 0, "revenue": 0}, {"ein": "873887184", "name": "SG GUPTA FOUNDATION", "city": "NEW YORK", "state": "NY", "zip": "10007-0000", "ntee": "T22", "ruling": "202203", "deductibility": "1", "assets": 1255712, "income": 2255370, "revenue": 0}, {"ein": "932377836", "name": "BHBL-SG BOYS AND GIRLS SWIM BOOSTER CLUB", "city": "GLENVILLE", "state": "NY", "zip": "12302-5633", "ntee": "N67", "ruling": "202308", "deductibility": "1", "assets": 0, "income": 0, "revenue": 0}], "HSI": [{"ein": "811307402", "name": "HSI NEW YORK EMPLOYEE ASSOCIATION CORP", "city": "NEW YORK", "state": "NY", "zip": "10014-4805", "ntee": "I03", "ruling": "202110", "deductibility": "1", "assets": 0, "income": 0, "revenue": 0}], "KARWICK": [{"ein": "814726531", "name": "BERNARD & NANCY KARWICK FOUNDATION", "city": "WOODBURY", "state": "NY", "zip": "11797-2012", "ntee": "T22", "ruling": "201811", "deductibility": "1", "assets": 3535748, "income": 299126, "revenue": 0}], "RESOUND": [{"ein": "815349595", "name": "RESOUND BEETHOVEN INC", "city": "NEW YORK", "state": "NY", "zip": "10011-3252", "ntee": "A69", "ruling": "201702", "deductibility": "1", "assets": 0, "income": 0, "revenue": 0}, {"ein": "825417304", "name": "RESOUND MINISTRIES INC", "city": "THREE MLE BAY", "state": "NY", "zip": "13693-7369", "ntee": "X20", "ruling": "201806", "deductibility": "1", "assets": 0, "income": 0, "revenue": 0}], "YOUTHFIT": [{"ein": "820632987", "name": "GLOBAL YOUTHFIT PROJECT", "city": "GLEN HEAD", "state": "NY", "zip": "11545-1212", "ntee": "N30", "ruling": "201704", "deductibility": "1", "assets": 0, "income": 0, "revenue": 0}], "CHRONICALLY": [{"ein": "820952489", "name": "HANDS FOR CHRONICALLY AND TERMINALLY ILL INC", "city": "QUEENS VLG", "state": "NY", "zip": "11429-2052", "ntee": "E86", "ruling": "202504", "deductibility": "1", "assets": 0, "income": 0, "revenue": 0}], "VOGELS": [{"ein": "822101979", "name": "JOEY VOGELS GIFTS INC", "city": "BRONX", "state": "NY", "zip": "10471-1812", "ntee": "T31", "ruling": "201710", "deductibility": "1", "assets": 0, "income": 0, "revenue": 0}], "ARTSMART": [{"ein": "823058419", "name": "ARTSMART WORLD FOUNDATION INC", "city": "BREWSTER", "state": "NY", "zip": "10509-2674", "ntee": "", "ruling": "201710", "deductibility": "1", "assets": 0, "income": 0, "revenue": 0}], "AMARISA": [{"ein": "823656381", "name": "AMARISA ISLAND MINISTRIES INC", "city": "HAMPTON BAYS", "state": "NY", "zip": "11946-1323", "ntee": "M20", "ruling": "201801", "deductibility": "1", "assets": 0, "income": 0, "revenue": 0}], "DERHER": [{"ein": "823816496", "name": "A CHASSIDISHER DERHER INC", "city": "BROOKLYN", "state": "NY", "zip": "11213-3409", "ntee": "X83", "ruling": "201808", "deductibility": "1", "assets": 138214, "income": 1134295, "revenue": 1134295}], "NICOLOSI": [{"ein": "824262837", "name": "KAEL NICOLOSI FOUNDATION INC", "city": "CHURCHVILLE", "state": "NY", "zip": "14428-9622", "ntee": "B99", "ruling": "201802", "deductibility": "1", "assets": 0, "income": 0, "revenue": 0}], "BOUT": [{"ein": "831106277", "name": "BOUT FITNESS INC", "city": "EAST MEADOW", "state": "NY", "zip": "11554-4918", "ntee": "O50", "ruling": "201905", "deductibility": "1", "assets": 0, "income": 0, "revenue": 0}], "ASSERTIVE": [{"ein": "831106745", "name": "ASSERTIVE KIDS FOUNDATION", "city": "STATEN ISLAND", "state": "NY", "zip": "10302-0521", "ntee": "Z99", "ruling": "201905", "deductibility": "1", "assets": 32675, "income": 7353, "revenue": 7353}], "EVANGELICAS": [{"ein": "831161039", "name": "INSTITUTO BIBLICO DE IGLESIAS EVANGELICAS APOSTOLES Y PROFETAS I", "city": "BRENTWOOD", "state": "NY", "zip": "11717-4014", "ntee": "X99", "ruling": "201808", "deductibility": "1", "assets": 0, "income": 0, "revenue": 0}, {"ein": "831706779", "name": "ASOCIACION DE IGLESIAS EVANGELICAS DE NORTE AMERICA ASIENA", "city": "BRONX", "state": "NY", "zip": "10472-2225", "ntee": "X21", "ruling": "201907", "deductibility": "1", "assets": 0, "income": 0, "revenue": 0}, {"ein": "843926139", "name": "MINISTERIO DE IGLESIAS EVANGELICAS PODER DEL ALFARERO INC", "city": "BROOKLYN", "state": "NY", "zip": "11235-5209", "ntee": "X20", "ruling": "202105", "deductibility": "1", "assets": 664601, "income": 347919, "revenue": 347919}], "GOOSEPOND": [{"ein": "831628939", "name": "GOOSEPOND MOUNTAIN SANCTUARY", "city": "CHESTER", "state": "NY", "zip": "10918-1430", "ntee": "D20", "ruling": "201812", "deductibility": "1", "assets": 25920, "income": 62283, "revenue": 62283}], "ROVER": [{"ein": "832177970", "name": "OARE ROVER FOUNDATION INC", "city": "GREENVILLE", "state": "NY", "zip": "12083-3915", "ntee": "A80", "ruling": "201907", "deductibility": "1", "assets": 0, "income": 0, "revenue": 0}], "TINNITUS": [{"ein": "832497866", "name": "PULSATILE TINNITUS FOUNDATION INC", "city": "BEARSVILLE", "state": "NY", "zip": "12409-0369", "ntee": "G42", "ruling": "201912", "deductibility": "1", "assets": 0, "income": 0, "revenue": 0}, {"ein": "842905656", "name": "TINNITUS INSIDE OUT CORPORATION", "city": "MANORVILLE", "state": "NY", "zip": "11949-0000", "ntee": "G42", "ruling": "201910", "deductibility": "1", "assets": 0, "income": 0, "revenue": 0}], "QNS": [{"ein": "833015257", "name": "BRIDGING THE GAP QNS", "city": "JAMAICA", "state": "NY", "zip": "11433-2377", "ntee": "T30", "ruling": "201906", "deductibility": "1", "assets": 0, "income": 0, "revenue": 0}, {"ein": "862308659", "name": "HOMECOMING QNS INC", "city": "REGO PARK", "state": "NY", "zip": "11374-2244", "ntee": "K99", "ruling": "202111", "deductibility": "1", "assets": 21929, "income": 3682, "revenue": 3682}], "MEASURE": [{"ein": "833294984", "name": "MINDS BEYOND MEASURE INC", "city": "NEW YORK", "state": "NY", "zip": "10036-2014", "ntee": "B20", "ruling": "202104", "deductibility": "1", "assets": 0, "income": 0, "revenue": 0}, {"ein": "934020391", "name": "MISSED BEYOND MEASURE", "city": "BUFFALO", "state": "NY", "zip": "14201-2175", "ntee": "O50", "ruling": "202311", "deductibility": "1", "assets": 0, "income": 0, "revenue": 0}], "KYL": [{"ein": "833384050", "name": "CONG MIKVA KYL OF KJ INC", "city": "MONROE", "state": "NY", "zip": "10950-4920", "ntee": "X30", "ruling": "201911", "deductibility": "1", "assets": 0, "income": 0, "revenue": 0}, {"ein": "932610060", "name": "CONGREGATION KYL ISLAND VIEW MONROE NY", "city": "MONROE", "state": "NY", "zip": "10950-1468", "ntee": "X30", "ruling": "202405", "deductibility": "1", "assets": 0, "income": 0, "revenue": 0}, {"ein": "993991669", "name": "VAAD HAKIRYA OF KYL INC", "city": "HARRIMAN", "state": "NY", "zip": "10926-0124", "ntee": "T30", "ruling": "202408", "deductibility": "1", "assets": 0, "income": 0, "revenue": 0}], "ROTK": [{"ein": "833705267", "name": "ROTK PARENTS", "city": "HEMPSTEAD", "state": "NY", "zip": "11550-4519", "ntee": "A12", "ruling": "201904", "deductibility": "1", "assets": 0, "income": 0, "revenue": 0}], "TOOT": [{"ein": "834296652", "name": "TOOT WALES INC", "city": "OSSINING", "state": "NY", "zip": "10562-0270", "ntee": "Q21", "ruling": "201905", "deductibility": "1", "assets": 0, "income": 0, "revenue": 0}], "SAESOMANG": [{"ein": "842455244", "name": "SAESOMANG CHURCH", "city": "FLUSHING", "state": "NY", "zip": "11354-3788", "ntee": "X20", "ruling": "202309", "deductibility": "1", "assets": 0, "income": 0, "revenue": 0}], "COROEBUS": [{"ein": "842487349", "name": "COROEBUS FOUNDATION INC", "city": "BRONX", "state": "NY", "zip": "10451-2567", "ntee": "P30", "ruling": "202004", "deductibility": "1", "assets": 1, "income": 2038, "revenue": 2038}], "MCCC": [{"ein": "843662400", "name": "MCCC FOUNDATION LTD", "city": "NORTH GREECE", "state": "NY", "zip": "14515-0221", "ntee": "W12", "ruling": "201912", "deductibility": "1", "assets": 0, "income": 0, "revenue": 0}], "PAZITOS": [{"ein": "844079207", "name": "PAZITOS", "city": "UNIONDALE", "state": "NY", "zip": "11553-3438", "ntee": "O99", "ruling": "202001", "deductibility": "1", "assets": 0, "income": 0, "revenue": 0}], "MOUNTAINEERS": [{"ein": "853663871", "name": "CRANBERRY LAKE MOUNTAINEERS SNOWMOBILE CLUB INC", "city": "CRANBERRY LK", "state": "NY", "zip": "12927-0481", "ntee": "N50", "ruling": "202101", "deductibility": "1", "assets": 491648, "income": 173239, "revenue": 151217}], "BOOTSECTOR": [{"ein": "854082950", "name": "BOOTSECTOR", "city": "BUFFALO", "state": "NY", "zip": "14208-2303", "ntee": "P20", "ruling": "202108", "deductibility": "1", "assets": 43941, "income": 90683, "revenue": 90683}], "RICANS": [{"ein": "871030579", "name": "PUERTO RICANS OF ORLANDO INC", "city": "NEW YORK", "state": "NY", "zip": "10007-3728", "ntee": "A01", "ruling": "202109", "deductibility": "1", "assets": 0, "income": 0, "revenue": 0}], "PORTILLOS": [{"ein": "871425335", "name": "IGLESIA EVANGELICA REPARADOR DE PORTILLOS UN NUEVO COMIENZO INC", "city": "ROCHESTER", "state": "NY", "zip": "14615-3904", "ntee": "X20", "ruling": "202206", "deductibility": "1", "assets": 0, "income": 0, "revenue": 0}], "EVERTHING": [{"ein": "872048372", "name": "ARTS CHANGE EVERTHING", "city": "TUXEDO PARK", "state": "NY", "zip": "10987-4420", "ntee": "A20", "ruling": "202505", "deductibility": "1", "assets": 0, "income": 0, "revenue": 0}], "ALLUMNI": [{"ein": "874003356", "name": "PENN STATE ALLUMNI ASSOCIATION", "city": "NEW YORK", "state": "NY", "zip": "10017-6800", "ntee": "B84", "ruling": "200001", "deductibility": "1", "assets": 0, "income": 0, "revenue": 0}], "IKOS": [{"ein": "880700142", "name": "IKOS SENIOR LIVING HOUSING DEVELOPMENT FUND CORPORATION", "city": "ASTORIA", "state": "NY", "zip": "11102-2000", "ntee": "L20", "ruling": "202211", "deductibility": "1", "assets": 1, "income": 0, "revenue": 0}], "FYNO": [{"ein": "881506532", "name": "FYNO FOUNDATION INC", "city": "BROOKLYN", "state": "NY", "zip": "11218-6240", "ntee": "T30", "ruling": "202207", "deductibility": "1", "assets": 41120, "income": 65794, "revenue": 65794}], "YGL": [{"ein": "882503778", "name": "YGL QUEENS", "city": "FOREST HILLS", "state": "NY", "zip": "11375-5817", "ntee": "X30", "ruling": "202211", "deductibility": "1", "assets": 0, "income": 0, "revenue": 0}], "RUTHY": [{"ein": "884411665", "name": "ARI AND RUTHY PARNES CHARITABLE FOUNDATION INC", "city": "BROOKLYN", "state": "NY", "zip": "11210-2820", "ntee": "T22", "ruling": "202506", "deductibility": "1", "assets": 795000, "income": 795000, "revenue": 0}], "TEREZ": [{"ein": "900283747", "name": "RICHARD & TEREZ ABATECOLA FOUNDATION INC", "city": "HUDSON", "state": "NY", "zip": "12534-3506", "ntee": "T20", "ruling": "200806", "deductibility": "1", "assets": 2651578, "income": 2884564, "revenue": 0}], "FACT": [{"ein": "900817064", "name": "FACT-FELINE ADVOCATES COMING TOGETHER-INC", "city": "QUEENSBURY", "state": "NY", "zip": "12804-0045", "ntee": "D20", "ruling": "201501", "deductibility": "1", "assets": 5103, "income": 18767, "revenue": 18767}], "CARIBBIANA": [{"ein": "921382160", "name": "CARIBBIANA FOOTBALL CLUB INC", "city": "NEWBURGH", "state": "NY", "zip": "12550-1446", "ntee": "N64", "ruling": "202301", "deductibility": "1", "assets": 0, "income": 0, "revenue": 0}], "GYPSY": [{"ein": "921501967", "name": "GYPSY CANINE SOLUTIONS INC", "city": "HAMBURG", "state": "NY", "zip": "14075-1812", "ntee": "D61", "ruling": "202302", "deductibility": "1", "assets": 0, "income": 0, "revenue": 0}], "ARTEX": [{"ein": "922172254", "name": "AMERICAN FRIENDS OF ARTEX INCORPORATED", "city": "NEW YORK", "state": "NY", "zip": "10021-5437", "ntee": "A20", "ruling": "202305", "deductibility": "1", "assets": 0, "income": 0, "revenue": 0}], "FEEDERS": [{"ein": "922593031", "name": "LIC FERAL FEEDERS AND CAT RESCUE CORP", "city": "LONG IS CITY", "state": "NY", "zip": "11101-5613", "ntee": "D20", "ruling": "202310", "deductibility": "1", "assets": 2879, "income": 7412, "revenue": 0}], "POLYGLOT": [{"ein": "923065053", "name": "POLYGLOT UA", "city": "SYOSSET", "state": "NY", "zip": "11791-4814", "ntee": "B90", "ruling": "202305", "deductibility": "1", "assets": 53698, "income": 17326, "revenue": 0}], "NAMASTRAY": [{"ein": "923261904", "name": "NAMASTRAY KITTEN CLUB INC", "city": "ORANGEBURG", "state": "NY", "zip": "10962-1703", "ntee": "D20", "ruling": "202304", "deductibility": "1", "assets": 0, "income": 0, "revenue": 0}], "CATIO": [{"ein": "931640880", "name": "CATIO CREW INCORPORATED", "city": "KINGS PARK", "state": "NY", "zip": "11754-2501", "ntee": "D99", "ruling": "202310", "deductibility": "1", "assets": 0, "income": 0, "revenue": 0}], "ECCLESIANS": [{"ein": "931912424", "name": "ECCLESIANS INC", "city": "BUFFALO", "state": "NY", "zip": "14216-2724", "ntee": "X22", "ruling": "202309", "deductibility": "1", "assets": 0, "income": 0, "revenue": 0}], "ALLA": [{"ein": "932228949", "name": "TEATRO ALLA SCALA ASSOCIATION OF AMERICA INC", "city": "NEW YORK", "state": "NY", "zip": "10016-4629", "ntee": "A99", "ruling": "202401", "deductibility": "1", "assets": 46788, "income": 122471, "revenue": 122471}], "STEAMPACT": [{"ein": "990597059", "name": "STEAMPACT FOUNDATION INC", "city": "ITHACA", "state": "NY", "zip": "14850-2649", "ntee": "B90", "ruling": "202404", "deductibility": "1", "assets": 0, "income": 0, "revenue": 0}], "LAWYERING": [{"ein": "992595312", "name": "LAWYERING PROJECT INC", "city": "BROOKLYN", "state": "NY", "zip": "11201-4802", "ntee": "R61", "ruling": "202412", "deductibility": "1", "assets": 0, "income": 0, "revenue": 0}], "TGNC": [{"ein": "993978060", "name": "HOPE TGNC LATINX INC", "city": "CORONA", "state": "NY", "zip": "11368-2138", "ntee": "S20", "ruling": "202407", "deductibility": "1", "assets": 0, "income": 0, "revenue": 0}]}